 2013 10 4 0703  8.3 L   6.791 -73.142140.8  RSN 10 0.4 2.2LRSN                1
 GAP=137        1.04       3.4     4.7  6.4 -0.1552E+01  0.8276E+01 -0.1636E+01E
 Epicentro: LOS SANTOS - SANTANDER                                             3
 ACTION:UPD 13-11-25 09:19 OP:ep   STATUS:               ID:20131004070308 L   I
 OLDACT:REG 13-10-04 10:50 OP:nd   STATUS:               ID:20131004065959     3
 2013-10-04-0659-59M.COL___273                                                 6
 STAT SP IPHASW D HRMM SECON CODA AMPLIT PERI AZIMU VELO AIN AR TRES W  DIS CAZ7
 BAR2 SZ EP        7 3 27.55                             171    0.2610 22.4 191 
 BAR2 SZ ES        7 3 42.05                             171   -0.0710 22.4 191 
 BAR2 SZ I         7 3 43.88        91.9 0.22            171           22.4 191 
 BRR  HZ IP     C  7 3 29.43                             151    0.4910 72.0 299 
 BRR  HN ES        7 3 45.55                             151    0.5010 72.0 299 
 BRR  HZ I         7 3 49.57        24.5 0.34            150           72.0 299 
 PAM  SZ EP        7 3 30.36                             150    0.3610 77.9  39 
 PAM  SN ES        7 3 47.10                             150    0.1610 77.9  39 
 PAM  SZ I         7 3 49.76        35.2 0.48            153           77.9  39 
 RUS  HZ EP        7 3 31.36                             143   -0.1110 99.6 176 
 RUS  HN ES        7 3 49.19                             143   -0.3710 99.6 176 
 RUS  HZ I         7 3 50.97        13.7 0.20            147           99.6 176 
 PTB  HZ EP        7 3 34.16                             131   -0.70 9  148 259 
 PTB  HN ES   2    7 3 55.33                             131   -0.27 5  148 259 
 PTB  HZ I         7 3 58.51        13.5 0.30            132            148 259 
 OCA  HZ EP        7 3 36.03                             128   -0.28 9  161 353 
 OCA  HN ES        7 3 57.30                             128   -0.87 9  161 353 
 OCA  HZ I         7 4  3.66        15.5 0.32            130            161 353 
 SPBC HZ EP        7 3 36.42                             128    0.07 9  163 219 
 SPBC HN ES        7 3 58.22                             128   -0.02 9  163 219 
 SPBC HZ I         7 4  3.44        14.9 0.20            131            163 219 
 ZAR  HZ EP        7 3 41.13                             121    0.65 9  205 292 
 ZAR  HN ES        7 4  5.48                             121   -0.12 9  205 292 
 ZAR  HZ I         7 4 12.36        16.5 0.20            123            205 292 
 URE  HZ EP   4    7 3 52.21                             112    3.02 0  285 292 
 URE  HN ES   4    7 4 18.40                             112   -2.70 0  285 292 
 URE  HZ I         7 4 21.16         9.0 0.16            114            285 292 
 GUY2CHZ EP   4    7 3 53.41                             111    1.78 0  301 235 
 GUY2CHN ES   4    7 4 26.74                             111    1.29 0  301 235 
 GUY2CHZ I         7 4 32.99         4.8 0.68                           301 235 
                                                                                
