 2017  9 4 0839 37.6 L   6.760 -73.203146.0  RSN  4 0.4 1.4LRSN                1
 GAP=229        0.81       5.5     6.6  9.0  0.1070E+02  0.2120E+02  0.9228E+01E
 Epicentro: ZAPATOCA - SANTANDER                                               3
 ACTION:UPD 17-10-05 19:09 OP:rebc STATUS:               ID:20170904083937 L   I
 OLDACT:UP  17-09-04 18:25 OP:dnl  STATUS:               ID:20170904083740d    3
 OLDACT:UP  17-09-04 18:24 OP:dnl  STATUS:               ID:20170904083740d    3
 OLDACT:DUP 17-09-04 18:23 OP:dnl  STATUS:               ID:20170904083740d    3
 OLDACT:DUP 17-09-04 18:15 OP:dnl  STATUS:               ID:20170904083739d    3
 OLDACT:UP  17-09-04 18:15 OP:dnl  STATUS:               ID:20170904083738     3
 OLDACT:UP  17-09-04 18:14 OP:dnl  STATUS:               ID:20170904083738     3
 OLDACT:UP  17-09-04 18:13 OP:dnl  STATUS:               ID:20170904083738     3
 OLDACT:REG 17-09-04 12:54 OP:dnl  STATUS:               ID:20170904083738     3
 2017-09-04-0838-00M.COL___408                                                 6
 STAT SP IPHASW D HRMM SECON CODA AMPLIT PERI AZIMU VELO AIN AR TRES W  DIS CAZ7
 BAR2 EZ EP        839 57.49                             172    0.3510 18.7 173 
 BAR2 EZ ES        840 11.96                             172   -0.4510 18.7 173 
 BAR2 EZ I         840 12.97         4.5 0.30            168           18.7 173 
 BRR  HZ EP   2    839 58.12                             153   -0.45 5 68.1 304 
 BRR  HZ I         840 14.35         4.0 0.30            143           68.1 304 
 BRR  HE ES        840 15.33                             153    0.3810 68.1 304 
 SPBC HZ EP   2    840  4.99                             130   -0.40 5  156 218 
 SPBC HN ES        840 27.24                             130    0.14 9  156 218 
 SPBC HZ I         840 29.13         3.0 0.24            123            156 218 
 ZAR  HZ EP   4    840 12.27                             123    2.66 0  200 294 
 ZAR  HN ES        840 34.32                             123   -0.28 9  200 294 
 ZAR  HZ I         840 40.19         2.3 0.40            113            200 294 
                                                                                
