 2013  7 4 0437 58.1 L   6.792 -73.139141.0  RSN 11 0.5 2.1LRSN                1
 GAP= 72        1.30       4.3     4.1  7.8  0.1186E+00 -0.1495E+01 -0.1622E+01E
 Epicentro: LOS SANTOS - SANTANDER                                             3
 ACTION:UPD 13-08-12 10:35 OP:ep   STATUS:               ID:20130704043758 L   I
 OLDACT:UP  13-07-04 12:01 OP:stll STATUS:               ID:20130704042844     3
 OLDACT:REG 13-07-04 08:12 OP:stll STATUS:               ID:20130704042844     3
 2013-07-04-0428-44M.COL___235                                                 6
 STAT SP IPHASW D HRMM SECON CODA AMPLIT PERI AZIMU VELO AIN AR TRES W  DIS CAZ7
 BAR2 SZ EP        438 17.23                             170    0.0910 22.6 192 
 BAR2 SZ ES        438 31.73                             170   -0.2610 22.6 192 
 BAR2 SZ I         438 33.56        17.1 0.18            171           22.6 192 
 GIR2 SZ EP        438 17.39                             166    0.1610 32.3 349 
 BRR  HZ EP        438 19.28                             151    0.4910 72.2 299 
 BRR  HE ES        438 36.06                             151    1.1310 72.2 299 
 BRR  HE I         438 39.78        27.4 0.14            151           72.2 299 
 PAM  SZ EP        438 20.18                             150    0.3610 77.6  39 
 PAM  SN ES        438 37.18                             150    0.4210 77.6  39 
 PAM  SN I         438 38.05        20.6 0.44            152           77.6  39 
 RUS  HZ EP        438 21.37                             143    0.0610 99.7 176 
 RUS  HN ES        438 39.07                             143   -0.3510 99.7 176 
 RUS  HN I         438 40.84        12.0 0.20            146           99.7 176 
 GRA  SZ EP        438 23.03                             136    0.0610  126  17 
 GRA  SZ ES        438 41.91                             136   -0.4610  126  17 
 PTB  HZ EP        438 24.25                             131   -0.48 9  148 259 
 PTB  HN ES        438 44.94                             131   -0.56 9  148 259 
 PTB  HN I         438 49.00        12.6 0.18            132            148 259 
 CAPV BZ EP        438 25.34                             131    0.21 9  150  37 
 TAM  HZ EP        438 25.63                             130    0.32 9  154 105 
 TAM  HN ES        438 46.14                             130   -0.40 9  154 105 
 OCA  HN ES        438 46.83                             128   -1.17 9  161 353 
 OCA  HN I         438 50.58        41.8 0.36            130            161 353 
 ZAR  HE ES        438 55.56                             121    0.07 9  205 292 
                                                                                
