 2012  5 4 0526 11.2 L   6.779 -73.171150.3  RSN  6 0.3 1.8LRSN                1
 GAP=134        0.80       5.6     4.8  9.1  0.2260E+01  0.5672E+01  0.5482E+01E
 Epicentro: LOS SANTOS - SANTANDER                                             3
 ACTION:UP  12-07-05 12:02 OP:pat  STATUS:               ID:20120504052611 L   I
 2012-05-04-0520-00M.COL___189                                                 6
 STAT SP IPHASW D HRMM SECON CODA AMPLIT PERI AZIMU VELO SNR AR TRES W  DIS CAZ7
 BAR2 SZ EP   1    526 31.31                             172     0.0 7   21 184 
 BAR2 SZ I         526 47.40        18.0 0.24                            21 184 
 BRR  HZ EP   1    526 33.07                             154     0.3 7   70 301 
 BRR  HZ I         526 33.33        35.8 0.13                            70 301 
 BRR  HE ES   1    526 50.23                             154     0.6 7   70 301 
 PAM  SZ EP   1    526 34.27                             150     0.1 7   81  40 
 PAM  SN ES   1    526 51.48                             150    -0.5 7   81  40 
 RUS  HZ EP   1    526 35.46                             145     0.2 7   99 174 
 RUS  HE ES   1    526 54.01                             145     0.0 7   99 174 
 RUS  HZ I         526 55.67         4.6 0.53                            99 174 
 PTB  HZ EP   1    526 38.00                             134    -0.3 7  145 260 
 PTB  HN ES   1    526 58.99                             134    -0.4 7  145 260 
 PTB  HZ I         527  0.66         4.2 0.17                           145 260 
 ZAR  HN ES   1    527  9.04                             124    -0.2 6  202 293 
 ZAR  HZ I         527 14.95         5.4 0.34                           202 293 
                                                                                
