 2017  1 4 0421 18.7 L   6.801 -73.155150.6  RSN  8 0.4 1.7LRSN                1
 GAP=135        1.07       4.3     4.5  7.1  0.1603E+00  0.7090E+01  0.8261E+01E
 Epicentro: LOS SANTOS - SANTANDER                                             3
 ACTION:UPD 17-05-22 15:55 OP:jn   STATUS:               ID:20170104042118 L   I
 OLDACT:DUP 17-01-04 14:26 OP:lv   STATUS:               ID:20170104041745d    3
 2017-01-04-0418-00M.COL___369                                                 6
 STAT SP IPHASW D HRMM SECON CODA AMPLIT PERI AZIMU VELO AIN AR TRES W  DIS CAZ7
 BAR2 EZ EP        421 38.65                             171   -0.2610 23.2 187 
 BAR2 EZ ES        421 54.88                             171    0.2110 23.2 187 
 BRR  HZ EP        421 40.61                             154    0.2910 70.2 299 
 BRR  HE ES        421 57.91                             154    0.7310 70.2 299 
 BRR  HZ I         422  4.20        13.4 0.20            152           70.2 299 
 PAM  EZ EP        421 41.53                             151    0.0610 78.0  40 
 PAM  EN ES        421 59.12                             151   -0.1110 78.0  40 
 PAM  EZ I         422  0.88         5.0 0.46            154           78.0  40 
 RUS  HZ EP        421 42.83                             145   -0.1110  101 175 
 RUS  HN ES        422  1.28                             145   -0.5710  101 175 
 RUS  HZ I         422  2.50         5.7 0.26            147            101 175 
 PTB  HZ EP        421 45.52                             133   -0.45 9  147 259 
 PTB  HN ES        422  6.53                             133   -0.71 9  147 259 
 PTB  HZ I         422  8.30         7.5 0.14            133            147 259 
 ZAR  HZ EP   4    421 52.97                             124    1.61 0  203 292 
 ZAR  HE ES        422 16.69                             124   -0.14 9  203 292 
 ZAR  HZ I         422 23.77        11.6 0.30            124            203 292 
 CHI  HZ EP        421 57.01                             118    0.37 8  248 195 
 CHI  HN ES        422 26.96                             118    0.72 8  248 195 
 CHI  HZ I         422 31.91         1.9 0.26            120            248 195 
 GUY2CHZ EP   4    422  4.71                             113    2.27 0  300 235 
 GUY2CHN ES        422 36.94                             113    0.38 7  300 235 
 GUY2CHZ I         422 46.25         3.2 0.74                           300 235 
                                                                                
