 2017  1 4 0843 50.0 L   6.727 -73.151141.7  RSN  6 0.4 0.7LRSN                1
 GAP=139        0.96       6.4     5.2  8.1  0.9425E+01  0.1948E+01 -0.1638E+02E
 Epicentro: JORDAN - SANTANDER                                                 3
 ACTION:UPD 17-05-22 15:55 OP:jn   STATUS:               ID:20170104084350 L   I
 OLDACT:REG 17-01-04 12:57 OP:lv   STATUS:               ID:20170104083747     3
 2017-01-04-0838-00M.COL___360                                                 6
 STAT SP IPHASW D HRMM SECON CODA AMPLIT PERI AZIMU VELO AIN AR TRES W  DIS CAZ7
 BAR2 EZ EP        844  9.11                             174    0.0710 15.3 193 
 BAR2 EZ ES        844 23.72                             174   -0.1310 15.3 193 
 BRR  HZ EP        844 10.92                             151   -0.0410 74.9 304 
 BRR  HE ES        844 27.85                             151    0.5710 74.9 304 
 PAM  EZ EP        844 11.92                             148   -0.3210 84.2  36 
 PAM  EZ I         844 31.38         1.2 0.60            128           84.2  36 
 RUS  HN ES        844 30.53                             145   -0.0510 92.5 175 
 RUS  HZ I         844 32.95         0.7 0.22            138           92.5 175 
 PTB  HZ EP        844 17.17                             131    0.68 9  146 262 
 PTB  HN ES        844 36.69                             131   -0.44 9  146 262 
 ZAR  HN ES        844 47.37                             121   -0.43 8  207 294 
                                                                                
