 2017  3 4 0535 13.8 L   6.807 -73.153147.5  RSN 14 0.4 1.7LRSN                1
 GAP=118        1.19       3.8     4.7  6.1 -0.1801E+01  0.6821E+01  0.2354E+01E
 Epicentro: LOS SANTOS - SANTANDER                                             3
 ACTION:UPD 17-05-25 18:35 OP:jn   STATUS:               ID:20170304053513 L   I
 OLDACT:DUP 17-03-04 16:05 OP:lv   STATUS:               ID:20170304052550d    3
 2017-03-04-0528-00M.COL___397                                                 6
 STAT SP IPHASW D HRMM SECON CODA AMPLIT PERI AZIMU VELO AIN AR TRES W  DIS CAZ7
 BAR2 EZ EP        535 33.49                             170   -0.1310 24.0 188 
 BAR2 EZ ES        535 48.85                             170   -0.2510 24.0 188 
 BRR  HZ EP        535 35.41                             153    0.3610 70.2 298 
 BRR  HN ES        535 52.47                             153    0.8310 70.2 298 
 BRR  HZ I         535 53.58         7.6 0.24            145           70.2 298 
 PAM  EZ EP        535 36.31                             152    0.1510 77.3  40 
 PAM  EN ES        535 53.24                             152   -0.3910 77.3  40 
 PAM  EZ I         535 55.91         5.6 0.28            148           77.3  40 
 RUS  HZ EP        535 37.56                             144   -0.1910  101 176 
 RUS  HN ES        535 56.45                             144   -0.0010  101 176 
 RUS  HZ I         535 57.38         4.6 0.19            138            101 176 
 PTB  HZ EP        535 40.29                             132   -0.53 9  147 258 
 PTB  HN ES        536  1.30                             132   -0.62 9  147 258 
 PTB  HZ I         536  3.66         5.7 0.16            125            147 258 
 SPBC HZ EP        535 42.53                             129    0.12 9  163 219 
 SPBC HN ES        536  5.09                             129    0.34 9  163 219 
 SPBC HZ I         536  7.31        11.0 0.29            122            163 219 
 ZAR  HZ EP        535 46.37                             123    0.15 9  203 292 
 ZAR  HN ES        536 11.96                             123    0.42 9  203 292 
 ZAR  HZ I         536 17.91         5.6 0.15            116            203 292 
 NOR  HZ EP        535 49.86                             119    0.28 8  235 234 
 NOR  HN ES        536 16.55                             119   -0.96 8  235 234 
 NOR  HZ I         536 22.10         5.1 0.14            113            235 234 
 CHI  HZ EP        535 51.94                             117    0.32 8  249 195 
 CHI  HN ES        536 21.25                             117    0.11 8  249 195 
 CHI  HZ I         536 31.09         2.1 0.49            112            249 195 
 ROSC BZ EP   9    535 53.68                             117    1.67 0  253 211 
 ROSC BN ES        536 24.88                                    1.37 8  253 211 
 ROSC BZ I         536 28.16         6.3 0.45            111            253 211 
 HEL  HZ EP   4    535 55.80                             115    1.79 0  272 256 
 HEL  HZ I         536 32.82         2.9 0.22            109            272 256 
 PTGC HZ EP   9    535 56.54                             112   -1.27 0  310 159 
 PTGC HN ES        536 30.26                                   -0.64 7  310 159 
 CBOC HZ EP   4    536  2.19                             110    1.49 0  333 252 
 CBOC HN ES   4    536 36.77                             110   -0.53 0  333 252 
 PRA  HZ EP        536  7.76                             107    0.38 6  392 209 
 PRA  HN ES        536 49.67                             107    0.47 6  392 209 
 PRA  HZ I         536 53.74         1.7 0.24            102            392 209 
 SJC  HZ EP        536  8.41                             106   -0.85 6  408 327 
 SJC  HN ES   4    536 50.69                             106   -1.86 0  408 327 
                                                                                
