 2017 11 4 0638  4.1 L   6.347 -73.392119.7  RSN  5 0.3 1.0LRSN                1
 GAP=105        0.88       4.3     4.7  9.3  0.1393E+01  0.1536E+02  0.8378E+01E
 Epicentro: CHIMA - SANTANDER                                                  3
 ACTION:UPD 17-12-12 19:51 OP:rebc STATUS:               ID:20171104063804 L   I
 OLDACT:REG 17-11-04 13:50 OP:dnl  STATUS:               ID:20171104062738     3
 2017-11-04-0628-00M.COL___414                                                 6
 STAT SP IPHASW D HRMM SECON CODA AMPLIT PERI AZIMU VELO AIN AR TRES W  DIS CAZ7
 BAR2 EZ EP        638 20.71                             162   -0.2510 35.7  41 
 BAR2 EZ ES        638 33.58                             162   -0.5510 35.7  41 
 BAR2 EZ I         638 35.54         5.3 0.12            164           35.7  41 
 RUS  HZ EP   2    638 22.61                             152    0.08 5 60.8 146 
 RUS  HN ES        638 37.38                             152    0.4510 60.8 146 
 RUS  HZ I         638 39.88         1.2 0.38            161           60.8 146 
 BRR  HE ES        638 39.91                             140    0.5110 91.2 337 
 BRR  HZ I         638 48.54         3.0 0.48            140           91.2 337 
 SPBC HZ EP        638 25.45                             135    0.0510  108 224 
 SPBC HE ES        638 41.90                             135   -0.1310  108 224 
 SPBC HZ I         638 45.55         1.8 0.10            139            108 224 
 PTB  HZ EP   4    638 24.50                             132   -1.86 0  120 280 
 PTB  HE ES        638 43.62                             132   -0.1210  120 280 
 PTB  HZ I         638 50.02         1.8 0.48            133            120 280 
                                                                                
