 2010  7 4 0236 18.0 L   6.789 -73.059150.1  RSN 24 0.4 3.5LRSN                1
 GAP=133        0.82       2.8     4.2  4.9 -0.6939E+01  0.8471E+00  0.3124E+01E
 Epicentro: LOS SANTOS - SANTANDER                                             3
 ACTION:UPD 10-12-01 15:14 OP:pat  STATUS:               ID:20100704023618 L   I
 2010-07-04-0233-59S.COL___118                                                 6
 STAT SP IPHASW D HRMM SECON CODA AMPLIT PERI AZIMU VELO AIN AR TRES W  DIS CAZ7
 BAR2 SZ IP        236 38.15                             170    -0.110   26 212 
 BAR2 SZ ES   2    236 53.34                             170    -0.6 5   26 212 
 BRR  HZ IP     D  236 40.02                             150    -0.110   80 296 
 BRR  HZ I         236 41.62       666.1 0.11                            80 296 
 BRR  HE ES   1    236 57.60                             150     0.2 7   80 296 
 RUS  HZ IP     D  236 41.98                             145    -0.110   99 182 
 RUS  HZ I         236 43.49       248.0 0.56                            99 182 
 RUS  HN ES   1    237  0.89                             145     0.0 7   99 182 
 BRI  SZ EP        236 42.63                             143     0.510  107  16 
 BRI  SZ ES   1    237  1.66                             143     0.6 7  107  16 
 GUE  SZ EP        236 43.07                             140     0.010  116   7 
 GRA  SZ EP        236 43.89                             138     0.410  124  13 
 GRA  SZ ES   1    237  3.51                             138     0.1 7  124  13 
 OCA  SZ EP   1    236 46.57                             130    -0.3 7  163 350 
 OCA  SZ ES   1    237  8.74                             130    -0.7 7  163 350 
 OCA  SZ I         237 18.89       335.5 0.38                           163 350 
 CHI  HZ EP   1    236 56.06                             118    -0.1 6  250 197 
 CHI  HE ES   1    237 25.27                             118    -0.6 6  250 197 
 CHI  HZ I         237 34.12       166.2 0.54                           250 197 
 ROSC BZ EP        236 57.75                             117     0.9 8  257 213 
 ROSC BE ES   1    237 26.57                             117    -0.5 6  257 213 
 ROSC BZ I         237 32.58       294.1 0.37                           257 213 
 CVER SZ EP   1    236 59.32                             115     0.4 6  275 204 
 HEL  HZ EP   1    236 59.49                             115     0.0 6  281 257 
 HEL  HE ES   2    237 31.86                             115     0.1 4  281 257 
 HEL  HZ I         237 38.88       238.2 0.29                           281 257 
 GUY  HZ EP   1    237  2.51                             113    -0.1 5  309 236 
 GUY  HN ES   2    237 38.14                             113     0.7 4  309 236 
 RREF HZ EP   1    237  5.09                             111     0.0 5  328 231 
 RREF HE ES   1    237 41.67                             111    -0.2 5  328 231 
 RREF HZ I         237 50.00       262.1 0.37                           328 231 
 DBB  SZ EP        237  5.92                             110    -0.9 6  349 274 
 TOL  SZ EP        237  7.41                             110     0.3 6  350 226 
 TOL  SZ ES   2    237 45.32                             110    -0.1 3  350 226 
 SDV  BZ IP        237  7.27                             109    -0.2 6  354  49 
 SDV  BZ I         237  8.23        88.9 0.26                           354  49 
 SDV  BN ES        237 45.32                             109    -0.7 6  354  49 
 ANIL HZ EP   1    237  8.73                             109     0.1 5  363 226 
 ANIL HN ES   1    237 48.30                             109     0.1 5  363 226 
 PRA  HZ EP   1    237 11.50                             107    -0.6 4  396 211 
 PRA  HE ES   1    237 54.18                             107    -0.2 4  396 211 
 PRA  HZ I         237 59.90       218.1 0.38                           396 211 
 HORQ SZ EP        237 30.19                             102     0.9 4  538 227 
 MARA HZ EP   2    237 29.04                             102    -0.7 2  542 216 
 MARA HE ES   2    238 25.80                             102     0.2 2  542 216 
 MARA HZ I         238 31.92        22.4 0.44                           542 216 
 PCON HZ EP   1    237 39.53                             100     0.5 2  617 217 
 PCON HZ I         237 43.57        13.4 0.32                           617 217 
 POP2 HZ EP   2    237 38.01                             100    -0.7 1  618 221 
 POP2 HZ I         237 41.55        16.8 0.27                           618 221 
 SOTA HZ EP   2    237 43.12                              99     0.4 1  648 218 
 GCAL SZ EP   2    237 59.13                              97     0.2 0  784 218 
 GCAL SZ I         238  1.39        21.0 0.32                           784 218 
                                                                                
