 2014  1 4 0036 32.2 L   6.804 -73.139148.3  RSN  8 0.5 1.7LRSN                1
 GAP=137        1.26       4.0     6.1  7.3 -0.2417E+01  0.7670E+01  0.7912E+00E
 Epicentro: LOS SANTOS - SANTANDER                                             3
 ACTION:UPD 14-03-13 09:51 OP:ep   STATUS:               ID:20140104003632 L   I
 OLDACT:DUP 14-01-04 09:31 OP:stll STATUS:               ID:20140104002821d    3
 2014-01-04-0028-20M.COL___243                                                 6
 STAT SP IPHASW D HRMM SECON CODA AMPLIT PERI AZIMU VELO AIN AR TRES W  DIS CAZ7
 BAR2 SZ EP        036 52.36                             170    0.2110 24.0 192 
 BAR2 SZ ES        037  7.50                             170   -0.2110 24.0 192 
 BAR2 SZ I         037  8.99        23.9 0.26            169           24.0 192 
 BRR  HZ EP        036 54.10                             153    0.4510 71.7 298 
 BRR  HN ES        037 11.11                             153    0.7310 71.7 298 
 PAM  SZ EP        036 55.10                             151    0.4610 76.5  39 
 PAM  SZ I         036 55.29        17.1 0.24            154           76.5  39 
 PAM  SN ES        037 12.07                             151   -0.0610 76.5  39 
 RUS  HZ EP        036 56.22                             144   -0.0110  101 177 
 RUS  HZ I         036 57.25         4.1 0.22            144            101 177 
 RUS  HN ES        037 14.19                             144   -0.7910  101 177 
 PTB  HZ EP        036 59.53                             132    0.07 9  149 259 
 PTB  HN ES        037 20.02                             132   -0.69 9  149 259 
 PTB  HZ I         037 27.67         8.4 0.42            131            149 259 
 SPBC HZ EP        037  1.29                             129    0.31 9  164 219 
 SPBC HN ES        037 24.16                             129    0.74 9  164 219 
 SML  HZ EP        037  8.13                             118   -0.83 8  244 335 
 SML  HN ES        037 36.98                             118   -0.65 8  244 335 
 CHI  HZ EP        037 10.31                             117    0.19 8  249 195 
 CHI  HZ I         037 12.50         1.7 0.12            118            249 195 
 CHI  HN ES        037 39.21                             117   -0.48 8  249 195 
                                                                                
