 2017 12 4 0313  2.4 L   6.855 -73.120143.4  RSN  9 0.4 1.7LRSN                1
 GAP=112        1.12       3.3     4.5  6.8  0.2415E+01  0.7845E+01  0.3059E+01E
 Epicentro: LOS SANTOS - SANTANDER                                             3
 ACTION:UPD 18-01-04 13:16 OP:rebc STATUS:               ID:20171204031302 L   I
 OLDACT:UP  17-12-04 16:12 OP:leo  STATUS:               ID:20171204030743     3
 OLDACT:REG 17-12-04 13:32 OP:leo  STATUS:               ID:20171204030743     3
 2017-12-04-0308-00M.COL___489                                                 6
 STAT SP IPHASW D HRMM SECON CODA AMPLIT PERI AZIMU VELO AIN AR TRES W  DIS CAZ7
 BAR2 EZ EP        313 21.60                             168   -0.2710 29.9 193 
 BAR2 EZ ES        313 37.72                             168    0.6510 29.9 193 
 BAR2 EZ I         313 38.61        21.8 0.16            169           29.9 193 
 PAM  EZ EP        313 23.87                             153   -0.0810 70.9  41 
 PAM  EE ES        313 40.01                             153   -0.7710 70.9  41 
 PAM  EZ I         313 44.38        11.1 0.70            154           70.9  41 
 RUS  HZ EP        313 26.46                             142    0.1310  107 178 
 RUS  HN ES        313 45.03                             142    0.0110  107 178 
 RUS  HZ I         313 45.65         5.0 0.54            144            107 178 
 PTB  HZ EP        313 28.80                             131   -0.72 9  152 257 
 PTB  HN ES        313 50.04                             131   -0.66 9  152 257 
 PTB  HZ I         313 51.67         3.9 0.36            132            152 257 
 OCA  HZ EP        313 29.86                             130   -0.10 9  155 352 
 OCA  HN ES        313 52.10                             130    0.62 9  155 352 
 OCA  HZ I         313 55.96        17.7 0.42            131            155 352 
 SPBC HZ EP        313 31.30                             127   -0.02 9  170 218 
 YPLC HZ EP        313 32.53                             125    0.13 9  181 153 
 YPLC HE ES        313 56.07                             125    0.25 9  181 153 
 YPLC HZ I         313 59.08         7.0 0.38            128            181 153 
 ZAR  HZ EP        313 35.45                             122    0.74 9  204 290 
 ZAR  HN ES        314  0.27                             122    0.34 9  204 290 
 ZAR  HZ I         314  8.30         5.1 0.30            123            204 290 
 CHI  HZ EP        313 40.43                             116   -0.24 8  255 195 
 CHI  HN ES        314 10.79                             116    0.25 8  255 195 
 CHI  HZ I         314 12.68         1.9 0.36            118            255 195 
                                                                                
