 2014  4 4 0716 37.6 L   6.582 -73.548104.7  RSN 15 0.5 2.1LRSN                1
 GAP= 63        1.06       3.1     3.0  7.7 -0.2036E+01  0.1964E+01 -0.4336E+01E
 Epicentro: EL CARMEN DE CHUCURI - SANTANDER                                   3
 ACTION:UPD 14-05-13 23:06 OP:nd   STATUS:               ID:20140404071637 L   I
 OLDACT:UP  14-04-04 16:30 OP:cam  STATUS:               ID:20140404070814d    3
 OLDACT:DUP 14-04-04 16:16 OP:cam  STATUS:               ID:20140404070814d    3
 OLDACT:REG 14-04-04 13:40 OP:cam  STATUS:               ID:20140404070813     3
 2014-04-04-0708-13M.COL___255                                                 6
 STAT SP IPHASW D HRMM SECON CODA AMPLIT PERI AZIMU VELO AIN AR TRES W  DIS CAZ7
 RUS  HZ EP        716 56.67                             135   -0.1610 92.0 146 
 RUS  HE ES   1    717 12.37                             135    0.54 7 92.0 146 
 RUS  HZ I         717 13.64        23.1 0.38            143           92.0 146 
 PTB  HZ IP     D  716 56.32                             132   -0.6110  101 267 
 PTB  HN ES        717 11.64                             132   -0.3710  101 267 
 PTB  HZ I         717 15.90        34.1 0.22            136            101 267 
 SPBC HZ EP        716 58.45                             127   -0.2210  118 209 
 SPBC HN ES        717 14.76                             127   -0.3510  118 209 
 SPBC HZ I         717 20.39        37.9 0.50            133            118 209 
 PAM  SZ EP   1    716 59.95                             126    0.01 7  126  48 
 PAM  SN ES   1    717 17.62                             126    0.24 7  126  48 
 PAM  SZ I         717 19.55         9.9 0.32            132            126  48 
 ZAR  HZ EP        717  5.24                             115    0.60 9  176 305 
 ZAR  HE ES   4    717 28.06                             115    2.32 0  176 305 
 ZAR  HZ I         717 30.10        35.2 0.44            120            176 305 
 NOR  HZ EP   1    717  5.27                             114   -0.35 7  185 232 
 NOR  HN ES        717 28.11                             114    0.63 9  185 232 
 NOR  HZ I         717 30.59        22.2 0.16            119            185 232 
 OCA  HZ EP   1    717  5.37                             114   -0.41 7  185   8 
 OCA  HN ES        717 28.52                             114    0.75 9  185   8 
 OCA  HZ I         717 34.62        14.8 0.20            119            185   8 
 TAM  HZ EP        717  6.26                             112   -0.50 9  195  95 
 CHI  HZ EP        717  9.84                             110    0.12 8  217 185 
 CHI  HN ES   4    717 33.10                             110   -1.67 0  217 185 
 CHI  HZ I         717 39.85         3.6 0.36            115            217 185 
 HEL  HZ EP        717 11.05                             109    0.65 8  223 259 
 HEL  HE ES   1    717 35.86                             109   -0.14 6  223 259 
 HEL  HZ I         717 43.80        11.9 0.26            114            223 259 
 GUY2CHZ EP        717 14.43                             107    0.68 8  251 233 
 GUY2CHN ES   1    717 42.03                             107    0.08 6  251 233 
 GUY2CHZ I         717 51.76        11.1 0.36                           251 233 
 URE  HZ EP        717 13.08                             106   -0.49 8  255 301 
 URE  HN ES        717 41.12                             106   -0.52 8  255 301 
 URE  HZ I         717 44.80        12.1 0.38            110            255 301 
 RREF HZ EP   1    717 17.20                             105    0.74 6  273 227 
 CBOC HZ EP   4    717 18.72                             104    1.47 0  284 254 
 CBOC HN ES   4    717 49.60                             104    1.42 0  284 254 
 CBOC HZ I         717 52.58         4.3 0.36            108            284 254 
 SJC  HZ EP   4    717 30.42                              97   -1.59 0  408 334 
 SDV  BZ EP   1    717 31.57                              97   -0.83 4  410  52 
                                                                                
