 2015 10 4 0436 37.0 L   6.816 -73.137144.1  RSN 23 0.4 2.7LRSN                1
 GAP=126        0.91       1.9     3.1  3.9 -0.1455E+01  0.3378E+01  0.3008E+00E
 Epicentro: LOS SANTOS - SANTANDER                                             3
 ACTION:UPD 15-12-22 20:37 OP:cam  STATUS:               ID:20151004043637 L   I
 OLDACT:REG 15-10-04 12:26 OP:drio STATUS:               ID:20151004042747     3
 2015-10-04-0427-47M.COL___349                                                 6
 STAT SP IPHASW D HRMM SECON CODA AMPLIT PERI AZIMU VELO AIN AR TRES W  DIS CAZ7
 BAR2 EZ EP        436 56.54                             170    0.0610 25.2 192 
 BAR2 EZ ES        437 11.16                             170   -0.5010 25.2 192 
 BAR2 EZ I         437 12.76       120.9 0.22            168           25.2 192 
 BRR  HZ EP     C  436 58.36                             152    0.3810 71.3 297 
 BRR  HN ES        437 14.65                             152    0.3110 71.3 297 
 BRR  HZ I         437 18.66        79.5 0.26            148           71.3 297 
 PAM  EZ EP        436 59.51                             151    0.5810 75.4  40 
 PAM  EN ES        437 16.57                             151    0.5510 75.4  40 
 PAM  EZ I         437 17.32        53.0 0.22            155           75.4  40 
 RUS  HZ EP        437  0.59                             143   -0.1210  102 177 
 RUS  HE ES        437 19.49                             143    0.2810  102 177 
 RUS  HZ I         437 22.06        35.4 0.46            145            102 177 
 OCA  HZ EP        437  4.64                             130   -0.40 9  159 353 
 OCA  HE ES        437 26.70                             130   -0.20 9  159 353 
 OCA  HZ I         437 35.04       112.8 0.24            130            159 353 
 SPBC HZ EP        437  5.37                             128   -0.20 9  165 219 
 SPBC HN ES        437 27.51                             128   -0.33 9  165 219 
 SPBC HZ I         437 29.47        66.5 0.28            128            165 219 
 ZAR  HZ EP        437  9.51                             122    0.14 9  204 292 
 ZAR  HN ES        437 34.39                             122   -0.23 9  204 292 
 ZAR  HZ I         437 40.81        53.0 0.32            121            204 292 
 NOR  HZ EP        437 12.72                             118   -0.11 8  237 234 
 NOR  HE ES        437 40.28                             118   -0.50 8  237 234 
 NOR  HZ I         437 50.24        27.2 0.20            118            237 234 
 SML  HZ EP        437 12.84                             117   -0.57 8  243 335 
 SML  HN ES        437 41.55                             117   -0.26 8  243 335 
 SML  HZ I         437 45.53        59.5 0.10            118            243 335 
 CHI  HZ EP        437 14.82                             117   -0.00 8  251 195 
 CHI  HN ES        437 43.68                             117   -0.64 8  251 195 
 CHI  HZ I         437 49.17        33.9 0.38            118            251 195 
 ROSC BZ EP   4    437 16.82                             116    1.57 0  255 211 
 ROSC BE ES   4    437 46.62                             116    1.54 0  255 211 
 ROSC BZ I         437 51.15        83.6 0.40            117            255 211 
 HEL  HZ EP        437 18.16                             114    0.87 8  273 256 
 HEL  HE ES        437 48.80                             114    0.09 8  273 256 
 HEL  HZ I         437 55.12        26.3 0.26            114            273 256 
 URE  HZ EP   4    437 16.83                             113   -1.20 0  284 292 
 URE  HE ES   4    437 46.27                             113   -3.75 0  284 292 
 URE  HZ I         437 58.78        39.0 0.18            113            284 292 
 GUY2CHZ EP        437 20.99                             112    0.25 7  303 235 
 GUY2CHN ES        437 54.95                             112    0.09 7  303 235 
 GUY2CHZ I         438  2.96        27.5 0.58                           303 235 
 LL2C HZ EP        437 20.59                             112    0.26 7  305 354 
 LL2C HN ES        437 53.69                             112   -0.43 7  305 354 
 VIL  SZ EP        437 20.26                             112   -0.30 7  305 192 
 VIL  SN ES        437 54.13                             112   -0.41 7  305 192 
 PTGC HZ EP   4    437 19.79                             111   -1.14 0  310 159 
 PTGC HN ES   4    437 53.28                             111   -1.91 0  310 159 
 ELA  HZ EP        437 24.79                             110    0.79 7  331 229 
 ELA  HN ES        438  0.56                             110   -0.10 7  331 229 
 ELA  HZ I         438  9.26        19.3 0.64            111            331 229 
 CBOC HZ EP        437 24.31                             109    0.29 7  335 252 
 CBOC HN ES   4    437 59.15                             109   -1.54 0  335 252 
 CBOC HZ I         438  6.43         7.4 0.28            110            335 252 
 DBB  SZ EP        437 24.06                             109   -0.46 7  340 274 
 DBB  SZ ES   4    438  0.15                             109   -1.42 0  340 274 
 DBB  SZ I         438  2.09        63.5 0.28            109            340 274 
 SDV  BZ I         438  6.62         6.3 0.30            110            359  50 
 ANIL HZ EP        437 27.49                             108    0.52 6  359 224 
 ANIL HN ES   4    438  7.84                             108    1.90 0  359 224 
 ANIL HZ I         438 10.96        66.7 0.28            109            359 224 
 SDV  BZ EP        437 26.28                             108   -0.49 6  359  50 
 SDV  BE ES   4    438  3.32                             108   -2.26 0  359  50 
 ORTC HZ EP        437 30.93                             106   -0.17 6  397 216 
 ORTC HN ES        438 14.22                             106    0.93 6  397 216 
 ORTC HZ I         438 20.41        13.8 0.30            107            397 216 
 SJC  HZ EP   4    437 30.82                             105   -1.59 0  408 327 
 SJC  HN ES   4    438 11.26                             105   -4.36 0  408 327 
 SJC  HZ I         438 26.27         8.1 0.74            106            408 327 
                                                                                
