 2015  3 4 0240 27.3 L   6.775 -73.099144.3  RSN  4 0.4 1.2LRSN                1
 GAP=240        0.98       6.5     9.9  9.4  0.1660E+02 -0.6540E+01  0.2283E+02E
 Epicentro: LOS SANTOS - SANTANDER                                             3
 ACTION:UPD 15-04-30 16:22 OP:nd   STATUS:               ID:20150304024027 L   I
 OLDACT:REG 15-03-04 12:30 OP:spq  STATUS:               ID:20150304023737     3
 2015-03-04-0237-37M.COL___287                                                 6
 STAT SP IPHASW D HRMM SECON CODA AMPLIT PERI AZIMU VELO AIN AR TRES W  DIS CAZ7
 BRR  HN ES        241  5.58                             150    0.2810 77.1 299 
 RUS  HZ EP        240 50.78                             144    0.0710 97.5 179 
 RUS  HE ES        241  8.68                             144   -0.2810 97.5 179 
 RUS  HZ I         241 10.66         1.3 0.36            140           97.5 179 
 SPBC HZ EP        240 55.70                             128   -0.12 9  164 221 
 SPBC HE ES        241 17.56                             128   -0.48 9  164 221 
 SPBC HZ I         241 23.87         3.6 0.12            125            164 221 
 CHI  HZ EP        241  4.53                             117   -0.26 8  247 196 
 CHI  HN ES        241 34.96                             117    0.93 8  247 196 
 CHI  HZ I         241 40.40         1.1 0.52            115            247 196 
                                                                                
