 2011  6 4 0456 34.3 L   6.779 -73.021133.2  RSN  5 0.2 1.3LRSN                1
 GAP=154        0.43       3.4     5.7  6.0 -0.4233E+01 -0.8162E-02 -0.9931E+00E
 Epicentro: CEPITA - SANTANDER                                                 3
 ACTION:UP  11-07-14 19:03 OP:ep   STATUS:               ID:20110604045634 L   I
 2011-06-04-0453-07S.COL___132                                                 6
 STAT SP IPHASW D HRMM SECON CODA AMPLIT PERI AZIMU VELO SNR AR TRES W  DIS CAZ7
 BAR2 SZ EP   1    456 52.50                             168     0.0 7   27 221 
 BAR2 SZ ES   2    457  6.92                             168     0.2 5   27 221 
 BAR2 SZ I         457  9.53         5.9 0.58                            27 221 
 PAM  SZ EP   2    456 55.23                             150     0.4 5   71  30 
 PAM  SN ES   2    457 10.59                             150    -0.2 5   71  30 
 BRR  HZ EP   1    456 54.73                             146    -0.2 7   85 295 
 BRR  HN ES   2    457 11.32                             146     0.2 5   85 295 
 BRR  HZ I         457 14.37        11.4 0.28                            85 295 
 RUS  HZ EP   2    456 56.63                             142     0.0 5   98 184 
 RUS  HN ES   2    457 14.00                             142    -0.1 5   98 184 
 RUS  HZ I         457 16.19         1.8 0.23                            98 184 
 GRA  SZ EP   2    456 58.59                             134     0.2 5  125  11 
 GRA  SZ ES   2    457 16.95                             134    -0.1 5  125  11 
 GRA  SZ I         457 20.30         2.4 0.25                           125  11 
                                                                                
