 2014  5 4 0026 31.0 L   6.804 -73.154141.4  RSN 14 0.4 2.3LRSN                1
 GAP= 70        0.97       3.0     3.2  5.9 -0.9371E+00  0.4662E+01  0.8668E+00E
 Epicentro: LOS SANTOS - SANTANDER                                             3
 OLDACT:REG 14-05-04 12:37 OP:mh   STATUS:               ID:20140504002000     3
 ACTION:UPD 15-03-16 16:55 OP:nd   STATUS:               ID:20140504002631 L   I
 OLDACT:UP  14-05-04 13:36 OP:mh   STATUS:               ID:20140504002000     3
 2014-05-04-0020-00M.COL___273                                                 6
 STAT SP IPHASW D HRMM SECON CODA AMPLIT PERI AZIMU VELO AIN AR TRES W  DIS CAZ7
 BRR  HZ IP     C  026 51.94                             152    0.3610 70.2 299 
 BRR  HN ES   1    027  7.63                             152   -0.03 7 70.2 299 
 BRR  HZ I         027  9.43        35.0 0.14            147           70.2 299 
 PAM  SZ EP     D  026 52.94                             150    0.2110 77.7  40 
 PAM  SN ES        027  9.79                             150    0.0810 77.7  40 
 PAM  HZ I         027 12.09        29.4 0.60            152           77.7  40 
 RUS  HZ EP        026 54.18                             143   -0.1410  101 176 
 RUS  HN ES        027 12.79                             143    0.2510  101 176 
 RUS  HZ I         027 13.42        26.1 0.20            144            101 176 
 PTB  HZ EP        026 56.63                             131   -0.87 9  147 259 
 PTB  HN ES   1    027 17.89                             131   -0.31 7  147 259 
 PTB  HZ I         027 23.18        23.4 0.26            129            147 259 
 TAM  HZ IP     D  026 58.45                             129    0.06 9  156 105 
 TAM  HN ES   4    027 15.66                             129   -4.13 0  156 105 
 SPBC HZ EP        026 58.95                             128   -0.15 9  163 219 
 SPBC HN ES        027 20.84                             128   -0.21 9  163 219 
 SPBC HZ I         027 26.05        29.1 0.20            127            163 219 
 ZAR  HZ EP        027  3.56                             121    0.55 9  203 292 
 ZAR  HN ES        027 28.31                             121    0.29 9  203 292 
 ZAR  HZ I         027 31.31        15.7 0.10            120            203 292 
 NOR  HZ EP        027  5.94                             118   -0.44 8  234 234 
 NOR  HN ES        027 34.02                             118    0.01 8  234 234 
 NOR  HZ I         027 38.86        16.5 0.32            117            234 234 
 SML  HZ EP        027  6.78                             117   -0.48 8  243 335 
 SML  HN ES   1    027 34.59                             117   -0.98 6  243 335 
 SML  HZ I         027 39.35        19.9 0.08            116            243 335 
 CHI  HZ EP        027  8.54                             116    0.11 8  249 195 
 CHI  HN ES        027 37.29                             116   -0.38 8  249 195 
 CHI  HZ I         027 42.87         6.9 0.30            116            249 195 
 ROSC BN ES   4    027 40.54                             116    2.17 0  253 211 
 HEL  HZ EP        027 11.98                             114    1.12 8  271 256 
 HEL  HN ES        027 42.18                             114    0.19 8  271 256 
 HEL  HZ I         027 49.04         8.9 0.32            113            271 256 
 URE  HZ EP   4    027 10.57                             113   -1.13 0  283 292 
 URE  HN ES   4    027 41.52                             113   -1.96 0  283 292 
 URE  HZ I         027 44.13        13.7 0.14            112            283 292 
 PTGC HN ES   4    027 45.35                             111   -3.48 0  309 159 
 CBOC HZ EP        027 18.08                             109    0.47 7  333 252 
 CBOC HN ES   1    027 53.74                             109   -0.25 5  333 252 
 CBOC HZ I         028 13.01         4.7 3.72            108            333 252 
 SJC  HZ EP   4    027 24.78                             105   -1.49 0  408 327 
 SJC  HN ES   4    028  4.92                             105   -4.50 0  408 327 
 SJC  HZ I         028 31.36         8.4 2.26            105            408 327 
                                                                                
