 2014  8 4 0246 28.4 L   6.772 -73.128144.5  RSN  9 0.4 1.7LRSN                1
 GAP=140        1.13       3.7     5.3  6.7 -0.5015E+01  0.6395E+01  0.6064E+01E
 Epicentro: LOS SANTOS - SANTANDER                                             3
 ACTION:UPD 14-09-15 21:46 OP:nd   STATUS:               ID:20140804024628 L   I
 OLDACT:DUP 14-08-04 13:34 OP:carl STATUS:               ID:20140804023806d    3
 2014-08-04-0238-05M.COL___254                                                 6
 STAT SP IPHASW D HRMM SECON CODA AMPLIT PERI AZIMU VELO AIN AR TRES W  DIS CAZ7
 BAR2 SZ EP        246 47.87                             171   -0.0010 20.7 197 
 BAR2 SZ ES        247  2.95                             171   -0.0810 20.7 197 
 BAR2 SZ I         247  4.39        16.3 0.14            169           20.7 197 
 BRR  HZ EP        246 49.80                             151    0.1610 74.4 300 
 BRR  HN ES        247  7.17                             151    0.9910 74.4 300 
 BRR  HZ I         247 11.26         8.9 0.30            150           74.4 300 
 PAM  SZ EP        246 50.87                             150    0.2710 78.6  37 
 PAM  SN ES        247  8.03                             150    0.1510 78.6  37 
 PAM  SZ I         247 10.13         4.9 0.48            155           78.6  37 
 RUS  HZ EP        246 51.83                             144   -0.0110 97.3 177 
 RUS  HE ES        247  9.44                             144   -0.6410 97.3 177 
 RUS  HZ I         247 12.15         5.3 0.22            145           97.3 177 
 PTB  HZ EP        246 54.76                             131   -0.67 9  149 260 
 PTB  HN ES        247 15.79                             131   -0.69 9  149 260 
 PTB  HZ I         247 18.76         7.5 0.10            131            149 260 
 SPBC HZ EP        246 56.75                             129    0.02 9  162 220 
 SPBC HN ES        247 18.88                             129    0.08 9  162 220 
 SPBC HZ I         247 26.00        12.9 0.46            129            162 220 
 OCA  HN ES        247 18.65                             129   -0.58 9  164 353 
 OCA  HZ I         247 22.62         6.1 0.38            131            164 353 
 CHI  HZ EP        247  5.84                             117    0.04 8  246 196 
 CHI  HN ES        247 35.41                             117    0.47 8  246 196 
 CHI  HZ I         247 42.90         2.8 0.36            118            246 196 
 RREF HZ EP        247 14.89                             111    0.42 7  321 230 
 RREF HN ES        247 50.80                             111    0.44 7  321 230 
 RREF HZ I         247 58.61         4.0 0.26            112            321 230 
                                                                                
