 2016 12 4 0527 21.1 L   6.301 -73.658104.4  RSN  4 0.3 1.2LRSN                1
 GAP=228        0.74       7.2     3.7  7.0 -0.1386E+01  0.7710E+01  0.9517E+01E
 Epicentro: SANTA HELENA DEL OPON - SANTANDER                                  3
 ACTION:UPD 17-01-11 20:12 OP:rebc STATUS:               ID:20161204052721 L   I
 OLDACT:UP  16-12-04 15:24 OP:dani STATUS:               ID:20161204051748     3
 OLDACT:UP  16-12-04 15:23 OP:dani STATUS:               ID:20161204051748     3
 OLDACT:REG 16-12-04 12:43 OP:dani STATUS:               ID:20161204051748     3
 2016-12-04-0518-00M.COL___349                                                 6
 STAT SP IPHASW D HRMM SECON CODA AMPLIT PERI AZIMU VELO AIN AR TRES W  DIS CAZ7
 BAR2 EZ EP        527 37.52                             147   -0.0810 61.7  58 
 BAR2 EZ ES        527 50.77                             147    0.2710 61.7  58 
 BAR2 EZ I         527 51.85         9.2 0.22            145           61.7  58 
 BRR  HZ EP        527 39.20                             136   -0.1710 89.4 356 
 BRR  HN ES        527 53.34                             136   -0.3110 89.4 356 
 BRR  HZ I         527 56.62         1.5 0.13            132           89.4 356 
 PTB  HZ EP        527 39.31                             135   -0.3210 92.2 287 
 PTB  HN ES        527 54.31                             135    0.2010 92.2 287 
 PTB  HZ I         527 55.06         2.1 0.17            133           92.2 287 
 ZAR  HZ EP        527 49.74                             114    0.47 9  187 315 
 ZAR  HN ES   3    528 12.48                             114    1.20 2  187 315 
 ZAR  HZ I         528 15.25         3.1 0.05            113            187 315 
                                                                                
