 2015  6 4 0040 30.4 L   6.814 -73.192139.9  RSN  8 0.5 1.7LRSN                1
 GAP=130        1.03       3.3     4.9  6.9  0.3600E+00  0.9937E+01  0.2054E+01E
 Epicentro: ZAPATOCA - SANTANDER                                               3
 ACTION:UPD 15-09-10 22:09 OP:cam  STATUS:               ID:20150604004030 L   I
 OLDACT:REG 15-06-04 12:41 OP:ak   STATUS:               ID:20150604003749     3
 2015-06-04-0037-49M.COL___300                                                 6
 STAT SP IPHASW D HRMM SECON CODA AMPLIT PERI AZIMU VELO AIN AR TRES W  DIS CAZ7
 BAR2 EZ ES   2    041  3.61                             170   -0.54 5 24.6 178 
 BAR2 EZ I         041  5.29         8.9 0.14            169           24.6 178 
 BRR  HZ EP        040 51.17                             153    0.5310 66.0 299 
 BRR  HN ES        041  7.10                             153    0.6910 66.0 299 
 BRR  HZ I         041 12.16         9.2 0.11            151           66.0 299 
 PAM  SZ EP        040 52.22                             149    0.0710 79.6  43 
 PAM  SN ES        041  8.86                             149   -0.2410 79.6  43 
 PAM  SZ I         041 11.40        13.8 0.62            155           79.6  43 
 RUS  HZ EP        040 53.76                             142    0.0110  103 173 
 RUS  HE ES        041 11.84                             142   -0.1110  103 173 
 RUS  HZ I         041 12.77         5.2 0.38            145            103 173 
 SPBC HZ EP        040 58.52                             128    0.23 9  161 217 
 SPBC HN ES        041 19.72                             128   -0.31 9  161 217 
 SPBC HZ I         041 25.72         7.2 0.26            130            161 217 
 ZAR  HZ EP   1    041  2.70                             122    0.76 6  199 292 
 ZAR  HE ES        041 26.17                             122   -0.35 9  199 292 
 ZAR  HZ I         041 33.51         4.9 0.17            123            199 292 
 SML  HZ EP   1    041  5.89                             117   -0.45 6  240 336 
 SML  HN ES        041 33.58                             117   -0.77 8  240 336 
 PRA  HZ EP        041 24.03                             106    0.42 6  391 209 
 PRA  HN ES        042  4.22                             106   -0.88 6  391 209 
 PRA  HZ I         042  8.17         1.6 0.35            108            391 209 
                                                                                
