 2016  2 4 0650 33.1 L   6.815 -73.257132.0  RSN  5 0.4 1.2LRSN                1
 GAP=174        0.60       6.1     8.9  7.8 -0.4127E+02  0.2250E+02 -0.1175E+01E
 Epicentro: ZAPATOCA - SANTANDER                                               3
 ACTION:UPD 16-03-04 21:23 OP:rebc STATUS:               ID:20160204065033 L   I
 OLDACT:UP  16-02-04 15:23 OP:dnl  STATUS:               ID:20160204064746     3
 OLDACT:REG 16-02-04 12:51 OP:dnl  STATUS:               ID:20160204064746     3
 2016-02-04-0647-46M.COL___300                                                 6
 STAT SP IPHASW D HRMM SECON CODA AMPLIT PERI AZIMU VELO AIN AR TRES W  DIS CAZ7
 BAR2 EZ EP   2    650 51.26                             168    0.12 5 26.0 161 
 BAR2 EZ ES   2    651  4.56                             168   -0.65 5 26.0 161 
 BAR2 EZ I         651  7.83         3.1 0.11            170           26.0 161 
 PAM  EZ EP        650 54.26                             146   -0.0910 84.6  47 
 PAM  EN ES        651 11.08                             146    0.1510 84.6  47 
 PAM  EZ I         651 13.80         3.0 0.42            153           84.6  47 
 RUS  HZ EP        650 55.70                             140   -0.0710  104 169 
 RUS  HE ES   2    651 13.49                             140    0.03 5  104 169 
 RUS  HZ I         651 15.94         1.8 0.21            145            104 169 
 SPBC HZ EP   2    651  0.21                             127    0.23 5  157 215 
 SPBC HE ES   2    651 21.85                             127    0.91 5  157 215 
 SPBC HN ES   2    651 22.06                             127            157 215 
 SPBC HZ I         651 25.05         4.5 0.12            130            157 215 
 GUY2CHZ EP   4    651 16.46                             110    1.38 0  292 233 
 GUY2CHE ES   2    651 47.07                             110   -0.75 4  292 233 
 GUY2CHZ I         651 59.94         1.4 0.32                           292 233 
                                                                                
