 2016  1 4 0421 37.4 L   6.756 -73.091148.0  RSN  4 0.1 1.3LRSN                1
 GAP=146        0.42       2.1     2.9  3.7 -0.1975E+01  0.3668E+00  0.1541E+01E
 Epicentro: LOS SANTOS - SANTANDER                                             3
 ACTION:UPD 16-03-09 23:22 OP:cam  STATUS:               ID:20160104042137 L   I
 OLDACT:REG 16-01-04 13:03 OP:drio STATUS:               ID:20160104041746     3
 2016-01-04-0417-46M.COL___314                                                 6
 STAT SP IPHASW D HRMM SECON CODA AMPLIT PERI AZIMU VELO AIN AR TRES W  DIS CAZ7
 PAM  EZ EP        422  0.00                             151    0.0810 77.7  34 
 PAM  EE ES        422 17.27                             151   -0.1710 77.7  34 
 PAM  EZ I         422 19.48         3.7 0.58            156           77.7  34 
 BRR  HZ EP        421 59.19                             150   -0.0910 78.9 300 
 BRR  HE ES        422 16.49                             150    0.1710 78.9 300 
 BRR  HZ I         422 20.94         2.6 0.14            152           78.9 300 
 RUS  HZ EP        422  1.11                             146    0.0510 95.5 180 
 RUS  HE ES        422 19.58                             146    0.1110 95.5 180 
 RUS  HZ I         422 22.70         1.7 0.48            149           95.5 180 
 SPBC HZ EP        422  6.18                             129    0.04 9  163 222 
 SPBC HN ES        422 28.29                             129   -0.23 9  163 222 
 SPBC HZ I         422 31.90         4.0 0.40            132            163 222 
                                                                                
