 2017 12 4 0849 33.4 L   6.823 -73.132149.1  RSN 30 0.5 2.8LRSN                1
 GAP= 56        1.09       2.3     2.8  4.6 -0.3928E+00  0.2808E+01  0.1731E+00E
 Epicentro: LOS SANTOS - SANTANDER                                             3
 ACTION:UPD 18-01-04 13:16 OP:rebc STATUS:               ID:20171204084933 L   I
 OLDACT:UP  17-12-04 18:14 OP:dnl  STATUS:               ID:20171204084738     3
 OLDACT:UP  17-12-04 18:13 OP:dnl  STATUS:               ID:20171204084738     3
 OLDACT:UP  17-12-04 18:12 OP:dnl  STATUS:               ID:20171204084738     3
 OLDACT:REG 17-12-04 14:26 OP:leo  STATUS:               ID:20171204084738     3
 2017-12-04-0848-00M.COL___453                                                 6
 STAT SP IPHASW D HRMM SECON CODA AMPLIT PERI AZIMU VELO AIN AR TRES W  DIS CAZ7
 BAR2 EZ IP     C  849 53.51                             170   -0.0110 26.1 192 
 BAR2 EZ ES        850  8.61                             170   -0.5910 26.1 192 
 BAR2 EZ I         850 11.29       266.4 0.40            165           26.1 192 
 PAM  EZ IP     D  849 56.32                             152    0.4810 74.5  40 
 PAM  EN ES        850 13.44                             152    0.1210 74.5  40 
 PAM  EZ I         850 15.10        61.8 0.36            150           74.5  40 
 RUS  HZ IP     C  849 57.41                             144   -0.2810  103 177 
 RUS  HN ES        850 16.26                             144   -0.3510  103 177 
 RUS  HZ I         850 17.72        72.3 0.46            137            103 177 
 PTB  HZ EP        849 59.97                             132   -0.88 9  150 258 
 PTB  HN ES        850 21.44                             132   -0.80 9  150 258 
 PTB  HZ I         850 28.84        97.0 0.40            127            150 258 
 TAM  HZ IP     D  850  1.74                             131    0.43 9  154 106 
 TAM  HZ I         850 22.52        39.4 0.34            126            154 106 
 TAM  HN ES        850 23.31                             131    0.26 9  154 106 
 OCA  HZ EP        850  1.70                             131   -0.09 9  158 352 
 OCA  HE ES        850 24.28                             131    0.37 9  158 352 
 OCA  HZ I         850 27.22       148.6 0.28            127            158 352 
 SPBC HZ IP     C  850  2.32                             129   -0.14 9  166 219 
 SPBC HN ES        850 25.03                             129   -0.08 9  166 219 
 SPBC HZ I         850 27.16       165.6 0.34            123            166 219 
 YPLC HZ IP     C  850  3.78                             127    0.16 9  178 152 
 YPLC HE ES        850 27.45                             127    0.28 9  178 152 
 YPLC HZ I         850 31.35        73.6 0.34            121            178 152 
 ZAR  HZ EP        850  6.20                             123    0.06 9  205 291 
 ZAR  HN ES        850 32.13                             123    0.47 9  205 291 
 ZAR  HZ I         850 37.83        72.2 0.30            118            205 291 
 TABC EZ EP   4    850 10.94                             120    1.25 0  233 211 
 TABC EZ ES        850 38.99                             120    1.01 8  233 211 
 TABC EZ I         850 43.64        61.2 0.38            114            233 211 
 CHI  HZ EP        850 11.58                             117   -0.04 8  251 195 
 CHI  HE ES        850 41.95                             117    0.53 8  251 195 
 CHI  HZ I         850 46.55        33.4 0.26            112            251 195 
 ROSC BZ IP   9 C  850 13.16                             117    1.10 0  256 211 
 ROSC BN ES        850 43.96                             117    0.67 8  256 211 
 ROSC BZ I         850 51.38        89.7 0.35            112            256 211 
 URE  HZ EP   9    850 13.56                             114   -1.16 0  284 291 
 URE  HE ES        850 45.18                             114   -0.58 7  284 291 
 URE  HZ I         850 56.94        45.5 0.18            110            284 291 
 DRL03HZ EP        850 15.16                             114    0.22 7  287 352 
 DRL03HE ES        850 47.75                             114    0.43 7  287 352 
 GUY2CHZ EP        850 18.13                             113    0.63 7  304 235 
 GUY2CHN ES   4    850 54.46                             113    2.59 0  304 235 
 GUY2CHZ I         851  0.08        67.5 0.34                           304 235 
 VIL  EZ EP        850 16.69                             112   -0.63 7  306 192 
 VIL  EZ I         850 56.83        38.3 0.44            108            306 192 
 PTGC HZ IP     C  850 16.46                             112   -1.19 7  311 159 
 PTGC HN ES   4    850 49.60                             112   -2.53 0  311 159 
 PTGC HZ I         850 57.19        21.2 0.52            107            311 159 
 CBOC HZ EP        850 21.31                             110    0.57 7  336 252 
 CBOC HN ES        850 57.43                             110   -0.21 7  336 252 
 CBOC HZ I         851  6.82        17.6 0.72            106            336 252 
 DBB  EZ EP        850 21.72                             110    0.52 7  341 274 
 DBB  EE ES   4    850 56.97                             110   -1.48 0  341 274 
 DBB  EZ I         850 59.11        17.8 0.16            106            341 274 
 ARGC HZ EP   9    850 23.74                             109    0.74 0  357 340 
 ARGC HE ES        851  2.60                             109    0.20 6  357 340 
 ARGC HZ I         851 10.12        10.1 0.36            105            357 340 
 SDV  BZ EP        850 22.97                             109   -0.31 6  358  50 
 SDV  BZ ES   4    850 59.79                             109   -2.37 0  358  50 
 SDV  BZ I         851  2.22        11.0 0.40            105            358  50 
 PRA  HZ EP        850 26.99                             107   -0.42 6  395 210 
 PRA  HE ES        851  9.52                             107    0.00 6  395 210 
 PRA  HZ I         851 16.00        36.3 0.28            103            395 210 
 ORTC HZ EP        850 27.66                             107   -0.15 6  398 216 
 ORTC HN ES        851 11.24                             107    1.02 6  398 216 
 ORTC HZ I         851 17.41        26.1 0.54            103            398 216 
 APAC HZ EP        850 27.56                             107   -0.25 6  399 288 
 APAC HN ES   4    851  8.89                             107   -1.34 0  399 288 
 APAC HZ I         851 17.28         9.5 0.32            103            399 288 
 SJC  HZ EP        850 27.57                             106   -1.38 6  408 327 
 SJC  HE ES   4    851  8.70                             106   -3.56 0  408 327 
 SJC  HZ I         851 12.45        10.3 0.40            103            408 327 
 PAL  HZ EP        850 29.28                             106    0.27 6  408 239 
 PAL  HE ES   4    851 11.23                             106   -1.13 0  408 239 
 PAL  HZ I         851 18.15        17.6 0.40            102            408 239 
 MACC HZ EP   9    851 23.70                             102   41.15 0  523 189 
 MACC HN ES   4    852 15.86                                   -1.75 0  523 189 
 MACC HZ I         852 23.77         4.6 0.28             99            523 189 
 GARC HZ EP   4    850 47.64                             101   -1.47 0  576 207 
 GARC HE ES   4    851 42.55                             101   -5.59 0  576 207 
 GARC HZ I         851 46.36        10.7 0.24             97            576 207 
 POP2 HZ EP   2    850 54.19                             100    0.33 1  615 220 
 FLO2 HZ EP        850 56.28                              99   -0.69 2  643 206 
 FLO2 HE ES   4    852  0.17                              99   -1.96 0  643 206 
 FLO2 HZ I         852  9.02         1.7 0.34             96            643 206 
                                                                                
