 2011  1 4 0906  2.6 L   6.824 -73.108144.0  RSN 12 0.4 2.2LRSN                1
 GAP=139        0.83       3.0     5.4  6.4 -0.5239E+01  0.1205E+02  0.1347E+01E
 Epicentro: LOS SANTOS - SANTANDER                                             3
 ACTION:UP  11-02-08 08:38 OP:pat  STATUS:               ID:20110104090602 L   I
 2011-01-04-0902-51S.COL___135                                                 6
 STAT SP IPHASW D HRMM SECON CODA AMPLIT PERI AZIMU VELO SNR AR TRES W  DIS CAZ7
 BAR2 SZ IP        9 6 22.42                             169     0.310   27 198 
 BAR2 SZ ES   1    9 6 37.12                             169    -0.2 7   27 198 
 BAR2 SZ I         9 6 40.31        55.7 0.34                            27 198 
 RUS  HZ IP     D  9 6 26.34                             143     0.010  103 178 
 RUS  HZ I         9 6 27.24        11.1 0.13                           103 178 
 RUS  HE ES   1    9 6 44.58                             143    -0.3 7  103 178 
 GRA  SZ IP        9 6 27.18                             137    -0.210  122  16 
 GRA  SZ ES   1    9 6 46.90                             137     0.2 7  122  16 
 GRA  SZ I         9 6 47.82        23.4 0.35                           122  16 
 OCA  SZ EP   1    9 6 30.38                             130    -0.2 7  158 352 
 OCA  SZ ES   1    9 6 52.52                             130     0.1 7  158 352 
 OCA  SZ I         9 6 57.97        20.0 0.13                           158 352 
 YOP  SZ EP   1    9 6 32.58                             126     0.0 7  180 155 
 YOP  SE ES   2    9 6 56.80                             126     0.8 4  180 155 
 YOP  SZ I         9 6 58.98        10.5 0.31                           180 155 
 NOR  SZ EP   1    9 6 37.88                             117    -0.9 6  240 235 
 NOR  SN ES   1    9 7  6.86                             117    -0.1 6  240 235 
 CHI  HZ EP   1    9 6 40.46                             116    -0.2 6  252 196 
 CHI  HZ I         9 6 43.27         7.2 0.39                           252 196 
 CHI  HE ES   1    9 7  9.70                             116    -0.6 6  252 196 
 ROSC BZ EP   1    9 6 41.96                             116     0.8 6  257 212 
 ROSC BN ES   1    9 7 11.89                             116     0.7 6  257 212 
 ROSC BZ I         9 7 20.41        25.1 0.39                           257 212 
 HEL  HZ EP   1    9 6 43.76                             114     0.5 6  277 255 
 HEL  HE ES   2    9 7 15.41                             114     0.4 4  277 255 
 HEL  HZ I         9 7 21.39        15.2 0.32                           277 255 
 RREF HZ EP   1    9 6 49.37                             110     0.1 5  327 230 
 RREF HE ES   2    9 7 25.29                             110    -0.3 3  327 230 
 RREF HZ I         9 7 35.27        13.4 0.35                           327 230 
 TOL  SZ EP   1    9 6 51.61                             109     0.3 5  348 225 
 PRA  HZ EP   1    9 6 55.85                             106    -0.7 4  396 210 
 PRA  HE ES   2    9 7 38.55                             106    -0.1 3  396 210 
                                                                                
