 2010  9 4 0122 56.5 L   6.803 -73.073138.0  RSN  7 0.2 1.9LRSN                1
 GAP=167        0.51       3.4     5.9  6.2  0.2608E+01 -0.9672E+01 -0.3792E+01E
 Epicentro: LOS SANTOS - SANTANDER                                             3
 ACTION:UP  11-02-18 11:00 OP:tino STATUS:               ID:20100904012256 L   I
 2010-09-04-0120-59S.COL___120                                                 6
 STAT SP IPHASW D HRMM SECON CODA AMPLIT PERI AZIMU VELO SNR AR TRES W  DIS CAZ7
 BAR2 SZ EP   1    123 15.20                             169    -0.1 7   26 208 
 BAR2 SZ I         123 31.76        22.6 0.15                            26 208 
 GIR2 SZ EP   1    123 15.19                             166    -0.1 7   33 336 
 BRR  HZ IP     D  123 16.98                             149    -0.310   78 295 
 BRR  HN ES   1    123 33.72                             149     0.3 7   78 295 
 BRR  HZ I         123 34.93        23.4 0.20                            78 295 
 RUS  HZ EP   1    123 19.54                             142     0.0 7  101 181 
 RUS  HN ES   1    123 37.47                             142     0.0 7  101 181 
 RUS  HZ I         123 38.83         6.4 0.22                           101 181 
 GRA  SZ IP        123 20.96                             136     0.110  123  14 
 GRA  SZ I         123 22.26        10.8 0.54                           123  14 
 HEL  HZ EP   2    123 37.08                             113    -0.1 4  280 256 
 HEL  HZ I         124 13.72         4.0 0.49                           280 256 
 PRA  HZ EP   1    123 50.59                             105     0.3 4  396 211 
 PRA  HZ I         124 34.62         5.4 0.24                           396 211 
                                                                                
