 2017 11 4 0811  0.7 L   6.335 -73.690102.7  RSN 11 0.5 1.8LRSN                1
 GAP= 79        1.34       3.8     3.7  8.2 -0.3749E+01  0.8926E+01 -0.1360E+01E
 Epicentro: SANTA HELENA DEL OPON - SANTANDER                                  3
 ACTION:UPD 17-12-12 19:51 OP:rebc STATUS:               ID:20171104081100 L   I
 OLDACT:UP  17-11-04 16:02 OP:dnl  STATUS:               ID:20171104080741     3
 OLDACT:REG 17-11-04 13:54 OP:dnl  STATUS:               ID:20171104080741     3
 2017-11-04-0808-00M.COL___407                                                 6
 STAT SP IPHASW D HRMM SECON CODA AMPLIT PERI AZIMU VELO AIN AR TRES W  DIS CAZ7
 BAR2 EZ EP        811 17.51                             146    0.3210 62.9  63 
 BAR2 EZ ES        811 30.60                             146    0.5810 62.9  63 
 BAR2 EZ I         811 31.62        51.0 0.46            148           62.9  63 
 RUS  HZ EP        811 19.05                             138   -0.0110 83.1 126 
 RUS  HE ES        811 33.20                             138   -0.1510 83.1 126 
 RUS  HZ I         811 36.09         4.9 0.78            143           83.1 126 
 BRR  HZ EP        811 18.54                             137   -0.0210 85.4 358 
 BRR  HE ES        811 32.87                             137    0.4110 85.4 358 
 BRR  HZ I         811 39.72        10.5 0.14            137           85.4 358 
 SPBC HZ EP        811 18.53                             136   -0.2610 86.6 209 
 SPBC HN ES        811 32.79                             136   -0.0810 86.6 209 
 SPBC HZ I         811 35.02        26.2 0.10            140           86.6 209 
 PTB  HZ EP        811 17.83                             136   -0.9510 87.7 285 
 PTB  HE ES        811 31.80                             136   -1.0610 87.7 285 
 PTB  HZ I         811 35.16        10.3 0.10            137           87.7 285 
 NOR  HZ EP        811 25.00                             118   -0.52 9  156 237 
 NOR  HE ES        811 45.38                             118    0.52 9  156 237 
 NOR  HZ I         811 46.89        14.7 0.22            121            156 237 
 PAM  EZ EP        811 26.23                             118    0.15 9  156  45 
 PAM  EN ES        811 45.36                             118   -0.49 9  156  45 
 PAM  EZ I         811 49.76         5.8 0.44            121            156  45 
 ZAR  HZ EP        811 28.40                             114    0.12 9  182 315 
 ZAR  HE ES        811 50.55                             114    0.78 9  182 315 
 ZAR  HZ I         811 55.07        13.7 0.34            115            182 315 
 GUY2CHZ EP        811 33.95                             109    0.45 8  222 237 
 GUY2CHE ES        812  0.05                             109    0.99 8  222 237 
 GUY2CHZ I         812  3.61         5.0 0.34                           222 237 
 URE  HZ EP   2    811 35.91                             105   -1.02 4  257 308 
 URE  HE ES   4    812  3.86                             105   -1.29 0  257 308 
 URE  HZ I         812 12.16         5.3 0.34            107            257 308 
 PRA  HZ EP   2    811 44.15                             101   -0.17 3  319 205 
 PRA  HE ES   4    812 19.96                             101    1.65 0  319 205 
 PRA  HZ I         812 23.02         3.2 0.30            103            319 205 
                                                                                
