 2010  8 4 0437 22.3 L   6.300 -73.206100.0  RSN  4 0.3 1.0LRSN                1
 GAP=202        0.65      16.9   108.5 32.7 -0.1666E+04  0.3123E+04 -0.5264E+03E
 Epicentro: CHARALA - SANTANDER                                                3
 ACTION:UP  10-09-07 10:52 OP:vdl  STATUS:               ID:20100804043721 L   I
 2010-08-04-0434-10S.COL___126                                                 6
 STAT SP IPHASW D HRMM SECON CODA AMPLIT PERI AZIMU VELO SNR AR TRES W  DIS CAZ7
 RUS  HZ EP        437 37.89                             153     0.010   47 163 
 RUS  HZ I         437 38.11         1.7 0.20                            47 163 
 RUS  HN ES   2    437 49.96                             153    -0.1 5   47 163 
 BTN  SZ EP   3    437 45.89                             123     0.7 2  136   5 
 GUE  SZ EP   1    437 48.59                             116    -0.5 7  172  10 
 GUE  SZ I         437 51.65         1.1 0.10                           172  10 
 GRA  SZ EP   1    437 50.28                             115     0.4 7  181  14 
 GRA  SZ ES   2    438 11.20                             115    -0.1 4  181  14 
 GRA  SZ I         438 15.07         3.5 0.29                           181  14 
                                                                                
