 2013  3 4 0225 22.2 L   6.779 -73.155146.0  RSN  7 0.4 1.8LRSN                1
 GAP=136        0.96       4.5     4.9  8.6  0.1890E+01  0.1051E+02 -0.7488E-01E
 Epicentro: LOS SANTOS - SANTANDER                                             3
 ACTION:UPD 13-04-09 13:59 OP:ep   STATUS:               ID:20130304022523dL   I
 2013-03-04-0220-00M.COL___228                                                 6
 STAT SP IPHASW D HRMM SECON CODA AMPLIT PERI AZIMU VELO AIN AR TRES W  DIS CAZ7
 BAR2 SZ EP   1    225 42.00                             172    0.16 7 20.8 188 
 BAR2 SZ ES   1    225 56.67                             172   -0.46 7 20.8 188 
 BAR2 SZ I         225 58.20        16.2 0.22            171           20.8 188 
 BRR  HZ EP   1    225 43.82                             153    0.40 7 71.5 301 
 BRR  HN ES        226  0.83                             153    0.8910 71.5 301 
 BRR  HN I         226  1.01        16.6 0.34            150           71.5 301 
 PAM  SZ EP   1    225 44.89                             150    0.28 7 79.8  39 
 PAM  SN ES        226  1.85                             150   -0.2310 79.8  39 
 PAM  SN I         226  3.69         8.9 0.48            152           79.8  39 
 RUS  HZ EP   1    225 46.02                             145    0.18 7 98.3 175 
 RUS  HN ES        226  4.16                             145   -0.0910 98.3 175 
 RUS  HN I         226  5.57         4.3 0.44            146           98.3 175 
 PTB  HZ EP   1    225 48.72                             132   -0.36 7  146 260 
 PTB  HN ES   1    226  9.63                             132   -0.40 7  146 260 
 PTB  HN I         226 15.07         9.2 0.38            131            146 260 
 OCA  HN ES   1    226 12.50                             129   -0.52 7  162 354 
 OCA  HN I         226 15.27        17.9 0.18            129            162 354 
 ZAR  HN ES        226 19.63                             123   -0.37 9  204 293 
 ZAR  HN I         226 25.58         6.5 0.18            122            204 293 
                                                                                
