 2013  3 4 0309 56.7 L   6.805 -73.115150.3  RSN  6 0.2 1.3LRSN                1
 GAP=140        0.52       2.9     4.3  4.6  0.2927E+01  0.2016E+01 -0.1371E+01E
 Epicentro: LOS SANTOS - SANTANDER                                             3
 ACTION:UPD 13-04-09 13:59 OP:ep   STATUS:               ID:20130304030956 L   I
 2013-03-04-0310-00M.COL___228                                                 6
 STAT SP IPHASW D HRMM SECON CODA AMPLIT PERI AZIMU VELO AIN AR TRES W  DIS CAZ7
 BAR2 SZ EP        310 17.04                             170    0.1310 24.6 198 
 BAR2 SZ I         310 33.05         6.4 0.19            157           24.6 198 
 BRR  HZ EP        310 18.69                             152    0.1810 74.0 297 
 BRR  HE ES        310 35.64                             152    0.1410 74.0 297 
 BRR  HE I         310 35.93         6.6 0.30            141           74.0 297 
 PAM  SZ EP   1    310 19.49                             152    0.22 7 74.8  38 
 PAM  SE ES   1    310 36.72                             152   -0.14 7 74.8  38 
 PAM  SZ I         310 38.62         4.0 0.58            150           74.8  38 
 RUS  HZ EP   1    310 21.10                             145    0.16 7  101 178 
 RUS  HN ES   1    310 39.40                             145   -0.43 7  101 178 
 RUS  HN I         310 40.49         1.8 0.12            129            101 178 
 PTB  HZ EP   1    310 24.22                             132   -0.14 7  151 259 
 PTB  HZ I         310 47.98         1.5 0.22            118            151 259 
 SML  HZ EP        310 33.39                             118   -0.31 8  245 335 
 SML  HN ES   1    311  2.33                             118   -0.22 6  245 335 
                                                                                
