 2015 12 4 0435 53.2 L   6.765 -73.157148.0  RSN  6 0.4 1.5LRSN                1
 GAP=233        0.97       6.0     6.4  7.4  0.1849E+02  0.1196E+02  0.4561E+01E
 Epicentro: LOS SANTOS - SANTANDER                                             3
 ACTION:UPD 16-02-04 15:02 OP:cam  STATUS:               ID:20151204043553 L   I
 OLDACT:DUP 15-12-04 14:54 OP:mh   STATUS:               ID:20151204042746d    3
 2015-12-04-0427-44M.COL___309                                                 6
 STAT SP IPHASW D HRMM SECON CODA AMPLIT PERI AZIMU VELO AIN AR TRES W  DIS CAZ7
 BAR2 EZ EP   1    436 12.89                             172   -0.13 7 19.3 188 
 BAR2 EZ ES        436 27.95                             172   -0.5310 19.3 188 
 BAR2 EZ I         436 31.10         5.5 0.26            165           19.3 188 
 BRR  HZ EP        436 14.79                             153    0.1610 72.1 302 
 BRR  HN ES        436 31.89                             153    0.5310 72.1 302 
 BRR  HZ I         436 34.59         5.4 0.26            149           72.1 302 
 RUS  HZ EP   1    436 16.82                             145   -0.07 7 96.8 175 
 RUS  HN ES        436 35.64                             145    0.2510 96.8 175 
 RUS  HZ I         436 38.12         2.3 0.30            145           96.8 175 
 PTB  HZ EP        436 19.60                             133   -0.57 9  146 260 
 PTB  HN ES        436 40.69                             133   -0.52 9  146 260 
 PTB  HZ I         436 48.31         4.3 0.26            130            146 260 
 SPBC HZ EP        436 21.86                             130    0.35 9  159 220 
 SPBC HN ES   1    436 43.99                             130    0.39 7  159 220 
 SPBC HZ I         436 49.68         6.5 0.12            129            159 220 
 ZAR  HZ EP   4    436 21.68                             123   -4.14 0  204 293 
 ZAR  HN ES        436 51.50                             123    0.23 9  204 293 
 ZAR  HZ I         436 59.22         3.6 0.48            123            204 293 
                                                                                
