 2016  4 4 0921 35.1 L   6.787 -73.165142.0  RSN  7 0.3 1.3LRSN                1
 GAP=135        0.70       3.1     3.1  5.9 -0.1347E+01  0.6500E+01 -0.1246E+00E
 Epicentro: LOS SANTOS - SANTANDER                                             3
 ACTION:UPD 16-05-05 14:18 OP:rebc STATUS:               ID:20160404092135 L   I
 OLDACT:UP  16-04-04 18:24 OP:mh   STATUS:               ID:20160404091746     3
 OLDACT:UP  16-04-04 18:23 OP:mh   STATUS:               ID:20160404091746     3
 OLDACT:REG 16-04-04 12:36 OP:mh   STATUS:               ID:20160404091746     3
 2016-04-04-0917-46M.COL___303                                                 6
 STAT SP IPHASW D HRMM SECON CODA AMPLIT PERI AZIMU VELO AIN AR TRES W  DIS CAZ7
 BAR2 EZ EP        921 54.14                             171   -0.1410 21.6 185 
 BAR2 EZ I         922 10.95         8.0 0.19            172           21.6 185 
 PAM  EZ EP        921 57.08                             149   -0.0310 79.9  40 
 PAM  EN ES        922 14.36                             149    0.1210 79.9  40 
 PAM  EZ I         922 15.02         1.6 0.12            148           79.9  40 
 RUS  HZ EP        921 58.12                             143   -0.3110 99.3 175 
 RUS  HN ES        922 16.84                             143    0.2510 99.3 175 
 RUS  HZ I         922 17.60         2.4 0.44            143           99.3 175 
 PTB  HZ EP        922  1.14                             132   -0.44 9  145 259 
 PTB  HN ES        922 21.89                             132   -0.31 9  145 259 
 PTB  HZ I         922 23.81         2.9 0.10            131            145 259 
 SPBC HZ EP        922  3.18                             129    0.07 9  161 219 
 SPBC HN ES        922 25.02                             129    0.09 9  161 219 
 SPBC HZ I         922 28.07         4.4 0.30            128            161 219 
 ZAR  HZ EP   1    922  7.39                             122    0.20 6  203 293 
 ZAR  HN ES        922 32.48                             122    0.30 9  203 293 
 ZAR  HZ I         922 37.74         2.8 0.57            121            203 293 
 GUY2CHZ EP        922 18.93                             112    0.65 7  299 235 
 GUY2CHN ES   4    922 55.41                             112    3.48 0  299 235 
 GUY2CHZ I         923  2.14         1.1 0.42                           299 235 
                                                                                
