 2017  3 4 0843 20.0 L   6.795 -73.346116.6  RSN  8 0.4 1.4LRSN                1
 GAP= 99        0.93       3.1     3.5  5.7 -0.3800E+00  0.7067E+01  0.3194E+01E
 Epicentro: ZAPATOCA - SANTANDER                                               3
 ACTION:UPD 17-05-25 18:36 OP:jn   STATUS:               ID:20170304084321dL   I
 OLDACT:UP  17-03-04 17:39 OP:and  STATUS:               ID:20170304083747     3
 OLDACT:REG 17-03-04 12:37 OP:lv   STATUS:               ID:20170304083747     3
 2017-03-04-0838-00M.COL___391                                                 6
 STAT SP IPHASW D HRMM SECON CODA AMPLIT PERI AZIMU VELO AIN AR TRES W  DIS CAZ7
 BAR2 EZ IP     D  843 35.92                             165   -0.3510 28.8 141 
 BAR2 EZ ES        843 49.21                             165    0.2310 28.8 141 
 BAR2 EZ I         843 49.64        15.2 0.25            164           28.8 141 
 BRR  HZ EP        843 36.46                             154   -0.5110 53.2 310 
 BRR  HN ES        843 50.24                             154    0.0310 53.2 310 
 BRR  HZ I         843 50.90        16.9 0.14            153           53.2 310 
 PAM  EZ EP        843 40.64                             139    0.2410 93.4  50 
 PAM  EN ES        843 56.70                             139    0.3810 93.4  50 
 PAM  EZ I         843 58.00         3.7 0.22            141           93.4  50 
 RUS  HZ EP        843 40.95                             136   -0.3310  104 164 
 RUS  HN ES        843 57.56                             136   -0.3310  104 164 
 RUS  HZ I         843 58.55         6.4 0.20            134            104 164 
 SPBC HZ EP        843 45.57                             124    0.52 9  150 212 
 SPBC HN ES        844  4.32                             124   -0.29 9  150 212 
 SPBC HZ I         844  8.19         3.4 0.08            122            150 212 
 ZAR  HZ EP        843 48.17                             118   -0.35 9  184 295 
 ZAR  HN ES        844 10.82                             118    0.04 9  184 295 
 ZAR  HZ I         844 15.09         3.6 0.03            117            184 295 
 NOR  HZ EP        843 52.04                             114   -0.14 8  217 231 
 NOR  HN ES        844 17.94                             114    0.64 8  217 231 
 NOR  HZ I         844 21.33         2.1 0.24            112            217 231 
 CHI  HZ EP        843 56.17                             111    0.53 8  243 190 
 CHI  HN ES   4    844 25.26                             111    1.82 0  243 190 
 CHI  HZ I         844 34.23         0.8 0.31            110            243 190 
                                                                                
