 2014  7 4 0507 25.5 L   7.472 -73.245134.2  RSN  4 0.3 1.3LRSN                1
 GAP=135        0.84       4.7     4.6  8.7 -0.2360E+01  0.1220E+02 -0.5772E+01E
 Epicentro: EL PLAYON - SANTANDER                                              3
 ACTION:UPD 15-03-16 20:41 OP:nd   STATUS:               ID:20140704050725 L   I
 OLDACT:UP  14-07-04 15:49 OP:cam  STATUS:               ID:20140704050000     3
 OLDACT:REG 14-07-04 12:46 OP:cam  STATUS:               ID:20140704050000     3
 2014-07-04-0500-00M.COL___279                                                 6
 STAT SP IPHASW D HRMM SECON CODA AMPLIT PERI AZIMU VELO AIN AR TRES W  DIS CAZ7
 PAM  SZ EP        5 7 45.64                             154    0.0910 62.0 104 
 PAM  SN ES        5 8  0.90                             154   -0.3210 62.0 104 
 PAM  SZ I         5 8  2.25         2.9 0.46            155           62.0 104 
 BRR  HZ EP        5 7 45.36                             152    0.3210 65.5 232 
 BRR  HN ES        5 8  0.76                             152    0.4610 65.5 232 
 BRR  HZ I         5 8  1.53         5.4 0.12            151           65.5 232 
 PTB  HZ EP   1    5 7 53.58                             125    0.01 7  169 232 
 PTB  HN ES        5 8 14.95                             125   -0.55 9  169 232 
 PTB  HZ I         5 8 19.03         3.4 0.18            125            169 232 
 SML  HN ES        5 8 16.02                             124   -0.13 9  173 328 
                                                                                
