 2012  2 4 0903 45.1 L   6.883 -73.303179.0  RSN  5 0.2 1.3LRSN                1
 GAP=128        0.44       9.6     5.1  7.8 -0.1059E+02 -0.1606E+02  0.3062E+02E
 ACTION:UP  12-03-07 16:27 OP:epov STATUS:               ID:20120204090345 L   I
 2012-02-04-0900-00M.COL___188                                                 6
 STAT SP IPHASW D HRMM SECON CODA AMPLIT PERI AZIMU VELO SNR AR TRES W  DIS CAZ7
 GIR2 SZ EP   1    9 4  8.57                             172   -0.07 7 24.7  29 
 BAR2 SZ EP   1    9 4  8.84                             169   -0.16 7 34.8 158 
 BAR2 SZ I         9 4 26.77         3.8 0.22                          34.8 158 
 BRR  HN ES   1    9 4 28.03                             163    0.17 7 51.5 299 
 BRR  HZ I         9 4 28.93         2.3 0.09                          51.5 299 
 PTB  HZ EP   1    9 4 14.15                             142    0.32 7  133 253 
 PTB  HN ES   1    9 4 36.08                             142   -0.14 7  133 253 
 PTB  HZ I         9 4 44.16         0.0 0.27                           133 253 
 ZAR  HE ES   2    9 4 43.58                             132   -0.28 4  185 291 
                                                                                
