 2011 12 4 0751 32.5 L   6.795 -73.113139.9  RSN  5 0.2 1.4LRSN                1
 GAP=141        0.45       2.8     4.2  4.3 -0.2222E+00 -0.1164E+01  0.1019E+00E
 Epicentro: LOS SANTOS - SANTANDER                                             3
 ACTION:UPD 12-07-13 16:14 OP:ep   STATUS:               ID:20111204075132 L   I
 2011-12-04-0750-00M.COL___183                                                 6
 STAT SP IPHASW D HRMM SECON CODA AMPLIT PERI AZIMU VELO AIN AR TRES W  DIS CAZ7
 BAR2 SZ EP        751 51.43                             170    0.0210 23.7 199 
 BAR2 SZ ES   1    752  5.93                             170   -0.25 7 23.7 199 
 BAR2 SZ I         752  7.17         8.7 0.22                          23.7 199 
 GIR2 SZ EP        751 51.36                             166   -0.1410 32.6 344 
 BRR  HZ EP        751 53.04                             150   -0.1610 74.6 298 
 BRR  HZ I         751 53.54         6.9 0.10                          74.6 298 
 BRR  HE ES   1    752  9.64                             150    0.27 7 74.6 298 
 PAM  SZ EP        751 53.97                             150    0.0010 75.6  37 
 PAM  SE ES   1    752 10.84                             150    0.12 7 75.6  37 
 RUS  HZ EP        751 55.84                             143    0.2410 99.8 178 
 RUS  HN ES   1    752 13.57                             143   -0.07 7 99.8 178 
 RUS  HZ I         752 14.61         2.1 0.18                          99.8 178 
                                                                                
