 2017  1 4 0732  3.8 L   6.753 -73.179139.0  RSN  4 0.4 0.9LRSN                1
 GAP=230        1.10       8.4     8.1  8.9  0.3428E+02  0.9070E+01  0.3566E+01E
 Epicentro: LOS SANTOS - SANTANDER                                             3
 ACTION:UPD 17-05-22 15:55 OP:jn   STATUS:               ID:20170104073203 L   I
 OLDACT:UP  17-04-19 20:53 OP:nlst STATUS:               ID:20170104073203 L   3
 OLDACT:DUP 17-01-04 16:08 OP:lv   STATUS:               ID:20170104072750d    3
 2017-01-04-0728-00M.COL___369                                                 6
 STAT SP IPHASW D HRMM SECON CODA AMPLIT PERI AZIMU VELO AIN AR TRES W  DIS CAZ7
 BAR2 EZ EP        732 22.37                             172   -0.1410 17.7 181 
 BAR2 EZ ES        732 36.36                             172   -0.7510 17.7 181 
 BAR2 EZ I         732 36.56         1.3 0.19            165           17.7 181 
 BRR  HZ EP        732 24.42                             151    0.2210 70.8 304 
 BRR  HN ES        732 40.63                             151    0.5310 70.8 304 
 BRR  HN I         732 42.52         4.7 0.16            147           70.8 304 
 RUS  HZ EP        732 26.77                             144    0.2410 95.7 174 
 RUS  HN ES        732 44.67                             144    0.4110 95.7 174 
 RUS  HZ I         732 46.16         0.9 0.26            141           95.7 174 
 PTB  HZ EP        732 29.26                             131   -0.54 9  143 261 
 PTB  HE ES        732 50.05                             131   -0.03 9  143 261 
 PTB  HZ I         732 56.72         0.9 0.19            127            143 261 
                                                                                
