 2017  1 4 0719 50.6 L   6.789 -73.158142.0  RSN  8 0.5 1.5LRSN                1
 GAP=135        1.16       4.5     5.0  7.2  0.2782E+01  0.9091E+01  0.5646E+01E
 Epicentro: LOS SANTOS - SANTANDER                                             3
 ACTION:UPD 17-05-22 15:55 OP:jn   STATUS:               ID:20170104071950 L   I
 OLDACT:REG 17-01-04 12:53 OP:lv   STATUS:               ID:20170104071743     3
 2017-01-04-0718-00M.COL___366                                                 6
 STAT SP IPHASW D HRMM SECON CODA AMPLIT PERI AZIMU VELO AIN AR TRES W  DIS CAZ7
 BAR2 EZ EP        720  9.72                             171   -0.0610 21.9 187 
 BAR2 EZ ES        720 24.99                             171    0.2710 21.9 187 
 BAR2 EZ I         720 25.54         8.4 0.24            169           21.9 187 
 BRR  HZ EP        720 11.30                             152   -0.0410 70.6 300 
 BRR  HN ES        720 28.28                             152    0.7910 70.6 300 
 BRR  HZ I         720 32.24         7.0 0.30            150           70.6 300 
 PAM  EZ EP        720 12.41                             150   -0.1510 79.2  40 
 PAM  EN ES        720 29.19                             150   -0.4710 79.2  40 
 PAM  EZ I         720 31.56         4.3 0.49            153           79.2  40 
 RUS  HZ EP        720 14.21                             143    0.2710 99.5 175 
 RUS  HN ES        720 32.04                             143   -0.0710 99.5 175 
 RUS  HZ I         720 34.27         3.3 0.21            144           99.5 175 
 PTB  HZ EP        720 16.33                             131   -0.82 9  146 259 
 PTB  HE ES        720 37.26                             131   -0.58 9  146 259 
 PTB  HZ I         720 40.08         4.9 0.13            130            146 259 
 ZAR  HZ EP        720 23.54                             122    0.79 9  203 293 
 ZAR  HN ES        720 47.64                             122   -0.16 9  203 293 
 ZAR  HZ I         720 53.00         4.6 0.27            122            203 293 
 CHI  HZ EP        720 28.47                             117    0.51 8  247 195 
 CHI  HN ES        720 56.92                             117   -0.16 8  247 195 
 CHI  HZ I         721  5.22         1.7 0.38            117            247 195 
 URE  HZ EP   4    720 34.09                             113    2.66 0  283 292 
 URE  HN ES   4    720 59.91                             113   -3.34 0  283 292 
 URE  HZ I         721  9.59         3.1 0.38            113            283 292 
                                                                                
