 2017 12 4 0751 50.0 L   6.831 -73.151150.6  RSN 19 0.3 2.0LRSN                1
 GAP= 65        0.76       1.9     2.2  3.7  0.2845E-01  0.2310E+01  0.3105E+00E
 Epicentro: LOS SANTOS - SANTANDER                                             3
 ACTION:UPD 18-01-04 13:16 OP:rebc STATUS:               ID:20171204075150 L   I
 OLDACT:UP  17-12-04 17:52 OP:dnl  STATUS:               ID:20171204074738     3
 OLDACT:REG 17-12-04 14:19 OP:leo  STATUS:               ID:20171204074738     3
 2017-12-04-0748-00M.COL___462                                                 6
 STAT SP IPHASW D HRMM SECON CODA AMPLIT PERI AZIMU VELO AIN AR TRES W  DIS CAZ7
 BAR2 EZ IP     D  752 10.17                             169   -0.1310 26.6 188 
 BAR2 EZ ES        752 26.00                             169   -0.1110 26.6 188 
 BAR2 EZ I         752 26.77        57.2 0.18            168           26.6 188 
 PAM  EZ EP        752 13.04                             152    0.4210 75.1  42 
 PAM  EN ES        752 30.29                             152    0.0410 75.1  42 
 PAM  EZ I         752 32.43         6.5 0.32            151           75.1  42 
 RUS  HZ EP        752 14.11                             144   -0.3810  104 176 
 RUS  HE ES        752 33.43                             144   -0.1510  104 176 
 RUS  HZ I         752 33.98         8.6 0.38            140            104 176 
 PTB  HZ EP        752 16.85                             133   -0.55 9  148 257 
 PTB  HE ES        752 38.71                             133   -0.04 9  148 257 
 PTB  HZ I         752 41.04         8.6 0.20            129            148 257 
 OCA  HZ EP        752 18.37                             131   -0.01 9  157 353 
 OCA  HE ES        752 40.91                             131    0.40 9  157 353 
 OCA  HZ I         752 43.71        25.0 0.36            128            157 353 
 TAM  HZ IP     D  752 18.44                             131    0.23 9  157 106 
 TAM  HZ I         752 39.33         7.3 0.34            128            157 106 
 TAM  HN ES        752 40.01                             131   -0.19 9  157 106 
 SPBC HZ EP        752 19.14                             130    0.03 9  166 218 
 SPBC HN ES        752 41.49                             130   -0.31 9  166 218 
 SPBC HZ I         752 45.60        27.8 0.40            126            166 218 
 YPLC HZ IP     D  752 20.40                             127   -0.08 9  180 152 
 YPLC HN ES        752 44.30                             127    0.05 9  180 152 
 YPLC HZ I         752 47.24         5.1 0.26            124            180 152 
 ZAR  HZ EP        752 22.66                             124    0.06 9  202 291 
 ZAR  HE ES        752 48.23                             124    0.22 9  202 291 
 ZAR  HZ I         752 54.55        15.9 0.38            120            202 291 
 CHI  HZ EP        752 28.21                             118   -0.12 8  252 195 
 CHI  HE ES        752 58.89                             118    0.68 8  252 195 
 CHI  HZ I         753  6.17         4.8 0.40            115            252 195 
 ROSC BZ EP   9    752 30.50                             117    1.81 0  255 211 
 ROSC BN ES        753  0.67                             117    0.00 8  255 211 
 ROSC BZ I         753  4.49        12.2 0.45            114            255 211 
 URE  HZ EP        752 30.75                             115   -0.38 7  282 291 
 URE  HN ES   4    753  0.64                             115   -2.55 0  282 291 
 URE  HZ I         753 12.65         7.8 0.16            112            282 291 
 DRL03HZ EP   4    752 32.39                             114    0.92 0  285 353 
 DRL03HE ES   4    753  5.14                             114    1.33 0  285 353 
 GUY2CHZ EP   4    752 35.19                             113    1.17 0  303 234 
 GUY2CHE ES   4    753 11.11                             113    2.76 0  303 234 
 GUY2CHZ I         753 22.13         5.9 0.60                           303 234 
 PTGC HZ IP   4 D  752 33.08                             112   -1.39 0  312 159 
 PTGC HN ES   4    753  6.65                             112   -2.50 0  312 159 
 PTGC HZ I         753 11.11         3.5 0.24            109            312 159 
 CBOC HZ EP        752 37.95                             111    0.75 7  334 252 
 CBOC HE ES   4    753 10.64                             111   -3.36 0  334 252 
 CBOC HZ I         753 27.90         1.6 0.32            108            334 252 
 PRA  HZ EP        752 44.10                             107    0.08 6  395 209 
 PRA  HE ES        753 26.15                             107    0.00 6  395 209 
 PRA  HZ I         753 31.88         6.6 0.26            105            395 209 
 ORTC HZ EP   4    752 43.24                             107   -1.15 0  398 216 
 ORTC HE ES        753 27.29                             107    0.49 6  398 216 
 ORTC HZ I         753 31.49         3.0 0.38            105            398 216 
 SJC  HZ EP        752 44.37                             107   -1.00 6  406 327 
 SJC  HN ES   4    753 24.73                             107   -3.81 0  406 327 
 SJC  HZ I         753 27.09         1.7 0.60            104            406 327 
 PAL  HZ EP        752 45.99                             107    0.50 6  407 239 
 PAL  HN ES   4    753 26.04                             107   -2.72 0  407 239 
 PAL  HZ I         753 33.96         1.8 0.60            104            407 239 
                                                                                
