 2017  3 4 0133 29.2 L   6.789 -73.157145.7  RSN 25 0.4 2.5LRSN                1
 GAP=100        1.31       3.7     4.4  5.9 -0.9915E+00  0.7717E+01  0.2657E+01E
 Epicentro: LOS SANTOS - SANTANDER                                             3
 ACTION:UPD 17-05-25 18:35 OP:jn   STATUS:               ID:20170304013329 L   I
 OLDACT:REG 17-03-04 12:14 OP:lv   STATUS:               ID:20170304012745     3
 2017-03-04-0128-00M.COL___397                                                 6
 STAT SP IPHASW D HRMM SECON CODA AMPLIT PERI AZIMU VELO AIN AR TRES W  DIS CAZ7
 BAR2 EZ EP        133 48.66                             171   -0.1210 22.0 187 
 BAR2 EZ ES        134  3.61                             171   -0.4610 22.0 187 
 BAR2 EZ I         134  4.76        89.6 0.36            168           22.0 187 
 BRR  HZ IP     C  133 50.49                             152    0.1910 70.7 300 
 BRR  HN ES        134  7.64                             152    0.8710 70.7 300 
 BRR  HZ I         134 10.70        55.2 0.28            150           70.7 300 
 PAM  EZ EP        133 51.66                             149    0.1610 79.1  40 
 PAM  EN ES        134  8.60                             149   -0.3010 79.1  40 
 PAM  EZ I         134 10.87        53.6 0.50            154           79.1  40 
 RUS  HZ EP        133 52.62                             144   -0.2410 99.5 175 
 RUS  HN ES        134 11.31                             144   -0.0010 99.5 175 
 RUS  HZ I         134 12.44        31.7 0.28            144           99.5 175 
 PTB  HZ EP        133 55.40                             132   -0.62 9  146 259 
 PTB  HN ES   4    134 15.27                             132   -1.67 0  146 259 
 PTB  HZ I         134 18.34        38.1 0.20            130            146 259 
 TAM  HZ IP     D  133 57.11                             130    0.16 9  156 104 
 TAM  HN ES   4    134 16.64                             130   -1.96 0  156 104 
 TAM  HZ I         134 18.00        19.7 0.38            133            156 104 
 SPBC HZ EP        133 57.51                             129   -0.01 9  161 219 
 SPBC HN ES        134 19.11                             129   -0.51 9  161 219 
 SPBC HZ I         134 22.12        51.6 0.10            128            161 219 
 ZAR  HZ EP        134  1.75                             122    0.19 9  203 293 
 ZAR  HN ES        134 26.03                             122   -0.77 9  203 293 
 ZAR  HZ I         134 31.85        33.8 0.40            122            203 293 
 NOR  HZ EP        134  4.84                             118    0.11 8  233 235 
 NOR  HN ES        134 33.31                             118    0.86 8  233 235 
 NOR  HZ I         134 37.36        15.2 0.24            118            233 235 
 CHI  HZ EP        134  6.89                             117    0.17 8  247 195 
 CHI  HN ES        134 36.29                             117    0.29 8  247 195 
 CHI  HZ I         134 39.88        23.6 0.42            117            247 195 
 ROSC BZ EP   9    134  9.12                             116    2.00 0  251 211 
 ROSC BN ES        134 36.58                                   -2.13 8  251 211 
 ROSC BZ I         134 43.42        60.0 0.25            116            251 211 
 HEL  HZ EP        134  9.84                             114    0.61 8  271 256 
 HEL  HN ES   4    134 41.31                             114    0.85 0  271 256 
 HEL  HZ I         134 46.75        18.6 0.28            114            271 256 
 URE  HZ EP        134  9.47                             113   -0.71 7  283 292 
 URE  HE ES   4    134 39.19                             113   -2.95 0  283 292 
 URE  HZ I         134 47.87        21.6 0.09            113            283 292 
 VIL  EZ EP        134 12.51                             112    0.07 7  302 191 
 VIL  EN ES        134 46.68                             112    0.50 7  302 191 
 VIL  EZ I         134 49.39        31.9 0.42            112            302 191 
 PTGC HZ EP   9    134 11.84                             111   -1.13 0  308 158 
 PTGC HN ES        134 45.10                                   -0.89 7  308 158 
 PTGC HZ I         134 47.96        17.0 0.31            112            308 158 
 ELA  HZ EP   4    134 17.56                             110    1.72 0  327 229 
 ELA  HN ES   4    134 54.97                             110    2.74 0  327 229 
 ELA  HZ I         135  1.41        12.7 0.56            110            327 229 
 CBOC HZ EP   4    134 16.97                             110    1.05 0  332 252 
 CBOC HN ES        134 51.79                             110   -0.58 7  332 252 
 CBOC HZ I         134 58.26         4.8 0.40            110            332 252 
 DBB  EZ EP        134 16.92                             109    0.39 7  338 274 
 DBB  EN ES   4    134 51.95                             109   -1.50 0  338 274 
 DBB  EZ I         134 54.14        10.1 0.39            109            338 274 
 ANIL HZ EP   9    134 20.92                             108    2.13 0  356 225 
 ANIL HN ES        134 59.09                                   -0.52 6  356 225 
 PRA  HZ EP        134 22.72                             106    0.21 6  390 209 
 PRA  HN ES   4    135  2.92                             106   -1.19 0  390 209 
 PRA  HZ I         135  8.94        20.0 0.42            107            390 209 
 ORTC HZ EP        134 22.97                             106    0.06 6  394 216 
 ORTC HN ES        135  5.13                             106    0.32 6  394 216 
 ORTC HZ I         135 10.08        13.5 0.22            106            394 216 
 APAC HZ EP        134 22.92                             106   -0.36 6  397 288 
 APAC HN ES   4    135  1.77                             106   -3.70 0  397 288 
 APAC HZ I         135  9.48         7.1 0.36            106            397 288 
 SJC  HZ EP   4    134 22.87                             105   -1.92 0  410 327 
 SJC  HN ES   4    135  4.04                             105   -4.11 0  410 327 
 SJC  HZ I         135 11.87         4.8 0.21            106            410 327 
 CRJC HZ EP   4    134 28.98                             103   -2.86 0  469   4 
 CRJC HN ES   4    135 15.24                             103   -5.46 0  469   4 
 CRJC HZ I         135 21.35         6.8 0.36            104            469   4 
 MACC HZ EP   4    134 35.91                             101   -1.83 0  519 189 
 MACC HN ES   4    135 27.72                             101   -3.48 0  519 189 
 MACC HZ I         135 37.09         4.2 0.50            102            519 189 
                                                                                
