 2013 12 4 0048 45.9 L   6.631 -73.475113.9  RSN  5 0.2 1.8LRSN                1
 GAP=124        0.45       2.4     2.0  3.8  0.9209E+00  0.2750E+01  0.3617E+01E
 Epicentro: EL CARMEN DE CHUCURI - SANTANDER                                   3
 ACTION:UPD 14-01-13 10:15 OP:ep   STATUS:               ID:20131204004845 L   I
 OLDACT:REG 13-12-04 07:36 OP:carl STATUS:               ID:20131204004000     3
 2013-12-04-0040-00M.COL___285                                                 6
 STAT SP IPHASW D HRMM SECON CODA AMPLIT PERI AZIMU VELO AIN AR TRES W  DIS CAZ7
 BAR2 SZ EP        049  2.06                             163    0.1110 32.6  98 
 BAR2 SZ ES        049 14.72                             163    0.2110 32.6  98 
 BAR2 SZ I         049 16.19        54.4 0.30            167           32.6  98 
 BRR  HZ IP     D  049  2.68                             151   -0.1810 58.8 333 
 BRR  HN ES        049 16.14                             151    0.0110 58.8 333 
 BRR  HN I         049 25.48        21.9 0.20            149           58.8 333 
 RUS  HZ EP        049  5.85                             138   -0.1010 92.5 152 
 RUS  HN ES        049 21.46                             138   -0.1710 92.5 152 
 RUS  HZ I         049 22.26         8.2 0.64            146           92.5 152 
 PTB  HZ EP   4    049  4.89                             133   -1.82 0  109 265 
 PTB  HE ES        049 22.86                             133   -0.1210  109 265 
 PTB  HZ I         049 24.36         9.2 0.14            136            109 265 
 NOR  HZ EP        049 15.68                             116    0.25 9  194 233 
 NOR  HN ES        049 38.57                             116    0.07 9  194 233 
 NOR  HZ I         049 39.89         2.6 0.16            120            194 233 
                                                                                
