 2016 11 4 0601 51.3 L   6.795 -73.131150.8  RSN  9 0.3 1.7LRSN                1
 GAP=139        0.88       3.6     3.8  5.0  0.1791E+00  0.4050E+01  0.3149E+01E
 Epicentro: LOS SANTOS - SANTANDER                                             3
 ACTION:UPD 17-10-26 21:04 OP:lp   STATUS:               ID:20161104060151 L   I
 OLDACT:DUP 16-11-04 15:41 OP:dani STATUS:               ID:20161104055748d    3
 OLDACT:UP  16-11-04 15:40 OP:dani STATUS:               ID:20161104055747     3
 OLDACT:REG 16-11-04 13:05 OP:dani STATUS:               ID:20161104055747     3
 2016-11-04-0558-00M.COL___349                                                 6
 STAT SP IPHASW D HRMM SECON CODA AMPLIT PERI AZIMU VELO AIN AR TRES W  DIS CAZ7
 BAR2 EZ EP     D  6 2 11.34                             171   -0.1510 23.1 194 
 BAR2 HN ES        6 2 26.94                             171   -0.3310 23.1 194 
 BAR2 EZ I         6 2 29.57        11.6 0.18            164           23.1 194 
 BRR  HZ EP        6 2 13.25                             153    0.2010 72.9 298 
 BRR  HN ES        6 2 30.66                             153    0.6110 72.9 298 
 BRR  HZ I         6 2 35.15         8.2 0.15            151           72.9 298 
 PAM  EZ EP        6 2 14.20                             152    0.2310 76.8  38 
 PAM  EN ES        6 2 31.62                             152   -0.0810 76.8  38 
 PAM  EZ I         6 2 32.53         7.7 0.16            151           76.8  38 
 RUS  HZ EP        6 2 15.24                             145   -0.2210 99.9 177 
 RUS  HN ES        6 2 34.27                             145   -0.0610 99.9 177 
 RUS  HZ I         6 2 37.97         2.6 0.20            137           99.9 177 
 PTB  HZ EP        6 2 17.97                             133   -0.80 9  149 259 
 PTB  HN ES        6 2 39.90                             133   -0.34 9  149 259 
 PTB  HZ I         6 2 41.51         9.7 0.26            127            149 259 
 SPBC HZ EP        6 2 20.33                             130    0.13 9  164 220 
 SPBC HN ES        6 2 43.17                             130    0.39 9  164 220 
 SPBC HZ I         6 2 49.53        13.4 0.28            123            164 220 
 ZAR  HZ EP        6 2 24.11                             123   -0.10 8  206 292 
 ZAR  HE ES        6 2 49.92                             123   -0.00 8  206 292 
 ZAR  HZ I         6 2 56.58         7.6 0.18            119            206 292 
 CHI  HZ EP        6 2 29.72                             118    0.50 8  248 196 
 CHI  HZ I         6 3  6.56         1.9 0.20            112            248 196 
 ROSC BZ EP        6 2 29.88                             118    0.19 8  253 211 
                                                                                
