 2011  4 4 0934  7.4 L   6.735 -72.965140.0  RSN  6 0.3 1.8LRSN                1
 GAP=192        0.70       4.2     7.1  7.6 -0.1290E+02 -0.1303E+02  0.1010E+02E
 Epicentro: CEPITA - SANTANDER                                                 3
 ACTION:UP  11-06-22 15:28 OP:REBC STATUS:               ID:20110404093407 L   I
 2011-04-04-0932-54S.COL___135                                                 6
 STAT SP IPHASW D HRMM SECON CODA AMPLIT PERI AZIMU VELO SNR AR TRES W  DIS CAZ7
 BAR2 SZ EP   1    934 27.04                             168     0.6 8   29 237 
 BAR2 SZ ES   2    934 41.27                             168    -0.1 5   29 237 
 BAR2 SZ I         934 43.12        14.1 0.24                            29 237 
 BRR  HZ EP   1    934 29.12                             145    -0.2 8   92 297 
 BRR  HE ES   1    934 46.34                             145     0.0 8   92 297 
 BRR  HZ I         934 51.17        14.7 0.14                            92 297 
 GRA  SZ EP        934 32.34                             135     0.010  128   8 
 GRA  SZ I         934 33.65         7.0 0.16                           128   8 
 GRA  SZ ES   1    934 52.04                             135     0.2 7  128   8 
 OCA  SZ EP   1    934 36.18                             127    -0.1 7  171 347 
 OCA  SZ ES   1    934 58.28                             127    -0.5 7  171 347 
 OCA  SZ I         935  2.80        13.3 0.31                           171 347 
 CHI  HZ EP   1    934 44.63                             116    -0.1 6  248 200 
 CHI  HE ES   2    935 12.96                             116    -0.8 4  248 200 
 CHI  HZ I         935 20.22         2.4 0.37                           248 200 
 HEL  HZ EP   2    934 49.70                             112     0.4 4  290 258 
 HEL  HN ES   2    935 22.25                             112     0.2 4  290 258 
 HEL  HZ I         935 25.16         3.4 0.23                           290 258 
                                                                                
