 2011  9 4 0117 55.9 L   6.764 -73.099142.2  RSN  6 0.2 1.7LRSN                1
 GAP=144        0.41       2.4     3.7  4.2 -0.3928E+00 -0.4570E+00 -0.2398E+01E
 Epicentro: LOS SANTOS - SANTANDER                                             3
 ACTION:UPD 12-07-13 15:55 OP:ep   STATUS:               ID:20110904011755 L   I
 2011-09-04-0115-41S.COL___171                                                 6
 STAT SP IPHASW D HRMM SECON CODA AMPLIT PERI AZIMU VELO AIN AR TRES W  DIS CAZ7
 BAR2 SZ EP   1    118 14.80                             171   -0.24 7 21.1 206 
 BAR2 SZ ES   1    118 29.95                             171   -0.03 7 21.1 206 
 BAR2 SZ I         118 31.43        18.1 0.26                          21.1 206 
 PAM  SZ EP   1    118 17.70                             150   -0.02 7 77.4  35 
 BRR  HZ EP        118 17.11                             150    0.0810 77.7 299 
 BRR  HN ES   1    118 33.75                             150    0.22 7 77.7 299 
 BRR  HZ I         118 36.55         8.5 0.12                          77.7 299 
 RUS  HZ EP   1    118 19.11                             144    0.13 7 96.4 179 
 RUS  HN ES   1    118 37.02                             144    0.02 7 96.4 179 
 RUS  HZ I         118 38.98         6.5 0.36                          96.4 179 
 OCA  SZ EP   1    118 24.53                             128    0.17 7  165 352 
 OCA  SZ ES   2    118 46.04                             128   -0.53 5  165 352 
 OCA  SZ I         118 50.11         7.0 0.27                           165 352 
 NOR  SN ES   1    118 59.25                             118   -0.25 6  237 236 
                                                                                
