 2013  7 4 0945 32.4 L   6.070 -73.727107.0  RSN  5 0.1 1.4LRSN                1
 GAP=197        0.41       2.2     1.8  3.7  0.9199E+00  0.1371E+01  0.3208E+00E
 Epicentro: BOLIVAR - SANTANDER                                                3
 ACTION:UPD 13-08-12 10:35 OP:ep   STATUS:               ID:20130704094532 L   I
 OLDACT:DUP 13-07-04 13:29 OP:stll STATUS:               ID:20130704093838d    3
 2013-07-04-0938-37M.COL___228                                                 6
 STAT SP IPHASW D HRMM SECON CODA AMPLIT PERI AZIMU VELO AIN AR TRES W  DIS CAZ7
 RUS  HZ EP        945 50.61                             143    0.1910 73.9 105 
 RUS  HN ES        946  4.33                             143   -0.1410 73.9 105 
 RUS  HN I         946  6.31         3.4 0.38            145           73.9 105 
 BAR2 SZ EP        945 50.88                             139    0.0910 83.4  46 
 BAR2 SZ ES        946  5.22                             139    0.0910 83.4  46 
 BAR2 SZ I         946  6.55         6.2 0.38            141           83.4  46 
 PTB  HZ EP        945 51.35                             135   -0.1810 96.0 303 
 PTB  HN ES        946  6.49                             135    0.0410 96.0 303 
 PTB  HN I         946  7.22         5.4 0.46            137           96.0 303 
 BRR  HZ EP        945 53.29                             129    0.0910  115   1 
 BRR  HN ES        946  9.53                             129    0.1010  115   1 
 BRR  HN I         946 11.25         8.9 0.44            132            115   1 
 GIR2 SZ EP        945 54.37                             126   -0.1310  126  28 
 GIR2 SZ ES        946 11.58                             126   -0.1610  126  28 
                                                                                
