 2012  6 4 0540 16.2 L   6.820 -73.165145.2  RSN 13 0.3 2.4LRSN                1
 GAP=133        0.63       2.4     3.2  4.5 -0.6568E+00  0.5208E+01  0.1347E+01E
 Epicentro: LOS SANTOS - SANTANDER                                             3
 ACTION:UPD 12-08-06 17:47 OP:ep   STATUS:               ID:20120604054016 L   I
 2012-06-04-0540-00M.COL___201                                                 6
 STAT SP IPHASW D HRMM SECON CODA AMPLIT PERI AZIMU VELO AIN AR TRES W  DIS CAZ7
 BAR2 SZ EP        540 35.78                             170   -0.0310 25.3 184 
 BAR2 SZ ES   1    540 51.12                             170    0.02 7 25.3 184 
 BAR2 SZ I         540 53.75        84.8 0.21                          25.3 184 
 PAM  SZ EP        540 38.66                             151    0.3110 77.1  42 
 PAM  SN ES   1    540 55.82                             151    0.21 7 77.1  42 
 RUS  HZ EP        540 39.73                             143   -0.3510  103 175 
 RUS  HN ES   1    540 58.79                             143    0.10 7  103 175 
 RUS  HZ I         540 59.80        22.2 0.26                           103 175 
 PTB  HZ EP   1    540 42.50                             132   -0.48 7  146 258 
 PTB  HN ES   1    541  3.69                             132   -0.18 7  146 258 
 PTB  HZ I         541  8.81        19.0 0.11                           146 258 
 OCA  HZ EP   1    540 44.06                             130   -0.19 7  158 354 
 OCA  HN ES   1    541  5.86                             130   -0.26 7  158 354 
 OCA  HZ I         541  9.11        45.6 0.17                           158 354 
 ZAR  HZ EP   1    540 47.55                             123   -0.78 6  201 292 
 ZAR  HE ES   1    541 13.71                             123    0.32 6  201 292 
 ZAR  HZ I         541 19.92        31.6 0.35                           201 292 
 NOR  SZ EP   1    540 52.04                             118    0.18 6  234 234 
 NOR  SE ES   1    541 19.77                             118    0.10 6  234 234 
 CHI  HZ EP   1    540 54.08                             117    0.03 6  250 195 
 CHI  HN ES   1    541 23.54                             117   -0.02 6  250 195 
 CHI  HZ I         541 29.23        11.0 0.56                           250 195 
 ROSC BZ EP   1    540 54.59                             116    0.20 6  254 210 
 ROSC BZ I         541 30.84        38.4 0.50                           254 210 
 HEL  HZ EP   1    540 57.04                             115    0.81 6  271 255 
 HEL  HZ I         541 34.82        14.8 0.29                           271 255 
 VIL  SZ EP   1    540 59.72                             112   -0.08 5  305 191 
 DBB  SZ EP        541  3.84                             109    0.44 7  337 274 
 PRA  HZ EP   1    541  9.77                             106   -0.04 4  393 209 
                                                                                
