 2016  6 4 0143 28.9 L   6.823 -73.151145.2  RSN 15 0.5 2.0LRSN                1
 GAP=183        0.98       2.9     4.1  5.4 -0.4457E+00  0.7066E+01  0.2018E+01E
 Epicentro: LOS SANTOS - SANTANDER                                             3
 ACTION:UPD 16-07-21 22:15 OP:rebc STATUS:               ID:20160604014328 L   I
 OLDACT:REG 16-06-04 12:53 OP:ak   STATUS:               ID:20160604013742     3
 2016-06-04-0137-42M.COL___325                                                 6
 STAT SP IPHASW D HRMM SECON CODA AMPLIT PERI AZIMU VELO AIN AR TRES W  DIS CAZ7
 BAR2 EZ EP        143 48.72                             170    0.2510 25.8 188 
 BAR2 EZ ES        144  3.45                             170   -0.3210 25.8 188 
 BAR2 EZ I         144  4.86        24.6 0.22                          25.8 188 
 BRR  HZ EP        143 50.41                             153    0.5710 69.5 297 
 BRR  HN ES        144  7.11                             153    0.8910 69.5 297 
 BRR  HZ I         144 11.66        13.9 0.09                          69.5 297 
 RUS  HZ EP        143 52.68                             143   -0.0610  103 176 
 RUS  HN ES        144 11.06                             143   -0.3110  103 176 
 RUS  HZ I         144 12.50        13.6 0.30                           103 176 
 PTB  HZ EP        143 55.05                             132   -0.72 9  148 258 
 PTB  HN ES        144 16.29                             132   -0.47 9  148 258 
 PTB  HZ I         144 19.34        10.1 0.14                           148 258 
 OCA  HZ EP   2    143 57.31                             130    0.44 5  158 353 
 OCA  HN ES        144 18.77                             130    0.04 9  158 353 
 OCA  HZ I         144 23.46        19.6 0.46                           158 353 
 SPBC HN ES        144 19.39                             129   -0.39 9  165 218 
 NOR  HZ EP   2    144  3.87                             118   -0.79 4  236 234 
 NOR  HN ES        144 33.09                             118    0.50 8  236 234 
 NOR  HZ I         144 38.27        11.1 0.16                           236 234 
 CHI  HZ EP   2    144  6.75                             117   -0.02 4  251 195 
 CHI  HN ES        144 36.04                             117   -0.31 8  251 195 
 ROSC BZ EP   9    144  8.87                             116    1.72 0  255 211 
 ROSC BN ES        144 38.70                                   -0.04 8  255 211 
 HEL  HZ EP   2    144  9.95                             115    0.91 4  272 255 
 HEL  HE ES        144 40.45                             115    0.06 8  272 255 
 HEL  HZ I         144 48.75         5.5 0.30                           272 255 
 URE  HZ EP        144  9.10                             114   -0.63 7  282 291 
 URE  HN ES        144 41.17                             114   -0.44 7  282 291 
 URE  HZ I         144 46.11         4.5 0.18                           282 291 
 PTGC HZ EP   4    144 11.81                             111   -1.17 0  311 159 
 PTGC HN ES   4    144 44.70                             111   -2.70 0  311 159 
 CBOC HZ EP   2    144 16.48                             110    0.71 3  334 252 
 CBOC HN ES        144 52.29                             110   -0.07 7  334 252 
 CBOC HZ I         144 56.83         1.5 0.21                           334 252 
 ANIL HN ES        144 58.32                             108    0.56 6  359 224 
 PRA  HZ EP        144 22.28                             106   -0.30 6  394 209 
 PRA  HN ES        145  5.27                             106    0.78 6  394 209 
 PRA  HZ I         145  8.95         3.5 0.22                           394 209 
 ORTC HZ EP        144 23.37                             106    0.42 6  397 216 
 ORTC HN ES        145  5.28                             106    0.13 6  397 216 
 ORTC HZ I         145 10.10         2.6 0.33                           397 216 
                                                                                
