 2016 10 4 0159  6.9 L   6.796 -73.142144.7  RSN 13 0.4 1.9LRSN                1
 GAP=100        0.98       3.6     3.4  5.2 -0.1367E+01  0.2361E+01  0.4264E+01E
 Epicentro: LOS SANTOS - SANTANDER                                             3
 ACTION:UPD 16-11-09 19:16 OP:rebc STATUS:               ID:20161004015741 L   I
 OLDACT:UP  16-10-04 15:26 OP:dani STATUS:               ID:20161004015741 L   3
 OLDACT:UP  16-10-04 15:25 OP:dani STATUS:               ID:20161004015741 L   3
 OLDACT:UP  16-10-04 15:23 OP:dani STATUS:               ID:20161004015741 L   3
 OLDACT:UPD 16-10-04 12:58 OP:edw  STATUS:               ID:20161004015741 L   3
 2016-10-04-0158-00M.COL___369                                                 6
 STAT SP IPHASW D HRMM SECON CODA AMPLIT PERI AZIMU VELO AIN AR TRES W  DIS CAZ7
 BAR2 EZ EP        159 26.34                             171   -0.0210 22.9 191 
 BAR2 EZ ES        159 41.37                             171   -0.2010 22.9 191 
 BAR2 EZ I         159 42.64        18.3 0.26            167           22.9 191 
 BRR  HZ EP     C  159 28.14                             152    0.2110 71.8 299 
 BRR  HN ES        159 45.05                             152    0.6810 71.8 299 
 BRR  HZ I         159 45.82        15.6 0.14            150           71.8 299 
 PAM  EZ EP     C  159 29.29                             151    0.3210 77.5  39 
 PAM  EE ES        159 45.98                             151   -0.2410 77.5  39 
 PAM  EZ I         159 47.78        10.0 0.38            155           77.5  39 
 RUS  HZ EP     C  159 30.40                             144   -0.0710  100 176 
 RUS  HE ES        159 48.55                             144   -0.3410  100 176 
 RUS  HZ I         159 51.20         9.0 0.20            143            100 176 
 PTB  HZ EP        159 33.17                             132   -0.61 9  148 259 
 PTB  HE ES        159 54.22                             132   -0.55 9  148 259 
 PTB  HZ I         159 57.55        10.5 0.16            130            148 259 
 TAM  HZ EP        159 34.78                             130    0.37 9  155 105 
 SPBC HZ EP     C  159 35.37                             129    0.10 9  163 219 
 SPBC HN ES        159 57.87                             129    0.44 9  163 219 
 SPBC HZ I         2 0  6.29        12.2 0.24            128            163 219 
 ZAR  HZ EP        159 38.84                             122   -0.46 9  205 292 
 ZAR  HN ES        2 0  4.65                             122    0.05 9  205 292 
 ZAR  HZ I         2 0 11.48         7.6 0.30            122            205 292 
 NOR  HZ EP        159 42.51                             118   -0.03 8  235 235 
 NOR  HN ES        2 0 10.67                             118    0.30 8  235 235 
 NOR  HZ I         2 0 16.45         7.6 0.18            118            235 235 
 CHI  HZ EP        159 43.76                             117   -0.70 8  248 195 
 CHI  HE ES   4    2 0 15.96                             117    2.17 0  248 195 
 CHI  HZ I         2 0 17.87         2.2 0.13            117            248 195 
 HEL  HE ES   4    2 0 20.08                             114    1.67 0  272 256 
 URE  HZ EP   4    159 41.88                             113   -6.07 0  284 292 
 URE  HE ES   4    2 0 15.64                             113   -4.35 0  284 292 
 URE  HZ I         2 0 26.54         3.5 0.33            113            284 292 
 GUY2CHZ EP   4    159 52.01                             112    1.58 0  301 235 
 GUY2CHZ I         2 0 34.57         5.7 0.78                           301 235 
 PRA  HZ EP        2 0  1.04                             106    0.72 6  392 210 
 PRA  HN ES        2 0 42.68                             106    0.66 6  392 210 
 PRA  HZ I         2 0 49.43         3.2 0.21            107            392 210 
                                                                                
