 2016  5 4 0718 10.6 L   6.869 -73.307123.6  RSN 14 0.5 1.8LRSN                1
 GAP=104        1.12       2.8     3.6  5.9 -0.1070E+01  0.9104E+01  0.4369E+00E
 Epicentro: BETULIA - SANTANDER                                                3
 ACTION:UPD 16-08-18 17:41 OP:cam  STATUS:               ID:20160504071810 L   I
 OLDACT:REG 16-05-04 13:10 OP:edw  STATUS:               ID:20160504070746     3
 2016-05-04-0707-46M.COL___288                                                 6
 STAT SP IPHASW D HRMM SECON CODA AMPLIT PERI AZIMU VELO AIN AR TRES W  DIS CAZ7
 BAR2 EZ IP     D  718 27.98                             164    0.0910 33.6 156 
 BAR2 EZ ES        718 41.16                             164   -0.1910 33.6 156 
 BAR2 EZ I         718 42.45        42.6 0.20            164           33.6 156 
 BRR  HZ EP        718 28.32                             156    0.0110 51.9 300 
 BRR  HN ES        718 42.46                             156    0.3510 51.9 300 
 BRR  HZ I         718 43.38        13.0 0.10            156           51.9 300 
 PAM  EZ EP        718 31.52                             143    0.4710 84.9  52 
 PAM  EN ES        718 47.66                             143    0.6710 84.9  52 
 PAM  EZ I         718 49.78        18.7 0.24            147           84.9  52 
 RUS  HZ EP        718 33.10                             136   -0.0110  111 167 
 RUS  HN ES        718 50.04                             136   -0.6110  111 167 
 RUS  HZ I         718 51.48         4.5 0.26            137            111 167 
 PTB  HZ EP        718 33.41                             130   -0.9810  132 254 
 PTB  HN ES   4    718 50.92                             130   -2.00 0  132 254 
 PTB  HZ I         718 55.18        13.9 0.38            130            132 254 
 OCA  HZ EP        718 36.14                             126   -0.29 9  151 359 
 OCA  HN ES        718 55.99                             126   -0.57 9  151 359 
 OCA  HZ I         718 57.81        21.0 0.42            128            151 359 
 SPBC HZ EP   2    718 37.26                             124    0.16 5  159 212 
 SPBC HN ES        718 56.87                             124   -0.88 9  159 212 
 SPBC HZ I         718 59.72         8.7 0.10            125            159 212 
 ZAR  HZ EP        718 39.83                             120    0.18 9  185 292 
 ZAR  HN ES        719  2.55                             120    0.26 9  185 292 
 ZAR  HZ I         719  8.21        13.3 0.34            121            185 292 
 NOR  HZ E         7 8 30.03                                            225 230 
 NOR  HZ EP        718 44.10                             114   -0.02 8  225 230 
 NOR  HN ES        719 10.65                             114    0.41 8  225 230 
 NOR  HZ I         719 17.28         4.7 0.32            115            225 230 
 CHI  HZ EP        718 48.03                             112    0.45 8  252 191 
 CHI  HN ES        719 17.02                             112    0.61 8  252 191 
 CHI  HZ I         719 23.60         1.5 0.38            113            252 191 
 HEL  HZ EP        718 47.70                             111   -0.38 8  257 253 
 HEL  HN ES        719 17.98                             111    0.68 8  257 253 
 URE  HZ EP   2    718 49.30                             110    0.81 4  264 292 
 URE  HN ES        719 17.57                             110   -0.45 8  264 292 
 URE  HZ I         719 18.25         5.4 0.09            111            264 292 
 CBOC HZ EP        718 55.25                             106    0.22 7  319 250 
 CBOC HE ES        719 30.12                             106    0.45 7  319 250 
 CRJC HN ES        719 59.31                             100   -0.28 5  461   6 
                                                                                
