 2016  2 4 0931 17.5 L   6.804 -73.178137.7  RSN 10 0.3 2.0LRSN                1
 GAP=132        0.59       2.0     2.5  5.1 -0.1137E+01  0.3939E+01  0.6068E+00E
 Epicentro: LOS SANTOS - SANTANDER                                             3
 ACTION:UPD 16-03-04 21:23 OP:rebc STATUS:               ID:20160204093117 L   I
 OLDACT:REG 16-02-04 12:56 OP:dnl  STATUS:               ID:20160204092738     3
 2016-02-04-0927-38M.COL___288                                                 6
 STAT SP IPHASW D HRMM SECON CODA AMPLIT PERI AZIMU VELO AIN AR TRES W  DIS CAZ7
 BAR2 EZ EP   2    931 36.55                             170    0.37 5 23.5 181 
 BAR2 EZ ES   2    931 51.15                             170    0.41 5 23.5 181 
 BAR2 EZ I         931 52.44        20.1 0.18            170           23.5 181 
 PAM  EZ IP     D  931 39.33                             149    0.3210 79.4  42 
 PAM  EN ES        931 55.75                             149   -0.0210 79.4  42 
 PAM  EZ I         931 58.66        13.2 0.61            151           79.4  42 
 RUS  HZ EP     C  931 40.25                             142   -0.2910  101 174 
 RUS  HE ES        931 58.31                             142   -0.2010  101 174 
 RUS  HZ I         932  0.01        11.6 0.27            143            101 174 
 PTB  HN ES        932  3.99                             131    0.19 9  144 258 
 PTB  HZ I         932  6.60        12.1 0.13            130            144 258 
 OCA  HZ EP   2    931 45.22                             128    0.09 5  159 354 
 OCA  HN ES        932  6.32                             128   -0.35 9  159 354 
 OCA  HZ I         932 11.53        22.6 0.27            129            159 354 
 SPBC HZ EP        931 45.38                             127    0.15 9  161 218 
 SPBC HE ES        932  7.17                             127    0.33 9  161 218 
 SPBC HZ I         932 12.11        14.0 0.21            128            161 218 
 ZAR  HZ EP   2    931 49.59                             121    0.51 4  201 292 
 ZAR  HN ES        932 13.58                             121   -0.12 9  201 292 
 ZAR  HZ I         932 21.70        10.3 0.25            121            201 292 
 NOR  HZ EP   2    931 52.83                             117    0.33 4  232 234 
 NOR  HN ES        932 19.32                             117   -0.47 8  232 234 
 NOR  HZ I         932 22.59         9.6 0.15            117            232 234 
 CHI  HZ EP   2    931 54.45                             115   -0.28 4  248 194 
 CHI  HN ES   2    932 23.47                             115   -0.29 4  248 194 
 CHI  HZ I         932 31.97         3.0 0.46            116            248 194 
 GUY2CHZ EP   4    932  1.79                             111    1.33 0  299 234 
 GUY2CHE ES   2    932 34.08                             111    0.13 4  299 234 
 GUY2CHZ I         932 43.07         4.8 0.37                           299 234 
 SOCV BZ EP   4    931 58.37                             110   -2.15 0  304  57 
 SOCV BN ES   4    932 29.04                             110   -5.03 0  304  57 
 PTGC HZ EP   4    931 59.47                             110   -1.76 0  310 158 
 PTGC HE ES   4    932 31.92                             110   -3.40 0  310 158 
                                                                                
