 2012  4 4 0438 14.0 L   6.792 -73.156144.0  RSN 14 0.4 2.6LRSN 3.2WRSN        1
 SPEC AVERAGE  MO 13.9 ST  4.8 OM  2.2 f0 3.62 R0.4108 AL 1.79 WI  5.7 MW  3.2 3
 GAP=136        1.00       4.1     4.8  6.5 -0.1926E+01  0.7905E+01  0.6605E+01E
 Epicentro: LOS SANTOS - SANTANDER                                             3
 SPEC RUS HH N MO 13.9 ST  4.1 OM  2.3 f0 3.25 R0.4523 AL 1.63 WI  6.9 MW  3.2 3
 SPEC RUS HH N T 43854 K 0.020 GD  175 VS 4.20 DE 3.20 Q0230.0 QA 0.60 VS 4.20 3
 SPEC BRR HH E MO 13.8 ST  5.5 OM  2.2 f0 3.98 R0.3693 AL 1.95 WI  4.5 MW  3.1 3
 SPEC BRR HH E T 43851 K 0.020 GD  160 VS 4.20 DE 3.20 Q0230.0 QA 0.60 VS 4.20 3
 ACTION:UP  12-07-05 13:53 OP:tino STATUS:               ID:20120404043814 L   I
 2012-04-04-0437-59S.COL___201                                                 6
 STAT SP IPHASW D HRMM SECON CODA AMPLIT PERI AZIMU VELO AIN AR TRES W  DIS CAZ7
 BAR2 SZ EP        438 33.42                             171   -0.0110 22.3 188 
 BAR2 SZ ES   1    438 48.35                             171   -0.21 7 22.3 188 
 BAR2 SZ I         438 50.17       230.3 0.21                          22.3 188 
 BRR  HZ EP        438 35.30                             152    0.3510 70.6 300 
 BRR  HE ES   1    438 52.40                             152    1.12 7 70.6 300 
 BRR  HZ I         438 54.93        66.0 0.24                          70.6 300 
 PAM  SZ EP        438 36.24                             150    0.1010 78.8  40 
 PAM  SZ I         438 36.55        68.8 0.16                          78.8  40 
 PAM  SN ES   1    438 53.26                             150   -0.13 7 78.8  40 
 RUS  HZ EP        438 37.38                             144   -0.1710 99.8 175 
 RUS  HN ES   1    438 55.70                             144   -0.20 7 99.8 175 
 RUS  HZ I         438 57.37        46.3 0.32                          99.8 175 
 PTB  HZ EP        438 40.21                             132   -0.52 9  146 259 
 PTB  HN ES   1    439  1.06                             132   -0.51 7  146 259 
 PTB  HZ I         439  4.24        22.6 0.21                           146 259 
 OCA  SZ EP   1    438 41.87                             129   -0.40 7  161 354 
 ZAR  HZ EP   1    438 46.02                             122   -0.26 6  203 292 
 ZAR  HE ES   1    439 11.16                             122   -0.28 6  203 292 
 ZAR  HZ I         439 17.84        32.2 0.31                           203 292 
 NOR  SZ EP   1    438 49.46                             118   -0.04 6  233 234 
 NOR  SN ES   1    439 16.33                             118   -0.84 6  233 234 
 CHI  HZ EP   1    438 51.46                             117   -0.04 6  247 195 
 CHI  HZ I         439 24.47        22.4 0.45                           247 195 
 HEL  HZ EP   1    438 54.68                             114    0.68 6  271 256 
 HEL  HZ I         439 32.51        17.5 0.37                           271 256 
 VIL  SZ EP   1    438 57.22                             112   -0.02 5  302 191 
 VIL  SN ES   1    439 31.23                             112    0.28 5  302 191 
 VIL  SZ I         439 36.62        19.1 0.54                           302 191 
 RREF HZ EP   1    439  0.51                             111    0.58 5  320 229 
 RREF HZ I         439 43.12        22.3 0.27                           320 229 
 TOL  SZ EP   1    439  2.65                             109    0.61 5  342 225 
 TOL  SZ ES   1    439 40.07                             109    0.57 5  342 225 
 PRA  HZ EP   1    439  7.21                             106   -0.12 4  391 209 
 PRA  HN ES   1    439 49.63                             106    0.72 4  391 209 
                                                                                
