 2014  5 4 0015 42.4 L   6.807 -73.073146.1  RSN  5 0.3 1.2LRSN                1
 GAP=207        0.71       5.2     7.1  9.1  0.2502E+02 -0.1679E+02 -0.1462E+02E
 Epicentro: LOS SANTOS - SANTANDER                                             3
 ACTION:UPD 15-03-16 16:54 OP:nd   STATUS:               ID:20140504001542 L   I
 OLDACT:UP  14-05-04 13:27 OP:mh   STATUS:               ID:20140504001000     3
 OLDACT:REG 14-05-04 12:37 OP:mh   STATUS:               ID:20140504001000     3
 2014-05-04-0010-00M.COL___273                                                 6
 STAT SP IPHASW D HRMM SECON CODA AMPLIT PERI AZIMU VELO AIN AR TRES W  DIS CAZ7
 BRR  HZ EP   1    016  4.06                             150    0.05 7 78.0 295 
 BRR  HN ES        016 21.13                             150    0.2810 78.0 295 
 BRR  HZ I         016 24.41         4.5 0.39            147           78.0 295 
 RUS  HZ EP        016  6.60                             144    0.3510  101 181 
 RUS  HN ES        016 24.45                             144   -0.3910  101 181 
 RUS  HZ I         016 26.05         1.5 0.19            143            101 181 
 PTB  HN ES   1    016 31.65                             130   -0.14 7  156 259 
 PTB  HZ I         016 37.63         2.1 0.07            129            156 259 
 ZAR  HN ES   1    016 41.52                             121   -0.02 6  211 291 
 SML  HN ES   1    016 47.63                             117   -0.56 6  246 334 
                                                                                
