 2014  7 4 0452 39.3 L   6.801 -73.408126.0  RSN  6 0.3 1.7LRSN                1
 GAP= 96        0.86       4.1     4.4  6.3  0.3590E+01 -0.7621E+00 -0.7600E+01E
 Epicentro: SAN VICENTE DE CHUCURI - SANTANDER                                 3
 ACTION:UPD 15-03-16 20:41 OP:nd   STATUS:               ID:20140704045239 L   I
 OLDACT:REG 14-07-04 12:45 OP:cam  STATUS:               ID:20140704045000     3
 2014-07-04-0450-00M.COL___279                                                 6
 STAT SP IPHASW D HRMM SECON CODA AMPLIT PERI AZIMU VELO AIN AR TRES W  DIS CAZ7
 BAR2 SZ EP     D  452 56.89                             164    0.0310 34.0 133 
 BAR2 SZ ES        453 10.50                             164   -0.0610 34.0 133 
 BAR2 SZ I         453 11.12        43.7 0.40            168           34.0 133 
 BRR  HZ EP        452 57.30                             158    0.2510 47.7 315 
 BRR  HN ES        453 11.25                             158    0.3510 47.7 315 
 BRR  HZ I         453 12.01        14.1 0.12            155           47.7 315 
 PAM  SZ EP        453  0.28                             140   -0.7010 98.3  53 
 RUS  HZ EP   1    453  2.21                             138    0.55 7  107 160 
 RUS  HN ES   1    453 19.31                             138    0.22 7  107 160 
 RUS  HZ I         453 20.87         2.8 0.32            139            107 160 
 PTB  HZ IP     C  453  2.05                             134   -0.0510  119 256 
 PTB  HN ES        453 19.44                             134   -0.4410  119 256 
 PTB  HZ I         453 23.89         4.7 0.44            132            119 256 
 SML  HZ EP   1    453 13.90                             114    0.20 6  233 342 
 SML  HE ES        453 40.68                             114    0.15 8  233 342 
 SML  HZ I         453 47.98         5.6 0.22            114            233 342 
                                                                                
