 2011  4 4 0439 58.1 L   6.790 -73.041148.3  RSN  6 0.2 1.4LRSN                1
 GAP=186        0.57       3.2     7.4  5.5 -0.9233E+01 -0.9096E+01  0.3857E+01E
 Epicentro: LOS SANTOS - SANTANDER                                             3
 ACTION:UP  11-06-22 15:28 OP:REBC STATUS:               ID:20110404043958 L   I
 2011-04-04-0437-09S.COL___138                                                 6
 STAT SP IPHASW D HRMM SECON CODA AMPLIT PERI AZIMU VELO SNR AR TRES W  DIS CAZ7
 BAR2 SZ EP   1    440 18.01                             169    -0.1 7   27 216 
 BAR2 SZ I         440 18.40         5.3 0.20                            27 216 
 BAR2 SZ ES   1    440 33.50                             169    -0.2 7   27 216 
 BTL  SZ EP        440 18.46                             169     0.310   29 300 
 BRR  HZ EP        440 20.06                             149    -0.110   82 295 
 BRR  HZ I         440 20.38         8.0 0.16                            82 295 
 BRR  HE ES   1    440 37.37                             149     0.0 7   82 295 
 GRA  SZ EP   1    440 22.95                             138    -0.5 7  124  12 
 GRA  SZ ES   1    440 43.41                             138     0.3 7  124  12 
 GRA  SZ I         440 47.86         3.0 0.57                           124  12 
 OCA  SZ EP   1    440 26.97                             130     0.1 7  163 349 
 OCA  SZ ES   2    440 49.07                             130    -0.2 5  163 349 
 OCA  SZ I         440 54.63         4.4 0.30                           163 349 
 CHI  HZ EP   1    440 36.18                             117     0.0 6  251 198 
 CHI  HZ I         440 38.31         1.2 0.14                           251 198 
 CHI  HN ES   1    441  5.89                             117     0.0 6  251 198 
                                                                                
