 2015  9 4 0317 13.0 L   6.823 -73.145147.3  RSN 27 0.5 2.9LRSN                1
 GAP= 65        1.10       2.2     2.7  4.5 -0.3766E+00  0.3314E+01  0.1105E+01E
 Epicentro: LOS SANTOS - SANTANDER                                             3
 ACTION:UPD 15-10-28 16:23 OP:cam  STATUS:               ID:20150904031713 L   I
 OLDACT:REG 15-09-04 12:34 OP:ak   STATUS:               ID:20150904030745     3
 2015-09-04-0307-45M.COL___352                                                 6
 STAT SP IPHASW D HRMM SECON CODA AMPLIT PERI AZIMU VELO AIN AR TRES W  DIS CAZ7
 BAR2 EZ IP     D  317 32.97                             170    0.1410 25.9 189 
 BAR2 EZ ES        317 47.73                             170   -0.5910 25.9 189 
 BAR2 EZ I         317 49.18       192.3 0.22            169           25.9 189 
 BRR  HZ IP     C  317 34.76                             153    0.5510 70.1 297 
 BRR  HN ES        317 51.75                             153    0.9610 70.1 297 
 PAM  EZ EP        317 35.92                             152    0.7010 75.3  41 
 PAM  EN ES        317 52.98                             152    0.4010 75.3  41 
 PAM  EZ I         317 53.73        93.0 0.20            150           75.3  41 
 RUS  HZ EP     D  317 36.93                             143   -0.1110  103 176 
 RUS  HN ES        317 55.16                             143   -0.6710  103 176 
 RUS  HZ I         317 58.48        57.5 0.44            142            103 176 
 PTB  HZ EP        317 39.45                             132   -0.66 9  148 258 
 PTB  HN ES        318  0.82                             132   -0.46 9  148 258 
 PTB  HZ I         318  2.64       100.8 0.12            130            148 258 
 TAM  HZ IP     D  317 41.41                             131    0.60 9  156 106 
 TAM  HZ I         318  2.33        57.3 0.36            129            156 106 
 TAM  HN ES        318  2.35                             131   -0.18 9  156 106 
 OCA  HZ EP        317 40.99                             130   -0.17 9  158 353 
 OCA  HN ES        318  2.91                             130   -0.23 9  158 353 
 OCA  HZ I         318 11.45       188.4 0.22            128            158 353 
 SPBC HZ EP        317 41.83                             129    0.06 9  165 218 
 SPBC HN ES        318  4.26                             129    0.02 9  165 218 
 SPBC HZ I         318  8.98       114.8 0.14            127            165 218 
 ZAR  HZ EP        317 45.45                             123    0.03 9  203 291 
 ZAR  HN ES        318 10.35                             123   -0.39 9  203 291 
 ZAR  HZ I         318 17.23        87.1 0.32            121            203 291 
 NOR  HZ EP        317 49.02                             119    0.07 8  236 234 
 NOR  HN ES        318 16.88                             119   -0.14 8  236 234 
 NOR  HZ I         318 22.39        52.1 0.18            117            236 234 
 SML  HZ EP        317 49.17                             118   -0.26 8  241 335 
 SML  HN ES        318 17.53                             118   -0.34 8  241 335 
 SML  HZ I         318 22.10        81.1 0.22            116            241 335 
 CHI  HZ EP        317 51.19                             117    0.18 8  251 195 
 CHI  HN ES        318 20.51                             117   -0.18 8  251 195 
 CHI  HZ I         318 25.83        55.2 0.32            115            251 195 
 ROSC BZ EP   4    317 52.91                             117    1.50 0  255 211 
 ROSC BE ES   4    318 22.99                             117    1.59 0  255 211 
 ROSC BZ I         318 27.56       135.3 0.40            115            255 211 
 HEL  HZ EP   1    317 54.17                             115    0.83 6  273 255 
 HEL  HN ES        318 25.49                             115    0.66 8  273 255 
 HEL  HZ I         318 31.01        40.0 0.28            113            273 255 
 URE  HZ EP        317 53.58                             114   -0.43 7  283 291 
 URE  HN ES   4    318 23.58                             114   -2.45 0  283 291 
 URE  HZ I         318 35.21        62.1 0.18            112            283 291 
 GUY2CHZ EP        317 57.09                             112    0.27 7  303 234 
 GUY2CHN ES        318 30.95                             112   -0.08 7  303 234 
 GUY2CHZ I         318 39.40        44.0 0.58                           303 234 
 VIL  SZ EP        317 56.90                             112    0.17 7  306 191 
 VIL  SN ES        318 30.84                             112   -0.03 7  306 191 
 VIL  SZ I         318 33.78        61.9 0.34            111            306 191 
 PTGC HZ EP     D  317 56.14                             112   -1.01 7  311 159 
 PTGC HN ES   4    318 29.67                             112   -1.95 0  311 159 
 PTGC HZ I         318 32.26        34.7 0.40            110            311 159 
 ELA  HZ EP   4    318  1.74                             110    1.66 0  331 229 
 ELA  HE ES   4    318 38.40                             110    1.57 0  331 229 
 ELA  HZ I         318 45.65        31.2 0.64            109            331 229 
 CBOC HZ EP        318  0.52                             110    0.48 7  335 252 
 CBOC HN ES        318 36.92                             110    0.15 7  335 252 
 CBOC HZ I         318 42.83        12.0 0.30            109            335 252 
 DBB  SZ EP        318  0.30                             110   -0.19 7  339 274 
 DBB  SZ ES        318 36.82                             110   -0.75 7  339 274 
 TOL  SZ EP        318  1.47                             109   -0.03 6  345 224 
 TOL  SN ES        318 39.80                             109    0.45 6  345 224 
 TOL  SZ I         318 49.37        35.8 0.30            108            345 224 
 ARGC HZ EP   1    318  2.89                             109    0.49 5  357 340 
 ARGC HN ES        318 41.31                             109    0.34 6  357 340 
 ARGC HZ I         318 48.74        11.1 0.26            107            357 340 
 PRA  HZ EP        318  6.91                             107    0.11 6  394 209 
 PRA  HN ES        318 48.60                             107   -0.20 6  394 209 
 PRA  HZ I         318 55.48        47.1 0.24            105            394 209 
 ORTC HZ EP        318  7.23                             106    0.05 6  398 216 
 ORTC HN ES        318 50.67                             106    1.20 6  398 216 
 ORTC HZ I         318 56.87        20.7 0.30            105            398 216 
 SJC  HZ EP        318  6.58                             106   -1.75 6  407 327 
 SJC  HN ES   4    318 48.14                             106   -3.38 0  407 327 
 SJC  HZ I         319  2.82        11.0 0.54            105            407 327 
 CRJC HZ EP   4    318 13.01                             104   -2.19 0  465   4 
 CRJC HE ES   4    318 59.69                             104   -4.06 0  465   4 
 CRJC HZ I         319  4.34        16.1 0.21            102            465   4 
                                                                                
