 2013  4 4 0630 10.8 L   6.987 -73.263116.0  RSN  5 0.3 1.2LRSN                1
 GAP=133        0.74       4.5     9.2  9.5  0.1133E+02 -0.9802E+01 -0.1753E+01E
 Epicentro: BETULIA - SANTANDER                                                3
 ACTION:UPD 13-05-22 14:35 OP:EP   STATUS:               ID:20130404063010 L   I
 2013-04-04-0630-00M.COL___245                                                 6
 STAT SP IPHASW D HRMM SECON CODA AMPLIT PERI AZIMU VELO AIN AR TRES W  DIS CAZ7
 GIR2 SZ ES   1    630 39.07                             173    0.35 7 12.7  37 
 BRR  HZ EP     D  630 27.95                             154    0.3710 51.3 285 
 BRR  HN ES        630 40.48                             154   -0.2110 51.3 285 
 BRR  HZ I         630 41.34         4.8 0.14            152           51.3 285 
 RUS  HN ES   1    630 51.22                             130   -0.33 7  123 171 
 OCA  HN ES   1    630 53.09                             126   -0.37 7  139 357 
 OCA  HZ I         630 54.50         3.9 0.53            125            139 357 
 PTB  HE ES   4    630 51.07                             125   -2.47 0  141 249 
 PTB  HZ I         630 54.70         1.8 0.16            124            141 249 
                                                                                
