 2012  1 4 0543 13.6 L   6.724 -73.153159.1  RSN  4 0.1 1.4LRSN                1
 GAP=231        0.40       5.5     5.7  6.0  0.1623E+02 -0.3863E+01  0.3707E+01E
 Epicentro: VILLANUEVA - SANTANDER                                             3
 ACTION:UP  12-02-03 08:13 OP:REBC STATUS:               ID:20120104054313 L   I
 2012-01-04-0540-00M.COL___183                                                 6
 STAT SP IPHASW D HRMM SECON CODA AMPLIT PERI AZIMU VELO SNR AR TRES W  DIS CAZ7
 BAR2 SZ EP   1    543 34.52                             174    -0.2 7   15 193 
 BAR2 SZ I         543 59.59         6.3 0.67                            15 193 
 BRR  HZ EP   1    543 36.37                             154    -0.1 7   75 304 
 BRR  HZ I         543 36.56         6.8 0.14                            75 304 
 BRR  HN ES   1    543 54.33                             154     0.1 7   75 304 
 RUS  HZ EP   1    543 38.39                             149     0.2 7   92 175 
 RUS  HZ I         543 49.00         1.8 0.55                            92 175 
 RUS  HE ES   2    543 57.25                             149    -0.1 5   92 175 
 PTB  HZ EP   1    543 41.53                             135     0.0 7  146 262 
 PTB  HE ES   2    544  3.18                             135    -0.1 5  146 262 
                                                                                
