 2010  6 4 0738 48.0 L   6.775 -73.025149.3  RSN  8 0.6 2.1LRSN                1
 GAP=187        1.06       7.6    15.9 10.7 -0.9049E+02  0.4610E+02 -0.9583E+01E
 Epicentro: CEPITA - SANTANDER                                                 3
 ACTION:UP  10-08-24 10:08 OP:vdl  STATUS:               ID:20100604073848 L   I
 2010-06-04-0736-47S.COL___109                                                 6
 STAT SP IPHASW D HRMM SECON CODA AMPLIT PERI AZIMU VELO SNR AR TRES W  DIS CAZ7
 BAR2 SZ IP        739  8.10                             169     0.010   27 221 
 BAR2 SZ ES   1    739 23.31                             169    -0.5 7   27 221 
 GUE  SZ EP   1    739 12.03                             140    -1.1 7  117   5 
 GRA  SZ IP        739 13.87                             138     0.410  125  11 
 GRA  SZ ES   1    739 34.30                             138     0.9 7  125  11 
 OCA  SZ EP   1    739 16.54                             129    -0.5 7  165 349 
 OCA  SZ ES   2    739 39.95                             129     0.3 5  165 349 
 OCA  SZ I         739 43.32        13.4 0.55                           165 349 
 CHI  HZ EP   2    739 25.99                             118     0.0 4  250 198 
 CHI  HN ES   2    739 56.21                             118     0.5 4  250 198 
 CHI  HZ I         739 57.97         7.4 0.33                           250 198 
 ROSC BZ EP   2    739 27.46                             117     0.6 4  258 214 
 ROSC BN ES   2    739 57.30                             117     0.2 4  258 214 
 HEL  HZ EP   2    739 29.15                             114    -0.6 4  284 257 
 HEL  HZ I         740  6.65         7.7 0.32                           284 257 
 RREF BZ EP   2    739 35.51                             111     0.3 3  330 231 
 RREF BE ES   1    740 12.59                             111     0.5 5  330 231 
 RREF BZ I         740 20.08         7.4 0.27                           330 231 
                                                                                
