 2012 10 4 0213 15.0 L   6.802 -73.110151.5  RSN  4 0.1 1.5LRSN                1
 GAP=195        0.38       4.2    10.2  5.5  0.2955E+02 -0.1482E+02 -0.7841E+01E
 Epicentro: LOS SANTOS - SANTANDER                                             3
 ACTION:UPD 12-11-22 17:01 OP:ep   STATUS:               ID:20121004021315 L   I
 2012-10-04-0210-00M.COL___220                                                 6
 STAT SP IPHASW D HRMM SECON CODA AMPLIT PERI AZIMU VELO AIN AR TRES W  DIS CAZ7
 BAR2 SZ EP   1    213 35.04                             170   -0.27 8 24.6 199 
 BAR2 SZ I         213 51.70        12.0 0.24                          24.6 199 
 GIR2 SZ EP   1    213 35.56                             168    0.22 8 31.9 343 
 GIR2 SZ ES   2    213 51.14                             168   -0.09 5 31.9 343 
 BRR  HZ EP   1    213 36.96                             152    0.04 8 74.6 297 
 BRR  HZ I         213 38.55         7.4 0.10                          74.6 297 
 BRR  HN ES   2    213 54.03                             152   -0.03 5 74.6 297 
 RUS  HZ EP   1    213 39.27                             145   -0.02 7  101 178 
 RUS  HN ES        213 58.31                             145    0.0510  101 178 
 RUS  HZ I         214  0.07         1.5 0.22                           101 178 
                                                                                
