 2017 12 4 0411 58.5 L   6.800 -73.363117.5  RSN  9 0.4 1.6LRSN                1
 GAP=137        1.10       3.3     3.6  7.8  0.2734E+01  0.4048E+01 -0.4969E+01E
 Epicentro: SAN VICENTE DE CHUCURI - SANTANDER                                 3
 ACTION:UPD 18-01-04 13:16 OP:rebc STATUS:               ID:20171204041158 L   I
 OLDACT:REG 17-12-04 13:39 OP:leo  STATUS:               ID:20171204040743     3
 2017-12-04-0408-00M.COL___489                                                 6
 STAT SP IPHASW D HRMM SECON CODA AMPLIT PERI AZIMU VELO AIN AR TRES W  DIS CAZ7
 BAR2 EZ EP        412 15.15                             165    0.1810 30.5 139 
 BAR2 EZ ES        412 27.81                             165    0.0010 30.5 139 
 BAR2 EZ I         412 29.04        16.5 0.40            169           30.5 139 
 RUS  HZ EP        412 19.63                             136   -0.3610  105 163 
 RUS  HN ES        412 36.33                             136   -0.4110  105 163 
 RUS  HZ I         412 38.78         4.7 0.30            140            105 163 
 PTB  HZ EP        412 20.10                             130   -0.9710  124 257 
 PTB  HN ES        412 39.30                             130    0.6410  124 257 
 PTB  HZ I         412 42.52         5.0 0.20            132            124 257 
 SPBC HN ES        412 43.12                             124   -0.04 9  149 212 
 OCA  HZ EP        412 24.49                             122   -0.20 9  159   2 
 OCA  HN ES        412 45.09                             122   -0.01 9  159   2 
 OCA  HZ I         412 48.99        14.1 0.24            125            159   2 
 ZAR  HZ EP        412 27.21                             119    0.31 9  182 295 
 ZAR  HE ES        412 49.40                             119    0.36 9  182 295 
 ZAR  HZ I         412 56.39         3.4 0.26            120            182 295 
 YPLC HZ EP        412 28.68                             117    0.88 9  190 145 
 YPLC HN ES        412 50.85                             117    0.21 9  190 145 
 NOR  HN ES        412 55.56                             114   -0.13 8  216 231 
 NOR  HE ES        412 56.00                             114            216 231 
 URE  HN ES        413  4.63                             109   -0.28 8  262 294 
                                                                                
