 2017  1 4 0702  9.8 L   6.779 -73.399122.4  RSN  4 0.3 0.8LRSN                1
 GAP=175        0.84       5.9     5.1  7.0  0.1444E+02  0.7741E+01  0.8717E+01E
 Epicentro: SAN VICENTE DE CHUCURI - SANTANDER                                 3
 ACTION:UPD 17-05-22 15:55 OP:jn   STATUS:               ID:20170104070209 L   I
 OLDACT:REG 17-01-04 12:52 OP:lv   STATUS:               ID:20170104065746     3
 2017-01-04-0658-00M.COL___369                                                 6
 STAT SP IPHASW D HRMM SECON CODA AMPLIT PERI AZIMU VELO AIN AR TRES W  DIS CAZ7
 BAR2 EZ EP        7 2 26.79                             165   -0.1210 31.6 131 
 BAR2 EZ ES        7 2 39.68                             165   -0.5410 31.6 131 
 BRR  HZ EP        7 2 27.20                             156   -0.1110 50.1 316 
 BRR  HE ES        7 2 41.45                             156    0.5110 50.1 316 
 RUS  HZ EP        7 2 31.94                             137    0.2710  104 160 
 RUS  HE ES        7 2 48.96                             137    0.2710  104 160 
 RUS  HZ I         7 2 50.46         0.9 0.28            137            104 160 
 PTB  HZ EP        7 2 32.19                             132   -0.1910  120 257 
 PTB  HN ES        7 2 49.85                             132   -0.1110  120 257 
 PTB  HZ I         7 2 53.82         1.5 0.13            131            120 257 
                                                                                
