 2014  1 4 0221 32.6 L   6.743 -73.114144.8  RSN  6 0.5 1.3LRSN                1
 GAP=143        1.29       5.6     6.7  9.3 -0.4350E+01  0.8058E+01  0.8182E+01E
 Epicentro: JORDAN - SANTANDER                                                 3
 ACTION:UPD 14-03-13 09:51 OP:ep   STATUS:               ID:20140104022132 L   I
 OLDACT:DUP 14-01-04 10:16 OP:stll STATUS:               ID:20140104021818d    3
 2014-01-04-0218-17M.COL___240                                                 6
 STAT SP IPHASW D HRMM SECON CODA AMPLIT PERI AZIMU VELO AIN AR TRES W  DIS CAZ7
 BAR2 SZ EP        221 52.36                             172    0.3310 18.3 204 
 BAR2 SZ ES        222  7.15                             172   -0.0210 18.3 204 
 BAR2 SZ I         222  8.48        10.4 0.68            169           18.3 204 
 BRR  HZ EP        221 54.33                             150    0.3210 77.3 301 
 BRR  HN ES        222 11.37                             150    0.6710 77.3 301 
 PAM  SZ EP        221 55.36                             150    0.4610 80.3  35 
 PAM  SN ES        222 11.34                             150   -0.9410 80.3  35 
 PAM  SZ I         222 14.27         5.2 0.50            152           80.3  35 
 RUS  HZ EP        221 55.47                             145   -0.3310 94.1 178 
 RUS  HN ES        222 14.34                             145    0.4510 94.1 178 
 RUS  HZ I         222 16.35         2.2 0.24            143           94.1 178 
 PTB  HZ EP        221 59.51                             131   -0.20 9  150 261 
 PTB  HE ES        222 20.17                             131   -0.67 9  150 261 
 PTB  HZ I         222 22.44         2.6 0.44            132            150 261 
 CHI  HN ES        222 38.34                             117   -0.28 8  243 196 
 CHI  HZ I         222 47.22         1.0 0.52            117            243 196 
                                                                                
