 2017  5 4 0619 46.6 L   6.749 -73.163149.5  RSN  6 0.4 1.4LRSN                1
 GAP=231        0.90       5.0     5.9  8.1  0.1269E+02  0.4541E+00  0.4387E+00E
 Epicentro: LOS SANTOS - SANTANDER                                             3
 ACTION:UPD 17-06-16 13:32 OP:jn   STATUS:               ID:20170504061946 L   I
 OLDACT:UP  17-05-04 18:05 OP:edw  STATUS:               ID:20170504061745     3
 OLDACT:REG 17-05-04 13:05 OP:edw  STATUS:               ID:20170504061745     3
 2017-05-04-0618-00M.COL___370                                                 6
 STAT SP IPHASW D HRMM SECON CODA AMPLIT PERI AZIMU VELO AIN AR TRES W  DIS CAZ7
 BRR  HZ IP     D  620  8.03                             153   -0.1510 72.4 303 
 BRR  HN ES        620 25.26                             153    0.2210 72.4 303 
 BRR  HZ I         620 27.98         4.6 0.36            155           72.4 303 
 RUS  HZ EP        620 10.39                             146    0.0910 95.1 175 
 RUS  HN ES        620 28.78                             146   -0.0310 95.1 175 
 RUS  HZ I         620 32.11         1.6 0.28            148           95.1 175 
 PTB  HZ EP        620 13.08                             134   -0.49 9  145 261 
 PTB  HN ES        620 33.95                             134   -0.70 9  145 261 
 PTB  HZ I         620 39.72         3.7 0.56            136            145 261 
 SPBC HZ EP        620 15.20                             131    0.38 9  158 220 
 SPBC HN ES        620 37.04                             131    0.17 9  158 220 
 SPBC HZ I         620 39.32         6.0 0.10            133            158 220 
 ZAR  HN ES        620 45.34                             123    0.52 9  204 294 
 NOR  HN ES   2    620 50.14                             120    0.51 4  230 235 
 SJC  HN ES   4    621 23.54                             106   -2.91 0  413 328 
                                                                                
