 2011 10 4 0256  9.0 L   6.790 -73.090148.8  RSN  4 0.2 1.4LRSN                1
 GAP=144        0.43       3.1     4.6  4.6 -0.3823E+00 -0.1457E+01  0.5818E+00E
 Epicentro: LOS SANTOS - SANTANDER                                             3
 ACTION:UPD 12-07-13 16:01 OP:ep   STATUS:               ID:20111004025609 L   I
 2011-10-04-0254-01S.COL___171                                                 6
 STAT SP IPHASW D HRMM SECON CODA AMPLIT PERI AZIMU VELO AIN AR TRES W  DIS CAZ7
 BAR2 SZ EP   1    256 28.82                             170   -0.18 7 24.1 205 
 BAR2 SZ ES   1    256 44.47                             170   -0.13 7 24.1 205 
 BAR2 SZ I         256 46.81         6.4 0.31                          24.1 205 
 PAM  SZ EP   1    256 31.68                             152    0.32 7 74.5  35 
 PAM  SZ I         256 31.86         3.9 0.16                          74.5  35 
 PAM  SN ES   1    256 48.69                             152   -0.12 7 74.5  35 
 BRR  HZ EP   1    256 30.67                             151   -0.13 7 77.1 297 
 BRR  HE ES   1    256 47.97                             151    0.15 7 77.1 297 
 BRR  HZ I         256 53.10         4.5 0.23                          77.1 297 
 RUS  HZ EP   1    256 32.84                             145   -0.10 7 99.2 180 
 RUS  HN ES   1    256 51.81                             145    0.19 7 99.2 180 
 RUS  HZ I         256 54.11         2.7 0.43                          99.2 180 
                                                                                
