 2016 11 4 0650  8.0 L   6.856 -73.140149.3  RSN  5 0.4 1.4LRSN                1
 GAP=176        0.90       6.4     5.5 12.5 -0.1120E+02  0.3060E+01 -0.2531E+02E
 Epicentro: LOS SANTOS - SANTANDER                                             3
 ACTION:UPD 17-10-26 21:04 OP:lp   STATUS:               ID:20161104065008 L   I
 OLDACT:UP  16-11-04 15:55 OP:dani STATUS:               ID:20161104064741     3
 OLDACT:REG 16-11-04 13:09 OP:dani STATUS:               ID:20161104064741     3
 2016-11-04-0648-00M.COL___343                                                 6
 STAT SP IPHASW D HRMM SECON CODA AMPLIT PERI AZIMU VELO AIN AR TRES W  DIS CAZ7
 PAM  EZ EP        650 30.57                             153    0.3110 72.3  42 
 PAM  EE ES   2    650 47.22                             153   -0.43 5 72.3  42 
 PAM  EZ I         650 49.82         4.6 0.57             90           72.3  42 
 PTB  HZ EP        650 34.93                             132   -0.46 9  150 257 
 PTB  HN ES        650 56.29                             132   -0.49 9  150 257 
 PTB  HZ I         650 58.57         1.9 0.12             90            150 257 
 SPBC HE ES        651  0.39                             129    0.34 9  168 218 
 SPBC HZ I         651  5.90         2.0 0.10             90            168 218 
 ZAR  HN ES        651  6.31                             123    0.49 9  202 290 
 ZAR  HZ I         651 11.35         3.7 0.29             56            202 290 
 LL6C HZ EP   4    650 30.58                             111   -22.5 0  319 357 
 SJC  HZ EP        651  3.00                             106   -0.07 6  404 326 
 SJC  HZ I         651 41.99         0.6 0.37             55            404 326 
                                                                                
