 2014  6 4 0851 19.0 L   6.535 -73.192155.1  RSN 16 0.4 2.1LRSN                1
 GAP= 84        1.01       2.8     3.3  5.7 -0.1688E+00  0.4973E+01 -0.2183E+00E
 Epicentro: PINCHOTE - SANTANDER                                               3
 OLDACT:REG 14-06-04 13:50 OP:fm   STATUS:               ID:20140604084817     3
 ACTION:UPD 14-07-01 22:50 OP:nd   STATUS:               ID:20140604085119 L   I
 OLDACT:UP  14-06-04 18:39 OP:fm   STATUS:               ID:20140604084817     3
 2014-06-04-0848-17M.COL___250                                                 6
 STAT SP IPHASW D HRMM SECON CODA AMPLIT PERI AZIMU VELO AIN AR TRES W  DIS CAZ7
 BAR2 SZ EP        851 39.58                             178    0.0410 6.36  10 
 BAR2 SZ ES   1    851 55.05                             178   -0.52 7 6.36  10 
 RUS  HZ EP        851 42.21                             154    0.2910 72.1 170 
 RUS  HE ES        852  0.23                             154    0.4210 72.1 170 
 RUS  SZ I         852  1.11        15.5 0.26            152           72.1 170 
 PTB  HZ EP        851 45.28                             136   -0.77 9  140 270 
 PTB  HN ES        852  7.20                             136    0.04 9  140 270 
 PTB  SZ I         852  9.02        12.8 0.10            133            140 270 
 TAM  HZ IP     C  851 48.20                             133    0.76 9  155  94 
 TAM  HN ES        852  8.89                             133   -0.75 9  155  94 
 TAM  SZ I         852  9.21        19.9 0.48            136            155  94 
 OCA  HZ EP        851 50.82                             127    0.07 9  189 356 
 OCA  HE ES        852 16.22                             127    0.70 9  189 356 
 OCA  SZ I         852 18.56        18.2 0.24            129            189 356 
 ZAR  HZ EP        851 52.49                             123   -0.41 8  212 300 
 ZAR  HN ES        852 19.34                             123   -0.01 8  212 300 
 ZAR  SZ I         852 25.04        12.4 0.28            123            212 300 
 NOR  HZ EP        851 52.91                             123   -0.28 8  215 240 
 NOR  HE ES        852 20.15                             123    0.29 8  215 240 
 NOR  SZ I         852 27.57        10.5 0.16            121            215 240 
 CHI  HZ EP        851 53.80                             123   -0.33 8  219 196 
 CHI  HN ES        852 21.33                             123   -0.20 8  219 196 
 CHI  SZ I         852 33.25         3.7 1.72            121            219 196 
 HEL  HZ EP        851 58.51                             118   -0.02 8  261 262 
 HEL  HN ES   4    852 27.14                             118   -2.23 0  261 262 
 HEL  SZ I         852 32.95         4.2 1.72            117            261 262 
 SML  HZ EP        851 58.14                             117   -0.71 8  269 339 
 SML  HE ES        852 30.02                             117    0.09 8  269 339 
 SML  SZ I         852 31.34        20.3 0.08            118            269 339 
 GUY2CHZ EP   4    852  2.33                             116    1.53 0  281 239 
 GUY2CHN ES   4    852 36.49                             116    3.07 0  281 239 
 GUY2CSZ I         852 39.65         5.8 1.40                           281 239 
 RREF HZ EP   4    852  5.34                             114    2.29 0  299 233 
 RREF HN ES   4    852 40.61                             114    3.19 0  299 233 
 RREF SZ I         852 42.05         5.9 1.46            113            299 233 
 TOL  SZ EP   1    852  5.62                             113    0.70 5  320 228 
 TOL  SN ES   4    852 43.82                             113    3.07 0  320 228 
 TOL  SZ I         852 46.40        10.1 0.20            112            320 228 
 CBOC HZ EP        852  5.52                             112    0.66 7  321 257 
 CBOC HN ES   4    852 38.81                             112   -1.83 0  321 257 
 CBOC SZ I         852 55.23         2.5 0.94            112            321 257 
 PRA  HZ EP        852  9.88                             110    0.24 6  364 211 
 PRA  HN ES        852 49.14                             110    0.00 6  364 211 
 PRA  SZ I         852 52.40        10.2 3.30            109            364 211 
 ORTC HZ EP        852 10.26                             109    0.07 6  369 218 
 ORTC HN ES   4    852 51.77                             109    1.64 0  369 218 
 ORTC SZ I         853  7.77         4.8 1.64            109            369 218 
                                                                                
