 2017  3 4 0815 37.1 L   6.812 -73.167138.8  RSN  5 0.3 1.1LRSN                1
 GAP=236        0.84       4.9     5.2  6.2  0.6310E+01  0.4566E+01  0.3547E+01E
 Epicentro: LOS SANTOS - SANTANDER                                             3
 ACTION:UPD 17-05-25 18:36 OP:jn   STATUS:               ID:20170304081537 L   I
 OLDACT:DUP 17-03-04 17:51 OP:lv   STATUS:               ID:20170304080743d    3
 2017-03-04-0808-00M.COL___391                                                 6
 STAT SP IPHASW D HRMM SECON CODA AMPLIT PERI AZIMU VELO AIN AR TRES W  DIS CAZ7
 BAR2 EZ EP        815 55.75                             170   -0.1610 24.4 184 
 BAR2 EZ ES        816 10.42                             170   -0.1610 24.4 184 
 BAR2 EZ I         816 12.88         3.0 0.18            167           24.4 184 
 BRR  HZ EP        815 57.94                             152    0.6110 68.5 298 
 BRR  HN ES        816 13.14                             152    0.0210 68.5 298 
 RUS  HZ EP        816  0.39                             142    0.1110  102 175 
 RUS  HN ES        816 18.31                             142   -0.0610  102 175 
 RUS  HZ I         816 21.31         1.5 0.21            142            102 175 
 PTB  HZ EP        816  2.61                             131   -0.70 9  146 258 
 PTB  HN ES        816 23.72                             131   -0.04 9  146 258 
 PTB  HZ I         816 26.00         1.3 0.09            132            146 258 
 SPBC HZ EP        816  5.08                             127    0.05 9  163 218 
 SPBC HN ES        816 27.12                             127    0.30 9  163 218 
 SPBC HZ I         816 29.51         2.9 0.15            128            163 218 
                                                                                
