 2012  9 4 0516 58.2 L   6.001 -73.282144.4  RSN  4 0.2 1.3LRSN                1
 GAP=285        0.49       8.8     6.2  9.0 -0.2772E+01  0.1477E+02  0.4799E+02E
 Epicentro: GAMBITA - SANTANDER                                                3
 ACTION:UPD 12-10-22 14:17 OP:ep   STATUS:               ID:20120904051658 L   I
 2012-09-04-0510-00M.COL___218                                                 6
 STAT SP IPHASW D HRMM SECON CODA AMPLIT PERI AZIMU VELO AIN AR TRES W  DIS CAZ7
 BAR2 SZ EP   1    517 19.68                             154    0.40 7 66.3  10 
 BAR2 SZ I         517 19.84         4.0 0.08                          66.3  10 
 BAR2 SZ ES   1    517 35.54                             154   -0.18 7 66.3  10 
 GIR2 SZ ES   1    517 41.90                             138   -0.08 7  120   5 
 BRR  HZ EP   1    517 23.41                             135   -0.16 7  131 339 
 BRR  HZ I         517 42.21         3.3 0.36                           131 339 
 BRR  HN ES   1    517 43.53                             135    0.17 7  131 339 
 PTB  HZ EP   1    517 24.35                             133   -0.27 7  143 295 
 PTB  HE ES   2    517 45.43                             133    0.20 5  143 295 
                                                                                
