 2016  8 4 0744 21.6 L   6.835 -73.317120.4  RSN 10 0.3 1.8LRSN                1
 GAP=106        0.72       2.7     3.0  4.4  0.2518E+00  0.6269E+01  0.9794E+00E
 Epicentro: ZAPATOCA - SANTANDER                                               3
 ACTION:UPD 16-10-29 15:32 OP:rebc STATUS:               ID:20160804074421 L   I
 OLDACT:UP  16-08-04 16:07 OP:dani STATUS:               ID:20160804073738     3
 OLDACT:REG 16-08-04 12:34 OP:dani STATUS:               ID:20160804073738     3
 2016-08-04-0738-00M.COL___323                                                 6
 STAT SP IPHASW D HRMM SECON CODA AMPLIT PERI AZIMU VELO AIN AR TRES W  DIS CAZ7
 BAR2 EZ IP     C  744 38.27                             165   -0.1510 30.7 151 
 BAR2 EZ ES        744 52.01                             165    0.5010 30.7 151 
 BAR2 EZ I         744 52.68        52.7 0.32                          30.7 151 
 BRR  HZ IP     C  744 38.67                             154   -0.3410 53.0 305 
 BRR  HN ES        744 52.55                             154   -0.0210 53.0 305 
 BRR  HZ I         744 53.20        19.5 0.14                          53.0 305 
 PAM  EZ EP        744 42.00                             142    0.0110 88.2  51 
 PAM  EZ ES        744 57.88                             142    0.0110 88.2  51 
 PAM  EZ I         744 59.05         8.3 0.16                          88.2  51 
 RUS  HE ES        745  0.20                             136   -0.4310  107 166 
 RUS  HZ I         745  1.96         8.4 0.26                           107 166 
 SPBC HZ EP        744 47.26                             124   -0.23 9  155 213 
 SPBC HN ES        745  7.76                             124    0.09 9  155 213 
 SPBC HZ I         745 10.65        14.4 0.10                           155 213 
 ZAR  HZ EP        744 50.62                             119    0.12 9  185 293 
 ZAR  HE ES        745 13.17                             119    0.15 9  185 293 
 ZAR  HZ I         745 16.67        10.6 0.26                           185 293 
 HEL  HZ EP        744 59.13                             111    0.44 8  255 254 
 HEL  HN ES   4    745 25.97                             111   -1.63 0  255 254 
 HEL  HZ I         745 32.22         3.0 0.44                           255 254 
 URE  HN ES   2    745 27.77                             110   -1.09 4  265 293 
 CBOC HZ EP        745  5.90                             106    0.25 7  317 250 
 CBOC HZ I         745 42.31         1.4 0.22                           317 250 
 PRA  HZ EP        745 14.00                             102    0.28 6  386 207 
 PRA  HZ I         746  3.35         1.9 0.24                           386 207 
                                                                                
