 2013  2 4 0129  9.2 L   6.812 -73.068156.0  RSN  5 0.3 1.6LRSN                1
 GAP=146        0.78       5.3     5.5  6.9 -0.1070E+01  0.6051E+01  0.1079E+02E
 Epicentro: LOS SANTOS - SANTANDER                                             3
 ACTION:UPD 13-03-12 09:30 OP:ep   STATUS:               ID:20130204012910dL   I
 2013-02-04-0127-50M.COL___176                                                 6
 STAT SP IPHASW D HRMM SECON CODA AMPLIT PERI AZIMU VELO AIN AR TRES W  DIS CAZ7
 BAR2 SZ EP        129 30.08                             170   -0.0710 27.4 208 
 BAR2 SZ ES   2    129 46.02                             170   -0.46 5 27.4 208 
 PAM  SZ EP   1    129 32.56                             155    0.38 7 71.1  35 
 PAM  SN ES        129 49.79                             155   -0.3110 71.1  35 
 PAM  SN I         129 51.45         5.9 0.72            158           71.1  35 
 BRR  HZ IP     D  129 32.15                             152    0.2910 78.3 295 
 BRR  HN ES        129 49.85                             152    0.3210 78.3 295 
 BRR  HN I         129 50.04        11.9 0.22            151           78.3 295 
 RUS  HN EP        129 34.18                             146    0.1410  102 181 
 RUS  HZ ES   1    129 53.60                             146    0.18 7  102 181 
 RUS  HN I         129 54.28         2.9 0.12            146            102 181 
 PTB  HZ EP        129 37.15                             133   -0.65 9  156 259 
 PTB  HN ES   2    129 59.99                             133   -0.11 5  156 259 
 PTB  HZ I         130  5.40         5.8 0.32            132            156 259 
                                                                                
