 2011  8 4 0100 58.3 L   6.779 -73.109151.9  RSN 17 0.3 3.5LRSN                1
 GAP=129        0.45       1.8     2.6  3.1 -0.1213E+01  0.1817E+01  0.9441E+00E
 Epicentro: LOS SANTOS - SANTANDER                                             3
 ACTION:UPD 12-07-25 14:05 OP:epov STATUS:               ID:20110804010058 L   I
 2011-08-04-0059-20S.COL___139                                                 6
 STAT SP IPHASW D HRMM SECON CODA AMPLIT PERI AZIMU VELO AIN AR TRES W  DIS CAZ7
 BAR2 SZ IP        1 1 18.65                             171    0.0210 22.2 202 
 BAR2 SZ ES   2    1 1 34.07                             171   -0.43 5 22.2 202 
 BAR2 SZ I         1 1 35.19       963.2 0.25                          22.2 202 
 BRR  HZ IP     C  1 1 20.49                             152    0.1210 75.9 299 
 BRR  HN ES   1    1 1 37.77                             152    0.19 7 75.9 299 
 BRR  HZ I         1 1 39.27       454.5 0.09                          75.9 299 
 PAM  SZ IP        1 1 21.45                             152    0.3310 76.7  36 
 PAM  SN ES   1    1 1 38.63                             152   -0.30 7 76.7  36 
 RUS  HZ IP     D  1 1 22.50                             146    0.0310 98.0 178 
 RUS  HN ES   1    1 1 41.42                             146    0.09 7 98.0 178 
 RUS  HZ I         1 1 42.97       444.8 0.39                          98.0 178 
 OCA  SZ EP   1    1 1 27.10                             130   -0.25 7  163 352 
 OCA  SZ ES   2    1 1 49.77                             130   -0.24 5  163 352 
 OCA  SZ I         1 1 53.90       463.3 0.20                           163 352 
 NOR  SZ EP   1    1 1 34.24                             119   -0.35 6  237 236 
 NOR  SE ES   2    1 2  2.91                             119    0.00 4  237 236 
 CHI  HZ EP   1    1 1 36.36                             118    0.15 6  247 196 
 CHI  HE ES   1    1 2  5.61                             118   -0.18 6  247 196 
 CHI  HZ I         1 2 14.09       155.9 0.52                           247 196 
 ROSC BE ES   2    1 2  6.79                             118    0.01 4  253 212 
 ROSC BZ I         1 2 13.86       235.5 0.50                           253 212 
 HEL  HZ EP   1    1 1 39.82                             116    0.62 6  275 256 
 HEL  HN ES   2    1 2 10.74                             116   -0.36 4  275 256 
 HEL  HZ I         1 2 16.61       131.0 0.29                           275 256 
 VIL  SZ EP   1    1 1 41.59                             113   -0.24 5  302 192 
 VIL  SN ES   2    1 2 15.78                             113   -0.01 4  302 192 
 VIL  SZ I         1 2 18.89        91.6 0.49                           302 192 
 GUY  SZ EP   1    1 1 43.15                             113    0.47 5  306 236 
 GUY  SN ES   2    1 2 16.95                             113   -0.35 4  306 236 
 GUY  SZ I         1 2 26.03       359.2 0.40                           306 236 
 DBB  SZ EP   1    1 1 46.39                             110   -0.12 5  344 275 
 DBB  SZ ES   2    1 2 23.51                             110   -0.61 3  344 275 
 TOL  SZ EP   1    1 1 47.12                             110    0.18 5  345 225 
 COD  HZ EP   2    1 1 47.12                             110   -0.11 3  351 354 
 SDV  BZ EP   1    1 1 47.98                             109   -0.40 5  359  49 
 SDV  BZ I         1 2 27.41        69.8 0.48                           359  49 
 PRA  HZ EP   2    1 1 52.14                             107    0.11 3  392 210 
 PRA  HN ES   2    1 2 33.88                             107   -0.06 3  392 210 
 SJA  SZ EP   1    1 1 52.30                             107   -0.60 4  399 194 
 SJA  SZ ES   2    1 2 35.72                             107    0.22 3  399 194 
                                                                                
