 2017  8 4 0939 56.1 L   6.808 -73.169140.1  RSN  5 0.4 1.5LRSN                1
 GAP=143        1.09       6.0     6.2  8.5 -0.1642E+02  0.1559E+02 -0.2715E+01E
 Epicentro: LOS SANTOS - SANTANDER                                             3
 ACTION:UPD 17-09-04 20:16 OP:rebc STATUS:               ID:20170804093956 L   I
 OLDACT:UP  17-08-04 18:27 OP:dani STATUS:               ID:20170804093741     3
 OLDACT:REG 17-08-04 13:30 OP:osc  STATUS:               ID:20170804093741     3
 2017-08-04-0938-00M.COL___356                                                 6
 STAT SP IPHASW D HRMM SECON CODA AMPLIT PERI AZIMU VELO AIN AR TRES W  DIS CAZ7
 BAR2 EZ EP        940 15.03                             170   -0.0210 23.9 183 
 BAR2 EZ ES        940 28.95                             170   -0.8910 23.9 183 
 BAR2 EZ I         940 31.66        20.2 0.20            170           23.9 183 
 PAM  EZ EP        940 17.91                             149    0.1410 78.4  41 
 PAM  EN ES        940 35.15                             149    0.4710 78.4  41 
 PAM  EZ I         940 37.31         3.5 0.46            154           78.4  41 
 RUS  HZ EP        940 19.01                             142   -0.3510  102 175 
 RUS  HE ES        940 37.90                             142    0.3810  102 175 
 RUS  HZ I         940 38.95         5.2 0.24            146            102 175 
 PTB  HZ EP        940 22.04                             131   -0.34 9  145 258 
 PTB  HE ES        940 43.08                             131    0.20 9  145 258 
 PTB  HZ I         940 48.39         1.8 0.22            132            145 258 
 SPBC HZ EP        940 24.01                             128   -0.05 9  162 218 
 SPBC HE ES        940 46.41                             128    0.52 9  162 218 
 SPBC HZ I         940 52.09         6.8 0.09            130            162 218 
                                                                                
