 2016 11 4 0727 48.3 L   6.789 -73.159145.5  RSN  5 0.3 1.0LRSN                1
 GAP=135        0.79       5.1     4.8  6.2  0.5298E+01 -0.1618E+01 -0.4903E+01E
 Epicentro: LOS SANTOS - SANTANDER                                             3
 ACTION:UPD 17-10-26 21:04 OP:lp   STATUS:               ID:20161104072748 L   I
 OLDACT:REG 16-11-04 13:11 OP:dani STATUS:               ID:20161104071746     3
 2016-11-04-0718-00M.COL___343                                                 6
 STAT SP IPHASW D HRMM SECON CODA AMPLIT PERI AZIMU VELO AIN AR TRES W  DIS CAZ7
 BAR2 EZ ES        728 22.62                             171   -0.5010 21.9 187 
 BRR  HZ EP        728  9.41                             153    0.0510 70.5 300 
 BRR  HN ES        728 26.23                             153    0.4210 70.5 300 
 BRR  HZ I         728 28.45         2.7 0.26            152           70.5 300 
 PAM  EZ EP        728 10.51                             150   -0.0710 79.3  40 
 RUS  HZ EP        728 11.83                             144   -0.0910 99.5 175 
 RUS  HN ES        728 30.76                             144    0.3910 99.5 175 
 RUS  HZ I         728 33.84         0.5 0.27            144           99.5 175 
 PTB  HE EP        728 15.13                             132    0.06 9  146 259 
 PTB  HZ ES        728 35.68                             132   -0.29 9  146 259 
 PTB  HE I         728 41.11         3.3 0.35            131            146 259 
                                                                                
