 2010  7 4 0345 32.0 L   6.782 -73.038144.0  RSN 11 0.4 2.4LRSN                1
 GAP=134        0.84       3.4     6.0  6.4 -0.7287E+01 -0.9719E+01 -0.2357E+00E
 Epicentro: CEPITA - SANTANDER                                                 3
 ACTION:UPD 10-12-01 15:14 OP:pat  STATUS:               ID:20100704034532 L   I
 2010-07-04-0344-59S.COL___117                                                 6
 STAT SP IPHASW D HRMM SECON CODA AMPLIT PERI AZIMU VELO AIN AR TRES W  DIS CAZ7
 BAR2 SZ EP        345 51.63                             169     0.110   27 217 
 BAR2 SZ ES   1    346  6.39                             169    -0.3 7   27 217 
 BRR  HZ IP     C  345 53.42                             149    -0.310   83 296 
 BRR  HN ES   1    346 10.32                             149    -0.3 7   83 296 
 BRR  HZ I         346 14.76        53.1 0.17                            83 296 
 RUS  HZ EP        345 55.52                             144     0.110   98 183 
 RUS  HN ES   1    346 13.95                             144     0.2 7   98 183 
 RUS  HZ I         346 14.93        23.4 0.15                            98 183 
 BRI  SZ IP        345 56.13                             141     0.510  107  14 
 GUE  SZ EP   1    345 56.40                             139    -0.2 7  117   6 
 OCA  SZ EP        346  0.00                             129    -0.6 9  164 349 
 OCA  SZ ES   1    346 23.69                             129     0.9 7  164 349 
 OCA  SZ I         346 26.59        51.2 0.30                           164 349 
 CHI  HZ EP   2    346  9.68                             117    -0.1 4  250 198 
 CHI  HN ES   2    346 39.44                             117     0.2 4  250 198 
 CHI  HZ I         346 46.44        10.8 0.31                           250 198 
 ROSC BZ EP   2    346 10.59                             116     0.0 4  257 214 
 ROSC BE ES   2    346 40.54                             116    -0.1 4  257 214 
 ROSC BZ I         346 50.37        11.9 0.35                           257 214 
 RREF HZ EP   2    346 19.99                             110     1.0 3  330 231 
 RREF HN ES   2    346 55.36                             110    -0.3 3  330 231 
 RREF HZ I         347  1.38        13.5 0.45                           330 231 
 SDV  BZ EP        346 21.18                             108     0.1 6  353  49 
 SDV  BZ I         346 22.02         6.8 0.13                           353  49 
 SDV  BE ES   1    346 58.73                             108    -0.7 5  353  49 
 PRA  HZ EP   2    346 25.87                             106    -0.1 3  396 211 
 PRA  HE ES   1    347  8.04                             106     0.0 4  396 211 
 PRA  HZ I         347 12.67        16.1 0.17                           396 211 
                                                                                
