 2017  4 4 0151  6.7 L   6.984 -73.503  4.0  RSN  9 0.4 1.7LRSN                1
 GAP=126        0.92       2.2     1.7  4.7  0.1146E+01  0.8873E+00  0.1337E+01E
 Epicentro: SAN VICENTE DE CHUCURI - SANTANDER                                 3
 ACTION:UPD 17-05-30 21:08 OP:jn   STATUS:               ID:20170404015106 L   I
 OLDACT:UP  17-04-04 13:37 OP:and  STATUS:               ID:20170404014743     3
 OLDACT:UP  17-04-04 13:36 OP:and  STATUS:               ID:20170404014743     3
 OLDACT:UP  17-04-04 13:36 OP:and  STATUS:               ID:20170404014743     3
 OLDACT:UP  17-04-04 13:34 OP:and  STATUS:               ID:20170404014743     3
 OLDACT:UP  17-04-04 13:34 OP:and  STATUS:               ID:20170404014743     3
 OLDACT:UP  17-04-04 13:34 OP:and  STATUS:               ID:20170404014743     3
 OLDACT:REG 17-04-04 12:18 OP:and  STATUS:               ID:20170404014743     3
 2017-04-04-0148-00M.COL___365                                                 6
 STAT SP IPHASW D HRMM SECON CODA AMPLIT PERI AZIMU VELO AIN AR TRES W  DIS CAZ7
 BRR  HZ IP     D  151 11.25                              47   -0.0910 26.8 300 
 BRR  HN ES        151 15.02                              47    0.0510 26.8 300 
 BRR  HZ I         151 15.94       172.5 0.20             47           26.8 300 
 BAR2 EZ IP     D  151 16.26                              47    0.2510 56.0 141 
 BAR2 EZ ES        151 23.28                              47   -0.0010 56.0 141 
 BAR2 EZ I         151 25.18        18.4 0.22             47           56.0 141 
 PAM  EZ EP        151 22.73                              47    0.2410 97.0  66 
 PAM  EN ES        151 34.36                              47   -0.4510 97.0  66 
 PAM  EZ I         151 42.74        12.2 0.28             47           97.0  66 
 PTB  HZ EP        151 25.10                              47    0.1810  116 245 
 PTB  HN ES        151 38.76                              47   -0.3810  116 245 
 PTB  HZ I         151 41.36        33.9 0.24             47            116 245 
 RUS  HZ EP        151 28.11                              47    0.7210  129 159 
 RUS  HN ES        151 42.87                              47   -0.6610  129 159 
 RUS  HZ I         151 51.35         5.8 0.30             47            129 159 
 ZAR  HZ EP        151 31.84                              47    0.33 9  160 291 
 ZAR  HN ES        151 50.52                              47   -0.35 9  160 291 
 ZAR  HZ I         151 52.41        17.5 0.20             47            160 291 
 NOR  HN ES   2    152  5.23                              37    0.56 4  218 224 
 URE  HZ EP   3    151 43.12                              37    1.21 2  240 291 
 URE  HN ES   4    152 12.00                              37    2.61 0  240 291 
 URE  HZ I         152 15.13         4.7 0.26             37            240 291 
 HEL  HN ES   2    152 10.42                              37    0.05 4  241 249 
 HEL  HZ I         152 17.13         3.9 0.32             37            241 249 
                                                                                
