 2015  3 4 0858 26.7 L   6.876 -73.316125.2  RSN 10 0.4 1.5LRSN                1
 GAP=155        0.99       2.8     7.2  6.3  0.2864E+01  0.6241E+01  0.5806E-01E
 Epicentro: BETULIA - SANTANDER                                                3
 ACTION:UPD 15-04-30 16:23 OP:nd   STATUS:               ID:20150304085826 L   I
 OLDACT:REG 15-03-04 12:58 OP:spq  STATUS:               ID:20150304084736     3
 2015-03-04-0847-36M.COL___284                                                 6
 STAT SP IPHASW D HRMM SECON CODA AMPLIT PERI AZIMU VELO AIN AR TRES W  DIS CAZ7
 BAR2 EZ EP        858 44.44                             164    0.2610 34.7 155 
 BAR2 EZ ES   1    858 57.66                             164   -0.17 7 34.7 155 
 BRR  HZ EP     D  858 44.85                             156    0.3510 50.7 300 
 BRR  HN ES        858 58.99                             156    0.6110 50.7 300 
 BRR  HZ I         858 59.80         8.9 0.12            152           50.7 300 
 RUS  HZ EP        858 49.20                             136   -0.2010  112 167 
 RUS  HE ES        859  6.74                             136   -0.3810  112 167 
 RUS  HZ I         859  7.94         4.3 0.24            137            112 167 
 PTB  HZ EP        858 49.74                             130   -0.7710  132 254 
 PTB  HE ES   4    859  7.44                             130   -1.66 0  132 254 
 PTB  HZ I         859 13.16         3.9 0.23            128            132 254 
 OCA  HZ EP        858 52.70                             126    0.17 9  151 360 
 OCA  HN ES        859 12.30                             126   -0.39 9  151 360 
 OCA  HZ I         859 19.26         7.9 0.30            126            151 360 
 SPBC HZ EP        858 53.53                             125    0.24 9  159 212 
 SPBC HE ES   1    859 13.55                             125   -0.49 7  159 212 
 SPBC HZ I         859 16.09         4.8 0.24            124            159 212 
 SML  HZ EP        859  0.35                             115   -0.21 8  229 339 
 SML  HE ES   1    859 26.94                             115   -0.04 6  229 339 
 SML  HZ I         859 33.16         8.9 0.26            114            229 339 
 CHI  HZ EP        859  4.46                             112    0.67 8  253 191 
 CHI  HN ES   1    859 33.06                             112    0.33 6  253 191 
 CHI  HZ I         859 39.64         0.9 0.28            112            253 191 
 GUY2CHZ EP   4    859  9.61                             109    1.33 0  291 231 
 GUY2CHE ES   4    859 42.45                             109    1.73 0  291 231 
 GUY2CHZ I         859 47.09         1.5 0.32                           291 231 
 MON  HZ EP   4    859 11.41                             106   -1.22 0  334 309 
 MON  HN ES   4    859 47.40                             106   -1.06 0  334 309 
 MON  HZ I         859 51.32         1.1 0.38            105            334 309 
                                                                                
