 2016  7 4 0430  2.2 L   6.570 -73.410118.5  RSN 13 0.5 1.9LRSN                1
 GAP=114        1.09       4.1     3.5  5.6  0.4478E+01  0.4151E+01  0.6318E+01E
 Epicentro: HATO - SANTANDER                                                   3
 ACTION:UPD 17-03-29 16:46 OP:lp   STATUS:               ID:20160704043002 L   I
 OLDACT:UP  16-07-04 18:41 OP:dani STATUS:               ID:20160704042745     3
 OLDACT:UP  16-07-04 18:40 OP:dani STATUS:               ID:20160704042745     3
 OLDACT:UP  16-07-04 18:37 OP:dani STATUS:               ID:20160704042745     3
 OLDACT:UP  16-07-04 18:37 OP:dani STATUS:               ID:20160704042745     3
 OLDACT:REG 16-07-04 13:14 OP:dani STATUS:               ID:20160704042745     3
 2016-07-04-0427-45M.COL___325                                                 6
 STAT SP IPHASW D HRMM SECON CODA AMPLIT PERI AZIMU VELO AIN AR TRES W  DIS CAZ7
 BAR2 EZ EP        430 18.71                             167    0.1210 25.3  84 
 BAR2 EZ ES        430 31.69                             167    0.3110 25.3  84 
 BAR2 EZ I         430 33.20        49.4 0.40            160           25.3  84 
 BRR  HZ EP        430 19.93                             148   -0.3210 68.1 331 
 BRR  HN ES        430 34.71                             148    0.3710 68.1 331 
 BRR  HZ I         430 37.25        16.0 0.12            145           68.1 331 
 RUS  HZ EP        430 21.84                             143   -0.1510 83.2 154 
 RUS  HE ES        430 37.30                             143   -0.1510 83.2 154 
 RUS  HZ I         430 38.77         8.1 0.22            134           83.2 154 
 PTB  HZ IP   9 C  430 22.44                             132   -1.58 0  116 268 
 PTB  HE ES        430 38.73                             133   -0.7510  116 268 
 PTB  HZ I         430 42.41        14.2 0.16            128            116 268 
 SPBC HZ EP        430 24.85                             130   -0.1410  125 216 
 SPBC HN ES   4    430 41.95                             130   -0.83 0  125 216 
 SPBC HZ I         430 43.37        32.2 0.10            124            125 216 
 TAM  HZ EP        430 30.64                             119    0.24 9  180  95 
 TAM  HE ES   4    430 51.13                             119   -1.29 0  180  95 
 TAM  HZ I         431  1.65        11.4 0.58            113            180  95 
 ZAR  HZ EP        430 31.45                             117    0.01 9  190 303 
 ZAR  HN ES        430 53.30                             117   -0.97 9  190 303 
 ZAR  HZ I         430 58.78        10.1 0.24            113            190 303 
 NOR  HE ES        430 55.67                             117    0.05 9  196 236 
 NOR  HZ I         431  0.17         8.6 0.16            112            196 236 
 HEL  HZ EP        430 37.71                             112    0.44 8  238 260 
 HEL  HN ES        431  4.66                             112    0.02 8  238 260 
 HEL  HZ I         431  9.58         5.2 0.24            108            238 260 
 GUY2CHZ EP   9    430 41.80                             109    1.59 0  263 236 
 GUY2CHN ES        431 11.56                             109    0.09 8  263 236 
 GUY2CHZ I         431 19.48         4.6 0.28                           263 236 
 CBOC HZ EP        430 44.92                             106    0.95 7  298 255 
 CBOC HE ES   4    431 11.14                             106   -5.42 0  298 255 
 PTGC HZ EP        430 42.91                             106   -0.79 7  298 152 
 PTGC HZ I         431 12.56         4.7 0.32            103            298 152 
 PTGC HN ES        431 15.58                             106   -0.51 7  298 152 
 PRA  HZ EP        430 51.38                             103    0.81 6  356 207 
 PRA  HE ES   4    431 31.04                             103    2.73 0  356 207 
 PRA  HZ I         431 40.84         2.8 0.26            101            356 207 
 SJC  HZ EP   4    430 55.19                             100   -2.64 0  416 332 
                                                                                
