 2016 12 4 0727 23.7 L   6.938 -73.409116.6  RSN  4 0.3 1.2LRSN                1
 GAP=208        0.84       7.3     5.0  6.8  0.1490E+02  0.1041E+02 -0.3786E+01E
 Epicentro: SAN VICENTE DE CHUCURI - SANTANDER                                 3
 ACTION:UPD 17-01-11 20:12 OP:rebc STATUS:               ID:20161204072723 L   I
 OLDACT:UP  16-12-04 16:07 OP:dani STATUS:               ID:20161204071742     3
 OLDACT:REG 16-12-04 12:50 OP:dani STATUS:               ID:20161204071742     3
 2016-12-04-0718-00M.COL___349                                                 6
 STAT SP IPHASW D HRMM SECON CODA AMPLIT PERI AZIMU VELO AIN AR TRES W  DIS CAZ7
 BRR  HZ EP        727 39.45                             160   -0.4810 38.3 299 
 BRR  HN ES        727 52.48                             160   -0.1410 38.3 299 
 BRR  HZ I         727 53.11         7.8 0.17            158           38.3 299 
 BAR2 EZ EP        727 40.73                             157    0.1310 45.7 147 
 BAR2 EZ ES        727 54.09                             157    0.2710 45.7 147 
 BAR2 EZ I         727 55.45         6.8 0.26            157           45.7 147 
 PTB  HZ EP        727 45.67                             130   -0.4210  124 249 
 PTB  HN ES        728  3.63                             130    0.0410  124 249 
 PTB  HZ I         728  8.01         1.8 0.33            128            124 249 
 ZAR  HZ EP        727 51.40                             120    0.55 9  171 291 
 ZAR  HE ES        728 12.22                             120    0.17 9  171 291 
 ZAR  HZ I         728 15.81         1.4 0.11            120            171 291 
                                                                                
