 2013  8 4 0727  1.9 L   7.362 -73.202137.7  RSN  5 0.3 1.8LRSN                1
 GAP=264        0.77       7.5     4.6  5.9  0.1101E+02  0.4392E+01 -0.1416E+02E
 Epicentro: RIONEGRO - SANTANDER                                               3
 ACTION:UPD 14-01-14 08:58 OP:ep   STATUS:               ID:20130804072701 L   I
 OLDACT:DUP 13-08-04 11:26 OP:carl STATUS:               ID:20130804071901d    3
 2013-08-04-0719-59M.COL___268                                                 6
 STAT SP IPHASW D HRMM SECON CODA AMPLIT PERI AZIMU VELO AIN AR TRES W  DIS CAZ7
 GIR2 SZ EP        727 20.63                             166    0.0110 31.3 178 
 GIR2 SZ ES        727 34.75                             166   -0.4610 31.3 178 
 GIR2 SZ I         727 36.54         9.0 0.26            167           31.3 178 
 BRR  HZ EP        727 21.88                             154    0.1610 63.0 243 
 BRR  HN ES        727 37.33                             154    0.1510 63.0 243 
 BRR  HN I         727 38.29        22.3 0.18            155           63.0 243 
 BAR2 SZ EP        727 23.61                             146    0.2010 85.2 179 
 BAR2 SZ ES        727 40.48                             146    0.3010 85.2 179 
 BAR2 SZ I         727 41.26        12.8 0.14            148           85.2 179 
 PTB  HZ EP        727 29.88                             127   -0.08 9  166 237 
 PTB  HN ES        727 51.46                             127   -0.37 9  166 237 
 ZAR  HZ EP        727 31.29                             124   -0.41 9  183 275 
 ZAR  HE ES        727 55.38                             124    0.44 9  183 275 
                                                                                
