 2012 11 4 0817 36.4 L   6.783 -73.122142.0  RSN  8 0.4 2.1LRSN                1
 GAP=140        0.86       4.1     5.0  6.3  0.1005E+01  0.9927E+01  0.9246E+00E
 Epicentro: LOS SANTOS - SANTANDER                                             3
 ACTION:UPD 12-12-05 15:31 OP:}ep  STATUS:               ID:20121104081736 L   I
 2012-11-04-0810-00M.COL___229                                                 6
 STAT SP IPHASW D HRMM SECON CODA AMPLIT PERI AZIMU VELO AIN AR TRES W  DIS CAZ7
 BAR2 SZ EP        817 55.46                             171   -0.0910 22.1 198 
 BAR2 SZ ES   1    818 10.08                             171   -0.40 7 22.1 198 
 BAR2 SZ I         818 11.55        37.4 0.22                          22.1 198 
 GIR2 SZ EP   1    817 55.60                             166   -0.09 7 33.7 346 
 GIR2 SZ ES   1    818 10.63                             166   -0.11 7 33.7 346 
 BRR  HZ EP        817 57.38                             151    0.0510 74.4 299 
 BRR  HN ES   1    818 14.50                             151    0.85 7 74.4 299 
 BRR  HN I         818 14.81        55.0 0.18                          74.4 299 
 PAM  SZ EP   1    817 58.31                             150    0.11 7 77.3  37 
 PAM  SN ES   1    818 15.61                             150    0.40 7 77.3  37 
 PAM  SN I         818 16.49        24.5 0.46                          77.3  37 
 RUS  HZ EP        817 59.37                             144   -0.2610 98.5 178 
 RUS  HN ES   1    818 17.92                             144    0.18 7 98.5 178 
 RUS  HN I         818 19.57        12.9 0.36                          98.5 178 
 OCA  HZ EP   1    818  4.51                             128   -0.12 7  163 352 
 OCA  HN ES   1    818 26.09                             128   -0.56 7  163 352 
 ZAR  HZ EP   1    818  9.08                             121    0.15 6  207 292 
 ZAR  HN ES   1    818 33.91                             121   -0.39 6  207 292 
 ZAR  HN I         818 35.27        15.2 0.12                           207 292 
 HEL  HZ EP   1    818 17.89                             114    1.24 6  274 256 
 HEL  HE ES   1    818 47.38                             114   -0.67 6  274 256 
 HEL  HE I         818 55.57         5.4 0.46                           274 256 
                                                                                
