 2017  4 4 0348 31.0 L   6.750 -73.169146.9  RSN  6 0.4 1.4LRSN                1
 GAP=231        0.66       5.0     4.7  6.0  0.1197E+02  0.6333E+01 -0.1630E+01E
 Epicentro: LOS SANTOS - SANTANDER                                             3
 ACTION:UPD 17-05-30 21:08 OP:jn   STATUS:               ID:20170404034831 L   I
 OLDACT:UP  17-04-04 14:04 OP:and  STATUS:               ID:20170404034744     3
 OLDACT:UP  17-04-04 14:04 OP:and  STATUS:               ID:20170404034744     3
 OLDACT:UP  17-04-04 14:04 OP:and  STATUS:               ID:20170404034744     3
 OLDACT:UP  17-04-04 14:03 OP:and  STATUS:               ID:20170404034744     3
 OLDACT:UP  17-04-04 14:03 OP:and  STATUS:               ID:20170404034744     3
 OLDACT:REG 17-04-04 12:22 OP:and  STATUS:               ID:20170404034744     3
 2017-04-04-0348-00M.COL___359                                                 6
 STAT SP IPHASW D HRMM SECON CODA AMPLIT PERI AZIMU VELO AIN AR TRES W  DIS CAZ7
 BAR2 EZ EP        348 50.43                             173   -0.2210 17.5 185 
 BAR2 EZ ES        349  5.96                             173   -0.0310 17.5 185 
 BAR2 EZ I         349  8.39         3.5 0.26            169           17.5 185 
 BRR  HZ EP        348 52.49                             152    0.2010 71.9 303 
 BRR  HN ES   2    349  9.76                             152    0.85 5 71.9 303 
 BRR  HZ I         349 11.43         3.1 0.10            149           71.9 303 
 RUS  HZ EP   2    348 55.02                             145    0.55 5 95.2 174 
 RUS  HN ES        349 12.60                             145   -0.1910 95.2 174 
 RUS  HZ I         349 14.17         3.0 0.26            147           95.2 174 
 PTB  HZ EP   3    348 56.60                             133   -1.13 2  144 261 
 PTB  HN ES        349 18.41                             133   -0.18 9  144 261 
 PTB  HZ I         349 25.72         3.9 0.48            132            144 261 
 SPBC HZ EP        348 59.25                             130    0.24 9  157 220 
 SPBC HN ES   3    349 21.97                             130    1.09 2  157 220 
 ZAR  HN ES        349 28.63                             122   -0.20 9  204 294 
 ZAR  HZ I         349 34.61         4.4 0.32            123            204 294 
                                                                                
