 2015  3 4 0538 34.8 L   6.809 -73.145141.9  RSN  8 0.4 1.5LRSN                1
 GAP=136        0.97       3.5     4.7  6.6  0.2341E+00  0.4857E+01 -0.4801E+01E
 Epicentro: LOS SANTOS - SANTANDER                                             3
 ACTION:UPD 15-04-30 16:22 OP:nd   STATUS:               ID:20150304053834 L   I
 OLDACT:REG 15-03-04 12:43 OP:spq  STATUS:               ID:20150304053738     3
 2015-03-04-0537-38M.COL___290                                                 6
 STAT SP IPHASW D HRMM SECON CODA AMPLIT PERI AZIMU VELO AIN AR TRES W  DIS CAZ7
 BAR2 EZ EP        538 53.86                             170   -0.1410 24.3 190 
 BAR2 EZ ES   1    539  8.36                             170   -0.60 7 24.3 190 
 BAR2 EZ I         539  9.66         5.5 0.14            172           24.3 190 
 BRR  HZ EP        538 55.86                             152    0.3410 70.8 298 
 BRR  HN ES        539 12.50                             152    0.8310 70.8 298 
 BRR  HZ I         539 16.19         6.1 0.28            151           70.8 298 
 PAM  SZ EP     C  538 56.91                             150    0.3410 76.6  40 
 PAM  SN ES        539 13.46                             150   -0.0810 76.6  40 
 PAM  SZ I         539 15.99         5.8 0.56            152           76.6  40 
 RUS  HZ EP        538 58.30                             143    0.0410  102 176 
 RUS  HE ES        539 16.33                             143   -0.2210  102 176 
 RUS  HZ I         539 17.34         2.0 0.40            147            102 176 
 PTB  HZ EP   1    539  1.57                             131    0.08 7  148 258 
 PTB  HN ES        539 22.07                             131   -0.23 9  148 258 
 PTB  HZ I         539 24.67         4.6 0.16            132            148 258 
 OCA  HZ EP   1    539  3.37                             129    0.64 7  159 353 
 OCA  HN ES        539 24.02                             129   -0.49 9  159 353 
 OCA  HZ I         539 27.16         5.6 0.30            130            159 353 
 SML  HZ EP        539 10.78                             117   -0.35 8  243 335 
 SML  HN ES   1    539 39.19                             117   -0.26 6  243 335 
 SML  HZ I         539 46.04         4.8 0.26            118            243 335 
 MON  HZ EP   4    539 21.82                             108   -1.78 0  353 308 
 MON  HN ES   1    540  0.84                             108   -0.82 5  353 308 
 MON  HZ I         540  3.67         1.1 0.48            109            353 308 
                                                                                
