 2013  1 4 0136 29.7 L   6.355 -73.616  4.0  RSN  5 0.4 0.9LRSN                1
 GAP= 99        1.08       3.5     4.6 12.0  0.8674E-01 -0.3885E+02  0.5765E+01E
 Epicentro: SANTA HELENA DEL OPON - SANTANDER                                  3
 ACTION:UPD 13-02-15 09:12 OP:ep   STATUS:               ID:20130104013629 L   I
 2013-01-04-0129-37M.COL___208                                                 6
 STAT SP IPHASW D HRMM SECON CODA AMPLIT PERI AZIMU VELO AIN AR TRES W  DIS CAZ7
 BAR2 SZ EP        136 39.05                              47    0.2310 54.6  61 
 BAR2 SZ ES        136 45.96                              47    0.0310 54.6  61 
 BAR2 SZ I         136 46.70        15.6 0.28             47           54.6  61 
 RUS  HZ EP        136 43.00                              47    0.3710 78.0 131 
 RUS  HN ES        136 52.07                              47   -0.6410 78.0 131 
 RUS  HZ I         136 54.07         2.2 0.24             47           78.0 131 
 BRR  HZ EP        136 42.89                              47   -0.1110 83.8 353 
 PTB  HZ EP        136 44.31                              47   -0.4310 95.2 282 
 CHI  HZ EP        137  0.08                              37    0.72 9  191 184 
                                                                                
