 2013  8 4 0204 52.1 L   6.804 -73.158141.9  RSN 12 0.5 2.0LRSN                1
 GAP=182        1.00       2.9     5.0  6.2  0.6325E-01  0.5524E+01  0.1142E+01E
 Epicentro: LOS SANTOS - SANTANDER                                             3
 ACTION:UPD 14-01-14 08:58 OP:ep   STATUS:               ID:20130804020452 L   I
 OLDACT:REG 13-08-04 07:41 OP:carl STATUS:               ID:20130804015959     3
 2013-08-04-0159-59M.COL___270                                                 6
 STAT SP IPHASW D HRMM SECON CODA AMPLIT PERI AZIMU VELO AIN AR TRES W  DIS CAZ7
 BAR2 SZ EP        2 5 11.44                             170    0.1210 23.6 186 
 BAR2 SZ ES   1    2 5 25.44                             170   -0.84 7 23.6 186 
 BAR2 SZ I         2 5 27.24        24.9 0.30            168           23.6 186 
 GIR2 SZ EP        2 5 11.41                             167    0.0710 30.6 353 
 GIR2 SZ ES   1    2 5 26.07                             167   -0.25 7 30.6 353 
 GIR2 SZ I         2 5 28.80        13.6 0.32            167           30.6 353 
 BRR  HZ EP        2 5 13.15                             152    0.3510 69.7 299 
 BRR  HN ES        2 5 29.46                             152    0.5610 69.7 299 
 BRR  HZ I         2 5 32.46        18.6 0.14            151           69.7 299 
 RUS  HZ EP        2 5 15.46                             143   -0.1110  101 175 
 RUS  HN ES   1    2 5 34.00                             143    0.17 7  101 175 
 RUS  HZ I         2 5 35.90        10.6 0.16            145            101 175 
 PTB  HZ EP        2 5 17.96                             131   -0.72 9  146 259 
 PTB  HN ES   1    2 5 38.97                             131   -0.41 7  146 259 
 PTB  HZ I         2 5 41.74        15.8 0.40            131            146 259 
 OCA  HZ EP   1    2 5 21.26                             129    1.16 7  160 354 
 OCA  HN ES   1    2 5 41.30                             129   -0.60 7  160 354 
 OCA  HZ I         2 5 44.27        11.3 0.18            132            160 354 
 SPBC HZ EP   1    2 5 20.37                             128    0.06 7  163 218 
 SPBC HN ES        2 5 42.68                             128    0.41 9  163 218 
 SPBC HZ I         2 5 49.53        12.4 0.30            129            163 218 
 ZAR  HZ EP   1    2 5 23.97                             122   -0.22 6  203 292 
 ZAR  HN ES        2 5 49.36                             122    0.18 9  203 292 
 ZAR  HZ I         2 5 55.29        15.5 0.56            123            203 292 
 NOR  HZ EP   1    2 5 27.95                             118    0.39 6  234 234 
 NOR  HE ES   1    2 5 55.36                             118    0.17 6  234 234 
 NOR  HZ I         2 5 59.09         7.4 0.32            119            234 234 
 SML  HZ EP   1    2 5 28.36                             117   -0.09 6  243 336 
 SML  HN ES        2 5 56.36                             117   -0.40 8  243 336 
 CHI  HE ES        2 5 59.01                             116    0.11 8  249 195 
 CHI  HZ I         2 6  1.50         4.6 0.26            118            249 195 
 PRA  HN ES        2 6 26.23                             106   -0.89 6  392 209 
                                                                                
