 2010  1 4 0508  1.9 L   6.790 -72.918140.6  RSN  5 0.1 1.0LRSN                1
 GAP=206        0.33       3.2    15.5  6.5 -0.1260E+02  0.1051E+01 -0.2663E+01E
 Epicentro: CEPITA - SANTANDER                                                 3
 ACTION:UP  10-08-24 09:42 OP:vdl  STATUS:               ID:20100104050802 L   I
 2010-01-04-0504-30S.COL___097                                                 6
 STAT SP IPHASW D HRMM SECON CODA AMPLIT PERI AZIMU VELO SNR AR TRES W  DIS CAZ7
 BAR2 SZ EP        5 8 21.34                             165     0.110   37 233 
 BAR2 SZ ES   3    5 8 36.28                             165    -0.1 2   37 233 
 GIR2 SZ EP   2    5 8 21.35                             162     0.0 5   44 316 
 RUS  BZ EP        5 8 25.20                             143     0.010  101 190 
 RUS  BE ES   2    5 8 43.11                             143    -0.2 5  101 190 
 RUS  BZ I         5 8 45.70         1.8 0.25                           101 190 
 OCA  SZ EP   2    5 8 30.27                             127    -0.1 5  166 345 
 CHI  HZ EP   2    5 8 39.72                             115    -0.3 4  255 201 
 CHI  HZ I         5 9  8.58         0.6 0.38                           255 201 
 CHI  HN ES   2    5 9  9.96                             115     0.2 4  255 201 
                                                                                
