 2017  3 4 0645 31.7 L   6.798 -73.153146.2  RSN 26 0.4 2.7LRSN                1
 GAP= 71        0.94       2.7     2.6  4.2 -0.4325E+00  0.3103E+01  0.2340E+01E
 Epicentro: LOS SANTOS - SANTANDER                                             3
 ACTION:UPD 17-05-25 18:36 OP:jn   STATUS:               ID:20170304064531 L   I
 OLDACT:REG 17-03-04 12:31 OP:lv   STATUS:               ID:20170304063741     3
 2017-03-04-0638-00M.COL___397                                                 6
 STAT SP IPHASW D HRMM SECON CODA AMPLIT PERI AZIMU VELO AIN AR TRES W  DIS CAZ7
 BAR2 EZ IP     C  645 51.32                             171   -0.0810 23.0 188 
 BAR2 EZ ES        646  6.53                             171   -0.2210 23.0 188 
 BAR2 EZ I         646  9.15       177.3 0.40            168           23.0 188 
 BRR  HZ IP     C  645 53.07                             153    0.1910 70.5 299 
 BRR  HE ES        646  9.78                             153    0.3910 70.5 299 
 BRR  HZ I         646 14.31        93.2 0.16            150           70.5 299 
 PAM  EZ EP        645 54.09                             151    0.0610 78.1  40 
 PAM  EN ES        646 11.41                             151   -0.0110 78.1  40 
 PAM  EZ I         646 13.75        73.8 0.60            154           78.1  40 
 RUS  HZ EP        645 55.27                             144   -0.2410  100 176 
 RUS  HN ES        646 14.08                             144    0.0210  100 176 
 RUS  HZ I         646 15.17        80.6 0.28            143            100 176 
 PTB  HZ EP        645 57.85                             132   -0.80 9  147 259 
 PTB  HN ES        646 19.10                             132   -0.55 9  147 259 
 PTB  HZ I         646 24.21        39.2 0.03            130            147 259 
 TAM  HZ IP     C  645 59.66                             131    0.15 9  156 105 
 TAM  HN ES        646 21.31                             131    0.13 9  156 105 
 TAM  HZ I         646 22.79        26.8 0.54            133            156 105 
 SPBC HZ EP        646  0.19                             129   -0.00 9  162 219 
 SPBC HZ I         646 24.90        90.1 0.30            128            162 219 
 ZAR  HZ EP        646  3.98                             123   -0.14 9  203 292 
 ZAR  HN ES        646 29.67                             123    0.28 9  203 292 
 ZAR  HZ I         646 35.02        69.6 0.26            122            203 292 
 NOR  HZ EP        646  7.45                             119    0.06 8  234 234 
 NOR  HN ES        646 35.77                             119    0.56 8  234 234 
 NOR  HZ I         646 40.85        33.9 0.20            118            234 234 
 CHI  HZ EP        646  9.56                             117    0.16 8  248 195 
 CHI  HN ES        646 38.79                             117    0.00 8  248 195 
 CHI  HZ I         646 44.95        23.3 0.34            117            248 195 
 ROSC BZ EP   9    646 11.48                             117    1.68 0  252 211 
 ROSC BN ES        646 42.73                                    1.55 8  252 211 
 ROSC BZ I         646 46.01        72.7 0.36            116            252 211 
 HEL  HZ EP   4    646 13.78                             115    1.92 0  271 256 
 HEL  HN ES   4    646 40.14                             115   -3.03 0  271 256 
 HEL  HZ I         646 51.63        19.0 0.34            114            271 256 
 URE  HZ ES   4    646 42.03                             114   -2.69 0  283 292 
 VIL  EZ EP        646 15.04                             112   -0.08 7  303 191 
 VIL  EN ES        646 49.01                             112    0.04 7  303 191 
 VIL  EZ I         646 54.80        34.3 0.34            112            303 191 
 PTGC HZ EP   4    646 14.45                             112   -1.16 0  309 158 
 PTGC HN ES   4    646 47.74                             112   -2.11 0  309 158 
 PTGC HZ I         646 52.70        23.6 0.32            112            309 158 
 RECRCHZ EP   4    646 20.15                             111    2.90 0  317 230 
 RECRCHN ES   4    646 54.09                             111    1.32 0  317 230 
 ELA  HZ EP   4    646 20.97                             111    2.47 0  328 229 
 ELA  HN ES        646 54.26                             111   -0.73 7  328 229 
 ELA  HZ I         647  3.98        19.6 0.56            110            328 229 
 CBOC HZ EP        646 19.10                             110    0.54 7  333 252 
 CBOC HN ES        646 55.89                             110    0.81 7  333 252 
 CBOC HZ I         647  6.09         7.0 0.34            110            333 252 
 DBB  EZ EP        646 19.31                             110    0.19 7  339 274 
 DBB  EN ES   4    646 54.15                             110   -1.94 0  339 274 
 DBB  EZ I         646 56.37        12.2 0.26            109            339 274 
 ANIL HZ EP   4    646 22.97                             109    1.51 0  357 224 
 ANIL HN ES   4    647  3.10                             109    2.85 0  357 224 
 ARGC HZ EP        646 21.31                             108   -0.07 6  359 340 
 ARGC HN ES   4    647  0.65                             108    0.53 0  359 340 
 ARGC HZ I         647 10.57         9.7 0.11            109            359 340 
 PRA  HZ EP        646 25.04                             107   -0.15 6  391 209 
 PRA  HN ES        647  6.53                             107   -0.36 6  391 209 
 PRA  HZ I         647 13.50        38.8 0.38            106            391 209 
 ORTC HZ EP        646 25.59                             107    0.01 6  395 216 
 ORTC HN ES        647  8.34                             107    0.75 6  395 216 
 ORTC HZ I         647 15.13        16.9 0.42            106            395 216 
 APAC HZ EP        646 25.70                             106   -0.14 6  397 288 
 APAC HN ES   4    647  4.74                             106   -3.31 0  397 288 
 APAC HZ I         647 13.07         6.5 0.40            106            397 288 
 SJC  HZ EP   4    646 25.45                             106   -1.81 0  409 327 
 SJC  HN ES   4    647  6.54                             106   -4.04 0  409 327 
 SJC  HZ I         647 10.74         6.2 0.07            106            409 327 
 CRJC HZ EP   4    646 31.70                             104   -2.56 0  468   4 
 CRJC HN ES   4    647 18.84                             104   -4.20 0  468   4 
 CRJC HZ I         647 26.75        13.0 0.18            104            468   4 
 YOT  HZ EP        646 33.96                             103   -0.73 5  471 229 
 YOT  HN ES   4    647 29.38                             103    5.58 0  471 229 
 MACC HZ EP   4    646 38.27                             102   -2.14 0  520 189 
 MACC HN ES   4    647 30.34                             102   -3.64 0  520 189 
 MACC HZ I         647 35.39         3.9 0.31            102            520 189 
 JAMC HZ EP        646 45.65                             101    0.69 3  556 225 
 JAMC HN ES        647 41.67                             101   -0.41 3  556 225 
                                                                                
