 2011 10 4 0033 25.2 L   6.819 -73.082141.3  RSN  4 0.2 1.3LRSN                1
 GAP=144        0.48       3.7     5.6  5.7  0.3364E+01 -0.6652E+01 -0.1955E+01E
 Epicentro: LOS SANTOS - SANTANDER                                             3
 ACTION:UPD 12-07-13 16:01 OP:ep   STATUS:               ID:20111004003325 L   I
 2011-10-04-0031-49S.COL___170                                                 6
 STAT SP IPHASW D HRMM SECON CODA AMPLIT PERI AZIMU VELO AIN AR TRES W  DIS CAZ7
 BAR2 SZ ES   1    033 59.52                             169    0.16 7 27.5 204 
 BAR2 SZ I         034  0.84         5.8 0.33                          27.5 204 
 PAM  SZ EP   1    033 46.97                             152    0.38 7 71.3  36 
 PAM  SZ I         033 47.14         3.0 0.18                          71.3  36 
 PAM  SE ES   2    034  2.84                             152   -0.44 5 71.3  36 
 BRR  HZ EP   1    033 46.06                             150   -0.14 7 76.6 295 
 BRR  HZ I         033 46.31         7.3 0.28                          76.6 295 
 BRR  HN ES   1    034  2.56                             150   -0.01 7 76.6 295 
 RUS  HZ EP   1    033 48.48                             142   -0.18 7  102 180 
 RUS  HN ES   1    034  6.95                             142   -0.01 7  102 180 
 RUS  HZ I         034  8.02         2.6 0.48                           102 180 
                                                                                
