 2013  1 4 0923 13.9 L   6.745 -73.179143.0  RSN  7 0.6 2.0LRSN                1
 GAP=108        1.45       6.3     7.7  9.7  0.9189E+01 -0.1028E+02  0.4452E+01E
 Epicentro: VILLANUEVA - SANTANDER                                             3
 ACTION:UPD 13-02-15 09:12 OP:ep   STATUS:               ID:20130104092313 L   I
 2013-01-04-0919-37M.COL___182                                                 6
 STAT SP IPHASW D HRMM SECON CODA AMPLIT PERI AZIMU VELO AIN AR TRES W  DIS CAZ7
 BAR2 SZ EP        923 33.76                             173    0.6810 16.9 181 
 BAR2 SZ ES        923 47.70                             173   -0.3410 16.9 181 
 BAR2 SZ I         923 50.59        18.6 0.24            174           16.9 181 
 BRR  HZ EP        923 35.21                             152    0.4710 71.2 304 
 BRR  HN ES        923 52.09                             152    1.0910 71.2 304 
 BRR  HN I         923 52.83        25.9 0.18            153           71.2 304 
 RUS  HZ EP        923 36.85                             145   -0.1210 94.9 174 
 RUS  HN ES        923 54.64                             145   -0.3210 94.9 174 
 RUS  HN I         923 56.96        23.4 0.28            147           94.9 174 
 PTB  HZ EP        923 39.93                             132   -0.28 9  143 261 
 PTB  HN ES        924  0.04                             132   -0.69 9  143 261 
 PTB  HN I         924  1.44        13.2 0.34            134            143 261 
 TAM  HZ EP        923 41.48                             129   -0.08 9  157 103 
 TAM  HZ I         923 41.51        13.4 0.20            131            157 103 
 OCA  HN ES        924  3.99                             128   -0.87 9  166 355 
 OCA  HN I         924  7.18        39.4 0.26            130            166 355 
 CHI  HZ EP        923 51.00                             117    0.29 8  242 195 
 CHI  HZ I         923 51.71         1.7 0.24            119            242 195 
                                                                                
