 2017  1 4 0610  6.8 L   6.756 -73.140144.8  RSN 10 0.5 1.9LRSN                1
 GAP=121        1.13       4.1     4.8  6.9  0.4789E+01  0.6688E+01  0.7241E+01E
 Epicentro: LOS SANTOS - SANTANDER                                             3
 ACTION:UPD 17-05-22 15:55 OP:jn   STATUS:               ID:20170104061006 L   I
 OLDACT:REG 17-01-04 12:49 OP:lv   STATUS:               ID:20170104060741     3
 2017-01-04-0608-00M.COL___369                                                 6
 STAT SP IPHASW D HRMM SECON CODA AMPLIT PERI AZIMU VELO AIN AR TRES W  DIS CAZ7
 BAR2 EZ EP        610 26.18                             172   -0.0110 18.7 195 
 BAR2 EZ ES        610 41.06                             172   -0.2810 18.7 195 
 BAR2 EZ I         610 42.61        38.6 0.25            170           18.7 195 
 BRR  HZ IP     C  610 28.00                             151    0.0210 74.2 302 
 BRR  HN ES        610 45.21                             151    0.6810 74.2 302 
 BRR  HZ I         610 48.45        16.6 0.26            150           74.2 302 
 PAM  EZ EP        610 29.13                             150    0.0510 80.8  37 
 PAM  EN ES        610 46.32                             150   -0.1610 80.8  37 
 PAM  EZ I         610 48.47        19.5 0.40            153           80.8  37 
 RUS  HZ EP        610 30.16                             145    0.0910 95.7 176 
 RUS  HN ES        610 48.57                             145    0.3210 95.7 176 
 RUS  HZ I         610 49.96         7.5 0.36            145           95.7 176 
 PTB  HZ EP        610 33.09                             132   -0.54 9  148 261 
 PTB  HN ES        610 54.06                             132   -0.53 9  148 261 
 PTB  HZ I         610 55.99         6.4 0.12            131            148 261 
 ZAR  HZ EP        610 40.17                             122    0.77 8  207 293 
 ZAR  HE ES        611  4.26                             122   -0.60 8  207 293 
 ZAR  HZ I         611 11.07         7.9 0.19            122            207 293 
 CHI  HZ EP        610 44.21                             117    0.29 8  244 196 
 CHI  HN ES        611 13.49                             117    0.59 8  244 196 
 CHI  HZ I         611 17.04         4.3 0.50            118            244 196 
 ROSC BZ EP   4    610 46.82                             117    2.41 0  249 212 
 ROSC BN ES   4    611 18.75                             117    4.97 0  249 212 
 ROSC BZ I         611 19.99         9.0 0.35            117            249 212 
 GUY2CHZ EP   4    610 51.72                             112    1.65 0  299 236 
 GUY2CHE ES   4    611 26.72                             112    2.86 0  299 236 
 GUY2CHZ I         611 32.43         2.6 0.36                           299 236 
 PTGC HZ EP   4    610 47.91                             112   -2.12 0  304 158 
 PTGC HE ES        611 22.84                             112   -0.95 7  304 158 
 SJC  HZ EP   4    611  0.49                             105   -2.32 0  414 327 
 SJC  HN ES   4    611 42.29                             105   -4.24 0  414 327 
                                                                                
