 2014  6 4 0433 16.4 L   6.794 -73.163142.0  RSN 10 0.3 1.7LRSN                1
 GAP=181        0.58       1.9     3.3  4.7 -0.1592E+01  0.5449E+01 -0.2118E+01E
 Epicentro: LOS SANTOS - SANTANDER                                             3
 OLDACT:REG 14-06-04 13:29 OP:fm   STATUS:               ID:20140604042817     3
 ACTION:UPD 14-07-01 22:50 OP:nd   STATUS:               ID:20140604043316 L   I
 OLDACT:UP  14-06-04 16:37 OP:fm   STATUS:               ID:20140604042817     3
 2014-06-04-0428-17M.COL___253                                                 6
 STAT SP IPHASW D HRMM SECON CODA AMPLIT PERI AZIMU VELO AIN AR TRES W  DIS CAZ7
 BAR2 SZ EP        433 35.59                             171   -0.0010 22.4 186 
 BAR2 SZ ES   1    433 50.57                             171    0.04 7 22.4 186 
 BAR2 SZ I         433 52.78        10.0 0.28            162           22.4 186 
 RUS  HZ EP        433 39.72                             143   -0.0610  100 175 
 RUS  HN ES        433 58.23                             143    0.2410  100 175 
 RUS  SZ I         433 58.88         6.5 0.28            130            100 175 
 PTB  HZ EP        433 42.71                             132   -0.21 9  146 259 
 PTB  HN ES        434  3.67                             132    0.10 9  146 259 
 PTB  SZ I         434  5.71         7.5 0.16            120            146 259 
 OCA  HZ EP        433 44.23                             129   -0.26 9  161 354 
 OCA  SZ I         434  4.63         5.5 1.58            119            161 354 
 OCA  HN ES        434  6.22                             129   -0.16 9  161 354 
 SPBC HN ES   1    434  5.82                             129   -0.54 7  161 219 
 NOR  HZ EP        433 52.16                             118    0.42 8  233 234 
 NOR  SZ I         434 26.89         2.6 1.14            107            233 234 
 SML  HZ EP   1    433 53.02                             117    0.19 6  244 336 
 SML  HN ES        434 21.56                             117    0.34 8  244 336 
 SML  SZ I         434 28.13         7.4 0.08            107            244 336 
 CHI  HN ES   4    434 21.37                             116   -1.58 0  248 195 
 URE  HN ES   4    434 27.57                             113   -1.35 0  282 292 
 GUY2CHZ EP   4    434  1.01                             112    1.36 0  299 235 
 GUY2CHN ES        434 33.58                             112    0.22 7  299 235 
 GUY2CSZ I         434 38.87         2.8 2.44                           299 235 
 RREF HN ES   1    434 37.36                             110   -0.54 5  320 229 
 TOL  SN ES   1    434 41.59                             109   -0.11 5  342 224 
                                                                                
