 2011  1 4 0214 36.6 L   6.806 -73.111144.0  RSN  5 0.2 1.5LRSN                1
 GAP=162        0.52       3.2    16.6  6.6 -0.2881E+02  0.6207E+01 -0.2954E+01E
 Epicentro: LOS SANTOS - SANTANDER                                             3
 ACTION:UP  11-02-08 08:38 OP:pat  STATUS:               ID:20110104021436 L   I
 2011-01-04-0210-00S.COL___135                                                 6
 STAT SP IPHASW D HRMM SECON CODA AMPLIT PERI AZIMU VELO SNR AR TRES W  DIS CAZ7
 BAR2 SZ EP   2    214 55.96                             170    -0.1 5   25 199 
 BAR2 SZ ES   2    215 11.28                             170     0.0 5   25 199 
 BAR2 SZ I         215 14.27         7.7 0.27                            25 199 
 RUS  HZ EP   1    215  0.10                             143    -0.2 8  101 178 
 RUS  HN ES   1    215 18.83                             143     0.2 8  101 178 
 RUS  HZ I         215 21.33         4.0 0.51                           101 178 
 GRA  SZ IP        215  1.82                             137     0.210  124  16 
 GRA  SZ ES   1    215 20.71                             137    -0.3 7  124  16 
 GRA  SZ I         215 24.07         4.5 0.27                           124  16 
 OCA  SZ ES   2    215 26.84                             129     0.1 5  160 352 
 OCA  SZ I         215 31.04         5.0 0.22                           160 352 
 CHI  HZ EP   2    215 14.16                             116    -0.3 4  250 196 
 CHI  HZ I         215 51.65         2.0 0.82                           250 196 
                                                                                
