 2010  9 4 0315  1.7 L   7.110 -73.282  3.3  RSN  4 0.1 0.9LRSN                1
 GAP=143        0.38       1.9     2.0  4.8  0.1830E+01  0.4635E+01  0.4670E+01E
 Epicentro: LEBRIJA - SANTANDER                                                3
 ACTION:UP  11-02-18 11:00 OP:tino STATUS:               ID:20100904031501 L   I
 2010-09-04-0312-08S.COL___120                                                 6
 STAT SP IPHASW D HRMM SECON CODA AMPLIT PERI AZIMU VELO SNR AR TRES W  DIS CAZ7
 BRR  HZ IP     D  315  9.61                              47     0.010   48 270 
 BRR  HZ I         315 10.04        15.6 0.12                            48 270 
 BRR  HE ES   1    315 15.75                              47     0.0 7   48 270 
 BAR2 SZ EP   1    315 11.29                              47    -0.2 7   58 169 
 BAR2 SZ I         315 19.35         4.8 0.16                            58 169 
 GUE  SZ EP   1    315 16.19                              47     0.0 7   89  26 
 GUE  SZ I         315 27.51         2.5 0.02                            89  26 
 RUS  HZ EP   1    315 23.75                              47     0.2 7  136 171 
 RUS  HZ I         315 25.09         1.7 0.11                           136 171 
 RUS  HN ES   1    315 40.64                              47     0.0 7  136 171 
                                                                                
