 2013  7 4 0837  4.4 L   6.781 -73.068141.2  RSN  5 0.3 1.6LRSN                1
 GAP=148        0.89       6.1    10.3  8.9  0.2958E+02 -0.4498E+02 -0.2186E+02E
 Epicentro: LOS SANTOS - SANTANDER                                             3
 ACTION:UPD 13-08-12 10:35 OP:ep   STATUS:               ID:20130704083704 L   I
 OLDACT:REG 13-07-04 08:17 OP:stll STATUS:               ID:20130704082850     3
 2013-07-04-0828-50M.COL___234                                                 6
 STAT SP IPHASW D HRMM SECON CODA AMPLIT PERI AZIMU VELO AIN AR TRES W  DIS CAZ7
 BAR2 SZ EP        837 23.49                             170   -0.0010 24.4 211 
 BAR2 SZ ES        837 38.02                             170   -0.3710 24.4 211 
 BAR2 SZ I         837 39.93         6.0 0.36            146           24.4 211 
 GIR2 SZ EP        837 23.31                             165   -0.3410 35.8 337 
 PAM  SZ EP        837 26.26                             151    0.3510 74.0  33 
 PAM  SN I         837 45.69         5.4 0.40            124           74.0  33 
 BRR  HZ EP        837 25.12                             149   -0.4510 79.8 297 
 BRR  HN ES        837 42.56                             149    0.4710 79.8 297 
 BRR  HN I         837 42.91        20.9 0.24            145           79.8 297 
 RUS  HZ EP        837 27.76                             143    0.2410 98.2 181 
 RUS  HN ES        837 45.67                             143    0.1110 98.2 181 
 RUS  HN I         837 47.75         3.9 0.18            139           98.2 181 
                                                                                
