 2013  7 4 0413 43.5 L   6.785 -73.136147.5  RSN  9 0.5 2.1LRSN                1
 GAP=138        1.27       4.7     6.1  8.0 -0.8159E+01 -0.1033E+01 -0.2334E+01E
 Epicentro: LOS SANTOS - SANTANDER                                             3
 ACTION:UPD 13-08-12 10:35 OP:ep   STATUS:               ID:20130704041343 L   I
 OLDACT:REG 13-07-04 08:11 OP:stll STATUS:               ID:20130704040841     3
 2013-07-04-0408-41M.COL___238                                                 6
 STAT SP IPHASW D HRMM SECON CODA AMPLIT PERI AZIMU VELO AIN AR TRES W  DIS CAZ7
 BAR2 SZ EP        414  3.54                             171    0.2210 21.9 193 
 BAR2 SZ ES        414 19.05                             171    0.2910 21.9 193 
 BAR2 SZ I         414 20.34        15.0 0.28            171           21.9 193 
 GIR2 SZ EP        414  3.60                             167    0.1710 33.1 349 
 BRR  HZ IP        414  5.36                             152    0.4210 72.9 299 
 BRR  HN ES        414 22.41                             152    0.7610 72.9 299 
 BRR  HN I         414 23.68        23.2 0.20            149           72.9 299 
 PAM  SZ EP        414  6.29                             151    0.3410 78.0  38 
 PAM  SZ I         414  6.59        16.1 0.24            153           78.0  38 
 PAM  SN ES        414 23.75                             151    0.3110 78.0  38 
 RUS  HZ EP        414  7.31                             145    0.0110 98.8 177 
 RUS  HN ES        414 25.07                             145   -0.7910 98.8 177 
 GRA  SZ IP        414  9.13                             137    0.1210  127  17 
 GRA  SZ ES        414 27.97                             137   -0.9310  127  17 
 PTB  HZ EP        414 10.23                             132   -0.45 9  148 260 
 PTB  HN ES        414 31.59                             132   -0.28 9  148 260 
 PTB  HN I         414 37.03        17.9 0.40            131            148 260 
 CAPV BZ EP        414 11.40                             132    0.29 9  150  37 
 OCA  HN ES        414 33.73                             130   -0.71 9  162 353 
 OCA  HN I         414 37.62        42.9 0.24            130            162 353 
                                                                                
