 2013  7 4 0149 19.3 L   6.835 -73.146142.9  RSN 11 0.5 1.8LRSN                1
 GAP= 70        1.24       4.0     4.4  7.3 -0.4331E+01 -0.1548E+00  0.5882E+01E
 Epicentro: LOS SANTOS - SANTANDER                                             3
 ACTION:UPD 13-08-12 10:35 OP:ep   STATUS:               ID:20130704014919 L   I
 OLDACT:UP  13-07-05 02:35 OP:CF   STATUS:               ID:20130704014919 L   3
 OLDACT:REG 13-07-04 08:06 OP:stll STATUS:               ID:20130704014849     3
 2013-07-04-0148-49M.COL___229                                                 6
 STAT SP IPHASW D HRMM SECON CODA AMPLIT PERI AZIMU VELO AIN AR TRES W  DIS CAZ7
 BAR2 SZ EP        149 38.78                             169    0.0710 27.2 188 
 BAR2 SZ ES        149 53.02                             169   -0.8010 27.2 188 
 BAR2 SZ I         149 54.78         7.6 0.28            168           27.2 188 
 GIR2 SZ EP        149 38.80                             169    0.2310 27.4 349 
 BRR  HZ EP        149 40.48                             153    0.4110 69.4 296 
 BRR  HN ES        149 56.88                             153    0.6310 69.4 296 
 BRR  HN I         149 57.96        23.5 0.46            153           69.4 296 
 PAM  SZ IP     C  149 41.60                             151    0.5210 74.5  41 
 PAM  SN ES        149 57.64                             151   -0.3910 74.5  41 
 PAM  SN I         149 59.65        12.9 0.28            154           74.5  41 
 RUS  HZ EP        149 43.43                             142    0.3310  104 176 
 RUS  HE ES        150  1.82                             142    0.1910  104 176 
 RUS  HE I         150  4.14         6.7 0.28            143            104 176 
 GRA  SZ EP        149 42.94                             137   -1.0810  122  18 
 GRA  SZ ES        150  3.20                             137   -0.0710  122  18 
 GRA  SZ I         150  6.33         6.9 0.26            140            122  18 
 CAPV BZ ES        150  7.53                             132    0.33 9  146  39 
 PTB  HZ EP        149 45.57                             131   -0.57 9  148 257 
 PTB  HE ES        150  7.03                             131   -0.02 9  148 257 
 PTB  HE I         150 12.43        12.5 0.32            132            148 257 
 TAM  HZ IP     D  149 47.34                             130    0.44 9  156 106 
 ZAR  HZ EP   4    149 53.36                             122    1.92 0  203 291 
 ZAR  HE ES        150 16.56                             122    0.08 9  203 291 
 CHI  HZ EP        149 56.65                             116   -0.64 8  252 195 
 CHI  HE ES        150 27.03                             116    0.14 8  252 195 
 CHI  HN I         150 29.93         7.1 0.38            117            252 195 
                                                                                
