 2010 10 4 0916 47.8 L   6.823 -73.016148.9  RSN  6 0.3 2.0LRSN                1
 GAP=196        0.65       3.4     7.4  6.2  0.4564E+01  0.1248E+00 -0.1608E+01E
 Epicentro: CEPITA - SANTANDER                                                 3
 ACTION:UP  11-02-18 11:07 OP:tino STATUS:               ID:20101004091647 L   I
 2010-10-04-0900-00S.COL___119                                                 6
 STAT SP IPHASW D HRMM SECON CODA AMPLIT PERI AZIMU VELO SNR AR TRES W  DIS CAZ7
 BAR2 SZ EP   1    917  8.13                             167     0.2 7   32 216 
 BAR2 SZ ES   1    917 23.65                             167    -0.1 7   32 216 
 BAR2 SZ I         917 24.43        15.9 0.36                            32 216 
 BRR  HZ IP     C  917 10.04                             149     0.110   83 292 
 BRR  HZ I         917 10.33        39.1 0.17                            83 292 
 BRR  HN ES   1    917 27.65                             149     0.4 7   83 292 
 RUS  HZ EP   1    917 12.01                             144     0.0 7  103 184 
 RUS  HE ES   1    917 30.64                             144    -0.3 7  103 184 
 RUS  HZ I         917 32.01         6.2 0.25                           103 184 
 OCA  SZ EP   1    917 16.59                             130     0.3 7  160 348 
 OCA  SZ ES   1    917 38.09                             130    -0.5 7  160 348 
 OCA  SZ I         917 44.44        15.8 0.19                           160 348 
 CHI  HZ EP   2    917 25.94                             117    -0.4 4  255 198 
 CHI  HZ I         917 28.84         3.9 0.40                           255 198 
 CHI  HE ES   2    917 56.90                             117     0.5 4  255 198 
 HEL  HZ EP   2    917 29.80                             114     0.1 4  287 256 
 HEL  HN ES   2    918  1.73                             114    -0.8 4  287 256 
 HEL  HZ I         918  6.81         6.2 0.34                           287 256 
                                                                                
