 2013  2 4 0129  9.2 L   6.793 -73.141157.7  RSN  5 0.5 1.4LRSN                1
 GAP=137        1.04       7.4     6.1  9.3 -0.6332E+01 -0.1983E+01  0.7149E+01E
 Epicentro: LOS SANTOS - SANTANDER                                             3
 ACTION:UPD 13-03-12 09:30 OP:ep   STATUS:               ID:20130204012909 L   I
 2013-02-04-0127-50M.COL___176                                                 6
 STAT SP IPHASW D HRMM SECON CODA AMPLIT PERI AZIMU VELO AIN AR TRES W  DIS CAZ7
 BAR2 SZ EP        129 30.10                             171   -0.1610 22.6 192 
 BAR2 SZ ES   2    129 46.08                             171   -0.60 5 22.6 192 
 BRR  HZ EP        129 32.15                             154    0.4510 72.0 299 
 BRR  HZ I         129 32.29         5.6 0.18            151           72.0 299 
 BRR  HN ES        129 49.85                             154    0.6110 72.0 299 
 PAM  SZ E         129 32.67                                           77.7  39 
 PAM  SZ EP        129 32.67                             153   -0.0510 77.7  39 
 PAM  SZ ES   1    129 50.42                             153   -0.64 7 77.7  39 
 RUS  HZ EP   1    129 34.02                             146   -0.07 7 99.7 176 
 RUS  HZ I         129 34.92         1.6 0.44            145           99.7 176 
 RUS  HN ES   1    129 54.03                             146    0.53 7 99.7 176 
 PTB  HZ EP        129 37.20                             135    0.00 9  148 259 
 PTB  HN ES        129 58.33                             135   -0.70 9  148 259 
 PTB  HZ I         130  5.37         5.9 0.32            132            148 259 
                                                                                
