 2015 10 4 0550 59.7 L   6.235 -73.740104.2  RSN  5 0.1 1.4LRSN                1
 GAP=109        0.38       1.4     1.7  3.4  0.1576E+00  0.2322E+01 -0.1089E+01E
 Epicentro: LANDAZURI - SANTANDER                                              3
 ACTION:UPD 15-12-22 20:37 OP:cam  STATUS:               ID:20151004055059 L   I
 OLDACT:REG 15-10-04 12:30 OP:drio STATUS:               ID:20151004054739     3
 2015-10-04-0547-39M.COL___349                                                 6
 STAT SP IPHASW D HRMM SECON CODA AMPLIT PERI AZIMU VELO AIN AR TRES W  DIS CAZ7
 BAR2 EZ EP        551 17.24                             142    0.2410 73.3  57 
 BAR2 EZ ES        551 30.50                             142   -0.0210 73.3  57 
 BAR2 EZ I         551 32.21         6.9 0.14            144           73.3  57 
 SPBC HZ EP        551 16.74                             142   -0.1210 74.2 210 
 SPBC HN ES        551 30.36                             142    0.0910 74.2 210 
 SPBC HZ I         551 30.84         8.0 0.32            144           74.2 210 
 RUS  HZ EP        551 18.08                             139    0.0610 82.0 117 
 RUS  HE ES        551 32.24                             139   -0.1110 82.0 117 
 RUS  HZ I         551 33.91         3.7 0.28            141           82.0 117 
 BRR  HZ EP        551 18.54                             134   -0.0310 96.5   2 
 BRR  HE ES        551 33.26                             134   -0.0610 96.5   2 
 ZAR  HZ EP        551 27.60                             114   -0.16 9  186 318 
 ZAR  HE ES        551 49.78                             114    0.10 9  186 318 
 ZAR  HZ I         551 51.68         4.2 0.28            115            186 318 
                                                                                
