 2014 11 4 0715 17.1 L   6.797 -73.125144.0  RSN 14 0.5 2.2LRSN                1
 GAP= 72        1.10       3.2     3.4  5.5 -0.2411E+01  0.5542E+01  0.3131E+01E
 Epicentro: LOS SANTOS - SANTANDER                                             3
 ACTION:UPD 14-12-19 15:39 OP:nd   STATUS:               ID:20141104071517 L   I
 OLDACT:DUP 14-11-04 17:44 OP:carl STATUS:               ID:20141104070749d    3
 2014-11-04-0707-47M.COL___268                                                 6
 STAT SP IPHASW D HRMM SECON CODA AMPLIT PERI AZIMU VELO AIN AR TRES W  DIS CAZ7
 BAR2 SZ IP     D  715 36.63                             170    0.1210 23.5 196 
 BAR2 SZ ES        715 51.74                             170    0.0810 23.5 196 
 BAR2 SZ I         715 52.40        56.2 0.16            169           23.5 196 
 BRR  HZ IP     C  715 38.55                             152    0.3710 73.4 298 
 BRR  HN ES        715 55.38                             152    0.7610 73.4 298 
 BRR  HZ I         715 58.17        29.3 0.12            152           73.4 298 
 PAM  SZ EP        715 39.54                             151    0.4910 76.2  38 
 PAM  SN ES        715 56.28                             151    0.1010 76.2  38 
 PAM  SZ I         715 59.36        25.7 0.30            154           76.2  38 
 RUS  HZ EP        715 40.58                             144   -0.0510  100 177 
 RUS  HN ES        715 58.93                             144   -0.0610  100 177 
 RUS  HZ I         716  0.35        17.8 0.38            145            100 177 
 PTB  HZ EP        715 43.24                             131   -0.87 9  150 259 
 PTB  HN ES   4    716  3.83                             131   -1.36 0  150 259 
 PTB  HZ I         716  6.86        36.5 0.26            132            150 259 
 TAM  HZ IP     D  715 45.04                             131    0.62 9  153 105 
 TAM  HN ES        716  5.25                             131   -0.48 9  153 105 
 TAM  HZ I         716  6.88         9.9 0.26            134            153 105 
 OCA  HZ EP        715 44.69                             129   -0.64 9  161 352 
 OCA  HN ES        716  6.58                             129   -0.77 9  161 352 
 OCA  HZ I         716  9.21        17.1 0.20            132            161 352 
 SPBC HZ IP     C  715 45.55                             128   -0.02 9  164 220 
 SPBC HE ES        716  7.25                             128   -0.52 9  164 220 
 SPBC HZ I         716 13.34        18.2 0.16            129            164 220 
 NOR  HZ EP        715 52.64                             118   -0.26 8  236 235 
 NOR  HE ES        716 20.97                             118    0.15 8  236 235 
 NOR  HZ I         716 22.47        27.9 0.18            119            236 235 
 CHI  HZ EP        715 54.98                             117    0.26 8  249 196 
 CHI  HN ES        716 23.74                             117   -0.33 8  249 196 
 CHI  HZ I         716 30.66         5.5 0.42            118            249 196 
 HEL  HZ EP        715 57.90                             114    0.45 8  274 256 
 HEL  HN ES        716 28.53                             114   -0.40 8  274 256 
 HEL  HZ I         716 35.57        12.2 0.30            115            274 256 
 GUY2CHZ EP        716  0.48                             112   -0.33 7  303 235 
 GUY2CHN ES        716 35.45                             112    0.55 7  303 235 
 GUY2CHZ I         716 41.82         9.0 0.28                           303 235 
 CBOC HZ EP        716  5.26                             109    1.09 7  336 252 
 CBOC HN ES        716 40.84                             109   -0.05 7  336 252 
 CBOC HZ I         716 44.60         3.8 0.54            111            336 252 
 PRA  HZ EP        716 10.67                             106    0.02 6  393 210 
 PRA  HN ES        716 52.26                             106   -0.16 6  393 210 
 PRA  HZ I         716 57.15         5.9 0.30            107            393 210 
                                                                                
