 2015  9 4 0945 30.5 L   6.835 -73.091151.2  RSN 10 0.4 1.8LRSN                1
 GAP=189        0.85       3.7     6.0  6.0 -0.8715E+00  0.5687E+01 -0.4532E+01E
 Epicentro: LOS SANTOS - SANTANDER                                             3
 ACTION:UPD 15-10-28 16:24 OP:cam  STATUS:               ID:20150904094530 L   I
 OLDACT:UP  15-09-04 17:17 OP:ar   STATUS:               ID:20150904093749     3
 OLDACT:REG 15-09-04 13:12 OP:ak   STATUS:               ID:20150904093749     3
 2015-09-04-0937-49M.COL___349                                                 6
 STAT SP IPHASW D HRMM SECON CODA AMPLIT PERI AZIMU VELO AIN AR TRES W  DIS CAZ7
 BAR2 EZ IP     D  945 50.89                             169   -0.0610 28.7 201 
 BAR2 EZ ES        946  6.79                             169   -0.0810 28.7 201 
 BAR2 EZ I         946  8.89         6.2 0.24            166           28.7 201 
 BRR  HZ EP        945 52.83                             152    0.3310 74.9 294 
 BRR  HZ I         946  9.99         9.3 0.42            146           74.9 294 
 BRR  HN ES        946 10.10                             152    0.4810 74.9 294 
 RUS  HZ EP   2    945 55.30                             144    0.20 5  104 179 
 RUS  HN ES   2    946 13.72                             144   -0.53 5  104 179 
 RUS  HZ I         946 14.89         3.5 0.80            141            104 179 
 PTB  HZ EP   2    945 57.70                             132   -0.87 5  154 258 
 PTB  HN ES        946 19.81                             132   -0.61 9  154 258 
 PTB  HZ I         946 26.29         6.7 0.46            127            154 258 
 OCA  HZ EP   2    945 59.36                             131    0.35 5  157 351 
 OCA  HN ES   2    946 21.15                             131   -0.06 5  157 351 
 OCA  HZ I         946 25.02        10.1 0.22            127            157 351 
 ZAR  HZ EP        946  3.63                             123   -0.15 8  208 291 
 ZAR  HN ES   4    946 32.60                             123    2.90 0  208 291 
 ZAR  HZ I         946 35.91         8.0 0.28            118            208 291 
 SML  HZ EP        946  7.25                             119   -0.14 8  243 334 
 SML  HN ES        946 35.99                             119   -0.13 8  243 334 
 SML  HZ I         946 43.53         7.6 0.26            115            243 334 
 CHI  HE ES   2    946 38.70                             118   -0.53 4  254 196 
 CHI  HZ I         946 45.94         2.5 0.42            114            254 196 
 URE  HN ES   4    946 43.27                             114   -1.69 0  288 291 
 URE  HZ I         946 51.76         3.7 0.32            110            288 291 
 TOL  SN ES        946 59.27                             110    1.00 6  350 225 
 TOL  SZ I         947  2.90         2.4 0.40            107            350 225 
                                                                                
