 2012  4 4 0637 52.6 L   6.808 -73.113152.9  RSN  6 0.3 1.5LRSN                1
 GAP=140        0.73       7.7     6.3  7.6  0.1689E+02  0.2143E+02  0.1935E+02E
 Epicentro: LOS SANTOS - SANTANDER                                             3
 ACTION:UPD 12-07-05 11:50 OP:tino STATUS:               ID:20120404063752 L   I
 2012-04-04-0630-00M.COL___196                                                 6
 STAT SP IPHASW D HRMM SECON CODA AMPLIT PERI AZIMU VELO AIN AR TRES W  DIS CAZ7
 BAR2 SZ EP   1    638 13.03                             170    -0.1 7   25 198 
 BAR2 SZ ES   1    638 28.88                             170    -0.2 7   25 198 
 BAR2 SZ I         638 29.37         7.6 0.38                            25 198 
 PAM  SN ES   1    638 32.91                             153    -0.3 7   74  38 
 PAM  SZ I         638 35.73         3.7 0.38                            74  38 
 BRR  HZ EP        638 15.04                             153     0.410   74 297 
 BRR  HZ I         638 15.26        12.4 0.16                            74 297 
 BRR  HN ES   1    638 32.23                             153     0.4 7   74 297 
 RUS  HZ EP   1    638 17.14                             145     0.1 7  101 178 
 RUS  HZ I         638 37.37         2.2 0.21                           101 178 
 PTB  HZ EP   1    638 20.22                             133    -0.2 7  152 259 
 PTB  HZ I         638 48.45         5.2 0.34                           152 259 
 ZAR  HZ EP   1    638 25.58                             123    -0.2 6  207 292 
 ZAR  HN ES   1    638 51.34                             123    -0.4 6  207 292 
                                                                                
