 2013  6 4 0741 58.9 L   6.857 -73.106146.0  RSN  9 0.4 2.0LRSN                1
 GAP=187        0.89       4.1     6.2  8.7 -0.3469E+01 -0.1877E+01 -0.4040E+00E
 Epicentro: LOS SANTOS - SANTANDER                                             3
 ACTION:UPD 14-01-08 09:52 OP:ep   STATUS:               ID:20130604074158 L   I
 2013-06-04-0740-00M.COL___257                                                 6
 STAT SP IPHASW D HRMM SECON CODA AMPLIT PERI AZIMU VELO AIN AR TRES W  DIS CAZ7
 BAR2 SZ EP   1    742 18.35                             168   -0.40 7 30.4 196 
 BRR  HZ EP   1    742 20.80                             152    0.63 7 72.4 293 
 BRR  HN ES        742 37.15                             152    0.4110 72.4 293 
 BRR  HN I         742 40.77        16.2 0.16            149           72.4 293 
 RUS  HE ES   2    742 41.94                             142   -0.09 5  107 179 
 PTB  HZ EP   1    742 25.88                             131   -0.54 7  153 257 
 PTB  HN ES        742 47.45                             131   -0.42 9  153 257 
 PTB  HN I         742 52.08         8.5 0.32            131            153 257 
 OCA  HN ES        742 48.38                             131   -0.03 9  155 351 
 OCA  HN I         742 55.78        12.9 0.28            131            155 351 
 ZAR  HN ES        742 57.45                             122    0.42 8  206 290 
 ZAR  HN I         743  1.85        13.8 0.40            122            206 290 
 SML  HZ EP   1    742 35.48                             118    0.33 6  240 334 
 SML  HN ES        743  2.81                             118   -0.60 8  240 334 
 SML  HN I         743  6.80        15.4 0.10            118            240 334 
 HEL  HN ES   2    743 11.42                             115   -0.25 4  278 255 
 HEL  HN I         743 17.87         3.2 0.42            115            278 255 
 PRA  HZ EP   1    742 54.02                             106    0.68 4  400 210 
                                                                                
