 2013  4 4 0422 54.7 L   6.730 -73.152143.8  RSN  6 0.5 1.2LRSN                1
 GAP=182        1.04       8.6     8.7  9.3  0.3688E+02  0.2892E+02  0.1317E+02E
 Epicentro: VILLANUEVA - SANTANDER                                             3
 ACTION:UPD 13-05-22 14:35 OP:EP   STATUS:               ID:20130404042254 L   I
 2013-04-04-0420-00M.COL___245                                                 6
 STAT SP IPHASW D HRMM SECON CODA AMPLIT PERI AZIMU VELO AIN AR TRES W  DIS CAZ7
 BAR2 SZ EP   1    423 13.82                             174   -0.15 7 15.6 192 
 BAR2 SZ ES        423 28.55                             174   -0.4410 15.6 192 
 GIR2 SZ ES   1    423 29.98                             164    0.26 7 38.8 353 
 GIR2 SZ I         423 33.28         3.8 0.38            166           38.8 353 
 BRR  HZ EP        423 15.66                             151   -0.1910 74.6 304 
 BRR  HN ES   1    423 32.40                             151    0.07 7 74.6 304 
 BRR  HZ I         423 33.40         3.0 0.27            153           74.6 304 
 RUS  HZ EP   1    423 18.23                             146    0.50 7 92.9 175 
 RUS  HN ES   1    423 36.31                             146    0.63 7 92.9 175 
 RUS  HZ I         423 38.48         1.5 0.21            147           92.9 175 
 PTB  HZ EP   1    423 20.66                             132   -0.68 7  146 262 
 PTB  HE ES   1    423 41.62                             132   -0.48 7  146 262 
 PTB  HZ I         423 43.90         3.4 0.12            134            146 262 
 ZAR  HN ES   1    423 53.80                             121    1.12 6  206 294 
                                                                                
