 2010  8 4 0926 23.3 L   6.837 -73.039136.0  RSN  5 0.5 1.4LRSN                1
 GAP=170        0.86       6.4    13.6 11.1 -0.4751E+01 -0.4875E+02 -0.4082E+01E
 Epicentro: CEPITA - SANTANDER                                                 3
 ACTION:UP  10-09-07 10:52 OP:vdl  STATUS:               ID:20100804092623 L   I
 2010-08-04-0925-43S.COL___125                                                 6
 STAT SP IPHASW D HRMM SECON CODA AMPLIT PERI AZIMU VELO SNR AR TRES W  DIS CAZ7
 BTL  SZ EP   1    926 42.01                             169     0.1 7   27 290 
 BTL  SZ ES   2    926 55.45                             169    -0.9 5   27 290 
 BAR2 SZ EP   1    926 41.79                             167    -0.2 7   31 211 
 BAR2 SZ ES   2    926 56.72                             167     0.2 5   31 211 
 BAR2 SZ I         926 59.65         6.7 0.43                            31 211 
 BRR  HZ EP   1    926 43.68                             149    -0.3 7   80 292 
 BRR  HE ES   2    927  0.70                             149     0.6 5   80 292 
 BRR  HZ I         927  1.93         6.2 0.53                            80 292 
 RUS  HZ EP   1    926 46.03                             141    -0.4 7  105 183 
 RUS  HE ES   2    927  5.34                             141     0.9 5  105 183 
 RUS  HZ I         927  5.74         2.3 0.39                           105 183 
 GRA  SZ EP   1    926 47.58                             137     0.5 7  119  13 
 GRA  SZ ES   2    927  5.54                             137    -0.1 5  119  13 
                                                                                
