 2016 11 4 0617 48.9 L   5.947 -73.706123.9  RSN  5 0.4 1.2LRSN                1
 GAP=192        0.88       6.4     4.7  8.9 -0.2185E+01 -0.1298E+00 -0.2744E+02E
 Epicentro: GUAVATA - SANTANDER                                                3
 ACTION:UPD 17-10-26 21:04 OP:lp   STATUS:               ID:20161104061748 L   I
 OLDACT:UP  16-11-04 15:53 OP:dani STATUS:               ID:20161104060746     3
 OLDACT:REG 16-11-04 13:06 OP:dani STATUS:               ID:20161104060746     3
 2016-11-04-0608-00M.COL___349                                                 6
 STAT SP IPHASW D HRMM SECON CODA AMPLIT PERI AZIMU VELO AIN AR TRES W  DIS CAZ7
 SPBC HN ES        618 20.93                             155    0.2510 52.0 231 
 BAR2 EZ EP        618  9.96                             141    0.4310 92.0  39 
 BAR2 EZ ES        618 25.21                             141   -0.4210 92.0  39 
 BAR2 EZ I         618 26.52         7.4 0.34            139           92.0  39 
 PTB  HZ EP        618  9.80                             137   -0.5310  106 308 
 PTB  HE ES        618 27.11                             137    0.0610  106 308 
 PTB  HZ I         618 29.51         0.9 0.10            136            106 308 
 BRR  HZ EP        618 12.45                             131    0.1510  128 360 
 BRR  HN ES   3    618 32.10                             131    1.54 2  128 360 
 BRR  HZ I         618 39.54         3.2 0.34            129            128 360 
 ZAR  HN ES        618 46.05                             116   -0.01 8  213 323 
                                                                                
