 2015 11 4 0852 57.8 L   6.812 -73.105148.9  RSN 10 0.3 1.7LRSN                1
 GAP=159        0.77       2.3     3.8  4.4 -0.3117E+01  0.4439E+01  0.7476E+00E
 Epicentro: LOS SANTOS - SANTANDER                                             3
 ACTION:UPD 15-12-28 16:08 OP:cam  STATUS:               ID:20151104085257 L   I
 OLDACT:UP  15-11-04 19:01 OP:ak   STATUS:               ID:20151104084736     3
 OLDACT:UP  15-11-04 19:00 OP:ak   STATUS:               ID:20151104084736     3
 OLDACT:REG 15-11-04 13:34 OP:cara STATUS:               ID:20151104084736     3
 2015-11-04-0847-36M.COL___304                                                 6
 STAT SP IPHASW D HRMM SECON CODA AMPLIT PERI AZIMU VELO AIN AR TRES W  DIS CAZ7
 BAR2 EZ EP        853 17.77                             170   -0.0810 25.7 200 
 BAR2 EZ ES        853 33.06                             170   -0.4310 25.7 200 
 BAR2 EZ I         853 35.42        10.0 0.34            169           25.7 200 
 PAM  EZ EP        853 20.64                             153    0.5210 73.6  37 
 PAM  EN ES        853 37.66                             153    0.1210 73.6  37 
 PAM  EZ I         853 39.92         9.6 0.58            156           73.6  37 
 BRR  HZ EP        853 19.77                             152    0.3010 74.7 296 
 BRR  HN ES        853 36.60                             152    0.2110 74.7 296 
 BRR  HZ I         853 41.44         5.5 0.36            153           74.7 296 
 OCA  HZ EP        853 26.07                             130   -0.22 9  160 351 
 OCA  HE ES        853 48.59                             130    0.08 9  160 351 
 OCA  HZ I         853 54.40         9.5 0.24            134            160 351 
 SPBC HZ EP        853 26.76                             129   -0.14 9  167 220 
 SPBC HN ES        853 49.42                             129   -0.18 9  167 220 
 SPBC HZ I         853 56.43         5.8 0.17            131            167 220 
 ZAR  HN ES   1    853 56.50                             122   -0.09 6  208 291 
 NOR  HZ EP        853 33.82                             119   -0.36 8  239 235 
 NOR  HN ES        854  2.55                             119   -0.01 8  239 235 
 SML  HZ EP        853 34.17                             118   -0.51 8  244 334 
 SML  HE ES        854  3.17                             118   -0.28 8  244 334 
 SML  HZ I         854  6.04         8.9 0.07            121            244 334 
 CHI  HZ EP   1    853 35.62                             117   -0.31 6  251 196 
 CHI  HE ES        854  5.63                             117   -0.05 8  251 196 
 CHI  HZ I         854 14.89         2.1 0.32            120            251 196 
 GUY2CHZ EP        853 42.82                             112    0.77 7  306 235 
 GUY2CHN ES        854 17.08                             112    0.51 7  306 235 
 GUY2CHZ I         854 24.06         2.4 0.30                           306 235 
                                                                                
