 2016  9 4 0856 37.0 L   6.811 -73.160148.2  RSN 13 0.4 1.9LRSN                1
 GAP=103        1.00       3.8     3.0  5.8 -0.2641E+01  0.3267E+01 -0.1946E+01E
 Epicentro: LOS SANTOS - SANTANDER                                             3
 ACTION:UPD 17-08-17 21:06 OP:lp   STATUS:               ID:20160904085637 L   I
 OLDACT:UP  16-09-04 16:53 OP:drio STATUS:               ID:20160904084735     3
 OLDACT:REG 16-09-04 13:04 OP:drio STATUS:               ID:20160904084735     3
 2016-09-04-0848-00M.COL___343                                                 6
 STAT SP IPHASW D HRMM SECON CODA AMPLIT PERI AZIMU VELO AIN AR TRES W  DIS CAZ7
 BAR2 EZ EP        856 56.92                             170   -0.0510 24.3 186 
 BAR2 EZ ES        857 12.37                             170   -0.1510 24.3 186 
 BAR2 EZ I         857 13.18        37.7 0.20            171           24.3 186 
 BRR  HZ EP        856 58.74                             153    0.4110 69.2 298 
 BRR  HN ES   4    857 15.91                             153    0.96 0 69.2 298 
 BRR  HZ I         857 19.84        14.7 0.34            151           69.2 298 
 PAM  EZ EP        856 59.90                             151    0.4010 77.5  41 
 PAM  EE ES        857 17.27                             151    0.2310 77.5  41 
 PAM  EZ I         857 19.15        14.2 0.40            154           77.5  41 
 RUS  HZ EP        857  0.89                             144   -0.2210  102 175 
 RUS  HE ES        857 19.52                             144   -0.3810  102 175 
 RUS  HZ I         857 20.63         8.0 0.44            147            102 175 
 PTB  HZ EP        857  3.59                             133   -0.49 9  146 258 
 PTB  HE ES        857 24.83                             133   -0.35 9  146 258 
 PTB  HZ I         857 26.66         7.9 0.40            133            146 258 
 TAM  HZ EP        857  4.98                             131   -0.09 9  157 105 
 TAM  HE ES        857 27.28                             131    0.34 9  157 105 
 SPBC HZ EP        857  5.65                             130   -0.06 9  163 218 
 SPBC HN ES        857 27.50                             130   -0.58 9  163 218 
 SPBC HZ I         857 32.47        21.6 0.40            131            163 218 
 ZAR  HZ EP        857  9.29                             123   -0.15 9  202 292 
 ZAR  HE ES        857 35.04                             123    0.33 9  202 292 
 ZAR  HZ I         857 40.36         8.2 0.30            123            202 292 
 NOR  HZ EP        857 12.92                             119    0.08 8  234 234 
 NOR  HE ES        857 41.05                             119    0.28 8  234 234 
 NOR  HZ I         857 45.40         5.5 0.22            120            234 234 
 ROSC BE ES        857 46.37                             117    1.21 8  253 211 
 HEL  HZ EP   4    857 19.16                             115    1.93 0  271 255 
 HEL  HE ES   4    857 45.39                             115   -3.20 0  271 255 
 HEL  HZ I         857 54.86         3.8 0.32            116            271 255 
 GUY2CHZ EP   4    857 22.10                             113    1.42 0  301 234 
 GUY2CHE ES   4    857 57.70                             113    2.96 0  301 234 
 GUY2CHZ I         858  3.07         3.1 0.60                           301 234 
 SOCV BZ EP        857 19.67                             112   -0.59 7  302  57 
 SOCV BN ES   4    857 51.52                             112   -2.46 0  302  57 
                                                                                
