 2015  2 4 0537 25.5 L   6.876 -73.414121.4  RSN  5 0.8 1.1LRSN                1
 GAP=137        1.95       8.5    12.1 17.4 -0.3197E+02  0.4824E+02 -0.6977E+01E
 Epicentro: SAN VICENTE DE CHUCURI - SANTANDER                                 3
 ACTION:UPD 15-04-30 21:21 OP:nd   STATUS:               ID:20150204053725 L   I
 OLDACT:DUP 15-02-04 18:05 OP:stll STATUS:               ID:20150204052747d    3
 OLDACT:DUP 15-02-04 17:54 OP:stll STATUS:               ID:20150204052746d    3
 OLDACT:REG 15-02-04 12:03 OP:stll STATUS:               ID:20150204052745     3
 2015-02-04-0527-45M.COL___262                                                 6
 STAT SP IPHASW D HRMM SECON CODA AMPLIT PERI AZIMU VELO AIN AR TRES W  DIS CAZ7
 BAR2 EZ I         537 42.51         5.7 0.10            166           40.5 141 
 BAR2 EZ EP        537 42.56                             160   -0.2010 40.5 141 
 BAR2 EZ ES        537 55.86                             160   -0.3710 40.5 141 
 BRR  HZ EP        537 42.91                             160    0.4510 41.7 308 
 BRR  HN ES        537 56.85                             160    1.1510 41.7 308 
 PTB  HZ EP        537 48.90                             132    0.8410  121 252 
 PTB  HN ES        538  4.35                             132   -1.3110  121 252 
 PTB  HZ I         538 10.60         1.1 0.58            117            121 252 
 OCA  HN ES        538 10.32                             125   -0.77 9  151   4 
 SPBC HN ES        538 11.49                             125    0.09 9  154 208 
                                                                                
