 2016  7 4 0630 12.2 L   6.783 -73.183151.8  RSN  6 0.3 1.3LRSN                1
 GAP=232        0.89       5.4     6.2  9.0  0.1591E+02 -0.2540E+01 -0.4599E+01E
 Epicentro: LOS SANTOS - SANTANDER                                             3
 ACTION:UPD 17-03-29 16:46 OP:lp   STATUS:               ID:20160704063012 L   I
 OLDACT:UP  16-07-04 20:09 OP:dani STATUS:               ID:20160704062745     3
 OLDACT:UP  16-07-04 20:08 OP:dani STATUS:               ID:20160704062745     3
 OLDACT:UP  16-07-04 20:07 OP:dani STATUS:               ID:20160704062745     3
 OLDACT:REG 16-07-04 13:32 OP:dani STATUS:               ID:20160704062745     3
 2016-07-04-0627-45M.COL___319                                                 6
 STAT SP IPHASW D HRMM SECON CODA AMPLIT PERI AZIMU VELO AIN AR TRES W  DIS CAZ7
 BRR  HZ EP        630 33.95                             154    0.0710 68.6 302 
 BRR  HN ES        630 50.90                             154    0.1310 68.6 302 
 BRR  HZ I         630 54.76         5.8 0.34            154           68.6 302 
 RUS  HZ EP        630 36.84                             145    0.3810 99.1 174 
 RUS  HN ES        630 55.00                             145   -0.3710 99.1 174 
 RUS  HZ I         630 55.72         2.6 0.26            149           99.1 174 
 PTB  HZ EP        630 38.72                             134   -0.58 9  143 259 
 PTB  HN ES        631  0.13                             134   -0.29 9  143 259 
 PTB  HZ I         631  4.73         2.0 0.44            136            143 259 
 SPBC HE ES        631  3.59                             131    0.48 9  159 218 
 ZAR  HN ES        631 10.33                             124    0.20 9  201 293 
 NOR  HN ES   4    631 17.82                             120    2.20 0  230 234 
 GUY2CHZ EP   4    630 52.96                             114   -2.66 0  297 235 
 GUY2CHE ES   4    631 34.47                             114    5.01 0  297 235 
 GUY2CHZ I         631 41.11         1.2 0.70                           297 235 
                                                                                
