 2016  5 4 0526  2.5 L   6.787 -73.126146.7  RSN 10 0.4 1.7LRSN                1
 GAP=140        0.92       3.0     3.7  5.7 -0.1340E+01  0.4031E+01  0.2548E+01E
 Epicentro: LOS SANTOS - SANTANDER                                             3
 ACTION:UPD 16-08-18 17:41 OP:cam  STATUS:               ID:20160504052602 L   I
 OLDACT:UP  16-05-04 14:13 OP:edw  STATUS:               ID:20160504051744     3
 OLDACT:REG 16-05-04 12:41 OP:edw  STATUS:               ID:20160504051744     3
 2016-05-04-0517-44M.COL___295                                                 6
 STAT SP IPHASW D HRMM SECON CODA AMPLIT PERI AZIMU VELO AIN AR TRES W  DIS CAZ7
 BAR2 EZ EP        526 22.08                             171   -0.1010 22.4 196 
 BAR2 EZ ES        526 37.23                             171   -0.3410 22.4 196 
 BAR2 EZ I         526 39.71         6.1 0.40            170           22.4 196 
 BRR  HZ EP        526 24.12                             152    0.2610 73.8 299 
 BRR  HN ES        526 41.28                             152    0.7310 73.8 299 
 BRR  HZ I         526 44.18         8.5 0.36            150           73.8 299 
 PAM  EZ EP        526 24.99                             151    0.2310 77.1  38 
 PAM  EE ES        526 42.19                             151    0.0410 77.1  38 
 PAM  EZ I         526 44.18        10.6 0.58            153           77.1  38 
 RUS  HZ EP        526 26.29                             144    0.1010 99.0 177 
 RUS  HN ES        526 44.71                             144    0.0110 99.0 177 
 RUS  HZ I         526 45.16         3.4 0.26            146           99.0 177 
 PTB  HZ EP        526 29.11                             132   -0.56 9  150 260 
 PTB  HE ES        526 50.42                             132   -0.48 9  150 260 
 PTB  HZ I         526 53.59         4.6 0.22            131            150 260 
 OCA  HZ EP   2    526 30.55                             129   -0.45 5  162 352 
 OCA  HE ES   1    526 52.64                             129   -0.63 7  162 352 
 OCA  HZ I         526 56.68         7.1 0.15            130            162 352 
 SPBC HN ES        526 52.87                             129   -0.49 9  163 220 
 ZAR  HZ EP   2    526 35.37                             122    0.14 4  207 292 
 ZAR  HN ES        527  1.01                             122    0.22 8  207 292 
 ZAR  HZ I         527  7.05         8.6 0.34            122            207 292 
 NOR  HZ EP   2    526 37.58                             119   -0.77 4  236 235 
 NOR  HE ES        527  6.84                             119    0.50 8  236 235 
 NOR  HZ I         527 13.03         5.2 0.23            119            236 235 
 CHI  HZ EP        526 40.42                             117    0.30 8  248 196 
 CHI  HN ES        527  9.80                             117    0.30 8  248 196 
 CHI  HZ I         527 15.52         2.2 0.22            118            248 196 
                                                                                
