 2011  4 4 0013 53.3 L   6.897 -73.126135.5  RSN  5 0.3 1.8LRSN                1
 GAP=173        0.72       7.1     8.4  8.7 -0.3409E+02  0.2439E+02 -0.1622E+02E
 Epicentro: PIEDECUESTA - SANTANDER                                            3
 ACTION:UP  11-06-22 15:28 OP:REBC STATUS:               ID:20110404001353 L   I
 2011-04-04-0011-32S.COL___138                                                 6
 STAT SP IPHASW D HRMM SECON CODA AMPLIT PERI AZIMU VELO SNR AR TRES W  DIS CAZ7
 GIR2 SZ EP   2    014 11.67                             170     0.2 5   21 340 
 BAR2 SZ EP   1    014 11.42                             165    -0.6 7   34 191 
 BAR2 SZ ES   1    014 26.73                             165     0.2 7   34 191 
 BAR2 SZ I         014 27.99        10.7 0.27                            34 191 
 BRR  HZ EP        014 13.43                             151     0.210   69 290 
 BRR  HZ I         014 13.66        19.8 0.10                            69 290 
 BRR  HN ES   2    014 28.66                             151    -0.1 5   69 290 
 GRA  SZ EP   1    014 17.09                             137     0.4 7  115  18 
 GRA  SZ ES   1    014 34.58                             137    -0.4 7  115  18 
 GRA  SZ I         014 37.47         9.2 0.35                           115  18 
 HEL  HZ EP   2    014 33.38                             112    -0.2 4  277 254 
 HEL  HN ES   2    015  4.79                             112    -0.2 4  277 254 
 HEL  HZ I         015 11.62         3.3 0.54                           277 254 
                                                                                
