 2017  8 4 0527 51.8 L   6.737 -73.159138.0  RSN  6 0.5 1.2LRSN                1
 GAP=138        1.27       5.7     6.1  8.7 -0.8475E+01  0.7824E+01  0.4968E+01E
 Epicentro: LOS SANTOS - SANTANDER                                             3
 ACTION:UPD 17-09-04 20:16 OP:rebc STATUS:               ID:20170804052751 L   I
 OLDACT:REG 17-08-04 13:05 OP:osc  STATUS:               ID:20170804051742     3
 2017-08-04-0518-00M.COL___374                                                 6
 STAT SP IPHASW D HRMM SECON CODA AMPLIT PERI AZIMU VELO AIN AR TRES W  DIS CAZ7
 BAR2 EZ EP        528  9.71                             173   -0.6610 16.3 189 
 BAR2 EZ ES        528 25.14                             173    0.2910 16.3 189 
 BRR  HZ EP        528 12.40                             150    0.1510 73.6 304 
 BRR  HE ES        528 28.95                             150    0.7410 73.6 304 
 PAM  EZ EP        528 13.32                             147   -0.2810 83.7  37 
 PAM  EN ES        528 30.20                             147   -0.4010 83.7  37 
 PAM  EZ I         528 34.77         3.8 0.40            150           83.7  37 
 RUS  HZ EP        528 14.91                             144    0.6110 93.8 175 
 RUS  HN ES        528 31.90                             144    0.0610 93.8 175 
 RUS  HZ I         528 34.46         1.2 0.46            146           93.8 175 
 PTB  HZ EP        528 18.01                             131    0.11 9  145 261 
 PTB  HN ES        528 37.68                             131   -0.58 9  145 261 
 PTB  HZ I         528 41.30         2.8 0.18            133            145 261 
 SPBC HZ EP        528 19.67                             128    0.56 9  157 220 
 SPBC HN ES        528 39.73                             128   -0.68 9  157 220 
 SPBC HZ I         528 44.99         2.3 0.04            130            157 220 
                                                                                
