 2017  8 4 0405  6.8 L   6.643 -73.458111.2  RSN 13 0.5 1.7LRSN                1
 GAP= 53        1.33       3.3     3.8  6.5  0.7399E-01  0.3933E+01  0.2561E+01E
 Epicentro: EL CARMEN - SANTANDER                                              3
 ACTION:UPD 17-09-04 20:16 OP:rebc STATUS:               ID:20170804040506 L   I
 OLDACT:REG 17-08-04 12:57 OP:osc  STATUS:               ID:20170804035743     3
 2017-08-04-0358-00M.COL___374                                                 6
 STAT SP IPHASW D HRMM SECON CODA AMPLIT PERI AZIMU VELO AIN AR TRES W  DIS CAZ7
 BAR2 EZ IP     D  4 5 22.40                             163   -0.0810 31.0 100 
 BAR2 EZ ES        4 5 34.86                             163    0.1110 31.0 100 
 BRR  HZ EP        4 5 23.12                             150   -0.3410 58.5 331 
 BRR  HN ES        4 5 37.13                             150    0.6410 58.5 331 
 BRR  HZ I         4 5 37.98        14.7 0.14            150           58.5 331 
 RUS  HZ EP        4 5 26.05                             137   -0.5910 92.8 153 
 RUS  HN ES        4 5 42.29                             137    0.1510 92.8 153 
 RUS  HZ I         4 5 44.27         3.9 0.16            139           92.8 153 
 PTB  HZ EP   9    4 5 25.68                             131   -1.89 0  111 264 
 PTB  HE ES        4 5 41.28                                   -0.6310  111 264 
 PTB  HZ I         4 5 47.43         9.4 0.22            131            111 264 
 PAM  EZ EP        4 5 28.54                             131    0.0710  114  47 
 PAM  EN ES        4 5 46.12                             131    0.7110  114  47 
 PAM  EZ I         4 5 47.14        10.3 0.14            135            114  47 
 SPBC HZ EP        4 5 28.96                             127   -0.4110  129 212 
 SPBC HE ES        4 5 46.41                             127   -0.6010  129 212 
 SPBC HZ I         4 5 50.91        11.9 0.24            127            129 212 
 ZAR  HZ EP        4 5 34.22                             117   -0.45 9  181 301 
 ZAR  HE ES        4 5 55.92                             117   -0.52 9  181 301 
 ZAR  HZ I         4 6  3.11        16.0 0.22            117            181 301 
 YPLC HZ IP     D  4 5 34.66                             116   -0.24 9  182 139 
 YPLC HE ES        4 5 56.16                             116   -0.69 9  182 139 
 YPLC HZ I         4 5 58.07         8.8 0.28            118            182 139 
 NOR  HZ EP   9    4 5 34.97                             114   -1.47 0  197 233 
 NOR  HE ES        4 5 57.24                                   -0.88 9  197 233 
 NOR  HZ I         4 6  5.07         3.8 0.18            115            197 233 
 CHI  HZ EP        4 5 40.34                             111    0.28 8  225 188 
 CHI  HN ES        4 6  6.73                             111    0.70 8  225 188 
 CHI  HZ I         4 6 12.03         2.0 0.36            112            225 188 
 HEL  HN ES   2    4 6  7.76                             110   -0.16 4  234 258 
 GUY2CHZ EP        4 5 45.92                             108    1.37 8  263 233 
 GUY2CHN ES        4 6 14.62                             108    0.60 8  263 233 
 GUY2CHZ I         4 6 18.95         2.4 0.36                           263 233 
 LL6C HZ EP        4 5 53.12                             102   -0.22 7  343   3 
 LL6C HN ES   2    4 6 30.24                             102    0.56 3  343   3 
                                                                                
