 2012  3 4 0921 17.3 L   6.689 -73.196149.7  RSN  4 0.4 1.4LRSN                1
 GAP=223        0.91       8.7     9.3  9.1  0.4162E+02  0.9940E+01  0.7130E+01E
 ACTION:UP  12-03-31 23:16 OP:EP   STATUS:               ID:20120304092117 L   I
 2012-03-04-0920-00M.COL___191                                                 6
 STAT SP IPHASW D HRMM SECON CODA AMPLIT PERI AZIMU VELO SNR AR TRES W  DIS CAZ7
 BAR2 SZ EP   2    921 36.90                             176    -0.3 5   11 172 
 BAR2 SZ ES   1    921 52.11                             176    -0.6 7   11 172 
 BAR2 SZ I         921 53.70         7.0 0.43                            11 172 
 BRR  HZ EP        921 38.76                             152    -0.210   73 309 
 BRR  HE ES        921 56.35                             152     0.410   73 309 
 BRR  HZ I         922  0.63         6.7 0.23                            73 309 
 RUS  HZ EP   1    921 41.10                             148     0.5 7   89 172 
 RUS  HN ES   1    921 59.05                             148     0.2 7   89 172 
 RUS  HZ I         922  0.82         2.9 0.51                            89 172 
 PTB  HZ EP   1    921 43.81                             134    -0.1 7  140 263 
 PTB  HE ES   1    922  4.45                             134    -0.2 7  140 263 
                                                                                
