 2014  9 4 0312 39.4 L   6.809 -73.119146.3  RSN 22 0.5 2.7LRSN                1
 GAP= 72        0.87       2.5     3.0  5.0 -0.9669E+00  0.4337E+01  0.2611E+01E
 Epicentro: LOS SANTOS - SANTANDER                                             3
 ACTION:UPD 14-10-03 23:02 OP:nd   STATUS:               ID:20140904031239 L   I
 OLDACT:UP  14-09-04 16:30 OP:mh   STATUS:               ID:20140904030818     3
 OLDACT:REG 14-09-04 12:51 OP:mh   STATUS:               ID:20140904030818     3
 2014-09-04-0308-18M.COL___269                                                 6
 STAT SP IPHASW D HRMM SECON CODA AMPLIT PERI AZIMU VELO AIN AR TRES W  DIS CAZ7
 BAR2 SZ IP     C  312 59.12                             170    0.0210 25.0 196 
 BAR2 SZ ES   1    313 13.87                             170   -0.62 7 25.0 196 
 BAR2 SZ I         313 16.39        75.9 0.26            167           25.0 196 
 BRR  HZ EP        313  0.93                             152    0.2310 73.4 297 
 BRR  HN ES   1    313 17.43                             152    0.09 7 73.4 297 
 BRR  HZ I         313 20.30        51.3 0.14            151           73.4 297 
 PAM  SZ EP        313  1.79                             152    0.3010 74.7  38 
 PAM  SN ES   1    313 19.09                             152    0.35 7 74.7  38 
 PAM  SZ I         313 21.24        65.5 0.24            153           74.7  38 
 RUS  HZ EP   1    313  2.94                             144   -0.30 7  101 178 
 RUS  HN ES   1    313 21.26                             144   -0.59 7  101 178 
 RUS  HZ I         313 22.85        29.3 0.38            141            101 178 
 PTB  HZ EP   4    313  5.15                             131   -1.51 0  151 259 
 PTB  HE ES   1    313 28.21                             131    0.26 7  151 259 
 PTB  HZ I         313 32.77        77.2 0.20            129            151 259 
 TAM  HZ EP   1    313  7.20                             131    0.35 7  152 106 
 TAM  HZ I         313 27.86        39.5 0.34            130            152 106 
 TAM  HN ES   1    313 28.66                             131    0.38 7  152 106 
 OCA  HZ EP   1    313  7.48                             130   -0.18 7  160 352 
 OCA  HN ES        313 29.38                             130   -0.35 9  160 352 
 OCA  HZ I         313 37.15        41.1 0.30            129            160 352 
 SPBC HZ EP        313  7.95                             129   -0.21 9  166 220 
 SPBC HN ES   1    313 30.96                             129    0.34 7  166 220 
 SPBC HZ I         313 36.89       100.0 0.34            126            166 220 
 ZAR  HZ EP   1    313 11.62                             122   -0.48 6  206 292 
 ZAR  HN ES   1    313 37.33                             122   -0.29 6  206 292 
 ZAR  HZ I         313 43.36        61.1 0.60            121            206 292 
 NOR  HZ EP   1    313 14.85                             118   -0.60 6  238 235 
 NOR  HN ES   1    313 43.07                             118   -0.53 6  238 235 
 NOR  HZ I         313 46.49        43.4 0.20            117            238 235 
 SML  HZ EP   1    313 15.73                             117   -0.33 6  244 335 
 SML  HN ES        313 45.06                             117    0.38 8  244 335 
 ROSC BZ EP        313 17.78                             116   -0.00 8  255 211 
 ROSC BN ES   4    313 51.49                             116    3.75 0  255 211 
 ROSC BZ I         313 55.21        44.3 0.55            115            255 211 
 HEL  HZ EP   1    313 20.45                             114    0.49 6  275 256 
 HEL  HE ES   1    313 52.61                             114    1.00 6  275 256 
 HEL  HZ I         313 57.56        26.0 0.36            113            275 256 
 URE  HN ES   4    313 49.81                             113   -3.18 0  286 292 
 URE  HZ I         314  7.78                             112            286 292 
 GUY2CHZ EP   1    313 23.26                             112   -0.08 5  304 235 
 GUY2CHN ES   4    313 59.72                             112    2.08 0  304 235 
 GUY2CHZ I         314  5.60        43.9 0.76                           304 235 
 VIL  SZ EP   4    313 22.33                             112   -0.66 0  305 192 
 VIL  SN ES   4    313 57.73                             112    0.71 0  305 192 
 VIL  SZ I         314  7.81        25.6 0.27            111            305 192 
 CBOC HZ EP   1    313 26.66                             110   -0.01 5  337 252 
 CBOC HN ES        314  3.12                             110   -0.44 7  337 252 
 CBOC HZ I         314 24.32         7.1 0.36            108            337 252 
 TOL  SZ EP        313 28.47                             109    0.50 6  346 225 
 TOL  SN ES   1    314  7.30                             109    1.42 5  346 225 
 TOL  SZ I         314 13.27        56.8 0.46            108            346 225 
 MON  HZ EP   4    313 26.19                             108   -2.40 0  355 308 
 MON  HN ES   4    314  4.04                             108   -2.94 0  355 308 
 MON  HZ I         314  7.30        10.7 0.44            108            355 308 
 ANIL HZ EP   4    313 28.55                             108   -0.97 0  360 225 
 ANIL HN ES   4    314  9.97                             108    1.33 0  360 225 
 PRA  HZ EP        313 32.16                             106   -1.02 6  394 210 
 PRA  HN ES        314 15.82                             106    0.66 6  394 210 
 PRA  HZ I         314 20.92        22.7 0.10            105            394 210 
 ORTC HZ EP   1    313 32.71                             106   -0.90 4  398 216 
 ORTC HN ES   1    314 16.19                             106    0.28 4  398 216 
 ORTC HZ I         314 22.09        13.2 0.10            105            398 216 
 SJC  HZ EP   4    313 32.51                             106   -2.53 0  410 327 
 SJC  HN ES   4    314 14.06                             106   -4.40 0  410 327 
 SJC  HZ I         314 15.77         5.5 0.22            105            410 327 
                                                                                
