 2014 10 4 0611  8.5 L   6.826 -73.152144.5  RSN 12 0.4 1.8LRSN                1
 GAP=135        0.75       2.1     3.2  4.9 -0.1320E+01  0.6033E+01 -0.1317E+00E
 Epicentro: LOS SANTOS - SANTANDER                                             3
 ACTION:UPD 14-11-29 23:46 OP:nd   STATUS:               ID:20141004061108 L   I
 OLDACT:REG 14-10-04 12:31 OP:stl  STATUS:               ID:20141004060735     3
 2014-10-04-0607-35M.COL___286                                                 6
 STAT SP IPHASW D HRMM SECON CODA AMPLIT PERI AZIMU VELO AIN AR TRES W  DIS CAZ7
 BAR2 SZ EP        611 27.89                             169   -0.1810 26.0 187 
 BAR2 SZ ES   1    611 43.17                             169   -0.13 7 26.0 187 
 BAR2 SZ I         611 44.89         8.0 0.46            169           26.0 187 
 PAM  SZ EP        611 30.75                             151    0.2410 75.6  41 
 PAM  SN ES        611 47.89                             151    0.2410 75.6  41 
 PAM  SZ I         611 50.26        13.8 0.56            155           75.6  41 
 RUS  HZ EP        611 32.46                             143    0.0910  103 176 
 RUS  HE ES        611 50.80                             143   -0.1610  103 176 
 RUS  HZ I         611 53.58         5.3 0.36            145            103 176 
 PTB  HZ EP        611 35.02                             132   -0.37 9  148 258 
 PTB  HN ES        611 56.17                             132   -0.17 9  148 258 
 PTB  HZ I         611 58.40         6.2 0.14            132            148 258 
 OCA  HZ EP   1    611 36.08                             130   -0.39 7  157 353 
 OCA  HN ES        611 58.51                             130    0.25 9  157 353 
 OCA  HZ I         612  3.75         6.6 0.22            132            157 353 
 SPBC HZ EP        611 37.10                             128   -0.01 9  165 218 
 SPBC HN ES        611 59.39                             128   -0.00 9  165 218 
 SPBC HZ I         612  4.08        10.8 0.20            129            165 218 
 ZAR  HZ EP   1    611 40.78                             122    0.06 6  202 291 
 ZAR  HN ES        612  6.08                             122    0.25 9  202 291 
 ZAR  HZ I         612 13.71         4.7 0.28            123            202 291 
 SML  HZ EP   1    611 44.15                             117   -0.63 6  241 335 
 SML  HN ES        612 12.73                             117   -0.32 8  241 335 
 SML  HZ I         612 15.97        10.3 0.10            119            241 335 
 CHI  HZ EP   4    611 43.84                             117   -2.60 0  251 195 
 CHI  HN ES   4    612 14.01                             117   -2.00 0  251 195 
 CHI  HZ I         612 20.07         3.5 0.20            118            251 195 
 GUY2CHZ EP   1    611 52.64                             112    0.43 5  302 234 
 GUY2CHN ES        612 26.72                             112    0.44 7  302 234 
 GUY2CHZ I         612 34.72         3.9 0.80                           302 234 
 TOL  SZ EP   1    611 58.06                             109    1.14 5  345 224 
 TOL  SN ES   1    612 35.07                             109    0.41 5  345 224 
 TOL  SZ I         612 40.31         6.7 0.42            110            345 224 
 PRA  HZ EP   1    612  2.60                             106    0.34 4  394 209 
 PRA  HN ES   1    612 42.80                             106   -1.37 4  394 209 
 PRA  HZ I         612 50.67         2.1 0.22            107            394 209 
                                                                                
