 2016  4 4 0135 19.6 L   6.832 -73.154144.5  RSN 18 0.5 2.4LRSN                1
 GAP=125        0.97       2.7     3.7  5.0 -0.2470E+01  0.5446E+01 -0.3080E-01E
 Epicentro: LOS SANTOS - SANTANDER                                             3
 ACTION:UPD 16-05-05 14:18 OP:rebc STATUS:               ID:20160404013519 L   I
 OLDACT:UP  16-04-04 16:50 OP:mh   STATUS:               ID:20160404012741     3
 OLDACT:UP  16-04-04 16:47 OP:mh   STATUS:               ID:20160404012741     3
 OLDACT:UP  16-04-04 16:46 OP:mh   STATUS:               ID:20160404012741     3
 OLDACT:REG 16-04-04 12:26 OP:mh   STATUS:               ID:20160404012741     3
 2016-04-04-0127-41M.COL___316                                                 6
 STAT SP IPHASW D HRMM SECON CODA AMPLIT PERI AZIMU VELO AIN AR TRES W  DIS CAZ7
 BAR2 EZ EP        135 39.15                             169    0.0110 26.7 187 
 BAR2 EZ ES        135 54.06                             169   -0.3410 26.7 187 
 BAR2 EZ I         135 55.39        56.5 0.24            169           26.7 187 
 PAM  EZ EP        135 42.12                             151    0.5710 75.3  42 
 PAM  EN ES        135 58.91                             151    0.2410 75.3  42 
 PAM  EZ I         136  1.28        18.2 0.38            154           75.3  42 
 RUS  HZ EP        135 43.17                             142   -0.3110  104 176 
 RUS  HN ES        136  2.12                             142   -0.0010  104 176 
 RUS  HZ I         136  4.15        18.3 0.68            145            104 176 
 PTB  HN EP        135 45.93                             132   -0.51 9  148 257 
 PTB  HE ES        136  7.13                             132   -0.25 9  148 257 
 PTB  HN I         136 11.57        76.2 0.54            131            148 257 
 OCA  HZ EP        135 47.58                             130    0.12 9  157 353 
 OCA  HE ES        136  9.33                             130    0.13 9  157 353 
 OCA  HZ I         136 17.29        40.9 0.24            130            157 353 
 SPBC HZ EP        135 47.90                             128   -0.30 9  165 218 
 SPBC HN ES        136 11.00                             128    0.48 9  165 218 
 SPBC HZ I         136 18.39        33.0 0.28            129            165 218 
 ZAR  HZ EP        135 51.91                             122    0.18 9  202 291 
 ZAR  HN ES        136 16.94                             122    0.14 9  202 291 
 ZAR  HZ I         136 23.27        24.1 0.32            122            202 291 
 NOR  HZ EP        135 55.30                             118   -0.09 8  236 234 
 NOR  HN ES        136 23.17                             118   -0.15 8  236 234 
 CHI  HZ EP        135 57.61                             116    0.04 8  252 195 
 CHI  HN ES        136 26.73                             116   -0.46 8  252 195 
 CHI  HZ I         136 31.59        12.9 0.38            118            252 195 
 ROSC BZ EP   1    135 59.48                             116    1.56 6  255 210 
 ROSC BN ES   4    136 30.27                             116    2.45 0  255 210 
 ROSC BZ I         136 33.65        31.4 0.40            117            255 210 
 URE  HZ EP        135 59.50                             113   -0.85 7  282 291 
 URE  HN ES   4    136 30.03                             113   -2.12 0  282 291 
 URE  HZ I         136 41.14        20.2 0.18            113            282 291 
 GUY2CHZ EP   1    136  3.28                             112   -0.01 5  303 234 
 GUY2CHN ES   4    136 41.32                             112    3.94 0  303 234 
 GUY2CHZ I         136 46.07        18.8 0.86                           303 234 
 VIL  SN ES   4    136 35.78                             111   -1.66 0  307 191 
 PTGC HZ EP   4    136  2.27                             111   -1.53 0  312 159 
 PTGC HN ES   4    136 35.59                             111   -2.70 0  312 159 
 PTGC HZ I         136 40.28        18.6 0.79            113            312 159 
 CBOC HZ EP        136  6.78                             110    0.30 7  334 251 
 CBOC HN ES   4    136 40.60                             110   -2.45 0  334 251 
 MON  HZ EP   4    136  7.92                             108   -0.28 0  351 308 
 MON  HN ES   4    136 44.35                             108   -1.77 0  351 308 
 ANIL HE ES   4    136 51.02                             108    2.47 0  359 224 
 ANIL HZ I         136 54.03        23.6 0.26            109            359 224 
 SDV  BZ EP        136  8.75                             108   -0.65 6  359  51 
 SDV  BN ES   4    136 45.77                             108   -2.48 0  359  51 
 SDV  BZ I         136 49.16         3.9 0.35            110            359  51 
 ORTC HZ EP   1    136 14.32                             106    0.58 4  398 216 
 ORTC HN ES        136 56.78                             106    0.80 6  398 216 
 ORTC HZ I         137  2.09         5.1 0.42            107            398 216 
 SJC  HZ EP   4    136 13.22                             106   -1.48 0  406 327 
 SJC  HN ES   4    136 53.60                             106   -4.09 0  406 327 
 SJC  HZ I         137  8.50         3.0 0.34            106            406 327 
                                                                                
