 2012  4 4 0642 59.9 L   6.801 -73.095143.7  RSN  5 0.4 1.2LRSN                1
 GAP=143        0.93       6.4     6.9  9.8  0.9390E+01  0.1760E+02 -0.4476E+00E
 Epicentro: LOS SANTOS - SANTANDER                                             3
 ACTION:UPD 12-07-05 11:50 OP:tino STATUS:               ID:20120404064259 L   I
 2012-04-04-0640-00M.COL___196                                                 6
 STAT SP IPHASW D HRMM SECON CODA AMPLIT PERI AZIMU VELO AIN AR TRES W  DIS CAZ7
 BAR2 SZ ES   2    643 33.85                             170    -0.6 5   25 203 
 BAR2 SZ I         643 35.02         4.8 0.29                            25 203 
 PAM  SZ EP   1    643 22.18                             152     0.5 7   74  36 
 PAM  SZ I         643 22.62         2.7 0.17                            74  36 
 PAM  SN ES   1    643 38.26                             152    -0.4 7   74  36 
 BRR  HZ EP   1    643 21.40                             150     0.3 7   76 296 
 BRR  HE ES   1    643 37.92                             150     0.3 7   76 296 
 BRR  HZ I         643 39.78         5.1 0.35                            76 296 
 RUS  HZ EP   1    643 23.24                             143    -0.2 7  100 179 
 RUS  HN ES   1    643 41.90                             143     0.1 7  100 179 
 RUS  HZ I         643 43.92         1.3 0.42                           100 179 
 ZAR  HZ EP   1    643 31.96                             121    -0.8 6  209 292 
 ZAR  HN ES   1    643 58.38                             121     0.0 6  209 292 
 ZAR  HZ I         644  4.22         1.7 0.29                           209 292 
                                                                                
