 2015 11 4 0618  8.8 L   6.792 -73.114148.0  RSN 19 0.5 2.5LRSN                1
 GAP= 68        1.07       2.9     3.3  5.3 -0.9511E+00  0.4620E+01  0.2346E+01E
 Epicentro: LOS SANTOS - SANTANDER                                             3
 ACTION:UPD 15-12-28 16:08 OP:cam  STATUS:               ID:20151104061808 L   I
 OLDACT:UP  15-11-19 06:49 OP:CARA STATUS:               ID:20151104061808 L   3
 OLDACT:REG 15-11-04 13:16 OP:cara STATUS:               ID:20151104060749     3
 2015-11-04-0607-49M.COL___304                                                 6
 STAT SP IPHASW D HRMM SECON CODA AMPLIT PERI AZIMU VELO AIN AR TRES W  DIS CAZ7
 BAR2 EZ IP        618 28.41                             171   -0.2910 23.4 199 
 BAR2 EZ ES        618 43.95                             171   -0.2710 23.4 199 
 BAR2 EZ I         618 45.26        62.7 0.44            169           23.4 199 
 BRR  HZ IP     C  618 30.32                             152   -0.0710 74.7 298 
 BRR  HN ES        618 47.84                             152    0.6110 74.7 298 
 BRR  HZ I         618 52.56        39.4 0.14            149           74.7 298 
 PAM  EZ EP     C  618 31.18                             152    0.0210 75.9  37 
 PAM  EN ES        618 48.71                             152    0.1010 75.9  37 
 PAM  EZ I         618 52.93        36.4 0.82            155           75.9  37 
 RUS  HZ EP        618 32.27                             145   -0.4210 99.5 178 
 RUS  HN ES        618 51.11                             145   -0.2210 99.5 178 
 RUS  HZ I         618 53.69        30.8 0.44            147           99.5 178 
 TAM  HZ IP     D  618 36.55                             132    0.23 9  151 105 
 TAM  HE ES        618 58.62                             132    0.83 9  151 105 
 OCA  HZ EP        618 36.77                             130   -0.64 9  162 352 
 OCA  HN ES        618 59.62                             130   -0.10 9  162 352 
 OCA  HZ I         619  4.39        80.6 0.22            131            162 352 
 SPBC HZ EP        618 37.35                             129   -0.26 9  165 220 
 SPBC HE ES        618 59.84                             129   -0.25 9  165 220 
 SPBC HZ I         619  6.55        52.8 0.20            130            165 220 
 ZAR  HZ EP        618 41.92                             122    0.16 8  208 292 
 ZAR  HE ES        619  6.92                             122   -0.55 8  208 292 
 ZAR  HZ I         619 13.33        52.6 0.38            123            208 292 
 NOR  HZ EP        618 44.49                             119   -0.42 8  237 235 
 NOR  HE ES        619 13.12                             119    0.04 8  237 235 
 NOR  HN I         619 19.91        73.5 0.16            119            237 235 
 SML  HZ EP   4    618 44.70                             118   -1.10 0  246 335 
 SML  HE ES   4    619 13.66                             118   -0.99 0  246 335 
 SML  HZ I         619 16.34        60.0 0.10            119            246 335 
 CHI  HZ EP        618 46.49                             118   -0.14 8  249 196 
 CHI  HE ES        619 16.05                             118   -0.09 8  249 196 
 CHI  HZ I         619 21.64        13.2 0.30            119            249 196 
 ROSC BZ EP   4    618 47.92                             117    0.76 0  254 212 
 ROSC BN ES   4    619 19.75                             117    2.67 0  254 212 
 ROSC BZ I         619 21.92        29.7 0.45            118            254 212 
 URE  HZ EP   4    618 52.96                             114    2.58 0  287 292 
 URE  HE ES   4    619 20.23                             114   -2.58 0  287 292 
 URE  HZ I         619 29.39        24.4 0.20            114            287 292 
 GUY2CHZ EP        618 53.40                             113    0.62 7  304 235 
 GUY2CHN ES        619 28.46                             113    1.38 7  304 235 
 GUY2CHZ I         619 37.20        11.6 0.30                           304 235 
 PTGC HZ EP   9    618 51.35                             112   -1.17 0  307 159 
 PTGC HN ES        619 24.82                             112   -0.63 7  307 159 
 PTGC HZ I         619 27.22        12.3 0.40            115            307 159 
 DBB  SZ EP        618 57.60                             110    0.83 7  343 274 
 DBB  SZ ES   4    619 32.10                             110   -2.10 0  343 274 
 MON  HZ EP   9    618 55.65                             109   -2.62 0  357 308 
 MON  HN ES        619 34.74                             109    0.50 6  357 308 
 MON  HZ I         619 49.78        12.4 0.46            110            357 308 
 ORTC HZ EP        619  2.46                             107   -0.49 6  397 217 
 ORTC HE ES        619 45.56                             107    0.36 6  397 217 
 ORTC HZ I         619 49.76         5.8 0.18            108            397 217 
 SJC  HZ EP   4    619  2.45                             106   -2.30 0  412 327 
 SJC  HE ES   4    619 43.59                             106   -4.79 0  412 327 
 SJC  HZ I         619 48.11         4.8 0.46            107            412 327 
                                                                                
