 2016 10 4 0530 27.8 L   6.689 -73.183155.0  RSN  5 0.3 1.2LRSN                1
 GAP=136        0.70       4.6     4.1  6.2  0.7949E+01 -0.3518E+01 -0.8150E+01E
 Epicentro: VILLANUEVA - SANTANDER                                             3
 ACTION:UPD 16-11-09 19:16 OP:rebc STATUS:               ID:20161004052743 L   I
 OLDACT:UP  16-10-04 17:07 OP:dani STATUS:               ID:20161004052743 L   3
 OLDACT:UP  16-10-04 17:07 OP:dani STATUS:               ID:20161004052743 L   3
 OLDACT:UP  16-10-04 17:06 OP:dani STATUS:               ID:20161004052743 L   3
 OLDACT:UPD 16-10-04 12:58 OP:edw  STATUS:               ID:20161004052743 L   3
 2016-10-04-0528-00M.COL___360                                                 6
 STAT SP IPHASW D HRMM SECON CODA AMPLIT PERI AZIMU VELO AIN AR TRES W  DIS CAZ7
 BRR  HZ EP        530 50.33                             153    0.1710 74.5 308 
 BRR  HE ES        531  7.92                             153    0.3510 74.5 308 
 BRR  HZ I         531 11.77         2.1 0.14            149           74.5 308 
 RUS  HZ EP        530 52.07                             149    0.3610 88.8 173 
 RUS  HE ES        531 10.16                             149   -0.1910 88.8 173 
 RUS  HZ I         531 11.56         2.7 0.31            155           88.8 173 
 PAM  EZ EP        530 51.35                             149   -0.4110 89.6  37 
 PAM  EZ I         531 12.01         1.4 0.38            137           89.6  37 
 PTB  HZ EP        530 55.10                             135    0.06 9  142 263 
 PTB  HN ES        531 15.99                             135   -0.27 9  142 263 
 PTB  HZ I         531 20.07         2.0 0.14            140            142 263 
 ZAR  HZ EP        531  1.05                             124    0.05 8  205 296 
 ZAR  HN ES        531 26.71                             124   -0.18 8  205 296 
 ZAR  HZ I         531 33.51         2.2 0.15            124            205 296 
                                                                                
