 2014  2 4 0103 56.5 L   6.810 -73.166144.0  RSN 10 0.4 1.6LRSN                1
 GAP=133        0.59       3.0     3.9  6.6 -0.4561E+00  0.3295E+01 -0.4618E+01E
 Epicentro: LOS SANTOS - SANTANDER                                             3
 ACTION:UPD 14-03-10 08:07 OP:ep   STATUS:               ID:20140204010356 L   I
 OLDACT:UP  14-02-04 09:30 OP:mh   STATUS:               ID:20140204010000     3
 OLDACT:UP  14-02-04 09:30 OP:mh   STATUS:               ID:20140204010000     3
 OLDACT:REG 14-02-04 07:59 OP:mh   STATUS:               ID:20140204010000     3
 2014-02-04-0100-00M.COL___288                                                 6
 STAT SP IPHASW D HRMM SECON CODA AMPLIT PERI AZIMU VELO AIN AR TRES W  DIS CAZ7
 PAM  SZ EP   1    1 4 18.79                             150    0.26 7 78.0  41 
 PAM  SZ I         1 4 38.11         8.9 0.20            142           78.0  41 
 RUS  HZ EP   1    1 4 19.88                             143   -0.26 7  102 175 
 RUS  HE ES   1    1 4 38.71                             143    0.11 7  102 175 
 RUS  HZ I         1 4 41.01         3.9 0.48            147            102 175 
 PTB  HZ EP   1    1 4 22.80                             132   -0.30 7  146 258 
 PTB  HN ES   1    1 4 43.84                             132   -0.04 7  146 258 
 PTB  HZ I         1 4 45.05         4.8 0.14            140            146 258 
 SPBC HN ES   2    1 4 46.52                             129   -0.34 5  163 218 
 ZAR  HZ EP   2    1 4 29.45                             122    0.92 4  202 292 
 ZAR  HN ES   2    1 4 53.84                             122    0.29 4  202 292 
 NOR  HZ EP   1    1 4 31.33                             118   -0.63 6  234 234 
 NOR  HE ES   1    1 4 59.96                             118    0.31 6  234 234 
 NOR  HZ I         1 5  2.55         3.2 0.48            123            234 234 
 SML  HZ EP   1    1 4 32.55                             117   -0.23 6  242 336 
 SML  HN ES   1    1 5  0.97                             117   -0.13 6  242 336 
 GUY2CHZ EP   1    1 4 39.76                             112   -0.09 5  300 234 
 GUY2CHE ES   4	   1 5 16.73                             112    3.03 0  300 234 
 GUY2CHZ I         1 5 24.15         2.7 0.39                           300 234 
 RREF BZ EP   1    1 4 42.94                             111    0.52 5  321 229 
 RREF BN ES   4    1 5 20.47                             111    2.21 0  321 229 
 PRA  HZ EP   1    1 4 50.38                             106    0.47 4  392 209 
 PRA  HE ES   4    1 5 30.53                             106   -1.06 0  392 209 
                                                                                
