 2011  1 4 0514 10.9 L   6.709 -72.861140.3  RSN  6 0.6 1.9LRSN                1
 GAP=193        1.38       6.3    17.4 12.1 -0.5128E+02  0.2295E+02 -0.2398E+01E
 Epicentro: MOLAGAVITA - SANTANDER                                             3
 ACTION:UP  11-02-08 08:38 OP:pat  STATUS:               ID:20110104051410 L   I
 2011-01-04-0500-00M.COL___136                                                 6
 STAT SP IPHASW D HRMM SECON CODA AMPLIT PERI AZIMU VELO SNR AR TRES W  DIS CAZ7
 BAR2 SZ IP        514 30.03                             164    -0.310   38 250 
 BAR2 SZ I         514 30.39        14.3 0.13                            38 250 
 BAR2 SZ ES   1    514 45.21                             164    -0.2 7   38 250 
 RUS  HZ EP        514 33.95                             144     0.310   94 195 
 RUS  HZ I         514 34.61         5.8 0.08                            94 195 
 RUS  HE ES   1    514 51.79                             144     0.4 7   94 195 
 GRA  SZ IP        514 35.61                             135    -0.410  130   3 
 GRA  SZ ES   1    514 54.80                             135    -0.9 7  130   3 
 GRA  SZ I         514 56.32        21.7 0.37                           130   3 
 OCA  SZ EP   1    514 41.75                             125     1.3 7  177 343 
 OCA  SZ ES   1    515  4.20                             125     0.8 7  177 343 
 OCA  SZ I         515  7.91        12.2 0.17                           177 343 
 CHI  HZ EP   1    514 48.39                             116     0.0 6  249 203 
 CHI  HE ES   2    515 17.72                             116     0.1 4  249 203 
 CHI  HZ I         515 25.68         3.4 0.28                           249 203 
 RREF HZ EP   1    514 58.39                             108    -0.6 5  340 234 
 RREF HN ES   1    515 35.87                             108    -0.6 5  340 234 
 RREF HZ I         515 40.24         4.5 0.52                           340 234 
                                                                                
