 2012 11 4 0158  8.3 L   6.822 -73.109139.0  RSN  9 0.5 2.5LRSN                1
 GAP=140        0.98       4.0     5.6  6.8  0.2062E+01  0.1221E+02  0.6894E+01E
 Epicentro: LOS SANTOS - SANTANDER                                             3
 ACTION:UPD 12-12-05 15:31 OP:}ep  STATUS:               ID:20121104015808 L   I
 2012-11-04-0150-00M.COL___229                                                 6
 STAT SP IPHASW D HRMM SECON CODA AMPLIT PERI AZIMU VELO AIN AR TRES W  DIS CAZ7
 BAR2 SZ IP     D  158 27.15                             169   -0.0710 26.7 198 
 BAR2 SZ ES   1    158 41.03                             169   -0.93 7 26.7 198 
 BAR2 SZ I         158 43.00        62.6 0.30                          26.7 198 
 GIR2 SZ EP        158 27.13                             167   -0.0310 29.9 342 
 GIR2 SZ ES   1    158 41.46                             167   -0.39 7 29.9 342 
 PAM  SZ EP   1    158 29.95                             151    0.39 7 73.0  38 
 PAM  SN ES   1    158 47.05                             151    0.93 7 73.0  38 
 PAM  SN I         158 47.95        96.3 0.48                          73.0  38 
 BRR  HZ IP     C  158 28.91                             150    0.0110 73.7 295 
 BRR  HN ES   1    158 45.71                             150    0.77 7 73.7 295 
 BRR  HN I         158 46.28       134.0 0.30                          73.7 295 
 RUS  HZ EP        158 31.30                             142   -0.2910  103 178 
 RUS  HN ES   1    158 49.87                             142    0.14 7  103 178 
 RUS  HN I         158 51.36        30.6 0.24                           103 178 
 OCA  HZ EP   2    158 35.64                             128   -0.30 5  158 352 
 OCA  HN ES   1    158 56.93                             128   -0.55 7  158 352 
 ZAR  HZ EP   1    158 40.82                             120    0.18 6  207 291 
 ZAR  HE ES   1    159  5.58                             120   -0.27 6  207 291 
 ZAR  HZ I         159 10.91        24.2 0.40                           207 291 
 CHI  HZ EP        158 45.61                             115   -0.43 8  252 196 
 CHI  HN ES   1    159 16.44                             115    0.99 6  252 196 
 CHI  HN I         159 17.60        26.4 0.32                           252 196 
 HEL  HZ EP   1    158 49.20                             113    0.49 6  277 256 
 HEL  HN ES   1    159 20.24                             113    0.03 6  277 256 
 HEL  HN I         159 26.29        12.1 0.64                           277 256 
                                                                                
