 2016 11 4 0334 40.8 L   6.775 -73.169148.0  RSN  5 0.5 1.2LRSN                1
 GAP=233        1.11       6.9     9.4  9.2  0.1988E+02  0.1799E+02  0.4612E+01E
 Epicentro: LOS SANTOS - SANTANDER                                             3
 ACTION:UPD 17-10-26 21:04 OP:lp   STATUS:               ID:20161104033440 L   I
 OLDACT:UP  16-11-04 14:39 OP:dani STATUS:               ID:20161104032746d    3
 OLDACT:DUP 16-11-04 14:37 OP:dani STATUS:               ID:20161104032746d    3
 OLDACT:REG 16-11-04 12:53 OP:dani STATUS:               ID:20161104032745     3
 2016-11-04-0328-00M.COL___349                                                 6
 STAT SP IPHASW D HRMM SECON CODA AMPLIT PERI AZIMU VELO AIN AR TRES W  DIS CAZ7
 BAR2 EZ ES        335 15.36                             172   -0.8010 20.3 184 
 BAR2 EZ I         335 16.59         3.1 0.14            169           20.3 184 
 BRR  HZ EP        335  2.17                             153   -0.0110 70.3 301 
 BRR  HN ES        335 19.46                             153    0.6310 70.3 301 
 BRR  HZ I         335 22.40         5.3 0.24            150           70.3 301 
 RUS  HZ EP        335  4.64                             145    0.0010 98.1 174 
 RUS  HN ES        335 23.64                             145    0.4410 98.1 174 
 RUS  HZ I         335 24.40         2.2 0.34            147           98.1 174 
 PTB  HZ EP        335  7.46                             133   -0.26 9  145 260 
 PTB  HN ES   2    335 28.05                             133   -0.64 5  145 260 
 PTB  HZ I         335 33.34         1.4 0.20            132            145 260 
 SPBC HE ES        335 31.39                             130    0.14 9  159 219 
                                                                                
