 2013  6 4 0606 21.6 L   6.706 -73.125151.2  RSN  4 0.4 1.8LRSN                1
 GAP=287        0.94       7.5    10.4 13.5 -0.1537E+02 -0.4916E+02 -0.1803E+02E
 Epicentro: JORDAN - SANTANDER                                                 3
 ACTION:UPD 14-01-08 09:52 OP:ep   STATUS:               ID:20130604060621 L   I
 2013-06-04-0600-00M.COL___257                                                 6
 STAT SP IPHASW D HRMM SECON CODA AMPLIT PERI AZIMU VELO AIN AR TRES W  DIS CAZ7
 BRR  HZ EP     C  6 6 44.29                             151    0.5410 78.6 304 
 BRR  HE ES   1    6 7  0.93                             151   -0.10 7 78.6 304 
 BRR  HE I         6 7  5.23         8.1 0.20            154           78.6 304 
 PTB  HZ EP   1    6 6 48.97                             133   -0.09 7  148 263 
 PTB  HN ES        6 7  9.99                             133   -0.49 9  148 263 
 PTB  HN I         6 7 12.37         4.4 0.22            139            148 263 
 ZAR  HN ES        6 7 21.63                             123    0.52 8  210 295 
 ZAR  HN I         6 7 22.51         8.0 0.12            127            210 295 
 SML  HZ EP   1    6 6 59.04                             117   -0.61 6  254 336 
 SML  HN ES        6 7 29.05                             117   -0.29 8  254 336 
 SML  HN I         6 7 31.82         7.5 0.10            121            254 336 
                                                                                
