 2017  9 4 0329 50.9 L   6.075 -73.661118.0  RSN  4 0.4 1.3LRSN                1
 GAP=182        0.83       4.7     5.3  9.8 -0.6624E+01  0.1434E+02 -0.1932E+02E
 Epicentro: CHIPATA - SANTANDER                                                3
 ACTION:UPD 17-10-05 19:08 OP:rebc STATUS:               ID:20170904032950 L   I
 OLDACT:REG 17-09-04 12:28 OP:dnl  STATUS:               ID:20170904032742     3
 2017-09-04-0328-00M.COL___417                                                 6
 STAT SP IPHASW D HRMM SECON CODA AMPLIT PERI AZIMU VELO AIN AR TRES W  DIS CAZ7
 SPBC HZ EP   2    330  8.92                             149    0.06 5 65.3 224 
 SPBC HN ES        330 22.93                             149    0.0510 65.3 224 
 SPBC HZ I         330 28.86         3.5 0.36            149           65.3 224 
 BAR2 EZ EP        330  9.77                             144   -0.1510 77.9  43 
 BAR2 EZ ES        330 24.45                             144   -0.3110 77.9  43 
 BAR2 EZ I         330 25.36         5.2 0.28            152           77.9  43 
 BRR  HZ EP   2    330 13.64                             133    1.10 5  114 357 
 BRR  HN ES        330 29.89                             133    0.4710  114 357 
 BRR  HZ I         330 31.84         3.9 0.40            138            114 357 
 ZAR  HZ EP   2    330 21.66                             115   -0.15 4  205 320 
 ZAR  HE ES        330 45.51                             115   -0.42 9  205 320 
 ZAR  HZ I         330 47.99         2.3 0.54            119            205 320 
                                                                                
