 2017  1 4 0746 30.2 L   6.772 -73.135141.8  RSN  8 0.4 1.6LRSN                1
 GAP=139        1.06       4.6     4.4  6.6  0.6482E+00  0.8454E+01  0.4295E+01E
 Epicentro: LOS SANTOS - SANTANDER                                             3
 ACTION:UPD 17-05-22 15:55 OP:jn   STATUS:               ID:20170104074630 L   I
 OLDACT:REG 17-01-04 12:54 OP:lv   STATUS:               ID:20170104073743     3
 2017-01-04-0738-00M.COL___369                                                 6
 STAT SP IPHASW D HRMM SECON CODA AMPLIT PERI AZIMU VELO AIN AR TRES W  DIS CAZ7
 BAR2 EZ EP        746 49.09                             171   -0.2410 20.6 195 
 BAR2 EZ ES        747  4.07                             171   -0.1610 20.6 195 
 BAR2 EZ I         747  6.40         8.4 0.24            170           20.6 195 
 BRR  HZ EP        746 51.12                             151    0.0210 73.7 300 
 BRR  HN ES        747  8.14                             151    0.7610 73.7 300 
 BRR  HZ I         747 11.21         4.5 0.14            151           73.7 300 
 PAM  EZ EP        746 52.12                             149   -0.0110 79.1  37 
 PAM  EN ES        747  9.09                             149   -0.1210 79.1  37 
 PAM  EZ I         747 11.39        11.8 0.68            153           79.1  37 
 RUS  HZ EP        746 53.48                             144    0.1110 97.4 177 
 RUS  HN ES        747 11.55                             144    0.1410 97.4 177 
 RUS  HZ I         747 12.67         5.4 0.32            145           97.4 177 
 PTB  HZ EP        746 56.38                             131   -0.55 9  148 260 
 PTB  HN ES        747 16.99                             131   -0.77 9  148 260 
 PTB  HZ I         747 20.27         4.4 0.12            131            148 260 
 ZAR  HZ EP        747  3.30                             121    0.64 8  206 293 
 ZAR  HN ES        747 27.68                             121   -0.27 8  206 293 
 ZAR  HZ I         747 33.67         7.2 0.48            122            206 293 
 CHI  HZ EP        747  7.41                             117   -0.02 8  246 196 
 CHI  HN ES   4    747 38.59                             117    2.16 0  246 196 
 CHI  HZ I         747 42.59         1.6 0.28            118            246 196 
 GUY2CHZ EP   4    747 14.91                             112    1.34 0  300 235 
 GUY2CHN ES        747 48.14                             112    0.77 7  300 235 
 GUY2CHZ I         747 54.18         2.8 0.30                           300 235 
                                                                                
