 2013  2 4 0546 56.8 L   6.819 -73.126146.0  RSN  5 0.3 1.3LRSN                1
 GAP=138        0.72       4.4     5.1  7.5  0.3810E+00  0.1896E-01  0.6364E+00E
 Epicentro: LOS SANTOS - SANTANDER                                             3
 ACTION:UPD 13-03-12 09:30 OP:ep   STATUS:               ID:20130204054656 L   I
 2013-02-04-0540-00M.COL___241                                                 6
 STAT SP IPHASW D HRMM SECON CODA AMPLIT PERI AZIMU VELO AIN AR TRES W  DIS CAZ7
 BAR2 SZ EP   1    547 16.37                             169   -0.16 7 25.9 194 
 BAR2 SZ ES   2    547 31.28                             169   -0.63 5 25.9 194 
 BAR2 SZ I         547 32.58         5.5 0.26            169           25.9 194 
 BRR  HZ EP     C  547 18.26                             152    0.2110 72.1 296 
 BRR  HN ES   1    547 35.15                             152    0.55 7 72.1 296 
 BRR  HN I         547 35.42         5.2 0.20            153           72.1 296 
 PAM  SZ EP   1    547 18.93                             152    0.05 7 74.3  39 
 PAM  SN ES   1    547 35.80                             152   -0.29 7 74.3  39 
 RUS  HZ EP        547 20.65                             143   -0.0910  103 177 
 RUS  HN ES        547 39.64                             143    0.2410  103 177 
 RUS  HN I         547 40.52         1.9 0.40            144            103 177 
 PTB  HN ES   1    547 44.68                             132   -0.59 7  150 258 
                                                                                
