 2014  2 4 0208 46.2 L   6.809 -73.143150.8  RSN 11 0.4 2.1LRSN                1
 GAP= 71        0.86       3.5     3.8  4.9  0.1829E+00  0.1865E+01  0.2418E+01E
 Epicentro: LOS SANTOS - SANTANDER                                             3
 ACTION:UPD 14-03-10 08:07 OP:ep   STATUS:               ID:20140204020846 L   I
 OLDACT:REG 14-02-04 13:21 OP:mh   STATUS:               ID:20140204020747     3
 2014-02-04-0207-47M.COL___237                                                 6
 STAT SP IPHASW D HRMM SECON CODA AMPLIT PERI AZIMU VELO AIN AR TRES W  DIS CAZ7
 BAR2 SZ EP   1    2 9  6.47                             170   -0.02 7 24.3 190 
 BAR2 SZ ES        2 9 21.78                             170   -0.5010 24.3 190 
 BAR2 SZ I         2 9 22.80        37.3 0.24            150           24.3 190 
 BRR  HZ EP   1    2 9  8.36                             153    0.44 7 71.0 298 
 BRR  HN ES        2 9 25.57                             153    0.7410 71.0 298 
 BRR  HZ I         2 9 29.85        16.6 0.11            151           71.0 298 
 PAM  SZ EP   1    2 9  9.26                             152    0.33 7 76.5  40 
 PAM  SN ES        2 9 26.46                             152   -0.1810 76.5  40 
 PAM  SZ I         2 9 28.82        19.9 0.32            138           76.5  40 
 RUS  HZ EP   1    2 9 10.30                             145   -0.25 7  102 176 
 RUS  HZ I         2 9 30.11        11.1 0.32            122            102 176 
 PTB  HZ EP        2 9 13.07                             133   -0.59 9  148 258 
 PTB  HN ES   1    2 9 34.62                             133   -0.42 7  148 258 
 PTB  HZ I         2 9 36.59        12.8 0.17            119            148 258 
 TAM  HZ IP     C  2 9 14.64                             132    0.33 9  155 105 
 TAM  HZ I         2 9 37.68         7.2 0.32            113            155 105 
 SPBC HZ EP   1    2 9 15.47                             130    0.26 7  164 219 
 SPBC HN ES   1    2 9 37.98                             130    0.17 7  164 219 
 SPBC HZ I         2 9 42.53        20.8 0.19            113            164 219 
 ZAR  HZ EP   1    2 9 18.98                             123   -0.02 6  204 292 
 ZAR  HN ES   1    2 9 44.90                             123    0.34 6  204 292 
 ZAR  HZ I         2 9 46.69        17.8 0.05            113            204 292 
 NOR  HZ EP   1    2 9 22.53                             119    0.19 6  235 234 
 NOR  HZ I         2 9 54.02         7.6 0.18            107            235 234 
 SML  HZ EP        2 9 22.74                             119   -0.33 8  243 335 
 SML  HN ES        2 9 51.52                             119   -0.27 8  243 335 
 SML  HZ I         2 9 58.09        21.7 0.10            109            243 335 
 CHI  HZ EP        2 9 24.42                             118    0.10 8  250 195 
 CHI  HZ I         2 9 58.16         4.9 0.50            105            250 195 
                                                                                
