 2013  4 4 0914  9.9 L   6.765 -73.171143.2  RSN  7 0.3 1.5LRSN                1
 GAP=232        0.69       4.0     5.3  5.3  0.1057E+02  0.7454E+01  0.5430E+01E
 Epicentro: LOS SANTOS - SANTANDER                                             3
 ACTION:UPD 13-05-22 14:35 OP:EP   STATUS:               ID:20130404091409 L   I
 2013-04-04-0910-00M.COL___245                                                 6
 STAT SP IPHASW D HRMM SECON CODA AMPLIT PERI AZIMU VELO AIN AR TRES W  DIS CAZ7
 BAR2 SZ EP   1    914 29.22                             172    0.05 7 19.1 184 
 BAR2 SZ ES   1    914 43.70                             172   -0.47 7 19.1 184 
 BAR2 SZ I         914 45.07        10.3 0.32            164           19.1 184 
 BRR  HZ EP        914 30.93                             152    0.1610 70.7 302 
 BRR  HN ES   1    914 47.41                             152    0.38 7 70.7 302 
 BRR  HZ I         914 50.99        10.2 0.34            148           70.7 302 
 RUS  HZ EP        914 33.43                             144    0.2710 96.9 174 
 RUS  HN ES   1    914 51.04                             144   -0.24 7 96.9 174 
 RUS  HZ I         914 53.39         2.4 0.38            143           96.9 174 
 PTB  HZ EP        914 35.88                             132   -0.48 9  144 260 
 PTB  HN ES   1    914 57.42                             132    0.43 7  144 260 
 PTB  HZ I         915  3.91         2.1 0.58            130            144 260 
 ZAR  HZ EP        914 41.99                             122   -0.10 9  203 293 
 ZAR  HN ES   1    915  6.97                             122   -0.21 6  203 293 
 ZAR  HZ I         915 10.54         2.0 0.24            122            203 293 
 CHI  HZ EP        914 46.96                             117   -0.03 8  244 195 
 CHI  HN ES   1    915 16.40                             117    0.50 6  244 195 
 CHI  HZ I         915 20.20         2.2 0.70            118            244 195 
 PRA  HZ EP   1    915  3.12                             106    0.33 4  387 209 
 PRA  HN ES   1    915 43.35                             106   -0.68 4  387 209 
 PRA  HZ I         915 49.52         1.7 0.54            107            387 209 
                                                                                
