 2014  3 4 0117 48.6 L   6.825 -73.174142.5  RSN  4 0.1 1.6LRSN                1
 GAP=199        0.39       1.8     2.5  4.5  0.4688E+00  0.8562E+00 -0.3609E+01E
 Epicentro: LOS SANTOS - SANTANDER                                             3
 ACTION:UPD 14-04-09 23:14 OP:nd   STATUS:               ID:20140304011748 L   I
 OLDACT:REG 14-03-04 09:18 OP:nd   STATUS:               ID:20140304011050     3
 2014-03-04-0110-50M.COL___235                                                 6
 STAT SP IPHASW D HRMM SECON CODA AMPLIT PERI AZIMU VELO AIN AR TRES W  DIS CAZ7
 RUS  HZ EP        118 12.15                             142   -0.1510  104 174 
 RUS  HN ES        118 30.84                             142    0.0910  104 174 
 RUS  HZ I         118 34.20         2.8 0.22            149            104 174 
 PTB  HZ EP        118 15.07                             132   -0.05 9  145 258 
 PTB  HN ES        118 35.73                             132   -0.04 9  145 258 
 PTB  HZ I         118 42.29         5.3 0.40            136            145 258 
 NOR  HZ EP        118 24.37                             118    0.28 8  234 233 
 NOR  HN ES        118 51.64                             118   -0.09 8  234 233 
 NOR  HZ I         118 54.65         2.8 0.24            123            234 233 
 SML  HZ EP        118 24.61                             117   -0.07 8  240 336 
 SML  HN ES        118 52.87                             117    0.08 8  240 336 
 SML  HZ I         118 56.21         5.2 0.10            122            240 336 
                                                                                
