 2011  1 4 0709 14.7 L   6.757 -73.283139.2  RSN  4 0.4 1.6LRSN                1
 GAP=167        0.68       4.5    28.1  9.8  0.6695E+01  0.1605E+03 -0.1972E+01E
 Epicentro: ZAPATOCA - SANTANDER                                               3
 ACTION:UP  11-02-08 08:38 OP:pat  STATUS:               ID:20110104070914 L   I
 2011-01-04-0705-41S.COL___136                                                 6
 STAT SP IPHASW D HRMM SECON CODA AMPLIT PERI AZIMU VELO SNR AR TRES W  DIS CAZ7
 BAR2 SZ IP        7 9 33.63                             171     0.110   21 149 
 BAR2 SZ ES   1    7 9 48.09                             171    -0.1 7   21 149 
 BAR2 SZ I         7 9 49.84        18.5 0.23                            21 149 
 RUS  HZ EP   1    7 9 37.58                             143    -0.1 7   98 167 
 RUS  HZ I         7 9 38.77         4.4 0.17                            98 167 
 RUS  HN ES   1    7 9 55.63                             143     0.1 7   98 167 
 OCA  SZ EP   2    7 9 42.11                             127    -0.8 5  164 359 
 OCA  SZ ES   2    710  5.36                             127     0.5 5  164 359 
 OCA  SZ I         710  8.25         6.9 0.30                           164 359 
 CHI  HZ EP   2    7 9 51.95                             117     0.8 4  240 192 
 CHI  HE ES   2    710 19.19                             117    -0.4 4  240 192 
 CHI  HZ I         710 27.22         2.2 0.41                           240 192 
                                                                                
