 2017  5 4 0753  0.3 L   6.880 -72.973115.0  RSN  4 0.1 1.3LRSN                1
 GAP=258        0.34       4.2     3.7  4.1  0.1132E+02 -0.6999E+01 -0.4373E+01E
 Epicentro: GUACA - SANTANDER                                                  3
 ACTION:UPD 17-06-16 13:32 OP:jn   STATUS:               ID:20170504075300 L   I
 OLDACT:UP  17-05-04 18:27 OP:edw  STATUS:               ID:20170504074748d    3
 OLDACT:UP  17-05-04 18:26 OP:edw  STATUS:               ID:20170504074748d    3
 OLDACT:DUP 17-05-04 18:23 OP:edw  STATUS:               ID:20170504074748d    3
 OLDACT:UP  17-05-04 18:23 OP:edw  STATUS:               ID:20170504074747d    3
 OLDACT:DUP 17-05-04 18:20 OP:edw  STATUS:               ID:20170504074747d    3
 2017-05-04-0748-00M.COL___371                                                 6
 STAT SP IPHASW D HRMM SECON CODA AMPLIT PERI AZIMU VELO AIN AR TRES W  DIS CAZ7
 BRR  HZ IP     D  753 19.33                             141    0.1210 85.4 287 
 BRR  HN ES        753 33.93                             141   -0.0610 85.4 287 
 BRR  HZ I         753 56.95         8.4 0.34            154           85.4 287 
 RUS  HZ EP        753 21.92                             133   -0.0110  110 186 
 RUS  HN ES   4    753 40.37                             133    1.53 0  110 186 
 RUS  HZ I         753 41.49         2.7 0.40            163            110 186 
 PTB  HZ EP   9    753 28.46                             120    1.43 0  168 257 
 PTB  HN ES        753 49.38                             135    0.03 9  168 257 
 PTB  HZ I         753 50.99         2.0 0.52            145            168 257 
 SPBC HN ES   4    753 48.55                             118   -2.21 0  182 222 
 ZAR  HZ EP        753 32.46                             113   -0.10 8  219 288 
 ZAR  HN ES        753 57.80                             113    0.04 8  219 288 
 ZAR  HZ I         754  2.26         2.4 0.34            132            219 288 
                                                                                
