 2013 11 4 0655 56.1 L   6.798 -73.165150.8  RSN  5 0.5 1.1LRSN                1
 GAP=134        1.21       5.4     6.3 10.3  0.4737E+00  0.8792E+01 -0.1411E+01E
 Epicentro: LOS SANTOS - SANTANDER                                             3
 ACTION:UPD 14-01-09 16:25 OP:ep   STATUS:               ID:20131104065556 L   I
 OLDACT:DUP 13-11-04 12:43 OP:stll STATUS:               ID:20131104064838d    3
 2013-11-04-0648-37M.COL___214                                                 6
 STAT SP IPHASW D HRMM SECON CODA AMPLIT PERI AZIMU VELO AIN AR TRES W  DIS CAZ7
 BRR  HZ EP        656 18.22                             154    0.4710 69.5 300 
 BRR  HZ I         656 18.61         3.5 0.46            153           69.5 300 
 BRR  HN ES        656 35.42                             154    0.8210 69.5 300 
 PAM  SZ EP        656 19.16                             151    0.1710 78.9  41 
 PAM  SZ I         656 19.42         2.5 0.22            153           78.9  41 
 PAM  SN ES        656 36.51                             151   -0.3010 78.9  41 
 RUS  HZ EP        656 20.59                             145    0.2010  101 175 
 RUS  HN ES        656 38.84                             145   -0.4610  101 175 
 RUS  HZ I         656 40.61         1.1 0.32            145            101 175 
 PTB  HZ EP        656 23.35                             134    0.01 9  146 259 
 PTB  HN ES        656 44.09                             134   -0.46 9  146 259 
 PTB  HZ I         656 47.69         1.9 0.10            133            146 259 
 SML  HE ES        657  0.90                             119   -0.82 8  243 336 
                                                                                
