 2016  6 4 0827 16.3 L   6.747 -73.173153.8  RSN  6 0.2 1.2LRSN                1
 GAP=180        0.54       2.3     3.4  4.3  0.1541E+00  0.1048E+01 -0.4279E+00E
 Epicentro: LOS SANTOS - SANTANDER                                             3
 ACTION:UPD 16-07-21 22:15 OP:rebc STATUS:               ID:20160604082716 L   I
 OLDACT:DUP 16-06-04 14:59 OP:cara STATUS:               ID:20160604081744d    3
 2016-06-04-0817-43M.COL___313                                                 6
 STAT SP IPHASW D HRMM SECON CODA AMPLIT PERI AZIMU VELO AIN AR TRES W  DIS CAZ7
 BAR2 EZ EP        827 36.53                             173   -0.2610 17.2 183 
 BAR2 EZ ES        827 52.62                             173   -0.1610 17.2 183 
 BAR2 EZ I         827 52.89         2.9 0.22                          17.2 183 
 BRR  HZ EP        827 38.45                             154    0.1110 71.6 304 
 BRR  HN ES        827 55.63                             154    0.0910 71.6 304 
 BRR  HZ I         828  0.93         2.5 0.62                          71.6 304 
 RUS  HZ EP        827 40.69                             147    0.2210 95.0 174 
 RUS  HE ES        827 59.32                             147   -0.0110 95.0 174 
 RUS  HZ I         828  0.15         1.2 0.36                          95.0 174 
 PTB  HZ EP        827 43.29                             135   -0.29 9  144 261 
 PTB  HE ES        828  4.75                             135   -0.11 9  144 261 
 PTB  HZ I         828 10.40         2.0 0.46                           144 261 
 SPBC HN ES        828  7.39                             132    0.29 9  157 219 
 SPBC HZ I         828 12.05         2.9 0.22                           157 219 
 OCA  HZ EP   4    827 47.37                             130    1.62 0  166 354 
 OCA  HE ES        828  8.89                             130    0.17 9  166 354 
 OCA  HZ I         828 12.20         4.8 0.30                           166 354 
                                                                                
