 2013  7 4 0755 46.2 L   6.787 -73.113146.0  RSN  5 0.2 1.4LRSN                1
 GAP= 99        0.53       2.8     3.6  4.0  0.1152E+00 -0.4310E+01  0.7456E+00E
 Epicentro: LOS SANTOS - SANTANDER                                             3
 ACTION:UPD 13-08-12 10:35 OP:ep   STATUS:               ID:20130704075546 L   I
 OLDACT:REG 13-07-04 08:17 OP:stll STATUS:               ID:20130704074840     3
 2013-07-04-0748-40M.COL___234                                                 6
 STAT SP IPHASW D HRMM SECON CODA AMPLIT PERI AZIMU VELO AIN AR TRES W  DIS CAZ7
 BAR2 SZ EP        756  5.56                             171   -0.3110 22.8 200 
 BAR2 SZ ES        756 20.98                             171   -0.2210 22.8 200 
 BAR2 SZ I         756 21.80         3.4 0.38            171           22.8 200 
 BRR  HZ EP        756  7.45                             151   -0.1710 75.1 298 
 BRR  HN ES        756 24.58                             151    0.2710 75.1 298 
 BRR  HN I         756 29.06         7.1 0.20            150           75.1 298 
 PAM  SZ EP        756  8.49                             151    0.0910 76.3  37 
 PAM  SN ES        756 25.69                             151   -0.0110 76.3  37 
 PAM  SN I         756 27.66         4.5 0.58            153           76.3  37 
 RUS  HZ EP        756  9.99                             144    0.1110 98.9 178 
 RUS  HN ES        756 28.45                             144    0.1210 98.9 178 
 RUS  HN I         756 29.77         5.6 0.40            147           98.9 178 
 TAM  HZ EP        756 13.67                             131    0.11 9  151 105 
                                                                                
