 2012  1 4 0645  7.6 L   6.000 -73.985 14.3  RSN  8 0.4 1.9LRSN                1
 GAP=116        0.93       3.2     3.1  5.5 -0.4644E+01 -0.3317E+01  0.7882E+01E
 Epicentro: LA BELLEZA - SANTANDER                                             3
 ACTION:UP  12-02-03 08:14 OP:REBC STATUS:               ID:20120104064507 L   I
 2012-01-04-0640-00M.COL___183                                                 6
 STAT SP IPHASW D HRMM SECON CODA AMPLIT PERI AZIMU VELO SNR AR TRES W  DIS CAZ7
 PTB  HZ EP   1    645 20.71                              98     0.4 8   79 319 
 NOR  SZ EP   1    645 24.71                              96    -0.2 8  109 244 
 NOR  SE ES   1    645 38.63                              96     0.3 8  109 244 
 BAR2 SZ EP   1    645 24.66                              96    -0.6 8  110  54 
 BAR2 SZ ES   2    645 38.14                              96    -0.9 5  110  54 
 BAR2 SZ I         645 41.68        56.8 0.41                           110  54 
 BRR  HZ EP   1    645 27.54                              95     0.2 8  126  14 
 BRR  HN ES   1    645 43.29                              95     0.5 8  126  14 
 BRR  HZ I         645 44.95        42.6 0.14                           126  14 
 CHI  HZ EP        645 31.48                              56    -0.310  154 169 
 CHI  HZ I         645 32.03        10.3 0.49                           154 169 
 CHI  HN ES   1    645 51.14                              56     0.6 7  154 169 
 HEL  HZ EP   1    645 33.45                              56    -0.5 7  172 277 
 HEL  HE ES   1    645 53.91                              56    -0.6 7  172 277 
 HEL  HZ I         645 55.24         9.6 0.29                           172 277 
 RREF HZ EP   1    645 37.38                              56     0.4 7  194 231 
 RREF HN ES   2    645 59.66                              56    -0.2 5  194 231 
 RREF HZ I         646  7.46        10.7 0.30                           194 231 
 PAM  SZ EP   2    645 38.65                              56     0.4 5  205  44 
 PAM  SE ES   1    646  2.50                              56     0.4 7  205  44 
                                                                                
