 2013 10 4 0926 48.0 L   6.786 -73.161141.5  RSN 14 0.5 2.2LRSN                1
 GAP=135        1.06       2.5     3.9  5.2 -0.1678E+01  0.5809E+01  0.1570E+01E
 Epicentro: LOS SANTOS - SANTANDER                                             3
 ACTION:UPD 13-11-25 09:19 OP:ep   STATUS:               ID:20131004092648 L   I
 OLDACT:REG 13-10-04 10:53 OP:nd   STATUS:               ID:20131004091959     3
 2013-10-04-0919-59M.COL___273                                                 6
 STAT SP IPHASW D HRMM SECON CODA AMPLIT PERI AZIMU VELO AIN AR TRES W  DIS CAZ7
 BAR2 SZ EP        927  7.13                             171    0.0910 21.6 186 
 BAR2 SZ ES        927 21.53                             171   -0.3910 21.6 186 
 BAR2 SZ I         927 23.20        44.2 0.18            170           21.6 186 
 BRR  HZ EP        927  9.24                             152    0.6310 70.4 300 
 BRR  HE ES        927 25.63                             152    0.9310 70.4 300 
 BRR  HZ I         927 30.13        19.6 0.42            150           70.4 300 
 PAM  SZ EP        927 10.13                             149    0.2710 79.6  40 
 PAM  SN ES        927 26.90                             149   -0.0410 79.6  40 
 PAM  SZ I         927 29.05        47.3 0.50            153           79.6  40 
 RUS  HZ EP        927 11.29                             143    0.0910 99.2 175 
 RUS  HN ES        927 29.19                             143   -0.1310 99.2 175 
 RUS  HZ I         927 30.89        18.4 0.26            145           99.2 175 
 PTB  HZ EP        927 14.21                             131   -0.19 9  146 259 
 PTB  HN ES        927 34.11                             131   -0.91 9  146 259 
 PTB  HZ I         927 38.22        18.4 0.14            131            146 259 
 SPBC HZ EP        927 16.26                             128    0.34 9  161 219 
 SPBC HN ES        927 37.99                             128    0.26 9  161 219 
 SPBC HZ I         927 41.96        20.3 0.22            129            161 219 
 OCA  HZ EP   1    927 15.61                             128   -0.46 7  162 354 
 OCA  HE ES        927 37.69                             128   -0.30 9  162 354 
 OCA  HZ I         927 41.00        19.3 0.48            130            162 354 
 ZAR  HZ EP        927 20.25                             121    0.22 9  203 293 
 ZAR  HN ES        927 45.09                             121    0.06 9  203 293 
 ZAR  HZ I         927 51.20        17.3 0.34            122            203 293 
 NOR  HZ EP        927 23.79                             118    0.59 8  232 235 
 NOR  HN ES        927 50.49                             118   -0.20 8  232 235 
 NOR  HZ I         927 54.74         8.7 0.24            119            232 235 
 SML  HZ EP        927 23.61                             116   -0.81 8  244 336 
 SML  HE ES        927 52.62                             116   -0.24 8  244 336 
 SML  HZ I         927 59.39        17.7 0.26            118            244 336 
 CHI  HZ EP        927 25.40                             116    0.18 8  247 195 
 CHI  HN ES        927 53.32                             116   -0.96 8  247 195 
 CHI  HZ I         927 57.96         6.6 0.20            118            247 195 
 GUY2CHZ EP   1    927 30.74                             112   -0.38 5  299 235 
 GUY2CHE ES        928  4.95                             112    0.17 7  299 235 
 GUY2CHZ I         928 14.79         6.6 0.58                           299 235 
 PRA  HZ EP        927 41.16                             106    0.07 6  390 209 
 PRA  HN ES        928 22.35                             106   -0.17 6  390 209 
 PRA  HZ I         928 29.84         5.3 0.68            107            390 209 
 ORTC HZ EP   1    927 41.71                             106    0.23 4  393 216 
 ORTC HN ES        928 23.75                             106    0.53 6  393 216 
 ORTC HZ I         928 30.18         3.4 0.40            107            393 216 
                                                                                
