 2013 10 4 0212 38.6 L   6.728 -73.539114.0  RSN  7 0.4 1.8LRSN                1
 GAP=125        0.83       2.8     5.0  6.8  0.1007E+01  0.1115E+02 -0.1307E+01E
 Epicentro: EL CARMEN DE CHUCURI - SANTANDER                                   3
 ACTION:UPD 13-11-25 09:19 OP:ep   STATUS:               ID:20131004021238 L   I
 OLDACT:UP  13-10-04 11:33 OP:mh   STATUS:               ID:20131004020959     3
 OLDACT:UP  13-10-04 11:33 OP:mh   STATUS:               ID:20131004020959     3
 OLDACT:REG 13-10-04 09:26 OP:nd   STATUS:               ID:20131004020959     3
 2013-10-04-0209-59M.COL___273                                                 6
 STAT SP IPHASW D HRMM SECON CODA AMPLIT PERI AZIMU VELO AIN AR TRES W  DIS CAZ7
 BAR2 SZ EP        212 54.97                             159   -0.1710 42.2 111 
 BAR2 SZ IP        212 55.02                             159           42.2 111 
 BAR2 SZ ES   1    213  8.10                             159    0.09 7 42.2 111 
 BAR2 SZ I         213  8.80        57.0 0.18            159           42.2 111 
 BRR  HZ EP   1    212 55.39                             156    0.42 7 46.1 335 
 BRR  HN ES        213  7.94                             156    0.2310 46.1 335 
 BRR  HZ I         213  9.33        10.1 0.10            156           46.1 335 
 PTB  HZ EP   1    212 58.44                             135   -0.59 7  104 258 
 PTB  HN ES   4    213 12.86                             135   -2.07 0  104 258 
 PTB  HZ I         213 13.88         7.4 0.14            134            104 258 
 RUS  HZ EP   1    213  0.20                             135    0.38 7  105 151 
 RUS  HN ES        213 16.03                             135   -0.3110  105 151 
 RUS  HZ I         213 17.19         8.5 0.30            135            105 151 
 SPBC HZ EP   1    213  1.73                             127   -0.11 7  133 206 
 SPBC HN ES        213 20.20                             127    0.2710  133 206 
 SPBC HZ I         213 26.28         6.8 0.10            126            133 206 
 NOR  HN ES   1    213 31.38                             116   -0.16 6  196 229 
 SML  HZ EP   1    213 13.76                             111    0.86 6  237 346 
 SML  HN ES        213 39.07                             111   -0.55 8  237 346 
 SML  HZ I         213 43.69         7.9 0.22            111            237 346 
                                                                                
