 2010  7 4 0712 52.9 L   6.774 -73.034145.5  RSN 16 0.5 2.8LRSN                1
 GAP=135        0.91       3.5     6.1  6.7 -0.1144E+02 -0.5320E+01  0.4938E+01E
 Epicentro: CEPITA - SANTANDER                                                 3
 ACTION:UPD 10-12-01 15:14 OP:pat  STATUS:               ID:20100704071252 L   I
 2010-07-04-0712-20S.COL___117                                                 6
 STAT SP IPHASW D HRMM SECON CODA AMPLIT PERI AZIMU VELO AIN AR TRES W  DIS CAZ7
 BAR2 SZ IP        713 12.34                             169    -0.310   26 219 
 BAR2 SZ ES   2    713 28.07                             169     0.1 5   26 219 
 BRR  HZ IP     C  713 14.31                             148    -0.510   83 296 
 BRR  HN ES   1    713 31.59                             148    -0.3 7   83 296 
 BRR  HZ I         713 34.00       139.5 0.19                            83 296 
 RUS  HZ EP        713 16.20                             145    -0.310   98 183 
 RUS  HN ES   1    713 34.91                             145     0.1 7   98 183 
 RUS  HZ I         713 36.31        47.8 0.28                            98 183 
 BRI  SZ EP        713 16.96                             141     0.210  107  14 
 GUE  SZ EP        713 18.45                             139     0.810  117   6 
 GRA  SZ IP        713 18.17                             137     0.010  125  12 
 GRA  SZ ES   1    713 37.46                             137    -0.3 7  125  12 
 OCA  SZ EP   2    713 20.91                             128    -0.8 5  165 349 
 OCA  SZ ES   1    713 44.60                             128     0.5 7  165 349 
 OCA  SZ I         713 48.54        80.9 0.29                           165 349 
 CHI  HZ EP   1    713 30.30                             117    -0.4 6  249 198 
 CHI  HE ES   2    713 59.83                             117    -0.3 4  249 198 
 CHI  HZ I         714  5.49        33.5 0.41                           249 198 
 ROSC BZ EP   1    713 32.09                             116     0.6 6  257 214 
 ROSC BE ES   1    714  2.46                             116     0.9 6  257 214 
 ROSC BZ I         714  6.68        48.4 0.43                           257 214 
 CVER SZ EP   2    713 33.64                             114     0.1 4  274 205 
 HEL  HZ EP   2    713 33.66                             114    -0.7 4  283 257 
 HEL  HZ I         714 11.16        31.1 0.31                           283 257 
 RREF HZ EP   2    713 40.47                             110     0.5 3  329 231 
 RREF HN ES   2    714 17.54                             110     0.9 3  329 231 
 RREF HZ I         714 24.10        55.4 0.32                           329 231 
 TOL  SZ EP   1    713 41.41                             109    -0.6 5  350 226 
 SDV  BZ EP   1    713 41.74                             108    -0.4 5  353  49 
 SDV  BZ I         713 42.68        14.3 0.30                           353  49 
 SDV  BE ES   1    714 20.46                             108     0.0 5  353  49 
 ANIL HZ EP   2    713 44.24                             108     0.7 3  364 226 
 ANIL HN ES   2    714 23.35                             108     0.4 3  364 226 
 PRA  HZ EP   2    713 46.67                             106    -0.2 3  396 211 
 PRA  HN ES   1    714 28.55                             106    -0.4 4  396 211 
 PRA  HZ I         714 33.95        43.5 0.44                           396 211 
                                                                                
