 2017  2 4 0443 53.8 L   6.797 -73.133148.0  RSN  7 0.4 1.5LRSN                1
 GAP=138        0.94       3.9     4.3  6.9  0.1115E+01  0.4316E+01  0.4681E+01E
 Epicentro: LOS SANTOS - SANTANDER                                             3
 ACTION:UPD 17-05-24 15:32 OP:jn   STATUS:               ID:20170204044355dL   I
 OLDACT:REG 17-02-04 12:36 OP:dnl  STATUS:               ID:20170204043741     3
 2017-02-04-0438-00M.COL___340                                                 6
 STAT SP IPHASW D HRMM SECON CODA AMPLIT PERI AZIMU VELO AIN AR TRES W  DIS CAZ7
 BAR2 EZ EP        444 13.53                             171   -0.1610 23.3 194 
 BAR2 EZ ES        444 28.56                             171   -0.6510 23.3 194 
 BAR2 EZ I         444 29.58         7.8 0.36            170           23.3 194 
 BRR  HZ EP        444 15.53                             152    0.2710 72.6 298 
 BRR  HE ES        444 32.57                             152    0.5710 72.6 298 
 BRR  HZ I         444 33.67         3.7 0.32            150           72.6 298 
 PAM  EZ EP        444 16.56                             151    0.3610 76.7  39 
 PAM  EN ES        444 33.40                             151   -0.2810 76.7  39 
 PAM  EZ I         444 35.69         8.3 0.54            152           76.7  39 
 RUS  HZ EP        444 17.71                             144   -0.0210  100 177 
 RUS  HN ES        444 36.81                             144    0.4010  100 177 
 RUS  HZ I         444 37.80         2.9 0.44            145            100 177 
 PTB  HZ EP   2    444 20.89                             132   -0.17 5  149 259 
 PTB  HE ES        444 42.50                             132    0.17 9  149 259 
 PTB  HZ I         444 44.22         2.7 0.16            131            149 259 
 ZAR  HE ES        444 51.48                             122   -0.58 8  206 292 
 ZAR  HZ I         444 58.18         2.9 0.24            122            206 292 
 CHI  HZ EP   2    444 31.26                             117   -0.36 4  249 196 
 CHI  HN ES        445  0.93                             117   -0.20 8  249 196 
 CHI  HZ I         445  4.55         2.3 0.50            117            249 196 
                                                                                
