 2016  8 4 0553 55.8 L   6.834 -73.149143.2  RSN  5 0.2 1.7LRSN                1
 GAP=281        0.49       6.4     3.6  6.1  0.2996E+00  0.7097E+01 -0.1396E+02E
 Epicentro: LOS SANTOS - SANTANDER                                             3
 ACTION:UPD 16-10-29 15:32 OP:rebc STATUS:               ID:20160804055355 L   I
 OLDACT:UP  16-08-04 15:40 OP:dani STATUS:               ID:20160804054735d    3
 OLDACT:UP  16-08-04 15:40 OP:dani STATUS:               ID:20160804054735d    3
 OLDACT:UP  16-08-04 15:39 OP:dani STATUS:               ID:20160804054735d    3
 OLDACT:DUP 16-08-04 15:36 OP:dani STATUS:               ID:20160804054735d    3
 OLDACT:REG 16-08-04 12:28 OP:dani STATUS:               ID:20160804054734     3
 2016-08-04-0548-00M.COL___323                                                 6
 STAT SP IPHASW D HRMM SECON CODA AMPLIT PERI AZIMU VELO AIN AR TRES W  DIS CAZ7
 RUS  HZ EP        554 19.65                             142    0.0310  104 176 
 RUS  HN ES        554 38.30                             142    0.1410  104 176 
 RUS  HZ I         554 38.93         5.1 0.28                           104 176 
 SPBC HZ EP        554 24.15                             128   -0.25 9  166 218 
 SPBC HN ES        554 46.42                             128   -0.26 9  166 218 
 SPBC HZ I         554 48.62         8.6 0.28                           166 218 
 HEL  HZ EP   4    554 38.13                             114    2.14 0  273 255 
 HEL  HE ES        555  7.53                             114    0.23 8  273 255 
 HEL  HZ I         555 13.26         2.7 0.30                           273 255 
 GUY2CHZ EP   4    554 41.79                             112    2.25 0  303 234 
 GUY2CHZ I         555 21.45         2.2 0.36                           303 234 
 PRA  HZ EP        554 49.81                             106    0.18 6  395 209 
 PRA  HN ES        555 31.76                             106    0.17 6  395 209 
 PRA  HZ I         555 36.40         1.7 0.27                           395 209 
                                                                                
