 2013  3 4 0051 22.1 L   6.801 -73.144147.4  RSN 10 0.5 1.8LRSN                1
 GAP=137        0.99       3.6     4.3  6.7  0.2065E+00  0.1027E+02  0.2846E+01E
 Epicentro: LOS SANTOS - SANTANDER                                             3
 ACTION:UPD 13-04-09 13:59 OP:ep   STATUS:               ID:20130304005122 L   I
 2013-03-04-0050-00M.COL___228                                                 6
 STAT SP IPHASW D HRMM SECON CODA AMPLIT PERI AZIMU VELO AIN AR TRES W  DIS CAZ7
 BAR2 SZ EP        051 41.66                             171   -0.2610 23.5 191 
 BAR2 SZ ES   1    051 57.41                             171    0.03 7 23.5 191 
 BAR2 SZ I         051 58.18        14.9 0.38            169           23.5 191 
 BRR  HZ EP   1    051 43.91                             153    0.49 7 71.3 298 
 BRR  HN ES   1    052  0.92                             153    0.86 7 71.3 298 
 BRR  HZ I         052  4.30         7.9 0.34            150           71.3 298 
 PAM  SZ EP        051 44.72                             151    0.2610 77.1  39 
 PAM  SN ES        052  1.94                             151    0.0310 77.1  39 
 PAM  SZ I         052  3.97        10.5 0.56            154           77.1  39 
 RUS  HZ EP        051 45.90                             144   -0.1110  101 176 
 RUS  HN ES        052  4.64                             144   -0.0210  101 176 
 RUS  HZ I         052  6.03         7.1 0.46            146            101 176 
 PTB  HZ EP        051 48.94                             132   -0.27 9  148 259 
 PTB  HN ES        052  9.59                             132   -0.77 9  148 259 
 PTB  HZ I         052 12.71         7.4 0.36            131            148 259 
 OCA  HN ES   1    052 11.85                             130   -0.84 7  160 353 
 ZAR  HZ EP        051 55.20                             123    0.54 9  204 292 
 ZAR  HN ES        052 20.67                             123    0.61 9  204 292 
 ZAR  HZ I         052 26.24         4.2 0.31            122            204 292 
 SML  HE ES   1    052 26.71                             118   -0.73 6  244 335 
 SML  HZ I         052 32.10         4.9 0.12            118            244 335 
 HEL  HZ EP   1 C  052  2.50                             115    0.09 6  272 256 
 HEL  HN ES   1    052 33.51                             115   -0.35 6  272 256 
 HEL  HZ I         052 40.69         3.5 0.36            115            272 256 
 PRA  HZ EP        052 15.71                             107    0.02 6  392 210 
 PRA  HN ES        052 57.84                             107    0.34 6  392 210 
 PRA  HZ I         053  5.25         2.2 0.40            108            392 210 
                                                                                
