 2015  5 4 0701 16.1 L   6.783 -73.137148.0  RSN 12 0.5 1.9LRSN                1
 GAP=138        1.21       3.1     5.0  6.3 -0.2605E+01  0.1040E+02  0.3139E+00E
 Epicentro: LOS SANTOS - SANTANDER                                             3
 ACTION:UPD 15-09-10 22:01 OP:cam  STATUS:               ID:20150504070116 L   I
 OLDACT:UP  15-05-08 07:35 OP:AK   STATUS:               ID:20150504070116 L   3
 OLDACT:UP  15-05-04 18:34 OP:drio STATUS:               ID:20150504065739     3
 OLDACT:REG 15-05-04 13:41 OP:drio STATUS:               ID:20150504065739     3
 2015-05-04-0657-39M.COL___274                                                 6
 STAT SP IPHASW D HRMM SECON CODA AMPLIT PERI AZIMU VELO AIN AR TRES W  DIS CAZ7
 BAR2 EZ EP        7 1 35.35                             171   -0.6110 21.7 193 
 BAR2 EZ ES        7 1 50.54                             171   -0.9110 21.7 193 
 BAR2 EZ I         7 1 52.80        14.9 0.14            171           21.7 193 
 BRR  HZ EP        7 1 37.84                             152    0.2610 72.9 299 
 BRR  HN ES        7 1 55.41                             152    1.0710 72.9 299 
 PAM  SZ EP        7 1 38.72                             151    0.1310 78.2  38 
 PAM  SN ES        7 1 56.21                             151    0.0610 78.2  38 
 PAM  SZ I         7 1 58.35         9.3 0.62            154           78.2  38 
 RUS  HZ EP        7 1 40.09                             145    0.1610 98.7 177 
 RUS  HN ES        7 1 58.86                             145    0.3410 98.7 177 
 RUS  HZ I         7 2  1.11        10.2 0.50            148           98.7 177 
 OCA  HZ EP        7 1 44.69                             130   -0.07 9  162 353 
 OCA  HN ES        7 2  7.52                             130    0.40 9  162 353 
 OCA  HZ I         7 2 16.59        10.9 0.32            132            162 353 
 SPBC HZ EP        7 1 44.99                             130    0.31 9  162 220 
 SPBC HN ES        7 2  6.76                             130   -0.22 9  162 220 
 SPBC HZ I         7 2 13.37        16.7 0.22            131            162 220 
 ZAR  HZ EP        7 1 48.56                             123   -0.28 8  206 293 
 ZAR  HN ES        7 2 14.67                             123    0.28 8  206 293 
 ZAR  HZ I         7 2 20.60        10.2 0.28            124            206 293 
 NOR  HZ EP        7 1 51.94                             119    0.02 8  234 235 
 NOR  HE ES        7 2 19.31                             119   -0.55 8  234 235 
 SML  HZ EP        7 1 52.56                             118   -0.51 8  246 335 
 SML  HN ES        7 2 20.93                             118   -0.98 8  246 335 
 SML  HZ I         7 2 23.50        12.3 0.10            119            246 335 
 CHI  HZ EP        7 1 53.97                             118    0.22 8  247 195 
 CHI  HN ES        7 2 23.31                             118    0.19 8  247 195 
 CHI  HZ I         7 2 29.12         3.8 0.28            120            247 195 
 HEL  HZ EP   2    7 1 57.99                             115    1.52 4  273 256 
 HEL  HN ES   2    7 2 28.79                             115    0.83 4  273 256 
 HEL  HZ I         7 2 34.96         3.8 0.50            116            273 256 
 GUY2CHZ EP        7 2  0.04                             113    0.27 7  301 235 
 GUY2CHE ES        7 2 33.21                             113   -0.63 7  301 235 
 GUY2CHZ I         7 2 41.27         3.9 0.60                           301 235 
 MON  HZ EP   4    7 2  3.10                             109   -2.30 0  356 309 
 MON  HN ES   4    7 2 41.70                             109   -2.15 0  356 309 
                                                                                
