 2014 10 4 0123 41.2 L   6.802 -73.141143.4  RSN 19 0.5 2.3LRSN                1
 GAP= 71        1.44       3.4     4.3  6.5 -0.3055E+01  0.6051E+01  0.3882E+01E
 Epicentro: LOS SANTOS - SANTANDER                                             3
 ACTION:UPD 14-11-29 23:46 OP:nd   STATUS:               ID:20141004012341 L   I
 OLDACT:REG 14-10-04 12:06 OP:stl  STATUS:               ID:20141004011750     3
 2014-10-04-0117-50M.COL___285                                                 6
 STAT SP IPHASW D HRMM SECON CODA AMPLIT PERI AZIMU VELO AIN AR TRES W  DIS CAZ7
 BAR2 SZ IP     D  124  0.94                             170    0.3510 23.6 191 
 BAR2 SZ ES        124 16.04                             170    0.3510 23.6 191 
 BAR2 SZ I         124 17.44       141.1 0.18            169           23.6 191 
 BRR  HZ IP     C  124  2.78                             152    0.6310 71.5 298 
 BRR  HE ES        124 19.41                             152    0.9510 71.5 298 
 BRR  HZ I         124 22.42        32.9 0.26            151           71.5 298 
 PAM  SZ EP     D  124  3.62                             150    0.4510 76.9  39 
 PAM  SZ I         124  3.98        46.5 0.22            153           76.9  39 
 PAM  SN ES        124 20.39                             150    0.1110 76.9  39 
 RUS  HZ EP        124  4.75                             143   -0.0210  101 176 
 RUS  HZ I         124  5.68        18.1 0.46            144            101 176 
 RUS  HN ES        124 22.93                             143   -0.2010  101 176 
 PTB  HZ EP        124  7.44                             131   -0.62 9  148 259 
 PTB  HE ES        124 28.05                             131   -0.93 9  148 259 
 PTB  HZ I         124 31.85        20.8 0.12            131            148 259 
 TAM  HZ EP        124  8.91                             130    0.22 9  155 105 
 TAM  HN ES        124 29.14                             130   -0.96 9  155 105 
 TAM  HZ I         124 30.08        14.9 0.36            133            155 105 
 OCA  HZ EP        124  9.34                             129   -0.01 9  160 353 
 OCA  HN ES        124 30.54                             129   -0.73 9  160 353 
 OCA  HZ I         124 35.86        16.6 0.30            130            160 353 
 SPBC HZ IP     C  124  9.85                             128    0.25 9  164 219 
 SPBC HN ES        124 31.69                             128   -0.03 9  164 219 
 SPBC HZ I         124 36.74        27.9 0.30            128            164 219 
 SML  HZ EP        124 17.10                             117   -0.63 8  244 335 
 SML  HN ES        124 45.72                             117   -0.47 8  244 335 
 SML  HZ I         124 53.83        25.4 0.26            118            244 335 
 CHI  HZ EP        124 18.88                             116    0.04 8  249 195 
 CHI  HN ES        124 47.84                             116   -0.33 8  249 195 
 CHI  HZ I         124 54.11        12.3 0.40            117            249 195 
 ROSC BZ EP        124 20.59                             116    1.32 8  253 211 
 ROSC BN ES        124 48.48                             116   -0.47 8  253 211 
 ROSC BZ I         124 58.71        24.8 0.35            117            253 211 
 SOCV BZ EP   9    124 23.46                             112   -0.65 0  301  57 
 SOCV BN ES        124 54.99                                   -1.92 7  301  57 
 GUY2CHZ EP        124 25.23                             112    0.44 7  302 235 
 GUY2CHN ES        124 58.83                             112    0.06 7  302 235 
 GUY2CHZ I         125 10.73         8.3 0.46                           302 235 
 RREF HZ EP   9    124 24.25                             110   -3.08 0  322 229 
 RREF HN ES        124 58.93                                   -1.28 7  322 229 
 RREF HZ I         125  3.98         8.1 0.32            111            322 229 
 CBOC HZ EP        124 28.39                             109    0.28 7  334 252 
 CBOC HZ I         124 30.04         3.7 0.14            110            334 252 
 TOL  SZ EP        124 29.88                             109    0.43 7  344 225 
 TOL  SN ES        125  7.16                             109    0.10 7  344 225 
 MON  HZ EP   9    124 27.97                             108   -2.20 0  354 308 
 MON  HN ES        125  5.28                                   -0.86 6  354 308 
 MON  HZ I         125  8.85         4.1 0.20            109            354 308 
 PRA  HZ EP        124 34.64                             106   -0.08 6  392 210 
 PRA  HN ES        125 16.06                             106   -0.39 6  392 210 
 PRA  HZ I         125 23.07        11.2 0.48            107            392 210 
 ORTC HZ EP     D  124 35.12                             106   -0.01 6  396 216 
 ORTC HN ES        125 16.31                             106   -0.86 6  396 216 
 ORTC HZ I         125 24.15         5.8 0.48            106            396 216 
                                                                                
