 2014 10 4 0049  0.6 L   6.770 -73.142143.2  RSN  7 0.3 1.8LRSN                1
 GAP= 97        0.86       4.0     3.7  5.5 -0.3488E+01 -0.8734E+00  0.3205E+01E
 Epicentro: LOS SANTOS - SANTANDER                                             3
 ACTION:UPD 14-11-29 23:46 OP:nd   STATUS:               ID:20141004004900 L   I
 OLDACT:DUP 14-10-04 15:30 OP:stll STATUS:               ID:20141004003736d    3
 2014-10-04-0037-35M.COL___286                                                 6
 STAT SP IPHASW D HRMM SECON CODA AMPLIT PERI AZIMU VELO AIN AR TRES W  DIS CAZ7
 BAR2 SZ EP        049 19.91                             172    0.0410 20.2 193 
 BAR2 SZ ES        049 34.65                             172   -0.2410 20.2 193 
 BAR2 SZ I         049 36.27        24.6 0.24            171           20.2 193 
 BRR  HZ EP        049 21.87                             151    0.2810 73.1 301 
 BRR  HN ES        049 38.51                             151    0.5510 73.1 301 
 BRR  HZ I         049 44.07         9.6 0.40            152           73.1 301 
 PAM  SZ EP        049 23.02                             150    0.3310 79.7  38 
 PAM  SN ES        049 39.52                             150   -0.4010 79.7  38 
 PAM  SZ I         049 42.25         8.0 0.54            153           79.7  38 
 RUS  HZ EP        049 23.97                             144    0.1110 97.3 176 
 RUS  HN ES        049 42.13                             144    0.1210 97.3 176 
 RUS  HZ I         049 44.41         9.5 0.42            146           97.3 176 
 PTB  HZ EP        049 26.74                             131   -0.60 9  148 260 
 PTB  HN ES        049 47.76                             131   -0.43 9  148 260 
 PTB  HZ I         049 49.73        10.4 0.42            133            148 260 
 TAM  HZ EP        049 27.80                             130   -0.17 9  154 104 
 TAM  HZ I         049 28.49         9.9 0.18            134            154 104 
 SPBC HZ EP        049 28.84                             129    0.16 9  161 220 
 SPBC HN ES        049 50.73                             129    0.14 9  161 220 
 SPBC HZ I         049 57.02        10.6 0.34            131            161 220 
                                                                                
