 2016 12 4 0751 43.5 L   6.618 -73.167140.8  RSN  4 0.3 1.1LRSN                1
 GAP=258        0.68       7.8     5.2  7.4  0.8452E+01 -0.1181E+01  0.1227E+02E
 Epicentro: VILLANUEVA - SANTANDER                                             3
 ACTION:UPD 17-01-11 20:12 OP:rebc STATUS:               ID:20161204075143 L   I
 OLDACT:UP  16-12-04 16:27 OP:dani STATUS:               ID:20161204074741     3
 OLDACT:REG 16-12-04 12:53 OP:dani STATUS:               ID:20161204074741     3
 2016-12-04-0748-00M.COL___346                                                 6
 STAT SP IPHASW D HRMM SECON CODA AMPLIT PERI AZIMU VELO AIN AR TRES W  DIS CAZ7
 BAR2 EZ EP        752  2.52                             179    0.2010 3.26 210 
 BRR  HZ EP        752  4.44                             148   -0.2910 80.9 312 
 BRR  HN ES        752 21.27                             148   -0.0110 80.9 312 
 BRR  HZ I         752 25.26         2.1 0.11            141           80.9 312 
 PTB  HZ EP        752  9.28                             132   -0.36 9  143 267 
 PTB  HN ES        752 30.13                             132    0.12 9  143 267 
 PTB  HZ I         752 32.49         2.0 0.18            130            143 267 
 ZAR  HZ EP        752 16.79                             120    0.48 8  210 297 
 ZAR  HN ES        752 41.82                             120   -0.06 8  210 297 
 ZAR  HZ I         752 50.41         1.1 0.13            118            210 297 
                                                                                
