 2014 10 4 0928 49.3 L   6.548 -73.763 88.0  RSN 10 0.4 1.5LRSN                1
 GAP= 65        0.83       2.8     3.0  6.5 -0.3158E+01  0.3889E+00 -0.8615E+00E
 Epicentro: SANTA HELENA DEL OPON - SANTANDER                                  3
 ACTION:UPD 14-11-29 23:46 OP:nd   STATUS:               ID:20141004092849 L   I
 OLDACT:REG 14-10-04 12:48 OP:stl  STATUS:               ID:20141004092741     3
 2014-10-04-0927-41M.COL___286                                                 6
 STAT SP IPHASW D HRMM SECON CODA AMPLIT PERI AZIMU VELO AIN AR TRES W  DIS CAZ7
 BAR2 SZ EP        929  4.13                             141   -0.3110 64.4  86 
 BAR2 SZ ES   1    929 16.83                             141    0.61 7 64.4  86 
 BAR2 SZ I         929 18.28        16.0 0.30            149           64.4  86 
 PTB  HZ EP        929  5.16                             136    0.0110 76.7 269 
 PTB  HN ES        929 17.33                             136   -0.1510 76.7 269 
 PTB  HZ I         929 22.03         6.5 0.10            135           76.7 269 
 RUS  HZ EP   1    929  7.94                             127   -0.44 7  104 134 
 SPBC HZ EP        929  7.63                             126   -0.2610  105 199 
 SPBC HN ES   1    929 22.33                             126   -0.02 7  105 199 
 SPBC HZ I         929 28.01         4.6 0.14            129            105 199 
 PAM  SZ EP        929 12.60                             117   -0.21 9  147  53 
 PAM  SE ES        929 31.35                             117    0.23 9  147  53 
 PAM  SZ I         929 32.31         8.0 0.24            121            147  53 
 ZAR  HZ EP   1    929 13.99                             114    0.30 7  160 311 
 ZAR  HE ES   4    929 35.16                             114    2.48 0  160 311 
 ZAR  HZ I         929 39.85         3.7 0.28            115            160 311 
 OCA  HN ES   1    929 39.63                             110   -0.20 7  193  15 
 GUY2CHZ EP   1    929 22.16                             106   -0.27 6  230 231 
 GUY2CHE ES   4    929 50.76                             106    2.53 0  230 231 
 GUY2CHZ I         929 56.18         2.0 0.38                           230 231 
 SML  HZ EP   1    929 23.95                             105   -0.44 6  251 352 
 SML  HE ES   1    929 52.52                             105    0.81 6  251 352 
 SML  HZ I         929 58.99         3.5 0.26            106            251 352 
 TOL  SN ES   4    929 58.96                             103    0.98 0  277 219 
 PRA  HZ EP   1    929 35.17                             100    0.38 5  337 202 
 PRA  HN ES        930 11.24                             100    1.00 7  337 202 
 PRA  HZ I         930 18.42         1.5 0.20            102            337 202 
                                                                                
