 2017 10 4 0512 13.0 L   6.811 -73.147143.9  RSN  4 0.2 1.2LRSN                1
 GAP=136        0.45       2.7     4.0  6.4 -0.6345E+01  0.1195E+02 -0.4307E+01E
 Epicentro: LOS SANTOS - SANTANDER                                             3
 ACTION:UPD 17-11-07 19:28 OP:rebc STATUS:               ID:20171004051213 L   I
 OLDACT:REG 17-10-04 12:55 OP:dnl  STATUS:               ID:20171004050738     3
 2017-10-04-0508-00M.COL___447                                                 6
 STAT SP IPHASW D HRMM SECON CODA AMPLIT PERI AZIMU VELO AIN AR TRES W  DIS CAZ7
 PAM  EZ EP        512 35.18                             150    0.2610 76.6  40 
 PAM  EE ES        512 51.96                             150   -0.1010 76.6  40 
 PAM  EZ I         512 54.59         4.8 0.56            154           76.6  40 
 RUS  HZ EP   2    512 36.57                             143   -0.04 5  102 176 
 RUS  HE ES        512 54.93                             143   -0.1410  102 176 
 RUS  HZ I         512 56.57         0.8 0.20            149            102 176 
 SPBC HZ EP   2    512 40.92                             128   -0.47 5  164 219 
 SPBC HN ES        513  3.70                             128    0.13 9  164 219 
 SPBC HZ I         513  6.77         2.0 0.60            131            164 219 
 ZAR  HZ EP   3    512 44.78                             122   -0.43 2  203 292 
 ZAR  HE ES   2    513 10.35                             122   -0.03 4  203 292 
 ZAR  HZ I         513 18.05         2.6 0.28            122            203 292 
                                                                                
