 2012  8 4 0409  0.6 L   6.786 -73.173148.2  RSN  8 0.4 1.7LRSN                1
 GAP=134        0.80       4.4     5.1  7.6  0.2071E+01  0.1213E+02  0.3717E+01E
 Epicentro: LOS SANTOS - SANTANDER                                             3
 ACTION:UPD 12-09-10 11:54 OP:ep   STATUS:               ID:20120804040900 L   I
 2012-08-04-0407-39M.COL___209                                                 6
 STAT SP IPHASW D HRMM SECON CODA AMPLIT PERI AZIMU VELO AIN AR TRES W  DIS CAZ7
 BAR2 SZ EP   1    4 9 20.47                             171   -0.04 7 21.5 183 
 BAR2 SZ ES   1    4 9 35.62                             171   -0.40 7 21.5 183 
 BAR2 SZ I         4 9 38.63        10.1 0.32                          21.5 183 
 GIR2 SZ EP   2    4 9 20.96                             167    0.35 5 32.4 356 
 GIR2 SZ ES   1    4 9 36.14                             167   -0.07 7 32.4 356 
 BRR  HZ EP   1    4 9 22.31                             154    0.38 7 69.3 301 
 BRR  HN ES   1    4 9 39.45                             154    0.90 7 69.3 301 
 BRR  HZ I         4 9 42.70        13.6 0.15                          69.3 301 
 PAM  SN ES   1    4 9 40.71                             150   -0.25 7 80.5  40 
 RUS  HZ EP   1    4 9 24.84                             145    0.32 7 99.3 174 
 RUS  HN ES   1    4 9 43.28                             145    0.12 7 99.3 174 
 RUS  HZ I         4 9 44.89         5.4 0.37                          99.3 174 
 PTB  HZ EP   1    4 9 26.96                             133   -0.53 7  144 259 
 PTB  HN ES   1    4 9 47.91                             133   -0.55 7  144 259 
 PTB  HZ I         4 9 51.10         5.8 0.17                           144 259 
 OCA  HE ES   1    4 9 51.24                             130   -0.31 7  161 354 
 ZAR  HN ES   1    4 9 58.39                             123    0.14 6  202 293 
                                                                                
