 2017  4 4 0643 33.5 L   6.762 -73.141147.7  RSN  6 0.2 1.2LRSN                1
 GAP=235        0.37       4.2     4.4  5.0  0.7287E+01  0.4877E+01 -0.5261E+00E
 Epicentro: LOS SANTOS - SANTANDER                                             3
 ACTION:UPD 17-05-30 21:08 OP:jn   STATUS:               ID:20170404064333 L   I
 OLDACT:DUP 17-04-04 14:45 OP:and  STATUS:               ID:20170404063741d    3
 2017-04-04-0638-00M.COL___359                                                 6
 STAT SP IPHASW D HRMM SECON CODA AMPLIT PERI AZIMU VELO AIN AR TRES W  DIS CAZ7
 BAR2 EZ EP   2    643 53.20                             172   -0.12 5 19.3 194 
 BAR2 EZ ES   2    644  8.75                             172   -0.00 5 19.3 194 
 BAR2 EZ I         644  9.02         2.1 0.36            172           19.3 194 
 BRR  HZ EP   2    643 54.83                             152   -0.20 5 73.7 301 
 BRR  HN ES   2    644 12.01                             152    0.21 5 73.7 301 
 BRR  HZ I         644 15.55         2.9 0.12            150           73.7 301 
 RUS  HZ EP   2    643 57.03                             145   -0.14 5 96.3 176 
 RUS  HN ES   2    644 15.52                             145   -0.09 5 96.3 176 
 RUS  HZ I         644 17.21         2.4 0.26            149           96.3 176 
 PTB  HZ EP        644  0.81                             132    0.1810  147 260 
 PTB  HN ES   2    644 21.30                             132   -0.47 5  147 260 
 PTB  HZ I         644 23.42         1.5 0.16            133            147 260 
 SPBC HN ES   2    644 24.24                             130    0.21 5  160 220 
 SPBC HZ I         644 25.62         1.6 0.10            132            160 220 
 ZAR  HN ES   2    644 31.80                             122   -0.09 5  206 293 
 ZAR  HZ I         644 36.56         2.7 0.38            123            206 293 
                                                                                
