 2011  5 4 0321  5.0 L   6.831 -73.146137.8  RSN  7 0.3 1.7LRSN                1
 GAP=158        0.58       3.2     6.8  7.3 -0.3511E+01 -0.3849E+01 -0.2171E+01E
 Epicentro: LOS SANTOS - SANTANDER                                             3
 ACTION:UP  11-06-29 08:50 OP:tino STATUS:               ID:20110504032105 L   I
 2011-05-04-0316-01S.COL___132                                                 6
 STAT SP IPHASW D HRMM SECON CODA AMPLIT PERI AZIMU VELO SNR AR TRES W  DIS CAZ7
 BTL  SZ EP   1    321 23.96                             173     0.4 7   17 306 
 BAR2 SZ EP   1    321 23.84                             168     0.0 7   27 189 
 BAR2 SZ ES   2    321 38.38                             168     0.0 5   27 189 
 BAR2 SZ I         321 39.97        10.8 0.21                            27 189 
 BRR  HZ EP   1    321 25.55                             152     0.3 7   70 296 
 BRR  HZ I         321 25.79        27.1 0.13                            70 296 
 BRR  HE ES   2    321 41.16                             152     0.2 5   70 296 
 RUS  HZ EP   1    321 27.94                             141    -0.3 7  104 176 
 RUS  HN ES   2    321 46.37                             141     0.0 5  104 176 
 RUS  HZ I         321 48.01         4.5 0.30                           104 176 
 GRA  SZ EP   1    321 29.55                             136     0.2 7  122  18 
 GRA  SZ ES   2    321 47.94                             136    -0.3 5  122  18 
 GRA  SZ I         321 50.49         5.4 0.27                           122  18 
 OCA  SZ EP   1    321 32.31                             128    -0.1 7  157 353 
 OCA  SZ ES   1    321 53.41                             128    -0.4 7  157 353 
 OCA  SZ I         321 56.96         7.6 0.17                           157 353 
 NOR  SN ES   2    322  7.77                             116    -0.5 4  237 234 
                                                                                
