 2017  3 4 0030 43.5 L   6.805 -73.156143.9  RSN 24 0.4 2.7LRSN                1
 GAP=102        0.99       3.1     2.6  4.5 -0.2256E+00  0.3532E+01  0.1774E+01E
 Epicentro: LOS SANTOS - SANTANDER                                             3
 ACTION:UPD 17-05-25 18:35 OP:jn   STATUS:               ID:20170304003043 L   I
 OLDACT:REG 17-03-04 12:12 OP:lv   STATUS:               ID:20170304002743     3
 2017-03-04-0028-00M.COL___397                                                 6
 STAT SP IPHASW D HRMM SECON CODA AMPLIT PERI AZIMU VELO AIN AR TRES W  DIS CAZ7
 BAR2 EZ EP        031  2.94                             170    0.0210 23.7 187 
 BAR2 EZ ES        031 17.81                             170   -0.2610 23.7 187 
 BAR2 EZ I         031 19.30       212.1 0.18            168           23.7 187 
 BRR  HZ EP        031  4.75                             153    0.3610 70.0 299 
 BRR  HN ES        031 21.28                             153    0.6110 70.0 299 
 BRR  HZ I         031 24.41        58.3 0.18            151           70.0 299 
 PAM  EZ EP        031  5.71                             150    0.1710 77.7  40 
 PAM  EE ES        031 23.01                             150    0.2810 77.7  40 
 PAM  EZ I         031 25.20        67.9 0.60            150           77.7  40 
 RUS  HZ IP     C  031  6.88                             143   -0.2410  101 175 
 RUS  HN ES        031 25.28                             143   -0.2610  101 175 
 RUS  HZ I         031 26.87        60.6 0.32            140            101 175 
 PTB  HZ EP        031  9.50                             132   -0.73 9  147 259 
 PTB  HN ES        031 30.71                             132   -0.37 9  147 259 
 PTB  HZ I         031 33.33        70.7 0.20            129            147 259 
 TAM  HZ IP     D  031 11.21                             130    0.06 9  156 105 
 TAM  HZ I         031 31.96        30.0 0.45            128            156 105 
 TAM  HN ES        031 32.46                             130   -0.25 9  156 105 
 SPBC HZ EP        031 11.89                             129    0.06 9  163 219 
 SPBC HN ES        031 34.00                             129    0.07 9  163 219 
 SPBC HZ I         031 36.66        79.1 0.22            126            163 219 
 ZAR  HZ EP        031 15.81                             122    0.11 9  203 292 
 ZAR  HN ES        031 40.68                             122   -0.14 9  203 292 
 ZAR  HZ I         031 47.59        72.9 0.28            120            203 292 
 NOR  HZ EP        031 19.22                             118    0.16 8  234 234 
 NOR  HN ES        031 47.31                             118    0.51 8  234 234 
 NOR  HZ I         031 52.26        54.9 0.17            116            234 234 
 CHI  HZ EP        031 21.14                             117    0.02 8  249 195 
 CHI  HE ES        031 50.37                             117   -0.09 8  249 195 
 CHI  HZ I         031 57.49        28.4 0.48            114            249 195 
 ROSC BZ EP   9    031 22.83                             116    1.32 0  253 211 
 ROSC BN ES        031 53.21                                    0.74 8  253 211 
 ROSC BZ I         031 59.20        52.5 0.61            114            253 211 
 HEL  HZ EP        031 24.41                             115    0.89 8  271 256 
 HEL  HN ES        031 54.38                             115   -0.35 8  271 256 
 HEL  HZ I         032  1.43        20.4 0.26            112            271 256 
 URE  HZ EP        031 23.06                             113   -1.29 7  283 292 
 URE  HN ES   4    031 53.87                             113   -2.34 0  283 292 
 URE  HZ I         032  3.57        30.8 0.16            112            283 292 
 VIL  EZ EP   4    031 26.74                             112   -0.13 0  304 191 
 VIL  EN ES   4    031 59.44                             112   -1.25 0  304 191 
 VIL  EZ I         032  7.74        32.5 0.46            110            304 191 
 PTGC HZ EP   4    031 26.10                             111   -1.28 0  310 158 
 PTGC HN ES   4    031 58.51                             111   -3.09 0  310 158 
 PTGC HZ I         031 59.31        21.9 0.40            109            310 158 
 ELA  HZ EP   4    031 31.98                             110    1.76 0  329 229 
 ELA  HN ES   4    032  9.42                             110    2.76 0  329 229 
 ELA  HZ I         032 14.50        25.3 0.32            108            329 229 
 CBOC HZ EP        031 30.76                             110    0.52 7  333 252 
 CBOC HN ES        032  6.56                             110   -0.13 7  333 252 
 CBOC HZ I         032 16.73        10.6 0.36            108            333 252 
 DBB  EZ EP        031 31.39                             109    0.62 7  338 274 
 DBB  EN ES        032  7.26                             109   -0.38 7  338 274 
 DBB  EZ I         032  8.65        13.8 0.22            107            338 274 
 ANIL HZ EP   4    031 34.44                             108    1.25 0  357 224 
 ANIL HN ES   4    032 14.87                             108    2.93 0  357 224 
 ANIL HZ I         032 17.02        44.1 0.38            106            357 224 
 PRA  HZ EP        031 36.71                             106   -0.24 6  392 209 
 PRA  HN ES        032 19.29                             106    0.65 6  392 209 
 PRA  HZ I         032 25.60        32.3 0.30            104            392 209 
 ORTC HZ EP        031 37.16                             106   -0.17 6  395 216 
 ORTC HN ES   4    032 20.53                             106    1.21 0  395 216 
 ORTC HZ I         032 27.30        22.1 0.24            104            395 216 
 APAC HE ES   4    032 17.94                             106   -1.66 0  397 288 
 SJC  HZ EP   4    031 37.36                             105   -1.52 0  408 327 
 SJC  HN ES   4    032 18.49                             105   -3.59 0  408 327 
 SJC  HZ I         032 21.86        10.6 0.36            104            408 327 
 CRJC HZ EP   4    031 43.36                             103   -2.54 0  467   4 
 CRJC HN ES   4    032 30.88                             103   -3.69 0  467   4 
 CRJC HZ I         032 35.47         8.6 0.20            102            467   4 
 MACC HZ EP   4    031 48.54                             101   -3.67 0  521 189 
 MACC HN ES   4    032 42.29                             101   -3.51 0  521 189 
 MACC HZ I         032 46.48         5.5 0.26            100            521 189 
 GARC HZ EP   4    031 57.73                             100   -0.98 0  573 207 
 GARC HN ES   4    032 54.19                             100   -3.18 0  573 207 
                                                                                
