 2010  8 4 0333 49.3 L   6.768 -73.027134.0  RSN  5 0.3 1.4LRSN                1
 GAP=210        0.65       7.2     8.7  9.4 -0.1948E+02 -0.3837E+02 -0.9456E+01E
 Epicentro: CEPITA - SANTANDER                                                 3
 ACTION:UP  10-09-07 10:52 OP:vdl  STATUS:               ID:20100804033358 L   I
 2010-08-04-0330-44S.COL___126                                                 6
 STAT SP IPHASW D HRMM SECON CODA AMPLIT PERI AZIMU VELO SNR AR TRES W  DIS CAZ7
 BAR2 SZ EP   1    334  7.72                             169     0.2 7   26 222 
 BAR2 SZ ES   2    334 21.35                             169    -0.4 5   26 222 
 BAR2 SZ I         334 23.63         7.0 0.23                            26 222 
 BTL  SZ EP   1    334  8.08                             166     0.4 7   31 302 
 BRR  HZ EP        334  9.68                             146    -0.310   85 296 
 BRR  HN ES   1    334 26.47                             146     0.3 7   85 296 
 GUE  SZ EP        334 12.89                             136    -0.110  118   5 
 GRA  SZ EP        334 13.61                             134     0.110  126  11 
 GRA  SZ ES   2    334 32.35                             134     0.0 5  126  11 
 GRA  SZ I         334 35.50         4.3 0.45                           126  11 
                                                                                
