 2016 12 4 0921  0.8 L   6.536 -73.548111.2  RSN 14 0.6 1.9LRSN                1
 GAP= 62        0.98       3.7     2.7  5.8 -0.1174E+01  0.3225E+01  0.4531E+01E
 Epicentro: EL CARMEN - SANTANDER                                              3
 ACTION:UPD 17-01-11 20:12 OP:rebc STATUS:               ID:20161204092100 L   I
 OLDACT:UP  16-12-04 17:16 OP:dani STATUS:               ID:20161204091745     3
 OLDACT:UP  16-12-04 17:16 OP:dani STATUS:               ID:20161204091745     3
 OLDACT:UP  16-12-04 17:14 OP:dani STATUS:               ID:20161204091745     3
 OLDACT:UP  16-12-04 17:14 OP:dani STATUS:               ID:20161204091745     3
 OLDACT:UP  16-12-04 17:13 OP:dani STATUS:               ID:20161204091745     3
 OLDACT:REG 16-12-04 13:00 OP:dani STATUS:               ID:20161204091745     3
 2016-12-04-0918-00M.COL___346                                                 6
 STAT SP IPHASW D HRMM SECON CODA AMPLIT PERI AZIMU VELO AIN AR TRES W  DIS CAZ7
 BAR2 EZ EP     D  921 17.17                             158    0.2410 40.9  81 
 BAR2 EZ ES        921 29.41                             158   -0.1010 40.9  81 
 BRR  HZ EP        921 18.09                             147    0.1210 65.7 344 
 BRR  HE ES        921 32.15                             147    0.7910 65.7 344 
 PTB  HZ EP        921 19.95                             135   -0.7410  100 270 
 PTB  HN ES   2    921 34.91                             135   -1.28 5  100 270 
 PTB  HZ I         921 36.18        29.1 0.34            130            100 270 
 PAM  EZ EP        921 23.84                             127   -0.1410  129  46 
 PAM  EN ES        921 41.86                             127   -0.1910  129  46 
 PAM  EZ I         921 43.43        18.6 0.19            126            129  46 
 ZAR  HZ EP        921 29.25                             117    0.71 9  179 306 
 ZAR  HE ES   3    921 51.65                             117    1.49 2  179 306 
 ZAR  HZ I         921 57.66         9.7 0.11            114            179 306 
 NOR  HZ EP        921 28.82                             117   -0.02 9  182 234 
 NOR  HN ES        921 50.29                             117   -0.41 9  182 234 
 NOR  HZ I         921 53.84         7.7 0.18            112            182 234 
 TAM  HZ EP        921 29.96                             115   -0.31 9  195  93 
 TAM  HN ES        921 53.12                             115   -0.12 9  195  93 
 TAM  HZ I         921 55.66         7.0 0.37            112            195  93 
 ROSC BZ EP   9    921 34.06                             114    2.07 0  206 205 
 ROSC BE ES        921 58.31                             114   -0.07 8  206 205 
 ROSC BZ I         922  2.88         6.0 0.39            109            206 205 
 CHI  HZ EP        921 33.15                             113    0.50 8  212 186 
 CHI  HN ES   3    921 59.36                             113    1.87 2  212 186 
 CHI  HZ I         922  4.65         3.7 0.29            109            212 186 
 URE  HZ EP        921 37.45                             108    0.11 8  257 302 
 URE  HN ES        922  5.48                             108   -0.35 8  257 302 
 URE  HZ I         922 13.69         8.6 0.30            105            257 302 
 ELA  HZ EP   4    921 44.48                             107    4.25 0  276 228 
 ELA  HE ES   3    922 10.63                             107   -0.35 2  276 228 
 ELA  HZ I         922 19.86         4.8 0.20            103            276 228 
 CBOC HZ EP   4    921 42.60                             106    2.09 0  283 255 
 PTGC HZ EP   9    921 41.48                             104   -1.13 0  302 149 
 PTGC HE ES   2    922 14.02                             104   -0.06 4  302 149 
 PTGC HZ I         922 20.04         4.9 0.47            101            302 149 
 ORTC HZ EP   3    921 49.10                             102    1.23 2  346 213 
 ORTC HN ES   3    922 26.43                             102    1.86 2  346 213 
 ORTC HZ I         922 30.77         2.1 0.26             98            346 213 
 LL6C HZ EP   4    921 29.81                             101   -19.1 0  355   5 
 LL6C HE ES   4    922 10.66                             101   -15.7 0  355   5 
 SJC  HZ EP   3    921 54.51                              99   -1.39 1  413 334 
 SJC  HN ES   4    922 36.63                              99   -2.23 0  413 334 
 SJC  HZ I         922 40.97         2.0 0.28             96            413 334 
                                                                                
