 2016  8 4 0801 18.3 L   6.820 -73.164149.7  RSN  6 0.4 1.4LRSN                1
 GAP=133        0.99       4.8     6.3  6.6 -0.8746E+01  0.9603E+01  0.2663E+01E
 Epicentro: LOS SANTOS - SANTANDER                                             3
 ACTION:UPD 16-10-29 15:32 OP:rebc STATUS:               ID:20160804080118 L   I
 OLDACT:UP  16-08-04 16:11 OP:dani STATUS:               ID:20160804075731     3
 OLDACT:REG 16-08-04 12:35 OP:dani STATUS:               ID:20160804075731     3
 2016-08-04-0758-00M.COL___323                                                 6
 STAT SP IPHASW D HRMM SECON CODA AMPLIT PERI AZIMU VELO AIN AR TRES W  DIS CAZ7
 BAR2 EZ EP        8 1 38.28                             170   -0.1210 25.2 185 
 BAR2 EZ ES        8 1 54.15                             170    0.0410 25.2 185 
 BAR2 EZ I         8 1 55.63         4.6 0.24                          25.2 185 
 BRR  HZ EP        8 1 39.90                             154    0.2210 68.4 298 
 BRR  HE ES        8 1 56.79                             154    0.4010 68.4 298 
 BRR  HZ I         8 2  0.55         6.5 0.12                          68.4 298 
 PAM  EZ EP        8 1 41.28                             152    0.4110 77.0  42 
 PAM  EE ES        8 1 57.80                             152   -0.7110 77.0  42 
 PAM  EZ I         8 1 59.12         5.0 0.44                          77.0  42 
 RUS  HZ EP        8 1 42.57                             144    0.0110  103 175 
 RUS  HE ES        8 2  1.75                             144    0.2310  103 175 
 RUS  HZ I         8 2  3.62         1.9 0.30                           103 175 
 SPBC HZ EP        8 1 47.45                             130    0.35 9  164 218 
 SPBC HN ES        8 2  9.13                             130   -0.47 9  164 218 
 SPBC HZ I         8 2 14.78         4.6 0.46                           164 218 
 HEL  HZ EP        8 1 57.88                             116   -0.64 8  271 255 
 HEL  HZ I         8 2 37.17         2.0 0.52                           271 255 
                                                                                
