 2012  8 4 0915  7.1 L   6.809 -73.119150.3  RSN  7 0.4 1.6LRSN                1
 GAP=139        0.82       5.0     5.0  8.0  0.1483E+01  0.7448E+01  0.4939E+00E
 Epicentro: LOS SANTOS - SANTANDER                                             3
 ACTION:UPD 12-09-10 11:54 OP:ep   STATUS:               ID:20120804091507 L   I
 2012-08-04-0910-00M.COL___215                                                 6
 STAT SP IPHASW D HRMM SECON CODA AMPLIT PERI AZIMU VELO AIN AR TRES W  DIS CAZ7
 BAR2 SZ EP   1    915 27.36                             170    0.08 7 24.9 196 
 BAR2 SZ I         915 27.68         8.8 0.36                          24.9 196 
 BAR2 SZ ES   1    915 43.11                             170    0.07 7 24.9 196 
 BRR  HZ EP   1    915 29.07                             153    0.24 7 73.3 297 
 BRR  HZ I         915 30.55        14.4 0.17                          73.3 297 
 BRR  HN ES   1    915 46.22                             153    0.42 7 73.3 297 
 PAM  SZ EP   1    915 30.03                             152    0.41 7 74.8  38 
 PAM  SZ I         915 30.32         9.4 0.22                          74.8  38 
 PAM  SN ES   1    915 46.86                             152   -0.35 7 74.8  38 
 RUS  HZ EP   1    915 31.43                             144    0.11 7  101 178 
 RUS  HN ES   1    915 50.24                             144    0.00 7  101 178 
 RUS  HZ I         915 52.22         2.7 0.30                           101 178 
 PTB  HZ EP   1    915 34.06                             132   -0.62 7  151 259 
 PTB  HN ES   1    915 55.57                             132   -0.65 7  151 259 
 PTB  HZ I         915 59.93         3.3 0.13                           151 259 
 OCA  HN ES   2    915 57.02                             131   -0.98 5  160 352 
 ZAR  HN ES   1    916  6.45                             123    0.67 6  206 292 
 ZAR  HZ I         916 11.46         5.0 0.24                           206 292 
                                                                                
