 2014 10 4 0822 48.3 L   6.815 -73.168150.6  RSN 18 0.7 2.2LRSN                1
 GAP=133        1.40       3.6     5.6  8.3 -0.3484E+01  0.1885E+02  0.2620E+00E
 Epicentro: LOS SANTOS - SANTANDER                                             3
 ACTION:UPD 14-11-29 23:46 OP:nd   STATUS:               ID:20141004082248 L   I
 OLDACT:REG 14-10-04 12:39 OP:stl  STATUS:               ID:20141004081749     3
 2014-10-04-0817-49M.COL___286                                                 6
 STAT SP IPHASW D HRMM SECON CODA AMPLIT PERI AZIMU VELO AIN AR TRES W  DIS CAZ7
 BAR2 SZ EP        823  8.63                             170    0.0910 24.7 184 
 BAR2 SZ ES   1    823 24.57                             170    0.24 7 24.7 184 
 BAR2 SZ I         823 26.77        17.7 0.34            167           24.7 184 
 PAM  SZ EP        823 11.24                             152    0.1910 77.7  42 
 PAM  SE ES        823 28.69                             152   -0.1110 77.7  42 
 PAM  SZ I         823 30.61        15.4 0.50            159           77.7  42 
 RUS  HZ EP        823 12.51                             144   -0.1510  102 175 
 RUS  HE ES        823 30.83                             144   -0.8310  102 175 
 PTB  HZ EP        823 15.35                             133   -0.13 9  146 258 
 PTB  HN ES   1    823 36.26                             133   -0.42 7  146 258 
 PTB  HZ I         823 42.64        23.8 0.34            132            146 258 
 OCA  HZ EP        823 17.43                             131    0.62 9  158 354 
 OCA  HN ES        823 38.84                             131   -0.21 9  158 354 
 OCA  HZ I         823 43.55        13.7 0.32            134            158 354 
 SPBC HZ EP        823 17.57                             130    0.41 9  163 218 
 SPBC HE ES        823 40.28                             130    0.62 9  163 218 
 SPBC HZ I         823 46.78        30.7 0.32            131            163 218 
 ZAR  HZ EP        823 21.08                             124    0.31 9  201 292 
 ZAR  HN ES        823 46.49                             124    0.39 9  201 292 
 ZAR  HZ I         823 53.70        23.3 0.28            124            201 292 
 SML  HZ EP        823 25.03                             119    0.10 8  241 336 
 SML  HN ES   1    823 52.86                             119   -0.64 6  241 336 
 SML  HZ I         823 58.39        20.7 0.10            121            241 336 
 CHI  HZ EP        823 26.50                             118    0.12 8  250 195 
 CHI  HN ES   1    823 56.79                             118    0.71 6  250 195 
 CHI  HZ I         824  3.68         4.6 0.26            120            250 195 
 ROSC BZ EP   4    823 28.53                             118    1.82 0  253 210 
 ROSC BE ES        823 57.54                             118    0.87 8  253 210 
 ROSC BZ I         824  6.34        11.6 0.40            119            253 210 
 URE  HZ EP   1    823 29.18                             115   -0.11 6  281 292 
 URE  HN ES   1    824  0.45                             115   -0.81 6  281 292 
 URE  HZ I         824 12.98        10.6 0.18            116            281 292 
 GUY2CHZ EP   4    823 33.28                             113    1.26 0  300 234 
 GUY2CHE ES   1    824  6.17                             113    0.05 5  300 234 
 GUY2CHZ I         824 15.86         7.8 0.64                           300 234 
 PTGC HZ EP   4    823 31.49                             112   -1.17 0  311 158 
 PTGC HN ES   4    824  4.40                             112   -2.85 0  311 158 
 PTGC HZ I         824  5.87         5.9 0.32            116            311 158 
 RREF HZ EP        823 32.11                             112   -2.46 7  321 229 
 RREF HN ES   1    824  8.73                             112   -1.93 5  321 229 
 RREF HZ I         824 14.50         9.0 0.26            113            321 229 
 CBOC HZ EP   1    823 36.31                             111    1.10 5  332 252 
 CBOC HN ES   1    824 12.89                             111    1.09 5  332 252 
 CBOC HZ I         824 15.33         2.2 0.18            112            332 252 
 TOL  SZ EP   4    823 38.14                             110    1.44 0  343 224 
 TOL  SN ES   4    824 17.59                             110    3.15 0  343 224 
 TOL  SZ I         824 21.87        13.5 0.50            112            343 224 
 ARGC HZ EP   4    823 36.71                             109   -1.16 0  357 341 
 PRA  HZ EP        823 41.92                             107   -0.10 6  392 209 
 PRA  HN ES   1    824 23.39                             107   -0.53 4  392 209 
 PRA  HZ I         824 27.77         4.2 0.20            109            392 209 
 ORTC HN ES   1    824 25.22                             107    0.66 4  395 216 
 ORTC HZ I         824 31.55         3.6 0.24            109            395 216 
                                                                                
