 2016  9 4 0404 55.0 L   6.770 -73.164146.1  RSN  7 0.4 1.5LRSN                1
 GAP=136        1.03       4.4     4.4  7.0 -0.1060E+01  0.6086E+01  0.2477E+01E
 Epicentro: LOS SANTOS - SANTANDER                                             3
 ACTION:UPD 17-08-17 21:06 OP:lp   STATUS:               ID:20160904040455 L   I
 OLDACT:DUP 16-09-04 15:00 OP:drio STATUS:               ID:20160904035743d    3
 2016-09-04-0358-00M.COL___356                                                 6
 STAT SP IPHASW D HRMM SECON CODA AMPLIT PERI AZIMU VELO AIN AR TRES W  DIS CAZ7
 BAR2 EZ EP        4 5 14.67                             172    0.0310 19.8 186 
 BAR2 EZ ES        4 5 29.44                             172   -0.5010 19.8 186 
 BAR2 EZ I         4 5 30.90         6.9 0.22            170           19.8 186 
 BRR  HZ EP        4 5 16.53                             153    0.3110 71.1 302 
 BRR  HE ES        4 5 33.69                             153    0.9510 71.1 302 
 BRR  HZ I         4 5 36.65         6.3 0.44            153           71.1 302 
 PAM  EZ EP        4 5 17.35                             150   -0.1710 81.2  39 
 PAM  EN ES        4 5 34.80                             150   -0.2610 81.2  39 
 PAM  EZ I         4 5 36.81         9.0 0.52            154           81.2  39 
 RUS  HZ EP        4 5 18.50                             145   -0.1010 97.5 175 
 RUS  HE ES        4 5 37.29                             145    0.3110 97.5 175 
 RUS  HZ I         4 5 38.53         3.9 0.32            146           97.5 175 
 PTB  HZ EP        4 5 21.92                             133    0.12 9  145 260 
 PTB  HE ES        4 5 42.20                             133   -0.48 9  145 260 
 PTB  HZ I         4 5 47.43         1.7 0.30            133            145 260 
 SPBC HZ EP        4 5 23.45                             130    0.25 9  159 219 
 SPBC HN ES        4 5 45.02                             130   -0.15 9  159 219 
 SPBC HZ I         4 5 51.39         4.9 0.10            131            159 219 
 ZAR  HE ES        4 5 52.27                             122   -0.45 9  203 293 
                                                                                
