 2011  5 4 0142  1.9 L   6.754 -73.083137.8  RSN  9 0.2 1.9LRSN                1
 GAP=147        0.51       3.1     5.4  4.4 -0.6741E+01 -0.3322E+00 -0.9054E+00E
 Epicentro: LOS SANTOS - SANTANDER                                             3
 ACTION:UP  11-06-29 08:50 OP:tino STATUS:               ID:20110504014201 L   I
 2011-05-04-0139-21S.COL___132                                                 6
 STAT SP IPHASW D HRMM SECON CODA AMPLIT PERI AZIMU VELO SNR AR TRES W  DIS CAZ7
 BAR2 SZ IP        142 20.39                             171    -0.110   21 212 
 BAR2 SZ ES   1    142 34.85                             171    -0.2 7   21 212 
 BAR2 SZ I         142 36.17        35.7 0.28                            21 212 
 BTL  SZ IP        142 20.72                             168     0.110   27 312 
 BTL  SZ ES   2    142 35.28                             168     0.0 5   27 312 
 PAM  SZ IP        142 23.44                             149     0.210   77  33 
 PAM  SN ES   2    142 39.95                             149     0.1 5   77  33 
 BRR  HZ EP   1    142 22.37                             148    -0.3 7   80 299 
 BRR  HE ES   2    142 39.10                             148     0.2 5   80 299 
 BRR  HZ I         142 40.70        23.0 0.18                            80 299 
 RUS  HZ EP   1    142 24.43                             144     0.0 7   95 180 
 RUS  HN ES   2    142 42.21                             144     0.2 5   95 180 
 RUS  HZ I         142 44.14        12.7 0.39                            95 180 
 BRI  SZ EP   1    142 25.38                             139     0.2 7  111  17 
 BRI  SZ ES   2    142 43.40                             139     0.0 5  111  17 
 BRI  SZ I         142 46.43         8.0 0.39                           111  17 
 GRA  SZ EP   1    142 26.21                             134    -0.5 7  129  14 
 GRA  SZ ES   1    142 46.10                             134     0.1 7  129  14 
 GRA  SZ I         142 47.11         9.3 0.41                           129  14 
 OCA  SZ EP   2    142 29.89                             127    -0.3 5  166 351 
 OCA  SZ I         142 58.21        10.5 0.32                           166 351 
 HEL  HZ EP   2    142 42.94                             113     0.6 4  278 257 
 HEL  HZ I         143 19.80         5.3 0.30                           278 257 
                                                                                
