 2013  3 4 0138 26.0 L   6.703 -73.266155.2  RSN  4 0.1 1.4LRSN                1
 GAP=188        0.36       2.7     3.0  3.4  0.4024E+01 -0.1587E+01 -0.2105E+01E
 Epicentro: GALAN - SANTANDER                                                  3
 ACTION:UPD 13-04-09 13:59 OP:ep   STATUS:               ID:20130304013826 L   I
 2013-03-04-0130-00M.COL___228                                                 6
 STAT SP IPHASW D HRMM SECON CODA AMPLIT PERI AZIMU VELO AIN AR TRES W  DIS CAZ7
 BRR  HZ IP     C  138 47.88                             156   -0.0210 66.5 312 
 BRR  HN ES        139  5.10                             156    0.0910 66.5 312 
 RUS  HZ EP        138 50.23                             148    0.1610 91.8 167 
 RUS  HE ES        139  8.75                             148   -0.1310 91.8 167 
 RUS  HE I         139  9.86         4.5 0.18            147           91.8 167 
 PTB  HZ EP        138 52.46                             137    0.0110  133 262 
 PTB  HN ES        139 13.06                             137   -0.0410  133 262 
 PTB  HZ I         139 15.86         3.0 0.09            136            133 262 
 SML  HZ EP   1    139  3.45                             119   -0.19 6  248 339 
                                                                                
