 2016  5 4 0836 45.2 L   6.776 -73.143144.3  RSN  8 0.3 1.4LRSN                1
 GAP=138        0.81       3.2     3.4  4.9 -0.1367E+01  0.5171E+01  0.9296E+00E
 Epicentro: LOS SANTOS - SANTANDER                                             3
 ACTION:UPD 16-08-18 17:41 OP:cam  STATUS:               ID:20160504083645 L   I
 OLDACT:REG 16-05-04 13:31 OP:edw  STATUS:               ID:20160504082742     3
 2016-05-04-0827-42M.COL___288                                                 6
 STAT SP IPHASW D HRMM SECON CODA AMPLIT PERI AZIMU VELO AIN AR TRES W  DIS CAZ7
 BAR2 EZ EP   2    837  4.40                             171   -0.17 5 20.8 192 
 BAR2 EZ ES        837 19.80                             171    0.1010 20.8 192 
 BAR2 EZ I         837 21.04         6.6 0.22            171           20.8 192 
 BRR  HZ EP        837  6.50                             152    0.2610 72.8 300 
 BRR  HN ES        837 22.74                             152    0.0510 72.8 300 
 BRR  HZ I         837 26.06         6.1 0.32            151           72.8 300 
 PAM  EZ EP        837  7.32                             150   -0.0110 79.2  38 
 PAM  EN ES        837 24.69                             150    0.0610 79.2  38 
 PAM  EZ I         837 26.69         2.0 0.46            153           79.2  38 
 RUS  HZ EP        837  8.21                             144   -0.3710 97.9 176 
 RUS  HN ES        837 26.89                             144    0.0510 97.9 176 
 RUS  HZ I         837 28.26         2.5 0.36            146           97.9 176 
 PTB  HZ EP        837 11.41                             132   -0.58 9  148 260 
 PTB  HN ES        837 32.40                             132   -0.53 9  148 260 
 PTB  HZ I         837 35.41         3.1 0.12            132            148 260 
 SPBC HZ EP        837 13.14                             129   -0.23 9  161 220 
 SPBC HN ES        837 35.63                             129    0.25 9  161 220 
 SPBC HZ I         837 37.65         9.2 0.10            130            161 220 
 ZAR  HZ EP        837 18.26                             122    0.61 8  205 293 
 ZAR  HN ES        837 42.83                             122   -0.16 8  205 293 
 ZAR  HZ I         837 47.67         2.6 0.42            123            205 293 
 NOR  HZ EP        837 20.94                             118    0.27 8  233 235 
 NOR  HE ES        837 48.91                             118    0.54 8  233 235 
 NOR  HZ I         837 55.45         2.7 0.16            119            233 235 
                                                                                
