 2013  6 4 0523 53.9 L   6.794 -73.133148.0  RSN 10 0.5 2.2LRSN                1
 GAP=138        1.11       4.3     5.1  7.4 -0.2126E+01  0.1028E+02 -0.2394E+01E
 Epicentro: LOS SANTOS - SANTANDER                                             3
 ACTION:UPD 14-01-08 09:52 OP:ep   STATUS:               ID:20130604052353 L   I
 2013-06-04-0520-00M.COL___257                                                 6
 STAT SP IPHASW D HRMM SECON CODA AMPLIT PERI AZIMU VELO AIN AR TRES W  DIS CAZ7
 BAR2 SZ IP     D  524 14.03                             171    0.2710 22.9 194 
 BAR2 SZ ES   1    524 28.63                             171   -0.65 7 22.9 194 
 BRR  HZ IP     C  524 15.79                             152    0.4410 72.8 298 
 BRR  HN ES        524 32.69                             152    0.5910 72.8 298 
 BRR  HN I         524 36.49        30.4 0.22            148           72.8 298 
 PAM  SZ IP     D  524 16.95                             151    0.6510 77.0  38 
 PAM  SN ES        524 33.58                             151   -0.2210 77.0  38 
 PAM  SN I         524 35.53        28.1 0.50            157           77.0  38 
 RUS  HZ EP   1    524 17.63                             144   -0.16 7 99.8 177 
 RUS  HN ES   1    524 36.19                             144   -0.25 7 99.8 177 
 RUS  HN I         524 38.74        10.1 0.18            145           99.8 177 
 PTB  HZ EP   1    524 20.64                             132   -0.49 7  149 259 
 PTB  HN ES        524 41.90                             132   -0.50 9  149 259 
 PTB  HN I         524 46.62        23.0 0.58            130            149 259 
 OCA  HZ EP   2    524 21.53                             130   -0.91 5  161 353 
 OCA  HE ES        524 44.45                             130   -0.27 9  161 353 
 OCA  HN I         524 46.99        24.8 0.24            132            161 353 
 ZAR  HZ EP   1    524 25.57                             122   -1.05 6  206 292 
 ZAR  HN ES   1    524 52.74                             122    0.57 6  206 292 
 ZAR  HN I         524 57.99        21.1 0.16            122            206 292 
 NOR  HE ES   2    524 58.01                             119    0.17 4  235 235 
 NOR  HE I         525  6.75         9.8 0.44            118            235 235 
 SML  HZ EP   1    524 30.06                             118   -0.69 6  245 335 
 SML  HN ES        524 59.46                             118   -0.06 8  245 335 
 SML  HN I         525  2.90        19.4 0.28            119            245 335 
 HEL  HZ EP        524 35.03                             115    0.70 8  273 256 
 HEL  HE ES   4    525  5.00                             115   -0.88 0  273 256 
 HEL  HN I         525 18.33         3.7 0.30            115            273 256 
                                                                                
