 2017 12 4 0336 17.2 L   6.837 -73.160148.7  RSN 16 0.6 2.1LRSN                1
 GAP= 64        1.41       3.3     3.6  6.9  0.1200E+01  0.6086E+01  0.2545E+01E
 Epicentro: LOS SANTOS - SANTANDER                                             3
 ACTION:UPD 18-01-04 13:16 OP:rebc STATUS:               ID:20171204033617 L   I
 OLDACT:UP  17-12-04 16:24 OP:leo  STATUS:               ID:20171204032741     3
 OLDACT:REG 17-12-04 13:34 OP:leo  STATUS:               ID:20171204032741     3
 2017-12-04-0328-00M.COL___480                                                 6
 STAT SP IPHASW D HRMM SECON CODA AMPLIT PERI AZIMU VELO AIN AR TRES W  DIS CAZ7
 BAR2 EZ EP        336 37.25                             169   -0.0510 27.2 185 
 BAR2 EZ ES        336 52.28                             169   -0.6710 27.2 185 
 BAR2 EZ I         336 53.25        30.0 0.30            170           27.2 185 
 PAM  EZ EP        336 40.26                             152    0.6210 75.3  42 
 PAM  EN ES        336 56.93                             152   -0.1910 75.3  42 
 PAM  EZ I         336 59.07         8.5 0.62            154           75.3  42 
 RUS  HZ EP        336 41.60                             143    0.0210  105 175 
 RUS  HE ES        337  0.51                             143   -0.0610  105 175 
 RUS  HZ I         337  1.46        16.3 0.52            145            105 175 
 PTB  HZ EP        336 43.95                             133   -0.43 9  147 257 
 PTB  HN ES        337  5.05                             133   -0.50 9  147 257 
 PTB  HZ I         337  8.02         9.2 0.28            133            147 257 
 OCA  HZ EP        336 45.83                             131    0.46 9  156 354 
 OCA  HN ES        337  7.56                             131    0.23 9  156 354 
 OCA  HZ I         337 13.59        30.4 0.20            132            156 354 
 TAM  HZ EP        336 45.73                             131    0.34 9  158 106 
 TAM  HN ES        337  7.55                             131    0.20 9  158 106 
 SPBC HZ EP        336 46.35                             129    0.18 9  165 218 
 SPBC HN ES        337  8.46                             129   -0.28 9  165 218 
 SPBC HZ I         337 15.23        19.1 0.12            130            165 218 
 YPLC HZ EP        336 47.80                             127    0.13 9  181 152 
 YPLC HN ES        337 12.43                             127    1.02 9  181 152 
 YPLC HZ I         337 13.98         5.9 0.44            129            181 152 
 ZAR  HZ ES        337 15.65                             123    0.87 9  201 291 
 NOR  HZ EP        336 53.46                             119    0.21 8  236 233 
 NOR  HN ES        337 22.44                             119    1.09 8  236 233 
 NOR  HZ I         337 25.05         6.3 0.56            120            236 233 
 CHI  HZ EP        336 55.60                             117    0.12 8  252 195 
 CHI  HN ES        337 24.96                             117   -0.36 8  252 195 
 CHI  HZ I         337 27.26         8.7 0.34            118            252 195 
 URE  HZ EP        336 57.56                             114   -0.55 7  281 291 
 URE  HN ES        337 28.77                             114   -1.23 7  281 291 
 URE  HZ I         337 39.11         9.2 0.14            115            281 291 
 GUY2CHZ EP        337  1.98                             113    0.88 7  302 234 
 GUY2CHN ES        337 35.96                             113    0.64 7  302 234 
 GUY2CHZ I         337 41.75         4.7 0.26                           302 234 
 PTGC HZ EP        337  0.60                             112   -1.12 7  313 159 
 PTGC HN ES        337 34.58                             112   -1.84 7  313 159 
 PRA  HZ EP        337 11.54                             107    0.36 6  395 209 
 PRA  HN ES        337 53.06                             107   -0.21 6  395 209 
 PRA  HZ I         337 57.91         8.0 0.70            108            395 209 
 SJC  HZ EP        337 11.48                             106   -0.90 6  405 327 
 SJC  HN ES        337 54.91                             106   -0.49 6  405 327 
                                                                                
