 2015 11 4 0136  1.6 L   6.789 -73.101150.8  RSN 13 0.4 2.0LRSN                1
 GAP=143        0.96       3.3     3.9  5.2 -0.1098E+01  0.7574E+01  0.2557E+01E
 Epicentro: LOS SANTOS - SANTANDER                                             3
 ACTION:UPD 15-12-28 16:08 OP:cam  STATUS:               ID:20151104013601 L   I
 OLDACT:UP  15-11-19 06:49 OP:CARA STATUS:               ID:20151104013601 L   3
 OLDACT:REG 15-11-04 12:49 OP:cara STATUS:               ID:20151104012735     3
 2015-11-04-0127-35M.COL___310                                                 6
 STAT SP IPHASW D HRMM SECON CODA AMPLIT PERI AZIMU VELO AIN AR TRES W  DIS CAZ7
 BAR2 EZ IP     D  136 21.63                             171   -0.2310 23.6 202 
 BAR2 EZ ES        136 37.46                             171   -0.1910 23.6 202 
 BAR2 EZ I         136 39.91        14.8 0.40            168           23.6 202 
 PAM  EZ IP     D  136 24.43                             152    0.1710 75.3  36 
 PAM  EE ES        136 41.90                             152   -0.0110 75.3  36 
 PAM  EZ I         136 42.74        11.7 0.18            155           75.3  36 
 BRR  HZ IP     D  136 23.51                             152   -0.0910 76.1 298 
 BRR  HN ES        136 41.05                             152    0.3210 76.1 298 
 BRR  HZ I         136 45.85        13.5 0.14            147           76.1 298 
 RUS  HZ EP        136 25.41                             145   -0.3610 99.2 179 
 RUS  HN ES        136 44.58                             145   -0.0310 99.2 179 
 RUS  HZ I         136 46.90         5.2 0.28            148           99.2 179 
 SPBC HZ EP     C  136 30.63                             130   -0.09 9  165 221 
 SPBC HN ES        136 52.91                             130   -0.51 9  165 221 
 SPBC HZ I         136 59.69        17.4 0.36            130            165 221 
 ZAR  HZ EP        136 34.89                             123   -0.02 8  209 292 
 ZAR  HE ES        137  1.39                             123    0.51 8  209 292 
 ZAR  HZ I         137  6.75        18.9 0.30            122            209 292 
 NOR  HZ EP        136 37.66                             119   -0.35 8  238 235 
 NOR  HE ES        137  6.06                             119   -0.32 8  238 235 
 NOR  HZ I         137  9.35        10.2 0.16            119            238 235 
 SML  HZ EP   4    136 37.96                             118   -0.92 0  247 334 
 SML  HE ES   4    137  7.26                             118   -0.68 0  247 334 
 SML  HZ I         137 14.47        14.9 0.10            118            247 334 
 CHI  HZ EP        136 40.27                             118    0.64 8  249 196 
 CHI  HE ES        137 10.66                             118    1.39 8  249 196 
 CHI  HZ I         137 16.79         2.6 0.34            120            249 196 
 URE  HZ EP        136 43.10                             114   -0.40 7  289 292 
 URE  HN ES   4    137 13.79                             114   -2.37 0  289 292 
 URE  HZ I         137 27.54         7.0 0.16            114            289 292 
 GUY2CHZ EP        136 45.94                             113    0.09 7  305 235 
 GUY2CHN ES        137 19.92                             113   -0.42 7  305 235 
 GUY2CHZ I         137 31.13         5.4 0.68                           305 235 
 CBOC HZ EP        136 49.44                             110    0.19 7  338 253 
 CBOC HN ES        137 26.46                             110    0.07 7  338 253 
 CBOC HZ I         137 29.81         1.7 0.20            111            338 253 
 MON  HZ EP   9    136 48.65                             109   -2.71 0  358 308 
 MON  HN ES        137 27.93                             109    0.49 6  358 308 
 MON  HZ I         137 42.97         2.2 0.42            110            358 308 
                                                                                
