 2017 10 4 0532 23.8 L   6.799 -73.148137.4  RSN 10 0.3 1.8LRSN                1
 GAP=112        0.58       2.3     2.6  4.0 -0.3205E-01  0.4507E+01  0.1426E+01E
 Epicentro: LOS SANTOS - SANTANDER                                             3
 ACTION:UPD 17-11-07 19:28 OP:rebc STATUS:               ID:20171004053223 L   I
 OLDACT:UP  17-10-04 15:24 OP:dnl  STATUS:               ID:20171004052738     3
 OLDACT:UP  17-10-04 15:24 OP:dnl  STATUS:               ID:20171004052738     3
 OLDACT:UP  17-10-04 15:23 OP:dnl  STATUS:               ID:20171004052738     3
 OLDACT:REG 17-10-04 12:56 OP:dnl  STATUS:               ID:20171004052738     3
 2017-10-04-0528-00M.COL___447                                                 6
 STAT SP IPHASW D HRMM SECON CODA AMPLIT PERI AZIMU VELO AIN AR TRES W  DIS CAZ7
 BAR2 EZ EP   2    532 42.29                             170   -0.15 5 23.2 189 
 BAR2 EZ ES        532 56.65                             170   -0.3110 23.2 189 
 BAR2 EZ I         532 57.89        15.2 0.26            168           23.2 189 
 PAM  EZ EP        532 45.16                             149   -0.0110 77.6  40 
 PAM  EN ES        533  2.10                             149    0.2810 77.6  40 
 PAM  EZ I         533  4.10        17.7 0.58            153           77.6  40 
 RUS  HZ EP        532 46.65                             142   -0.1010  101 176 
 RUS  HE ES        533  4.74                             142    0.1010  101 176 
 RUS  HZ I         533  6.31         5.0 0.42            143            101 176 
 SPBC HZ EP        532 51.36                             127   -0.30 9  163 219 
 SPBC HN ES        533 13.61                             127    0.23 9  163 219 
 SPBC HZ I         533 19.80         5.5 0.20            127            163 219 
 YPLC HN ES        533 15.76                             125   -0.04 9  177 151 
 YPLC HZ I         533 19.07         8.8 0.28            126            177 151 
 ZAR  HZ EP   2    532 55.09                             120   -0.62 4  204 292 
 ZAR  HN ES        533 20.57                             120   -0.02 9  204 292 
 ZAR  HZ I         533 29.02         8.2 0.48            121            204 292 
 CHI  HZ EP   2    533  0.38                             115   -0.67 4  248 195 
 CHI  HN ES   4    533 28.38                             115   -1.71 0  248 195 
 CHI  HZ I         533 32.89         1.9 0.28            116            248 195 
 GUY2CHZ EP        533  7.40                             111    0.38 7  301 235 
 GUY2CHN ES        533 40.78                             111    0.06 7  301 235 
 GUY2CHZ I         533 46.95         1.7 0.52                           301 235 
 PRA  HZ EP        533 17.54                             105    0.50 6  392 210 
 PRA  HE ES   4    533 57.02                             105   -1.53 0  392 210 
 PRA  HZ I         534  5.68         2.0 0.22            106            392 210 
 SJC  HZ EP   4    533 16.94                             104   -2.17 0  409 327 
 SJC  HN ES   4    533 57.98                             104   -4.26 0  409 327 
 SJC  HZ I         534  2.01         2.4 0.40            105            409 327 
                                                                                
