 2015  4 4 0823 11.1 L   6.775 -73.149143.3  RSN  5 0.2 1.4LRSN                1
 GAP=137        0.56       2.9     2.7  5.6 -0.8627E-01  0.5176E+01  0.1581E+01E
 Epicentro: LOS SANTOS - SANTANDER                                             3
 ACTION:UPD 15-06-03 16:52 OP:cam  STATUS:               ID:20150404082311 L   I
 OLDACT:UP  15-04-04 16:52 OP:mh   STATUS:               ID:20150404081742     3
 OLDACT:REG 15-04-04 13:27 OP:mh   STATUS:               ID:20150404081742     3
 2015-04-04-0817-42M.COL___276                                                 6
 STAT SP IPHASW D HRMM SECON CODA AMPLIT PERI AZIMU VELO AIN AR TRES W  DIS CAZ7
 PAM  SZ EP        823 33.57                             150    0.3710 79.8  38 
 PAM  SN ES        823 50.17                             150   -0.2610 79.8  38 
 PAM  SZ I         823 52.72         4.0 0.20             94           79.8  38 
 RUS  HZ EP        823 34.27                             144   -0.1310 97.8 176 
 RUS  HN ES        823 52.76                             144    0.1810 97.8 176 
 RUS  HZ I         823 54.58         1.4 0.38             94           97.8 176 
 PTB  HZ EP        823 37.70                             132   -0.08 9  147 260 
 PTB  HN ES        823 58.61                             132    0.02 9  147 260 
 PTB  HZ I         824  5.79         3.3 0.48             93            147 260 
 SPBC HZ EP        823 38.98                             129   -0.19 9  161 220 
 SPBC HZ I         824  7.36         5.2 0.91             92            161 220 
 ZAR  HN ES        824  8.77                             122    0.08 9  205 293 
 ZAR  HZ I         824 15.11         2.9 0.73             56            205 293 
                                                                                
