 2012 10 4 0405 14.1 L   6.788 -73.127148.1  RSN  6 0.2 1.7LRSN                1
 GAP=140        0.43       2.2     3.7  4.4  0.1159E+01 -0.9488E+00  0.2437E+01E
 Epicentro: LOS SANTOS - SANTANDER                                             3
 ACTION:UPD 12-11-22 17:01 OP:ep   STATUS:               ID:20121004040514 L   I
 2012-10-04-0400-00M.COL___220                                                 6
 STAT SP IPHASW D HRMM SECON CODA AMPLIT PERI AZIMU VELO AIN AR TRES W  DIS CAZ7
 BAR2 SZ EP   1    4 5 34.15                             171    0.15 7 22.5 196 
 BAR2 SZ I         4 5 50.12         9.4 0.17                          22.5 196 
 BRR  HZ EP   1    4 5 35.55                             152   -0.09 7 73.7 299 
 BRR  HE ES        4 5 52.63                             152    0.1910 73.7 299 
 BRR  HZ I         4 5 57.29         6.5 0.12                          73.7 299 
 PAM  SZ EP   1    4 5 36.51                             151   -0.04 7 77.1  38 
 PAM  SN ES   2    4 5 53.78                             151   -0.28 5 77.1  38 
 PAM  SN I         4 5 54.80        12.8 0.43                          77.1  38 
 RUS  HZ EP   1    4 5 38.09                             145    0.11 7 99.1 177 
 RUS  HN ES        4 5 56.50                             145   -0.1010 99.1 177 
 ZAR  HN ES   2    4 6 11.94                             122   -0.64 4  207 292 
 CHI  HZ EP   1    4 5 52.10                             118    0.25 6  248 196 
 CHI  HE ES        4 6 21.20                             118   -0.10 8  248 196 
 CHI  HN I         4 6 26.30         4.4 0.27                           248 196 
                                                                                
