 2017  6 4 0442  0.4 L   6.746 -73.097144.8  RSN  9 0.5 1.7LRSN                1
 GAP=211        0.84       4.0     4.5  5.9  0.1012E+02 -0.6282E+00  0.1913E+01E
 Epicentro: LOS SANTOS - SANTANDER                                             3
 ACTION:UPD 17-09-14 16:49 OP:jn   STATUS:               ID:20170604044200 L   I
 OLDACT:UP  17-06-04 18:39 OP:and  STATUS:               ID:20170604043741d    3
 OLDACT:UP  17-06-04 18:39 OP:and  STATUS:               ID:20170604043741d    3
 OLDACT:UP  17-06-04 18:39 OP:and  STATUS:               ID:20170604043741d    3
 OLDACT:UP  17-06-04 18:38 OP:and  STATUS:               ID:20170604043741d    3
 OLDACT:UP  17-06-04 17:14 OP:osc  STATUS:               ID:20170604043741d    3
 OLDACT:DUP 17-06-04 17:02 OP:osc  STATUS:               ID:20170604043741d    3
 2017-06-04-0438-00M.COL___350                                                 6
 STAT SP IPHASW D HRMM SECON CODA AMPLIT PERI AZIMU VELO AIN AR TRES W  DIS CAZ7
 BRR  HZ EP        442 21.74                             150   -0.1310 78.8 300 
 BRR  HN ES        442 38.77                             150    0.1410 78.8 300 
 BRR  HZ I         442 39.31        13.3 0.10            150           78.8 300 
 RUS  HZ EP        442 23.98                             145    0.3910 94.4 179 
 RUS  HN ES        442 41.93                             145    0.2210 94.4 179 
 RUS  HZ I         442 43.36         3.2 0.42            142           94.4 179 
 PTB  HZ EP   2    442 26.80                             131   -0.85 5  152 261 
 PTB  HN ES   3    442 47.46                             131   -1.47 2  152 261 
 PTB  HZ I         442 53.48         7.6 0.24            130            152 261 
 SPBC HZ EP        442 28.79                             129    0.09 9  162 222 
 SPBC HE ES        442 50.69                             129   -0.10 9  162 222 
 SPBC HZ I         442 54.06         9.6 0.12            127            162 222 
 YPLC HZ EP   2    442 30.05                             128    0.71 5  169 152 
 YPLC HN ES   1    442 51.43                             128   -0.51 7  169 152 
 YPLC HZ I         442 57.68         2.8 0.24            127            169 152 
 ZAR  HZ EP        442 33.99                             121    0.48 8  211 293 
 ZAR  HN ES        442 58.74                             121   -0.61 8  211 293 
 NOR  HZ EP        442 36.26                             118    0.10 8  236 236 
 NOR  HN ES        443  4.14                             118    0.07 8  236 236 
 NOR  HZ I         443 10.11         8.2 0.20            118            236 236 
 CHI  HZ EP        442 37.98                             117    0.42 8  244 197 
 CHI  HN ES   3    443  7.69                             117    1.13 2  244 197 
 CHI  HZ I         443 15.17         3.1 0.56            117            244 197 
 PTGC HZ EP        442 42.71                             112   -0.63 7  301 159 
 PTGC HE ES        443 16.32                             112   -0.53 7  301 159 
 PTGC HZ I         443 18.63         4.4 0.32            112            301 159 
                                                                                
