 2017  2 4 0234 34.4 L   6.753 -73.145144.0  RSN 11 0.3 1.9LRSN                1
 GAP= 95        0.74       3.0     2.4  4.9  0.1649E+00  0.7913E+00  0.3536E+01E
 Epicentro: LOS SANTOS - SANTANDER                                             3
 ACTION:UPD 17-05-24 15:32 OP:jn   STATUS:               ID:20170204023434 L   I
 OLDACT:DUP 17-02-04 14:04 OP:dnl  STATUS:               ID:20170204022745d    3
 OLDACT:UP  17-02-04 14:03 OP:dnl  STATUS:               ID:20170204022744     3
 OLDACT:UP  17-02-04 14:02 OP:dnl  STATUS:               ID:20170204022744     3
 OLDACT:REG 17-02-04 12:29 OP:dnl  STATUS:               ID:20170204022744     3
 2017-02-04-0228-00M.COL___346                                                 6
 STAT SP IPHASW D HRMM SECON CODA AMPLIT PERI AZIMU VELO AIN AR TRES W  DIS CAZ7
 BAR2 EZ EP        234 53.76                             172    0.0310 18.2 193 
 BAR2 EZ ES        235  8.89                             172    0.0810 18.2 193 
 BAR2 EZ I         235 11.40        29.2 0.30            172           18.2 193 
 BRR  HZ EP   2    234 55.46                             151   -0.06 5 73.9 302 
 BRR  HN ES        235 12.53                             151    0.5410 73.9 302 
 BRR  HZ I         235 16.47        14.3 0.32            150           73.9 302 
 PAM  EZ EP        234 56.41                             149   -0.2810 81.4  37 
 PAM  EN ES        235 13.82                             149   -0.2410 81.4  37 
 PAM  EZ I         235 16.73         9.8 0.38            151           81.4  37 
 RUS  HZ EP        234 57.78                             145    0.1610 95.4 176 
 RUS  HN ES        235 15.73                             145    0.0110 95.4 176 
 RUS  HZ I         235 17.69        10.8 0.28            146           95.4 176 
 PTB  HZ EP   2    235  1.22                             132    0.07 5  147 261 
 PTB  HE ES        235 21.98                             132   -0.03 9  147 261 
 PTB  HZ I         235 27.82         9.0 0.46            131            147 261 
 TAM  HZ IP     C  235  2.06                             131    0.23 9  154 103 
 TAM  HN ES        235 23.27                             131    0.06 9  154 103 
 TAM  HZ I         235 28.95         6.3 0.36            132            154 103 
 ZAR  HE ES        235 31.83                             122   -0.51 8  206 293 
 ZAR  HZ I         235 37.21        11.2 0.54            122            206 293 
 CHI  HZ EP   2    235 11.87                             117    0.40 4  244 195 
 CHI  HE ES        235 39.65                             117   -0.72 8  244 195 
 CHI  HZ I         235 46.46         4.7 0.30            118            244 195 
 URE  HE ES   4    235 44.34                             113   -3.43 0  286 293 
 URE  HZ I         235 55.03         6.4 0.26            113            286 293 
 PAL  HZ EP   2    235 29.17                             106   -0.03 3  403 240 
 PAL  HN ES        236 12.64                             106    0.70 6  403 240 
 PAL  HZ I         236 14.75         1.5 0.30            106            403 240 
 SJC  HN ES   4    236  9.34                             105   -4.79 0  414 327 
 SJC  HZ I         236 15.10         1.9 0.66            106            414 327 
                                                                                
