 2012  5 4 0845  1.4 L   6.110 -73.745105.6  RSN 12 0.3 2.1LRSN                1
 GAP= 71        0.81       2.7     2.8  6.9 -0.1240E+01  0.5153E+01  0.3794E+01E
 Epicentro: BOLIVAR - SANTANDER                                                3
 ACTION:UP  12-07-05 12:02 OP:pat  STATUS:               ID:20120504084501 L   I
 2012-05-04-0840-00M.COL___189                                                 6
 STAT SP IPHASW D HRMM SECON CODA AMPLIT PERI AZIMU VELO SNR AR TRES W  DIS CAZ7
 RUS  HZ EP   1    845 19.87                             141     0.4 7   77 108 
 RUS  HZ I         845 20.08        41.2 0.10                            77 108 
 RUS  HN ES   1    845 33.29                             141    -0.3 7   77 108 
 BAR2 SZ EP        845 19.86                             139     0.410   82  49 
 BAR2 SZ ES   1    845 33.37                             139    -0.3 7   82  49 
 BAR2 SZ I         845 35.33        69.1 0.15                            82  49 
 PTB  HE ES   1    845 35.28                             136     0.7 7   92 301 
 PTB  HZ I         845 37.52        37.5 0.11                            92 301 
 BRR  HZ EP   1    845 21.42                             130    -0.2 7  110   2 
 BRR  HE ES   1    845 37.68                             130     0.2 7  110   2 
 BRR  HZ I         845 42.09        27.6 0.10                           110   2 
 NOR  SZ EP   1    845 24.63                             123     0.1 7  138 244 
 NOR  SE ES   1    845 41.89                             123    -0.6 7  138 244 
 ROSC BZ EP   1    845 26.84                             120     0.3 7  154 204 
 ROSC BZ I         845 49.92        10.3 0.53                           154 204 
 CHI  HZ EP   1    845 27.55                             118    -0.1 7  164 179 
 CHI  HN ES   1    845 48.09                             118     0.0 7  164 179 
 CHI  HZ I         845 56.86         8.6 0.23                           164 179 
 PAM  SZ EP   1    845 29.56                             116     0.2 7  178  40 
 PAM  SE ES   1    845 50.63                             116    -0.5 7  178  40 
 ZAR  HZ EP   1    845 30.03                             113    -0.6 6  196 321 
 ZAR  HE ES   1    845 53.42                             113    -0.1 6  196 321 
 HEL  HZ EP   1    845 31.24                             113    -0.1 6  198 273 
 HEL  HN ES   1    845 54.43                             113    -0.2 6  198 273 
 HEL  HZ I         845 57.96        12.2 0.21                           198 273 
 RREF HZ EP   1    845 34.76                             110     0.3 6  222 233 
 RREF HN ES   1    846  0.13                             110    -0.1 6  222 233 
 RREF HZ I         846  3.65        12.5 0.27                           222 233 
 PRA  HZ EP   1    845 41.88                             104    -0.1 5  294 206 
 PRA  HZ I         845 45.01        14.7 0.15                           294 206 
                                                                                
