 2017  9 4 0800  2.4 L   6.826 -73.140150.5  RSN 23 0.7 2.4LRSN                1
 GAP= 74        1.35       3.9     3.6  6.8  0.1128E+01  0.8873E+01  0.3228E+01E
 Epicentro: LOS SANTOS - SANTANDER                                             3
 ACTION:UPD 17-10-05 19:09 OP:rebc STATUS:               ID:20170904080002 L   I
 OLDACT:UP  17-09-04 19:02 OP:dnl  STATUS:               ID:20170904074439     3
 OLDACT:UP  17-09-04 16:42 OP:leo  STATUS:               ID:20170904074439     3
 OLDACT:UP  17-09-04 16:41 OP:leo  STATUS:               ID:20170904074439     3
 OLDACT:UP  17-09-04 16:36 OP:leo  STATUS:               ID:20170904074439     3
 OLDACT:UP  17-09-04 16:27 OP:leo  STATUS:               ID:20170904074439     3
 OLDACT:UP  17-09-04 16:08 OP:leo  STATUS:               ID:20170904074439     3
 OLDACT:UP  17-09-04 15:49 OP:leo  STATUS:               ID:20170904074439     3
 OLDACT:UP  17-09-04 15:46 OP:leo  STATUS:               ID:20170904074439     3
 OLDACT:UP  17-09-04 15:25 OP:leo  STATUS:               ID:20170904074439     3
 OLDACT:REG 17-09-04 12:51 OP:dnl  STATUS:               ID:20170904074439     3
 2017-09-04-0758-00M.COL___408                                                 6
 STAT SP IPHASW D HRMM SECON CODA AMPLIT PERI AZIMU VELO AIN AR TRES W  DIS CAZ7
 BAR2 EZ IP     D  8 0 22.59                             170   -0.1010 26.3 190 
 BAR2 EZ ES        8 0 38.44                             170   -0.0510 26.3 190 
 BAR2 EZ I         8 0 38.86        72.5 0.16            169           26.3 190 
 BRR  HZ EP        8 0 24.46                             153    0.4110 70.4 296 
 BRR  HZ I         8 0 44.72        30.8 0.42            149           70.4 296 
 PAM  EZ EP        8 0 25.58                             152    0.5810 74.8  41 
 PAM  EN ES        8 0 42.48                             152   -0.1210 74.8  41 
 PAM  EZ I         8 0 44.80        45.8 0.50            151           74.8  41 
 RUS  HZ EP        8 0 26.58                             144   -0.2710  103 177 
 RUS  HN ES        8 0 45.57                             144   -0.3210  103 177 
 RUS  HZ I         8 0 46.86        29.7 0.44            142            103 177 
 TAM  HZ EP     D  8 0 31.00                             131    0.50 9  155 106 
 TAM  HE ES        8 0 52.79                             131    0.40 9  155 106 
 TAM  HZ I         8 0 54.99        10.4 0.26            130            155 106 
 SPBC HZ EP        8 0 31.58                             130    0.04 9  166 219 
 SPBC HN ES        8 0 53.67                             130   -0.58 9  166 219 
 SPBC HZ I         8 1  0.01        44.6 0.10            126            166 219 
 YPLC HZ EP        8 0 33.03                             127    0.24 9  179 152 
 YPLC HN ES        8 0 56.97                             127    0.50 9  179 152 
 YPLC HZ I         8 0 59.68        19.4 0.24            125            179 152 
 ZAR  HZ EP        8 0 34.91                             123   -0.23 9  204 291 
 ZAR  HN ES        8 1  0.56                             123   -0.09 9  204 291 
 ZAR  HZ I         8 1  5.75        31.4 0.38            120            204 291 
 NOR  HZ EP        8 0 38.69                             119    0.02 8  237 234 
 NOR  HN ES        8 1  7.14                             119    0.20 8  237 234 
 NOR  HZ I         8 1 15.91        17.0 0.38            116            237 234 
 CHI  HZ EP        8 0 40.74                             118    0.03 8  252 195 
 CHI  HN ES        8 1 10.03                             118   -0.54 8  252 195 
 CHI  HZ I         8 1 15.11        15.5 0.48            115            252 195 
 ROSC BZ EP   4    8 0 43.20                             117    2.08 0  256 211 
 ROSC BN ES   4    8 1 12.90                             117    1.61 0  256 211 
 ROSC BZ I         8 1 17.25        42.1 0.40            114            256 211 
 HEL  HZ EP        8 0 44.67                             115    1.64 8  273 255 
 HEL  HN ES        8 1 15.02                             115    0.32 8  273 255 
 HEL  HZ I         8 1 20.64        17.0 0.30            112            273 255 
 URE  HZ EP        8 0 42.56                             114   -1.12 7  283 291 
 GUY2CHZ EP   4    8 0 47.58                             113    1.07 0  303 234 
 GUY2CHN ES   4    8 1 22.44                             113    1.56 0  303 234 
 VIL  EZ EP   4    8 0 45.38                             113   -1.02 0  306 192 
 PTGC HZ IP     D  8 0 45.77                             112   -1.01 7  311 159 
 PTGC HN ES        8 1 19.43                             112   -1.94 7  311 159 
 PTGC HZ I         8 1 24.03        11.7 0.26            110            311 159 
 DBB  EZ EP   4    8 0 50.85                             110    0.70 0  340 274 
 DBB  EN ES        8 1 26.59                             110   -0.78 7  340 274 
 DBB  EZ I         8 1 27.30         7.6 0.30            107            340 274 
 ANIL HZ EP   4    8 0 56.06                             109    3.35 0  360 224 
 ANIL HN ES        8 1 33.15                             109    1.23 6  360 224 
 PRA  HZ EP        8 0 56.63                             107    0.18 6  395 209 
 PRA  HE ES        8 1 39.19                             107    0.61 6  395 209 
 PRA  HZ I         8 1 44.63        13.0 0.70            105            395 209 
 ORTC HZ EP   1    8 0 56.98                             107    0.15 4  398 216 
 ORTC HZ I         8 1 43.91        10.4 0.22            105            398 216 
 APAC HZ EP   3    8 0 55.68                             107   -1.07 1  398 288 
 APAC HN ES   4    8 1 37.25                             107   -1.87 0  398 288 
 SJC  HZ EP        8 0 56.80                             106   -1.11 6  407 327 
 SJC  HN ES   4    8 1 37.53                             106   -3.65 0  407 327 
 SJC  HZ I         8 1 50.07         4.2 0.30            104            407 327 
 PAL  HZ EP        8 0 58.07                             106    0.08 6  408 239 
 PAL  HE ES        8 1 42.00                             106    0.68 6  408 239 
 PAL  HZ I         8 1 46.53         5.1 0.78            104            408 239 
 MACC HZ EP   4    8 1 10.07                             102   -1.54 0  524 189 
 MACC HN ES   4    8 2  1.76                             102   -3.81 0  524 189 
 MACC HZ I         8 2 12.88         2.3 0.42            100            524 189 
 URI  HZ EP   4    8 1 13.18                             101   -2.01 0  554  13 
 URI  HN ES   4    8 2  9.19                             101   -2.75 0  554  13 
 URI  HZ I         8 2 18.07         1.2 0.28             99            554  13 
                                                                                
