 2017 10 4 0209  3.6 L   6.813 -73.175139.4  RSN  6 0.3 1.6LRSN                1
 GAP=110        0.73       2.9     3.4  6.9  0.1124E+01  0.4925E+01  0.2880E+01E
 Epicentro: LOS SANTOS - SANTANDER                                             3
 ACTION:UPD 17-11-07 19:28 OP:rebc STATUS:               ID:20171004020903 L   I
 OLDACT:UP  17-10-04 14:05 OP:dnl  STATUS:               ID:20171004015740d    3
 OLDACT:DUP 17-10-04 13:58 OP:dnl  STATUS:               ID:20171004015740d    3
 2017-10-04-0158-00M.COL___447                                                 6
 STAT SP IPHASW D HRMM SECON CODA AMPLIT PERI AZIMU VELO AIN AR TRES W  DIS CAZ7
 PAM  EZ EP        2 9 25.26                             149    0.0410 78.4  42 
 PAM  EN ES        2 9 41.92                             149   -0.1510 78.4  42 
 PAM  EZ I         2 9 43.98        12.3 0.48            153           78.4  42 
 RUS  HZ EP        2 9 26.73                             142   -0.1410  102 174 
 RUS  HE ES        2 9 44.98                             142   -0.0310  102 174 
 RUS  HZ I         2 9 46.61         5.3 0.24            143            102 174 
 SPBC HZ EP   2    2 9 31.50                             128   -0.05 5  162 218 
 SPBC HE ES        2 9 52.99                             128   -0.34 9  162 218 
 SPBC HZ I         2 9 56.99         5.5 0.24            129            162 218 
 YPLC HZ EP        2 9 32.88                             125   -0.35 9  180 151 
 YPLC HE ES        2 9 57.00                             125    0.66 9  180 151 
 YPLC HZ I         2 9 59.46         6.3 0.28            126            180 151 
 ZAR  HZ EP   2    2 9 35.04                             121   -0.25 4  201 292 
 ZAR  HE ES        210  0.42                             121    0.43 9  201 292 
 ZAR  HZ I         210  2.77         5.5 0.22            123            201 292 
 CHI  HZ EP   2    2 9 41.41                             116    0.38 4  249 194 
 CHI  HN ES   4    210  8.32                             116   -1.89 0  249 194 
 CHI  HZ I         210 13.45         1.5 0.54            117            249 194 
                                                                                
