 2013 12 4 0304 12.5 L   6.756 -73.156148.7  RSN  6 0.4 1.6LRSN                1
 GAP=199        1.06       5.8     6.9  8.3  0.2023E+02  0.4091E+01 -0.8325E+01E
 Epicentro: LOS SANTOS - SANTANDER                                             3
 ACTION:UPD 14-01-13 10:15 OP:ep   STATUS:               ID:20131204030412 L   I
 OLDACT:REG 13-12-04 07:40 OP:carl STATUS:               ID:20131204030000     3
 2013-12-04-0300-00M.COL___285                                                 6
 STAT SP IPHASW D HRMM SECON CODA AMPLIT PERI AZIMU VELO AIN AR TRES W  DIS CAZ7
 BAR2 SZ EP        3 4 32.53                             173    0.1510 18.3 189 
 BAR2 SZ ES        3 4 47.74                             173   -0.1610 18.3 189 
 BAR2 SZ I         3 4 48.86        12.3 0.48            167           18.3 189 
 BRR  HZ EP        3 4 34.27                             152    0.2410 72.7 302 
 BRR  HE ES        3 4 51.41                             152    0.5710 72.7 302 
 RUS  HZ EP        3 4 36.43                             146    0.2410 95.8 175 
 RUS  HN ES        3 4 54.33                             146   -0.3510 95.8 175 
 PTB  HZ EP        3 4 39.54                             133    0.03 9  146 261 
 PTB  HN ES        3 5  0.01                             133   -0.58 9  146 261 
 PTB  HZ I         3 5  5.61         2.8 0.30            129            146 261 
 ZAR  HN ES        3 5 11.19                             123    0.46 9  205 294 
 ZAR  HN I         3 5 18.49         5.7 0.32            121            205 294 
 SML  HE ES        3 5 17.85                             118   -0.88 8  248 336 
                                                                                
