 2011 10 4 0502  2.5 L   6.765 -73.076150.8  RSN  4 0.2 1.3LRSN                1
 GAP=147        0.50       3.6     5.5  5.4 -0.5008E+00 -0.2089E+01  0.6052E+00E
 Epicentro: LOS SANTOS - SANTANDER                                             3
 ACTION:UPD 12-07-13 16:01 OP:ep   STATUS:               ID:20111004050202 L   I
 2011-10-04-0458-11S.COL___170                                                 6
 STAT SP IPHASW D HRMM SECON CODA AMPLIT PERI AZIMU VELO AIN AR TRES W  DIS CAZ7
 BAR2 SZ EP   1    5 2 22.52                             171   -0.19 7 22.4 212 
 BAR2 SZ I         5 2 22.93         4.8 0.12                          22.4 212 
 BAR2 SZ ES   1    5 2 38.79                             171    0.32 7 22.4 212 
 PAM  SZ EP   1    5 2 25.42                             152    0.26 7 76.0  33 
 PAM  SZ I         5 2 25.69         3.4 0.21                          76.0  33 
 PAM  SN ES   1    5 2 42.64                             152   -0.20 7 76.0  33 
 BRR  HZ EP   1    5 2 24.47                             151   -0.21 7 79.8 298 
 BRR  HZ I         5 2 24.87         7.3 0.12                          79.8 298 
 BRR  HN ES   1    5 2 42.03                             151    0.05 7 79.8 298 
 RUS  HZ EP   1    5 2 26.66                             146    0.21 7 96.4 180 
 RUS  HN ES   1    5 2 44.90                             146   -0.24 7 96.4 180 
 RUS  HZ I         5 2 46.63         1.3 0.20                          96.4 180 
                                                                                
