 2011  3 4 0006 49.7 L   6.812 -73.127144.6  RSN  6 0.3 1.7LRSN                1
 GAP=161        0.59       3.3     7.2  7.3 -0.1155E+02  0.2853E+02 -0.3416E+01E
 Epicentro: LOS SANTOS - SANTANDER                                             3
 ACTION:UP  11-06-16 14:31 OP:jfem STATUS:               ID:20110304000649 L   I
 2011-03-04-0002-07S.COL___135                                                 6
 STAT SP IPHASW D HRMM SECON CODA AMPLIT PERI AZIMU VELO SNR AR TRES W  DIS CAZ7
 BAR2 SZ EP   1    0 7  9.25                             170     0.0 7   25 194 
 BAR2 SZ ES   2    0 7 24.18                             170    -0.3 5   25 194 
 BAR2 SZ I         0 7 25.57        17.3 0.24                            25 194 
 RUS  HZ EP   1    0 7 13.28                             143    -0.1 7  102 177 
 RUS  HZ I         0 7 13.97         5.4 0.10                           102 177 
 RUS  HN ES   1    0 7 32.15                             143     0.2 7  102 177 
 GRA  SZ EP   1    0 7 15.07                             137     0.4 7  124  17 
 GRA  SZ ES   1    0 7 33.79                             137    -0.4 7  124  17 
 GRA  SZ I         0 7 35.65         6.0 0.35                           124  17 
 CHI  HZ EP   3    0 7 27.44                             117    -0.1 2  250 196 
 CHI  HE ES   1    0 7 57.18                             117     0.2 6  250 196 
 HEL  HZ EP   1    0 7 30.24                             114     0.2 6  274 256 
 HEL  HN ES   2    0 8  1.85                             114     0.2 4  274 256 
 HEL  HZ I         0 8 12.30         3.4 0.49                           274 256 
 PRA  HZ EP   1    0 7 43.21                             106    -0.2 4  394 210 
 PRA  HN ES   1    0 8 24.47                             106    -0.8 4  394 210 
                                                                                
