 2011  5 4 0243 41.8 L   7.183 -73.197127.5  RSN  6 0.1 1.6LRSN                1
 GAP=128        0.34       2.4     3.9  4.2 -0.3905E+01  0.1340E+01  0.5124E+00E
 Epicentro: LEBRIJA - SANTANDER                                                3
 ACTION:UP  11-06-29 08:50 OP:tino STATUS:               ID:20110504024341 L   I
 2011-05-04-0240-00M.COL___139                                                 6
 STAT SP IPHASW D HRMM SECON CODA AMPLIT PERI AZIMU VELO SNR AR TRES W  DIS CAZ7
 BTL  SZ EP   2    243 59.41                             166     0.0 5   30 195 
 BRR  HZ EP   1    244  0.10                             154    -0.1 7   57 262 
 BRR  HZ I         244  0.43         5.7 0.15                            57 262 
 BRR  HN ES   2    244 14.57                             154     0.0 5   57 262 
 PAM  SZ EP   1    244  1.05                             154     0.1 7   58  73 
 PAM  SE ES   2    244 15.73                             154    -0.1 5   58  73 
 BAR2 SZ EP   1    244  0.99                             151     0.0 7   65 179 
 BAR2 SZ ES   1    244 16.13                             151     0.2 7   65 179 
 BAR2 SZ I         244 17.90        17.9 0.36                            65 179 
 GRA  SZ EP   2    244  2.46                             143     0.0 5   89  29 
 GRA  SZ ES   1    244 18.43                             143    -0.1 7   89  29 
 GRA  SZ I         244 21.01        14.0 0.36                            89  29 
 RUS  HZ EP   2    244  7.58                             129     0.0 5  143 175 
 RUS  HN ES   2    244 27.21                             129    -0.4 5  143 175 
 RUS  HZ I         244 29.44         2.1 0.30                           143 175 
                                                                                
