 2014  6 4 0816  9.0 L   6.809 -73.161143.5  RSN  8 0.4 1.8LRSN                1
 GAP=134        0.77       3.0     4.4  5.9 -0.4947E+01  0.1097E+02 -0.2558E+01E
 Epicentro: LOS SANTOS - SANTANDER                                             3
 OLDACT:REG 14-06-04 13:48 OP:fm   STATUS:               ID:20140604080806     3
 ACTION:UPD 14-07-01 22:50 OP:nd   STATUS:               ID:20140604081609 L   I
 OLDACT:UP  14-06-04 18:21 OP:fm   STATUS:               ID:20140604080806     3
 2014-06-04-0808-06M.COL___253                                                 6
 STAT SP IPHASW D HRMM SECON CODA AMPLIT PERI AZIMU VELO AIN AR TRES W  DIS CAZ7
 BAR2 SZ EP        816 28.47                             170    0.0710 24.0 186 
 BAR2 SZ ES   1    816 43.28                             170   -0.22 7 24.0 186 
 BAR2 SZ I         816 54.81        11.7 2.26            169           24.0 186 
 PAM  SZ EP        816 31.63                             150    0.6110 77.7  41 
 PAM  SN ES        816 48.37                             150    0.2010 77.7  41 
 PAM  SZ I         816 50.29         9.3 0.52            156           77.7  41 
 RUS  HN ES   1    816 50.41                             143   -0.63 7  102 175 
 PTB  HZ EP        816 35.54                             132   -0.14 9  146 258 
 PTB  HN ES        816 56.80                             132    0.34 9  146 258 
 PTB  SZ I         817  3.90         5.2 1.46            134            146 258 
 OCA  HZ EP        816 36.99                             129   -0.06 9  159 354 
 OCA  HN ES        816 58.49                             129   -0.42 9  159 354 
 OCA  SZ I         817  1.87         8.0 0.26            133            159 354 
 SML  HZ EP   1    816 45.36                             117    0.00 6  242 336 
 SML  HN ES   1    817 13.32                             117   -0.37 6  242 336 
 SML  SZ I         817 29.90         5.4 1.28            121            242 336 
 GUY2CHZ EP   1    816 52.12                             112   -0.32 5  300 234 
 GUY2CHN ES   1    817 26.88                             112    0.58 5  300 234 
 GUY2CSZ I         817 33.96         3.6 3.32                           300 234 
 PRA  HZ EP   1    817  1.92                             106   -0.55 4  392 209 
 PRA  HN ES   1    817 44.13                             106   -0.02 4  392 209 
                                                                                
