 2011  9 4 0951 22.1 L   6.826 -73.023141.3  RSN  5 0.1 1.3LRSN                1
 GAP=218        0.33       5.1     5.7  4.6  0.2097E+02 -0.8689E+01 -0.8710E+01E
 Epicentro: CEPITA - SANTANDER                                                 3
 ACTION:UPD 12-07-13 15:55 OP:ep   STATUS:               ID:20110904095122 L   I
 2011-09-04-0951-10S.COL___171                                                 6
 STAT SP IPHASW D HRMM SECON CODA AMPLIT PERI AZIMU VELO AIN AR TRES W  DIS CAZ7
 BAR2 SZ EP   1    951 41.22                             167   -0.13 7 31.3 214 
 BAR2 SZ I         951 41.71         4.9 0.11                          31.3 214 
 BAR2 SZ ES   1    951 56.29                             167   -0.09 7 31.3 214 
 GIR2 SZ EP   1    951 41.43                             166    0.16 7 33.7 326 
 BRR  HZ EP   1    951 43.27                             148   -0.13 7 82.2 292 
 BRR  HZ I         951 43.66         5.1 0.41                          82.2 292 
 BRR  HN ES   1    952  0.15                             148    0.11 7 82.2 292 
 RUS  HZ EP   2    951 45.75                             142    0.16 5  103 184 
 RUS  HE ES   2    952  4.01                             142    0.07 5  103 184 
 RUS  HZ I         952  4.92         1.6 0.37                           103 184 
 ZAR  HN ES   2    952 21.41                             120   -0.06 4  216 290 
 ZAR  HZ I         952 28.16         2.0 0.31                           216 290 
                                                                                
