 2016 12 4 0710 18.9 L   6.728 -73.146146.0  RSN 10 0.4 2.1LRSN                1
 GAP=122        0.86       4.3     3.6  5.7  0.4009E+01  0.2885E+01  0.9058E+01E
 Epicentro: JORDAN - SANTANDER                                                 3
 ACTION:UPD 17-01-11 20:12 OP:rebc STATUS:               ID:20161204071018 L   I
 OLDACT:UP  16-12-04 16:05 OP:dani STATUS:               ID:20161204070645     3
 OLDACT:UP  16-12-04 16:04 OP:dani STATUS:               ID:20161204070645     3
 OLDACT:UP  16-12-04 16:04 OP:dani STATUS:               ID:20161204070645     3
 OLDACT:REG 16-12-04 12:50 OP:dani STATUS:               ID:20161204070645     3
 2016-12-04-0707-00M.COL___349                                                 6
 STAT SP IPHASW D HRMM SECON CODA AMPLIT PERI AZIMU VELO AIN AR TRES W  DIS CAZ7
 BAR2 EZ EP        710 38.84                             174    0.4110 15.5 195 
 BAR2 EZ ES        710 53.43                             174   -0.2310 15.5 195 
 BAR2 EZ I         710 55.21        42.7 0.18            167           15.5 195 
 BRR  HZ EP        710 40.63                             151    0.3210 75.3 304 
 BRR  HN ES        710 57.49                             151    0.4810 75.3 304 
 BRR  HZ I         710 58.16        23.6 0.36            150           75.3 304 
 PAM  EZ EP        710 41.75                             149    0.2210 83.7  36 
 PAM  EN ES        710 58.70                             149   -0.4810 83.7  36 
 PAM  EZ I         711  0.70        24.6 0.50            155           83.7  36 
 PTB  HZ EP        710 45.43                             132   -0.33 9  146 262 
 PTB  HN ES        711  6.30                             132   -0.42 9  146 262 
 PTB  HZ I         711 13.86        11.4 0.26            130            146 262 
 ZAR  HZ EP        710 51.73                             122    0.05 8  207 294 
 ZAR  HE ES        711 17.24                             122   -0.01 8  207 294 
 ZAR  HZ I         711 23.74        10.8 0.28            122            207 294 
 PTGC HZ EP        711  1.99                             112    0.06 7  301 158 
 PTGC HE ES        711 35.35                             112   -0.15 7  301 158 
 PTGC HZ I         711 38.18         4.8 0.38            112            301 158 
 LL6C HZ EP   9    710 44.07                             110   -21.5 0  333 358 
 LL6C HE ES        711 19.78                                   -0.65 7  333 358 
 PRA  HZ EP   4    711  4.43                             107   -7.19 0  385 210 
 PRA  HN ES   4    711 55.76                             107    3.02 0  385 210 
 PRA  HZ I         712  2.51         4.2 0.46            107            385 210 
 ORTC HN ES   4    711 57.52                             107    3.96 0  389 217 
 ORTC HZ I         712  1.39         3.0 0.29            106            389 217 
 SJC  HZ EP   3    711 13.01                             105   -2.25 1  416 328 
 SJC  HN ES   4    711 55.21                             105   -4.00 0  416 328 
 SJC  HZ I         711 58.48         3.3 0.58            106            416 328 
                                                                                
