 2013  8 4 0812 43.7 L   6.808 -73.148146.4  RSN 15 0.4 2.4LRSN                1
 GAP= 84        0.93       2.4     3.0  4.9 -0.6323E+00  0.2819E+01  0.1737E+01E
 Epicentro: LOS SANTOS - SANTANDER                                             3
 ACTION:UPD 14-01-14 08:58 OP:ep   STATUS:               ID:20130804081243 L   I
 OLDACT:REG 13-08-04 07:47 OP:carl STATUS:               ID:20130804080959     3
 2013-08-04-0809-59M.COL___269                                                 6
 STAT SP IPHASW D HRMM SECON CODA AMPLIT PERI AZIMU VELO AIN AR TRES W  DIS CAZ7
 BAR2 SZ IP     C  813  3.45                             170   -0.0210 24.1 189 
 BAR2 SZ ES   1    813 18.36                             170   -0.49 7 24.1 189 
 BAR2 SZ I         813 19.67        62.6 0.16            168           24.1 189 
 GIR2 SZ EP        813  3.55                             168    0.0810 30.4 350 
 GIR2 SZ ES   1    813 18.45                             168   -0.41 7 30.4 350 
 GIR2 SZ I         813 20.91        27.5 0.54            168           30.4 350 
 BRR  HZ IP     D  813  5.34                             153    0.4110 70.6 298 
 BRR  HN ES   1    813 22.62                             153    1.17 7 70.6 298 
 BRR  HZ I         813 25.68        22.4 0.16            151           70.6 298 
 PAM  SZ EP        813  6.15                             151    0.1510 76.9  40 
 PAM  SN ES   1    813 23.70                             151    0.34 7 76.9  40 
 PAM  SZ I         813 25.61        30.9 0.56            156           76.9  40 
 PTB  HZ EP        813 10.05                             132   -0.71 9  148 258 
 PTB  HN ES   1    813 31.49                             132   -0.34 7  148 258 
 PTB  HZ I         813 34.74        22.4 0.12            132            148 258 
 TAM  HZ IP     D  813 11.67                             131    0.15 9  156 105 
 TAM  HN ES        813 33.14                             131   -0.04 9  156 105 
 OCA  HZ EP        813 12.22                             130    0.20 9  159 353 
 OCA  HN ES   1    813 33.47                             130   -0.61 7  159 353 
 OCA  HZ I         813 36.88        23.5 0.20            132            159 353 
 SPBC HZ EP        813 12.26                             129   -0.08 9  164 219 
 SPBC HN ES   1    813 34.27                             129   -0.37 7  164 219 
 SPBC HZ I         813 36.98        39.9 0.30            129            164 219 
 ZAR  HZ EP        813 16.46                             123    0.28 9  203 292 
 ZAR  HN ES        813 41.93                             123    0.46 9  203 292 
 ZAR  HZ I         813 48.40        22.0 0.38            123            203 292 
 NOR  HZ EP        813 19.78                             119    0.24 8  235 234 
 NOR  HE ES   1    813 46.94                             119   -0.52 6  235 234 
 NOR  HZ I         813 54.95        16.5 0.22            119            235 234 
 SML  HZ EP        813 20.15                             118   -0.16 8  243 335 
 SML  HN ES        813 48.18                             118   -0.65 8  243 335 
 SML  HZ I         813 52.15        30.3 0.10            119            243 335 
 CHI  HZ EP        813 21.44                             117   -0.12 8  249 195 
 CHI  HN ES   1    813 50.97                             117   -0.09 6  249 195 
 CHI  HN I         813 56.29        18.4 0.34            118            249 195 
 COD  HZ EP   1    813 31.43                             109   -0.62 5  347 355 
 COD  HN ES        814  9.88                             109    0.16 6  347 355 
 PRA  HZ EP        813 36.82                             107   -0.54 6  393 209 
 PRA  HN ES        814 18.97                             107   -0.21 6  393 209 
 PRA  HZ I         814 26.08         8.0 0.22            108            393 209 
 ORTC HZ EP        813 38.35                             106    0.60 6  396 216 
 ORTC HE ES        814 20.89                             106    1.02 6  396 216 
 ORTC HZ I         814 27.16         6.6 0.24            107            396 216 
                                                                                
