 2011 10 4 0248 44.7 L   6.729 -73.112133.0  RSN  6 0.4 1.4LRSN                1
 GAP=144        0.69       4.5     5.6  7.9  0.2888E+01  0.1210E+02  0.6111E+01E
 Epicentro: JORDAN - SANTANDER                                                 3
 ACTION:UPD 12-07-13 16:01 OP:ep   STATUS:               ID:20111004024844 L   I
 2011-10-04-0247-03S.COL___171                                                 6
 STAT SP IPHASW D HRMM SECON CODA AMPLIT PERI AZIMU VELO AIN AR TRES W  DIS CAZ7
 BAR2 SZ EP        249  2.69                             172    0.0410 17.1 207 
 BAR2 SZ ES   1    249 16.90                             172    0.23 7 17.1 207 
 BAR2 SZ I         249 18.35         5.3 0.25                          17.1 207 
 BRR  HZ EP   1    249  4.49                             148   -0.42 7 78.4 302 
 BRR  HZ I         249  4.87        11.5 0.12                          78.4 302 
 BRR  HN ES   1    249 20.88                             148    0.19 7 78.4 302 
 PAM  SN ES   1    249 22.30                             147    0.01 7 81.4  34 
 RUS  HZ EP   1    249  7.06                             143    0.47 7 92.6 178 
 RUS  HN ES   1    249 23.12                             143   -0.57 7 92.6 178 
 RUS  HZ I         249 28.52         1.5 0.35                          92.6 178 
 ZAR  HN ES   2    249 41.74                             118   -0.49 4  211 294 
 ZAR  HZ I         249 47.70         3.2 0.19                           211 294 
 NOR  SN ES   2    249 47.30                             116    0.55 4  233 237 
                                                                                
