 2016  6 4 0124 39.3 L   6.781 -73.188148.6  RSN  4 0.3 1.1LRSN                1
 GAP=231        0.77       6.3     6.1  6.3  0.2009E+02  0.5663E+01  0.2595E+01E
 Epicentro: ZAPATOCA - SANTANDER                                               3
 ACTION:UPD 16-07-21 22:15 OP:rebc STATUS:               ID:20160604012439 L   I
 OLDACT:DUP 16-06-04 15:03 OP:ak   STATUS:               ID:20160604011743d    3
 2016-06-04-0117-42M.COL___325                                                 6
 STAT SP IPHASW D HRMM SECON CODA AMPLIT PERI AZIMU VELO AIN AR TRES W  DIS CAZ7
 BAR2 EZ EP   2    124 59.08                             172   -0.14 5 20.9 178 
 BAR2 EZ ES        125 14.28                             172   -0.4810 20.9 178 
 BAR2 EZ I         125 15.54         4.0 0.12                          20.9 178 
 BRR  HZ EP        125  0.42                             154   -0.1710 68.2 302 
 BRR  HN ES        125 17.68                             154    0.4810 68.2 302 
 BRR  HZ I         125 18.47         2.7 0.13                          68.2 302 
 RUS  HZ EP        125  3.47                             145    0.2610 98.9 173 
 RUS  HN ES        125 22.04                             145    0.1810 98.9 173 
 RUS  HZ I         125 22.68         1.4 0.28                          98.9 173 
 PTB  HZ EP        125  5.91                             134   -0.14 9  143 259 
 PTB  HN ES        125 26.80                             134   -0.12 9  143 259 
 PTB  HZ I         125 30.63         1.3 0.39                           143 259 
                                                                                
