 2017  2 4 0723  6.7 L   6.778 -73.152150.0  RSN  5 0.4 1.4LRSN                1
 GAP=137        1.02       5.9     5.6  8.6 -0.4795E+01  0.3727E+01 -0.4323E+01E
 Epicentro: LOS SANTOS - SANTANDER                                             3
 ACTION:UPD 17-05-24 15:32 OP:jn   STATUS:               ID:20170204072306 L   I
 OLDACT:REG 17-02-04 12:42 OP:dnl  STATUS:               ID:20170204071744     3
 2017-02-04-0718-00M.COL___328                                                 6
 STAT SP IPHASW D HRMM SECON CODA AMPLIT PERI AZIMU VELO AIN AR TRES W  DIS CAZ7
 BAR2 EZ EP        723 26.48                             172   -0.2710 20.8 189 
 BAR2 EZ ES        723 42.06                             172   -0.3610 20.8 189 
 BAR2 EZ I         723 42.87         8.8 0.14            172           20.8 189 
 BRR  HZ EP        723 28.60                             153    0.3010 71.8 300 
 BRR  HE ES        723 45.88                             153    0.7010 71.8 300 
 BRR  HZ I         723 47.53         3.1 0.30            152           71.8 300 
 PAM  EZ IP     C  723 29.63                             151    0.1710 79.7  39 
 PAM  EN ES        723 46.88                             151   -0.3710 79.7  39 
 PAM  EZ I         723 48.84         3.9 0.54            152           79.7  39 
 RUS  HZ EP   2    723 30.62                             145   -0.04 5 98.2 176 
 RUS  HN ES        723 49.81                             145    0.4310 98.2 176 
 RUS  HZ I         723 50.18         3.1 0.24            147           98.2 176 
 PTB  HZ EP   2    723 33.65                             133   -0.23 5  147 260 
 PTB  HN ES        723 54.51                             133   -0.60 9  147 260 
 PTB  HZ I         723 57.96         2.8 0.12            133            147 260 
                                                                                
