 2017  3 4 0537 40.4 L   6.775 -73.153141.8  RSN  8 0.2 1.2LRSN                1
 GAP=137        0.52       2.0     2.5  3.1 -0.1214E+01  0.8736E+00  0.2031E+01E
 Epicentro: LOS SANTOS - SANTANDER                                             3
 ACTION:UPD 17-05-25 18:35 OP:jn   STATUS:               ID:20170304053740 L   I
 OLDACT:DUP 17-03-04 16:06 OP:lv   STATUS:               ID:20170304052551d    3
 2017-03-04-0528-00M.COL___397                                                 6
 STAT SP IPHASW D HRMM SECON CODA AMPLIT PERI AZIMU VELO AIN AR TRES W  DIS CAZ7
 BAR2 EZ EP        537 59.42                             171   -0.0810 20.5 189 
 BAR2 EZ ES        538 14.47                             171    0.0710 20.5 189 
 BAR2 EZ I         538 15.93         6.7 0.11            170           20.5 189 
 BRR  HZ EP        538  1.19                             152    0.0310 71.8 301 
 BRR  HN ES        538 17.76                             152    0.4010 71.8 301 
 PAM  EZ EP        538  2.28                             149   -0.0810 80.0  39 
 PAM  EN ES        538 19.33                             149   -0.1610 80.0  39 
 PAM  EZ I         538 22.56         2.6 0.32            151           80.0  39 
 RUS  HZ EP        538  3.58                             144    0.0110 97.9 175 
 RUS  HN ES        538 21.67                             144    0.0210 97.9 175 
 RUS  HZ I         538 23.20         2.2 0.38            143           97.9 175 
 PTB  HZ EP        538  6.65                             131   -0.28 9  146 260 
 PTB  HN ES        538 27.42                             131   -0.20 9  146 260 
 PTB  HZ I         538 29.46         1.1 0.16            132            146 260 
 SPBC HZ EP        538  8.64                             129    0.29 9  161 219 
 SPBC HE ES        538 29.84                             129   -0.31 9  161 219 
 SPBC HZ I         538 33.13         3.2 0.19            129            161 219 
 CHI  HZ EP        538 17.73                             117    0.16 8  246 195 
 CHI  HN ES        538 46.54                             117   -0.03 8  246 195 
 CHI  HZ I         538 50.54         0.7 0.21            117            246 195 
 PRA  HZ EP        538 33.73                             106    0.27 6  389 210 
 PRA  HN ES        539 15.02                             106    0.17 6  389 210 
 PRA  HZ I         539 21.60         1.2 0.28            107            389 210 
                                                                                
