 2013  5 4 0030 13.1 L   6.788 -73.142145.7  RSN  7 0.4 1.8LRSN                1
 GAP=138        0.97       4.9     4.6  6.5 -0.5709E+01  0.5931E+01  0.5159E+01E
 Epicentro: LOS SANTOS - SANTANDER                                             3
 ACTION:UPD 13-06-20 09:47 OP:ep   STATUS:               ID:20130504003013 L   I
 2013-05-04-0030-00M.COL___253                                                 6
 STAT SP IPHASW D HRMM SECON CODA AMPLIT PERI AZIMU VELO AIN AR TRES W  DIS CAZ7
 BAR2 SZ EP     D  030 32.68                             171   -0.0510 22.1 192 
 BAR2 SZ ES        030 47.69                             171   -0.3210 22.1 192 
 BAR2 SZ I         030 49.03        23.5 0.13            169           22.1 192 
 BRR  HZ EP        030 34.28                             152   -0.0510 72.2 299 
 BRR  HN ES        030 51.48                             152    0.6110 72.2 299 
 BRR  HZ I         030 54.60        12.4 0.42            153           72.2 299 
 PAM  SZ EP        030 35.64                             150    0.2610 78.2  39 
 PAM  SN ES        030 52.64                             150   -0.1010 78.2  39 
 PAM  SZ I         030 54.65        10.6 0.48            156           78.2  39 
 RUS  HZ EP     C  030 36.63                             144   -0.1410 99.2 176 
 RUS  HN ES        030 55.38                             144    0.1610 99.2 176 
 RUS  HZ I         031  0.83         4.3 0.22            146           99.2 176 
 PTB  HZ EP   1    030 39.28                             132   -0.82 7  148 259 
 PTB  HN ES        031  0.48                             132   -0.67 9  148 259 
 PTB  HZ I         031  7.58        10.3 0.32            133            148 259 
 NOR  HZ EP     C  030 49.15                             118    0.34 8  234 235 
 NOR  HE ES        031 17.24                             118    0.60 8  234 235 
 NOR  HZ I         031 19.68         6.6 0.18            120            234 235 
 PRA  HZ EP   2    031  6.42                             106   -0.11 3  391 210 
                                                                                
