 2014  5 4 0950 18.2 L   6.793 -73.159139.4  RSN 10 0.4 2.1LRSN                1
 GAP= 71        1.01       3.4     3.7  7.6 -0.2127E+01  0.1042E+02 -0.4252E+01E
 Epicentro: LOS SANTOS - SANTANDER                                             3
 2014-05-04-0950-00M.COL___273                                                 6
 OLDACT:UP  14-05-04 18:23 OP:mh   STATUS:               ID:20140504095000     3
 OLDACT:REG 14-05-04 13:11 OP:mh   STATUS:               ID:20140504095000     3
 ACTION:UPD 15-03-16 16:55 OP:nd   STATUS:               ID:20140504095018 L   I
 OLDACT:UP  14-05-04 18:26 OP:mh   STATUS:               ID:20140504095000     3
 OLDACT:UP  14-05-04 18:26 OP:mh   STATUS:               ID:20140504095000     3
 OLDACT:UP  14-05-04 18:26 OP:mh   STATUS:               ID:20140504095000     3
 OLDACT:UP  14-05-04 18:25 OP:mh   STATUS:               ID:20140504095000     3
 OLDACT:UP  14-05-04 18:25 OP:mh   STATUS:               ID:20140504095000     3
 OLDACT:UP  14-05-04 18:25 OP:mh   STATUS:               ID:20140504095000     3
 OLDACT:UP  14-05-04 18:25 OP:mh   STATUS:               ID:20140504095000     3
 STAT SP IPHASW D HRMM SECON CODA AMPLIT PERI AZIMU VELO AIN AR TRES W  DIS CAZ7
 PAM  SZ EP        950 40.17                             149    0.3410 78.9  40 
 PAM  SN ES        950 56.90                             149    0.1910 78.9  40 
 PAM  SZ I         950 58.07        15.7 0.18            142           78.9  40 
 RUS  HZ EP        950 41.26                             143   -0.0110 99.9 175 
 RUS  HN ES        950 59.13                             143   -0.1510 99.9 175 
 PTB  HZ EP        950 44.15                             131   -0.34 9  146 259 
 PTB  HN ES        951  4.54                             131   -0.47 9  146 259 
 PTB  SZ I         951  7.16        20.8 0.14            123            146 259 
 PTB  HZ I         951  9.44        16.5 0.34                           146 259 
 TAM  HZ EP   2    950 45.29                             129   -0.20 5  156 105 
 TAM  HN ES   2    951  6.99                             129    0.20 5  156 105 
 TAM  SZ I         951  7.56        12.1 0.26            124            156 105 
 SPBC HZ EP        950 46.34                             128    0.28 9  162 219 
 SPBC HN ES        951  7.48                             128   -0.32 9  162 219 
 SPBC SZ I         951 15.78         8.5 0.22            122            162 219 
 ZAR  HZ EP        950 50.33                             121    0.22 9  203 292 
 ZAR  HN ES        951 16.14                             121    1.13 9  203 292 
 ZAR  SZ I         951 22.00        11.0 0.28            114            203 292 
 NOR  HZ EP        950 53.70                             117    0.32 8  233 234 
 NOR  HN ES        951 20.73                             117   -0.09 8  233 234 
 NOR  SZ I         951 26.00         8.1 1.16            111            233 234 
 SML  HZ EP        950 53.77                             116   -0.70 8  244 336 
 SML  HN ES        951 22.00                             116   -0.77 8  244 336 
 SML  SZ I         951 31.28        15.9 0.08            109            244 336 
 HEL  HZ EP   1    950 58.31                             114    0.41 6  270 256 
 HEL  HN ES   1    951 29.00                             114    0.12 6  270 256 
 HEL  SZ I         951 35.96         5.3 1.12            108            270 256 
 SJC  HZ EP   4    951 11.50                             105   -2.03 0  409 327 
 SJC  SZ I         951 52.56         8.4 1.76            100            409 327 
 SJC  HN ES   4    951 52.97                             105   -3.72 0  409 327 
                                                                                
