 2015  7 4 0929 34.2 L   7.551 -73.089153.1  RSN 11 0.4 2.3LRSN                1
 GAP=137        0.82       3.3     4.5  5.8  0.1313E+01  0.1337E+02  0.2092E+01E
 Epicentro: EL PLAYON - SANTANDER                                              3
 ACTION:UPD 15-09-08 21:46 OP:cam  STATUS:               ID:20150704092934 L   I
 OLDACT:UP  15-07-04 18:45 OP:mh   STATUS:               ID:20150704092749     3
 OLDACT:UP  15-07-04 18:45 OP:mh   STATUS:               ID:20150704092749     3
 OLDACT:UP  15-07-04 18:44 OP:mh   STATUS:               ID:20150704092749     3
 OLDACT:UP  15-07-04 18:42 OP:mh   STATUS:               ID:20150704092749     3
 OLDACT:UP  15-07-04 18:42 OP:mh   STATUS:               ID:20150704092749     3
 OLDACT:UP  15-07-04 18:41 OP:mh   STATUS:               ID:20150704092749     3
 OLDACT:REG 15-07-04 13:43 OP:mh   STATUS:               ID:20150704092749     3
 2015-07-04-0927-49M.COL___331                                                 6
 STAT SP IPHASW D HRMM SECON CODA AMPLIT PERI AZIMU VELO AIN AR TRES W  DIS CAZ7
 PAM  EN ES        930 12.70                             162   -0.0110 49.0 119 
 PAM  EZ I         930 14.08        43.9 0.18            163           49.0 119 
 OCA  HZ EP        929 57.25                             151    0.3710 80.1 342 
 OCA  HN ES   1    930 15.03                             151    0.46 7 80.1 342 
 OCA  HZ I         930 16.36        91.6 0.48            147           80.1 342 
 BAR2 EZ EP        929 58.02                             143   -0.7310  107 186 
 BAR2 EZ ES        930 17.92                             143    0.0310  107 186 
 BAR2 EZ I         930 19.99        18.3 0.18            139            107 186 
 SML  HZ EP        930  3.99                             128   -0.32 9  176 322 
 SML  HN ES   1    930 27.24                             128   -0.55 7  176 322 
 SML  HZ I         930 33.72        51.4 0.10            123            176 322 
 ZAR  HZ EP        930  6.49                             125    0.23 9  195 268 
 ZAR  HN ES        930 31.30                             125    0.03 9  195 268 
 ZAR  HZ I         930 39.34        15.4 0.32            120            195 268 
 URE  HZ EP   4    930 16.82                             116    2.64 0  271 275 
 URE  HN ES   4    930 43.91                             116   -1.44 0  271 275 
 URE  HZ I         930 46.27        10.9 0.12            112            271 275 
 NOR  HZ EP        930 17.50                             114    0.56 7  295 222 
 NOR  HN ES        930 50.50                             114    0.23 7  295 222 
 NOR  HZ I         930 57.72         5.5 0.18            110            295 222 
 HEL  HZ EP        930 18.94                             113    0.07 7  309 241 
 HEL  HN ES   1    930 53.20                             113   -0.51 5  309 241 
 HEL  HZ I         931  4.68         3.9 0.29            109            309 241 
 MON  HZ EP   9    930 17.78                             112   -1.28 0  315 296 
 MON  HN ES        930 52.35                             113   -0.41 7  315 296 
 MON  HZ I         930 54.96         4.7 0.28            109            315 296 
 DBB  SZ EP        930 23.34                             110    0.19 6  350 260 
 DBB  SZ I         931  5.93        23.2 0.73            106            350 260 
 GUY2CHZ EP   1    930 24.79                             110   -0.04 5  360 225 
 GUY2CHN ES   4    931  6.54                             110    2.22 0  360 225 
 GUY2CHZ I         931 14.03         7.6 0.88                           360 225 
                                                                                
