 2014  1 4 0341 24.1 L   6.742 -73.155134.9  RSN  8 0.3 1.5LRSN                1
 GAP=138        0.81       3.5     3.7  5.5 -0.4018E+01  0.1665E+01  0.5177E+01E
 Epicentro: JORDAN - SANTANDER                                                 3
 ACTION:UPD 14-03-13 09:51 OP:ep   STATUS:               ID:20140104034124 L   I
 OLDACT:REG 14-01-04 07:46 OP:stll STATUS:               ID:20140104033810     3
 2014-01-04-0338-10M.COL___240                                                 6
 STAT SP IPHASW D HRMM SECON CODA AMPLIT PERI AZIMU VELO AIN AR TRES W  DIS CAZ7
 BAR2 SZ ES        341 56.79                             173    0.3310 16.8 190 
 BAR2 SZ I         341 58.20        14.2 0.16            172           16.8 190 
 BRR  HZ EP        341 44.34                             150    0.1510 73.6 303 
 BRR  HN ES        342  0.17                             150    0.2710 73.6 303 
 PAM  SZ EP        341 45.26                             147   -0.2410 83.1  37 
 PAM  SZ I         341 45.49         9.4 0.22            148           83.1  37 
 PAM  SN ES        342  2.14                             147   -0.0910 83.1  37 
 RUS  HZ EP        341 46.24                             143   -0.0410 94.2 175 
 RUS  HN ES        342  3.44                             143   -0.1810 94.2 175 
 RUS  HZ I         342  5.38         2.4 0.22            144           94.2 175 
 PTB  HN ES        342  9.46                             130   -0.71 9  146 261 
 SPBC HZ EP        341 51.48                             127    0.28 9  158 220 
 SPBC HN ES        342 12.12                             127   -0.25 9  158 220 
 NOR  HE ES        342 26.23                             117    0.53 8  230 236 
 CHI  HZ EP        342  0.54                             115    0.08 8  242 195 
                                                                                
