 2013  4 4 0400 27.6 L   6.824 -73.187147.6  RSN  4 0.1 1.2LRSN                1
 GAP=175        0.38       4.2     3.7  4.3  0.4108E+01  0.5322E+01  0.4705E+01E
 Epicentro: ZAPATOCA - SANTANDER                                               3
 ACTION:UPD 13-05-22 14:35 OP:EP   STATUS:               ID:20130404040027 L   I
 2013-04-04-0400-00M.COL___245                                                 6
 STAT SP IPHASW D HRMM SECON CODA AMPLIT PERI AZIMU VELO AIN AR TRES W  DIS CAZ7
 BAR2 SZ EP   1    4 0 47.27                             170   -0.18 7 25.6 179 
 BAR2 SZ ES   1    4 1  2.76                             170   -0.21 7 25.6 179 
 BAR2 SZ I         4 1  5.31         6.6 0.26            167           25.6 179 
 GIR2 SZ ES   1    4 1  3.00                             169    0.18 7 28.2 358 
 RUS  HZ EP   1    4 0 51.84                             143    0.14 7  104 174 
 RUS  HN ES   1    4 1 10.62                             143    0.08 7  104 174 
 RUS  HZ I         4 1 11.75         1.2 0.22            144            104 174 
 PTB  HZ EP   1    4 0 54.29                             133   -0.03 7  144 257 
 PTB  HN ES   1    4 1 15.23                             133    0.03 7  144 257 
 PTB  HZ I         4 1 18.43         1.8 0.14            133            144 257 
                                                                                
