 2016 10 4 0127 22.2 L   6.782 -73.177146.0  RSN  9 0.4 1.4LRSN                1
 GAP=133        0.98       4.6     4.9  7.9  0.4163E+01 -0.5615E+01  0.1493E+01E
 Epicentro: LOS SANTOS - SANTANDER                                             3
 ACTION:UPD 16-11-09 19:16 OP:rebc STATUS:               ID:20161004011743 L   I
 OLDACT:UP  16-10-04 14:46 OP:dani STATUS:               ID:20161004011743 L   3
 OLDACT:UP  16-10-04 14:45 OP:dani STATUS:               ID:20161004011743 L   3
 OLDACT:UP  16-10-04 14:43 OP:dani STATUS:               ID:20161004011743 L   3
 OLDACT:UP  16-10-04 14:43 OP:dani STATUS:               ID:20161004011743 L   3
 OLDACT:UPD 16-10-04 12:58 OP:edw  STATUS:               ID:20161004011743 L   3
 2016-10-04-0118-00M.COL___366                                                 6
 STAT SP IPHASW D HRMM SECON CODA AMPLIT PERI AZIMU VELO AIN AR TRES W  DIS CAZ7
 BAR2 EZ EP        127 41.56                             171   -0.2310 21.0 182 
 BAR2 EZ I         127 58.63         6.4 0.26            171           21.0 182 
 BRR  HZ EP        127 43.20                             153   -0.0410 69.2 301 
 BRR  HN ES        128  0.15                             153    0.4810 69.2 301 
 BRR  HZ I         128  2.61         6.7 0.17            153           69.2 301 
 PAM  EZ EP        127 44.32                             150   -0.3310 81.1  41 
 PAM  EZ I         128  3.83         3.7 0.51            139           81.1  41 
 RUS  HZ EP        127 45.74                             144   -0.0910 98.9 174 
 RUS  HN ES        128  4.51                             144    0.2310 98.9 174 
 RUS  HZ I         128  5.87         2.6 0.30            145           98.9 174 
 PTB  HZ EP        127 48.47                             133   -0.36 9  144 259 
 PTB  HN ES        128  9.16                             133   -0.45 9  144 259 
 PTB  HZ I         128 11.98         3.2 0.14            135            144 259 
 SPBC HZ EP        127 50.53                             130    0.18 9  159 218 
 SPBC HN ES        128 11.93                             130   -0.39 9  159 218 
 SPBC HZ I         128 19.40         3.5 0.19            132            159 218 
 ZAR  HE ES        128 19.93                             123    0.41 9  202 293 
 ZAR  HZ I         128 26.47         2.2 0.31            121            202 293 
 CHI  HZ EP        128  0.51                             117    0.92 8  246 195 
 CHI  HE ES   4    128 31.28                             117    2.51 0  246 195 
 CHI  HZ I         128 32.23         0.9 0.08            117            246 195 
 GUY2CHZ EP   4    128  8.76                             113    3.41 0  297 235 
 GUY2CHZ I         128 49.37         1.1 0.37                           297 235 
                                                                                
