 2014 12 4 0912  4.5 L   7.545 -73.065156.5  RSN 10 0.5 2.0LRSN                1
 GAP=139        1.06       3.3     4.8  6.0  0.2224E+01  0.6830E+01  0.3479E+01E
 Epicentro: EL PLAYON - SANTANDER                                              3
 ACTION:UPD 15-02-10 17:00 OP:nd   STATUS:               ID:20141204091204 L   I
 OLDACT:REG 14-12-04 13:00 OP:carl STATUS:               ID:20141204090744     3
 2014-12-04-0907-44M.COL___300                                                 6
 STAT SP IPHASW D HRMM SECON CODA AMPLIT PERI AZIMU VELO AIN AR TRES W  DIS CAZ7
 PAM  SZ EP        912 26.60                             163    0.1710 46.4 119 
 PAM  SE ES        912 43.38                             163   -0.1510 46.4 119 
 PAM  SZ I         912 44.25        24.0 0.20            168           46.4 119 
 OCA  HZ EP        912 27.78                             151    0.1510 81.6 340 
 OCA  HN ES        912 45.52                             151   -0.1510 81.6 340 
 OCA  HZ I         912 48.09        25.8 0.16            152           81.6 340 
 BRR  HZ EP        912 27.99                             150    0.3110 86.3 236 
 BRR  HN ES        912 46.43                             150    0.6710 86.3 236 
 BRR  HZ I         912 50.67        16.1 0.24            146           86.3 236 
 BAR2 SZ EP        912 29.43                             144    0.0810  106 187 
 BAR2 SZ ES        912 48.74                             144    0.0110  106 187 
 BAR2 SZ I         912 52.85        21.1 0.22            144            106 187 
 SML  HZ EP        912 34.47                             129   -0.60 9  178 321 
 SML  HN ES        912 58.39                             129   -0.52 9  178 321 
 SML  HZ I         913  3.49        26.2 0.10            130            178 321 
 RUS  HZ EP        912 36.48                             128    0.26 9  183 181 
 RUS  HN ES        913  0.31                             128   -0.65 9  183 181 
 RUS  HZ I         913  1.59         3.6 0.22            130            183 181 
 PTB  HZ EP        912 36.70                             127    0.44 9  190 234 
 PTB  HN ES        913  1.03                             127    0.01 9  190 234 
 PTB  HZ I         913  6.27        10.1 0.38            126            190 234 
 ZAR  HZ EP        912 36.95                             125   -0.11 9  198 268 
 ZAR  HN ES        913  2.73                             125    0.28 9  198 268 
 ZAR  HZ I         913 12.46         8.1 0.26            125            198 268 
 CHI  HZ EP        912 52.02                             112    0.16 7  331 193 
 CHI  HN ES        913 27.93                             112   -0.87 7  331 193 
 CHI  HZ I         913 39.55         2.0 0.46            113            331 193 
 GUY2CHZ EP        912 56.45                             110    1.02 6  361 225 
 GUY2CHN ES        913 34.04                             110   -1.11 6  361 225 
 GUY2CHZ I         913 46.74         3.6 0.38                           361 225 
                                                                                
