 2012  6 4 0453 36.3 L   6.834 -73.166138.0  RSN 13 0.5 2.7LRSN                1
 GAP=132        0.97       3.4     5.0  7.2 -0.4073E+01  0.1441E+02  0.2290E+01E
 Epicentro: LOS SANTOS - SANTANDER                                             3
 ACTION:UPD 12-08-06 17:47 OP:ep   STATUS:               ID:20120604045336 L   I
 2012-06-04-0450-00M.COL___201                                                 6
 STAT SP IPHASW D HRMM SECON CODA AMPLIT PERI AZIMU VELO AIN AR TRES W  DIS CAZ7
 BAR2 SZ EP        453 55.18                             168    0.1010 26.8 184 
 BAR2 SZ ES   1    454  9.39                             168   -0.34 7 26.8 184 
 BAR2 SZ I         454 11.07       209.8 0.27                          26.8 184 
 PAM  SZ EP        453 57.99                             150    0.3710 76.0  43 
 PAM  SN ES   1    454 15.05                             150    0.81 7 76.0  43 
 RUS  HZ EP        453 59.14                             141   -0.4610  105 175 
 RUS  HN ES   1    454 17.77                             141    0.00 7  105 175 
 RUS  HZ I         454 18.71        46.3 0.22                           105 175 
 PTB  HZ EP        454  1.78                             130   -0.74 9  146 257 
 PTB  HN ES   1    454 22.75                             130   -0.21 7  146 257 
 PTB  HZ I         454 25.13        61.9 0.13                           146 257 
 OCA  HZ EP   1    454  3.46                             128   -0.18 7  156 354 
 OCA  HN ES        454 24.61                             128   -0.35 9  156 354 
 OCA  HZ I         454 28.55       121.7 0.22                           156 354 
 ZAR  HZ EP   1    454  8.38                             121    0.49 6  201 291 
 ZAR  HZ I         454 40.00       118.0 0.29                           201 291 
 NOR  SZ EP   1    454 11.48                             117   -0.16 6  235 233 
 NOR  SN ES   1    454 39.39                             117    0.20 6  235 233 
 CHI  HZ EP   1    454 13.35                             115   -0.57 6  252 194 
 CHI  HN ES   1    454 44.20                             115    0.94 6  252 194 
 CHI  HZ I         454 48.76        19.4 0.27                           252 194 
 ROSC BE ES   1    454 43.12                             115   -0.71 6  255 210 
 ROSC BZ I         454 51.47        35.5 0.49                           255 210 
 HEL  HZ EP   1    454 16.79                             113    0.80 6  271 255 
 HEL  HE ES   1    454 47.53                             113    0.58 6  271 255 
 HEL  HZ I         454 56.16        32.5 0.27                           271 255 
 VIL  SZ EP   1    454 19.67                             110   -0.08 5  307 191 
 VIL  SZ I         454 55.98        10.1 0.45                           307 191 
 DBB  SZ EP   1    454 23.84                             108    0.66 5  337 274 
 PRA  HZ EP   1    454 29.70                             105   -0.12 4  394 209 
 PRA  HN ES   1    455 12.54                             105    0.97 4  394 209 
                                                                                
