 2015  2 4 0926 28.0 L   6.781 -73.180160.2  RSN  6 0.5 1.6LRSN                1
 GAP=186        1.35       7.2    13.7 13.3 -0.4910E+02 -0.6764E+02  0.2469E+02E
 Epicentro: LOS SANTOS - SANTANDER                                             3
 ACTION:UPD 15-04-30 21:21 OP:nd   STATUS:               ID:20150204092628 L   I
 OLDACT:UP  15-02-04 19:11 OP:stll STATUS:               ID:20150204091741d    3
 OLDACT:DUP 15-02-04 19:07 OP:stll STATUS:               ID:20150204091741d    3
 OLDACT:DUP 15-02-04 19:05 OP:stll STATUS:               ID:20150204091740d    3
 2015-02-04-0917-39M.COL___271                                                 6
 STAT SP IPHASW D HRMM SECON CODA AMPLIT PERI AZIMU VELO AIN AR TRES W  DIS CAZ7
 BAR2 EZ EP        926 48.46                             172   -0.8510 20.9 181 
 BAR2 EZ I         927  6.36         5.2 0.22            167           20.9 181 
 BRR  HN ES        927  8.27                             155    0.0410 69.0 302 
 PTB  HZ EP        926 56.03                             136    0.22 9  144 259 
 PTB  HN ES        927 16.76                             136   -0.75 9  144 259 
 PTB  HZ I         927 24.28         3.7 0.48            125            144 259 
 SPBC HZ EP        926 57.61                             133    0.34 9  159 218 
 SPBC HN ES        927 20.84                             133    0.74 9  159 218 
 SPBC HZ I         927 24.74         5.3 0.40            121            159 218 
 OCA  HN ES        927 21.29                             132    0.58 9  162 355 
 SML  HZ EP        927  5.32                             120   -0.18 8  244 336 
 SML  HZ I         927 38.34         5.4 0.10            107            244 336 
                                                                                
