 2016  6 4 0807 58.1 L   6.802 -73.117146.0  RSN  9 0.3 1.9LRSN                1
 GAP=140        0.73       2.5     3.4  4.2 -0.1938E+01  0.4418E+01  0.9947E+00E
 Epicentro: LOS SANTOS - SANTANDER                                             3
 ACTION:UPD 16-07-21 22:15 OP:rebc STATUS:               ID:20160604080758 L   I
 OLDACT:REG 16-06-04 13:16 OP:ak   STATUS:               ID:20160604075741     3
 2016-06-04-0757-41M.COL___313                                                 6
 STAT SP IPHASW D HRMM SECON CODA AMPLIT PERI AZIMU VELO AIN AR TRES W  DIS CAZ7
 BAR2 EZ EP        8 8 17.87                             170    0.1310 24.3 197 
 BAR2 EZ ES        8 8 33.21                             170    0.1210 24.3 197 
 BAR2 EZ I         8 8 35.78        15.2 0.34                          24.3 197 
 BRR  HZ EP        8 8 19.70                             152    0.3110 73.8 297 
 BRR  HE ES        8 8 36.40                             152    0.3810 73.8 297 
 BRR  HZ I         8 8 41.03        14.1 0.24                          73.8 297 
 PAM  EN ES        8 8 37.57                             152    0.1410 75.2  38 
 PAM  EZ I         8 8 40.15        17.8 0.46                          75.2  38 
 RUS  HZ EP        8 8 22.08                             144    0.2310  101 178 
 RUS  HE ES        8 8 39.97                             144   -0.4210  101 178 
 RUS  HZ I         8 8 41.69         4.5 0.26                           101 178 
 PTB  HZ EP        8 8 24.91                             131   -0.43 9  151 259 
 PTB  HN ES        8 8 46.19                             131   -0.41 9  151 259 
 PTB  HZ I         8 8 48.89         8.0 0.12                           151 259 
 OCA  HZ EP        8 8 26.22                             130   -0.19 9  160 352 
 OCA  HN ES        8 8 48.17                             130   -0.34 9  160 352 
 OCA  HZ I         8 8 52.81        15.6 0.44                           160 352 
 SPBC HZ EP        8 8 26.65                             129   -0.14 9  165 220 
 SPBC HN ES        8 8 49.09                             129   -0.10 9  165 220 
 SPBC HZ I         8 8 53.85        16.9 0.12                           165 220 
 HEL  HZ EP        8 8 38.81                             115    0.18 8  275 256 
 HEL  HE ES        8 9 10.66                             115    0.39 8  275 256 
 HEL  HZ I         8 9 16.19         3.2 0.32                           275 256 
 PRA  HZ EP        8 8 51.76                             106   -0.04 6  394 210 
 PRA  HN ES        8 9 34.23                             106    0.52 6  394 210 
 PRA  HZ I         8 9 39.49         4.5 0.32                           394 210 
                                                                                
