 2013  2 4 0935 52.8 L   6.809 -73.141154.6  RSN  9 0.4 1.8LRSN                1
 GAP=137        0.81       3.0     5.6  7.4  0.1753E+01  0.1054E+02  0.9162E-01E
 Epicentro: LOS SANTOS - SANTANDER                                             3
 ACTION:UPD 13-03-12 09:30 OP:ep   STATUS:               ID:20130204093552 L   I
 2013-02-04-0930-00M.COL___241                                                 6
 STAT SP IPHASW D HRMM SECON CODA AMPLIT PERI AZIMU VELO AIN AR TRES W  DIS CAZ7
 BAR2 SZ EP        936 13.55                             171    0.0510 24.4 191 
 BAR2 SZ I         936 30.13         7.9 0.40            167           24.4 191 
 BRR  HZ EP     D  936 15.42                             154    0.5210 71.2 298 
 BRR  HN ES   1    936 32.68                             154    0.53 7 71.2 298 
 BRR  HN I         936 36.13        20.5 0.18            150           71.2 298 
 PAM  SZ EP   1    936 16.31                             153    0.42 7 76.3  40 
 PAM  SN ES   1    936 33.51                             153   -0.40 7 76.3  40 
 PAM  SN I         936 33.89         6.2 0.42            155           76.3  40 
 RUS  HZ EP        936 17.43                             145   -0.0510  102 176 
 RUS  HE ES        936 36.81                             145    0.0710  102 176 
 RUS  HE I         936 39.05         4.3 0.14            143            102 176 
 PTB  HZ EP   1    936 20.47                             134   -0.08 7  148 259 
 PTB  HN ES   2    936 41.81                             134   -0.40 5  148 259 
 OCA  HN ES   2    936 44.07                             132   -0.21 5  159 353 
 SML  HZ EP   1    936 30.11                             119    0.26 6  243 335 
 SML  HN ES        936 58.02                             119   -0.75 8  243 335 
 SML  HN I         937  4.32        11.1 0.10            118            243 335 
 CHI  HZ EP   2    936 30.98                             119   -0.12 4  250 195 
 CHI  HE ES        937  0.38                             119   -0.61 8  250 195 
 CHI  HE I         937  6.38         2.9 0.42            117            250 195 
 HEL  HE ES   2    937  5.76                             116    0.42 4  273 256 
 HEL  HE I         937 14.19         4.1 0.48            114            273 256 
                                                                                
