 2013  6 4 0804 16.9 L   6.784 -73.131150.5  RSN  9 0.4 2.0LRSN                1
 GAP=184        0.86       4.3     6.7  7.0  0.2073E-01  0.9127E+01 -0.4270E+01E
 Epicentro: LOS SANTOS - SANTANDER                                             3
 ACTION:UPD 14-01-08 09:52 OP:ep   STATUS:               ID:20130604080416 L   I
 2013-06-04-0800-00M.COL___257                                                 6
 STAT SP IPHASW D HRMM SECON CODA AMPLIT PERI AZIMU VELO AIN AR TRES W  DIS CAZ7
 BAR2 SZ EP   1    8 4 37.28                             171    0.20 7 22.0 195 
 BAR2 SZ ES   1    8 4 52.49                             171   -0.32 7 22.0 195 
 BAR2 SZ I         8 4 53.82         7.3 0.48            163           22.0 195 
 BRR  HZ IP     C  8 4 39.17                             153    0.4810 73.4 299 
 BRR  HN ES        8 4 56.15                             153    0.4710 73.4 299 
 BRR  HN I         8 5  0.47        18.1 0.22            146           73.4 299 
 RUS  HN ES   2    8 4 59.15                             145   -0.63 5 98.7 177 
 PTB  HZ EP   1    8 4 43.95                             133   -0.42 7  149 260 
 PTB  HN ES   1    8 5  5.22                             133   -0.58 7  149 260 
 PTB  HN I         8 5 11.11         9.3 0.24            128            149 260 
 OCA  HN ES   1    8 5  8.48                             130    0.20 7  162 353 
 OCA  HN I         8 5 11.38        20.2 0.34            131            162 353 
 ZAR  HZ EP   1    8 4 49.69                             123   -0.19 6  206 292 
 ZAR  HN ES   1    8 5 15.87                             123    0.27 6  206 292 
 ZAR  HN I         8 5 17.04        13.4 0.14            121            206 292 
 NOR  HZ EP   1    8 4 53.38                             120    0.44 6  235 235 
 NOR  HN ES   2    8 5 21.13                             120    0.08 4  235 235 
 NOR  HN I         8 5 29.88         9.3 0.16            117            235 235 
 SML  HZ EP   1    8 4 53.88                             118   -0.16 6  246 335 
 SML  HE ES        8 5 22.24                             118   -0.77 8  246 335 
 SML  HE I         8 5 24.58        11.6 0.10            118            246 335 
 HEL  HZ EP   4    8 4 59.30                             116    1.81 0  273 256 
 HEL  HE ES   4    8 5 27.24                             116   -1.90 0  273 256 
 HEL  HN I         8 5 41.73         1.8 0.34            114            273 256 
                                                                                
