 2012  7 4 0720 24.2 L   6.658 -73.163151.0  RSN  4 0.1 1.1LRSN                1
 GAP=225        0.30       3.9     3.9  3.3  0.8149E+01  0.2462E+01  0.2518E+01E
 Epicentro: VILLANUEVA - SANTANDER                                             3
 ACTION:UPD 12-08-14 11:42 OP:ep   STATUS:               ID:20120704072024 L   I
 2012-07-04-0720-00M.COL___200                                                 6
 STAT SP IPHASW D HRMM SECON CODA AMPLIT PERI AZIMU VELO AIN AR TRES W  DIS CAZ7
 BAR2 SZ EP   1    720 44.37                             177     0.1 7    8 196 
 BAR2 SZ ES   1    720 59.91                             177     0.0 7    8 196 
 BRR  HZ EP   1    720 46.33                             151     0.0 7   78 309 
 BRR  HN ES   1    721  3.58                             151     0.0 7   78 309 
 BRR  HZ I         721  8.88         3.3 0.57            146             78 309 
 RUS  HZ EP   1    720 47.54                             149     0.1 7   85 174 
 RUS  HN ES   2    721  5.49                             149    -0.1 5   85 174 
 PTB  HZ EP   1    720 51.14                             134    -0.1 7  144 265 
 PTB  HN ES   2    721 12.47                             134     0.1 5  144 265 
 PTB  HZ I         721 18.15         1.0 0.25            131            144 265 
