 2014  9 4 0201 31.2 L   6.056 -73.725112.2  RSN  9 0.6 1.6LRSN                1
 GAP=116        1.39       5.5     5.3 10.7 -0.4921E+01  0.8424E+01 -0.1299E+01E
 Epicentro: VELEZ - SANTANDER                                                  3
 ACTION:UPD 14-10-03 23:02 OP:nd   STATUS:               ID:20140904020131 L   I
 OLDACT:REG 14-09-04 12:46 OP:mh   STATUS:               ID:20140904015817     3
 2014-09-04-0158-17M.COL___269                                                 6
 STAT SP IPHASW D HRMM SECON CODA AMPLIT PERI AZIMU VELO AIN AR TRES W  DIS CAZ7
 SPBC HZ EP        2 1 48.23                             150    0.1010 58.9 221 
 SPBC HN ES        2 2  1.93                             150    0.5710 58.9 221 
 SPBC HZ I         2 2  3.35        14.0 0.24            148           58.9 221 
 RUS  HZ EP        2 1 49.13                             145   -0.5210 73.4 104 
 RUS  HN ES   1    2 2  3.37                             145   -0.70 7 73.4 104 
 RUS  HZ I         2 2  5.44         6.7 0.14            147           73.4 104 
 BAR2 SZ EP        2 1 50.27                             140    0.1610 84.4  45 
 BAR2 SZ ES        2 2  4.99                             140    0.1010 84.4  45 
 PTB  HZ EP   1    2 1 49.92                             136   -0.90 7 96.9 303 
 PTB  HN ES        2 2  5.68                             136   -0.4710 96.9 303 
 PTB  HZ I         2 2  7.35        11.1 0.34            136           96.9 303 
 BRR  HZ EP   1    2 1 52.33                             130   -0.18 7  116   1 
 BRR  HN ES        2 2 10.08                             130    0.9110  116   1 
 BRR  HZ I         2 2 13.59         6.6 0.42            132            116   1 
 NOR  HN ES   1    2 2 12.45                             125   -0.57 7  138 247 
 NOR  HZ I         2 2 20.25         3.8 0.20            124            138 247 
 ZAR  HN ES   1    2 2 24.47                             114   -0.63 6  202 322 
 GUY2CHZ EP        2 2  3.22                             114    1.01 9  204 243 
 GUY2CHN ES   4    2 2 28.13                             114    1.70 0  204 243 
 GUY2CHZ I         2 2 31.99         2.5 0.64                           204 243 
 TOL  SN ES   4    2 2 34.90                             110    1.42 0  240 227 
 PRA  HZ EP   4    2 2 12.59                             106    1.09 0  289 206 
 PRA  HN ES   4    2 2 43.70                             106    0.73 0  289 206 
 PRA  HZ I         2 2 48.59         3.1 0.27            106            289 206 
                                                                                
