 2014  2 4 0504 55.3 L   6.762 -73.209155.4  RSN  4 0.3 1.0LRSN                1
 GAP=227        0.54       6.9     8.3  7.1  0.3875E+02 -0.7355E+01 -0.1153E+02E
 Epicentro: VILLANUEVA - SANTANDER                                             3
 ACTION:UPD 14-03-10 08:07 OP:ep   STATUS:               ID:20140204050455 L   I
 OLDACT:UP  14-02-04 11:41 OP:mh   STATUS:               ID:20140204050000     3
 OLDACT:REG 14-02-04 08:16 OP:mh   STATUS:               ID:20140204050000     3
 2014-02-04-0500-00M.COL___288                                                 6
 STAT SP IPHASW D HRMM SECON CODA AMPLIT PERI AZIMU VELO AIN AR TRES W  DIS CAZ7
 BRR  HZ EP   1    5 5 17.10                             155   -0.18 7 67.4 304 
 BRR  HN ES   2    5 5 34.74                             155    0.30 5 67.4 304 
 BRR  HZ I         5 5 45.75         2.4 0.32            141           67.4 304 
 RUS  HZ EP        5 5 19.99                             147    0.2310 97.2 172 
 RUS  HE ES        5 5 38.68                             147   -0.1710 97.2 172 
 RUS  HZ I         5 5 40.62         1.1 0.27            142           97.2 172 
 PTB  HZ EP   2    5 5 21.77                             136   -0.62 5  140 260 
 PTB  HN ES   2    5 5 43.75                             136    0.22 5  140 260 
 PTB  HZ I         5 5 50.58         2.2 0.06            124            140 260 
 CHI  HZ EP   2    5 5 33.20                             120    0.29 4  243 194 
 CHI  HZ I         5 5 48.97         0.4 0.32            114            243 194 
                                                                                
