 2013 10 4 0555 27.0 L   6.843 -73.151132.6  RSN  7 0.4 2.0LRSN                1
 GAP=245        0.92       5.2     4.9  6.9  0.7019E+01  0.1038E+02 -0.4687E+01E
 Epicentro: LOS SANTOS - SANTANDER                                             3
 ACTION:UPD 13-11-25 09:19 OP:ep   STATUS:               ID:20131004055527 L   I
 OLDACT:REG 13-10-04 10:05 OP:nd   STATUS:               ID:20131004054959     3
 2013-10-04-0549-59M.COL___273                                                 6
 STAT SP IPHASW D HRMM SECON CODA AMPLIT PERI AZIMU VELO AIN AR TRES W  DIS CAZ7
 BAR2 SZ EP        555 45.41                             168    0.2210 28.0 187 
 BAR2 SZ ES        555 59.66                             168    0.3010 28.0 187 
 BAR2 SZ I         556  1.33        26.7 0.26            164           28.0 187 
 RUS  HZ EP        555 49.78                             140   -0.1010  105 176 
 RUS  HN ES        556  7.46                             140   -0.2510  105 176 
 RUS  HZ I         556 10.00        13.9 0.30            140            105 176 
 PTB  HZ EP        555 52.45                             129   -0.54 9  148 257 
 PTB  HN ES        556 12.85                             129   -0.40 9  148 257 
 PTB  HZ I         556 15.67        19.2 0.10            128            148 257 
 SPBC HZ EP        555 54.41                             125   -0.47 9  167 218 
 SPBC HN ES        556 16.71                             125    0.09 9  167 218 
 SPBC HZ I         556 22.81        14.5 0.24            125            167 218 
 ZAR  HZ EP        555 58.70                             120    0.30 9  202 291 
 ZAR  HN ES        556 22.82                             120   -0.06 9  202 291 
 ZAR  HZ I         556 29.00         9.3 0.36            121            202 291 
 NOR  HZ EP        556  3.03                             115    0.75 8  237 233 
 NOR  HN ES        556 30.25                             115    0.46 8  237 233 
 NOR  HZ I         556 35.15         7.4 0.16            116            237 233 
 GUY2CHZ EP   4    556 10.48                             109    0.16 0  303 234 
 GUY2CHN ES   4    556 44.39                             109    0.29 0  303 234 
 GUY2CHZ I         556 51.70         3.7 0.52                           303 234 
                                                                                
