 2013 10 4 0535 35.2 L   6.780 -73.171146.9  RSN  4 0.2 1.3LRSN                1
 GAP=241        0.52       3.5     3.9  4.6  0.5490E+01  0.5239E+01 -0.2290E+01E
 Epicentro: LOS SANTOS - SANTANDER                                             3
 ACTION:UPD 13-11-25 09:19 OP:ep   STATUS:               ID:20131004053535 L   I
 OLDACT:REG 13-10-04 10:02 OP:nd   STATUS:               ID:20131004052959     3
 2013-10-04-0529-59M.COL___273                                                 6
 STAT SP IPHASW D HRMM SECON CODA AMPLIT PERI AZIMU VELO AIN AR TRES W  DIS CAZ7
 BAR2 SZ EP        535 54.77                             172   -0.1110 20.9 183 
 BAR2 SZ ES        536 10.52                             172    0.2610 20.9 183 
 BAR2 SZ I         536 11.69         7.7 0.42            170           20.9 183 
 RUS  HZ EP        535 58.93                             145    0.0410 98.7 174 
 RUS  HN ES        536 17.10                             145   -0.3010 98.7 174 
 RUS  HZ I         536 19.28         1.5 0.58            145           98.7 174 
 SPBC HZ EP        536  3.71                             130    0.28 9  160 219 
 SPBC HN ES        536 25.48                             130    0.01 9  160 219 
 SPBC HZ I         536 27.17         3.2 0.26            131            160 219 
 ZAR  HZ EP        536  7.44                             123   -0.06 9  202 293 
 ZAR  HN ES        536 32.60                             123   -0.12 9  202 293 
                                                                                
