 2017 11 4 0543 35.7 L   6.796 -73.187143.7  RSN  7 0.4 1.5LRSN                1
 GAP=132        1.15       4.9     4.9  8.2 -0.1217E+01  0.6261E+01  0.3856E+01E
 Epicentro: ZAPATOCA - SANTANDER                                               3
 ACTION:UPD 17-12-12 19:51 OP:rebc STATUS:               ID:20171104054335 L   I
 OLDACT:REG 17-11-04 13:49 OP:dnl  STATUS:               ID:20171104053736     3
 2017-11-04-0538-00M.COL___414                                                 6
 STAT SP IPHASW D HRMM SECON CODA AMPLIT PERI AZIMU VELO AIN AR TRES W  DIS CAZ7
 BAR2 EZ EP        543 54.93                             171   -0.1810 22.5 179 
 BAR2 EZ ES        544 10.04                             171   -0.1810 22.5 179 
 BAR2 EZ I         544 11.86         6.5 0.48            171           22.5 179 
 BRR  HZ EP        543 56.78                             153    0.3110 67.5 301 
 BRR  HE ES        544 13.67                             153    1.0510 67.5 301 
 BRR  HZ I         544 17.80         7.6 0.42            150           67.5 301 
 PAM  EZ EP        543 57.97                             149    0.0210 80.7  42 
 PAM  EE ES        544 14.86                             149   -0.4010 80.7  42 
 PAM  EZ I         544 17.14         9.4 0.50            153           80.7  42 
 RUS  HZ EP        543 59.14                             143   -0.1510  101 173 
 RUS  HN ES        544 17.69                             143    0.0310  101 173 
 RUS  HZ I         544 18.72         3.4 0.26            147            101 173 
 PTB  HZ EP   2    544  2.23                             132    0.10 5  143 259 
 PTB  HE ES        544 21.92                             132   -0.80 9  143 259 
 PTB  HZ I         544 28.32         2.1 0.42            132            143 259 
 SPBC HZ EP        544  4.28                             129    0.49 9  160 218 
 SPBC HN ES        544 25.76                             129    0.11 9  160 218 
 SPBC HZ I         544 30.63         5.3 0.22            130            160 218 
 ZAR  HZ EP   4    544  9.97                             122    2.33 0  200 293 
 ZAR  HE ES        544 32.07                             122   -0.45 9  200 293 
 ZAR  HZ I         544 39.88         2.7 0.38            123            200 293 
                                                                                
