 2011  6 4 0530  4.6 L   6.767 -73.104145.5  RSN  5 0.2 1.5LRSN                1
 GAP=143        0.60       3.5     6.6  6.3 -0.3486E+01 -0.8547E+01 -0.2009E+01E
 Epicentro: LOS SANTOS - SANTANDER                                             3
 ACTION:UP  11-07-14 19:03 OP:ep   STATUS:               ID:20110604053004 L   I
 2011-06-04-0527-22S.COL___132                                                 6
 STAT SP IPHASW D HRMM SECON CODA AMPLIT PERI AZIMU VELO SNR AR TRES W  DIS CAZ7
 BAR2 SZ EP   1    530 24.01                             171    -0.1 7   21 204 
 BAR2 SZ ES   1    530 38.96                             171    -0.4 7   21 204 
 BAR2 SZ I         530 41.82         9.8 0.22                            21 204 
 BRR  HZ EP   1    530 25.79                             151    -0.2 7   77 299 
 BRR  HN ES   1    530 43.01                             151     0.2 7   77 299 
 BRR  HZ I         530 47.47         7.5 0.12                            77 299 
 PAM  SZ EP   1    530 26.95                             151     0.2 7   78  35 
 PAM  SN ES   2    530 43.80                             151    -0.3 5   78  35 
 RUS  HZ EP   1    530 27.98                             145     0.0 7   97 179 
 RUS  HN ES   1    530 46.66                             145     0.4 7   97 179 
 RUS  HZ I         530 47.93         2.4 0.37                            97 179 
 GRA  SZ EP   1    530 29.85                             136    -0.1 7  128  15 
 GRA  SZ ES   1    530 50.05                             136     0.3 7  128  15 
 GRA  SZ I         530 50.76         3.5 0.45                           128  15 
                                                                                
