 2010  5 4 0126 46.4 L   6.773 -73.022141.2  RSN 13 0.4 2.7LRSN                1
 GAP=185        0.89       5.5     7.4  5.6 -0.2328E+02 -0.4474E+01  0.8306E+01E
 Epicentro: CEPITA - SANTANDER                                                 3
 ACTION:UP  10-08-24 10:02 OP:vdl  STATUS:               ID:20100504012646 L   I
 2010-05-04-0123-28S.COL___105                                                 6
 STAT SP IPHASW D HRMM SECON CODA AMPLIT PERI AZIMU VELO AIN AR TRES W  DIS CAZ7
 BAR2 SZ IP        127  5.71                             169     0.210   27 222 
 BAR2 SZ ES   1    127 20.12                             169    -0.3 7   27 222 
 GIR2 SZ EP        127  5.70                             164     0.010   39 331 
 GIR2 SZ ES   1    127 20.32                             164    -0.5 7   39 331 
 BRR  HZ IP     D  127  8.11                             148     0.310   85 296 
 BRR  HN ES        127 24.96                             148     0.310   85 296 
 BRR  HZ I         127 29.21       134.6 0.13                            85 296 
 BRI  SZ IP        127 10.19                             141     0.510  107  13 
 BRI  SZ ES   1    127 27.42                             141    -0.5 7  107  13 
 GUE  SZ EP   1    127 10.53                             138    -0.2 7  117   5 
 GUE  SZ ES   1    127 29.78                             138     0.1 7  117   5 
 GRA  SZ IP        127 11.43                             136     0.310  125  11 
 GRA  SZ ES   1    127 30.70                             136     0.2 7  125  11 
 OCA  SZ EP        127 14.07                             128    -0.7 9  165 349 
 OCA  SZ I         127 44.51        52.2 0.30                           165 349 
 CHI  HZ EP   2    127 24.03                             116     0.1 4  250 198 
 CHI  HZ I         127 56.59        17.2 0.25                           250 198 
 HEL  HZ EP   1    127 27.72                             113     0.0 6  285 257 
 HEL  HZ I         128  4.09        29.0 0.46                           285 257 
 RREF BZ EP   2    127 33.72                             110     0.4 3  330 231 
 RREF BZ I         128 16.00        20.1 0.38                           330 231 
 TOL  SZ EP   1    127 35.08                             108    -0.2 5  351 227 
 DBB  SZ EP   1    127 34.63                             108    -0.6 5  353 275 
 PRA  HZ EP   1    127 39.78                             106    -0.4 4  396 212 
 PRA  HZ I         128 30.64        13.4 0.32                           396 212 
                                                                                
