 2017  3 4 0021  9.3 L   6.771 -73.125142.0  RSN 20 0.4 2.4LRSN                1
 GAP= 97        0.85       2.6     2.2  3.9 -0.4765E+00  0.1333E+01  0.2405E+01E
 Epicentro: LOS SANTOS - SANTANDER                                             3
 ACTION:UPD 17-05-25 18:35 OP:jn   STATUS:               ID:20170304002109 L   I
 OLDACT:REG 17-03-04 12:11 OP:lv   STATUS:               ID:20170304001743     3
 2017-03-04-0018-00M.COL___397                                                 6
 STAT SP IPHASW D HRMM SECON CODA AMPLIT PERI AZIMU VELO AIN AR TRES W  DIS CAZ7
 BAR2 EZ EP        021 28.50                             171    0.0410 20.7 198 
 BAR2 EZ ES        021 43.22                             171   -0.1610 20.7 198 
 BRR  HZ EP        021 30.21                             151   -0.0810 74.7 300 
 BRR  HN ES        021 47.34                             151    0.7110 74.7 300 
 BRR  HZ I         021 49.88        51.0 0.13            150           74.7 300 
 PAM  EZ EP        021 31.37                             150    0.1510 78.5  37 
 PAM  EN ES        021 48.46                             150    0.1710 78.5  37 
 PAM  EZ I         021 51.51        27.3 0.29            154           78.5  37 
 RUS  HZ EP        021 32.38                             144   -0.1010 97.2 177 
 RUS  HN ES        021 50.37                             144   -0.1610 97.2 177 
 RUS  HZ I         021 52.53        34.8 0.24            144           97.2 177 
 PTB  HZ EP   4    021 34.95                             131   -1.20 0  149 260 
 PTB  HE ES        021 56.90                             131   -0.16 9  149 260 
 PTB  HZ I         021 58.80        25.7 0.14            130            149 260 
 TAM  HZ IP     D  021 36.85                             130    0.41 9  152 104 
 TAM  HN ES        021 57.42                             130   -0.16 9  152 104 
 TAM  HZ I         022  0.00        15.1 0.44            133            152 104 
 SPBC HZ EP        021 37.30                             128   -0.15 9  162 220 
 SPBC HN ES        021 58.80                             128   -0.58 9  162 220 
 SPBC HZ I         022  6.38        45.7 0.22            128            162 220 
 ZAR  HZ EP        021 41.58                             121   -0.30 8  207 293 
 ZAR  HN ES        022  6.81                             121   -0.46 8  207 293 
 ZAR  HZ I         022 11.65        36.7 0.24            122            207 293 
 NOR  HZ EP        021 44.50                             118   -0.35 8  235 235 
 NOR  HN ES        022 12.33                             118   -0.22 8  235 235 
 NOR  HZ I         022 15.30        17.5 0.26            118            235 235 
 CHI  HZ EP        021 46.68                             117    0.12 8  246 196 
 CHI  HN ES        022 16.01                             117    0.42 8  246 196 
 CHI  HZ I         022 21.33        13.8 0.26            117            246 196 
 ROSC BZ EP   9    021 48.66                             116    1.58 0  251 212 
 ROSC BN ES        022 18.43                                    0.33 8  251 212 
 ROSC BZ I         022 23.17        38.3 0.40            116            251 212 
 HEL  HZ EP        021 50.28                             114    0.76 8  273 257 
 HEL  HN ES        022 20.77                             114   -0.09 8  273 257 
 HEL  HZ I         022 28.75        12.2 0.36            114            273 257 
 URE  HZ EP   4    021 49.05                             113   -1.55 0  287 292 
 URE  HN ES   4    022 19.84                             113   -2.94 0  287 292 
 URE  HZ I         022 28.81        14.7 0.12            113            287 292 
 VIL  EZ EP        021 52.35                             112    0.07 7  301 192 
 VIL  EN ES        022 26.30                             112    0.53 7  301 192 
 VIL  EZ I         022 32.01        26.2 0.32            112            301 192 
 PTGC HZ EP        021 51.70                             111   -0.89 7  305 159 
 PTGC HN ES   4    022 22.57                             111   -3.76 0  305 159 
 PTGC HZ I         022 23.90        28.8 0.30            112            305 159 
 ELA  HZ EP   9    021 58.21                             110    2.22 0  329 230 
 ELA  HN ES        022 35.16                                    0.56 7  329 230 
 ELA  HZ I         022 41.16        11.6 0.62            110            329 230 
 CBOC HZ EP        021 56.26                             109    0.03 7  335 253 
 CBOC HN ES        022 33.01                             109    0.20 7  335 253 
 CBOC HZ I         022 41.60         4.7 0.51            110            335 253 
 DBB  EZ EP   4    021 55.57                             109   -1.38 0  342 275 
 DBB  EN ES   4    022 30.06                             109   -4.03 0  342 275 
 DBB  EZ I         022 33.82         6.6 0.37            109            342 275 
 ANIL HZ EP   9    022  0.31                             108    1.39 0  357 225 
 ANIL HN ES        022 39.62                                    0.64 6  357 225 
 ANIL HZ I         022 44.72        33.7 0.36            108            357 225 
 ORTC HZ EP        022  3.14                             106    0.16 6  394 217 
 ORTC HN ES        022 45.30                             106    0.47 6  394 217 
 ORTC HZ I         022 52.37         8.2 0.40            106            394 217 
                                                                                
