 2013 11 4 0545 56.1 L   6.816 -73.167145.4  RSN  9 0.6 1.4LRSN 2.3WRSN        1
 SPEC AVERAGE  MO 12.5 ST0.416 OM  1.2 f0 4.90 R0.4876 AL 0.00 WI 20.0 MW  2.3 3
 SPEC SD       MO  0.2 ST0.502 OM  0.7 f0 2.22 R0.2205 AL      WI      MW  0.1 3
 GAP=133        1.52       4.8     7.0 10.2 -0.7700E+01  0.1872E+02 -0.2338E+00E
 Epicentro: LOS SANTOS - SANTANDER                                             3
 SPEC BRR HH Z MO 12.6 ST  1.1 OM  0.7 f0 7.83 R0.2457 AL-0.00 WI 20.0 MW  2.3 3
 SPEC BRR HH Z T 54633 K 0.050 GD  160 VS 5.20 DE 3.20 Q0750.0 QA 1.50 VS 5.20 3
 SPEC RUS HH Z MO 12.2 ST0.087 OM  0.3 f0 4.39 R0.4383 AL-0.00 WI 20.0 MW  2.1 3
 SPEC RUS HH Z T 54636 K 0.050 GD  177 VS 5.20 DE 3.20 Q0750.0 QA 1.50 VS 5.20 3
 SPEC PTB HH Z MO 12.6 ST0.036 OM  0.6 f0 2.47 R0.7789 AL-0.00 WI 20.0 MW  2.3 3
 SPEC PTB HH Z T 54641 K 0.050 GD  206 VS 5.20 DE 3.20 Q0750.0 QA 1.50 VS 5.20 3
 OLDACT:REG 13-11-04 08:42 OP:stll STATUS:               ID:20131104053836     3
 ACTION:UPD 14-01-09 16:25 OP:ep   STATUS:               ID:20131104054556 L   I
 OLDACT:UP  13-11-04 11:48 OP:stll STATUS:               ID:20131104053836     3
 2013-11-04-0538-36M.COL___213                                                 6
 STAT SP IPHASW D HRMM SECON CODA AMPLIT PERI AZIMU VELO AIN AR TRES W  DIS CAZ7
 BAR2 SZ ES        546 30.75                             170   -0.2810 24.8 184 
 BAR2 SZ I         546 33.75        10.5 0.28            170           24.8 184 
 BRR  HZ EP        546 17.67                             153    0.6110 68.3 298 
 BRR  HN ES        546 34.81                             153    1.4110 68.3 298 
 BRR  HZ I         546 37.55         3.8 0.58            153           68.3 298 
 PAM  SZ EP        546 18.53                             151    0.2310 77.6  42 
 PAM  SN ES        546 34.81                             151   -0.8010 77.6  42 
 PAM  SZ I         546 37.25         3.8 0.24            156           77.6  42 
 RUS  HZ EP        546 20.35                             143    0.3910  102 175 
 RUS  HN ES        546 38.45                             143   -0.1210  102 175 
 RUS  HZ I         546 40.11         2.1 0.44            146            102 175 
 PTB  HZ EP        546 22.85                             132   -0.02 9  146 258 
 PTB  HN ES        546 43.28                             132   -0.46 9  146 258 
 PTB  HZ I         546 50.88         3.6 0.36            134            146 258 
 OCA  HN ES        546 46.14                             130    0.02 9  158 354 
 SPBC HZ EP        546 24.85                             129    0.28 9  163 218 
 SPBC HN ES        546 46.50                             129   -0.27 9  163 218 
 SPBC HZ I         546 49.63         5.5 0.80            131            163 218 
 NOR  HN ES        546 58.82                             118   -0.68 8  234 234 
 SML  HE ES        546 59.85                             118   -0.93 8  241 336 
                                                                                
