 2016  5 4 0628  7.8 L   6.515 -73.597104.0  RSN  7 0.5 1.3LRSN                1
 GAP= 93        1.11       3.8     4.1  7.8 -0.1495E+01  0.9495E+01  0.7383E-01E
 Epicentro: SANTA HELENA DEL OPON - SANTANDER                                  3
 ACTION:UPD 16-08-18 17:41 OP:cam  STATUS:               ID:20160504062807 L   I
 OLDACT:UP  16-05-04 14:38 OP:edw  STATUS:               ID:20160504061748     3
 OLDACT:REG 16-05-04 12:59 OP:edw  STATUS:               ID:20160504061748     3
 2016-05-04-0617-48M.COL___289                                                 6
 STAT SP IPHASW D HRMM SECON CODA AMPLIT PERI AZIMU VELO AIN AR TRES W  DIS CAZ7
 BAR2 EZ EP        628 23.24                             155   -0.1610 46.6  79 
 BAR2 EZ ES        628 35.97                             155    0.4110 46.6  79 
 BRR  HZ EP        628 24.09                             145   -0.2110 66.7 349 
 BRR  HN ES        628 37.26                             145    0.0810 66.7 349 
 BRR  HZ I         628 40.62         3.2 0.17            144           66.7 349 
 RUS  HZ EP        628 25.99                             137   -0.7610 89.3 140 
 RUS  HN ES        628 41.81                             137    0.2810 89.3 140 
 PTB  HZ EP        628 26.05                             135   -0.5410 95.1 272 
 PTB  HN ES        628 41.04                             135   -0.2110 95.1 272 
 PTB  HZ I         628 42.11         6.3 0.16            133           95.1 272 
 NOR  HZ EP        628 34.73                             116   -0.09 9  176 233 
 NOR  HN ES        628 56.72                             116    0.83 9  176 233 
 NOR  HZ I         628 59.78         2.0 0.38            117            176 233 
 ZAR  HZ EP   2    628 35.28                             116    0.46 4  176 308 
 ZAR  HE ES   4    628 58.59                             116    2.70 0  176 308 
 ZAR  HZ I         629  1.62         2.9 0.58            116            176 308 
 OCA  HZ EP   1    628 37.75                             114    0.88 7  193   9 
 OCA  HN ES        628 59.61                             114    0.07 9  193   9 
                                                                                
