 2016 11 4 0812  9.6 L   6.762 -73.147147.6  RSN  9 0.4 1.7LRSN                1
 GAP=138        0.96       3.4     3.9  5.5 -0.9086E+00  0.5220E+01  0.3189E+01E
 Epicentro: LOS SANTOS - SANTANDER                                             3
 ACTION:UPD 17-10-26 21:04 OP:lp   STATUS:               ID:20161104081209 L   I
 OLDACT:REG 16-11-04 13:14 OP:dani STATUS:               ID:20161104080745     3
 2016-11-04-0808-00M.COL___343                                                 6
 STAT SP IPHASW D HRMM SECON CODA AMPLIT PERI AZIMU VELO AIN AR TRES W  DIS CAZ7
 BAR2 EZ EP     D  812 29.15                             172   -0.1810 19.2 192 
 BAR2 EZ ES        812 44.68                             172   -0.0810 19.2 192 
 BAR2 EZ I         812 45.31        10.9 0.16            170           19.2 192 
 BRR  HZ EP     D  812 31.15                             152    0.1310 73.1 301 
 BRR  HN ES        812 48.58                             152    0.8310 73.1 301 
 BRR  HZ I         812 50.14        11.9 0.14            151           73.1 301 
 PAM  EZ EP        812 32.13                             150   -0.0410 80.8  38 
 PAM  EE ES        812 49.56                             150   -0.2510 80.8  38 
 PAM  EZ I         812 51.92        10.2 0.62            153           80.8  38 
 RUS  HZ EP        812 33.04                             145   -0.1510 96.4 176 
 RUS  HN ES        812 51.71                             145    0.0810 96.4 176 
 RUS  HZ I         812 52.69         7.9 0.30            145           96.4 176 
 PTB  HZ EP        812 35.87                             133   -0.72 9  147 260 
 PTB  HN ES        812 56.84                             133   -0.84 9  147 260 
 PTB  HZ I         812 58.17         6.3 0.44            131            147 260 
 SPBC HZ EP        812 38.21                             130    0.33 9  160 220 
 SPBC HN ES        813  0.11                             130    0.14 9  160 220 
 SPBC HZ I         813  2.48        10.9 0.44            129            160 220 
 ZAR  HZ EP        812 42.66                             123    0.39 8  206 293 
 ZAR  HN ES        813  7.73                             123   -0.06 8  206 293 
 ZAR  HZ I         813 15.89         7.3 0.12            122            206 293 
 NOR  HZ EP        812 45.34                             119    0.22 8  232 235 
 NOR  HN ES        813 12.98                             119    0.12 8  232 235 
 NOR  HZ I         813 20.79         5.2 0.24            119            232 235 
 CHI  HZ EP        812 47.14                             118    0.23 8  245 195 
 CHI  HN ES        813 16.10                             118    0.05 8  245 195 
 CHI  HZ I         813 25.72         1.0 0.26            118            245 195 
 LL6C HZ EP   4    812 35.51                             110   -20.3 0  329 358 
                                                                                
