 2014  2 4 0106 50.1 L   6.826 -73.185145.6  RSN  7 0.4 1.4LRSN                1
 GAP=130        0.67       3.6     4.0  8.1  0.7109E+00  0.8332E+01  0.2143E+00E
 Epicentro: ZAPATOCA - SANTANDER                                               3
 ACTION:UPD 14-03-10 08:07 OP:ep   STATUS:               ID:20140204010650 L   I
 OLDACT:UP  14-02-04 09:36 OP:mh   STATUS:               ID:20140204010001d    3
 OLDACT:DUP 14-02-04 09:31 OP:mh   STATUS:               ID:20140204010001d    3
 OLDACT:UP  14-02-04 09:30 OP:mh   STATUS:               ID:20140204010000     3
 OLDACT:UP  14-02-04 09:30 OP:mh   STATUS:               ID:20140204010000     3
 OLDACT:REG 14-02-04 07:59 OP:mh   STATUS:               ID:20140204010000     3
 2014-02-04-0100-00M.COL___288                                                 6
 STAT SP IPHASW D HRMM SECON CODA AMPLIT PERI AZIMU VELO AIN AR TRES W  DIS CAZ7
 PAM  SZ EP   1    1 7 12.32                             151    0.00 8 78.1  43 
 PAM  SN ES   2    1 7 29.76                             151    0.10 5 78.1  43 
 PAM  SZ I         1 7 32.72         5.1 0.20            158           78.1  43 
 RUS  HZ EP        1 7 13.91                             143   -0.1410  104 174 
 RUS  HE ES   1    1 7 32.79                             143    0.04 7  104 174 
 RUS  HZ I         1 7 33.68         2.5 0.16            148            104 174 
 PTB  HZ EP        1 7 16.62                             133   -0.08 9  144 257 
 PTB  HN ES   1    1 7 37.60                             133    0.14 7  144 257 
 PTB  HZ I         1 7 43.28         4.0 0.29            135            144 257 
 ZAR  HN ES   1    1 7 46.22                             123   -0.65 6  199 292 
 NOR  HZ EP   1    1 7 25.08                             119   -0.52 6  233 233 
 NOR  HN ES   1    1 7 53.75                             119    0.44 6  233 233 
 NOR  HZ I         1 7 59.80         1.9 0.20            122            233 233 
 SML  HE ES   1    1 7 54.87                             118    0.48 6  239 336 
 GUY2CHZ EP   1    1 7 34.25                             112    0.78 5  299 234 
 GUY2CHN ES   4    1 8 10.64                             112    3.32 0  299 234 
 GUY2CHZ I         1 8 16.63         1.4 0.36                           299 234 
                                                                                
