 2015  3 4 0437 29.6 L   6.797 -73.144146.9  RSN 15 0.4 1.7LRSN                1
 GAP=137        0.93       3.2     3.9  5.4 -0.3040E+01  0.6032E+01  0.1013E+01E
 Epicentro: LOS SANTOS - SANTANDER                                             3
 ACTION:UPD 15-04-30 16:22 OP:nd   STATUS:               ID:20150304043729 L   I
 OLDACT:REG 15-03-04 12:38 OP:spq  STATUS:               ID:20150304042747     3
 2015-03-04-0427-47M.COL___290                                                 6
 STAT SP IPHASW D HRMM SECON CODA AMPLIT PERI AZIMU VELO AIN AR TRES W  DIS CAZ7
 BAR2 EZ EP        437 49.07                             171   -0.3210 23.1 191 
 BAR2 EZ ES   1    438  4.57                             171   -0.23 7 23.1 191 
 BAR2 EZ I         438  5.66        10.5 0.46            170           23.1 191 
 BRR  HZ EP        437 51.05                             153    0.1310 71.5 299 
 BRR  HN ES        438  8.18                             153    0.6610 71.5 299 
 BRR  HZ I         438 11.84         5.5 0.21            150           71.5 299 
 PAM  SZ EP        437 52.14                             151    0.1710 77.5  39 
 PAM  SE ES        438  9.42                             151    0.0210 77.5  39 
 PAM  SZ I         438 11.18         7.3 0.50            154           77.5  39 
 RUS  HZ EP        437 53.16                             144   -0.3110  100 176 
 RUS  HE ES        438 12.39                             144    0.3310  100 176 
 RUS  HZ I         438 12.97         5.9 0.22            146            100 176 
 PTB  HZ EP        437 55.93                             132   -0.77 9  148 259 
 PTB  HN ES   1    438 17.00                             132   -0.81 7  148 259 
 PTB  HZ I         438 18.96         5.8 0.41            131            148 259 
 OCA  HN ES   4    438 18.69                             130   -1.54 0  161 353 
 OCA  HZ I         438 25.89         7.2 0.40            130            161 353 
 SPBC HZ EP        437 58.19                             129   -0.01 9  163 219 
 SPBC HN ES        438 20.23                             129   -0.26 9  163 219 
 SPBC HZ I         438 27.21         9.8 0.22            129            163 219 
 NOR  HZ EP   4    438  5.63                             119    0.21 0  235 235 
 NOR  HE ES        438 33.45                             119    0.11 8  235 235 
 NOR  HZ I         438 38.18         5.8 0.32            119            235 235 
 SML  HZ EP        438  6.22                             118   -0.14 8  244 335 
 SML  HE ES   1    438 34.93                             118   -0.08 6  244 335 
 SML  HZ I         438 40.10         5.0 0.10            118            244 335 
 CHI  HZ EP        438  7.62                             118    0.26 8  248 195 
 CHI  HE ES   1    438 36.62                             118   -0.17 6  248 195 
 CHI  HZ I         438 41.11         1.8 0.64            119            248 195 
 HEL  HN ES   1    438 41.80                             115    0.47 6  272 256 
 HEL  HZ I         438 50.31         2.5 0.34            115            272 256 
 GUY2CHZ EP   4    438 14.60                             113    1.31 0  301 235 
 GUY2CHE ES   1    438 48.15                             113    0.81 5  301 235 
 GUY2CHZ I         438 55.28         2.3 0.42                           301 235 
 CBOC HZ EP        438 17.52                             110    0.92 7  334 252 
 CBOC HN ES   1    438 52.72                             110   -0.52 5  334 252 
 CBOC HZ I         438 55.06         0.7 0.45            110            334 252 
 MON  HZ EP   4    438 16.78                             109   -1.94 0  354 308 
 MON  HN ES   4    438 55.20                             109   -1.80 0  354 308 
 MON  HZ I         438 59.90         0.9 0.27            109            354 308 
 PRA  HZ EP   1    438 23.27                             107    0.10 4  392 210 
 PRA  HN ES   4    439  7.38                             107    2.45 0  392 210 
 PRA  HZ I         439 11.93         2.1 0.24            107            392 210 
                                                                                
