 2012  9 4 0308 50.6 L   6.753 -73.141147.0  RSN  5 0.3 1.5LRSN                1
 GAP=185        0.66       5.7     6.1  6.8  0.6169E+01  0.1004E+02  0.5557E+00E
 Epicentro: LOS SANTOS - SANTANDER                                             3
 ACTION:UPD 12-10-22 14:17 OP:ep   STATUS:               ID:20120904030850 L   I
 2012-09-04-0307-35M.COL___201                                                 6
 STAT SP IPHASW D HRMM SECON CODA AMPLIT PERI AZIMU VELO AIN AR TRES W  DIS CAZ7
 BAR2 SZ EP   1    3 9 10.42                             173    0.11 7 18.3 194 
 BAR2 SZ ES   1    3 9 25.07                             173   -0.59 7 18.3 194 
 BAR2 SZ I         3 9 27.42        11.6 0.29                          18.3 194 
 GIR2 SZ EP   1    3 9 10.57                             165   -0.02 7 36.5 351 
 GIR2 SZ ES   1    3 9 26.08                             165   -0.08 7 36.5 351 
 BRR  HZ EP   1    3 9 12.31                             152    0.23 7 74.2 302 
 BRR  HZ I         3 9 12.81        13.1 0.10                          74.2 302 
 BRR  HN ES   1    3 9 29.21                             152    0.40 7 74.2 302 
 RUS  HN ES   1    3 9 32.82                             145    0.36 7 95.3 176 
 RUS  HZ I         3 9 33.64         2.3 0.26                          95.3 176 
 PTB  HZ EP   1    3 9 17.20                             132   -0.45 7  147 261 
 PTB  HN ES   1    3 9 38.72                             132   -0.01 7  147 261 
 PTB  HN I         3 9 40.15         3.5 0.20                           147 261 
                                                                                
