 2013  4 4 0245 10.8 L   6.677 -73.213142.4  RSN  6 0.4 1.3LRSN                1
 GAP=157        0.72       6.0     6.3  7.8  0.1983E+02  0.2259E+02  0.1367E+02E
 Epicentro: BARICHARA - SANTANDER                                              3
 ACTION:UPD 13-05-22 14:35 OP:EP   STATUS:               ID:20130404024510 L   I
 2013-04-04-0240-00M.COL___245                                                 6
 STAT SP IPHASW D HRMM SECON CODA AMPLIT PERI AZIMU VELO AIN AR TRES W  DIS CAZ7
 BAR2 SZ ES   1    245 44.73                             176    0.07 7 9.96 160 
 BAR2 SZ I         245 45.52         8.6 0.24            175           9.96 160 
 GIR2 SZ ES   1    245 45.50                             162   -0.37 7 44.5   3 
 BRR  HZ EP   1    245 31.50                             151   -0.17 7 72.8 311 
 BRR  HN ES   1    245 48.33                             151    0.37 7 72.8 311 
 BRR  HZ I         245 50.63         2.9 0.30            153           72.8 311 
 RUS  HZ EP   1    245 33.90                             147    0.58 7 87.9 171 
 RUS  HN ES   1    245 50.79                             147   -0.11 7 87.9 171 
 RUS  HZ I         245 53.18         3.0 0.32            148           87.9 171 
 PTB  HZ EP   1    245 36.07                             133   -0.57 7  138 264 
 PTB  HN ES   1    245 56.62                             133   -0.17 7  138 264 
 PTB  HZ I         245 58.17         2.6 0.13            134            138 264 
 ZAR  HE ES   1    246  8.33                             122    0.39 6  203 296 
                                                                                
