 2010 11 4 0945 39.6 L   6.519 -73.547110.2  RSN  9 0.4 1.8LRSN                1
 GAP= 91        0.82       3.7     4.1  6.8 -0.1062E+01  0.1030E+02 -0.5663E+00E
 Epicentro: EL CARMEN DE CHUCURI - SANTANDER                                   3
 ACTION:UP  10-12-17 16:50 OP:REBC STATUS:               ID:20101104094539 L   I
 2010-11-04-0942-33S.COL___128                                                 6
 STAT SP IPHASW D HRMM SECON CODA AMPLIT PERI AZIMU VELO SNR AR TRES W  DIS CAZ7
 BAR2 SZ EP        945 55.80                             158     0.210   41  79 
 BAR2 SZ ES   1    946  8.30                             158     0.2 7   41  79 
 BAR2 SZ I         946  9.38        67.4 0.39                            41  79 
 BRR  HZ EP        945 56.69                             146    -0.110   68 344 
 BRR  HN ES   1    946 10.48                             146     0.3 7   68 344 
 BRR  HZ I         946 16.42        14.8 0.23                            68 344 
 RUS  HZ EP   1    945 58.91                             140     0.0 7   86 143 
 RUS  HE ES   1    946 13.69                             140    -0.2 7   86 143 
 RUS  HZ I         946 15.88         8.1 0.28                            86 143 
 GRA  SZ EP   1    946  6.92                             118     0.2 7  172  28 
 GRA  SZ ES   2    946 27.02                             118    -0.8 4  172  28 
 GRA  SZ I         946 31.16         7.8 0.56                           172  28 
 YOP  SZ EP   2    946  7.86                             117     0.4 4  179 136 
 YOP  SN ES   2    946 28.53                             117    -0.6 4  179 136 
 NOR  SZ EP   1    946  7.63                             117     0.1 7  181 234 
 NOR  SN ES   1    946 28.79                             117    -0.5 7  181 234 
 OCA  SZ EP   1    946  8.48                             115    -0.4 7  192   8 
 OCA  SZ I         946 38.03         7.1 0.23                           192   8 
 HEL  HZ EP   1    946 13.49                             111     1.0 6  222 261 
 HEL  HE ES   2    946 37.57                             111    -0.6 4  222 261 
 HEL  HZ I         946 44.03         4.4 0.22                           222 261 
 MON  HZ EP   2    946 25.25                             102    -0.8 3  341 317 
                                                                                
