 2014  1 4 0806 25.0 L   6.818 -73.161137.7  RSN  8 0.6 1.4LRSN                1
 GAP=134        1.43       4.0     7.2  9.2 -0.5499E+01  0.2207E+02 -0.1777E+01E
 Epicentro: LOS SANTOS - SANTANDER                                             3
 ACTION:UPD 14-03-13 09:51 OP:ep   STATUS:               ID:20140104080625 L   I
 OLDACT:DUP 14-01-04 14:47 OP:stll STATUS:               ID:20140104075808d    3
 2014-01-04-0758-06M.COL___231                                                 6
 STAT SP IPHASW D HRMM SECON CODA AMPLIT PERI AZIMU VELO AIN AR TRES W  DIS CAZ7
 BAR2 SZ EP        8 6 43.35                             169   -0.3110 25.1 185 
 BAR2 SZ ES        8 6 57.99                             169   -0.2610 25.1 185 
 BAR2 SZ I         8 6 59.65         7.2 0.48            169           25.1 185 
 PAM  SZ EP        8 6 46.80                             149    0.5010 76.9  41 
 PAM  SN ES        8 7  3.32                             149    0.3810 76.9  41 
 PAM  SZ I         8 7  5.61         8.1 0.60            152           76.9  41 
 RUS  HZ EP        8 6 48.83                             141    0.7410  103 175 
 RUS  HN ES        8 7  5.79                             141   -0.3410  103 175 
 RUS  HZ I         8 7  7.91         2.8 0.40            143            103 175 
 PTB  HZ EP        8 6 52.19                             130    1.02 9  147 258 
 PTB  HN ES        8 7 12.45                             130    0.84 9  147 258 
 PTB  HZ I         8 7 13.64         3.1 0.12            130            147 258 
 OCA  HN ES        8 7 13.53                             128   -0.35 9  158 354 
 SPBC HZ EP        8 6 52.51                             127   -0.40 9  164 218 
 SPBC HN ES        8 7 14.04                             127   -0.67 9  164 218 
 SPBC HZ I         8 7 22.34         3.2 0.38            128            164 218 
 SML  HZ EP        8 7  0.05                             116   -0.82 8  241 335 
 SML  HN ES        8 7 28.29                             116   -0.59 8  241 335 
 SML  HZ I         8 7 35.93         4.0 0.26            117            241 335 
 CHI  HZ EP        8 7  2.54                             115    0.15 8  250 195 
 CHI  HN ES        8 7 31.02                             115   -0.57 8  250 195 
 CHI  HZ I         8 7 35.51         1.0 0.46            116            250 195 
                                                                                
