 2016  5 4 0920 15.1 L   6.379 -73.680106.4  RSN 14 0.4 1.7LRSN                1
 GAP= 62        1.00       2.3     2.4  5.4 -0.7925E+00  0.3704E+01 -0.1195E+01E
 Epicentro: SANTA HELENA DEL OPON - SANTANDER                                  3
 ACTION:UPD 16-08-18 17:41 OP:cam  STATUS:               ID:20160504092015 L   I
 OLDACT:REG 16-05-04 13:41 OP:edw  STATUS:               ID:20160504091746     3
 2016-05-04-0917-46M.COL___288                                                 6
 STAT SP IPHASW D HRMM SECON CODA AMPLIT PERI AZIMU VELO AIN AR TRES W  DIS CAZ7
 BAR2 EZ IP     C  920 31.94                             148    0.2010 59.9  67 
 BAR2 EZ ES        920 45.20                             148    0.4910 59.9  67 
 BAR2 EZ I         920 47.14        18.5 0.26            151           59.9  67 
 BRR  HZ IP     C  920 32.96                             140    0.0810 80.5 358 
 BRR  HN ES        920 46.84                             140    0.1010 80.5 358 
 BRR  HZ I         920 48.05        10.9 0.12            141           80.5 358 
 RUS  HZ IP     C  920 33.89                             139   -0.0510 85.2 129 
 RUS  HE ES        920 48.04                             139   -0.5810 85.2 129 
 RUS  HZ I         920 49.84         7.9 0.30            141           85.2 129 
 PTB  HZ EP        920 33.02                             137   -0.4510 87.6 282 
 PTB  HN ES        920 47.16                             137   -0.6410 87.6 282 
 PTB  HZ I         920 49.78                             137           87.6 282 
 SPBC HZ EP        920 34.15                             136    0.2610 91.4 208 
 SPBC HN ES        920 48.49                             136   -0.0510 91.4 208 
 SPBC HZ I         920 51.33        23.2 0.42            137           91.4 208 
 PAM  EZ EP        920 40.06                             121   -0.17 9  152  46 
 PAM  EN ES        921  0.03                             121    0.21 9  152  46 
 PAM  EZ I         921  4.83         7.5 0.58            123            152  46 
 NOR  HZ EP        920 40.31                             119   -0.19 9  160 236 
 NOR  HN ES        921  0.31                             119    0.01 9  160 236 
 NOR  HZ I         921  5.30         6.4 0.29            120            160 236 
 ZAR  HZ EP        920 42.98                             116    0.42 9  179 313 
 ZAR  HN ES        921  4.52                             116    0.55 9  179 313 
 ZAR  HZ I         921  9.26         8.9 0.32            116            179 313 
 CHI  HZ EP        920 44.31                             114   -0.37 9  194 182 
 CHI  HN ES        921  8.30                             114    0.56 9  194 182 
 CHI  HZ I         921 13.17         2.0 0.20            115            194 182 
 HEL  HZ EP   2    920 47.06                             112    1.09 4  206 264 
 HEL  HE ES        921 10.14                             112    0.10 8  206 264 
 HEL  HZ I         921 14.32         6.2 0.22            113            206 264 
 OCA  HZ EP        920 45.92                             111   -0.21 8  209  11 
 OCA  HN ES        921 10.40                             111    0.07 8  209  11 
 URE  HZ EP        920 50.68                             107   -0.50 8  255 307 
 URE  HE ES        921 18.48                             107   -0.84 8  255 307 
 URE  HZ I         921 26.19         3.9 0.34            108            255 307 
 CBOC HZ EP   4    920 54.27                             106    1.77 0  264 258 
 CBOC HE ES        921 22.54                             106    0.88 8  264 258 
 CBOC HZ I         921 26.63         1.9 0.24            107            264 258 
 MACC HZ EP   2    921 16.18                              95   -0.63 2  469 182 
 MACC HE ES   4    922  1.94                              95   -2.99 0  469 182 
                                                                                
