 2013  4 4 0311  4.6 L   6.794 -73.163145.2  RSN  6 0.2 1.2LRSN                1
 GAP=181        0.55       4.4     4.2  4.7  0.7831E+01  0.5015E+01  0.1318E+01E
 Epicentro: LOS SANTOS - SANTANDER                                             3
 ACTION:UPD 13-05-22 14:35 OP:EP   STATUS:               ID:20130404031104 L   I
 2013-04-04-0310-00M.COL___245                                                 6
 STAT SP IPHASW D HRMM SECON CODA AMPLIT PERI AZIMU VELO AIN AR TRES W  DIS CAZ7
 BAR2 SZ EP   1    311 23.92                             171   -0.25 7 22.4 186 
 BAR2 SZ ES        311 39.29                             171   -0.1210 22.4 186 
 BAR2 SZ I         311 40.17         7.0 0.22            172           22.4 186 
 GIR2 SZ EP   1    311 23.88                             167   -0.36 7 31.7 354 
 GIR2 SZ ES   1    311 39.60                             167    0.06 7 31.7 354 
 GIR2 SZ I         311 43.03         4.5 0.42            167           31.7 354 
 BRR  HZ EP     D  311 25.80                             153    0.1610 69.9 300 
 BRR  HN ES   1    311 42.37                             153    0.34 7 69.9 300 
 BRR  HZ I         311 43.71         2.5 0.47            154           69.9 300 
 RUS  HZ EP   1    311 28.80                             144    0.52 7  100 175 
 RUS  HN ES   1    311 46.69                             144   -0.05 7  100 175 
 RUS  HZ I         311 48.35         1.5 0.44            146            100 175 
 PTB  HZ EP   1    311 31.16                             132   -0.21 7  146 259 
 PTB  HN ES   1    311 52.08                             132   -0.14 7  146 259 
 PTB  HZ I         311 53.87         1.5 0.14            135            146 259 
 ZAR  HN ES   1    312  2.02                             122   -0.02 6  203 293 
                                                                                
