 2017  3 4 0846  8.4 L   6.743 -73.125146.7  RSN 10 0.5 1.5LRSN                1
 GAP=123        1.18       4.3     4.6  6.5  0.4216E+01  0.4277E+01  0.4224E+01E
 Epicentro: LOS SANTOS - SANTANDER                                             3
 ACTION:UPD 17-05-25 18:36 OP:jn   STATUS:               ID:20170304084608 L   I
 OLDACT:UP  17-03-04 17:56 OP:and  STATUS:               ID:20170304083749d    3
 OLDACT:UP  17-03-04 17:54 OP:and  STATUS:               ID:20170304083749d    3
 OLDACT:UP  17-03-04 17:54 OP:and  STATUS:               ID:20170304083749d    3
 OLDACT:UP  17-03-04 17:53 OP:and  STATUS:               ID:20170304083749d    3
 OLDACT:UP  17-03-04 17:52 OP:and  STATUS:               ID:20170304083749d    3
 OLDACT:UP  17-03-04 17:52 OP:and  STATUS:               ID:20170304083749d    3
 OLDACT:UP  17-03-04 17:52 OP:and  STATUS:               ID:20170304083749d    3
 OLDACT:DUP 17-03-04 17:49 OP:and  STATUS:               ID:20170304083749d    3
 OLDACT:UP  17-03-04 17:47 OP:and  STATUS:               ID:20170304083747     3
 OLDACT:UP  17-03-04 17:46 OP:and  STATUS:               ID:20170304083747     3
 OLDACT:UP  17-03-04 17:44 OP:and  STATUS:               ID:20170304083747     3
 OLDACT:UP  17-03-04 17:44 OP:and  STATUS:               ID:20170304083747     3
 OLDACT:UP  17-03-04 17:44 OP:and  STATUS:               ID:20170304083747     3
 OLDACT:UP  17-03-04 17:43 OP:and  STATUS:               ID:20170304083747     3
 OLDACT:UP  17-03-04 17:42 OP:and  STATUS:               ID:20170304083747     3
 OLDACT:UP  17-03-04 17:42 OP:and  STATUS:               ID:20170304083747     3
 OLDACT:UP  17-03-04 17:39 OP:and  STATUS:               ID:20170304083747     3
 OLDACT:REG 17-03-04 12:37 OP:lv   STATUS:               ID:20170304083747     3
 2017-03-04-0838-00M.COL___391                                                 6
 STAT SP IPHASW D HRMM SECON CODA AMPLIT PERI AZIMU VELO AIN AR TRES W  DIS CAZ7
 BAR2 EZ EP     C  846 28.11                             173    0.0710 17.8 201 
 BAR2 EZ ES        846 43.19                             173   -0.1810 17.8 201 
 BAR2 EZ I         846 44.23         6.7 0.18            170           17.8 201 
 BRR  HZ EP        846 30.27                             151    0.3210 76.3 302 
 BRR  HN ES        846 46.92                             151    0.1710 76.3 302 
 PAM  EZ EP        846 31.15                             150    0.2210 81.0  35 
 PAM  EN ES        846 48.17                             150   -0.3410 81.0  35 
 PAM  EZ I         846 51.20         4.8 0.58            151           81.0  35 
 RUS  HZ EP        846 32.13                             146    0.3410 94.2 177 
 RUS  HN ES        846 50.39                             146    0.3510 94.2 177 
 RUS  HZ I         846 51.27         3.6 0.25            143           94.2 177 
 PTB  HZ EP        846 35.33                             132   -0.22 9  149 261 
 PTB  HN ES        846 55.71                             132   -1.02 9  149 261 
 PTB  HZ I         846 56.28         2.6 0.18            132            149 261 
 SPBC HZ EP        846 37.41                             130    0.76 9  160 221 
 SPBC HN ES        846 58.93                             130    0.24 9  160 221 
 SPBC HZ I         847  4.59         2.8 0.17            129            160 221 
 ZAR  HZ EP        846 41.98                             122    0.61 8  209 294 
 ZAR  HE ES        847  7.24                             122    0.14 8  209 294 
 ZAR  HZ I         847  9.28         2.4 0.20            123            209 294 
 URE  HZ EP        846 49.20                             113   -0.82 7  288 293 
 URE  HN ES   4    847 20.76                             113   -1.72 0  288 293 
 URE  HZ I         847 21.94         1.5 0.12            114            288 293 
 PTGC HZ EP        846 50.67                             112   -0.87 7  302 159 
 PTGC HN ES        847 24.46                             112   -0.73 7  302 159 
 PTGC HZ I         847 36.08         5.3 0.38            111            302 159 
 SJC  HZ EP   9    847  3.06                             105   -1.70 0  416 327 
 SJC  HN ES        847 46.50                             105   -0.52 5  416 327 
                                                                                
