 2010  6 4 0622 53.1 L   6.817 -73.045140.6  RSN  8 0.4 2.5LRSN                1
 GAP=162        0.92       5.4     7.9  7.8 -0.2959E+02 -0.2309E+01  0.1957E+01E
 Epicentro: LOS SANTOS - SANTANDER                                             3
 ACTION:UP  10-08-24 10:08 OP:vdl  STATUS:               ID:20100604062253 L   I
 2010-06-04-0620-12S.COL___109                                                 6
 STAT SP IPHASW D HRMM SECON CODA AMPLIT PERI AZIMU VELO SNR AR TRES W  DIS CAZ7
 BAR2 SZ EP   1    623 12.00                             168    -0.2 8   29 212 
 BAR2 SZ ES   1    623 26.74                             168    -0.4 8   29 212 
 GUE  SZ EP        623 16.88                             139    -0.210  113   7 
 GRA  SZ IP        623 17.83                             137     0.310  121  13 
 GRA  SZ ES   1    623 37.49                             137     1.0 7  121  13 
 OCA  SZ IP        623 20.50                             128    -0.5 9  160 349 
 OCA  SZ ES   1    623 42.66                             128    -0.1 7  160 349 
 OCA  SZ I         623 45.67        57.5 0.17                           160 349 
 ROSC BZ EP   2    623 31.99                             115     0.2 4  260 213 
 ROSC BN ES   1    624  1.96                             115     0.0 6  260 213 
 ROSC BZ I         624 11.55        12.6 0.41                           260 213 
 HEL  HZ EP   1    623 33.93                             113    -0.4 6  283 256 
 HEL  HZ I         624 12.12        16.0 0.39                           283 256 
 RREF BZ EP   2    623 40.47                             109     0.3 3  331 230 
 RREF BE ES   1    624 17.37                             109     0.6 5  331 230 
 RREF BZ I         624 25.99        15.2 0.32                           331 230 
 SDV  BZ IP     C  623 42.09                             108     0.3 7  351  49 
 SDV  BN ES   1    624 19.64                             108    -0.2 5  351  49 
 SDV  BZ I         624 23.27         6.5 0.60                           351  49 
                                                                                
