 2011  7 4 0012  9.0 L   6.801 -73.115143.5  RSN  9 0.3 1.7LRSN                1
 GAP=140        0.68       3.0     5.7  5.5 -0.4996E+01  0.4134E+01 -0.9317E+00E
 Epicentro: LOS SANTOS - SANTANDER                                             3
 ACTION:UPD 12-07-25 13:58 OP:epov STATUS:               ID:20110704001209 L   I
 2011-07-04-0006-39S.COL___140                                                 6
 STAT SP IPHASW D HRMM SECON CODA AMPLIT PERI AZIMU VELO AIN AR TRES W  DIS CAZ7
 BTL  SZ EP   1    012 28.63                             171    0.35 7 21.3 308 
 BAR2 SZ EP   1    012 27.64                             170   -0.70 7 24.2 198 
 BAR2 SZ ES   1    012 43.20                             170   -0.25 7 24.2 198 
 BAR2 SZ I         012 44.47        17.4 0.20                          24.2 198 
 BRR  HZ EP        012 30.21                             151    0.1710 74.1 297 
 BRR  HN ES   1    012 46.79                             151    0.32 7 74.1 297 
 BRR  HZ I         012 47.93        14.3 0.17                          74.1 297 
 PAM  SZ EP   1    012 30.88                             151    0.07 7 75.2  38 
 PAM  SZ I         012 31.49         5.8 0.18                          75.2  38 
 PAM  SE ES   1    012 47.94                             151    0.09 7 75.2  38 
 RUS  HZ EP   1    012 32.26                             143   -0.23 7  101 178 
 RUS  HE ES   1    012 50.98                             143    0.15 7  101 178 
 RUS  HZ I         012 51.95         5.2 0.22                           101 178 
 BRI  SZ EP   1    012 32.77                             141    0.22 7  107  19 
 BRI  SZ ES   1    012 50.87                             141   -0.06 7  107  19 
 BRI  SZ I         012 56.37         8.6 0.36                           107  19 
 GRA  SZ EP   1    012 34.15                             137    0.23 7  125  16 
 GRA  SZ ES        012 53.56                             137    0.1810  125  16 
 GRA  SZ I         012 54.71         7.3 0.28                           125  16 
 OCA  SZ EP   1    012 37.02                             129   -0.11 7  161 352 
 OCA  SZ ES   1    012 58.26                             129   -0.84 7  161 352 
 OCA  SZ I         013  2.06         9.7 0.26                           161 352 
 HEL  HZ EP   2    012 49.55                             114    0.12 4  275 256 
 HEL  HZ I         013 26.56         4.2 0.32                           275 256 
                                                                                
