 2012  6 4 0658  9.4 L   6.773 -73.153143.2  RSN  5 0.4 1.5LRSN                1
 GAP=137        0.86       5.9     5.1  8.7 -0.2373E+01  0.1446E+02 -0.1107E+02E
 Epicentro: LOS SANTOS - SANTANDER                                             3
 ACTION:UPD 12-08-06 17:47 OP:ep   STATUS:               ID:20120604065809 L   I
 2012-06-04-0650-00M.COL___201                                                 6
 STAT SP IPHASW D HRMM SECON CODA AMPLIT PERI AZIMU VELO AIN AR TRES W  DIS CAZ7
 BAR2 SZ EP   1    658 28.52                             171   -0.09 7 20.2 189 
 BAR2 SZ ES   1    658 44.02                             171    0.39 7 20.2 189 
 BAR2 SZ I         658 44.62         8.1 0.27                          20.2 189 
 PAM  SZ EP        658 31.48                             149    0.0110 80.2  39 
 PAM  SN ES   1    658 48.39                             149   -0.33 7 80.2  39 
 RUS  HZ EP   1    658 32.39                             144   -0.25 7 97.7 175 
 RUS  HN ES   1    658 51.12                             144    0.32 7 97.7 175 
 RUS  HZ I         658 51.95         2.6 0.31                          97.7 175 
 PTB  HZ EP   1    658 35.43                             132   -0.55 7  146 260 
 PTB  HN ES   1    658 56.30                             132   -0.45 7  146 260 
 PTB  HZ I         659  0.67         3.6 0.17                           146 260 
 ZAR  HZ EP   1    658 42.79                             122    1.12 6  204 293 
 ZAR  HN ES   1    659  6.89                             122    0.02 6  204 293 
 ZAR  HZ I         659  9.62         5.0 0.26                           204 293 
                                                                                
