 2012  9 4 0116 46.8 L   6.765 -73.170149.2  RSN  6 0.2 1.6LRSN                1
 GAP=179        0.52       4.9     5.7  5.1  0.1714E+02  0.9490E+01  0.5631E+01E
 Epicentro: LOS SANTOS - SANTANDER                                             3
 ACTION:UPD 12-10-22 14:17 OP:ep   STATUS:               ID:20120904011646 L   I
 2012-09-04-0110-00M.COL___218                                                 6
 STAT SP IPHASW D HRMM SECON CODA AMPLIT PERI AZIMU VELO AIN AR TRES W  DIS CAZ7
 BAR2 SZ EP   1    117  6.89                             172    0.08 7 19.1 184 
 BAR2 SZ ES   1    117 22.31                             172   -0.07 7 19.1 184 
 BAR2 SZ I         117 23.23        16.0 0.29                          19.1 184 
 GIR2 SZ EP   1    117  6.84                             166   -0.18 7 34.8 356 
 GIR2 SZ ES   1    117 22.46                             166   -0.30 7 34.8 356 
 BRR  HZ EP   1    117  8.57                             153    0.23 7 70.9 302 
 BRR  HZ I         117  8.94        13.7 0.15                          70.9 302 
 BRR  HE ES   1    117 25.55                             153    0.43 7 70.9 302 
 RUS  HZ EP   1    117 10.94                             145    0.27 7 96.9 174 
 RUS  HZ I         117 12.24         3.0 0.17                          96.9 174 
 RUS  HE ES   1    117 29.20                             145   -0.07 7 96.9 174 
 PTB  HZ EP   1    117 13.44                             133   -0.36 7  144 260 
 PTB  HZ I         117 38.46         3.5 0.11                           144 260 
 ZAR  HN ES   1    117 44.71                             123   -0.12 6  203 293 
 ZAR  HZ I         117 48.59         4.0 0.10                           203 293 
                                                                                
