 2010  9 4 0248 11.6 L   6.195 -73.916 88.0  RSN  6 0.4 1.3LRSN                1
 GAP=118        0.91       6.6     5.8 14.8 -0.5747E+01  0.4768E+02  0.2175E+02E
 Epicentro: CIMITARRA - SANTANDER                                              3
 ACTION:UP  11-02-18 11:00 OP:tino STATUS:               ID:20100904024811 L   I
 2010-09-04-0245-37S.COL___120                                                 6
 STAT SP IPHASW D HRMM SECON CODA AMPLIT PERI AZIMU VELO SNR AR TRES W  DIS CAZ7
 BAR2 SZ IP        248 29.44                             131     0.410   92  62 
 BAR2 SZ ES   1    248 42.98                             131     0.3 7   92  62 
 BAR2 SZ I         248 44.79         5.8 0.38                            92  62 
 RUS  HN ES   2    248 43.41                             129    -0.9 5   98 110 
 RUS  HZ I         248 47.39         1.6 0.40                            98 110 
 BRR  HZ EP        248 29.61                             127    -0.210  103  13 
 BRR  HZ I         248 29.80        22.6 0.16                           103  13 
 BRR  HN ES   1    248 44.22                             127     0.1 7  103  13 
 HEL  HZ EP   1    248 38.53                             112     0.0 7  179 270 
 HEL  HN ES   2    248 59.17                             112    -0.3 4  179 270 
 HEL  HZ I         249  1.23         2.9 0.30                           179 270 
 GUE  SZ EP   1    248 41.65                             108    -0.6 6  211  31 
 RREF HZ EP   1    248 43.22                             108     0.3 6  214 228 
 RREF HZ I         249 13.85         1.7 0.08                           214 228 
                                                                                
