 2010  8 4 0929 25.4 L   6.803 -73.087141.4  RSN  6 0.3 1.7LRSN                1
 GAP=165        0.61       4.3     8.6  7.1 -0.4847E+01 -0.1586E+02 -0.5041E+01E
 Epicentro: LOS SANTOS - SANTANDER                                             3
 ACTION:UP  10-09-07 10:52 OP:vdl  STATUS:               ID:20100804092925 L   I
 2010-08-04-0925-43S.COL___125                                                 6
 STAT SP IPHASW D HRMM SECON CODA AMPLIT PERI AZIMU VELO SNR AR TRES W  DIS CAZ7
 BAR2 SZ EP   1    929 44.48                             169     0.0 7   26 205 
 BAR2 SZ ES   2    929 59.41                             169    -0.1 5   26 205 
 BAR2 SZ I         930  1.04        12.6 0.36                            26 205 
 GIR2 SZ EP   1    929 44.43                             167    -0.1 7   33 339 
 GIR2 SZ ES   2    929 59.18                             167    -0.4 5   33 339 
 BRR  HZ EP        929 46.25                             150    -0.110   77 296 
 BRR  HE ES   2    930  3.13                             150     0.4 5   77 296 
 BRR  HZ I         930  7.07        12.2 0.33                            77 296 
 RUS  HZ EP   1    929 48.57                             143    -0.1 7  101 180 
 RUS  HE ES   2    930  7.32                             143     0.4 5  101 180 
 RUS  HZ I         930  9.25         4.8 0.28                           101 180 
 GUE  SZ EP   1    929 50.20                             139     0.6 7  115   9 
 GRA  SZ EP        929 49.93                             137    -0.110  124  15 
 GRA  SZ ES   2    930  9.27                             137     0.0 5  124  15 
 GRA  SZ I         930 11.78         7.6 0.33                           124  15 
                                                                                
