 2016 11 4 0950 30.4 L   6.809 -73.159150.0  RSN  8 0.4 1.7LRSN                1
 GAP=134        0.94       4.2     4.0  6.9 -0.1180E+01  0.4419E+01  0.1142E+02E
 Epicentro: LOS SANTOS - SANTANDER                                             3
 ACTION:UPD 17-10-26 21:04 OP:lp   STATUS:               ID:20161104095030 L   I
 OLDACT:UP  16-11-04 17:56 OP:dani STATUS:               ID:20161104094745     3
 OLDACT:UP  16-11-04 17:55 OP:dani STATUS:               ID:20161104094745     3
 OLDACT:UP  16-11-04 17:55 OP:dani STATUS:               ID:20161104094745     3
 OLDACT:UP  16-11-04 17:54 OP:dani STATUS:               ID:20161104094745     3
 OLDACT:UP  16-11-04 17:51 OP:dani STATUS:               ID:20161104094745     3
 OLDACT:UP  16-11-04 17:51 OP:dani STATUS:               ID:20161104094745     3
 OLDACT:UP  16-11-04 17:50 OP:dani STATUS:               ID:20161104094745     3
 OLDACT:REG 16-11-04 13:28 OP:dani STATUS:               ID:20161104094745     3
 2016-11-04-0948-00M.COL___343                                                 6
 STAT SP IPHASW D HRMM SECON CODA AMPLIT PERI AZIMU VELO AIN AR TRES W  DIS CAZ7
 BRR  HZ EP        950 52.07                             154    0.1910 69.4 298 
 BRR  HN ES        951  9.33                             154    0.6710 69.4 298 
 BRR  HZ I         951 12.27        13.6 0.32            153           69.4 298 
 PAM  EZ EP        950 53.28                             152    0.2310 77.6  41 
 PAM  EE ES        951 10.44                             152   -0.3010 77.6  41 
 PAM  EZ I         951 12.44         5.4 0.49            155           77.6  41 
 RUS  HZ EP        950 54.44                             144   -0.1710  102 175 
 RUS  HN ES   2    951 13.19                             144   -0.33 5  102 175 
 RUS  HZ I         951 14.04         7.1 0.17            147            102 175 
 PTB  HZ EP        950 56.80                             133   -0.77 9  146 258 
 PTB  HN ES        951 18.19                             133   -0.60 9  146 258 
 PTB  HZ I         951 20.04         8.2 0.10            134            146 258 
 ZAR  HZ EP        951  3.04                             124    0.13 9  202 292 
 ZAR  HN ES        951 28.13                             124   -0.17 9  202 292 
 ZAR  HZ I         951 33.99         5.6 0.19            125            202 292 
 NOR  HZ EP        951  6.37                             119    0.09 8  234 234 
 NOR  HN ES        951 34.79                             119    0.51 8  234 234 
 NOR  HZ I         951 39.35         3.9 0.14            121            234 234 
 CHI  HZ EP        951  8.61                             118    0.25 8  249 195 
 CHI  HN ES        951 38.08                             118    0.08 8  249 195 
 CHI  HZ I         951 40.15         4.5 0.35            120            249 195 
 HEL  HZ EP        951 10.83                             116    0.16 8  271 256 
 URE  HE ES   4    951 40.70                             115   -2.80 0  282 292 
                                                                                
