 2010  7 4 0655  3.7 L   6.786 -73.057142.6  RSN 12 0.4 2.2LRSN                1
 GAP=133        0.87       3.5     5.8  5.4 -0.9830E+01  0.9374E+00 -0.1483E+00E
 Epicentro: LOS SANTOS - SANTANDER                                             3
 ACTION:UPD 10-12-01 15:14 OP:pat  STATUS:               ID:20100704065503 L   I
 2010-07-04-0652-14S.COL___118                                                 6
 STAT SP IPHASW D HRMM SECON CODA AMPLIT PERI AZIMU VELO AIN AR TRES W  DIS CAZ7
 BAR2 SZ IP     C  655 23.04                             170     0.110   26 213 
 BAR2 SZ ES        655 37.77                             170    -0.310   26 213 
 BRR  HZ IP     D  655 24.81                             149    -0.310   81 296 
 BRR  HZ I         655 25.12        41.8 0.15                            81 296 
 BRR  HE ES   1    655 41.85                             149     0.1 7   81 296 
 RUS  HZ EP        655 27.09                             144     0.110   99 182 
 RUS  HE ES   1    655 45.13                             144     0.0 7   99 182 
 RUS  HZ I         655 47.51        13.9 0.28                            99 182 
 BRI  SZ EP        655 27.40                             141     0.210  107  16 
 BRI  SZ ES   1    655 46.13                             141     0.7 7  107  16 
 GUE  SZ EP   1    655 28.73                             139     0.6 7  116   7 
 GRA  SZ IP     C  655 28.69                             137     0.110  125  13 
 GRA  SZ ES   1    655 48.15                             137     0.2 7  125  13 
 OCA  SZ EP        655 31.31                             128    -0.7 9  163 350 
 OCA  SZ ES   2    655 53.39                             128    -0.8 5  163 350 
 OCA  SZ I         655 56.92        20.2 0.21                           163 350 
 ROSC BZ EP   2    655 42.23                             116     0.2 4  257 213 
 ROSC BE ES   2    656 11.82                             116    -0.2 4  257 213 
 ROSC BZ I         656 19.89        10.8 0.39                           257 213 
 HEL  HZ EP   2    655 45.37                             113     0.6 4  281 257 
 HEL  HE ES   2    656 16.45                             113    -0.3 4  281 257 
 HEL  HZ I         656 22.68         9.3 0.43                           281 257 
 RREF HZ EP   1    655 51.14                             110     0.7 5  328 231 
 RREF HE ES   2    656 27.29                             110     0.4 3  328 231 
 RREF HZ I         656 35.41         7.8 0.24                           328 231 
 SDV  BZ EP   1    655 52.23                             108    -0.6 5  354  49 
 SDV  BZ I         655 53.25         5.0 0.31                           354  49 
 SDV  BE ES   2    656 30.56                             108    -0.7 3  354  49 
 PRA  HZ EP   1    655 57.33                             106    -0.2 4  396 211 
 PRA  HE ES   1    656 38.89                             106    -0.6 4  396 211 
 PRA  HZ I         656 45.91         7.8 0.29                           396 211 
                                                                                
