 2013  2 4 0322 37.3 L   6.778 -73.250146.1  RSN  4 0.1 0.7LRSN                1
 GAP=215        0.31       4.6     4.6  4.0  0.1514E+02  0.9181E+01  0.8623E+01E
 Epicentro: ZAPATOCA - SANTANDER                                               3
 ACTION:UPD 13-03-12 09:30 OP:ep   STATUS:               ID:20130204032237 L   I
 2013-02-04-0320-00M.COL___241                                                 6
 STAT SP IPHASW D HRMM SECON CODA AMPLIT PERI AZIMU VELO AIN AR TRES W  DIS CAZ7
 BAR2 SZ ES        323 12.23                             171   -0.0510 21.9 160 
 BRR  HE ES   1    323 14.25                             155    0.04 7 62.7 305 
 RUS  HZ EP   1    323  0.97                             144   -0.06 7 99.7 169 
 RUS  HN ES   1    323 19.62                             144    0.09 7 99.7 169 
 RUS  HZ I         323 20.08         0.8 0.32            143           99.7 169 
 PTB  HZ EP   1    323  3.34                             134    0.07 7  136 259 
 PTB  HE ES   2    323 23.40                             134   -0.11 5  136 259 
 PTB  HZ I         323 25.58         0.8 0.16            132            136 259 
                                                                                
