 2014  9 4 0643 39.4 L   6.765 -73.172138.5  RSN  7 0.4 1.7LRSN                1
 GAP=135        1.14       4.2     5.7  7.5 -0.8076E+01  0.9368E+01 -0.4469E+01E
 Epicentro: LOS SANTOS - SANTANDER                                             3
 ACTION:UPD 14-10-03 23:02 OP:nd   STATUS:               ID:20140904064339 L   I
 OLDACT:REG 14-09-04 13:06 OP:mh   STATUS:               ID:20140904063817     3
 2014-09-04-0638-17M.COL___269                                                 6
 STAT SP IPHASW D HRMM SECON CODA AMPLIT PERI AZIMU VELO AIN AR TRES W  DIS CAZ7
 BAR2 SZ EP        643 58.19                             172    0.1710 19.1 183 
 BAR2 SZ ES        644 12.40                             172   -0.1910 19.1 183 
 BAR2 SZ I         644 14.04        15.1 0.18            171           19.1 183 
 BRR  HZ EP        644  0.17                             151    0.4910 70.6 302 
 BRR  HN ES        644 16.38                             151    0.8410 70.6 302 
 BRR  HZ I         644 18.16        10.0 0.20            151           70.6 302 
 PAM  SZ EP        644  1.30                             148    0.1910 82.3  39 
 PAM  SN ES        644 18.16                             148    0.0910 82.3  39 
 PAM  SZ I         644 20.45        11.5 0.44            151           82.3  39 
 RUS  HN ES        644 19.43                             143   -0.4610 97.0 174 
 RUS  HZ I         644 21.38         5.1 0.55            145           97.0 174 
 PTB  HZ EP        644  4.96                             131   -0.44 9  144 260 
 PTB  HN ES        644 25.18                             131   -0.54 9  144 260 
 PTB  HZ I         644 28.37         9.3 0.12            132            144 260 
 SPBC HZ EP        644  7.02                             128    0.19 9  158 219 
 SPBC HN ES        644 28.52                             128    0.26 9  158 219 
 SPBC HZ I         644 34.69         4.1 0.21            129            158 219 
 OCA  HZ EP        644  7.48                             127    0.03 9  164 354 
 OCA  HN ES        644 28.55                             127   -0.81 9  164 354 
 OCA  HZ I         644 31.35         6.6 0.30            129            164 354 
                                                                                
