 2011  3 4 0507  0.5 L   6.816 -73.214145.4  RSN  5 0.5 1.6LRSN                1
 GAP=162        0.79       5.1    24.0  9.6 -0.6825E+02  0.1090E+03 -0.2080E+02E
 Epicentro: ZAPATOCA - SANTANDER                                               3
 ACTION:UP  11-06-16 14:31 OP:jfem STATUS:               ID:20110304050700 L   I
 2011-03-04-0503-51S.COL___135                                                 6
 STAT SP IPHASW D HRMM SECON CODA AMPLIT PERI AZIMU VELO SNR AR TRES W  DIS CAZ7
 BAR2 SZ EP   1    5 7 20.07                             169    -0.1 7   25 172 
 BAR2 SZ ES   1    5 7 35.53                             169     0.1 7   25 172 
 BAR2 SZ I         5 7 36.90        13.7 0.31                            25 172 
 RUS  HZ EP   1    5 7 24.63                             142     0.2 7  103 172 
 RUS  HN ES   1    5 7 42.75                             142    -0.3 7  103 172 
 RUS  HZ I         5 7 44.68         6.5 0.30                           103 172 
 GRA  SZ EP   1    5 7 26.19                             136     0.4 7  127  21 
 GRA  SZ ES   1    5 7 45.49                             136     0.0 7  127  21 
 GRA  SZ I         5 7 45.79         4.5 0.33                           127  21 
 OCA  SZ EP   1    5 7 27.86                             130    -0.7 7  158 356 
 OCA  SZ ES   3    5 7 51.78                             130     1.3 2  158 356 
 OCA  SZ I         5 7 53.99         5.9 0.43                           158 356 
 CHI  HZ EP   2    5 7 38.89                             117     0.7 4  249 193 
 CHI  HN ES   3    5 8  8.14                             117     0.6 2  249 193 
                                                                                
