 2014  1 4 0856 38.3 L   6.834 -73.161144.0  RSN  8 0.4 1.6LRSN                1
 GAP=133        1.03       3.8     4.8  6.8 -0.4934E+01  0.1387E+02 -0.2850E+01E
 Epicentro: LOS SANTOS - SANTANDER                                             3
 ACTION:UPD 14-03-13 09:51 OP:ep   STATUS:               ID:20140104085638 L   I
 OLDACT:REG 14-01-04 07:57 OP:stll STATUS:               ID:20140104084807     3
 2014-01-04-0848-07M.COL___231                                                 6
 STAT SP IPHASW D HRMM SECON CODA AMPLIT PERI AZIMU VELO AIN AR TRES W  DIS CAZ7
 BAR2 SZ EP        856 57.77                             169   -0.0610 26.8 185 
 BAR2 SZ I         856 57.93         7.5 0.22            170           26.8 185 
 BAR2 SZ ES        857 13.04                             169    0.0110 26.8 185 
 PAM  SZ EP        857  0.21                             151   -0.0510 75.7  42 
 PAM  SN ES        857 18.00                             151    0.6410 75.7  42 
 PAM  SZ I         857 19.99         9.1 0.56            153           75.7  42 
 RUS  HZ EP        857  2.00                             142   -0.1910  104 175 
 RUS  HE ES        857 20.48                             142   -0.3210  104 175 
 RUS  HZ I         857 23.05         3.5 0.48            144            104 175 
 PTB  HZ EP        857  4.62                             132   -0.45 9  147 257 
 PTB  HN ES        857 25.73                             132   -0.20 9  147 257 
 PTB  HZ I         857 28.11         4.5 0.14            132            147 257 
 NOR  HE ES        857 42.00                             118    0.10 8  235 233 
 NOR  HZ I         857 46.08         3.3 0.18            119            235 233 
 SML  HZ EP        857 14.24                             117   -0.17 8  240 335 
 SML  HN ES        857 42.25                             117   -0.31 8  240 335 
 SML  HZ I         857 45.71         9.1 0.10            119            240 335 
 CHI  HZ EP        857 16.04                             116   -0.23 8  252 195 
 CHI  HZ I         857 17.53         1.7 0.18            118            252 195 
 GUY2CHZ EP        857 23.38                             112    1.44 7  302 234 
 GUY2CHN ES        857 56.34                             112    0.38 7  302 234 
 GUY2CHZ I         858  3.15         2.0 0.28                           302 234 
                                                                                
