 2013  7 4 0920 40.0 L   6.625 -73.189161.5  RSN  9 0.4 2.3LRSN                1
 GAP=133        0.99       3.9     4.6  6.6 -0.2398E+00  0.7907E+01 -0.8021E+01E
 Epicentro: BARICHARA - SANTANDER                                              3
 ACTION:UPD 13-08-12 10:35 OP:ep   STATUS:               ID:20130704092039 L   I
 OLDACT:UP  13-07-05 02:36 OP:CF   STATUS:               ID:20130704092039 L   3
 OLDACT:REG 13-07-04 08:19 OP:stll STATUS:               ID:20130704091844     3
 2013-07-04-0918-44M.COL___228                                                 6
 STAT SP IPHASW D HRMM SECON CODA AMPLIT PERI AZIMU VELO AIN AR TRES W  DIS CAZ7
 BAR2 SZ IP     C  921  1.33                             179   -0.0010 3.72 168 
 BAR2 SZ I         921  1.41        22.3 0.10            178           3.72 168 
 BAR2 SZ ES        921 18.17                             179    0.2110 3.72 168 
 GIR2 SZ EP        921  2.32                             162    0.1710 50.2 359 
 BRR  HZ EP        921  3.90                             153    0.6210 78.6 313 
 BRR  HN ES   4    921 23.29                             153    1.86 0 78.6 313 
 BRR  HN I         921 25.49        38.8 0.24            152           78.6 313 
 RUS  HZ EP        921  4.27                             152    0.0910 81.8 172 
 RUS  HN ES        921 22.51                             152   -0.5210 81.8 172 
 RUS  HN I         921 23.41        42.7 0.32            156           81.8 172 
 PAM  SZ EP        921  5.28                             148    0.2610 95.8  34 
 PAM  SN ES        921 24.48                             148   -0.0510 95.8  34 
 PAM  SN I         921 25.10        18.1 0.22            150           95.8  34 
 PTB  HZ EP        921  7.63                             137   -0.06 9  140 266 
 PTB  HN ES        921 29.16                             137   -0.11 9  140 266 
 PTB  HN I         921 31.63        16.8 0.34            138            140 266 
 OCA  HZ EP        921 11.63                             130    0.31 9  179 355 
 OCA  HN ES        921 35.22                             130   -0.50 9  179 355 
 OCA  HN I         921 39.34        37.1 0.30            131            179 355 
 ZAR  HZ EP        921 13.01                             125   -0.90 8  208 298 
 ZAR  HE ES        921 41.02                             125    0.68 8  208 298 
 SML  HN EP        921 19.03                             119   -0.22 8  260 338 
 SML  HE ES        921 49.55                             119   -0.30 8  260 338 
                                                                                
