 2011  5 4 0823 59.7 L   6.038 -73.614113.0  RSN  7 0.4 1.5LRSN                1
 GAP=144        0.71       5.6     5.9 11.0 -0.8217E+01  0.4197E+02 -0.1852E+00E
 Epicentro: CHIPATA - SANTANDER                                                3
 ACTION:UP  11-06-29 08:50 OP:tino STATUS:               ID:20110504082359 L   I
 2011-05-04-0823-05S.COL___133                                                 6
 STAT SP IPHASW D HRMM SECON CODA AMPLIT PERI AZIMU VELO SNR AR TRES W  DIS CAZ7
 RUS  HZ EP   1    824 17.22                             150    -0.2 7   61 105 
 RUS  HZ I         824 18.82         3.9 0.11                            61 105 
 RUS  HE ES   2    824 31.85                             150     0.6 5   61 105 
 BAR2 SZ EP   1    824 17.93                             143    -0.3 7   78  38 
 BAR2 SZ ES   1    824 32.51                             143    -0.1 7   78  38 
 BAR2 SZ I         824 34.16        13.4 0.38                            78  38 
 BTL  SZ EP   1    824 20.31                             134    -0.1 7  105  21 
 BRR  HZ EP   1    824 21.40                             130     0.1 7  119 355 
 BRR  HZ I         824 22.79         5.8 0.07                           119 355 
 BRR  HN ES   2    824 38.36                             130     0.1 5  119 355 
 NOR  SZ EP   1    824 24.15                             123    -0.2 7  149 249 
 HEL  HZ EP   1    824 32.42                             113     0.8 6  213 275 
 HEL  HN ES   2    824 55.97                             113    -0.6 4  213 275 
 HEL  HZ I         825  0.58         2.1 0.29                           213 275 
 GRA  SZ ES   2    824 58.33                             112     0.2 4  223  24 
 GRA  SZ I         825  3.97         3.0 0.42                           223  24 
                                                                                
