 2017 12 4 0215  2.7 L   6.835 -73.130146.1  RSN 21 0.8 2.3LRSN                1
 GAP= 56        1.59       3.4     3.6  7.0 -0.6847E+00  0.5663E+01 -0.2833E+00E
 Epicentro: LOS SANTOS - SANTANDER                                             3
 ACTION:UPD 18-01-04 13:16 OP:rebc STATUS:               ID:20171204021502 L   I
 OLDACT:UP  17-12-04 15:37 OP:leo  STATUS:               ID:20171204020741     3
 OLDACT:UP  17-12-04 15:34 OP:leo  STATUS:               ID:20171204020741     3
 OLDACT:UP  17-12-04 15:29 OP:leo  STATUS:               ID:20171204020741     3
 OLDACT:REG 17-12-04 13:05 OP:leo  STATUS:               ID:20171204020741     3
 2017-12-04-0208-00M.COL___492                                                 6
 STAT SP IPHASW D HRMM SECON CODA AMPLIT PERI AZIMU VELO AIN AR TRES W  DIS CAZ7
 BAR2 EZ EP        215 22.56                             169    0.1410 27.4 192 
 BAR2 EZ ES        215 37.72                             169   -0.1110 27.4 192 
 BAR2 EZ I         215 39.83        33.6 0.26            168           27.4 192 
 PAM  EZ EP        215 25.49                             152    0.8210 73.3  40 
 PAM  EN ES        215 42.26                             152    0.4210 73.3  40 
 PAM  EZ I         215 44.41        39.7 0.60            155           73.3  40 
 RUS  HZ EP        215 27.00                             143    0.2910  104 177 
 RUS  HN ES        215 44.83                             143   -0.6510  104 177 
 RUS  HZ I         215 45.82        21.3 0.24            143            104 177 
 PTB  HZ EP        215 29.50                             132   -0.37 9  150 258 
 PTB  HN ES        215 50.24                             132   -0.86 9  150 258 
 PTB  HZ I         215 52.93        21.1 0.14            132            150 258 
 TAM  HZ EP        215 30.95                             131    0.65 9  155 107 
 TAM  HN ES        215 52.36                             131    0.49 9  155 107 
 TAM  HZ I         215 53.00        16.5 0.58            133            155 107 
 OCA  HZ EP        215 30.89                             130    0.24 9  157 352 
 OCA  HN ES        215 52.64                             130    0.15 9  157 352 
 SPBC HZ EP        215 31.65                             128    0.09 9  167 219 
 SPBC HE ES        215 54.01                             128   -0.11 9  167 219 
 SPBC HZ I         215 57.25        35.8 0.20            129            167 219 
 YPLC HZ EP        215 33.06                             126    0.33 9  179 152 
 YPLC HN ES        215 56.84                             126    0.65 9  179 152 
 YPLC HZ I         215 59.44        19.4 0.24            128            179 152 
 ZAR  HZ EP        215 35.58                             122    0.44 9  204 291 
 ZAR  HN ES        216  1.50                             122    1.03 9  204 291 
 ZAR  HZ I         216  6.42        29.8 0.26            123            204 291 
 NOR  HZ EP        215 38.69                             118   -0.10 8  238 234 
 NOR  HN ES        216  6.81                             118   -0.17 8  238 234 
 NOR  HZ I         216 11.62        17.3 0.36            119            238 234 
 CHI  HZ EP        215 41.03                             117    0.21 8  253 195 
 CHI  HN ES        216  9.89                             117   -0.71 8  253 195 
 CHI  HZ I         216 16.85         6.9 0.28            118            253 195 
 ROSC BN ES   4    216 14.94                             116    3.59 0  257 211 
 URE  HZ EP        215 43.04                             114   -0.72 7  284 291 
 URE  HN ES        216 15.69                             114   -0.13 7  284 291 
 DRL03HZ EP        215 44.30                             113    0.43 7  285 352 
 DRL03HN ES   4    216 18.95                             113    2.92 0  285 352 
 GUY2CHZ EP   4    215 48.35                             112    1.67 0  305 234 
 GUY2CHN ES        216 20.85                             112   -0.18 7  305 234 
 GUY2CHZ I         216 27.96        10.6 0.20                           305 234 
 PTGC HZ EP        215 45.82                             111   -1.04 7  312 159 
 PTGC HN ES        216 19.25                             111   -2.10 7  312 159 
 PTGC HZ I         216 21.56        11.1 0.48            113            312 159 
 CBOC HZ EP        215 50.75                             110    0.85 7  336 252 
 CBOC HN ES        216 26.22                             110   -0.54 7  336 252 
 CBOC HZ I         216 34.45         4.2 0.52            111            336 252 
 SDV  BZ EP        215 52.29                             108    0.02 6  357  50 
 SDV  B1 ES        216 28.87                             108   -2.10 6  357  50 
 PRA  HZ EP        215 57.32                             106    0.65 6  396 210 
 PRA  HE ES        216 38.75                             106   -0.06 6  396 210 
 PRA  HZ I         216 47.10         7.8 0.40            107            396 210 
 ORTC HE ES        216 39.56                             106    0.05 6  400 216 
 SJC  HZ EP        215 57.80                             106   -0.16 6  407 326 
 SJC  HN ES    4   216 38.45                             106   -2.64 6  407 326 
 SJC  HZ I         216 42.13         7.5 0.38            107            407 326 
 PAL  HZ EP        215 59.68                             106    1.45 6  409 239 
 PAL  HN ES        216 42.45                             106    0.88 6  409 239 
 CRJC HZ EP   4    216  3.42                             103   -1.27 0  464   3 
 URI  HZ EP   4    216 13.30                             101   -1.87 0  553  13 
                                                                                
