 2011  1 4 0623 35.4 L   6.766 -73.138141.7  RSN 11 0.4 2.2LRSN                1
 GAP=160        0.76       3.1     7.9  6.8 -0.1058E+02  0.2493E+02 -0.1529E+01E
 Epicentro: LOS SANTOS - SANTANDER                                             3
 ACTION:UP  11-02-08 08:38 OP:pat  STATUS:               ID:20110104062335 L   I
 2011-01-04-0619-41S.COL___135                                                 6
 STAT SP IPHASW D HRMM SECON CODA AMPLIT PERI AZIMU VELO SNR AR TRES W  DIS CAZ7
 BAR2 SZ EP   1    623 54.56                             172     0.1 7   20 195 
 BAR2 SZ ES   1    624  9.27                             172    -0.1 7   20 195 
 BAR2 SZ I         624 11.47        42.0 0.24                            20 195 
 GIR2 SZ EP   1    623 54.81                             165     0.1 7   35 350 
 RUS  HZ EP        623 58.34                             144    -0.110   97 176 
 RUS  HE ES   1    624 16.58                             144     0.1 7   97 176 
 RUS  HZ I         624 18.59        20.5 0.28                            97 176 
 GRA  SZ EP   1    624  0.46                             135    -0.1 7  129  17 
 GRA  SZ ES   1    624 20.43                             135     0.3 7  129  17 
 GRA  SZ I         624 22.35        14.8 0.36                           129  17 
 OCA  SZ EP   1    624  3.01                             128    -0.7 7  164 353 
 OCA  SZ ES   1    624 25.89                             128     0.0 7  164 353 
 OCA  SZ I         624 28.52        10.6 0.20                           164 353 
 NOR  SZ EP   2    624 10.37                             118    -0.4 4  233 235 
 NOR  SE ES   2    624 38.30                             118     0.0 4  233 235 
 CHI  HZ EP   1    624 12.22                             117    -0.3 6  245 196 
 CHI  HE ES   1    624 41.03                             117    -0.4 6  245 196 
 CHI  HZ I         624 44.96         5.5 0.34                           245 196 
 ROSC BZ EP   1    624 13.79                             116     0.8 6  250 212 
 ROSC BZ I         624 50.15         8.9 0.44                           250 212 
 HEL  HZ EP   1    624 16.13                             114     0.7 6  272 257 
 HEL  HZ I         624 53.92         8.3 0.46                           272 257 
 RREF HZ EP   2    624 21.70                             110     0.6 3  320 230 
 RREF HN ES   2    624 55.99                             110    -0.9 3  320 230 
 RREF HZ I         625  4.00         8.7 0.16                           320 230 
 PRA  HZ EP   2    624 28.48                             106     0.0 3  389 210 
 PRA  HE ES   2    625  9.74                             106    -0.1 3  389 210 
 PRA  HZ I         625 12.93        13.9 0.14                           389 210 
                                                                                
