 2016  4 4 0928 14.0 L   6.791 -73.163144.2  RSN  7 0.4 1.5LRSN                1
 GAP=135        0.78       4.1     4.0  5.8 -0.4345E+01  0.9752E+01 -0.9189E+00E
 Epicentro: LOS SANTOS - SANTANDER                                             3
 ACTION:UPD 16-05-05 14:18 OP:rebc STATUS:               ID:20160404092814 L   I
 OLDACT:UP  16-04-04 18:30 OP:mh   STATUS:               ID:20160404092743     3
 OLDACT:UP  16-04-04 18:29 OP:mh   STATUS:               ID:20160404092743     3
 OLDACT:UP  16-04-04 18:28 OP:mh   STATUS:               ID:20160404092743     3
 OLDACT:REG 16-04-04 12:37 OP:mh   STATUS:               ID:20160404092743     3
 2016-04-04-0927-43M.COL___303                                                 6
 STAT SP IPHASW D HRMM SECON CODA AMPLIT PERI AZIMU VELO AIN AR TRES W  DIS CAZ7
 BAR2 EZ EP        928 33.55                             171    0.1310 22.1 185 
 BAR2 EZ ES        928 48.45                             171   -0.1110 22.1 185 
 BAR2 EZ I         928 49.73         4.9 0.20            171           22.1 185 
 PAM  EZ EP   1    928 36.34                             150    0.17 7 79.3  40 
 PAM  EN ES        928 53.32                             150   -0.1410 79.3  40 
 PAM  EZ I         928 55.52         7.8 0.44            152           79.3  40 
 RUS  HZ EP   1    928 37.13                             144   -0.41 7 99.8 175 
 RUS  HN ES   1    928 56.67                             144    0.77 7 99.8 175 
 RUS  HZ I         928 57.31         3.0 0.31            145           99.8 175 
 PTB  HZ EP        928 40.36                             132   -0.29 9  146 259 
 PTB  HN ES        929  1.23                             132   -0.21 9  146 259 
 PTB  HZ I         929  4.28         2.2 0.08            133            146 259 
 SPBC HZ EP   1    928 41.65                             129   -0.54 7  161 219 
 SPBC HN ES        929  4.06                             129   -0.12 9  161 219 
 SPBC HZ I         929  5.91         7.1 0.14            131            161 219 
 ZAR  HZ EP   1    928 46.60                             122    0.40 6  203 293 
 ZAR  HN ES   1    929 11.74                             122    0.43 6  203 293 
 GUY2CHZ EP        928 57.81                             112    0.51 7  299 235 
 GUY2CHN ES   4    929 36.04                             112    4.97 0  299 235 
 GUY2CHZ I         929 41.94         1.7 0.23                           299 235 
                                                                                
