 2017  8 4 0734 17.0 L   6.769 -73.143148.0  RSN  7 0.5 1.4LRSN                1
 GAP=138        1.14       5.4     5.4  7.5 -0.9440E+01  0.9386E+01  0.4041E+01E
 Epicentro: LOS SANTOS - SANTANDER                                             3
 ACTION:UPD 17-09-04 20:16 OP:rebc STATUS:               ID:20170804073417 L   I
 OLDACT:REG 17-08-04 13:21 OP:osc  STATUS:               ID:20170804072741     3
 2017-08-04-0728-00M.COL___374                                                 6
 STAT SP IPHASW D HRMM SECON CODA AMPLIT PERI AZIMU VELO AIN AR TRES W  DIS CAZ7
 BAR2 EZ EP     C  734 36.83                             172    0.0010 20.0 192 
 BAR2 EZ ES        734 51.53                             172   -0.7710 20.0 192 
 BAR2 EZ I         734 53.39         8.4 0.44            172           20.0 192 
 BRR  HZ EP        734 38.88                             152    0.3910 73.1 301 
 BRR  HN ES        734 55.93                             152    0.6710 73.1 301 
 BRR  HZ I         734 56.77         6.4 0.12            152           73.1 301 
 PAM  EZ EP        734 39.66                             150    0.0710 79.9  38 
 PAM  EN ES        734 56.97                             150   -0.2610 79.9  38 
 PAM  EZ I         734 58.93         4.2 0.52            152           79.9  38 
 RUS  HZ EP        734 41.18                             145    0.4610 97.1 176 
 RUS  HN ES        734 59.35                             145    0.1310 97.1 176 
 RUS  HZ I         735  0.26         2.6 0.20            146           97.1 176 
 PTB  HZ EP        734 44.02                             132   -0.09 9  147 260 
 PTB  HN ES        735  4.63                             132   -0.63 9  147 260 
 PTB  HZ I         735  7.86         2.6 0.12            133            147 260 
 SPBC HZ EP   3    734 43.17                             130   -2.26 2  161 220 
 SPBC HE ES        735  7.95                             130    0.35 9  161 220 
 SPBC HZ I         735 10.33         4.4 0.32            131            161 220 
 ZAR  HZ EP   4    734 46.57                             122   -3.17 0  206 293 
 GUY2CHZ EP        734 59.80                             113   -0.70 7  299 235 
 GUY2CHE ES        735 34.67                             113    0.23 7  299 235 
 GUY2CHZ I         735 44.81         1.5 0.66                           299 235 
                                                                                
