 2010  8 4 0041 28.9 L   6.813 -73.036143.5  RSN 12 0.4 2.7LRSN                1
 GAP=171        0.79       2.9     5.8  5.2 -0.6372E+01  0.3607E+01  0.2614E+01E
 Epicentro: CEPITA - SANTANDER                                                 3
 ACTION:UP  10-09-07 10:51 OP:vdl  STATUS:               ID:20100804003904 L   I
 2010-08-04-0039-04S.COL___126                                                 6
 STAT SP IPHASW D HRMM SECON CODA AMPLIT PERI AZIMU VELO SNR AR TRES W  DIS CAZ7
 BAR2 SZ IP        041 48.57                             168     0.110   29 214 
 BAR2 SZ ES   2    042  3.34                             168    -0.3 5   29 214 
 BAR2 SZ I         042  5.12        69.3 0.33                            29 214 
 GIR2 SZ EP        041 48.47                             166     0.110   34 329 
 GIR2 SZ ES   1    042  3.64                             166     0.0 7   34 329 
 BRR  HZ IP     D  041 50.29                             149    -0.210   81 294 
 BRR  HN ES   1    042  7.45                             149     0.2 7   81 294 
 BRR  HZ I         042 11.02        96.9 0.14                            81 294 
 RUS  HZ EP        041 52.56                             143     0.010  102 183 
 RUS  HN ES   1    042 10.88                             143    -0.1 7  102 183 
 GUE  SZ EP        041 53.18                             140     0.010  113   6 
 GRA  SZ IP        041 54.03                             138     0.410  121  12 
 GRA  SZ ES   1    042 13.34                             138     0.5 7  121  12 
 GRA  SZ I         042 14.40        49.0 0.39                           121  12 
 OCA  SZ EP        041 56.60                             129    -0.5 9  161 349 
 OCA  SZ ES   1    042 18.11                             129    -1.0 7  161 349 
 OCA  SZ I         042 23.18        30.7 0.36                           161 349 
 CHI  HZ EP        042  6.94                             116    -0.1 8  253 198 
 CHI  HN ES   1    042 36.45                             116    -0.3 6  253 198 
 HEL  HZ EP   1    042 10.64                             113     0.3 6  284 256 
 GUY  SZ EP   1    042 14.24                             111     0.6 5  312 236 
 GUY  SN ES   2    042 48.50                             111    -0.1 3  312 236 
 GUY  SZ I         042 54.78        48.6 0.50                           312 236 
 RREF HZ EP        042 16.00                             110    -0.1 7  332 231 
 RREF HN ES   1    042 53.53                             110     0.6 5  332 231 
 RREF HZ I         042 59.86        20.8 0.50                           332 231 
 PRA  HZ EP   2    042 22.68                             106    -0.5 3  399 211 
 PRA  HN ES   2    043  5.15                             106    -0.4 3  399 211 
 PRA  HZ I         043 11.53        16.1 0.19                           399 211 
                                                                                
