 2011  5 4 0044 47.3 L   6.745 -73.119146.8  RSN 12 0.3 2.2LRSN                1
 GAP=142        0.63       3.4     4.9  5.1 -0.7567E+01  0.5135E+01  0.1377E+01E
 Epicentro: JORDAN - SANTANDER                                                 3
 ACTION:UP  11-06-29 08:50 OP:tino STATUS:               ID:20110504004447 L   I
 2011-05-04-0040-16S.COL___133                                                 6
 STAT SP IPHASW D HRMM SECON CODA AMPLIT PERI AZIMU VELO SNR AR TRES W  DIS CAZ7
 BAR2 SZ IP        045  7.07                             172     0.110   18 202 
 BAR2 SZ ES   2    045 22.08                             172    -0.2 5   18 202 
 BAR2 SZ I         045 23.80        80.2 0.25                            18 202 
 BTL  SZ EP   1    045  7.50                             170     0.4 7   25 319 
 BTL  SZ ES   2    045 22.99                             170     0.5 5   25 319 
 BRR  HZ IP     C  045  8.91                             151     0.010   77 301 
 BRR  HZ I         045 10.45        63.1 0.12                            77 301 
 BRR  HN ES   2    045 25.69                             151     0.0 5   77 301 
 PAM  SZ EP   1    045  9.95                             150     0.1 7   80  35 
 PAM  SE ES   2    045 26.43                             150    -0.9 5   80  35 
 RUS  HZ EP   1    045 10.96                             146     0.3 7   94 178 
 RUS  HN ES   2    045 28.76                             146    -0.2 5   94 178 
 RUS  HZ I         045 31.31        19.4 0.21                            94 178 
 BRI  SZ EP   1    045 11.59                             141    -0.1 7  113  18 
 BRI  SZ ES   2    045 31.01                             141     0.4 5  113  18 
 BRI  SZ I         045 35.00        10.8 0.31                           113  18 
 GRA  SZ IP        045 12.83                             136    -0.210  131  15 
 GRA  SZ ES   2    045 33.70                             136     0.6 5  131  15 
 GRA  SZ I         045 37.23        16.9 0.35                           131  15 
 OCA  SZ EP   1    045 15.79                             129    -0.5 7  167 352 
 OCA  SZ ES   2    045 38.60                             129    -0.3 5  167 352 
 OCA  SZ I         045 42.74        21.7 0.41                           167 352 
 NOR  SZ EP   1    045 22.87                             119    -0.1 6  234 236 
 NOR  SN ES   2    045 50.10                             119    -0.7 4  234 236 
 HEL  HZ EP   1    045 28.14                             115     0.4 6  274 257 
 HEL  HN ES   2    045 59.23                             115     0.0 4  274 257 
 VIL  SZ EP   2    045 30.06                             113    -0.1 4  298 192 
 VIL  SZ I         046 14.17        10.7 0.55                           298 192 
 PRA  HZ EP   1    045 40.21                             107    -0.2 4  388 210 
 PRA  HN ES   2    046 21.84                             107     0.0 3  388 210 
                                                                                
