 2016 11 4 0350 16.4 L   6.752 -73.636  4.0  RSN  4 0.4 0.7LRSN                1
 GAP=122        1.08       2.8     3.2  7.7  0.2841E+01  0.6155E+01  0.1201E+01E
 Epicentro: EL CARMEN - SANTANDER                                              3
 ACTION:UPD 17-10-26 21:04 OP:lp   STATUS:               ID:20161104035016 L   I
 OLDACT:REG 16-11-04 12:58 OP:dani STATUS:               ID:20161104034740     3
 2016-11-04-0348-00M.COL___349                                                 6
 STAT SP IPHASW D HRMM SECON CODA AMPLIT PERI AZIMU VELO AIN AR TRES W  DIS CAZ7
 BRR  HZ EP     D  350 22.80                              47   -0.2710 40.1 348 
 BRR  HE ES        350 28.33                              47    0.0610 40.1 348 
 BRR  HZ I         350 29.11        10.1 0.09             47           40.1 348 
 BAR2 EZ EP        350 25.26                              47   -0.0410 53.2 109 
 PTB  HZ EP        350 31.26                              47    0.0510 93.7 255 
 PTB  HN ES        350 42.69                              47   -0.0810 93.7 255 
 PTB  HZ I         350 44.93         3.6 0.18             47           93.7 255 
 RUS  HZ EP        350 35.52                              47    0.8910  113 147 
 RUS  HN ES        350 48.26                              47   -0.5910  113 147 
 RUS  HZ I         350 51.66         0.8 0.15             47            113 147 
                                                                                
