 2016  8 4 0536 26.2 L   6.745 -73.101142.0  RSN  4 0.1 1.6LRSN                1
 GAP=188        0.46       4.1     4.2  5.2 -0.1240E+02 -0.8320E+01  0.1154E+02E
 Epicentro: LOS SANTOS - SANTANDER                                             3
 ACTION:UPD 16-10-29 15:32 OP:rebc STATUS:               ID:20160804053628 L   I
 OLDACT:UP  16-08-10 12:41 OP:dani STATUS:               ID:20160804053628 L   3
 OLDACT:UP  16-08-10 03:44 OP:DRIO STATUS:               ID:20160804053628 L   3
 OLDACT:REG 16-08-04 12:26 OP:dani STATUS:               ID:20160804052737     3
 2016-08-04-0528-00M.COL___323                                                 6
 STAT SP IPHASW D HRMM SECON CODA AMPLIT PERI AZIMU VELO AIN AR TRES W  DIS CAZ7
 BRR  HZ EP        536 47.10                             150   -0.2410 78.5 301 
 BRR  HN ES        537  3.97                             150    0.1110 78.5 301 
 BRR  HZ I         537  4.99         6.5 0.19                          78.5 301 
 PAM  EZ EP        536 48.27                             150    0.1710 79.3  34 
 PAM  EN ES        537  5.15                             150   -0.0610 79.3  34 
 PAM  EZ I         537  7.61         6.4 0.25                          79.3  34 
 SPBC HZ EP        536 54.35                             128    0.11 9  162 222 
 SPBC HN ES        537 16.04                             128   -0.09 9  162 222 
 SPBC HZ I         537 24.80         4.8 0.26                           162 222 
 GUY2CHZ EP   9    537 12.01                             112    2.34 0  302 236 
 GUY2CHE ES        537 46.16                             110    0.22 7  302 236 
 GUY2CHZ I         537 50.60         2.0 0.46                           302 236 
                                                                                
