 2011  8 4 0326 52.8 L   6.845 -73.092146.7  RSN 13 0.3 2.5LRSN                1
 GAP=141        0.44       2.1     3.2  3.6 -0.1093E+01  0.2778E+01  0.2436E+01E
 Epicentro: LOS SANTOS - SANTANDER                                             3
 ACTION:UPD 12-07-25 14:05 OP:epov STATUS:               ID:20110804032652 L   I
 2011-08-04-0324-52S.COL___139                                                 6
 STAT SP IPHASW D HRMM SECON CODA AMPLIT PERI AZIMU VELO AIN AR TRES W  DIS CAZ7
 BAR2 SZ IP        327 12.59                             168   -0.0610 29.7 200 
 BAR2 SZ I         327 13.18        63.4 0.25                          29.7 200 
 BAR2 SZ ES   2    327 28.09                             168   -0.07 5 29.7 200 
 PAM  SZ EP   1    327 15.11                             153    0.47 7 69.7  38 
 PAM  SE ES   2    327 31.71                             153    0.00 5 69.7  38 
 BRR  HZ IP     C  327 14.24                             152    0.0410 74.4 293 
 BRR  HZ I         327 16.04        82.6 0.14                          74.4 293 
 BRR  HN ES   1    327 31.13                             152    0.22 7 74.4 293 
 RUS  HZ EP   1    327 16.78                             143   -0.18 7  105 179 
 RUS  HN ES   2    327 35.53                             143   -0.29 5  105 179 
 RUS  HZ I         327 36.94        21.1 0.32                           105 179 
 OCA  SZ EP   1    327 20.89                             131    0.13 7  156 351 
 OCA  SZ ES   1    327 42.14                             131   -0.46 7  156 351 
 OCA  SZ I         327 46.93        45.8 0.29                           156 351 
 NOR  SZ EP   1    327 28.97                             118   -0.42 6  242 234 
 NOR  SN ES   2    327 57.79                             118   -0.16 4  242 234 
 CHI  HZ EP   1    327 31.41                             117    0.19 6  255 196 
 CHI  HN ES   2    328  1.46                             117    0.25 4  255 196 
 CHI  HZ I         328  8.47        10.4 0.40                           255 196 
 HEL  HZ EP   1    327 34.04                             114    0.23 6  279 255 
 HEL  HN ES   2    328  6.06                             114    0.24 4  279 255 
 HEL  HZ I         328 11.70        24.6 0.35                           279 255 
 RREF HZ EP   2    327 40.25                             110    0.41 3  330 229 
 RREF HN ES   2    328 16.71                             110    0.16 3  330 229 
 RREF HZ I         328 23.30        24.8 0.44                           330 229 
 DBB  SZ EP   1    327 40.59                             109   -0.34 5  345 273 
 TOL  SZ EP   1    327 42.24                             109    0.29 5  351 225 
 PRA  HZ EP   1    327 46.99                             106   -0.19 4  399 210 
 PRA  HE ES   2    328 29.64                             106    0.03 3  399 210 
 SJA  SZ EP   1    327 47.66                             106   -0.43 4  406 194 
                                                                                
