 2011  2 4 0840 12.4 L   6.860 -73.165140.4  RSN 10 0.4 1.8LRSN                1
 GAP=156        0.71       3.9     7.3  6.5 -0.1326E+02  0.2030E+02 -0.3330E+01E
 Epicentro: LOS SANTOS - SANTANDER                                             3
 ACTION:UP  11-03-28 15:05 OP:jfem STATUS:               ID:20110204084012 L   I
 2011-02-04-0838-08S.COL___138                                                 6
 STAT SP IPHASW D HRMM SECON CODA AMPLIT PERI AZIMU VELO SNR AR TRES W  DIS CAZ7
 BTL  SZ EP        840 31.14                             175    -0.110   13 300 
 GIR2 SZ EP   2    840 30.99                             170    -0.3 5   24 352 
 BAR2 SZ EP   1    840 31.41                                    -0.1 7   30 184 
 BAR2 SZ ES        840 46.32                             167    -0.210   30 184 
 BAR2 SZ I         840 48.54        11.4 0.11                            30 184 
 RUS  HZ EP   1    840 36.07                             141    -0.1 7  107 175 
 RUS  HN ES   2    840 55.02                             141     0.4 5  107 175 
 RUS  HZ I         840 58.92         5.0 0.37                           107 175 
 GRA  SZ EP   1    840 37.19                             137     0.5 7  120  19 
 GRA  SZ ES   1    840 56.15                             137     0.5 7  120  19 
 GRA  SZ I         840 58.27         8.4 0.25                           120  19 
 OCA  SZ EP   2    840 39.21                             130    -0.5 5  153 354 
 OCA  SZ ES   2    841  0.12                             130    -0.8 5  153 354 
 OCA  SZ I         841  4.01         6.6 0.29                           153 354 
 NOR  SZ EP   1    840 47.82                             117    -0.3 6  237 233 
 NOR  SN ES   2    841 16.45                             117     0.5 4  237 233 
 CHI  HZ EP   2    840 50.44                             115     0.0 4  255 194 
 CHI  HN ES   2    841 20.78                             115     0.6 4  255 194 
 CHI  HZ I         841 24.37         4.6 0.30                           255 194 
 ROSC BZ EP   2    840 50.10                             115    -0.7 4  257 210 
 ROSC BZ I         841 30.39         9.2 0.25                           257 210 
 HEL  HZ EP   2    840 52.64                             114     0.3 4  272 254 
 HEL  HN ES   2    841 24.03                             114     0.6 4  272 254 
 HEL  HZ I         841 30.90         6.8 0.39                           272 254 
                                                                                
