 2014  6 4 0935 24.4 L   6.834 -73.210157.3  RSN  8 0.4 1.8LRSN                1
 GAP=196        0.91       4.0     5.3  9.3  0.4380E+01 -0.4753E+00 -0.1282E+02E
 Epicentro: ZAPATOCA - SANTANDER                                               3
 OLDACT:REG 14-06-04 13:52 OP:fm   STATUS:               ID:20140604092815     3
 ACTION:UPD 14-07-01 22:50 OP:nd   STATUS:               ID:20140604093525dL   I
 OLDACT:UP  14-06-04 18:45 OP:fm   STATUS:               ID:20140604092815     3
 2014-06-04-0928-15M.COL___250                                                 6
 STAT SP IPHASW D HRMM SECON CODA AMPLIT PERI AZIMU VELO AIN AR TRES W  DIS CAZ7
 RUS  HZ EP        935 49.31                             145   -0.2610  105 172 
 RUS  HN ES        936  9.58                             145    0.3510  105 172 
 PTB  HZ EP        935 51.60                             136   -0.16 9  142 257 
 PTB  HN ES        936 12.51                             136   -0.63 9  142 257 
 PTB  HZ I         936 15.46         4.7 0.76            133            142 257 
 ZAR  HZ EP        935 56.99                             126    0.20 9  196 292 
 ZAR  HN ES        936 22.64                             126    0.56 9  196 292 
 ZAR  HZ I         936 27.79         4.0 0.38            124            196 292 
 NOR  HE ES   1    936 27.90                             121   -0.65 6  231 233 
 SML  HZ EP        936  0.68                             121   -0.31 8  237 336 
 SML  HN ES        936 29.76                             121    0.20 8  237 336 
 SML  HZ I         936 35.48         6.3 0.08            119            237 336 
 URE  HN ES   4    936 35.60                             117   -1.35 0  276 292 
 GUY2CHZ EP   4    936 11.40                             115    3.27 0  298 233 
 GUY2CHN ES        936 42.79                             115    0.51 7  298 233 
 RREF HZ EP   4    936 16.48                             113    5.78 0  319 228 
 RREF HN ES   4    936 48.95                             113    2.09 0  319 228 
 RREF HZ I         936 56.90         2.8 1.86            112            319 228 
 PRA  HZ EP   1    936 18.77                             108    0.49 4  392 208 
 PRA  HN ES   4    937  4.62                             108    4.27 0  392 208 
 SJC  HZ EP   4    936 18.73                             108   -0.78 0  402 327 
 SJC  HN ES   4    937  0.14                             108   -2.38 0  402 327 
                                                                                
