 2012  6 4 0632 46.9 L   6.589 -73.097 23.9  RSN  6 0.4 2.1LRSN                1
 GAP=151        0.73       2.3     3.4  2.8 -0.1598E+01  0.4692E+01 -0.1848E+01E
 Epicentro: CURITI - SANTANDER                                                 3
 ACTION:UPD 12-08-06 17:47 OP:ep   STATUS:               ID:20120604063246 L   I
 2012-06-04-0630-00M.COL___201                                                 6
 STAT SP IPHASW D HRMM SECON CODA AMPLIT PERI AZIMU VELO AIN AR TRES W  DIS CAZ7
 BAR2 SZ EP        632 51.58                             159    0.1510 9.49 272 
 BAR2 SZ ES   1    632 54.94                             159   -0.01 7 9.49 272 
 BAR2 SZ I         632 55.94       329.5 0.10                          9.49 272 
 RUS  HZ EP        633  0.32                             106    0.2010 77.0 179 
 RUS  HN ES   1    633 10.09                             106   -0.32 7 77.0 179 
 RUS  HZ I         633 11.34        26.5 0.17                          77.0 179 
 PAM  SZ EP   1    633  2.56                             103   -0.03 7 93.9  28 
 PAM  SN ES   1    633 14.30                             103   -0.51 7 93.9  28 
 PTB  HZ EP   1    633  8.97                              56   -0.33 7  150 268 
 PTB  HN ES   1    633 26.46                              56   -0.29 7  150 268 
 PTB  HZ I         633 27.89        21.6 0.05                           150 268 
 OCA  HZ EP   1    633 14.50                              56    0.83 7  184 352 
 OCA  HZ I         633 40.57        56.9 0.23                           184 352 
 ZAR  HZ EP   1    633 18.29                              56    0.47 6  219 297 
 ZAR  HN ES        633 41.76                              56   -0.17 8  219 297 
                                                                                
