 2010 11 4 0815 23.0 L   6.800 -73.061140.1  RSN  8 0.4 2.0LRSN                1
 GAP=143        0.74       3.1     6.0  6.5  0.2298E+00 -0.2493E+01 -0.3153E+01E
 Epicentro: LOS SANTOS - SANTANDER                                             3
 ACTION:UP  10-12-17 16:50 OP:REBC STATUS:               ID:20101104081523 L   I
 2010-11-04-0812-47S.COL___127                                                 6
 STAT SP IPHASW D HRMM SECON CODA AMPLIT PERI AZIMU VELO SNR AR TRES W  DIS CAZ7
 BAR2 SZ IP        815 42.06                             169     0.010   27 210 
 BAR2 SZ I         815 42.22        32.4 0.21                            27 210 
 BAR2 SZ ES   1    815 56.59                             169    -0.3 7   27 210 
 BRR  HZ IP     C  815 43.88                             149    -0.210   80 295 
 BRR  HZ I         815 44.19        33.5 0.21                            80 295 
 BRR  HN ES   2    816  0.61                             149     0.1 5   80 295 
 RUS  HZ EP        815 46.07                             142    -0.110  100 181 
 RUS  HZ I         815 47.23         9.2 0.08                           100 181 
 RUS  HE ES   1    816  4.42                             142     0.1 7  100 181 
 GUE  SZ EP        815 47.10                             138     0.010  115   8 
 GRA  SZ EP        815 47.81                             136     0.310  123  13 
 GRA  SZ ES   1    816  7.12                             136     0.5 7  123  13 
 GRA  SZ I         816  8.59        12.9 0.28                           123  13 
 OCA  SZ EP   1    815 50.69                             128    -0.3 7  162 350 
 OCA  SZ ES   2    816 11.86                             128    -1.0 5  162 350 
 OCA  SZ I         816 17.85         7.4 0.30                           162 350 
 YOP  SZ EP   1    815 52.71                             125     0.5 7  175 156 
 YOP  SN ES   2    816 14.31                             125    -0.8 4  175 156 
 HEL  HZ EP   2    816  4.02                             113     0.1 4  281 256 
 HEL  HN ES   2    816 36.31                             113     0.4 4  281 256 
 HEL  HZ I         816 40.52         7.7 0.33                           281 256 
                                                                                
