 2011 11 4 0725 43.8 L   6.789 -73.103142.3  RSN  5 0.1 1.5LRSN                1
 GAP=143        0.34       3.4     3.5  3.9  0.2595E+01 -0.3277E+01 -0.2595E+01E
 Epicentro: LOS SANTOS - SANTANDER                                             3
 ACTION:UPD 12-07-13 16:08 OP:ep   STATUS:               ID:20111104072543 L   I
 2011-11-04-0721-12S.COL___168                                                 6
 STAT SP IPHASW D HRMM SECON CODA AMPLIT PERI AZIMU VELO AIN AR TRES W  DIS CAZ7
 BTL  SZ EP   2    726  3.02                             170    0.02 5 23.2 308 
 BAR2 SZ EP   1    726  2.92                             170   -0.08 7 23.4 202 
 BAR2 SZ ES   1    726 17.88                             170   -0.10 7 23.4 202 
 BAR2 SZ I         726 20.22         5.0 0.25                          23.4 202 
 PAM  SZ EP   1    726  5.70                             151    0.19 7 75.5  36 
 PAM  SE ES   2    726 22.38                             151   -0.08 5 75.5  36 
 BRR  HZ EP        726  4.73                             150   -0.1110 76.0 298 
 BRR  HZ I         726  5.24         7.2 0.05                          76.0 298 
 BRR  HN ES        726 21.34                             150    0.0810 76.0 298 
 RUS  HN ES   2    726 25.43                             144    0.17 5 99.1 179 
                                                                                
