 2010  9 4 0742 51.9 L   6.825 -72.972112.3  RSN  5 0.6 1.1LRSN                1
 GAP=178        1.44      17.5    22.6 19.8  0.1696E+03 -0.1996E+03  0.8373E+01E
 Epicentro: CEPITA - SANTANDER                                                 3
 ACTION:UP  11-02-18 11:00 OP:tino STATUS:               ID:20100904074251 L   I
 2010-09-04-0739-52S.COL___120                                                 6
 STAT SP IPHASW D HRMM SECON CODA AMPLIT PERI AZIMU VELO SNR AR TRES W  DIS CAZ7
 BTL  SZ EP   1    743  8.47                             162     0.6 7   34 288 
 BTL  SZ ES   1    743 19.68                             162    -0.7 7   34 288 
 BAR2 SZ EP   1    743  8.35                             161     0.4 7   35 222 
 BAR2 SZ I         743 16.05         4.8 0.32                            35 222 
 BRR  HZ IP     C  743 10.10                             139    -0.710   88 291 
 BRR  HN ES   1    743 26.29                             139     0.8 7   88 291 
 BRR  HZ I         743 29.25         5.7 0.09                            88 291 
 RUS  HZ EP   1    743 12.86                             134     0.0 7  104 187 
 RUS  HZ I         743 32.60         1.5 0.18                           104 187 
 GRA  SZ EP   2    743 13.92                             130     0.2 5  119   9 
 GRA  SZ I         743 24.61         1.6 0.09                           119   9 
                                                                                
