 2012  9 4 0133 23.4 L   6.691 -73.280143.6  RSN  5 0.2 1.3LRSN                1
 GAP=123        0.38       4.2     4.7  6.8  0.9982E+01  0.2098E+02  0.1201E+02E
 Epicentro: GALAN - SANTANDER                                                  3
 ACTION:UPD 12-10-22 14:17 OP:ep   STATUS:               ID:20120904013323 L   I
 2012-09-04-0130-00M.COL___218                                                 6
 STAT SP IPHASW D HRMM SECON CODA AMPLIT PERI AZIMU VELO AIN AR TRES W  DIS CAZ7
 BAR2 SZ ES   1    133 57.66                             174   -0.01 7 15.4 135 
 BAR2 SZ I         133 59.22         7.1 0.24                          15.4 135 
 GIR2 SZ ES   2    133 58.42                             162   -0.31 5 43.9  13 
 BRR  HN ES   1    134  0.39                             154    0.21 7 66.3 314 
 RUS  HN ES   1    134  4.17                             146    0.04 7 90.9 166 
 RUS  HZ I         134  5.51         1.8 0.26                          90.9 166 
 PTB  HZ EP   1    133 48.79                             135    0.04 7  131 263 
 PTB  HN ES   1    134  8.35                             135   -0.15 7  131 263 
                                                                                
