 2015  9 4 0227  8.1 L   6.785 -73.122143.2  RSN 11 0.5 1.8LRSN                1
 GAP=140        1.16       3.5     4.9  7.8 -0.2821E+01  0.7126E+01 -0.2418E+01E
 Epicentro: LOS SANTOS - SANTANDER                                             3
 ACTION:UPD 15-10-28 16:23 OP:cam  STATUS:               ID:20150904022708 L   I
 OLDACT:DUP 15-09-04 15:51 OP:ar   STATUS:               ID:20150904021750d    3
 OLDACT:REG 15-09-04 12:28 OP:ak   STATUS:               ID:20150904021749     3
 2015-09-04-0217-49M.COL___355                                                 6
 STAT SP IPHASW D HRMM SECON CODA AMPLIT PERI AZIMU VELO AIN AR TRES W  DIS CAZ7
 BRR  HZ EP        227 30.45                             151    1.2710 74.3 299 
 BRR  HN ES        227 46.24                             151    0.6410 74.3 299 
 BRR  HZ I         227 50.03        11.1 0.18            151           74.3 299 
 PAM  EZ EP        227 30.13                             150    0.0810 77.0  37 
 PAM  EN ES        227 47.08                             150   -0.0710 77.0  37 
 PAM  EZ I         227 51.52         5.4 0.38            154           77.0  37 
 RUS  HZ EP        227 31.25                             144   -0.2510 98.8 178 
 RUS  HN ES        227 49.73                             144    0.0010 98.8 178 
 RUS  HZ I         227 50.36         5.4 0.24            147           98.8 178 
 PTB  HZ EP        227 34.37                             131   -0.73 9  150 260 
 PTB  HN ES        227 55.65                             131   -0.48 9  150 260 
 PTB  HZ I         227 58.04         8.2 0.16            133            150 260 
 OCA  HZ EP        227 36.02                             129   -0.41 9  162 352 
 OCA  HN ES        227 57.71                             129   -0.79 9  162 352 
 OCA  HZ I         228  0.57        14.1 0.36            131            162 352 
 SPBC HZ EP   2    227 36.56                             128    0.09 5  164 220 
 SPBC HN ES        227 58.48                             128   -0.10 9  164 220 
 SPBC HZ I         228  2.10         7.4 0.30            131            164 220 
 ZAR  HN ES        228  6.46                             121    0.31 8  207 292 
 ZAR  HZ I         228 11.77         8.0 0.28            123            207 292 
 SML  HZ EP        227 45.04                             117    0.14 8  246 335 
 SML  HT ES        228 13.65                             117    0.08 8  246 335 
 SML  HZ I         228 15.38         9.2 0.10            119            246 335 
 HEL  HZ EP   2    227 49.23                             114    0.77 4  274 256 
 HEL  HN ES   2    228 19.49                             114   -0.42 4  274 256 
 GUY2CHZ EP   2    227 52.55                             112    0.79 4  302 235 
 GUY2CHN ES   2    228 24.94                             112   -0.85 4  302 235 
 GUY2CHZ I         228 34.16         1.8 0.22                           302 235 
 PRA  HZ EP   2    228  1.71                             106    0.16 3  392 210 
 PRA  HN ES   2    228 43.55                             106    0.33 3  392 210 
 PRA  HZ I         228 48.99         2.3 0.38            108            392 210 
                                                                                
