 2010 11 4 0122 43.0 L   6.806 -73.122143.5  RSN 15 0.4 2.7LRSN                1
 GAP=138        0.74       2.8     4.3  4.9 -0.2138E+01  0.2089E+01  0.3453E+01E
 Epicentro: LOS SANTOS - SANTANDER                                             3
 ACTION:UP  10-12-17 16:50 OP:REBC STATUS:               ID:20101104012243 L   I
 2010-11-04-0120-57S.COL___128                                                 6
 STAT SP IPHASW D HRMM SECON CODA AMPLIT PERI AZIMU VELO SNR AR TRES W  DIS CAZ7
 BAR2 SZ IP        123  2.34                             170    -0.110   25 196 
 BAR2 SZ ES   1    123 17.32                             170    -0.2 7   25 196 
 BAR2 SZ I         123 18.37       116.1 0.33                            25 196 
 GIR2 SZ EP        123  2.37                             167    -0.110   31 345 
 GIR2 SZ ES   2    123 18.08                             167     0.5 5   31 345 
 BRR  HZ IP     C  123  4.11                             151     0.110   73 297 
 BRR  HZ I         123  4.38       231.6 0.15                            73 297 
 BRR  HN ES   1    123 20.95                             151     0.5 7   73 297 
 RUS  HZ EP        123  6.33                             143    -0.310  101 178 
 RUS  HN ES   2    123 24.22                             143    -0.7 5  101 178 
 RUS  HZ I         123 25.90        34.9 0.18                           101 178 
 GUE  SZ EP        123  7.32                             139    -0.110  115  11 
 GRA  SZ IP        123  8.10                             137     0.110  124  16 
 GRA  SZ ES   2    123 27.54                             137     0.2 5  124  16 
 GRA  SZ I         123 35.09        37.1 0.31                           124  16 
 OCA  SZ EP   1    123 10.85                             129    -0.3 7  160 352 
 OCA  SZ ES   1    123 32.80                             129    -0.3 7  160 352 
 OCA  SZ I         123 37.29        58.6 0.31                           160 352 
 YOP  SZ IP        123 13.12                             126     0.3 9  178 154 
 YOP  SE ES   2    123 36.75                             126     0.6 4  178 154 
 NOR  SZ EP        123 18.48                             118    -0.4 8  237 235 
 NOR  SE ES   2    123 45.99                             118    -0.9 4  237 235 
 ROSC BZ EP   1    123 22.09                             116     0.9 6  255 211 
 ROSC BZ I         123 56.53        33.9 0.19                           255 211 
 HEL  HZ EP   2    123 23.34                             114    -0.1 4  275 256 
 HEL  HE ES   2    123 55.23                             114     0.3 4  275 256 
 HEL  HZ I         124  0.84        27.2 0.45                           275 256 
 GUY  SZ EP   2    123 26.86                             112     0.0 4  304 235 
 GUY  SZ I         124 10.06        34.4 0.60                           304 235 
 RREF HZ EP   1    123 29.50                             110     0.2 5  324 230 
 RREF HE ES   2    124  6.03                             110     0.6 3  324 230 
 RREF HZ I         124 11.94        33.2 0.38                           324 230 
 TOL  SZ EP   1    123 32.07                             109     0.6 5  346 225 
 PRA  HZ EP   1    123 36.37                             106    -0.3 4  394 210 
 PRA  HN ES   2    124 18.18                             106    -0.4 3  394 210 
                                                                                
