 2011 12 4 0735 32.2 L   6.729 -73.112147.7  RSN  5 0.1 1.6LRSN                1
 GAP=144        0.39       2.5     3.9  4.5 -0.6170E-01 -0.9271E+00  0.8934E+00E
 Epicentro: JORDAN - SANTANDER                                                 3
 ACTION:UPD 12-07-13 16:14 OP:ep   STATUS:               ID:20111204073532 L   I
 2011-12-04-0730-00M.COL___183                                                 6
 STAT SP IPHASW D HRMM SECON CODA AMPLIT PERI AZIMU VELO AIN AR TRES W  DIS CAZ7
 BAR2 SZ EP        735 51.71                             173   -0.2410 17.0 207 
 GIR2 SZ EP        735 52.27                             164   -0.0810 39.7 347 
 BRR  HZ EP        735 53.99                             150    0.0210 78.4 302 
 BRR  HZ I         735 54.27         7.7 0.24                          78.4 302 
 BRR  HN ES   1    736 11.04                             150    0.08 7 78.4 302 
 PAM  SZ EP        735 55.01                             150    0.1510 81.4  34 
 PAM  SE ES   1    736 12.49                             150   -0.05 7 81.4  34 
 RUS  HZ EP        735 55.68                             146    0.1010 92.6 178 
 RUS  HN ES   1    736 13.87                             146    0.05 7 92.6 178 
                                                                                
