 2012  5 4 0736 34.2 L   6.695 -73.542113.8  RSN  5 0.3 1.2LRSN                1
 GAP=128        0.72       6.9     7.0 10.0  0.2852E+02  0.4055E+02  0.3469E+02E
 Epicentro: EL CARMEN DE CHUCURI - SANTANDER                                   3
 ACTION:UP  12-07-05 12:02 OP:pat  STATUS:               ID:20120504073634 L   I
 2012-05-04-0730-00M.COL___189                                                 6
 STAT SP IPHASW D HRMM SECON CODA AMPLIT PERI AZIMU VELO SNR AR TRES W  DIS CAZ7
 BAR2 SZ EP   1    736 50.75                             158     0.1 7   41 106 
 BAR2 SZ ES   1    737  3.47                             158     0.0 7   41 106 
 BAR2 SZ I         737  4.18         5.7 0.14                            41 106 
 BRR  HZ EP   1    736 50.94                             154     0.3 7   49 338 
 BRR  HE ES   1    737  3.58                             154     0.1 7   49 338 
 RUS  HZ EP   1    736 55.35                             135     0.2 7  102 150 
 RUS  HN ES   1    737 11.28                             135    -0.1 7  102 150 
 RUS  HZ I         737 12.37         2.9 0.33                           102 150 
 PTB  HZ EP   1    736 53.78                             135    -0.7 7  103 260 
 HEL  HN ES   2    737 34.67                             112     0.7 4  227 256 
                                                                                
