 2017  1 4 0231 51.2 L   6.771 -73.151140.2  RSN  8 0.4 1.5LRSN                1
 GAP=137        0.91       3.5     3.7  6.0  0.2245E+00  0.5553E+01  0.5714E+01E
 Epicentro: LOS SANTOS - SANTANDER                                             3
 ACTION:UPD 17-05-22 15:55 OP:jn   STATUS:               ID:20170104023151 L   I
 OLDACT:REG 17-01-04 12:37 OP:lv   STATUS:               ID:20170104022740     3
 2017-01-04-0228-00M.COL___369                                                 6
 STAT SP IPHASW D HRMM SECON CODA AMPLIT PERI AZIMU VELO AIN AR TRES W  DIS CAZ7
 BAR2 EZ EP        232  9.97                             171   -0.1610 20.1 190 
 BAR2 EZ ES        232 24.10                             171   -0.7810 20.1 190 
 BAR2 EZ I         232 26.51        17.4 0.25            172           20.1 190 
 BRR  HZ IP     C  232 11.91                             151    0.0710 72.2 301 
 BRR  HN ES        232 28.39                             151    0.4710 72.2 301 
 BRR  HZ I         232 31.79         4.3 0.10            151           72.2 301 
 PAM  EZ EP        232 13.01                             149   -0.0310 80.2  38 
 PAM  EN ES        232 30.39                             149    0.3510 80.2  38 
 PAM  EZ I         232 32.54         2.9 0.26            151           80.2  38 
 RUS  HZ EP        232 14.20                             143   -0.0110 97.5 176 
 RUS  HN ES        232 32.39                             143    0.2510 97.5 176 
 RUS  HZ I         232 33.78         6.3 0.10            146           97.5 176 
 PTB  HZ EP        232 17.10                             131   -0.54 9  147 260 
 PTB  HN ES        232 38.03                             131   -0.21 9  147 260 
 PTB  HZ I         232 39.88         3.9 0.16            132            147 260 
 ZAR  HE ES        232 48.58                             121    0.11 9  205 293 
 ZAR  HZ I         232 54.01         3.9 0.11            122            205 293 
 CHI  HZ EP        232 28.18                             116   -0.09 8  245 195 
 CHI  HN ES        232 57.64                             116    0.47 8  245 195 
 CHI  HZ I         233  0.73         1.5 0.44            118            245 195 
 GUY2CHZ EP   4 C  232 36.59                             111    2.27 0  299 235 
 GUY2CHN ES        233  8.30                             111    0.36 7  299 235 
 GUY2CHZ I         233 15.53         0.9 0.40                           299 235 
                                                                                
