 2015  1 4 0812  3.5 L   6.776 -73.162148.3  RSN 10 0.6 1.5LRSN                1
 GAP=110        1.37       4.0     6.1  7.8  0.3649E+01 -0.1210E+00 -0.2261E+01E
 Epicentro: LOS SANTOS - SANTANDER                                             3
 ACTION:UPD 15-03-02 15:36 OP:nd   STATUS:               ID:20150104081203 L   I
 OLDACT:REG 15-01-04 14:40 OP:stll STATUS:               ID:20150104080743     3
 2015-01-04-0807-43M.COL___274                                                 6
 STAT SP IPHASW D HRMM SECON CODA AMPLIT PERI AZIMU VELO AIN AR TRES W  DIS CAZ7
 BAR2 EZ EP        812 23.04                             172   -0.3010 20.4 186 
 BAR2 EZ ES        812 38.29                             172   -0.5510 20.4 186 
 BAR2 EZ I         812 41.32         4.9 0.20            171           20.4 186 
 BRR  HZ EP        812 25.31                             153    0.4510 70.9 301 
 BRR  HN ES        812 42.16                             153    0.6010 70.9 301 
 RUS  HN ES        812 45.54                             145   -0.3210 98.1 175 
 RUS  HZ I         812 48.63         3.8 0.34            146           98.1 175 
 PTB  HZ EP        812 30.09                             133   -0.33 9  145 260 
 PTB  HN ES        812 51.14                             133   -0.32 9  145 260 
 PTB  HZ I         812 53.27         5.6 0.12            133            145 260 
 TAM  HZ EP        812 31.07                             131   -0.37 9  156 104 
 TAM  HZ I         812 31.59         5.7 0.32            133            156 104 
 SPBC HZ EP        812 32.15                             130    0.30 9  160 219 
 SPBC HN ES        812 54.47                             130    0.48 9  160 219 
 SPBC HZ I         812 59.13         5.2 0.20            130            160 219 
 OCA  HN ES        812 55.87                             130    1.27 9  163 354 
 OCA  HZ I         812 58.73         3.1 0.54            131            163 354 
 ZAR  HZ EP        812 35.91                             123   -0.09 9  203 293 
 ZAR  HE ES        813  0.95                             123   -0.43 9  203 293 
 ZAR  HZ I         813  7.99         3.1 0.42            124            203 293 
 SML  HZ EP        812 40.41                             118    0.01 8  245 336 
 SML  HN ES        813  7.96                             118   -1.26 8  245 336 
 SML  HZ I         813 11.03         5.3 0.10            119            245 336 
 CHI  HZ EP        812 41.53                             118    0.56 8  246 195 
 CHI  HN ES     C  813 10.41                             118    0.18 8  246 195 
 CHI  HZ I         813 16.59         1.3 0.54            119            246 195 
                                                                                
