 2011  7 4 0049  1.2 L   6.741 -73.090146.0  RSN  7 0.1 1.4LRSN                1
 GAP=146        0.33       2.1     3.0  3.2 -0.2140E+01  0.6668E+00  0.5442E+00E
 Epicentro: JORDAN - SANTANDER                                                 3
 ACTION:UPD 12-07-25 13:58 OP:epov STATUS:               ID:20110704004901 L   I
 2011-07-04-0047-06S.COL___140                                                 6
 STAT SP IPHASW D HRMM SECON CODA AMPLIT PERI AZIMU VELO AIN AR TRES W  DIS CAZ7
 BAR2 SZ EP        049 20.86                             172    0.0410 19.3 212 
 BAR2 SZ ES   1    049 35.84                             172   -0.25 7 19.3 212 
 BAR2 SZ I         049 37.78         7.2 0.28                          19.3 212 
 BTL  SZ EP   1    049 21.12                             169    0.12 7 27.8 315 
 PAM  SN ES   1    049 41.12                             150    0.12 7 79.0  33 
 BRR  HZ EP        049 22.91                             150   -0.0110 79.8 301 
 BRR  HN ES   1    049 39.96                             150    0.13 7 79.8 301 
 RUS  HZ EP   1    049 24.57                             146    0.03 7 93.8 180 
 RUS  HN ES   2    049 42.83                             146    0.13 5 93.8 180 
 RUS  HZ I         049 44.04         4.0 0.37                          93.8 180 
 GRA  SZ EP   1    049 26.72                             136   -0.18 7  130  14 
 GRA  SZ ES   1    049 46.84                             136   -0.06 7  130  14 
 GRA  SZ I         049 48.03         3.4 0.37                           130  14 
 NOR  SE ES   2    050  4.96                             118   -0.16 4  236 237 
                                                                                
