 2011  6 4 0038 21.5 L   6.732 -73.063147.8  RSN  4 0.2 1.8LRSN                1
 GAP=190        0.51       6.6     6.4  6.9 -0.1414E+02 -0.1380E+02  0.3391E+01E
 Epicentro: JORDAN - SANTANDER                                                 3
 ACTION:UP  11-07-14 19:03 OP:ep   STATUS:               ID:20110604003821 L   I
 2011-06-04-0020-00M.COL___122                                                 6
 STAT SP IPHASW D HRMM SECON CODA AMPLIT PERI AZIMU VELO SNR AR TRES W  DIS CAZ7
 BAR2 SZ EP   1    038 41.18                             172    -0.2 7   20 220 
 BAR2 SZ I         038 41.59        11.5 0.19                            20 220 
 BAR2 SZ ES   2    038 57.02                             172     0.2 5   20 220 
 PAM  SZ EP   1    038 44.34                             151     0.3 7   78  31 
 PAM  SN ES   2    039  1.21                             151    -0.3 5   78  31 
 BRR  HZ EP   1    038 43.34                             149    -0.2 7   83 300 
 BRR  HN ES   1    039  0.93                             149     0.1 7   83 300 
 BRR  HZ I         039  3.38        18.5 0.16                            83 300 
 GRA  SZ EP   1    038 47.45                             136     0.1 7  131  13 
 GRA  SZ I         038 48.75         5.9 0.20                           131  13 
 GRA  SZ ES   2    039  7.34                             136    -0.2 5  131  13 
                                                                                
