 2014  3 4 1351 34.3 L   6.842 -73.187138.0  RSN  6 0.4 1.5LRSN                1
 GAP=148        0.92       5.4     4.8  6.7 -0.1221E+02  0.1443E+02 -0.1231E+01E
 Epicentro: ZAPATOCA - SANTANDER                                               3
 ACTION:UPD 14-04-09 23:14 OP:nd   STATUS:               ID:20140304135134 L   I
 OLDACT:REG 14-03-04 15:18 OP:stll STATUS:               ID:20140304134813     3
 2014-03-04-1348-13M.COL___238                                                 6
 STAT SP IPHASW D HRMM SECON CODA AMPLIT PERI AZIMU VELO AIN AR TRES W  DIS CAZ7
 BAR2 SZ EP       1351 52.82                             168   -0.2910 27.6 179 
 BAR2 SZ ES       1352  8.32                             168    0.5510 27.6 179 
 BAR2 SZ I        1352  9.94        11.6 0.46            170           27.6 179 
 PAM  SZ EP       1351 55.92                             150    0.2310 77.0  44 
 PAM  SN ES       1352 12.23                             150   -0.1210 77.0  44 
 PAM  SZ I        1352 15.22         5.3 0.20            154           77.0  44 
 RUS  HZ EP       1351 57.15                             141   -0.5410  106 174 
 RUS  HN ES       1352 15.93                             141    0.0010  106 174 
 RUS  HZ I        1352 16.74         3.2 0.26            146            106 174 
 PTB  HZ EP       1352  0.55                             131    0.22 9  144 257 
 PTB  HN ES       1352 20.12                             131   -0.51 9  144 257 
 PTB  HZ I        1352 27.09         3.7 0.30            132            144 257 
 NOR  HZ EP       1352  9.34                             117   -0.16 8  234 233 
 NOR  HE ES       1352 36.88                             117   -0.06 8  234 233 
 NOR  HZ I        1352 44.33         2.7 0.34            119            234 233 
 GUY2CHZ EP       1352 18.19                             111    0.73 7  300 234 
 GUY2CHN ES       1352 51.49                             111    0.38 7  300 234 
 GUY2CHZ I        1352 59.70         2.6 0.76                           300 234 
                                                                                
