 2015  5 4 1722 47.5 L   6.815 -73.156137.0  RSN  8 0.5 2.0LRSN                1
 GAP= 74        1.20       4.1     4.9  7.0  0.2149E+01  0.4398E+01 -0.3391E+01E
 Epicentro: LOS SANTOS - SANTANDER                                             3
 ACTION:UPD 15-09-10 22:01 OP:cam  STATUS:               ID:20150504172247 L   I
 OLDACT:REG 15-05-04 22:27 OP:stll STATUS:               ID:20150504171742     3
 2015-05-04-1717-42M.COL___268                                                 6
 STAT SP IPHASW D HRMM SECON CODA AMPLIT PERI AZIMU VELO AIN AR TRES W  DIS CAZ7
 BAR2 EZ EP       1723  6.23                             169    0.1010 24.8 187 
 BAR2 EZ ES       1723 20.25                             169   -0.3910 24.8 187 
 BAR2 EZ I        1723 21.94        24.6 0.30            170           24.8 187 
 BRR  HZ IP     C 1723  7.96                             152    0.3410 69.4 298 
 BRR  HN ES       1723 24.11                             152    0.8110 69.4 298 
 BRR  HZ I        1723 28.45        24.8 0.36            150           69.4 298 
 PAM  SZ IP     C 1723  9.10                             149    0.3210 76.9  41 
 PAM  SZ I        1723  9.23        19.3 0.16            152           76.9  41 
 PAM  SN ES       1723 25.65                             149    0.2910 76.9  41 
 RUS  HZ EP       1723 10.63                             142    0.0810  102 175 
 RUS  HN ES       1723 27.73                             142   -0.7810  102 175 
 RUS  HZ I        1723 30.73         7.4 0.16            144            102 175 
 TAM  HZ EP       1723 14.60                             128   -0.07 9  157 105 
 SPBC HZ EP       1723 15.57                             127    0.16 9  164 218 
 SPBC HN ES       1723 37.28                             127    0.11 9  164 218 
 ZAR  HZ EP       1723 19.75                             121    0.52 9  202 292 
 ZAR  HN ES       1723 43.49                             121   -0.48 9  202 292 
 ZAR  HZ I        1723 49.83        11.8 0.34            121            202 292 
 SML  HZ EP       1723 22.98                             116   -0.47 8  242 335 
 SML  HE ES       1723 50.45                             116   -1.03 8  242 335 
 SML  HZ I        1723 54.46        12.0 0.10            117            242 335 
                                                                                
