 2011  7 4 1441  6.8 L   6.766 -73.100144.0  RSN  8 0.3 2.0LRSN                1
 GAP=161        0.56       2.6     4.5  4.3 -0.1304E+01  0.1400E+01 -0.1669E+01E
 Epicentro: LOS SANTOS - SANTANDER                                             3
 ACTION:UPD 12-07-25 13:58 OP:epov STATUS:               ID:20110704144106 L   I
 2011-07-04-1439-13S.COL___140                                                 6
 STAT SP IPHASW D HRMM SECON CODA AMPLIT PERI AZIMU VELO AIN AR TRES W  DIS CAZ7
 BAR2 SZ EP       1441 26.27                             171    0.0910 21.2 205 
 BAR2 SZ ES       1441 40.92                             171   -0.3810 21.2 205 
 BAR2 SZ I        1441 42.49        30.8 0.40                          21.2 205 
 BRR  HZ EP       1441 28.11                             150   -0.0210 77.5 299 
 BRR  HZ I        1441 28.39        46.1 0.16                          77.5 299 
 BRR  HN ES   1   1441 44.69                             150   -0.08 7 77.5 299 
 RUS  HZ EP   1   1441 29.90                             144   -0.20 7 96.6 179 
 RUS  HE ES   1   1441 48.77                             144    0.51 7 96.6 179 
 RUS  HZ I        1441 50.05         9.9 0.13                          96.6 179 
 BRI  SZ EP       1441 30.68                             140    0.0010  110  18 
 OCA  SZ EP   1   1441 35.16                             128   -0.24 7  165 352 
 OCA  SZ ES   1   1441 58.26                             128    0.55 7  165 352 
 OCA  SZ I        1442  8.25        13.5 0.42                           165 352 
 NOR  SZ EP   2   1441 42.57                             118   -0.08 4  237 236 
 NOR  SN ES   2   1442 10.68                             118    0.08 4  237 236 
 CHI  HZ EP   2   1441 44.22                             117    0.06 4  246 197 
 CHI  HE ES   2   1442 13.61                             117    0.32 4  246 197 
 CHI  HZ I        1442 21.31         3.9 0.18                           246 197 
 HEL  HZ EP   2   1441 46.84                             114   -0.54 4  276 257 
 HEL  HN ES   2   1442 19.40                             114    0.38 4  276 257 
                                                                                
