 2014  6 4 1203 29.7 L   6.813 -73.163141.8  RSN  7 0.4 1.7LRSN                1
 GAP=199        1.08       4.5     5.9  7.4  0.8090E+01  0.3019E+01 -0.1049E+02E
 Epicentro: LOS SANTOS - SANTANDER                                             3
 ACTION:UPD 14-07-01 22:50 OP:nd   STATUS:               ID:20140604120329 L   I
 OLDACT:REG 14-06-04 21:25 OP:stll STATUS:               ID:20140604115816     3
 2014-06-04-1158-16M.COL___259                                                 6
 STAT SP IPHASW D HRMM SECON CODA AMPLIT PERI AZIMU VELO AIN AR TRES W  DIS CAZ7
 BAR2 SZ EP       12 3 49.06                             170    0.2210 24.5 185 
 BAR2 SZ ES       12 4  3.63                             170   -0.1710 24.5 185 
 BAR2 SZ I        12 4  5.19        27.8 0.18            172           24.5 185 
 BRR  HZ EP       12 3 50.75                             153    0.5010 68.8 298 
 BRR  HZ I        12 3 51.07         8.8 0.34            151           68.8 298 
 BRR  HN ES       12 4  6.79                             153    0.4910 68.8 298 
 RUS  HZ EP       12 3 53.18                             143    0.0410  102 175 
 RUS  HZ I        12 3 54.13         3.6 0.16            145            102 175 
 RUS  HN ES       12 4 11.08                             143   -0.3710  102 175 
 PTB  HZ EP       12 3 55.69                             131   -0.48 9  146 258 
 PTB  HN ES       12 4 16.06                             131   -0.78 9  146 258 
 PTB  HZ I        12 4 19.82         5.7 0.14            131            146 258 
 SPBC HN ES       12 4 20.30                             128    0.46 9  163 218 
 ZAR  HZ EP       12 4  2.10                             122    0.49 9  202 292 
 ZAR  HE ES       12 4 26.78                             122    0.25 9  202 292 
 ZAR  HZ I        12 4 30.37         3.9 0.26            122            202 292 
 SML  HZ EP       12 4  5.57                             117   -0.27 8  242 336 
 SML  HE ES       12 4 33.50                             117   -0.56 8  242 336 
 SML  HZ I        12 4 39.86         5.8 0.30            117            242 336 
                                                                                
