 2012  8 4 1011 42.4 L   6.767 -73.110145.0  RSN  5 0.3 1.4LRSN                1
 GAP=143        0.55       4.1     5.7  7.1  0.4399E+01  0.5618E+01  0.8698E+01E
 Epicentro: LOS SANTOS - SANTANDER                                             3
 ACTION:UPD 12-09-10 11:54 OP:ep   STATUS:               ID:20120804101155 L   I
 2012-08-04-1009-35M.COL___211                                                 6
 STAT SP IPHASW D HRMM SECON CODA AMPLIT PERI AZIMU VELO AIN AR TRES W  DIS CAZ7
 BAR2 SZ EP       1012  1.79                             171   -0.0910 20.9 203 
 BAR2 SZ I        1012 18.09         6.1 0.22                          20.9 203 
 BRR  HZ EP       1012  3.60                             151   -0.1710 76.5 300 
 BRR  HZ I        1012  4.00         7.5 0.30                          76.5 300 
 BRR  HN ES   1   1012 20.82                             151    0.39 7 76.5 300 
 PAM  SN ES   1   1012 21.67                             151   -0.17 7 77.8  36 
 RUS  HZ EP       1012  5.99                             145    0.2010 96.7 178 
 RUS  HN ES   1   1012 24.05                             145    0.01 7 96.7 178 
 RUS  HZ I        1012 25.41         1.9 0.24                          96.7 178 
 PTB  HN ES   3   1012 29.67                             131   -1.14 2  151 260 
                                                                                
