 2017  1 4 1031 58.7 L   7.349 -72.999159.7  RSN  7 0.2 1.6LRSN                1
 GAP=177        0.48       3.1     2.5  4.0  0.2136E+00  0.3293E+01  0.2009E-01E
 Epicentro: SURATA - SANTANDER                                                 3
 ACTION:UPD 17-05-22 15:55 OP:jn   STATUS:               ID:20170104103158 L   I
 OLDACT:REG 17-01-04 20:44 OP:dnl  STATUS:               ID:20170104102745     3
 2017-01-04-1028-00M.COL___366                                                 6
 STAT SP IPHASW D HRMM SECON CODA AMPLIT PERI AZIMU VELO AIN AR TRES W  DIS CAZ7
 PAM  EZ IP     D 1032 20.75                             168    0.1310 33.0  92 
 PAM  EN ES       1032 37.61                             168   -0.0910 33.0  92 
 PAM  EZ I        1032 39.13         2.6 0.36            175           33.0  92 
 BRR  HZ EP       1032 22.31                             151    0.2510 83.2 251 
 BRR  HN ES   3   1032 41.06                             151    0.80 2 83.2 251 
 BRR  HZ I        1032 47.23         9.8 0.32            150           83.2 251 
 BAR2 EZ EP       1032 22.52                             150   -0.0510 86.1 194 
 BAR2 EZ ES       1032 41.14                             150   -0.0410 86.1 194 
 BAR2 EZ I        1032 46.16        10.6 0.26            151           86.1 194 
 RUS  HZ EP       1032 28.82                             133    0.12 9  161 183 
 RUS  HE ES       1032 52.06                             133   -0.02 9  161 183 
 RUS  HZ I        1032 54.77         2.2 0.34            136            161 183 
 PTB  HZ EP       1032 29.78                             128   -0.41 9  184 241 
 PTB  HN ES       1032 54.67                             128   -0.06 9  184 241 
 PTB  HZ I        1033  0.45         6.5 0.84            130            184 241 
 ZAR  HZ EP   4   1032 31.28                             125   -1.01 0  206 275 
 ZAR  HN ES       1032 58.44                             125   -0.04 8  206 275 
 ZAR  HZ I        1033  3.25         3.5 0.28            127            206 275 
 GUY2CHN ES   2   1033 28.23                             111    0.57 3  352 228 
 GUY2CHZ  IAML    1033 37.62         1.8 0.42                           352 228 
                                                                                
