 2011 11 4 1427 56.0 L   6.780 -73.142147.0  RSN  5 0.4 1.5LRSN                1
 GAP=138        0.80       5.3     6.5  9.3  0.3536E+01  0.3402E+00  0.5972E+01E
 Epicentro: LOS SANTOS - SANTANDER                                             3
 ACTION:UPD 12-07-13 16:08 OP:ep   STATUS:               ID:20111104142756 L   I
 2011-11-04-1426-48S.COL___174                                                 6
 STAT SP IPHASW D HRMM SECON CODA AMPLIT PERI AZIMU VELO AIN AR TRES W  DIS CAZ7
 BAR2 SZ EP       1428 15.52                             171   -0.1910 21.3 192 
 BAR2 SZ I        1428 34.23         8.2 0.72                          21.3 192 
 BRR  HZ EP       1428 17.33                             152    0.0010 72.6 300 
 BRR  HN ES   1   1428 34.58                             152    0.59 7 72.6 300 
 BRR  HZ I        1428 41.43         8.6 0.52                          72.6 300 
 PAM  SZ EP       1428 18.42                             150    0.0210 78.8  38 
 PAM  SE ES   1   1428 35.71                             150   -0.18 7 78.8  38 
 RUS  HZ EP       1428 20.04                             145    0.3610 98.4 176 
 RUS  HE ES   1   1428 37.79                             145   -0.39 7 98.4 176 
 RUS  HZ I        1428 39.40         3.9 0.34                          98.4 176 
 ZAR  HN ES   2   1428 52.97                             122   -1.12 4  205 293 
                                                                                
