 2011 12 4 1314 26.8 L   6.761 -73.052145.8  RSN  4 0.1 1.5LRSN                1
 GAP=206        0.34       5.9     9.6  4.9  0.4013E+02 -0.1499E+02 -0.1306E+02E
 Epicentro: LOS SANTOS - SANTANDER                                             3
 ACTION:UPD 12-07-13 16:14 OP:ep   STATUS:               ID:20111204131426 L   I
 2011-12-04-1310-00M.COL___180                                                 6
 STAT SP IPHASW D HRMM SECON CODA AMPLIT PERI AZIMU VELO AIN AR TRES W  DIS CAZ7
 BAR2 SZ EP   1   1314 46.51                             171    0.04 7 23.6 218 
 BAR2 SZ ES   1   1315  1.64                             171   -0.15 7 23.6 218 
 BAR2 SZ I        1315  6.57         6.0 0.45                          23.6 218 
 GIR2 SZ EP   1   1314 46.86                             164    0.14 7 38.5 336 
 BRR  HZ EP       1314 48.56                             149   -0.0910 82.3 298 
 BRR  HN ES   2   1315  5.87                             149    0.20 5 82.3 298 
 BRR  HN I        1315 11.35        15.2 0.26                          82.3 298 
 RUS  HZ EP   2   1314 50.24                             145   -0.03 5 96.1 182 
 RUS  HE ES   2   1315  8.66                             145    0.12 5 96.1 182 
 RUS  HZ I        1315  9.88         2.6 0.24                          96.1 182 
                                                                                
