 2016  1 4 1749 40.7 L   6.810 -73.135148.0  RSN 13 0.3 2.3LRSN                1
 GAP=137        0.80       2.1     3.3  4.1 -0.7931E+00  0.3697E+01  0.1689E+00E
 Epicentro: LOS SANTOS - SANTANDER                                             3
 ACTION:UPD 16-03-09 23:22 OP:cam  STATUS:               ID:20160104174940 L   I
 OLDACT:UP  16-01-05 01:16 OP:ar   STATUS:               ID:20160104174749     3
 OLDACT:REG 16-01-04 22:09 OP:ar   STATUS:               ID:20160104174749     3
 2016-01-04-1747-49M.COL___335                                                 6
 STAT SP IPHASW D HRMM SECON CODA AMPLIT PERI AZIMU VELO AIN AR TRES W  DIS CAZ7
 BAR2 EZ EP     D 1750  0.49                             170   -0.1210 24.7 192 
 BAR2 EZ ES       1750 15.86                             170   -0.2910 24.7 192 
 BAR2 EZ I        1750 18.18        33.9 0.32            169           24.7 192 
 BRR  HZ EP       1750  2.34                             153    0.2410 71.7 297 
 BRR  HN ES       1750 19.32                             153    0.5110 71.7 297 
 BRR  HZ I        1750 22.49        32.1 0.24            150           71.7 297 
 PAM  EZ EP       1750  3.43                             152    0.3910 75.8  39 
 PAM  EN ES       1750 20.66                             152    0.1810 75.8  39 
 PAM  EZ I        1750 23.39        24.7 0.58            155           75.8  39 
 RUS  HZ EP       1750  4.47                             144   -0.2610  102 177 
 RUS  HE ES       1750 23.32                             144   -0.1610  102 177 
 RUS  HZ I        1750 24.56        10.5 0.28            147            102 177 
 PTB  HZ EP       1750  7.26                             132   -0.70 9  149 258 
 PTB  HN ES   4   1750 27.86                             132   -1.37 0  149 258 
 PTB  HZ I        1750 33.37        20.1 0.44            132            149 258 
 OCA  HZ EP       1750  8.98                             130   -0.09 9  159 353 
 OCA  HN ES       1750 30.94                             130   -0.28 9  159 353 
 OCA  HZ I        1750 38.72        37.6 0.44            132            159 353 
 SPBC HZ EP       1750  9.53                             129    0.02 9  165 219 
 SPBC HN ES       1750 32.34                             129    0.35 9  165 219 
 SPBC HZ I        1750 35.63        24.9 0.12            131            165 219 
 ZAR  HZ EP       1750 13.48                             123    0.14 9  205 292 
 ZAR  HN ES       1750 38.73                             123   -0.09 9  205 292 
 ZAR  HZ I        1750 45.53        16.8 0.26            123            205 292 
 NOR  HZ EP       1750 16.66                             119   -0.05 8  236 234 
 NOR  HE ES       1750 44.48                             119   -0.34 8  236 234 
 NOR  HZ I        1750 49.78        15.1 0.56            120            236 234 
 SML  HZ EP       1750 17.22                             118   -0.16 8  243 335 
 SML  HE ES       1750 45.82                             118   -0.18 8  243 335 
 SML  HZ I        1750 49.34        21.6 0.24            119            243 335 
 CHI  HZ EP       1750 18.74                             117    0.08 8  250 195 
 CHI  HN ES       1750 48.26                             117   -0.02 8  250 195 
 CHI  HZ I        1750 53.06         9.5 0.44            120            250 195 
 HEL  HZ EP   9   1750 23.45                             115    2.28 0  273 256 
 HEL  HN ES       1750 55.07                             114    0.04 8  273 256 
 HEL  HZ I        1750 59.07        11.1 0.24            116            273 256 
 GUY2CHZ EP       1750 25.55                             113    0.97 7  303 235 
 GUY2CHN ES   4   1751  2.51                             113    3.70 0  303 235 
 GUY2CHZ I        1751  6.83        11.1 0.66                           303 235 
                                                                                
