 2013  7 4 1722 38.7 L   6.743 -73.132150.0  RSN 10 0.5 1.9LRSN                1
 GAP=141        1.28       5.6     6.2  8.6 -0.3723E+01  0.8663E+01  0.2378E+01E
 Epicentro: JORDAN - SANTANDER                                                 3
 ACTION:UPD 13-08-12 10:35 OP:ep   STATUS:               ID:20130704172238 L   I
 OLDACT:UP  13-07-04 21:06 OP:jn   STATUS:               ID:20130704171959     3
 OLDACT:REG 13-07-04 19:32 OP:jn   STATUS:               ID:20130704171959     3
 2013-07-04-1719-59M.COL___267                                                 6
 STAT SP IPHASW D HRMM SECON CODA AMPLIT PERI AZIMU VELO AIN AR TRES W  DIS CAZ7
 BAR2 SZ EP       1722 59.02                             173    0.2910 17.6 199 
 BAR2 SZ ES       1723 14.56                             173    0.1910 17.6 199 
 BAR2 SZ I        1723 15.56        14.3 0.26            164           17.6 199 
 GIR2 SZ EP   1   1722 59.05                             165   -0.00 7 37.7 350 
 BRR  HZ EP       1723  1.03                             152    0.4810 75.7 302 
 BRR  HN ES       1723 18.31                             152    0.7010 75.7 302 
 BRR  HZ I        1723 25.60        16.7 0.40            146           75.7 302 
 PAM  SZ EP     C 1723  1.76                             150    0.1610 81.4  36 
 PAM  SN ES       1723 18.87                             150   -0.6010 81.4  36 
 PAM  SZ I        1723 21.26        13.5 0.52            147           81.4  36 
 RUS  HZ EP     D 1723  2.94                             146    0.5210 94.2 177 
 RUS  HN ES       1723 20.39                             146   -0.5410 94.2 177 
 RUS  HZ I        1723 22.84         7.0 0.36            135           94.2 177 
 PTB  HZ EP       1723  5.60                             133   -0.45 9  148 261 
 PTB  HN ES       1723 26.47                             133   -0.92 9  148 261 
 PTB  HZ I        1723 32.86         8.5 0.24            123            148 261 
 NOR  HN ES   1   1723 43.20                             119    0.90 6  232 236 
 NOR  HZ I        1723 46.83         6.8 0.36            111            232 236 
 CHI  HZ EP   1   1723 15.56                             118   -0.46 6  243 196 
 CHI  HZ I        1723 52.36         4.4 0.26            110            243 196 
 SML  HE ES   1   1723 44.99                             117   -0.54 6  250 336 
 PRA  HN ES   4   1724 15.96                             107    2.71 0  387 210 
 PRA  HZ I        1724 20.75         5.3 0.38            101            387 210 
                                                                                
