 2013 11 4 1200 26.0 L   5.906 -73.808106.5  RSN  5 0.5 1.3LRSN                1
 GAP=135        1.26       7.9     5.7 13.4  0.9879E+01  0.1847E+02  0.5126E+01E
 Epicentro: JESUS MARIA - SANTANDER                                            3
 ACTION:UPD 14-01-09 16:25 OP:ep   STATUS:               ID:20131104120026 L   I
 OLDACT:REG 13-11-04 09:46 OP:jn   STATUS:               ID:20131104120000     3
 2013-11-04-1200-00M.COL___273                                                 6
 STAT SP IPHASW D HRMM SECON CODA AMPLIT PERI AZIMU VELO AIN AR TRES W  DIS CAZ7
 SPBC HZ EP       12 0 41.96                             158    0.6110 40.5 226 
 SPBC HZ I        12 0 56.79         4.6 0.18            145           40.5 226 
 RUS  HZ EP       12 0 44.87                             141    0.4210 80.3  91 
 RUS  HN ES       12 0 58.09                             141   -0.7510 80.3  91 
 RUS  HZ I        12 1  0.40         3.0 0.36            143           80.3  91 
 PTB  HZ EP       12 0 44.63                             133   -0.8210  100 314 
 PTB  HN ES       12 1  0.76                             133    0.1310  100 314 
 PTB  HZ I        12 1  2.40         2.9 0.14            136            100 314 
 BAR2 SZ EP       12 0 46.00                             133    0.0210  103  42 
 BAR2 SZ ES       12 1  2.03                             133    0.4610  103  42 
 BAR2 SZ I        12 1  3.81        25.0 0.44            142            103  42 
 BRR  HZ EP       12 0 48.47                             124   -0.1110  133   5 
 BRR  HN ES   2   12 1  6.35                             124    0.16 5  133   5 
                                                                                
