 2017  9 4 1028 44.2 L   6.777 -73.060145.9  RSN 11 0.4 1.6LRSN                1
 GAP=128        0.84       3.2     3.9  4.7  0.2456E+00  0.1094E+01  0.3524E+01E
 Epicentro: LOS SANTOS - SANTANDER                                             3
 ACTION:UPD 17-10-05 19:09 OP:rebc STATUS:               ID:20170904102844 L   I
 OLDACT:REG 17-09-04 19:54 OP:lv   STATUS:               ID:20170904102742     3
 2017-09-04-1028-00M.COL___405                                                 6
 STAT SP IPHASW D HRMM SECON CODA AMPLIT PERI AZIMU VELO AIN AR TRES W  DIS CAZ7
 BAR2 EZ ES       1029 18.80                             170   -0.4010 24.5 213 
 BAR2 EZ I        1029 20.97         7.6 0.30            178           24.5 213 
 PAM  EZ EP       1029  6.65                             152    0.4410 73.8  33 
 PAM  EZ I        1029 26.05        10.6 0.54            143           73.8  33 
 BRR  HZ EP       1029  5.96                             149    0.0410 80.7 297 
 BRR  HE ES       1029 23.05                             149    0.1910 80.7 297 
 BRR  HZ I        1029 24.68         4.7 0.12            147           80.7 297 
 RUS  HZ EP       1029  8.17                             145    0.4110 97.9 181 
 RUS  HN ES       1029 26.47                             145    0.3310 97.9 181 
 RUS  HZ I        1029 27.61         5.0 0.24            147           97.9 181 
 SPBC HZ EP       1029 12.79                             128   -0.31 9  167 222 
 SPBC HN ES       1029 35.12                             128   -0.53 9  167 222 
 SPBC HZ I        1029 37.62         6.8 0.18            129            167 222 
 ZAR  HZ EP       1029 17.03                             121   -0.62 8  214 292 
 ZAR  HN ES   4   1029 41.21                             121   -2.54 0  214 292 
 ZAR  HZ I        1029 49.60         2.5 0.12            119            214 292 
 NOR  HZ EP       1029 20.52                             118   -0.09 8  241 236 
 NOR  HN ES       1029 49.12                             118    0.10 8  241 236 
 NOR  HZ I        1029 50.47         2.4 0.28            117            241 236 
 CHI  HZ EP       1029 21.80                             117   -0.12 8  249 197 
 CHI  HN ES       1029 51.40                             117    0.05 8  249 197 
 CHI  HZ I        1029 54.97         1.6 0.10            116            249 197 
 PTGC HZ EP       1029 27.06                             112   -0.35 7  303 160 
 PTGC HN ES       1030  0.72                             112   -0.40 7  303 160 
 GUY2CHZ EP   4   1029 30.48                             112    1.95 0  308 236 
 GUY2CHE ES       1030  3.63                             112    0.52 7  308 236 
 GUY2CHZ I        1030 10.13         1.9 0.34                           308 236 
 PRA  HZ EP       1029 38.50                             106    0.48 6  395 211 
 PRA  HN ES       1030 20.42                             106    0.41 6  395 211 
 PRA  HZ I        1030 24.81         1.3 0.34            105            395 211 
                                                                                
