 2017  6 4 1015 46.8 L   6.817 -73.159146.9  RSN  7 0.5 1.8LRSN                1
 GAP=213        1.15       6.2     5.7  8.4  0.1540E+02 -0.2533E+01  0.1115E+02E
 Epicentro: LOS SANTOS - SANTANDER                                             3
 ACTION:UPD 17-09-14 16:49 OP:jn   STATUS:               ID:20170604101546 L   I
 OLDACT:UP  17-06-04 22:55 OP:ar   STATUS:               ID:20170604100741d    3
 OLDACT:DUP 17-06-04 22:49 OP:ar   STATUS:               ID:20170604100741d    3
 2017-06-04-1008-00M.COL___344                                                 6
 STAT SP IPHASW D HRMM SECON CODA AMPLIT PERI AZIMU VELO AIN AR TRES W  DIS CAZ7
 BRR  HZ EP       1016  8.20                             153    0.2810 69.0 298 
 BRR  HN ES       1016 25.08                             153    0.6710 69.0 298 
 BRR  HZ I        1016 25.62        15.3 0.32            151           69.0 298 
 RUS  HZ EP       1016 10.33                             144   -0.4410  103 175 
 RUS  HN ES       1016 28.92                             144   -0.5710  103 175 
 RUS  HZ I        1016 29.61         7.1 0.18            142            103 175 
 PTB  HZ EP       1016 13.06                             132   -0.67 9  147 258 
 PTB  HN ES       1016 34.28                             132   -0.48 9  147 258 
 PTB  HZ I        1016 35.89         7.5 0.30            130            147 258 
 YPLC HZ EP       1016 16.58                             126   -0.29 9  179 151 
 YPLC HN ES       1016 40.63                             126    0.28 9  179 151 
 YPLC HZ I        1016 41.17         7.6 0.28            126            179 151 
 NOR  HZ EP       1016 23.01                             119    0.46 8  235 234 
 NOR  HE ES       1016 50.44                             119   -0.03 8  235 234 
 NOR  HZ I        1016 58.83         6.6 0.18            117            235 234 
 CHI  HZ EP       1016 25.14                             117    0.45 8  250 195 
 CHI  HN ES       1016 54.99                             117    0.73 8  250 195 
 PTGC HZ EP       1016 31.06                             112    0.13 7  311 159 
 PTGC HE ES   4   1017  2.31                             112   -3.07 0  311 159 
                                                                                
