 2010  1 4 1047 50.1 L   6.805 -73.187142.0  RSN  9 0.4 2.7LRSN                1
 GAP=175        0.84       3.6     7.4  6.7 -0.1277E+01  0.2461E+02  0.3355E+01E
 Epicentro: ZAPATOCA - SANTANDER                                               3
 ACTION:UP  10-08-24 09:42 OP:vdl  STATUS:               ID:20100104104750 L   I
 2010-01-04-1045-42S.COL___096                                                 6
 STAT SP IPHASW D HRMM SECON CODA AMPLIT PERI AZIMU VELO SNR AR TRES W  DIS CAZ7
 BAR2 SZ IP       1048  9.32                             170     0.010   24 179 
 BAR2 SZ ES   1   1048 23.95                             170    -0.3 7   24 179 
 GIR2 SZ IP       1048  9.33                             167     0.010   30 359 
 GIR2 SZ ES   1   1048 24.94                             167     0.6 7   30 359 
 RUS  BZ EP   1   1048 12.74                             143    -0.8 7  102 173 
 RUS  BN ES   1   1048 32.20                             143     0.3 7  102 173 
 RUS  BZ I        1048 33.28        83.4 0.32                           102 173 
 OCA  SZ EP   1   1048 18.31                             129     0.3 7  159 355 
 OCA  SZ ES   1   1048 39.40                             129    -0.4 7  159 355 
 CHI  HZ IP       1048 27.54                             116     0.0 8  248 194 
 CHI  HE ES   1   1048 56.77                             116     0.0 6  248 194 
 CHI  HZ I        1049  0.24        34.7 0.49                           248 194 
 HEL  HN ES   1   1049  0.08                             114    -0.4 6  268 255 
 HEL  HZ I        1049  7.58        25.5 0.31                           268 255 
 DBB  SZ IP       1048 37.07                             109     0.2 7  335 274 
 TOL  SZ EP   1   1048 38.85                             109     0.9 5  341 224 
 PRA  HZ EP   1   1048 43.23                             106    -0.1 4  390 209 
 PRA  HN ES   2   1049 24.92                             106     0.1 3  390 209 
                                                                                
