 2011  6 4 1237 38.8 L   6.792 -73.095144.7  RSN  5 0.2 1.7LRSN                1
 GAP=143        0.59       3.3     5.9  5.8 -0.4738E+01 -0.3495E+01 -0.5033E+00E
 Epicentro: LOS SANTOS - SANTANDER                                             3
 ACTION:UP  11-07-14 19:03 OP:ep   STATUS:               ID:20110604123738 L   I
 2011-06-04-1235-48S.COL___132                                                 6
 STAT SP IPHASW D HRMM SECON CODA AMPLIT PERI AZIMU VELO SNR AR TRES W  DIS CAZ7
 BAR2 SZ EP   1   1237 58.08                             170    -0.3 7   24 204 
 BAR2 SZ ES   1   1238 13.35                             170    -0.2 7   24 204 
 BAR2 SZ I        1238 14.79        14.9 0.18                            24 204 
 PAM  SZ EP   1   1238  0.94                             151     0.2 7   75  36 
 PAM  SN ES   1   1238 17.81                             151    -0.1 7   75  36 
 BRR  HZ EP   1   1237 59.78                             151    -0.4 7   77 297 
 BRR  HZ I        1238  0.29        12.8 0.13                            77 297 
 BRR  HN ES   1   1238 17.13                             151     0.3 7   77 297 
 RUS  HZ EP   1   1238  2.74                             144     0.4 7   99 179 
 RUS  HN ES   1   1238 20.77                             144     0.0 7   99 179 
 RUS  HZ I        1238 22.03         7.1 0.35                            99 179 
 GRA  SZ EP   1   1238  3.84                             137    -0.1 7  125  15 
 GRA  SZ ES   1   1238 23.58                             137     0.1 7  125  15 
 GRA  SZ I        1238 25.01         3.9 0.17                           125  15 
                                                                                
