 2016  9 4 1837 39.4 L   6.808 -73.126143.1  RSN 18 0.5 2.5LRSN                1
 GAP=121        1.21       3.6     4.2  5.7 -0.2859E+01  0.4913E+01  0.2082E+01E
 Epicentro: LOS SANTOS - SANTANDER                                             3
 ACTION:UPD 17-08-17 21:06 OP:lp   STATUS:               ID:20160904183739 L   I
 OLDACT:UP  16-09-04 23:15 OP:dani STATUS:               ID:20160904182736     3
 OLDACT:UP  16-09-04 23:15 OP:dani STATUS:               ID:20160904182736     3
 OLDACT:UP  16-09-04 23:14 OP:dani STATUS:               ID:20160904182736     3
 OLDACT:UP  16-09-04 23:11 OP:dani STATUS:               ID:20160904182736     3
 OLDACT:REG 16-09-04 21:20 OP:dnl  STATUS:               ID:20160904182736     3
 2016-09-04-1828-00M.COL___355                                                 6
 STAT SP IPHASW D HRMM SECON CODA AMPLIT PERI AZIMU VELO AIN AR TRES W  DIS CAZ7
 BAR2 EZ EP     C 1837 58.67                             170   -0.0310 24.6 195 
 BAR2 EZ ES       1838 13.77                             170   -0.0110 24.6 195 
 BAR2 EZ I        1838 14.43        65.7 0.34            167           24.6 195 
 BRR  HZ EP     C 1838  0.50                             152    0.1910 72.7 297 
 BRR  HE ES       1838 17.57                             152    0.9210 72.7 297 
 BRR  HZ I        1838 22.12        51.6 0.14            149           72.7 297 
 PAM  EZ EP       1838  1.53                             151    0.3610 75.3  39 
 PAM  EN ES       1838 18.33                             151    0.1510 75.3  39 
 PAM  EZ I        1838 19.08        45.1 0.22            155           75.3  39 
 RUS  HZ EP       1838  2.46                             143   -0.4510  101 177 
 RUS  HE ES       1838 21.13                             143   -0.1410  101 177 
 RUS  HZ I        1838 22.60        28.2 0.28            144            101 177 
 PTB  HZ EP       1838  5.55                             131   -0.77 9  150 259 
 PTB  HN ES       1838 26.19                             131   -1.16 9  150 259 
 PTB  HZ I        1838 28.33        35.9 0.30            129            150 259 
 OCA  HZ EP       1838  7.86                             129    0.45 9  160 352 
 OCA  HE ES       1838 28.46                             129   -0.83 9  160 352 
 OCA  HZ I        1838 32.03        95.6 0.29            130            160 352 
 SPBC HZ EP       1838  7.75                             128   -0.10 9  165 219 
 SPBC HE ES   4   1838 29.30                             128   -0.78 0  165 219 
 SPBC HZ I        1838 32.25        65.6 0.24            127            165 219 
 ZAR  HZ EP       1838 11.93                             122    0.12 8  206 292 
 ZAR  HN ES       1838 37.48                             122    0.36 8  206 292 
 ZAR  HZ I        1838 43.26        41.8 0.70            121            206 292 
 NOR  HZ EP     C 1838 15.29                             118    0.11 8  237 235 
 NOR  HN ES       1838 43.07                             118   -0.05 8  237 235 
 NOR  HZ I        1838 44.94        30.9 0.16            117            237 235 
 CHI  HZ EP       1838 17.63                             116    0.56 8  250 196 
 CHI  HN ES       1838 46.75                             116    0.27 8  250 196 
 CHI  HZ I        1838 48.81         7.2 0.36            117            250 196 
 ROSC BZ EP   4   1838 19.14                             116    1.60 0  255 211 
 ROSC BE ES   4   1838 50.17                             116    2.85 0  255 211 
 ROSC BZ I        1838 52.53        16.4 0.35            116            255 211 
 HEL  HZ EP       1838 19.04                             114   -0.66 8  274 256 
 HEL  HE ES   4   1838 53.69                             114    2.53 0  274 256 
 HEL  HZ I        1838 57.91        19.7 0.42            114            274 256 
 URE  HZ EP   4   1838 22.84                             113    2.35 0  286 292 
 URE  HN ES   4   1838 51.24                             113   -1.33 0  286 292 
 URE  HZ I        1838 54.95        17.6 0.13            113            286 292 
 SOCV BZ EP       1838 21.67                             112   -0.36 7  299  57 
 GUY2CHZ EP       1838 23.59                             112    0.48 7  303 235 
 GUY2CHN ES   4   1839  0.46                             112    3.24 0  303 235 
 GUY2CHZ I        1839  5.29        18.7 0.66                           303 235 
 ELA  HZ EP   9   1838 25.50                             110   -0.86 0  331 230 
 ELA  HN ES       1839  2.38                             109    0.23 7  331 230 
 ELA  HZ I        1839 14.96        11.5 0.40            110            331 230 
 CBOC HZ EP       1838 27.21                             109    0.77 7  336 252 
 CBOC HE ES       1839  3.55                             109    0.40 7  336 252 
 CBOC HZ I        1839 12.31         5.3 0.58            109            336 252 
 SJC  HZ EP   4   1838 32.80                             105   -2.09 0  410 327 
 SJC  HN ES   4   1839 14.30                             105   -3.90 0  410 327 
 SJC  HZ I        1839 17.72         5.7 0.50            106            410 327 
                                                                                
