 2015  4 4 1008 11.6 L   6.986 -73.450 16.0  RSN 11 0.6 1.9LRSN                1
 GAP= 81        1.40       2.5     2.6  4.2  0.3820E+00  0.2348E+01 -0.3171E+01E
 Epicentro: SAN VICENTE DE CHUCURI - SANTANDER                                 3
 ACTION:UPD 15-06-03 16:52 OP:cam  STATUS:               ID:20150404100811 L   I
 OLDACT:REG 15-04-04 20:39 OP:fm   STATUS:               ID:20150404095747     3
 2015-04-04-0957-47M.COL___279                                                 6
 STAT SP IPHASW D HRMM SECON CODA AMPLIT PERI AZIMU VELO AIN AR TRES W  DIS CAZ7
 BRR  HZ IP     D 10 8 18.35                             114    0.9210 31.9 295 
 BRR  HE ES       10 8 22.04                             114    0.0910 31.9 295 
 BRR  HZ I        10 8 24.60       111.0 0.52             47           31.9 295 
 BAR2 EZ IP     D 10 8 21.20                             105    0.5210 52.7 146 
 BAR2 EZ ES       10 8 27.89                             105    0.1510 52.7 146 
 BAR2 EZ I        10 8 29.55        38.3 0.16             47           52.7 146 
 PAM  SZ IP     C 10 8 26.92                              98    0.1710 91.7  65 
 PAM  SE ES       10 8 38.08                              98   -0.4610 91.7  65 
 PAM  SZ I        10 8 40.99        13.2 0.28             47           91.7  65 
 PTB  HZ IP     C 10 8 30.26                              96   -0.5110  122 246 
 PTB  HN ES       10 8 44.77                              96   -0.9310  122 246 
 PTB  HZ I        10 8 45.79        23.0 0.18             47            122 246 
 RUS  HZ EP       10 8 32.21                              96    0.0610  128 161 
 RUS  HN ES       10 8 47.39                              96   -0.7710  128 161 
 RUS  HZ I        10 8 49.55        11.5 0.16             47            128 161 
 OCA  HZ EP       10 8 33.16                              56   -0.30 9  139   6 
 OCA  HN ES       10 8 49.95                              56   -0.53 9  139   6 
 OCA  HZ I        10 8 53.31        51.9 0.46             47            139   6 
 SPBC HZ EP       10 8 37.18                              56    0.86 9  163 205 
 SPBC HE ES       10 8 55.53                              56   -0.04 9  163 205 
 SPBC HZ I        10 8 57.70        20.1 0.36             47            163 205 
 ZAR  HN ES       10 8 55.13                              56   -0.81 9  165 290 
 SML  HZ EP       10 8 42.67                              56    0.31 8  212 341 
 SML  HE ES       10 9  6.39                              56    0.06 8  212 341 
 SML  HZ I        10 9 15.28        21.6 0.22             37            212 341 
 URE  HZ EP       10 8 47.12                              56    0.62 8  245 290 
 URE  HN ES       10 9 14.15                              56    0.45 8  245 290 
 URE  HZ I        10 9 20.75         4.9 0.24             37            245 290 
 GUY2CHZ EP       10 8 53.20                              55    0.80 7  288 228 
                                                                                
