 2017 11 4 1521 24.1 L   6.654 -74.078  9.7  RSN  8 0.4 1.5LRSN                1
 GAP= 89        0.91       2.2     1.6  4.4 -0.5569E+00 -0.8855E+00  0.1306E+01E
 Epicentro: PUERTO PARRA - SANTANDER                                           3
 ACTION:UPD 17-12-12 19:51 OP:rebc STATUS:               ID:20171104152124 L   I
 OLDACT:UP  17-11-05 00:27 OP:mg   STATUS:               ID:20171104151739     3
 OLDACT:REG 17-11-04 20:38 OP:mg   STATUS:               ID:20171104151739     3
 2017-11-04-1518-00M.COL___429                                                 6
 STAT SP IPHASW D HRMM SECON CODA AMPLIT PERI AZIMU VELO AIN AR TRES W  DIS CAZ7
 PTB  HZ EP       1521 31.17                              98   -0.2310 43.7 253 
 PTB  HN ES       1521 37.28                              98    0.1910 43.7 253 
 PTB  HZ I        1521 37.50        25.8 0.16             97           43.7 253 
 BRR  HZ EP       1521 34.32                              95   -0.1710 64.4  39 
 BRR  HN ES       1521 42.83                              95    0.2410 64.4  39 
 BRR  HZ I        1521 43.47        19.0 0.14             95           64.4  39 
 BAR2 EZ EP       1521 39.92                              94   -0.0910 99.3  94 
 BAR2 EZ ES       1521 51.94                              94   -0.4910 99.3  94 
 BAR2 EZ I    2   1521 52.31        10.3 0.26             93           99.3  94 
 ZAR  HZ EP       1521 43.95                              93    0.0510  127 317 
 ZAR  HN ES       1521 59.22                              93   -0.1110  127 317 
 ZAR  HZ I        1521 59.83         7.9 0.16             92            127 317 
 RUS  HZ EP       1521 46.61                              93    0.38 9  139 127 
 RUS  HN ES   1   1522  3.96                              93    0.47 7  139 127 
 RUS  HZ I        1522  6.48        11.0 0.24             92            139 127 
 NOR  HN ES   2   1522  4.25                              92   -1.24 5  149 216 
 NOR  HZ I        1522  5.52         5.2 0.16             92            149 216 
 PAM  EZ EP       1521 51.30                              56    0.57 9  170  63 
 PAM  EN ES       1522 11.13                              56   -0.36 9  170  63 
 PAM  EZ I        1522 13.45         4.5 0.16             56            170  63 
 GUY2CHZ EP   2   1521 57.29                              56    1.24 4  213 222 
 GUY2CHN ES       1522 20.83                              56   -0.14 8  213 222 
 GUY2CHZ I        1522 25.25         4.1 0.32                           213 222 
                                                                                
