 2011 10 4 1932 16.2 L   6.776 -73.085146.5  RSN  4 0.1 1.8LRSN                1
 GAP=145        0.38       2.8     4.1  5.0 -0.2601E+00 -0.1042E+01  0.2069E+01E
 Epicentro: LOS SANTOS - SANTANDER                                             3
 ACTION:UPD 12-07-13 16:01 OP:ep   STATUS:               ID:20111004193216 L   I
 2011-10-04-1930-19S.COL___171                                                 6
 STAT SP IPHASW D HRMM SECON CODA AMPLIT PERI AZIMU VELO AIN AR TRES W  DIS CAZ7
 BAR2 SZ EP   1   1932 35.88                             171    0.00 7 23.0 208 
 BAR2 SZ I        1932 36.27        11.1 0.10                          23.0 208 
 PAM  SZ EP   1   1932 38.61                             152    0.26 7 75.5  34 
 PAM  SZ I        1932 39.02         8.0 0.16                          75.5  34 
 PAM  SN ES   1   1932 55.50                             152   -0.15 7 75.5  34 
 BRR  HZ EP   1   1932 37.70                             150   -0.11 7 78.3 298 
 BRR  HZ I        1932 38.22        19.4 0.10                          78.3 298 
 BRR  HN ES   1   1932 54.75                             150    0.06 7 78.3 298 
 RUS  HZ EP   1   1932 39.63                             145   -0.16 7 97.7 180 
 RUS  HN ES   1   1932 58.30                             145    0.09 7 97.7 180 
                                                                                
