 2017  5 4 1554 22.2 L   6.766 -73.086150.1  RSN  5 0.4 1.4LRSN                1
 GAP=146        0.63       3.4     3.9  5.8 -0.3413E+01  0.3697E+01  0.3616E+01E
 Epicentro: LOS SANTOS - SANTANDER                                             3
 ACTION:UPD 17-06-16 13:32 OP:jn   STATUS:               ID:20170504155422 L   I
 OLDACT:UP  17-05-04 20:14 OP:and  STATUS:               ID:20170504154739     3
 OLDACT:UP  17-05-04 20:14 OP:and  STATUS:               ID:20170504154739     3
 OLDACT:UP  17-05-04 20:14 OP:and  STATUS:               ID:20170504154739     3
 OLDACT:UP  17-05-04 20:14 OP:and  STATUS:               ID:20170504154739     3
 OLDACT:UP  17-05-04 20:14 OP:and  STATUS:               ID:20170504154739     3
 OLDACT:UP  17-05-04 20:14 OP:and  STATUS:               ID:20170504154739     3
 OLDACT:UP  17-05-04 20:14 OP:and  STATUS:               ID:20170504154739     3
 OLDACT:REG 17-05-04 17:55 OP:and  STATUS:               ID:20170504154739     3
 2017-05-04-1548-00M.COL___368                                                 6
 STAT SP IPHASW D HRMM SECON CODA AMPLIT PERI AZIMU VELO AIN AR TRES W  DIS CAZ7
 PAM  EZ EP       1554 44.89                             152    0.1010 76.5  34 
 PAM  EN ES       1555  2.37                             152   -0.0610 76.5  34 
 PAM  EZ I        1555  4.48         3.7 0.62            155           76.5  34 
 BRR  HZ EP       1554 43.97                             151   -0.2410 78.8 299 
 BRR  HE ES       1555  1.64                             151    0.2310 78.8 299 
 RUS  HZ EP       1554 46.24                             146    0.1810 96.5 180 
 RUS  HN ES       1555  4.58                             146   -0.1210 96.5 180 
 RUS  HZ I        1555  5.47         5.5 0.24            147           96.5 180 
 PTB  HZ EP   2   1554 49.22                             132   -0.79 5  154 261 
 PTB  HN ES   3   1555 10.00                             132   -1.72 2  154 261 
 PTB  HZ I        1555 15.71         3.7 0.34            131            154 261 
 NOR  HZ EP   2   1554 58.68                             119    0.19 4  238 236 
 NOR  HN ES       1555 27.04                             119    0.22 8  238 236 
 NOR  HZ I        1555 31.43         1.7 0.16            120            238 236 
                                                                                
