 2010  9 4 1838 30.4 L   7.396 -73.144126.0  RSN  4 0.3 1.7LRSN                1
 GAP=148        0.71       7.7    12.3  9.6 -0.6682E+02 -0.1130E+02  0.1506E+02E
 Epicentro: EL PLAYON - SANTANDER                                              3
 ACTION:UP  11-02-18 11:00 OP:tino STATUS:               ID:20100904183830 L   I
 2010-09-04-1835-13S.COL___120                                                 6
 STAT SP IPHASW D HRMM SECON CODA AMPLIT PERI AZIMU VELO SNR AR TRES W  DIS CAZ7
 GUE  SZ EP   1   1838 48.91                             155     0.0 7   54  27 
 GUE  SZ ES   2   1839  3.97                             155     0.6 5   54  27 
 GRA  SZ IP       1838 49.68                             150     0.310   66  35 
 GRA  SZ ES   1   1839  3.59                             150    -0.6 7   66  35 
 GRA  SZ I        1839  6.58        22.8 0.36                            66  35 
 BRR  HZ EP   2   1838 49.16                             148    -0.3 5   70 243 
 BRR  HN ES   2   1839  4.26                             148     0.0 5   70 243 
 BRR  HZ I        1839  4.37         7.0 0.15                            70 243 
 BAR2 SZ EP   1   1838 50.92                             142    -0.1 7   89 183 
 BAR2 SZ ES   2   1839  7.30                             142     0.2 5   89 183 
 BAR2 SZ I        1839  8.64         7.3 0.11                            89 183 
                                                                                
