 2013  7 4 1851  9.2 L   6.772 -73.144139.9  RSN  8 0.4 1.8LRSN                1
 GAP=138        0.98       4.3     4.1  6.5 -0.1485E+00  0.6869E+01  0.5301E+01E
 Epicentro: LOS SANTOS - SANTANDER                                             3
 ACTION:UPD 13-08-12 10:35 OP:ep   STATUS:               ID:20130704185109 L   I
 OLDACT:DUP 13-07-04 21:29 OP:jn   STATUS:               ID:20130704184960d    3
 2013-07-04-1849-59M.COL___267                                                 6
 STAT SP IPHASW D HRMM SECON CODA AMPLIT PERI AZIMU VELO AIN AR TRES W  DIS CAZ7
 BAR2 SZ EP       1851 28.16                             171    0.0710 20.3 192 
 BAR2 SZ ES       1851 43.11                             171    0.3010 20.3 192 
 BAR2 SZ I        1851 44.30        20.9 0.18            170           20.3 192 
 BRR  HZ EP       1851 29.95                             151    0.1110 72.9 301 
 BRR  HN ES       1851 45.95                             151    0.0310 72.9 301 
 BRR  HZ I        1851 49.19        16.8 0.36            152           72.9 301 
 PAM  SZ IP     C 1851 31.09                             149    0.1210 79.7  38 
 PAM  SN ES       1851 47.59                             149   -0.3310 79.7  38 
 PAM  SZ I        1851 50.18         8.8 0.48            152           79.7  38 
 RUS  HZ EP       1851 32.19                             143    0.0110 97.5 176 
 RUS  HN ES       1851 50.19                             143    0.1110 97.5 176 
 RUS  HZ I        1851 52.29         8.6 0.26            144           97.5 176 
 PTB  HZ EP       1851 35.16                             131   -0.53 9  147 260 
 PTB  HN ES       1851 55.44                             131   -0.88 9  147 260 
 PTB  HZ I        1851 58.93         9.0 0.13            132            147 260 
 ZAR  HE ES       1852  7.42                             121    0.86 8  205 293 
 NOR  HE ES   1   1852 12.08                             117    0.17 6  233 235 
 PRA  HZ EP       1852  2.17                             106   -0.07 6  389 210 
 PRA  HN ES   1   1852 44.37                             106    0.78 4  389 210 
 PRA  HZ I        1852 50.09         2.7 0.38            107            389 210 
                                                                                
