 2010  6 4 1841 26.3 L   6.832 -73.336132.9  RSN  4 0.4 2.2LRSN                1
 GAP=213        0.97      15.9    40.6 19.2 -0.4165E+03  0.4578E+03 -0.2502E+03E
 Epicentro: ZAPATOCA - SANTANDER                                               3
 ACTION:UP  10-08-24 10:08 OP:vdl  STATUS:               ID:20100604184126 L   I
 2010-06-04-1836-40S.COL___109                                                 6
 STAT SP IPHASW D HRMM SECON CODA AMPLIT PERI AZIMU VELO SNR AR TRES W  DIS CAZ7
 BAR2 SZ EP   1   1841 44.42                             166    -0.2 8   32 148 
 BAR2 SZ ES   1   1841 59.03                             166     0.1 8   32 148 
 GUE  SZ EP       1841 49.51                             136    -0.610  119  22 
 GRA  SZ EP       1841 51.43                             133     0.610  130  27 
 GRA  SZ ES   2   1842  9.75                             133    -0.2 5  130  27 
 OCA  SZ EP   1   1841 53.43                             127     0.2 7  156   1 
 OCA  SZ I        1842 18.06        20.3 0.85                           156   1 
                                                                                
