 2016  5 4 1503 45.9 L   6.841 -73.147148.5  RSN 18 0.5 2.7LRSN                1
 GAP= 70        1.09       3.0     3.4  5.8 -0.1898E+01  0.3503E+01  0.3549E+01E
 Epicentro: LOS SANTOS - SANTANDER                                             3
 ACTION:UPD 16-08-18 17:41 OP:cam  STATUS:               ID:20160504150345 L   I
 OLDACT:UP  16-05-15 07:30 OP:ar   STATUS:               ID:20160504150345 L   3
 OLDACT:UP  16-05-04 21:18 OP:dani STATUS:               ID:20160504145750     3
 OLDACT:REG 16-05-04 20:50 OP:dnl  STATUS:               ID:20160504145750     3
 2016-05-04-1457-50M.COL___295                                                 6
 STAT SP IPHASW D HRMM SECON CODA AMPLIT PERI AZIMU VELO AIN AR TRES W  DIS CAZ7
 BAR2 EZ EP     D 15 4  5.87                             169   -0.1010 27.8 188 
 BAR2 EZ I        15 4 22.13        98.3 0.22            169           27.8 188 
 BRR  HZ EP     D 15 4  7.75                             154    0.5110 69.0 295 
 BRR  HN ES       15 4 24.25                             154    0.3810 69.0 295 
 BRR  HZ I        15 4 28.95        46.9 0.14            153           69.0 295 
 PAM  EZ EP       15 4  8.75                             152    0.5310 74.0  42 
 PAM  EE ES       15 4 26.02                             152    0.3910 74.0  42 
 PAM  EZ I        15 4 28.07       117.4 0.48            154           74.0  42 
 RUS  HZ EP     C 15 4  9.92                             143   -0.3410  105 176 
 RUS  HN ES       15 4 28.97                             143   -0.2810  105 176 
 RUS  HZ I        15 4 29.66        62.4 0.28            145            105 176 
 PTB  HZ EP       15 4 12.78                             132   -0.39 9  149 257 
 PTB  HE ES       15 4 33.75                             132   -0.69 9  149 257 
 PTB  HZ I        15 4 36.61        33.3 0.12            133            149 257 
 OCA  HZ EP   2   15 4 12.54                             131   -1.48 5  156 353 
 OCA  HN ES       15 4 35.85                             131   -0.09 9  156 353 
 TAM  HZ EP     D 15 4 14.28                             131    0.35 9  156 107 
 SPBC HZ EP       15 4 14.95                             129    0.00 9  167 218 
 SPBC HN ES       15 4 37.10                             129   -0.49 9  167 218 
 SPBC HZ I        15 4 38.70        66.1 0.11            130            167 218 
 ZAR  HZ EP       15 4 18.42                             123    0.07 9  202 291 
 ZAR  HN ES       15 4 43.39                             123   -0.27 9  202 291 
 ZAR  HZ I        15 4 46.44        24.7 0.30            124            202 291 
 NOR  HZ EP       15 4 21.96                             119   -0.11 8  237 234 
 NOR  HE ES       15 4 49.95                             119   -0.33 8  237 234 
 NOR  HZ I        15 4 55.63        33.6 0.13            120            237 234 
 CHI  HZ EP       15 4 24.04                             117   -0.19 8  253 195 
 CHI  HE ES       15 4 53.88                             117   -0.24 8  253 195 
 CHI  HZ I        15 4 57.47        23.6 0.70            118            253 195 
 ROSC BZ EP       15 4 25.55                             117    0.96 8  257 210 
 ROSC BE ES   4   15 4 56.31                             117    1.54 0  257 210 
 ROSC BZ I        15 4 59.74        40.9 0.50            118            257 210 
 HEL  HZ EP   4   15 4 27.99                             115    1.62 0  273 255 
 HEL  HE ES       15 4 58.50                             115    0.56 8  273 255 
 HEL  HZ I        15 5  4.01        22.2 0.26            116            273 255 
 URE  HZ EP       15 4 26.16                             114   -0.76 7  282 291 
 URE  HE ES   4   15 4 57.75                             114   -1.15 0  282 291 
 URE  HZ I        15 5  8.60        20.9 0.28            115            282 291 
 CBOC HZ EP   2   15 4 33.59                             110    0.50 3  335 251 
 CBOC HE ES       15 5 10.80                             110    0.92 7  335 251 
 ANIL HZ EP       15 4 36.65                             109    0.47 6  360 224 
 ANIL HE ES       15 5 15.24                             109   -0.16 6  360 224 
 ANIL HZ I        15 5 20.36        46.3 0.28            110            360 224 
 PAL  HZ EP       15 4 41.51                             106    0.09 6  408 239 
 PAL  HN ES       15 5 25.46                             106    0.74 6  408 239 
 PAL  HZ I        15 5 28.33         7.3 0.22            107            408 239 
 CRJC HZ EP   4   15 4 46.32                             104   -1.63 0  463   4 
 CRJC HN ES       15 5 35.00                             104   -1.35 5  463   4 
 CRJC HZ I        15 5 38.38        11.8 0.18            105            463   4 
                                                                                
