 2014  3 4 1527 40.6 L   6.871 -73.328124.8  RSN  6 0.4 2.0LRSN                1
 GAP=111        0.94       3.5     6.0  5.9  0.5371E+01  0.6775E+01 -0.7696E+00E
 Epicentro: BETULIA - SANTANDER                                                3
 OLDACT:REG 14-03-04 15:22 OP:stll STATUS:               ID:20140304151819     3
 ACTION:UPD 14-04-09 23:14 OP:nd   STATUS:               ID:20140304152740 L   I
 OLDACT:UP  14-03-04 18:59 OP:stll STATUS:               ID:20140304151819     3
 2014-03-04-1518-19M.COL___238                                                 6
 STAT SP IPHASW D HRMM SECON CODA AMPLIT PERI AZIMU VELO AIN AR TRES W  DIS CAZ7
 BAR2 SZ EP       1527 58.01                             164   -0.0010 34.7 152 
 BAR2 SZ ES       1528 11.45                             164   -0.1710 34.7 152 
 BAR2 SZ I        1528 12.29       103.6 0.26            168           34.7 152 
 BRR  HZ EP       1527 58.42                             157    0.1310 49.8 302 
 BRR  HN ES       1528 12.59                             157    0.4810 49.8 302 
 BRR  SZ I        1528 13.36        21.0 0.18            152           49.8 302 
 PAM  SZ EP       1528  1.47                             143    0.2310 86.6  53 
 PAM  SN ES       1528 17.58                             143    0.2110 86.6  53 
 PAM  SZ I        1528 19.81        11.5 0.40            141           86.6  53 
 RUS  HZ EP       1528  3.29                             136    0.0710  112 166 
 RUS  HE ES       1528 20.24                             136   -0.6510  112 166 
 RUS  SZ I        1528 21.54         9.4 0.24            137            112 166 
 SML  HZ EP       1528 14.27                             114   -0.16 8  229 339 
 SML  HN ES       1528 40.07                             114   -0.76 8  229 339 
 SML  SZ I        1528 52.88        13.1 0.08            112            229 339 
 CHI  HZ EP       1528 18.03                             112    0.47 8  252 190 
 CHI  HZ I        1528 20.04         3.0 0.34            112            252 190 
                                                                                
