 2010  9 4 1522 38.8 L   6.793 -73.045151.4  RSN  6 0.2 1.9LRSN                1
 GAP=193        0.58       4.9     9.2  5.3  0.1940E+02 -0.1314E+02 -0.5810E+00E
 Epicentro: LOS SANTOS - SANTANDER                                             3
 ACTION:UP  11-02-18 11:00 OP:tino STATUS:               ID:20100904152238 L   I
 2010-09-04-1518-23S.COL___120                                                 6
 STAT SP IPHASW D HRMM SECON CODA AMPLIT PERI AZIMU VELO SNR AR TRES W  DIS CAZ7
 BAR2 SZ EP   1   1522 58.91                             170    -0.3 7   27 215 
 BAR2 SZ ES   1   1523 14.67                             170    -0.4 7   27 215 
 BAR2 SZ I        1523 15.98        21.1 0.24                            27 215 
 BTL  SZ EP       1522 59.44                             169     0.210   28 299 
 BTL  SZ ES   1   1523 15.53                             169     0.4 7   28 299 
 BRR  HZ IP     C 1523  1.09                             150    -0.110   82 295 
 BRR  HZ I        1523  1.33        26.9 0.15                            82 295 
 BRR  HN ES       1523 18.61                             150     0.010   82 295 
 RUS  HZ EP   2   1523  3.17                             145     0.1 5  100 182 
 RUS  HE ES   2   1523 22.11                             145     0.1 5  100 182 
 RUS  HZ I        1523 23.14         4.2 0.39                           100 182 
 OCA  SZ EP   2   1523  7.92                             130     0.1 5  163 349 
 OCA  SZ I        1523 38.98        23.6 0.34                           163 349 
 CHI  HZ EP   2   1523 16.88                             118    -0.2 4  251 198 
 CHI  HE ES   2   1523 47.19                             118     0.2 4  251 198 
 CHI  HZ I        1523 49.03         3.5 0.32                           251 198 
                                                                                
