 2011  7 4 1811 17.7 L   6.459 -73.322129.6  RSN  4 0.1 1.5LRSN                1
 GAP=111        0.36       2.7     3.9  4.9  0.3122E+01  0.7644E+01  0.1970E+01E
 Epicentro: SIMACOTA - SANTANDER                                               3
 ACTION:UPD 12-07-25 13:58 OP:epov STATUS:               ID:20110704181117 L   I
 2011-07-04-1810-14S.COL___140                                                 6
 STAT SP IPHASW D HRMM SECON CODA AMPLIT PERI AZIMU VELO AIN AR TRES W  DIS CAZ7
 BAR2 SZ EP   1   1811 35.14                             170   -0.25 7 21.3  46 
 BAR2 SZ I        1811 50.77         7.4 0.26                          21.3  46 
 RUS  HZ EP   1   1811 37.87                             151    0.19 7 67.9 157 
 RUS  HE ES   1   1811 53.21                             151   -0.02 7 67.9 157 
 RUS  HZ I        1811 54.54         2.9 0.24                          67.9 157 
 BRR  HZ EP       1811 38.06                             145    0.0710 83.7 329 
 BRR  HZ I        1811 38.31        20.8 0.12                          83.7 329 
 BRR  HE ES   1   1811 53.81                             145    0.02 7 83.7 329 
 NOR  SZ EP   1   1811 48.50                             119   -0.09 6  198 240 
 NOR  SN ES   2   1812 12.65                             119    0.01 4  198 240 
                                                                                
