 2017  9 4 1720 36.8 L   6.682 -73.205148.0  RSN  4 0.3 1.5LRSN                1
 GAP=216        0.65       7.2     8.1  5.4  0.4744E+02  0.9235E+01  0.3976E+00E
 Epicentro: VILLANUEVA - SANTANDER                                             3
 ACTION:UPD 17-10-05 19:09 OP:rebc STATUS:               ID:20170904172036 L   I
 OLDACT:REG 17-09-04 20:16 OP:lv   STATUS:               ID:20170904171740     3
 2017-09-04-1718-00M.COL___420                                                 6
 STAT SP IPHASW D HRMM SECON CODA AMPLIT PERI AZIMU VELO AIN AR TRES W  DIS CAZ7
 BAR2 EZ EP       1720 56.47                             176   -0.0810 10.3 166 
 BAR2 EZ ES       1721 11.81                             176   -0.1110 10.3 166 
 BAR2 EZ I        1721 12.94         8.9 0.28            167           10.3 166 
 BRR  HZ EP       1720 58.12                             152   -0.2210 73.1 310 
 BRR  HE ES       1721 15.40                             152    0.3010 73.1 310 
 RUS  HZ EP   1   1721  0.64                             148    0.66 7 88.4 171 
 RUS  HN ES       1721 17.88                             148   -0.1410 88.4 171 
 RUS  HZ I        1721 20.22         2.8 0.18            144           88.4 171 
 ZAR  HZ EP       1721  9.25                             123   -0.11 9  203 296 
 ZAR  HE ES       1721 34.68                             123   -0.05 9  203 296 
 ZAR  HZ I        1721 39.71         3.6 0.42            122            203 296 
                                                                                
