 2012  9 4 1015  5.6 L   6.153 -73.761105.3  RSN  5 0.3 1.5LRSN                1
 GAP=188        0.76       5.6     4.3  8.8  0.1050E+02  0.1011E+02  0.6668E+01E
 Epicentro: LANDAZURI - SANTANDER                                              3
 ACTION:UPD 12-10-22 14:17 OP:ep   STATUS:               ID:20120904101505 L   I
 2012-09-04-1010-00M.COL___218                                                 6
 STAT SP IPHASW D HRMM SECON CODA AMPLIT PERI AZIMU VELO AIN AR TRES W  DIS CAZ7
 RUS  HZ EP       1015 24.05                             140    0.1310 80.4 111 
 RUS  HZ I        1015 24.34         2.4 0.40                          80.4 111 
 RUS  HN ES   1   1015 38.00                             140   -0.23 7 80.4 111 
 BAR2 SZ EP       1015 23.83                             140    0.2710 80.4  53 
 BAR2 SZ ES   1   1015 37.58                             140   -0.01 7 80.4  53 
 BAR2 SZ I        1015 39.00        33.2 0.36                          80.4  53 
 PTB  HZ EP       1015 23.28                             137   -0.5810 87.9 299 
 PTB  HN ES   1   1015 38.70                             137    0.56 7 87.9 299 
 BRR  HZ EP       1015 25.49                             131    0.1010  106   3 
 BRR  HN ES   1   1015 40.50                             131   -0.36 7  106   3 
 ZAR  HZ EP   2   1015 34.83                             113    0.51 4  191 321 
 ZAR  HN ES   3   1015 56.81                             113    0.06 2  191 321 
                                                                                
