 2012  2 4 1430 48.6 L   6.733 -73.150142.0  RSN 11 0.4 2.4LRSN                1
 GAP=139        0.77       3.5     3.8  5.1 -0.2616E+01  0.6214E+01 -0.1497E+01E
 ACTION:UP  12-03-07 16:27 OP:epov STATUS:               ID:20120204143048 L   I
 2012-02-04-1430-00M.COL___188                                                 6
 STAT SP IPHASW D HRMM SECON CODA AMPLIT PERI AZIMU VELO SNR AR TRES W  DIS CAZ7
 BAR2 SZ EP       1431  7.64                             173    0.0210 16.0 193 
 BAR2 SZ ES       1431 22.65                             173    0.1810 16.0 193 
 BAR2 SZ I        1431 23.83        51.5 0.34                          16.0 193 
 GIR2 SZ EP       1431  7.95                             164   -0.0710 38.5 353 
 GIR2 SZ ES   2   1431 22.82                             164   -0.36 5 38.5 353 
 BRR  HZ EP       1431  9.73                             151    0.2210 74.6 304 
 BRR  HE ES   1   1431 26.67                             151    0.82 7 74.6 304 
 BRR  HZ I        1431 28.77        41.0 0.17                          74.6 304 
 PAM  SZ EP       1431 10.57                             148   -0.2010 83.5  37 
 PAM  SE ES   1   1431 27.50                             148   -0.58 7 83.5  37 
 RUS  HZ EP   1   1431 11.51                             145    0.08 7 93.2 175 
 RUS  HN ES   1   1431 29.33                             145    0.08 7 93.2 175 
 RUS  HZ I        1431 31.20        37.6 0.56                          93.2 175 
 PTB  HZ EP   1   1431 14.52                             132   -0.56 7  146 262 
 PTB  HE ES   1   1431 35.31                             132   -0.44 7  146 262 
 OCA  SZ EP   1   1431 18.20                             128    0.91 7  168 354 
 OCA  SZ ES   1   1431 39.79                             128    0.10 7  168 354 
 ZAR  HZ EP       1431 20.82                             121   -0.21 8  207 294 
 ZAR  HN ES   1   1431 45.91                             121   -0.44 6  207 294 
 ZAR  HZ I        1431 53.95        23.3 0.34                           207 294 
 NOR  SZ EP   1   1431 23.14                             118   -0.45 6  230 236 
 NOR  SN ES   1   1431 51.28                             118    0.38 6  230 236 
 HEL  HZ EP   2   1431 28.63                             114    0.28 4  270 257 
 HEL  HE ES   2   1431 59.47                             114    0.09 4  270 257 
 HEL  HZ I        1432  7.86        11.9 0.61                           270 257 
 RREF HZ EP   2   1431 34.33                             111    0.36 3  317 230 
 RREF HZ I        1432 17.00        11.9 0.24                           317 230 
                                                                                
