 2012 12 4 1923 35.9 L   6.779 -73.139145.9  RSN 12 0.5 3.1LRSN 3.1WRSN        1
 SPEC AVERAGE  MO 13.7 ST 16.7 OM  2.3 f0 5.13 R0.3090 AL 3.81 WI 15.7 MW  3.1 3
 SPEC SD       MO  0.3 ST 17.4 OM  0.5 f0 1.31 R0.0883 AL      WI      MW  0.2 3
 GAP= 72        1.13       3.2     3.3  6.0 -0.9642E+00  0.6359E+01 -0.1584E+01E
 Epicentro: LOS SANTOS - SANTANDER                                             3
 SPEC PTB HH E MO 13.8 ST  4.0 OM  2.1 f0 3.53 R0.4164 AL 2.07 WI 18.2 MW  3.2 3
 SPEC PTB HH E T192422 K 0.000 GD  207 VS 4.20 DE 3.20 Q0300.0 QA 0.60 VS 4.20 3
 SPEC RUS HH N MO 13.1 ST  5.1 OM  1.5 f0 6.42 R0.2290 AL 4.61 WI  8.9 MW  2.7 3
 SPEC RUS HH N T192417 K 0.000 GD  175 VS 4.20 DE 3.20 Q0300.0 QA 0.60 VS 4.20 3
 SPEC NOR HH N MO 14.0 ST 44.4 OM  2.2 f0 6.66 R0.2207 AL 5.87 WI 16.0 MW  3.3 3
 SPEC NOR HH N T192438 K 0.000 GD  275 VS 4.20 DE 3.20 Q0300.0 QA 0.60 VS 4.20 3
 SPEC OCA HH N MO 14.1 ST 37.6 OM  2.4 f0 5.84 R0.2517 AL 3.21 WI 19.7 MW  3.4 3
 SPEC OCA HH N T192425 K 0.000 GD  218 VS 4.20 DE 3.20 Q0300.0 QA 0.60 VS 4.20 3
 SPEC PAM SH N MO 13.6 ST  7.1 OM  2.0 f0 4.99 R0.2946 AL 4.80 WI 13.2 MW  3.0 3
 SPEC PAM SH N T192414 K 0.000 GD  165 VS 4.20 DE 3.20 Q0300.0 QA 0.60 VS 4.20 3
 SPEC HEL HH N MO 13.6 ST  2.0 OM  1.7 f0 3.33 R0.4414 AL 2.31 WI 18.1 MW  3.0 3
 SPEC HEL HH N T192448 K 0.000 GD  308 VS 4.20 DE 3.20 Q0300.0 QA 0.60 VS 4.20 3
 ACTION:UPD 13-01-04 14:25 OP:ep   STATUS:               ID:20121204192336dL   I
 2012-12-04-1920-00M.COL___232                                                 6
 STAT SP IPHASW D HRMM SECON CODA AMPLIT PERI AZIMU VELO AIN AR TRES W  DIS CAZ7
 BAR2 SZ EP       1923 55.87                             171    0.3210 21.2 193 
 BAR2 SZ ES       1924 10.77                             171   -0.0710 21.2 193 
 PAM  SZ EP       1923 58.64                             150    0.3910 78.7  38 
 PAM  SN ES       1924 15.92                             150    0.2710 78.7  38 
 PAM  SN I        1924 16.71        87.3 0.54                          78.7  38 
 RUS  HZ IP     D 1923 59.76                             144    0.2210 98.2 176 
 RUS  HN ES       1924 18.15                             144    0.2110 98.2 176 
 PTB  HZ EP       1924  2.47                             132   -0.48 9  148 260 
 PTB  HN ES       1924 23.82                             132   -0.19 9  148 260 
 PTB  HN I        1924 29.31       237.0 0.36                           148 260 
 TAM  HZ EP       1924  3.98                             131    0.47 9  154 104 
 TAM  HE ES       1924 23.92                             131   -1.09 9  154 104 
 OCA  HZ EP       1924  4.10                             129   -0.39 9  163 353 
 OCA  HN ES       1924 26.83                             129    0.07 9  163 353 
 OCA  HN I        1924 35.65       220.4 0.24                           163 353 
 ZAR  HZ EP       1924  8.62                             122    0.06 8  206 293 
 ZAR  HN ES       1924 34.20                             122    0.20 8  206 293 
 ZAR  HN I        1924 41.55        96.0 0.36                           206 293 
 NOR  HZ EP       1924 11.80                             119    0.20 8  234 235 
 NOR  HN ES       1924 39.87                             119    0.46 8  234 235 
 NOR  HN I        1924 45.91       102.2 0.16                           234 235 
 SML  HZ EP       1924 12.21                             117   -0.63 8  246 335 
 SML  HN ES       1924 41.74                             117    0.12 8  246 335 
 SML  HN I        1924 47.38       128.2 0.10                           246 335 
 HEL  HZ EP       1924 17.17                             115    0.99 8  272 256 
 HEL  HN ES       1924 46.36                             115   -1.21 8  272 256 
 COD  HZ EP       1924 24.58                             109   -0.02 6  351 355 
 PRA  HZ EP       1924 29.32                             107    0.05 6  390 210 
 PRA  HN ES       1925 10.46                             107   -0.41 6  390 210 
                                                                                
