 2010  2 4 1122 34.6 L   7.425 -73.239138.4  RSN  7 0.6 1.8LRSN                1
 GAP=112        1.28       8.0     8.5 11.3  0.1165E+02  0.2158E+02 -0.4110E+02E
 Epicentro: EL PLAYON - SANTANDER                                              3
 ACTION:UP  10-08-24 09:47 OP:vdl  STATUS:               ID:20100204112234 L   I
 2010-02-04-1120-55S.COL___097                                                 6
 STAT SP IPHASW D HRMM SECON CODA AMPLIT PERI AZIMU VELO SNR AR TRES W  DIS CAZ7
 GIR2 SZ IP       1122 54.48                             164     0.910   39 172 
 GIR2 SZ ES   1   1123  8.83                             164     0.4 7   39 172 
 OCA  SZ EP   2   1122 56.82                             145     0.4 5   90 354 
 OCA  SZ ES   2   1123 13.27                             145    -0.1 5   90 354 
 BAR2 SZ IP       1122 56.63                             144     0.010   92 176 
 BAR2 SZ ES       1123 13.04                             144    -0.810   92 176 
 RUS  BE ES   2   1123 26.34                             126    -0.2 4  170 174 
 MON  HZ EP       1123 17.17                             110    -0.6 7  306 299 
 MON  HE ES   1   1123 51.02                             110    -0.5 5  306 299 
 MON  HZ I        1123 57.57         2.7 0.80                           306 299 
 SDV  BZ IP       1123 20.23                             109    -0.5 7  329  61 
 DBB  SZ IP       1123 21.82                             108     1.0 7  331 262 
 DBB  SZ ES   2   1123 56.08                             108    -0.8 3  331 262 
                                                                                
