 2012  2 4 1915 39.9 L   6.766 -73.130145.6  RSN  6 0.2 1.6LRSN                1
 GAP=140        0.43       3.0     3.1  4.8 -0.8055E+00 -0.2067E+00  0.1282E+00E
 ACTION:UP  12-03-07 16:27 OP:epov STATUS:               ID:20120204191539 L   I
 2012-02-04-1910-00M.COL___188                                                 6
 STAT SP IPHASW D HRMM SECON CODA AMPLIT PERI AZIMU VELO SNR AR TRES W  DIS CAZ7
 BAR2 SZ EP   1   1915 59.58                             172    0.11 7 20.1 197 
 BAR2 SZ ES   2   1916 14.62                             172   -0.09 5 20.1 197 
 BAR2 SZ I        1916 16.38         9.6 0.33                          20.1 197 
 GIR2 SZ EP   1   1915 59.68                             166    0.00 7 35.2 349 
 BRR  HZ EP       1916  1.33                             151    0.0910 74.5 300 
 BRR  HZ I        1916  1.69        15.6 0.12                          74.5 300 
 BRR  HE ES   1   1916 18.09                             151    0.23 7 74.5 300 
 PAM  SZ EP   1   1916  2.35                             150    0.12 7 79.2  37 
 PAM  SE ES   1   1916 19.36                             150   -0.26 7 79.2  37 
 RUS  HZ EP   1   1916  3.13                             145   -0.25 7 96.8 177 
 RUS  HN ES   1   1916 21.87                             145    0.19 7 96.8 177 
 RUS  HZ I        1916 23.41         3.1 0.36                          96.8 177 
 PTB  HE ES   1   1916 27.76                             132   -0.30 7  149 260 
                                                                                
