 2012  8 4 1549 27.6 L   6.339 -73.626109.9  RSN  8 0.4 2.3LRSN                1
 GAP=178        0.71       4.5     3.7  6.7 -0.8684E+01  0.6499E+01  0.1065E+01E
 Epicentro: SANTA HELENA DEL OPON - SANTANDER                                  3
 ACTION:UPD 12-09-10 11:54 OP:ep   STATUS:               ID:20120804154927 L   I
 2012-08-04-1539-38M.COL___212                                                 6
 STAT SP IPHASW D HRMM SECON CODA AMPLIT PERI AZIMU VELO AIN AR TRES W  DIS CAZ7
 BAR2 SZ IP       1549 44.55                             151    0.1610 56.5  60 
 BAR2 SZ I        1549 44.68        63.8 0.22                          56.5  60 
 BAR2 SZ ES   1   1549 57.66                             151    0.18 7 56.5  60 
 BRR  HZ EP       1549 46.22                             139    0.1410 85.4 354 
 BRR  HZ I        1549 49.40        36.0 0.12                          85.4 354 
 BRR  HE ES   2   1550  1.22                             139    0.73 5 85.4 354 
 PTB  HZ EP       1549 46.42                             136   -0.4210 94.4 284 
 PTB  HN ES   2   1550  1.22                             136   -0.63 5 94.4 284 
 GIR2 SZ EP       1549 47.13                             136    0.0910 94.8  30 
 GIR2 SZ ES   1   1550  1.87                             136   -0.34 7 94.8  30 
 PAM  SZ EP       1549 52.55                             122   -0.29 9  151  43 
 PAM  SN ES   2   1550 12.28                             122   -0.24 5  151  43 
 NOR  SZ EP       1549 53.95                             119    0.49 9  162 238 
 NOR  SN ES   1   1550 13.35                             119   -0.29 7  162 238 
 ZAR  HZ EP       1549 56.12                             115    0.08 9  187 313 
 ZAR  HN ES   2   1550 18.87                             115    0.64 4  187 313 
 ZAR  HZ I        1550 23.46        24.3 0.48                           187 313 
 OCA  HN ES   2   1550 23.42                             112   -0.36 4  213   9 
                                                                                
