 2015  2 4 1644 41.9 L   6.822 -73.153145.8  RSN 18 0.5 2.6LRSN 3.2WRSN        1
 SPEC AVERAGE  MO 13.9 ST0.944 OM  2.1 f0 1.98 R1.3843 AL 0.00 WI 30.0 MW  3.2 3
 SPEC SD       MO  0.3 ST  2.0 OM  0.4 f0 1.81 R0.5105 AL      WI      MW  0.2 3
 GAP=135        1.07       3.0     3.9  5.0 -0.1299E+01  0.6805E+01  0.1702E+01E
 Epicentro: LOS SANTOS - SANTANDER                                             3
 SPEC PAM SH Z MO 14.0 ST0.132 OM  2.1 f0 1.26 R1.5270 AL-0.00 WI 30.0 MW  3.3 3
 SPEC PAM SH Z T164519 K 0.000 GD  164 VS 5.20 DE 3.50 Q0750.0 QA 1.50 VS 5.20 3
 SPEC SPBCHH Z MO 13.6 ST  5.9 OM  1.5 f0 6.43 R0.2992 AL-0.00 WI 30.0 MW  3.0 3
 SPEC SPBCHH Z T164531 K 0.000 GD  220 VS 5.20 DE 3.50 Q0750.0 QA 1.50 VS 5.20 3
 SPEC CHI HH Z MO 14.1 ST0.098 OM  1.9 f0 1.10 R1.7491 AL-0.00 WI 30.0 MW  3.3 3
 SPEC CHI HH Z T164547 K 0.000 GD  290 VS 5.20 DE 3.50 Q0750.0 QA 1.50 VS 5.20 3
 SPECGUY2CHH Z MO 14.1 ST  0.1 OM  1.8 f00.908 R  2.12 AL-0.00 WI 30.0 MW  3.3 3
 SPECGUY2CHH Z T164558 K       GD335.4 VS 5.20 DE 3.50 Q0750.0 QA 1.50 VS 5.20 3
 SPEC RREFHH Z MO 13.9 ST0.126 OM  1.6 f0 1.41 R1.3645 AL-0.00 WI 30.0 MW  3.2 3
 SPEC RREFHH Z T1646 5 K 0.000 GD  354 VS 5.20 DE 3.50 Q0750.0 QA 1.50 VS 5.20 3
 SPEC CBOCHH Z MO 13.7 ST0.049 OM  1.4 f0 1.19 R1.6168 AL-0.00 WI 30.0 MW  3.1 3
 SPEC CBOCHH Z T1646 3 K 0.000 GD  364 VS 5.20 DE 3.50 Q0750.0 QA 1.50 VS 5.20 3
 SPEC DBB SH Z MO 14.4 ST0.196 OM  2.1 f0 1.10 R1.7491 AL-0.00 WI 30.0 MW  3.5 3
 SPEC DBB SH Z T1646 3 K 0.000 GD  368 VS 5.20 DE 3.50 Q0750.0 QA 1.50 VS 5.20 3
 SPEC ORTCHH Z MO 13.8 ST0.114 OM  1.5 f0 1.39 R1.3842 AL-0.00 WI 30.0 MW  3.2 3
 SPEC ORTCHH Z T164616 K 0.000 GD  422 VS 5.20 DE 3.50 Q0750.0 QA 1.50 VS 5.20 3
 OLDACT:UP  15-02-04 23:58 OP:cam  STATUS:               ID:20150204163818     3
 OLDACT:REG 15-02-04 22:45 OP:cam  STATUS:               ID:20150204163818     3
 ACTION:UPD 15-04-30 21:21 OP:nd   STATUS:               ID:20150204164441 L   I
 OLDACT:UP  15-02-04 23:59 OP:cam  STATUS:               ID:20150204163818     3
 OLDACT:UP  15-02-04 23:58 OP:cam  STATUS:               ID:20150204163818     3
 2015-02-04-1638-18M.COL___280                                                 6
 STAT SP IPHASW D HRMM SECON CODA AMPLIT PERI AZIMU VELO AIN AR TRES W  DIS CAZ7
 BAR2 EZ IP     D 1645  1.56                             170    0.0010 25.6 187 
 BAR2 EZ ES       1645 16.88                             170   -0.0310 25.6 187 
 BAR2 EZ I        1645 18.11        76.6 0.18            168           25.6 187 
 BRR  HZ EP     D 1645  3.45                             153    0.5310 69.3 297 
 BRR  HN ES       1645 20.17                             153    0.8310 69.3 297 
 BRR  HZ I        1645 23.28        71.2 0.30            151           69.3 297 
 PAM  SZ EP       1645  4.37                             151    0.3610 76.1  41 
 PAM  SE ES       1645 21.43                             151    0.1410 76.1  41 
 PAM  SZ I        1645 23.72        91.0 0.50            156           76.1  41 
 RUS  HZ EP       1645  5.61                             143   -0.2010  103 176 
 RUS  HN ES       1645 24.18                             143   -0.3010  103 176 
 RUS  HZ I        1645 25.57        33.1 0.42            145            103 176 
 PTB  HZ EP       1645  7.83                             132   -0.98 9  147 258 
 PTB  HN ES       1645 29.13                             132   -0.70 9  147 258 
 PTB  HZ I        1645 36.53        38.6 0.40            132            147 258 
 SPBC HZ EP       1645 10.43                             129   -0.07 9  165 218 
 SPBC HE ES       1645 32.67                             129   -0.17 9  165 218 
 ZAR  HZ EP       1645 14.11                             123   -0.04 9  202 292 
 ZAR  HN ES       1645 38.94                             123   -0.38 9  202 292 
 ZAR  HZ I        1645 44.68        36.0 0.24            123            202 292 
 NOR  HZ EP       1645 17.66                             118   -0.02 8  235 234 
 NOR  HE ES       1645 45.60                             118   -0.02 8  235 234 
 NOR  HZ I        1645 50.96        25.1 0.46            120            235 234 
 SML  HZ EP       1645 18.00                             118   -0.22 8  241 335 
 SML  HE ES       1645 46.15                             118   -0.43 8  241 335 
 SML  HZ I        1645 48.36        53.1 0.24            120            241 335 
 CHI  HZ EP       1645 19.78                             117   -0.02 8  251 195 
 CHI  HN ES       1645 48.93                             117   -0.46 8  251 195 
 CHI  HZ I        1645 52.41        30.4 0.60            119            251 195 
 GUY2CHZ EP       1645 26.64                             112    1.08 7  302 234 
 GUY2CHE ES       1646  0.09                             112    0.44 7  302 234 
 GUY2CHZ I        1646  7.64        19.5 0.34                           302 234 
 RREF HZ EP       1645 28.27                             111    0.15 7  323 229 
 RREF HN ES   4   1646  6.98                             111    2.78 0  323 229 
 RREF HZ I        1646 13.54        25.7 0.38            112            323 229 
 CBOC HZ EP   4   1645 29.87                             110    1.09 0  334 252 
 CBOC HE ES       1646  5.39                             110    0.02 7  334 252 
 CBOC HZ I        1646 11.12         5.6 0.64            111            334 252 
 DBB  SZ EP       1645 29.16                             110   -0.07 7  338 274 
 DBB  SZ ES   4   1646  4.59                             110   -1.59 0  338 274 
 DBB  SZ I        1646  9.43        42.3 0.28            111            338 274 
 TOL  SZ EP       1645 30.96                             109    0.70 7  345 224 
 SDV  BZ EP   4   1645 30.80                             108   -1.00 0  359  51 
 ANIL HN ES       1646 11.87                             108    1.11 6  359 224 
 ORTC HZ EP       1645 35.68                             106   -0.28 6  397 216 
 PAL  HZ EP       1645 36.80                             106   -0.29 6  406 239 
                                                                                
