 2015  4 4 1915  5.9 L   6.827 -73.176135.7  RSN 10 0.4 1.8LRSN                1
 GAP=131        1.05       3.3     4.0  6.0 -0.1832E+01  0.8098E+01  0.7886E+00E
 Epicentro: ZAPATOCA - SANTANDER                                               3
 ACTION:UPD 15-06-03 16:52 OP:cam  STATUS:               ID:20150404191505 L   I
 OLDACT:REG 15-04-04 22:40 OP:fm   STATUS:               ID:20150404190750     3
 2015-04-04-1907-50M.COL___285                                                 6
 STAT SP IPHASW D HRMM SECON CODA AMPLIT PERI AZIMU VELO AIN AR TRES W  DIS CAZ7
 BAR2 EZ EP       1915 24.47                             169    0.0710 26.0 181 
 BAR2 EZ ES       1915 39.23                             169    0.4110 26.0 181 
 BAR2 EZ I        1915 41.21        10.4 0.28            169           26.0 181 
 BRR  HZ EP       1915 26.41                             152    0.6810 66.8 298 
 BRR  HN ES       1915 40.56                             152   -0.6210 66.8 298 
 BRR  HZ I        1915 46.05        10.1 0.16            150           66.8 298 
 PAM  SZ EP       1915 27.32                             149    0.2510 77.3  43 
 PAM  SE ES       1915 43.84                             149    0.2710 77.3  43 
 PAM  SZ I        1915 46.65         7.6 0.20            154           77.3  43 
 RUS  HZ EP       1915 28.83                             141   -0.1210  104 174 
 RUS  HN ES       1915 46.45                             141   -0.4610  104 174 
 RUS  HZ I        1915 48.08         4.5 0.42            145            104 174 
 PTB  HZ EP       1915 31.38                             130   -0.45 9  145 257 
 PTB  HE ES       1915 52.24                             130    0.19 9  145 257 
 PTB  HZ I        1915 58.34         9.6 0.20            131            145 257 
 SPBC HZ EP       1915 33.44                             127   -0.25 9  163 217 
 SPBC HN ES       1915 55.20                             127   -0.16 9  163 217 
 SPBC HZ I        1916  2.62        16.5 0.34            129            163 217 
 ZAR  HN ES       1916  2.15                             121    0.41 9  200 292 
 ZAR  HZ I        1916  8.93         9.3 0.26            122            200 292 
 NOR  HZ EP       1915 40.63                             116   -0.35 8  234 233 
 NOR  HN ES       1916  8.18                             116   -0.15 8  234 233 
 NOR  HZ I        1916 12.20         6.6 0.22            119            234 233 
 SML  HZ EP   1   1915 40.87                             116   -0.68 6  240 336 
 SML  HE ES       1916  8.77                             116   -0.56 8  240 336 
 SML  HZ I        1916 14.13        11.2 0.24            118            240 336 
 GUY2CHZ EP       1915 49.81                             110    0.84 7  300 234 
 GUY2CHE ES       1916 23.11                             110    0.56 7  300 234 
 GUY2CHZ I        1916 31.29         6.1 0.78                           300 234 
                                                                                
