 2017  7 4 1345 54.5 L   6.299 -73.120147.5  RSN  4 0.5 1.6LRSN                1
 GAP=292        1.10      15.6     9.2 10.4  0.1422E+02  0.2864E+02  0.5964E+02E
 Epicentro: CHARALA - SANTANDER                                                3
 ACTION:UPD 17-08-30 15:29 OP:rebc STATUS:               ID:20170704134554 L   I
 OLDACT:UP  17-07-05 13:03 OP:nlst STATUS:               ID:20170704134554 L   3
 OLDACT:REG 17-07-04 23:02 OP:ar   STATUS:               ID:20170704133738     3
 2017-07-04-1338-00M.COL___383                                                 6
 STAT SP IPHASW D HRMM SECON CODA AMPLIT PERI AZIMU VELO AIN AR TRES W  DIS CAZ7
 BAR2 EZ EP       1346 15.03                             166    0.4510 33.1 348 
 BAR2 EZ ES       1346 29.79                             166   -0.4510 33.1 348 
 BAR2 EZ I        1346 31.92         7.6 0.30            168           33.1 348 
 BRR  HZ EP   2   1346 17.07                             140   -1.43 5  111 324 
 BRR  HE ES       1346 37.58                             140    0.3810  111 324 
 BRR  HZ I        1346 39.75        16.0 0.34            143            111 324 
 PTB  HZ EP       1346 22.21                             131    0.37 9  150 280 
 PTB  HN ES       1346 42.89                             131   -0.27 9  150 280 
 PTB  HZ I        1346 45.49         2.4 0.12            134            150 280 
 ZAR  HZ EP       1346 29.96                             118   -0.15 8  233 305 
 ZAR  HN ES   4   1346 54.26                             118   -3.61 0  233 305 
 ZAR  HZ I        1346 56.66         2.1 0.14            121            233 305 
                                                                                
