 2010  3 4 1923 33.3 L   6.808 -73.042143.9  RSN 12 0.5 2.8LRSN                1
 GAP=133        0.88       3.6     6.2  6.1 -0.4531E+01  0.1937E+01  0.2695E+01E
 Epicentro: LOS SANTOS - SANTANDER                                             3
 ACTION:UP  10-08-24 09:51 OP:vdl  STATUS:               ID:20100304192333 L   I
 2010-03-04-1922-50S.COL___101                                                 6
 STAT SP IPHASW D HRMM SECON CODA AMPLIT PERI AZIMU VELO SNR AR TRES W  DIS CAZ7
 BAR2 SZ IP       1923 52.93                             168     0.110   29 213 
 BAR2 SZ ES   2   1924  7.25                             168    -0.9 5   29 213 
 BRR  HZ IP       1923 54.66                             149    -0.210   81 294 
 BRR  HN ES   1   1924 11.62                             149    -0.1 7   81 294 
 BRR  HZ I        1924 15.50       127.4 0.10                            81 294 
 RUS  BZ IP       1923 57.00                             143     0.010  101 183 
 RUS  BE ES   1   1924 15.60                             143     0.2 7  101 183 
 RUS  BZ I        1924 17.47        60.7 0.31                           101 183 
 OCA  SZ EP       1924  1.26                             129    -0.3 9  161 349 
 OCA  SZ ES   1   1924 24.54                             129     0.9 7  161 349 
 OCA  SZ I        1924 27.87       105.6 0.17                           161 349 
 CHI  HZ EP       1924 11.39                             116     0.0 8  253 198 
 CHI  HN ES   2   1924 40.91                             116    -0.2 4  253 198 
 HEL  HZ EP   1   1924 14.85                             113     0.1 6  283 256 
 HEL  HZ I        1924 51.37        28.2 0.42                           283 256 
 RREF BZ EP       1924 21.33                             110     0.9 7  331 231 
 RREF BN ES   1   1924 57.61                             110     0.4 5  331 231 
 RREF BZ I        1925  5.41        28.1 0.35                           331 231 
 DBB  SZ EP   1   1924 20.81                             108    -1.2 5  351 274 
 SDV  BZ EP       1924 22.26                             108     0.0 6  351  49 
 TOL  SZ EP       1924 22.75                             108     0.2 6  352 226 
 TOL  SZ ES   3   1925  0.32                             108    -0.6 2  352 226 
 ANIL BZ EP   2   1924 23.76                             108    -0.3 3  366 226 
 ANIL BE ES   3   1925  3.74                             108     0.1 2  366 226 
 ANIL BZ I        1925 11.23        41.5 0.41                           366 226 
 PRA  HZ EP   1   1924 26.89                             106    -0.7 4  399 211 
 PRA  HN ES   2   1925  9.79                             106    -0.1 3  399 211 
 PRA  HZ I        1925 15.93        20.7 0.44                           399 211 
                                                                                
