 2012 12 4 1059 20.2 L   6.788 -73.150147.3  RSN  7 0.2 2.3LRSN                1
 GAP=136        0.59       2.2     2.8  4.5  0.3077E-01  0.3821E+01 -0.2269E+01E
 Epicentro: LOS SANTOS - SANTANDER                                             3
 ACTION:UPD 13-01-04 14:25 OP:ep   STATUS:               ID:20121204105920 L   I
 2012-12-04-1058-35M.COL___182                                                 6
 STAT SP IPHASW D HRMM SECON CODA AMPLIT PERI AZIMU VELO AIN AR TRES W  DIS CAZ7
 BAR2 SZ EP       1059 40.16                             171    0.2110 22.0 189 
 BAR2 SZ ES       1059 55.23                             171   -0.1610 22.0 189 
 BAR2 SZ I        1059 57.59        22.1 0.28                          22.0 189 
 PAM  SZ EP       1059 42.90                             151    0.2810 78.7  39 
 PAM  SN ES       11 0  0.14                             151    0.0010 78.7  39 
 RUS  HZ EP       1059 43.98                             144    0.0010 99.3 176 
 RUS  HN ES       11 0  2.37                             144   -0.1810 99.3 176 
 RUS  HN I        11 0  3.24        15.6 0.30                          99.3 176 
 PTB  HZ EP       1059 47.06                             132   -0.13 9  147 259 
 PTB  HN ES       11 0  8.33                             132    0.06 9  147 259 
 PTB  HN I        11 0 13.81        22.3 0.52                           147 259 
 OCA  HN ES       11 0 11.14                             130    0.17 9  162 353 
 OCA  HN I        11 0 15.77        47.6 0.22                           162 353 
 ZAR  HN ES       11 0 18.44                             123    0.34 9  204 293 
 ZAR  HN I        11 0 23.55         9.6 0.24                           204 293 
 SML  HZ EP       1059 56.74                             118   -0.24 8  245 336 
 SML  HN ES       11 0 25.16                             118   -0.54 8  245 336 
 SML  HN I        11 0 30.91        30.2 0.10                           245 336 
                                                                                
