 2012 10 4 1836 15.3 L   7.131 -73.401124.0  RSN  4 0.2 2.0LRSN                1
 GAP=133        0.39       5.2    16.5 10.5 -0.5731E+02 -0.7395E+02  0.9335E+01E
 Epicentro: LEBRIJA - SANTANDER                                                3
 ACTION:UPD 12-11-22 17:02 OP:ep   STATUS:               ID:20121004183615 L   I
 2012-10-04-1830-00M.COL___222                                                 6
 STAT SP IPHASW D HRMM SECON CODA AMPLIT PERI AZIMU VELO AIN AR TRES W  DIS CAZ7
 BRR  HN ES   3   1836 45.26                             164   -0.23 2 34.5 266 
 BAR2 SZ EP       1836 34.14                             151    0.1310 64.3 158 
 BAR2 SZ ES   3   1836 48.68                             151    0.04 2 64.3 158 
 BAR2 SZ I        1836 49.58        24.3 0.42                          64.3 158 
 GRA  SZ EP       1836 36.93                             137    0.0010  106  38 
 GRA  SZ ES   3   1836 53.60                             137   -0.24 2  106  38 
 RUS  HZ EP   2   1836 40.12                             128   -0.44 5  141 166 
                                                                                
