 2015  1 4 1729 11.0 L   6.704 -73.231149.7  RSN  4 0.3 1.2LRSN                1
 GAP=207        0.69       7.6     8.5  6.1  0.5389E+02  0.6387E+01  0.2075E+01E
 Epicentro: VILLANUEVA - SANTANDER                                             3
 ACTION:UPD 15-03-02 15:36 OP:nd   STATUS:               ID:20150104172911 L   I
 OLDACT:REG 15-01-04 20:46 OP:cam  STATUS:               ID:20150104172818     3
 2015-01-04-1728-18M.COL___280                                                 6
 STAT SP IPHASW D HRMM SECON CODA AMPLIT PERI AZIMU VELO AIN AR TRES W  DIS CAZ7
 BAR2 EZ EP       1729 30.57                             175   -0.4010 13.5 157 
 BAR2 EZ ES       1729 46.45                             175   -0.0810 13.5 157 
 BAR2 EZ I        1729 47.13         3.4 0.30            170           13.5 157 
 BRR  HZ EP       1729 32.54                             154    0.0510 69.3 310 
 BRR  HN ES       1729 49.53                             154    0.2910 69.3 310 
 BRR  HZ I        1729 49.76         4.2 0.42            154           69.3 310 
 RUS  HZ EP       1729 34.90                             147    0.3810 91.3 170 
 RUS  HE ES       1729 52.76                             147   -0.0910 91.3 170 
 RUS  HZ I        1729 55.99         2.0 0.40            145           91.3 170 
 ZAR  HN ES       1730  8.26                             124   -0.19 9  200 296 
                                                                                
