 2016  4 4 1659  3.5 L   6.789 -73.171147.2  RSN  6 0.2 1.8LRSN                1
 GAP=141        0.53       3.2     2.9  4.1 -0.4028E+01  0.4339E+01 -0.6725E+00E
 Epicentro: LOS SANTOS - SANTANDER                                             3
 ACTION:UPD 16-05-05 14:18 OP:rebc STATUS:               ID:20160404165903 L   I
 OLDACT:UP  16-04-04 23:09 OP:drio STATUS:               ID:20160404165745     3
 OLDACT:UP  16-04-04 23:09 OP:drio STATUS:               ID:20160404165745     3
 OLDACT:REG 16-04-04 20:36 OP:drio STATUS:               ID:20160404165745     3
 2016-04-04-1657-45M.COL___297                                                 6
 STAT SP IPHASW D HRMM SECON CODA AMPLIT PERI AZIMU VELO AIN AR TRES W  DIS CAZ7
 BAR2 EZ EP       1659 23.38                             171    0.0610 21.8 183 
 BAR2 EZ ES       1659 38.66                             171   -0.0910 21.8 183 
 BAR2 EZ I        1659 41.17        20.2 0.28            170           21.8 183 
 PAM  EZ EP       1659 26.31                             150    0.2310 80.1  41 
 PAM  EN ES       1659 43.67                             150    0.0210 80.1  41 
 PAM  EZ I        1659 46.10         7.5 0.46            154           80.1  41 
 RUS  HZ EP       1659 27.07                             144   -0.3010 99.6 174 
 RUS  HN ES       1659 46.04                             144    0.0810 99.6 174 
 RUS  HZ I        1659 47.46         8.1 0.24            146           99.6 174 
 PTB  HZ EP       1659 30.17                             133   -0.20 9  145 259 
 PTB  HE ES       1659 51.15                             133   -0.14 9  145 259 
 PTB  HZ I        1659 53.76         8.6 0.14            133            145 259 
 NOR  HZ EP       1659 39.08                             119    0.03 8  232 234 
 NOR  HE ES       17 0  7.15                             119    0.41 8  232 234 
 NOR  HZ I        17 0 16.75         4.4 0.36            120            232 234 
 GUY2CHZ EP   4   1659 48.37                             113    1.48 0  298 235 
 GUY2CHN ES   4   17 0 23.07                             113    2.37 0  298 235 
 GUY2CHZ I        17 0 29.60         5.0 0.34                           298 235 
                                                                                
