 2012  2 4 1727 53.3 L   6.781 -73.149144.0  RSN 13 0.4 2.7LRSN                1
 GAP=137        0.73       2.8     3.2  4.2 -0.1366E+01  0.3467E+01  0.3235E+01E
 ACTION:UP  12-03-07 16:27 OP:epov STATUS:               ID:20120204172753 L   I
 2012-02-04-1720-00M.COL___188                                                 6
 STAT SP IPHASW D HRMM SECON CODA AMPLIT PERI AZIMU VELO SNR AR TRES W  DIS CAZ7
 BAR2 SZ EP       1728 12.69                             171    0.0210 21.2 190 
 BAR2 SZ ES   1   1728 27.50                             171   -0.28 7 21.2 190 
 BAR2 SZ I        1728 28.82       163.1 0.26                          21.2 190 
 GIR2 SZ EP       1728 12.76                             166   -0.0610 33.3 351 
 GIR2 SZ ES       1728 28.44                             166    0.4010 33.3 351 
 BRR  HZ IP     C 1728 14.52                             152    0.2210 72.0 300 
 BRR  HZ I        1728 14.78       210.7 0.18                          72.0 300 
 BRR  HE ES       1728 31.07                             152    0.3910 72.0 300 
 PAM  SZ EP       1728 15.65                             150    0.2110 79.2  39 
 PAM  SE ES       1728 32.43                             150   -0.2710 79.2  39 
 RUS  HZ EP       1728 16.67                             144   -0.0510 98.5 176 
 RUS  HE ES   1   1728 34.88                             144   -0.11 7 98.5 176 
 PTB  HZ EP       1728 19.61                             132   -0.44 9  147 260 
 PTB  HN ES   1   1728 40.24                             132   -0.68 7  147 260 
 OCA  SZ EP   1   1728 21.18                             129   -0.49 7  162 353 
 OCA  SZ ES   1   1728 43.96                             129    0.17 7  162 353 
 ZAR  HZ EP   1   1728 25.07                             122   -0.61 6  205 293 
 ZAR  HE ES   1   1728 50.57                             122   -0.37 6  205 293 
 ZAR  HZ I        1728 59.05        45.3 0.38                           205 293 
 NOR  SZ EP   1   1728 28.65                             118   -0.11 6  233 235 
 NOR  SN ES   1   1728 56.53                             118    0.11 6  233 235 
 CHI  HZ EP   1   1728 31.13                             117    0.47 6  246 195 
 CHI  HN ES   2   1728 59.65                             117   -0.16 4  246 195 
 CHI  HZ I        1729  4.06        27.9 0.54                           246 195 
 HEL  HZ EP   1   1728 33.96                             115    0.63 6  271 256 
 HEL  HN ES   1   1729  5.35                             115    0.80 6  271 256 
 HEL  HZ I        1729 12.92        19.0 0.33                           271 256 
 TOL  SZ EP   2   1728 41.19                             109   -0.09 3  342 225 
 PRA  HZ EP   1   1728 46.59                             106    0.07 4  390 210 
 PRA  HN ES   1   1729 28.13                             106    0.10 4  390 210 
                                                                                
