 2016  7 4 1953 26.1 L   6.769 -73.117141.8  RSN  6 0.2 1.8LRSN                1
 GAP=142        0.55       2.7     2.6  3.6 -0.1568E+01  0.2476E+01  0.1459E+01E
 Epicentro: LOS SANTOS - SANTANDER                                             3
 ACTION:UPD 17-03-29 16:47 OP:lp   STATUS:               ID:20160704195326 L   I
 OLDACT:DUP 16-07-05 01:18 OP:cara STATUS:               ID:20160704194746d    3
 OLDACT:REG 16-07-04 20:58 OP:edw  STATUS:               ID:20160704194745     3
 2016-07-04-1947-45M.COL___322                                                 6
 STAT SP IPHASW D HRMM SECON CODA AMPLIT PERI AZIMU VELO AIN AR TRES W  DIS CAZ7
 BAR2 EZ EP       1953 45.10                             171   -0.1110 20.8 200 
 BAR2 EZ ES       1954  0.35                             171    0.2410 20.8 200 
 BAR2 EZ I        1954  1.79        23.5 0.36            171           20.8 200 
 BRR  HZ EP       1953 46.86                             150   -0.2310 75.6 300 
 BRR  HN ES       1954  3.63                             150    0.1710 75.6 300 
 BRR  HZ I        1954  4.60        14.1 0.12            150           75.6 300 
 PAM  EZ EP       1953 48.01                             150    0.0710 78.1  36 
 PAM  EN ES       1954  4.84                             150   -0.1410 78.1  36 
 PAM  EZ I        1954  7.26        15.6 0.50            153           78.1  36 
 RUS  HZ EP       1953 49.09                             144   -0.1110 97.0 178 
 RUS  HN ES       1954  7.20                             144   -0.0310 97.0 178 
 RUS  HZ I        1954  8.75         4.6 0.18            146           97.0 178 
 PTB  HZ EP       1953 53.33                             131    0.35 9  150 260 
 PTB  HE ES       1954 13.63                             131   -0.32 9  150 260 
 PTB  HZ I        1954 19.97         6.2 0.14            131            150 260 
 GUY2CHZ EP       1954  9.91                             111    0.31 7  302 236 
 GUY2CHN ES       1954 43.42                             111   -0.11 7  302 236 
 GUY2CHZ I        1954 51.33         3.4 0.34                           302 236 
                                                                                
