 2012  3 4 1323 42.1 L   6.745 -73.139145.6  RSN  9 0.4 2.1LRSN                1
 GAP=140        0.87       4.8     4.8  6.7 -0.1181E+01  0.9999E+01  0.3802E+01E
 ACTION:UP  12-03-31 23:17 OP:EP   STATUS:               ID:20120304132342 L   I
 2012-03-04-1320-00M.COL___191                                                 6
 STAT SP IPHASW D HRMM SECON CODA AMPLIT PERI AZIMU VELO SNR AR TRES W  DIS CAZ7
 BAR2 SZ EP       1324  1.56                             173    -0.110   18 196 
 BAR2 SZ ES   1   1324 16.66                             173    -0.2 7   18 196 
 BAR2 SZ I        1324 18.39        39.3 0.29                            18 196 
 BRR  HZ EP       1324  3.44                             151     0.010   75 302 
 BRR  HZ I        1324  3.73        54.1 0.17                            75 302 
 BRR  HE ES   1   1324 20.87                             151     0.8 7   75 302 
 PAM  SZ EP       1324  4.42                             150    -0.210   82  36 
 PAM  SZ I        1324  4.62        18.6 0.19                            82  36 
 PAM  SN ES   1   1324 21.87                             150    -0.2 7   82  36 
 RUS  HZ EP   1   1324  5.63                             145     0.2 7   95 176 
 RUS  HN ES   1   1324 24.01                             145     0.4 7   95 176 
 RUS  HZ I        1324 25.44        10.8 0.30                            95 176 
 PTB  HZ EP   1   1324  8.44                             132    -0.6 7  147 261 
 PTB  HE ES   2   1324 29.15                             132    -0.9 5  147 261 
 ZAR  HZ EP   1   1324 15.36                             122     0.5 6  207 294 
 ZAR  HE ES   1   1324 40.14                             122    -0.3 6  207 294 
 ZAR  HZ I        1324 46.27        14.6 0.25                           207 294 
 NOR  SZ EP   1   1324 17.79                             119     0.3 6  232 236 
 NOR  SE ES   1   1324 45.02                             119    -0.1 6  232 236 
 CHI  HZ EP   1   1324 18.95                             118    -0.3 6  243 196 
 HEL  HZ EP   1   1324 22.86                             115     0.6 6  271 257 
 HEL  HZ I        1324 53.81         6.9 0.47                           271 257 
                                                                                
