 2012  6 4 1520 15.9 L   6.757 -73.152150.6  RSN  7 0.4 1.6LRSN                1
 GAP=138        0.82       4.4     4.7  8.8 -0.3312E+01  0.1752E+02 -0.7076E+00E
 Epicentro: LOS SANTOS - SANTANDER                                             3
 ACTION:UPD 12-08-06 17:47 OP:ep   STATUS:               ID:20120604152015 L   I
 2012-06-04-1518-49M.COL___182                                                 6
 STAT SP IPHASW D HRMM SECON CODA AMPLIT PERI AZIMU VELO AIN AR TRES W  DIS CAZ7
 BAR2 SZ EP   1   1520 36.55                             173    0.49 7 18.6 191 
 BAR2 SZ ES   1   1520 51.52                             173   -0.25 7 18.6 191 
 BAR2 SZ I        1520 53.21         5.4 0.14            172           18.6 191 
 PAM  SZ EP   1   1520 39.28                             150    0.37 7 81.5  38 
 PAM  SZ I        1520 39.67         6.2 0.19            153           81.5  38 
 PAM  SN ES       1520 56.94                             150    0.1110 81.5  38 
 RUS  HZ EP   1   1520 39.10                             146   -0.74 7 95.9 175 
 RUS  HN ES   1   1520 58.65                             146    0.16 7 95.9 175 
 RUS  HZ I        1521  0.19         2.5 0.28            147           95.9 175 
 PTB  HZ EP   1   1520 43.40                             133    0.23 7  146 261 
 PTB  HN ES   1   1521  4.54                             133    0.13 7  146 261 
 PTB  HZ I        1521  6.65         6.3 0.20            133            146 261 
 OCA  HN ES   1   1521  7.08                             130   -0.69 7  165 354 
 ZAR  HE ES   1   1521 14.90                             123    0.42 6  205 293 
 ZAR  HZ I        1521 18.81        11.0 0.15            124            205 293 
 HEL  HN ES   1   1521 27.14                             116   -0.47 6  270 257 
                                                                                
