 2012  1 4 1728  2.1 L   6.001 -74.245 68.0  RSN  7 0.4 1.4LRSN                1
 GAP=117        0.81       4.2     4.2 12.1 -0.4840E+01 -0.1475E+02  0.1207E+02E
 Epicentro: LA BELLEZA - SANTANDER                                             3
 ACTION:UP  12-02-03 08:14 OP:REBC STATUS:               ID:20120104172802 L   I
 2012-01-04-1726-59S.COL___185                                                 6
 STAT SP IPHASW D HRMM SECON CODA AMPLIT PERI AZIMU VELO SNR AR TRES W  DIS CAZ7
 PTB  HZ EP       1728 14.93                             130    -0.110   64 339 
 PTB  HN ES   2   1728 25.77                             130     0.7 5   64 339 
 PTB  HZ I        1728 26.08         7.6 0.32                            64 339 
 NOR  SZ EP       1728 16.62                             122    -0.410   84 235 
 NOR  SN ES   1   1728 28.48                             122    -0.3 7   84 235 
 RUS  HZ EP       1728 22.54                             110     0.010  129  95 
 HEL  HZ EP       1728 24.12                             108     0.0 9  144 278 
 HEL  HZ I        1728 43.03         4.1 0.56                           144 278 
 GUY  SZ EP       1728 25.90                             106     0.6 9  153 236 
 GUY  SE ES   2   1728 43.83                             106     0.3 5  153 236 
 GUY  SZ I        1728 49.62         4.8 0.56                           153 236 
 CHI  HZ EP   3   1728 27.03                             105     0.7 2  162 159 
 CHI  HE ES   3   1728 45.44                             105     0.2 2  162 159 
 ZAR  HE ES   2   1728 47.35                             103    -0.4 4  178 338 
 ZAR  HZ I        1728 52.07         5.0 0.20                           178 338 
                                                                                
