 2011  5 4 1103 10.0 L   6.590 -73.409119.9  RSN  8 0.2 1.7LRSN                1
 GAP= 80        0.44       2.2     3.1  3.8 -0.1559E+01  0.4054E+01 -0.5533E+00E
 Epicentro: HATO - SANTANDER                                                   3
 ACTION:UP  11-06-29 08:50 OP:tino STATUS:               ID:20110504110310 L   I
 2011-05-04-1102-40S.COL___133                                                 6
 STAT SP IPHASW D HRMM SECON CODA AMPLIT PERI AZIMU VELO SNR AR TRES W  DIS CAZ7
 BAR2 SZ IP       11 3 26.46                             167    -0.110   25  89 
 BAR2 SZ ES   1   11 3 39.38                             167    -0.1 7   25  89 
 BAR2 SZ I        11 3 40.99        16.4 0.32                            25  89 
 BTL  SZ IP       11 3 27.03                             161     0.010   40  23 
 BRR  HZ EP       11 3 27.95                             149    -0.110   66 330 
 BRR  HZ I        11 3 35.66        12.1 0.11                            66 330 
 BRR  HN ES   1   11 3 42.08                             149    -0.1 7   66 330 
 RUS  HZ EP   1   11 3 29.72                             143    -0.3 7   85 155 
 RUS  HN ES   1   11 3 45.92                             143     0.2 7   85 155 
 RUS  HZ I        11 3 46.77        11.2 0.20                            85 155 
 PAM  SZ EP   1   11 3 32.52                             134     0.1 7  114  43 
 PAM  SN ES   1   11 3 50.15                             134     0.2 7  114  43 
 GRA  SZ EP   1   11 3 36.00                             123    -0.2 7  158  25 
 GRA  SZ ES   1   11 3 56.70                             123     0.1 7  158  25 
 GRA  SZ I        11 3 59.79         7.6 0.25                           158  25 
 NOR  SZ EP   1   11 3 40.30                             117     0.1 6  197 235 
 HEL  HZ EP   1   11 3 45.50                             112     0.3 6  239 259 
 HEL  HZ I        11 4 18.11         3.8 0.20                           239 259 
                                                                                
