 2016 11 4 1708 55.7 L   6.811 -73.188145.1  RSN 17 0.5 2.7LRSN                1
 GAP=103        1.01       3.4     2.8  5.2 -0.1348E+01  0.2724E+01  0.6433E+01E
 Epicentro: ZAPATOCA - SANTANDER                                               3
 ACTION:UPD 17-10-26 21:04 OP:lp   STATUS:               ID:20161104170855 L   I
 OLDACT:REG 16-11-04 21:09 OP:cog  STATUS:               ID:20161104170721     3
 2016-11-04-1708-00M.COL___343                                                 6
 STAT SP IPHASW D HRMM SECON CODA AMPLIT PERI AZIMU VELO AIN AR TRES W  DIS CAZ7
 BAR2 HZ IP     C 17 9 15.21                             170   -0.0610 24.2 178 
 BAR2 HN ES       17 9 30.45                             170   -0.0810 24.2 178 
 BAR2 HZ I        17 9 33.04       141.4 0.30            166           24.2 178 
 BRR  HZ EP       17 9 16.95                             154    0.4310 66.5 300 
 BRR  HE ES       17 9 33.35                             154    0.5910 66.5 300 
 BRR  HZ I        17 9 38.20        63.1 0.16            154           66.5 300 
 PAM  HZ EP       17 9 17.94                             150   -0.0410 79.6  43 
 PAM  HE ES       17 9 35.38                             150    0.0210 79.6  43 
 PAM  HZ I        17 9 37.39        79.4 0.50            158           79.6  43 
 PTB  HZ EP       17 9 21.67                             133   -0.55 9  143 258 
 PTB  HN ES       17 9 42.42                             133   -0.48 9  143 258 
 PTB  HZ I        17 9 48.10        37.5 0.14            133            143 258 
 TAM  HZ EP       17 9 23.48                             129   -0.30 9  160 105 
 TAM  HN ES       17 9 45.33                             129   -0.35 9  160 105 
 SPBC HZ EP       17 9 24.06                             129    0.10 9  161 217 
 SPBC HN ES       17 9 45.50                             129   -0.50 9  161 217 
 SPBC HZ I        17 9 48.82        75.9 0.26            129            161 217 
 ZAR  HZ EP       17 9 27.73                             123    0.12 9  199 292 
 ZAR  HE ES       17 9 52.55                             123    0.05 9  199 292 
 ZAR  HZ I        17 9 59.03        39.0 0.32            125            199 292 
 NOR  HZ EP       17 9 31.21                             119    0.16 8  232 234 
 NOR  HE ES       17 9 58.80                             119    0.17 8  232 234 
 NOR  HZ I        1710  4.84        30.4 0.18            120            232 234 
 CHI  HZ EP       17 9 33.42                             117    0.07 8  249 194 
 CHI  HN ES       1710  2.87                             117    0.15 8  249 194 
 CHI  HZ I        1710 12.61        21.1 0.42            118            249 194 
 ROSC BZ EP       17 9 34.64                             117    1.01 8  251 210 
 ROSC BN ES       1710  4.55                             117    1.33 8  251 210 
 ROSC BZ I        1710  9.86        44.9 0.40            118            251 210 
 HEL  HZ EP       17 9 35.17                             115   -0.23 8  268 255 
 HEL  HN ES       1710  5.57                             115   -0.80 8  268 255 
 HEL  HZ I        1710 15.49        19.7 0.42            116            268 255 
 PTGC HZ EP   3   17 9 38.71                             111   -1.14 2  312 158 
 PTGC HN ES   3   1710 12.35                             111   -1.93 2  312 158 
 ELA  HZ EP   4 D 17 9 45.33                             110    3.13 0  326 229 
 ELA  HN ES   4   1710 20.91                             110    2.44 0  326 229 
 ELA  HZ I        1710 34.46        17.3 0.44            112            326 229 
 CBOC HZ EP       17 9 42.31                             110    0.20 7  329 252 
 CBOC HN ES       1710 17.70                             110   -0.62 7  329 252 
 ANIL HZ EP   4   17 9 47.42                             108    2.23 0  355 224 
 ANIL HN ES   4   1710 26.12                             108    2.32 0  355 224 
 ANIL HZ I        1710 29.46        51.5 0.28            110            355 224 
 PRA  HZ EP       17 9 48.90                             106   -0.15 6  391 209 
 PRA  HE ES       1710 30.69                             106    0.03 6  391 209 
 PRA  HZ I        1710 37.41        26.8 0.44            108            391 209 
 ORTC HZ EP       17 9 49.49                             106    0.11 6  394 216 
 ORTC HN ES       1710 30.91                             106   -0.35 6  394 216 
 ORTC HZ I        1710 39.03        15.0 0.42            108            394 216 
                                                                                
