 2011  2 4 1010 30.5 L   6.865 -73.351114.0  RSN 10 0.4 2.4LRSN                1
 GAP=108        0.89       4.1     7.1  7.8 -0.1330E+02  0.2796E+02 -0.4108E+01E
 Epicentro: SAN VICENTE DE CHUCURI - SANTANDER                                 3
 ACTION:UP  11-03-28 15:05 OP:jfem STATUS:               ID:20110204101030 L   I
 2011-02-04-1006-17S.COL___138                                                 6
 STAT SP IPHASW D HRMM SECON CODA AMPLIT PERI AZIMU VELO SNR AR TRES W  DIS CAZ7
 BTL  SZ IP       1010 46.42                             174     0.310   11  58 
 BTL  SZ ES   2   1010 58.99                             174     0.8 5   11  58 
 GIR2 SZ IP       1010 46.25                             165    -0.110   29  36 
 GIR2 SZ ES   2   1010 58.17                             165    -0.5 5   29  36 
 BAR2 SZ IP       1010 46.63                             162    -0.110   35 149 
 BAR2 SZ ES   2   1010 59.19                             162    -0.2 5   35 149 
 BAR2 SZ I        1011  1.14       227.6 0.47                            35 149 
 RUS  HZ EP   1   1010 51.70                             133    -0.5 7  112 165 
 RUS  HE ES   2   1011  9.03                             133    -0.2 5  112 165 
 GRA  SZ IP       1010 53.90                             128     0.610  128  28 
 GRA  SZ I        1010 55.47        59.9 0.30                           128  28 
 GRA  SZ ES   2   1011 11.35                             128     0.3 5  128  28 
 OCA  SZ IP       1010 54.99                             123    -0.7 9  152   1 
 OCA  SZ ES   2   1011 14.84                             123    -0.5 5  152   1 
 OCA  SZ I        1011 21.03        69.4 0.31                           152   1 
 NOR  SZ EP   1   1011  3.13                             112     0.0 6  221 230 
 NOR  SE ES   2   1011 28.39                             112    -0.1 4  221 230 
 CHI  HZ EP   1   1011  6.65                             109    -0.2 6  251 190 
 CHI  HN ES   2   1011 35.52                             109     0.2 4  251 190 
 CHI  HZ I        1011 43.96         6.6 0.64                           251 190 
 HEL  HZ EP   1   1011  7.59                             109     0.6 6  252 253 
 HEL  HE ES   2   1011 35.08                             109    -0.4 4  252 253 
 HEL  HZ I        1011 41.21        14.0 0.52                           252 253 
 RREF HZ EP   1   1011 14.62                             105     0.6 5  310 226 
 RREF HN ES   2   1011 47.69                             105    -0.4 4  310 226 
 RREF HZ I        1011 56.30         9.6 0.28                           310 226 
                                                                                
