 2013  7 4 1757 33.5 L   6.782 -73.155147.4  RSN  7 0.3 1.8LRSN                1
 GAP=136        0.77       4.9     3.8  6.4 -0.5998E+00  0.3973E+01 -0.3533E+01E
 Epicentro: LOS SANTOS - SANTANDER                                             3
 ACTION:UPD 13-08-12 10:35 OP:ep   STATUS:               ID:20130704175733 L   I
 OLDACT:REG 13-07-04 19:53 OP:jn   STATUS:               ID:20130704175540     3
 2013-07-04-1755-40M.COL___224                                                 6
 STAT SP IPHASW D HRMM SECON CODA AMPLIT PERI AZIMU VELO AIN AR TRES W  DIS CAZ7
 BAR2 SZ EP       1757 53.17                             172   -0.0710 21.3 188 
 BAR2 SZ ES   1   1758  8.54                             172   -0.13 7 21.3 188 
 BAR2 SZ I        1758  9.26        11.9 0.28            172           21.3 188 
 GIR2 SZ EP       1757 53.42                             167    0.0510 33.0 353 
 BRR  HZ EP       1757 55.12                             153    0.3410 71.3 300 
 BRR  HN ES   1   1758 12.08                             153    0.66 7 71.3 300 
 BRR  HZ I        1758 15.94        18.5 0.41            150           71.3 300 
 PAM  SZ EP       1757 56.09                             150    0.1210 79.5  39 
 PAM  SN ES   1   1758 12.92                             150   -0.61 7 79.5  39 
 PAM  SZ I        1758 15.10        11.6 0.52            154           79.5  39 
 RUS  HZ EP   1   1757 57.33                             145    0.10 7 98.7 175 
 RUS  HN ES   1   1758 16.10                             145    0.32 7 98.7 175 
 RUS  HZ I        1758 17.93         5.0 0.36            149           98.7 175 
 PTB  HZ EP       1758  0.03                             133   -0.40 9  146 260 
 PTB  HN ES       1758 21.02                             133   -0.45 9  146 260 
 PTB  HZ I        1758 25.30         7.4 0.24            133            146 260 
 ZAR  HZ EP   1   1758  6.18                             123    0.19 6  204 293 
 ZAR  HE ES   1   1758 31.44                             123    0.08 6  204 293 
 ZAR  HZ I        1758 38.80         7.9 0.36            124            204 293 
                                                                                
