 2012 10 4 1824 56.1 L   6.705 -73.102144.0  RSN  4 0.2 1.4LRSN                1
 GAP=183        0.46       7.7     6.2  6.1  0.1335E+02 -0.1580E+02 -0.1626E+02E
 Epicentro: JORDAN - SANTANDER                                                 3
 XNEAR  100.0 XFAR  800.0 SDEP 100.0                                           3
 ACTION:UP  12-11-22 17:02 OP:ep   STATUS:               ID:20121004182456 L   I
 2012-10-04-1820-00M.COL___222                                                 6
 STAT SP IPHASW D HRMM SECON CODA AMPLIT PERI AZIMU VELO AIN AR TRES W  DIS CAZ7
 BAR2 SZ EP       1825 15.57                             174    0.1810 15.3 216 
 BAR2 SZ I        1825 15.93         3.8 0.13                          15.3 216 
 BAR2 SZ ES   1   1825 30.26                             174   -0.17 7 15.3 216 
 GIR2 SZ ES   3   1825 31.30                             163   -0.09 2 42.6 346 
 BRR  HZ EP       1825 17.42                             149   -0.2210 80.8 303 
 BRR  HN ES   1   1825 34.65                             149    0.22 7 80.8 303 
 PAM  SZ EP       1825 18.49                             149    0.0110 83.0  32 
 PAM  SZ I        1825 18.75         7.1 0.22                          83.0  32 
                                                                                
