 2015  2 4 1321  3.3 L   6.793 -73.154141.9  RSN 21 0.5 2.7LRSN                1
 GAP=125        1.19       3.1     4.0  5.3 -0.3004E+01  0.5162E+01  0.1228E+01E
 Epicentro: LOS SANTOS - SANTANDER                                             3
 ACTION:UPD 15-04-30 21:21 OP:nd   STATUS:               ID:20150204132103 L   I
 OLDACT:UP  15-02-04 23:23 OP:cam  STATUS:               ID:20150204131818     3
 OLDACT:UP  15-02-04 23:23 OP:cam  STATUS:               ID:20150204131818     3
 OLDACT:REG 15-02-04 22:34 OP:cam  STATUS:               ID:20150204131818     3
 2015-02-04-1318-18M.COL___276                                                 6
 STAT SP IPHASW D HRMM SECON CODA AMPLIT PERI AZIMU VELO AIN AR TRES W  DIS CAZ7
 BAR2 EZ EP     C 1321 22.38                             171   -0.0210 22.4 188 
 BAR2 EZ ES       1321 37.16                             171   -0.1810 22.4 188 
 BAR2 EZ I        1321 37.96       151.8 0.30            166           22.4 188 
 BRR  HZ EP     C 1321 24.28                             152    0.3210 70.8 299 
 BRR  HN ES       1321 41.14                             152    1.0310 70.8 299 
 BRR  HZ I        1321 42.09        94.4 0.46            146           70.8 299 
 PAM  SZ EP       1321 25.25                             150    0.1110 78.6  40 
 PAM  SN ES       1321 42.24                             150    0.0410 78.6  40 
 PAM  SZ I        1321 44.06       119.9 0.52            145           78.6  40 
 RUS  HZ EP       1321 26.65                             143    0.0710 99.8 175 
 RUS  HE ES       1321 44.67                             143   -0.0910 99.8 175 
 RUS  HZ I        1321 45.61        84.6 0.36            135           99.8 175 
 PTB  HZ EP       1321 28.95                             131   -0.86 9  147 259 
 PTB  HN ES       1321 49.77                             131   -0.75 9  147 259 
 PTB  HZ I        1321 51.14        51.8 0.26            123            147 259 
 OCA  HZ EP       1321 31.07                             129   -0.26 9  161 354 
 OCA  HN ES       1321 52.78                             129   -0.45 9  161 354 
 OCA  HZ I        1321 57.62        47.0 0.24            122            161 354 
 SPBC HZ IP     C 1321 31.27                             128   -0.07 9  162 219 
 SPBC HN ES       1321 52.98                             128   -0.27 9  162 219 
 SPBC HZ I        1321 55.68        77.3 0.22            120            162 219 
 ZAR  HZ EP       1321 35.56                             122    0.17 9  203 292 
 ZAR  HN ES       1322  1.26                             122    0.80 9  203 292 
 ZAR  HZ I        1322  3.49        57.5 0.22            114            203 292 
 NOR  HZ EP       1321 38.36                             118   -0.27 8  233 234 
 NOR  HZ I        1322 12.08        40.1 0.70            110            233 234 
 SML  HZ EP       1321 39.04                             117   -0.66 8  244 336 
 SML  HE ES       1322  8.39                             117    0.26 8  244 336 
 SML  HZ I        1322 16.93        60.6 0.28            110            244 336 
 CHI  HZ EP       1321 41.29                             116    0.66 8  248 195 
 CHI  HN ES   4   1322  9.20                             116   -0.58 0  248 195 
 CHI  HZ I        1322 13.18        21.1 0.54            109            248 195 
 ROSC BZ EP   4   1321 42.45                             116    1.41 0  252 211 
 ROSC BN ES   4   1322 12.89                             116    2.38 0  252 211 
 ROSC BZ I        1322 15.85        25.4 0.30            109            252 211 
 HEL  HZ EP   4   1321 44.48                             114    1.33 0  271 256 
 HEL  HN ES       1322 13.65                             114   -0.62 8  271 256 
 HEL  HZ I        1322 21.58        26.6 0.34            107            271 256 
 GUY2CHZ EP       1321 47.22                             112    0.67 7  300 235 
 GUY2CHN ES       1322 19.99                             112   -0.32 7  300 235 
 GUY2CHZ I        1322 27.25        20.9 0.26                           300 235 
 RREF HZ EP   4   1321 50.56                             110    1.47 0  321 229 
 RREF HN ES       1322 24.36                             110   -0.48 7  321 229 
 RREF HZ I        1322 34.60        17.9 0.24            104            321 229 
 TOL  SZ EP       1321 52.19                             109    0.97 7  342 225 
 TOL  SZ I        1322 36.42        14.8 0.30            103            342 225 
 MON  HN ES   4   1322 27.52                             108   -2.64 0  353 309 
 MON  HN I        1322 29.86        22.9 0.18            102            353 309 
 ANIL HZ EP       1321 53.68                             108    0.91 6  356 224 
 ARGC HZ EP   4   1321 54.95                             107    2.13 0  360 341 
 SDV  BZ EP       1321 52.51                             107   -0.79 6  362  50 
 SDV  BN ES   4   1322 29.07                             107   -3.26 0  362  50 
 SDV  BZ I        1322 33.92        12.2 0.65            102            362  50 
 ORTC HZ EP       1321 57.64                             106    0.74 6  394 216 
 ORTC HN ES   4   1322 40.91                             106    2.16 0  394 216 
 ORTC HZ I        1322 46.95        13.0 0.52            100            394 216 
 PAL  HZ EP     D 1321 58.43                             105    0.29 6  404 239 
 PAL  HE ES       1322 40.70                             105   -0.26 6  404 239 
 PAL  HZ I        1322 47.23         7.9 0.32            100            404 239 
                                                                                
