 2016 10 4 1429 35.0 L   6.845 -73.195149.3  RSN  4 0.3 1.1LRSN                1
 GAP=242        0.84       8.8     6.4  8.1  0.3793E+02  0.2920E+01 -0.1351E+02E
 Epicentro: ZAPATOCA - SANTANDER                                               3
 ACTION:UPD 16-11-09 19:16 OP:rebc STATUS:               ID:20161004142935 L   I
 OLDACT:DUP 16-10-04 22:39 OP:lv   STATUS:               ID:20161004142745d    3
 2016-10-04-1428-00M.COL___372                                                 6
 STAT SP IPHASW D HRMM SECON CODA AMPLIT PERI AZIMU VELO AIN AR TRES W  DIS CAZ7
 BAR2 EZ EP       1429 54.95                             169   -0.1610 28.0 177 
 BAR2 EZ ES       1430 11.16                             169    0.3210 28.0 177 
 BAR2 EZ I        1430 12.23         3.4 0.29            162           28.0 177 
 RUS  HZ EP       1429 59.34                             143   -0.1110  106 173 
 RUS  HE ES       1430 18.28                             143   -0.2810  106 173 
 RUS  HZ I        1430 18.46         1.5 0.22            141            106 173 
 PTB  HZ EP       1430  2.43                             134    0.59 9  143 256 
 PTB  HN ES       1430 22.84                             134    0.04 9  143 256 
 PTB  HZ I        1430 31.44         1.6 0.25            130            143 256 
 ZAR  HE ES       1430 31.43                             124   -0.44 9  197 291 
                                                                                
