 2014  7 4 1802 25.5 L   6.817 -73.173137.6  RSN 15 0.4 2.0LRSN                1
 GAP=132        0.85       2.3     3.2  4.5 -0.1597E+01  0.4526E+01  0.5282E+00E
 Epicentro: LOS SANTOS - SANTANDER                                             3
 ACTION:UPD 15-03-16 20:41 OP:nd   STATUS:               ID:20140704180225 L   I
 OLDACT:REG 14-07-08 09:11 OP:spq  STATUS:               ID:20140704175819     3
 2014-07-04-1758-19M.COL___259                                                 6
 STAT SP IPHASW D HRMM SECON CODA AMPLIT PERI AZIMU VELO AIN AR TRES W  DIS CAZ7
 BAR2 SZ EP       18 2 44.56                             169    0.3810 24.9 182 
 BAR2 SZ ES   1   18 2 58.59                             169   -0.16 7 24.9 182 
 BAR2 SZ I        18 3  0.64        28.2 0.38            171           24.9 182 
 BRR  HZ IP     C 18 2 46.26                             152    0.7010 67.6 298 
 BRR  HN ES       18 3  1.69                             152    0.4910 67.6 298 
 BRR  HZ I        18 3  8.20        18.4 0.20            150           67.6 298 
 PAM  SZ EP       18 2 47.26                             149    0.3710 77.9  42 
 PAM  SN ES       18 3  3.11                             149   -0.4510 77.9  42 
 PAM  SZ I        18 3  6.58        11.7 0.52            152           77.9  42 
 RUS  HZ EP       18 2 48.44                             141   -0.1810  103 174 
 RUS  HN ES       18 3  6.63                             141   -0.0210  103 174 
 RUS  HZ I        18 3  8.11         7.7 0.28            145            103 174 
 PTB  HZ EP       18 2 51.23                             131   -0.34 9  145 258 
 PTB  HN ES       18 3 11.78                             131   -0.12 9  145 258 
 PTB  HZ I        18 3 14.31         9.0 0.14            131            145 258 
 OCA  HZ EP       18 2 52.78                             128   -0.19 9  158 354 
 OCA  HN ES   4   18 3 12.32                             128   -2.08 0  158 354 
 OCA  HZ I        18 3 22.91        14.6 0.22            129            158 354 
 SPBC HZ EP       18 2 53.52                             127    0.18 9  163 218 
 SPBC HN ES       18 3 14.51                             127   -0.55 9  163 218 
 SPBC HZ I        18 3 19.78        12.4 0.15            129            163 218 
 ZAR  HZ EP       18 2 56.96                             121   -0.09 9  200 292 
 ZAR  HE ES       18 3 21.55                             121   -0.11 9  200 292 
 SML  HZ EP       18 3  0.95                             116   -0.40 8  241 336 
 SML  HN ES       18 3 29.00                             116   -0.31 8  241 336 
 SML  HZ I        18 3 33.17        17.2 0.08            117            241 336 
 GUY2CHZ EP       18 3  9.21                             111    0.63 7  300 234 
 GUY2CHN ES       18 3 41.96                             111   -0.23 7  300 234 
 GUY2CHZ I        18 3 50.95         4.8 0.58                           300 234 
 RREF HZ EP       18 3 11.29                             109    0.11 7  321 229 
 RREF HN ES       18 3 47.31                             109    0.51 7  321 229 
 RREF HZ I        18 3 51.80         5.0 0.24            111            321 229 
 TOL  SN ES       18 3 50.76                             108    0.09 7  343 224 
 TOL  SZ I        18 3 58.23         9.2 0.26            109            343 224 
 PRA  HZ EP       18 3 18.48                             105   -0.29 6  392 209 
 PRA  HN ES       18 3 59.79                             105   -0.53 6  392 209 
 PRA  HZ I        18 4  4.79         5.2 0.56            107            392 209 
 ORTC HE ES   1   18 4  0.97                             105    0.03 4  395 216 
 ORTC HZ I        18 4  7.93         3.7 0.48            107            395 216 
 SJC  HZ IP   4 C 18 3 18.70                             104   -1.72 0  406 327 
 SJC  HN ES   4   18 4  1.94                             104   -1.31 0  406 327 
 SJC  HZ I        18 4 11.87         2.7 0.34            106            406 327 
                                                                                
