 2010 12 4 1638 52.6 L   6.850 -73.008138.1  RSN  4 0.2 1.9LRSN                1
 GAP=253        0.43       8.3     8.4  5.7  0.3560E+02 -0.1155E+02 -0.9458E+01E
 Epicentro: CEPITA - SANTANDER                                                 3
 ACTION:UP  11-01-14 15:22 OP:pat  STATUS:               ID:20101204163852 L   I
 2010-12-04-1637-01S.COL___132                                                 6
 STAT SP IPHASW D HRMM SECON CODA AMPLIT PERI AZIMU VELO SNR AR TRES W  DIS CAZ7
 GIR2 SZ EP   1   1639 11.58                             166     0.2 7   33 321 
 BAR2 SZ EP   1   1639 11.59                             165     0.0 7   35 214 
 BAR2 SZ ES   1   1639 26.37                             165    -0.1 7   35 214 
 BAR2 SZ I        1639 27.66        19.3 0.25                            35 214 
 BRR  HZ EP   1   1639 13.41                             147    -0.2 7   83 290 
 BRR  HN ES   1   1639 30.14                             147     0.1 7   83 290 
 BRR  HZ I        1639 31.01        25.6 0.14                            83 290 
 RREF HZ EP   2   1639 40.46                             108     0.3 3  337 230 
 RREF HZ I        1640 25.59         2.5 0.47                           337 230 
                                                                                
