 2010  2 4 1115 37.9 L   6.796 -72.889138.9  RSN  5 0.5 1.5LRSN                1
 GAP=218        0.96       5.2    16.9 11.5 -0.3078E+02  0.3472E+02  0.1049E+02E
 Epicentro: SAN ANDRES - SANTANDER                                             3
 ACTION:UP  10-08-24 09:47 OP:vdl  STATUS:               ID:20100204111537 L   I
 2010-02-04-1111-52S.COL___097                                                 6
 STAT SP IPHASW D HRMM SECON CODA AMPLIT PERI AZIMU VELO SNR AR TRES W  DIS CAZ7
 BAR2 SZ EP   1   1115 56.90                             163    -0.3 7   40 235 
 BAR2 SZ ES   1   1116 11.51                             163    -0.7 7   40 235 
 GIR2 SZ EP       1115 57.69                             161     0.410   46 313 
 GIR2 SZ ES   2   1116 13.03                             161     0.7 5   46 313 
 OCA  SZ ES       1116 28.22                             126    -0.2 9  166 343 
 CHI  HZ EP   2   1116 15.22                             114    -0.9 4  257 201 
 CHI  HE ES   1   1116 46.68                             114     0.7 6  257 201 
 CHI  HZ I        1116 54.68         2.1 0.45                           257 201 
 RREF BN ES   1   1117  3.88                             108    -0.1 5  344 233 
                                                                                
