 2012 11 4 1126 46.2 L   6.804 -73.128140.0  RSN 10 0.5 2.3LRSN                1
 GAP=139        1.22       3.9     5.4  7.1  0.6086E+00  0.1380E+02  0.4415E+01E
 Epicentro: LOS SANTOS - SANTANDER                                             3
 ACTION:UPD 12-12-05 15:31 OP:}ep  STATUS:               ID:20121104112646 L   I
 2012-11-04-1120-00M.COL___229                                                 6
 STAT SP IPHASW D HRMM SECON CODA AMPLIT PERI AZIMU VELO AIN AR TRES W  DIS CAZ7
 BAR2 SZ IP       1127  5.06                             170   -0.1310 24.2 194 
 BAR2 SZ ES       1127 19.49                             170   -0.4810 24.2 194 
 BAR2 SZ I        1127 22.48        47.7 0.42                          24.2 194 
 GIR2 SZ EP       1127  5.18                             167   -0.0410 31.2 347 
 BRR  HZ IP     C 1127  6.98                             151    0.1310 72.7 297 
 BRR  HN ES       1127 23.43                             151    0.5010 72.7 297 
 BRR  HN I        1127 24.31        65.8 0.20                          72.7 297 
 PAM  SZ EP       1127  8.07                             150    0.3410 75.7  39 
 PAM  SN ES       1127 24.93                             150    0.4210 75.7  39 
 PAM  SN I        1127 25.87        49.0 0.48                          75.7  39 
 RUS  HZ EP       1127  9.05                             142   -0.3910  101 177 
 RUS  HN ES       1127 27.51                             142   -0.0410  101 177 
 RUS  HN I        1127 28.02        20.0 0.22                           101 177 
 OCA  HZ EP   1   1127 15.03                             128    0.95 7  160 352 
 OCA  HN ES       1127 34.97                             128   -0.83 9  160 352 
 OCA  HN I        1127 40.10        46.1 0.22                           160 352 
 ZAR  HZ EP       1127 17.94                             121   -0.54 8  206 292 
 ZAR  HN ES       1127 43.67                             121    0.03 8  206 292 
 ZAR  HN I        1127 50.33        23.4 0.14                           206 292 
 CHI  HZ EP       1127 22.80                             116   -0.92 8  250 196 
 CHI  HN ES       1127 53.83                             116    0.86 8  250 196 
 CHI  HN I        1128  2.25         8.2 0.30                           250 196 
 HEL  HZ EP       1127 27.26                             113    0.87 8  274 256 
 HEL  HE ES       1127 57.44                             113   -0.27 8  274 256 
 HEL  HN I        1128  4.15        10.5 0.34                           274 256 
 TOL  SZ EP       1127 34.44                             108   -0.02 7  345 225 
                                                                                
