 2016  7 4 1249 21.8 L   6.764 -73.163150.0  RSN  8 0.5 1.5LRSN                1
 GAP=136        0.91       4.0     3.8  6.0 -0.1058E+01  0.6476E+01 -0.1612E+00E
 Epicentro: LOS SANTOS - SANTANDER                                             3
 ACTION:UPD 17-03-29 16:46 OP:lp   STATUS:               ID:20160704124921 L   I
 OLDACT:REG 16-07-04 20:18 OP:edw  STATUS:               ID:20160704124747     3
 2016-07-04-1247-47M.COL___319                                                 6
 STAT SP IPHASW D HRMM SECON CODA AMPLIT PERI AZIMU VELO AIN AR TRES W  DIS CAZ7
 BAR2 EZ EP       1249 41.88                             172    0.0110 19.1 186 
 BAR2 EZ ES       1249 57.23                             172   -0.2910 19.1 186 
 BAR2 EZ I        1249 57.95         9.4 0.22            173           19.1 186 
 BRR  HZ EP       1249 43.43                             153   -0.0010 71.6 302 
 BRR  HN ES       1250  0.46                             153    0.1610 71.6 302 
 PAM  EZ EP       1249 44.86                             150    0.1410 81.7  39 
 PAM  EN ES       1250  2.31                             150   -0.2910 81.7  39 
 PAM  EZ I        1250  3.92         5.0 0.58            151           81.7  39 
 RUS  HZ EP       1249 46.27                             145    0.5610 96.8 175 
 RUS  HN ES       1250  4.44                             145    0.0910 96.8 175 
 RUS  HZ I        1250  5.95         4.0 0.24            147           96.8 175 
 PTB  HZ EP       1249 48.92                             133    0.03 9  145 260 
 PTB  HN ES       1250  9.74                             133   -0.27 9  145 260 
 PTB  HZ I        1250 11.52         4.6 0.30            134            145 260 
 SPBC HZ EP   2   1249 48.06                             130   -2.17 5  159 219 
 SPBC HE ES   2   1250 12.30                             130   -0.10 5  159 219 
 ZAR  HZ EP       1249 54.68                             123    0.17 9  204 293 
 ZAR  HN ES       1250 20.20                             123    0.19 9  204 293 
 ZAR  HZ I        1250 24.16         2.7 0.11            123            204 293 
 NOR  HN ES       1250 25.18                             119    0.07 8  231 235 
 PRA  HZ EP   4   1250 12.40                             107   -2.56 0  388 210 
                                                                                
