 2010  9 4 1339 37.2 L   6.795 -73.054145.3  RSN  6 0.2 1.8LRSN                1
 GAP=169        0.45       3.0     6.1  5.2  0.1468E+01 -0.1138E+02 -0.1791E+01E
 Epicentro: LOS SANTOS - SANTANDER                                             3
 ACTION:UP  11-02-18 11:00 OP:tino STATUS:               ID:20100904133937 L   I
 2010-09-04-1335-52S.COL___120                                                 6
 STAT SP IPHASW D HRMM SECON CODA AMPLIT PERI AZIMU VELO SNR AR TRES W  DIS CAZ7
 BAR2 SZ EP   2   1339 56.83                             169     0.0 5   27 213 
 BAR2 SZ ES   2   1340 12.52                             169     0.3 5   27 213 
 BAR2 SZ I        1340 16.10         9.0 0.49                            27 213 
 BTL  SZ EP       1339 56.95                             169     0.110   27 300 
 BTL  SZ ES   2   1340 11.90                             169    -0.3 5   27 300 
 BRR  HZ IP     C 1339 58.69                             149    -0.210   81 295 
 BRR  HZ I        1340  0.24        12.4 0.11                            81 295 
 BRR  HE ES   1   1340 15.82                             149     0.0 7   81 295 
 RUS  HZ EP   1   1340  0.94                             144     0.1 7  100 182 
 RUS  HE ES   2   1340 19.33                             144     0.0 5  100 182 
 GRA  SZ EP   1   1340  2.38                             137     0.1 7  124  13 
 GRA  SZ ES   2   1340 21.34                             137    -0.4 5  124  13 
 GRA  SZ I        1340 23.49         9.2 0.44                           124  13 
 OCA  SZ EP   2   1340  5.80                             129     0.1 5  162 350 
 OCA  SZ ES   2   1340 28.41                             129     0.5 5  162 350 
 OCA  SZ I        1340 32.18         7.8 0.50                           162 350 
                                                                                
