 2011 10 4 1641 54.8 L   6.807 -73.134146.5  RSN 11 0.4 2.5LRSN                1
 GAP=115        0.70       2.7     3.7  5.8 -0.7736E+00  0.4524E+01  0.5059E+01E
 Epicentro: LOS SANTOS - SANTANDER                                             3
 ACTION:UPD 12-07-13 16:01 OP:ep   STATUS:               ID:20111004164154 L   I
 2011-10-04-1640-22S.COL___171                                                 6
 STAT SP IPHASW D HRMM SECON CODA AMPLIT PERI AZIMU VELO AIN AR TRES W  DIS CAZ7
 BAR2 SZ EP       1642 14.61                             170    0.0710 24.4 193 
 BAR2 SZ I        1642 30.92        80.4 0.23                          24.4 193 
 BRR  HZ IP     C 1642 16.46                             152    0.3910 72.0 297 
 BRR  HN ES   1   1642 33.17                             152    0.51 7 72.0 297 
 BRR  HZ I        1642 34.39        47.5 0.15                          72.0 297 
 PAM  SZ EP       1642 17.38                             151    0.3710 75.9  39 
 PAM  SZ I        1642 17.78        34.7 0.15                          75.9  39 
 PAM  SN ES   1   1642 34.23                             151   -0.10 7 75.9  39 
 RUS  HZ EP       1642 18.65                             144   -0.0310  101 177 
 RUS  HN ES   1   1642 36.81                             144   -0.49 7  101 177 
 RUS  HZ I        1642 39.65        24.0 0.38                           101 177 
 OCA  SZ EP   1   1642 22.84                             130   -0.27 7  160 353 
 OCA  SZ ES   1   1642 44.39                             130   -0.79 7  160 353 
 OCA  SZ I        1642 48.21        27.9 0.20                           160 353 
 YOP  SZ EP   1   1642 24.92                             126    0.00 7  179 154 
 ZAR  HZ EP   1   1642 27.48                             122    0.09 6  205 292 
 ZAR  HN ES   1   1642 52.47                             122   -0.34 6  205 292 
 NOR  SZ EP   1   1642 30.31                             118   -0.43 6  236 234 
 NOR  SN ES   1   1642 58.56                             118   -0.21 6  236 234 
 CHI  HZ EP   1   1642 32.72                             117    0.05 6  250 195 
 CHI  HN ES   1   1643  2.14                             117   -0.06 6  250 195 
 CHI  HZ I        1643  7.62         8.7 0.30                           250 195 
 RREF HZ EP   1   1642 41.12                             111   -0.03 5  323 229 
 RREF HN ES   1   1643 18.02                             111    0.72 5  323 229 
 RREF HZ I        1643 27.00        15.0 0.30                           323 229 
 PRA  HZ EP   1   1642 48.68                             106    0.17 4  393 210 
 PRA  HN ES   1   1643 29.75                             106   -0.65 4  393 210 
 PRA  HZ I        1643 37.47        42.9 0.26                           393 210 
                                                                                
