 2016  7 4 1013 49.9 L   5.932 -73.659117.7  RSN  9 0.2 1.4LRSN                1
 GAP=142        0.50       1.9     1.5  3.2 -0.9463E+00  0.1125E+01 -0.1402E+01E
 Epicentro: BARBOSA - SANTANDER                                                3
 ACTION:UPD 17-03-29 16:46 OP:lp   STATUS:               ID:20160704101349 L   I
 OLDACT:REG 16-07-04 19:44 OP:edw  STATUS:               ID:20160704100742     3
 2016-07-04-1007-42M.COL___307                                                 6
 STAT SP IPHASW D HRMM SECON CODA AMPLIT PERI AZIMU VELO AIN AR TRES W  DIS CAZ7
 SPBC HZ EP       1014  7.22                             153    0.0010 55.3 236 
 SPBC HN ES       1014 20.83                             153    0.0810 55.3 236 
 SPBC HZ I        1014 22.52         5.5 0.11            154           55.3 236 
 RUS  HZ EP       1014  7.96                             150   -0.3410 63.9  94 
 RUS  HE ES       1014 22.71                             150    0.0410 63.9  94 
 BAR2 EZ EP       1014  9.83                             140    0.0510 90.0  36 
 BAR2 EZ ES       1014 25.23                             140   -0.0710 90.0  36 
 BAR2 EZ I        1014 26.79         8.6 0.28            143           90.0  36 
 PTB  HZ EP       1014 10.96                             133   -0.2610  111 307 
 PTB  HE ES       1014 27.55                             133   -0.3210  111 307 
 PTB  HZ I        1014 30.56         2.3 0.34            135            111 307 
 BRR  HZ EP       1014 12.99                             129    0.0310  130 357 
 BRR  HN ES       1014 31.28                             129    0.3110  130 357 
 NOR  HZ EP       1014 14.10                             126    0.10 9  140 253 
 NOR  HE ES       1014 33.08                             126    0.25 9  140 253 
 NOR  HZ I        1014 37.05         4.4 0.15            128            140 253 
 PAM  EZ EP       1014 19.79                             118    0.23 9  188  34 
 PAM  EE ES       1014 42.78                             118    0.06 9  188  34 
 HEL  HZ EP       1014 21.61                             115   -0.05 8  209 278 
 HEL  HE ES       1014 46.53                             115    0.07 8  209 278 
 ZAR  HE ES       1014 47.25                             114   -0.10 8  218 323 
 PRA  HN ES   4   1014 50.87                             108   -9.34 0  281 209 
                                                                                
