 2014  9 4 1418 48.8 L   6.835 -73.155143.0  RSN 25 0.5 2.9LRSN                1
 GAP= 69        1.06       2.4     2.7  4.8 -0.6268E+00  0.3945E+01  0.1115E+01E
 Epicentro: LOS SANTOS - SANTANDER                                             3
 ACTION:UPD 14-10-03 23:02 OP:nd   STATUS:               ID:20140904141848 L   I
 OLDACT:REG 14-09-04 20:55 OP:fm   STATUS:               ID:20140904141819     3
 2014-09-04-1418-19M.COL___275                                                 6
 STAT SP IPHASW D HRMM SECON CODA AMPLIT PERI AZIMU VELO AIN AR TRES W  DIS CAZ7
 BAR2 SZ IP     C 1419  8.24                             169    0.0910 27.0 186 
 BAR2 SZ ES   1   1419 23.21                             169   -0.06 7 27.0 186 
 BAR2 SZ I        1419 24.97        93.7 0.20            168           27.0 186 
 BRR  HZ EP     D 1419 10.17                             153    0.7010 68.5 296 
 BRR  HN ES       1419 26.12                             153    0.5110 68.5 296 
 BRR  HZ I        1419 28.67       138.1 0.14            151           68.5 296 
 PAM  SZ EP     D 1419 11.11                             151    0.5510 75.1  42 
 PAM  SN ES       1419 27.84                             151    0.2910 75.1  42 
 PAM  SZ I        1419 30.43        68.3 0.54            155           75.1  42 
 RUS  HZ EP       1419 12.59                             142    0.0510  105 176 
 RUS  HN ES       1419 30.52                             142   -0.5710  105 176 
 RUS  HZ I        1419 31.22        49.9 0.44            144            105 176 
 PTB  HZ EP       1419 15.07                             131   -0.43 9  148 257 
 PTB  HN ES       1419 35.54                             131   -0.80 9  148 257 
 PTB  HZ I        1419 39.18       112.2 0.32            131            148 257 
 OCA  HZ EP       1419 16.56                             130    0.06 9  156 353 
 OCA  HN ES       1419 38.09                             130   -0.03 9  156 353 
 OCA  HZ I        1419 41.58       118.7 0.34            131            156 353 
 TAM  HZ EP   1   1419 15.62                             129   -0.80 7  157 106 
 TAM  HN ES       1419 37.47                             129   -0.52 9  157 106 
 TAM  HZ I        1419 38.63        70.8 0.24            134            157 106 
 SPBC HZ EP       1419 17.40                             128    0.11 9  166 218 
 SPBC HN ES       1419 39.89                             128    0.36 9  166 218 
 SPBC HZ I        1419 45.40        59.8 0.22            128            166 218 
 ZAR  HZ EP       1419 21.28                             122    0.49 9  202 291 
 ZAR  HN ES       1419 46.05                             122    0.29 9  202 291 
 ZAR  HZ I        1419 53.16        86.4 0.32            122            202 291 
 NOR  HZ EP       1419 25.06                             118    0.56 8  236 234 
 NOR  HE ES       1419 52.69                             118    0.33 8  236 234 
 NOR  HZ I        1419 54.97        44.9 0.76            118            236 234 
 SML  HZ EP       1419 24.64                             117   -0.17 8  240 335 
 SML  HN ES       1419 52.56                             117   -0.37 8  240 335 
 SML  HZ I        1419 56.61        82.9 0.24            118            240 335 
 CHI  HZ EP   1   1419 26.13                             116   -0.57 6  252 195 
 CHI  HN ES       1419 56.16                             116   -0.12 8  252 195 
 CHI  HZ I        1419 58.94        12.9 0.26            117            252 195 
 ROSC BZ EP   1   1419 27.83                             116    0.78 6  256 210 
 ROSC BN ES   4   1419 58.35                             116    1.45 0  256 210 
 ROSC BZ I        1420  4.58        38.4 0.55            117            256 210 
 HEL  HZ EP   1   1419 28.35                             114   -0.49 6  272 255 
 HEL  HE ES       1419 59.30                             114   -0.79 8  272 255 
 HEL  HZ I        1420  9.03        25.0 0.32            115            272 255 
 URE  HZ EP       1419 28.58                             113   -0.86 7  281 291 
 URE  HN ES       1420  0.24                             113   -0.92 7  281 291 
 URE  HZ I        1420  9.87        50.0 0.32            114            281 291 
 GUY2CHZ EP       1419 33.09                             112    0.68 7  303 234 
 GUY2CHN ES       1420  6.47                             112    0.02 7  303 234 
 GUY2CHZ I        1420 13.66        18.5 0.26                           303 234 
 CBOC HZ EP   1   1419 36.11                             109    0.51 5  334 251 
 CBOC HN ES       1420 11.61                             109   -0.51 7  334 251 
 CBOC HZ I        1420 17.39        13.9 0.60            110            334 251 
 DBB  SZ EP       1419 36.47                             109    0.48 7  338 274 
 DBB  SZ ES   1   1420 12.62                             109   -0.19 5  338 274 
 DBB  SZ I        1420 19.27        82.4 0.42            110            338 274 
 TOL  SZ EP       1419 38.11                             109    0.96 6  346 224 
 TOL  SN ES       1420 15.30                             109    0.41 6  346 224 
 TOL  SZ I        1420 23.98        32.4 0.56            110            346 224 
 MON  HZ EP   4   1419 36.15                             108   -1.14 0  350 308 
 MON  HN ES   4   1420 13.66                             108   -1.48 0  350 308 
 MON  HZ I        1420 17.89        11.0 0.22            109            350 308 
 ARGC HZ EP   4   1419 39.51                             108    1.65 0  355 340 
 ARGC HN ES   4   1420 13.69                             108   -2.46 0  355 340 
 ARGC HZ I        1420 18.00        19.0 0.30            109            355 340 
 ANIL HN ES   4   1420 16.79                             108   -0.87 0  359 224 
 SDV  BZ EP   1   1419 38.05                             108   -0.47 5  359  51 
 SDV  BE ES   4   1420 14.99                             108   -2.33 0  359  51 
 SDV  BZ  AMP     1420 18.05     10915.5 0.40                           359  51 
 PRA  HZ EP   1   1419 42.66                             106    0.13 4  395 209 
 PRA  HN ES       1420 23.95                             106   -0.52 6  395 209 
 PRA  HZ I        1420 30.12        22.5 0.30            107            395 209 
 ORTC HZ EP       1419 43.09                             106    0.20 6  398 216 
 ORTC HE ES       1420 25.07                             106   -0.04 6  398 216 
 ORTC HZ I        1420 31.23        12.4 0.58            107            398 216 
 SJC  HZ EP   1   1419 43.17                             105   -0.63 4  405 327 
 SJC  HN ES   4   1420 24.27                             105   -2.44 0  405 327 
 SJC  HZ I        1420 28.04        22.4 0.52            106            405 327 
                                                                                
