 2016  4 4 1754 45.9 L   6.831 -73.186147.1  RSN  8 0.2 2.1LRSN                1
 GAP=130        0.58       2.5     2.5  4.0 -0.1237E+01  0.3928E+01 -0.6615E+00E
 Epicentro: ZAPATOCA - SANTANDER                                               3
 ACTION:UPD 16-05-05 14:18 OP:rebc STATUS:               ID:20160404175445 L   I
 OLDACT:UP  16-04-04 23:33 OP:drio STATUS:               ID:20160404174745     3
 OLDACT:REG 16-04-04 20:38 OP:drio STATUS:               ID:20160404174745     3
 2016-04-04-1747-45M.COL___295                                                 6
 STAT SP IPHASW D HRMM SECON CODA AMPLIT PERI AZIMU VELO AIN AR TRES W  DIS CAZ7
 BAR2 EZ EP       1755  5.91                             169    0.1310 26.4 179 
 BAR2 EZ ES       1755 20.95                             169   -0.3110 26.4 179 
 BAR2 EZ I        1755 22.35        31.4 0.12            169           26.4 179 
 PAM  EZ EP       1755  8.61                             151    0.3110 77.8  44 
 PAM  EE ES       1755 25.92                             151    0.1610 77.8  44 
 PAM  EZ I        1755 27.94        32.6 0.50            156           77.8  44 
 RUS  HZ EP       1755  9.80                             143   -0.2810  104 174 
 RUS  HN ES       1755 28.87                             143   -0.0510  104 174 
 RUS  HZ I        1755 31.29        13.3 0.34            146            104 174 
 PTB  HZ EP       1755 12.68                             133    0.01 9  144 257 
 PTB  HN ES       1755 33.66                             133    0.13 9  144 257 
 PTB  HZ I        1755 36.64        11.1 0.38            133            144 257 
 SPBC HZ EP       1755 14.59                             129    0.07 9  163 217 
 SPBC HE ES       1755 36.84                             129    0.02 9  163 217 
 SPBC HZ I        1755 43.70        23.7 0.36            131            163 217 
 ZAR  HZ EP       1755 17.54                             123   -0.36 9  199 292 
 ZAR  HN ES       1755 42.68                             123   -0.16 9  199 292 
 ZAR  HZ I        1755 49.74         7.5 0.66            125            199 292 
 NOR  HZ EP       1755 21.44                             119   -0.12 8  233 233 
 NOR  HE ES       1755 49.79                             119    0.44 8  233 233 
 NOR  HZ I        1755 55.43        12.7 0.20            120            233 233 
 GUY2CHZ EP   4   1755 31.36                             113    1.95 0  300 234 
 GUY2CHE ES   4   1756  5.18                             113    1.85 0  300 234 
 GUY2CHZ I        1756 11.94         6.5 0.34                           300 234 
                                                                                
