 2015  4 4 1152 25.5 L   6.663 -73.504107.2  RSN  6 0.4 1.6LRSN                1
 GAP=111        1.18       5.7     4.8  9.7  0.4282E+00  0.1755E+02 -0.4267E+01E
 Epicentro: EL CARMEN - SANTANDER                                              3
 ACTION:UPD 15-06-03 16:52 OP:cam  STATUS:               ID:20150404115225 L   I
 OLDACT:REG 15-04-04 21:24 OP:fm   STATUS:               ID:20150404114749     3
 2015-04-04-1147-49M.COL___279                                                 6
 STAT SP IPHASW D HRMM SECON CODA AMPLIT PERI AZIMU VELO AIN AR TRES W  DIS CAZ7
 BAR2 EZ IP     C 1152 41.41                             160    0.4310 36.4 102 
 BAR2 EZ ES       1152 53.34                             160    0.2910 36.4 102 
 BAR2 EZ I        1152 54.81        18.5 0.40            150           36.4 102 
 BRR  HZ EP       1152 42.01                             151    0.4810 54.2 335 
 BRR  HN ES       1152 54.36                             151    0.3310 54.2 335 
 BRR  HZ I        1152 56.66         8.2 0.38            131           54.2 335 
 RUS  HN ES       1153  0.74                             135   -0.1810 97.1 151 
 PTB  HZ EP       1152 45.70                             132    0.1410  106 263 
 PTB  HE ES       1153  0.51                             132   -0.7010  106 263 
 PTB  HZ I        1153  2.56         7.0 0.20            115            106 263 
 PAM  SE ES       1153  3.17                             129   -0.8110  116  50 
 ZAR  HZ EP       1152 52.56                             116   -0.04 9  175 302 
 ZAR  HZ I        1153 18.78         4.8 0.22            103            175 302 
                                                                                
