 2011  2 4 1152 58.0 L   6.260 -73.721 99.6  RSN  8 0.4 1.5LRSN                1
 GAP=125        0.72       4.6     4.7 11.5 -0.6406E+01  0.3143E+02  0.2125E+01E
 Epicentro: LANDAZURI - SANTANDER                                              3
 ACTION:UP  11-03-28 15:05 OP:jfem STATUS:               ID:20110204115258 L   I
 2011-02-04-1151-18S.COL___137                                                 6
 STAT SP IPHASW D HRMM SECON CODA AMPLIT PERI AZIMU VELO SNR AR TRES W  DIS CAZ7
 BAR2 SZ EP   1   1153 14.64                             142     0.0 7   70  58 
 BAR2 SZ ES   2   1153 27.23                             142    -0.4 5   70  58 
 RUS  HZ EP   1   1153 15.70                             138    -0.2 7   81 120 
 RUS  HN ES   2   1153 30.32                             138     0.5 5   81 120 
 RUS  HZ I        1153 30.99         6.4 0.23                            81 120 
 BTL  SZ IP       1153 16.22                             135     0.110   88  35 
 GIR2 SZ EP   2   1153 17.63                             129    -0.1 5  108  33 
 NOR  SZ EP   1   1153 21.24                             120    -0.6 7  149 239 
 NOR  SE ES   2   1153 39.73                             120    -0.7 5  149 239 
 CHI  HZ EP   1   1153 25.63                             115    -0.1 7  180 180 
 CHI  HN ES   2   1153 48.07                             115     0.7 4  180 180 
 CHI  HZ I        1153 53.10         2.4 0.31                           180 180 
 HEL  HZ EP   1   1153 28.44                             112     0.5 6  200 268 
 HEL  HE ES   2   1153 51.94                             112     0.7 4  200 268 
 HEL  HZ I        1153 54.78         5.6 0.32                           200 268 
 RREF HZ EP       1153 32.22                             109     0.0 8  235 230 
 RREF HZ I        1154  5.67         4.4 0.20                           235 230 
                                                                                
