 2015  2 4 1726 23.3 L   6.659 -73.180140.6  RSN  4 0.3 1.4LRSN                1
 GAP=232        0.82       9.9     6.5  8.4  0.3022E+02  0.2436E+02  0.2078E+02E
 Epicentro: VILLANUEVA - SANTANDER                                             3
 ACTION:UPD 15-04-30 21:21 OP:nd   STATUS:               ID:20150204172623 L   I
 OLDACT:REG 15-02-04 22:47 OP:cam  STATUS:               ID:20150204171814     3
 2015-02-04-1718-14M.COL___280                                                 6
 STAT SP IPHASW D HRMM SECON CODA AMPLIT PERI AZIMU VELO AIN AR TRES W  DIS CAZ7
 BAR2 EZ EP       1726 42.38                             177    0.2710 7.42 182 
 BAR2 EZ ES       1726 56.35                             177   -0.4110 7.42 182 
 BAR2 EZ I        1726 58.06         6.3 0.36            172           7.42 182 
 BRR  HN ES       1727  0.96                             150    0.3810 76.9 310 
 PTB  HZ EP       1726 49.19                             132   -0.14 9  142 265 
 PTB  HN ES       1727  9.83                             132    0.22 9  142 265 
 PTB  HZ I        1727 12.08         3.4 0.26            132            142 265 
 ZAR  HE ES       1727 20.62                             121   -0.42 8  207 297 
                                                                                
