 2014  3 4 1008 53.9 L   7.468 -73.576109.2  RSN  8 0.5 1.7LRSN                1
 GAP= 80        1.24       3.1     4.1 10.2  0.1431E+01  0.1308E+02  0.6537E+01E
 Epicentro: SABANA DE TORRES - SANTANDER                                       3
 OLDACT:REG 14-03-04 15:08 OP:stll STATUS:               ID:20140304100814     3
 ACTION:UPD 14-04-09 23:14 OP:nd   STATUS:               ID:20140304100853 L   I
 OLDACT:UP  14-03-04 16:01 OP:stll STATUS:               ID:20140304100814     3
 2014-03-04-1008-14M.COL___229                                                 6
 STAT SP IPHASW D HRMM SECON CODA AMPLIT PERI AZIMU VELO AIN AR TRES W  DIS CAZ7
 OCA  HZ EP       10 9 12.85                             138   -0.0110 89.8  18 
 OCA  HN ES       10 9 27.49                             138   -0.1810 89.8  18 
 OCA  HZ I        10 9 29.65        22.0 0.20            141           89.8  18 
 PAM  SZ EP       10 9 14.37                             135    0.3710 97.8  98 
 PAM  SN ES       10 9 30.25                             135    0.5510 97.8  98 
 PAM  HZ I        10 9 31.62         5.6 0.26            140           97.8  98 
 BAR2 SZ EP       10 9 14.81                             132    0.4110  106 156 
 BAR2 SZ ES       10 9 30.33                             132   -0.0710  106 156 
 BAR2 HZ I        10 9 32.57        18.8 0.32            137            106 156 
 PTB  HZ EP       10 9 17.27                             123   -0.23 9  141 223 
 PTB  HN ES       10 9 35.39                             123   -0.53 9  141 223 
 PTB  HZ I        10 9 38.24         5.4 0.12            127            141 223 
 ZAR  HZ EP       10 9 17.86                             123    0.37 9  142 271 
 ZAR  HN ES       10 9 36.65                             123    0.74 9  142 271 
 ZAR  HZ I        10 9 38.93         6.8 0.18            126            142 271 
 SML  HZ EP       10 9 18.57                             120   -0.53 9  157 340 
 SML  HN ES       10 9 38.24                             120   -0.53 9  157 340 
 SML  HZ I        10 9 47.53         9.0 0.06            124            157 340 
 RUS  HZ EP       10 9 22.54                             116    0.07 9  183 163 
 RUS  HN ES       10 9 43.54                             116   -1.24 9  183 163 
 RUS  HZ I        10 9 50.05         2.3 0.28            120            183 163 
 SPBC HZ EP       10 9 25.16                             112    0.35 8  208 195 
 SPBC HN ES       10 9 49.19                             112    0.25 8  208 195 
 SPBC HZ I        10 9 51.23         4.9 0.42            116            208 195 
                                                                                
