 2016  7 4 1100 48.0 L   6.183 -73.683116.8  RSN  8 0.2 1.6LRSN                1
 GAP= 78        0.62       2.1     2.5  4.4  0.8300E+00  0.2290E+01 -0.1143E+01E
 Epicentro: LA PAZ - SANTANDER                                                 3
 ACTION:UPD 17-03-29 16:46 OP:lp   STATUS:               ID:20160704110048 L   I
 OLDACT:UP  16-07-04 21:57 OP:edw  STATUS:               ID:20160704105742     3
 OLDACT:REG 16-07-04 19:55 OP:edw  STATUS:               ID:20160704105742     3
 2016-07-04-1057-42M.COL___307                                                 6
 STAT SP IPHASW D HRMM SECON CODA AMPLIT PERI AZIMU VELO AIN AR TRES W  DIS CAZ7
 BAR2 EZ EP       11 1  6.53                             146    0.0910 71.5  51 
 BAR2 EZ ES       11 1 20.54                             146   -0.3010 71.5  51 
 BAR2 EZ I        11 1 21.94        23.4 0.36            149           71.5  51 
 SPBC HZ EP   4   11 1  6.47                             146    0.15 0 72.8 216 
 SPBC HN ES       11 1 20.66                             146    0.0410 72.8 216 
 SPBC HZ I        11 1 22.29         5.5 0.27            147           72.8 216 
 RUS  HZ EP       11 1  6.78                             146   -0.1710 73.8 116 
 PTB  HZ EP       11 1  7.52                             138   -0.3010 94.2 295 
 PTB  HN ES       11 1 23.28                             138   -0.0110 94.2 295 
 PTB  HZ I        11 1 25.38         3.4 0.07            139           94.2 295 
 BRR  HZ EP       11 1  8.67                             136    0.2110  102 358 
 BRR  HN ES       11 1 24.69                             136    0.2410  102 358 
 CHI  HN ES       11 1 37.59                             120    0.16 9  172 182 
 ZAR  HZ EP       11 1 18.03                             116    0.37 9  194 318 
 ZAR  HN ES       11 1 41.09                             116    0.27 9  194 318 
 ZAR  HZ I        11 1 43.20         6.5 0.34            118            194 318 
 URE  HZ EP       11 1 25.72                             108   -0.26 8  268 310 
 URE  HE ES       11 1 55.20                             108   -0.42 8  268 310 
 URE  HZ I        11 1 56.23         2.7 0.26            110            268 310 
                                                                                
