 2015 12 4 1803 41.2 L   6.765 -73.177148.8  RSN  9 0.4 2.3LRSN                1
 GAP=134        0.91       3.7     3.7  5.5 -0.1752E+01  0.5856E+01  0.1075E+01E
 Epicentro: LOS SANTOS - SANTANDER                                             3
 ACTION:UPD 16-02-04 15:02 OP:cam  STATUS:               ID:20151204180341 L   I
 OLDACT:UP  15-12-04 23:20 OP:drio STATUS:               ID:20151204175750d    3
 OLDACT:DUP 15-12-04 23:01 OP:drio STATUS:               ID:20151204175750d    3
 2015-12-04-1757-49M.COL___307                                                 6
 STAT SP IPHASW D HRMM SECON CODA AMPLIT PERI AZIMU VELO AIN AR TRES W  DIS CAZ7
 BAR2 EZ IP     C 18 4  1.04                             172   -0.0410 19.1 182 
 BAR2 EZ ES       18 4 16.89                             172    0.2710 19.1 182 
 BAR2 EZ I        18 4 19.04        19.6 0.24            171           19.1 182 
 BRR  HZ EP     C 18 4  2.95                             153    0.3610 70.2 303 
 BRR  HN ES       18 4 19.70                             153    0.4010 70.2 303 
 BRR  HZ I        18 4 24.81        33.0 0.26            150           70.2 303 
 PAM  EZ EP       18 4  3.87                             150   -0.1510 82.6  40 
 PAM  EE ES       18 4 21.25                             150   -0.5910 82.6  40 
 PAM  EZ I        18 4 23.30        36.3 0.58            154           82.6  40 
 RUS  HZ EP       18 4  4.99                             145    0.0310 97.0 174 
 RUS  HE ES       18 4 23.56                             145    0.0310 97.0 174 
 RUS  HZ I        18 4 24.88        11.9 0.28            149           97.0 174 
 PTB  HZ EP       18 4  7.71                             133   -0.31 9  144 260 
 PTB  HN ES       18 4 28.78                             133   -0.18 9  144 260 
 PTB  HZ I        18 4 31.68        21.1 0.18            133            144 260 
 SPBC HZ EP       18 4 10.02                             131    0.61 9  158 219 
 SPBC HE ES       18 4 31.48                             131    0.03 9  158 219 
 SPBC HZ I        18 4 34.77        31.3 0.56            132            158 219 
 ZAR  HZ EP       18 4 13.76                             123    0.12 9  202 294 
 ZAR  HN ES       18 4 39.01                             123    0.04 9  202 294 
 ZAR  HZ I        18 4 46.18        33.6 0.28            123            202 294 
 NOR  HZ EP       18 4 16.67                             120    0.14 8  230 235 
 NOR  HN ES       18 4 43.18                             120   -0.94 8  230 235 
 NOR  HZ I        18 4 52.93        15.9 0.34            121            230 235 
 URE  HZ EP   4   18 4 20.90                             114   -1.29 0  282 293 
 URE  HN ES   4   18 4 50.69                             114   -3.51 0  282 293 
 URE  HZ I        18 5  1.96        14.3 0.34            115            282 293 
                                                                                
