 2017  9 4 1432 13.4 L   6.779 -73.139138.0  RSN 13 0.5 2.1LRSN                1
 GAP= 98        1.14       3.6     3.8  5.8  0.5559E+00  0.4707E+01  0.5616E+01E
 Epicentro: LOS SANTOS - SANTANDER                                             3
 ACTION:UPD 17-10-05 19:09 OP:rebc STATUS:               ID:20170904143213 L   I
 OLDACT:REG 17-09-04 20:07 OP:lv   STATUS:               ID:20170904142742     3
 2017-09-04-1428-00M.COL___422                                                 6
 STAT SP IPHASW D HRMM SECON CODA AMPLIT PERI AZIMU VELO AIN AR TRES W  DIS CAZ7
 BAR2 EZ IP     C 1432 31.80                             171   -0.2810 21.2 193 
 BAR2 EZ ES       1432 46.78                             171    0.1510 21.2 193 
 BAR2 EZ I        1432 48.57        24.2 0.18            169           21.2 193 
 BRR  HZ IP     C 1432 33.70                             151   -0.1510 73.0 300 
 BRR  HN ES       1432 50.53                             151    0.7510 73.0 300 
 BRR  HZ I        1432 55.36        21.6 0.16            149           73.0 300 
 PAM  EZ IP     D 1432 34.81                             149   -0.1010 78.7  38 
 PAM  EN ES       1432 51.59                             149   -0.0810 78.7  38 
 PAM  EZ I        1432 52.22        22.3 0.34            153           78.7  38 
 RUS  HZ EP       1432 35.76                             143   -0.4910 98.2 176 
 RUS  HN ES       1432 53.99                             143   -0.0610 98.2 176 
 RUS  HZ I        1432 55.32        16.9 0.32            145           98.2 176 
 TAM  HZ EP       1432 40.15                             129   -0.23 9  154 104 
 SPBC HZ EP       1432 40.90                             128   -0.31 9  162 220 
 SPBC HN ES       1433  2.67                             128   -0.21 9  162 220 
 SPBC HZ I        1433  5.23        21.9 0.11            128            162 220 
 YPLC HZ EP       1432 42.22                             125   -0.21 9  174 151 
 YPLC HN ES       1433  5.90                             125    0.84 9  174 151 
 YPLC HZ I        1433  8.38        10.5 0.38            128            174 151 
 ZAR  HZ EP       1432 45.13                             121   -0.41 8  206 293 
 ZAR  HN ES       1433 10.84                             121    0.25 8  206 293 
 ZAR  HZ I        1433 18.87        17.5 0.28            121            206 293 
 NOR  HZ EP       1432 48.47                             117   -0.17 8  234 235 
 NOR  HN ES       1433 15.32                             117   -0.78 8  234 235 
 NOR  HZ I        1433 21.62         8.7 0.16            118            234 235 
 CHI  HZ EP       1432 51.43                             116    0.95 8  247 195 
 CHI  HN ES       1433 18.66                             116   -0.72 8  247 195 
 CHI  HZ I        1433 22.42         4.5 0.42            117            247 195 
 GUY2CHZ EP       1432 57.43                             111    0.82 7  300 235 
 GUY2CHN ES   3   1433 31.56                             111    1.28 2  300 235 
 GUY2CHZ I        1433 38.99         8.2 0.54                           300 235 
 PRA  HZ EP       1433  7.40                             105    0.90 6  390 210 
 PRA  HE ES       1433 48.75                             105    0.86 6  390 210 
 PRA  HZ I        1433 52.00         4.4 0.30            107            390 210 
 PAL  HZ EP       1433  8.06                             105   -0.21 6  405 239 
 SJC  HZ EP   4   1433  6.75                             104   -2.27 0  412 327 
 SJC  HN ES   4   1433 47.88                             104   -4.51 0  412 327 
                                                                                
