 2012  4 4 1113  4.4 L   6.292 -73.664104.2  RSN  5 0.3 1.8LRSN                1
 GAP=163        0.67       6.1     4.6  8.8  0.1255E+02  0.1952E+02  0.2221E+01E
 Epicentro: SANTA HELENA DEL OPON - SANTANDER                                  3
 ACTION:UPD 12-07-05 11:50 OP:tino STATUS:               ID:20120404111304 L   I
 2012-04-04-1110-00M.COL___196                                                 6
 STAT SP IPHASW D HRMM SECON CODA AMPLIT PERI AZIMU VELO AIN AR TRES W  DIS CAZ7
 BAR2 SZ EP       1113 21.12                             146     0.110   63  58 
 BAR2 SZ ES   1   1113 33.80                             146    -0.1 7   63  58 
 BAR2 SZ I        1113 35.55        55.7 0.34                            63  58 
 RUS  HZ EP       1113 22.50                             140     0.010   78 124 
 RUS  HE ES   2   1113 37.05                             140     0.5 5   78 124 
 BRR  HZ EP       1113 22.57                             135    -0.210   90 357 
 BRR  HZ I        1113 22.84        15.9 0.12                            90 357 
 PTB  HZ EP       1113 22.60                             135    -0.310   92 287 
 PTB  HE ES   2   1113 37.35                             135     0.0 5   92 287 
 PTB  HZ I        1113 40.39         6.2 0.10                            92 287 
 ZAR  HZ EP       1113 32.82                             114     0.2 9  187 315 
 ZAR  HN ES   2   1113 55.35                             114     0.7 4  187 315 
 ZAR  HZ I        1113 57.50         5.2 0.34                           187 315 
                                                                                
