 2012  7 4 1223 30.7 L   6.621 -73.126146.2  RSN  4 0.3 1.3LRSN                1
 GAP=293        0.63       9.9     6.3  7.7  0.2284E+02  0.1343E+02  0.7552E+01E
 Epicentro: SAN GIL - SANTANDER                                                3
 ACTION:UPD 12-08-14 11:42 OP:ep   STATUS:               ID:20120704122330 L   I
 2012-07-04-1220-00M.COL___200                                                 6
 STAT SP IPHASW D HRMM SECON CODA AMPLIT PERI AZIMU VELO AIN AR TRES W  DIS CAZ7
 BAR2 SZ EP   1   1223 50.58                             177     0.4 7    7 243 
 BAR2 SZ I        1223 50.78         3.3 0.17            168              7 243 
 BAR2 SZ ES   1   1224  5.02                             177    -0.3 7    7 243 
 BRR  HZ EP   1   1223 52.40                             148    -0.2 7   84 310 
 BRR  HN ES   1   1224  9.99                             148     0.2 7   84 310 
 BRR  HZ I        1224 12.37         5.1 0.26            148             84 310 
 PTB  HZ EP   1   1223 57.44                             132    -0.2 7  147 267 
 PTB  HN ES   1   1224 18.81                             132     0.1 7  147 267 
 PTB  HZ I        1224 24.42         2.0 0.42            131            147 267 
 ZAR  HN ES   1   1224 30.27                             121    -0.1 6  214 297 
