 2013  7 4 1807 24.3 L   6.477 -73.570105.8  RSN 10 0.5 2.0LRSN                1
 GAP= 95        1.15       4.8     4.3  8.8  0.3177E+01  0.1340E+02 -0.1406E+01E
 Epicentro: SANTA HELENA DEL OPON - SANTANDER                                  3
 ACTION:UPD 13-08-12 10:35 OP:ep   STATUS:               ID:20130704180724 L   I
 OLDACT:REG 13-07-04 19:38 OP:jn   STATUS:               ID:20130704175959     3
 2013-07-04-1759-59M.COL___266                                                 6
 STAT SP IPHASW D HRMM SECON CODA AMPLIT PERI AZIMU VELO AIN AR TRES W  DIS CAZ7
 BAR2 SZ IP     D 18 7 40.08                             155    0.1210 44.7  73 
 BAR2 SZ ES       18 7 52.20                             155   -0.0010 44.7  73 
 BAR2 SZ I        18 7 53.60        66.2 0.12            158           44.7  73 
 BRR  HZ EP       18 7 40.91                             143   -0.3810 71.5 347 
 BRR  HN ES   1   18 7 55.14                             143    0.57 7 71.5 347 
 GIR2 SZ EP       18 7 41.64                             140   -0.3810 78.5  32 
 RUS  HZ EP       18 7 43.02                             139    0.0710 84.1 140 
 RUS  HN ES   1   18 7 58.05                             139    0.53 7 84.1 140 
 RUS  HZ I        18 8  0.95         9.4 0.34            140           84.1 140 
 PTB  HZ EP       18 7 42.91                             133   -0.5910 98.3 274 
 PTB  HN ES       18 7 57.73                             133   -0.7610 98.3 274 
 PTB  HZ I        18 7 59.11        35.7 0.14            135           98.3 274 
 PAM  SN ES   4   18 8  4.54                             124   -1.39 0  135  45 
 PAM  SZ I        18 8  6.08        11.0 0.34            127            135  45 
 NOR  HZ EP   1   18 7 51.90                             116    0.52 7  176 235 
 NOR  HN ES   1   18 8 12.97                             116    0.45 7  176 235 
 NOR  HZ I        18 8 15.47        11.0 0.28            117            176 235 
 ZAR  HZ EP       18 7 52.15                             115    0.22 9  181 308 
 ZAR  HE ES       18 8 14.44                             115    0.94 9  181 308 
 ZAR  HZ I        18 8 16.92        22.1 0.52            117            181 308 
 GUY2CHZ EP   4   18 8  1.52                             108    2.07 0  242 235 
 GUY2CHZ I        18 8 34.08         5.6 0.24                           242 235 
 SML  HE ES   1   18 8 30.01                             106   -0.09 6  263 348 
                                                                                
