 2016  9 4 1918 54.7 L   6.841 -73.109149.4  RSN  6 0.5 1.8LRSN                1
 GAP=245        1.21       7.3     8.1  9.0  0.2813E+02  0.1350E+02  0.5752E+01E
 Epicentro: LOS SANTOS - SANTANDER                                             3
 ACTION:UPD 17-08-17 21:06 OP:lp   STATUS:               ID:20160904191854 L   I
 OLDACT:REG 16-09-04 21:21 OP:dnl  STATUS:               ID:20160904191737     3
 2016-09-04-1918-00M.COL___355                                                 6
 STAT SP IPHASW D HRMM SECON CODA AMPLIT PERI AZIMU VELO AIN AR TRES W  DIS CAZ7
 BAR2 EZ ES       1919 29.94                             169   -0.6710 28.7 196 
 BRR  HZ EP     C 1919 16.81                             153    0.5010 72.8 294 
 BRR  HE ES       1919 33.87                             153    0.6910 72.8 294 
 BRR  HZ I        1919 36.41         9.3 0.30            148           72.8 294 
 RUS  HZ EP       1919 19.26                             143    0.1610  105 178 
 RUS  HN ES       1919 38.04                             143   -0.1110  105 178 
 RUS  HZ I        1919 38.78         6.6 0.28            145            105 178 
 PTB  HZ EP       1919 21.82                             132   -0.56 9  153 257 
 PTB  HE ES       1919 43.70                             132   -0.29 9  153 257 
 PTB  HZ I        1919 45.40         5.9 0.78            130            153 257 
 SPBC HZ EP       1919 23.93                             129   -0.10 9  169 219 
 SPBC HE ES       1919 47.60                             129    0.67 9  169 219 
 SPBC HZ I        1919 49.38        21.5 0.22            129            169 219 
 ZAR  HE ES       1919 52.81                             123   -0.42 8  206 291 
 ZAR  HZ I        1920  3.55         4.3 0.26            121            206 291 
                                                                                
