 2013 12 4 1105 52.4 L   6.774 -73.106145.6  RSN  6 0.4 1.8LRSN                1
 GAP=143        0.87       6.0     5.0  6.7 -0.8882E+01  0.1008E+02 -0.6340E+01E
 Epicentro: LOS SANTOS - SANTANDER                                             3
 ACTION:UPD 14-01-13 10:15 OP:ep   STATUS:               ID:20131204110552 L   I
 OLDACT:UP  13-12-04 15:43 OP:cam  STATUS:               ID:20131204110000     3
 OLDACT:REG 13-12-04 14:15 OP:cam  STATUS:               ID:20131204110000     3
 2013-12-04-1100-00M.COL___285                                                 6
 STAT SP IPHASW D HRMM SECON CODA AMPLIT PERI AZIMU VELO AIN AR TRES W  DIS CAZ7
 BAR2 SZ EP   2   11 6 11.75                             171   -0.21 5 21.8 203 
 BAR2 SZ ES       11 6 26.81                             171   -0.4210 21.8 203 
 BAR2 SZ I        11 6 28.02        16.7 0.18            172           21.8 203 
 BRR  HZ EP       11 6 13.90                             151    0.0910 76.5 299 
 BRR  HN ES       11 6 30.70                             151    0.1610 76.5 299 
 BRR  HZ I        11 6 34.95        10.3 0.44            149           76.5 299 
 PAM  SZ EP       11 6 14.98                             151    0.4310 77.0  36 
 PAM  SN ES       11 6 31.69                             151   -0.1610 77.0  36 
 PAM  SN I        11 6 32.91        20.5 0.44            152           77.0  36 
 RUS  HN ES   1   11 6 34.65                             145    0.42 7 97.5 179 
 PTB  HZ EP       11 6 18.98                             131   -0.70 9  152 260 
 PTB  HN ES       11 6 41.28                             131    0.30 9  152 260 
 PTB  HZ I        11 6 42.79         6.5 0.20            132            152 260 
 ZAR  HZ EP   1   11 6 25.47                             122    0.12 6  209 292 
                                                                                
