 2013  3 4 1812 15.3 L   5.902 -73.821104.0  RSN  4 0.1 2.1LRSN                1
 GAP=224        0.37       3.4     5.8  6.9  0.1405E+02  0.3051E+02  0.1181E+02E
 Epicentro: SUCRE - SANTANDER                                                  3
 ACTION:UPD 13-04-09 13:59 OP:ep   STATUS:               ID:20130304181215 L   I
 2013-03-04-1808-50M.COL___193                                                 6
 STAT SP IPHASW D HRMM SECON CODA AMPLIT PERI AZIMU VELO AIN AR TRES W  DIS CAZ7
 RUS  HZ EP       1812 33.79                             139    0.1310 81.7  91 
 RUS  HN ES       1812 47.84                             139   -0.1210 81.7  91 
 PTB  HE ES   3   1812 49.51                             132    0.02 2 99.5 315 
 BAR2 SZ EP       1812 35.32                             131    0.0910  104  43 
 BAR2 SZ ES       1812 50.77                             131    0.0210  104  43 
 BAR2 SZ I        1812 52.31        31.2 0.48            131            104  43 
 BRR  HZ EP       1812 37.63                             123   -0.1710  134   5 
 BRR  HN ES       1812 55.37                             123    0.0410  134   5 
 BRR  HN I        1812 58.47        22.4 0.22            123            134   5 
                                                                                
