 2017  5 4 1607 41.1 L   6.847 -73.199140.0  RSN  5 0.3 1.5LRSN                1
 GAP=128        0.61       3.6     3.4  6.1 -0.4083E+01  0.7990E+01  0.4741E+00E
 Epicentro: ZAPATOCA - SANTANDER                                               3
 ACTION:UPD 17-06-16 13:32 OP:jn   STATUS:               ID:20170504160741 L   I
 OLDACT:UP  17-05-04 20:17 OP:and  STATUS:               ID:20170504155742     3
 OLDACT:UP  17-05-04 20:17 OP:and  STATUS:               ID:20170504155742     3
 OLDACT:UP  17-05-04 20:17 OP:and  STATUS:               ID:20170504155742     3
 OLDACT:UP  17-05-04 20:17 OP:and  STATUS:               ID:20170504155742     3
 OLDACT:REG 17-05-04 17:56 OP:and  STATUS:               ID:20170504155742     3
 2017-05-04-1558-00M.COL___368                                                 6
 STAT SP IPHASW D HRMM SECON CODA AMPLIT PERI AZIMU VELO AIN AR TRES W  DIS CAZ7
 BRR  HZ EP   2   16 8  1.70                             154    0.51 5 63.5 297 
 PAM  EZ IP     C 16 8  3.01                             149    0.3110 77.6  45 
 PAM  EN ES       16 8 19.40                             149   -0.1610 77.6  45 
 PAM  EZ I        16 8 21.75         4.9 0.54            154           77.6  45 
 RUS  HZ EP       16 8  4.61                             141   -0.1010  106 173 
 RUS  HN ES       16 8 23.19                             141    0.0610  106 173 
 RUS  HZ I        16 8 24.40         7.6 0.38            144            106 173 
 PTB  HZ EP       16 8  7.15                             132   -0.01 9  143 256 
 PTB  HN ES       16 8 27.32                             132   -0.18 9  143 256 
 PTB  HZ I        16 8 30.76         2.6 0.40            133            143 256 
 NOR  HZ EP       16 8 15.97                             117   -0.34 8  233 233 
 NOR  HN ES   2   16 8 44.62                             117    0.85 4  233 233 
 NOR  HZ I        16 8 48.62         3.0 0.16            119            233 233 
                                                                                
