 2011  5 4 1837 27.0 L   6.217 -73.577111.9  RSN  8 0.4 2.0LRSN                1
 GAP=108        0.93       4.1     5.6  7.8 -0.1239E+02  0.9152E+01  0.8909E+00E
 Epicentro: LA PAZ - SANTANDER                                                 3
 ACTION:UP  11-06-29 08:50 OP:tino STATUS:               ID:20110504183727 L   I
 2011-05-04-1835-23S.COL___133                                                 6
 STAT SP IPHASW D HRMM SECON CODA AMPLIT PERI AZIMU VELO SNR AR TRES W  DIS CAZ7
 RUS  HZ EP   1   1837 45.10                             148     0.2 7   65 123 
 RUS  HN ES   1   1837 58.87                             148     0.0 7   65 123 
 RUS  HZ I        1838  0.26        13.2 0.15                            65 123 
 BTL  SZ EP       1837 46.24                             140     0.310   85  24 
 BTL  SZ ES   1   1838  0.81                             140     0.1 7   85  24 
 BRR  HZ EP   1   1837 46.33                             135    -0.5 7  100 351 
 BRR  HN ES   1   1838  1.80                             135    -0.5 7  100 351 
 BRR  HZ I        1838  3.08        24.1 0.09                           100 351 
 PAM  SZ EP   1   1837 53.03                             121     0.0 7  158  38 
 PAM  SN ES   1   1838 12.80                             121    -0.6 7  158  38 
 NOR  SZ EP   1   1837 52.31                             120    -0.5 7  160 243 
 NOR  SE ES   1   1838 13.66                             120     0.7 7  160 243 
 BRI  SZ EP   1   1837 56.27                             116     0.5 7  187  27 
 GRA  SZ EP       1837 57.39                             114    -0.2 9  203  25 
 GRA  SZ ES   1   1838 22.38                             114     0.9 6  203  25 
 GRA  SZ I        1838 23.72        17.5 0.24                           203  25 
 PRA  HZ EP       1838 10.04                             104     0.0 7  313 208 
 PRA  HN ES   1   1838 43.35                             104    -0.3 5  313 208 
                                                                                
