 2016  1 4 1307 21.9 L   6.859 -73.141143.7  RSN 15 0.5 2.5LRSN                1
 GAP= 69        1.25       3.1     3.5  5.9 -0.5643E+00  0.4032E+01  0.1085E+01E
 Epicentro: LOS SANTOS - SANTANDER                                             3
 ACTION:UPD 16-03-09 23:22 OP:cam  STATUS:               ID:20160104130721 L   I
 OLDACT:UP  16-02-15 15:28 OP:cam  STATUS:               ID:20160104130721 L   3
 OLDACT:UP  16-02-01 09:15 OP:mHER STATUS:               ID:20160104130721 L   3
 OLDACT:UP  16-01-04 23:29 OP:ar   STATUS:               ID:20160104125749     3
 OLDACT:REG 16-01-04 21:00 OP:ar   STATUS:               ID:20160104125749     3
 2016-01-04-1257-49M.COL___332                                                 6
 STAT SP IPHASW D HRMM SECON CODA AMPLIT PERI AZIMU VELO AIN AR TRES W  DIS CAZ7
 BAR2 EZ EP       13 7 41.26                             168   -0.1610 29.9 189 
 BAR2 EZ ES       13 7 56.77                             168    0.1210 29.9 189 
 BAR2 EZ I        13 7 58.08        33.4 0.12            166           29.9 189 
 BRR  HZ IP     C 13 7 42.83                             153    0.1610 68.8 293 
 BRR  HN ES       13 7 59.60                             153    0.7110 68.8 293 
 BRR  HZ I        13 8  2.84        66.5 0.42            152           68.8 293 
 PAM  EZ EP       13 7 43.82                             152    0.2610 72.0  43 
 PAM  EN ES       13 8  0.69                             152    0.2210 72.0  43 
 PAM  EZ I        13 8  2.70       108.6 0.36            157           72.0  43 
 RUS  HZ EP       13 7 45.51                             142   -0.4110  107 177 
 RUS  HN ES       13 8  4.54                             142   -0.1210  107 177 
 RUS  HZ I        13 8  8.37        12.6 0.48            143            107 177 
 PTB  HZ EP       13 7 47.85                             131   -1.01 9  150 256 
 PTB  HN ES       13 8  9.13                             131   -0.77 9  150 256 
 PTB  HZ I        13 8 14.50        43.8 0.48            132            150 256 
 OCA  HZ EP       13 7 48.97                             131   -0.46 9  154 353 
 OCA  HN ES       13 8 10.06                             131   -0.85 9  154 353 
 OCA  HZ I        13 8 15.52        88.9 0.24            133            154 353 
 TAM  HZ IP     C 13 7 49.82                             130    0.30 9  156 107 
 TAM  HE ES       13 8 11.43                             130    0.36 9  156 107 
 TAM  HZ I        13 8 12.07        21.3 0.30            134            156 107 
 SPBC HZ EP       13 7 50.77                             128    0.02 9  169 218 
 SPBC HE ES       13 8 12.71                             128   -0.56 9  169 218 
 SPBC HZ I        13 8 18.65        43.4 0.20            129            169 218 
 ZAR  HZ EP       13 7 53.87                             122   -0.13 9  202 290 
 ZAR  HN ES       13 8 19.71                             122    0.66 9  202 290 
 ZAR  HZ I        13 8 25.24        59.0 0.46            124            202 290 
 SML  HZ EP       13 7 57.25                             118   -0.52 8  238 335 
 SML  HN ES       13 8 26.18                             118    0.41 8  238 335 
 SML  HZ I        13 8 28.44        56.2 0.24            120            238 335 
 NOR  HZ EP       13 7 57.91                             118   -0.05 8  239 233 
 NOR  HN ES       13 8 26.09                             118   -0.01 8  239 233 
 NOR  HZ I        13 8 29.46        22.8 0.36            119            239 233 
 CHI  HZ EP       13 8  0.32                             116    0.14 8  255 195 
 CHI  HN ES       13 8 29.77                             116   -0.27 8  255 195 
 CHI  HZ I        13 8 35.73        14.7 0.50            118            255 195 
 ROSC BZ EP       13 8  1.49                             116    0.95 8  259 210 
 ROSC BE ES   4   13 8 33.30                             116    2.61 0  259 210 
 ROSC BZ I        13 8 41.05        23.3 0.40            117            259 210 
 HEL  HZ EP       13 8  3.14                             114    0.90 8  274 255 
 HEL  HE ES       13 8 34.54                             114    0.83 8  274 255 
 HEL  HZ I        13 8 39.98        33.4 0.34            115            274 255 
 GUY2CHZ EP   9   13 8  9.03                             112    3.15 0  305 234 
 GUY2CHN ES       13 8 44.00                             112    0.65 7  305 234 
 GUY2CHZ I        13 8 52.40        13.7 0.54                           305 234 
                                                                                
