 2015  7 4 1812 12.8 L   6.785 -73.094148.0  RSN 13 0.5 2.7LRSN                1
 GAP=124        1.07       2.9     4.2  6.0  0.7342E+00  0.9279E+01  0.1496E+01E
 Epicentro: LOS SANTOS - SANTANDER                                             3
 ACTION:UPD 15-09-08 21:46 OP:cam  STATUS:               ID:20150704181212 L   I
 OLDACT:REG 15-07-04 22:33 OP:ar   STATUS:               ID:20150704180748     3
 2015-07-04-1807-48M.COL___331                                                 6
 STAT SP IPHASW D HRMM SECON CODA AMPLIT PERI AZIMU VELO AIN AR TRES W  DIS CAZ7
 BAR2 EZ EP     D 1812 32.91                             171    0.2410 23.4 205 
 BAR2 EZ ES       1812 47.44                             171   -0.7510 23.4 205 
 BAR2 EZ I        1812 48.78       105.9 0.34            168           23.4 205 
 PAM  EZ EP       1812 35.92                             152    0.8310 75.2  35 
 PAM  EE ES       1812 52.54                             152    0.0310 75.2  35 
 PAM  EZ I        1812 55.16       102.0 0.66            150           75.2  35 
 RUS  HZ EP       1812 36.90                             145    0.3010 98.7 179 
 RUS  HE ES       1812 55.55                             145    0.3510 98.7 179 
 RUS  HZ I        1812 56.27        25.7 0.24            140           98.7 179 
 OCA  HZ EP       1812 41.38                             130   -0.10 9  163 351 
 OCA  HN ES       1813  3.42                             130   -0.45 9  163 351 
 OCA  HZ I        1813  6.34        90.9 0.24            127            163 351 
 ZAR  HZ EP       1812 46.53                             122    0.56 8  210 292 
 ZAR  HN ES       1813 11.51                             122   -0.35 8  210 292 
 ZAR  HZ I        1813 17.58        50.1 0.42            119            210 292 
 NOR  HZ EP       1812 49.42                             118    0.40 8  238 236 
 NOR  HE ES       1813 16.87                             118   -0.44 8  238 236 
 NOR  HZ I        1813 22.07        18.5 0.22            115            238 236 
 SML  HZ EP       1812 49.33                             117   -0.61 8  248 334 
 SML  HN ES       1813 19.09                             117    0.15 8  248 334 
 SML  HZ I        1813 21.52        55.7 0.10            114            248 334 
 HEL  HZ EP   2   1812 53.84                             115    0.18 4  277 256 
 HEL  HN ES       1813 26.22                             115    0.66 7  277 256 
 HEL  HZ I        1813 33.68        11.4 0.24            111            277 256 
 URE  HZ EP   3   1812 54.82                             113    0.22 2  290 292 
 URE  HN ES   4   1813 25.23                             113   -2.01 0  290 292 
 PTGC HZ EP       1812 56.10                             112   -0.22 7  305 160 
 PTGC HZ I        1813 21.57        17.7 0.60            109            305 160 
 PTGC HE ES       1813 29.38                             112   -0.91 7  305 160 
 DBB  SZ EP       1813  0.82                             109   -0.18 7  345 274 
 DBB  SZ ES   4   1813 36.48                             109   -2.14 0  345 274 
 DBB  SZ I        1813 41.11        50.1 0.50            107            345 274 
 PRA  HZ EP       1813  6.85                             107    0.32 6  393 210 
 PRA  HN ES       1813 48.06                             107   -0.40 6  393 210 
 PRA  HZ I        1813 55.61        10.0 0.50            104            393 210 
 SJC  HZ EP   2   1813  7.29                             106   -1.64 3  414 326 
 SJC  HN ES   4   1813 49.56                             106   -3.18 0  414 326 
 SJC  HZ I        1813 52.99         9.5 0.54            103            414 326 
                                                                                
