 2013  4 4 1456  5.6 L   7.217 -73.080150.0  RSN  6 0.5 1.6LRSN                1
 GAP=261        0.87       9.6     7.5 11.9  0.1739E+02  0.1150E+02 -0.3711E+02E
 Epicentro: BUCARAMANGA - SANTANDER                                            3
 ACTION:UPD 13-05-22 14:35 OP:EP   STATUS:               ID:20130404145605 L   I
 2013-04-04-1450-00M.COL___245                                                 6
 STAT SP IPHASW D HRMM SECON CODA AMPLIT PERI AZIMU VELO AIN AR TRES W  DIS CAZ7
 BAR2 SZ EP   1   1456 27.53                             154    0.02 8 70.0 189 
 BAR2 SZ ES   1   1456 44.97                             154    0.39 8 70.0 189 
 BAR2 SZ I        1456 45.54        14.9 0.14            153           70.0 189 
 BRR  HZ EP   1   1456 27.68                             154    0.47 8 70.9 260 
 RUS  HZ EP   1   1456 33.58                             134    0.12 8  146 180 
 RUS  HN ES   1   1456 54.51                             134   -0.67 8  146 180 
 RUS  HZ I        1456 56.45         2.4 0.34            134            146 180 
 PTB  HZ EP       1456 34.53                             129   -0.4210  170 244 
 PTB  HN ES   1   1456 57.68                             129   -0.15 7  170 244 
 PTB  HZ I        1456 59.88         5.5 0.34            129            170 244 
 ZAR  HN ES   2   1457  2.28                             124   -0.62 5  199 279 
 NOR  HE ES   1   1457 17.25                             116    0.89 6  269 227 
                                                                                
