 2015 10 4 1525 25.0 L   6.813 -73.132143.5  RSN 20 0.5 2.6LRSN                1
 GAP=138        1.06       2.4     4.3  5.0 -0.2181E+01  0.7230E+01 -0.4414E+00E
 Epicentro: LOS SANTOS - SANTANDER                                             3
 ACTION:UPD 15-12-22 20:37 OP:cam  STATUS:               ID:20151004152525 L   I
 OLDACT:REG 15-10-04 21:17 OP:ar   STATUS:               ID:20151004151748     3
 2015-10-04-1517-48M.COL___355                                                 6
 STAT SP IPHASW D HRMM SECON CODA AMPLIT PERI AZIMU VELO AIN AR TRES W  DIS CAZ7
 BAR2 EZ EP       1525 44.10                             170   -0.3010 25.0 193 
 BAR2 EZ ES       1525 59.19                             170   -0.3410 25.0 193 
 BAR2 EZ I        1526  0.59        55.5 0.28            168           25.0 193 
 BRR  HZ IP     C 1525 45.91                             152   -0.0410 71.9 297 
 BRR  HN ES       1526  3.08                             152    0.7910 71.9 297 
 BRR  HZ I        1526  3.84        41.7 0.28            149           71.9 297 
 PAM  EZ EP       1525 46.99                             151    0.1310 75.3  39 
 PAM  EN ES       1526  4.03                             151    0.1210 75.3  39 
 PAM  EZ I        1526  6.17        58.0 0.46            151           75.3  39 
 RUS  HZ EP       1525 48.46                             143   -0.1710  102 177 
 RUS  HN ES       1526  7.17                             143    0.1110  102 177 
 RUS  HZ I        1526  8.01        46.9 0.36            141            102 177 
 OCA  HZ EP       1525 52.28                             129   -0.75 9  159 353 
 OCA  HN ES   2   1526 14.76                             129   -0.13 5  159 353 
 OCA  HZ I        1526 17.96        96.1 0.18            128            159 353 
 SPBC HZ EP       1525 53.20                             128   -0.33 9  165 219 
 SPBC HN ES       1526 15.29                             128   -0.48 9  165 219 
 SPBC HZ I        1526 17.55        52.6 0.30            125            165 219 
 ZAR  HZ EP       1525 57.23                             122   -0.17 9  205 292 
 ZAR  HN ES       1526 22.51                             122   -0.16 9  205 292 
 ZAR  HZ I        1526 27.94        49.5 0.26            119            205 292 
 NOR  HZ EP       1526  0.73                             118   -0.10 8  237 234 
 NOR  HN ES       1526 28.21                             118   -0.56 8  237 234 
 NOR  HZ I        1526 35.00        20.2 0.18            115            237 234 
 SML  HZ EP       1526  0.46                             117   -0.98 8  243 335 
 SML  HN ES       1526 30.81                             117    0.95 8  243 335 
 SML  HZ I        1526 32.02        51.4 0.22            115            243 335 
 CHI  HZ EP       1526  2.68                             117   -0.09 8  250 195 
 CHI  HN ES       1526 32.56                             117    0.33 8  250 195 
 CHI  HZ I        1526 37.91        17.4 0.36            114            250 195 
 ROSC BZ EP       1526  4.41                             116    1.19 8  255 211 
 ROSC BN ES       1526 33.20                             116    0.17 8  255 211 
 ROSC BZ I        1526 38.00        30.6 0.35            114            255 211 
 HEL  HZ EP   2   1526  5.73                             114    0.42 4  274 256 
 HEL  HN ES   2   1526 36.14                             114   -0.60 4  274 256 
 HEL  HZ I        1526 42.76        11.7 0.24            112            274 256 
 URE  HZ EP   2   1526  5.58                             113   -0.49 4  285 292 
 URE  HN ES   4   1526 42.47                             113    4.37 0  285 292 
 URE  HZ I        1526 47.63        20.2 0.32            111            285 292 
 GUY2CHZ EP       1526  9.46                             112    0.72 7  303 235 
 GUY2CHN ES   2   1526 42.28                             112   -0.58 4  303 235 
 GUY2CHZ I        1526 50.98         9.3 0.28                           303 235 
 LL2C HZ EP       1526  8.21                             111   -0.14 7  305 354 
 LL2C HN ES       1526 42.84                             111    0.68 7  305 354 
 LL2C HZ I        1526 48.79        32.0 0.38            110            305 354 
 PTGC HZ EP   4   1526  7.12                             111   -1.73 0  309 159 
 PTGC HZ I        1526 26.97        31.5 0.38            109            309 159 
 PTGC HN ES   4   1526 40.58                             111   -2.46 0  309 159 
 DBB  SZ EP       1526 11.95                             109   -0.61 7  341 274 
 DBB  SZ ES   2   1526 49.90                             109    0.25 3  341 274 
 DBB  SZ I        1526 51.80        33.7 0.38            107            341 274 
 ANIL HZ EP   2   1526 15.23                             108    0.27 3  359 225 
 ANIL HN ES   2   1526 54.78                             108    0.85 3  359 225 
 ANIL HZ I        1527  1.31        34.4 0.30            106            359 225 
 ORTC HZ EP       1526 19.53                             106    0.44 6  397 216 
 ORTC HN ES       1527  1.96                             106    0.69 6  397 216 
 ORTC HZ I        1527  9.05        12.2 0.78            104            397 216 
 SJC  HZ EP   4   1526 18.30                             105   -2.16 0  409 327 
 SJC  HN ES   4   1526 59.51                             105   -4.20 0  409 327 
 SJC  HZ I        1527  3.71         6.0 0.64            104            409 327 
                                                                                
