 2015  4 4 1654 56.0 L   6.802 -73.151144.3  RSN 10 0.5 1.8LRSN                1
 GAP=136        1.21       4.0     4.8  6.9 -0.2876E+01  0.1054E+02  0.9287E+00E
 Epicentro: LOS SANTOS - SANTANDER                                             3
 ACTION:UPD 15-06-03 16:52 OP:cam  STATUS:               ID:20150404165456 L   I
 OLDACT:REG 15-04-04 22:34 OP:fm   STATUS:               ID:20150404164748     3
 2015-04-04-1647-48M.COL___285                                                 6
 STAT SP IPHASW D HRMM SECON CODA AMPLIT PERI AZIMU VELO AIN AR TRES W  DIS CAZ7
 BAR2 EZ EP       1655 15.64                             170    0.1410 23.4 189 
 BAR2 EZ ES       1655 31.20                             170    0.5210 23.4 189 
 BAR2 EZ I        1655 33.43        10.2 0.28            169           23.4 189 
 BRR  HZ EP       1655 17.77                             152    0.7710 70.6 299 
 BRR  HN ES       1655 34.01                             152    0.6610 70.6 299 
 BRR  HZ I        1655 37.84         9.5 0.28            151           70.6 299 
 PAM  SZ IP     D 1655 18.47                             151    0.3610 77.6  40 
 PAM  SE ES       1655 35.06                             151   -0.2710 77.6  40 
 PAM  SZ I        1655 37.86         8.1 0.20            156           77.6  40 
 RUS  HZ EP       1655 19.42                             143   -0.2510  101 176 
 RUS  HN ES       1655 37.20                             143   -0.9010  101 176 
 RUS  HZ I        1655 39.49         4.5 0.36            147            101 176 
 PTB  HZ EP       1655 22.60                             132   -0.24 9  147 259 
 PTB  HN ES       1655 43.00                             132   -0.75 9  147 259 
 PTB  HZ I        1655 51.33         8.4 0.32            133            147 259 
 SPBC HZ EP       1655 24.56                             129    0.15 9  163 219 
 SPBC HN ES       1655 46.66                             129    0.12 9  163 219 
 SPBC HZ I        1655 53.79        11.3 0.34            131            163 219 
 ZAR  HN ES       1655 53.30                             122   -0.21 9  203 292 
 ZAR  HZ I        1656  1.26         8.0 0.28            124            203 292 
 NOR  HZ EP       1655 31.61                             118   -0.04 8  234 234 
 NOR  HN ES       1655 59.33                             118   -0.09 8  234 234 
 NOR  HZ I        1656  3.35         6.6 0.18            120            234 234 
 SML  HZ EP   1   1655 32.16                             117   -0.38 6  243 335 
 SML  HE ES       1656  0.21                             117   -0.80 8  243 335 
 SML  HZ I        1656  3.10        11.2 0.10            120            243 335 
 GUY2CHZ EP       1655 39.77                             112    0.23 7  301 235 
 GUY2CHE ES       1656 14.18                             112    0.71 7  301 235 
 GUY2CHZ I        1656 22.37         3.6 0.32                           301 235 
                                                                                
