 2017  6 4 1700 51.6 L   6.705 -73.210152.0  RSN  4 0.3 1.3LRSN                1
 GAP=222        0.67       5.6     5.7  6.5  0.2059E+02 -0.2539E+01 -0.5640E+01E
 Epicentro: VILLANUEVA - SANTANDER                                             3
 ACTION:UPD 17-09-14 16:49 OP:jn   STATUS:               ID:20170604170052 L   I
 OLDACT:UP  17-06-15 19:44 OP:nlst STATUS:               ID:20170604170052 L   3
 OLDACT:REG 17-06-05 01:41 OP:ar   STATUS:               ID:20170604165737     3
 2017-06-04-1658-00M.COL___346                                                 6
 STAT SP IPHASW D HRMM SECON CODA AMPLIT PERI AZIMU VELO AIN AR TRES W  DIS CAZ7
 BRR  HZ EP       17 1 13.16                             154   -0.2210 71.1 309 
 BRR  HE ES       17 1 30.52                             154    0.1310 71.1 309 
 RUS  HZ EP       17 1 15.11                             148   -0.1610 90.9 171 
 RUS  HN ES       17 1 33.86                             148    0.0910 90.9 171 
 RUS  HZ I        17 1 34.40         1.8 0.52            145           90.9 171 
 PTB  HZ EP   1   17 1 18.38                             135    0.10 7  139 263 
 PTB  HN ES       17 1 39.09                             135   -0.03 9  139 263 
 PTB  HZ I        17 1 45.06         2.0 0.48            130            139 263 
 ZAR  HZ EP   1   17 1 25.00                             124    0.81 6  202 296 
 ZAR  HN ES   1   17 1 49.16                             124   -0.48 6  202 296 
 ZAR  HZ I        17 1 55.37         3.0 0.40            121            202 296 
                                                                                
