 2016 10 4 1135 13.8 L   6.787 -73.153138.7  RSN  7 0.2 1.6LRSN                1
 GAP=136        0.63       2.4     2.7  3.9  0.8068E+00  0.2744E+01  0.1669E+01E
 Epicentro: LOS SANTOS - SANTANDER                                             3
 ACTION:UPD 16-11-09 19:16 OP:rebc STATUS:               ID:20161004113513 L   I
 OLDACT:REG 16-10-04 19:42 OP:lv   STATUS:               ID:20161004112746     3
 2016-10-04-1128-00M.COL___366                                                 6
 STAT SP IPHASW D HRMM SECON CODA AMPLIT PERI AZIMU VELO AIN AR TRES W  DIS CAZ7
 BAR2 EZ IP     C 1135 32.36                             171   -0.1410 21.8 189 
 BAR2 EZ ES       1135 47.11                             171   -0.0110 21.8 189 
 BAR2 EZ I        1135 49.02        11.6 0.21            170           21.8 189 
 BRR  HZ IP     C 1135 34.14                             151    0.0010 71.2 300 
 BRR  HN ES       1135 50.21                             151    0.1810 71.2 300 
 BRR  HZ I        1135 52.64        12.5 0.37            151           71.2 300 
 PAM  EZ EP       1135 35.26                             149   -0.0610 79.0  39 
 PAM  EN ES       1135 52.17                             149    0.0310 79.0  39 
 PAM  EZ I        1135 54.60         7.9 0.56            152           79.0  39 
 RUS  HZ EP       1135 36.53                             143   -0.1810 99.2 176 
 RUS  HE ES       1135 54.72                             143    0.1110 99.2 176 
 RUS  HZ I        1135 57.20         5.4 0.21            144           99.2 176 
 PTB  HZ EP       1135 39.51                             131   -0.54 9  147 259 
 PTB  HN ES       1136  0.22                             131   -0.34 9  147 259 
 PTB  HZ I        1136  2.91         7.2 0.14            131            147 259 
 ZAR  HZ EP       1135 46.04                             121    0.32 9  204 293 
 ZAR  HE ES       1136 10.96                             121    0.30 9  204 293 
 ZAR  HZ I        1136 16.15         4.0 0.11            122            204 293 
 CHI  HZ EP       1135 51.19                             116    0.30 8  247 195 
 CHI  HN ES       1136 20.15                             116    0.30 8  247 195 
 CHI  HZ I        1136 23.15         2.2 0.28            117            247 195 
                                                                                
