 2016  8 4 1337 42.4 L   6.785 -73.117142.6  RSN 12 0.3 2.2LRSN                1
 GAP=141        0.77       2.9     3.1  4.3 -0.1674E+01  0.6243E+01  0.4562E+00E
 Epicentro: LOS SANTOS - SANTANDER                                             3
 ACTION:UPD 16-10-29 15:32 OP:rebc STATUS:               ID:20160804132746dL   I
 OLDACT:UP  16-08-04 23:03 OP:edw  STATUS:               ID:20160804132746dL   3
 OLDACT:DUP 16-08-04 22:57 OP:AR   STATUS:               ID:20160804132746dL   3
 OLDACT:UP  16-08-04 22:50 OP:edw  STATUS:               ID:20160804132745 L   3
 OLDACT:UP  16-08-04 22:48 OP:edw  STATUS:               ID:20160804132745 L   3
 OLDACT:UPD 16-08-04 20:42 OP:AR   STATUS:               ID:20160804132745 L   3
 2016-08-04-1328-00M.COL___329                                                 6
 STAT SP IPHASW D HRMM SECON CODA AMPLIT PERI AZIMU VELO AIN AR TRES W  DIS CAZ7
 BAR2 EZ EP       1338  1.67                             171    0.0710 22.5 199 
 BAR2 EZ ES       1338 16.40                             171   -0.2010 22.5 199 
 BRR  HZ EP       1338  3.22                             151   -0.1610 74.8 298 
 BRR  HN ES       1338 20.28                             151    0.5110 74.8 298 
 BRR  HZ I        1338 25.12        25.3 0.12                          74.8 298 
 PAM  EZ EP       1338  4.32                             150    0.1110 76.7  37 
 PAM  EE ES       1338 21.15                             150   -0.0810 76.7  37 
 PAM  EZ I        1338 23.48        57.2 0.58                          76.7  37 
 RUS  HZ EP       1338  5.42                             144   -0.2610 98.8 178 
 RUS  HN ES       1338 23.69                             144   -0.1710 98.8 178 
 SPBC HZ EP       1338 10.62                             128   -0.08 9  164 220 
 SPBC HN ES       1338 33.17                             128    0.37 9  164 220 
 SPBC HZ I        1338 37.06        22.7 0.20                           164 220 
 ZAR  HZ EP       1338 15.14                             121    0.16 8  208 292 
 ZAR  HN ES       1338 40.29                             121   -0.12 8  208 292 
 ZAR  HZ I        1338 45.48        14.6 0.13                           208 292 
 NOR  HZ EP       1338 17.78                             118   -0.32 8  236 235 
 NOR  HN ES       1338 46.19                             118    0.23 8  236 235 
 HEL  HZ EP       1338 22.73                             114    0.01 8  275 256 
 HEL  HN ES       1338 53.18                             114   -1.02 8  275 256 
 URE  HZ EP       1338 23.61                             113   -0.08 7  287 292 
 URE  HN ES   4   1338 53.96                             113   -1.95 0  287 292 
 URE  HZ I        1338 55.24        17.2 0.38                           287 292 
 SOCV BZ EP   4   1338 24.19                             112   -0.89 0  300  56 
 SOCV BN ES   4   1338 56.03                             112   -2.35 0  300  56 
 GUY2CHZ EP       1338 26.68                             112    0.66 7  303 235 
 GUY2CHN ES       1339  0.33                             112    0.26 7  303 235 
 GUY2CHZ I        1339  6.69         6.8 0.28                           303 235 
 LL6C HZ EP   4   1338 26.25                             110   -1.89 0  327 357 
 LL6C HN ES   4   1339  3.61                             110   -0.23 0  327 357 
 CBOC HZ EP       1338 29.88                             109    0.43 7  336 253 
 CBOC HN ES       1339  6.01                             109   -0.15 7  336 253 
 CBOC HZ I        1339 17.34         3.2 0.34                           336 253 
 SJC  HZ EP   4   1338 36.33                             105   -1.86 0  412 327 
 SJC  HN ES   4   1339 17.47                             105   -4.26 0  412 327 
 SJC  HZ I        1339 18.53         3.2 0.44                           412 327 
                                                                                
