 2013  2 4 1359 58.7 L   6.755 -73.376126.3  RSN  5 0.1 1.8LRSN                1
 GAP= 98        0.35       1.8     2.3  2.9  0.2691E+00  0.1150E+01  0.3085E+00E
 Epicentro: ZAPATOCA - SANTANDER                                               3
 ACTION:UPD 13-03-12 09:30 OP:ep   STATUS:               ID:20130204135958 L   I
 2013-02-04-1400-00M.COL___240                                                 6
 STAT SP IPHASW D HRMM SECON CODA AMPLIT PERI AZIMU VELO AIN AR TRES W  DIS CAZ7
 BAR2 SZ EP       14 0 16.14                             167    0.0610 27.9 130 
 BAR2 SZ ES       14 0 29.62                             167   -0.0410 27.9 130 
 BAR2 SZ I        14 0 30.40        27.6 0.25            166           27.9 130 
 BRR  HZ IP     D 14 0 16.91                             155    0.1610 53.8 316 
 BRR  HE ES       14 0 30.89                             155    0.0310 53.8 316 
 BRR  HE I        14 0 31.74        24.9 0.23            136           53.8 316 
 PAM  SZ EP   1   14 0 20.38                             140   -0.03 7 98.8  49 
 PAM  SN ES       14 0 37.28                             140   -0.0910 98.8  49 
 PAM  SZ I        14 0 40.64         7.0 0.59            129           98.8  49 
 RUS  HZ EP   1   14 0 20.66                             139    0.09 7  101 161 
 RUS  HE ES       14 0 37.63                             139   -0.0110  101 161 
 RUS  HE I        14 0 39.01        11.6 0.25            126            101 161 
 PTB  HZ EP   1   14 0 21.42                             133   -0.28 7  122 259 
 PTB  HZ I        14 0 44.21         8.7 0.43            114            122 259 
                                                                                
