 2017  7 4 1157 16.1 L   6.804 -73.134139.6  RSN 15 0.5 2.4LRSN                1
 GAP=101        1.20       4.2     3.1  6.1  0.1490E+00  0.4316E+01  0.4226E+01E
 Epicentro: LOS SANTOS - SANTANDER                                             3
 ACTION:UPD 17-08-30 15:29 OP:rebc STATUS:               ID:20170704115716 L   I
 OLDACT:UP  17-07-05 00:20 OP:ar   STATUS:               ID:20170704114738     3
 OLDACT:UP  17-07-05 00:17 OP:ar   STATUS:               ID:20170704114738     3
 OLDACT:REG 17-07-04 22:55 OP:ar   STATUS:               ID:20170704114738     3
 2017-07-04-1148-00M.COL___379                                                 6
 STAT SP IPHASW D HRMM SECON CODA AMPLIT PERI AZIMU VELO AIN AR TRES W  DIS CAZ7
 BAR2 EZ IP     C 1157 34.70                             170   -0.3310 24.0 193 
 BAR2 EZ ES       1157 49.41                             170   -0.3710 24.0 193 
 BAR2 EZ I        1157 50.49        47.0 0.18            168           24.0 193 
 BRR  HZ IP     C 1157 36.55                             151   -0.1210 72.1 298 
 BRR  HN ES       1157 53.34                             151    0.6510 72.1 298 
 BRR  HZ I        1157 56.46        44.2 0.38            151           72.1 298 
 PAM  EZ EP       1157 37.64                             150    0.0210 76.2  39 
 PAM  EN ES       1157 54.27                             150   -0.1110 76.2  39 
 PAM  EZ I        1157 56.44        46.9 0.44            154           76.2  39 
 PTB  HZ EP       1157 41.73                             130   -1.00 9  149 259 
 PTB  HN ES       1158  2.92                             130   -0.55 9  149 259 
 PTB  HZ I        1158  7.56        27.6 0.28            131            149 259 
 TAM  HZ IP     C 1157 43.12                             129   -0.10 9  154 105 
 TAM  HE ES       1158  4.87                             129    0.52 9  154 105 
 TAM  HZ I        1158  5.20        25.6 0.62            132            154 105 
 SPBC HZ EP       1157 43.99                             127   -0.28 9  164 219 
 SPBC HN ES       1158  5.60                             127   -0.62 9  164 219 
 SPBC HZ I        1158  7.93        43.2 0.20            128            164 219 
 YPLC HZ IP     C 1157 45.27                             125   -0.19 9  177 152 
 YPLC HN ES       1158  8.98                             125    0.64 9  177 152 
 YPLC HZ I        1158 11.53        26.7 0.46            127            177 152 
 ZAR  HZ EP       1157 49.07                             121    0.78 9  205 292 
 ZAR  HN ES       1158 13.54                             121    0.17 9  205 292 
 ZAR  HZ I        1158 18.62        27.1 0.54            122            205 292 
 TABC EZ EP   2   1157 51.96                             118    0.33 4  231 211 
 TABC EZ ES   4   1158 22.49                             118    3.17 0  231 211 
 TABC EZ I        1158 24.13        31.0 0.44            119            231 211 
 NOR  HZ EP       1157 51.39                             117   -0.26 8  236 235 
 NOR  HE ES       1158 19.58                             117    0.23 8  236 235 
 NOR  HZ I        1158 22.66        17.3 0.46            118            236 235 
 ROSC BZ EP   9   1157 56.46                             115    2.42 0  254 211 
 ROSC BN ES       1158 26.16                             115    0.14 8  254 211 
 ROSC BZ I        1158 28.36        18.0 0.40            116            254 211 
 HEL  HZ EP       1157 56.81                             113    0.62 8  273 256 
 HEL  HE ES       1158 28.50                             113    1.07 8  273 256 
 HEL  HZ I        1158 33.07        13.5 0.40            114            273 256 
 URE  HZ EP       1157 56.24                             112   -0.78 7  285 292 
 URE  HN ES   4   1158 26.86                             112   -2.06 0  285 292 
 URE  HZ I        1158 29.90        15.6 0.14            114            285 292 
 GUY2CHZ EP       1157 59.87                             111    0.26 7  302 235 
 GUY2CHN ES       1158 34.01                             111    0.49 7  302 235 
 GUY2CHZ I        1158 41.45        10.0 0.56                           302 235 
 PTGC HZ EP   9   1157 58.24                             110   -1.47 0  309 159 
 PTGC HN ES       1158 31.51                             110   -0.72 7  309 159 
 PTGC HZ I        1158 33.94        15.0 0.44            112            309 159 
                                                                                
