 2013  8 4 1204 54.5 L   6.518 -73.532117.7  RSN  5 0.5 1.2LRSN                1
 GAP=193        1.11      11.5     5.9  9.7 -0.1538E+02  0.1476E+02 -0.1096E+01E
 Epicentro: EL CARMEN DE CHUCURI - SANTANDER                                   3
 ACTION:UPD 14-01-14 08:59 OP:ep   STATUS:               ID:20130804120454 L   I
 OLDACT:UP  13-08-04 16:31 OP:cam  STATUS:               ID:20130804115959     3
 OLDACT:REG 13-08-04 14:51 OP:cam  STATUS:               ID:20130804115959     3
 2013-08-04-1159-59M.COL___270                                                 6
 STAT SP IPHASW D HRMM SECON CODA AMPLIT PERI AZIMU VELO AIN AR TRES W  DIS CAZ7
 BAR2 SZ EP       12 5 11.13                             160   -0.1810 39.5  78 
 BAR2 SZ ES       12 5 24.84                             160    0.4110 39.5  78 
 BAR2 SZ I        12 5 25.35         4.4 0.27             47           39.5  78 
 BRR  HZ EP       12 5 12.42                             148   -0.0810 68.1 343 
 BRR  HN ES   1   12 5 27.12                             148    0.58 7 68.1 343 
 BRR  HZ I        12 5 27.34         7.0 0.60             47           68.1 343 
 GIR2 SZ EP       12 5 12.59                             146   -0.4010 72.4  31 
 GIR2 SZ ES   1   12 5 26.94                             146   -0.47 7 72.4  31 
 PTB  HZ EP   1   12 5 16.01                             136    0.91 7  102 271 
 PTB  HN ES       12 5 30.62                             136   -0.5510  102 271 
 PTB  HZ I        12 5 37.83         2.0 0.14             47            102 271 
 ZAR  HZ EP   1   12 5 23.41                             119    0.53 7  182 306 
 ZAR  HZ I        12 5 50.77         1.8 0.32             47            182 306 
                                                                                
