 2017 12 4 1706  8.8 L   6.803 -73.174143.4  RSN  9 0.4 2.0LRSN                1
 GAP=109        0.99       3.4     3.5  5.9  0.2819E+01  0.6269E+01  0.1324E+01E
 Epicentro: LOS SANTOS - SANTANDER                                             3
 ACTION:UPD 18-01-04 13:17 OP:rebc STATUS:               ID:20171204170608 L   I
 OLDACT:REG 17-12-04 21:38 OP:lv   STATUS:               ID:20171204165331     3
 2017-12-04-1658-00M.COL___491                                                 6
 STAT SP IPHASW D HRMM SECON CODA AMPLIT PERI AZIMU VELO AIN AR TRES W  DIS CAZ7
 BAR2 EZ IP     C 17 6 28.28                             170    0.0910 23.3 182 
 BAR2 EZ ES       17 6 43.82                             170    0.5310 23.3 182 
 BAR2 EZ I        17 6 44.96        27.6 0.22            170           23.3 182 
 PAM  EZ IP     D 17 6 31.39                             150    0.4710 79.2  41 
 PAM  EN ES       17 6 47.37                             150   -0.7710 79.2  41 
 PAM  EZ I        17 6 50.57        16.1 0.46            152           79.2  41 
 RUS  HZ EP       17 6 32.18                             143   -0.2310  101 174 
 RUS  HN ES       17 6 50.48                             143   -0.3110  101 174 
 RUS  HZ I        17 6 51.62         9.8 0.30            144            101 174 
 PTB  HZ EP       17 6 35.22                             132   -0.13 9  145 258 
 PTB  HN ES       17 6 55.72                             132   -0.30 9  145 258 
 PTB  HZ I        17 6 58.47        10.9 0.14            133            145 258 
 SPBC HZ EP       17 6 37.17                             129    0.17 9  161 218 
 SPBC HN ES       17 6 58.93                             129   -0.04 9  161 218 
 SPBC HZ I        17 7  1.63        15.5 0.24            130            161 218 
 YPLC HZ IP     C 17 6 38.44                             126   -0.21 9  179 150 
 YPLC HN ES       17 7  2.59                             126    0.69 9  179 150 
 YPLC HZ I        17 7  6.37         5.7 0.32            128            179 150 
 ZAR  HZ EP       17 6 40.87                             122    0.05 9  201 292 
 ZAR  HN ES       17 7  6.53                             122    0.76 9  201 292 
 ZAR  HZ I        17 7 13.22        13.0 0.22            123            201 292 
 CHI  HZ EP       17 6 46.37                             117    0.01 8  248 194 
 CHI  HN ES       17 7 15.23                             117   -0.39 8  248 194 
 CHI  HZ I        17 7 19.41         3.6 0.28            118            248 194 
 URE  HZ EP       17 6 49.23                             113   -0.23 7  281 292 
 URE  HN ES       17 7 20.90                             113   -0.24 7  281 292 
 URE  HZ I        17 7 21.48         7.9 0.14            115            281 292 
                                                                                
