 2012  3 4 1036 29.8 L   6.723 -73.183136.0  RSN  5 0.4 1.4LRSN                1
 GAP=227        0.86       8.3     8.1  8.4  0.3865E+02  0.1250E+02 -0.3168E+01E
 ACTION:UP  12-03-31 23:17 OP:EP   STATUS:               ID:20120304103629 L   I
 2012-03-04-1030-00M.COL___191                                                 6
 STAT SP IPHASW D HRMM SECON CODA AMPLIT PERI AZIMU VELO SNR AR TRES W  DIS CAZ7
 BAR2 SZ EP   1   1036 47.95                             174    -0.2 7   14 180 
 BAR2 SZ ES   1   1037  1.80                             174    -0.6 7   14 180 
 BAR2 SZ I        1037  6.15         4.6 0.18                            14 180 
 BRR  HZ EP   1   1036 49.93                             150    -0.1 7   72 306 
 BRR  HN ES   1   1037  6.33                             150     0.6 7   72 306 
 BRR  HZ I        1037  9.03         4.6 0.20                            72 306 
 RUS  HZ EP   1   1036 52.31                             144     0.3 7   93 173 
 RUS  HN ES   1   1037  9.73                             144     0.4 7   93 173 
 PTB  HZ EP   1   1036 54.97                             131    -0.5 7  142 262 
 PTB  HN ES   1   1037 15.50                             131     0.0 7  142 262 
 ZAR  HZ EP   1   1037  2.01                             120     0.4 6  204 295 
 ZAR  HN ES   2   1037 26.08                             120    -0.3 4  204 295 
 ZAR  HZ I        1037 32.24         3.8 0.51                           204 295 
                                                                                
