 2012  7 4 1227 34.8 L   6.972 -73.494 14.0  RSN  6 0.4 1.0LRSN                1
 GAP=123        0.97       3.8     3.2  7.0  0.6700E+01  0.3468E+01  0.1597E+01E
 Epicentro: SAN VICENTE DE CHUCURI - SANTANDER                                 3
 ACTION:UPD 12-08-14 11:42 OP:ep   STATUS:               ID:20120704122734 L   I
 2012-07-04-1220-00M.COL___200                                                 6
 STAT SP IPHASW D HRMM SECON CODA AMPLIT PERI AZIMU VELO AIN AR TRES W  DIS CAZ7
 BRR  HZ EP       1227 39.87                             112    -0.210   28 302 
 BRR  HN ES   1   1227 44.23                             112     0.2 7   28 302 
 BAR2 SZ EP   1   1227 43.91                             102    -0.1 7   54 141 
 BAR2 SZ ES   1   1227 50.71                             102    -0.5 7   54 141 
 BAR2 SZ I        1227 51.73         7.2 0.34             91             54 141 
 PAM  SZ EP   1   1227 50.60                              96    -0.1 7   97  65 
 PAM  SZ I        1228  3.31         4.7 0.16             90             97  65 
 PTB  HZ EP       1227 53.55                              95     0.410  117 246 
 PTB  HN ES   1   1228  7.00                              95    -0.5 7  117 246 
 PTB  HZ I        1228 10.05         4.3 0.13             90            117 246 
 RUS  HZ EP   1   1227 56.34                              95     1.0 7  128 159 
 RUS  HN ES   1   1228 11.33                              95     0.0 7  128 159 
 ZAR  HE ES   1   1228 18.37                              56    -0.2 7  161 291 
