 2014  3 4 1112 34.5 L   6.812 -73.160139.7  RSN 18 0.5 2.5LRSN                1
 GAP= 53        1.21       2.9     3.1  5.6 -0.1606E+01  0.3317E+01 -0.1349E+01E
 Epicentro: LOS SANTOS - SANTANDER                                             3
 OLDACT:REG 14-03-04 15:12 OP:stll STATUS:               ID:20140304110812     3
 ACTION:UPD 14-04-09 23:14 OP:nd   STATUS:               ID:20140304111234 L   I
 OLDACT:UP  14-03-04 17:35 OP:stll STATUS:               ID:20140304110812     3
 2014-03-04-1108-12M.COL___229                                                 6
 STAT SP IPHASW D HRMM SECON CODA AMPLIT PERI AZIMU VELO AIN AR TRES W  DIS CAZ7
 BAR2 SZ EP       1112 53.94                             170    0.5610 24.4 186 
 BAR2 SZ ES       1113  7.75                             170   -0.4010 24.4 186 
 BAR2 SZ I        1113  9.46       120.7 0.28            158           24.4 186 
 PAM  SZ EP       1112 56.69                             150    0.6610 77.4  41 
 PAM  SN ES       1113 13.31                             150    0.4510 77.4  41 
 PAM  SZ I        1113 15.61        78.0 0.46            128           77.4  41 
 RUS  HZ EP       1112 57.58                             142   -0.1410  102 175 
 RUS  HN ES       1113 15.91                             142    0.0410  102 175 
 RUS  SZ I        1113 17.16        30.8 0.86            122            102 175 
 PTB  HZ EP       1113  0.83                             131    0.01 9  146 258 
 PTB  HN ES       1113 21.29                             131   -0.09 9  146 258 
 PTB  SZ I        1113 24.30        44.7 0.18            115            146 258 
 TAM  HZ IP     D 1113  2.24                             129    0.40 9  157 105 
 TAM  SZ I        1113 22.50        21.8 2.22            109            157 105 
 TAM  HN ES       1113 23.13                             129   -0.06 9  157 105 
 OCA  HZ EP       1113  2.38                             128    0.21 9  159 354 
 OCA  HN ES       1113 23.82                             128    0.04 9  159 354 
 OCA  SZ I        1113 27.23        41.4 0.32            111            159 354 
 SPBC HZ EP       1113  2.49                             128   -0.01 9  163 218 
 SPBC HE ES       1113 24.01                             128   -0.37 9  163 218 
 ZAR  HZ EP       1113  6.31                             121   -0.01 9  202 292 
 ZAR  HE ES       1113 31.13                             121   -0.03 9  202 292 
 ZAR  SZ I        1113 38.62        30.3 0.24            107            202 292 
 NOR  HZ EP       1113  9.99                             117    0.20 8  234 234 
 NOR  HE ES       1113 36.84                             117   -0.51 8  234 234 
 NOR  SZ I        1113 41.56        13.6 0.26            104            234 234 
 SML  HZ EP       1113 10.26                             116   -0.29 8  242 335 
 SML  HE ES       1113 38.44                             116   -0.26 8  242 335 
 SML  SZ I        1113 42.10        34.4 0.10            103            242 335 
 CHI  HZ EP   1   1113 11.73                             116   -0.19 6  249 195 
 CHI  SZ I        1113 40.17        10.3 2.36            102            249 195 
 CHI  HN ES       1113 40.94                             116   -0.20 8  249 195 
 HEL  HZ EP       1113 15.36                             114    1.12 8  271 255 
 HEL  SZ I        1113 43.59        28.0 2.52            102            271 255 
 HEL  HE ES       1113 44.44                             114   -0.82 8  271 255 
 GUY2CHZ EP       1113 19.53                             111    1.79 7  301 234 
 GUY2CHE ES       1113 51.34                             111   -0.15 7  301 234 
 GUY2CSZ I        1113 58.73        11.1 0.72                           301 234 
 SOCV BZ EP       1113 16.41                             111   -0.89 7  302  57 
 SOCV BZ ES   4   1113 46.85                             111   -3.87 0  302  57 
 PTGC HZ EP       1113 17.40                             110   -0.85 7  310 158 
 PTGC SZ I        1113 57.12        28.5 0.32             99            310 158 
 CBOC HZ EP       1113 21.17                             109    0.16 7  333 252 
 COD  HZ EP       1113 21.25                             108   -1.19 6  347 355 
 COD  SZ I        1114 14.14         7.4 2.04             98            347 355 
 SDV  BZ IP     C 1113 23.78                             107   -0.54 6  361  50 
 SDV  BE ES   4   1113 59.88                             107   -3.33 0  361  50 
                                                                                
