 2014  2 4 1247 18.4 L   6.808 -73.195138.3  RSN  4 0.2 1.5LRSN                1
 GAP=145        0.61       3.7     3.5  5.2 -0.3983E+01  0.5218E+01 -0.1882E+01E
 Epicentro: ZAPATOCA - SANTANDER                                               3
 ACTION:UPD 14-03-10 08:07 OP:ep   STATUS:               ID:20140204124718 L   I
 OLDACT:REG 14-02-04 15:12 OP:nd   STATUS:               ID:20140204124000     3
 2014-02-04-1240-00M.COL___288                                                 6
 STAT SP IPHASW D HRMM SECON CODA AMPLIT PERI AZIMU VELO AIN AR TRES W  DIS CAZ7
 BAR2 SZ EP       1247 37.11                             170    0.0110 23.9 177 
 BAR2 SZ ES       1247 51.47                             170   -0.2510 23.9 177 
 BAR2 SZ I        1247 53.95        14.3 0.32            171           23.9 177 
 PAM  SZ EP       1247 40.19                             148    0.2210 80.3  43 
 PAM  SN ES       1247 56.81                             148   -0.0110 80.3  43 
 PAM  SZ I        1247 59.37         6.8 0.58            153           80.3  43 
 RUS  HZ EP       1247 41.50                             142    0.0210  102 173 
 RUS  HN ES       1247 59.64                             142    0.1210  102 173 
 RUS  HZ I        1248  2.51         2.4 0.22            145            102 173 
 PTB  HZ EP       1247 43.82                             131   -0.43 9  143 258 
 PTB  HN ES       1248  4.76                             131    0.31 9  143 258 
 PTB  HZ I        1248  8.99         4.4 0.26            133            143 258 
                                                                                
