 2017  1 4 1026 52.8 L   6.442 -73.572110.0  RSN  5 0.4 1.0LRSN                1
 GAP=138        0.85       6.2     4.3  9.2  0.1158E+02  0.1293E+02 -0.1063E+02E
 Epicentro: SANTA HELENA DEL OPON - SANTANDER                                  3
 ACTION:UPD 17-05-22 15:55 OP:jn   STATUS:               ID:20170104102652 L   I
 OLDACT:REG 17-01-04 20:43 OP:dnl  STATUS:               ID:20170104101741     3
 2017-01-04-1018-00M.COL___366                                                 6
 STAT SP IPHASW D HRMM SECON CODA AMPLIT PERI AZIMU VELO AIN AR TRES W  DIS CAZ7
 BAR2 EZ IP     C 1027  9.25                             156    0.2010 46.2  69 
 BAR2 EZ ES       1027 21.75                             156    0.0410 46.2  69 
 BAR2 EZ I        1027 22.86         7.0 0.44            155           46.2  69 
 BRR  HZ EP       1027  9.96                             143   -0.5510 75.2 348 
 BRR  HE ES   3   1027 23.56                             143   -0.76 2 75.2 348 
 BRR  HZ I        1027 29.41         5.0 0.32            142           75.2 348 
 RUS  HZ EP   2   1027 12.20                             141    0.53 5 81.3 138 
 RUS  HN ES       1027 26.48                             141    0.1010 81.3 138 
 RUS  HZ I        1027 28.87         0.8 0.42            148           81.3 138 
 PTB  HZ EP       1027 12.12                             135   -0.2910 98.4 276 
 PTB  HE ES       1027 27.60                             135   -0.0910 98.4 276 
 PTB  HZ I        1027 28.17         1.3 0.30            138           98.4 276 
 ZAR  HZ EP   4   1027 22.87                             116    1.93 0  184 309 
 ZAR  HE ES       1027 43.53                             116    0.66 9  184 309 
 ZAR  HZ I        1027 48.34         1.5 0.26            118            184 309 
                                                                                
