 2013 10 4 1645 24.4 L   6.751 -73.482106.2  RSN  8 0.7 1.8LRSN 2.4WRSN        1
 SPEC AVERAGE  MO 12.7 ST 83.6 OM  1.2 f0 17.0 R0.1816 AL 0.00 WI 20.0 MW  2.4 3
 SPEC SD       MO  0.3 ST139.0 OM  0.4 f0 12.8 R0.1008 AL      WI      MW  0.2 3
 GAP= 79        1.73       6.2     5.1 10.0 -0.1903E+01  0.1234E+02  0.1559E+01E
 Epicentro: EL CARMEN DE CHUCURI - SANTANDER                                   3
 SPEC BAR2SH Z MO 12.9 ST 54.6 OM  1.2 f0 21.9 R0.0879 AL-0.00 WI 20.0 MW  2.6 3
 SPEC BAR2SH Z T164551 K 0.050 GD  112 VS 5.20 DE 3.20 Q0750.0 QA 1.50 VS 5.20 3
 SPEC BRR HH Z MO 12.9 ST  3.6 OM  1.2 f0 8.77 R0.2194 AL-0.00 WI 20.0 MW  2.6 3
 SPEC BRR HH Z T164550 K 0.050 GD  116 VS 5.20 DE 3.20 Q0750.0 QA 1.50 VS 5.20 3
 SPEC RUS HH Z MO 12.2 ST0.664 OM  0.4 f0 8.47 R0.2272 AL-0.00 WI 20.0 MW  2.1 3
 SPEC RUS HH Z T164558 K 0.050 GD  149 VS 5.20 DE 3.20 Q0750.0 QA 1.50 VS 5.20 3
 SPEC PAM SH Z MO 12.7 ST0.574 OM  0.8 f0 5.91 R0.3255 AL-0.00 WI 20.0 MW  2.4 3
 SPEC PAM SH Z T164559 K 0.050 GD  151 VS 5.20 DE 3.20 Q0750.0 QA 1.50 VS 5.20 3
 SPEC PTB HH Z MO 13.0 ST358.6 OM  1.1 f0 40.0 R0.0481 AL-0.00 WI 20.0 MW  2.6 3
 SPEC PTB HH Z T164557 K 0.050 GD  152 VS 5.20 DE 3.20 Q0750.0 QA 1.50 VS 5.20 3
 OLDACT:REG 13-10-04 14:02 OP:stll STATUS:               ID:20131004163848     3
 ACTION:UPD 13-11-25 09:19 OP:ep   STATUS:               ID:20131004164524 L   I
 OLDACT:UP  13-10-04 21:28 OP:stll STATUS:               ID:20131004163848     3
 2013-10-04-1638-48M.COL___232                                                 6
 STAT SP IPHASW D HRMM SECON CODA AMPLIT PERI AZIMU VELO AIN AR TRES W  DIS CAZ7
 BAR2 SZ IP     C 1645 40.38                             159    0.5610 37.5 118 
 BAR2 SZ ES       1645 52.58                             159    0.7510 37.5 118 
 BAR2 SZ I        1645 53.32        66.4 0.18            159           37.5 118 
 BRR  HZ IP     D 1645 40.13                             154    0.2110 46.9 327 
 BRR  HN ES       1645 52.35                             154    0.3410 46.9 327 
 BRR  SZ I        1645 53.36        22.6 0.12            156           46.9 327 
 RUS  HZ EP       1645 45.29                             132    0.3910  105 155 
 RUS  HN ES       1646  0.41                             132   -0.4610  105 155 
 RUS  SZ I        1646  5.77         6.3 3.42            133            105 155 
 PAM  SZ EP       1645 45.20                             131   -0.0110  108  53 
 PAM  SN ES       1646  1.10                             131   -0.3310  108  53 
 PAM  SZ I        1646  4.93         9.2 0.30            132            108  53 
 PTB  HZ IP     C 1645 44.06                             130   -0.7110  110 258 
 PTB  HN ES       1645 59.05                             130   -1.5910  110 258 
 PTB  SZ I        1646  0.03        17.6 0.10            132            110 258 
 ZAR  HZ EP       1645 51.41                             117    0.26 9  173 298 
 ZAR  HN ES       1646 12.85                             117    0.84 9  173 298 
 ZAR  SZ I        1646 15.61         7.9 0.14            119            173 298 
 CAPV BZ EP       1645 51.08                             116   -0.97 9  178  46 
 GUY2CHZ EP       1646  3.38                             106    0.74 8  268 231 
 GUY2CHE ES       1646 32.86                             106    0.41 8  268 231 
 GUY2CSZ I        1646 39.79         4.9 3.54                           268 231 
                                                                                
