 2017 10 4 1052 25.4 L   6.841 -73.024144.3  RSN  5 0.2 1.3LRSN                1
 GAP=254        0.52       3.7     3.9  7.2  0.6076E+01  0.4441E+01 -0.3892E+01E
 Epicentro: CEPITA - SANTANDER                                                 3
 ACTION:UPD 17-11-07 19:28 OP:rebc STATUS:               ID:20171004105225 L   I
 OLDACT:REG 17-10-04 19:54 OP:osc  STATUS:               ID:20171004104737     3
 2017-10-04-1048-00M.COL___434                                                 6
 STAT SP IPHASW D HRMM SECON CODA AMPLIT PERI AZIMU VELO AIN AR TRES W  DIS CAZ7
 RUS  HZ EP       1052 49.14                             142   -0.2310  105 184 
 RUS  HN ES       1053  8.07                             142    0.0310  105 184 
 RUS  HZ I        1053  9.70         2.5 0.20            143            105 184 
 SPBC HZ EP       1052 55.16                             127    0.17 9  175 221 
 SPBC HE ES       1053 18.08                             127    0.03 9  175 221 
 SPBC HZ I        1053 22.31         3.1 0.16            128            175 221 
 ZAR  HE ES       1053 25.20                             121    0.15 8  215 290 
 NOR  HE ES       1053 31.15                             117   -0.36 8  248 235 
 CHI  HE ES       1053 34.23                             116    0.25 8  257 198 
                                                                                
