 2017 12 4 1742  4.4 L   6.778 -73.178135.3  RSN  9 0.5 1.6LRSN                1
 GAP=110        1.18       4.5     4.3  7.6  0.3161E+01  0.8313E+01 -0.2124E+01E
 Epicentro: LOS SANTOS - SANTANDER                                             3
 ACTION:UPD 18-01-04 13:17 OP:rebc STATUS:               ID:20171204174204 L   I
 OLDACT:DUP 17-12-04 23:48 OP:lv   STATUS:               ID:20171204173546d    3
 OLDACT:REG 17-12-04 21:40 OP:lv   STATUS:               ID:20171204173545     3
 2017-12-04-1738-00M.COL___479                                                 6
 STAT SP IPHASW D HRMM SECON CODA AMPLIT PERI AZIMU VELO AIN AR TRES W  DIS CAZ7
 BAR2 EZ EP       1742 23.00                             171    0.2610 20.6 181 
 BAR2 EZ ES       1742 37.28                             171    0.2610 20.6 181 
 BAR2 EZ I        1742 38.47        13.1 0.20            171           20.6 181 
 PAM  EZ EP       1742 25.67                             147   -0.1310 81.5  40 
 PAM  EN ES       1742 42.31                             147   -0.1610 81.5  40 
 PAM  EZ I        1742 44.46         7.9 0.74            150           81.5  40 
 RUS  HZ EP       1742 26.94                             142   -0.0610 98.5 174 
 RUS  HE ES       1742 44.09                             142   -0.5210 98.5 174 
 RUS  HZ I        1742 46.69         4.1 0.42            143           98.5 174 
 PTB  HZ EP       1742 29.49                             130   -0.69 9  144 259 
 PTB  HE ES       1742 49.60                             130   -0.67 9  144 259 
 PTB  HZ I        1742 53.85         3.1 0.46            131            144 259 
 SPBC HN ES       1742 53.47                             127    0.43 9  159 219 
 YPLC HZ EP       1742 33.11                             124   -0.33 9  177 150 
 YPLC HN ES       1742 56.87                             124    0.79 9  177 150 
 YPLC HZ I        1742 59.49         4.4 0.28            126            177 150 
 ZAR  HZ EP       1742 35.91                             120   -0.04 9  202 293 
 ZAR  HN ES       1743  1.39                             120    0.85 9  202 293 
 ZAR  HZ I        1743  3.88         3.7 0.18            122            202 293 
 URE  HZ EP       1742 45.17                             112    0.44 7  281 293 
 URE  HN ES   4   1743 14.67                             112   -1.49 0  281 293 
 URE  HZ I        1743 17.41         2.6 0.12            113            281 293 
 SJC  HZ EP   4   1742 57.24                             104   -2.42 0  409 328 
 SJC  HN ES   4   1743 37.97                             104   -4.78 0  409 328 
 SJC  HZ I        1743 42.95         1.8 0.56            105            409 328 
                                                                                
