 2010  4 4 1916 32.5 L   6.804 -73.029147.1  RSN  4 0.1 1.8LRSN                1
 GAP=264        0.36       4.7     7.7  8.2 -0.4294E+01 -0.1233E+02  0.2643E+02E
 Epicentro: CEPITA - SANTANDER                                                 3
 ACTION:UPD 10-08-24 09:57 OP:vdl  STATUS:               ID:20100404191632 L   I
 2010-04-04-1915-01S.COL___098                                                 6
 STAT SP IPHASW D HRMM SECON CODA AMPLIT PERI AZIMU VELO AIN AR TRES W  DIS CAZ7
 BAR2 SZ IP       1916 52.43                             169     0.010   29 216 
 BRR  HZ EP   1   1916 54.56                             154     0.1 7   83 294 
 BRR  HE ES   2   1917 11.46                             154    -0.2 5   83 294 
 BRR  HZ I        1917 16.10        11.0 0.12                            83 294 
 CHI  HZ EP   1   1917 10.45                             118    -0.3 6  253 198 
 CHI  HE ES   2   1917 40.70                             118     0.2 4  253 198 
 CHI  HZ I        1917 42.99         2.6 0.52                           253 198 
 PRA  HZ EP   1   1917 26.98                             107     0.1 4  399 211 
 PRA  HE ES   2   1918  9.29                             107     0.0 3  399 211 
 PRA  HZ I        1918 12.81         2.8 0.53                           399 211 
                                                                                
