 2015  4 4 1045 17.8 L   6.822 -73.142140.8  RSN  9 0.5 1.3LRSN                1
 GAP=136        1.17       4.2     4.8  6.9 -0.2200E+01  0.9996E+01 -0.5146E+01E
 Epicentro: LOS SANTOS - SANTANDER                                             3
 ACTION:UPD 15-06-03 16:52 OP:cam  STATUS:               ID:20150404104517 L   I
 OLDACT:REG 15-04-04 21:20 OP:fm   STATUS:               ID:20150404103740     3
 2015-04-04-1037-40M.COL___279                                                 6
 STAT SP IPHASW D HRMM SECON CODA AMPLIT PERI AZIMU VELO AIN AR TRES W  DIS CAZ7
 BAR2 EZ EP       1045 37.39                             169    0.4810 25.8 190 
 BAR2 EZ ES       1045 51.87                             169    0.0710 25.8 190 
 BAR2 EZ I        1045 53.44         5.5 0.42            172           25.8 190 
 BRR  HZ EP       1045 38.61                             152    0.2110 70.5 297 
 BRR  HE ES       1045 54.96                             152    0.5210 70.5 297 
 BRR  HZ I        1045 59.84         6.3 0.14            150           70.5 297 
 PAM  SZ EP     C 1045 40.29                             151    0.9110 75.2  40 
 PAM  SE ES       1045 55.74                             151   -0.4610 75.2  40 
 PAM  SZ I        1045 59.39         3.3 0.26            152           75.2  40 
 RUS  HZ EP   1   1045 41.21                             142   -0.06 7  103 176 
 RUS  HN ES       1045 58.91                             142   -0.6510  103 176 
 RUS  HZ I        1046  1.64         1.5 0.24            148            103 176 
 PTB  HZ EP       1045 44.87                             131    0.39 9  149 258 
 PTB  HE ES       1046  4.96                             131   -0.31 9  149 258 
 PTB  HZ I        1046  7.87         2.6 0.32            132            149 258 
 OCA  HZ EP       1045 44.84                             129   -0.69 9  158 353 
 ZAR  HN ES       1046 15.10                             121    0.18 9  204 291 
 ZAR  HZ I        1046 21.72         2.9 0.36            123            204 291 
 SML  HZ EP       1045 53.89                             117   -0.07 8  242 335 
 SML  HE ES       1046 21.50                             117   -0.64 8  242 335 
 SML  HZ I        1046 29.37         3.1 0.10            118            242 335 
 GUY2CHZ EP       1046  1.15                             111   -0.26 7  303 234 
 GUY2CHE ES       1046 35.23                             111   -0.18 7  303 234 
 GUY2CHZ I        1046 44.04         0.9 0.68                           303 234 
                                                                                
