 2012  7 4 1338  7.5 L   6.746 -73.161141.9  RSN  6 0.4 1.7LRSN                1
 GAP=137        0.92       6.1     5.4  9.0  0.2779E+01  0.9723E+01  0.2245E+00E
 Epicentro: VILLANUEVA - SANTANDER                                             3
 ACTION:UPD 12-08-14 11:42 OP:ep   STATUS:               ID:20120704133807 L   I
 2012-07-04-1335-59S.COL___215                                                 6
 STAT SP IPHASW D HRMM SECON CODA AMPLIT PERI AZIMU VELO AIN AR TRES W  DIS CAZ7
 BAR2 SZ EP   1   1338 26.45                             173    -0.2 7   17 188 
 BAR2 SZ ES   1   1338 41.33                             173    -0.1 7   17 188 
 BAR2 SZ I        1338 42.40        17.2 0.39            172             17 188 
 BRR  HZ EP   1   1338 28.67                             151     0.3 7   73 303 
 BRR  HN ES   1   1338 45.37                             151     0.7 7   73 303 
 BRR  HZ I        1338 50.16        18.9 0.14            151             73 303 
 PAM  SZ EP   1   1338 29.83                             148     0.1 7   83  38 
 PAM  SN ES   1   1338 46.47                             148    -0.5 7   83  38 
 RUS  HZ EP   1   1338 30.95                             145     0.4 7   95 175 
 RUS  HN ES   1   1338 48.48                             145     0.1 7   95 175 
 RUS  HZ I        1338 50.75         4.5 0.31            148             95 175 
 PTB  HZ EP   1   1338 33.47                             132    -0.5 7  145 261 
 PTB  HN ES   1   1338 54.02                             132    -0.5 7  145 261 
 PTB  HZ I        1338 57.28         5.5 0.15            133            145 261 
 ZAR  HN ES   1   1339  5.08                             121     0.1 6  205 294 
