 2012  6 4 1134  5.4 L   6.785 -73.214139.6  RSN  6 0.3 1.5LRSN                1
 GAP=128        0.63       3.6     3.8  9.1 -0.1673E-01  0.1058E+02  0.4103E+01E
 Epicentro: ZAPATOCA - SANTANDER                                               3
 ACTION:UPD 12-08-06 17:47 OP:ep   STATUS:               ID:20120604113408 L   I
 2012-06-04-1130-00M.COL___201                                                 6
 STAT SP IPHASW D HRMM SECON CODA AMPLIT PERI AZIMU VELO AIN AR TRES W  DIS CAZ7
 BAR2 SZ EP   1   1134 24.23                             171    0.02 7 21.6 171 
 BAR2 SZ I        1134 41.06         8.5 0.18            170           21.6 171 
 PAM  SZ EP   1   1134 27.25                             148   -0.07 7 83.6  43 
 PAM  SZ I        1134 27.50         8.8 0.21            147           83.6  43 
 PAM  SN ES   1   1134 44.18                             148   -0.26 7 83.6  43 
 RUS  HZ EP   1   1134 28.72                             143    0.27 7 99.7 172 
 RUS  HN ES   1   1134 46.87                             143    0.42 7 99.7 172 
 RUS  HZ I        1134 48.82         3.2 0.27            142           99.7 172 
 PTB  HZ EP   1   1134 31.05                             132   -0.07 7  140 259 
 PTB  HN ES   1   1134 50.80                             132   -0.41 7  140 259 
 PTB  HZ I        1134 55.02         2.8 0.14            132            140 259 
 ZAR  HN ES   1   1135  1.72                             122    0.49 6  198 293 
 CHI  HN ES   1   1135 10.69                             116   -0.50 6  245 194 
                                                                                
