 2015 11 4 1100  6.2 L   6.767 -73.121138.7  RSN  8 0.5 1.8LRSN                1
 GAP=160        0.92       5.0     4.8  6.5 -0.2316E+01  0.1066E+02  0.6190E+01E
 Epicentro: LOS SANTOS - SANTANDER                                             3
 ACTION:UPD 15-12-28 16:08 OP:cam  STATUS:               ID:20151104110006 L   I
 OLDACT:UP  15-11-04 23:06 OP:dnl  STATUS:               ID:20151104105750     3
 OLDACT:REG 15-11-04 21:07 OP:ar   STATUS:               ID:20151104105750     3
 2015-11-04-1057-50M.COL___307                                                 6
 STAT SP IPHASW D HRMM SECON CODA AMPLIT PERI AZIMU VELO AIN AR TRES W  DIS CAZ7
 BAR2 EZ EP       11 0 24.80                             171   -0.1510 20.5 199 
 BAR2 EZ ES       11 0 38.99                             171   -0.5710 20.5 199 
 BAR2 EZ I        11 0 41.04        13.9 0.22            168           20.5 199 
 BRR  HZ EP       11 0 26.74                             150   -0.1310 75.4 300 
 BRR  HN ES       11 0 43.68                             150    0.7110 75.4 300 
 BRR  HZ I        11 0 45.46         8.2 0.14            149           75.4 300 
 PAM  EZ EP       11 0 27.68                             149   -0.0910 78.5  36 
 PAM  EN ES       11 0 44.89                             149    0.3210 78.5  36 
 OCA  HN ES   2   11 0 55.78                             127   -0.56 5  164 352 
 OCA  HZ I        11 0 58.95        15.1 0.20            129            164 352 
 ZAR  HZ EP       11 0 38.74                             120    0.10 8  208 293 
 ZAR  HN ES       11 1  3.43                             120   -0.49 8  208 293 
 ZAR  HZ I        11 1  8.99         7.5 0.44            120            208 293 
 NOR  HN ES   2   11 1  8.58                             117   -0.57 4  235 236 
 NOR  HZ I        11 1 13.09         5.8 0.14            117            235 236 
 CHI  HZ EP   2   11 0 43.00                             116   -0.24 4  246 196 
 CHI  HN ES   2   11 1 13.23                             116    1.12 4  246 196 
 CHI  HZ I        11 1 18.22         3.1 0.24            116            246 196 
 GUY2CHZ EP       11 0 49.95                             111    0.41 7  301 236 
 GUY2CHE ES   2   11 1 23.68                             111    0.35 4  301 236 
 GUY2CHZ I        11 1 32.76         2.5 0.32                           301 236 
                                                                                
