 2016  8 4 1102 38.7 L   7.070 -72.863139.3  RSN  5 0.5 1.6LRSN                1
 GAP=159        1.24       6.7     7.1  8.9  0.8578E+01  0.1528E+02  0.3995E+00E
 Epicentro: SANTA BARBARA - SANTANDER                                          3
 ACTION:UPD 16-10-29 15:32 OP:rebc STATUS:               ID:20160804105734 L   I
 OLDACT:UPD 16-08-04 20:42 OP:AR   STATUS:               ID:20160804105734 L   3
 2016-08-04-1058-00M.COL___323                                                 6
 STAT SP IPHASW D HRMM SECON CODA AMPLIT PERI AZIMU VELO AIN AR TRES W  DIS CAZ7
 PAM  EZ EP       11 2 57.65                             165   -0.6010 34.9  31 
 PAM  EE ES       11 3 13.45                             165   -0.0310 34.9  31 
 PAM  EZ I        11 3 22.12         9.9 0.56                          34.9  31 
 BAR2 EZ EP       11 3  0.17                             154    1.0810 63.5 214 
 BAR2 EZ ES       11 3 15.17                             154    0.1910 63.5 214 
 BRR  HZ EP       11 3  0.74                             144    0.0910 93.8 273 
 BRR  HN ES       11 3 17.99                             144    0.2310 93.8 273 
 BRR  HZ I        11 3 27.47        11.5 0.34                          93.8 273 
 RUS  HZ EP       11 3  4.37                             134   -0.0610  132 191 
 RUS  HE ES       11 3 23.84                             134   -0.6510  132 191 
 RUS  HZ I        11 3 23.88         4.0 0.36                           132 191 
 ZAR  HZ EP       11 3 12.99                             118   -0.00 8  225 282 
 ZAR  HE ES       11 3 39.26                             118   -0.47 8  225 282 
 ZAR  HZ I        11 3 43.55         2.9 0.11                           225 282 
                                                                                
