 2014  4 4 1320 58.9 L   6.787 -73.190135.3  RSN  7 0.4 1.9LRSN                1
 GAP=132        0.89       3.1     3.8  7.8 -0.7714E+00  0.1249E+02  0.8325E+00E
 Epicentro: LOS SANTOS - SANTANDER                                             3
 ACTION:UPD 14-05-13 23:06 OP:nd   STATUS:               ID:20140404132058 L   I
 OLDACT:REG 14-04-04 21:11 OP:carl STATUS:               ID:20140404131813     3
 2014-04-04-1318-13M.COL___246                                                 6
 STAT SP IPHASW D HRMM SECON CODA AMPLIT PERI AZIMU VELO AIN AR TRES W  DIS CAZ7
 PAM  SZ EP       1321 20.31                             147    0.0510 81.7  42 
 PAM  SN ES       1321 37.13                             147    0.1810 81.7  42 
 PAM  SZ I        1321 39.66         6.5 0.60            151           81.7  42 
 RUS  HZ EP       1321 21.69                             142    0.1610 99.6 173 
 RUS  HE ES       1321 39.09                             142   -0.1210 99.6 173 
 RUS  HZ I        1321 40.44        10.3 0.24            143           99.6 173 
 PTB  HZ EP       1321 23.98                             131   -0.55 9  143 259 
 PTB  HN ES       1321 44.02                             131   -0.53 9  143 259 
 PTB  HZ I        1321 47.20         8.5 0.18            131            143 259 
 ZAR  HZ EP       1321 30.48                             120    0.24 9  200 293 
 ZAR  HN ES       1321 55.36                             120    0.65 9  200 293 
 ZAR  HZ I        1321 57.54         9.3 0.38            121            200 293 
 NOR  HE ES       1322  1.06                             117    0.57 8  230 234 
 NOR  HZ I        1322  7.00         7.2 0.14            118            230 234 
 SML  HE ES       1322  2.49                             115   -0.45 8  243 336 
 SML  HZ I        1322  5.31        16.2 0.26            117            243 336 
 PRA  HZ EP       1321 51.56                             105   -0.06 6  388 209 
 PRA  HN ES       1322 32.66                             105   -0.10 6  388 209 
 PRA  HZ I        1322 39.08         2.2 0.70            106            388 209 
                                                                                
