 2012  4 4 1805 21.5 L   7.398 -73.599 94.5  RSN  5 0.5 1.4LRSN                1
 GAP=238        0.67      13.9     9.8 10.0  0.1009E+03 -0.6190E+01 -0.3981E+02E
 Epicentro: SABANA DE TORRES - SANTANDER                                       3
 ACTION:UPD 12-07-05 11:50 OP:tino STATUS:               ID:20120404180521 L   I
 2012-04-04-1800-00M.COL___196                                                 6
 STAT SP IPHASW D HRMM SECON CODA AMPLIT PERI AZIMU VELO AIN AR TRES W  DIS CAZ7
 BRR  HZ EP       18 5 34.82                             159    -0.310   35 201 
 BRR  HN ES   1   18 5 46.06                             159     0.4 7   35 201 
 BRR  HZ I        18 5 47.55        18.0 0.14                            35 201 
 BAR2 SZ ES   2   18 5 54.76                             131    -0.2 5  100 153 
 PTB  HZ EP   3   18 5 42.39                             122    -1.0 2  134 225 
 PTB  HN ES   3   18 5 59.65                             122    -0.8 2  134 225 
 PTB  HZ I        18 6  5.61         4.6 0.14                           134 225 
 ZAR  HZ EP   2   18 5 44.29                             121     0.3 5  139 274 
 ZAR  HN ES   2   18 6  1.68                             121     0.2 5  139 274 
 RUS  HZ EP   3   18 5 49.15                             115     0.5 2  176 161 
 RUS  HN ES   3   18 6 10.98                             115     1.2 2  176 161 
 RUS  HZ I        18 6 14.77         2.6 0.24                           176 161 
                                                                                
