 2013  8 4 1816 23.4 L   6.788 -73.167148.0  RSN  6 0.3 1.7LRSN                1
 GAP=180        0.87       5.3     5.1  6.0  0.1201E+02  0.6576E+01  0.2154E+01E
 Epicentro: LOS SANTOS - SANTANDER                                             3
 ACTION:UPD 14-01-14 08:59 OP:ep   STATUS:               ID:20130804181623 L   I
 OLDACT:REG 13-08-04 15:25 OP:cam  STATUS:               ID:20130804180959     3
 2013-08-04-1809-59M.COL___270                                                 6
 STAT SP IPHASW D HRMM SECON CODA AMPLIT PERI AZIMU VELO AIN AR TRES W  DIS CAZ7
 BAR2 SZ EP       1816 43.13                             171   -0.1510 21.8 184 
 BAR2 SZ ES       1816 58.41                             171   -0.3710 21.8 184 
 BAR2 SZ I        1816 59.50         8.4 0.20            170           21.8 184 
 GIR2 SZ EP       1816 43.01                             167   -0.3610 32.2 355 
 GIR2 SZ ES       1816 58.83                             167   -0.1110 32.2 355 
 BRR  HZ EP     C 1816 44.93                             153    0.2110 69.8 300 
 BRR  HN ES       1817  1.91                             153    0.5710 69.8 300 
 BRR  HZ I        1817  2.40        10.8 0.32            149           69.8 300 
 RUS  HZ EP       1816 47.69                             145    0.3810 99.5 175 
 RUS  HE ES       1817  6.20                             145    0.2610 99.5 175 
 RUS  HZ I        1817  6.85         6.6 0.24            145           99.5 175 
 PTB  HZ EP   1   1816 49.72                             133   -0.61 7  145 259 
 PTB  HN ES       1817 10.96                             133   -0.37 9  145 259 
 PTB  HZ I        1817 12.94         9.2 0.12            130            145 259 
 ZAR  HZ EP   1   1816 56.02                             123    0.19 6  202 293 
 ZAR  HN ES       1817 21.28                             123    0.17 9  202 293 
 ZAR  HZ I        1817 31.04         5.7 0.20            121            202 293 
                                                                                
