 2015  4 4 1058 35.9 L   6.793 -73.161141.0  RSN 11 0.5 1.9LRSN                1
 GAP=135        1.13       3.2     4.4  6.2 -0.2596E+01  0.9354E+01 -0.5031E+00E
 Epicentro: LOS SANTOS - SANTANDER                                             3
 ACTION:UPD 15-06-03 16:52 OP:cam  STATUS:               ID:20150404105835 L   I
 OLDACT:REG 15-04-04 21:20 OP:fm   STATUS:               ID:20150404104748     3
 2015-04-04-1047-48M.COL___279                                                 6
 STAT SP IPHASW D HRMM SECON CODA AMPLIT PERI AZIMU VELO AIN AR TRES W  DIS CAZ7
 BAR2 EZ IP     C 1058 55.28                             171    0.3110 22.3 186 
 BAR2 EZ ES       1059 10.38                             171    0.5610 22.3 186 
 BAR2 EZ I        1059 11.53        12.4 0.46            172           22.3 186 
 BRR  HZ IP     C 1058 57.26                             152    0.7510 70.1 300 
 BRR  HN ES       1059 12.66                             152    0.1010 70.1 300 
 BRR  HZ I        1059 19.96        15.3 0.14            148           70.1 300 
 PAM  SZ IP     C 1058 58.25                             149    0.5010 79.1  40 
 PAM  SE ES       1059 14.54                             149   -0.2310 79.1  40 
 PAM  SZ I        1059 16.32         7.8 0.18            152           79.1  40 
 RUS  HZ EP       1058 58.62                             143   -0.5510 99.9 175 
 RUS  HN ES       1059 16.93                             143   -0.3610 99.9 175 
 RUS  HZ I        1059 18.66         7.6 0.34            149           99.9 175 
 PTB  HZ EP       1059  2.03                             131   -0.32 9  146 259 
 PTB  HN ES       1059 22.71                             131   -0.25 9  146 259 
 PTB  HZ I        1059 26.67        10.9 0.18            132            146 259 
 SPBC HZ EP       1059  4.16                             128    0.25 9  161 219 
 SPBC HN ES       1059 25.07                             128   -0.66 9  161 219 
 SPBC HZ I        1059 28.55        10.5 0.26            131            161 219 
 OCA  HN ES       1059 25.39                             128   -0.39 9  161 354 
 OCA  HZ I        1059 31.02        21.4 0.30            129            161 354 
 ZAR  HZ EP       1059  7.76                             121   -0.19 9  203 293 
 ZAR  HN ES       1059 33.50                             121    0.58 9  203 293 
 ZAR  HZ I        1059 40.08        15.2 0.42            122            203 293 
 NOR  HZ EP       1059 11.86                             118    0.67 8  233 234 
 NOR  HE ES       1059 38.31                             118   -0.39 8  233 234 
 NOR  HZ I        1059 43.75         5.3 0.22            120            233 234 
 SML  HZ EP       1059 11.87                             116   -0.44 8  244 336 
 SML  HE ES       1059 40.05                             116   -0.62 8  244 336 
 SML  HZ I        1059 52.03        13.2 0.10            118            244 336 
 GUY2CHZ EP       1059 19.25                             111    0.13 7  299 235 
 GUY2CHE ES       1059 53.27                             111    0.47 7  299 235 
 GUY2CHZ I        11 0  2.59         3.6 0.68                           299 235 
                                                                                
