 2017  1 4 1535 20.2 L   6.775 -73.131141.5  RSN  7 0.5 1.8LRSN                1
 GAP=140        0.99       4.7     4.4  7.5 -0.2142E+01  0.1257E+02 -0.1320E+01E
 Epicentro: LOS SANTOS - SANTANDER                                             3
 ACTION:UPD 17-05-22 15:55 OP:jn   STATUS:               ID:20170104153520 L   I
 OLDACT:REG 17-01-04 20:55 OP:dnl  STATUS:               ID:20170104152748     3
 2017-01-04-1528-00M.COL___366                                                 6
 STAT SP IPHASW D HRMM SECON CODA AMPLIT PERI AZIMU VELO AIN AR TRES W  DIS CAZ7
 BAR2 EZ IP     C 1535 39.23                             171   -0.0110 21.0 196 
 BAR2 EZ ES       1535 54.00                             171   -0.1110 21.0 196 
 BAR2 EZ I        1535 55.57        23.4 0.22            172           21.0 196 
 BRR  HZ EP       1535 41.10                             151    0.0910 74.0 300 
 BRR  HE ES   2   1535 57.91                             151    0.63 5 74.0 300 
 BRR  HZ I        1535 58.51        12.9 0.32            150           74.0 300 
 PAM  EZ EP       1535 42.12                             150    0.1210 78.5  37 
 PAM  EN ES       1535 58.94                             150   -0.0910 78.5  37 
 PAM  EZ I        1536  1.48        13.7 0.46            151           78.5  37 
 RUS  HZ EP       1535 43.27                             144   -0.0210 97.7 177 
 RUS  HN ES       1536  1.58                             144    0.2510 97.7 177 
 RUS  HZ I        1536  2.61         5.8 0.24            147           97.7 177 
 PTB  HZ EP       1535 45.96                             131   -0.93 9  149 260 
 PTB  HE ES       1536  7.28                             131   -0.45 9  149 260 
 PTB  HZ I        1536 10.65         7.2 0.12            132            149 260 
 ZAR  HZ EP   2   1535 53.87                             121    1.27 4  207 293 
 ZAR  HE ES       1536 18.28                             121    0.38 8  207 293 
 ZAR  HZ I        1536 24.02         8.5 0.24            122            207 293 
 GUY2CHZ EP   4   1536  4.94                             111    1.39 0  301 235 
 GUY2CHN ES       1536 38.00                             111    0.61 7  301 235 
 GUY2CHZ  IAML    1536 45.84         2.6 0.48                           301 235 
                                                                                
