 2017  8 4 1411 22.4 L   6.879 -73.102140.0  RSN  7 0.5 1.6LRSN                1
 GAP=138        0.93       4.5     4.3  6.8 -0.2401E+01  0.1304E+02 -0.1464E+01E
 Epicentro: PIEDECUESTA - SANTANDER                                            3
 ACTION:UPD 17-09-04 20:16 OP:rebc STATUS:               ID:20170804141122 L   I
 OLDACT:REG 17-08-04 21:11 OP:y    STATUS:               ID:20170804140743     3
 2017-08-04-1408-00M.COL___363                                                 6
 STAT SP IPHASW D HRMM SECON CODA AMPLIT PERI AZIMU VELO AIN AR TRES W  DIS CAZ7
 BAR2 EZ IP     D 1411 42.28                             166    0.7010 33.0 196 
 BAR2 EZ ES       1411 56.58                             166    0.0410 33.0 196 
 BAR2 EZ I        1412  6.10         6.1 0.28            169           33.0 196 
 PAM  EZ EP       1411 42.92                             153   -0.5110 67.6  41 
 PAM  EE ES       1411 59.75                             153   -0.0810 67.6  41 
 PAM  EZ I        1412  5.87         4.8 0.30            158           67.6  41 
 RUS  HZ EP       1411 46.05                             140   -0.1910  109 179 
 RUS  HN ES       1412  5.13                             140    0.3010  109 179 
 RUS  HZ I        1412  7.78         5.2 0.42            148            109 179 
 PTB  HZ EP       1411 49.22                             130   -0.30 9  154 256 
 PTB  HN ES       1412 10.50                             130   -0.18 9  154 256 
 PTB  HZ I        1412 12.45         5.0 0.14            135            154 256 
 ZAR  HZ EP       1411 55.07                             121    0.45 8  205 289 
 ZAR  HN ES       1412 20.07                             121    0.31 8  205 289 
 ZAR  HZ I        1412 26.41         6.2 0.34            126            205 289 
 NOR  HZ EP       1411 58.45                             116   -0.34 8  244 233 
 NOR  HN ES       1412 26.78                             116   -0.39 8  244 233 
 NOR  HZ I        1412 30.08         2.6 0.20            122            244 233 
 GUY2CHZ EP   3   1412  8.99                             111    2.21 2  310 234 
 GUY2CHN ES   4   1412 44.78                             111    3.39 0  310 234 
 GUY2CHZ I        1412 51.06         1.9 0.46                           310 234 
                                                                                
