 2015  1 4 1749 10.6 L   6.811 -73.173141.8  RSN 12 0.5 2.2LRSN                1
 GAP=133        1.17       3.5     5.2  7.8 -0.1042E+01  0.7190E+01 -0.2788E+01E
 Epicentro: LOS SANTOS - SANTANDER                                             3
 ACTION:UPD 15-03-02 15:36 OP:nd   STATUS:               ID:20150104174910 L   I
 OLDACT:UP  15-01-04 23:23 OP:cam  STATUS:               ID:20150104174820     3
 OLDACT:UP  15-01-04 23:23 OP:cam  STATUS:               ID:20150104174820     3
 OLDACT:REG 15-01-04 20:47 OP:cam  STATUS:               ID:20150104174820     3
 2015-01-04-1748-20M.COL___280                                                 6
 STAT SP IPHASW D HRMM SECON CODA AMPLIT PERI AZIMU VELO AIN AR TRES W  DIS CAZ7
 BAR2 EZ EP       1749 29.79                             170    0.0310 24.2 182 
 BAR2 EZ ES       1749 44.61                             170   -0.1010 24.2 182 
 BAR2 EZ I        1749 46.15        48.5 0.18            166           24.2 182 
 BRR  HZ EP     C 1749 31.66                             153    0.5310 68.0 299 
 BRR  HZ I        1749 52.48        19.5 0.66            141           68.0 299 
 PAM  SZ EP   1   1749 32.93                             150    0.48 7 78.5  42 
 RUS  HZ EP       1749 33.84                             143   -0.2110  102 174 
 RUS  HN ES       1749 52.63                             143    0.2710  102 174 
 RUS  HZ I        1749 53.38        16.0 0.20            136            102 174 
 PTB  HZ EP       1749 36.26                             132   -0.72 9  145 258 
 PTB  HN ES       1749 57.57                             132   -0.00 9  145 258 
 PTB  HZ I        1750  1.57        14.1 0.12            121            145 258 
 OCA  HZ EP       1749 39.22                             129    0.77 9  159 354 
 OCA  HE ES       1749 59.64                             129   -0.54 9  159 354 
 OCA  HZ I        1750  2.76        12.9 0.20            120            159 354 
 SPBC HZ EP       1749 38.73                             128    0.04 9  162 218 
 SPBC HE ES       1750  0.10                             128   -0.51 9  162 218 
 SPBC HZ I        1750  3.44        22.5 0.22            119            162 218 
 ZAR  HN ES       1750  8.10                             122    0.82 9  201 292 
 ZAR  HN I        1750 12.89        20.1 0.40            112            201 292 
 NOR  HZ EP       1749 46.05                             118    0.16 8  233 234 
 NOR  HE ES       1750 13.70                             118    0.26 8  233 234 
 NOR  HZ I        1750 20.36        11.3 0.16            109            233 234 
 SML  HN ES       1750 14.05                             117   -0.89 8  241 336 
 SML  HN I        1750 21.60        28.1 0.26            109            241 336 
 CHI  HZ EP       1749 47.67                             116   -0.43 8  249 194 
 HEL  HZ EP   4   1749 51.87                             114    1.57 0  269 255 
 HEL  HZ I        1750 29.04         5.9 0.58            106            269 255 
                                                                                
