 2017 12 4 1402 36.3 L   6.784 -73.139138.0  RSN  9 0.4 1.9LRSN                1
 GAP=138        0.99       3.6     3.9  6.1 -0.1331E+01  0.8114E+01  0.2501E+01E
 Epicentro: LOS SANTOS - SANTANDER                                             3
 ACTION:UPD 18-01-04 13:17 OP:rebc STATUS:               ID:20171204140236 L   I
 OLDACT:REG 17-12-04 21:27 OP:lv   STATUS:               ID:20171204135742     3
 2017-12-04-1358-00M.COL___482                                                 6
 STAT SP IPHASW D HRMM SECON CODA AMPLIT PERI AZIMU VELO AIN AR TRES W  DIS CAZ7
 BAR2 EZ IP     D 14 2 55.05                             171    0.1310 21.8 193 
 BAR2 EZ ES       14 3  9.02                             171   -0.4510 21.8 193 
 BAR2 EZ I        14 3 11.08        18.4 0.38            169           21.8 193 
 PAM  EZ EP       14 2 57.78                             149    0.0810 78.2  38 
 PAM  EN ES       14 3 14.88                             149    0.4510 78.2  38 
 PAM  EZ I        14 3 17.21         9.8 0.20            154           78.2  38 
 RUS  HZ EP       14 2 59.30                             143    0.1810 98.8 176 
 RUS  HN ES       14 3 16.92                             143   -0.0310 98.8 176 
 RUS  HZ I        14 3 21.08         5.5 0.22            144           98.8 176 
 PTB  HZ EP       14 3  1.96                             130   -0.68 9  148 260 
 PTB  HN ES       14 3 23.14                             130   -0.08 9  148 260 
 PTB  HZ I        14 3 28.95        10.6 0.54            131            148 260 
 SPBC HZ EP       14 3  4.17                             127    0.08 9  162 220 
 SPBC HN ES       14 3 26.09                             127    0.30 9  162 220 
 SPBC HZ I        14 3 28.73        20.7 0.38            128            162 220 
 ZAR  HZ EP       14 3  7.78                             120   -0.57 8  205 293 
 ZAR  HE ES       14 3 33.59                             120    0.21 8  205 293 
 ZAR  HZ I        14 3 39.04        11.8 0.40            122            205 293 
 CHI  HZ EP       14 3 13.48                             116    0.11 8  247 195 
 CHI  HN ES       14 3 41.67                             116   -0.66 8  247 195 
 CHI  HZ I        14 3 52.39         4.3 0.38            117            247 195 
 URE  HZ EP   9   14 3 15.94                             112   -1.17 0  285 292 
 URE  HN ES       14 3 47.07                                   -0.74 7  285 292 
 URE  HZ I        14 3 52.55         6.5 0.14            113            285 292 
 GUY2CHZ EP       14 3 19.73                             111    0.26 7  301 235 
 GUY2CHN ES       14 3 54.07                             111    0.88 7  301 235 
 GUY2CHZ I        14 4  4.00         3.8 0.40                           301 235 
                                                                                
