 2016  1 4 1704 24.1 L   6.781 -73.110136.5  RSN  7 0.4 2.0LRSN                1
 GAP=142        1.10       3.8     5.3  7.4 -0.1346E+01  0.8714E+01 -0.4953E+01E
 Epicentro: LOS SANTOS - SANTANDER                                             3
 ACTION:UPD 16-03-09 23:22 OP:cam  STATUS:               ID:20160104170424 L   I
 OLDACT:REG 16-01-04 22:07 OP:ar   STATUS:               ID:20160104165746     3
 2016-01-04-1657-46M.COL___335                                                 6
 STAT SP IPHASW D HRMM SECON CODA AMPLIT PERI AZIMU VELO AIN AR TRES W  DIS CAZ7
 BAR2 EZ EP     C 17 4 42.41                             170   -0.2010 22.4 201 
 BAR2 EZ ES       17 4 56.82                             170   -0.2210 22.4 201 
 BAR2 EZ I        17 4 58.28        16.6 0.42            170           22.4 201 
 BRR  HZ EP       17 4 44.33                             149   -0.2110 75.6 298 
 BRR  HN ES       17 5  1.25                             149    0.7810 75.6 298 
 BRR  HZ I        17 5  5.31        18.3 0.14            148           75.6 298 
 PAM  EZ EP       17 4 45.26                             149   -0.0510 76.6  36 
 PAM  EN ES       17 5  2.24                             149    0.4110 76.6  36 
 PAM  EZ I        17 5  4.52        22.0 0.68            152           76.6  36 
 RUS  HZ EP       17 4 47.06                             142    0.2610 98.3 178 
 RUS  HN ES       17 5  4.17                             142   -0.3210 98.3 178 
 RUS  HZ I        17 5  6.08        10.1 0.24            146           98.3 178 
 OCA  HZ EP       17 4 52.21                             127    0.23 9  163 352 
 OCA  HE ES       17 5 12.87                             127   -0.83 9  163 352 
 OCA  HZ I        17 5 16.06        25.4 0.50            129            163 352 
 SPBC HN ES       17 5 13.70                             127   -0.06 9  164 221 
 SPBC HZ I        17 5 16.56        10.0 0.10            129            164 221 
 ZAR  HZ EP       17 4 57.06                             120    0.62 8  208 292 
 ZAR  HN ES       17 5 21.17                             120   -0.48 8  208 292 
 ZAR  HZ I        17 5 27.23        11.0 0.12            121            208 292 
                                                                                
