 2010  5 4 1335 52.4 L   6.925 -73.108144.0  RSN  7 0.6 2.0LRSN                1
 GAP=175        1.06      12.1    12.9 10.9 -0.9732E+02  0.2512E+02  0.2317E+01E
 Epicentro: PIEDECUESTA - SANTANDER                                            3
 ACTION:UP  10-08-24 10:02 OP:vdl  STATUS:               ID:20100504133552 L   I
 2010-05-04-1332-02S.COL___105                                                 6
 STAT SP IPHASW D HRMM SECON CODA AMPLIT PERI AZIMU VELO SNR AR TRES W  DIS CAZ7
 GIR2 SZ EP   1   1336 11.33                             173    -0.3 7   19 331 
 GIR2 SZ ES   2   1336 26.44                             173    -0.1 5   19 331 
 BAR2 SZ EP   1   1336 11.89                             164    -0.3 7   38 193 
 BAR2 SZ ES   2   1336 27.71                             164     0.1 5   38 193 
 BRR  HZ EP   1   1336 13.68                             154     0.4 7   70 287 
 BRR  HE ES   2   1336 30.32                             154     0.8 5   70 287 
 BRR  HZ I        1336 32.75        25.8 0.17                            70 287 
 GUE  SZ EP   1   1336 16.63                             143     0.8 7  102  11 
 GRA  SZ EP   1   1336 15.97                             140    -0.3 7  111  18 
 GRA  SZ ES   2   1336 34.21                             140    -0.8 5  111  18 
 HEL  HZ EP   1   1336 32.34                             114    -1.0 6  280 253 
 HEL  HN ES   2   1337  4.53                             114    -0.8 4  280 253 
 HEL  HZ I        1337 10.45         4.8 0.27                           280 253 
 RREF BZ EP   1   1336 40.92                             110     1.1 5  334 228 
                                                                                
