 2010  2 4 1916 20.3 L   6.768 -72.931147.3  RSN  6 0.3 1.9LRSN                1
 GAP=230        0.51       3.4     5.7  6.2 -0.1639E+01  0.1166E+02  0.1863E+01E
 Epicentro: CEPITA - SANTANDER                                                 3
 ACTION:UP  10-08-24 09:47 OP:vdl  STATUS:               ID:20100204191619 L   I
 2010-02-04-1915-01S.COL___097                                                 6
 STAT SP IPHASW D HRMM SECON CODA AMPLIT PERI AZIMU VELO SNR AR TRES W  DIS CAZ7
 BAR2 SZ IP       1916 40.35                             166     0.010   34 235 
 GIR2 SZ EP       1916 40.57                             162     0.010   45 320 
 GIR2 SZ ES   1   1916 56.18                             162    -0.2 7   45 320 
 RUS  BZ EP   1   1916 44.22                             145     0.2 7   98 190 
 RUS  BN ES       1917  2.69                             145     0.110   98 190 
 RUS  BZ I        1917  3.94         8.2 0.40                            98 190 
 CHI  HN ES   2   1917 27.54                             117    -0.8 4  253 201 
 HEL  HE ES   1   1917 36.67                             113     0.2 5  294 258 
 HEL  HZ I        1917 39.47         6.8 0.57                           294 258 
 PRA  HE ES   1   1917 57.32                             106    -0.3 4  401 213 
                                                                                
