 2015  6 4 1015 30.3 L   6.809 -73.159138.6  RSN 11 0.4 2.3LRSN                1
 GAP=134        0.96       2.6     4.3  6.2 -0.2456E+01  0.1431E+02 -0.3332E+01E
 Epicentro: LOS SANTOS - SANTANDER                                             3
 ACTION:UPD 15-09-10 22:09 OP:cam  STATUS:               ID:20150604101530 L   I
 OLDACT:REG 15-06-04 20:27 OP:ar   STATUS:               ID:20150604100749     3
 2015-06-04-1007-49M.COL___294                                                 6
 STAT SP IPHASW D HRMM SECON CODA AMPLIT PERI AZIMU VELO AIN AR TRES W  DIS CAZ7
 BAR2 EZ EP       1015 49.12                             170    0.0310 24.1 186 
 BAR2 EZ ES       1016  3.72                             170   -0.0210 24.1 186 
 BAR2 EZ I        1016  5.44        53.2 0.18            169           24.1 186 
 PAM  SZ EP       1015 52.04                             149    0.2710 77.6  41 
 PAM  SE ES       1016  8.92                             149    0.4010 77.6  41 
 PAM  SZ I        1016  9.59        19.6 0.18            155           77.6  41 
 RUS  HZ EP       1015 53.19                             142   -0.2510  102 175 
 RUS  HE ES       1016 11.42                             142   -0.0610  102 175 
 RUS  HZ I        1016 13.11        16.3 0.26            146            102 175 
 OCA  HZ EP       1015 57.34                             128   -0.61 9  159 354 
 OCA  HN ES       1016 18.84                             128   -0.68 9  159 354 
 OCA  HZ I        1016 23.04        59.4 0.16            131            159 354 
 SPBC HZ EP       1015 58.19                             127   -0.06 9  163 218 
 SPBC HN ES       1016 19.50                             127   -0.54 9  163 218 
 SPBC HZ I        1016 26.11        32.0 0.12            129            163 218 
 ZAR  HZ EP       1016  2.51                             121    0.40 9  202 292 
 ZAR  HN ES       1016 27.03                             121    0.12 9  202 292 
 ZAR  HZ I        1016 32.94        31.0 0.50            123            202 292 
 NOR  HZ EP       1016  5.69                             117    0.13 8  234 234 
 NOR  HN ES       1016 33.77                             117    0.71 8  234 234 
 NOR  HZ I        1016 39.09        16.7 0.18            119            234 234 
 SML  HZ EP       1016  6.75                             116    0.38 8  242 336 
 SML  HE ES       1016 35.18                             116    0.68 8  242 336 
 SML  HZ I        1016 37.22        39.3 0.10            119            242 336 
 URE  HZ EP       1016 10.75                             112   -0.08 7  282 292 
 URE  HN ES   4   1016 40.09                             112   -2.36 0  282 292 
 URE  HZ I        1016 44.60        14.9 0.12            114            282 292 
 GUY2CHZ EP       1016 13.49                             111   -0.03 7  301 234 
 GUY2CHE ES       1016 47.28                             111    0.06 7  301 234 
 GUY2CHZ I        1016 57.07         6.5 0.26                           301 234 
 MON  HE ES       1016 55.76                             107   -0.92 6  352 308 
 MON  HZ I        1016 57.59         4.5 0.40            109            352 308 
                                                                                
