 2013  7 4 1832 37.4 L   7.320 -73.249128.8  RSN  4 0.1 1.4LRSN                1
 GAP=203        0.35       4.5     2.7  3.9 -0.5767E+01  0.3142E+01 -0.2816E+01E
 Epicentro: RIONEGRO - SANTANDER                                               3
 ACTION:UPD 13-08-12 10:35 OP:ep   STATUS:               ID:20130704183237 L   I
 OLDACT:REG 13-07-04 19:39 OP:jn   STATUS:               ID:20130704182959     3
 2013-07-04-1829-59M.COL___267                                                 6
 STAT SP IPHASW D HRMM SECON CODA AMPLIT PERI AZIMU VELO AIN AR TRES W  DIS CAZ7
 BRR  HZ EP   1   1832 55.98                             155    0.06 7 56.3 245 
 BRR  HN ES   1   1833 10.35                             155    0.01 7 56.3 245 
 PAM  SZ EP   1   1832 57.05                             154    0.19 7 60.7  88 
 PAM  SN ES   1   1833 11.87                             154   -0.15 7 60.7  88 
 PAM  SZ I        1833 13.19         4.2 0.32            156           60.7  88 
 BAR2 SZ EP   1   1832 57.74                             146   -0.00 7 80.8 175 
 BAR2 SZ ES   1   1833 13.61                             146    0.02 7 80.8 175 
 BAR2 SZ I        1833 14.10         8.7 0.24            148           80.8 175 
 PTB  HZ EP   1   1833  3.92                             126   -0.24 7  159 237 
 PTB  HN ES   1   1833 25.09                             126    0.08 7  159 237 
 PTB  HZ I        1833 27.61         2.0 0.18            126            159 237 
                                                                                
