 2011 10 4 1342 55.7 L   6.651 -73.082141.8  RSN  4 0.4 1.6LRSN                1
 GAP=151        0.76       5.2     8.1  8.2 -0.1641E+00 -0.4962E+01 -0.8585E+00E
 Epicentro: CURITI - SANTANDER                                                 3
 ACTION:UPD 12-07-13 16:01 OP:ep   STATUS:               ID:20111004134255 L   I
 2011-10-04-1340-00M.COL___161                                                 6
 STAT SP IPHASW D HRMM SECON CODA AMPLIT PERI AZIMU VELO AIN AR TRES W  DIS CAZ7
 BAR2 SZ EP   1   1343 15.45                             175    0.79 7 12.9 240 
 BAR2 SZ ES   1   1343 29.71                             175    0.24 7 12.9 240 
 BAR2 SZ I        1343 33.75         9.4 0.46                          12.9 240 
 RUS  HZ EP   1   1343 17.35                             148   -0.53 7 83.8 180 
 RUS  HN ES   1   1343 35.12                             148   -0.08 7 83.8 180 
 BRR  HZ EP   1   1343 17.42                             147    0.09 7 86.0 306 
 BRR  HZ I        1343 17.72        14.8 0.16                          86.0 306 
 BRR  HN ES   1   1343 33.91                             147   -0.29 7 86.0 306 
 PAM  SZ EP   1   1343 18.03                             147   -0.06 7 87.1  29 
 PAM  SN ES   1   1343 35.42                             147   -0.15 7 87.1  29 
 PAM  SZ I        1343 37.28         3.3 0.16                          87.1  29 
                                                                                
