 2012  4 4 1804  2.8 L   6.798 -73.149144.0  RSN 10 0.4 2.3LRSN                1
 GAP=136        0.95       4.1     5.5  6.5 -0.4717E+01  0.1118E+02  0.2311E+01E
 Epicentro: LOS SANTOS - SANTANDER                                             3
 ACTION:UPD 12-07-05 11:50 OP:tino STATUS:               ID:20120404180402 L   I
 2012-04-04-1800-00M.COL___196                                                 6
 STAT SP IPHASW D HRMM SECON CODA AMPLIT PERI AZIMU VELO AIN AR TRES W  DIS CAZ7
 BAR2 SZ IP       18 4 22.30                             170     0.010   23 189 
 BAR2 SZ ES   1   18 4 36.97                             170    -0.4 7   23 189 
 BAR2 SZ I        18 4 38.53        70.6 0.22                            23 189 
 BRR  HZ IP     C 18 4 24.16                             152     0.410   71 299 
 BRR  HN ES   1   18 4 40.81                             152     0.7 7   71 299 
 BRR  HZ I        18 4 43.43        44.9 0.24                            71 299 
 PAM  SZ EP       18 4 25.10                             150     0.210   78  40 
 PAM  SN ES   1   18 4 42.08                             150     0.0 7   78  40 
 RUS  HZ IP     C 18 4 26.24                             144    -0.210  100 176 
 RUS  HZ I        18 4 27.41        18.7 0.10                           100 176 
 RUS  HN ES   1   18 4 45.00                             144     0.2 7  100 176 
 PTB  HZ EP       18 4 28.94                             132    -0.7 9  147 259 
 PTB  HN ES   2   18 4 49.60                             132    -0.9 5  147 259 
 PTB  HZ I        18 4 55.61        20.0 0.40                           147 259 
 OCA  SZ EP       18 4 30.80                             129    -0.2 9  160 353 
 OCA  SZ ES   1   18 4 52.65                             129    -0.4 7  160 353 
 ZAR  HZ EP   2   18 4 35.42                             122     0.3 4  204 292 
 ZAR  HZ I        18 5  6.40        26.1 0.54                           204 292 
 NOR  SZ EP       18 4 38.30                             118    -0.1 8  234 234 
 NOR  SN ES   1   18 5  6.33                             118     0.1 6  234 234 
 CHI  HZ EP       18 4 40.47                             117     0.1 8  248 195 
 CHI  HZ I        18 5 15.63        10.0 0.26                           248 195 
 HEL  HZ EP       18 4 43.52                             114     0.6 8  272 256 
 HEL  HN ES   3   18 5 14.79                             114     0.6 2  272 256 
 HEL  HZ I        18 5 20.72        15.2 0.64                           272 256 
                                                                                
