 2010  9 4 1909 53.2 L   6.582 -73.411154.9  RSN  4 0.3 1.9LRSN                1
 GAP=184        0.46       6.4    11.5  7.6  0.4535E+02  0.4211E+02  0.2583E+02E
 Epicentro: HATO - SANTANDER                                                   3
 ACTION:UP  11-02-18 11:00 OP:tino STATUS:               ID:20100904190953 L   I
 2010-09-04-1906-08S.COL___120                                                 6
 STAT SP IPHASW D HRMM SECON CODA AMPLIT PERI AZIMU VELO SNR AR TRES W  DIS CAZ7
 BRR  HZ IP     C 1910 15.00                             155    -0.110   67 330 
 BRR  HE ES   1   1910 32.21                             155     0.0 7   67 330 
 BRR  HZ I        1910 36.59        11.6 0.08                            67 330 
 RUS  HZ EP   2   1910 17.13                             150     0.4 5   84 155 
 RUS  HE ES   2   1910 35.04                             150    -0.1 5   84 155 
 GUY  SZ EP   2   1910 33.40                             117     0.3 4  263 235 
 PRA  HZ EP   2   1910 42.40                             110    -0.5 3  357 207 
 PRA  HZ I        1910 49.35         3.4 0.10                           357 207 
                                                                                
