 2017  9 4 1111 12.3 L   6.819 -73.144143.5  RSN 17 0.4 2.3LRSN                1
 GAP=104        0.95       3.0     2.6  4.5  0.1195E+01  0.4129E+01  0.3543E+01E
 Epicentro: LOS SANTOS - SANTANDER                                             3
 ACTION:UPD 17-10-05 19:09 OP:rebc STATUS:               ID:20170904111112 L   I
 OLDACT:REG 17-09-04 19:56 OP:lv   STATUS:               ID:20170904110739     3
 2017-09-04-1108-00M.COL___408                                                 6
 STAT SP IPHASW D HRMM SECON CODA AMPLIT PERI AZIMU VELO AIN AR TRES W  DIS CAZ7
 BAR2 EZ IP     C 1111 31.42                             169   -0.3210 25.5 189 
 BAR2 EZ ES       1111 46.37                             169   -0.5010 25.5 189 
 BAR2 EZ I        1111 47.87        83.0 0.20            166           25.5 189 
 BRR  HZ EP       1111 33.26                             152    0.0710 70.3 297 
 BRR  HN ES       1111 50.15                             152    0.6910 70.3 297 
 BRR  HZ I        1111 51.31        37.9 0.16            152           70.3 297 
 PAM  EZ EP       1111 34.33                             151    0.1210 75.6  40 
 PAM  EN ES       1111 51.36                             151    0.1010 75.6  40 
 PAM  EZ I        1111 51.97        26.4 0.20            156           75.6  40 
 RUS  HZ EP       1111 35.48                             143   -0.5410  103 176 
 RUS  HE ES       1111 54.39                             143   -0.1010  103 176 
 RUS  HZ I        1111 55.45        19.8 0.24            142            103 176 
 TAM  HZ EP       1111 39.80                             130   -0.08 9  156 106 
 TAM  HN ES       1112  1.48                             130    0.13 9  156 106 
 TAM  HZ I        1112  2.79        19.1 0.46            132            156 106 
 YPLC HZ IP     C 1111 41.88                             126   -0.27 9  179 152 
 YPLC HN ES       1112  5.74                             126    0.34 9  179 152 
 YPLC HZ I        1112  6.71        21.9 0.30            127            179 152 
 ZAR  HZ EP       1111 44.63                             122    0.06 9  203 292 
 ZAR  HN ES       1112  9.28                             122   -0.43 9  203 292 
 ZAR  HZ I        1112 15.57        24.9 0.26            123            203 292 
 NOR  HZ EP       1111 47.87                             118   -0.21 8  236 234 
 NOR  HN ES       1112 15.45                             118   -0.51 8  236 234 
 NOR  HZ I        1112 20.55        18.7 0.20            118            236 234 
 CHI  HZ EP       1111 49.60                             116   -0.54 8  251 195 
 CHI  HN ES       1112 20.67                             116    1.04 8  251 195 
 CHI  HZ I        1112 26.11        13.7 0.48            117            251 195 
 ROSC BZ EP   9   1111 52.14                             116    1.60 0  255 211 
 ROSC BN ES       1112 21.63                                   -0.31 8  255 211 
 ROSC BZ I        1112 28.12        17.2 0.30            116            255 211 
 HEL  HZ EP       1111 53.42                             114    0.91 8  273 255 
 HEL  HN ES       1112 24.11                             114    0.27 8  273 255 
 HEL  HZ I        1112 31.26         9.1 0.56            115            273 255 
 URE  HN ES   4   1112 22.71                             113   -2.41 0  283 291 
 GUY2CHZ EP       1111 55.88                             112   -0.12 7  303 234 
 GUY2CHN ES   4   1112 31.99                             112    1.94 0  303 234 
 GUY2CHZ I        1112 40.43        11.0 0.42                           303 234 
 PTGC HZ IP   4 D 1111 54.73                             111   -1.59 0  311 159 
 PTGC HN ES   4   1112 28.21                             111   -2.41 0  311 159 
 DBB  EZ EP       1111 59.99                             109    0.27 7  339 274 
 DBB  EN ES       1112 36.30                             109   -0.38 7  339 274 
 DBB  EZ I        1112 36.49         5.9 0.20            110            339 274 
 ANIL HZ EP       1112  2.95                             108    0.70 6  359 224 
 ANIL HN ES   4   1112 42.83                             108    1.66 0  359 224 
 PRA  HZ EP       1112  6.04                             106    0.03 6  394 209 
 PRA  HN ES       1112 47.92                             106    0.05 6  394 209 
 PRA  HZ I        1112 52.01        12.0 0.24            106            394 209 
 ORTC HZ EP       1112  6.41                             106    0.01 6  397 216 
 ORTC HN ES   4   1112 50.98                             106    2.42 0  397 216 
 ORTC HZ I        1112 55.18         6.1 0.20            106            397 216 
 PAL  HZ EP       1112  7.37                             105   -0.20 6  407 239 
 SJC  HZ EP   4   1112  4.92                             105   -2.71 0  408 327 
 SJC  HN ES   4   1112 46.49                             105   -4.26 0  408 327 
 URI  HZ EP   4   1112 22.10                             100   -2.94 0  555  13 
 URI  HN ES   4   1113 17.26                             100   -4.48 0  555  13 
                                                                                
