 2016  7 4 1948 36.7 L   6.698 -73.127136.9  RSN  7 0.3 1.7LRSN                1
 GAP=143        0.64       2.8     2.8  3.8 -0.1127E+00  0.2865E+01  0.5772E+00E
 Epicentro: JORDAN - SANTANDER                                                 3
 ACTION:UPD 17-03-29 16:47 OP:lp   STATUS:               ID:20160704194836 L   I
 OLDACT:REG 16-07-04 20:58 OP:edw  STATUS:               ID:20160704194745     3
 2016-07-04-1947-45M.COL___322                                                 6
 STAT SP IPHASW D HRMM SECON CODA AMPLIT PERI AZIMU VELO AIN AR TRES W  DIS CAZ7
 BAR2 EZ IP       1948 54.82                             174   -0.2610 13.2 208 
 BAR2 EZ ES       1949  9.37                             174   -0.0610 13.2 208 
 BAR2 EZ I        1949 10.30        17.4 0.32            175           13.2 208 
 BRR  HZ EP       1948 57.34                             148   -0.0210 78.9 305 
 BRR  HN ES       1949 13.43                             148   -0.0610 78.9 305 
 BRR  HZ I        1949 14.80        14.9 0.18            149           78.9 305 
 PAM  EZ EP       1948 58.35                             147   -0.1210 85.2  34 
 PAM  EE ES       1949 15.64                             147    0.1710 85.2  34 
 PAM  EZ I        1949 17.57         9.3 0.42            147           85.2  34 
 RUS  HZ EP       1948 58.43                             145   -0.3210 89.2 177 
 RUS  HN ES       1949 16.33                             145    0.3710 89.2 177 
 RUS  HZ I        1949 18.03         5.0 0.32            147           89.2 177 
 PTB  HZ EP   9   1949  1.45                             130   -1.53 0  148 263 
 PTB  HE ES       1949 21.95                                   -0.01 9  148 263 
 PTB  HZ I        1949 22.68         8.1 0.16            131            148 263 
 ZAR  HZ EP       1949  9.88                             119    0.63 8  210 295 
 ZAR  HN ES       1949 34.48                             119   -0.17 8  210 295 
 ZAR  HZ I        1949 38.21         6.8 0.30            120            210 295 
 GUY2CHZ EP     D 1949 19.41                             111    0.03 7  297 237 
 GUY2CHN ES       1949 52.60                             111   -0.07 7  297 237 
 GUY2CHZ I        1950  0.53         2.0 0.38                           297 237 
                                                                                
