 2014  9 4 1653  9.3 L   6.806 -73.170152.0  RSN  9 0.4 2.0LRSN                1
 GAP=199        0.86       3.5     5.1  7.0  0.5359E+01  0.6052E+01 -0.2261E+01E
 Epicentro: LOS SANTOS - SANTANDER                                             3
 ACTION:UPD 14-10-03 23:02 OP:nd   STATUS:               ID:20140904165309 L   I
 OLDACT:REG 14-09-04 21:06 OP:fm   STATUS:               ID:20140904164819     3
 2014-09-04-1648-19M.COL___269                                                 6
 STAT SP IPHASW D HRMM SECON CODA AMPLIT PERI AZIMU VELO AIN AR TRES W  DIS CAZ7
 BAR2 SZ EP       1653 30.23                             171    0.5610 23.7 183 
 BAR2 SZ ES   1   1653 45.19                             171   -0.38 7 23.7 183 
 BAR2 SZ I        1653 47.01        10.7 0.46            166           23.7 183 
 RUS  HZ EP   1   1653 32.97                             145   -0.74 7  101 175 
 RUS  HN ES       1653 52.95                             145    0.1910  101 175 
 RUS  HZ I        1653 55.69         7.9 0.40            144            101 175 
 PTB  HZ EP   1   1653 35.96                             134   -0.58 7  145 258 
 PTB  HN ES       1653 58.07                             134    0.26 9  145 258 
 PTB  HZ I        1654  0.48        10.2 0.36            131            145 258 
 ZAR  HN ES       1654  7.32                             124    0.04 9  201 292 
 ZAR  HZ I        1654 14.69         4.8 0.30            123            201 292 
 NOR  HZ EP   1   1653 45.03                             120   -0.16 6  233 234 
 NOR  HE ES   1   1654 12.83                             120   -0.37 6  233 234 
 NOR  HZ I        1654 21.02         6.1 0.34            118            233 234 
 SML  HZ EP   1   1653 46.57                             119    0.49 6  242 336 
 SML  HN ES       1654 14.47                             119   -0.32 8  242 336 
 SML  HZ I        1654 18.41        16.1 0.10            119            242 336 
 CHI  HZ EP   1   1653 47.08                             118   -0.24 6  249 195 
 CHI  HN ES       1654 16.97                             118   -0.03 8  249 195 
 CHI  HZ I        1654 23.13         4.3 0.26            118            249 195 
 GUY2CHZ EP   1   1653 53.75                             114    0.77 5  299 234 
 GUY2CHN ES   4   1654 30.77                             114    3.70 0  299 234 
 GUY2CHZ I        1654 36.86         5.8 0.80                           299 234 
 TOL  SN ES   4   1654 36.80                             110    1.46 0  342 224 
 TOL  SZ I        1654 42.38         9.2 0.46            110            342 224 
                                                                                
