 2011  4 4 1445  8.5 L   6.785 -73.054151.9  RSN  8 0.4 2.0LRSN                1
 GAP=165        0.93       9.0    10.8 11.1 -0.5318E+02 -0.7206E+01  0.4202E+02E
 Epicentro: LOS SANTOS - SANTANDER                                             3
 ACTION:UP  11-06-22 15:28 OP:REBC STATUS:               ID:20110404144508 L   I
 2011-04-04-1440-42S.COL___138                                                 6
 STAT SP IPHASW D HRMM SECON CODA AMPLIT PERI AZIMU VELO SNR AR TRES W  DIS CAZ7
 BAR2 SZ EP       1445 29.05                             170     0.110   26 214 
 BAR2 SZ ES   2   1445 44.29                             170    -0.6 5   26 214 
 BAR2 SZ I        1445 46.18        10.7 0.32                            26 214 
 BTL  SZ EP       1445 29.52                             169     0.510   28 302 
 GIR2 SZ EP   2   1445 29.32                             166     0.3 5   36 335 
 PAM  SN ES   3   1445 48.82                             154     0.0 2   73  33 
 BRR  HZ EP       1445 31.19                             151     0.310   81 296 
 BRR  HN ES   1   1445 48.56                             151     0.2 7   81 296 
 BRR  HZ I        1445 50.88        28.7 0.17                            81 296 
 GRA  SZ EP   2   1445 33.81                             139    -0.4 5  125  13 
 GRA  SZ ES   1   1445 53.56                             139    -0.7 7  125  13 
 GRA  SZ I        1445 54.92        12.2 0.33                           125  13 
 NOR  SZ EP       1445 44.80                             119    -0.6 8  242 236 
 NOR  SN ES   2   1446 13.57                             119    -0.6 4  242 236 
 CHI  HN ES   3   1446 16.57                             118     0.1 2  250 198 
                                                                                
