 2015 12 4 1106 49.6 L   6.814 -73.185144.0  RSN 15 0.4 2.4LRSN                1
 GAP=198        0.97       3.0     3.8  4.8  0.5182E+00  0.5202E+01  0.9724E+00E
 Epicentro: ZAPATOCA - SANTANDER                                               3
 ACTION:UPD 16-02-04 15:02 OP:cam  STATUS:               ID:20151204110649 L   I
 OLDACT:UP  15-12-29 07:26 OP:CARA STATUS:               ID:20151204110649 L   3
 OLDACT:REG 15-12-04 20:25 OP:drio STATUS:               ID:20151204105748     3
 2015-12-04-1057-48M.COL___309                                                 6
 STAT SP IPHASW D HRMM SECON CODA AMPLIT PERI AZIMU VELO AIN AR TRES W  DIS CAZ7
 BAR2 EZ EP       11 7  8.93                             170   -0.1210 24.5 179 
 BAR2 EZ ES       11 7 23.91                             170   -0.3010 24.5 179 
 BAR2 EZ I        11 7 25.19        32.8 0.40            169           24.5 179 
 BRR  HZ EP     C 11 7 10.66                             154    0.3510 66.7 299 
 BRR  HN ES       11 7 27.53                             154    1.0710 66.7 299 
 BRR  HZ I        11 7 28.59        29.3 0.12            148           66.7 299 
 RUS  HZ EP       11 7 13.04                             143   -0.2810  103 174 
 RUS  HN ES       11 7 31.98                             143    0.1610  103 174 
 RUS  HZ I        11 7 32.78        32.2 0.34            145            103 174 
 PTB  HZ EP       11 7 15.80                             132   -0.27 9  144 258 
 PTB  HN ES       11 7 36.04                             132   -0.68 9  144 258 
 PTB  HZ I        11 7 38.72        39.8 0.14            129            144 258 
 SPBC HZ EP       11 7 17.75                             129   -0.08 9  162 217 
 SPBC HN ES       11 7 39.79                             129   -0.05 9  162 217 
 SPBC HZ I        11 7 46.02        33.7 0.16            128            162 217 
 ZAR  HZ EP       11 7 21.40                             123   -0.06 9  199 292 
 ZAR  HN ES       11 7 46.39                             123    0.08 9  199 292 
 ZAR  HZ I        11 7 52.36        20.4 0.30            121            199 292 
 NOR  HZ EP       11 7 25.07                             118    0.12 8  232 234 
 NOR  HN ES       11 7 52.30                             118   -0.23 8  232 234 
 NOR  HZ I        11 7 59.74        21.5 0.18            117            232 234 
 SML  HZ EP       11 7 25.29                             117   -0.50 8  241 336 
 SML  HE ES       11 7 53.47                             117   -0.54 8  241 336 
 SML  HZ I        11 8  6.16        25.0 0.22            117            241 336 
 HEL  HZ EP       11 7 30.15                             115    0.84 8  268 255 
 HEL  HN ES       11 7 59.92                             115   -0.35 8  268 255 
 HEL  HZ I        11 8  7.89        14.2 0.48            114            268 255 
 URE  HZ EP   9   11 7 28.72                             114   -1.36 0  279 292 
 URE  HE ES       11 8  0.20                             114   -0.09 7  279 292 
 URE  HZ I        11 8 13.35        14.5 0.26            113            279 292 
 GUY2CHZ EP   4   11 7 34.57                             112    1.73 0  299 234 
 GUY2CHE ES   4   11 8  9.16                             112    2.60 0  299 234 
 GUY2CHZ I        11 8 14.45        11.1 0.58                           299 234 
 SOCV BZ EP   4   11 7 30.76                             112   -2.13 0  304  58 
 SOCV BN ES   4   11 8  2.04                             112   -4.61 0  304  58 
 CBOC HZ EP       11 7 36.74                             110    0.71 7  330 252 
 CBOC HE ES       11 8 12.16                             110   -0.08 7  330 252 
 CBOC HZ I        11 8 16.30         3.6 0.28            109            330 252 
 ANIL HZ EP       11 7 39.66                             108    0.54 6  355 224 
 ANIL HN ES       11 8 17.97                             108    0.23 6  355 224 
 ANIL HZ I        11 8 26.05        26.0 0.40            108            355 224 
 PRA  HZ EP       11 7 42.49                             106   -0.48 6  391 209 
 PRA  HN ES       11 8 24.50                             106   -0.10 6  391 209 
 PRA  HZ I        11 8 31.31        10.0 0.58            106            391 209 
 PAL  HZ EP       11 7 44.64                             106    0.27 6  403 239 
 PAL  HN ES       11 8 27.17                             106    0.09 6  403 239 
 PAL  HZ I        11 8 32.47         4.7 0.20            105            403 239 
                                                                                
