 2013  4 4 1712 53.1 L   6.823 -73.141144.1  RSN 13 0.5 2.6LRSN 2.9WRSN        1
 SPEC AVERAGE  MO 13.5 ST  5.8 OM  2.1 f0 4.90 R0.3213 AL 1.81 WI 25.9 MW  2.9 3
 SPEC SD       MO  0.1 ST  3.7 OM  0.4 f0 1.24 R0.0857 AL      WI      MW  0.1 3
 GAP=111        0.90       3.5     3.4  5.8  0.1107E+01  0.2846E+01  0.2351E+00E
 Epicentro: LOS SANTOS - SANTANDER                                             3
 SPEC ZAR HH Z MO 13.6 ST  9.1 OM  1.8 f0 5.51 R0.2668 AL 1.00 WI 21.4 MW  3.0 3
 SPEC ZAR HH Z T171350 K 0.000 GD  249 VS 4.20 DE 3.20 Q0300.0 QA 0.60 VS 4.20 3
 SPEC PTB HH Z MO 13.5 ST  8.6 OM  1.8 f0 5.77 R0.2548 AL 1.49 WI 20.0 MW  3.0 3
 SPEC PTB HH Z T171337 K 0.000 GD  207 VS 4.20 DE 3.20 Q0300.0 QA 0.60 VS 4.20 3
 SPEC RUS HH Z MO 13.3 ST  2.4 OM  1.7 f0 4.28 R0.3435 AL 1.94 WI 20.3 MW  2.8 3
 SPEC RUS HH Z T171332 K 0.000 GD  177 VS 4.20 DE 3.20 Q0300.0 QA 0.60 VS 4.20 3
 SPEC PRA HH Z MO 13.4 ST  2.6 OM  1.4 f0 4.18 R0.3517 AL 2.17 WI 32.1 MW  2.9 3
 SPEC PRA HH Z T171422 K 0.000 GD  419 VS 4.20 DE 3.20 Q0300.0 QA 0.60 VS 4.20 3
 SPEC HEL HH Z MO 13.4 ST  1.3 OM  1.5 f0 3.40 R0.4324 AL 1.81 WI 48.8 MW  2.9 3
 SPEC HEL HH Z T171352 K 0.000 GD  308 VS 4.20 DE 3.20 Q0300.0 QA 0.60 VS 4.20 3
 SPEC NOR HH Z MO 13.4 ST 11.7 OM  1.6 f0 6.76 R0.2175 AL 2.72 WI 29.5 MW  2.9 3
 SPEC NOR HH Z T171352 K 0.000 GD  277 VS 4.20 DE 3.20 Q0300.0 QA 0.60 VS 4.20 3
 SPEC BRR HH Z MO 13.4 ST  8.0 OM  1.8 f0 6.12 R0.2402 AL 2.24 WI 19.6 MW  2.9 3
 SPEC BRR HH Z T171329 K 0.000 GD  160 VS 4.20 DE 3.20 Q0300.0 QA 0.60 VS 4.20 3
 SPEC BAR2SH Z MO 13.8 ST  2.5 OM  2.2 f0 3.17 R0.4637 AL 1.15 WI 15.6 MW  3.1 3
 SPEC BAR2SH Z T171325 K 0.000 GD  146 VS 4.20 DE 3.20 Q0300.0 QA 0.60 VS 4.20 3
 ACTION:UPD 13-05-22 14:35 OP:EP   STATUS:               ID:20130404171253 L   I
 2013-04-04-1710-00M.COL___245                                                 6
 STAT SP IPHASW D HRMM SECON CODA AMPLIT PERI AZIMU VELO AIN AR TRES W  DIS CAZ7
 BAR2 SZ EP       1713 12.60                             169   -0.0310 25.9 190 
 BAR2 SZ ES   1   1713 26.98                             169   -0.85 7 25.9 190 
 BAR2 SZ I        1713 28.37       190.9 0.20            169           25.9 190 
 BRR  HZ IP     D 1713 14.52                             152    0.4510 70.4 297 
 BRR  HN ES   1   1713 31.28                             152    0.89 7 70.4 297 
 BRR  HZ I        1713 32.24        71.2 0.28            148           70.4 297 
 RUS  HZ EP       1713 16.50                             143   -0.4210  103 176 
 RUS  HN ES   1   1713 35.22                             143   -0.24 7  103 176 
 RUS  HZ I        1713 36.69        49.0 0.38            144            103 176 
 PTB  HZ EP   1   1713 19.61                             131   -0.45 7  149 258 
 PTB  HN ES   2   1713 40.22                             131   -0.84 5  149 258 
 PTB  HZ I        1713 45.31        48.7 0.18            130            149 258 
 TAM  HZ IP     D 1713 21.01                             130    0.30 9  155 106 
 TAM  HN ES   1   1713 42.75                             130    0.54 7  155 106 
 TAM  HZ I        1713 42.93        26.9 0.24            133            155 106 
 ZAR  HZ EP   1   1713 25.24                             122   -0.19 6  204 291 
 ZAR  HN ES   1   1713 51.29                             122    0.68 6  204 291 
 ZAR  HZ I        1713 58.66        43.9 0.26            121            204 291 
 CTAB SZ EP   2   1713 29.55                             119    0.50 4  232 210 
 CTAB SZ ES   2   1713 57.66                             119    0.59 4  232 210 
 NOR  HZ EP   1   1713 28.61                             118   -0.37 6  237 234 
 NOR  HN ES       1713 56.75                             118   -0.18 8  237 234 
 NOR  HZ I        1714  2.26        23.2 0.16            117            237 234 
 SML  HZ EP   1   1713 29.20                             117   -0.24 6  242 335 
 SML  HN ES   1   1713 56.98                             117   -0.78 6  242 335 
 SML  HZ I        1714  7.03        30.7 0.26            117            242 335 
 CHI  HZ EP       1713 31.41                             116    0.38 8  251 195 
 CHI  HN ES   2   1714  0.43                             116   -0.16 4  251 195 
 CHI  HZ I        1714  3.22        12.7 0.34            117            251 195 
 HEL  HZ EP       1713 33.25                             114   -0.14 8  273 255 
 HEL  HN ES   1   1714  5.48                             114    0.69 6  273 255 
 HEL  HZ I        1714 11.93        24.0 0.30            114            273 255 
 URE  HZ EP   4   1713 33.09                             113   -0.98 0  283 291 
 URE  HN ES   4   1714  6.29                             113    0.29 0  283 291 
 DBB  SZ EP   4   1713 40.62                             109    0.04 0  340 274 
 DBB  SZ ES   4   1714 14.48                             109   -3.11 0  340 274 
 COD  HZ EP   1   1713 40.83                             109   -0.33 5  346 354 
 COD  HN ES   4   1714 17.94                             109   -0.68 0  346 354 
 PRA  HZ EP   1   1713 46.89                             106    0.00 4  394 209 
 PRA  HN ES   1   1714 28.58                             106   -0.24 4  394 209 
 PRA  HZ I        1714 34.26        13.0 0.20            106            394 209 
 SJA  SZ EP   4   1713 47.24                             106   -0.71 0  403 193 
 SJA  SZ ES   4   1714 29.32                             106   -1.37 0  403 193 
 SJC  HZ EP   4   1713 46.18                             105   -2.25 0  407 327 
 SJC  HN ES   4   1714 26.18                             105   -5.37 0  407 327 
                                                                                
