 2016 10 4 1338 24.4 L   6.816 -73.153147.3  RSN 22 0.4 2.9LRSN                1
 GAP= 74        0.83       2.4     2.2  3.8 -0.4923E+00  0.2035E+01  0.1940E+01E
 Epicentro: LOS SANTOS - SANTANDER                                             3
 ACTION:UPD 16-11-09 19:16 OP:rebc STATUS:               ID:20161004133824 L   I
 OLDACT:REG 16-10-05 00:25 OP:lv   STATUS:               ID:20161004133346     3
 2016-10-04-1334-00M.COL___372                                                 6
 STAT SP IPHASW D HRMM SECON CODA AMPLIT PERI AZIMU VELO AIN AR TRES W  DIS CAZ7
 BAR2 EZ IP     D 1338 44.15                             170   -0.1110 25.0 188 
 BAR2 EZ ES       1338 59.46                             170   -0.2910 25.0 188 
 BAR2 EZ I        1339  0.24       200.3 0.35            168           25.0 188 
 BRR  HZ IP     C 1338 45.95                             153    0.3110 69.7 298 
 BRR  HE ES       1339  2.57                             153    0.3610 69.7 298 
 BRR  HZ I        1339  7.13       109.4 0.23            150           69.7 298 
 PAM  EZ EP       1338 47.12                             151    0.3810 76.5  41 
 PAM  EN ES       1339  4.08                             151   -0.0810 76.5  41 
 PAM  EZ I        1339  4.95        79.1 0.22            155           76.5  41 
 RUS  HZ EP       1338 48.12                             144   -0.3210  102 176 
 RUS  HN ES       1339  7.15                             144   -0.0410  102 176 
 RUS  HZ I        1339  8.56        64.4 0.24            144            102 176 
 PTB  HZ EP       1338 51.03                             132   -0.44 9  147 258 
 PTB  HN ES       1339 12.09                             132   -0.48 9  147 258 
 PTB  HZ I        1339 18.87        71.3 0.25            130            147 258 
 TAM  HZ IP     D 1338 52.59                             130    0.27 9  156 106 
 TAM  HE ES       1339 14.26                             130    0.17 9  156 106 
 SPBC HZ EP       1338 53.24                             129    0.13 9  164 218 
 SPBC HE ES       1339 15.18                             129   -0.32 9  164 218 
 SPBC HZ I        1339 20.03       128.6 0.15            128            164 218 
 ZAR  HZ EP       1338 56.76                             123   -0.05 9  203 292 
 ZAR  HN ES       1339 22.18                             123    0.09 9  203 292 
 ZAR  HZ I        1339 27.35       103.5 0.36            122            203 292 
 NOR  HZ EP       1339  0.32                             119    0.05 8  235 234 
 NOR  HN ES       1339 28.85                             119    0.61 8  235 234 
 NOR  HZ I        1339 37.57        43.6 0.14            118            235 234 
 CHI  HZ EP       1339  2.34                             117   -0.01 8  250 195 
 CHI  HN ES       1339 31.74                             117   -0.21 8  250 195 
 CHI  HZ I        1339 35.48        51.1 0.46            117            250 195 
 ROSC BZ EP   4   1339  3.91                             117    1.18 0  254 211 
 ROSC BE ES       1339 32.32                             117   -0.31 8  254 211 
 ROSC BZ I        1339 38.84       141.6 0.40            117            254 211 
 HEL  HZ EP   4   1339  6.42                             115    1.76 0  272 255 
 HEL  HN ES       1339 36.49                             115    0.42 8  272 255 
 HEL  HZ I        1339 42.24        44.2 0.30            114            272 255 
 GUY2CHZ EP       1339  9.09                             112    0.96 7  302 234 
 GUY2CHE ES   4   1339 43.95                             112    1.71 0  302 234 
 GUY2CHZ I        1339 50.57        53.6 0.36                           302 234 
 LL1C HZ EP   4   1339  9.44                             112    1.58 0  305 352 
 VIL  EZ EP       1339  8.01                             112   -0.06 7  305 191 
 VIL  EN ES       1339 42.20                             112    0.07 7  305 191 
 VIL  EZ I        1339 51.88        78.4 0.40            112            305 191 
 LL1C HN ES   4   1339 44.93                             112    3.17 0  305 352 
 PTGC HZ EP   4   1339  7.54                             112   -1.01 0  311 159 
 PTGC HN ES   4   1339 41.04                             112   -1.94 0  311 159 
 ELA  HZ EP   9   1339 12.98                             110    1.59 0  330 229 
 ELA  HN ES       1339 49.61                                   -0.02 7  330 229 
 ELA  HZ I        1339 56.87        36.8 0.54            110            330 229 
 CBOC HZ EP       1339 11.94                             110    0.58 7  333 252 
 CBOC HE ES       1339 47.72                             110   -0.27 7  333 252 
 CBOC HZ I        1339 53.95         9.1 0.24            110            333 252 
 ANIL HZ EP   4   1339 15.52                             109    1.17 0  358 224 
 ANIL HN ES   4   1339 55.40                             109    2.09 0  358 224 
 PRA  HZ EP       1339 18.03                             107   -0.09 6  393 209 
 PRA  HN ES       1339 59.89                             107   -0.12 6  393 209 
 PRA  HZ I        1340  6.41        51.4 0.38            107            393 209 
 PAL  HZ EP       1339 19.71                             106    0.06 6  406 239 
 PAL  HE ES       1340  2.93                             106    0.20 6  406 239 
 PAL  HZ I        1340  7.02        10.7 0.23            106            406 239 
 SJC  HZ EP       1339 18.36                             106   -1.44 6  407 327 
 SJC  HN ES   4   1339 59.44                             106   -3.56 0  407 327 
 SJC  HZ I        1340 14.30        12.4 0.47            106            407 327 
 CRJC HZ EP   4   1339 24.47                             103   -2.28 0  466   4 
 CRJC HN ES   4   1340 11.84                             103   -3.53 0  466   4 
 CRJC HZ I        1340 19.50        22.3 0.30            104            466   4 
 YOT  HZ EP       1339 26.72                             103   -0.84 5  472 229 
 YOT  HN ES   4   1340 18.40                             103    1.58 0  472 229 
 URI  HZ EP   4   1339 34.96                             101   -2.30 0  555  13 
 URI  HE ES   4   1340 30.07                             101   -4.01 0  555  13 
 URI  HZ I        1340 37.24         2.9 0.16            101            555  13 
                                                                                
