 2012  8 4 1830 39.3 L   6.837 -73.164142.3  RSN 21 0.5 2.7LRSN 3.5WRSN        1
 SPEC AVERAGE  MO 14.3 ST 19.8 OM  3.2 f0 3.47 R0.5150 AL 2.48 WI 28.9 MW  3.5 3
 SPEC SD       MO  0.1 ST 16.7 OM  0.8 f0 1.31 R0.2563 AL      WI      MW  0.1 3
 GAP= 55        1.02       3.2     3.4  5.9  0.3122E+00  0.6118E+01  0.2619E+01E
 Epicentro: LOS SANTOS - SANTANDER                                             3
 SPEC TAM HH E MO 14.2 ST0.807 OM  2.5 f0 1.55 R0.9484 AL 1.77 WI 14.2 MW  3.4 3
 SPEC TAM HH E T183127 K 0.000 GD  212 VS 4.20 DE 3.00 Q0230.0 QA 0.60 VS 4.20 3
 SPEC ROSCBH Z MO 14.5 ST 19.5 OM  1.9 f0 3.53 R0.4164 AL 3.19 WI 26.4 MW  3.6 3
 SPEC ROSCBH Z T183118 K 0.000 GD  292 VP 7.60 DE 3.00 Q0230.0 QA 0.60 VS 4.20 3
 SPEC RUS HH N MO 14.3 ST 12.7 OM  2.7 f0 3.54 R0.4153 AL 1.94 WI 39.7 MW  3.5 3
 SPEC RUS HH N T183119 K 0.000 GD  176 VS 4.20 DE 3.00 Q0230.0 QA 0.60 VS 4.20 3
 SPEC BRR HH N MO 14.4 ST 46.4 OM  2.8 f0 5.25 R0.2800 AL 3.01 WI 35.3 MW  3.5 3
 SPEC BRR HH N T183117 K 0.000 GD  157 VS 4.20 DE 3.00 Q0230.0 QA 0.60 VS 4.20 3
 ACTION:UPD 12-09-10 11:54 OP:ep   STATUS:               ID:20120804183039 L   I
 2012-08-04-1829-48M.COL___212                                                 6
 STAT SP IPHASW D HRMM SECON CODA AMPLIT PERI AZIMU VELO AIN AR TRES W  DIS CAZ7
 GIR2 SZ EP       1830 58.76                             169    0.3110 27.0 353 
 BAR2 SZ IP       1830 58.77                             169    0.1710 27.1 184 
 BAR2 SZ ES   1   1831 13.67                             169    0.02 7 27.1 184 
 BAR2 SZ I        1831 14.99       133.7 0.24                          27.1 184 
 BRR  HZ IP     C 1831  0.56                             153    0.6910 67.5 296 
 BRR  HZ I        1831 23.54        82.3 0.14                          67.5 296 
 PAM  SZ IP       1831  1.43                             151    0.3910 75.7  43 
 PAM  SZ I        1831  1.54        66.1 0.20                          75.7  43 
 PAM  SN ES   1   1831 18.29                             151    0.29 7 75.7  43 
 RUS  HZ IP     C 1831  2.78                             142   -0.2410  105 175 
 RUS  HN ES   1   1831 20.82                             142   -0.71 7  105 175 
 RUS  HZ I        1831 22.89        46.6 0.32                           105 175 
 PTB  HZ EP       1831  5.19                             131   -0.69 9  147 257 
 PTB  HN ES   1   1831 25.95                             131   -0.66 7  147 257 
 PTB  HZ I        1831 28.30        44.6 0.34                           147 257 
 OCA  HZ EP       1831  6.64                             130   -0.30 9  156 354 
 OCA  HN ES   1   1831 28.02                             130   -0.48 7  156 354 
 OCA  HZ I        1831 34.17       144.3 0.34                           156 354 
 TAM  HZ IP       1831  7.08                             129    0.09 9  158 106 
 TAM  HZ I        1831 27.70        36.4 0.28                           158 106 
 TAM  HN ES   1   1831 28.45                             129   -0.14 7  158 106 
 YOP  SZ EP       1831  9.47                             125   -0.08 9  183 153 
 YOP  SN ES   1   1831 33.09                             125   -0.05 7  183 153 
 YOP  SZ I        1831 36.61        28.9 0.40                           183 153 
 ZAR  HZ EP       1831 11.15                             122   -0.02 9  201 291 
 ZAR  HN ES   1   1831 36.83                             122    0.81 6  201 291 
 ZAR  HZ I        1831 41.94        45.7 0.34                           201 291 
 NOR  SZ EP       1831 15.04                             118    0.13 8  235 233 
 NOR  SN ES   2   1831 42.15                             118   -0.53 4  235 233 
 CHI  HZ EP       1831 17.00                             116   -0.18 8  252 194 
 CHI  HN ES   1   1831 46.25                             116   -0.47 6  252 194 
 CHI  HZ I        1831 52.20        25.6 0.30                           252 194 
 ROSC BZ EP       1831 18.72                             116    1.22 8  255 210 
 ROSC BE ES   2   1831 47.41                             116    0.12 4  255 210 
 ROSC BZ I        1831 53.53        54.7 0.40                           255 210 
 HEL  HZ EP       1831 19.09                             114   -0.14 8  271 255 
 HEL  HZ I        1831 58.15        33.2 0.60                           271 255 
 URE  HZ EP   2   1831 18.93                             113   -0.89 4  280 291 
 URE  HZ I        1831 51.87        47.2 0.14                           280 291 
 GUY  SZ EP       1831 23.37                             111    0.28 7  304 234 
 GUY  SZ I        1832  5.26        56.0 0.38                           304 234 
 DBB  SZ EP       1831 26.35                             109   -0.02 7  337 274 
 TOL  SZ EP       1831 28.33                             109    0.74 7  345 224 
 MON  HN ES   3   1832  3.67                             108   -1.76 2  350 308 
 MON  HZ I        1832  6.97        21.9 0.26                           350 308 
 SDV  BZ EP       1831 28.03                             108   -1.06 6  359  51 
 SDV  BZ I        1831 29.00        23.3 0.35                           359  51 
 PRA  HZ EP       1831 32.36                             106   -0.64 6  395 209 
 PRA  HZ I        1832 21.39        42.8 0.46                           395 209 
                                                                                
