 2013 11 4 1735  0.4 L   6.906 -73.120  4.0  RSN 10 0.5 2.2LRSN                1
 GAP=134        1.25       2.3     2.9  6.0 -0.5909E+00  0.3151E+01 -0.2046E+01E
 Epicentro: PIEDECUESTA - SANTANDER                                            3
 ACTION:UPD 14-01-09 16:25 OP:ep   STATUS:               ID:20131104173500 L   I
 OLDACT:REG 13-11-04 17:21 OP:jn   STATUS:               ID:20131104173000     3
 2013-11-04-1730-00M.COL___273                                                 6
 STAT SP IPHASW D HRMM SECON CODA AMPLIT PERI AZIMU VELO AIN AR TRES W  DIS CAZ7
 BAR2 SZ EP       1735  6.71                              47    0.0710 35.3 191 
 BAR2 SZ ES       1735 11.08                              47   -0.3910 35.3 191 
 BAR2 SZ I        1735 12.51       698.5 0.32             47           35.3 191 
 PAM  SZ EP       1735 11.74                              47    0.0810 66.8  44 
 PAM  SN ES       1735 20.13                              47   -0.2810 66.8  44 
 PAM  SZ I        1735 21.66        42.0 0.42             47           66.8  44 
 BRR  HZ EP       1735 11.75                              47    0.2510 69.0 289 
 BRR  HN ES       1735 20.13                              47    0.0110 69.0 289 
 BRR  HZ I        1735 21.12        82.0 0.24             47           69.0 289 
 RUS  HZ EP       1735 19.00                              47    0.4710  112 178 
 RUS  HN ES       1735 32.19                              47   -0.4510  112 178 
 RUS  HZ I        1735 34.32        44.7 0.38             47            112 178 
 OCA  HN ES   1   1735 40.95                              47   -1.03 7  149 352 
 OCA  HZ I        1735 45.64        36.0 0.34             47            149 352 
 PTB  HZ EP       1735 24.52                              47    0.26 9  153 255 
 PTB  HN ES       1735 42.40                              47   -0.43 9  153 255 
 PTB  HZ I        1735 43.05        32.6 0.22             47            153 255 
 SPBC HZ EP       1735 28.18                              47    0.67 9  174 217 
 SPBC HN ES   4   1735 51.49                              47    2.87 0  174 217 
 SPBC HZ I        1735 53.62        42.9 0.16             47            174 217 
 ZAR  HZ EP       1735 31.75                              37    0.72 9  203 289 
 ZAR  HN ES       1735 53.96                              37   -0.93 9  203 289 
 ZAR  HZ I        1735 56.09        23.8 0.44             37            203 289 
 SML  HZ EP   1   1735 35.10                              37    0.11 6  234 333 
 SML  HN ES   1   1736  3.21                              37    1.28 6  234 333 
 NOR  HZ EP   4   1735 37.99                              37    1.74 0  244 233 
 NOR  HE ES   4   1736  5.64                              37    1.46 0  244 233 
 NOR  HZ I        1736 10.32         5.6 0.26             37            244 233 
                                                                                
