 2010  6 4 1754  6.8 L   6.775 -72.980142.6  RSN  8 0.6 2.4LRSN                1
 GAP=190        1.43       7.7    17.1 10.8 -0.9249E+02  0.4571E+02 -0.6431E+01E
 Epicentro: CEPITA - SANTANDER                                                 3
 ACTION:UP  10-08-24 10:08 OP:vdl  STATUS:               ID:20100604175406 L   I
 2010-06-04-1749-42S.COL___109                                                 6
 STAT SP IPHASW D HRMM SECON CODA AMPLIT PERI AZIMU VELO SNR AR TRES W  DIS CAZ7
 BAR2 SZ EP       1754 25.93                             168    -0.310   30 228 
 BAR2 SZ ES       1754 41.37                             168     0.010   30 228 
 GIR2 SZ EP       1754 26.03                             163    -0.310   41 325 
 GUE  SZ EP       1754 31.02                             139    -0.210  117   3 
 GRA  SZ EP       1754 32.82                             137     1.210  124   9 
 GRA  SZ ES   1   1754 51.62                             137     0.6 7  124   9 
 OCA  SZ EP       1754 34.50                             128    -0.9 9  166 347 
 OCA  SZ ES   1   1754 57.27                             128    -0.5 7  166 347 
 OCA  SZ I        1755  2.64        31.9 0.34                           166 347 
 CHI  HZ EP   1   1754 44.01                             116    -0.6 6  251 199 
 CHI  HZ I        1754 44.86        13.8 0.42                           251 199 
 CHI  HN ES   1   1755 13.92                             116    -0.2 6  251 199 
 RREF BZ EP       1754 54.56                             109     0.4 7  334 232 
 RREF BN ES       1755 31.72                             109     0.5 7  334 232 
 RREF BZ I        1755 34.49        11.1 0.53                           334 232 
 TOL  SZ EP   1   1754 56.87                             108     0.7 5  355 227 
                                                                                
