 2015  9 4 1706 23.5 L   6.761 -73.148138.2  RSN  5 0.4 1.9LRSN                1
 GAP= 96        0.98       8.5     4.6  7.4 -0.1219E+02 -0.5147E+01  0.1756E+02E
 Epicentro: LOS SANTOS - SANTANDER                                             3
 ACTION:UPD 15-10-28 16:24 OP:cam  STATUS:               ID:20150904170623 L   I
 OLDACT:REG 15-09-04 21:28 OP:stll STATUS:               ID:20150904165750     3
 2015-09-04-1657-50M.COL___349                                                 6
 STAT SP IPHASW D HRMM SECON CODA AMPLIT PERI AZIMU VELO AIN AR TRES W  DIS CAZ7
 BAR2 EZ EP       17 6 42.19                             172    0.0510 19.1 191 
 BAR2 EZ ES       17 6 56.88                             172    0.2110 19.1 191 
 BAR2 EZ I        17 6 58.35        21.8 0.18            170           19.1 191 
 BRR  HZ EP       17 6 44.13                             150    0.1810 73.1 302 
 BRR  HN ES       17 7  0.45                             150    0.5510 73.1 302 
 PAM  EZ EP       17 6 45.15                             148    0.0210 80.9  38 
 PAM  EZ I        17 6 45.25        17.2 0.22            151           80.9  38 
 PAM  EN ES       17 7  1.50                             148   -0.5110 80.9  38 
 PTB  HZ EP       17 6 49.96                             130    0.20 9  147 260 
 PTB  HN ES       17 7  9.47                             130   -0.78 9  147 260 
 PTB  HZ I        17 7 12.46         6.8 0.60            131            147 260 
 TAM  HZ EP       17 6 50.52                             129    0.01 9  154 103 
                                                                                
