 2015 12 4 1156 23.5 L   6.735 -73.135147.8  RSN 10 0.4 2.0LRSN                1
 GAP=201        0.91       3.4     4.8  5.3  0.7592E+00  0.8158E+01  0.3668E+00E
 Epicentro: JORDAN - SANTANDER                                                 3
 ACTION:UPD 16-02-04 15:02 OP:cam  STATUS:               ID:20151204115623 L   I
 OLDACT:REG 15-12-04 20:26 OP:drio STATUS:               ID:20151204114746     3
 2015-12-04-1147-46M.COL___306                                                 6
 STAT SP IPHASW D HRMM SECON CODA AMPLIT PERI AZIMU VELO AIN AR TRES W  DIS CAZ7
 BAR2 EZ EP     D 1156 43.36                             173    0.0510 16.6 198 
 BAR2 EZ ES       1156 58.65                             173   -0.0710 16.6 198 
 BAR2 EZ I        1157  4.45        12.0 0.34            170           16.6 198 
 BRR  HZ EP       1156 45.45                             151    0.2710 75.9 303 
 BRR  HN ES       1157  2.56                             151    0.5010 75.9 303 
 BRR  HZ I        1157  4.01        19.0 0.28            148           75.9 303 
 RUS  HZ EP       1156 47.00                             146    0.0110 93.3 176 
 RUS  HE ES       1157  5.08                             146   -0.2010 93.3 176 
 RUS  HZ I        1157  6.71        13.2 0.32            149           93.3 176 
 PTB  HZ EP       1156 49.99                             132   -0.69 9  148 262 
 PTB  HN ES   4   1157 10.27                             132   -1.57 0  148 262 
 PTB  HZ I        1157 17.17         9.6 0.44            132            148 262 
 SPBC HZ EP       1156 52.20                             130    0.44 9  158 221 
 SPBC HN ES       1157 13.40                             130   -0.36 9  158 221 
 SPBC HZ I        1157 16.48        13.2 0.22            131            158 221 
 ZAR  HZ EP       1156 56.79                             122    0.26 8  208 294 
 ZAR  HE ES       1157 22.15                             122   -0.10 8  208 294 
 ZAR  HZ I        1157 28.55        16.5 0.28            123            208 294 
 NOR  HZ EP       1156 59.17                             119    0.11 8  232 236 
 NOR  HN ES       1157 26.75                             119   -0.01 8  232 236 
 NOR  HZ I        1157 34.59         8.8 0.16            120            232 236 
 SML  HZ EP       1157  0.30                             117   -0.75 8  251 336 
 SML  HE ES   4   1157 28.76                             117   -1.54 0  251 336 
 SML  HZ I        1157 37.65        10.0 0.30            119            251 336 
 GUY2CHZ EP   4   1157  9.40                             113    2.50 0  298 236 
 GUY2CHE ES       1157 40.67                             113   -0.05 7  298 236 
 GUY2CHZ I        1157 49.78         5.2 0.52                           298 236 
 PRA  HZ EP       1157 17.51                             107    1.03 6  386 210 
 PRA  HN ES       1157 57.55                             107   -0.22 6  386 210 
 PRA  HZ I        1158  5.06         3.3 0.30            109            386 210 
                                                                                
