 2013  2 4 1854  0.7 L   6.773 -73.116154.0  RSN  5 0.2 1.7LRSN                1
 GAP=142        0.62       3.5     3.8  5.6 -0.1048E+01  0.8411E+00  0.2698E+01E
 Epicentro: LOS SANTOS - SANTANDER                                             3
 ACTION:UPD 13-03-12 09:30 OP:ep   STATUS:               ID:20130204185400 L   I
 2013-02-04-1850-00M.COL___240                                                 6
 STAT SP IPHASW D HRMM SECON CODA AMPLIT PERI AZIMU VELO AIN AR TRES W  DIS CAZ7
 BAR2 SZ EP       1854 21.17                             172   -0.0810 21.3 200 
 BAR2 SZ I        1854 21.60         7.6 0.09            170           21.3 200 
 BRR  HZ EP       1854 23.14                             152    0.1910 75.5 299 
 BRR  HE ES       1854 40.60                             152    0.2710 75.5 299 
 BRR  HE I        1854 41.51        19.6 0.22            150           75.5 299 
 PAM  SZ EP       1854 23.96                             152    0.1810 77.7  36 
 PAM  SE ES       1854 41.51                             152   -0.3010 77.7  36 
 PAM  SZ I        1854 43.42         6.3 0.65            155           77.7  36 
 RUS  HZ EP       1854 25.14                             146    0.1210 97.4 178 
 RUS  HE ES       1854 44.04                             146    0.0210 97.4 178 
 PTB  HZ EP   1   1854 28.01                             133   -0.55 7  150 260 
 PTB  HE ES   1   1854 50.04                             133   -0.27 7  150 260 
 PTB  HZ I        1854 56.64         4.7 0.33            132            150 260 
                                                                                
