 2016  8 4 1907  9.0 L   6.747 -73.107144.0  RSN 13 0.3 2.3LRSN                1
 GAP= 75        0.72       3.0     3.0  4.1 -0.3107E+01  0.3518E+01  0.2806E+01E
 Epicentro: LOS SANTOS - SANTANDER                                             3
 ACTION:UPD 16-10-29 15:32 OP:rebc STATUS:               ID:20160804185738 L   I
 OLDACT:UP  16-08-05 01:07 OP:edw  STATUS:               ID:20160804185738 L   3
 OLDACT:UP  16-08-05 01:04 OP:edw  STATUS:               ID:20160804185738 L   3
 OLDACT:UPD 16-08-04 23:10 OP:AR   STATUS:               ID:20160804185738 L   3
 2016-08-04-1858-00M.COL___353                                                 6
 STAT SP IPHASW D HRMM SECON CODA AMPLIT PERI AZIMU VELO AIN AR TRES W  DIS CAZ7
 BAR2 EZ IP       19 7 27.93                             172   -0.3910 19.1 206 
 BAR2 EZ ES       19 7 43.61                             172    0.2110 19.1 206 
 BRR  HZ IP     C 19 7 29.97                             150   -0.3510 77.8 301 
 BRR  HN ES       19 7 47.25                             150    0.2710 77.8 301 
 BRR  HZ I        19 7 48.84        42.6 0.16                          77.8 301 
 PAM  EZ EP       19 7 30.97                             150   -0.1610 79.4  34 
 PAM  EE ES       19 7 48.57                             150    0.1610 79.4  34 
 PAM  EZ I        19 7 53.02        18.2 0.38                          79.4  34 
 RUS  HZ EP       19 7 31.77                             145   -0.3610 94.6 178 
 RUS  HN ES       19 7 50.36                             145    0.1810 94.6 178 
 RUS  HZ I        19 7 51.50        37.3 0.32                          94.6 178 
 TAM  HZ IP   2   19 7 36.16                             132    0.16 5  150 103 
 TAM  HE ES   2   19 7 57.96                             132    0.89 5  150 103 
 SPBC HZ EP       19 7 37.20                             129    0.02 9  162 221 
 SPBC HN ES       19 7 58.83                             129   -0.35 9  162 221 
 SPBC HZ I        19 8  1.23        42.0 0.10                           162 221 
 ZAR  HZ EP   4   19 7 40.97                             121   -0.98 0  210 293 
 ZAR  HN ES   4   19 8 10.38                             121    2.71 0  210 293 
 ZAR  HZ I        19 8 12.21        28.4 0.29                           210 293 
 NOR  HZ EP       19 7 44.16                             118   -0.47 8  235 236 
 NOR  HE ES       19 8 12.11                             118   -0.33 8  235 236 
 NOR  HZ I        19 8 16.30        15.3 0.50                           235 236 
 HEL  HZ EP       19 7 49.63                             114    0.22 8  275 257 
 HEL  HN ES       19 8 21.35                             114    0.40 8  275 257 
 HEL  HZ I        19 8 27.60         8.2 0.24                           275 257 
 GUY2CHZ EP   2   19 7 52.76                             112    0.23 4  301 236 
 GUY2CHN ES   2   19 8 27.08                             112    0.58 4  301 236 
 GUY2CHZ I        19 8 33.67         6.6 0.21                           301 236 
 ELA  HZ EP       19 7 55.89                             110    0.19 7  329 231 
 ELA  HN ES       19 8 32.47                             110    0.32 7  329 231 
 ELA  HZ I        19 8 41.63         8.5 0.52                           329 231 
 PRA  HZ EP       19 8  2.81                             106    0.71 6  389 211 
 PRA  HN ES       19 8 43.74                             106    0.21 6  389 211 
 PRA  HZ I        19 8 50.13         8.0 0.25                           389 211 
 SJC  HZ EP   4   19 8  2.48                             105   -2.85 0  416 327 
 SJC  HN ES   4   19 8 46.51                             105   -2.78 0  416 327 
 CRJC HZ EP   9   19 8  8.98                             103   -3.11 0  473   3 
 CRJC HN ES       19 8 58.37                                    0.16 5  473   3 
                                                                                
