 2010 11 4 1720 12.0 L   6.798 -73.046144.0  RSN  6 0.2 1.6LRSN                1
 GAP=170        0.47       3.2     6.6  7.7  0.1287E+01 -0.2529E+02  0.2165E+00E
 Epicentro: LOS SANTOS - SANTANDER                                             3
 ACTION:UP  10-12-17 16:50 OP:REBC STATUS:               ID:20101104172012 L   I
 2010-11-04-1717-15S.COL___129                                                 6
 STAT SP IPHASW D HRMM SECON CODA AMPLIT PERI AZIMU VELO SNR AR TRES W  DIS CAZ7
 BAR2 SZ EP       1720 31.30                             169    -0.210   27 214 
 BAR2 SZ I        1720 47.57         6.9 0.74                            27 214 
 BTL  SZ EP       1720 31.61                             169     0.110   28 298 
 BRR  HZ EP       1720 33.29                             149    -0.210   81 295 
 BRR  HE ES   1   1720 50.42                             149     0.1 7   81 295 
 BRR  HZ I        1720 52.25        16.1 0.18                            81 295 
 RUS  HZ EP       1720 35.58                             144     0.110  100 182 
 RUS  HN ES   2   1720 53.88                             144     0.0 5  100 182 
 RUS  HZ I        1720 55.24         3.0 0.22                           100 182 
 GUE  SZ EP       1720 36.53                             139     0.210  115   7 
 GRA  SZ ES   2   1720 55.99                             137    -0.2 5  123  13 
                                                                                
