 2010  6 4 1803 48.5 L   6.790 -73.004138.2  RSN  9 0.7 2.3LRSN                1
 GAP=150        1.50       7.4    12.1 10.0 -0.5741E+02 -0.1249E+02  0.4576E+01E
 Epicentro: CEPITA - SANTANDER                                                 3
 ACTION:UP  10-08-24 10:08 OP:vdl  STATUS:               ID:20100604180348 L   I
 2010-06-04-1800-03S.COL___109                                                 6
 STAT SP IPHASW D HRMM SECON CODA AMPLIT PERI AZIMU VELO SNR AR TRES W  DIS CAZ7
 BAR2 SZ EP       18 4  7.33                             167    -0.110   30 222 
 BAR2 SZ ES       18 4 21.94                             167    -0.210   30 222 
 GIR2 SZ ES   2   18 4 22.57                             164     0.3 5   38 327 
 GUE  SZ EP       18 4 12.30                             138    -0.210  115   4 
 GRA  SZ EP       18 4 14.12                             136     1.210  123  10 
 GRA  SZ ES   2   18 4 33.27                             136     1.4 5  123  10 
 OCA  SZ EP       18 4 15.83                             127    -0.8 9  164 348 
 OCA  SZ ES   1   18 4 37.55                             127    -1.0 7  164 348 
 OCA  SZ I        18 4 42.39        29.4 0.41                           164 348 
 CHI  HZ EP   1   18 4 25.21                             115    -1.0 6  252 199 
 CHI  HN ES   1   18 4 55.33                             115    -0.3 6  252 199 
 CHI  HZ I        18 5  1.07        13.4 0.46                           252 199 
 RREF BZ EP   1   18 4 36.18                             109     0.5 5  333 231 
 RREF BN ES   1   18 5 12.67                             109     0.3 5  333 231 
 RREF BZ I        18 5 19.14        12.3 0.86                           333 231 
 SDV  BZ EP   1   18 4 36.84                             107    -0.2 5  349  48 
 SDV  BZ I        18 4 37.86         5.4 0.48                           349  48 
 SDV  BN ES       18 5 14.48                             107    -0.3 6  349  48 
 TOL  SZ EP       18 4 38.43                             107     0.7 6  354 227 
                                                                                
