 2013  4 4 1527 39.6 L   6.797 -73.153145.5  RSN 13 0.4 2.5LRSN                1
 GAP=111        0.76       3.0     3.2  5.3  0.1490E+01  0.2081E+01  0.9157E-01E
 Epicentro: LOS SANTOS - SANTANDER                                             3
 ACTION:UPD 13-05-22 14:35 OP:EP   STATUS:               ID:20130404152739 L   I
 2013-04-04-1520-00M.COL___245                                                 6
 STAT SP IPHASW D HRMM SECON CODA AMPLIT PERI AZIMU VELO AIN AR TRES W  DIS CAZ7
 BAR2 SZ EP       1527 59.10                             171   -0.0710 22.8 188 
 BAR2 SZ ES   1   1528 14.34                             171   -0.11 7 22.8 188 
 BAR2 SZ I        1528 15.39       124.9 0.18            170           22.8 188 
 BRR  HZ IP     D 1528  0.96                             153    0.2810 70.7 299 
 BRR  HN ES   1   1528 18.05                             153    0.92 7 70.7 299 
 BRR  HZ I        1528 21.87        64.6 0.14            151           70.7 299 
 RUS  HZ EP       1528  3.11                             144   -0.1810  100 176 
 RUS  HN ES   1   1528 21.23                             144   -0.54 7  100 176 
 RUS  HZ I        1528 23.00        41.2 0.28            145            100 176 
 PTB  HZ EP   1   1528  6.13                             132   -0.33 7  147 259 
 PTB  HN ES   1   1528 26.66                             132   -0.75 7  147 259 
 PTB  HZ I        1528 28.59        35.4 0.14            131            147 259 
 TAM  HZ EP   1   1528  7.46                             130    0.16 7  156 105 
 TAM  HN ES   1   1528 29.01                             130    0.09 7  156 105 
 TAM  HZ I        1528 30.14        19.2 0.40            133            156 105 
 OCA  HZ EP   1   1528  8.35                             129    0.45 7  161 353 
 OCA  HN ES   2   1528 29.57                             129   -0.42 5  161 353 
 OCA  HZ I        1528 33.76        49.3 0.36            130            161 353 
 ZAR  HZ EP   1   1528 12.07                             122    0.11 6  203 292 
 ZAR  HN ES   1   1528 37.46                             122    0.26 6  203 292 
 ZAR  HZ I        1528 43.63        40.7 0.40            122            203 292 
 NOR  HZ EP   1   1528 15.46                             119    0.25 6  234 234 
 NOR  HN ES   1   1528 43.32                             119    0.33 6  234 234 
 NOR  HZ I        1528 48.67        19.7 0.22            119            234 234 
 SML  HZ EP   1   1528 15.67                             117   -0.53 6  244 335 
 SML  HE ES   2   1528 44.49                             117   -0.27 4  244 335 
 SML  HZ I        1528 51.54        44.6 0.26            118            244 335 
 CHI  HZ EP   1   1528 17.43                             117    0.22 6  248 195 
 CHI  HN ES   1   1528 46.73                             117    0.18 6  248 195 
 CHI  HZ I        1528 53.71         9.3 0.44            118            248 195 
 URE  HZ EP   2   1528 20.06                             114   -0.52 4  283 292 
 URE  HE ES   2   1528 51.27                             114   -1.28 4  283 292 
 PRA  HZ EP   1   1528 32.85                             106   -0.17 4  391 209 
 PRA  HN ES   1   1529 15.25                             106    0.56 4  391 209 
 PRA  HZ I        1529 20.20        15.1 0.26            107            391 209 
 SJC  HZ EP   4   1528 33.15                             106   -1.98 0  409 327 
 SJC  HN ES   4   1529 15.16                             106   -3.29 0  409 327 
 SJC  HZ I        1529 18.91         6.7 0.24            106            409 327 
                                                                                
