 2011  9 4 1057 16.6 L   6.781 -73.048146.6  RSN  5 0.2 1.7LRSN                1
 GAP=193        0.39       4.2     8.4  5.5  0.2077E+02 -0.1775E+02 -0.7490E+01E
 Epicentro: LOS SANTOS - SANTANDER                                             3
 ACTION:UPD 12-07-13 15:55 OP:ep   STATUS:               ID:20110904105716 L   I
 2011-09-04-1054-15S.COL___171                                                 6
 STAT SP IPHASW D HRMM SECON CODA AMPLIT PERI AZIMU VELO AIN AR TRES W  DIS CAZ7
 BAR2 SZ EP   1   1057 36.33                             170   -0.08 7 25.6 215 
 BAR2 SZ ES   1   1057 51.67                             170   -0.16 7 25.6 215 
 BAR2 SZ I        1057 54.47        10.9 0.27                          25.6 215 
 GIR2 SZ EP   2   1057 36.37                             165   -0.19 5 36.7 334 
 BRR  HZ EP   1   1057 38.36                             149   -0.13 7 81.7 296 
 BRR  HZ I        1057 38.65        14.3 0.21                          81.7 296 
 BRR  HN ES   1   1057 55.64                             149    0.09 7 81.7 296 
 RUS  HZ EP   2   1057 40.62                             145    0.32 5 98.3 182 
 RUS  HN ES   2   1057 59.00                             145    0.24 5 98.3 182 
 RUS  HZ I        1058  0.38         3.4 0.36                          98.3 182 
 OCA  SZ ES   2   1058  8.06                             129    0.29 5  164 350 
 OCA  SZ I        1058 14.13         6.3 0.36                           164 350 
                                                                                
