 2014  6 4 1903 19.2 L   6.769 -73.178135.1  RSN  4 0.1 1.3LRSN                1
 GAP=134        0.37       2.1     2.2  4.5 -0.1169E+01  0.2062E+01 -0.8244E+00E
 Epicentro: LOS SANTOS - SANTANDER                                             3
 ACTION:UPD 14-07-01 22:50 OP:nd   STATUS:               ID:20140604190319 L   I
 OLDACT:DUP 14-06-05 01:53 OP:stll STATUS:               ID:20140604185818d    3
 2014-06-04-1858-17M.COL___253                                                 6
 STAT SP IPHASW D HRMM SECON CODA AMPLIT PERI AZIMU VELO AIN AR TRES W  DIS CAZ7
 BRR  HZ EP       19 3 39.18                             151    0.0210 69.9 302 
 PAM  SZ EP       19 3 40.49                             147   -0.1510 82.3  40 
 PAM  SN ES       19 3 57.41                             147    0.0810 82.3  40 
 PAM  SZ I        19 3 59.63         5.7 0.54            150           82.3  40 
 RUS  HZ EP       19 3 41.84                             142    0.1310 97.4 174 
 RUS  HE ES       19 3 59.17                             142   -0.0710 97.4 174 
 RUS  HZ I        19 4  1.89         2.4 0.34            145           97.4 174 
 PTB  HN ES       19 4  5.02                             130   -0.01 9  144 260 
                                                                                
