 2010 12 4 1515 53.5 L   6.751 -73.086144.0  RSN  7 0.5 2.1LRSN                1
 GAP=183        0.93       6.9     8.8  9.3 -0.4659E+01  0.1061E+02  0.2548E+02E
 Epicentro: LOS SANTOS - SANTANDER                                             3
 ACTION:UP  11-01-14 15:22 OP:pat  STATUS:               ID:20101204151553 L   I
 2010-12-04-1514-44S.COL___133                                                 6
 STAT SP IPHASW D HRMM SECON CODA AMPLIT PERI AZIMU VELO SNR AR TRES W  DIS CAZ7
 BAR2 SZ EP       1516 12.77                             171    -0.110   21 211 
 BAR2 SZ ES   1   1516 28.18                             171     0.2 7   21 211 
 BAR2 SZ I        1516 29.54        33.5 0.21                            21 211 
 BRR  HZ EP   1   1516 14.67                             150    -0.3 7   80 300 
 BRR  HN ES   1   1516 31.92                             150     0.2 7   80 300 
 BRR  HZ I        1516 35.97        24.4 0.35                            80 300 
 GRA  SZ EP   2   1516 18.62                             136    -0.2 5  129  14 
 GRA  SZ I        1516 42.56         7.4 0.38                           129  14 
 CHI  HZ EP   2   1516 30.65                             117    -0.1 4  245 197 
 CHI  HE ES   1   1516 59.22                             117    -0.5 6  245 197 
 CHI  HZ I        1517  9.76         5.3 0.27                           245 197 
 HEL  HN ES   1   1517  5.36                             114    -0.6 6  277 257 
 HEL  HZ I        1517 10.63         5.5 0.22                           277 257 
 RREF HZ EP   1   1516 40.84                             110     1.1 5  323 231 
 RREF HZ I        1517 25.42         7.2 0.61                           323 231 
 PRA  HZ EP   1   1516 46.70                             106    -0.1 4  391 211 
 PRA  HE ES   2   1517 29.65                             106     1.3 3  391 211 
 PRA  HZ I        1517 32.08        11.6 0.62                           391 211 
                                                                                
