 2015  4 4 1153  7.3 L   6.792 -73.212139.7  RSN  5 0.3 1.3LRSN                1
 GAP=128        0.70       4.2     5.3  6.4  0.1728E+01  0.1058E+02  0.6275E+01E
 Epicentro: ZAPATOCA - SANTANDER                                               3
 ACTION:UPD 15-06-03 16:52 OP:cam  STATUS:               ID:20150404115307 L   I
 OLDACT:DUP 15-04-04 23:46 OP:fm   STATUS:               ID:20150404114750d    3
 2015-04-04-1147-49M.COL___279                                                 6
 STAT SP IPHASW D HRMM SECON CODA AMPLIT PERI AZIMU VELO AIN AR TRES W  DIS CAZ7
 BAR2 EZ EP       1153 26.52                             170    0.3210 22.4 171 
 BAR2 EZ ES       1153 40.93                             170   -0.0010 22.4 171 
 BAR2 EZ I        1153 43.03         5.9 0.22            158           22.4 171 
 BRR  HE ES       1153 43.41                             153    0.2010 65.3 302 
 PAM  SE ES       1153 46.13                             148   -0.2110 82.9  43 
 RUS  HZ EP   1   1153 30.88                             143    0.41 7  101 172 
 RUS  HN ES       1153 48.36                             143   -0.1810  101 172 
 RUS  HZ I        1153 51.15         2.2 0.34            128            101 172 
 PTB  HZ EP       1153 32.72                             132   -0.40 9  140 259 
 PTB  HZ I        1153 58.24         2.5 0.16            113            140 259 
                                                                                
