 2012  8 4 1658 40.6 L   6.790 -73.169141.9  RSN  5 0.4 1.3LRSN                1
 GAP=134        0.75       6.1     5.8  8.7 -0.3196E+01  0.6784E+01  0.2666E+01E
 Epicentro: LOS SANTOS - SANTANDER                                             3
 ACTION:UPD 12-09-10 11:54 OP:ep   STATUS:               ID:20120804165840 L   I
 2012-08-04-1649-38M.COL___212                                                 6
 STAT SP IPHASW D HRMM SECON CODA AMPLIT PERI AZIMU VELO AIN AR TRES W  DIS CAZ7
 BAR2 SZ EP       1658 59.84                             171    0.0710 21.9 184 
 BAR2 SZ ES   2   1659 14.03                             171   -0.67 5 21.9 184 
 BAR2 SZ I        1659 15.61         8.2 0.16                          21.9 184 
 BRR  HZ EP       1659  1.58                             153    0.3110 69.5 300 
 BRR  HN ES   2   1659 18.30                             153    0.93 5 69.5 300 
 PAM  SZ EP       1659  2.35                             149   -0.2410 79.9  40 
 PAM  SZ I        1659  2.78         4.3 0.26                          79.9  40 
 PAM  SN ES   2   1659 19.57                             149   -0.15 5 79.9  40 
 RUS  HZ EP       1659  4.19                             143    0.2510 99.7 175 
 RUS  HN ES   2   1659 22.27                             143    0.15 5 99.7 175 
 RUS  HZ I        1659 23.10         2.7 0.36                          99.7 175 
 PTB  HZ EP       1659  6.65                             132   -0.39 9  145 259 
 PTB  HN ES   2   1659 27.15                             132   -0.49 5  145 259 
 PTB  HZ I        1659 30.92         1.9 0.46                           145 259 
                                                                                
