 2011  7 4 1859 37.1 L   6.768 -73.095151.0  RSN  9 0.4 2.2LRSN                1
 GAP=145        0.78       3.1     5.5  5.0 -0.7040E+01  0.1840E+01  0.6339E+00E
 Epicentro: LOS SANTOS - SANTANDER                                             3
 ACTION:UPD 12-07-25 13:58 OP:epov STATUS:               ID:20110704185937 L   I
 2011-07-04-1858-04S.COL___139                                                 6
 STAT SP IPHASW D HRMM SECON CODA AMPLIT PERI AZIMU VELO AIN AR TRES W  DIS CAZ7
 BAR2 SZ EP       1859 57.24                             171   -0.1110 21.7 206 
 BAR2 SZ I        1859 57.64        19.7 0.17                          21.7 206 
 BAR2 SZ ES       19 0 13.42                             171    0.2910 21.7 206 
 PAM  SN ES   1   19 0 17.01                             152   -0.60 7 76.9  35 
 BRR  HZ EP       1859 59.22                             151    0.0010 77.8 299 
 BRR  HN ES       19 0 16.81                             151    0.3610 77.8 299 
 BRR  HZ I        19 0 18.88        44.3 0.17                          77.8 299 
 RUS  HZ EP   1   19 0  1.21                             146    0.08 7 96.8 179 
 RUS  HE ES   1   19 0 19.61                             146   -0.25 7 96.8 179 
 BRI  SZ EP   1   19 0  1.95                             142    0.32 7  110  17 
 GRA  SZ EP       19 0  2.71                             138   -0.2810  128  15 
 GRA  SZ ES       19 0 23.02                             138   -0.1510  128  15 
 GRA  SZ I        19 0 25.11        22.2 0.20                           128  15 
 OCA  SZ EP       19 0  6.66                             130    0.41 9  165 351 
 OCA  SZ ES   2   19 0 29.05                             130    0.09 5  165 351 
 OCA  SZ I        19 0 32.40        17.2 0.28                           165 351 
 NOR  SZ EP   1   19 0 12.90                             119   -0.53 6  237 236 
 NOR  SN ES   1   19 0 40.86                             119   -0.90 6  237 236 
 CHI  HZ EP   1   19 0 15.32                             118    0.41 6  247 197 
 CHI  HE ES   1   19 0 44.81                             118    0.42 6  247 197 
 CHI  HZ I        19 0 52.55         6.2 0.32                           247 197 
                                                                                
