 2013  2 4 1027 18.2 L   6.782 -73.167145.7  RSN 11 0.4 2.4LRSN                1
 GAP= 71        0.97       3.6     3.3  5.4  0.2320E+01  0.2663E+01 -0.1192E+01E
 Epicentro: LOS SANTOS - SANTANDER                                             3
 ACTION:UPD 13-03-12 09:30 OP:ep   STATUS:               ID:20130204102718 L   I
 2013-02-04-1020-00M.COL___241                                                 6
 STAT SP IPHASW D HRMM SECON CODA AMPLIT PERI AZIMU VELO AIN AR TRES W  DIS CAZ7
 BAR2 SZ IP       1027 37.91                             171    0.1010 21.1 185 
 BAR2 SZ ES       1027 52.57                             171   -0.5110 21.1 185 
 BAR2 SZ I        1027 54.01        65.6 0.19            177           21.1 185 
 BRR  HZ IP     C 1027 39.90                             153    0.5910 70.1 301 
 BRR  HN ES       1027 56.58                             153    0.8310 70.1 301 
 BRR  HN I        1027 57.09        95.0 0.23            146           70.1 301 
 PAM  SZ EP       1027 41.02                             150    0.4010 80.4  40 
 PAM  SN ES       1027 57.69                             150   -0.4010 80.4  40 
 PAM  SZ I        1028  0.15        49.0 0.45            143           80.4  40 
 RUS  HZ EP     D 1027 41.90                             144    0.0510 98.8 175 
 RUS  HE ES   1   1027 59.85                             144   -0.42 7 98.8 175 
 RUS  HE I        1028  1.43        18.5 0.46            146           98.8 175 
 PTB  HZ EP       1027 44.69                             133   -0.25 9  145 259 
 PTB  HE ES   1   1028  5.57                             133   -0.21 7  145 259 
 PTB  HZ I        1028  8.86        26.3 0.16            129            145 259 
 TAM  HZ EP       1027 46.29                             130    0.22 9  157 104 
 TAM  HZ I        1027 46.44        22.1 0.21            128            157 104 
 TAM  HE ES       1028  7.83                             130    0.04 9  157 104 
 OCA  HZ EP       1027 46.39                             129   -0.30 9  162 354 
 OCA  HZ I        1028 13.15        20.1 0.15            123            162 354 
 ZAR  HZ EP   1   1027 50.72                             123    0.20 6  203 293 
 ZAR  HN ES   1   1028 15.86                             123    0.15 6  203 293 
 ZAR  HZ I        1028 22.15        20.6 0.20            118            203 293 
 SML  HZ EP       1027 54.20                             117   -0.74 8  245 336 
 SML  HE ES   1   1028 23.90                             117    0.33 6  245 336 
 SML  HZ I        1028 30.35        18.7 0.07            113            245 336 
 CHI  HZ EP   1   1027 55.99                             117    0.34 6  246 195 
 CHI  HN ES   1   1028 24.87                             117    0.03 6  246 195 
 URE  HZ EP   1   1027 58.38                             114   -0.75 6  282 292 
 URE  HN ES   1   1028 30.52                             114   -0.51 6  282 292 
                                                                                
