 2010  1 4 1437 23.6 L   6.792 -72.992134.3  RSN  6 0.4 2.5LRSN                1
 GAP=199        0.62       5.1    17.4  6.4 -0.4487E+02  0.3574E+02 -0.1577E+01E
 Epicentro: CEPITA - SANTANDER                                                 3
 ACTION:UP  10-08-24 09:42 OP:vdl  STATUS:               ID:20100104143723 L   I
 2010-01-04-1433-08S.COL___096                                                 6
 STAT SP IPHASW D HRMM SECON CODA AMPLIT PERI AZIMU VELO SNR AR TRES W  DIS CAZ7
 BAR2 SZ IP       1437 42.29                             167     0.210   31 224 
 BAR2 SZ ES   1   1437 56.42                             167     0.0 7   31 224 
 RUS  BZ EP   2   1437 46.15                             142    -0.1 5  100 186 
 RUS  BN ES   3   1438  4.31                             142     0.5 2  100 186 
 RUS  BZ I        1438  6.50        63.1 0.21                           100 186 
 OCA  SZ EP   1   1437 51.19                             126    -0.2 7  164 347 
 CHI  HZ IP       1438  1.10                             114    -0.1 8  253 199 
 CHI  HN ES   1   1438 29.85                             114    -0.6 6  253 199 
 CHI  HZ I        1438 34.16        13.7 0.49                           253 199 
 ROSC BZ EP   2   1438  2.96                             114     0.9 4  261 214 
 ROSC BN ES   3   1438 32.51                             114     0.4 2  261 214 
 ROSC BZ I        1438 39.70        18.1 0.41                           261 214 
 RREF BZ EP   1   1438 10.62                             108    -0.1 5  334 231 
 RREF BZ I        1438 51.45        23.2 0.45                           334 231 
                                                                                
