 2017 12 4 1358  6.1 L   6.746 -73.412112.8  RSN  4 0.2 1.4LRSN                1
 GAP=186        0.57       4.5     3.3  5.1  0.9404E+01  0.4049E+01 -0.3643E+01E
 Epicentro: EL CARMEN - SANTANDER                                              3
 ACTION:UPD 18-01-04 13:17 OP:rebc STATUS:               ID:20171204135806 L   I
 OLDACT:UP  17-12-04 23:06 OP:lv   STATUS:               ID:20171204134739d    3
 OLDACT:DUP 17-12-04 22:59 OP:lv   STATUS:               ID:20171204134739d    3
 2017-12-04-1348-00M.COL___482                                                 6
 STAT SP IPHASW D HRMM SECON CODA AMPLIT PERI AZIMU VELO AIN AR TRES W  DIS CAZ7
 BAR2 EZ EP       1358 22.20                             164    0.2510 30.6 124 
 BAR2 EZ ES       1358 34.17                             164   -0.1810 30.6 124 
 BAR2 EZ I        1358 36.24         8.2 0.30            168           30.6 124 
 RUS  HZ EP       1358 26.80                             135    0.0210  101 159 
 RUS  HN ES       1358 42.99                             135    0.0510  101 159 
 RUS  HZ I        1358 45.19         2.4 0.28            139            101 159 
 PTB  HZ EP       1358 27.18                             130   -0.4310  118 259 
 PTB  HN ES       1358 44.61                             130    0.1810  118 259 
 PTB  HZ I        1358 47.77         4.2 0.16            132            118 259 
 ZAR  HZ EP       1358 34.01                             117    0.09 9  180 297 
 ZAR  HN ES       1358 55.69                             117    0.03 9  180 297 
 ZAR  HZ I        1359  0.21         5.4 0.30            120            180 297 
                                                                                
