 2016  7 4 1915 48.5 L   6.781 -73.139136.6  RSN  6 0.1 1.4LRSN                1
 GAP=138        0.39       1.9     1.7  2.9  0.2110E+00  0.1182E+01  0.4941E-02E
 Epicentro: LOS SANTOS - SANTANDER                                             3
 ACTION:UPD 17-03-29 16:47 OP:lp   STATUS:               ID:20160704191548 L   I
 OLDACT:DUP 16-07-05 01:32 OP:cara STATUS:               ID:20160704190746d    3
 OLDACT:DUP 16-07-05 01:25 OP:cara STATUS:               ID:20160704190745d    3
 2016-07-04-1907-43M.COL___328                                                 6
 STAT SP IPHASW D HRMM SECON CODA AMPLIT PERI AZIMU VELO AIN AR TRES W  DIS CAZ7
 BAR2 EZ ES       1916 21.37                             171   -0.0810 21.4 193 
 BAR2 EZ I        1916 22.87         6.3 0.16            172           21.4 193 
 BRR  HZ EP       1916  8.95                             150    0.1510 72.8 300 
 BRR  HE ES       1916 24.79                             150    0.1910 72.8 300 
 BRR  HZ I        1916 31.36        10.7 0.56            151           72.8 300 
 PAM  EZ IP       1916  9.80                             149   -0.0610 78.6  38 
 PAM  EN ES       1916 26.41                             149   -0.0810 78.6  38 
 PAM  EZ I        1916 28.62         8.3 0.50            152           78.6  38 
 RUS  HZ EP       1916 11.16                             142   -0.0810 98.5 176 
 RUS  HE ES       1916 29.05                             142    0.1010 98.5 176 
 RUS  HZ I        1916 30.80         2.2 0.38            147           98.5 176 
 PTB  HZ EP       1916 14.89                             130    0.09 9  148 260 
 PTB  HN ES       1916 35.08                             130   -0.21 9  148 260 
 PTB  HZ I        1916 37.65         2.4 0.10            133            148 260 
 ZAR  HN ES       1916 45.46                             120   -0.06 8  205 293 
                                                                                
