 2017 12 4 1805 59.2 L   6.938 -73.122142.1  RSN  4 0.5 1.5LRSN                1
 GAP=284        1.17       9.4     8.9 10.9  0.2423E+02  0.2010E+02  0.2597E+01E
 Epicentro: PIEDECUESTA - SANTANDER                                            3
 ACTION:UPD 18-01-04 13:17 OP:rebc STATUS:               ID:20171204180559 L   I
 OLDACT:DUP 17-12-05 00:01 OP:lv   STATUS:               ID:20171204175744d    3
 OLDACT:REG 17-12-04 21:41 OP:lv   STATUS:               ID:20171204175741     3
 2017-12-04-1758-00M.COL___488                                                 6
 STAT SP IPHASW D HRMM SECON CODA AMPLIT PERI AZIMU VELO AIN AR TRES W  DIS CAZ7
 BAR2 EZ EP       18 6 18.03                             164   -0.7510 38.8 190 
 BAR2 EZ ES       18 6 34.64                             164    0.5610 38.8 190 
 BAR2 EZ I        18 6 35.95        10.8 0.26            164           38.8 190 
 RUS  HZ EP       18 6 24.05                             139    0.3210  116 178 
 RUS  HN ES       18 6 42.50                             139   -0.3710  116 178 
 RUS  HZ I        18 6 44.04         4.1 0.30            141            116 178 
 PTB  HZ IP       18 6 26.88                             130    0.47 9  154 253 
 PTB  HN ES       18 6 47.36                             130   -0.30 9  154 253 
 PTB  HZ I        18 6 50.34         2.5 0.16            131            154 253 
 CHI  HN ES       18 7  9.10                             115    0.16 8  264 195 
                                                                                
