 2014  6 4 1803  5.6 L   6.792 -73.181134.4  RSN 17 0.5 2.4LRSN                1
 GAP= 69        1.22       2.8     3.7  5.5 -0.2040E+01  0.4981E+01  0.2068E+01E
 Epicentro: LOS SANTOS - SANTANDER                                             3
 ACTION:UPD 14-07-01 22:50 OP:nd   STATUS:               ID:20140604180305 L   I
 OLDACT:REG 14-06-04 21:49 OP:stll STATUS:               ID:20140604175812     3
 2014-06-04-1758-12M.COL___253                                                 6
 STAT SP IPHASW D HRMM SECON CODA AMPLIT PERI AZIMU VELO AIN AR TRES W  DIS CAZ7
 BAR2 SZ IP     C 18 3 24.06                             170    0.2310 22.1 180 
 BAR2 SZ ES       18 3 37.60                             170   -0.4610 22.1 180 
 BAR2 SZ I        18 3 39.77        69.2 0.32            169           22.1 180 
 BRR  HZ EP       18 3 26.00                             151    0.6510 68.2 301 
 BRR  HN ES       18 3 41.73                             151    0.9710 68.2 301 
 BRR  HZ I        18 3 47.01        50.2 0.12            150           68.2 301 
 PAM  SZ IP     C 18 3 26.91                             148    0.0910 80.6  41 
 PAM  SN ES       18 3 43.51                             148    0.1410 80.6  41 
 PAM  SZ I        18 3 45.87        76.8 0.50            153           80.6  41 
 RUS  HZ EP       18 3 28.06                             141   -0.1410  100 174 
 RUS  HN ES       18 3 45.83                             141   -0.0110  100 174 
 RUS  HZ I        18 3 48.15        27.1 0.44            144            100 174 
 PTB  HZ EP       18 3 31.15                             130   -0.13 9  144 259 
 PTB  HE ES       18 3 51.50                             130    0.18 9  144 259 
 PTB  HZ I        18 3 54.87        27.7 0.18            130            144 259 
 TAM  HZ IP     D 18 3 32.43                             127   -0.31 9  159 104 
 TAM  HZ I        18 3 32.64        57.3 0.36            133            159 104 
 SPBC HZ EP       18 3 33.21                             127    0.27 9  160 218 
 SPBC HN ES       18 3 53.76                             127   -0.51 9  160 218 
 SPBC HZ I        18 4  0.62        31.9 0.24            128            160 218 
 OCA  HZ EP       18 3 32.44                             127   -0.65 9  161 355 
 OCA  HE ES       18 3 54.30                             127   -0.24 9  161 355 
 OCA  HZ I        18 3 58.00        43.0 0.18            130            161 355 
 ZAR  HZ EP       18 3 37.09                             120    0.12 9  201 293 
 ZAR  HN ES       18 4  1.61                             120    0.15 9  201 293 
 ZAR  HZ I        18 4 11.01        25.1 0.14            121            201 293 
 NOR  HZ EP       18 3 40.69                             116    0.41 8  231 234 
 NOR  HN ES       18 4  6.86                             116   -0.48 8  231 234 
 NOR  HZ I        18 4 15.36        17.8 0.16            118            231 234 
 SML  HZ EP       18 3 40.36                             115   -1.16 8  243 336 
 SML  HN ES       18 4  9.00                             115   -0.54 8  243 336 
 CHI  HZ EP       18 3 42.90                             115    0.42 8  247 194 
 CHI  HE ES       18 4 11.03                             115   -0.22 8  247 194 
 CHI  HZ I        18 4 14.92         8.6 0.48            117            247 194 
 HEL  HZ EP       18 3 45.24                             113    0.44 8  268 256 
 HEL  HN ES       18 4 14.54                             113   -0.84 8  268 256 
 HEL  HZ I        18 4 24.70         9.7 0.30            114            268 256 
 GUY2CHZ EP       18 3 49.56                             110    1.29 7  297 234 
 GUY2CHN ES       18 4 21.91                             110    0.34 7  297 234 
 GUY2CHZ I        18 4 31.54         8.8 0.58                           297 234 
 RREF HZ EP       18 3 51.73                             109    0.87 7  318 229 
 RREF HN ES       18 4 25.26                             109   -0.90 7  318 229 
 RREF HZ I        18 4 36.06        10.6 0.26            110            318 229 
 TOL  SZ EP       18 3 53.53                             107    0.51 7  340 224 
 TOL  SN ES       18 4 29.60                             107   -0.42 7  340 224 
 PRA  HZ EP       18 3 58.55                             105    0.13 6  389 209 
 PRA  HN ES       18 4 39.03                             105   -0.60 6  389 209 
 PRA  HZ I        18 4 50.49         7.9 0.28            106            389 209 
                                                                                
