 2015  5 4 1234 44.1 L   6.805 -73.149151.3  RSN  7 0.4 1.8LRSN                1
 GAP=136        0.98       3.5     5.0  6.4  0.9457E+00  0.6585E+01 -0.2743E+01E
 Epicentro: LOS SANTOS - SANTANDER                                             3
 ACTION:UPD 15-09-10 22:01 OP:cam  STATUS:               ID:20150504123444 L   I
 OLDACT:REG 15-05-04 22:17 OP:stll STATUS:               ID:20150504122749     3
 2015-05-04-1227-49M.COL___274                                                 6
 STAT SP IPHASW D HRMM SECON CODA AMPLIT PERI AZIMU VELO AIN AR TRES W  DIS CAZ7
 BAR2 EZ EP       1235  4.47                             171    0.0610 23.8 189 
 BAR2 EZ ES       1235 20.17                             171   -0.0810 23.8 189 
 BAR2 EZ I        1235 21.03        21.2 0.16            169           23.8 189 
 BRR  HZ EP       1235  6.37                             154    0.5410 70.6 298 
 BRR  HN ES       1235 23.49                             154    0.7210 70.6 298 
 PAM  SZ EP       1235  6.86                             152   -0.0510 77.2  40 
 PAM  SZ I        1235  7.60         6.8 0.24            153           77.2  40 
 PAM  SN ES       1235 24.41                             152   -0.2810 77.2  40 
 RUS  HZ EP       1235  8.61                             145    0.1610  101 176 
 RUS  HZ I        1235  9.55         5.4 0.14            145            101 176 
 RUS  HN ES       1235 27.26                             145   -0.1710  101 176 
 SPBC HZ EP       1235 13.32                             130    0.27 9  163 219 
 SPBC HN ES       1235 34.98                             130   -0.65 9  163 219 
 SPBC HZ I        1235 39.90        10.0 0.40            129            163 219 
 ZAR  HN ES       1235 42.19                             124   -0.23 9  204 292 
 ZAR  HZ I        1235 47.78         7.2 0.42            122            204 292 
 SML  HZ EP       1235 20.99                             119    0.01 8  243 335 
 SML  HN ES       1235 49.07                             119   -0.67 8  243 335 
 SML  HZ I        1235 55.11         5.7 0.10            118            243 335 
                                                                                
