 2013  7 4 1105 22.1 L   6.560 -73.600109.1  RSN  6 0.3 1.5LRSN                1
 GAP=126        0.77       4.6     3.6  7.3  0.1618E+01  0.4956E+01 -0.9002E+01E
 Epicentro: EL CARMEN DE CHUCURI - SANTANDER                                   3
 ACTION:UPD 13-08-12 10:35 OP:ep   STATUS:               ID:20130704110522 L   I
 OLDACT:REG 13-07-04 18:50 OP:jn   STATUS:               ID:20130704105959     3
 2013-07-04-1059-59M.COL___265                                                 6
 STAT SP IPHASW D HRMM SECON CODA AMPLIT PERI AZIMU VELO AIN AR TRES W  DIS CAZ7
 BAR2 SZ EP       11 5 38.47                             155    0.2710 46.3  86 
 BAR2 SZ ES       11 5 50.58                             155   -0.2110 46.3  86 
 BAR2 SZ I        11 5 52.04        22.1 0.36            156           46.3  86 
 BRR  HZ EP       11 5 39.05                             148    0.3110 61.7 348 
 BRR  HN ES   1   11 5 52.21                             148    0.45 7 61.7 348 
 GIR2 SZ EP       11 5 39.64                             143   -0.0710 72.9  38 
 RUS  HN ES   1   11 5 56.83                             136   -0.37 7 93.4 142 
 RUS  HZ I        11 5 59.67         4.5 0.27            136           93.4 142 
 PTB  HZ EP       11 5 41.44                             135    0.1810 94.7 269 
 PTB  HN ES       11 5 55.97                             135   -0.2610 94.7 269 
 PTB  HZ I        11 5 57.74         5.9 0.12            137           94.7 269 
 SML  HE ES   1   11 6 25.31                             107   -0.77 6  253 348 
                                                                                
