 2014  3 4 1530 31.0 L   6.817 -73.172142.1  RSN  4 0.3 1.2LRSN                1
 GAP=144        0.74       4.5     4.3  6.2 -0.6014E+01  0.7510E+01 -0.2530E+01E
 Epicentro: LOS SANTOS - SANTANDER                                             3
 ACTION:UPD 14-04-09 23:14 OP:nd   STATUS:               ID:20140304153031 L   I
 OLDACT:REG 14-03-04 15:23 OP:stll STATUS:               ID:20140304152816     3
 2014-03-04-1528-16M.COL___238                                                 6
 STAT SP IPHASW D HRMM SECON CODA AMPLIT PERI AZIMU VELO AIN AR TRES W  DIS CAZ7
 BAR2 SZ EP       1530 49.89                             170   -0.3610 24.9 183 
 BAR2 SZ ES       1531  4.92                             170   -0.3310 24.9 183 
 PAM  SZ EP       1530 52.86                             150   -0.0210 77.8  42 
 PAM  SE ES       1531 10.19                             150    0.2610 77.8  42 
 PAM  SZ I        1531 12.40         3.2 0.20            152           77.8  42 
 RUS  HZ EP       1530 54.39                             142   -0.1910  103 175 
 RUS  HZ I        1530 55.30         1.4 0.38            147            103 175 
 RUS  HN ES       1531 13.33                             142    0.3810  103 175 
 PTB  HZ EP       1530 57.79                             132    0.31 9  145 258 
 PTB  HN ES       1531 18.09                             132   -0.01 9  145 258 
 PTB  HZ I        1531 25.51         3.1 0.52            131            145 258 
                                                                                
