 2011  1 4 1631 13.4 L   6.678 -73.124146.9  RSN  4 0.4 1.3LRSN                1
 GAP=208        0.70       9.0    10.4  9.5 -0.1869E+02  0.3438E+02  0.1408E+02E
 Epicentro: JORDAN - SANTANDER                                                 3
 ACTION:UP  11-02-08 08:38 OP:pat  STATUS:               ID:20110104163113 L   I
 2011-01-04-1620-00M.COL___137                                                 6
 STAT SP IPHASW D HRMM SECON CODA AMPLIT PERI AZIMU VELO SNR AR TRES W  DIS CAZ7
 BAR2 SZ EP   1   1631 32.46                             175    -0.6 7   12 214 
 BAR2 SZ ES   2   1631 47.78                             175    -0.5 5   12 214 
 BAR2 SZ I        1631 48.98         6.4 0.46                            12 214 
 BTL  SZ EP   1   1631 33.76                             168     0.4 7   31 329 
 BTL  SZ ES   2   1631 49.28                             168     0.4 5   31 329 
 RUS  HZ EP   1   1631 36.61                             148     0.2 7   87 177 
 RUS  HZ I        1631 37.17         2.0 0.22                            87 177 
 RUS  HE ES   2   1631 54.42                             148     0.2 5   87 177 
 NOR  SZ EP   1   1631 48.46                             119    -0.2 6  229 238 
 NOR  SN ES   2   1632 16.26                             119     0.1 4  229 238 
                                                                                
