 2014  8 4 1707 29.7 L   6.781 -73.163144.5  RSN 13 0.3 1.9LRSN                1
 GAP=135        0.65       2.0     2.6  4.0 -0.6689E+00  0.2850E+01 -0.2892E-01E
 Epicentro: LOS SANTOS - SANTANDER                                             3
 ACTION:UPD 14-09-15 21:46 OP:nd   STATUS:               ID:20140804170729 L   I
 OLDACT:REG 14-08-04 21:10 OP:spq  STATUS:               ID:20140804165820     3
 2014-08-04-1658-20M.COL___248                                                 6
 STAT SP IPHASW D HRMM SECON CODA AMPLIT PERI AZIMU VELO AIN AR TRES W  DIS CAZ7
 BAR2 SZ EP     D 17 7 49.16                             171    0.0310 21.0 186 
 BAR2 SZ ES   1   17 8  3.68                             171   -0.61 7 21.0 186 
 BAR2 SZ I        17 8  5.60        28.5 0.14            171           21.0 186 
 BRR  HZ IP     C 17 7 51.03                             153    0.3510 70.6 301 
 BRR  HE ES       17 8  7.44                             153    0.4010 70.6 301 
 BRR  HZ I        17 8 10.92        16.0 0.26            151           70.6 301 
 PAM  SZ EP       17 7 51.90                             150   -0.0510 80.2  40 
 PAM  SN ES   1   17 8  9.43                             150    0.12 7 80.2  40 
 PAM  SZ I        17 8 11.48        12.9 0.54            153           80.2  40 
 RUS  HZ EP       17 7 53.02                             144   -0.1710 98.6 175 
 RUS  HN ES       17 8 11.67                             144    0.1610 98.6 175 
 RUS  HZ I        17 8 13.05        10.2 0.26            146           98.6 175 
 PTB  HZ EP       17 7 56.06                             132   -0.30 9  146 259 
 PTB  HN ES       17 8 17.00                             132   -0.16 9  146 259 
 PTB  HZ I        17 8 18.62        10.2 0.22            132            146 259 
 SPBC HZ EP       17 7 57.95                             129    0.11 9  160 219 
 SPBC HN ES       17 8 19.78                             129   -0.00 9  160 219 
 SPBC HZ I        17 8 22.99        22.0 0.26            130            160 219 
 ZAR  HZ EP       17 8  1.55                             122   -0.41 9  203 293 
 ZAR  HN ES       17 8 26.83                             122   -0.30 9  203 293 
 ZAR  HZ I        17 8 34.05         6.6 0.26            123            203 293 
 NOR  HZ EP       17 8  5.32                             119    0.26 8  232 235 
 NOR  HN ES       17 8 32.34                             119   -0.30 8  232 235 
 NOR  HZ I        17 8 37.20         7.4 0.24            119            232 235 
 SML  HZ EP   1   17 8  6.36                             117   -0.01 6  245 336 
 SML  HN ES       17 8 35.18                             117    0.20 8  245 336 
 SML  HZ I        17 8 38.65         9.3 0.08            118            245 336 
 CHI  HN ES   1   17 8 36.08                             117   -0.11 6  246 195 
 CHI  HZ I        17 8 39.87         3.4 0.39            119            246 195 
 GUY2CHE ES       17 8 47.16                             112    0.49 7  298 235 
 GUY2CHZ I        17 8 56.15         4.1 0.32                           298 235 
 RREF HZ EP   4   17 8 18.38                             111    2.91 0  319 229 
 RREF HN ES       17 8 51.37                             111    0.20 7  319 229 
 RREF HZ I        17 8 58.18         4.3 0.24            112            319 229 
 SJC  HZ EP   4   17 8 22.96                             105   -2.34 0  410 327 
 SJC  HN ES   4   17 9  6.89                             105   -1.79 0  410 327 
 SJC  HZ I        17 9  9.69         1.9 0.18            107            410 327 
                                                                                
