 2016  5 4 1907 29.8 L   6.811 -73.181144.8  RSN  4 0.1 1.4LRSN                1
 GAP=144        0.38       2.3     2.3  3.4 -0.1808E+01  0.1117E+01 -0.3770E+00E
 Epicentro: ZAPATOCA - SANTANDER                                               3
 ACTION:UPD 16-08-18 17:42 OP:cam  STATUS:               ID:20160504190729 L   I
 OLDACT:REG 16-05-04 20:58 OP:dnl  STATUS:               ID:20160504185744     3
 2016-05-04-1857-44M.COL___298                                                 6
 STAT SP IPHASW D HRMM SECON CODA AMPLIT PERI AZIMU VELO AIN AR TRES W  DIS CAZ7
 BAR2 EZ EP       19 7 49.31                             170    0.0110 24.2 180 
 BAR2 EZ ES       19 8  4.50                             170   -0.0410 24.2 180 
 BAR2 EZ I        19 8  5.50         4.9 0.12            171           24.2 180 
 PAM  EZ EP       19 7 52.16                             150    0.1810 79.0  42 
 PAM  EE ES       19 8  9.22                             150   -0.0910 79.0  42 
 PAM  EZ I        19 8 11.31         4.8 0.50            151           79.0  42 
 RUS  HZ EP       19 7 53.35                             143   -0.1910  102 174 
 RUS  HN ES       19 8 12.21                             143    0.1310  102 174 
 RUS  HZ I        19 8 12.99         3.5 0.26            145            102 174 
 PTB  HZ EP   2   19 7 56.30                             132   -0.03 5  144 258 
 PTB  HN ES       19 8 17.07                             132    0.02 9  144 258 
 PTB  HZ I        19 8 18.80         2.8 0.10            134            144 258 
                                                                                
