 2013  1 4 1734 18.2 L   6.853 -73.065143.9  RSN  9 0.5 2.2LRSN                1
 GAP=191        0.91       4.5     6.0  7.1  0.6657E+01  0.1258E+02  0.3029E+01E
 Epicentro: LOS SANTOS - SANTANDER                                             3
 ACTION:UPD 13-02-15 09:12 OP:ep   STATUS:               ID:20130104173418 L   I
 2013-01-04-1730-00M.COL___242                                                 6
 STAT SP IPHASW D HRMM SECON CODA AMPLIT PERI AZIMU VELO AIN AR TRES W  DIS CAZ7
 BAR2 SZ EP       1734 38.08                             167    0.2410 31.7 204 
 BAR2 SZ ES   1   1734 53.05                             167   -0.08 7 31.7 204 
 BAR2 SZ I        1734 56.60        38.1 0.54            168           31.7 204 
 BRR  HZ EP       1734 39.75                             151    0.2310 76.8 291 
 BRR  HN ES   1   1734 56.50                             151    0.39 7 76.8 291 
 BRR  HZ I        1735  0.08        27.8 0.12            151           76.8 291 
 RUS  HZ EP       1734 42.27                             142    0.0510  106 181 
 RUS  HE ES   1   1735  0.91                             142   -0.02 7  106 181 
 OCA  HZ EP   2   1734 45.66                             130   -0.32 5  156 350 
 OCA  HN ES   2   1735  6.97                             130   -0.65 5  156 350 
 OCA  HZ I        1735 13.91        12.0 0.28            133            156 350 
 PTB  HZ IPg      1734 44.90                             130   -1.08 9  158 257 
 PTB  HN ES   4   1735  5.84                             130   -1.78 0  158 257 
 PTB  HZ I        1735  8.76        17.9 0.44            132            158 257 
 ZAR  HZ EP       1734 51.67                             121    0.46 8  210 290 
 ZAR  HN ES   1   1735 17.03                             121    0.10 6  210 290 
 NOR  HZ EP   1   1734 54.62                             117   -0.40 6  245 235 
 NOR  HN ES   1   1735 23.03                             117   -0.68 6  245 235 
 NOR  HZ I        1735 25.75         9.3 0.18            120            245 235 
 CHI  HZ EP   1   1734 56.92                             116    0.20 6  257 197 
 CHI  HN ES   1   1735 26.97                             116    0.23 6  257 197 
 CHI  HZ I        1735 32.51         6.5 0.32            119            257 197 
 HEL  HZ EP   1   1735  0.14                             114    0.65 6  282 255 
 HEL  HE ES   1   1735 32.00                             114    0.34 6  282 255 
 HEL  HZ I        1735 37.01        12.0 0.34            116            282 255 
 MON  HZ EP   4   1735  4.67                             108   -2.90 0  357 307 
 MON  HN ES   4   1735 41.49                             108   -4.57 0  357 307 
                                                                                
