 2016 11 4 1518  9.4 L   6.776 -73.183138.5  RSN  8 0.4 1.9LRSN                1
 GAP=139        0.86       3.8     3.7  6.0 -0.2360E+01  0.3833E+01  0.9714E+01E
 Epicentro: LOS SANTOS - SANTANDER                                             3
 ACTION:UPD 17-10-26 21:04 OP:lp   STATUS:               ID:20161104151809 L   I
 OLDACT:UP  16-11-04 23:34 OP:cog  STATUS:               ID:20161104151748     3
 OLDACT:REG 16-11-04 20:48 OP:cog  STATUS:               ID:20161104151748     3
 2016-11-04-1518-00M.COL___340                                                 6
 STAT SP IPHASW D HRMM SECON CODA AMPLIT PERI AZIMU VELO AIN AR TRES W  DIS CAZ7
 BAR2 EZ EP       1518 28.09                             171    0.0210 20.3 180 
 BAR2 EZ ES       1518 42.14                             171   -0.5210 20.3 180 
 BAR2 EZ I        1518 44.25        18.6 0.16            168           20.3 180 
 BRR  HZ EP       1518 29.90                             152    0.2810 69.0 302 
 BRR  HE ES       1518 45.72                             152    0.3110 69.0 302 
 BRR  HZ I        1518 47.76        10.0 0.12            154           69.0 302 
 PAM  EZ EP       1518 31.07                             148   -0.0510 82.1  41 
 PAM  EE ES       1518 48.22                             148    0.1310 82.1  41 
 PAM  EZ I        1518 50.20        15.8 0.52            153           82.1  41 
 PTB  HZ EP       1518 34.73                             131   -0.61 9  143 260 
 PTB  HN ES       1518 55.48                             131   -0.12 9  143 260 
 PTB  HZ I        1518 59.45         9.4 0.16            132            143 260 
 ZAR  HE ES       1519  5.90                             121    0.11 9  201 293 
 NOR  HZ EP       1518 44.07                             117   -0.09 8  230 234 
 NOR  HE ES       1519 11.48                             117    0.19 8  230 234 
 NOR  HZ I        1519 16.69         6.6 0.22            119            230 234 
 CHI  HZ EP       1518 46.37                             116    0.09 8  245 194 
 CHI  HN ES       1519 15.85                             116    0.79 8  245 194 
 CHI  HZ I        1519 19.55         6.2 0.68            117            245 194 
 PRA  HZ EP   4   1519  0.00                             105   -2.14 0  388 209 
 PRA  HE ES       1519 42.66                             105   -0.64 6  388 209 
 PRA  HZ I        1519 49.51         3.8 0.24            107            388 209 
                                                                                
