 2011  8 4 1420 35.7 L   6.783 -73.066140.0  RSN  4 0.3 2.3LRSN                1
 GAP=148        0.50       8.4    14.4  7.9  0.9677E+02 -0.4442E+02 -0.2205E+02E
 Epicentro: LOS SANTOS - SANTANDER                                             3
 ACTION:UPD 12-07-25 14:06 OP:epov STATUS:               ID:20110804142035 L   I
 2011-08-04-1418-32S.COL___137                                                 6
 STAT SP IPHASW D HRMM SECON CODA AMPLIT PERI AZIMU VELO AIN AR TRES W  DIS CAZ7
 BAR2 SZ EP       1420 54.69                             169    0.0210 24.7 211 
 BAR2 SZ ES   2   1421  9.11                             169   -0.36 5 24.7 211 
 BAR2 SZ I        1421 11.28        37.3 0.24                          24.7 211 
 PAM  SZ EP   3   1420 57.57                             151    0.48 2 73.6  33 
 BRR  HZ EP       1420 56.55                             149   -0.2210 79.9 297 
 BRR  HZ I        1420 56.79        53.9 0.32                          79.9 297 
 BRR  HN ES   2   1421 13.78                             149    0.59 5 79.9 297 
 RUS  HZ EP       1420 58.82                             143    0.0810 98.5 181 
 RUS  HN ES   2   1421 16.84                             143    0.13 5 98.5 181 
                                                                                
