 2011  8 4 1920 50.8 L   6.535 -73.528112.5  RSN  5 0.2 2.4LRSN                1
 GAP=108        0.46       2.7     3.8  4.8 -0.1044E+01  0.8960E+01 -0.6159E+00E
 Epicentro: EL CARMEN DE CHUCURI - SANTANDER                                   3
 ACTION:UPD 12-07-25 14:06 OP:epov STATUS:               ID:20110804192050 L   I
 2011-08-04-1915-43S.COL___138                                                 6
 STAT SP IPHASW D HRMM SECON CODA AMPLIT PERI AZIMU VELO AIN AR TRES W  DIS CAZ7
 BAR2 SZ EP       1921  7.20                             160    0.2510 38.8  81 
 BAR2 SZ ES   1   1921 19.28                             160   -0.28 7 38.8  81 
 BAR2 SZ I        1921 20.78       308.4 0.42                          38.8  81 
 BRR  HZ EP       1921  8.03                             147   -0.0910 66.5 342 
 BRR  HN ES   2   1921 22.05                             147    0.40 5 66.5 342 
 BRR  HZ I        1921 26.83        60.2 0.10                          66.5 342 
 RUS  HZ EP       1921 10.35                             140    0.0910 86.4 145 
 RUS  HN ES   2   1921 25.36                             140   -0.09 5 86.4 145 
 RUS  HZ I        1921 27.34        19.3 0.16                          86.4 145 
 NOR  SZ EP       1921 18.88                             117   -0.17 9  183 234 
 NOR  SN ES   2   1921 41.24                             117    0.12 4  183 234 
 OCA  SZ EP       1921 19.82                             116   -0.09 9  190   7 
                                                                                
