 2010 12 4 1801 45.4 L   6.885 -73.307114.6  RSN  7 0.3 2.2LRSN                1
 GAP=127        0.68       3.9    11.3  9.1 -0.2023E+02  0.6034E+02 -0.1260E+02E
 Epicentro: BETULIA - SANTANDER                                                3
 ACTION:UP  11-01-14 15:22 OP:pat  STATUS:               ID:20101204180145 L   I
 2010-12-04-1800-04S.COL___133                                                 6
 STAT SP IPHASW D HRMM SECON CODA AMPLIT PERI AZIMU VELO SNR AR TRES W  DIS CAZ7
 GIR2 SZ EP   1   18 2  1.19                             167     0.0 7   25  30 
 BAR2 SZ EP   1   18 2  1.58                             161    -0.1 7   35 157 
 BAR2 SZ ES   1   18 2 14.50                             161     0.1 7   35 157 
 BAR2 SZ I        18 2 15.89        95.2 0.32                            35 157 
 GUE  SZ EP   1   18 2  7.70                             132     0.6 7  113  22 
 OCA  SZ EP   1   18 2 10.03                             123    -0.4 7  150 359 
 OCA  SZ ES   1   18 2 29.69                             123    -0.2 7  150 359 
 OCA  SZ I        18 2 31.66        24.9 0.15                           150 359 
 CHI  HZ EP   2   18 2 21.65                             109    -0.5 4  254 191 
 CHI  HN ES   2   18 2 50.82                             109    -0.1 4  254 191 
 CHI  HZ I        18 2 54.54         5.5 0.41                           254 191 
 HEL  HZ EP   2   18 2 22.85                             109     0.3 4  257 253 
 HEL  HZ I        18 2 56.86         8.1 0.49                           257 253 
 RREF HN ES   2   18 3  4.22                             105     0.2 3  315 226 
 RREF HZ I        18 3 10.14         6.4 0.48                           315 226 
                                                                                
