 2014  6 4 1531 13.8 L   6.795 -73.152137.3  RSN 17 0.5 2.4LRSN                1
 GAP= 71        1.09       2.9     3.4  5.0 -0.2179E+01  0.3774E+01  0.3408E+01E
 Epicentro: LOS SANTOS - SANTANDER                                             3
 ACTION:UPD 14-07-01 22:50 OP:nd   STATUS:               ID:20140604153113 L   I
 OLDACT:REG 14-06-04 21:40 OP:stll STATUS:               ID:20140604152818     3
 2014-06-04-1528-18M.COL___256                                                 6
 STAT SP IPHASW D HRMM SECON CODA AMPLIT PERI AZIMU VELO AIN AR TRES W  DIS CAZ7
 BAR2 SZ IP     C 1531 32.65                             170    0.2410 22.7 189 
 BAR2 SZ ES       1531 46.71                             170   -0.2110 22.7 189 
 BAR2 SZ I        1531 48.33       107.0 0.34            169           22.7 189 
 BRR  HZ IP     D 1531 34.48                             151    0.4510 70.9 299 
 BRR  HN ES       1531 50.87                             151    1.0610 70.9 299 
 BRR  HZ I        1531 54.50        65.2 0.32            150           70.9 299 
 PAM  SZ IP     D 1531 35.43                             149    0.2410 78.2  40 
 PAM  SZ I        1531 35.79       103.9 0.20            152           78.2  40 
 PAM  SN ES       1531 52.18                             149    0.3210 78.2  40 
 RUS  HZ EP       1531 36.68                             142   -0.0310  100 176 
 RUS  HN ES       1531 54.62                             142    0.0610  100 176 
 RUS  HZ I        1531 56.96        32.7 0.38            144            100 176 
 PTB  HZ EP       1531 39.48                             130   -0.56 9  147 259 
 PTB  HN ES       1531 59.72                             130   -0.77 9  147 259 
 PTB  HZ I        1532  3.54        45.0 0.46            130            147 259 
 TAM  HZ IP     D 1531 41.06                             128    0.18 9  156 105 
 TAM  HZ I        1531 41.30        49.7 0.38            132            156 105 
 OCA  HZ EP       1531 41.00                             128   -0.52 9  161 353 
 OCA  HN ES       1532  2.02                             128   -1.11 9  161 353 
 OCA  HZ I        1532  8.19        16.5 0.14            129            161 353 
 SPBC HZ EP       1531 41.56                             127   -0.04 9  162 219 
 SPBC HN ES       1532  2.95                             127   -0.32 9  162 219 
 SPBC HZ I        1532  6.14        37.2 0.20            128            162 219 
 ZAR  HZ EP       1531 45.56                             121   -0.12 9  204 292 
 ZAR  HE ES       1532 10.53                             121   -0.00 9  204 292 
 ZAR  HZ I        1532 16.24        47.7 0.30            121            204 292 
 NOR  HZ EP       1531 49.14                             117    0.16 8  234 234 
 NOR  HE ES       1532 16.04                             117   -0.36 8  234 234 
 NOR  HZ I        1532 19.54        27.0 0.28            117            234 234 
 CHI  HZ EP       1531 50.70                             115   -0.28 8  248 195 
 CHI  HN ES       1532 19.20                             115   -0.78 8  248 195 
 CHI  HZ I        1532 24.70         8.6 0.38            117            248 195 
 HEL  HZ EP       1531 53.83                             113    0.31 8  271 256 
 HEL  HE ES       1532 25.01                             113    0.51 8  271 256 
 HEL  HZ I        1532 30.89        12.5 0.48            114            271 256 
 GUY2CHZ EP       1531 57.24                             111    0.29 7  300 235 
 GUY2CHE ES       1532 30.86                             111    0.27 7  300 235 
 GUY2CHZ I        1532 39.71         9.1 0.56                           300 235 
 RREF HZ EP       1531 59.83                             109    0.32 7  321 229 
 RREF HN ES       1532 35.50                             109    0.35 7  321 229 
 RREF HZ I        1532 44.12        12.4 0.24            110            321 229 
 TOL  SZ EP       1532  2.46                             108    0.81 7  343 225 
 TOL  SN ES       1532 38.86                             108   -0.10 7  343 225 
 PRA  HZ EP       1532  7.39                             105    0.43 6  391 210 
 PRA  HN ES       1532 47.80                             105   -0.62 6  391 210 
 ORTC HZ EP       1532  7.35                             105   -0.01 6  395 216 
 ORTC HN ES       1532 49.42                             105    0.29 6  395 216 
 ORTC HZ I        1533  1.09         6.7 0.48            106            395 216 
                                                                                
