 2013  5 4 1042 43.2 L   6.798 -73.157147.8  RSN 11 0.4 2.2LRSN                1
 GAP=135        0.83       4.5     4.6  7.4 -0.6087E+01  0.3937E+01  0.2191E+01E
 Epicentro: LOS SANTOS - SANTANDER                                             3
 ACTION:UPD 13-06-20 09:47 OP:ep   STATUS:               ID:20130504104243 L   I
 2013-05-04-1040-00M.COL___253                                                 6
 STAT SP IPHASW D HRMM SECON CODA AMPLIT PERI AZIMU VELO AIN AR TRES W  DIS CAZ7
 BAR2 SZ EP   1   1043  3.13                             171    0.05 7 22.9 187 
 BAR2 SZ ES   1   1043 18.27                             171   -0.31 7 22.9 187 
 BAR2 SZ I        1043 19.57        10.9 0.22            170           22.9 187 
 GIR2 SZ EP   1   1043  3.19                             168    0.06 7 31.3 353 
 BRR  HZ EP   1   1043  5.12                             153    0.59 7 70.2 299 
 BRR  HN ES   1   1043 21.98                             153    0.82 7 70.2 299 
 BRR  HN I        1043 25.52        28.0 0.36            151           70.2 299 
 PAM  SZ EP       1043  5.85                             151    0.1410 78.4  40 
 PAM  SN ES       1043 23.32                             151    0.0710 78.4  40 
 PAM  SN I        1043 24.16        25.8 0.48            155           78.4  40 
 RUS  HZ EP   1   1043  7.21                             144    0.05 7  100 175 
 RUS  HE ES   2   1043 25.27                             144   -0.56 5  100 175 
 RUS  HE I        1043 26.62        15.9 0.20            146            100 175 
 PTB  HZ EP   1   1043 10.04                             133   -0.19 7  146 259 
 PTB  HN ES       1043 31.10                             133   -0.21 9  146 259 
 PTB  HN I        1043 36.47        13.3 0.28            132            146 259 
 OCA  HN ES   1   1043 32.91                             130   -0.99 7  160 354 
 OCA  HN I        1043 36.81        38.2 0.26            132            160 354 
 NOR  HN ES   2   1043 46.67                             119   -0.13 4  234 234 
 NOR  HN I        1043 53.28        12.5 0.18            120            234 234 
 SML  HN ES   2   1043 48.45                             118   -0.10 4  243 336 
 SML  HN I        1043 50.82        37.5 0.10            119            243 336 
 URE  HZ EP   4   1043 20.17                             114   -4.09 0  283 292 
 URE  HN ES   4   1043 55.02                             114   -1.26 0  283 292 
 URE  HN I        1043 56.39         8.8 0.16            115            283 292 
 SJC  HZ EP   4   1043 36.94                             106   -1.85 0  409 327 
 SJC  HN ES   4   1044 18.78                             106   -3.35 0  409 327 
 SJC  HN I        1044 23.78         2.4 0.14            107            409 327 
                                                                                
