 2010 11 4 1642 33.5 L   6.790 -73.121142.0  RSN 10 0.4 2.1LRSN                1
 GAP=161        0.89       4.4     6.9  8.1 -0.1267E+02  0.3409E+01  0.4518E+01E
 Epicentro: LOS SANTOS - SANTANDER                                             3
 ACTION:UP  10-12-17 16:50 OP:REBC STATUS:               ID:20101104164233 L   I
 2010-11-04-1640-41S.COL___129                                                 6
 STAT SP IPHASW D HRMM SECON CODA AMPLIT PERI AZIMU VELO SNR AR TRES W  DIS CAZ7
 BTL  SZ EP       1642 52.83                             171     0.110   22 311 
 BAR2 SZ IP       1642 52.71                             170     0.010   23 197 
 BAR2 SZ I        1643  8.67        32.5 0.11                            23 197 
 BRR  HZ EP       1642 54.60                             151     0.110   74 298 
 BRR  HN ES   1   1643 11.39                             151     0.6 7   74 298 
 BRR  HZ I        1643 12.48        27.8 0.10                            74 298 
 RUS  HZ EP       1642 56.80                             144     0.010   99 178 
 RUS  HE ES   1   1643 15.13                             144     0.1 7   99 178 
 RUS  HZ I        1643 16.26        19.8 0.27                            99 178 
 GUE  SZ EP       1642 57.93                             139     0.010  117  11 
 GRA  SZ EP       1642 58.64                             136     0.210  126  16 
 GRA  SZ ES   1   1643 17.11                             136    -0.8 7  126  16 
 GRA  SZ I        1643 19.18        14.3 0.47                           126  16 
 OCA  SZ EP   3   1643  1.43                             129    -0.3 2  162 352 
 NOR  SZ EP       1643  8.91                             118    -0.3 8  236 235 
 NOR  SE ES   1   1643 36.23                             118    -0.9 6  236 235 
 RREF HZ EP   2   1643 20.66                             110     1.0 3  323 230 
 RREF HZ I        1644  1.21         4.1 0.77                           323 230 
 PRA  HZ EP       1643 27.13                             106     0.1 6  392 210 
                                                                                
