 2011  4 4 1423 26.8 L   6.831 -73.044138.8  RSN  5 0.3 1.9LRSN                1
 GAP=197        0.65       5.6     7.9  7.3 -0.1565E+02 -0.1413E+02 -0.2997E+01E
 Epicentro: LOS SANTOS - SANTANDER                                             3
 ACTION:UP  11-06-22 15:28 OP:REBC STATUS:               ID:20110404142326 L   I
 2011-04-04-1423-21S.COL___138                                                 6
 STAT SP IPHASW D HRMM SECON CODA AMPLIT PERI AZIMU VELO SNR AR TRES W  DIS CAZ7
 BTL  SZ EP       1423 46.05                             169     0.310   27 291 
 BAR2 SZ EP       1423 45.92                             167     0.110   31 210 
 BAR2 SZ ES   1   1424  0.23                             167    -0.4 7   31 210 
 BAR2 SZ I        1424  2.06        14.9 0.30                            31 210 
 GIR2 SZ EP   3   1423 45.93                             166     0.2 2   32 329 
 GIR2 SZ ES   3   1424  1.04                             166     0.6 2   32 329 
 BRR  HZ EP       1423 47.73                             148     0.010   80 293 
 BRR  HN ES   1   1424  4.01                             148    -0.1 7   80 293 
 BRR  HZ I        1424  8.44        20.9 0.08                            80 293 
 GRA  SZ EP       1423 50.62                             137    -0.310  119  13 
 GRA  SZ ES   1   1424  9.93                             137     0.2 7  119  13 
 GRA  SZ I        1424 12.95        11.7 0.30                           119  13 
                                                                                
