 2016 11 4 1752 53.6 L   6.783 -73.137149.3  RSN  6 0.5 1.7LRSN                1
 GAP=254        1.21       6.2     7.4  8.3  0.1066E+02  0.1267E+02  0.1508E+02E
 Epicentro: LOS SANTOS - SANTANDER                                             3
 ACTION:UPD 17-10-26 21:04 OP:lp   STATUS:               ID:20161104175253 L   I
 OLDACT:DUP 16-11-04 23:51 OP:cog  STATUS:               ID:20161104174747d    3
 2016-11-04-1748-00M.COL___343                                                 6
 STAT SP IPHASW D HRMM SECON CODA AMPLIT PERI AZIMU VELO AIN AR TRES W  DIS CAZ7
 BAR2 EZ EP       1753 13.34                             171   -0.2410 21.7 194 
 BAR2 EZ ES       1753 28.88                             171   -0.3110 21.7 194 
 BAR2 EZ I        1753 31.34         7.8 0.26            164           21.7 194 
 BRR  HZ EP       1753 15.48                             152    0.2910 73.0 299 
 BRR  HN ES       1753 32.77                             152    0.7210 73.0 299 
 BRR  HZ I        1753 32.98        16.8 0.36            150           73.0 299 
 PTB  HZ EP       1753 20.06                             133   -0.81 9  148 260 
 PTB  HN ES       1753 41.56                             133   -0.61 9  148 260 
 PTB  HZ I        1753 46.76         4.0 0.19            130            148 260 
 ZAR  HZ EP       1753 27.12                             123    0.72 8  206 293 
 ZAR  HE ES       1753 51.66                             123   -0.36 8  206 293 
 ZAR  HZ I        1753 57.04         4.8 0.36            123            206 293 
 NOR  HZ EP       1753 29.35                             119   -0.11 8  234 235 
 NOR  HE ES       1753 58.06                             119    0.59 8  234 235 
 NOR  HZ I        1754  4.49         4.5 0.18            118            234 235 
 CHI  HZ EP       1753 31.26                             118   -0.02 8  247 196 
 CHI  HN ES       1754  1.04                             118    0.33 8  247 196 
 CHI  HZ I        1754  8.46         2.2 0.36            118            247 196 
                                                                                
