 2016  1 4 1406 55.8 L   6.834 -73.146146.2  RSN 17 0.4 2.3LRSN                1
 GAP=135        0.98       2.4     3.5  4.7 -0.1301E+01  0.3754E+01  0.8509E+00E
 Epicentro: LOS SANTOS - SANTANDER                                             3
 ACTION:UPD 16-03-09 23:22 OP:cam  STATUS:               ID:20160104140655 L   I
 OLDACT:UP  16-01-04 23:43 OP:ar   STATUS:               ID:20160104135750     3
 OLDACT:REG 16-01-04 21:02 OP:ar   STATUS:               ID:20160104135750     3
 2016-01-04-1357-50M.COL___332                                                 6
 STAT SP IPHASW D HRMM SECON CODA AMPLIT PERI AZIMU VELO AIN AR TRES W  DIS CAZ7
 BAR2 EZ EP       14 7 15.44                             169   -0.0910 27.0 189 
 BAR2 EZ ES       14 7 30.88                             169   -0.0710 27.0 189 
 BAR2 EZ I        14 7 32.55        18.7 0.26            166           27.0 189 
 BRR  HZ EP       14 7 17.28                             153    0.4110 69.5 296 
 BRR  HE ES       14 7 34.18                             153    0.8610 69.5 296 
 BRR  HZ I        14 7 37.55        23.8 0.12            150           69.5 296 
 PAM  EZ EP       14 7 18.13                             152    0.2610 74.5  41 
 PAM  EN ES       14 7 34.98                             152   -0.1210 74.5  41 
 PAM  EZ I        14 7 37.15        41.5 0.48            157           74.5  41 
 RUS  HZ EP       14 7 19.50                             143   -0.3410  104 176 
 RUS  HN ES       14 7 38.31                             143   -0.3010  104 176 
 RUS  HZ I        14 7 40.21        15.8 0.34            144            104 176 
 PTB  HZ EP       14 7 22.32                             132   -0.52 9  149 257 
 PTB  HN ES       14 7 43.32                             132   -0.64 9  149 257 
 PTB  HZ I        14 7 49.87        17.4 0.12            131            149 257 
 OCA  HZ EP       14 7 24.51                             130    0.74 9  157 353 
 OCA  HN ES       14 7 45.51                             130   -0.09 9  157 353 
 OCA  HZ I        14 7 49.15        46.9 0.26            132            157 353 
 SPBC HZ EP       14 7 24.85                             129    0.27 9  166 218 
 SPBC HN ES       14 7 46.87                             129   -0.18 9  166 218 
 SPBC HZ I        14 7 50.89        26.3 0.22            128            166 218 
 ZAR  HZ EP       14 7 27.56                             123   -0.54 9  203 291 
 ZAR  HN ES       14 7 53.28                             123   -0.04 9  203 291 
 ZAR  HZ I        14 7 58.93        34.1 0.40            123            203 291 
 NOR  HZ EP       14 7 31.76                             118   -0.00 8  237 234 
 NOR  HN ES       14 7 59.83                             118   -0.00 8  237 234 
 NOR  HZ I        14 8  5.78        10.1 0.20            119            237 234 
 SML  HZ EP       14 7 31.59                             118   -0.46 8  240 335 
 SML  HN ES       14 7 59.92                             118   -0.43 8  240 335 
 SML  HZ I        14 8  1.73        25.5 0.24            119            240 335 
 CHI  HZ EP       14 7 33.88                             117   -0.01 8  252 195 
 CHI  HN ES       14 8  3.61                             117   -0.01 8  252 195 
 CHI  HZ I        14 8  7.22         7.1 0.44            118            252 195 
 ROSC BZ EP   4   14 7 35.98                             116    1.71 0  256 211 
 ROSC BN ES   4   14 8  6.66                             116    2.37 0  256 211 
 ROSC BZ I        14 8  9.00        15.6 0.30            117            256 211 
 HEL  HN ES       14 8  8.02                             115    0.45 8  273 255 
 HEL  HZ I        14 8 14.97         9.5 0.34            115            273 255 
 SOCV BZ EP   4   14 7 37.00                             112   -1.61 0  299  57 
 SOCV BN ES   4   14 8  8.74                             112   -3.28 0  299  57 
 GUY2CHZ EP   9   14 7 41.39                             112    1.74 0  303 234 
 GUY2CHE ES       14 8 15.60                             112   -0.01 7  303 234 
 GUY2CHZ I        14 8 23.57         7.1 0.30                           303 234 
 ANIL HZ EP       14 7 45.93                             108    0.03 6  360 224 
 ANIL HN ES   4   14 8 27.54                             108    2.54 0  360 224 
 ANIL HZ I        14 8 36.17        21.4 0.38            109            360 224 
 PRA  HZ EP       14 7 50.08                             106    0.39 6  395 209 
 PRA  HN ES       14 8 32.83                             106    1.09 6  395 209 
 PRA  HZ I        14 8 39.96         9.3 0.28            107            395 209 
 SJC  HZ EP   4   14 7 49.08                             106   -1.90 0  406 327 
 SJC  HN ES   4   14 8 30.75                             106   -3.29 0  406 327 
 SJC  HZ I        14 8 34.51         3.8 0.48            107            406 327 
                                                                                
