 2011 11 4 1009 36.5 L   6.816 -73.104141.4  RSN 11 0.4 2.1LRSN                1
 GAP=141        0.68       3.5     4.3  5.1 -0.1010E+01  0.8565E+01  0.4529E+01E
 Epicentro: LOS SANTOS - SANTANDER                                             3
 ACTION:UPD 12-07-13 16:08 OP:ep   STATUS:               ID:20111104100936 L   I
 2011-11-04-1007-32S.COL___175                                                 6
 STAT SP IPHASW D HRMM SECON CODA AMPLIT PERI AZIMU VELO AIN AR TRES W  DIS CAZ7
 BTL  SZ EP       10 9 55.85                             171    0.2510 21.3 302 
 BAR2 SZ IP       10 9 55.57                             169   -0.1410 26.2 199 
 BAR2 SZ I        10 9 55.84        27.7 0.34                          26.2 199 
 BAR2 SZ ES   1   1010 10.85                             169    0.19 7 26.2 199 
 PAM  SZ EP       10 9 58.07                             151    0.0310 73.1  38 
 PAM  SN ES   1   1010 14.97                             151    0.17 7 73.1  38 
 BRR  HZ EP   2   10 9 57.28                             151   -0.13 5 74.5 296 
 BRR  HN ES   1   1010 13.75                             151    0.07 7 74.5 296 
 RUS  HZ EP       10 9 59.82                             142   -0.1610  102 179 
 RUS  HN ES   1   1010 18.00                             142   -0.26 7  102 179 
 RUS  HZ I        1010 21.94         7.6 0.40                           102 179 
 OCA  SZ ES   2   1010 24.93                             129   -1.21 5  159 351 
 OCA  SZ I        1010 26.69        14.1 0.20                           159 351 
 ZAR  HZ EP   2   1010  9.18                             121    0.10 4  208 291 
 ZAR  HE ES   2   1010 33.76                             121   -0.70 4  208 291 
 ZAR  HZ I        1010 39.11        29.2 0.36                           208 291 
 NOR  SZ EP       1010 12.94                             117    0.41 8  239 235 
 HEL  HZ EP       1010 17.68                             113    0.60 7  277 256 
 HEL  HN ES   2   1010 48.22                             113   -0.48 4  277 256 
 HEL  HZ I        1010 54.37        11.6 0.56                           277 256 
 RREF HZ EP   2   1010 23.23                             110    0.20 3  326 230 
 RREF HZ I        1011  7.58         7.5 0.28                           326 230 
 PRA  HZ EP       1010 29.76                             105   -0.60 6  396 210 
 PRA  HN ES   1   1011 12.12                             105   -0.22 4  396 210 
                                                                                
