 2017 11 4 1517 45.2 L   6.744 -73.130143.4  RSN  5 0.1 1.2LRSN                1
 GAP=141        0.40       2.1     2.1  3.8 -0.4643E+00 -0.1815E+00  0.1055E+01E
 Epicentro: LOS SANTOS - SANTANDER                                             3
 ACTION:UPD 17-12-12 19:51 OP:rebc STATUS:               ID:20171104151745 L   I
 OLDACT:UP  17-11-05 00:23 OP:mg   STATUS:               ID:20171104150740d    3
 OLDACT:UP  17-11-05 00:22 OP:mg   STATUS:               ID:20171104150740d    3
 OLDACT:UP  17-11-05 00:20 OP:mg   STATUS:               ID:20171104150740d    3
 OLDACT:DUP 17-11-05 00:17 OP:mg   STATUS:               ID:20171104150740d    3
 2017-11-04-1508-00M.COL___429                                                 6
 STAT SP IPHASW D HRMM SECON CODA AMPLIT PERI AZIMU VELO AIN AR TRES W  DIS CAZ7
 BAR2 EZ EP       1518  4.48                             173    0.0410 17.8 199 
 BRR  HZ EP       1518  6.41                             151    0.0610 75.8 302 
 BRR  HE ES       1518 23.06                             151    0.2010 75.8 302 
 BRR  HZ I        1518 27.40        10.5 0.42            150           75.8 302 
 PAM  EZ EP       1518  7.48                             149    0.0910 81.2  36 
 PAM  EN ES       1518 24.51                             149   -0.2010 81.2  36 
 PAM  EZ I        1518 24.90         2.2 0.34            153           81.2  36 
 RUS  HZ EP       1518  8.24                             145   -0.0210 94.3 177 
 RUS  HN ES       1518 26.29                             145    0.0310 94.3 177 
 RUS  HZ I        1518 27.85         1.1 0.20            148           94.3 177 
 PTB  HZ EP   2   1518 11.76                             131   -0.26 5  148 261 
 PTB  HN ES       1518 32.78                             131   -0.17 9  148 261 
 PTB  HZ I        1518 36.16         2.0 0.21            132            148 261 
                                                                                
