 2014 11 4 1036 58.9 L   6.768 -73.165146.8  RSN  5 0.4 1.8LRSN                1
 GAP=136        1.09       5.9     5.6  8.0 -0.3066E+01  0.5373E+01  0.1824E+01E
 Epicentro: LOS SANTOS - SANTANDER                                             3
 ACTION:UPD 14-12-19 15:39 OP:nd   STATUS:               ID:20141104103658 L   I
 OLDACT:DUP 14-11-04 23:17 OP:cam  STATUS:               ID:20141104102748d    3
 OLDACT:UP  14-11-04 23:17 OP:cam  STATUS:               ID:20141104102747     3
 OLDACT:REG 14-11-04 22:13 OP:cam  STATUS:               ID:20141104102747     3
 2014-11-04-1027-47M.COL___271                                                 6
 STAT SP IPHASW D HRMM SECON CODA AMPLIT PERI AZIMU VELO AIN AR TRES W  DIS CAZ7
 BAR2 SZ EP       1037 18.84                             172    0.2110 19.5 186 
 BAR2 SZ ES       1037 33.50                             172   -0.4810 19.5 186 
 BAR2 SZ I        1037 35.04        16.4 0.18            171           19.5 186 
 BRR  HZ EP       1037 20.69                             153    0.4910 71.1 302 
 BRR  HN ES       1037 37.39                             153    0.6110 71.1 302 
 BRR  HN I        1037 38.35        18.2 0.16            152           71.1 302 
 PAM  SZ IP     C 1037 21.58                             150    0.0610 81.5  39 
 PAM  SN ES       1037 38.73                             150   -0.4010 81.5  39 
 PAM  SN I        1037 39.83        13.5 0.48            152           81.5  39 
 RUS  HZ EP       1037 22.67                             145    0.1110 97.2 175 
 RUS  HN ES       1037 41.25                             145    0.2710 97.2 175 
 RUS  HZ I        1037 42.45         5.3 0.30            146           97.2 175 
 PTB  HZ EP       1037 25.00                             133   -0.75 9  145 260 
 PTB  HN ES       1037 46.42                             133   -0.24 9  145 260 
 PTB  HZ I        1037 50.70         4.5 0.36            133            145 260 
                                                                                
