 2013  2 4 1244  1.8 L   6.760 -73.108144.4  RSN  6 0.3 1.8LRSN                1
 GAP=143        0.68       3.2     5.1  5.4 -0.5524E+00  0.4608E+01  0.4699E+01E
 Epicentro: LOS SANTOS - SANTANDER                                             3
 ACTION:UPD 13-03-12 09:30 OP:ep   STATUS:               ID:20130204124401 L   I
 2013-02-04-1240-00M.COL___241                                                 6
 STAT SP IPHASW D HRMM SECON CODA AMPLIT PERI AZIMU VELO AIN AR TRES W  DIS CAZ7
 BAR2 SZ IP       1244 21.44                             172    0.1910 20.3 204 
 BAR2 SZ ES   1   1244 35.86                             172   -0.52 7 20.3 204 
 BAR2 SZ I        1244 38.00        20.4 0.32            158           20.3 204 
 BRR  HZ EP       1244 23.17                             150   -0.0110 77.0 300 
 BRR  HN ES       1244 40.15                             150    0.3210 77.0 300 
 BRR  HZ I        1244 43.36        15.5 0.25            133           77.0 300 
 PAM  SZ EP   1   1244 24.23                             150    0.26 7 78.3  35 
 PAM  SN ES       1244 41.05                             150   -0.1710 78.3  35 
 PAM  SZ I        1244 43.40        12.8 0.40            146           78.3  35 
 RUS  HZ EP       1244 25.19                             145    0.0610 96.0 178 
 RUS  HN ES       1244 43.32                             145    0.0310 96.0 178 
 RUS  HN I        1244 45.31         5.2 0.17            138           96.0 178 
 PTB  HZ EP   1   1244 28.27                             131   -0.73 7  151 261 
 PTB  HZ I        1244 54.60         9.0 0.26            118            151 261 
 CHI  HZ EP   1   1244 39.07                             117   -0.06 6  246 196 
 CHI  HN ES   1   1245  8.47                             117    0.26 6  246 196 
 CHI  HZ I        1245 12.07         3.0 0.23            110            246 196 
                                                                                
