 2015  5 4 1522 29.3 L   6.782 -73.135144.6  RSN 11 0.6 1.8LRSN                1
 GAP=139        1.36       3.5     5.8  7.4 -0.2461E+01  0.1528E+02  0.1873E+01E
 Epicentro: LOS SANTOS - SANTANDER                                             3
 ACTION:UPD 15-09-10 22:01 OP:cam  STATUS:               ID:20150504152229 L   I
 OLDACT:REG 15-05-04 22:22 OP:stll STATUS:               ID:20150504151747     3
 2015-05-04-1517-47M.COL___271                                                 6
 STAT SP IPHASW D HRMM SECON CODA AMPLIT PERI AZIMU VELO AIN AR TRES W  DIS CAZ7
 BAR2 EZ EP       1522 48.97                             171    0.2310 21.6 194 
 BAR2 EZ ES       1523  3.96                             171    0.0510 21.6 194 
 BAR2 EZ I        1523  4.97        10.4 0.20            167           21.6 194 
 BRR  HZ EP       1522 51.25                             152    0.8310 73.2 299 
 BRR  HN ES       1523  7.55                             152    0.6510 73.2 299 
 PAM  SZ EP       1522 52.25                             150    0.8310 78.2  38 
 PAM  SN ES       1523  8.79                             150    0.1110 78.2  38 
 PAM  SZ I        1523 11.49         7.6 0.40            150           78.2  38 
 RUS  HZ EP       1522 52.92                             144    0.1510 98.5 177 
 RUS  HZ I        1522 53.83         7.6 0.22            139           98.5 177 
 RUS  HN ES       1523 10.21                             144   -0.8710 98.5 177 
 OCA  HN ES       1523 19.10                             129   -0.77 9  162 353 
 SPBC HZ EP       1522 57.24                             129   -0.38 9  162 220 
 SPBC HN ES       1523 19.50                             129   -0.22 9  162 220 
 SPBC HZ I        1523 26.78        10.3 0.10            124            162 220 
 ZAR  HZ EP       1523  1.18                             122   -0.67 8  206 293 
 ZAR  HE ES       1523 27.45                             122    0.21 8  206 293 
 ZAR  HZ I        1523 33.83         6.6 0.48            118            206 293 
 NOR  HZ EP       1523  5.02                             118    0.09 8  235 235 
 NOR  HE ES       1523 32.85                             118    0.12 8  235 235 
 NOR  HZ I        1523 37.88         7.1 0.36            114            235 235 
 SML  HZ EP       1523  5.64                             117   -0.46 8  246 335 
 SML  HN ES       1523 33.79                             117   -1.02 8  246 335 
 CHI  HZ EP       1523  6.88                             117    0.14 8  247 196 
 CHI  HN ES       1523 35.25                             117   -0.71 8  247 196 
 CHI  HZ I        1523 43.32         2.5 0.50            113            247 196 
 GUY2CHZ EP       1523 13.73                             112    0.91 7  301 235 
 GUY2CHE ES       1523 47.10                             112    0.32 7  301 235 
 GUY2CHZ I        1523 55.36         4.3 0.62                           301 235 
                                                                                
