 2012  3 4 1346 52.8 L   6.724 -73.176143.3  RSN  5 0.3 1.4LRSN                1
 GAP=228        0.76       9.3     9.8 10.5  0.6801E+02  0.5471E+02  0.2878E+02E
 *PTB                                                                          3
 ACTION:UP  12-03-31 23:17 OP:EP   STATUS:               ID:20120304134652 L   I
 2012-03-04-1340-00M.COL___191                                                 6
 STAT SP IPHASW D HRMM SECON CODA AMPLIT PERI AZIMU VELO SNR AR TRES W  DIS CAZ7
 BAR2 SZ ES   1   1347 26.48                             174    -0.5 9   15 183 
 BAR2 SZ I        1347 29.15         6.7 0.28                            15 183 
 BRR  HE ES   1   1347 30.46                             152     0.3 9   73 306 
 RUS  HZ EP   2   1347 16.02                             146     0.3 6   92 174 
 RUS  HN ES   1   1347 34.06                             146     0.4 9   92 174 
 RUS  HZ I        1347 36.23         3.5 0.26                            92 174 
 PTB  HZ EP   1   1347 18.74                             132    -0.4 8  143 262 
 PTB  HN ES   1   1347 39.56                             132    -0.2 8  143 262 
 ZAR  HN ES       1347 50.54                             122     0.210  204 295 
                                                                                
