 2012  9 4 1943 55.9 L   6.693 -73.553110.6  RSN  6 0.4 1.6LRSN                1
 GAP=111        0.66       5.3     3.8  6.9  0.1790E+01  0.3424E+01  0.3479E+01E
 Epicentro: EL CARMEN DE CHUCURI - SANTANDER                                   3
 ACTION:UPD 12-10-22 14:17 OP:ep   STATUS:               ID:20120904194355 L   I
 2012-09-04-1940-00M.COL___218                                                 6
 STAT SP IPHASW D HRMM SECON CODA AMPLIT PERI AZIMU VELO AIN AR TRES W  DIS CAZ7
 BAR2 SZ EP       1944 12.18                             157    0.1210 42.4 105 
 BAR2 SZ ES   1   1944 24.40                             157   -0.23 7 42.4 105 
 BAR2 SZ I        1944 25.16        19.5 0.12                          42.4 105 
 BRR  HZ EP       1944 12.39                             154    0.3510 49.1 339 
 BRR  HN ES   1   1944 24.88                             154    0.28 7 49.1 339 
 BRR  HZ I        1944 25.84        16.8 0.42                          49.1 339 
 GIR2 SZ EP       1944 12.59                             149   -0.1810 58.3  43 
 PTB  HZ EP       1944 15.83                             134    0.0010  101 260 
 PTB  HN ES   1   1944 30.85                             134   -0.51 7  101 260 
 RUS  HZ EP   2   1944 16.66                             134    0.07 5  103 150 
 RUS  HN ES   2   1944 32.91                             134    0.20 5  103 150 
 RUS  HZ I        1944 33.96         2.9 0.70                           103 150 
 PAM  SZ EP   3   1944 16.38                             129   -1.64 2  118  53 
                                                                                
