 2016  6 4 1312 48.1 L   6.694 -73.151152.8  RSN  4 0.4 1.3LRSN                1
 GAP=229        1.14       9.2     8.8  9.1  0.3921E+02  0.7563E+01  0.6923E+00E
 Epicentro: VILLANUEVA - SANTANDER                                             3
 ACTION:UPD 16-07-21 22:15 OP:rebc STATUS:               ID:20160604131248 L   I
 OLDACT:REG 16-06-04 20:54 OP:ar   STATUS:               ID:20160604130742     3
 2016-06-04-1307-42M.COL___322                                                 6
 STAT SP IPHASW D HRMM SECON CODA AMPLIT PERI AZIMU VELO AIN AR TRES W  DIS CAZ7
 BAR2 EZ EP       1313  7.76                             175   -0.6010 11.7 197 
 BAR2 EZ ES       1313 23.79                             175   -0.4110 11.7 197 
 BAR2 EZ I        1313 24.91         3.9 0.16                          11.7 197 
 BRR  HZ EP       1313 10.95                             152    0.6610 77.0 306 
 BRR  HN ES       1313 27.84                             152    0.2110 77.0 306 
 RUS  HZ EP       1313 12.04                             148    0.3210 88.9 175 
 RUS  HE ES       1313 30.47                             148    0.2910 88.9 175 
 RUS  HZ I        1313 33.08         2.8 0.50                          88.9 175 
 PTB  HZ EP       1313 14.81                             134   -0.57 9  145 263 
 PTB  HE ES       1313 36.73                             134    0.03 9  145 263 
 PTB  HZ I        1313 38.84         3.9 0.26                           145 263 
                                                                                
