 2013  7 4 1113 37.3 L   6.777 -73.124144.1  RSN  6 0.4 1.5LRSN                1
 GAP=140        0.89       5.5     5.6  7.5 -0.3707E+01  0.5959E+00  0.1627E+01E
 Epicentro: LOS SANTOS - SANTANDER                                             3
 ACTION:UPD 13-08-12 10:35 OP:ep   STATUS:               ID:20130704111337 L   I
 OLDACT:REG 13-07-04 18:51 OP:jn   STATUS:               ID:20130704110959     3
 2013-07-04-1109-59M.COL___266                                                 6
 STAT SP IPHASW D HRMM SECON CODA AMPLIT PERI AZIMU VELO AIN AR TRES W  DIS CAZ7
 BAR2 SZ EP       1113 56.61                             171   -0.0910 21.5 198 
 BAR2 SZ ES       1114 11.75                             171   -0.0710 21.5 198 
 BAR2 SZ I        1114 12.82         8.1 0.22            172           21.5 198 
 GIR2 SZ EP       1113 57.09                             166    0.2310 34.2 347 
 BRR  HZ EP       1113 58.54                             151    0.0810 74.5 299 
 BRR  HE ES       1114 15.55                             151    0.5810 74.5 299 
 BRR  HZ I        1114 20.07         7.3 0.35            151           74.5 299 
 PAM  SZ EP   1   1113 59.17                             150   -0.20 7 77.8  37 
 PAM  SN ES       1114 16.25                             150   -0.3310 77.8  37 
 PAM  SZ I        1114 18.75         9.9 0.48            153           77.8  37 
 RUS  HZ EP   1   1114  0.93                             144    0.23 7 97.9 177 
 RUS  HN ES   1   1114 19.08                             144    0.13 7 97.9 177 
 RUS  HZ I        1114 20.35         4.2 0.28            148           97.9 177 
 PTB  HN ES   1   1114 24.36                             131   -1.02 7  150 260 
 PTB  HZ I        1114 27.31         3.7 0.16            133            150 260 
                                                                                
