 2015  5 4 1111  7.0 L   6.794 -73.152144.8  RSN  9 0.3 1.5LRSN                1
 GAP= 73        0.76       2.4     3.2  4.5  0.7056E+00  0.1391E+01  0.6159E+00E
 Epicentro: LOS SANTOS - SANTANDER                                             3
 ACTION:UPD 15-09-10 22:01 OP:cam  STATUS:               ID:20150504111107 L   I
 OLDACT:DUP 15-05-04 23:09 OP:stll STATUS:               ID:20150504110750d    3
 2015-05-04-1107-49M.COL___271                                                 6
 STAT SP IPHASW D HRMM SECON CODA AMPLIT PERI AZIMU VELO AIN AR TRES W  DIS CAZ7
 BAR2 EZ EP       1111 26.54                             171    0.0710 22.6 188 
 BAR2 EZ ES       1111 41.60                             171   -0.0710 22.6 188 
 BAR2 EZ I        1111 42.80         9.8 0.14            171           22.6 188 
 BRR  HZ EP       1111 27.51                             152   -0.4910 70.8 299 
 BRR  HN ES       1111 44.72                             152    0.3310 70.8 299 
 PAM  SZ EP       1111 29.59                             150    0.4510 78.3  40 
 PAM  SN ES       1111 46.25                             150   -0.1810 78.3  40 
 PAM  SZ I        1111 48.83         7.0 0.62            151           78.3  40 
 RUS  HZ EP       1111 30.45                             144   -0.1410  100 176 
 RUS  HN ES       1111 49.06                             144    0.0610  100 176 
 RUS  HZ I        1111 50.05         5.0 0.24            145            100 176 
 TAM  HZ EP       1111 34.73                             130    0.11 9  156 105 
 SPBC HN ES       1111 57.52                             129    0.11 9  162 219 
 ZAR  HZ EP       1111 39.73                             122    0.42 9  204 292 
 ZAR  HN ES       1112  4.62                             122    0.09 9  204 292 
 ZAR  HZ I        1112 10.60         3.4 0.18            122            204 292 
 SML  HN ES       1112 11.54                             117   -0.58 8  244 336 
 CHI  HZ EP       1111 44.65                             117    0.12 8  248 195 
 CHI  HZ I        1111 46.81         1.4 0.34            118            248 195 
 CHI  HN ES       1112 13.34                             117   -0.49 8  248 195 
                                                                                
