 2010  6 4 1153 33.5 L   6.813 -73.081139.3  RSN 12 0.7 2.6LRSN                1
 GAP=147        1.58       5.9     9.9 10.0 -0.3428E+02  0.7979E+01  0.5349E+01E
 Epicentro: LOS SANTOS - SANTANDER                                             3
 ACTION:UP  10-08-24 10:08 OP:vdl  STATUS:               ID:20100604115333 L   I
 2010-06-04-1150-02S.COL___109                                                 6
 STAT SP IPHASW D HRMM SECON CODA AMPLIT PERI AZIMU VELO SNR AR TRES W  DIS CAZ7
 BAR2 SZ IP       1153 52.53                             168     0.010   27 205 
 BAR2 SZ ES       1154  6.33                             168    -0.910   27 205 
 GIR2 SZ EP       1153 52.54                             166     0.110   32 337 
 GUE  SZ EP       1153 57.63                             138     0.210  114   9 
 GRA  SZ EP       1153 58.29                             136     0.410  122  14 
 GRA  SZ ES       1154 17.77                             136     0.810  122  14 
 OCA  SZ EP       1154  1.88                             128     0.6 9  160 351 
 OCA  SZ ES       1154 22.52                             128    -0.5 9  160 351 
 OCA  SZ I        1154 25.97        78.4 0.14                           160 351 
 CHI  HZ EP       1154 11.00                             115    -0.3 8  252 197 
 CHI  HN ES   1   1154 40.48                             115    -0.2 6  252 197 
 CHI  HZ I        1154 44.22        18.5 0.72                           252 197 
 ROSC BZ EP   1   1154 13.11                             114     1.2 6  258 212 
 ROSC BN ES       1154 42.39                             114     0.6 8  258 212 
 ROSC BZ I        1154 46.49        26.2 0.54                           258 212 
 HEL  HN ES   1   1154 45.54                             112    -0.5 6  279 256 
 HEL  HZ I        1154 51.67        29.9 0.67                           279 256 
 RREF BN ES   2   1154 56.66                             109     0.2 3  328 230 
 RREF BZ I        1155  2.42        20.2 0.30                           328 230 
 DBB  SZ EP       1154 20.16                             107    -1.4 6  347 274 
 TOL  SZ EP       1154 22.65                             107     0.4 6  350 225 
 SDV  BZ EP       1154 22.05                             107    -0.5 6  354  50 
 SDV  BZ I        1154 22.88        13.7 0.23                           354  50 
 SDV  BN ES   1   1154 59.30                             107    -1.6 5  354  50 
                                                                                
