 2014  4 4 1131 13.7 L   6.825 -73.136147.0  RSN  9 0.5 1.9LRSN                1
 GAP=137        1.16       3.1     5.2  8.1 -0.8914E+00  0.1269E+02  0.2611E+01E
 Epicentro: LOS SANTOS - SANTANDER                                             3
 ACTION:UPD 14-05-13 23:06 OP:nd   STATUS:               ID:20140404113113 L   I
 OLDACT:REG 14-04-04 21:05 OP:carl STATUS:               ID:20140404112813     3
 2014-04-04-1128-13M.COL___252                                                 6
 STAT SP IPHASW D HRMM SECON CODA AMPLIT PERI AZIMU VELO AIN AR TRES W  DIS CAZ7
 PAM  SZ EP       1131 36.49                             152    0.6010 74.6  40 
 PAM  SN ES       1131 53.82                             152    0.6310 74.6  40 
 PAM  SZ I        1131 55.87        13.3 0.48            157           74.6  40 
 RUS  HZ EP       1131 37.67                             143   -0.1010  103 177 
 RUS  HN ES       1131 56.04                             143   -0.5010  103 177 
 RUS  HZ I        1131 59.60         3.6 0.26            146            103 177 
 PTB  HZ EP       1131 40.56                             132   -0.36 9  149 258 
 PTB  HN ES       1132  1.74                             132   -0.41 9  149 258 
 PTB  HZ I        1132  7.56         9.7 0.24            133            149 258 
 OCA  HE ES       1132  3.19                             130   -0.65 9  158 353 
 SPBC HZ EP       1131 42.65                             129    0.08 9  166 219 
 SPBC HN ES       1132  5.30                             129    0.22 9  166 219 
 SPBC HZ I        1132  9.78        12.4 0.18            131            166 219 
 ZAR  HZ EP       1131 46.63                             123    0.40 9  204 291 
 ZAR  HN ES       1132 12.62                             123    1.02 9  204 291 
 ZAR  HZ I        1132 18.03         9.1 0.30            125            204 291 
 SML  HZ EP       1131 49.86                             118   -0.33 8  242 335 
 SML  HN ES       1132 17.90                             118   -0.74 8  242 335 
 SML  HZ I        1132 23.30        12.1 0.10            121            242 335 
 CHI  HZ EP       1131 51.60                             117   -0.19 8  252 195 
 CHI  HN ES       1132 21.25                             117   -0.25 8  252 195 
 CHI  HZ I        1132 25.13         2.8 0.36            120            252 195 
 PRA  HZ EP       1132  8.03                             107    0.42 6  395 210 
 PRA  HE ES       1132 49.97                             107    0.31 6  395 210 
 PRA  HZ I        1132 55.45         3.8 0.34            109            395 210 
                                                                                
