 2013  2 4 1237  7.1 L   6.792 -73.155145.5  RSN 11 0.3 2.4LRSN                1
 GAP= 71        0.78       3.0     3.0  4.4 -0.1402E+00  0.2230E+01  0.2021E+01E
 Epicentro: LOS SANTOS - SANTANDER                                             3
 ACTION:UPD 13-03-12 09:30 OP:ep   STATUS:               ID:20130204123707 L   I
 2013-02-04-1230-00M.COL___241                                                 6
 STAT SP IPHASW D HRMM SECON CODA AMPLIT PERI AZIMU VELO AIN AR TRES W  DIS CAZ7
 BAR2 SZ EP       1237 26.64                             171   -0.0210 22.3 188 
 BAR2 SZ ES       1237 41.66                             171   -0.2710 22.3 188 
 BAR2 SZ I        1237 44.05       102.0 0.22            168           22.3 188 
 BRR  HZ IP     C 1237 28.43                             153    0.2510 70.7 300 
 BRR  HN ES       1237 45.33                             153    0.7010 70.7 300 
 PAM  SZ EP       1237 29.55                             150    0.2010 78.7  40 
 PAM  SN ES       1237 46.57                             150   -0.1510 78.7  40 
 PAM  SZ I        1237 49.66        35.6 0.61            155           78.7  40 
 RUS  HZ EP       1237 30.67                             144   -0.0810 99.7 175 
 RUS  HE ES   1   1237 48.72                             144   -0.48 7 99.7 175 
 RUS  HE I        1237 51.32        42.6 0.32            145           99.7 175 
 PTB  HZ EP       1237 33.24                             132   -0.68 9  147 259 
 PTB  HN ES   1   1237 54.41                             132   -0.44 7  147 259 
 PTB  HN I        1237 58.60        51.9 0.19            131            147 259 
 TAM  HZ EP       1237 35.07                             130    0.26 9  156 105 
 ZAR  HZ EP   1   1237 39.48                             122    0.03 6  203 292 
 ZAR  HN ES   1   1238  4.70                             122    0.01 6  203 292 
 ZAR  HZ I        1238 10.78        19.7 0.26            123            203 292 
 NOR  HZ EP   1   1237 42.71                             119    0.06 6  233 234 
 NOR  HE ES   1   1238 10.71                             119    0.32 6  233 234 
 NOR  HZ I        1238 17.08        13.1 0.25            119            233 234 
 SML  HZ EP   1   1237 43.41                             117   -0.33 6  244 336 
 SML  HE ES   1   1238 11.92                             117   -0.41 6  244 336 
 CHI  HZ EP       1237 44.90                             117    0.26 8  247 195 
 CHI  HN ES   1   1238 14.36                             117    0.42 6  247 195 
 CHI  HZ I        1238 17.76         8.8 0.29            118            247 195 
 HEL  HZ EP   1   1237 46.95                             115   -0.20 6  271 256 
 HEL  HN ES   1   1238 18.63                             115    0.24 6  271 256 
 HEL  HZ I        1238 26.21         7.9 0.27            115            271 256 
                                                                                
