 2016  1 4 1852  1.5 L   6.781 -73.144149.1  RSN 14 0.5 2.3LRSN                1
 GAP=138        1.12       3.1     4.3  5.5 -0.8531E+00  0.6537E+01  0.2760E+01E
 Epicentro: LOS SANTOS - SANTANDER                                             3
 ACTION:UPD 16-03-09 23:22 OP:cam  STATUS:               ID:20160104185201 L   I
 OLDACT:UP  16-01-05 01:50 OP:ar   STATUS:               ID:20160104184750d    3
 OLDACT:DUP 16-01-05 01:44 OP:ar   STATUS:               ID:20160104184750d    3
 OLDACT:REG 16-01-04 22:10 OP:ar   STATUS:               ID:20160104184749     3
 2016-01-04-1847-49M.COL___335                                                 6
 STAT SP IPHASW D HRMM SECON CODA AMPLIT PERI AZIMU VELO AIN AR TRES W  DIS CAZ7
 BAR2 EZ EP       1852 21.55                             172    0.0810 21.3 191 
 BAR2 EZ ES       1852 36.63                             172   -0.4410 21.3 191 
 BAR2 EZ I        1852 38.02        55.6 0.18            168           21.3 191 
 BRR  HZ EP       1852 23.44                             153    0.3810 72.4 300 
 BRR  HN ES       1852 40.56                             153    0.6710 72.4 300 
 BRR  HZ I        1852 41.90        21.5 0.42            151           72.4 300 
 PAM  EZ EP       1852 24.37                             151    0.2310 78.9  38 
 PAM  EN ES       1852 41.66                             151   -0.1610 78.9  38 
 PAM  EZ I        1852 43.97        15.8 0.56            157           78.9  38 
 RUS  HZ EP       1852 25.44                             145    0.0310 98.5 176 
 RUS  HE ES       1852 43.58                             145   -0.5010 98.5 176 
 RUS  HZ I        1852 45.73        21.0 0.28            146           98.5 176 
 PTB  HZ EP       1852 28.42                             133   -0.28 9  148 260 
 PTB  HN ES       1852 49.32                             133   -0.61 9  148 260 
 PTB  HZ I        1852 56.70        19.8 0.44            132            148 260 
 OCA  HZ EP       1852 29.22                             130   -1.03 9  162 353 
 OCA  HN ES       1852 53.31                             130    0.62 9  162 353 
 OCA  HZ I        1852 55.39        28.6 0.20            133            162 353 
 SPBC HZ EP       1852 30.56                             130    0.47 9  162 220 
 SPBC HN ES       1852 52.35                             130   -0.06 9  162 220 
 SPBC HZ I        1853  0.28        23.4 0.20            130            162 220 
 ZAR  HZ EP       1852 34.12                             123   -0.12 9  205 293 
 ZAR  HN ES       1853  0.20                             123    0.40 9  205 293 
 ZAR  HZ I        1853  5.62        18.4 0.32            124            205 293 
 NOR  HZ EP       1852 37.78                             119    0.49 8  234 235 
 NOR  HE ES   4   1853  4.36                             119   -0.86 0  234 235 
 NOR  HZ I        1853 11.88        11.6 0.14            120            234 235 
 CHI  HZ EP       1852 39.11                             118   -0.04 8  247 195 
 CHI  HN ES       1853  9.38                             118    0.85 8  247 195 
 CHI  HZ I        1853 14.78         6.1 0.66            119            247 195 
 ROSC BZ EP       1852 39.56                             117   -0.04 8  251 211 
 ROSC BN ES   4   1853 14.84                             117    5.51 0  251 211 
 ROSC BZ I        1853 16.57        18.3 0.50            118            251 211 
 GUY2CHZ EP   9   1852 47.72                             113    2.60 0  300 235 
 GUY2CHE ES   2   1853 21.25                             112   -0.51 4  300 235 
 GUY2CHZ I        1853 25.79         8.3 0.22                           300 235 
 DBB  SZ EP       1852 48.62                             110   -0.51 7  340 275 
 DBB  SZ ES       1853 25.51                             110   -0.79 7  340 275 
 DBB  SZ I        1853 29.31        14.9 0.58            111            340 275 
 PRA  HZ EP       1852 54.69                             107   -0.22 6  390 210 
 PRA  HN ES       1853 36.92                             107    0.33 6  390 210 
 PRA  HZ I        1853 40.90         6.8 0.38            108            390 210 
                                                                                
