 2010  2 4 1931  6.2 L   6.820 -73.194145.9  RSN  7 0.3 2.0LRSN                1
 GAP=173        0.53       4.4     9.1  7.9  0.1295E+02  0.4560E+02  0.8964E+01E
 Epicentro: LOS SANTOS - SANTANDER                                             3
 ACTION:UP  10-08-24 09:47 OP:vdl  STATUS:               ID:20100204193105 L   I
 2010-02-04-1930-23S.COL___097                                                 6
 STAT SP IPHASW D HRMM SECON CODA AMPLIT PERI AZIMU VELO SNR AR TRES W  DIS CAZ7
 BAR2 SZ ES   2   1931 40.85                             170    -0.4 5   25 177 
 GIR2 SZ EP   2   1931 25.93                             168     0.1 5   29   0 
 GIR2 SZ ES   2   1931 41.75                             168     0.7 5   29   0 
 RUS  BZ EP   2   1931 30.01                             143    -0.1 5  103 173 
 RUS  BN ES       1931 48.66                             143    -0.210  103 173 
 RUS  BZ I        1931 49.57        12.3 0.34                           103 173 
 CHI  HZ EP   2   1931 44.10                             117     0.1 4  249 194 
 CHI  HE ES   2   1932 13.93                             117     0.5 4  249 194 
 RREF BN ES   2   1932 27.99                             111     0.2 3  319 228 
 RREF BZ I        1932 37.96         4.6 0.42                           319 228 
 MON  HE ES   2   1932 31.61                             109    -0.6 3  347 309 
 PRA  HZ EP   2   1931 59.77                             106     0.2 3  391 209 
 PRA  HZ I        1932 49.83         4.2 0.29                           391 209 
                                                                                
