 2012  7 4 1805 18.1 L   6.653 -73.213156.1  RSN  5 0.2 1.3LRSN                1
 GAP=201        0.47       5.0     4.6  5.1  0.1255E+02  0.3276E+01  0.6766E+00E
 Epicentro: BARICHARA - SANTANDER                                              3
 ACTION:UPD 12-08-14 11:42 OP:ep   STATUS:               ID:20120704180518 L   I
 2012-07-04-1800-00M.COL___200                                                 6
 STAT SP IPHASW D HRMM SECON CODA AMPLIT PERI AZIMU VELO AIN AR TRES W  DIS CAZ7
 BAR2 SZ EP   1   18 5 38.74                             177     0.0 7    8 153 
 BAR2 SZ ES   1   18 5 54.75                             177    -0.2 7    8 153 
 BAR2 SZ I        18 5 55.51         5.4 0.38            172              8 153 
 BRR  HZ EP   1   18 5 40.46                             153    -0.1 7   75 312 
 BRR  HE ES   1   18 5 58.39                             153     0.3 7   75 312 
 RUS  HZ EP   1   18 5 41.99                             150     0.1 7   85 170 
 RUS  HN ES   1   18 6  0.43                             150     0.0 7   85 170 
 RUS  HZ I        18 6  3.15         2.4 0.48            147             85 170 
 PTB  HZ EP   1   18 5 45.29                             136     0.2 7  138 265 
 PTB  HN ES   1   18 6  6.15                             136     0.0 7  138 265 
 PTB  HZ I        18 6  8.72         2.3 0.36            135            138 265 
 ZAR  HN ES   2   18 6 16.49                             125    -0.6 4  204 297 
