 2012  8 4 1044  2.5 L   6.785 -73.128138.3  RSN  6 0.4 1.3LRSN                1
 GAP=139        0.52       5.1     6.0  7.0 -0.3309E+01  0.9919E+00 -0.6608E+01E
 Epicentro: LOS SANTOS - SANTANDER                                             3
 ACTION:UPD 12-09-10 11:54 OP:ep   STATUS:               ID:20120804104402 L   I
 2012-08-04-1039-35M.COL___211                                                 6
 STAT SP IPHASW D HRMM SECON CODA AMPLIT PERI AZIMU VELO AIN AR TRES W  DIS CAZ7
 BAR2 SZ EP       1044 21.04                             170   -0.1510 22.2 196 
 BAR2 SZ ES   2   1044 35.08                             170   -0.71 5 22.2 196 
 BAR2 SZ I        1044 36.96         6.0 0.28                          22.2 196 
 GIR2 SZ EP   3   1044 21.14                             166   -0.19 2 33.3 347 
 GIR2 SZ ES   3   1044 36.15                             166    0.12 2 33.3 347 
 BRR  HZ EP       1044 23.08                             150    0.1010 73.7 299 
 BRR  HN ES   2   1044 39.30                             150    0.33 5 73.7 299 
 BRR  HZ I        1044 49.41        19.1 0.34                          73.7 299 
 PAM  SZ EP       1044 24.01                             149    0.1010 77.5  38 
 PAM  SZ I        1044 24.12         2.9 0.18                          77.5  38 
 PAM  SE ES   2   1044 40.58                             149   -0.05 5 77.5  38 
 RUS  HZ EP   3   1044 25.38                             143    0.00 2 98.8 177 
 RUS  HN ES   2   1044 43.76                             143    0.53 5 98.8 177 
 RUS  HZ I        1044 45.45         2.0 0.18                          98.8 177 
 PTB  HZ EP   3   1044 27.74                             130   -1.26 2  149 260 
 PTB  HZ I        1044 51.78         1.3 0.42                           149 260 
                                                                                
