 2013  4 4 1050  1.6 L   6.710 -73.183154.0  RSN  6 0.5 1.6LRSN                1
 GAP=226        1.02       8.5     8.7  9.7  0.4007E+02  0.1308E+02 -0.1877E+01E
 Epicentro: VILLANUEVA - SANTANDER                                             3
 ACTION:UPD 13-05-22 14:35 OP:EP   STATUS:               ID:20130404105001 L   I
 2013-04-04-1050-00M.COL___245                                                 6
 STAT SP IPHASW D HRMM SECON CODA AMPLIT PERI AZIMU VELO AIN AR TRES W  DIS CAZ7
 BAR2 SZ EP       1050 21.71                             175   -0.3410 13.0 180 
 BAR2 SZ ES   1   1050 37.03                             175   -0.98 7 13.0 180 
 BAR2 SZ I        1050 40.02        11.4 0.38            174           13.0 180 
 BRR  HZ EP   1   1050 23.74                             153    0.01 7 73.2 307 
 BRR  HE ES   1   1050 41.65                             153    0.64 7 73.2 307 
 RUS  HZ EP   1   1050 26.20                             148    0.69 7 91.0 173 
 RUS  HN ES   1   1050 44.81                             148    0.63 7 91.0 173 
 RUS  HZ I        1050 46.97         4.5 0.44            150           91.0 173 
 PTB  HZ EP   1   1050 28.77                             135    0.03 7  142 262 
 PTB  HN ES   1   1050 50.00                             135    0.08 7  142 262 
 PTB  HZ I        1050 51.79         4.6 0.12            135            142 262 
 ZAR  HZ EP   1   1050 34.59                             124   -0.01 6  204 295 
 ZAR  HE ES   1   1051  0.16                             124   -0.20 6  204 295 
 ZAR  HZ I        1051  6.73         3.4 0.38            125            204 295 
 CHI  HN ES   2   1051  6.42                             120   -1.08 4  238 195 
                                                                                
