 2012  7 4 1752 30.8 L   6.749 -73.139142.0  RSN  6 0.4 1.6LRSN                1
 GAP=140        0.93       8.6     6.1  9.7  0.7688E+00  0.1225E+02  0.1780E+02E
 Epicentro: LOS SANTOS - SANTANDER                                             3
 ACTION:UP  12-08-14 11:42 OP:ep   STATUS:               ID:20120704175230 L   I
 2012-07-04-1750-00M.COL___200                                                 6
 STAT SP IPHASW D HRMM SECON CODA AMPLIT PERI AZIMU VELO AIN AR TRES W  DIS CAZ7
 BAR2 SZ ES   1   1753  4.51                             172    -0.3 7   18 196 
 BAR2 SZ I        1753  5.85         8.9 0.20            170             18 196 
 BRR  HZ EP   1   1752 51.91                             151     0.1 7   75 302 
 BRR  HZ I        1752 52.35        11.3 0.10            151             75 302 
 BRR  HN ES   1   1753  8.74                             151     0.6 7   75 302 
 PAM  SZ EP   1   1752 53.02                             149     0.1 7   81  37 
 PAM  SE ES   1   1753  9.66                             149    -0.4 7   81  37 
 RUS  HZ EP   1   1752 54.29                             145     0.5 7   95 176 
 PTB  HZ EP   1   1752 56.79                             131    -0.7 7  148 261 
 PTB  HN ES   2   1753 17.75                             131    -0.5 5  148 261 
 PTB  HZ I        1753 20.50         3.1 0.17            131            148 261 
 ZAR  HN ES   1   1753 28.70                             121     0.0 6  207 294 
