 2017  7 4 1810  0.1 L   6.678 -73.204140.3  RSN  4 0.5 1.7LRSN                1
 GAP=197        1.15       9.8     7.8  9.5  0.5132E+02  0.8833E+01  0.2882E+02E
 Epicentro: VILLANUEVA - SANTANDER                                             3
 ACTION:UPD 17-08-30 15:29 OP:rebc STATUS:               ID:20170704181000 L   I
 OLDACT:REG 17-07-04 23:35 OP:ar   STATUS:               ID:20170704180739     3
 2017-07-04-1808-00M.COL___380                                                 6
 STAT SP IPHASW D HRMM SECON CODA AMPLIT PERI AZIMU VELO AIN AR TRES W  DIS CAZ7
 BAR2 EZ EP       1810 18.18                             176   -0.6810 9.81 166 
 BAR2 EZ ES       1810 33.37                             176   -0.1310 9.81 166 
 BAR2 EZ I        1810 35.79        11.0 0.30            174           9.81 166 
 BRR  HZ EP       1810 21.39                             151    0.6010 73.5 310 
 BRR  HN ES       1810 37.04                             151    0.1110 73.5 310 
 PTB  HZ EP       1810 26.12                             132    0.27 9  139 264 
 PTB  HN ES       1810 45.71                             132   -0.23 9  139 264 
 YPLC HZ EP       1810 28.14                             127   -0.54 9  169 147 
 YPLC HN ES       1810 51.59                             127    0.62 9  169 147 
 YPLC HZ I        1810 53.19         6.0 0.32            128            169 147 
                                                                                
