 2011  1 4 1027 44.7 L   6.751 -72.934137.1  RSN  4 0.4 1.5LRSN                1
 GAP=253        0.74       7.8    29.2 10.3 -0.2591E+02 -0.9561E+02  0.3100E+02E
 Epicentro: CEPITA - SANTANDER                                                 3
 ACTION:UP  11-02-08 08:38 OP:pat  STATUS:               ID:20110104102744 L   I
 2011-01-04-1020-00M.COL___136                                                 6
 STAT SP IPHASW D HRMM SECON CODA AMPLIT PERI AZIMU VELO SNR AR TRES W  DIS CAZ7
 BAR2 SZ EP   1   1028  3.00                             166    -0.5 7   33 238 
 BAR2 SZ ES   2   1028 17.84                             166    -0.4 5   33 238 
 BAR2 SZ I        1028 19.00        12.4 0.31                            33 238 
 BTL  SZ EP   1   1028  4.36                             162     0.6 7   41 297 
 BTL  SZ ES   2   1028 18.73                             162     0.0 5   41 297 
 RUS  HZ EP   1   1028  7.39                             143     0.1 7   96 190 
 RUS  HE ES   2   1028 25.14                             143     0.2 5   96 190 
 RUS  HZ I        1028 26.59         3.7 0.28                            96 190 
 CHI  HZ EP   1   1028 21.83                             115    -0.3 6  251 201 
 CHI  HN ES   2   1028 51.57                             115     0.2 4  251 201 
 CHI  HZ I        1028 55.24         2.1 0.65                           251 201 
                                                                                
