 2014  5 4 1840 26.2 L   6.728 -73.146147.5  RSN  5 0.3 1.4LRSN                1
 GAP=140        0.90       4.8     4.2  8.1  0.3788E+00  0.6823E+01  0.4290E+00E
 Epicentro: JORDAN - SANTANDER                                                 3
 OLDACT:REG 14-05-04 21:06 OP:spq  STATUS:               ID:20140504184000     3
 ACTION:UPD 15-03-16 16:55 OP:nd   STATUS:               ID:20140504184026 L   I
 OLDACT:UP  14-05-04 23:39 OP:fm   STATUS:               ID:20140504184000     3
 2014-05-04-1840-00M.COL___273                                                 6
 STAT SP IPHASW D HRMM SECON CODA AMPLIT PERI AZIMU VELO AIN AR TRES W  DIS CAZ7
 BRR  HZ EP       1840 48.11                             151    0.3110 75.3 304 
 BRR  HN ES       1841  5.17                             151    0.5410 75.3 304 
 PAM  SZ EP       1840 48.99                             149   -0.0210 83.7  36 
 PAM  SN ES       1841  6.34                             149   -0.4510 83.7  36 
 PAM  HZ I        1841  7.01         2.8 0.78            159           83.7  36 
 RUS  HZ EP   1   1840 49.77                             146    0.17 7 92.6 176 
 RUS  HN ES       1841  7.94                             146    0.1110 92.6 176 
 RUS  HZ I        1841 19.20         2.8 1.00            143           92.6 176 
 PTB  HZ EP       1840 53.08                             133   -0.14 9  146 262 
 PTB  HN ES       1841 13.63                             133   -0.64 9  146 262 
 PTB  HZ I        1841 19.73         6.0 1.90            135            146 262 
 ZAR  HE ES       1841 24.88                             122    0.12 8  207 294 
                                                                                
