 2017 10 4 1205 59.2 L   6.761 -73.053147.3  RSN  5 0.2 1.3LRSN                1
 GAP=155        0.47       3.5     4.0  4.7 -0.7751E+01  0.7632E+01  0.6663E+00E
 Epicentro: LOS SANTOS - SANTANDER                                             3
 ACTION:UPD 17-11-07 19:28 OP:rebc STATUS:               ID:20171004120559 L   I
 OLDACT:REG 17-10-04 19:58 OP:osc  STATUS:               ID:20171004115740     3
 2017-10-04-1158-00M.COL___437                                                 6
 STAT SP IPHASW D HRMM SECON CODA AMPLIT PERI AZIMU VELO AIN AR TRES W  DIS CAZ7
 BAR2 EZ EP       12 6 18.88                             170   -0.1810 23.5 217 
 BAR2 EZ ES       12 6 34.49                             170   -0.0310 23.5 217 
 BAR2 EZ I        12 6 37.66         9.1 0.48            172           23.5 217 
 PAM  EZ EP   2   12 6 21.91                             152    0.43 5 75.0  31 
 PAM  EN ES       12 6 38.87                             152    0.0410 75.0  31 
 PAM  EZ I        12 6 43.46         2.6 0.34            153           75.0  31 
 RUS  HZ EP       12 6 22.71                             145   -0.1210 96.1 182 
 RUS  HN ES       12 6 41.36                             145    0.1310 96.1 182 
 RUS  HZ I        12 6 42.30         2.0 0.20            150           96.1 182 
 NOR  HE ES       12 7  3.98                             118   -0.16 8  241 237 
 GUY2CHN ES       12 7 18.54                             112    0.34 7  307 237 
                                                                                
