 2015 12 4 1725 37.7 L   6.717 -73.070139.2  RSN  5 0.2 1.9LRSN                1
 GAP=191        0.60       4.2     5.4  5.3 -0.1006E+02 -0.5711E+01  0.4311E+01E
 Epicentro: JORDAN - SANTANDER                                                 3
 ACTION:UPD 16-02-04 15:02 OP:cam  STATUS:               ID:20151204172537 L   I
 OLDACT:REG 15-12-04 20:36 OP:drio STATUS:               ID:20151204171747     3
 2015-12-04-1717-47M.COL___307                                                 6
 STAT SP IPHASW D HRMM SECON CODA AMPLIT PERI AZIMU VELO AIN AR TRES W  DIS CAZ7
 BAR2 EZ EP       1725 56.67                             172    0.2710 18.5 222 
 BAR2 EZ ES       1726 10.79                             172   -0.2310 18.5 222 
 BAR2 EZ I        1726 12.89        16.2 0.24            171           18.5 222 
 PAM  EZ EP       1725 59.46                             149    0.1210 80.1  31 
 PAM  EE ES   4   1726 13.60                             149   -2.66 0 80.1  31 
 PAM  EZ I        1726 19.01         9.8 0.30            150           80.1  31 
 BRR  HZ EP       1725 58.68                             147   -0.1510 83.0 301 
 BRR  HN ES       1726 15.41                             147    0.0610 83.0 301 
 SPBC HZ EP       1726  5.18                             128   -0.34 9  162 223 
 SPBC HN ES       1726 27.50                             128    0.25 9  162 223 
 SPBC HZ I        1726 30.09        20.0 0.24            129            162 223 
 ZAR  HN ES   4   1726 34.75                             119   -2.02 0  215 294 
 ZAR  HZ I        1726 40.80         8.0 0.28            120            215 294 
                                                                                
