 2013  9 4 1737  8.0 L   6.801 -73.125146.0  RSN 11 0.4 2.5LRSN                1
 GAP=139        0.75       3.2     5.1  5.3 -0.4464E+00 -0.1334E+00  0.2116E+01E
 Epicentro: LOS SANTOS - SANTANDER                                             3
 ACTION:UPD 13-10-22 09:20 OP:ep   STATUS:               ID:20130904173708 L   I
 OLDACT:UP  13-09-04 20:46 OP:mh   STATUS:               ID:20130904172959     3
 OLDACT:REG 13-09-04 14:53 OP:mh   STATUS:               ID:20130904172959     3
 2013-09-04-1729-59M.COL___270                                                 6
 STAT SP IPHASW D HRMM SECON CODA AMPLIT PERI AZIMU VELO AIN AR TRES W  DIS CAZ7
 BAR2 SZ EP       1737 27.77                             170    0.1210 24.0 195 
 BAR2 SZ ES   1   1737 42.62                             170   -0.37 7 24.0 195 
 BAR2 SZ I        1737 44.07        70.8 0.22            165           24.0 195 
 BRR  HZ EP   1   1737 29.51                             152    0.25 7 73.2 298 
 BRR  HN ES       1737 46.33                             152    0.4610 73.2 298 
 BRR  HZ I        1737 47.06        43.2 0.12            147           73.2 298 
 PAM  SZ EP   1   1737 30.55                             151    0.43 7 75.8  38 
 RUS  HZ EP   1   1737 31.73                             144   -0.02 7  101 177 
 RUS  HN ES   2   1737 49.87                             144   -0.42 5  101 177 
 RUS  HZ I        1737 51.49        50.0 0.26            143            101 177 
 PTB  HZ EP   1   1737 34.44                             132   -0.73 7  150 259 
 PTB  HN ES   2   1737 55.59                             132   -0.79 5  150 259 
 PTB  HZ I        1738  0.97        24.8 0.28            128            150 259 
 OCA  HZ EP   1   1737 35.91                             130   -0.41 7  160 352 
 OCA  HN ES   2   1737 57.55                             130   -0.88 5  160 352 
 OCA  HZ I        1738  0.71        29.9 0.20            130            160 352 
 ZAR  HZ EP   1   1737 41.32                             122    0.67 6  206 292 
 ZAR  HN ES   2   1738  6.19                             122    0.05 4  206 292 
 ZAR  HZ I        1738 11.51        37.6 0.38            120            206 292 
 NOR  HZ EP   1   1737 44.13                             118    0.20 6  237 235 
 NOR  HE ES   2   1738 11.50                             118   -0.47 4  237 235 
 NOR  HZ I        1738 16.62        24.2 0.18            117            237 235 
 CHI  HZ EP   1   1737 46.00                             117    0.23 6  249 196 
 CHI  HN ES       1738 15.29                             117    0.05 8  249 196 
 CHI  HZ I        1738 18.79        12.7 0.38            116            249 196 
 GUY2CHZ EP   4   1737 53.83                             112    2.01 0  303 235 
 GUY2CHN ES   4   1738 28.57                             112    2.56 0  303 235 
 COD  HZ EP   1   1737 55.76                             109   -0.61 5  348 354 
 COD  HN ES   4   1738 32.87                             109   -1.25 0  348 354 
 PRA  HZ EP   1   1738  1.69                             106    0.04 4  393 210 
 PRA  HN ES   2   1738 43.69                             106    0.17 3  393 210 
 PRA  HZ I        1738 50.09        10.8 0.46            106            393 210 
 SJC  HZ EP   4   1738  2.08                             106   -1.60 0  410 327 
 SJC  HN ES   4   1738 42.27                             106   -4.86 0  410 327 
                                                                                
