 2012  6 4 1946 13.2 L   6.494 -73.701 98.0  RSN  6 0.4 2.1LRSN                1
 GAP=127        0.76       5.4     3.0  9.3 -0.1783E+01  0.1108E+02 -0.7978E+01E
 Epicentro: SANTA HELENA DEL OPON - SANTANDER                                  3
 ACTION:UPD 12-08-06 17:47 OP:ep   STATUS:               ID:20120604194621 L   I
 2012-06-04-1940-00M.COL___201                                                 6
 STAT SP IPHASW D HRMM SECON CODA AMPLIT PERI AZIMU VELO AIN AR TRES W  DIS CAZ7
 BAR2 SZ EP   1   1946 29.13                             147    0.29 9 58.4  79 
 BAR2 SZ ES   1   1946 41.71                             147    0.66 9 58.4  79 
 BAR2 SZ I        1946 43.20        75.0 0.18             61           58.4  79 
 PTB  HZ EP   1   1946 30.23                             136   -0.23 9 83.7 274 
 PTB  HN ES   1   1946 43.50                             136   -0.45 9 83.7 274 
 RUS  HZ EP   1   1946 32.15                             133    0.02 9 95.4 134 
 RUS  HN ES   1   1946 46.52                             133   -0.40 9 95.4 134 
 RUS  HZ I        1946 48.75        12.0 0.25             61           95.4 134 
 PAM  SN ES   1   1946 55.27                             120   -0.41 8  145  50 
 ZAR  HZ EP   1   1946 39.08                             116    0.03 8  169 311 
 ZAR  HZ I        1947  4.55        17.6 0.19             61            169 311 
 HEL  HN ES       1947  7.67                             111    0.3510  205 261 
                                                                                
