 2013  7 4 1107 29.4 L   6.835 -73.162139.6  RSN  4 0.2 1.0LRSN                1
 GAP=200        0.47       4.6     4.6  6.1  0.7706E+01  0.4190E+01 -0.6957E+01E
 Epicentro: LOS SANTOS - SANTANDER                                             3
 ACTION:UPD 13-08-12 10:35 OP:ep   STATUS:               ID:20130704110729 L   I
 OLDACT:DUP 13-07-04 20:16 OP:jn   STATUS:               ID:20130704105960d    3
 2013-07-04-1059-59M.COL___265                                                 6
 STAT SP IPHASW D HRMM SECON CODA AMPLIT PERI AZIMU VELO AIN AR TRES W  DIS CAZ7
 BAR2 SZ EP   1   11 7 48.32                             168   -0.02 7 26.9 185 
 BAR2 SZ ES   1   11 8  2.87                             168   -0.27 7 26.9 185 
 BAR2 SZ I        11 8  4.93         2.9 0.18            167           26.9 185 
 RUS  HZ EP   1   11 7 52.96                             141    0.14 7  105 175 
 RUS  HN ES   1   11 8 11.37                             141    0.26 7  105 175 
 RUS  HZ I        11 8 13.09         1.2 0.36            142            105 175 
 PTB  HZ EP   1   11 7 55.44                             131   -0.32 7  147 257 
 PTB  HN ES   1   11 8 16.43                             131    0.09 7  147 257 
 PTB  HZ I        11 8 18.11         1.5 0.32            132            147 257 
 SML  HN ES   2   11 8 33.48                             116    0.34 4  239 335 
                                                                                
