 2017  4 4 1920 44.9 L   6.761 -73.067183.4  RSN  4 0.1 1.6LRSN                1
 GAP=156        0.37       3.1     3.7  4.3 -0.8383E+01  0.3923E+01 -0.1711E+01E
 Epicentro: LOS SANTOS - SANTANDER                                             3
 ACTION:UPD 17-05-30 21:08 OP:jn   STATUS:               ID:20170404192044 L   I
 OLDACT:UP  17-04-04 22:59 OP:edw  STATUS:               ID:20170404191744     3
 OLDACT:UP  17-04-04 22:59 OP:edw  STATUS:               ID:20170404191744     3
 OLDACT:REG 17-04-04 21:26 OP:ar   STATUS:               ID:20170404191744     3
 2017-04-04-1918-00M.COL___359                                                 6
 STAT SP IPHASW D HRMM SECON CODA AMPLIT PERI AZIMU VELO AIN AR TRES W  DIS CAZ7
 PAM  EZ EP       1921 11.29                             157    0.1410 75.8  32 
 PAM  EN ES       1921 31.55                             157   -0.0810 75.8  32 
 PAM  EZ I        1921 33.36         4.1 0.42            159           75.8  32 
 RUS  HZ EP       1921 12.10                             151   -0.1310 96.0 181 
 RUS  HN ES       1921 33.61                             151    0.0610 96.0 181 
 RUS  HZ I        1921 35.90         4.7 0.52            153           96.0 181 
 SPBC HZ EP   4   1921 16.12                             136   -0.60 0  166 222 
 SPBC HN ES       1921 41.59                             136    0.05 9  166 222 
 NOR  HZ EP   4   1921 26.58                             125    3.04 0  239 237 
 NOR  HN ES       1921 53.64                             125   -0.04 8  239 237 
 NOR  HZ I        1921 57.95         2.4 0.54            126            239 237 
                                                                                
