 2014 10 4 1032  8.2 L   6.739 -73.121142.0  RSN  4 0.4 1.2LRSN                1
 GAP=244        0.77       6.2     6.6  9.3  0.5579E+01  0.1584E+02 -0.5395E+01E
 Epicentro: LOS SANTOS - SANTANDER                                             3
 ACTION:UPD 14-11-29 23:46 OP:nd   STATUS:               ID:20141004103208 L   I
 OLDACT:DUP 14-10-05 00:17 OP:fm   STATUS:               ID:20141004102751d    3
 2014-10-04-1027-50M.COL___289                                                 6
 STAT SP IPHASW D HRMM SECON CODA AMPLIT PERI AZIMU VELO AIN AR TRES W  DIS CAZ7
 BAR2 SZ EP       1032 27.42                             172    0.1510 17.6 203 
 BAR2 SZ ES   1   1032 42.33                             172    0.18 7 17.6 203 
 BAR2 SZ I        1032 44.87         3.0 0.28            166           17.6 203 
 RUS  HZ EP   1   1032 31.30                             145    0.22 7 93.7 177 
 RUS  HE ES   1   1032 48.24                             145   -0.70 7 93.7 177 
 RUS  HZ I        1032 50.88         1.1 0.22            146           93.7 177 
 SPBC HZ EP   1   1032 35.71                             129   -0.37 7  160 221 
 SPBC HN ES       1032 58.21                             129    0.37 9  160 221 
 SPBC HZ I        1033  4.41         2.7 0.16            129            160 221 
 ZAR  HN ES   1   1033  6.18                             121   -0.29 6  209 294 
 ZAR  HZ I        1033 11.69         3.0 0.50            121            209 294 
                                                                                
