 2010 10 4 1513 15.9 L   6.793 -72.985140.0  RSN  4 0.4 1.7LRSN                1
 GAP=183        0.94       6.8    15.5 15.2  0.5396E+02 -0.1516E+03 -0.3367E+02E
 Epicentro: CEPITA - SANTANDER                                                 3
 ACTION:UP  11-02-18 11:07 OP:tino STATUS:               ID:20101004151315 L   I
 2010-10-04-1508-23S.COL___125                                                 6
 STAT SP IPHASW D HRMM SECON CODA AMPLIT PERI AZIMU VELO SNR AR TRES W  DIS CAZ7
 BRR  HZ EP       1513 36.96                             147    -0.510   88 293 
 BRR  HN ES       1513 54.47                             147     0.210   88 293 
 BRR  HZ I        1513 55.23        17.7 0.22                            88 293 
 RUS  HZ EP       1513 38.98                             143    -0.110  100 186 
 RUS  HN ES   1   1513 57.05                             143    -0.1 7  100 186 
 RUS  HZ I        1513 58.88         4.5 0.54                           100 186 
 GUE  SZ EP   1   1513 40.42                             139     0.5 7  115   3 
 CHI  HN ES   2   1514 24.11                             116     0.8 4  253 199 
 CHI  HZ I        1514 26.04         2.6 0.08                           253 199 
                                                                                
