 2013  7 4 1920 28.8 L   6.795 -73.195137.3  RSN  9 0.3 1.9LRSN                1
 GAP=131        0.81       3.8     3.5  5.8 -0.1695E+01  0.5111E+01  0.6356E+00E
 Epicentro: ZAPATOCA - SANTANDER                                               3
 ACTION:UPD 13-08-12 10:35 OP:ep   STATUS:               ID:20130704192028 L   I
 OLDACT:REG 13-07-04 19:42 OP:jn   STATUS:               ID:20130704191959     3
 2013-07-04-1919-59M.COL___266                                                 6
 STAT SP IPHASW D HRMM SECON CODA AMPLIT PERI AZIMU VELO AIN AR TRES W  DIS CAZ7
 BAR2 SZ EP       1920 47.27                             170   -0.0910 22.4 177 
 BAR2 SZ ES       1921  1.89                             170    0.0310 22.4 177 
 BAR2 SZ I        1921  4.97        14.0 0.26            163           22.4 177 
 GIR2 SZ EP       1920 47.43                             166   -0.0110 31.4   0 
 BRR  HZ EP       1920 49.42                             153    0.6710 66.8 301 
 BRR  HN ES   1   1921  4.09                             153   -0.25 7 66.8 301 
 BRR  HZ I        1921 11.06        25.0 0.43            144           66.8 301 
 PAM  SZ EP       1920 50.16                             148   -0.1810 81.4  42 
 PAM  SE ES       1921  7.30                             148    0.1310 81.4  42 
 PAM  SZ I        1921  9.38         9.1 0.22            145           81.4  42 
 RUS  HZ EP       1920 51.30                             142   -0.3910  101 173 
 RUS  HN ES       1921  9.79                             142    0.2210  101 173 
 RUS  HZ I        1921 11.10         6.7 0.38            132            101 173 
 PTB  HZ EP       1920 54.31                             131   -0.25 9  142 259 
 PTB  HN ES       1921 14.21                             131   -0.46 9  142 259 
 PTB  HZ I        1921 22.91        15.6 0.26            121            142 259 
 ZAR  HE ES   1   1921 24.94                             121    0.27 6  199 293 
 NOR  HN ES   1   1921 31.33                             117    0.73 6  230 234 
 NOR  HZ I        1921 36.67         9.4 0.32            109            230 234 
 PRA  HZ EP   1   1921 21.67                             105    0.03 4  389 209 
 PRA  HZ I        1922 11.63         4.2 0.34             99            389 209 
                                                                                
