 2012 12 4 1842 32.0 L   6.748 -73.155144.0  RSN  5 0.4 1.8LRSN                1
 GAP=138        0.95       5.6     5.2  9.2 -0.1253E+02  0.1800E+02 -0.1033E+01E
 Epicentro: LOS SANTOS - SANTANDER                                             3
 ACTION:UPD 13-01-04 14:25 OP:ep   STATUS:               ID:20121204184232 L   I
 2012-12-04-1840-00M.COL___232                                                 6
 STAT SP IPHASW D HRMM SECON CODA AMPLIT PERI AZIMU VELO AIN AR TRES W  DIS CAZ7
 BAR2 SZ EP       1842 51.50                             173    0.2310 17.4 190 
 PAM  SZ EP       1842 54.43                             149    0.1210 82.6  38 
 PAM  SN ES       1843 11.33                             149   -0.4110 82.6  38 
 PAM  SN I        1843 12.75         9.3 0.48                          82.6  38 
 RUS  HZ EP       1842 55.62                             145    0.4910 94.9 175 
 RUS  HN ES       1843 13.07                             145   -0.1410 94.9 175 
 RUS  HN I        1843 15.61         4.8 0.24                          94.9 175 
 PTB  HZ EP       1842 58.63                             132    0.03 9  146 261 
 PTB  HN ES       1843 19.87                             132    0.50 9  146 261 
 PTB  HN I        1843 24.76        13.6 0.28                           146 261 
 NOR  HZ EP       1843  6.49                             118   -0.65 8  230 235 
 NOR  HE ES       1843 34.10                             118   -0.47 8  230 235 
 NOR  HN I        1843 40.48         8.1 0.16                           230 235 
                                                                                
