 2010 10 4 1921  5.6 L   6.790 -72.997134.0  RSN  6 0.3 1.6LRSN                1
 GAP=250        0.96       7.0    12.2 13.1  0.3882E+02 -0.5008E+02  0.4251E+01E
 Epicentro: CEPITA - SANTANDER                                                 3
 ACTION:UP  11-02-18 11:07 OP:tino STATUS:               ID:20101004192105 L   I
 2010-10-04-1916-42S.COL___125                                                 6
 STAT SP IPHASW D HRMM SECON CODA AMPLIT PERI AZIMU VELO SNR AR TRES W  DIS CAZ7
 BAR2 SZ EP   1   1921 23.85                             167    -0.1 7   30 223 
 BAR2 SZ I        1921 40.30        10.9 0.29                            30 223 
 BTL  SZ EP       1921 24.55                             166     0.510   33 295 
 BRR  HZ EP       1921 25.95                             146    -0.510   87 294 
 BRR  HN ES       1921 42.89                             146     0.110   87 294 
 BRR  HZ I        1921 46.84         8.9 0.29                            87 294 
 RUS  HZ EP       1921 28.18                             142     0.010  100 186 
 RUS  HN ES   1   1921 45.46                             142    -0.3 7  100 186 
 RUS  HZ I        1921 47.94         4.0 0.50                           100 186 
 CHI  HN ES   2   1922 12.92                             114     0.6 4  252 199 
 CHI  HZ I        1922 19.47         2.2 0.61                           252 199 
 RREF HE ES   2   1922 29.30                             108     0.0 3  334 231 
 RREF HZ I        1922 35.56         2.6 0.34                           334 231 
                                                                                
