 2015  5 4 1328  8.6 L   6.798 -73.120145.4  RSN  9 0.5 2.5LRSN                1
 GAP= 73        1.29       3.9     4.5  7.3  0.2417E+01  0.3860E+01 -0.3966E+01E
 Epicentro: LOS SANTOS - SANTANDER                                             3
 ACTION:UPD 15-09-10 22:01 OP:cam  STATUS:               ID:20150504132808 L   I
 OLDACT:REG 15-05-04 22:18 OP:stll STATUS:               ID:20150504131750     3
 2015-05-04-1317-50M.COL___274                                                 6
 STAT SP IPHASW D HRMM SECON CODA AMPLIT PERI AZIMU VELO AIN AR TRES W  DIS CAZ7
 BAR2 EZ IP     D 1328 28.44                             170    0.2110 23.8 197 
 BAR2 EZ ES       1328 43.46                             170   -0.0610 23.8 197 
 BAR2 EZ I        1328 45.36        39.5 0.20            169           23.8 197 
 BRR  HZ IP     D 1328 30.37                             151    0.4710 73.8 298 
 BRR  HN ES       1328 47.21                             151    0.7310 73.8 298 
 BRR  HZ I        1328 50.58        34.8 0.32            150           73.8 298 
 PAM  SZ EP     D 1328 31.27                             151    0.5510 75.7  38 
 PAM  SZ I        1328 31.39        45.9 0.20            154           75.7  38 
 PAM  SN ES       1328 47.94                             151    0.0010 75.7  38 
 RUS  HZ EP     C 1328 32.31                             144   -0.0210  100 178 
 RUS  HN ES       1328 50.91                             144    0.1110  100 178 
 RUS  HZ I        1328 52.54        31.1 0.38            145            100 178 
 TAM  HZ IP     D 1328 36.56                             131    0.54 9  152 105 
 TAM  HZ I        1328 36.70        66.6 0.18            134            152 105 
 TAM  HE ES       1328 56.25                             131   -1.13 9  152 105 
 OCA  HZ EP       1328 37.71                             129    0.74 9  161 352 
 OCA  HE ES       1328 58.54                             129   -0.53 9  161 352 
 OCA  HZ I        1329  2.97        41.2 0.26            130            161 352 
 SPBC HZ EP       1328 37.38                             129    0.11 9  165 220 
 SPBC HN ES       1328 59.00                             129   -0.60 9  165 220 
 SPBC HZ I        1329  5.02        53.6 0.54            129            165 220 
 ZAR  HZ EP       1328 40.91                             122   -0.43 8  207 292 
 ZAR  HN ES       1329  6.41                             122   -0.44 8  207 292 
 ZAR  HZ I        1329 13.02        29.7 0.24            122            207 292 
 SML  HZ EP       1328 45.06                             117   -0.34 8  245 335 
 SML  HN ES       1329 13.42                             117   -0.65 8  245 335 
 SML  HZ I        1329 17.24        20.1 0.10            118            245 335 
                                                                                
