 2010  5 4 1430 45.1 L   6.778 -72.990149.4  RSN 12 0.4 3.9LRSN                1
 GAP=190        0.80       4.8     9.2  7.2 -0.2520E+02  0.1647E+01  0.1134E+02E
 Epicentro: CEPITA - SANTANDER                                                 3
 ACTION:UP  10-08-24 10:02 OP:vdl  STATUS:               ID:20100504143045 L   I
 2010-05-04-1427-11S.COL___105                                                 6
 STAT SP IPHASW D HRMM SECON CODA AMPLIT PERI AZIMU VELO SNR AR TRES W  DIS CAZ7
 BAR2 SZ IP     C 1431  5.32                             168     0.010   30 226 
 BAR2 SZ ES   2   1431 20.60                             168    -0.5 5   30 226 
 GIR2 SZ EP   1   1431  5.46                             164     0.0 7   40 326 
 GIR2 SZ ES   2   1431 20.81                             164    -0.5 5   40 326 
 BRR  HZ IP     C 1431  7.86                             148     0.210   88 295 
 BRR  HZ I        1431  8.17      1320.2 0.13                            88 295 
 BRR  HN ES   2   1431 25.45                             148     0.2 5   88 295 
 GUE  SZ EP   1   1431 11.14                             140     1.0 7  117   4 
 GUE  SZ ES   2   1431 29.95                             140     0.3 5  117   4 
 GRA  SZ EP   1   1431 10.17                             138    -0.4 7  124  10 
 OCA  SZ EP   1   1431 13.68                             130    -0.5 7  166 347 
 OCA  SZ ES   2   1431 36.62                             130    -0.3 5  166 347 
 OCA  SZ I        1431 40.69      1151.3 0.50                           166 347 
 CHI  HZ EP   1   1431 23.00                             118    -0.3 6  251 199 
 CHI  HN ES   2   1431 53.12                             118     0.0 4  251 199 
 CHI  HZ I        1432  0.60       273.8 0.44                           251 199 
 ROSC BZ EP   1   1431 24.73                             117     0.5 6  260 215 
 ROSC BN ES   2   1431 55.20                             117     0.5 4  260 215 
 ROSC BZ I        1432  3.12       357.8 0.29                           260 215 
 HEL  HZ EP   1   1431 26.66                             114    -0.6 5  288 257 
 RREF BZ EP   1   1431 32.42                             111    -0.3 5  334 232 
 RREF BN ES   2   1432 10.16                             111     0.3 3  334 232 
 RREF BZ I        1432 17.64       397.8 0.29                           334 232 
 ANIL BZ EP   1   1431 36.44                             109     0.2 5  368 227 
 ANIL BE ES   2   1432 16.71                             109     0.5 3  368 227 
 ANIL BZ I        1432 21.58       479.3 0.28                           368 227 
 PRA  HZ EP   1   1431 38.73                             107    -0.8 4  399 212 
 PRA  HE ES   2   1432 21.74                             107    -0.2 3  399 212 
 PRA  HZ I        1432 25.19       269.9 0.25                           399 212 
                                                                                
