 2016 10 4 1122 35.6 L   6.791 -73.138139.4  RSN  6 0.3 1.3LRSN                1
 GAP=138        0.87       4.2     3.8  5.9  0.1575E+01  0.5984E+01 -0.1041E+01E
 Epicentro: LOS SANTOS - SANTANDER                                             3
 ACTION:UPD 16-11-09 19:16 OP:rebc STATUS:               ID:20161004112235 L   I
 OLDACT:REG 16-10-04 19:41 OP:lv   STATUS:               ID:20161004111744     3
 2016-10-04-1118-00M.COL___366                                                 6
 STAT SP IPHASW D HRMM SECON CODA AMPLIT PERI AZIMU VELO AIN AR TRES W  DIS CAZ7
 BAR2 EZ EP       1122 54.18                             170   -0.3010 22.5 193 
 BAR2 EZ ES       1123  8.91                             170   -0.2710 22.5 193 
 BAR2 EZ I        1123  9.87         4.6 0.34            172           22.5 193 
 BRR  HZ IP     C 1122 55.87                             151   -0.3010 72.4 299 
 BRR  HN ES       1123 12.69                             151    0.5110 72.4 299 
 BRR  HZ I        1123 19.46         7.9 0.46            151           72.4 299 
 PAM  EZ EP       1122 57.08                             150   -0.1110 77.7  39 
 PAM  EE ES       1123 14.04                             150    0.0410 77.7  39 
 PAM  EZ I        1123 18.36         3.5 0.48            153           77.7  39 
 RUS  HZ EP       1122 58.81                             143    0.1310 99.5 176 
 RUS  HE ES       1123 16.98                             143    0.3210 99.5 176 
 RUS  HZ I        1123 21.57         1.5 0.34            148           99.5 176 
 PTB  HZ EP       1123  1.91                             130   -0.23 9  148 259 
 PTB  HN ES       1123 22.56                             130   -0.26 9  148 259 
 PTB  HZ I        1123 24.69         1.7 0.16            133            148 259 
 ZAR  HZ EP       1123  8.57                             121    0.78 8  205 292 
 ZAR  HN ES       1123 32.66                             121   -0.21 8  205 292 
 ZAR  HZ I        1123 39.46         2.8 0.22            124            205 292 
                                                                                
