 2012  5 4 1624  4.9 L   6.275 -73.694102.0  RSN  5 0.3 1.6LRSN                1
 GAP=117        0.72       5.6     3.3  8.7 -0.2803E+01  0.3463E+01 -0.5019E+01E
 Epicentro: SANTA HELENA DEL OPON - SANTANDER                                  3
 ACTION:UP  12-07-05 12:02 OP:pat  STATUS:               ID:20120504162404 L   I
 2012-05-04-1620-00M.COL___189                                                 6
 STAT SP IPHASW D HRMM SECON CODA AMPLIT PERI AZIMU VELO SNR AR TRES W  DIS CAZ7
 BAR2 SZ EP       1624 21.53                             144     0.010   67  58 
 BAR2 SZ ES   1   1624 34.79                             144     0.3 7   67  58 
 BAR2 SZ I        1624 35.77        15.7 0.10                            67  58 
 RUS  HZ EP   1   1624 22.65                             139    -0.2 7   80 122 
 RUS  HN ES   1   1624 36.75                             139    -0.2 7   80 122 
 RUS  HZ I        1624 38.66         7.8 0.35                            80 122 
 PTB  HZ EP   1   1624 22.51                             135    -0.5 7   89 289 
 PTB  HN ES   1   1624 37.02                             135    -0.1 7   89 289 
 NOR  SN ES   1   1624 48.72                             119     0.5 7  152 239 
 PAM  SZ EP   1   1624 31.12                             118     0.4 7  161  43 
                                                                                
