 2017  3 4 1544 26.3 L   7.260 -73.893 16.4  RSN  4 0.3 1.2LRSN                1
 GAP=226        0.71       3.2     3.7  5.6  0.3024E+01 -0.1346E+02  0.3616E+01E
 Epicentro: PUERTO WILCHES - SANTANDER                                         3
 ACTION:UPD 17-05-25 18:36 OP:jn   STATUS:               ID:20170304154426 L   I
 OLDACT:UP  17-03-04 22:32 OP:dani STATUS:               ID:20170304153748     3
 OLDACT:REG 17-03-04 21:22 OP:dani STATUS:               ID:20170304153748     3
 2017-03-04-1538-00M.COL___397                                                 6
 STAT SP IPHASW D HRMM SECON CODA AMPLIT PERI AZIMU VELO AIN AR TRES W  DIS CAZ7
 PTB  HZ EP       1544 42.09                              97   -0.2510  101 218 
 PTB  HE ES       1544 55.00                              97    0.1410  101 218 
 PTB  HZ I        1544 56.27         5.4 0.18             95            101 218 
 ZAR  HZ EP       1544 44.07                              97    0.4610  110 284 
 ZAR  HN ES       1544 56.88                              97   -0.2410  110 284 
 ZAR  HZ I        1545  0.66         8.2 0.11             95            110 284 
 RUS  HZ EP       1544 52.73                              56   -0.33 9  176 149 
 RUS  HN ES       1545 14.15                              56    0.22 9  176 149 
 RUS  HZ I        1545 16.15         1.4 0.44             56            176 149 
 NOR  HE ES       1545 22.00                              56   -0.04 8  216 210 
                                                                                
