 2013  5 4 1815  4.3 L   6.768 -73.184138.5  RSN  4 0.4 1.9LRSN                1
 GAP=179        0.85       4.9     8.1 11.4  0.6990E+01  0.2567E+02 -0.9195E+01E
 Epicentro: VILLANUEVA - SANTANDER                                             3
 ACTION:UPD 13-06-20 09:47 OP:ep   STATUS:               ID:20130504181504 L   I
 2013-05-04-1810-00M.COL___253                                                 6
 STAT SP IPHASW D HRMM SECON CODA AMPLIT PERI AZIMU VELO AIN AR TRES W  DIS CAZ7
 BRR  HZ EP   1   1815 25.28                             152    0.72 7 69.4 303 
 BRR  HN ES   1   1815 40.77                             152    0.41 7 69.4 303 
 BRR  HN I        1815 42.11        22.2 0.26            153           69.4 303 
 RUS  HN ES       1815 44.78                             143   -0.1210 97.4 173 
 RUS  HN I        1815 47.12         3.5 0.38            146           97.4 173 
 PTB  HZ EP       1815 30.17                             131   -0.07 9  143 260 
 PTB  HN ES   1   1815 50.10                             131   -0.37 7  143 260 
 PTB  HN I        1815 53.39         9.9 0.22            133            143 260 
 OCA  HN ES   1   1815 53.68                             127   -0.56 7  163 355 
 OCA  HN I        1815 56.81        27.4 0.42            129            163 355 
                                                                                
