 2014  1 4 1030 41.3 L   6.181 -73.767102.4  RSN  6 0.4 1.5LRSN                1
 GAP=128        0.83       5.3     4.0 10.1 -0.5291E+01  0.1445E+02  0.5379E+01E
 Epicentro: LANDAZURI - SANTANDER                                              3
 ACTION:UPD 14-03-13 09:51 OP:ep   STATUS:               ID:20140104103041 L   I
 OLDACT:REG 14-01-04 14:49 OP:mh   STATUS:               ID:20140104103000     3
 2014-01-04-1030-00M.COL___285                                                 6
 STAT SP IPHASW D HRMM SECON CODA AMPLIT PERI AZIMU VELO AIN AR TRES W  DIS CAZ7
 BAR2 SZ IP     D 1030 58.83                             139   -0.0410 79.0  55 
 BAR2 SZ ES       1031 12.77                             139    0.1610 79.0  55 
 BAR2 SZ I        1031 14.69        21.4 0.48             47           79.0  55 
 RUS  HZ EP   1   1030 59.34                             139   -0.13 7 82.1 113 
 RUS  HZ I        1031 15.88         2.3 0.44             47           82.1 113 
 PTB  HZ EP   1   1030 58.49                             137   -0.64 7 86.0 298 
 PTB  HN ES   2   1031 12.46                             137   -0.62 5 86.0 298 
 NOR  HZ EP       1031  4.76                             121    0.44 9  140 241 
 NOR  HN ES   1   1031 22.21                             121   -0.10 7  140 241 
 NOR  HZ I        1031 26.22         3.0 0.12             47            140 241 
 ZAR  HN ES   1   1031 32.34                             113    0.69 7  189 320 
 ZAR  HN I        1031 33.98         7.9 0.12             47            189 320 
 SML  HZ EP   1   1031 20.96                             103   -0.58 5  292 353 
 SML  HZ I        1031 58.44         2.3 0.08             37            292 353 
                                                                                
