 2016  9 4 1217 15.1 L   6.722 -73.178147.0  RSN  5 0.3 1.6LRSN                1
 GAP=228        0.65       5.0     4.6  5.4  0.1462E+02  0.2079E+01 -0.1817E+01E
 Epicentro: VILLANUEVA - SANTANDER                                             3
 ACTION:UPD 17-08-17 21:06 OP:lp   STATUS:               ID:20160904121715 L   I
 OLDACT:REG 16-09-04 20:49 OP:dnl  STATUS:               ID:20160904120745     3
 2016-09-04-1208-00M.COL___352                                                 6
 STAT SP IPHASW D HRMM SECON CODA AMPLIT PERI AZIMU VELO AIN AR TRES W  DIS CAZ7
 BAR2 EZ EP       1217 34.39                             174   -0.3010 14.4 182 
 BAR2 EZ ES       1217 49.81                             174   -0.1910 14.4 182 
 BAR2 EZ I        1217 50.36        11.2 0.36            172           14.4 182 
 BRR  HZ EP       1217 36.42                             152   -0.0110 72.8 306 
 BRR  HN ES       1217 53.28                             152    0.1810 72.8 306 
 BRR  HZ I        1217 54.29         8.1 0.16            150           72.8 306 
 RUS  HZ EP       1217 38.57                             146    0.2110 92.3 173 
 RUS  HN ES       1217 56.76                             146    0.2310 92.3 173 
 RUS  HZ I        1217 57.76         1.7 0.26            146           92.3 173 
 PTB  HZ EP   2   1217 40.88                             133   -0.81 5  143 262 
 PTB  HN ES       1218  2.24                             133   -0.21 9  143 262 
 PTB  HZ I        1218  4.91         6.2 0.16            131            143 262 
 ZAR  HZ EP   2   1217 48.19                             123    0.58 4  204 295 
 ZAR  HN ES       1218 13.20                             123    0.21 9  204 295 
 ZAR  HZ I        1218 18.79         4.6 0.30            121            204 295 
                                                                                
