 2011  7 4 1141 51.0 L   6.351 -73.605109.7  RSN  6 0.2 1.6LRSN                1
 GAP= 87        0.50       2.7     4.1  6.4  0.2510E+01  0.1651E+02  0.6544E+01E
 Epicentro: SANTA HELENA DEL OPON - SANTANDER                                  3
 ACTION:UPD 12-07-25 13:58 OP:epov STATUS:               ID:20110704114151 L   I
 2011-07-04-1138-42S.COL___140                                                 6
 STAT SP IPHASW D HRMM SECON CODA AMPLIT PERI AZIMU VELO AIN AR TRES W  DIS CAZ7
 BAR2 SZ EP       1142  7.79                             152    0.1910 53.8  60 
 BAR2 SZ ES   1   1142 20.74                             152    0.18 7 53.8  60 
 BAR2 SZ I        1142 22.11        26.2 0.43                          53.8  60 
 RUS  HZ EP   1   1142  9.45                             143   -0.04 7 76.9 131 
 RUS  HN ES   1   1142 23.53                             143   -0.38 7 76.9 131 
 RUS  HZ I        1142 24.15         5.7 0.27                          76.9 131 
 BRR  HZ EP       1142  9.08                             139   -0.3010 84.4 352 
 BRR  HZ I        1142  9.78        14.3 0.32                          84.4 352 
 BRR  HN ES   1   1142 23.91                             139    0.20 7 84.4 352 
 NOR  SZ EP   2   1142 16.85                             119   -0.29 5  165 238 
 NOR  SE ES   2   1142 37.42                             119   -0.11 5  165 238 
 CHI  HZ EP   1   1142 20.65                             115    0.22 7  191 184 
 CHI  HZ I        1142 21.59         2.0 0.15                           191 184 
 CHI  HE ES   2   1142 43.83                             115    0.44 4  191 184 
 HEL  HZ EP   1   1142 23.00                             112    0.09 6  214 265 
                                                                                
