 2016  1 4 1415 14.9 L   6.802 -73.142144.8  RSN  8 0.4 1.9LRSN                1
 GAP=137        1.08       4.6     4.4  6.8 -0.2263E+01  0.1047E+02  0.2595E+01E
 Epicentro: LOS SANTOS - SANTANDER                                             3
 ACTION:UPD 16-03-09 23:22 OP:cam  STATUS:               ID:20160104141514 L   I
 OLDACT:REG 16-01-04 21:02 OP:ar   STATUS:               ID:20160104140749     3
 2016-01-04-1407-49M.COL___332                                                 6
 STAT SP IPHASW D HRMM SECON CODA AMPLIT PERI AZIMU VELO AIN AR TRES W  DIS CAZ7
 BAR2 EZ IP     C 1415 34.33                             170   -0.1110 23.6 191 
 BAR2 EZ ES       1415 49.25                             170   -0.4210 23.6 191 
 BAR2 EZ I        1415 50.44        20.4 0.18            169           23.6 191 
 BRR  HZ EP       1415 36.09                             152    0.1110 71.4 298 
 BRR  HN ES       1415 52.94                             152    0.5310 71.4 298 
 BRR  HZ I        1415 58.34        15.7 0.48            149           71.4 298 
 PAM  EZ EP       1415 37.34                             151    0.3310 76.9  39 
 PAM  EN ES       1415 54.19                             151   -0.0510 76.9  39 
 PAM  EZ I        1415 54.69        10.9 0.32            156           76.9  39 
 RUS  HZ EP       1415 38.42                             143   -0.1710  101 176 
 RUS  HN ES       1415 57.42                             143    0.3610  101 176 
 RUS  HZ I        1415 57.90         5.5 0.36            147            101 176 
 PTB  HZ EP       1415 41.32                             132   -0.53 9  148 259 
 PTB  HN ES       1416  2.00                             132   -0.86 9  148 259 
 PTB  HZ I        1416 10.24         8.1 0.16            131            148 259 
 ZAR  HZ EP       1415 47.19                             122   -0.15 9  204 292 
 ZAR  HN ES       1416 12.91                             122    0.29 9  204 292 
 ZAR  HZ I        1416 18.16        10.8 0.30            123            204 292 
 NOR  HZ EP       1415 50.70                             118    0.05 8  235 234 
 NOR  HN ES       1416 18.41                             118   -0.10 8  235 234 
 NOR  HZ I        1416 25.15         9.2 0.20            120            235 234 
 GUY2CHZ EP   4   1416  2.19                             112    3.65 0  302 235 
 GUY2CHN ES       1416 33.67                             112    1.11 7  302 235 
 GUY2CHZ I        1416 40.98         4.8 0.34                           302 235 
                                                                                
