 2017 10 4 1243 23.4 L   5.931 -73.774110.0  RSN  9 0.4 1.7LRSN                1
 GAP= 85        0.93       2.8     2.9  5.6 -0.3454E+01  0.4664E+01 -0.2515E+01E
 Epicentro: SUCRE - SANTANDER                                                  3
 ACTION:UPD 17-11-07 19:28 OP:rebc STATUS:               ID:20171004124323 L   I
 OLDACT:REG 17-10-04 20:06 OP:osc  STATUS:               ID:20171004123742     3
 2017-10-04-1238-00M.COL___437                                                 6
 STAT SP IPHASW D HRMM SECON CODA AMPLIT PERI AZIMU VELO AIN AR TRES W  DIS CAZ7
 SPBC HZ EP       1243 39.24                             156   -0.1110 45.3 227 
 SPBC HE ES       1243 51.86                             156    0.0510 45.3 227 
 SPBC HZ I        1243 53.64        19.1 0.20            156           45.3 227 
 RUS  HZ EP       1243 42.00                             143    0.1210 76.6  93 
 RUS  HN ES       1243 56.07                             143   -0.2410 76.6  93 
 RUS  HZ I        1243 57.82         7.6 0.32            143           76.6  93 
 BAR2 EZ EP     C 1243 43.39                             135    0.1410 98.1  42 
 BAR2 EZ ES       1243 59.34                             135    0.5910 98.1  42 
 BAR2 EZ I        1244  0.34        33.8 0.50            136           98.1  42 
 NOR  HZ EP       1243 45.04                             127   -0.7210  128 252 
 NOR  HN ES       1244  3.62                             127    0.4010  128 252 
 NOR  HZ I        1244  4.93        14.7 0.30            127            128 252 
 CHI  HZ EP       1243 47.85                             124    0.01 9  144 178 
 CHI  HE ES       1244  6.30                             124   -0.62 9  144 178 
 CHI  HZ I        1244 12.58         3.3 0.44            123            144 178 
 GUY2CHZ EP       1243 53.32                             115    0.19 9  193 246 
 GUY2CHN ES       1244 16.35                             115    0.01 9  193 246 
 GUY2CHZ I        1244 22.86         3.2 0.20                           193 246 
 PAM  EZ EP       1243 53.38                             115   -0.09 9  196  37 
 PAM  EN ES       1244 16.93                             115   -0.02 9  196  37 
 PAM  EZ I        1244 19.86         5.0 0.32            115            196  37 
 ZAR  HZ EP       1243 54.24                             113   -0.23 8  210 325 
 ZAR  HE ES       1244 18.27                             113   -0.44 8  210 325 
 ZAR  HZ I        1244 21.77         7.9 0.58            113            210 325 
 ORTC HZ EP       1244  2.71                             106    0.51 7  277 216 
 ORTC HE ES       1244 33.20                             106    0.72 7  277 216 
 ORTC HZ I        1244 38.90         5.8 0.44            106            277 216 
                                                                                
