 2013  8 4 1933 27.1 L   6.751 -73.165156.1  RSN  4 0.2 1.6LRSN                1
 GAP=198        0.45       3.2     3.6  6.7  0.5635E+01 -0.4958E+01 -0.1280E+02E
 Epicentro: VILLANUEVA - SANTANDER                                             3
 ACTION:UPD 14-01-14 08:59 OP:ep   STATUS:               ID:20130804193327 L   I
 OLDACT:UP  13-08-04 18:15 OP:cam  STATUS:               ID:20130804192959     3
 OLDACT:REG 13-08-04 15:37 OP:cam  STATUS:               ID:20130804192959     3
 2013-08-04-1929-59M.COL___270                                                 6
 STAT SP IPHASW D HRMM SECON CODA AMPLIT PERI AZIMU VELO AIN AR TRES W  DIS CAZ7
 RUS  HZ EP   1   1933 51.69                             147    0.12 7 95.3 175 
 RUS  HE ES       1934 10.63                             147    0.0210 95.3 175 
 RUS  HZ I        1934 12.00         4.5 0.34            148           95.3 175 
 PTB  HZ EP       1933 54.69                             135   -0.01 9  145 261 
 PTB  HN ES       1934 15.95                             135   -0.24 9  145 261 
 PTB  HZ I        1934 23.10         6.2 0.44            134            145 261 
 ZAR  HN ES       1934 26.46                             124    0.31 9  204 294 
 SML  HZ EP   1   1934  4.62                             119   -0.18 6  248 336 
 SML  HN ES       1934 34.12                             119   -0.05 8  248 336 
                                                                                
