 2016  2 4 1018 12.6 L   6.754 -73.152142.8  RSN  7 0.2 1.2LRSN                1
 GAP=138        0.44       1.9     2.0  3.3 -0.5858E-01  0.1729E+01 -0.2031E+01E
 Epicentro: LOS SANTOS - SANTANDER                                             3
 ACTION:UPD 16-03-04 21:23 OP:rebc STATUS:               ID:20160204101812 L   I
 OLDACT:DUP 16-02-04 22:06 OP:cara STATUS:               ID:20160204100701d    3
 2016-02-04-1006-59S.COL___223                                                 6
 STAT SP IPHASW D HRMM SECON CODA AMPLIT PERI AZIMU VELO AIN AR TRES W  DIS CAZ7
 BAR2 EZ IP       1018 31.67                             172   -0.0810 18.2 191 
 BAR2 EZ ES       1018 46.81                             172    0.1010 18.2 191 
 BAR2 EZ I        1018 47.76         2.9 0.30            173           18.2 191 
 PAM  EZ IP       1018 34.81                             149    0.0710 81.8  38 
 PAM  EE ES       1018 51.91                             149   -0.1310 81.8  38 
 PAM  EZ I        1018 53.76         2.3 0.42            151           81.8  38 
 RUS  HZ EP       1018 35.94                             145    0.2610 95.6 175 
 RUS  HN ES       1018 53.64                             145   -0.0510 95.6 175 
 RUS  HZ I        1018 56.34         1.5 0.18            147           95.6 175 
 PTB  HZ EP       1018 38.85                             132   -0.31 9  146 261 
 PTB  HN ES       1018 59.77                             132   -0.12 9  146 261 
 PTB  HZ I        1019  2.01         1.8 0.14            132            146 261 
 ZAR  HN ES       1019 10.42                             121    0.19 8  205 294 
 ZAR  HZ I        1019 15.50         1.5 0.58            122            205 294 
 SML  HZ EP       1018 49.53                             116    0.02 8  248 336 
 SML  HN ES       1019 18.39                             116    0.08 8  248 336 
 SML  HZ I        1019 20.22         3.4 0.24            118            248 336 
 GUY2CHZ EP   9   1018 57.21                             112    1.55 0  298 235 
 GUY2CHN ES       1019 31.02                                    0.21 7  298 235 
 GUY2CHZ I        1019 37.88         0.9 0.52                           298 235 
                                                                                
