 2017 11 4 1404 15.5 L   6.793 -73.120144.0  RSN  4 0.2 1.2LRSN                1
 GAP=140        0.44       2.5     3.7  4.5  0.6856E+00  0.1067E+01  0.2394E+01E
 Epicentro: LOS SANTOS - SANTANDER                                             3
 ACTION:UPD 17-12-12 19:51 OP:rebc STATUS:               ID:20171104140415 L   I
 OLDACT:UP  17-11-04 23:29 OP:mg   STATUS:               ID:20171104135741d    3
 OLDACT:DUP 17-11-04 23:26 OP:mg   STATUS:               ID:20171104135741d    3
 2017-11-04-1358-00M.COL___423                                                 6
 STAT SP IPHASW D HRMM SECON CODA AMPLIT PERI AZIMU VELO AIN AR TRES W  DIS CAZ7
 BAR2 EZ EP   2   14 4 34.44                             170   -0.44 5 23.2 197 
 BAR2 EZ ES   2   14 4 49.54                             170   -0.48 5 23.2 197 
 BAR2 EZ I        14 4 52.16         3.4 0.25            171           23.2 197 
 BRR  HZ EP       14 4 36.47                             151   -0.1210 74.1 298 
 BRR  HN ES       14 4 53.20                             151    0.1410 74.1 298 
 BRR  HZ I        14 4 56.81         9.5 0.36            151           74.1 298 
 PAM  EZ EP   2   14 4 37.37                             151   -0.05 5 76.2  37 
 PAM  EN ES       14 4 54.61                             151    0.0710 76.2  37 
 PAM  EZ I        14 4 56.07         1.8 0.16            154           76.2  37 
 RUS  HZ EP       14 4 39.06                             144    0.0910 99.6 178 
 RUS  HN ES       14 4 57.37                             144    0.0610 99.6 178 
 RUS  HZ I        14 4 58.32         1.5 0.28            147           99.6 178 
                                                                                
