 2010  9 4 1448 33.8 L   6.725 -73.151149.1  RSN  5 0.2 1.7LRSN                1
 GAP=159        0.48       6.0    10.1  6.2  0.3823E+02 -0.2802E+02 -0.1243E+02E
 Epicentro: VILLANUEVA - SANTANDER                                             3
 ACTION:UP  11-02-18 11:00 OP:tino STATUS:               ID:20100904144833 L   I
 2010-09-04-1447-23S.COL___120                                                 6
 STAT SP IPHASW D HRMM SECON CODA AMPLIT PERI AZIMU VELO SNR AR TRES W  DIS CAZ7
 BAR2 SZ EP   1   1448 53.41                             174    -0.2 7   15 194 
 BAR2 SZ ES   1   1449  9.05                             174    -0.1 7   15 194 
 BAR2 SZ I        1449 10.42         9.0 0.25                            15 194 
 GIR2 SZ EP   2   1448 53.81                             164    -0.3 5   39 353 
 BRR  HZ EP   1   1448 55.44                             152     0.0 7   75 304 
 BRR  HZ I        1449  5.84        20.1 0.41                            75 304 
 BRR  HN ES   1   1449 12.56                             152     0.1 7   75 304 
 RUS  HZ EP   1   1448 57.37                             147     0.1 7   92 175 
 RUS  HN ES   2   1449 15.93                             147     0.3 5   92 175 
 RUS  HZ I        1449 17.53         5.1 0.54                            92 175 
 GRA  SZ EP   2   1449  0.41                             136     0.4 5  134  17 
                                                                                
