 2012  7 4 1715 13.0 L   6.728 -73.265151.0  RSN  4 0.4 1.3LRSN                1
 GAP=198        0.86       9.1     8.4  9.3  0.3618E+02  0.9275E+01  0.5062E+01E
 Epicentro: BARICHARA - SANTANDER                                              3
 ACTION:UPD 12-08-14 11:42 OP:ep   STATUS:               ID:20120704171513 L   I
 2012-07-04-1710-00M.COL___200                                                 6
 STAT SP IPHASW D HRMM SECON CODA AMPLIT PERI AZIMU VELO AIN AR TRES W  DIS CAZ7
 BAR2 SZ EP   1   1715 32.51                             173    -0.6 7   18 149 
 BAR2 SZ ES   1   1715 48.69                             173    -0.2 7   18 149 
 BAR2 SZ I        1715 50.52         3.5 0.33            172             18 149 
 BRR  HZ EP   1   1715 34.42                             155     0.1 7   65 310 
 BRR  HZ I        1715 35.04        11.7 0.32            156             65 310 
 BRR  HN ES   1   1715 51.43                             155     0.4 7   65 310 
 RUS  HZ EP   1   1715 36.97                             147     0.1 7   95 168 
 RUS  HE ES   1   1715 55.71                             147     0.3 7   95 168 
 RUS  HZ I        1715 57.29         1.5 0.28            146             95 168 
 PTB  HZ EP   1   1715 39.53                             136     0.4 7  133 261 
 PTB  HN ES   1   1715 59.12                             136    -0.4 7  133 261 
 PTB  HZ I        1716  2.60         1.5 0.14            136            133 261 
