 2011 10 4 1014 53.9 L   7.257 -73.405103.8  RSN  9 0.4 2.5LRSN                1
 GAP=164        0.80       5.2     3.9  6.1  0.6810E+01  0.6768E+01  0.7244E+01E
 Epicentro: SABANA DE TORRES - SANTANDER                                       3
 ACTION:UPD 12-07-13 16:01 OP:ep   STATUS:               ID:20111004101453 L   I
 2011-10-04-1000-00M.COL___161                                                 6
 STAT SP IPHASW D HRMM SECON CODA AMPLIT PERI AZIMU VELO AIN AR TRES W  DIS CAZ7
 BRR  HZ IP     D 1015  8.42                             158   -0.3010 37.7 244 
 BRR  HZ I        1015  8.92       121.3 0.19                          37.7 244 
 BRR  HE ES   1   1015 20.30                             158    0.05 7 37.7 244 
 BAR2 SZ IP       1015 11.78                             140    0.2210 77.5 161 
 BAR2 SZ ES   1   1015 25.87                             140    0.57 7 77.5 161 
 BAR2 SZ I        1015 27.10       176.7 0.26                          77.5 161 
 PAM  SZ EP   1   1015 11.86                             140   -0.12 7 78.4  83 
 PAM  SN ES   1   1015 26.17                             140    0.12 7 78.4  83 
 PAM  SZ I        1015 27.76        51.8 0.28                          78.4  83 
 RUS  HZ EP   1   1015 18.63                             119   -0.62 7  155 167 
 RUS  HN ES   1   1015 38.22                             119   -0.77 7  155 167 
 RUS  HZ I        1015 42.86        36.1 0.48                           155 167 
 ZAR  HZ EP   1   1015 19.42                             117   -0.01 7  163 279 
 ZAR  HN ES   1   1015 39.19                             117   -0.12 7  163 279 
 ZAR  HZ I        1015 42.63        62.0 0.15                           163 279 
 YOP  SZ EP   1   1015 28.14                             108    0.18 6  237 153 
 YOP  SZ I        1016  6.87        20.2 0.44                           237 153 
 HEL  HZ EP   1   1015 31.25                             105   -0.05 6  263 243 
 HEL  HZ I        1016  9.95        23.0 0.40                           263 243 
 CHI  HZ EP   1   1015 35.40                             103    0.50 5  293 187 
 CHI  HZ I        1016 18.11        14.5 0.36                           293 187 
 GUY  SZ EP   1   1015 38.54                             102    0.99 5  314 224 
 GUY  SZ I        1016 20.59        37.1 0.38                           314 224 
                                                                                
