 2010 12 4 1157 10.9 L   6.763 -73.034140.9  RSN  8 0.3 2.5LRSN                1
 GAP=225        0.57       5.1     7.9  5.6 -0.1700E+02  0.1066E+02  0.1281E+02E
 Epicentro: CEPITA - SANTANDER                                                 3
 ACTION:UP  11-01-14 15:22 OP:pat  STATUS:               ID:20101204115710 L   I
 2010-12-04-1155-34S.COL___133                                                 6
 STAT SP IPHASW D HRMM SECON CODA AMPLIT PERI AZIMU VELO SNR AR TRES W  DIS CAZ7
 BAR2 SZ EP   1   1157 30.00                             169     0.0 7   25 221 
 BAR2 SZ ES   1   1157 44.49                             169    -0.3 7   25 221 
 BAR2 SZ I        1157 47.90        80.0 0.32                            25 221 
 GIR2 SZ EP   1   1157 30.14                             164    -0.1 7   39 333 
 GIR2 SZ ES   1   1157 45.60                             164     0.3 7   39 333 
 NOR  SZ EP   2   1157 46.74                             116    -0.5 4  243 237 
 NOR  SN ES   2   1158 14.92                             116    -0.6 4  243 237 
 CHI  HZ EP   1   1157 48.34                             116     0.1 6  248 198 
 CHI  HN ES   1   1158 17.35                             116    -0.1 6  248 198 
 CHI  HZ I        1158 23.27        16.4 0.12                           248 198 
 HEL  HZ EP   2   1157 51.62                             113    -0.5 4  283 257 
 HEL  HZ I        1158 29.81        14.6 0.61                           283 257 
 RREF HZ EP   2   1157 57.96                             109     0.4 3  329 231 
 RREF HN ES   1   1158 34.45                             109     0.4 5  329 231 
 RREF HZ I        1158 41.78        16.1 0.21                           329 231 
 TOL  SZ EP   1   1157 59.86                             108     0.2 5  349 227 
 PRA  HZ EP   1   1158  4.14                             105    -0.4 4  395 211 
 PRA  HE ES   1   1158 47.08                             105     0.7 4  395 211 
                                                                                
