 2014  8 4 1649 52.7 L   6.784 -73.183146.3  RSN  5 0.3 1.4LRSN                1
 GAP=238        0.73       4.6     4.9  6.4  0.3207E+01  0.2460E+01  0.5395E+01E
 Epicentro: LOS SANTOS - SANTANDER                                             3
 ACTION:UPD 14-09-15 21:46 OP:nd   STATUS:               ID:20140804164952 L   I
 OLDACT:REG 14-08-04 21:09 OP:spq  STATUS:               ID:20140804164815     3
 2014-08-04-1648-15M.COL___248                                                 6
 STAT SP IPHASW D HRMM SECON CODA AMPLIT PERI AZIMU VELO AIN AR TRES W  DIS CAZ7
 BAR2 SZ EP       1650 11.99                             171   -0.4110 21.2 180 
 BAR2 SZ ES   1   1650 28.07                             171    0.34 7 21.2 180 
 BAR2 SZ I        1650 29.59         2.8 0.22            176           21.2 180 
 BRR  HZ EP       1650 14.18                             153    0.3810 68.5 301 
 BRR  HE ES       1650 30.03                             153   -0.2010 68.5 301 
 BRR  HZ I        1650 51.49         9.6 0.46            154           68.5 301 
 PTB  HZ EP       1650 19.05                             133   -0.31 9  143 259 
 PTB  HN ES       1650 40.20                             133    0.07 9  143 259 
 PTB  HZ I        1650 45.50         2.1 0.27            140            143 259 
 SPBC HZ EP       1650 21.26                             130    0.35 9  159 218 
 SPBC HN ES       1650 42.75                             130   -0.13 9  159 218 
 SPBC HZ I        1650 48.11         3.1 0.18            140            159 218 
 ZAR  HN ES       1650 50.09                             123    0.10 9  201 293 
 ZAR  HZ I        1650 53.01         2.1 0.21            130            201 293 
                                                                                
