 2017  7 4 1318 25.6 L   7.253 -73.408109.9  RSN 11 0.5 2.1LRSN                1
 GAP=164        1.30       5.5     3.9  7.4  0.9652E+00  0.8831E+01  0.7971E+01E
 Epicentro: SABANA DE TORRES - SANTANDER                                       3
 ACTION:UPD 17-08-30 15:29 OP:rebc STATUS:               ID:20170704131825 L   I
 OLDACT:UP  17-07-05 00:39 OP:ar   STATUS:               ID:20170704130742     3
 OLDACT:UP  17-07-05 00:37 OP:ar   STATUS:               ID:20170704130742     3
 OLDACT:REG 17-07-04 23:01 OP:ar   STATUS:               ID:20170704130742     3
 2017-07-04-1308-00M.COL___383                                                 6
 STAT SP IPHASW D HRMM SECON CODA AMPLIT PERI AZIMU VELO AIN AR TRES W  DIS CAZ7
 BRR  HZ EP       1318 40.41                             160   -0.6310 37.3 244 
 BRR  HN ES       1318 53.10                             160    0.0010 37.3 244 
 BRR  HZ I        1318 55.54        27.6 0.50            156           37.3 244 
 BAR2 EZ IP     D 1318 43.37                             142   -0.3910 77.2 161 
 BAR2 EZ ES       1318 57.82                             142   -0.1210 77.2 161 
 PAM  EZ EP       1318 44.34                             142    0.1110 78.8  83 
 PAM  EE ES       1318 59.23                             142    0.4610 78.8  83 
 PAM  EZ I        1319  0.54        28.7 0.22            146           78.8  83 
 PTB  HZ EP       1318 47.71                             124   -1.41 9  140 236 
 PTB  HN ES       1319  7.80                             124    0.32 9  140 236 
 PTB  HZ I        1319  9.99        20.3 0.36            123            140 236 
 ZAR  HZ EP       1318 51.41                             120    0.01 9  162 279 
 ZAR  HN ES       1319 11.96                             120    0.42 9  162 279 
 ZAR  HZ I        1319 13.83        38.1 0.30            119            162 279 
 SPBC HZ EP   4   1318 53.13                             115   -1.57 0  192 203 
 SPBC HE ES       1319 18.04                             115    0.63 9  192 203 
 SPBC HZ I        1319 20.54        15.3 0.24            115            192 203 
 YPLC HZ EP       1318 59.24                             110   -0.29 8  235 151 
 YPLC HE ES       1319 26.32                             110    0.30 8  235 151 
 YPLC HZ I        1319 27.58        13.6 0.30            111            235 151 
 NOR  HZ EP       1319  1.10                             109    0.17 8  247 221 
 NOR  HE ES       1319 28.22                             109   -0.29 8  247 221 
 NOR  HZ I        1319 33.06        11.3 0.40            109            247 221 
 HEL  HZ EP       1319  3.98                             107    0.89 8  262 244 
 HEL  HN ES   4   1319 35.12                             107    2.77 0  262 244 
 HEL  HZ I        1319 37.02        11.1 0.28            107            262 244 
 GUY2CHZ EP   4   1319 10.55                             104    1.50 0  312 224 
 GUY2CHE ES   4   1319 46.17                             104    3.21 0  312 224 
 GUY2CHZ I        1319 47.53         3.6 0.28                           312 224 
 CBOC HZ EP       1319 11.29                             103    0.88 7  326 242 
 CBOC HN ES       1319 45.03                             103   -0.35 7  326 242 
 CBOC HZ I        1319 59.23         3.9 0.34            103            326 242 
                                                                                
