 2011 12 4 1718 36.8 L   6.756 -73.132146.8  RSN  5 0.2 1.7LRSN                1
 GAP=140        0.48       4.8     7.5  6.3 -0.1419E+02  0.2107E+02 -0.8642E+01E
 Epicentro: LOS SANTOS - SANTANDER                                             3
 ACTION:UPD 12-07-13 16:14 OP:ep   STATUS:               ID:20111204171836 L   I
 2011-12-04-1710-00M.COL___183                                                 6
 STAT SP IPHASW D HRMM SECON CODA AMPLIT PERI AZIMU VELO AIN AR TRES W  DIS CAZ7
 BAR2 SZ EP   1   1718 56.21                             172   -0.27 7 18.9 197 
 BAR2 SZ ES   1   1719 11.57                             172   -0.26 7 18.9 197 
 BAR2 SZ I        1719 14.61         7.1 0.39                          18.9 197 
 GIR2 SZ EP   2   1718 56.69                             165   -0.06 5 36.4 349 
 BRR  HZ EP       1718 58.47                             151    0.1910 74.9 301 
 BRR  HZ I        1718 58.76        16.8 0.18                          74.9 301 
 PAM  SZ EP   1   1718 59.33                             150    0.02 7 80.3  36 
 PAM  SN ES   1   1719 16.90                             150    0.04 7 80.3  36 
 RUS  HZ EP   2   1719  0.09                             145   -0.21 5 95.6 177 
 RUS  HN ES   2   1719 19.17                             145    0.53 5 95.6 177 
                                                                                
