 2012  7 4 1716 17.1 L   6.664 -73.285148.0  RSN  4 0.3 1.3LRSN                1
 GAP=169        0.77       9.0     7.8 10.9  0.3365E+02  0.4391E+01  0.2394E+02E
 Epicentro: GALAN - SANTANDER                                                  3
 ACTION:UPD 12-08-14 11:42 OP:ep   STATUS:               ID:20120704171617 L   I
 2012-07-04-1710-00M.COL___200                                                 6
 STAT SP IPHASW D HRMM SECON CODA AMPLIT PERI AZIMU VELO AIN AR TRES W  DIS CAZ7
 BAR2 SZ EP   1   1716 36.44                             174    -0.4 7   14 125 
 BAR2 SZ ES   1   1716 51.92                             174    -0.3 7   14 125 
 BAR2 SZ I        1716 52.90         5.6 0.18            172             14 125 
 BRR  HN ES   1   1716 55.32                             154     0.4 7   68 316 
 RUS  HZ EP   1   1716 40.55                             148     0.3 7   88 165 
 RUS  HN ES   1   1716 58.45                             148     0.2 7   88 165 
 RUS  HZ I        1717  0.37         2.9 0.23            147             88 165 
 PTB  HN ES   1   1717  2.51                             136    -0.2 7  130 264 
