 2014 12 4 1020 54.6 L   6.813 -73.141143.4  RSN 19 0.5 2.2LRSN                1
 GAP= 71        1.07       2.9     2.9  5.5 -0.2362E+00  0.4270E+01  0.2511E+01E
 Epicentro: LOS SANTOS - SANTANDER                                             3
 ACTION:UPD 15-02-10 17:00 OP:nd   STATUS:               ID:20141204102054 L   I
 OLDACT:REG 14-12-04 19:57 OP:spq  STATUS:               ID:20141204101743     3
 2014-12-04-1017-43M.COL___306                                                 6
 STAT SP IPHASW D HRMM SECON CODA AMPLIT PERI AZIMU VELO AIN AR TRES W  DIS CAZ7
 BAR2 SZ EP       1021 14.03                             170    0.0110 24.8 191 
 BAR2 SZ ES   1   1021 28.78                             170   -0.35 7 24.8 191 
 BAR2 SZ I        1021 30.07        50.7 0.16            168           24.8 191 
 BRR  HZ EP       1021 16.01                             152    0.4910 71.0 297 
 BRR  HN ES       1021 32.75                             152    0.9410 71.0 297 
 BRR  HZ I        1021 33.91        21.8 0.46            151           71.0 297 
 PAM  SZ EP       1021 16.91                             151    0.3910 75.9  40 
 PAM  SN ES       1021 33.69                             151    0.1110 75.9  40 
 PAM  SZ I        1021 36.49        18.7 0.46            154           75.9  40 
 RUS  HZ EP       1021 17.80                             143   -0.4610  102 176 
 RUS  HE ES   1   1021 36.02                             143   -0.67 7  102 176 
 RUS  HZ I        1021 37.65        12.0 0.28            142            102 176 
 PTB  HZ EP       1021 20.69                             131   -0.80 9  149 258 
 PTB  HE ES       1021 41.84                             131   -0.59 9  149 258 
 PTB  HZ I        1021 44.62        32.8 0.12            131            149 258 
 TAM  HZ EP       1021 22.31                             130    0.19 9  155 106 
 TAM  HN ES       1021 43.55                             130    0.00 9  155 106 
 TAM  HZ I        1021 44.32         9.7 0.30            132            155 106 
 OCA  HZ EP   1   1021 22.02                             129   -0.62 7  159 353 
 OCA  HN ES       1021 44.16                             129   -0.32 9  159 353 
 OCA  HZ I        1021 48.00        18.0 0.34            131            159 353 
 SPBC HZ EP       1021 23.03                             128   -0.07 9  165 219 
 SPBC HN ES   1   1021 45.43                             128    0.13 7  165 219 
 SPBC HZ I        1021 49.85        15.7 0.64            128            165 219 
 ZAR  HZ EP       1021 27.12                             122    0.19 9  204 292 
 ZAR  HN ES       1021 52.47                             122    0.36 9  204 292 
 ZAR  HZ I        1021 58.77        17.3 0.52            122            204 292 
 NOR  HZ EP       1021 30.63                             118    0.26 8  236 234 
 NOR  HE ES   1   1021 58.00                             118   -0.24 6  236 234 
 NOR  HZ I        1022  3.53        10.9 0.24            118            236 234 
 SML  HZ EP       1021 30.67                             117   -0.35 8  243 335 
 SML  HN ES   1   1021 59.12                             117   -0.27 6  243 335 
 SML  HZ I        1022  5.66        18.1 0.10            118            243 335 
 CHI  HZ EP       1021 32.38                             116    0.01 8  250 195 
 CHI  HN ES   1   1022  1.41                             116   -0.40 6  250 195 
 ROSC BZ EP   4   1021 33.38                             116    0.58 0  254 211 
 ROSC BN ES   4   1022  6.63                             116    4.07 0  254 211 
 ROSC BZ I        1022 12.13        11.2 0.50            116            254 211 
 HEL  HZ EP       1021 35.63                             114    0.80 8  273 256 
 HEL  HE ES       1022  5.76                             114   -0.42 8  273 256 
 HEL  HZ I        1022 13.14         8.4 0.30            114            273 256 
 GUY2CHZ EP   1   1021 39.01                             112    0.73 5  302 235 
 GUY2CHE ES   1   1022 12.51                             112    0.18 5  302 235 
 GUY2CHZ I        1022 20.87         5.8 0.28                           302 235 
 PTGC HZ EP   4   1021 37.26                             111   -1.26 0  310 159 
 PTGC HN ES   4   1022  8.68                             111   -4.07 0  310 159 
 PTGC HZ I        1022 21.59        15.7 0.36            111            310 159 
 TOL  SZ EP   1   1021 43.65                             109    0.69 5  345 225 
 TOL  SN ES       1022 21.48                             109    0.82 7  345 225 
 TOL  SZ I        1022 29.05        10.1 0.28            109            345 225 
 MON  HZ EP   4   1021 41.81                             108   -1.69 0  353 308 
 MON  HN ES       1022 20.79                             108   -0.81 6  353 308 
 MON  HZ I        1022 21.36         2.6 0.22            109            353 308 
 SJC  HZ EP   4   1021 48.76                             105   -1.26 0  408 327 
 SJC  HE ES   4   1022 31.36                             105   -1.85 0  408 327 
 SJC  HZ I        1022 34.37         4.7 0.60            106            408 327 
                                                                                
