 2013  7 4 1117 25.3 L   6.733 -73.278142.0  RSN  4 0.3 1.0LRSN                1
 GAP=195        0.66       7.5     6.2  8.2  0.1988E+02  0.1198E+02  0.6315E+01E
 Epicentro: ZAPATOCA - SANTANDER                                               3
 ACTION:UPD 13-08-12 10:35 OP:ep   STATUS:               ID:20130704111725 L   I
 OLDACT:DUP 13-07-04 20:27 OP:jn   STATUS:               ID:20130704110960d    3
 OLDACT:REG 13-07-04 18:51 OP:jn   STATUS:               ID:20130704110959     3
 2013-07-04-1109-59M.COL___266                                                 6
 STAT SP IPHASW D HRMM SECON CODA AMPLIT PERI AZIMU VELO AIN AR TRES W  DIS CAZ7
 BAR2 SZ EP       1117 44.12                             172   -0.2310 18.8 146 
 BAR2 SZ ES   1   1117 58.99                             172   -0.26 7 18.8 146 
 BAR2 SZ I        1118  0.06         3.1 0.25            156           18.8 146 
 BRR  HE ES   1   1118  1.81                             155    0.40 7 63.3 311 
 RUS  HZ I        1117 48.73         1.3 0.34            169           95.4 167 
 RUS  HN ES   1   1118  6.55                             145    0.33 7 95.4 167 
 PTB  HZ EP   1   1117 50.79                             135    0.28 7  132 261 
 PTB  HN ES   1   1118  9.87                             135   -0.34 7  132 261 
 PTB  HZ I        1118 13.92         1.5 0.16            126            132 261 
                                                                                
