 2014  8 4 1550 11.4 L   6.808 -73.139142.8  RSN 10 0.4 1.9LRSN                1
 GAP=184        0.87       2.6     4.5  5.4  0.9269E+00  0.2204E+01  0.3908E+00E
 Epicentro: LOS SANTOS - SANTANDER                                             3
 ACTION:UPD 14-09-15 21:46 OP:nd   STATUS:               ID:20140804155011 L   I
 OLDACT:REG 14-08-04 21:01 OP:spq  STATUS:               ID:20140804154817     3
 2014-08-04-1548-17M.COL___248                                                 6
 STAT SP IPHASW D HRMM SECON CODA AMPLIT PERI AZIMU VELO AIN AR TRES W  DIS CAZ7
 BAR2 SZ EP       1550 30.93                             170    0.2610 24.3 191 
 BAR2 SZ ES   1   1550 45.62                             170   -0.10 7 24.3 191 
 BAR2 SZ I        1550 47.59        12.5 0.16            170           24.3 191 
 BRR  HZ EP     C 1550 32.78                             152    0.5610 71.5 298 
 BRR  HE ES       1550 48.96                             152    0.4810 71.5 298 
 BRR  HZ I        1550 53.61        15.5 0.12            150           71.5 298 
 RUS  HZ EP       1550 34.88                             143   -0.0210  101 177 
 RUS  HE ES   1   1550 53.22                             143   -0.02 7  101 177 
 RUS  HZ I        1550 54.66         4.8 0.26            148            101 177 
 PTB  HZ EP       1550 37.99                             131   -0.20 9  149 259 
 PTB  HE ES       1550 58.62                             131   -0.48 9  149 259 
 PTB  HZ I        1551  6.12        13.4 0.28            132            149 259 
 OCA  HE ES       1551  0.61                             129   -0.62 9  160 353 
 OCA  HZ I        1551 10.84         7.8 0.12            131            160 353 
 SPBC HZ EP       1550 39.82                             128    0.06 9  164 219 
 SPBC HN ES       1551  1.60                             128   -0.30 9  164 219 
 SPBC HZ I        1551  8.35         8.4 0.36            131            164 219 
 ZAR  HZ EP       1550 43.40                             122   -0.27 9  204 292 
 ZAR  HE ES       1551  9.01                             122    0.15 9  204 292 
 ZAR  HZ I        1551 15.78        11.2 0.28            123            204 292 
 SML  HZ EP       1550 47.42                             117   -0.37 8  243 335 
 SML  HN ES       1551 16.45                             117    0.26 8  243 335 
 SML  HZ I        1551 23.26        13.8 0.10            119            243 335 
 CHI  HZ EP   1   1550 48.62                             116   -0.41 6  250 195 
 CHI  HE ES   1   1551 18.28                             116   -0.11 6  250 195 
 CHI  HZ I        1551 22.81         2.0 0.18            120            250 195 
 GUY2CHZ EP       1550 55.83                             112    0.85 7  302 235 
 GUY2CHN ES   1   1551 28.92                             112   -0.06 5  302 235 
 GUY2CHZ I        1551 36.59         4.0 0.28                           302 235 
                                                                                
