 2015  6 4 1513 34.9 L   6.724 -73.134133.0  RSN  6 0.4 2.0LRSN                1
 GAP=233        1.06       5.2     6.2  8.7  0.1058E+02  0.1710E+02  0.7306E+01E
 Epicentro: JORDAN - SANTANDER                                                 3
 ACTION:UPD 15-09-10 22:09 OP:cam  STATUS:               ID:20150604151334 L   I
 OLDACT:REG 15-06-04 21:05 OP:ar   STATUS:               ID:20150604150749     3
 2015-06-04-1507-49M.COL___297                                                 6
 STAT SP IPHASW D HRMM SECON CODA AMPLIT PERI AZIMU VELO AIN AR TRES W  DIS CAZ7
 BRR  HZ EP       1513 55.22                             148    0.1810 76.6 304 
 BRR  HN ES       1514 11.13                             148    0.3910 76.6 304 
 BRR  HZ I        1514 19.34        17.9 0.46            150           76.6 304 
 RUS  HZ EP       1513 57.19                             144    0.3810 92.1 176 
 RUS  HN ES       1514 13.11                             144   -0.7710 92.1 176 
 RUS  HZ I        1514 18.59         6.2 0.42            149           92.1 176 
 SPBC HZ EP       1514  2.02                             127    0.09 9  158 221 
 SPBC HN ES       1514 23.57                             127    0.59 9  158 221 
 SPBC HZ I        1514 31.25        22.3 0.38            132            158 221 
 ZAR  HZ EP   4   1514  5.37                             119   -1.67 0  208 294 
 ZAR  HE ES       1514 31.43                             119   -0.66 8  208 294 
 ZAR  HZ I        1514 37.68        12.6 0.62            124            208 294 
 NOR  HZ EP       1514  9.15                             116   -0.39 8  231 236 
 NOR  HE ES       1514 36.73                             116    0.20 8  231 236 
 NOR  HZ I        1514 40.97         7.8 0.22            121            231 236 
 HEL  HZ EP       1514 14.41                             112   -0.03 8  271 258 
 HEL  HE ES       1514 45.02                             112   -0.23 8  271 258 
 HEL  HZ I        1514 51.72         5.7 0.34            117            271 258 
                                                                                
