 2013  6 4 1053 15.5 L   6.796 -73.116146.0  RSN  5 0.5 2.0LRSN                1
 GAP=224        1.21       6.0    10.2  8.3  0.1847E+02  0.1952E+02  0.8182E+00E
 Epicentro: LOS SANTOS - SANTANDER                                             3
 ACTION:UPD 14-01-08 09:52 OP:ep   STATUS:               ID:20130604105315 L   I
 2013-06-04-1050-00M.COL___257                                                 6
 STAT SP IPHASW D HRMM SECON CODA AMPLIT PERI AZIMU VELO AIN AR TRES W  DIS CAZ7
 BAR2 SZ IP     D 1053 34.95                             170   -0.1810 23.7 198 
 BAR2 SZ ES       1053 50.14                             170   -0.3210 23.7 198 
 BAR2 SZ I        1053 51.81        14.9 0.30            165           23.7 198 
 BRR  HZ IP     C 1053 36.80                             152   -0.0110 74.3 298 
 BRR  HN ES       1053 54.28                             152    0.8110 74.3 298 
 BRR  HZ I        1053 59.77        12.6 0.28            147           74.3 298 
 ZAR  HZ EP       1053 48.95                             122    0.70 8  207 292 
 ZAR  HN ES       1054 12.88                             122   -0.95 8  207 292 
 ZAR  HZ I        1054 19.94        11.9 0.40            121            207 292 
 SML  HZ EP       1053 51.73                             117   -0.56 8  246 335 
 SML  HN ES       1054 21.21                             117    0.19 8  246 335 
 SML  HZ I        1054 24.01        14.6 0.22            118            246 335 
 PRA  HZ EP       1054  9.52                             107    0.38 6  393 210 
 PRA  HN ES       1054 50.98                             107   -0.03 6  393 210 
 PRA  HZ I        1054 55.61         2.2 0.56            108            393 210 
                                                                                
