 2017  4 4 1134  5.0 L   6.806 -73.124148.0  RSN 13 0.5 2.1LRSN                1
 GAP=114        1.14       3.9     4.2  6.0  0.2930E+01  0.6194E+01  0.5771E+01E
 Epicentro: LOS SANTOS - SANTANDER                                             3
 ACTION:UPD 17-05-30 21:08 OP:jn   STATUS:               ID:20170404113405 L   I
 OLDACT:UP  17-04-04 22:57 OP:ar   STATUS:               ID:20170404112745d    3
 OLDACT:UP  17-04-04 22:49 OP:ar   STATUS:               ID:20170404112745d    3
 OLDACT:DUP 17-04-04 22:42 OP:ar   STATUS:               ID:20170404112745d    3
 OLDACT:REG 17-04-04 19:56 OP:edw  STATUS:               ID:20170404112744     3
 2017-04-04-1128-00M.COL___365                                                 6
 STAT SP IPHASW D HRMM SECON CODA AMPLIT PERI AZIMU VELO AIN AR TRES W  DIS CAZ7
 BAR2 HZ IP     D 1134 24.60                             170   -0.3410 24.5 195 
 BAR2 HZ ES       1134 40.17                             170   -0.3110 24.5 195 
 BAR2 HZ I        1134 42.32        29.7 0.34            166           24.5 195 
 BRR  HZ EP       1134 26.65                             152    0.1410 73.0 297 
 BRR  HN ES       1134 43.92                             152    0.6510 73.0 297 
 BRR  HZ I        1134 49.83        18.6 0.14            146           73.0 297 
 PAM  EZ EP       1134 27.53                             152    0.1810 75.3  38 
 PAM  EN ES       1134 44.80                             152    0.0410 75.3  38 
 PAM  EZ I        1134 46.50        30.4 0.52            153           75.3  38 
 RUS  HZ EP       1134 28.95                             144   -0.0710  101 177 
 RUS  HN ES       1134 47.36                             144   -0.3910  101 177 
 RUS  HZ I        1134 50.30         7.1 0.18            142            101 177 
 PTB  HZ EP       1134 31.62                             132   -0.77 9  150 259 
 PTB  HE ES       1134 53.58                             132   -0.17 9  150 259 
 PTB  HZ I        1134 59.68        26.5 0.38            127            150 259 
 SPBC HZ EP       1134 33.57                             129   -0.31 9  165 219 
 SPBC HN ES       1134 56.71                             129    0.31 9  165 219 
 SPBC HZ I        1134 59.78        16.0 0.10            125            165 219 
 YPLC HZ EP       1134 34.81                             127   -0.11 9  176 152 
 YPLC HE ES       1134 59.07                             127    0.83 9  176 152 
 YPLC HZ I        1135  0.70        11.4 0.24            126            176 152 
 ZAR  HZ EP       1134 37.06                             123   -0.75 8  206 292 
 ZAR  HN ES       1135  3.65                             123    0.26 8  206 292 
 ZAR  HZ I        1135  8.56        21.3 0.28            119            206 292 
 NOR  HZ EP       1134 40.91                             119   -0.22 8  237 235 
 NOR  HN ES   4 D 1135 11.89                             119    2.59 0  237 235 
 NOR  HZ I        1135 12.24         9.3 0.24            115            237 235 
 CHI  HZ EP       1134 43.16                             117    0.18 8  250 196 
 CHI  HN ES       1135 12.03                             117   -0.56 8  250 196 
 CHI  HZ I        1135 21.71         5.3 0.48            115            250 196 
 HEL  HZ EP       1134 46.66                             115    1.04 8  275 256 
 HEL  HZ I        1135 23.61         7.9 0.34            112            275 256 
 ANIL HE ES   2   1135 36.29                             109    2.02 3  360 225 
 PRA  HZ EP       1134 59.42                             107    0.60 6  394 210 
 PRA  HN ES   2   1135 41.72                             107    0.93 3  394 210 
 PRA  HZ I        1135 43.90         5.3 0.62            105            394 210 
                                                                                
