 2017 11 4 1235 41.9 L   6.991 -73.227130.0  RSN 12 0.7 2.1LRSN                1
 GAP=128        1.02       4.4     3.8  6.8  0.1060E+01  0.6043E+01  0.6238E+01E
 Epicentro: GIRON - SANTANDER                                                  3
 ACTION:UPD 17-12-12 19:51 OP:rebc STATUS:               ID:20171104123541 L   I
 OLDACT:UP  17-11-04 22:25 OP:mg   STATUS:               ID:20171104122743     3
 OLDACT:UP  17-11-04 22:24 OP:mg   STATUS:               ID:20171104122743     3
 OLDACT:REG 17-11-04 20:21 OP:mg   STATUS:               ID:20171104122743     3
 2017-11-04-1228-00M.COL___426                                                 6
 STAT SP IPHASW D HRMM SECON CODA AMPLIT PERI AZIMU VELO AIN AR TRES W  DIS CAZ7
 BAR2 EZ IP     D 1236  0.21                             161   -0.1510 44.4 174 
 BAR2 EZ ES   2   1236 14.65                             161   -0.08 5 44.4 174 
 BAR2 EZ I        1236 16.01        87.9 0.34            158           44.4 174 
 BRR  HZ EP   1   1236  0.44                             156   -0.07 7 55.1 284 
 BRR  HN ES       1236 15.70                             156    0.7110 55.1 284 
 BRR  HZ I        1236 16.90        35.4 0.12            154           55.1 284 
 PAM  EZ EP     D 1236  1.68                             152   -0.3510 69.8  56 
 PAM  EN ES       1236 18.04                             152    0.3410 69.8  56 
 PAM  EZ I        1236 19.94        10.0 0.20            155           69.8  56 
 RUS  HZ EP   1   1236  5.46                             135   -0.54 7  122 173 
 RUS  HN ES       1236 24.96                             135    0.2010  122 173 
 RUS  HZ I        1236 25.99         7.9 0.28            134            122 173 
 PTB  HZ EP       1236  6.62                             130   -0.78 9  145 250 
 PTB  HN ES       1236 27.01                             130   -0.24 9  145 250 
 PTB  HZ I        1236 28.39        14.3 0.16            129            145 250 
 SPBC HZ EP   2   1236 10.71                             124    0.22 4  175 212 
 SPBC HN ES   1   1236 32.55                             124   -0.21 7  175 212 
 SPBC HZ I        1236 39.15        12.0 0.10            123            175 212 
 ZAR  HZ EP       1236 11.35                             122   -0.42 9  189 287 
 ZAR  HE ES       1236 35.38                             122    0.35 9  189 287 
 ZAR  HZ I        1236 42.39        16.9 0.20            122            189 287 
 YPLC HZ EP   1   1236 13.13                             120    0.10 6  200 152 
 YPLC HN ES   2   1236 37.62                             120    0.34 4  200 152 
 YPLC HZ I        1236 39.81        14.5 0.28            121            200 152 
 NOR  HZ EP   1   1236 17.37                             115   -0.11 6  241 229 
 NOR  HN ES   1   1236 45.31                             115    0.11 6  241 229 
 NOR  HZ I        1236 49.93         9.0 0.21            115            241 229 
 URE  HN ES   3   1236 49.15                             113   -1.44 2  268 288 
 URE  HZ I        1236 50.98         5.5 0.13            113            268 288 
 GUY2CHZ EP   2   1236 27.73                             110    2.20 4  307 231 
 GUY2CHN ES   3   1237  3.01                             110    3.48 2  307 231 
 GUY2CHZ I        1237  7.24         7.7 0.40                           307 231 
 PRA  HZ EP   2   1236 38.22                             104    1.55 3  406 207 
 PRA  HN ES   3   1237 21.70                             104    2.35 1  406 207 
 PRA  HZ I        1237 28.08         3.8 0.54            104            406 207 
                                                                                
