 2014  3 4 1328 43.5 L   6.822 -73.142142.4  RSN  4 0.3 1.1LRSN                1
 GAP=278        0.73       7.9     4.6  9.3  0.4782E+01  0.7060E+01 -0.2752E+02E
 Epicentro: LOS SANTOS - SANTANDER                                             3
 ACTION:UPD 14-04-09 23:14 OP:nd   STATUS:               ID:20140304132843 L   I
 OLDACT:REG 14-03-04 15:17 OP:stll STATUS:               ID:20140304132815     3
 2014-03-04-1328-15M.COL___232                                                 6
 STAT SP IPHASW D HRMM SECON CODA AMPLIT PERI AZIMU VELO AIN AR TRES W  DIS CAZ7
 BAR2 SZ EP       1329  3.10                             169    0.3510 25.8 190 
 RUS  HZ EP       1329  6.65                             142   -0.4210  103 176 
 RUS  HZ I        1329  9.42         1.2 0.38            139            103 176 
 RUS  HN ES       1329 25.53                             142    0.0510  103 176 
 PTB  HZ EP       1329 10.43                             131    0.18 9  149 258 
 PTB  HN ES       1329 30.80                             131   -0.34 9  149 258 
 PTB  HZ I        1329 34.84         1.9 0.10            128            149 258 
 NOR  HZ EP       1329 19.13                             118   -0.07 8  236 234 
 NOR  HE ES       1329 47.39                             118    0.32 8  236 234 
 NOR  HZ I        1329 52.84         1.4 0.24            115            236 234 
                                                                                
