 2011 11 4 1718 44.0 L   7.205 -73.139137.6  RSN  6 0.2 1.8LRSN                1
 GAP=105        0.35       2.3     2.8  3.5 -0.1996E-01  0.1865E+01 -0.9215E+00E
 Epicentro: RIONEGRO - SANTANDER                                               3
 ACTION:UPD 12-07-13 16:08 OP:ep   STATUS:               ID:20111104171844 L   I
 2011-11-04-1714-29S.COL___176                                                 6
 STAT SP IPHASW D HRMM SECON CODA AMPLIT PERI AZIMU VELO AIN AR TRES W  DIS CAZ7
 PAM  SZ EP       1719  3.97                             159    0.0010 50.8  73 
 PAM  SN ES   1   1719 19.43                             159   -0.09 7 50.8  73 
 BRR  HZ EP       1719  4.03                             153    0.1110 64.2 260 
 BRR  HE ES   2   1719 19.62                             153    0.20 5 64.2 260 
 BRR  HZ I        1719 29.03        13.5 0.74                          64.2 260 
 BAR2 SZ EP       1719  4.51                             152    0.0410 67.9 184 
 BAR2 SZ ES   1   1719 20.25                             152   -0.16 7 67.9 184 
 BAR2 SZ I        1719 21.57        13.1 0.20                          67.9 184 
 OCA  SZ EP       1719  7.77                             137    0.0210  116 350 
 OCA  SZ I        1719 36.80        12.5 0.33                           116 350 
 RUS  HZ EP       1719 10.75                             131   -0.01 9  145 178 
 RUS  HE ES   3   1719 31.54                             131   -0.07 2  145 178 
 RUS  HZ I        1719 33.77         2.8 0.42                           145 178 
 ZAR  HZ EP   3   1719 13.48                             122   -1.28 2  192 280 
 ZAR  HN ES   2   1719 38.74                             122    0.02 4  192 280 
 ZAR  HZ I        1719 45.68        16.3 0.46                           192 280 
                                                                                
