 2012  8 4 1730 33.8 L   6.760 -73.150143.1  RSN  5 0.4 1.8LRSN                1
 GAP=138        0.94       6.1     6.6  8.2 -0.2632E+01  0.8584E+01  0.2016E+01E
 Epicentro: LOS SANTOS - SANTANDER                                             3
 ACTION:UPD 12-09-10 11:54 OP:ep   STATUS:               ID:20120804173033 L   I
 2012-08-04-1729-48M.COL___212                                                 6
 STAT SP IPHASW D HRMM SECON CODA AMPLIT PERI AZIMU VELO AIN AR TRES W  DIS CAZ7
 BAR2 SZ EP       1730 53.23                             172    0.2310 18.9 191 
 BAR2 SZ ES   1   1731  7.84                             172   -0.15 7 18.9 191 
 BAR2 SZ I        1731  9.32        18.9 0.20                          18.9 191 
 BRR  HZ EP       1730 55.12                             151    0.3810 73.1 302 
 BRR  HN ES   1   1731 11.76                             151    0.67 7 73.1 302 
 BRR  HZ I        1731 16.20        19.5 0.12                          73.1 302 
 PAM  SZ EP       1730 55.99                             149    0.0610 81.1  38 
 PAM  SZ I        1730 56.35        17.7 0.22                          81.1  38 
 PAM  SN ES   1   1731 12.49                             149   -0.73 7 81.1  38 
 RUS  HZ EP       1730 57.06                             145    0.1210 96.2 176 
 RUS  HN ES   1   1731 15.05                             145    0.03 7 96.2 176 
 RUS  HZ I        1731 16.33         6.8 0.44                          96.2 176 
 PTB  HZ EP       1730 59.80                             132   -0.61 9  147 261 
 PTB  HN ES   2   1731 20.45                             132   -0.74 5  147 261 
 PTB  HZ I        1731 23.21         4.6 0.10                           147 261 
                                                                                
