 2013 11 4 1145 29.8 L   6.794 -73.203139.1  RSN  6 0.4 1.2LRSN                1
 GAP=130        0.97       4.7     5.4  8.0 -0.2314E+01  0.1270E+02 -0.1505E+02E
 Epicentro: ZAPATOCA - SANTANDER                                               3
 ACTION:UPD 14-01-09 16:25 OP:ep   STATUS:               ID:20131104114529 L   I
 OLDACT:REG 13-11-04 09:45 OP:jn   STATUS:               ID:20131104114000     3
 2013-11-04-1140-00M.COL___273                                                 6
 STAT SP IPHASW D HRMM SECON CODA AMPLIT PERI AZIMU VELO AIN AR TRES W  DIS CAZ7
 BAR2 SZ ES       1146  3.28                             170   -0.0310 22.5 174 
 BAR2 SZ I        1146  4.70         6.6 0.24            172           22.5 174 
 BRR  HZ EP       1145 50.52                             153    0.5610 66.0 302 
 PAM  SZ EP       1145 51.58                             148   -0.0510 82.1  43 
 PAM  SE ES   1   1146  8.61                             148   -0.03 7 82.1  43 
 PAM  SZ I        1146 10.64         3.3 0.44            152           82.1  43 
 RUS  HZ EP       1145 52.85                             142   -0.0810  101 172 
 RUS  HN ES       1146 10.87                             142   -0.0810  101 172 
 RUS  HZ I        1146 11.75         1.4 0.36            146            101 172 
 PTB  HZ EP       1145 56.20                             132    0.53 9  141 259 
 PTB  HN ES       1146 15.40                             132   -0.43 9  141 259 
 PTB  HZ I        1146 22.06         1.8 0.24            133            141 259 
 SML  HZ EP       1146  4.99                             116   -0.87 8  242 337 
 SML  HN ES   1   1146 34.40                             116    0.43 6  242 337 
                                                                                
