 2014  9 4 1341  0.8 L   6.812 -73.108148.0  RSN 16 0.5 2.2LRSN                1
 GAP=204        0.94       3.0     4.5  5.6  0.1557E+01  0.7370E+01  0.2394E+01E
 Epicentro: LOS SANTOS - SANTANDER                                             3
 ACTION:UPD 14-10-03 23:02 OP:nd   STATUS:               ID:20140904134100 L   I
 OLDACT:REG 14-09-04 20:53 OP:fm   STATUS:               ID:20140904133819     3
 2014-09-04-1338-19M.COL___272                                                 6
 STAT SP IPHASW D HRMM SECON CODA AMPLIT PERI AZIMU VELO AIN AR TRES W  DIS CAZ7
 BAR2 SZ EP       1341 21.29                             170    0.5810 25.7 199 
 BAR2 SZ ES   1   1341 36.85                             170    0.58 7 25.7 199 
 BAR2 SZ I        1341 38.36        28.2 0.14            165           25.7 199 
 BRR  HZ EP   1   1341 22.43                             152    0.10 7 74.2 296 
 BRR  HN ES       1341 39.71                             152    0.5610 74.2 296 
 BRR  HZ I        1341 43.50        20.5 0.70            149           74.2 296 
 RUS  HZ EP   1   1341 25.07                             144    0.25 7  102 178 
 RUS  HN ES       1341 42.77                             144   -0.8110  102 178 
 RUS  HZ I        1341 44.96        16.3 0.24            144            102 178 
 PTB  HZ EP       1341 27.89                             132   -0.42 9  152 259 
 PTB  HN ES       1341 49.30                             132   -0.49 9  152 259 
 PTB  HZ I        1341 53.88        23.8 0.28            130            152 259 
 ZAR  HZ EP       1341 33.65                             122   -0.05 8  207 291 
 ZAR  HE ES       1341 59.27                             122   -0.12 8  207 291 
 ZAR  HZ I        1342  6.25        22.7 0.34            123            207 291 
 NOR  HZ EP       1341 36.92                             119   -0.15 8  239 235 
 NOR  HE ES       1342  5.53                             119    0.14 8  239 235 
 NOR  HZ I        1342  9.61        13.8 0.20            119            239 235 
 SML  HZ EP   1   1341 37.20                             118   -0.37 6  244 334 
 SML  HE ES       1342  5.73                             118   -0.55 8  244 334 
 SML  HZ I        1342  9.27        19.8 0.32            119            244 334 
 CHI  HZ EP   1   1341 38.50                             117   -0.35 6  251 196 
 CHI  HE ES       1342  8.44                             117   -0.12 8  251 196 
 CHI  HZ I        1342 14.61         8.3 0.30            118            251 196 
 ROSC BN ES   4   1342 11.93                             117    2.45 0  256 212 
 ROSC BZ I        1342 14.77        17.9 0.40            117            256 212 
 HEL  HZ EP   1   1341 42.46                             115    0.89 6  276 256 
 HEL  HE ES   4   1342 12.31                             115   -1.09 0  276 256 
 HEL  HZ I        1342 20.43         6.5 0.56            115            276 256 
 GUY2CHZ EP   4   1341 47.31                             112    2.36 0  305 235 
 GUY2CHN ES       1342 19.88                             112    0.47 7  305 235 
 GUY2CHZ I        1342 26.83         7.8 0.62                           305 235 
 CBOC HZ EP   1   1341 48.92                             110    0.65 5  338 252 
 CBOC HN ES       1342 24.92                             110   -0.40 7  338 252 
 CBOC HZ I        1342 28.44         3.0 0.36            111            338 252 
 TOL  SZ EP   1   1341 50.20                             109    0.64 5  347 225 
 TOL  SN ES       1342 27.97                             109    0.36 6  347 225 
 TOL  SZ I        1342 34.81         9.6 0.32            110            347 225 
 MON  HZ EP   4   1341 48.22                             109   -1.91 0  356 308 
 MON  HN ES   4   1342 26.69                             109   -1.95 0  356 308 
 MON  HZ I        1342 29.71         2.7 0.28            110            356 308 
 PRA  HZ EP   1   1341 54.75                             107    0.01 4  395 210 
 PRA  HE ES       1342 36.63                             107   -0.21 6  395 210 
 PRA  HZ I        1342 40.59         6.4 0.26            108            395 210 
 ORTC HE ES   1   1342 37.56                             107   -0.06 4  399 217 
 ORTC HZ I        1342 45.07         4.6 0.46            107            399 217 
                                                                                
