 2017  7 4 1459 23.0 L   6.792 -73.125146.0  RSN  7 0.5 1.8LRSN                1
 GAP=214        1.19       6.1     6.0  9.0  0.1305E+02  0.1141E+02  0.8087E+01E
 Epicentro: LOS SANTOS - SANTANDER                                             3
 ACTION:UPD 17-08-30 15:29 OP:rebc STATUS:               ID:20170704145923 L   I
 OLDACT:UP  17-07-05 01:13 OP:ar   STATUS:               ID:20170704145744     3
 OLDACT:REG 17-07-04 23:23 OP:ar   STATUS:               ID:20170704145744     3
 2017-07-04-1458-00M.COL___380                                                 6
 STAT SP IPHASW D HRMM SECON CODA AMPLIT PERI AZIMU VELO AIN AR TRES W  DIS CAZ7
 BAR2 EZ EP       1459 42.47                             171   -0.1810 23.0 196 
 BAR2 EZ ES       1459 57.78                             171   -0.1910 23.0 196 
 BAR2 EZ I        1459 58.10        18.9 0.16            169           23.0 196 
 BRR  HZ EP       1459 44.31                             152    0.0010 73.6 298 
 BRR  HN ES       15 0  1.35                             152    0.4210 73.6 298 
 PTB  HZ EP     D 1459 49.71                             132   -0.46 9  150 259 
 PTB  HE ES       15 0 10.76                             132   -0.60 9  150 259 
 PTB  HZ I        15 0 12.32         4.0 0.14            130            150 259 
 SPBC HZ EP       1459 51.13                             129   -0.45 9  164 220 
 SPBC HE ES       15 0 14.88                             129    1.00 9  164 220 
 SPBC HZ I        15 0 18.10        10.1 0.22            128            164 220 
 YPLC HE ES       15 0 15.84                             127    0.10 9  175 152 
 ZAR  HZ EP   1   1459 56.86                             122    1.15 6  206 292 
 ZAR  HN ES       15 0 21.27                             122    0.05 8  206 292 
 ZAR  HZ I        15 0 28.22         6.9 0.50            121            206 292 
 NOR  HN ES       15 0 26.61                             119   -0.26 8  236 235 
                                                                                
