 2016  3 4 1028 27.2 L   6.819 -73.142147.7  RSN 16 0.5 2.2LRSN                1
 GAP=102        1.11       3.0     3.6  5.6 -0.2138E+01  0.5988E+01 -0.1053E+01E
 Epicentro: LOS SANTOS - SANTANDER                                             3
 ACTION:UPD 16-05-13 21:21 OP:cam  STATUS:               ID:20160304102827 L   I
 OLDACT:UP  16-03-04 20:13 OP:ar   STATUS:               ID:20160304101750     3
 OLDACT:REG 16-03-04 19:37 OP:ar   STATUS:               ID:20160304101750     3
 2016-03-04-1017-50M.COL___315                                                 6
 STAT SP IPHASW D HRMM SECON CODA AMPLIT PERI AZIMU VELO AIN AR TRES W  DIS CAZ7
 BAR2 EZ EP       1028 47.38                             170    0.2410 25.5 190 
 BAR2 EZ ES       1029  2.47                             170   -0.1910 25.5 190 
 BAR2 EZ I        1029  3.13        32.8 0.34            169           25.5 190 
 PAM  EZ EP       1028 50.25                             152    0.7110 75.5  40 
 PAM  EN ES       1029  7.05                             152    0.1110 75.5  40 
 PAM  EZ I        1029  9.18        23.1 0.58            152           75.5  40 
 RUS  HZ EP       1028 51.34                             143    0.0210  103 176 
 RUS  HN ES       1029  9.65                             143   -0.4610  103 176 
 RUS  HZ I        1029 10.63        16.0 0.24            142            103 176 
 PTB  HZ EP       1028 54.27                             132   -0.16 9  149 258 
 PTB  HN ES       1029 15.27                             132   -0.38 9  149 258 
 PTB  HZ I        1029 18.18        23.0 0.22            130            149 258 
 OCA  HZ EP       1028 55.65                             130    0.15 9  158 353 
 OCA  HZ I        1029  5.70        12.2 0.16            129            158 353 
 OCA  HN ES       1029 17.41                             130   -0.14 9  158 353 
 SPBC HZ EP       1028 56.35                             129    0.29 9  165 219 
 SPBC HE ES       1029 18.27                             129   -0.27 9  165 219 
 SPBC HZ I        1029 26.13        23.8 0.24            127            165 219 
 ZAR  HZ EP       1029  0.57                             123    0.81 9  204 292 
 ZAR  HE ES       1029 26.06                             123    0.92 9  204 292 
 ZAR  HZ I        1029 32.16        23.1 0.32            121            204 292 
 NOR  HZ EP       1029  3.04                             119   -0.20 8  236 234 
 NOR  HZ I        1029 19.71         4.5 0.14            117            236 234 
 NOR  HN ES       1029 31.69                             119    0.36 8  236 234 
 CHI  HZ EP       1029  5.74                             117    0.47 8  251 195 
 CHI  HN ES       1029 34.92                             117   -0.02 8  251 195 
 CHI  HZ I        1029 38.08         6.1 0.26            116            251 195 
 HEL  HZ EP       1029  7.58                             115   -0.07 8  273 255 
 HEL  HN ES       1029 38.71                             115   -0.46 8  273 255 
 HEL  HZ I        1029 46.53         7.6 0.32            113            273 255 
 URE  HZ EP       1029  7.73                             114   -0.62 7  283 291 
 URE  HN ES       1029 39.50                             114   -0.93 7  283 291 
 URE  HZ I        1029 40.57        17.0 0.38            112            283 291 
 SOCV BZ EP       1029  9.31                             112   -0.88 7  300  57 
 GUY2CHZ EP       1029 11.98                             112    0.87 7  303 234 
 GUY2CHN ES       1029 45.39                             112    0.06 7  303 234 
 GUY2CHZ I        1029 52.75         8.1 0.28                           303 234 
 PTGC HZ EP   2   1029 10.57                             112   -0.81 3  310 159 
 PTGC HN ES   4   1029 44.01                             112   -1.80 0  310 159 
 MON  HZ EP       1029 15.21                             109   -0.99 6  353 308 
 MON  HN ES   4   1029 52.23                             109   -2.16 0  353 308 
 MON  HZ I        1029 54.69         3.9 0.18            107            353 308 
 ANIL HZ EP   9   1029 18.89                             109    1.57 0  359 224 
 ANIL HE ES   2   1029 58.27                             108    0.31 3  359 224 
 ANIL HZ I        1030  1.43        14.2 0.38            107            359 224 
                                                                                
