 2013  8 4 1855 23.8 L   6.550 -73.396120.3  RSN  7 0.3 1.8LRSN                1
 GAP=115        0.75       3.4     3.5  5.0  0.2300E+01  0.4969E+01 -0.1971E+01E
 Epicentro: HATO - SANTANDER                                                   3
 ACTION:UPD 14-01-14 08:59 OP:ep   STATUS:               ID:20130804185523 L   I
 OLDACT:UP  13-08-04 18:14 OP:cam  STATUS:               ID:20130804184959     3
 OLDACT:REG 13-08-04 15:28 OP:cam  STATUS:               ID:20130804184959     3
 2013-08-04-1849-59M.COL___270                                                 6
 STAT SP IPHASW D HRMM SECON CODA AMPLIT PERI AZIMU VELO AIN AR TRES W  DIS CAZ7
 BAR2 SZ EP       1855 40.56                             168    0.1910 24.1  79 
 BAR2 SZ ES   1   1855 53.24                             168   -0.08 7 24.1  79 
 GIR2 SZ EP       1855 41.78                             151   -0.1210 62.6  21 
 GIR2 SZ I        1855 42.18        21.8 0.14            154           62.6  21 
 GIR2 SZ ES       1855 55.98                             151   -0.0610 62.6  21 
 BRR  HZ EP       1855 41.90                             147   -0.3110 70.8 330 
 BRR  HN ES       1855 56.41                             147   -0.1810 70.8 330 
 BRR  HZ I        1855 56.97        13.0 0.32            148           70.8 330 
 RUS  HZ EP   1   1855 44.01                             144    0.43 7 80.6 155 
 RUS  HN ES   1   1855 59.30                             144    0.27 7 80.6 155 
 RUS  HZ I        1856  2.43         4.1 0.30            144           80.6 155 
 PTB  HZ EP       1855 45.60                             133   -0.3110  117 269 
 PTB  HE ES       1856  3.18                             133    0.0110  117 269 
 ZAR  HZ EP   1   1855 53.51                             118    0.10 7  192 303 
 ZAR  HE ES       1856 16.85                             118    0.32 9  192 303 
 ZAR  HZ I        1856 21.92         6.1 0.36            118            192 303 
 SML  HZ EP       1856  0.40                             110   -0.55 8  260 343 
 SML  HZ I        1856  1.05         7.9 0.30            111            260 343 
 SML  HN ES       1856 30.70                             110    0.76 8  260 343 
                                                                                
