 2012 12 4 1026 40.3 L   6.769 -73.120146.3  RSN  5 0.5 1.7LRSN                1
 GAP=141        1.23       6.6     6.0 13.2 -0.8179E+00  0.2552E+02 -0.1383E+01E
 Epicentro: LOS SANTOS - SANTANDER                                             3
 ACTION:UPD 13-01-04 14:25 OP:ep   STATUS:               ID:20121204102640 L   I
 2012-12-04-1020-00M.COL___232                                                 6
 STAT SP IPHASW D HRMM SECON CODA AMPLIT PERI AZIMU VELO AIN AR TRES W  DIS CAZ7
 BAR2 SZ EP       1026 59.96                             172   -0.0310 20.8 199 
 BAR2 SZ I        1027 15.94         6.7 0.18                          20.8 199 
 PAM  SZ EP       1027  3.32                             150    0.6410 78.3  36 
 PAM  SN ES       1027 19.59                             150   -0.5010 78.3  36 
 PAM  SN I        1027 20.66         7.6 0.48                          78.3  36 
 RUS  HZ EP       1027  3.93                             145    0.0310 97.0 178 
 RUS  HN ES       1027 22.57                             145    0.3010 97.0 178 
 PTB  HZ EP       1027  6.67                             132   -0.88 9  150 260 
 PTB  HN ES       1027 28.60                             132   -0.17 9  150 260 
 PTB  HN I        1027 29.81         7.3 0.24                           150 260 
 ZAR  HE ES       1027 39.53                             122    0.66 8  208 293 
 ZAR  HE I        1027 44.00         7.6 0.20                           208 293 
                                                                                
