 2013  9 4 1320 18.5 L   6.498 -73.774 99.0  RSN  4 0.3 1.5LRSN                1
 GAP=142        0.54       6.0     2.9  8.1  0.4398E+00 -0.1452E+01  0.8309E+01E
 Epicentro: SANTA HELENA DEL OPON - SANTANDER                                  3
 ACTION:UPD 13-10-22 09:20 OP:ep   STATUS:               ID:20130904132018 L   I
 OLDACT:REG 13-09-04 14:37 OP:mh   STATUS:               ID:20130904131959     3
 2013-09-04-1319-59M.COL___269                                                 6
 STAT SP IPHASW D HRMM SECON CODA AMPLIT PERI AZIMU VELO AIN AR TRES W  DIS CAZ7
 BAR2 SZ EP   1   1320 35.08                             144    0.29 7 66.2  81 
 BAR2 SZ ES   1   1320 47.73                             144    0.22 7 66.2  81 
 BAR2 SZ I        1320 48.79        13.9 0.48            146           66.2  81 
 PTB  HZ EP   1   1320 35.40                             140    0.21 7 75.6 274 
 PTB  HN ES   1   1320 48.02                             140   -0.21 7 75.6 274 
 PTB  HZ I        1320 48.93         9.8 0.26            143           75.6 274 
 RUS  HZ EP   1   1320 37.92                             131   -0.17 7  102 131 
 RUS  HN ES   2   1320 53.14                             131   -0.25 5  102 131 
 RUS  HZ I        1320 54.66         3.6 0.84            133            102 131 
 PAM  SN ES   2   1321  1.60                             120   -0.62 5  151  52 
                                                                                
