 2014 11 4 1106 37.9 L   6.795 -73.164143.1  RSN 12 0.4 2.6LRSN                1
 GAP=134        0.89       3.4     3.9  5.1 -0.3839E+01  0.4006E+01  0.5094E+01E
 Epicentro: LOS SANTOS - SANTANDER                                             3
 ACTION:UPD 14-12-19 15:39 OP:nd   STATUS:               ID:20141104110637 L   I
 OLDACT:UP  14-11-04 23:33 OP:cam  STATUS:               ID:20141104105746     3
 OLDACT:REG 14-11-04 22:14 OP:cam  STATUS:               ID:20141104105746     3
 2014-11-04-1057-46M.COL___271                                                 6
 STAT SP IPHASW D HRMM SECON CODA AMPLIT PERI AZIMU VELO AIN AR TRES W  DIS CAZ7
 BAR2 SZ EP     D 11 6 57.07                             171   -0.1010 22.6 185 
 BAR2 SZ ES       11 7 11.78                             171   -0.4410 22.6 185 
 BAR2 SZ I        11 7 14.17        53.7 0.30            168           22.6 185 
 BRR  HZ EP       11 6 58.88                             153    0.2310 69.7 300 
 BRR  HN ES       11 7 15.54                             153    0.6910 69.7 300 
 BRR  HN I        11 7 16.83       146.4 0.18            153           69.7 300 
 PAM  SZ EP     C 11 6 59.92                             150    0.0110 79.1  40 
 PAM  SN ES       11 7 16.99                             150   -0.1110 79.1  40 
 PAM  SZ I        11 7 19.21        81.0 0.48            154           79.1  40 
 RUS  HZ EP       11 7  1.24                             143   -0.1010  100 175 
 RUS  HN ES       11 7 20.04                             143    0.4010  100 175 
 RUS  HZ I        11 7 20.78        40.9 0.34            143            100 175 
 PTB  HZ EP       11 7  3.69                             132   -0.75 9  146 259 
 PTB  HN ES       11 7 24.69                             132   -0.46 9  146 259 
 PTB  HZ I        11 7 26.91        62.8 0.92            132            146 259 
 SPBC HZ EP       11 7  5.97                             129   -0.04 9  162 219 
 SPBC HN ES       11 7 27.98                             129    0.02 9  162 219 
 SPBC HZ I        11 7 30.66        51.3 0.34            129            162 219 
 NOR  HN ES       11 7 40.68                             118   -0.15 8  233 234 
 NOR  HN I        11 7 47.28        78.0 0.16            118            233 234 
 CHI  HZ EP       11 7 15.36                             117    0.04 8  248 195 
 CHI  HE ES       11 7 44.72                             117    0.20 8  248 195 
 CHI  HZ I        11 7 48.32        14.8 0.54            117            248 195 
 HEL  HZ EP       11 7 18.34                             114    0.62 8  270 256 
 GUY2CHZ EP   4   11 7 23.34                             112    2.20 0  299 235 
 TOL  SZ EP   4   11 7 26.95                             109    1.13 0  342 224 
 TOL  SN ES       11 8  3.68                             109    0.47 7  342 224 
 TOL  SZ I        11 8 10.55        28.1 0.46            109            342 224 
 MON  HZ EP   4   11 7 24.38                             108   -2.25 0  352 309 
 MON  HN ES   4   11 8  2.67                             108   -1.98 0  352 309 
 MON  HZ I        11 8  4.45         5.5 0.20            109            352 309 
 PRA  HZ EP       11 7 31.23                             106    0.10 6  391 209 
 PRA  HN ES       11 8 12.27                             106   -0.41 6  391 209 
 PRA  HZ I        11 8 18.80         9.4 0.28            107            391 209 
                                                                                
