 2016 10 4 1836 58.7 L   6.813 -73.199133.6  RSN  4 0.2 1.4LRSN                1
 GAP=146        0.59       3.8     3.6  5.8 -0.5891E+01  0.8934E+01 -0.6692E+01E
 Epicentro: ZAPATOCA - SANTANDER                                               3
 ACTION:UPD 16-11-09 19:16 OP:rebc STATUS:               ID:20161004183658 L   I
 OLDACT:DUP 16-10-04 23:52 OP:lv   STATUS:               ID:20161004182747d    3
 2016-10-04-1828-00M.COL___353                                                 6
 STAT SP IPHASW D HRMM SECON CODA AMPLIT PERI AZIMU VELO AIN AR TRES W  DIS CAZ7
 BAR2 EZ EP       1837 16.72                             169   -0.2010 24.5 176 
 BAR2 EZ ES       1837 30.84                             169   -0.2710 24.5 176 
 BAR2 EZ I        1837 32.95         9.4 0.20            171           24.5 176 
 PAM  EZ EP       1837 19.66                             147   -0.1910 80.2  43 
 PAM  EE ES       1837 36.61                             147    0.2910 80.2  43 
 PAM  EZ I        1837 38.65         6.4 0.34            151           80.2  43 
 RUS  HE ES       1837 39.39                             141    0.2010  103 173 
 RUS  HZ I        1837 40.78         2.5 0.17            144            103 173 
 PTB  HZ EP       1837 24.38                             130    0.16 9  142 258 
 PTB  HN ES       1837 44.12                             130    0.03 9  142 258 
 PTB  HZ I        1837 48.17         2.7 0.09            132            142 258 
                                                                                
