 2014 11 4 1241 35.6 L   6.773 -73.531106.8  RSN  4 0.6 1.4LRSN                1
 GAP=160        1.45       8.5     6.2 14.9 -0.7814E+01  0.2497E+02  0.1668E+01E
 Epicentro: EL CARMEN - SANTANDER                                              3
 ACTION:UPD 14-12-19 15:39 OP:nd   STATUS:               ID:20141104124135 L   I
 OLDACT:REG 14-11-04 22:49 OP:cam  STATUS:               ID:20141104123744     3
 2014-11-04-1237-44M.COL___268                                                 6
 STAT SP IPHASW D HRMM SECON CODA AMPLIT PERI AZIMU VELO AIN AR TRES W  DIS CAZ7
 BAR2 SZ EP       1241 51.66                             156    0.3110 43.5 117 
 BAR2 SZ ES       1242  4.43                             156    0.7910 43.5 117 
 BAR2 SZ I        1242  5.21        15.6 0.54            163           43.5 117 
 PTB  HZ IP     C 1241 55.55                             132   -0.0110  105 256 
 PTB  HN ES       1242 10.87                             132   -0.2610  105 256 
 PTB  HZ I        1242 17.13         4.2 0.38            133            105 256 
 RUS  HZ EP       1241 57.14                             131    0.5910  109 153 
 RUS  HN ES       1242 12.00                             131   -0.8910  109 153 
 RUS  HZ I        1242 14.47         4.3 0.40            137            109 153 
 PAM  SE ES       1242 12.64                             130   -0.5710  111  56 
 PAM  SE I        1242 13.40         3.9 0.24            137            111  56 
                                                                                
