 2012  6 4 1441  6.0 L   6.800 -73.178143.5  RSN  8 0.3 1.8LRSN                1
 GAP=133        0.64       2.7     3.4  6.0 -0.1613E+01  0.7968E+01  0.2276E+01E
 Epicentro: LOS SANTOS - SANTANDER                                             3
 ACTION:UPD 12-08-06 17:47 OP:ep   STATUS:               ID:20120604144106 L   I
 2012-06-04-1440-00M.COL___201                                                 6
 STAT SP IPHASW D HRMM SECON CODA AMPLIT PERI AZIMU VELO AIN AR TRES W  DIS CAZ7
 BAR2 SZ EP   1   1441 25.41                             170    0.09 7 23.0 181 
 BAR2 SZ ES   1   1441 39.74                             170   -0.67 7 23.0 181 
 BAR2 SZ I        1441 42.18        12.2 0.32            172           23.0 181 
 PAM  SZ EP   1   1441 28.21                             150    0.12 7 79.7  42 
 PAM  SN ES       1441 45.59                             150    0.2610 79.7  42 
 PAM  SZ I        1441 47.93        12.7 0.52            152           79.7  42 
 RUS  HZ EP   1   1441 29.32                             143   -0.21 7  101 174 
 RUS  HN ES   1   1441 48.39                             143    0.49 7  101 174 
 RUS  HZ I        1441 49.78         8.3 0.22            146            101 174 
 PTB  HN ES   1   1441 53.19                             132    0.11 7  144 259 
 OCA  HN ES   1   1441 55.54                             129   -0.44 7  160 354 
 ZAR  HZ EP   1   1441 37.88                             122   -0.05 6  201 293 
 ZAR  HN ES   1   1442  3.12                             122    0.26 6  201 293 
 ZAR  HZ I        1442 11.03         8.6 0.08            122            201 293 
 NOR  SE ES       1442  8.85                             118    0.06 8  232 234 
 CHI  HZ EP   1   1441 43.48                             117    0.03 6  248 194 
 CHI  HZ I        1441 45.20         3.4 0.16            118            248 194 
 CHI  HN ES   1   1442 12.28                             117   -0.41 6  248 194 
                                                                                
