 2017  6 4 1320 56.1 L   6.846 -73.120149.8  RSN 22 0.6 2.6LRSN                1
 GAP=150        1.26       3.9     4.2  6.6  0.4238E+01 -0.1012E+01 -0.1598E+01E
 Epicentro: LOS SANTOS - SANTANDER                                             3
 ACTION:UPD 17-09-14 16:49 OP:jn   STATUS:               ID:20170604132056 L   I
 OLDACT:UP  17-06-05 00:31 OP:ar   STATUS:               ID:20170604131737     3
 OLDACT:UP  17-06-05 00:30 OP:ar   STATUS:               ID:20170604131737     3
 OLDACT:UP  17-06-05 00:29 OP:ar   STATUS:               ID:20170604131737     3
 OLDACT:REG 17-06-04 22:01 OP:ar   STATUS:               ID:20170604131737     3
 2017-06-04-1318-00M.COL___350                                                 6
 STAT SP IPHASW D HRMM SECON CODA AMPLIT PERI AZIMU VELO AIN AR TRES W  DIS CAZ7
 BRR  HZ IP       1321 18.30                             153    0.5710 71.5 294 
 BRR  HE ES       1321 35.57                             153    0.9910 71.5 294 
 BRR  HZ I        1321 36.58        60.3 0.14            150           71.5 294 
 RUS  HZ EP       1321 20.68                             143    0.0510  106 178 
 RUS  HE ES       1321 39.10                             143   -0.6510  106 178 
 RUS  HZ I        1321 39.98        34.6 0.24            143            106 178 
 PTB  HZ EP       1321 23.64                             132   -0.13 9  152 257 
 PTB  HN ES       1321 44.41                             132   -0.93 9  152 257 
 PTB  HZ I        1321 50.65        43.6 0.42            130            152 257 
 SPBC HZ EP       1321 25.55                             129    0.07 9  169 219 
 SPBC HE ES       1321 48.20                             129   -0.19 9  169 219 
 SPBC HZ I        1321 52.15        78.4 0.22            128            169 219 
 YPLC HZ IP     D 1321 26.91                             127    0.38 9  180 153 
 YPLC HE ES       1321 51.02                             127    0.78 9  180 153 
 YPLC HZ I        1321 53.57        28.6 0.34            128            180 153 
 ZAR  HZ EP       1321 29.07                             123    0.15 9  205 291 
 ZAR  HN ES       1321 54.37                             123   -0.13 9  205 291 
 ZAR  HZ I        1321 59.57        64.7 0.40            122            205 291 
 TABC EZ EP   4   1321 34.43                             120    1.69 0  236 211 
 NOR  HZ EP       1321 32.64                             119   -0.02 8  240 234 
 NOR  HE ES       1322  0.31                             119   -0.85 8  240 234 
 NOR  HZ I        1322  9.67        24.0 0.58            118            240 234 
 CHI  HZ EP       1321 34.66                             117   -0.01 8  254 195 
 CHI  HN ES       1322  3.98                             117   -0.75 8  254 195 
 CHI  HZ I        1322  7.43        29.6 0.66            117            254 195 
 ROSC BZ EP   4   1321 36.85                             117    1.74 0  259 211 
 ROSC BN ES   4   1322  7.42                             117    1.91 0  259 211 
 ROSC BZ I        1322 10.90        74.4 0.45            117            259 211 
 HEL  HZ EP   4   1321 38.83                             115    1.83 0  276 255 
 HEL  HN ES       1322  8.88                             115    0.00 7  276 255 
 HEL  HZ I        1322 14.34        22.1 0.28            114            276 255 
 URE  HZ EP       1321 36.91                             114   -0.57 7  285 291 
 URE  HN ES   4   1322  7.47                             114   -2.27 0  285 291 
 URE  HZ I        1322 17.74        23.1 0.26            114            285 291 
 VIL  EZ EP       1321 40.51                             112    0.15 7  309 192 
 VIL  EN ES   4   1322 13.93                             112   -0.94 0  309 192 
 VIL  EZ I        1322 17.08        46.1 0.38            112            309 192 
 PTGC HZ IP     D 1321 39.62                             112   -0.97 7  312 159 
 PTGC HN ES   4   1322 13.19                             112   -2.08 0  312 159 
 ELA  HZ EP   4   1321 49.93                             111    6.15 0  335 229 
 ELA  HN ES   4   1322 24.41                             111    3.46 0  335 229 
 ELA  HZ I        1322 28.81        21.2 0.48            110            335 229 
 CBOC HZ EP       1321 44.94                             110    1.23 7  338 251 
 CBOC HE ES       1322 21.03                             110    0.21 7  338 251 
 CBOC HZ I        1322 26.57         6.6 0.40            110            338 251 
 DBB  EZ EP       1321 45.05                             110    0.99 7  342 273 
 DBB  EN ES   4   1322 20.30                             110   -1.15 0  342 273 
 DBB  EZ I        1322 21.12        12.2 0.22            110            342 273 
 ARGC HN ES   4   1322 27.57                             109    3.57 0  355 340 
 ANIL HZ EP   9   1321 49.51                             109    2.77 0  363 224 
 ANIL HE ES       1322 28.89                             108   -0.10 6  363 224 
 ORTC HZ EP       1321 50.87                             107    0.00 6  401 216 
 ORTC HN ES       1322 34.19                             107    0.62 6  401 216 
 ORTC HZ I        1322 37.79        13.2 0.24            107            401 216 
 SJC  HZ EP   9   1321 50.44                             106   -1.06 0  407 326 
 SJC  HN ES       1322 32.96                             105   -0.68 6  407 326 
 SJC  HZ I        1322 46.31         9.0 0.60            106            407 326 
 PAL  HZ EP       1321 52.56                             106    0.54 6  411 239 
 PAL  HN ES       1322 35.34                             106   -0.28 6  411 239 
 PAL  HZ I        1322 40.23         7.7 0.32            106            411 239 
 CRJC HZ EP       1321 56.97                             104   -1.14 5  462   3 
 CRJC HE ES       1322 45.41                             104   -1.05 5  462   3 
 CRJC HZ I        1322 51.71        14.8 0.32            104            462   3 
 SMAR HZ EP   2   1322  1.95                             103    0.36 2  493 346 
 SMAR HN ES   4   1322 50.07                             103   -2.59 0  493 346 
 SMAR HZ I        1322 51.95         7.6 0.42            103            493 346 
                                                                                
