 2010 10 4 1532 32.5 L   6.737 -73.116151.2  RSN  5 0.2 1.7LRSN                1
 GAP=168        0.56       4.5     8.4  6.3  0.1481E+02 -0.2233E+02 -0.4527E+01E
 Epicentro: JORDAN - SANTANDER                                                 3
 ACTION:UP  11-02-18 11:07 OP:tino STATUS:               ID:20101004153232 L   I
 2010-10-04-1530-23S.COL___125                                                 6
 STAT SP IPHASW D HRMM SECON CODA AMPLIT PERI AZIMU VELO SNR AR TRES W  DIS CAZ7
 BAR2 SZ EP   1   1532 52.74                             173     0.1 7   18 205 
 BAR2 SZ ES   1   1533  8.36                             173     0.0 7   18 205 
 BAR2 SZ I        1533  9.41        15.0 0.26                            18 205 
 BRR  HZ EP       1532 54.53                             151     0.010   78 302 
 BRR  HN ES       1533 11.88                             151     0.110   78 302 
 BRR  HZ I        1533 18.08        11.8 0.41                            78 302 
 RUS  HZ EP   1   1532 56.72                             147     0.5 7   93 178 
 RUS  HN ES   2   1533 14.50                             147    -0.3 5   93 178 
 RUS  HZ I        1533 16.00         3.8 1.11                            93 178 
 GUE  SZ EP   1   1532 57.94                             139    -0.2 7  123  10 
 CHI  HN ES   2   1533 38.52                             119    -0.5 4  243 196 
                                                                                
