 2011  5 4 1313 58.9 L   6.769 -73.063136.0  RSN  8 0.3 2.1LRSN                1
 GAP=166        0.80       3.9     6.4  6.3 -0.1176E+02  0.6672E+01 -0.9593E+00E
 Epicentro: LOS SANTOS - SANTANDER                                             3
 ACTION:UP  11-06-29 08:50 OP:tino STATUS:               ID:20110504131358 L   I
 2011-05-04-1310-11S.COL___133                                                 6
 STAT SP IPHASW D HRMM SECON CODA AMPLIT PERI AZIMU VELO SNR AR TRES W  DIS CAZ7
 BAR2 SZ EP       1314 17.12                             170    -0.210   24 214 
 BAR2 SZ ES   1   1314 31.89                             170     0.1 7   24 214 
 BAR2 SZ I        1314 32.87        46.9 0.10                            24 214 
 BTL  SZ EP       1314 17.45                             168     0.010   28 306 
 BRR  HZ EP       1314 19.14                             147    -0.510   81 298 
 BRR  HZ I        1314 21.12        37.0 0.17                            81 298 
 BRR  HE ES   1   1314 35.60                             147    -0.2 7   81 298 
 RUS  HZ EP   1   1314 21.54                             143     0.1 7   97 181 
 RUS  HN ES   1   1314 38.84                             143    -0.1 7   97 181 
 RUS  HZ I        1314 41.11        21.5 0.40                            97 181 
 BRI  SZ EP       1314 21.95                             139     0.110  109  16 
 BRI  SZ ES   1   1314 40.37                             139     0.5 7  109  16 
 GRA  SZ EP       1314 23.18                             134    -0.210  127  13 
 GRA  SZ ES   1   1314 42.76                             134     0.3 7  127  13 
 GRA  SZ I        1314 43.64        15.0 0.42                           127  13 
 HEL  HZ EP   1   1314 39.49                             112     0.0 6  280 257 
 RREF HZ EP   1   1314 45.74                             109     0.6 5  327 231 
 RREF HE ES   1   1315 22.27                             109     1.0 5  327 231 
 RREF HZ I        1315 24.98         4.9 0.40                           327 231 
                                                                                
