 2014  5 4 1530 29.8 L   6.736 -73.147142.0  RSN  8 0.4 1.7LRSN                1
 GAP=139        0.90       3.0     3.9  6.4  0.5282E+00  0.4928E+01  0.1522E+01E
 Epicentro: JORDAN - SANTANDER                                                 3
 OLDACT:REG 14-05-04 20:32 OP:spq  STATUS:               ID:20140504153000     3
 ACTION:UPD 15-03-16 16:55 OP:nd   STATUS:               ID:20140504153029 L   I
 OLDACT:UP  14-05-05 00:42 OP:spq  STATUS:               ID:20140504153000     3
 2014-05-04-1530-00M.COL___273                                                 6
 STAT SP IPHASW D HRMM SECON CODA AMPLIT PERI AZIMU VELO AIN AR TRES W  DIS CAZ7
 BRR  HZ EPg      1530 51.05                             151    0.3210 74.7 303 
 BRR  HN ESg      1531  7.69                             151    0.6210 74.7 303 
 BRR  HZ I        1531 10.89        11.9 0.92            155           74.7 303 
 PAM  SZ EPg      1530 52.17                             148    0.2210 83.0  36 
 PAM  SN ESg      1531  9.07                             148   -0.1710 83.0  36 
 PAM  HZ I        1531 10.82         5.2 0.42            158           83.0  36 
 RUS  HZ EPg      1530 52.28                             145   -0.3810 93.5 176 
 RUS  HE ESg      1531 10.11                             145   -0.3910 93.5 176 
 RUS  HZ I        1531 22.92         4.6 0.86            143           93.5 176 
 PTB  HZ EP       1530 55.92                             131   -0.40 9  146 262 
 PTB  HN ES       1531 16.90                             131   -0.12 9  146 262 
 PTB  HZ I        1531 23.79         7.6 0.82            133            146 262 
 SPBC HZ EP       1530 58.11                             129    0.64 9  158 221 
 SPBC HN ES   1   1531 19.39                             129    0.33 7  158 221 
 SPBC HZ I        1531 22.64         5.5 0.12            130            158 221 
 ZAR  HZ EP   1   1531  2.27                             121    0.01 6  207 294 
 ZAR  HN ES       1531 27.10                             121   -0.49 8  207 294 
 ZAR  HZ I        1531 32.37         7.0 0.26            125            207 294 
 CHI  HZ EP   1   1531  6.62                             117    0.09 6  242 196 
 CHI  HN ES   1   1531 35.17                             117   -0.01 6  242 196 
 CHI  HZ I        1531 57.04         6.4 2.98            118            242 196 
 SML  HZ EP   2   1531  7.49                             116    0.59 4  250 336 
 SML  HE ES       1531 35.46                             116   -0.39 8  250 336 
 SML  HZ I        1531 37.78         6.2 0.08            122            250 336 
                                                                                
