 2012  3 4 1605 30.7 L   6.898 -73.117117.3  RSN  4 0.2 1.5LRSN                1
 GAP=249        0.42       5.3     4.5  7.4  0.1249E+02  0.9704E+01 -0.1280E+02E
 ACTION:UP  12-03-31 23:17 OP:EP   STATUS:               ID:20120304160530 L   I
 2012-03-04-1600-00M.COL___191                                                 6
 STAT SP IPHASW D HRMM SECON CODA AMPLIT PERI AZIMU VELO SNR AR TRES W  DIS CAZ7
 BAR2 SZ EP   1   16 5 47.32                             162     0.1 7   35 192 
 BAR2 SZ ES   1   16 6  0.07                             162    -0.1 7   35 192 
 BAR2 SZ I        16 6  3.18         6.4 0.13                            35 192 
 RUS  HN ES   1   16 6  9.96                             133     0.1 7  111 178 
 RUS  HZ I        16 6 11.69         5.6 0.27                           111 178 
 PTB  HN ES   1   16 6 15.73                             123    -0.1 7  153 255 
 ZAR  HZ EP   2   16 6  1.08                             115    -0.3 4  203 289 
 ZAR  HN ES   1   16 6 25.52                             115     0.2 6  203 289 
 ZAR  HZ I        16 6 28.32         3.6 0.24                           203 289 
                                                                                
