 2014 12 4 1640 43.8 L   6.761 -73.186138.0  RSN  4 0.3 1.0LRSN                1
 GAP=140        0.62       4.7     4.5  8.5 -0.7616E+01  0.1286E+02 -0.5995E+01E
 Epicentro: LOS SANTOS - SANTANDER                                             3
 ACTION:UPD 15-02-10 17:00 OP:nd   STATUS:               ID:20141204164043 L   I
 OLDACT:REG 14-12-04 20:39 OP:spq  STATUS:               ID:20141204163750     3
 2014-12-04-1637-50M.COL___306                                                 6
 STAT SP IPHASW D HRMM SECON CODA AMPLIT PERI AZIMU VELO AIN AR TRES W  DIS CAZ7
 BAR2 SZ EP       1641  2.83                             172    0.3910 18.7 179 
 PAM  SZ EP       1641  5.70                             147    0.0810 83.5  40 
 PAM  SN ES   1   1641 22.36                             147   -0.26 7 83.5  40 
 PAM  SZ I        1641 25.95         1.4 0.34            152           83.5  40 
 RUS  HZ EP   1   1641  6.06                             143   -0.48 7 96.7 173 
 RUS  HE ES   1   1641 24.34                             143    0.08 7 96.7 173 
 RUS  HZ I        1641 26.06         1.6 0.32            150           96.7 173 
 PTB  HZ EP       1641  9.63                             131   -0.08 9  143 260 
 PTB  HN ES   1   1641 29.83                             131   -0.05 7  143 260 
 PTB  HZ I        1641 33.23         1.8 0.14            135            143 260 
                                                                                
