 2013  4 4 1509 57.8 L   6.729 -73.193148.6  RSN  5 0.3 1.5LRSN                1
 GAP=226        0.63       6.3     5.8  6.6  0.2125E+02  0.3882E+01 -0.2420E+01E
 Epicentro: VILLANUEVA - SANTANDER                                             3
 ACTION:UPD 13-05-22 14:35 OP:EP   STATUS:               ID:20130404150957 L   I
 2013-04-04-1510-00M.COL___245                                                 6
 STAT SP IPHASW D HRMM SECON CODA AMPLIT PERI AZIMU VELO AIN AR TRES W  DIS CAZ7
 BAR2 SZ EP   1   1510 17.23                             174   -0.42 7 15.1 176 
 BAR2 SZ ES   1   1510 32.86                             174   -0.27 7 15.1 176 
 BAR2 SZ I        1510 33.78         9.5 0.24            165           15.1 176 
 BRR  HZ EP       1510 19.16                             153   -0.1010 71.0 306 
 BRR  HN ES   1   1510 36.40                             153    0.41 7 71.0 306 
 RUS  HZ EP   1   1510 21.83                             146    0.49 7 93.3 173 
 RUS  HN ES   1   1510 39.83                             146    0.14 7 93.3 173 
 RUS  HZ I        1510 41.59         1.6 0.26            143           93.3 173 
 PTB  HZ EP   1   1510 24.31                             134   -0.13 7  141 262 
 PTB  HE ES   1   1510 44.95                             134   -0.26 7  141 262 
 PTB  HZ I        1510 51.15         4.4 0.60            130            141 262 
 ZAR  HN ES   1   1510 55.84                             123    0.24 6  202 295 
 ZAR  HZ I        1511  0.37         4.2 0.26            122            202 295 
                                                                                
