 2017  5 4 1111 22.7 L   6.785 -73.075148.3  RSN  5 0.3 1.2LRSN                1
 GAP=244        0.72       4.7     5.3  6.1  0.5243E+01 -0.2665E+01  0.2434E+01E
 Epicentro: LOS SANTOS - SANTANDER                                             3
 ACTION:UPD 17-06-16 13:32 OP:jn   STATUS:               ID:20170504111122 L   I
 OLDACT:UP  17-05-04 18:47 OP:and  STATUS:               ID:20170504110743d    3
 OLDACT:UP  17-05-04 18:47 OP:and  STATUS:               ID:20170504110743d    3
 OLDACT:UP  17-05-04 18:46 OP:and  STATUS:               ID:20170504110743d    3
 OLDACT:UP  17-05-04 18:46 OP:and  STATUS:               ID:20170504110743d    3
 OLDACT:DUP 17-05-04 18:44 OP:and  STATUS:               ID:20170504110743d    3
 OLDACT:UP  17-05-04 18:44 OP:and  STATUS:               ID:20170504110742     3
 OLDACT:UP  17-05-04 18:44 OP:and  STATUS:               ID:20170504110742     3
 OLDACT:UP  17-05-04 18:42 OP:and  STATUS:               ID:20170504110742     3
 OLDACT:UP  17-05-04 18:42 OP:and  STATUS:               ID:20170504110742     3
 OLDACT:UP  17-05-04 18:42 OP:and  STATUS:               ID:20170504110742     3
 OLDACT:UP  17-05-04 18:41 OP:and  STATUS:               ID:20170504110742     3
 OLDACT:UP  17-05-04 18:41 OP:and  STATUS:               ID:20170504110742     3
 OLDACT:UP  17-05-04 18:41 OP:and  STATUS:               ID:20170504110742     3
 OLDACT:UP  17-05-04 18:40 OP:and  STATUS:               ID:20170504110742     3
 OLDACT:UP  17-05-04 18:40 OP:and  STATUS:               ID:20170504110742     3
 OLDACT:UP  17-05-04 18:40 OP:and  STATUS:               ID:20170504110742     3
 OLDACT:REG 17-05-04 17:37 OP:and  STATUS:               ID:20170504110742     3
 2017-05-04-1108-00M.COL___371                                                 6
 STAT SP IPHASW D HRMM SECON CODA AMPLIT PERI AZIMU VELO AIN AR TRES W  DIS CAZ7
 BRR  HZ EP       1111 44.45                             150   -0.1610 78.9 297 
 BRR  HE ES       1112  1.67                             150    0.0010 78.9 297 
 RUS  HZ EP       1111 46.66                             144    0.0510 98.7 181 
 RUS  HN ES       1112  5.19                             144   -0.0410 98.7 181 
 RUS  HZ I        1112  7.33         1.4 0.34            144           98.7 181 
 PTB  HZ EP   9   1111 49.39                             131   -1.20 0  155 260 
 PTB  HN ES       1112 10.44                             132   -0.67 9  155 260 
 PTB  HZ I        1112 17.47         1.8 0.34            130            155 260 
 ZAR  HE ES   3   1112 23.99                             121    1.75 2  212 292 
 NOR  HZ EP       1111 59.29                             118    0.09 8  240 236 
 NOR  HN ES       1112 27.66                             118    0.01 8  240 236 
 NOR  HZ I        1112 29.61         2.1 0.18            118            240 236 
                                                                                
