 2017 12 4 1734 32.0 L   6.814 -73.176142.6  RSN  9 0.3 1.9LRSN                1
 GAP=108        0.72       2.1     2.8  4.3  0.7870E+00  0.2191E+01  0.5625E+00E
 Epicentro: ZAPATOCA - SANTANDER                                               3
 ACTION:UPD 18-01-04 13:17 OP:rebc STATUS:               ID:20171204173432 L   I
 OLDACT:DUP 17-12-04 23:33 OP:lv   STATUS:               ID:20171204172228d    3
 2017-12-04-1728-00M.COL___482                                                 6
 STAT SP IPHASW D HRMM SECON CODA AMPLIT PERI AZIMU VELO AIN AR TRES W  DIS CAZ7
 BAR2 EZ EP       1734 51.13                             170   -0.1110 24.5 182 
 BAR2 EZ ES       1735  6.11                             170   -0.1710 24.5 182 
 BAR2 EZ I        1735  7.35        17.7 0.24            170           24.5 182 
 PAM  EZ EP       1734 54.09                             150    0.1810 78.5  42 
 PAM  EN ES       1735 11.08                             150    0.0510 78.5  42 
 PAM  EE ES       1735 11.22                             150           78.5  42 
 PAM  EZ I        1735 13.29        24.6 0.50            153           78.5  42 
 RUS  HZ EP       1734 55.47                             143   -0.0710  102 174 
 RUS  HN ES       1735 14.49                             143    0.5610  102 174 
 RUS  HZ I        1735 14.96        10.6 0.32            144            102 174 
 PTB  HZ EP       1734 58.29                             132   -0.11 9  145 258 
 PTB  HN ES       1735 18.85                             132   -0.17 9  145 258 
 PTB  HZ I        1735 24.46         5.1 0.34            132            145 258 
 OCA  HZ EP       1734 59.81                             129   -0.04 9  158 354 
 OCA  HN ES       1735 21.38                             129   -0.23 9  158 354 
 OCA  HZ I        1735 26.31        31.9 0.40            130            158 354 
 YPLC HZ EP       1735  1.61                             125   -0.21 9  180 151 
 YPLC HE ES       1735 25.01                             125   -0.10 9  180 151 
 YPLC HZ I        1735 28.29        10.1 0.26            128            180 151 
 ZAR  HZ EP       1735  4.60                             122    0.78 9  200 292 
 ZAR  HE ES       1735 28.60                             122   -0.07 9  200 292 
 ZAR  HZ I        1735 34.74         6.2 0.34            123            200 292 
 CHI  HZ EP       1735  9.41                             116   -0.14 8  249 194 
 CHI  HN ES       1735 38.61                             116   -0.26 8  249 194 
 CHI  HZ I        1735 44.20         3.9 0.30            118            249 194 
 GUY2CHZ EP   9   1735 16.85                             112    1.64 0  299 234 
 GUY2CHN ES       1735 51.04                                    0.45 7  299 234 
 GUY2CHZ I        1735 57.08         3.2 0.32                           299 234 
                                                                                
