 2014 11 4 1343 14.3 L   6.766 -73.139145.5  RSN  8 0.4 1.9LRSN                1
 GAP=139        0.96       3.9     4.7  6.1 -0.4083E+01  0.2630E+01  0.6055E+01E
 Epicentro: LOS SANTOS - SANTANDER                                             3
 ACTION:UPD 14-12-19 15:39 OP:nd   STATUS:               ID:20141104134314 L   I
 OLDACT:UP  14-11-04 23:51 OP:cam  STATUS:               ID:20141104133745     3
 OLDACT:REG 14-11-04 22:51 OP:cam  STATUS:               ID:20141104133745     3
 2014-11-04-1337-45M.COL___277                                                 6
 STAT SP IPHASW D HRMM SECON CODA AMPLIT PERI AZIMU VELO AIN AR TRES W  DIS CAZ7
 BAR2 SZ EP     D 1343 33.81                             172    0.0110 19.8 194 
 BAR2 SZ ES       1343 48.56                             172   -0.4710 19.8 194 
 BAR2 SZ I        1343 50.44        16.1 0.38            166           19.8 194 
 BRR  HZ EP       1343 35.75                             152    0.2210 73.7 301 
 BRR  HN ES       1343 52.85                             152    0.7410 73.7 301 
 PAM  SZ EP       1343 36.58                             150   -0.0310 79.9  37 
 PAM  SE ES       1343 53.92                             150   -0.1110 79.9  37 
 PAM  SZ I        1343 54.41         7.2 0.22            143           79.9  37 
 RUS  HZ EP       1343 37.86                             145    0.1410 96.8 176 
 RUS  HN ES       1343 55.97                             145   -0.0510 96.8 176 
 RUS  HZ I        1343 57.43        11.5 0.22            139           96.8 176 
 PTB  HZ EP       1343 40.39                             132   -0.83 9  148 260 
 PTB  HN ES       1344  1.83                             132   -0.41 9  148 260 
 PTB  HN I        1344  7.11        17.1 0.40            120            148 260 
 SPBC HZ EP     C 1343 42.81                             129    0.29 9  161 220 
 SPBC HN ES       1344  4.83                             129    0.28 9  161 220 
 SPBC HZ I        1344 12.12        13.4 0.18            120            161 220 
 CHI  HZ EP       1343 51.73                             117    0.15 8  245 196 
 CHI  HN ES       1344 20.75                             117    0.07 8  245 196 
 CHI  HZ I        1344 28.81         2.7 0.34            110            245 196 
 URE  HZ EP   4   1343 58.08                             113    2.52 0  286 293 
 URE  HZ I        1344 29.47         7.1 0.54            105            286 293 
 GUY2CHZ EP   4   1343 59.98                             112    2.29 0  300 235 
                                                                                
