 2010  5 4 1502  4.0 L   6.813 -72.963145.4  RSN  8 0.5 2.0LRSN                1
 GAP=204        0.76       7.4    10.9  7.6 -0.5510E+02 -0.4238E+01  0.1890E+02E
 Epicentro: CEPITA - SANTANDER                                                 3
 ACTION:UP  10-08-24 10:02 OP:vdl  STATUS:               ID:20100504150204 L   I
 2010-05-04-1458-56S.COL___105                                                 6
 STAT SP IPHASW D HRMM SECON CODA AMPLIT PERI AZIMU VELO SNR AR TRES W  DIS CAZ7
 BAR2 SZ EP   1   15 2 23.87                             166     0.0 7   35 225 
 BAR2 SZ ES   2   15 2 39.21                             166    -0.1 5   35 225 
 GIR2 SZ EP   1   15 2 23.81                             164     0.0 7   39 319 
 GIR2 SZ ES   2   15 2 39.70                             164     0.4 5   39 319 
 BRR  HZ EP   1   15 2 26.29                             147     0.1 7   89 292 
 BRR  HN ES   2   15 2 43.28                             147    -0.2 5   89 292 
 BRR  HZ I        15 2 45.59        16.4 0.29                            89 292 
 GUE  SZ EP   1   15 2 29.15                             140     0.8 7  113   2 
 GUE  SZ ES   2   15 2 47.33                             140     0.0 5  113   2 
 GRA  SZ EP   1   15 2 28.42                             138    -0.3 7  120   8 
 GRA  SZ ES   2   15 2 47.13                             138    -0.9 5  120   8 
 HEL  HZ EP   1   15 2 45.75                             113    -0.6 5  292 257 
 RREF BZ EP   1   15 2 52.41                             110     0.4 5  338 231 
 RREF BN ES   2   15 3 30.43                             110     1.0 3  338 231 
 RREF BZ I        15 3 34.58         3.4 0.26                           338 231 
 PRA  HZ EP   1   15 2 58.22                             106    -0.6 4  404 212 
 PRA  HE ES   2   15 3 41.16                             106    -0.5 3  404 212 
                                                                                
