 2017  8 4 1517 51.4 L   6.924 -73.114142.1  RSN  6 0.4 1.5LRSN                1
 GAP=250        0.91       5.5     5.1  7.5  0.8001E+01  0.8473E+01 -0.8526E+01E
 Epicentro: PIEDECUESTA - SANTANDER                                            3
 ACTION:UPD 17-09-04 20:16 OP:rebc STATUS:               ID:20170804151751 L   I
 OLDACT:REG 17-08-04 21:17 OP:y    STATUS:               ID:20170804150746     3
 2017-08-04-1508-00M.COL___372                                                 6
 STAT SP IPHASW D HRMM SECON CODA AMPLIT PERI AZIMU VELO AIN AR TRES W  DIS CAZ7
 BAR2 EZ EP       1518 11.26                             165    0.2910 37.4 192 
 BAR2 EZ ES       1518 26.35                             165    0.1210 37.4 192 
 BAR2 EZ I        1518 28.07         9.3 0.18            166           37.4 192 
 RUS  HZ EP       1518 16.22                             139    0.3910  114 178 
 RUS  HN ES       1518 34.41                             139   -0.4710  114 178 
 RUS  HZ I        1518 35.60         6.3 0.30            142            114 178 
 PTB  HZ EP       1518 18.56                             130   -0.13 9  154 254 
 PTB  HN ES       1518 39.68                             130   -0.29 9  154 254 
 PTB  HZ I        1518 41.51         2.6 0.16            131            154 254 
 SPBC HZ EP       1518 20.92                             126    0.04 9  176 217 
 SPBC HE ES       1518 43.77                             126   -0.10 9  176 217 
 SPBC HZ I        1518 45.25         5.5 0.10            128            176 217 
 ZAR  HZ EP       1518 22.71                             122   -0.75 9  203 288 
 ZAR  HN ES       1518 48.90                             122    0.43 9  203 288 
 ZAR  HZ I        1518 51.88         2.4 0.12            123            203 288 
 NOR  HE ES       1518 57.20                             116    0.46 8  246 232 
                                                                                
