 2012 12 4 1318 57.4 L   5.930 -73.723106.7  RSN  4 0.2 1.2LRSN                1
 GAP=216        0.66       9.6     5.4  8.2  0.4331E+02 -0.2036E+00 -0.1748E+02E
 Epicentro: GUAVATA - SANTANDER                                                3
 ACTION:UPD 13-01-04 14:25 OP:ep   STATUS:               ID:20121204131857 L   I
 2012-12-04-1316-50M.COL___192                                                 6
 STAT SP IPHASW D HRMM SECON CODA AMPLIT PERI AZIMU VELO AIN AR TRES W  DIS CAZ7
 RUS  HZ EP       1319 14.95                             144   -0.2310 70.9  93 
 RUS  HN ES       1319 29.27                             144    0.2310 70.9  93 
 RUS  HN I        1319 30.26         3.0 0.26                          70.9  93 
 BAR2 SZ EP       1319 16.51                             135   -0.1810 94.5  39 
 PTB  HZ EP       1319 17.67                             132    0.3110  106 310 
 PTB  HN ES       1319 32.65                             132   -0.2710  106 310 
 PTB  HN I        1319 36.54         5.0 0.54                           106 310 
 ZAR  HE ES       1319 53.36                             111    0.20 8  214 324 
                                                                                
