 2012 10 4 1111 26.2 L   6.792 -73.123140.4  RSN  5 0.2 1.7LRSN                1
 GAP=140        0.51       3.3     4.8  4.4 -0.4354E+00 -0.1354E+01  0.4954E+00E
 Epicentro: LOS SANTOS - SANTANDER                                             3
 ACTION:UPD 12-11-22 17:01 OP:ep   STATUS:               ID:20121004111126 L   I
 2012-10-04-1110-00M.COL___220                                                 6
 STAT SP IPHASW D HRMM SECON CODA AMPLIT PERI AZIMU VELO AIN AR TRES W  DIS CAZ7
 BAR2 SZ EP       1111 45.11                             170   -0.0710 23.0 197 
 BAR2 SZ ES   1   1112  0.31                             170    0.33 7 23.0 197 
 BAR2 SZ I        1112  1.43         7.4 0.18                          23.0 197 
 GIR2 SZ EP       1111 45.16                             166   -0.1110 32.7 346 
 GIR2 SZ ES   1   1111 59.81                             166   -0.34 7 32.7 346 
 BRR  HZ EP       1111 46.79                             151   -0.1410 73.8 298 
 BRR  HN ES   1   1112  3.33                             151    0.24 7 73.8 298 
 BRR  HN I        1112  4.22        33.0 0.20                          73.8 298 
 PAM  SZ EP       1111 47.95                             150    0.1610 76.6  38 
 PAM  SZ I        1111 48.16         5.9 0.20                          76.6  38 
 PAM  SN ES   1   1112  4.68                             150    0.04 7 76.6  38 
 RUS  HZ EP   1   1111 49.62                             143    0.27 7 99.5 177 
 RUS  HN ES   1   1112  7.14                             143   -0.26 7 99.5 177 
                                                                                
