 2012  9 4 1939 53.8 L   6.790 -73.175143.7  RSN  5 0.2 1.7LRSN                1
 GAP=133        0.44       3.2     3.0  5.5 -0.2292E+01  0.4032E+01  0.1520E-01E
 Epicentro: LOS SANTOS - SANTANDER                                             3
 ACTION:UPD 12-10-22 14:17 OP:ep   STATUS:               ID:20120904193953 L   I
 2012-09-04-1940-00M.COL___218                                                 6
 STAT SP IPHASW D HRMM SECON CODA AMPLIT PERI AZIMU VELO AIN AR TRES W  DIS CAZ7
 BRR  HN ES   3   1940 31.23                             153    0.46 2 68.9 301 
 PAM  SZ EP       1940 15.94                             149    0.0110 80.3  41 
 PAM  SZ I        1940 16.14        13.5 0.20                          80.3  41 
 PAM  SN ES   1   1940 33.14                             149   -0.08 7 80.3  41 
 RUS  HZ EP       1940 17.06                             143   -0.1910 99.8 174 
 RUS  HN ES   1   1940 35.71                             143    0.14 7 99.8 174 
 RUS  HZ I        1940 37.02         5.3 0.24                          99.8 174 
 PTB  HZ EP       1940 20.52                             132    0.27 9  144 259 
 PTB  HN ES   1   1940 40.72                             132   -0.19 7  144 259 
 ZAR  HE ES   3   1940 50.35                             122   -0.45 2  201 293 
                                                                                
