 2015  8 4 1836 37.5 L   6.815 -73.153144.2  RSN 11 0.4 2.1LRSN                1
 GAP=135        0.98       3.0     4.4  7.2 -0.5828E-01  0.1739E+02 -0.2448E+01E
 Epicentro: LOS SANTOS - SANTANDER                                             3
 ACTION:UPD 15-09-15 23:00 OP:cam  STATUS:               ID:20150804183637 L   I
 OLDACT:REG 15-08-04 20:50 OP:drio STATUS:               ID:20150804182749     3
 2015-08-04-1827-49M.COL___358                                                 6
 STAT SP IPHASW D HRMM SECON CODA AMPLIT PERI AZIMU VELO AIN AR TRES W  DIS CAZ7
 BAR2 EZ EP       1836 56.92                             170   -0.1010 24.8 187 
 BAR2 EZ ES       1837 12.32                             170    0.1110 24.8 187 
 BAR2 EZ I        1837 13.17        19.9 0.40            169           24.8 187 
 PAM  EZ EP       1836 59.62                             151    0.0710 76.6  41 
 PAM  EN ES       1837 16.61                             151   -0.1010 76.6  41 
 PAM  EZ I        1837 18.73        23.9 0.62            153           76.6  41 
 RUS  HZ EP       1837  1.08                             143   -0.1810  102 176 
 RUS  HE ES       1837 19.54                             143   -0.2310  102 176 
 RUS  HZ I        1837 21.43        13.0 0.28            146            102 176 
 ZAR  HZ EP       1837 10.68                             122    0.94 9  203 292 
 ZAR  HN ES       1837 35.12                             122    0.26 9  203 292 
 ZAR  HZ I        1837 39.05        15.4 0.34            121            203 292 
 NOR  HZ EP       1837 13.25                             118    0.04 8  235 234 
 NOR  HN ES       1837 40.69                             118   -0.35 8  235 234 
 NOR  HZ I        1837 44.00         8.1 0.20            118            235 234 
 SML  HZ EP       1837 13.01                             117   -0.87 8  242 335 
 SML  HE ES       1837 42.81                             117    0.59 8  242 335 
 SML  HZ I        1837 50.50        13.6 0.26            117            242 335 
 CHI  HZ EP   4   1837 10.94                             117   -4.36 0  250 195 
 CHI  HN ES       1837 45.38                             117    0.62 8  250 195 
 URE  HZ EP   4   1837 20.93                             113    2.55 0  282 292 
 URE  HN ES       1837 49.58                             113   -0.66 7  282 292 
 URE  HZ I        1838  1.35         7.9 0.18            113            282 292 
 GUY2CHZ EP   4   1837 23.35                             112    2.24 0  301 234 
 GUY2CHN ES       1837 55.01                             112   -0.08 7  301 234 
 GUY2CHZ I        1838  3.46         6.1 0.48                           301 234 
 TOL  SE ES   4   1838  4.61                             109    1.16 0  344 224 
 TOL  SZ I        1838 13.85         4.0 0.34            110            344 224 
 MON  HN ES       1838  4.19                             108   -0.12 6  352 308 
 MON  HZ I        1838 11.47         2.5 0.44            109            352 308 
                                                                                
