 2012 12 4 1657 47.0 L   6.753 -73.183139.5  RSN  4 0.3 1.4LRSN                1
 GAP=139        0.89       5.3     5.2  9.8 -0.8217E+01  0.1472E+02 -0.3571E+01E
 Epicentro: VILLANUEVA - SANTANDER                                             3
 ACTION:UPD 13-01-04 14:25 OP:ep   STATUS:               ID:20121204165747 L   I
 2012-12-04-1650-00M.COL___232                                                 6
 STAT SP IPHASW D HRMM SECON CODA AMPLIT PERI AZIMU VELO AIN AR TRES W  DIS CAZ7
 BAR2 SZ EP       1658  6.17                             172    0.4010 17.7 180 
 BAR2 SZ I        1658 22.81         6.7 0.20                          17.7 180 
 PAM  SZ EP       1658  8.40                             147   -0.5710 84.1  39 
 PAM  SE ES       1658 26.33                             147    0.2110 84.1  39 
 PAM  SN I        1658 27.89         3.0 0.48                          84.1  39 
 RUS  HZ EP       1658 10.15                             144    0.3710 95.7 173 
 RUS  HE ES       1658 27.23                             144   -0.3210 95.7 173 
 RUS  HE I        1658 29.42         3.7 0.22                          95.7 173 
 PTB  HZ EP       1658 12.92                             132   -0.08 9  143 261 
 PTB  HN ES       1658 33.25                             132   -0.03 9  143 261 
 PTB  HN I        1658 35.72         3.8 0.52                           143 261 
                                                                                
