 2015  2 4 1307 51.3 L   6.831 -73.165142.5  RSN  4 0.3 1.9LRSN                1
 GAP=209        0.67       3.3     5.3  6.0 -0.3127E+01  0.7966E+01 -0.7252E+01E
 Epicentro: LOS SANTOS - SANTANDER                                             3
 ACTION:UPD 15-04-30 21:21 OP:nd   STATUS:               ID:20150204130751 L   I
 OLDACT:REG 15-02-05 00:30 OP:cam  STATUS:               ID:20150204130745     3
 2015-02-04-1307-45M.COL___273                                                 6
 STAT SP IPHASW D HRMM SECON CODA AMPLIT PERI AZIMU VELO AIN AR TRES W  DIS CAZ7
 BAR2 EZ EP       13 8 10.65                             169    0.0110 26.4 184 
 BAR2 EZ ES       13 8 25.67                             169   -0.0310 26.4 184 
 BAR2 EZ I        13 8 27.37        13.9 0.16            170           26.4 184 
 PTB  HZ EP       13 8 17.72                             131   -0.19 9  146 257 
 PTB  HN ES       13 8 38.69                             131    0.05 9  146 257 
 PTB  HN I        13 8 42.94        14.8 0.24            131            146 257 
 SPBC HZ EP       13 8 20.23                             128    0.52 9  165 218 
 SPBC HN ES       13 8 41.61                             128   -0.24 9  165 218 
 SPBC HZ I        13 8 44.64         7.0 0.30            130            165 218 
 SML  HZ EP       13 8 26.91                             117   -0.43 8  240 335 
 SML  HE ES       13 8 55.70                             117    0.27 8  240 335 
 SML  HZ I        13 9  0.72         9.2 0.10            118            240 335 
                                                                                
