 2013  8 4 1138 48.9 L   6.715 -73.149155.3  RSN  5 0.3 1.9LRSN                1
 GAP=202        0.67       6.4     5.1  4.7 -0.6040E+01  0.4372E+01 -0.3482E+01E
 Epicentro: VILLANUEVA - SANTANDER                                             3
 ACTION:UPD 14-01-14 08:59 OP:ep   STATUS:               ID:20130804113848 L   I
 OLDACT:UP  13-08-04 16:28 OP:cam  STATUS:               ID:20130804112959     3
 OLDACT:REG 13-08-04 14:49 OP:cam  STATUS:               ID:20130804112959     3
 2013-08-04-1129-59M.COL___270                                                 6
 STAT SP IPHASW D HRMM SECON CODA AMPLIT PERI AZIMU VELO AIN AR TRES W  DIS CAZ7
 BAR2 SZ EP       1139  9.76                             175    0.2010 14.0 195 
 BAR2 SZ ES       1139 25.31                             175   -0.3410 14.0 195 
 BAR2 SZ I        1139 26.77        13.2 0.17            172           14.0 195 
 GIR2 SZ EP   1   1139  9.80                             165   -0.20 7 40.6 353 
 GIR2 SZ ES       1139 26.57                             165    0.1310 40.6 353 
 BRR  HZ EP       1139 11.63                             153    0.2610 75.8 305 
 BRR  HN ES       1139 29.04                             153    0.1710 75.8 305 
 BRR  HZ I        1139 33.56        13.6 0.34            149           75.8 305 
 PTB  HZ EP       1139 16.73                             134    0.21 9  146 262 
 PTB  HN ES       1139 37.81                             134   -0.23 9  146 262 
 PTB  HZ I        1139 42.22         9.1 0.26            133            146 262 
 SML  HZ EP       1139 26.53                             118   -0.48 8  252 336 
                                                                                
