 2012 10 4 1313 21.8 L   6.801 -73.033145.9  RSN  4 0.2 1.1LRSN                1
 GAP=213        0.46       5.9    17.1  5.0  0.7348E+02  0.2060E+02  0.4336E+01E
 Epicentro: CEPITA - SANTANDER                                                 3
 XNEAR  100.0 XFAR  800.0 SDEP 100.0                                           3
 ACTION:UP  12-11-22 17:01 OP:ep   STATUS:               ID:20121004131321 L   I
 2012-10-04-1310-00M.COL___220                                                 6
 STAT SP IPHASW D HRMM SECON CODA AMPLIT PERI AZIMU VELO AIN AR TRES W  DIS CAZ7
 BAR2 SZ EP       1313 41.75                             169    0.1610 28.3 216 
 BAR2 SZ ES   1   1313 57.28                             169    0.28 7 28.3 216 
 GIR2 SZ ES   1   1313 56.86                             166   -0.24 7 35.5 330 
 BRR  HZ EP       1313 43.63                             149   -0.0310 82.3 294 
 RUS  HZ EP   1   1313 45.52                             144   -0.08 7  101 183 
 RUS  HE ES   1   1314  3.95                             144   -0.18 7  101 183 
 RUS  HN I        1314  5.45         2.3 0.22                           101 183 
                                                                                
