 2017 12 4 1215 43.1 L   6.812 -73.166145.1  RSN  4 0.3 1.5LRSN                1
 GAP=243        0.69       6.8     5.2  6.2  0.2317E+02  0.1094E+01 -0.1364E+02E
 Epicentro: LOS SANTOS - SANTANDER                                             3
 ACTION:UPD 18-01-04 13:17 OP:rebc STATUS:               ID:20171204121543 L   I
 OLDACT:REG 17-12-04 21:19 OP:lv   STATUS:               ID:20171204120739     3
 2017-12-04-1208-00M.COL___470                                                 6
 STAT SP IPHASW D HRMM SECON CODA AMPLIT PERI AZIMU VELO AIN AR TRES W  DIS CAZ7
 BAR2 EZ EP       1216  2.98                             170    0.3110 24.4 184 
 BAR2 EZ ES       1216 17.64                             170   -0.3010 24.4 184 
 BAR2 EZ I        1216 20.03        11.1 0.76            173           24.4 184 
 RUS  HZ EP       1216  6.86                             143   -0.0410  102 175 
 RUS  HN ES       1216 25.64                             143    0.1810  102 175 
 RUS  HZ I        1216 26.85         3.4 0.34            148            102 175 
 PTB  HZ EP       1216  9.80                             132   -0.04 9  146 258 
 PTB  HN ES       1216 30.54                             132   -0.16 9  146 258 
 PTB  HZ I        1216 32.76         2.4 0.18            134            146 258 
 ZAR  HZ EP       1216 14.83                             123   -0.41 9  201 292 
 ZAR  HE ES       1216 40.74                             123    0.44 9  201 292 
 ZAR  HZ I        1216 46.48         3.2 0.46            124            201 292 
                                                                                
