 2017 11 4 1017 38.3 L   5.981 -73.845106.9  RSN  5 0.1 1.0LRSN                1
 GAP=119        0.31       4.3     2.4  6.2 -0.6718E+01  0.3527E+01 -0.8379E+01E
 Epicentro: BOLIVAR - SANTANDER                                                3
 ACTION:UPD 17-12-12 19:51 OP:rebc STATUS:               ID:20171104101738 L   I
 OLDACT:UP  17-11-04 21:34 OP:mg   STATUS:               ID:20171104100745d    3
 OLDACT:DUP 17-11-04 21:29 OP:mg   STATUS:               ID:20171104100745d    3
 2017-11-04-1008-00M.COL___423                                                 6
 STAT SP IPHASW D HRMM SECON CODA AMPLIT PERI AZIMU VELO AIN AR TRES W  DIS CAZ7
 SPBC HZ EP   2   1017 53.84                             156   -0.07 5 44.2 215 
 SPBC HN ES   3 C 1018  5.72                             156   -0.34 2 44.2 215 
 SPBC HZ I        1018  7.19         2.2 0.07            157           44.2 215 
 RUS  HZ EP   1   1017 57.32                             139    0.14 7 84.9  97 
 RUS  HN ES   2   1018 11.72                             139   -0.16 5 84.9  97 
 RUS  HZ I        1018 13.15         1.4 0.26            143           84.9  97 
 BAR2 EZ EP   2   1017 58.01                             134   -0.07 5 99.7  47 
 BAR2 EZ ES   2   1018 13.64                             134    0.15 5 99.7  47 
 BAR2 EZ I        1018 14.33         2.4 0.16            137           99.7  47 
 NOR  HZ EP   2   1017 59.78                             127   -0.17 5  122 248 
 NOR  HN ES   1   1018 16.92                             127    0.11 7  122 248 
 NOR  HZ I        1018 18.95         3.2 0.16            130            122 248 
 BRR  HZ EP   2   1018  0.04                             126   -0.13 5  125   7 
                                                                                
