 2017 12 4 1915  6.7 L   6.332 -73.629101.4  RSN  4 0.0 1.0LRSN                1
 GAP=155        0.35       3.1     2.8  3.5  0.6449E+01  0.3653E+01  0.2241E+01E
 Epicentro: SANTA HELENA DEL OPON - SANTANDER                                  3
 ACTION:UPD 18-01-04 13:17 OP:rebc STATUS:               ID:20171204191506 L   I
 OLDACT:UP  17-12-05 00:25 OP:lv   STATUS:               ID:20171204185540     3
 OLDACT:REG 17-12-04 21:43 OP:lv   STATUS:               ID:20171204185540     3
 2017-12-04-1908-00M.COL___491                                                 6
 STAT SP IPHASW D HRMM SECON CODA AMPLIT PERI AZIMU VELO AIN AR TRES W  DIS CAZ7
 BAR2 EZ ES       1915 35.07                             148   -0.0110 57.2  60 
 RUS  HZ EP       1915 24.43                             140   -0.0310 77.5 129 
 RUS  HN ES       1915 38.33                             140    0.0210 77.5 129 
 RUS  HZ I        1915 41.89         1.9 0.48            139           77.5 129 
 PTB  HZ EP   9   1915 23.54                             133   -1.67 0 94.3 284 
 PTB  HN ES       1915 37.84                             133   -0.1410 94.3 284 
 PTB  HZ I        1915 40.12         1.8 0.26            135           94.3 284 
 PTB  HN I        1915 40.22         4.4 0.40                          94.3 284 
 ZAR  HE ES       1915 56.67                             113    0.02 9  187 313 
                                                                                
