 2013  2 4 1542 57.3 L   6.762 -73.142144.7  RSN  5 0.2 1.5LRSN                1
 GAP=139        0.54       3.6     3.5  4.9 -0.1690E+01  0.1359E+01 -0.6617E+00E
 Epicentro: LOS SANTOS - SANTANDER                                             3
 ACTION:UPD 13-03-12 09:30 OP:ep   STATUS:               ID:20130204154257 L   I
 2013-02-04-1540-00M.COL___240                                                 6
 STAT SP IPHASW D HRMM SECON CODA AMPLIT PERI AZIMU VELO AIN AR TRES W  DIS CAZ7
 BAR2 SZ EP       1543 16.72                             172    0.0210 19.3 193 
 BAR2 SZ ES   1   1543 31.72                             172   -0.14 7 19.3 193 
 BAR2 SZ I        1543 33.11         8.9 0.24            171           19.3 193 
 BRR  HZ EP       1543 18.67                             151    0.2210 73.6 301 
 BRR  HE ES   1   1543 35.40                             151    0.43 7 73.6 301 
 BRR  HE I        1543 36.07        11.3 0.21            153           73.6 301 
 PAM  SZ EP       1543 19.57                             150    0.0110 80.4  37 
 PAM  SE ES   1   1543 36.62                             150   -0.33 7 80.4  37 
 PAM  SE I        1543 38.34         4.4 0.36            153           80.4  37 
 RUS  HZ EP   1   1543 20.66                             145    0.04 7 96.4 176 
 RUS  HE ES   1   1543 38.97                             145    0.14 7 96.4 176 
 RUS  HE I        1543 41.52         6.2 0.19            145           96.4 176 
 PTB  HZ EP   1   1543 23.81                             132   -0.32 7  147 260 
 PTB  HE ES   1   1543 44.73                             132   -0.34 7  147 260 
 PTB  HZ I        1543 47.18         3.1 0.11            133            147 260 
                                                                                
