 2013  5 4 1421 15.5 L   6.807 -73.161144.6  RSN 17 0.4 2.8LRSN 3.2WRSN        1
 SPEC AVERAGE  MO 13.9 ST  7.0 OM  2.4 f0 3.56 R0.4693 AL 2.47 WI 26.7 MW  3.2 3
 SPEC SD       MO  0.3 ST  8.3 OM  0.3 f0 1.01 R0.1221 AL      WI      MW  0.2 3
 GAP= 70        0.89       2.9     3.1  5.1 -0.5665E+00  0.2262E+01  0.1821E+01E
 Epicentro: LOS SANTOS - SANTANDER                                             3
 SPEC URE HH N MO 14.2 ST 10.4 OM  2.3 f0 3.84 R0.4047 AL 2.25 WI 38.9 MW  3.4 3
 SPEC URE HH N T142222 K 0.000 GD  316 VS 4.20 DE 3.20 Q0300.0 QA 0.60 VS 4.20 3
 SPEC ROSCBH Z MO 14.1 ST  3.1 OM  2.2 f0 2.84 R0.5472 AL 3.41 WI 25.2 MW  3.3 3
 SPEC ROSCBH Z T142222 K 0.000 GD  291 VS 4.20 DE 3.20 Q0300.0 QA 0.60 VS 4.20 3
 SPEC PTB HH N MO 14.0 ST  5.2 OM  2.3 f0 3.53 R0.4402 AL 1.63 WI 19.6 MW  3.3 3
 SPEC PTB HH N T1422 0 K 0.000 GD  205 VS 4.20 DE 3.20 Q0300.0 QA 0.60 VS 4.20 3
 SPEC RUS HH N MO 13.7 ST  1.2 OM  2.1 f0 2.62 R0.5931 AL 2.11 WI 10.8 MW  3.1 3
 SPEC RUS HH N T142155 K 0.000 GD  176 VS 4.20 DE 3.20 Q0300.0 QA 0.60 VS 4.20 3
 SPEC PRA HH N MO 14.1 ST  4.9 OM  2.1 f0 3.17 R0.4902 AL 2.44 WI 37.6 MW  3.4 3
 SPEC PRA HH N T142248 K 0.000 GD  417 VS 4.20 DE 3.20 Q0300.0 QA 0.60 VS 4.20 3
 SPEC HEL HH N MO 13.8 ST0.767 OM  1.9 f0 2.21 R0.7032 AL 1.72 WI 33.4 MW  3.1 3
 SPEC HEL HH N T142222 K 0.000 GD  307 VS 4.20 DE 3.20 Q0300.0 QA 0.60 VS 4.20 3
 SPEC NOR HH E MO 14.1 ST 30.7 OM  2.3 f0 5.77 R0.2693 AL 4.76 WI 18.2 MW  3.4 3
 SPEC NOR HH E T142217 K 0.000 GD  275 VS 4.20 DE 3.20 Q0300.0 QA 0.60 VS 4.20 3
 SPEC OCA HH N MO 14.3 ST  6.9 OM  2.6 f0 3.02 R0.5146 AL 1.56 WI 29.6 MW  3.5 3
 SPEC OCA HH N T1422 2 K 0.000 GD  214 VS 4.20 DE 3.20 Q0300.0 QA 0.60 VS 4.20 3
 SPEC PAM SH N MO 13.5 ST  2.1 OM  1.9 f0 3.80 R0.4089 AL 3.16 WI 29.4 MW  3.0 3
 SPEC PAM SH N T142152 K 0.000 GD  164 VS 4.20 DE 3.20 Q0300.0 QA 0.60 VS 4.20 3
 SPEC BRR HH Z MO 13.6 ST  5.3 OM  2.0 f0 4.83 R0.3217 AL 1.70 WI 24.0 MW  3.0 3
 SPEC BRR HH Z T142150 K 0.000 GD  160 VS 4.20 DE 3.20 Q0300.0 QA 0.60 VS 4.20 3
 ACTION:UPD 13-06-20 09:47 OP:ep   STATUS:               ID:20130504142115 L   I
 2013-05-04-1420-00M.COL___253                                                 6
 STAT SP IPHASW D HRMM SECON CODA AMPLIT PERI AZIMU VELO AIN AR TRES W  DIS CAZ7
 BAR2 SZ IP     D 1421 35.11                             170    0.1310 23.9 186 
 BAR2 SZ ES   1   1421 50.06                             170   -0.13 7 23.9 186 
 BAR2 SZ I        1421 52.01        75.0 0.28            171           23.9 186 
 GIR2 SZ EP     C 1421 35.12                             168    0.1310 30.2 353 
 GIR2 SZ ES   1   1421 49.96                             168   -0.24 7 30.2 353 
 GIR2 SZ I        1421 51.96       113.3 0.44            164           30.2 353 
 BRR  HZ IP     C 1421 36.90                             153    0.5010 69.4 299 
 BRR  HN ES   1   1421 53.71                             153    0.99 7 69.4 299 
 BRR  HN I        1421 54.12       480.5 0.32            149           69.4 299 
 PAM  SZ EP     D 1421 38.09                             150    0.4910 77.8  41 
 PAM  SN ES   1   1421 54.66                             150   -0.19 7 77.8  41 
 RUS  HZ EP     C 1421 39.16                             143   -0.0310  102 175 
 RUS  HN ES   1   1421 57.52                             143   -0.16 7  102 175 
 RUS  HZ I        1421 59.59        58.4 0.26            144            102 175 
 PTB  HZ EP       1421 41.53                             132   -0.69 9  146 258 
 PTB  HN ES   1   1422  2.40                             132   -0.68 7  146 258 
 PTB  HZ I        1422  4.15       101.3 0.34            130            146 258 
 TAM  HZ IP     D 1421 43.59                             130    0.35 9  157 105 
 TAM  HN ES   1   1422  4.40                             130   -0.48 7  157 105 
 TAM  HN I        1422  5.67        52.4 0.32            131            157 105 
 OCA  HZ EP   1   1421 43.18                             130   -0.43 7  159 354 
 OCA  HN ES       1422  4.96                             130   -0.59 9  159 354 
 OCA  HZ I        1422 10.59        70.7 0.24            127            159 354 
 ZAR  HN ES   1   1422 12.85                             122    0.09 6  202 292 
 NOR  HZ EP     D 1421 51.06                             118    0.01 8  234 234 
 NOR  HN ES       1422 19.01                             118    0.22 8  234 234 
 NOR  HZ I        1422 22.37        38.8 0.36            117            234 234 
 SML  HZ EP   1   1421 51.85                             117   -0.04 6  242 336 
 SML  HN ES   1   1422 20.79                             117    0.50 6  242 336 
 SML  HZ I        1422 27.20        86.1 0.30            116            242 336 
 ROSC BZ EP   4   1421 55.05                             116    1.53 0  253 211 
 ROSC BN ES   4   1422 25.42                             116    2.23 0  253 211 
 HEL  HZ EP   4   1421 57.00                             115    1.52 0  271 256 
 HEL  HN ES   1   1422 26.68                             115    0.00 6  271 256 
 HEL  HN I        1422 34.61        48.0 0.32            113            271 256 
 URE  HZ EP   4   1421 55.04                             113   -1.25 0  282 292 
 URE  HN ES   4   1422 25.19                             113   -2.93 0  282 292 
 URE  HN I        1422 36.03       145.0 0.26            112            282 292 
 VIL  SZ EP   1   1421 59.00                             112    0.10 5  304 191 
 COD  HZ EP   1   1422  2.96                             109   -0.74 5  347 355 
 COD  HN ES   4   1422 39.77                             109   -1.54 0  347 355 
 COD  HZ I        1422 50.12        10.8 0.78            108            347 355 
 PRA  HZ EP   1   1422  9.20                             106    0.25 4  392 209 
 PRA  HN ES   2   1422 49.98                             106   -0.67 3  392 209 
 PRA  HZ I        1422 57.49        37.3 0.26            106            392 209 
 SJC  HZ EP   4   1422  8.85                             106   -1.97 0  408 327 
 SJC  HN ES   4   1422 49.89                             106   -4.09 0  408 327 
 SJC  HZ I        1422 56.19         9.3 0.26            105            408 327 
                                                                                
