 2014  7 4 1045 32.6 L   6.864 -73.188129.7  RSN 13 0.5 1.8LRSN                1
 GAP=133        1.08       3.2     4.4  7.2 -0.5663E+01  0.1209E+02  0.1356E+01E
 Epicentro: ZAPATOCA - SANTANDER                                               3
 ACTION:UPD 15-03-16 20:41 OP:nd   STATUS:               ID:20140704104532 L   I
 OLDACT:REG 14-07-04 17:18 OP:spq  STATUS:               ID:20140704103816     3
 2014-07-04-1038-16M.COL___247                                                 6
 STAT SP IPHASW D HRMM SECON CODA AMPLIT PERI AZIMU VELO AIN AR TRES W  DIS CAZ7
 BAR2 SZ EP       1045 50.75                             166    0.3010 30.0 179 
 BAR2 SZ ES   1   1046  3.62                             166   -0.77 7 30.0 179 
 BAR2 SZ I        1046  6.82         8.2 0.24            166           30.0 179 
 PAM  SZ IP     D 1045 53.66                             148    0.6910 75.3  46 
 PAM  SN ES       1046  8.89                             148    0.0010 75.3  46 
 PAM  SZ I        1046 12.34        18.8 0.34            156           75.3  46 
 PTB  HZ IP     C 1045 57.67                             129   -0.32 9  145 256 
 PTB  HN ES       1046 17.57                             129   -0.25 9  145 256 
 PTB  HZ I        1046 23.40         7.2 0.16            129            145 256 
 OCA  HZ EP       1045 59.11                             127    0.16 9  153 355 
 OCA  HN ES       1046 19.94                             127    0.42 9  153 355 
 OCA  HZ I        1046 25.55         8.1 0.18            131            153 355 
 SPBC HZ EP       1045 59.42                             125   -0.75 9  166 216 
 SPBC HN ES       1046 21.75                             125    0.06 9  166 216 
 SPBC HZ I        1046 27.97         7.3 0.22            127            166 216 
 ZAR  HN ES       1046 27.40                             120    0.16 9  197 291 
 ZAR  HZ I        1046 34.39        11.5 0.30            121            197 291 
 SML  HZ EP       1046  6.71                             115   -0.71 8  235 336 
 SML  HN ES       1046 34.16                             115   -0.44 8  235 336 
 SML  HZ I        1046 38.14         5.8 0.11            118            235 336 
 HEL  HZ EP       1046 10.96                             112   -0.75 8  269 254 
 HEL  HN ES       1046 42.97                             112    0.73 8  269 254 
 HEL  HZ I        1047  0.08         3.2 0.36            114            269 254 
 GUY2CHZ EP       1046 16.11                             109    0.58 7  302 233 
 GUY2CHN ES       1046 49.76                             109    0.72 7  302 233 
 GUY2CHZ I        1046 58.77         2.4 0.27                           302 233 
 RREF HE ES       1046 54.07                             108    0.27 7  323 228 
 RREF HZ I        1047  2.25         2.6 0.28            110            323 228 
 TOL  SE ES       1046 57.53                             106   -0.26 7  345 223 
 TOL  SZ I        1047  6.41         4.0 0.28            109            345 223 
 PRA  HZ EP       1046 26.04                             103   -0.01 6  396 208 
 PRA  HN ES       1047  7.73                             103   -0.03 6  396 208 
 PRA  HZ I        1047 11.98         2.2 0.18            106            396 208 
 SJC  HZ EP   4   1046 24.92                             103   -1.72 0  401 327 
 SJC  HN ES   4   1047  4.16                             103   -4.66 0  401 327 
 SJC  HZ I        1047  9.87         2.6 0.46            106            401 327 
                                                                                
