 2015  2 4 1537 30.5 L   6.757 -73.127143.4  RSN  8 0.3 2.0LRSN                1
 GAP= 95        0.80       3.6     3.5  5.2 -0.4950E+00  0.3659E+01  0.3876E+01E
 Epicentro: LOS SANTOS - SANTANDER                                             3
 ACTION:UPD 15-04-30 21:21 OP:nd   STATUS:               ID:20150204153730 L   I
 OLDACT:UP  15-02-05 00:35 OP:cam  STATUS:               ID:20150204153448     3
 OLDACT:REG 15-02-05 00:31 OP:cam  STATUS:               ID:20150204153448     3
 2015-02-04-1534-48M.COL___277                                                 6
 STAT SP IPHASW D HRMM SECON CODA AMPLIT PERI AZIMU VELO AIN AR TRES W  DIS CAZ7
 BAR2 EZ EP       1537 49.79                             172    0.0510 19.3 199 
 BAR2 EZ ES       1538  4.29                             172   -0.4910 19.3 199 
 BAR2 EZ I        1538  5.53        32.7 0.44            172           19.3 199 
 BRR  HZ EP       1537 51.77                             151    0.1610 75.3 301 
 BRR  HN ES       1538  8.36                             151    0.2610 75.3 301 
 PAM  SZ EP       1537 52.73                             150    0.1410 79.8  36 
 PAM  SN ES       1538  9.61                             150   -0.2310 79.8  36 
 PAM  SZ I        1538 11.99        14.7 0.56            150           79.8  36 
 RUS  HZ EP       1537 53.24                             145   -0.4010 95.8 177 
 RUS  HN ES       1538 12.18                             145    0.4610 95.8 177 
 RUS  HZ I        1538 12.98        10.2 0.26            145           95.8 177 
 TAM  HZ EP   1   1537 58.19                             131    0.52 7  152 103 
 TAM  HZ I        1537 58.33        26.3 0.20            131            152 103 
 SPBC HZ EP       1537 58.51                             129   -0.06 9  161 221 
 ZAR  HN ES       1538 28.66                             121    0.02 8  208 293 
 NOR  HZ EP       1538  5.46                             118   -0.50 8  234 236 
 NOR  HE ES       1538 33.86                             118    0.22 8  234 236 
 NOR  HZ I        1538 35.78         5.7 0.22            119            234 236 
                                                                                
