 2010  6 4 1653 54.5 L   6.764 -73.087150.5  RSN  5 0.8 2.2LRSN                1
 GAP=195        1.91      12.0    28.9 17.2 -0.1602E+03  0.7178E+02 -0.5939E+02E
 Epicentro: LOS SANTOS - SANTANDER                                             3
 ACTION:UP  10-08-24 10:08 OP:vdl  STATUS:               ID:20100604165354 L   I
 2010-06-04-1648-43S.COL___109                                                 6
 STAT SP IPHASW D HRMM SECON CODA AMPLIT PERI AZIMU VELO SNR AR TRES W  DIS CAZ7
 BAR2 SZ EP       1654 14.80                             172     0.110   22 209 
 BAR2 SZ ES       1654 30.10                             172    -0.310   22 209 
 GUE  SZ EP       1654 18.71                             139    -1.210  119   9 
 GRA  SZ EP       1654 21.56                             137     1.210  128  14 
 GRA  SZ ES       1654 41.10                             137     0.610  128  14 
 OCA  SZ EP       1654 23.31                             130    -0.4 9  165 351 
 OCA  SZ ES       1654 46.23                             130    -0.2 9  165 351 
 OCA  SZ I        1654 49.09        20.1 0.18                           165 351 
 RREF BN ES   2   1655 19.01                             111     1.5 3  324 231 
 RREF BZ I        1655 24.21         6.3 0.23                           324 231 
                                                                                
