 2011 10 4 1023 36.7 L   5.904 -73.623125.3  RSN  6 0.4 1.4LRSN                1
 GAP=164        0.81       5.2     4.4 10.0 -0.4402E+01  0.2392E+02 -0.2516E+01E
 Epicentro: BARBOSA - SANTANDER                                                3
 ACTION:UPD 12-07-13 16:01 OP:ep   STATUS:               ID:20111004102336 L   I
 2011-10-04-1020-00M.COL___161                                                 6
 STAT SP IPHASW D HRMM SECON CODA AMPLIT PERI AZIMU VELO AIN AR TRES W  DIS CAZ7
 RUS  HZ EP   1   1023 55.43                             153   -0.30 7 59.7  91 
 RUS  HN ES   1   1024 10.18                             153   -0.37 7 59.7  91 
 RUS  HZ I        1024 13.37         4.0 0.33                          59.7  91 
 BAR2 SZ EP   1   1023 57.85                             142    0.48 7 90.3  33 
 BAR2 SZ ES   1   1024 13.39                             142   -0.09 7 90.3  33 
 BAR2 SZ I        1024 15.00        27.0 0.21                          90.3  33 
 BRR  HZ EP   1   1024  1.00                             130    0.29 7  133 356 
 BRR  HZ I        1024  2.47         8.3 0.14                           133 356 
 BRR  HN ES   1   1024 19.84                             130    0.43 7  133 356 
 NOR  SZ EP   1   1024  1.54                             128   -0.16 7  143 255 
 NOR  SN ES   1   1024 21.91                             128    0.72 7  143 255 
 NOR  SZ I        1024 25.22         0.7 0.23                           143 255 
 HEL  HZ EP   1   1024  9.35                             116   -0.05 6  213 279 
 HEL  HN ES   1   1024 34.37                             116   -0.52 6  213 279 
 ZAR  HN ES   1   1024 35.15                             115   -0.69 6  222 322 
                                                                                
