 2016  9 4 1324 54.2 L   6.758 -73.130155.4  RSN  4 0.2 1.5LRSN                1
 GAP=236        0.52       4.4     4.2  4.5  0.7832E+01  0.2400E+01 -0.1621E+01E
 Epicentro: LOS SANTOS - SANTANDER                                             3
 ACTION:UPD 17-08-17 21:06 OP:lp   STATUS:               ID:20160904132454 L   I
 OLDACT:DUP 16-09-04 23:52 OP:dnl  STATUS:               ID:20160904131737d    3
 OLDACT:DUP 16-09-04 23:28 OP:dnl  STATUS:               ID:20160904131736d    3
 2016-09-04-1318-00M.COL___352                                                 6
 STAT SP IPHASW D HRMM SECON CODA AMPLIT PERI AZIMU VELO AIN AR TRES W  DIS CAZ7
 BAR2 EZ EP       1325 14.94                             173    0.0610 19.2 198 
 BAR2 EZ ES       1325 30.75                             173   -0.2810 19.2 198 
 BAR2 EZ I        1325 31.50         5.6 0.64            167           19.2 198 
 BRR  HZ EP       1325 16.74                             153    0.1810 75.0 301 
 BRR  HN ES       1325 34.13                             153    0.0910 75.0 301 
 BRR  HZ I        1325 39.23         8.5 0.30            149           75.0 301 
 RUS  HZ EP   2   1325 18.11                             147   -0.44 5 95.8 177 
 RUS  HE ES       1325 37.79                             147    0.2210 95.8 177 
 RUS  HZ I        1325 39.02         2.7 0.20            148           95.8 177 
 PTB  HZ EP       1325 21.85                             134   -0.16 9  149 261 
 PTB  HE ES       1325 43.69                             134   -0.04 9  149 261 
 PTB  HZ I        1325 50.17         5.0 0.32            132            149 261 
                                                                                
