 2017  9 4 1113  5.3 L   6.803 -73.136145.7  RSN 11 0.4 1.7LRSN                1
 GAP=101        1.01       3.5     3.9  5.5 -0.1625E+01  0.3536E+01  0.4713E+01E
 Epicentro: LOS SANTOS - SANTANDER                                             3
 ACTION:UPD 17-10-05 19:09 OP:rebc STATUS:               ID:20170904111305 L   I
 OLDACT:DUP 17-09-04 21:55 OP:lv   STATUS:               ID:20170904110740d    3
 2017-09-04-1108-00M.COL___408                                                 6
 STAT SP IPHASW D HRMM SECON CODA AMPLIT PERI AZIMU VELO AIN AR TRES W  DIS CAZ7
 BAR2 EZ EP       1113 24.72                             170   -0.2310 23.8 192 
 BAR2 EZ ES       1113 39.50                             170   -0.7610 23.8 192 
 BAR2 EZ I        1113 40.97        13.8 0.22            169           23.8 192 
 BRR  HZ EP       1113 26.48                             152   -0.0210 72.0 298 
 BRR  HN ES       1113 43.56                             152    0.5410 72.0 298 
 PAM  EZ EP       1113 27.71                             151    0.2410 76.5  39 
 PAM  EN ES       1113 44.99                             151    0.2410 76.5  39 
 PAM  EZ I        1113 46.92         8.3 0.46            153           76.5  39 
 RUS  HZ EP       1113 28.90                             144   -0.1710  101 177 
 RUS  HN ES       1113 47.49                             144   -0.1210  101 177 
 RUS  HZ I        1113 48.51         6.1 0.24            144            101 177 
 TAM  HZ EP       1113 33.14                             131    0.24 9  154 105 
 SPBC HZ EP       1113 33.57                             129   -0.32 9  164 219 
 SPBC HN ES       1113 57.06                             129    0.88 9  164 219 
 SPBC HZ I        1113 58.51         7.7 0.10            129            164 219 
 YPLC HZ ES   4   1113 59.63                             127    1.33 0  177 152 
 ZAR  HZ EP       1113 37.45                             122   -0.39 9  205 292 
 ZAR  HN ES       1114  2.69                             122   -0.52 9  205 292 
 ZAR  HZ I        1114  7.49         4.8 0.20            122            205 292 
 NOR  HZ EP       1113 41.40                             118    0.25 8  236 235 
 NOR  HN ES       1114  9.49                             118    0.39 8  236 235 
 NOR  HZ I        1114 13.44         4.4 0.20            118            236 235 
 CHI  HZ EP       1113 43.04                             117   -0.03 8  249 195 
 CHI  HN ES       1114 12.45                             117   -0.07 8  249 195 
 CHI  HZ I        1114 15.52         2.4 0.44            117            249 195 
 GUY2CHZ EP   4   1113 50.11                             112    1.08 0  302 235 
 GUY2CHN ES   4   1114 25.58                             112    2.44 0  302 235 
 GUY2CHZ I        1114 30.75         2.5 0.30                           302 235 
 PTGC HN ES   4   1114 21.95                             112   -1.40 0  309 159 
 PRA  HZ EP       1113 59.38                             106    0.46 6  393 210 
 PRA  HN ES       1114 40.00                             106   -0.74 6  393 210 
 PRA  HZ I        1114 44.74         2.3 0.26            107            393 210 
                                                                                
