 2010  5 4 1830 58.3 L   7.425 -73.109132.7  RSN 10 0.7 2.9LRSN                1
 GAP=126        1.32       8.8     9.7 11.3 -0.5790E+02 -0.3330E+02  0.3848E+02E
 Epicentro: EL PLAYON - SANTANDER                                              3
 ACTION:UP  10-08-24 10:02 OP:vdl  STATUS:               ID:20100504183059 L   I
 2010-05-04-1827-28S.COL___105                                                 6
 STAT SP IPHASW D HRMM SECON CODA AMPLIT PERI AZIMU VELO SNR AR TRES W  DIS CAZ7
 GUE  SZ EP   1   1831 17.41                             159     0.1 7   49  24 
 GUE  SZ ES   2   1831 32.67                             159     0.5 5   49  24 
 GRA  SZ IP     C 1831 19.04                             154     1.310   61  34 
 GRA  SZ ES   2   1831 33.10                             154     0.3 5   61  34 
 BRR  HZ IP     D 1831 18.08                             148    -0.210   75 242 
 BRR  HE ES   2   1831 33.64                             148    -0.3 5   75 242 
 BRR  HZ I        1831 34.49       389.8 0.12                            75 242 
 OCA  SZ EP   1   1831 19.41                             143    -0.3 7   93 346 
 OCA  SZ ES   2   1831 35.80                             143    -0.7 5   93 346 
 OCA  SZ I        1831 38.01       191.0 0.18                            93 346 
 BAR2 SZ EP   1   1831 19.39                             143    -0.4 7   93 185 
 BAR2 SZ ES   2   1831 35.80                             143    -0.8 5   93 185 
 HEL  HZ EP   1   1831 40.45                             110    -0.7 5  300 243 
 HEL  HZ I        1832 20.32        34.1 0.32                           300 243 
 SDV  BZ IP       1831 42.96                             109     0.1 7  317  59 
 SDV  BN ES       1832 16.47                             109    -1.1 7  317  59 
 CHI  HZ EP   1   1831 43.37                             109     0.3 5  317 193 
 CHI  HN ES   2   1832 18.68                             109     0.7 3  317 193 
 CHI  HZ I        1832 24.29        12.9 0.43                           317 193 
 RREF BZ EP   1   1831 50.72                             105     0.8 5  373 222 
 RREF BE ES   2   1832 29.69                             105    -0.5 3  373 222 
 RREF BZ I        1832 37.15        31.2 0.23                           373 222 
 PRA  HZ EP   1   1831 58.27                             102    -0.6 4  455 206 
 PRA  HN ES   2   1832 46.36                             102     0.2 2  455 206 
 PRA  HZ I        1832 56.67        18.4 0.82                           455 206 
                                                                                
