 2011  6 4 1034 20.2 L   6.675 -72.969146.2  RSN  5 0.3 1.5LRSN                1
 GAP=166        0.80       4.8     9.4 10.5 -0.5512E+01 -0.1475E+02 -0.1144E+01E
 Epicentro: ARATOCA - SANTANDER                                                3
 ACTION:UP  11-07-14 19:03 OP:ep   STATUS:               ID:20110604103420 L   I
 2011-06-04-1030-30S.COL___131                                                 6
 STAT SP IPHASW D HRMM SECON CODA AMPLIT PERI AZIMU VELO SNR AR TRES W  DIS CAZ7
 BAR2 SZ EP   1   1034 40.27                             170     0.4 7   25 249 
 BAR2 SZ I        1034 50.80         6.0 0.56                            25 249 
 PAM  SN ES   2   1034 59.74                             150    -0.3 5   79  22 
 RUS  HZ EP   1   1034 42.42                             148    -0.7 7   87 188 
 RUS  HN ES   1   1035  1.25                             148     0.3 7   87 188 
 BRR  HZ EP   1   1034 42.84                             145    -0.1 7   95 300 
 BRR  HZ I        1034 45.79         8.8 0.13                            95 300 
 BRR  HE ES   1   1035  0.52                             145    -0.1 7   95 300 
 GRA  SZ EP   1   1034 46.69                             135     0.4 7  135   8 
 GRA  SZ ES   1   1035  6.47                             135    -0.1 7  135   8 
 GRA  SZ I        1035  8.54         3.7 0.38                           135   8 
                                                                                
