 2017 12 4 1745 20.0 L   6.809 -73.171138.8  RSN 12 0.4 1.9LRSN                1
 GAP=109        1.08       2.9     4.3  6.1  0.7022E+00  0.1316E+01  0.3909E+00E
 Epicentro: LOS SANTOS - SANTANDER                                             3
 ACTION:UPD 18-01-04 13:17 OP:rebc STATUS:               ID:20171204174520 L   I
 OLDACT:REG 17-12-04 21:40 OP:lv   STATUS:               ID:20171204173545     3
 2017-12-04-1738-00M.COL___479                                                 6
 STAT SP IPHASW D HRMM SECON CODA AMPLIT PERI AZIMU VELO AIN AR TRES W  DIS CAZ7
 BAR2 EZ IP     D 1745 38.71                             170   -0.0610 24.0 183 
 BAR2 EZ ES       1745 53.05                             170   -0.4010 24.0 183 
 BAR2 EZ I        1745 54.71        30.5 0.38            171           24.0 183 
 PAM  EZ EP       1745 41.64                             149    0.1310 78.4  42 
 PAM  EN ES       1745 58.21                             149   -0.1010 78.4  42 
 PAM  EZ I        1746  1.41         7.3 0.38            150           78.4  42 
 RUS  HZ EP       1745 43.00                             142   -0.1310  102 175 
 RUS  HE ES       1746  0.86                             142   -0.3410  102 175 
 RUS  HZ I        1746  2.30         8.2 0.28            144            102 175 
 PTB  HZ EP   9   1745 45.39                             131   -0.75 0  145 258 
 PTB  HE ES       1746  6.06                                    0.25 9  145 258 
 PTB  HZ I        1746  8.81         5.8 0.18            130            145 258 
 OCA  HZ EP       1745 47.41                             128   -0.20 9  159 354 
 OCA  HN ES       1746  9.83                             128    0.65 9  159 354 
 OCA  HZ I        1746 12.84        22.7 0.26            128            159 354 
 SPBC HN ES       1746  9.91                             128    0.31 9  162 218 
 YPLC HZ EP       1745 49.15                             125   -0.34 9  179 151 
 YPLC HN ES       1746 13.47                             125    0.95 9  179 151 
 YPLC HZ I        1746 14.10         5.3 0.22            126            179 151 
 ZAR  HZ EP       1745 51.45                             121   -0.20 9  201 292 
 ZAR  HN ES       1746 16.55                             121    0.18 9  201 292 
 ZAR  HZ I        1746 22.23        11.7 0.32            120            201 292 
 CHI  HZ EP       1745 57.08                             116   -0.24 8  249 194 
 CHI  HN ES       1746 26.39                             116   -0.06 8  249 194 
 CHI  HZ I        1746 28.42         6.1 0.42            116            249 194 
 URE  HZ EP   9   1745 59.27                             112   -1.10 0  281 292 
 URE  HN ES       1746 29.84                                   -0.94 7  281 292 
 URE  HZ I        1746 39.60         6.5 0.18            112            281 292 
 GUY2CHZ EP   9   1746  4.23                             111    1.16 0  300 234 
 GUY2CHN ES       1746 38.90                                    1.05 7  300 234 
 GUY2CHZ I        1746 47.24         4.7 0.36                           300 234 
 PTGC HZ EP   4   1746  1.92                             110   -1.83 0  311 158 
 PTGC HE ES   4   1746 35.09                             110   -2.81 0  311 158 
 SJC  HZ EP   4   1746 12.60                             105   -2.42 0  407 327 
 SJC  HN ES   4   1746 53.95                             105   -4.02 0  407 327 
 SJC  HZ I        1747  0.84         2.5 0.38            105            407 327 
                                                                                
