 2010  8 4 1113  4.2 L   7.408 -73.229132.3  RSN 12 0.5 3.0LRSN                1
 GAP=114        1.44       6.9     8.2  8.9 -0.2502E+02  0.1240E+02  0.1160E+02E
 Epicentro: EL PLAYON - SANTANDER                                              3
 ACTION:UP  10-09-07 10:52 OP:vdl  STATUS:               ID:20100804111304 L   I
 2010-08-04-1111-21S.COL___125                                                 6
 STAT SP IPHASW D HRMM SECON CODA AMPLIT PERI AZIMU VELO SNR AR TRES W  DIS CAZ7
 GUE  SZ EP       1113 23.46                             155    -0.110   58  36 
 GUE  SZ ES   1   1113 38.31                             155    -0.4 7   58  36 
 GUE  SZ I        1113 39.14       261.4 0.13                            58  36 
 BRI  SZ EP       1113 24.52                             155     1.110   59  54 
 BRI  SZ ES   1   1113 39.49                             155     1.0 7   59  54 
 BRR  HZ IP     D 1113 23.49                             153     0.110   63 238 
 BRR  HN ES   1   1113 38.36                             153     0.0 7   63 238 
 BRR  HZ I        1113 39.89       365.2 0.18                            63 238 
 GRA  SZ IP       1113 24.12                             150     0.010   71  42 
 GRA  SZ ES   1   1113 39.19                             150    -0.4 7   71  42 
 GRA  SZ I        1113 41.66       663.4 0.23                            71  42 
 BAR2 SZ EP       1113 25.36                             144    -0.210   90 177 
 BAR2 SZ ES   1   1113 41.77                             144    -0.4 7   90 177 
 BAR2 SZ I        1113 42.96       239.9 0.08                            90 177 
 OCA  SZ EP       1113 25.28                             143    -0.310   92 354 
 OCA  SZ ES   1   1113 41.92                             143    -0.3 7   92 354 
 OCA  SZ I        1113 44.07       285.0 0.20                            92 354 
 RUS  HZ EP   1   1113 32.12                             125    -0.6 7  168 175 
 RUS  HZ I        1114  1.32        21.1 0.40                           168 175 
 HEL  HZ EP   1   1113 45.91                             111     0.4 5  288 242 
 HEL  HN ES   1   1114 16.98                             111    -0.8 5  288 242 
 HEL  HZ I        1114 26.35        52.1 0.23                           288 242 
 CHI  HZ EP   1   1113 49.19                             109     0.8 5  312 190 
 CHI  HZ I        1114 30.30        19.9 0.41                           312 190 
 SDV  BZ IP     C 1113 49.10                             108    -1.0 7  329  60 
 SDV  BZ I        1113 49.45        40.9 0.33                           329  60 
 DBB  SZ EP       1113 50.77                             107     0.5 7  332 263 
 DBB  SZ I        1114 28.25        15.9 0.35                           332 263 
 PRA  HZ EP   1   1114  4.01                             102     0.1 4  448 204 
 PRA  HZ I        1115  0.18        30.7 0.38                           448 204 
                                                                                
