 2011 10 4 1246  1.3 L   6.760 -73.131147.2  RSN  7 0.4 1.6LRSN                1
 GAP=140        0.80       5.2     5.0  8.0 -0.3260E+01  0.1661E+02  0.5903E+01E
 Epicentro: LOS SANTOS - SANTANDER                                             3
 ACTION:UPD 12-07-13 16:01 OP:ep   STATUS:               ID:20111004124601 L   I
 2011-10-04-1240-00M.COL___161                                                 6
 STAT SP IPHASW D HRMM SECON CODA AMPLIT PERI AZIMU VELO AIN AR TRES W  DIS CAZ7
 BAR2 SZ EP   1   1246 21.33                             172    0.28 7 19.4 197 
 BAR2 SZ ES   1   1246 35.86                             172   -0.58 7 19.4 197 
 BAR2 SZ I        1246 39.08        22.8 0.27                          19.4 197 
 PAM  SZ EP   1   1246 23.92                             150    0.09 7 79.8  37 
 PAM  SZ I        1246 24.63         5.0 0.21                          79.8  37 
 PAM  SN ES   1   1246 41.34                             150   -0.06 7 79.8  37 
 RUS  HZ EP   1   1246 25.37                             145    0.48 7 96.1 177 
 RUS  HN ES   1   1246 43.70                             145    0.42 7 96.1 177 
 RUS  HZ I        1246 45.04         8.9 0.27                          96.1 177 
 ZAR  HN ES   1   1246 59.73                             122   -0.10 6  207 293 
 ZAR  HZ I        1247  6.42         6.3 0.21                           207 293 
 NOR  SZ EP   1   1246 36.44                             119   -0.56 6  234 236 
 NOR  SN ES   1   1247  4.61                             119   -0.23 6  234 236 
 NOR  SZ I        1247 11.44         0.4 0.11                           234 236 
 CHI  HZ EP   1   1246 37.98                             118   -0.70 6  245 196 
 HEL  HN ES   1   1247 13.84                             115    0.70 6  273 257 
                                                                                
