 2013  4 4 1336 52.5 L   6.808 -73.059153.9  RSN  7 0.5 1.9LRSN                1
 GAP=247        0.87       6.2    10.4  7.8  0.2944E+02  0.1890E+02  0.1315E+02E
 Epicentro: LOS SANTOS - SANTANDER                                             3
 ACTION:UPD 13-05-22 14:35 OP:EP   STATUS:               ID:20130404133652 L   I
 2013-04-04-1330-00M.COL___245                                                 6
 STAT SP IPHASW D HRMM SECON CODA AMPLIT PERI AZIMU VELO AIN AR TRES W  DIS CAZ7
 BAR2 SZ EP       1337 13.19                             169    0.0410 27.5 210 
 BAR2 SZ ES   1   1337 28.76                             169   -0.53 7 27.5 210 
 BAR2 SZ I        1337 29.89        18.3 0.30            163           27.5 210 
 BRR  HZ IP     D 1337 15.21                             151    0.2610 79.3 295 
 BRR  HE ES   1   1337 33.12                             151    0.63 7 79.3 295 
 RUS  HZ EP   1   1337 17.07                             145    0.00 7  101 182 
 RUS  HN ES   1   1337 36.14                             145   -0.12 7  101 182 
 PTB  HZ EP   1   1337 20.09                             132   -0.87 7  157 259 
 PTB  HN ES   4   1337 41.12                             132   -2.07 0  157 259 
 PTB  HZ I        1337 44.67         7.2 0.12            129            157 259 
 ZAR  HN ES   2   1337 52.12                             123   -0.61 4  213 291 
 CHI  HZ EP   1   1337 30.67                             118   -0.33 6  252 197 
 CHI  HN ES   1   1338  1.73                             118    0.66 6  252 197 
 CHI  HZ I        1338  4.58         2.9 0.40            117            252 197 
 PRA  HZ EP   1   1337 47.74                             107    0.81 4  398 211 
 PRA  HE ES   2   1338 29.07                             107   -0.34 3  398 211 
 PRA  HZ I        1338 34.89         2.8 0.36            107            398 211 
                                                                                
