 2016  9 4 1014 46.5 L   6.725 -73.153142.0  RSN  5 0.4 1.7LRSN                1
 GAP=156        0.82       7.0     3.9  6.9 -0.5770E+01  0.5610E+01 -0.4100E+01E
 Epicentro: JORDAN - SANTANDER                                                 3
 ACTION:UPD 17-08-17 21:06 OP:lp   STATUS:               ID:20160904101446 L   I
 OLDACT:REG 16-09-04 20:44 OP:dnl  STATUS:               ID:20160904100740     3
 2016-09-04-1008-00M.COL___352                                                 6
 STAT SP IPHASW D HRMM SECON CODA AMPLIT PERI AZIMU VELO AIN AR TRES W  DIS CAZ7
 BAR2 EZ EP       1015  5.61                             174    0.0910 15.0 193 
 BAR2 EZ ES       1015 20.39                             174    0.0310 15.0 193 
 BAR2 EZ I        1015 21.65         7.5 0.44            172           15.0 193 
 BRR  HZ EP       1015  7.36                             151   -0.0810 74.9 304 
 BRR  HN ES       1015 24.42                             151    0.6310 74.9 304 
 BRR  HZ I        1015 27.01        12.0 0.26            147           74.9 304 
 PAM  EZ EP       1015  8.69                             148   -0.0510 84.4  36 
 PAM  EE ES       1015 25.85                             148   -0.2510 84.4  36 
 PAM  EZ I        1015 27.80        12.0 0.54            150           84.4  36 
 PTB  HZ EP   2   1015 12.55                             132   -0.40 5  146 262 
 PTB  HN ES       1015 33.36                             132   -0.23 9  146 262 
 PTB  HZ I        1015 40.58         4.4 0.46            131            146 262 
 ZAR  HZ EP   2   1015 20.08                             121    1.13 4  207 294 
 ZAR  HN ES       1015 43.87                             121   -0.41 8  207 294 
 ZAR  HZ I        1015 50.10         4.7 0.56            121            207 294 
                                                                                
