 2012 12 4 1247 34.2 L   6.784 -73.148145.2  RSN  5 0.3 1.8LRSN                1
 GAP=137        0.83       4.4     3.9  6.9 -0.4199E+00  0.8327E+01 -0.2464E+01E
 Epicentro: LOS SANTOS - SANTANDER                                             3
 ACTION:UPD 13-01-04 14:25 OP:ep   STATUS:               ID:20121204124735dL   I
 2012-12-04-1240-00M.COL___232                                                 6
 STAT SP IPHASW D HRMM SECON CODA AMPLIT PERI AZIMU VELO AIN AR TRES W  DIS CAZ7
 BAR2 SZ EP       1247 53.76                             171   -0.0110 21.6 190 
 BAR2 SZ ES       1248  8.69                             171   -0.3110 21.6 190 
 PAM  SZ EP       1247 56.56                             150    0.0710 78.9  39 
 PAM  SN ES       1248 13.79                             150   -0.0510 78.9  39 
 PAM  SN I        1248 14.65         7.8 0.24                          78.9  39 
 RUS  HZ EP       1247 57.70                             144   -0.1110 98.9 176 
 RUS  HN ES       1248 16.73                             144    0.5310 98.9 176 
 RUS  HN I        1248 17.89         3.7 0.14                          98.9 176 
 PTB  HZ EP       1248  0.83                             132   -0.28 9  147 259 
 PTB  HN ES       1248 21.72                             132   -0.35 9  147 259 
 PTB  HN I        1248 27.04        26.3 0.46                           147 259 
 ZAR  HN ES       1248 32.61                             122    0.60 9  204 293 
                                                                                
