 2012  8 4 1531 36.4 L   5.854 -74.067 83.2  RSN 12 0.5 2.0LRSN                1
 GAP= 77        0.89       2.8     2.6  9.1 -0.2524E+00 -0.5320E+00  0.3926E+01E
 Epicentro: FLORIAN - SANTANDER                                                3
 ACTION:UPD 12-09-10 11:54 OP:ep   STATUS:               ID:20120804153136 L   I
 2012-08-04-1529-38M.COL___209                                                 6
 STAT SP IPHASW D HRMM SECON CODA AMPLIT PERI AZIMU VELO AIN AR TRES W  DIS CAZ7
 PTB  HZ IP     C 1531 52.08                             129   -0.7010 87.1 330 
 PTB  HN ES   1   1532  5.05                             129   -0.49 7 87.1 330 
 PTB  HZ I        1532  6.13        20.4 0.20                          87.1 330 
 NOR  SZ EP       1531 53.23                             127   -0.3110 94.4 250 
 NOR  SN ES   1   1532  6.84                             127   -0.05 7 94.4 250 
 RUS  HZ EP       1531 55.41                             123   -0.1910  109  88 
 RUS  HZ I        1531 55.66        13.1 0.18                           109  88 
 RUS  HN ES   1   1532 10.72                             123    0.18 7  109  88 
 BAR2 SZ EP       1531 57.06                             118   -0.1610  127  50 
 BAR2 SZ ES   1   1532 13.87                             118    0.44 7  127  50 
 BAR2 SZ I        1532 15.35        41.4 0.40                           127  50 
 CHI  HZ EP   3   1531 58.39                             115   -0.48 2  140 165 
 CHI  HN ES   3   1532 16.38                             115    0.01 2  140 165 
 CHI  HZ I        1532 19.49        13.9 0.24                           140 165 
 BRR  HZ EP       1531 58.44                             114   -0.30 9  144  16 
 BRR  HE ES   1   1532 16.71                             114    0.57 7  144  16 
 BRR  HZ I        1532 20.75        31.0 0.12                           144  16 
 GIR2 SZ ES   3   1532 20.31                             111   -0.67 2  166  35 
 HEL  HZ EP       1532  1.98                             111    0.27 9  166 283 
 HEL  HE ES   1   1532 22.30                             111    0.88 7  166 283 
 HEL  HZ I        1532 26.23        20.5 0.50                           166 283 
 VIL  SZ EP       1532  5.25                             107    0.23 9  197 168 
 VIL  SN ES   1   1532 27.99                             107    0.67 6  197 168 
 VIL  SZ I        1532 31.13        25.6 0.40                           197 168 
 ZAR  HZ EP       1532  5.70                             107    0.35 9  201 334 
 ZAR  HN ES   1   1532 28.39                             107    0.49 6  201 334 
 ZAR  HZ I        1532 34.01        27.5 0.28                           201 334 
 PAM  SE ES   3   1532 33.65                             105    0.02 2  223  43 
 PAM  SZ I        1532 45.40         4.3 0.36                           223  43 
 PRA  HZ EP   2   1532 10.54                             103   -1.09 4  253 201 
 PRA  HZ I        1532 49.49         6.4 0.42                           253 201 
                                                                                
