 2015  4 4 1544 33.6 L   6.808 -73.155144.4  RSN 11 0.5 2.1LRSN                1
 GAP=135        1.24       4.0     4.6  6.8 -0.3248E+01  0.1093E+02 -0.1463E+00E
 Epicentro: LOS SANTOS - SANTANDER                                             3
 ACTION:UPD 15-06-03 16:52 OP:cam  STATUS:               ID:20150404154433 L   I
 OLDACT:REG 15-04-04 22:32 OP:fm   STATUS:               ID:20150404153748     3
 2015-04-04-1537-48M.COL___279                                                 6
 STAT SP IPHASW D HRMM SECON CODA AMPLIT PERI AZIMU VELO AIN AR TRES W  DIS CAZ7
 BAR2 EZ IP     C 1544 53.35                             170    0.2710 24.0 187 
 BAR2 EZ ES       1545  8.44                             170    0.1710 24.0 187 
 BAR2 EZ I        1545  9.73        63.5 0.14            171           24.0 187 
 BRR  HZ EP       1544 55.14                             153    0.6110 69.9 298 
 BRR  HN ES       1545 11.75                             153    0.9010 69.9 298 
 BRR  HZ I        1545 16.37        16.5 0.30            151           69.9 298 
 PAM  SZ IP     C 1544 56.09                             151    0.4210 77.4  41 
 PAM  SE ES       1545 12.01                             151   -0.8710 77.4  41 
 PAM  SZ I        1545 15.89         9.8 0.60            153           77.4  41 
 RUS  HZ EP       1544 57.31                             143    0.0210  102 176 
 RUS  HN ES       1545 15.26                             143   -0.5010  102 176 
 RUS  HZ I        1545 17.20        17.6 0.24            148            102 176 
 PTB  HZ EP       1545  0.17                             132   -0.21 9  147 258 
 PTB  HE ES       1545 21.06                             132   -0.21 9  147 258 
 PTB  HZ I        1545 23.17        14.0 0.40            132            147 258 
 SPBC HZ EP       1545  2.26                             129    0.26 9  163 219 
 SPBC HE ES       1545 24.20                             129    0.05 9  163 219 
 SPBC HZ I        1545 27.04        36.9 0.18            131            163 219 
 ZAR  HN ES       1545 31.14                             122    0.18 9  203 292 
 ZAR  HZ I        1545 37.88         6.6 0.22            123            203 292 
 NOR  HZ EP       1545  9.52                             118    0.30 8  234 234 
 NOR  HN ES       1545 36.07                             118   -0.93 8  234 234 
 NOR  HZ I        1545 40.48        10.1 0.18            120            234 234 
 SML  HZ EP       1545 10.05                             117    0.03 8  242 335 
 SML  HE ES       1545 37.63                             117   -0.79 8  242 335 
 SML  HZ I        1545 43.53        14.4 0.24            119            242 335 
 HEL  HZ EP   1   1545 12.90                             114   -0.76 6  271 256 
 HEL  HN ES       1545 44.30                             114   -0.60 8  271 256 
 HEL  HZ I        1545 51.24         3.8 0.26            116            271 256 
 GUY2CHZ EP       1545 17.28                             112    0.17 7  301 235 
 GUY2CHE ES       1545 51.76                             112    0.71 7  301 235 
 GUY2CHZ I        1545 58.00         5.4 0.52                           301 235 
                                                                                
