 2015  9 4 1335  3.7 L   6.796 -73.168139.8  RSN  8 0.5 2.0LRSN                1
 GAP=134        1.31       5.1     5.4  7.9 -0.1485E+01  0.1103E+02 -0.4268E+01E
 Epicentro: LOS SANTOS - SANTANDER                                             3
 ACTION:UPD 15-10-28 16:24 OP:cam  STATUS:               ID:20150904133503 L   I
 OLDACT:UP  15-09-09 20:54 OP:cam  STATUS:               ID:20150904133503 L   3
 OLDACT:UP  15-09-08 11:01 OP:AK   STATUS:               ID:20150904133503 L   3
 OLDACT:REG 15-09-04 20:45 OP:stll STATUS:               ID:20150904132749     3
 2015-09-04-1333-59M.COL___352                                                 6
 STAT SP IPHASW D HRMM SECON CODA AMPLIT PERI AZIMU VELO AIN AR TRES W  DIS CAZ7
 BAR2 EZ EP       1335 22.82                             170    0.2610 22.6 184 
 BAR2 EZ ES       1335 36.60                             170   -0.7010 22.6 184 
 BAR2 EZ I        1335 38.98        26.5 0.20            170           22.6 184 
 BRR  HZ EP       1335 24.63                             152    0.5810 69.3 300 
 BRR  HN ES       1335 40.96                             152    1.0010 69.3 300 
 PAM  EZ EP       1335 25.72                             149    0.3610 79.3  41 
 PAM  EZ I        1335 25.93        42.4 0.20            152           79.3  41 
 PAM  EN ES       1335 41.73                             149   -0.5610 79.3  41 
 RUS  HZ EP       1335 27.23                             143    0.4210  100 175 
 RUS  HE ES       1335 44.91                             143    0.0410  100 175 
 RUS  HZ I        1335 47.09        10.4 0.34            145            100 175 
 PTB  HZ EP       1335 29.50                             131   -0.41 9  145 259 
 PTB  HN ES       1335 49.86                             131   -0.54 9  145 259 
 PTB  HZ I        1335 55.66         8.9 0.36            131            145 259 
 SPBC HZ EP       1335 31.72                             128    0.19 9  161 218 
 SPBC HZ I        1335 32.23        11.1 0.14            129            161 218 
 SPBC HN ES       1335 53.09                             128   -0.18 9  161 218 
 ZAR  HZ EP       1335 35.05                             121   -0.45 9  202 293 
 ZAR  HN ES       1336  0.64                             121    0.30 9  202 293 
 ZAR  HZ I        1336  7.46         8.9 0.46            121            202 293 
 SML  HZ EP       1335 39.14                             116   -0.74 8  243 336 
 SML  HN ES   4   1336  6.22                             116   -1.92 0  243 336 
 SML  HZ I        1336 10.68         9.3 0.28            117            243 336 
                                                                                
