 2012  7 4 1026 28.8 L   6.748 -73.204148.1  RSN  5 0.4 1.2LRSN                1
 GAP=227        0.81       8.4     7.7  8.7  0.3645E+02  0.9009E+01  0.2055E+01E
 Epicentro: VILLANUEVA - SANTANDER                                             3
 ACTION:UPD 12-08-14 11:42 OP:ep   STATUS:               ID:20120704102628 L   I
 2012-07-04-1020-00M.COL___200                                                 6
 STAT SP IPHASW D HRMM SECON CODA AMPLIT PERI AZIMU VELO AIN AR TRES W  DIS CAZ7
 BAR2 SZ EP   1   1026 48.55                             173    -0.1 7   17 172 
 BAR2 SZ I        1026 48.93         3.0 0.09            169             17 172 
 BAR2 SZ ES   1   1027  3.60                             173    -0.5 7   17 172 
 BRR  HZ EP   1   1026 50.17                             153     0.1 7   69 305 
 BRR  HZ I        1026 50.53         5.9 0.13            154             69 305 
 BRR  HN ES   1   1027  7.21                             153     0.5 7   69 305 
 RUS  HZ EP   1   1026 52.79                             146     0.3 7   96 172 
 RUS  HE ES   1   1027 10.71                             146    -0.2 7   96 172 
 RUS  HZ I        1027 13.25         1.8 0.42            143             96 172 
 PTB  HZ EP   1   1026 55.21                             134    -0.1 7  140 261 
 PTB  HN ES   1   1027 16.18                             134     0.2 7  140 261 
 PTB  HZ I        1027 18.43         1.8 0.12            132            140 261 
 ZAR  HN ES   2   1027 25.26                             123    -0.9 4  200 294 
