 2013  5 4 1103 37.4 L   6.817 -73.225138.5  RSN  7 0.4 2.0LRSN                1
 GAP=124        0.80       4.9     4.7  8.2 -0.4625E+01  0.8891E+01 -0.1692E+02E
 Epicentro: ZAPATOCA - SANTANDER                                               3
 ACTION:UPD 13-06-20 09:47 OP:ep   STATUS:               ID:20130504110337 L   I
 2013-05-04-1100-00M.COL___253                                                 6
 STAT SP IPHASW D HRMM SECON CODA AMPLIT PERI AZIMU VELO AIN AR TRES W  DIS CAZ7
 BAR2 SZ IP     D 11 3 56.31                             169    0.1010 25.2 169 
 BAR2 SZ ES   1   11 4 10.61                             169   -0.26 7 25.2 169 
 BAR2 SZ I        11 4 12.74         8.3 0.64            177           25.2 169 
 GIR2 SZ EP   1   11 3 56.29                             167    0.13 7 29.2   7 
 GIR2 SZ I        11 4 13.00        14.3 0.40            150           29.2   7 
 BRR  HZ EP     C 11 3 58.04                             154    0.7410 62.7 301 
 BRR  HN ES   4   11 4 14.82                             154    2.01 0 62.7 301 
 BRR  HN I        11 4 15.42        58.2 0.20            136           62.7 301 
 PAM  SZ IP     D 11 3 59.19                             148    0.0510 81.9  45 
 PAM  SN ES   1   11 4 15.82                             148   -0.27 7 81.9  45 
 PAM  SN I        11 4 17.26        26.5 0.26            133           81.9  45 
 RUS  HZ EP   1   11 4  0.41                             141   -0.25 7  103 171 
 RUS  HN ES       11 4 18.77                             141   -0.0310  103 171 
 RUS  HN I        11 4 20.73        13.3 0.58            137            103 171 
 PTB  HZ EP   2   11 4  2.31                             132   -0.73 5  140 257 
 PTB  HN ES       11 4 22.88                             132   -0.16 9  140 257 
 PTB  HN I        11 4 28.78        12.4 0.26            119            140 257 
 SML  HZ EP   1   11 4 12.52                             116   -0.55 6  238 337 
 SML  HN I        11 4 44.87        27.2 0.10            106            238 337 
                                                                                
