 2017  8 4 1115 46.0 L   6.787 -73.112142.1  RSN  8 0.4 1.5LRSN                1
 GAP=141        0.89       4.0     3.6  5.8 -0.1464E+01  0.5213E+01  0.1995E+01E
 Epicentro: LOS SANTOS - SANTANDER                                             3
 ACTION:UPD 17-09-04 20:16 OP:rebc STATUS:               ID:20170804111546 L   I
 OLDACT:REG 17-08-04 20:44 OP:y    STATUS:               ID:20170804110743     3
 2017-08-04-1108-00M.COL___360                                                 6
 STAT SP IPHASW D HRMM SECON CODA AMPLIT PERI AZIMU VELO AIN AR TRES W  DIS CAZ7
 BAR2 EZ IP     C 1116  4.95                             170   -0.1910 22.9 200 
 BAR2 EZ ES       1116 19.86                             170   -0.2510 22.9 200 
 BAR2 EZ I        1116 22.50         8.6 0.36            173           22.9 200 
 BRR  HZ EP       1116  7.05                             151    0.1010 75.2 298 
 BRR  HN ES       1116 23.84                             151    0.5210 75.2 298 
 BRR  HZ I        1116 25.23        20.9 0.44            150           75.2 298 
 PAM  EZ IP     C 1116  7.88                             151    0.1710 76.2  37 
 PAM  EN ES       1116 24.29                             151   -0.4010 76.2  37 
 PAM  EZ I        1116 33.03         2.5 0.48            151           76.2  37 
 RUS  HZ EP       1116  9.35                             144    0.1210 99.0 178 
 RUS  HN ES       1116 27.61                             144    0.2210 99.0 178 
 RUS  HZ I        1116 28.42         4.4 0.28            148           99.0 178 
 PTB  HZ EP       1116 13.14                             131    0.20 9  151 260 
 PTB  HN ES       1116 34.31                             131    0.32 9  151 260 
 PTB  HZ I        1116 37.65         2.4 0.23            133            151 260 
 ZAR  HZ EP   3   1116 20.58                             121    2.00 2  208 292 
 ZAR  HN ES       1116 43.65                             121   -0.38 8  208 292 
 ZAR  HZ I        1116 49.69         3.5 0.32            123            208 292 
 NOR  HZ EP       1116 21.50                             118   -0.22 8  237 235 
 NOR  HE ES       1116 48.97                             118   -0.64 8  237 235 
 NOR  HZ I        1116 53.89         2.4 0.24            120            237 235 
 GUY2CHZ EP   9   1116 31.49                             112    1.84 0  303 235 
 GUY2CHN ES       1117  6.26                                    0.69 7  303 235 
 GUY2CHZ I        1117 11.56         1.5 0.38                           303 235 
                                                                                
