 2015  5 4 1710 29.9 L   6.795 -73.131138.3  RSN  5 0.2 1.7LRSN                1
 GAP=103        0.50       3.1     3.3  3.9 -0.2892E+01 -0.3606E+01  0.5832E+01E
 Epicentro: LOS SANTOS - SANTANDER                                             3
 ACTION:UPD 15-09-10 22:01 OP:cam  STATUS:               ID:20150504171030 L   I
 OLDACT:UP  15-05-08 07:35 OP:AK   STATUS:               ID:20150504171030 L   3
 OLDACT:REG 15-05-04 22:26 OP:stll STATUS:               ID:20150504170749     3
 2015-05-04-1707-49M.COL___274                                                 6
 STAT SP IPHASW D HRMM SECON CODA AMPLIT PERI AZIMU VELO AIN AR TRES W  DIS CAZ7
 BAR2 EZ EP       1710 48.69                             170    0.0910 23.1 194 
 BAR2 EZ ES       1711  3.33                             170    0.1210 23.1 194 
 BAR2 EZ I        1711  5.20        13.8 0.46            169           23.1 194 
 BRR  HZ EP       1710 50.47                             151    0.1510 72.9 298 
 BRR  HN ES       1711  6.18                             151   -0.0910 72.9 298 
 PAM  SZ EP       1710 51.39                             150    0.1210 76.8  38 
 PAM  SZ I        1710 51.69        11.8 0.22            151           76.8  38 
 PAM  SN ES       1711  7.70                             150   -0.2610 76.8  38 
 TAM  HZ EP       1710 56.92                             129    0.11 9  153 105 
 CHI  HZ EP       1711  6.73                             115   -0.42 8  248 196 
 CHI  HZ I        1711  7.37         3.3 0.28            116            248 196 
 CHI  HN ES   1   1711 36.33                             115    0.10 6  248 196 
                                                                                
