 2013  8 4 1035 16.3 L   6.810 -73.123154.0  RSN 12 0.5 2.0LRSN                1
 GAP=210        1.13       3.7     5.8  5.9 -0.9667E+00  0.5366E+01  0.1034E+01E
 Epicentro: LOS SANTOS - SANTANDER                                             3
 ACTION:UPD 14-01-14 08:59 OP:ep   STATUS:               ID:20130804103516 L   I
 OLDACT:UP  13-08-04 16:07 OP:cam  STATUS:               ID:20130804102959     3
 OLDACT:REG 13-08-04 14:45 OP:cam  STATUS:               ID:20130804102959     3
 2013-08-04-1029-59M.COL___269                                                 6
 STAT SP IPHASW D HRMM SECON CODA AMPLIT PERI AZIMU VELO AIN AR TRES W  DIS CAZ7
 BAR2 SZ EP       1035 36.84                             170   -0.0910 25.0 195 
 BAR2 SZ ES       1035 52.76                             170   -0.2810 25.0 195 
 BAR2 SZ I        1035 53.83        12.3 0.26            170           25.0 195 
 GIR2 SZ EP       1035 37.17                             168    0.2510 30.7 345 
 GIR2 SZ ES       1035 52.73                             168   -0.2810 30.7 345 
 GIR2 SZ I        1035 55.39         9.2 0.28            166           30.7 345 
 BRR  HZ EP     C 1035 38.79                             153    0.3710 72.9 297 
 BRR  HE ES       1035 56.52                             153    0.8410 72.9 297 
 BRR  HZ I        1036  1.85        11.8 0.18            151           72.9 297 
 PTB  HZ EP       1035 43.76                             133   -0.41 9  150 259 
 PTB  HN ES       1036  4.98                             133   -0.94 9  150 259 
 PTB  HZ I        1036  6.96        15.4 0.12            133            150 259 
 SPBC HZ EP       1035 45.82                             130    0.17 9  166 219 
 SPBC HN ES       1036  8.65                             130    0.09 9  166 219 
 SPBC HZ I        1036 13.65        14.8 0.12            131            166 219 
 ZAR  HZ EP       1035 49.52                             124    0.05 8  206 292 
 ZAR  HN ES       1036 16.04                             124    0.69 8  206 292 
 ZAR  HZ I        1036 21.67        11.6 0.46            124            206 292 
 NOR  HE ES       1036 21.33                             120    0.07 8  237 235 
 SML  HZ EP       1035 53.66                             119    0.28 8  244 335 
 SML  HN ES       1036 21.57                             119   -0.75 8  244 335 
 SML  HZ I        1036 32.90        10.7 0.10            119            244 335 
 CHI  HZ EP       1035 55.23                             119    0.59 8  250 196 
 CHI  HN ES       1036 24.13                             119   -0.43 8  250 196 
 CHI  HZ I        1036 30.54         4.0 0.48            120            250 196 
 HEL  HN ES   2   1036 29.39                             116    0.23 4  275 256 
 PRA  HZ EP   1   1036 10.53                             108    0.17 4  394 210 
 SJC  HZ EP       1036 11.19                             107   -0.98 6  410 327 
                                                                                
