 2013  3 4 1714 54.0 L   6.687 -73.226149.2  RSN  4 0.3 1.9LRSN                1
 GAP=204        0.85       6.7     6.3  6.9  0.2004E+02  0.5701E+01  0.2417E+01E
 Epicentro: BARICHARA - SANTANDER                                              3
 ACTION:UPD 13-04-09 13:59 OP:ep   STATUS:               ID:20130304171454 L   I
 2013-03-04-1708-50M.COL___190                                                 6
 STAT SP IPHASW D HRMM SECON CODA AMPLIT PERI AZIMU VELO AIN AR TRES W  DIS CAZ7
 BAR2 SZ EP       1715 13.47                             175   -0.3710 11.5 155 
 BAR2 SZ ES       1715 29.06                             175   -0.2810 11.5 155 
 BAR2 SZ I        1715 30.02        11.4 0.44            177           11.5 155 
 BRR  HZ EP       1715 15.57                             153    0.0810 71.1 311 
 BRR  HN ES       1715 32.60                             153    0.3310 71.1 311 
 BRR  HN I        1715 36.12        21.9 0.20            153           71.1 311 
 RUS  HZ EP       1715 17.86                             148    0.5710 89.2 170 
 RUS  HN ES       1715 35.47                             148   -0.0110 89.2 170 
 RUS  HE I        1715 36.80        12.5 0.52            151           89.2 170 
 PTB  HZ EP       1715 19.89                             135   -0.39 9  137 263 
 PTB  HN ES       1715 40.84                             135    0.04 9  137 263 
                                                                                
