 2012 12 4 1007 27.1 L   6.772 -73.172136.8  RSN  5 0.3 1.6LRSN                1
 GAP=134        0.70       3.1     3.8  5.9 -0.1381E+01  0.7524E+01 -0.3960E+01E
 Epicentro: LOS SANTOS - SANTANDER                                             3
 ACTION:UPD 13-01-04 14:25 OP:ep   STATUS:               ID:20121204100727 L   I
 2012-12-04-1000-00M.COL___232                                                 6
 STAT SP IPHASW D HRMM SECON CODA AMPLIT PERI AZIMU VELO AIN AR TRES W  DIS CAZ7
 BAR2 SZ EP       10 7 45.73                             171    0.1010 19.9 183 
 BAR2 SZ I        10 7 45.88        11.7 0.40                          19.9 183 
 BAR2 SZ ES       10 7 59.73                             171   -0.3210 19.9 183 
 PAM  SZ EP       10 7 48.67                             148   -0.0110 81.7  40 
 PAM  SN ES       10 8  5.40                             148   -0.0910 81.7  40 
 PAM  SN I        10 8  6.42         5.5 0.46                          81.7  40 
 RUS  HZ EP       10 7 49.81                             143    0.0010 97.7 174 
 RUS  HN ES       10 8  7.88                             143    0.3910 97.7 174 
 RUS  HN I        10 8  9.00         4.1 0.50                          97.7 174 
 PTB  HZ EP       10 7 52.58                             131   -0.49 9  144 260 
 PTB  HN ES       10 8 13.42                             131    0.13 9  144 260 
 PTB  HN I        10 8 18.56         6.4 0.40                           144 260 
 SML  HN ES       10 8 32.16                             115    0.38 8  245 336 
 SML  HE I        10 8 34.65         7.6 0.10                           245 336 
                                                                                
