 2012  5 4 1135 23.9 L   6.774 -73.166145.8  RSN  5 0.3 1.4LRSN                1
 GAP=135        0.85       5.9     5.6  9.4 -0.4936E+01  0.1397E+01  0.3495E+01E
 Epicentro: LOS SANTOS - SANTANDER                                             3
 ACTION:UP  12-07-05 12:02 OP:pat  STATUS:               ID:20120504113523 L   I
 2012-05-04-1130-00M.COL___189                                                 6
 STAT SP IPHASW D HRMM SECON CODA AMPLIT PERI AZIMU VELO SNR AR TRES W  DIS CAZ7
 BAR2 SZ EP   1   1135 43.54                             172     0.1 7   20 185 
 BAR2 SZ I        1135 43.88         5.5 0.06                            20 185 
 BRR  HZ EP       1135 45.31                             153     0.310   71 301 
 BRR  HE ES   1   1136  1.99                             153     0.5 7   71 301 
 BRR  HZ I        1136  5.63         7.1 0.12                            71 301 
 PAM  SZ EP       1135 46.47                             150     0.110   81  39 
 PAM  SN ES   1   1136  3.26                             150    -0.6 7   81  39 
 RUS  HZ EP   1   1135 47.38                             144    -0.1 7   98 175 
 RUS  HN ES   1   1136  6.02                             144     0.2 7   98 175 
 RUS  HZ I        1136  7.69         3.4 0.34                            98 175 
 PTB  HZ EP   1   1135 50.35                             132    -0.3 7  145 260 
 PTB  HN ES   1   1136 10.96                             132    -0.5 7  145 260 
 PTB  HZ I        1136 18.37         1.9 0.36                           145 260 
                                                                                
