 2012  6 4 1828  3.1 L   6.800 -73.157136.2  RSN 10 0.4 2.2LRSN                1
 GAP=135        0.76       3.0     3.9  6.1 -0.1662E+01  0.9025E+01  0.1645E+01E
 Epicentro: LOS SANTOS - SANTANDER                                             3
 ACTION:UPD 12-08-06 17:47 OP:ep   STATUS:               ID:20120604182802 L   I
 2012-06-04-1820-00M.COL___201                                                 6
 STAT SP IPHASW D HRMM SECON CODA AMPLIT PERI AZIMU VELO AIN AR TRES W  DIS CAZ7
 BAR2 SZ IP       1828 21.84                             170    0.2510 23.1 187 
 BAR2 SZ I        1828 22.18        54.6 0.12            168           23.1 187 
 BAR2 SZ ES   1   1828 36.31                             170    0.30 7 23.1 187 
 PAM  SZ EP   1   1828 24.80                             149    0.42 7 78.2  40 
 PAM  SN ES   1   1828 40.65                             149   -0.31 7 78.2  40 
 PAM  SZ I        1828 44.67        14.9 0.29            153           78.2  40 
 RUS  HZ EP   1   1828 25.72                             142   -0.23 7  101 175 
 RUS  HZ I        1828 26.95        20.4 0.11            144            101 175 
 RUS  HN ES   1   1828 43.87                             142    0.12 7  101 175 
 PTB  HZ EP   1   1828 28.55                             130   -0.65 7  146 259 
 PTB  HN ES   1   1828 48.72                             130   -0.83 7  146 259 
 PTB  HZ I        1828 52.44        23.1 0.11            130            146 259 
 OCA  HZ EP   1   1828 30.73                             127    0.04 7  160 354 
 OCA  HN ES   1   1828 51.69                             127   -0.50 7  160 354 
 ZAR  HZ EP   1   1828 35.25                             120    0.42 6  203 292 
 ZAR  HN ES   1   1829  0.31                             120    0.74 6  203 292 
 ZAR  HZ I        1829  6.69        27.4 0.32            121            203 292 
 NOR  SZ EP   1   1828 38.38                             116    0.19 6  234 234 
 NOR  SN ES   1   1829  5.76                             116    0.21 6  234 234 
 NOR  SZ I        1829 12.10         1.4 0.20            118            234 234 
 CHI  HZ EP   1   1828 39.93                             115   -0.33 6  248 195 
 CHI  HN ES   1   1829  9.55                             115    0.31 6  248 195 
 CHI  HZ I        1829 12.45         7.8 0.28            117            248 195 
 HEL  HE ES   1   1829 13.69                             113    0.09 6  271 256 
 PRA  HZ EP   1   1828 56.21                             105   -0.03 4  391 209 
 PRA  HN ES   1   1829 37.07                             105   -0.61 4  391 209 
 PRA  HZ I        1829 45.39        28.2 0.22            106            391 209 
                                                                                
