 2010  9 4 1004  5.7 L   6.806 -73.454  2.6  RSN  4 0.3 0.9LRSN                1
 GAP=191        0.54       2.9     2.2  5.2  0.3469E+01 -0.2999E+01 -0.5834E+01E
 Epicentro: SAN VICENTE DE CHUCURI - SANTANDER                                 3
 ACTION:UP  11-02-18 11:00 OP:tino STATUS:               ID:20100904100405 L   I
 2010-09-04-1001-29S.COL___120                                                 6
 STAT SP IPHASW D HRMM SECON CODA AMPLIT PERI AZIMU VELO SNR AR TRES W  DIS CAZ7
 BTL  SZ IP       10 4 10.52                              47     0.110   24  59 
 BTL  SZ ES   1   10 4 13.79                              47    -0.3 7   24  59 
 BAR2 SZ EP   1   10 4 12.68                              47     0.2 7   38 128 
 BAR2 SZ I        10 4 16.10         6.3 0.52                            38 128 
 BAR2 SZ ES   2   10 4 17.80                              47     0.0 5   38 128 
 BRR  HZ IP     D 10 4 13.11                              47     0.010   44 319 
 BRR  HE ES   1   10 4 18.94                              47     0.0 7   44 319 
 BRR  HZ I        10 4 19.55         7.9 0.18                            44 319 
 OCA  SZ EP   2   10 4 30.23                              47    -0.6 5  159   5 
 OCA  SZ ES   2   10 4 50.87                              47     0.5 5  159   5 
 OCA  SZ I        10 4 52.37         3.4 0.29                           159   5 
                                                                                
