 2011  6 4 1849 56.5 L   6.530 -73.527113.6  RSN 13 0.4 2.7LRSN                1
 GAP= 82        0.98       3.5     4.4  5.9 -0.6162E+01  0.8720E+01  0.1293E+01E
 Epicentro: EL CARMEN DE CHUCURI - SANTANDER                                   3
 ACTION:UP  11-07-14 19:03 OP:ep   STATUS:               ID:20110604184956 L   I
 2011-06-04-1848-04S.COL___132                                                 6
 STAT SP IPHASW D HRMM SECON CODA AMPLIT PERI AZIMU VELO SNR AR TRES W  DIS CAZ7
 BAR2 SZ IP       1850 13.11                             160     0.310   39  80 
 BAR2 SZ ES   1   1850 25.30                             160    -0.2 7   39  80 
 BAR2 SZ I        1850 27.00      1371.5 0.48                            39  80 
 BRR  HZ EP       1850 13.92                             147    -0.110   67 342 
 BRR  HN ES   1   1850 28.16                             147     0.5 7   67 342 
 BRR  HZ I        1850 29.12       172.4 0.16                            67 342 
 GIR2 SZ EP       1850 14.68                             146     0.210   71  31 
 GIR2 SZ ES       1850 28.87                             146     0.410   71  31 
 RUS  HZ EP       1850 16.03                             141    -0.110   86 145 
 RUS  HN ES   1   1850 30.89                             141    -0.4 7   86 145 
 RUS  HZ I        1850 33.21        64.0 0.26                            86 145 
 PAM  SZ EP       1850 19.61                             128    -0.110  128  46 
 PAM  SZ I        1850 21.50        38.0 0.13                           128  46 
 PAM  SN ES   1   1850 37.67                             128    -0.2 7  128  46 
 BRI  SZ EP       1850 22.11                             122     0.2 9  154  32 
 BRI  SZ I        1850 50.64        61.6 0.45                           154  32 
 GRA  SZ EP       1850 23.47                             119    -0.1 9  170  28 
 GRA  SZ I        1850 25.06        73.4 0.21                           170  28 
 NOR  SZ EP       1850 24.62                             117    -0.2 9  183 234 
 NOR  SN ES   1   1850 46.23                             117    -0.7 7  183 234 
 NOR  SZ I        1850 50.65        14.6 0.35                           183 234 
 OCA  SZ EP       1850 25.18                             116    -0.6 9  190   7 
 OCA  SZ ES   1   1850 48.41                             116    -0.2 7  190   7 
 OCA  SZ I        1850 54.62        98.2 0.38                           190   7 
 CHI  HZ EP   1   1850 28.79                             114     0.3 6  211 186 
 CHI  HZ I        1850 59.17        28.1 0.38                           211 186 
 HEL  HZ EP   1   1850 30.22                             112     0.3 6  225 261 
 HEL  HE ES   1   1850 55.61                             112    -0.3 6  225 261 
 HEL  HZ I        1850 57.77        35.2 0.29                           225 261 
 TOL  SZ EP       1850 38.63                             106     0.9 7  293 223 
 PRA  HZ EP       1850 43.70                             103     0.1 6  346 206 
 PRA  HZ I        1851 24.66       119.1 0.29                           346 206 
                                                                                
