 2017  6 4 1531 59.3 L   6.895 -73.078147.4  RSN 18 0.8 2.4LRSN                1
 GAP=152        1.63       4.6     5.8  9.2  0.4214E+01 -0.4642E+00 -0.7450E+01E
 Epicentro: PIEDECUESTA - SANTANDER                                            3
 ACTION:UPD 17-09-14 16:49 OP:jn   STATUS:               ID:20170604153159 L   I
 OLDACT:UP  17-06-05 01:00 OP:ar   STATUS:               ID:20170604152743     3
 OLDACT:UP  17-06-05 00:57 OP:ar   STATUS:               ID:20170604152743     3
 OLDACT:UP  17-06-05 00:54 OP:ar   STATUS:               ID:20170604152743     3
 OLDACT:REG 17-06-04 22:10 OP:ar   STATUS:               ID:20170604152743     3
 2017-06-04-1528-00M.COL___347                                                 6
 STAT SP IPHASW D HRMM SECON CODA AMPLIT PERI AZIMU VELO AIN AR TRES W  DIS CAZ7
 BRR  HZ EP       1532 21.56                             152    0.7910 73.9 289 
 BRR  HN ES       1532 38.76                             152    1.2410 73.9 289 
 BRR  HZ I        1532 41.76        41.0 0.26            150           73.9 289 
 RUS  HZ EP       1532 23.65                             142   -0.3110  111 180 
 RUS  HE ES       1532 42.52                             142   -0.6810  111 180 
 RUS  HZ I        1532 43.75        35.1 0.42            142            111 180 
 PTB  HZ EP       1532 26.57                             131   -0.71 9  157 256 
 PTB  HN ES       1532 47.71                             131   -1.39 9  157 256 
 PTB  HZ I        1532 49.37        22.2 0.38            130            157 256 
 SPBC HZ EP       1532 28.62                             127   -0.53 9  176 219 
 SPBC HN ES       1532 51.37                             127   -1.07 9  176 219 
 SPBC HZ I        1532 55.02        62.3 0.36            127            176 219 
 YPLC HZ EP       1532 29.95                             126    0.15 9  183 155 
 YPLC HN ES       1532 53.86                             126    0.28 9  183 155 
 YPLC HZ I        1532 57.59        13.3 0.42            128            183 155 
 ZAR  HZ EP       1532 32.27                             122    0.08 8  207 289 
 ZAR  HN ES       1532 58.15                             122    0.30 8  207 289 
 ZAR  HZ I        1533  4.38        16.3 0.34            122            207 289 
 TABC EZ EP       1532 37.46                             118    0.95 8  243 211 
 TABC EZ ES       1533  6.34                             118    0.80 8  243 211 
 TABC EZ I        1533 10.67        25.2 0.34            119            243 211 
 NOR  HZ EP       1532 35.86                             118   -0.57 8  247 233 
 NOR  HN ES       1533  4.52                             118   -0.88 8  247 233 
 NOR  HZ I        1533  7.11        13.4 0.16            118            247 233 
 ROSC BZ EP       1532 40.03                             116    1.12 8  266 211 
 ROSC BN ES       1533 10.49                             116    0.69 8  266 211 
 ROSC BZ I        1533 17.15        28.2 0.40            116            266 211 
 HEL  HZ EP   4   1532 42.69                             114    2.00 0  282 254 
 HEL  HE ES       1533 13.94                             114    0.96 7  282 254 
 HEL  HZ I        1533 18.68        11.5 0.24            114            282 254 
 URE  HZ EP       1532 40.36                             114   -0.45 7  287 289 
 URE  HE ES   4   1533 11.50                             114   -1.70 0  287 289 
 URE  HZ I        1533 21.88        13.0 0.28            114            287 289 
 PTGC HZ EP   9   1532 42.69                             111   -1.35 0  316 161 
 PTGC HE ES       1533 16.66                             111   -0.93 7  316 161 
 PTGC HZ I        1533 18.22        13.2 0.64            113            316 161 
 ELA  HZ EP   9   1532 49.67                             110    2.02 0  342 229 
 ELA  HE ES       1533 27.29                             109   -0.09 7  342 229 
 ELA  HZ I        1533 30.66        10.2 0.38            110            342 229 
 CBOC HZ EP       1532 48.34                             110    0.87 7  344 251 
 CBOC HN ES       1533 24.83                             110   -0.22 7  344 251 
 CBOC HZ I        1533 31.58         7.9 0.16            110            344 251 
 ANIL HN ES       1533 31.69                             108    1.01 6  370 224 
 SJC  HZ EP       1532 53.92                             106   -0.46 6  405 325 
 SJC  HE ES       1533 36.90                             106   -0.45 6  405 325 
 SJC  HZ I        1533 42.15         4.3 0.28            107            405 325 
 ORTC HZ EP       1532 54.08                             106   -0.70 6  408 216 
 ORTC HE ES       1533 37.41                             106   -0.64 6  408 216 
 ORTC HZ I        1533 40.65         5.6 0.32            107            408 216 
 CRJC HZ EP       1533  0.07                             104   -0.48 5  457   3 
 CRJC HE ES       1533 48.39                             104    0.06 5  457   3 
                                                                                
