 2013  3 4 1140 58.5 L   6.787 -73.160147.1  RSN  8 0.4 2.0LRSN                1
 GAP=135        0.90       3.0     4.1  5.7  0.1644E+01  0.3255E+01  0.9044E+00E
 Epicentro: LOS SANTOS - SANTANDER                                             3
 ACTION:UPD 13-04-09 13:59 OP:ep   STATUS:               ID:20130304114058 L   I
 2013-03-04-1138-48M.COL___193                                                 6
 STAT SP IPHASW D HRMM SECON CODA AMPLIT PERI AZIMU VELO AIN AR TRES W  DIS CAZ7
 BAR2 SZ EP       1141 18.48                             171    0.2010 21.6 187 
 BAR2 SZ ES       1141 33.61                             171   -0.0810 21.6 187 
 BAR2 SZ I        1141 38.78        11.9 0.64            172           21.6 187 
 BRR  HZ EP       1141 20.13                             153    0.3510 70.6 300 
 BRR  HN ES       1141 37.18                             153    0.8210 70.6 300 
 BRR  HN I        1141 38.19        32.4 0.28            153           70.6 300 
 PAM  SZ EP       1141 21.08                             150    0.0710 79.5  40 
 PAM  SN ES       1141 38.01                             150   -0.5410 79.5  40 
 PAM  SN I        1141 39.59        15.0 0.46            153           79.5  40 
 RUS  HZ EP       1141 22.48                             144    0.1710 99.2 175 
 RUS  HE ES       1141 40.72                             144   -0.1410 99.2 175 
 PTB  HN ES       1141 46.00                             133   -0.43 9  146 259 
 ZAR  HN ES       1141 55.85                             123   -0.42 9  203 293 
 ZAR  HN I        1142  1.83        12.8 0.36            124            203 293 
 SML  HZ EP   1   1141 34.92                             118   -0.38 6  244 336 
 SML  HN ES       1142  3.99                             118    0.00 8  244 336 
 CHI  HZ EP       1141 36.13                             118    0.03 8  247 195 
 CHI  HN ES       1142  5.32                             118   -0.08 8  247 195 
                                                                                
