 2010  6 4 1125 49.0 L   6.747 -72.996142.0  RSN  5 0.2 1.9LRSN                1
 GAP=221        0.53       7.3    12.5  6.3 -0.7731E+02  0.1816E+02 -0.1115E+02E
 Epicentro: CEPITA - SANTANDER                                                 3
 ACTION:UP  10-08-24 10:08 OP:vdl  STATUS:               ID:20100604112549 L   I
 2010-06-04-1121-49S.COL___109                                                 6
 STAT SP IPHASW D HRMM SECON CODA AMPLIT PERI AZIMU VELO SNR AR TRES W  DIS CAZ7
 BAR2 SZ EP   1   1126  8.03                             169    -0.2 8   27 231 
 BAR2 SZ ES   1   1126 23.34                             169     0.1 8   27 231 
 GIR2 SZ EP   1   1126  8.56                             162     0.0 8   43 329 
 GUE  SZ EP       1126 13.43                             138    -0.210  120   4 
 GUE  SZ ES   1   1126 32.79                             138    -0.1 7  120   4 
 GRA  SZ EP   1   1126 14.54                             136     0.5 7  128  10 
 RREF BN ES   1   1127 12.73                             109     0.1 5  331 232 
 RREF BZ I        1127 16.52         3.4 0.05                           331 232 
                                                                                
