 2014 10 4 1254  3.0 L   6.749 -73.158148.8  RSN 10 0.5 2.0LRSN                1
 GAP=137        1.17       4.8     5.5  8.1  0.7585E+00  0.6556E+01  0.9184E+01E
 Epicentro: LOS SANTOS - SANTANDER                                             3
 ACTION:UPD 14-11-29 23:46 OP:nd   STATUS:               ID:20141004125403 L   I
 OLDACT:REG 14-10-04 23:47 OP:fm   STATUS:               ID:20141004124750     3
 2014-10-04-1247-50M.COL___289                                                 6
 STAT SP IPHASW D HRMM SECON CODA AMPLIT PERI AZIMU VELO AIN AR TRES W  DIS CAZ7
 BAR2 SZ EP       1254 23.19                             173    0.2710 17.5 189 
 BAR2 SZ ES   1   1254 38.37                             173   -0.06 7 17.5 189 
 BAR2 SZ I        1254 39.88        32.5 0.24            170           17.5 189 
 BRR  HZ EP   1   1254 24.78                             153    0.18 7 72.9 303 
 BRR  HN ES       1254 42.14                             153    0.7110 72.9 303 
 BRR  HZ I        1254 46.40        22.6 0.50            150           72.9 303 
 PAM  SZ EP       1254 25.93                             150    0.0510 82.7  38 
 PAM  SN ES       1254 43.18                             150   -0.5310 82.7  38 
 PAM  SZ I        1254 45.39        10.1 0.66            153           82.7  38 
 RUS  HZ EP       1254 26.08                             146   -0.6110 95.0 175 
 RUS  HN ES       1254 45.55                             146    0.4010 95.0 175 
 RUS  HZ I        1254 47.05        17.6 0.28            146           95.0 175 
 PTB  HZ EP   1   1254 29.25                             133   -0.79 7  145 261 
 PTB  HN ES       1254 50.34                             133   -0.76 9  145 261 
 PTB  HZ I        1254 52.92         8.1 0.10            131            145 261 
 ZAR  HZ EP   1   1254 36.53                             123    0.76 6  205 294 
 ZAR  HN ES   1   1255  1.39                             123    0.08 6  205 294 
 ZAR  HZ I        1255  6.63        11.0 0.40            122            205 294 
 CHI  HZ EP       1254 40.70                             118    0.43 8  243 195 
 CHI  HN ES       1255  9.43                             118    0.12 8  243 195 
 CHI  HZ I        1255 16.13         4.3 0.40            118            243 195 
 SML  HZ EP   4   1254 38.36                             118   -1.96 0  248 336 
 SML  HN ES   4   1255  7.88                             118   -1.53 0  248 336 
 SML  HZ I        1255 12.15        15.7 0.26            118            248 336 
 GUY2CHZ EP   4   1254 48.37                             113    2.08 0  297 236 
 GUY2CHN ES   4   1255 18.98                             113   -1.05 0  297 236 
 GUY2CHZ I        1255 29.32         3.5 0.28                           297 236 
 TOL  SZ EP   4   1254 52.43                             110    1.59 0  339 225 
 TOL  SN ES   4   1255 30.89                             110    2.76 0  339 225 
 TOL  SZ I        1255 37.86        10.9 0.28            110            339 225 
                                                                                
