 2012  1 4 1247 22.6 L   6.769 -73.157147.5  RSN  8 0.4 2.1LRSN                1
 GAP=137        0.84       5.3     5.0  8.2 -0.1718E+01  0.9162E+01 -0.2024E+00E
 Epicentro: LOS SANTOS - SANTANDER                                             3
 ACTION:UP  12-02-03 08:14 OP:REBC STATUS:               ID:20120104124722 L   I
 2012-01-04-1240-00M.COL___183                                                 6
 STAT SP IPHASW D HRMM SECON CODA AMPLIT PERI AZIMU VELO SNR AR TRES W  DIS CAZ7
 BAR2 SZ EP       1247 42.48                             172     0.110   20 188 
 BAR2 SZ ES   2   1247 57.04                             172    -0.8 5   20 188 
 BAR2 SZ I        1247 59.23        21.2 0.34                            20 188 
 BRR  HZ EP       1247 44.37                             153     0.310   72 301 
 BRR  HZ I        1247 44.64        50.4 0.22                            72 301 
 BRR  HN ES   2   1248  1.80                             153     1.1 5   72 301 
 PAM  SZ EP       1247 45.31                             150     0.110   81  39 
 PAM  SN ES   1   1248  2.59                             150    -0.3 7   81  39 
 RUS  HZ EP       1247 46.40                             145     0.110   97 175 
 RUS  HN ES   1   1248  4.92                             145     0.1 7   97 175 
 PTB  HZ EP       1247 49.02                             133    -0.6 9  146 260 
 PTB  HN ES   1   1248 10.85                             133     0.2 7  146 260 
 PTB  HZ I        1248 12.18         7.3 0.21                           146 260 
 ZAR  HZ EP   2   1247 55.43                             123     0.2 4  204 293 
 ZAR  HN ES   2   1248 19.87                             123    -0.8 4  204 293 
 ZAR  HZ I        1248 27.47        12.2 0.26                           204 293 
 NOR  SN ES   3   1248 25.52                             119    -0.3 2  232 235 
 CHI  HZ EP   3   1248  0.19                             118     0.1 2  245 195 
 CHI  HN ES   3   1248 29.64                             118     0.4 2  245 195 
                                                                                
