 2015 10 4 1608 58.7 L   6.749 -73.113144.8  RSN 11 0.5 2.1LRSN                1
 GAP=111        1.06       3.6     5.4  6.8  0.1280E+01  0.2868E+01 -0.3920E+01E
 Epicentro: LOS SANTOS - SANTANDER                                             3
 ACTION:UPD 15-12-22 20:37 OP:cam  STATUS:               ID:20151004160858 L   I
 OLDACT:REG 15-10-04 21:18 OP:ar   STATUS:               ID:20151004160749     3
 2015-10-04-1607-49M.COL___355                                                 6
 STAT SP IPHASW D HRMM SECON CODA AMPLIT PERI AZIMU VELO AIN AR TRES W  DIS CAZ7
 BAR2 EZ EP     D 16 9 17.91                             172   -0.1710 19.0 204 
 BAR2 EZ ES       16 9 33.51                             172    0.2710 19.0 204 
 BAR2 EZ I        16 9 34.00        26.0 0.18            169           19.0 204 
 BRR  HZ EP       16 9 20.08                             150    0.0410 77.2 301 
 BRR  HN ES       16 9 37.29                             150    0.5610 77.2 301 
 BRR  HZ I        16 9 37.59        25.2 0.16            150           77.2 301 
 RUS  HZ EP   2   16 9 21.83                             145   -0.06 5 94.8 178 
 RUS  HN ES   2   16 9 40.63                             145    0.61 5 94.8 178 
 RUS  HZ I        16 9 41.48         9.6 0.40            143           94.8 178 
 TAM  HZ EP   2   16 9 26.22                             131    0.42 5  150 103 
 TAM  HN ES   2   16 9 46.71                             131   -0.26 5  150 103 
 TAM  HZ I        16 9 48.42        12.7 0.54            131            150 103 
 SPBC HZ EP       16 9 26.73                             129   -0.16 9  161 221 
 SPBC HN ES       16 9 48.32                             129   -0.59 9  161 221 
 SPBC HZ I        16 9 50.95        19.6 0.22            127            161 221 
 OCA  HZ EP       16 9 26.83                             128   -0.63 9  166 352 
 OCA  HN ES       16 9 49.39                             128   -0.54 9  166 352 
 OCA  HZ I        16 9 51.79        28.6 0.50            128            166 352 
 ZAR  HZ EP       16 9 32.55                             121    0.94 8  210 293 
 ZAR  HE ES       16 9 56.76                             121   -0.56 8  210 293 
 ZAR  HZ I        1610  2.54        15.0 0.28            121            210 293 
 CHI  HZ EP   2   16 9 36.12                             117    0.31 4  244 196 
 CHI  HN ES   2   1610  4.36                             117   -0.44 4  244 196 
 CHI  HZ I        1610 15.08         6.3 0.82            116            244 196 
 SML  HZ EP       16 9 36.84                             117    0.89 8  250 335 
 SML  HN ES       1610  4.85                             117   -0.19 8  250 335 
 SML  HZ I        1610  6.82        11.7 0.24            116            250 335 
 HEL  HZ EP   4   16 9 40.43                             114    1.37 0  274 257 
 HEL  HE ES   2   1610 10.86                             114    0.28 4  274 257 
 URE  HZ EP   4   16 9 38.80                             113   -1.49 0  289 293 
 URE  HN ES   4   1610 10.59                             113   -2.18 0  289 293 
 URE  HZ I        1610 11.87         7.1 0.14            112            289 293 
                                                                                
