 2010  7 4 1326 33.3 L   6.809 -73.079135.7  RSN  4 0.1 1.5LRSN                1
 GAP=163        0.39       6.4    13.0  6.8  0.6254E+02 -0.1154E+02 -0.1178E+02E
 Epicentro: LOS SANTOS - SANTANDER                                             3
 ACTION:UPD 10-12-01 15:15 OP:pat  STATUS:               ID:20100704132633 L   I
 2010-07-04-1325-02S.COL___118                                                 6
 STAT SP IPHASW D HRMM SECON CODA AMPLIT PERI AZIMU VELO AIN AR TRES W  DIS CAZ7
 BAR2 SZ EP       1326 51.91                             168     0.110   27 206 
 BAR2 SZ ES   2   1327  6.04                             168    -0.2 5   27 206 
 BRR  HZ EP       1326 53.81                             148     0.010   77 295 
 BRR  HZ I        1326 54.30        10.3 0.13                            77 295 
 RUS  HZ EP       1326 56.07                             141    -0.110  101 180 
 RUS  HE ES   2   1327 14.26                             141     0.3 5  101 180 
 RUS  HZ I        1327 15.42         2.9 0.16                           101 180 
 BRI  SZ EP   3   1326 56.21                             140     0.2 2  105  17 
                                                                                
