 2014  1 4 1013 56.6 L   6.308 -74.109 32.1  RSN  4 0.4 0.9LRSN                1
 GAP=168        0.88       5.1     3.9 15.5  0.1161E+02  0.2476E+02  0.8482E+01E
 Epicentro: CIMITARRA - SANTANDER                                              3
 ACTION:UPD 14-03-13 09:51 OP:ep   STATUS:               ID:20140104101356 L   I
 OLDACT:UP  14-01-04 16:37 OP:mh   STATUS:               ID:20140104101000     3
 OLDACT:UP  14-01-04 16:35 OP:mh   STATUS:               ID:20140104101000     3
 OLDACT:UP  14-01-04 16:35 OP:mh   STATUS:               ID:20140104101000     3
 OLDACT:REG 14-01-04 14:48 OP:mh   STATUS:               ID:20140104101000     3
 2014-01-04-1010-00M.COL___285                                                 6
 STAT SP IPHASW D HRMM SECON CODA AMPLIT PERI AZIMU VELO AIN AR TRES W  DIS CAZ7
 PTB  HZ EP       1014  4.97                              61   -0.3110 46.2 304 
 PTB  HN ES       1014 11.99                              61   -0.0610 46.2 304 
 PTB  HZ I        1014 12.72        12.8 0.08            116           46.2 304 
 SPBC HZ EP   1   1014  9.04                              61    0.37 7 72.6 177 
 SPBC HN ES   2   1014 17.80                              61   -0.30 5 72.6 177 
 SPBC HZ I        1014 18.88         2.4 0.09            103           72.6 177 
 RUS  HZ EP       1014 15.63                              61    0.2410  123 112 
 RUS  HN ES   2   1014 29.29                              61   -0.77 5  123 112 
 RUS  HZ I        1014 31.61         2.4 0.32             61            123 112 
 HEL  HZ EP       1014 20.27                              61    0.63 9  158 265 
 HEL  HN ES       1014 37.21                              61   -0.40 9  158 265 
 HEL  HZ I        1014 39.39         1.8 0.33             61            158 265 
                                                                                
