 2015  9 4 1044 17.1 L   6.832 -73.143146.2  RSN 17 0.6 2.1LRSN                1
 GAP= 70        1.30       3.1     3.7  6.0 -0.8358E+00  0.2280E+01  0.2308E+00E
 Epicentro: LOS SANTOS - SANTANDER                                             3
 ACTION:UPD 15-10-28 16:24 OP:cam  STATUS:               ID:20150904104417 L   I
 OLDACT:REG 15-09-04 20:39 OP:stll STATUS:               ID:20150904103747     3
 2015-09-04-1037-47M.COL___352                                                 6
 STAT SP IPHASW D HRMM SECON CODA AMPLIT PERI AZIMU VELO AIN AR TRES W  DIS CAZ7
 BAR2 EZ EP     D 1044 37.18                             169    0.2810 26.9 189 
 BAR2 EZ ES       1044 52.00                             169   -0.3110 26.9 189 
 BAR2 EZ I        1044 54.93        33.4 0.24            169           26.9 189 
 BRR  HZ IP     C 1044 39.00                             153    0.7410 69.8 296 
 BRR  HE ES       1044 55.67                             153    0.9410 69.8 296 
 BRR  HZ I        1044 59.95        25.1 0.28            149           69.8 296 
 RUS  HZ EP       1044 41.32                             143    0.1210  104 176 
 RUS  HZ I        1044 42.19         8.1 0.10            144            104 176 
 RUS  HN ES       1044 59.29                             143   -0.6710  104 176 
 PTB  HZ EP       1044 43.85                             132   -0.39 9  149 258 
 PTB  HZ I        1045 11.93        10.2 0.22            130            149 258 
 CPBEREZ EP       1044 43.93                             132   -0.31 9  149 258 
 PTB  HN ES       1045  4.30                             132   -1.07 9  149 258 
 TAM  HZ EP       1044 45.62                             130    0.70 9  156 106 
 TAM  HN ES       1045  6.60                             130    0.01 9  156 106 
 OCA  HZ EP       1044 45.30                             130    0.14 9  157 353 
 OCA  HN ES       1045  7.31                             130    0.30 9  157 353 
 OCA  HZ I        1045 15.62        26.0 0.22            130            157 353 
 SPBC HZ EP       1044 46.14                             129    0.18 9  166 218 
 SPBC HE ES       1045  8.26                             129   -0.17 9  166 218 
 SPBC HZ I        1045 12.73        22.0 0.32            128            166 218 
 ZAR  HZ EP       1044 49.58                             123    0.07 9  203 291 
 ZAR  HN ES       1045 14.64                             123   -0.11 9  203 291 
 ZAR  HZ I        1045 20.20        14.3 0.26            121            203 291 
 NOR  HZ EP       1044 52.76                             118   -0.39 8  237 234 
 NOR  HN ES       1045 20.77                             118   -0.46 8  237 234 
 NOR  HZ I        1045 28.00         7.7 0.20            118            237 234 
 SML  HZ EP       1044 53.47                             118    0.01 8  241 335 
 SML  HN ES       1045 21.21                             118   -0.57 8  241 335 
 SML  HZ I        1045 24.03        15.9 0.38            117            241 335 
 CHI  HZ EP       1044 55.47                             117    0.22 8  252 195 
 CHI  HN ES       1045 24.82                             117   -0.15 8  252 195 
 CHI  HZ I        1045 28.17         8.3 0.60            117            252 195 
 SOCV BZ EP     C 1044 58.88                             112   -1.09 7  299  57 
 GUY2CHZ EP       1045  1.76                             112    0.73 7  303 234 
 GUY2CHN ES       1045 36.91                             112    1.65 7  303 234 
 GUY2CHZ I        1045 43.36         6.1 0.58                           303 234 
 PTGC HZ IP   4 D 1045  0.37                             111   -1.02 0  312 159 
 TOL  SZ EP       1045  5.79                             109    0.06 6  346 224 
 TOL  SN ES       1045 43.91                             109    0.28 6  346 224 
 TOL  SZ I        1045 50.75         4.5 0.26            109            346 224 
 PRA  HZ EP       1045 10.92                             106   -0.14 6  395 209 
 PRA  HN ES       1045 52.87                             106   -0.24 6  395 209 
 PRA  HZ I        1045 57.26         7.1 0.52            106            395 209 
 SJC  HZ IP     C 1045 11.37                             106   -1.02 6  406 327 
 SJC  HE ES   4   1045 52.60                             106   -2.88 0  406 327 
                                                                                
