 2015  5 4 1935 14.0 L   5.961 -73.779102.0  RSN  5 0.3 1.5LRSN                1
 GAP=150        0.83       4.2     3.3  9.8 -0.5378E+01  0.1899E+02 -0.4688E+01E
 Epicentro: BOLIVAR - SANTANDER                                                3
 ACTION:UPD 15-09-10 22:01 OP:cam  STATUS:               ID:20150504193514 L   I
 OLDACT:REG 15-05-04 22:34 OP:stll STATUS:               ID:20150504192747     3
 2015-05-04-1927-47M.COL___274                                                 6
 STAT SP IPHASW D HRMM SECON CODA AMPLIT PERI AZIMU VELO AIN AR TRES W  DIS CAZ7
 RUS  HZ EP       1935 31.40                             140   -0.4010 77.4  96 
 RUS  HN ES       1935 45.61                             140   -0.0810 77.4  96 
 RUS  HZ I        1935 46.83         4.7 0.36            145           77.4  96 
 BAR2 EZ EP       1935 33.03                             133    0.0210 96.1  43 
 BAR2 EZ ES       1935 48.30                             133    0.4610 96.1  43 
 BAR2 EZ I        1935 50.17        24.8 0.40            137           96.1  43 
 NOR  HZ EP       1935 35.55                             124   -0.3210  128 250 
 NOR  HN ES       1935 52.79                             124   -0.1310  128 250 
 NOR  HZ I        1935 54.59        11.6 0.20            128            128 250 
 GUY2CHZ EP       1935 44.00                             113    0.56 9  194 245 
 GUY2CHE ES       1936  6.71                             113    0.30 9  194 245 
 GUY2CHZ I        1936 14.21         1.7 0.42                           194 245 
 ZAR  HN ES       1936  7.77                             111   -0.31 8  207 325 
 ZAR  HZ I        1936  8.48         3.3 0.24            114            207 325 
                                                                                
