 2013  9 4 1111 47.6 L   6.776 -73.124144.5  RSN  7 0.3 1.8LRSN                1
 GAP=140        0.72       3.4     3.7  5.8  0.1522E+01  0.5327E+01 -0.2946E+01E
 Epicentro: LOS SANTOS - SANTANDER                                             3
 ACTION:UPD 13-10-22 09:20 OP:ep   STATUS:               ID:20130904111147 L   I
 OLDACT:REG 13-09-04 14:32 OP:mh   STATUS:               ID:20130904110959     3
 2013-09-04-1109-59M.COL___269                                                 6
 STAT SP IPHASW D HRMM SECON CODA AMPLIT PERI AZIMU VELO AIN AR TRES W  DIS CAZ7
 BAR2 SZ EP   1   1112  7.14                             171    0.10 7 21.3 198 
 BAR2 SZ ES   1   1112 21.73                             171   -0.47 7 21.3 198 
 BAR2 SZ I        1112 23.00        15.3 0.18            173           21.3 198 
 BRR  HZ EP   1   1112  9.05                             151    0.24 7 74.6 299 
 BRR  HN ES       1112 25.68                             151    0.3210 74.6 299 
 BRR  HZ I        1112 26.04        13.6 0.34            149           74.6 299 
 PAM  SZ EP   1   1112  9.94                             150    0.23 7 78.0  37 
 PAM  SN ES       1112 26.66                             150   -0.3110 78.0  37 
 PAM  SZ I        1112 28.72        13.8 0.44            149           78.0  37 
 RUS  HZ EP   1   1112 11.26                             144    0.24 7 97.7 177 
 RUS  HN ES       1112 29.46                             144    0.1710 97.7 177 
 RUS  HZ I        1112 31.34         3.7 0.42            146           97.7 177 
 PTB  HZ EP   1   1112 14.28                             131   -0.35 7  150 260 
 PTB  HN ES   1   1112 35.29                             131   -0.44 7  150 260 
 PTB  HN I        1112 38.16         8.7 0.18            131            150 260 
 ZAR  HN ES       1112 46.00                             122    0.19 8  207 293 
 ZAR  HZ I        1112 47.51         5.4 0.26            121            207 293 
 SML  HZ EP   1   1112 23.79                             117   -0.74 6  247 335 
 SML  HN ES   1   1112 53.71                             117    0.37 6  247 335 
 SML  HZ I        1113  1.36         5.9 0.10            116            247 335 
                                                                                
