 2016  1 4 1022 44.4 L   6.827 -73.165141.3  RSN  7 0.4 1.7LRSN                1
 GAP=142        1.13       5.3     5.1  7.3 -0.5482E+01  0.1016E+02 -0.1060E+02E
 Epicentro: LOS SANTOS - SANTANDER                                             3
 ACTION:UPD 16-03-09 23:22 OP:cam  STATUS:               ID:20160104102244 L   I
 OLDACT:REG 16-01-04 20:48 OP:ar   STATUS:               ID:20160104101746     3
 2016-01-04-1017-46M.COL___323                                                 6
 STAT SP IPHASW D HRMM SECON CODA AMPLIT PERI AZIMU VELO AIN AR TRES W  DIS CAZ7
 BAR2 EZ EP       1023  3.45                             169   -0.0710 26.0 184 
 BAR2 EZ ES       1023 17.78                             169   -0.6810 26.0 184 
 BAR2 EZ I        1023 19.26        10.8 0.30            173           26.0 184 
 BRR  HZ EP       1023  5.30                             153    0.4510 67.9 297 
 BRR  HN ES       1023 21.69                             153    0.8610 67.9 297 
 PAM  EZ EP       1023  6.48                             150    0.4210 76.5  42 
 PAM  EN ES       1023 23.09                             150    0.1110 76.5  42 
 PAM  EZ I        1023 25.62        10.0 0.46            151           76.5  42 
 PTB  HZ EP       1023 10.50                             131   -0.34 9  146 258 
 PTB  HN ES       1023 31.15                             131   -0.34 9  146 258 
 PTB  HZ I        1023 34.81         4.4 0.10            132            146 258 
 OCA  HZ EP       1023 11.96                             129   -0.07 9  157 354 
 OCA  HN ES       1023 33.23                             129   -0.38 9  157 354 
 OCA  HZ I        1023 37.65         7.5 0.30            129            157 354 
 ZAR  HZ EP       1023 16.79                             122    0.58 9  201 292 
 ZAR  HE ES       1023 41.08                             122    0.04 9  201 292 
 ZAR  HZ I        1023 48.12         5.5 0.46            122            201 292 
 SML  HZ EP       1023 19.97                             117   -0.39 8  240 335 
 SML  HN ES       1023 47.92                             117   -0.50 8  240 335 
 SML  HZ I        1023 55.71         4.2 0.10            117            240 335 
                                                                                
