 2013  5 4 1321 45.1 L   6.818 -73.151145.4  RSN 17 0.5 2.9LRSN                1
 GAP= 70        0.91       3.0     3.3  4.9 -0.1314E+01  0.1736E+01  0.2375E+01E
 Epicentro: LOS SANTOS - SANTANDER                                             3
 ACTION:UPD 13-06-20 09:47 OP:ep   STATUS:               ID:20130504132145 L   I
 2013-05-04-1320-00M.COL___253                                                 6
 STAT SP IPHASW D HRMM SECON CODA AMPLIT PERI AZIMU VELO AIN AR TRES W  DIS CAZ7
 BAR2 SZ IP     C 1322  4.87                             170    0.1410 25.2 188 
 BAR2 SZ ES   1   1322 19.53                             170   -0.50 7 25.2 188 
 BAR2 SZ I        1322 21.21       166.1 0.26            168           25.2 188 
 GIR2 SZ EP     C 1322  4.90                             168    0.2210 29.3 351 
 GIR2 SZ ES   1   1322 19.48                             168   -0.47 7 29.3 351 
 GIR2 SZ I        1322 21.69        84.1 0.20            164           29.3 351 
 BRR  HZ IP     C 1322  6.66                             153    0.5210 69.8 297 
 BRR  HN ES       1322 23.41                             153    0.8710 69.8 297 
 BRR  HZ I        1322 26.07        94.0 0.32            147           69.8 297 
 PAM  SZ IP     C 1322  7.64                             151    0.4210 76.3  41 
 PAM  SN ES   1   1322 24.42                             151   -0.04 7 76.3  41 
 RUS  HZ IP     D 1322  8.81                             143   -0.1610  103 176 
 RUS  HN ES   1   1322 27.29                             143   -0.28 7  103 176 
 PTB  HZ EP   1   1322 11.43                             132   -0.60 7  148 258 
 PTB  HN ES   1   1322 32.36                             132   -0.67 7  148 258 
 PTB  HZ I        1322 35.13        70.4 0.12            128            148 258 
 TAM  HZ IP     C 1322 13.26                             130    0.40 9  156 106 
 TAM  HN ES   1   1322 34.11                             130   -0.38 7  156 106 
 TAM  HN I        1322 35.62       152.5 0.40            131            156 106 
 OCA  HZ EP   1   1322 12.89                             130   -0.31 7  158 353 
 OCA  HN ES       1322 34.65                             130   -0.46 9  158 353 
 OCA  HZ I        1322 43.23        53.2 0.24            127            158 353 
 NOR  HZ IP     D 1322 21.04                             118    0.15 8  235 234 
 NOR  HN ES       1322 48.46                             118   -0.34 8  235 234 
 NOR  HZ I        1322 58.38        46.3 0.42            116            235 234 
 SML  HZ EP   1   1322 21.57                             117    0.07 6  242 335 
 SML  HN ES   2   1322 49.20                             117   -0.68 4  242 335 
 SML  HZ I        1322 53.06        80.3 0.26            115            242 335 
 ROSC BZ EP   4   1322 24.74                             116    1.38 0  254 211 
 ROSC BN ES   4   1322 54.85                             116    1.66 0  254 211 
 ROSC BZ I        1322 59.24        98.1 0.40            115            254 211 
 HEL  HZ EP   1   1322 25.87                             115    0.57 6  272 255 
 HEL  HN ES   1   1322 57.05                             115    0.41 6  272 255 
 HEL  HZ I        1323  2.89        23.6 0.42            112            272 255 
 URE  HZ EP   4   1322 24.73                             113   -1.29 0  283 292 
 URE  HN ES   4   1322 55.30                             113   -2.63 0  283 292 
 URE  HN I        1323  7.87        74.7 0.24            111            283 292 
 VIL  SZ EP   1   1322 28.57                             112   -0.14 5  305 191 
 VIL  SN ES   2   1323  3.12                             112    0.40 4  305 191 
 VIL  SN I        1323  8.32       116.1 0.50            111            305 191 
 COD  HZ EP   1   1322 32.64                             109   -0.60 5  346 355 
 COD  HN ES   2   1323  9.73                             109   -1.05 3  346 355 
 COD  HZ I        1323 21.19        12.2 0.40            107            346 355 
 PRA  HZ EP   1   1322 38.34                             106   -0.44 4  393 209 
 PRA  HN ES   1   1323 20.32                             106   -0.33 4  393 209 
 PRA  HZ I        1323 27.07        42.2 0.34            105            393 209 
 SJC  HZ EP   4   1322 39.01                             106   -1.42 0  407 327 
 SJC  HN ES   4   1323 19.76                             106   -3.82 0  407 327 
 SJC  HN I        1323 26.19        28.5 0.38            104            407 327 
                                                                                
