 2012  4 4 1932 28.8 L   6.778 -73.157144.0  RSN  5 0.4 1.4LRSN                1
 GAP=136        0.81       6.5     6.7  8.6 -0.8787E-01  0.3331E+01  0.8924E+01E
 Epicentro: LOS SANTOS - SANTANDER                                             3
 ACTION:UPD 12-07-05 11:50 OP:tino STATUS:               ID:20120404193228 L   I
 2012-04-04-1930-00M.COL___196                                                 6
 STAT SP IPHASW D HRMM SECON CODA AMPLIT PERI AZIMU VELO AIN AR TRES W  DIS CAZ7
 BAR2 SZ ES   2   1933  2.88                             171    -0.4 5   21 188 
 BRR  HZ EP       1932 49.97                             152     0.210   71 301 
 BRR  HE ES   1   1933  6.48                             152     0.4 7   71 301 
 BRR  HZ I        1933  8.48        11.1 0.18                            71 301 
 PAM  SZ EP       1932 50.98                             150     0.010   80  39 
 PAM  SE ES   2   1933  7.61                             150    -0.7 5   80  39 
 RUS  HZ EP       1932 52.46                             144     0.310   98 175 
 RUS  HN ES   2   1933 10.27                             144    -0.2 5   98 175 
 RUS  HZ I        1933 12.52         1.7 0.20                            98 175 
 PTB  HZ EP       1932 54.93                             132    -0.5 9  146 260 
 PTB  HN ES   3   1933 16.20                             132     0.0 2  146 260 
 PTB  HZ I        1933 22.77         4.0 0.46                           146 260 
                                                                                
