 2014 11 4 1237 55.2 L   6.846 -73.240138.8  RSN  5 0.3 1.7LRSN                1
 GAP=152        0.87       4.3     4.8  6.5 -0.5739E+01  0.7359E+01  0.4313E+01E
 Epicentro: ZAPATOCA - SANTANDER                                               3
 ACTION:UPD 14-12-19 15:39 OP:nd   STATUS:               ID:20141104123755 L   I
 OLDACT:DUP 14-11-04 23:40 OP:cam  STATUS:               ID:20141104122751d    3
 OLDACT:UP  14-11-04 23:40 OP:cam  STATUS:               ID:20141104122750     3
 OLDACT:REG 14-11-04 22:20 OP:cam  STATUS:               ID:20141104122750     3
 2014-11-04-1227-50M.COL___265                                                 6
 STAT SP IPHASW D HRMM SECON CODA AMPLIT PERI AZIMU VELO AIN AR TRES W  DIS CAZ7
 BAR2 SZ EP       1238 14.16                             168    0.0610 28.8 167 
 BAR2 SZ ES       1238 29.14                             168    0.2710 28.8 167 
 BAR2 SZ I        1238 30.09         9.0 0.36            168           28.8 167 
 PAM  SZ EP     D 1238 17.17                             148    0.2910 80.9  48 
 PAM  SN ES       1238 33.64                             148   -0.1610 80.9  48 
 PAM  SZ I        1238 36.12        12.6 0.48            151           80.9  48 
 RUS  HZ EP       1238 18.29                             141   -0.4410  107 171 
 RUS  HE ES       1238 36.90                             141   -0.2110  107 171 
 RUS  HE I        1238 39.04         5.4 0.58            142            107 171 
 PTB  HZ EP       1238 21.18                             132    0.43 9  139 256 
 PTB  HN ES       1238 40.35                             132   -0.36 9  139 256 
 PTB  HZ I        1238 43.36         5.5 0.18            133            139 256 
 CHI  HZ EP       1238 32.34                             115   -0.43 8  251 193 
 CHI  HN ES       1239  2.70                             115    0.60 8  251 193 
 CHI  HN I        1239  4.69         4.8 0.36            117            251 193 
                                                                                
