 2017 12 4 1336  1.1 L   6.814 -73.184139.3  RSN 13 0.4 2.1LRSN                1
 GAP=108        1.00       2.5     3.4  5.5  0.1063E+01  0.5827E+01  0.1074E+01E
 Epicentro: ZAPATOCA - SANTANDER                                               3
 ACTION:UPD 18-01-04 13:17 OP:rebc STATUS:               ID:20171204133601 L   I
 OLDACT:REG 17-12-04 21:26 OP:lv   STATUS:               ID:20171204132741     3
 2017-12-04-1328-00M.COL___482                                                 6
 STAT SP IPHASW D HRMM SECON CODA AMPLIT PERI AZIMU VELO AIN AR TRES W  DIS CAZ7
 BAR2 EZ EP       1336 20.12                             170    0.1410 24.5 180 
 BAR2 EZ ES       1336 34.73                             170    0.0310 24.5 180 
 BAR2 EZ I        1336 36.13        23.9 0.12            168           24.5 180 
 PAM  EZ IP     C 1336 23.14                             149    0.4110 79.0  43 
 PAM  EN ES       1336 39.98                             149    0.3810 79.0  43 
 PAM  EZ I        1336 42.32        14.4 0.58            154           79.0  43 
 RUS  HZ EP       1336 24.63                             142    0.2710  102 174 
 RUS  HN ES       1336 41.88                             142   -0.6210  102 174 
 RUS  HZ I        1336 43.32         8.7 0.52            143            102 174 
 PTB  HZ EP       1336 27.05                             131   -0.14 9  144 258 
 PTB  HN ES       1336 47.67                             131    0.12 9  144 258 
 PTB  HZ I        1336 51.00        14.9 0.12            131            144 258 
 OCA  HZ EP       1336 28.29                             128   -0.44 9  158 355 
 OCA  HN ES       1336 49.75                             128   -0.52 9  158 355 
 SPBC HZ EP       1336 29.39                             128    0.42 9  162 217 
 SPBC HN ES       1336 50.68                             128   -0.03 9  162 217 
 SPBC HZ I        1337  0.66        22.3 0.20            128            162 217 
 YPLC HZ IP     C 1336 30.56                             124   -0.21 9  180 150 
 YPLC HN ES       1336 53.53                             124   -0.38 9  180 150 
 YPLC HZ I        1336 56.84        10.2 0.22            127            180 150 
 ZAR  HZ EP       1336 33.21                             121    0.55 9  200 292 
 ZAR  HN ES       1336 57.80                             121    0.52 9  200 292 
 ZAR  HZ I        1337  5.03        17.6 0.32            122            200 292 
 CHI  HZ EP       1336 38.58                             116    0.08 8  249 194 
 CHI  HE ES       1337  7.94                             116    0.28 8  249 194 
 URE  HZ EP       1336 40.67                             113   -0.69 7  279 292 
 URE  HN ES       1337 12.44                             113   -0.32 7  279 292 
 URE  HZ I        1337 21.84        10.3 0.16            113            279 292 
 PTGC HZ EP   9   1336 43.23                             110   -1.79 0  312 158 
 PTGC HN ES       1337 16.34                                   -1.14 7  312 158 
 PTGC HZ I        1337 22.69         9.3 0.44            112            312 158 
 PRA  HZ EP       1336 54.53                             105    0.21 6  391 209 
 PRA  HE ES       1337 35.34                             105   -0.49 6  391 209 
 PRA  HZ I        1337 42.01         3.4 0.32            106            391 209 
 SJC  HZ EP   4   1336 54.73                             105   -1.31 0  406 327 
 SJC  HN ES   4   1337 38.25                             105   -0.63 0  406 327 
 SJC  HZ I        1337 39.98         4.4 0.46            106            406 327 
                                                                                
