 2016  9 4 1204 41.4 L   6.823 -73.158141.5  RSN 16 0.5 2.4LRSN                1
 GAP= 70        1.21       3.4     3.2  5.9 -0.1321E+01  0.4919E+01  0.2853E+01E
 Epicentro: LOS SANTOS - SANTANDER                                             3
 ACTION:UPD 17-08-17 21:06 OP:lp   STATUS:               ID:20160904120441 L   I
 OLDACT:REG 16-09-04 20:48 OP:dnl  STATUS:               ID:20160904115741     3
 2016-09-04-1158-00M.COL___352                                                 6
 STAT SP IPHASW D HRMM SECON CODA AMPLIT PERI AZIMU VELO AIN AR TRES W  DIS CAZ7
 BAR2 EZ EP     C 12 5  0.54                             169   -0.0710 25.6 186 
 BAR2 EZ ES       12 5 14.99                             169   -0.5710 25.6 186 
 BRR  HZ EP     C 12 5  2.33                             153    0.3410 68.8 297 
 BRR  HN ES       12 5 19.29                             153    1.2610 68.8 297 
 BRR  HZ I        12 5 21.77        49.5 0.16            150           68.8 297 
 PAM  EZ EP     C 12 5  3.27                             150    0.1310 76.4  42 
 PAM  EN ES       12 5 20.28                             150    0.2110 76.4  42 
 PAM  EZ I        12 5 21.07        41.6 0.20            153           76.4  42 
 RUS  HZ EP       12 5  4.61                             142   -0.3610  103 175 
 RUS  HN ES       12 5 23.40                             142    0.0810  103 175 
 RUS  HZ I        12 5 24.62        33.8 0.26            144            103 175 
 PTB  HZ EP       12 5  7.09                             131   -0.90 9  147 258 
 PTB  HN ES       12 5 28.06                             131   -0.63 9  147 258 
 PTB  HZ I        12 5 30.13        32.7 0.20            130            147 258 
 TAM  HZ EP       12 5  8.96                             129   -0.01 9  157 106 
 TAM  HN ES       12 5 30.82                             129    0.38 9  157 106 
 TAM  HZ I        12 5 31.20        35.5 0.28            133            157 106 
 OCA  HZ EP       12 5  8.70                             129   -0.47 9  158 354 
 OCA  HN ES       12 5 30.02                             129   -0.78 9  158 354 
 OCA  HZ I        12 5 35.09        62.3 0.58            130            158 354 
 SPBC HZ EP       12 5  9.72                             128   -0.00 9  164 218 
 SPBC HN ES       12 5 31.59                             128   -0.19 9  164 218 
 SPBC HZ I        12 5 35.99        33.8 0.40            128            164 218 
 ZAR  HZ EP       12 5 13.69                             122    0.31 9  202 292 
 ZAR  HN ES       12 5 38.32                             122    0.02 9  202 292 
 ZAR  HZ I        12 5 44.33        49.9 0.60            121            202 292 
 NOR  HZ EP       12 5 16.95                             118   -0.01 8  235 234 
 NOR  HN ES       12 5 44.45                             118   -0.22 8  235 234 
 NOR  HZ I        12 5 50.50        26.6 0.22            118            235 234 
 CHI  HZ EP       12 5 19.09                             116   -0.04 8  251 195 
 CHI  HE ES       12 5 48.64                             116    0.11 8  251 195 
 CHI  HZ I        12 5 52.06        10.5 0.36            117            251 195 
 HEL  HZ EP       12 5 22.01                             114    0.65 8  271 255 
 HEL  HN ES       12 5 52.61                             114    0.11 8  271 255 
 HEL  HZ I        12 5 58.82        17.8 0.28            114            271 255 
 URE  HZ EP   4   12 5 24.92                             113    2.86 0  282 292 
 URE  HN ES   4   12 5 51.36                             113   -2.38 0  282 292 
 URE  HZ I        12 6  3.38        28.2 0.20            113            282 292 
 GUY2CHZ EP       12 5 26.00                             111    1.11 7  302 234 
 GUY2CHN ES       12 5 58.46                             111   -0.32 7  302 234 
 GUY2CHZ I        12 6 11.03        12.8 0.58                           302 234 
 CBOC HZ EP   2   12 5 27.68                             109   -0.44 3  333 252 
 CBOC HN ES       12 6  5.21                             109    0.68 7  333 252 
 CBOC HZ I        12 6 15.60         5.3 0.40            109            333 252 
 SJC  HZ EP   4   12 5 34.78                             105   -1.75 0  406 327 
 SJC  HN ES   4   12 6 14.97                             105   -4.53 0  406 327 
 SJC  HZ I        12 6 19.31         5.3 0.74            106            406 327 
                                                                                
