 2012 12 4 1002 22.4 L   6.616 -73.392121.5  RSN  7 0.4 1.7LRSN                1
 GAP= 94        1.09       3.7     5.2  8.7  0.2999E+01  0.1873E+02 -0.5053E+01E
 Epicentro: GALAN - SANTANDER                                                  3
 ACTION:UPD 13-01-04 14:25 OP:ep   STATUS:               ID:20121204100222 L   I
 2012-12-04-1000-00M.COL___232                                                 6
 STAT SP IPHASW D HRMM SECON CODA AMPLIT PERI AZIMU VELO AIN AR TRES W  DIS CAZ7
 BAR2 SZ EP       10 2 39.44                             168    0.3210 23.4  96 
 BAR2 SZ ES       10 2 52.74                             168    0.5710 23.4  96 
 BAR2 SZ I        10 2 53.50        18.2 0.30                          23.4  96 
 RUS  HZ EP       10 2 42.73                             142   -0.0610 87.0 157 
 RUS  HN ES       10 2 58.31                             142   -0.3810 87.0 157 
 RUS  HN I        10 3  1.24         3.3 0.30                          87.0 157 
 PTB  HZ EP     C 10 2 44.26                             133   -0.4310  118 266 
 PTB  HN ES       10 3  1.49                             133   -0.5810  118 266 
 PTB  HN I        10 3  7.02         4.6 0.16                           118 266 
 OCA  HN ES       10 3 12.81                             120   -0.42 9  180   3 
 OCA  HN I        10 3 16.65        17.3 0.36                           180   3 
 ZAR  HZ EP       10 2 52.10                             119    0.37 9  189 301 
 ZAR  HN ES       10 3 15.31                             119    0.70 9  189 301 
 ZAR  HN I        10 3 20.63         7.3 0.42                           189 301 
 SML  HE ES       10 3 27.01                             111   -0.26 8  253 343 
 PRA  HN ES       10 3 50.26                             104    0.45 6  361 207 
                                                                                
