 2016  7 4 1350 10.9 L   6.752 -73.895  1.2  RSN  4 0.2 1.2LRSN                1
 GAP=138        0.55       1.5     1.4  3.8 -0.3677E+00  0.5338E+00 -0.1295E+00E
 Epicentro: PUERTO PARRA - SANTANDER                                           3
 ACTION:UPD 17-03-29 16:46 OP:lp   STATUS:               ID:20160704135010 L   I
 OLDACT:DUP 16-07-05 00:24 OP:edw  STATUS:               ID:20160704134743d    3
 2016-07-04-1347-42M.COL___322                                                 6
 STAT SP IPHASW D HRMM SECON CODA AMPLIT PERI AZIMU VELO AIN AR TRES W  DIS CAZ7
 BRR  HZ EP       1350 18.45                              47   -0.1110 44.1  27 
 BRR  HN ES       1350 24.67                              47    0.1110 44.1  27 
 PTB  HZ EP       1350 21.91                              47   -0.0410 66.4 249 
 PTB  HN ES       1350 30.58                              47   -0.0110 66.4 249 
 PTB  HZ I        1350 31.67        14.1 0.20             47           66.4 249 
 BAR2 EZ EP       1350 24.12                              47   -0.2310 80.7 103 
 RUS  HZ EP       1350 32.61                              47    0.4210  131 137 
 RUS  HN ES       1350 48.71                              47   -0.1110  131 137 
 RUS  HZ I        1350 50.74         3.2 0.40             47            131 137 
                                                                                
