 2016  7 4 1830 14.1 L   6.799 -73.131145.8  RSN 10 0.3 1.7LRSN                1
 GAP=138        0.63       2.4     2.7  4.0 -0.2577E+00  0.1985E+01  0.2297E+01E
 Epicentro: LOS SANTOS - SANTANDER                                             3
 ACTION:UPD 17-03-29 16:47 OP:lp   STATUS:               ID:20160704183014 L   I
 OLDACT:UP  16-07-05 01:37 OP:edw  STATUS:               ID:20160704182744     3
 OLDACT:REG 16-07-04 20:51 OP:edw  STATUS:               ID:20160704182744     3
 2016-07-04-1827-44M.COL___328                                                 6
 STAT SP IPHASW D HRMM SECON CODA AMPLIT PERI AZIMU VELO AIN AR TRES W  DIS CAZ7
 BAR2 EZ EP       1830 33.59                             170   -0.1110 23.6 194 
 BAR2 EZ ES       1830 48.85                             170   -0.1710 23.6 194 
 BAR2 EZ I        1830 50.13        17.9 0.24            169           23.6 194 
 BRR  HZ EP       1830 35.41                             152    0.1110 72.7 298 
 BRR  HN ES       1830 52.26                             152    0.4010 72.7 298 
 BRR  HZ I        1830 54.97         9.2 0.14            152           72.7 298 
 PAM  EZ EP       1830 36.41                             151    0.1910 76.4  39 
 PAM  EN ES       1830 53.59                             151    0.0810 76.4  39 
 PAM  EZ I        1830 56.40         4.6 0.24            154           76.4  39 
 RUS  HZ EP       1830 37.51                             144   -0.2910  100 177 
 RUS  HN ES       1830 56.22                             144   -0.1010  100 177 
 RUS  HZ I        1830 57.74         4.5 0.40            145            100 177 
 PTB  HZ EP       1830 40.75                             132   -0.43 9  149 259 
 PTB  HN ES       1831  2.05                             132   -0.28 9  149 259 
 PTB  HZ I        1831  8.02         5.0 0.12            132            149 259 
 SPBC HE ES       1831  5.40                             129    0.44 9  164 219 
 ZAR  HE ES       1831 11.84                             122   -0.26 8  206 292 
 NOR  HZ EP   4   1830 48.59                             118   -1.34 0  236 235 
 NOR  HE ES   4   1831 17.97                             118    0.06 0  236 235 
 CHI  HZ EP       1830 52.05                             117    0.25 8  249 196 
 CHI  HN ES       1831 21.26                             117    0.02 8  249 196 
 CHI  HZ I        1831 24.99         2.9 0.28            118            249 196 
 GUY2CHZ EP   2   1830 58.32                             112    0.50 4  302 235 
 GUY2CHN ES   2   1831 32.29                             112    0.34 4  302 235 
 PRA  HZ EP   2   1831  7.83                             106    0.16 3  393 210 
 PRA  HE ES   2   1831 50.22                             106    0.73 3  393 210 
 PRA  HZ I        1831 55.95         4.0 0.30            107            393 210 
 SJC  HZ EP   4   1831  8.99                             106   -0.75 0  410 327 
 SJC  HN ES   4   1831 50.23                             106   -2.93 0  410 327 
                                                                                
