 2017 10 4 1331 44.7 L   6.822 -73.111150.2  RSN 10 0.5 2.0LRSN                1
 GAP=140        1.14       4.6     5.9  7.5 -0.2017E+01  0.2147E+02  0.6764E+01E
 Epicentro: LOS SANTOS - SANTANDER                                             3
 ACTION:UPD 17-11-07 19:28 OP:rebc STATUS:               ID:20171004133144 L   I
 OLDACT:DUP 17-10-04 22:38 OP:osc  STATUS:               ID:20171004132746d    3
 2017-10-04-1328-00M.COL___437                                                 6
 STAT SP IPHASW D HRMM SECON CODA AMPLIT PERI AZIMU VELO AIN AR TRES W  DIS CAZ7
 BAR2 EZ EP       1332  4.94                             170   -0.0110 26.6 197 
 BAR2 EZ ES       1332 20.99                             170    0.2610 26.6 197 
 BAR2 EZ I        1332 22.80        22.6 0.24            167           26.6 197 
 PAM  EN ES       1332 25.18                             153    0.5110 73.0  38 
 PAM  EZ I        1332 27.21        11.3 0.26            158           73.0  38 
 RUS  HZ EP       1332  9.08                             144    0.0210  103 178 
 RUS  HN ES       1332 27.55                             144   -0.5110  103 178 
 RUS  HZ I        1332 28.83        11.5 0.24            146            103 178 
 SPBC HZ EP       1332 13.92                             129   -0.04 9  168 219 
 SPBC HN ES       1332 35.98                             129   -0.80 9  168 219 
 SPBC HZ I        1332 44.01        19.2 0.22            130            168 219 
 ZAR  HZ EP       1332 17.28                             123   -0.45 8  207 291 
 ZAR  HE ES       1332 43.15                             123   -0.33 8  207 291 
 ZAR  HZ I        1332 49.52        14.0 0.52            124            207 291 
 NOR  HZ EP       1332 20.85                             119   -0.34 8  239 235 
 NOR  HE ES       1332 49.44                             119   -0.20 8  239 235 
 NOR  HZ I        1332 52.99         7.9 0.24            120            239 235 
 CHI  HZ EP       1332 23.01                             118   -0.02 8  252 196 
 CHI  HE ES       1332 53.11                             118    0.20 8  252 196 
 CHI  HZ I        1333  0.02         3.9 0.40            120            252 196 
 GUY2CHZ EP       1332 29.73                             113    0.69 7  306 235 
 GUY2CHE ES       1333  5.28                             113    1.66 7  306 235 
 GUY2CHZ I        1333 11.86         5.5 0.32                           306 235 
 PRA  HZ EP       1332 38.60                             107   -0.26 6  396 210 
 PRA  HE ES       1333 21.31                             107    0.22 6  396 210 
 PRA  HZ I        1333 26.58         6.1 0.29            109            396 210 
 ORTC HE ES   2   1333 22.59                             107    0.74 3  400 216 
                                                                                
