 2010 10 4 1844 30.3 L   6.765 -73.021136.0  RSN  5 0.5 1.8LRSN                1
 GAP=193        1.12       9.2    12.6 14.3 -0.3360E+02 -0.5814E+02  0.4184E+02E
 Epicentro: CEPITA - SANTANDER                                                 3
 ACTION:UP  11-02-18 11:07 OP:tino STATUS:               ID:20101004184430 L   I
 2010-10-04-1840-40S.COL___125                                                 6
 STAT SP IPHASW D HRMM SECON CODA AMPLIT PERI AZIMU VELO SNR AR TRES W  DIS CAZ7
 BAR2 SZ EP       1844 48.98                             169     0.210   26 223 
 BAR2 SZ ES   2   1845  2.41                             169    -0.8 5   26 223 
 BAR2 SZ I        1845  4.88        20.4 0.28                            26 223 
 BRR  HZ EP       1844 50.93                             147    -0.310   85 296 
 BRR  HN ES       1845  8.02                             147     0.410   85 296 
 BRR  HZ I        1845 10.28        19.4 0.14                            85 296 
 GUE  SZ EP   1   1844 54.17                             137    -0.1 7  118   5 
 CHI  HN ES   2   1845 37.68                             115     1.2 4  249 198 
 CHI  HZ I        1845 40.40         1.8 0.63                           249 198 
 RREF HN ES   1   1845 52.64                             109    -0.7 5  330 231 
 RREF HZ I        1845 58.02         2.6 0.05                           330 231 
                                                                                
