 2013 11 4 1516  9.3 L   6.796 -73.150150.3  RSN  9 0.4 1.8LRSN                1
 GAP=136        1.07       3.7     4.8  6.3 -0.3548E+01  0.7932E+01 -0.1731E+01E
 Epicentro: LOS SANTOS - SANTANDER                                             3
 ACTION:UPD 14-01-09 16:25 OP:ep   STATUS:               ID:20131104151609 L   I
 OLDACT:REG 13-11-04 17:18 OP:jn   STATUS:               ID:20131104151000     3
 2013-11-04-1510-00M.COL___273                                                 6
 STAT SP IPHASW D HRMM SECON CODA AMPLIT PERI AZIMU VELO AIN AR TRES W  DIS CAZ7
 BAR2 SZ EP       1516 29.41                             171   -0.0210 22.8 189 
 BAR2 SZ ES       1516 45.15                             171   -0.0010 22.8 189 
 BAR2 SZ I        1516 45.59        17.4 0.32            169           22.8 189 
 BRR  HZ EP       1516 31.29                             153    0.4010 71.0 299 
 BRR  HN ES       1516 48.73                             153    0.9710 71.0 299 
 BRR  HZ I        1516 52.54         6.7 0.14            151           71.0 299 
 PAM  SZ EP       1516 32.20                             151    0.2010 78.0  40 
 PAM  SN ES       1516 49.52                             151   -0.2110 78.0  40 
 PAM  SZ I        1516 51.57        10.7 0.46            156           78.0  40 
 RUS  HZ EP       1516 33.36                             145   -0.0710  100 176 
 RUS  HN ES       1516 51.58                             145   -0.7010  100 176 
 RUS  HZ I        1516 53.36         5.4 0.34            147            100 176 
 PTB  HZ EP       1516 36.14                             133   -0.42 9  147 259 
 PTB  HN ES       1516 57.31                             133   -0.54 9  147 259 
 PTB  HZ I        1517  3.24        10.1 0.26            133            147 259 
 SPBC HZ EP       1516 38.47                             130    0.42 9  163 219 
 SPBC HN ES       1517  0.69                             130    0.18 9  163 219 
 SPBC HZ I        1517  5.45        13.7 0.20            131            163 219 
 ZAR  HE ES   2   1517  7.47                             123   -0.04 4  204 292 
 NOR  HZ EP       1516 45.49                             119    0.30 8  234 234 
 NOR  HN ES       1517 13.17                             119   -0.05 8  234 234 
 NOR  HZ I        1517 20.56         6.3 0.24            120            234 234 
 SML  HZ EP       1516 46.23                             118    0.06 8  244 335 
 SML  HE ES       1517 14.27                             118   -0.69 8  244 335 
                                                                                
