 2010  4 4 1009 36.5 L   6.826 -72.969140.6  RSN  7 0.5 1.6LRSN                1
 GAP=213        0.67       4.4     8.3  7.5 -0.8882E+01  0.5226E+01  0.1011E+02E
 Epicentro: CEPITA - SANTANDER                                                 3
 ACTION:UPD 10-08-24 09:57 OP:vdl  STATUS:               ID:20100404100936 L   I
 2010-04-04-1007-34S.COL___098                                                 6
 STAT SP IPHASW D HRMM SECON CODA AMPLIT PERI AZIMU VELO AIN AR TRES W  DIS CAZ7
 BAR2 SZ EP   1   10 9 55.79                             165     0.0 7   35 223 
 BAR2 SZ ES   2   1010 10.59                             165    -0.3 5   35 223 
 BRR  HZ EP   1   10 9 57.79                             146    -0.3 7   88 291 
 BRR  HZ I        10 9 58.20        13.5 0.10                            88 291 
 BRR  HN ES   2   1010 15.06                             146     0.0 5   88 291 
 OCA  SZ EP   1   1010  4.50                             128     0.0 7  161 346 
 OCA  SZ ES   2   1010 26.93                             128     0.6 5  161 346 
 CHI  HZ EP   1   1010 15.28                             115     0.4 6  257 199 
 CHI  HN ES   2   1010 45.37                             115     0.6 4  257 199 
 CHI  HZ I        1010 50.83         1.3 0.73                           257 199 
 HEL  HZ EP   1   1010 18.18                             112    -0.5 5  292 256 
 HEL  HN ES   2   1010 51.71                             112     0.2 4  292 256 
 HEL  HZ I        1010 53.96         1.7 0.54                           292 256 
 RREF BZ EP   1   1010 24.13                             109    -0.2 5  339 231 
 RREF BN ES   2   1011  2.62                             109     0.9 3  339 231 
 RREF BZ I        1011  7.85         2.2 0.98                           339 231 
 PRA  HZ EP   1   1010 31.54                             105     0.2 4  404 212 
 PRA  HN ES   2   1011 12.87                             105    -1.2 3  404 212 
 PRA  HZ I        1011 15.51         1.6 0.32                           404 212 
                                                                                
