 2015  9 4 1600 47.6 L   6.798 -73.144140.0  RSN 17 0.5 2.3LRSN                1
 GAP= 71        1.10       3.1     3.5  5.1 -0.1647E+01  0.4082E+01  0.3328E+01E
 Epicentro: LOS SANTOS - SANTANDER                                             3
 ACTION:UPD 15-10-28 16:24 OP:cam  STATUS:               ID:20150904160047 L   I
 OLDACT:UP  15-09-08 11:01 OP:AK   STATUS:               ID:20150904160047 L   3
 OLDACT:REG 15-09-04 21:26 OP:stll STATUS:               ID:20150904155750     3
 2015-09-04-1557-50M.COL___337                                                 6
 STAT SP IPHASW D HRMM SECON CODA AMPLIT PERI AZIMU VELO AIN AR TRES W  DIS CAZ7
 BAR2 EZ IP     C 16 1  6.60                             170    0.0910 23.1 191 
 BAR2 EZ ES       16 1 21.19                             170   -0.0910 23.1 191 
 BAR2 EZ I        16 1 22.36        64.9 0.42            165           23.1 191 
 BRR  HZ IP     D 16 1  8.64                             151    0.5110 71.5 299 
 BRR  HN ES       16 1 24.76                             151    0.6110 71.5 299 
 BRR  HZ I        16 1 25.76        40.0 0.16            145           71.5 299 
 PAM  EZ EP     D 16 1  9.42                             150    0.2310 77.4  39 
 PAM  EZ I        16 1  9.81        56.9 0.20            146           77.4  39 
 PAM  EN ES       16 1 26.21                             150    0.1710 77.4  39 
 RUS  HZ EP     C 16 1 10.54                             143   -0.2110  100 176 
 RUS  HN ES       16 1 28.82                             143    0.0010  100 176 
 RUS  HZ I        16 1 29.75        17.0 0.22            135            100 176 
 PTB  HZ EP       16 1 13.41                             131   -0.69 9  148 259 
 PTB  HE ES       16 1 34.26                             131   -0.52 9  148 259 
 PTB  HZ I        16 1 36.97        38.8 0.16            123            148 259 
 TAM  HZ EP       16 1 14.90                             129    0.12 9  155 105 
 TAM  HZ I        16 1 15.14        46.0 0.20            123            155 105 
 OCA  HN ES       16 1 36.41                             128   -0.82 9  161 353 
 OCA  HZ I        16 1 39.99        34.9 0.26            122            161 353 
 SPBC HZ EP     C 16 1 15.52                             128   -0.12 9  163 219 
 SPBC HZ I        16 1 15.97        38.5 0.22            120            163 219 
 SPBC HN ES       16 1 37.45                             128   -0.07 9  163 219 
 ZAR  HZ EP       16 1 19.76                             121    0.07 9  204 292 
 ZAR  HN ES       16 1 45.33                             121    0.60 9  204 292 
 ZAR  HZ I        16 1 52.43        21.7 0.22            114            204 292 
 NOR  HZ EP       16 1 22.66                             117   -0.33 8  235 235 
 NOR  HE ES       16 1 50.00                             117   -0.60 8  235 235 
 NOR  HZ I        16 1 52.35        15.2 0.18            110            235 235 
 CHI  HZ EP       16 1 24.95                             116    0.01 8  248 195 
 CHI  HE ES       16 1 53.46                             116   -0.63 8  248 195 
 CHI  HZ I        16 2  0.62         5.9 0.42            109            248 195 
 HEL  HZ EP       16 1 28.01                             114    0.49 8  272 256 
 HEL  HN ES       16 1 58.31                             114   -0.37 8  272 256 
 HEL  HZ I        16 2  5.47        13.1 0.28            107            272 256 
 GUY2CHZ EP       16 1 31.70                             111    0.77 7  301 235 
 GUY2CHE ES       16 2  5.33                             111    0.58 7  301 235 
 GUY2CHZ I        16 2 11.63         9.9 0.26                           301 235 
 TOL  SZ EP       16 1 36.31                             108    0.70 7  343 225 
 TOL  SN ES       16 2 13.51                             108    0.44 7  343 225 
 TOL  SZ I        16 2 22.36         5.5 0.50            102            343 225 
 PRA  HZ EP       16 1 40.63                             105   -0.26 6  392 210 
 PRA  HZ I        16 2 27.17         7.3 0.32            100            392 210 
 ORTC HZ EP       16 1 42.09                             105    0.79 6  395 216 
 ORTC HZ I        16 2 28.09         5.2 0.60            100            395 216 
 SJC  HZ EP     C 16 1 41.64                             105   -1.36 6  410 327 
                                                                                
