 2013  1 4 1054 23.7 L   6.721 -73.181149.5  RSN  5 0.3 1.6LRSN                1
 GAP=227        0.59       6.7     5.9  6.7  0.2667E+02  0.9659E+01  0.6585E+01E
 Epicentro: VILLANUEVA - SANTANDER                                             3
 ACTION:UPD 13-02-15 09:12 OP:ep   STATUS:               ID:20130104105423 L   I
 2013-01-04-1050-00M.COL___241                                                 6
 STAT SP IPHASW D HRMM SECON CODA AMPLIT PERI AZIMU VELO AIN AR TRES W  DIS CAZ7
 BAR2 SZ EP   1   1054 43.18                             174   -0.42 7 14.3 181 
 BAR2 SZ ES   1   1054 58.92                             174   -0.23 7 14.3 181 
 BAR2 SZ I        1054 59.19         9.6 0.18            170           14.3 181 
 BRR  HN ES   1   1055  2.43                             153    0.26 7 72.6 306 
 RUS  HZ EP   1   1054 47.48                             147    0.27 7 92.3 173 
 RUS  HN ES   1   1055  5.85                             147    0.27 7 92.3 173 
 RUS  HZ I        1055  7.07         3.6 0.40            145           92.3 173 
 PTB  HZ EP   1   1054 50.40                             134   -0.07 7  142 262 
 PTB  HN ES   1   1055 11.05                             134   -0.33 7  142 262 
 PTB  HZ I        1055 13.37         6.5 0.12            132            142 262 
 ZAR  HN ES   1   1055 22.13                             123    0.29 6  204 295 
                                                                                
