 2012 10 4 1804 33.0 L   6.743 -73.124140.0  RSN  8 0.3 2.1LRSN                1
 GAP=142        0.66       3.0     5.7  5.4 -0.4219E+01 -0.1429E+01  0.2798E+01E
 Epicentro: JORDAN - SANTANDER                                                 3
 ACTION:UPD 12-11-22 17:02 OP:ep   STATUS:               ID:20121004180433 L   I
 2012-10-04-1800-00M.COL___222                                                 6
 STAT SP IPHASW D HRMM SECON CODA AMPLIT PERI AZIMU VELO AIN AR TRES W  DIS CAZ7
 BAR2 SZ IP       18 4 51.76                             172   -0.0510 17.9 201 
 BAR2 SZ I        18 4 52.08        64.8 0.34                          17.9 201 
 BAR2 SZ ES   1   18 5  6.39                             172   -0.11 7 17.9 201 
 GIR2 SZ EP       18 4 51.85                             164   -0.3110 37.9 348 
 GIR2 SZ ES   1   18 5  6.94                             164   -0.19 7 37.9 348 
 BRR  HZ IP     C 18 4 53.68                             150   -0.1410 76.4 302 
 BRR  HZ I        18 4 54.07        46.3 0.10                          76.4 302 
 BRR  HE ES   1   18 5 10.46                             150    0.39 7 76.4 302 
 PAM  SZ EP       18 4 54.60                             149   -0.2010 80.9  35 
 PAM  SZ I        18 4 54.94        20.4 0.24                          80.9  35 
 PAM  SN ES   1   18 5 11.76                             149   -0.06 7 80.9  35 
 RUS  HZ EP       18 4 55.66                             145   -0.0410 94.2 177 
 RUS  HN ES   1   18 5 13.90                             145    0.48 7 94.2 177 
 RUS  HZ I        18 5 15.03         4.5 0.20                          94.2 177 
 GRA  SZ EP   2   18 4 59.28                             135    1.11 5  131  16 
 GRA  SZ ES   1   18 5 18.22                             135    0.40 7  131  16 
 ZAR  HE ES   3   18 5 30.62                             121   -0.32 2  209 293 
 CHI  HN ES   1   18 5 38.47                             117    0.00 6  243 196 
                                                                                
