 2013  5 4 1643 13.3 L   6.757 -73.139138.9  RSN  7 0.5 1.8LRSN                1
 GAP=139        0.96       5.3     6.3 10.1  0.5516E+00  0.1524E+02 -0.4837E+01E
 Epicentro: LOS SANTOS - SANTANDER                                             3
 ACTION:UPD 13-06-20 09:47 OP:ep   STATUS:               ID:20130504164313 L   I
 2013-05-04-1640-00M.COL___253                                                 6
 STAT SP IPHASW D HRMM SECON CODA AMPLIT PERI AZIMU VELO AIN AR TRES W  DIS CAZ7
 BAR2 SZ EP   1   1643 32.35                             172    0.31 7 18.8 195 
 BAR2 SZ I        1643 50.08         6.7 0.30            167           18.8 195 
 BRR  HZ IP     D 1643 34.17                             150    0.2510 74.2 301 
 BRR  HN ES   1   1643 50.75                             150    0.77 7 74.2 301 
 BRR  HN I        1643 51.91        22.4 0.16            149           74.2 301 
 PAM  SZ EP   1   1643 35.22                             148    0.20 7 80.7  37 
 PAM  SN ES   1   1643 51.26                             148   -0.69 7 80.7  37 
 PAM  SN I        1643 52.72         6.5 0.42            148           80.7  37 
 RUS  HZ EP   1   1643 36.60                             144    0.55 7 95.8 176 
 RUS  HN ES       1643 53.56                             144   -0.2210 95.8 176 
 RUS  HN I        1643 56.04        10.1 0.30            138           95.8 176 
 PTB  HZ EP       1643 39.18                             130   -0.55 9  148 261 
 PTB  HN ES   1   1644  0.00                             130   -0.33 7  148 261 
 PTB  HN I        1644  4.89         6.4 0.30            126            148 261 
 NOR  HE ES   4   1644 17.63                             117    1.81 0  233 236 
 NOR  HE I        1644 21.99         4.5 0.20            113            233 236 
 SML  HE ES   2   1644 18.56                             115   -0.20 4  248 336 
 SML  HN I        1644 19.64        15.0 0.28            113            248 336 
                                                                                
