 2014  8 4 1324 53.3 L   6.452 -73.599103.9  RSN  4 0.4 1.6LRSN                1
 GAP=139        0.86       7.5     4.6  8.8  0.1989E+02  0.5157E+01 -0.1153E+02E
 Epicentro: SANTA HELENA DEL OPON - SANTANDER                                  3
 ACTION:UPD 14-09-15 21:46 OP:nd   STATUS:               ID:20140804132453 L   I
 OLDACT:UP  14-08-05 03:03 OP:mh   STATUS:               ID:20140804131817     3
 OLDACT:REG 14-08-04 20:41 OP:spq  STATUS:               ID:20140804131817     3
 2014-08-04-1318-17M.COL___248                                                 6
 STAT SP IPHASW D HRMM SECON CODA AMPLIT PERI AZIMU VELO AIN AR TRES W  DIS CAZ7
 BAR2 SZ EP       1325  8.51                             153   -0.5110 48.6  71 
 BAR2 SZ ES   1   1325 21.37                             153    0.10 7 48.6  71 
 BAR2 SZ I        1325 22.96        50.1 0.38            153           48.6  71 
 RUS  HZ EPg      1325 11.80                             138   -0.0510 84.2 137 
 RUS  HE ES   1   1325 26.89                             138    0.60 7 84.2 137 
 RUS  HZ I        1325 28.95         3.8 0.40            143           84.2 137 
 PTB  HZ EP   1   1325 11.78                             134   -0.36 7 95.3 276 
 PTB  HN ES       1325 26.65                             134   -0.1610 95.3 276 
 PTB  HZ I        1325 27.69         8.5 0.18            135           95.3 276 
 ZAR  HZ EP       1325 21.31                             114    0.50 9  181 310 
 ZAR  HN ES   1   1325 42.56                             114    0.32 7  181 310 
 ZAR  HZ I        1325 49.46         3.2 0.20            116            181 310 
                                                                                
