 2014  8 4 1246  2.4 L   6.803 -73.146141.5  RSN 25 0.4 2.7LRSN                1
 GAP= 71        0.94       2.0     2.4  4.2 -0.9024E+00  0.3023E+01  0.6616E+00E
 Epicentro: LOS SANTOS - SANTANDER                                             3
 ACTION:UPD 14-09-15 21:46 OP:nd   STATUS:               ID:20140804124602 L   I
 OLDACT:DUP 14-08-04 22:50 OP:spq  STATUS:               ID:20140804123821d    3
 2014-08-04-1238-20M.COL___242                                                 6
 STAT SP IPHASW D HRMM SECON CODA AMPLIT PERI AZIMU VELO AIN AR TRES W  DIS CAZ7
 BAR2 SZ EP       1246 21.50                             170    0.0210 23.6 190 
 BAR2 SZ ES   1   1246 35.95                             170   -0.45 7 23.6 190 
 BAR2 SZ I        1246 38.05       111.5 0.16            169           23.6 190 
 BRR  HZ IP     C 1246 23.57                             152    0.5410 71.0 298 
 BRR  HE ES       1246 39.35                             152    0.1910 71.0 298 
 BRR  HZ I        1246 43.46       115.0 0.32            151           71.0 298 
 PAM  SZ EP       1246 24.59                             150    0.4810 77.2  40 
 PAM  SE ES       1246 41.27                             150    0.2010 77.2  40 
 PAM  SZ I        1246 43.98       151.5 0.66            154           77.2  40 
 RUS  HZ EP   1   1246 26.04                             143    0.33 7  101 176 
 RUS  HE ES       1246 44.02                             143    0.0910  101 176 
 RUS  HZ I        1246 45.16        37.6 0.24            144            101 176 
 PTB  HZ EP       1246 28.27                             131   -0.71 9  148 259 
 PTB  HN ES       1246 49.19                             131   -0.55 9  148 259 
 PTB  HZ I        1246 51.60        78.3 0.19            131            148 259 
 TAM  HZ IP     D 1246 29.99                             130    0.28 9  155 105 
 TAM  HE ES       1246 50.35                             130   -0.70 9  155 105 
 TAM  HZ I        1246 53.17        20.3 0.32            133            155 105 
 OCA  HZ EP       1246 29.75                             129   -0.56 9  160 353 
 OCA  HE ES       1246 52.05                             129   -0.06 9  160 353 
 OCA  HZ I        1246 56.06        59.6 0.20            131            160 353 
 SPBC HZ EP       1246 30.48                             128   -0.07 9  163 219 
 SPBC HN ES       1246 53.13                             128    0.59 9  163 219 
 SPBC HZ I        1246 59.57        50.5 0.31            129            163 219 
 ZAR  HZ EP       1246 34.42                             121   -0.09 9  204 292 
 ZAR  HE ES       1247  0.29                             121    0.71 9  204 292 
 ZAR  HZ I        1247  6.61        81.4 0.28            122            204 292 
 NOR  HZ EP       1246 38.14                             118    0.28 8  235 234 
 NOR  HE ES       1247  5.00                             118   -0.54 8  235 234 
 NOR  HZ I        1247 11.02        29.1 0.19            118            235 234 
 SML  HZ EP       1246 37.94                             117   -0.77 8  243 335 
 SML  HN ES       1247  7.56                             117    0.50 8  243 335 
 SML  HZ I        1247 13.21        60.2 0.12            118            243 335 
 CHI  HZ EP       1246 40.33                             116    0.48 8  249 195 
 CHI  HE ES   1   1247  8.83                             116   -0.27 6  249 195 
 CHI  HZ I        1247 16.06        16.4 0.62            117            249 195 
 ROSC BN ES       1247  9.55                             116   -0.30 8  253 211 
 ROSC BZ I        1247 15.95        29.4 0.30            117            253 211 
 HEL  HZ EP       1246 42.46                             114    0.10 8  272 256 
 HEL  HN ES       1247 13.48                             114   -0.08 8  272 256 
 HEL  HZ I        1247 20.12        18.9 0.34            115            272 256 
 URE  HZ EP   4   1246 42.15                             113   -1.05 0  284 292 
 URE  HN ES   4   1247 12.01                             113   -3.05 0  284 292 
 URE  HZ I        1247 17.21        29.8 0.21            114            284 292 
 GUY2CHZ EP       1246 46.10                             111    0.31 7  301 235 
 GUY2CHN ES       1247 19.56                             111   -0.10 7  301 235 
 GUY2CHZ I        1247 26.73        25.5 0.34                           301 235 
 PTGC HZ EP   4   1246 44.82                             111   -1.24 0  309 159 
 PTGC HN ES   4   1247 16.36                             111   -3.79 0  309 159 
 PTGC HZ I        1247 23.54        23.1 0.42            112            309 159 
 RREF HN ES       1247 24.43                             110    0.23 7  322 229 
 RREF HZ I        1247 33.42        23.8 0.30            111            322 229 
 CBOC HZ EP   1   1246 49.13                             109    0.03 5  334 252 
 CBOC HN ES       1247 25.37                             109   -0.19 7  334 252 
 CBOC HZ I        1247 28.87         7.0 0.18            110            334 252 
 DBB  SZ EP       1246 49.55                             109   -0.10 7  339 274 
 DBB  SZ ES   4   1247 23.63                             109   -2.91 0  339 274 
 DBB  SZ I        1247 29.95        89.5 0.48            110            339 274 
 TOL  SZ EP       1246 51.24                             108    0.77 7  344 225 
 TOL  SN ES       1247 28.16                             108    0.17 7  344 225 
 TOL  SZ I        1247 34.72        32.4 0.32            109            344 225 
 ARGC HZ EP       1246 51.75                             108   -0.06 6  359 340 
 ARGC HN ES       1247 29.64                             108   -0.75 6  359 340 
 ARGC HZ I        1247 37.91        12.2 0.54            109            359 340 
 PRA  HZ EP       1246 55.65                             106   -0.11 6  392 210 
 PRA  HN ES       1247 36.74                             106   -0.68 6  392 210 
 PRA  HZ I        1247 44.46        21.6 0.21            107            392 210 
 ORTC HZ EP       1246 56.48                             106    0.32 6  396 216 
 ORTC HN ES       1247 37.94                             106   -0.19 6  396 216 
 ORTC HZ I        1247 43.38        10.4 0.40            107            396 216 
 SJC  HZ EP   4   1246 55.49                             105   -2.25 0  409 327 
 SJC  HN ES   4   1247 37.30                             105   -3.64 0  409 327 
 SJC  HZ I        1247 41.69        13.8 0.72            106            409 327 
                                                                                
