 2016  3 4 1259  1.0 L   6.792 -73.150138.0  RSN  8 0.4 2.2LRSN                1
 GAP=136        1.01       4.7     4.2  7.0 -0.3300E+01  0.1441E+02 -0.2372E+01E
 Epicentro: LOS SANTOS - SANTANDER                                             3
 ACTION:UPD 16-05-13 21:21 OP:cam  STATUS:               ID:20160304125901 L   I
 OLDACT:REG 16-03-04 19:43 OP:ar   STATUS:               ID:20160304125750     3
 2016-03-04-1257-50M.COL___327                                                 6
 STAT SP IPHASW D HRMM SECON CODA AMPLIT PERI AZIMU VELO AIN AR TRES W  DIS CAZ7
 BAR2 EZ EP       1259 19.53                             170   -0.1410 22.4 189 
 BAR2 EZ ES       1259 34.30                             170    0.0710 22.4 189 
 BAR2 EZ I        1259 35.58        32.0 0.26            171           22.4 189 
 PAM  EZ EP       1259 22.40                             149   -0.0510 78.4  39 
 PAM  EN ES       1259 39.19                             149    0.0110 78.4  39 
 PAM  EZ I        1259 41.45        37.7 0.30            151           78.4  39 
 RUS  HZ EP       1259 23.58                             142   -0.3410 99.7 176 
 RUS  HN ES       1259 42.34                             142    0.5310 99.7 176 
 RUS  HZ I        1259 43.44        15.1 0.26            147           99.7 176 
 PTB  HZ EP       1259 26.40                             130   -0.88 9  147 259 
 PTB  HN ES       1259 47.25                             130   -0.53 9  147 259 
 PTB  HZ I        1259 52.42        20.1 0.14            130            147 259 
 ZAR  HZ EP       1259 33.43                             121    0.50 9  204 292 
 ZAR  HN ES       1259 58.20                             121    0.36 9  204 292 
 ZAR  HZ I        13 0  3.26        23.1 0.28            121            204 292 
 NOR  HZ EP       1259 36.22                             117    0.04 8  234 235 
 NOR  HN ES       13 0  3.56                             117   -0.07 8  234 235 
 NOR  HZ I        13 0  7.53        21.4 0.31            118            234 235 
 HEL  HZ EP       1259 41.43                             113    0.69 8  271 256 
 HEL  HN ES       13 0 12.01                             113    0.26 8  271 256 
 HEL  HZ I        13 0 17.66         9.6 0.30            114            271 256 
 SOCV BZ EP   4   1259 41.37                             111   -2.42 0  302  57 
 SJC  HZ EP   4   1259 53.87                             104   -2.50 0  410 327 
 SJC  HN ES   4   13 0 34.90                             104   -4.66 0  410 327 
 SJC  HZ I        13 0 51.30         2.6 0.22            105            410 327 
                                                                                
