 2012  9 4 1520 45.4 L   6.794 -73.149141.1  RSN  6 0.4 1.6LRSN                1
 GAP=136        0.64       5.5     5.4  7.1  0.1165E+02 -0.1855E+01 -0.1204E+00E
 Epicentro: LOS SANTOS - SANTANDER                                             3
 ACTION:UPD 12-10-22 14:17 OP:ep   STATUS:               ID:20120904152045 L   I
 2012-09-04-1520-00M.COL___218                                                 6
 STAT SP IPHASW D HRMM SECON CODA AMPLIT PERI AZIMU VELO AIN AR TRES W  DIS CAZ7
 BAR2 SZ EP       1521  4.37                             171   -0.0610 22.6 189 
 BAR2 SZ ES   2   1521 19.22                             171   -0.07 5 22.6 189 
 BAR2 SZ I        1521 20.26        13.9 0.32                          22.6 189 
 GIR2 SZ EP   3   1521  4.75                             166    0.23 2 31.9 351 
 BRR  HZ EP       1521  6.34                             152    0.3110 71.2 299 
 BRR  HN ES   1   1521 22.41                             152    0.28 7 71.2 299 
 PAM  SZ EP   3   1521  6.43                             149   -0.72 2 78.2  39 
 PAM  SN ES   3   1521 22.92                             149   -1.21 2 78.2  39 
 PAM  SZ I        1521 26.31         7.7 0.48                          78.2  39 
 RUS  HZ EP       1521  8.77                             143    0.1410 99.9 176 
 RUS  HN ES   1   1521 26.83                             143    0.08 7 99.9 176 
 RUS  HZ I        1521 28.64         5.8 0.30                          99.9 176 
 PTB  HZ EP   1   1521 11.63                             132   -0.29 7  147 259 
 PTB  HN ES   1   1521 31.95                             132   -0.68 7  147 259 
                                                                                
