 2016  2 4 1019 44.5 L   6.795 -73.185144.9  RSN  7 0.2 1.2LRSN                1
 GAP=132        0.52       1.8     2.4  3.8  0.3722E+00  0.2725E+01  0.5105E+00E
 Epicentro: ZAPATOCA - SANTANDER                                               3
 ACTION:UPD 16-03-04 21:23 OP:rebc STATUS:               ID:20160204101944 L   I
 OLDACT:REG 16-02-04 19:56 OP:cara STATUS:               ID:20160204101900     3
 2016-02-04-1018-59S.COL___220                                                 6
 STAT SP IPHASW D HRMM SECON CODA AMPLIT PERI AZIMU VELO AIN AR TRES W  DIS CAZ7
 BAR2 EZ EP       1020  3.71                             171   -0.3410 22.5 179 
 BAR2 EZ ES       1020 19.32                             171    0.0610 22.5 179 
 BAR2 EZ I        1020 20.09         3.9 0.32            171           22.5 179 
 PAM  EZ IP       1020  7.01                             150    0.1510 80.6  42 
 PAM  EN ES       1020 24.22                             150   -0.0410 80.6  42 
 PAM  EZ I        1020 26.04         3.7 0.54            151           80.6  42 
 RUS  HZ EP       1020  8.35                             144    0.1510  100 174 
 RUS  HN ES       1020 26.70                             144    0.0510  100 174 
 RUS  HZ I        1020 27.54         1.1 0.22            145            100 174 
 PTB  HZ EP       1020 10.75                             133   -0.29 9  143 259 
 PTB  HN ES       1020 31.78                             133    0.07 9  143 259 
 PTB  HZ I        1020 34.29         1.2 0.10            132            143 259 
 ZAR  HN ES       1020 41.68                             123    0.19 9  200 293 
 ZAR  HZ I        1020 47.01         1.5 0.30            122            200 293 
 SML  HZ EP   4   1020 20.63                             117   -0.34 0  242 336 
 SML  HN ES       1020 49.30                             117   -0.09 8  242 336 
 SML  HZ I        1020 52.32         2.7 0.10            118            242 336 
 CHI  HZ EP       1020 22.35                             117    0.33 8  247 194 
 CHI  HN ES       1020 51.01                             117   -0.24 8  247 194 
 CHI  HZ I        1020 54.92         1.3 0.58            118            247 194 
                                                                                
