 2014  8 4 1616  5.5 L   6.781 -73.145140.0  RSN  5 0.3 1.3LRSN                1
 GAP=201        0.74       4.5     4.9  7.7  0.9738E+01  0.2413E+01 -0.1106E+02E
 Epicentro: LOS SANTOS - SANTANDER                                             3
 ACTION:UPD 14-09-15 21:46 OP:nd   STATUS:               ID:20140804161605 L   I
 OLDACT:REG 14-08-04 21:05 OP:spq  STATUS:               ID:20140804160820     3
 2014-08-04-1608-20M.COL___248                                                 6
 STAT SP IPHASW D HRMM SECON CODA AMPLIT PERI AZIMU VELO AIN AR TRES W  DIS CAZ7
 BAR2 SZ EP     C 1616 24.62                             171    0.1810 21.3 191 
 BAR2 SZ ES   1   1616 39.40                             171    0.23 7 21.3 191 
 BAR2 SZ I        1616 41.15         3.1 0.10            169           21.3 191 
 RUS  HZ EP       1616 28.58                             143    0.0110 98.5 176 
 RUS  HE ES   1   1616 46.24                             143   -0.30 7 98.5 176 
 RUS  HZ I        1616 48.01         1.9 0.40            147           98.5 176 
 PTB  HZ EP       1616 31.60                             131   -0.42 9  147 260 
 PTB  HE ES       1616 52.67                             131    0.00 9  147 260 
 PTB  HZ I        1616 58.34         1.8 0.30            131            147 260 
 ZAR  HZ EP   1   1616 38.56                             121    0.85 6  205 293 
 ZAR  HN ES       1617  2.92                             121    0.12 9  205 293 
 ZAR  HZ I        1617 11.38         2.5 0.20            122            205 293 
 SML  HE ES       1617 10.20                             116   -0.35 8  246 335 
 SML  HZ I        1617 14.38         4.6 0.11            118            246 335 
                                                                                
