 2017  6 4 1657 14.6 L   6.745 -73.167146.1  RSN  7 0.4 1.5LRSN                1
 GAP=231        0.95       5.0     5.6  7.4  0.1002E+02  0.6615E+01 -0.1187E+01E
 Epicentro: LOS SANTOS - SANTANDER                                             3
 ACTION:UPD 17-09-14 16:49 OP:jn   STATUS:               ID:20170604165714 L   I
 OLDACT:UP  17-06-15 16:06 OP:nlst STATUS:               ID:20170604165714 L   3
 OLDACT:DUP 17-06-05 01:34 OP:ar   STATUS:               ID:20170604164740d    3
 OLDACT:REG 17-06-04 22:14 OP:ar   STATUS:               ID:20170604164739     3
 2017-06-04-1648-00M.COL___344                                                 6
 STAT SP IPHASW D HRMM SECON CODA AMPLIT PERI AZIMU VELO AIN AR TRES W  DIS CAZ7
 BRR  HZ EP       1657 35.69                             152   -0.1710 72.3 304 
 BRR  HE ES       1657 52.27                             152   -0.1610 72.3 304 
 RUS  HZ EP       1657 38.30                             145    0.3110 94.7 174 
 RUS  HN ES       1657 56.01                             145   -0.2010 94.7 174 
 RUS  HZ I        1657 57.00         2.8 0.22            147           94.7 174 
 PTB  HZ EP       1657 40.66                             133   -0.65 9  144 261 
 PTB  HN ES       1658  2.27                             133    0.15 9  144 261 
 PTB  HZ I        1658  3.58         4.0 0.30            132            144 261 
 SPBC HN ES       1658  4.76                             130    0.41 9  157 220 
 ZAR  HZ EP       1657 47.38                             122    0.27 9  204 294 
 ZAR  HE ES       1658 12.90                             122    0.46 9  204 294 
 ZAR  HZ I        1658 18.45         5.5 0.28            122            204 294 
 NOR  HZ EP       1657 50.08                             119    0.29 8  229 235 
 NOR  HN ES   4   1658 18.27                             119    1.05 0  229 235 
 NOR  HZ I        1658 20.18         2.2 0.36            119            229 235 
 CBOC HE ES       1658 36.43                             110   -0.89 7  330 253 
                                                                                
