 2014  7 4 1518 12.8 L   6.825 -73.196137.2  RSN 18 0.4 2.4LRSN                1
 GAP= 68        0.96       2.2     2.9  4.7 -0.7379E+00  0.3143E+01  0.1120E+01E
 Epicentro: ZAPATOCA - SANTANDER                                               3
 ACTION:UPD 15-03-16 20:41 OP:nd   STATUS:               ID:20140704151812 L   I
 OLDACT:REG 14-07-04 18:18 OP:spq  STATUS:               ID:20140704150818     3
 2014-07-04-1508-18M.COL___256                                                 6
 STAT SP IPHASW D HRMM SECON CODA AMPLIT PERI AZIMU VELO AIN AR TRES W  DIS CAZ7
 BAR2 SZ EP       1518 31.66                             169    0.2510 25.8 177 
 BAR2 SZ ES   1   1518 45.27                             169   -0.69 7 25.8 177 
 BAR2 SZ I        1518 48.16        50.7 0.24            169           25.8 177 
 BRR  HZ EP       1518 33.35                             153    0.7210 65.0 299 
 BRR  HN ES       1518 48.64                             153    0.5110 65.0 299 
 BRR  HZ I        1518 54.56        39.5 0.18            151           65.0 299 
 PAM  SZ EP       1518 34.42                             149    0.2510 79.0  44 
 PAM  SE ES       1518 50.91                             149    0.0410 79.0  44 
 PAM  SZ I        1518 53.81        56.7 0.42            154           79.0  44 
 RUS  HZ EP       1518 35.63                             141   -0.2910  104 173 
 RUS  HN ES       1518 54.09                             141    0.1010  104 173 
 RUS  HZ I        1518 55.52        38.2 0.36            145            104 173 
 PTB  HZ EP       1518 38.43                             131   -0.15 9  143 257 
 PTB  HN ES       1518 58.77                             131    0.04 9  143 257 
 PTB  HZ I        1519  1.98        24.9 0.12            131            143 257 
 OCA  HZ EP       1518 40.29                             128    0.20 9  157 355 
 OCA  HE ES       1519  0.84                             128   -0.58 9  157 355 
 OCA  HZ I        1519  6.22        25.4 0.36            131            157 355 
 TAM  HZ IP     D 1518 40.06                             127   -0.29 9  161 105 
 SPBC HZ IP     C 1518 40.57                             127    0.08 9  162 217 
 SPBC HN ES       1519  1.73                             127   -0.39 9  162 217 
 SPBC HZ I        1519  5.07        44.3 0.26            129            162 217 
 ZAR  HZ EP       1518 44.28                             121    0.27 9  198 292 
 ZAR  HN ES       1519  7.94                             121   -0.45 9  198 292 
 ZAR  HZ I        1519 15.28        20.8 0.30            122            198 292 
 SML  HZ EP       1518 48.49                             116    0.10 8  239 336 
 SML  HN ES       1519 16.48                             116    0.30 8  239 336 
 SML  HZ I        1519 18.77        40.9 0.10            118            239 336 
 CHI  HZ EP       1518 49.79                             115   -0.34 8  250 194 
 CHI  HN ES       1519 19.15                             115   -0.14 8  250 194 
 CHI  HZ I        1519 25.43        13.2 0.34            118            250 194 
 HEL  HZ EP   4   1518 53.43                             113    1.41 0  267 255 
 HEL  HN ES   1   1519 22.07                             113   -0.58 6  267 255 
 HEL  HZ I        1519 31.93        12.4 0.38            115            267 255 
 URE  HZ EP       1518 52.10                             112   -0.62 7  278 292 
 URE  HE ES   1   1519 22.94                             112   -0.96 6  278 292 
 URE  HZ I        1519 34.63        16.2 0.28            114            278 292 
 GUY2CHZ EP       1518 55.37                             111   -0.28 7  298 234 
 GUY2CHN ES       1519 29.77                             111    0.66 7  298 234 
 RREF HZ EP   4   1518 59.45                             109    1.19 0  319 228 
 RREF HE ES       1519 33.97                             109    0.21 7  319 228 
 RREF HZ I        1519 40.86        13.8 0.24            111            319 228 
 TOL  SZ EP       1519  1.43                             108    0.97 7  342 224 
 TOL  SN ES       1519 38.11                             108    0.44 7  342 224 
 PRA  HZ EP       1519  5.49                             105   -0.46 6  392 209 
 SJC  HZ EP   4   1519  6.05                             104   -1.37 0  404 327 
 SJC  HN ES   4   1519 46.39                             104   -3.67 0  404 327 
 SJC  HZ I        1519 50.60        10.4 0.68            106            404 327 
                                                                                
