 2013 11 4 1008 46.2 L   6.785 -73.170139.5  RSN  8 0.5 1.4LRSN                1
 GAP=134        1.17       4.1     5.2  8.9 -0.3462E+01  0.1543E+02 -0.2036E+01E
 Epicentro: LOS SANTOS - SANTANDER                                             3
 ACTION:UPD 14-01-09 16:25 OP:ep   STATUS:               ID:20131104100846 L   I
 OLDACT:REG 13-11-04 17:38 OP:jn   STATUS:               ID:20131104100746     3
 2013-11-04-1007-46M.COL___213                                                 6
 STAT SP IPHASW D HRMM SECON CODA AMPLIT PERI AZIMU VELO AIN AR TRES W  DIS CAZ7
 BAR2 SZ EP       10 9  5.27                             171    0.2210 21.3 184 
 BAR2 SZ ES       10 9 20.01                             171    0.2710 21.3 184 
 BAR2 SZ I        10 9 21.32        13.2 0.22            171           21.3 184 
 BRR  HZ EP       10 9  7.10                             152    0.4910 69.7 301 
 BRR  HN ES   4   10 9 23.98                             152    1.48 0 69.7 301 
 PAM  SZ EP       10 9  8.30                             149    0.3410 80.4  40 
 PAM  SN ES       10 9 24.93                             149    0.0210 80.4  40 
 PAM  SZ I        10 9 28.39         2.7 0.30            152           80.4  40 
 RUS  HZ EP       10 9  9.25                             143    0.0010 99.1 174 
 RUS  HN ES       10 9 26.92                             143   -0.2810 99.1 174 
 RUS  HZ I        10 9 28.55         2.0 0.22            145           99.1 174 
 PTB  HZ EP       10 9 11.48                             131   -0.93 9  145 259 
 PTB  HN ES       10 9 32.68                             131   -0.16 9  145 259 
 PTB  HZ I        10 9 35.31         3.9 0.20            133            145 259 
 SPBC HZ EP       10 9 14.23                             128    0.28 9  160 219 
 SPBC HN ES       10 9 35.38                             128   -0.20 9  160 219 
 SPBC HZ I        10 9 40.02         2.7 0.12            130            160 219 
 OCA  HN ES       10 9 35.14                             128   -0.85 9  162 354 
 ZAR  HN ES       10 9 43.65                             121    0.73 9  202 293 
                                                                                
