 2011  7 4 1845 41.2 L   6.907 -72.867138.9  RSN  4 0.4 1.3LRSN                1
 GAP=188        0.70       4.9     9.4  9.8  0.8320E+01 -0.2892E+02 -0.6131E+01E
 Epicentro: GUACA - SANTANDER                                                  3
 ACTION:UPD 12-07-25 13:58 OP:epov STATUS:               ID:20110704184541 L   I
 2011-07-04-1841-00S.COL___139                                                 6
 STAT SP IPHASW D HRMM SECON CODA AMPLIT PERI AZIMU VELO AIN AR TRES W  DIS CAZ7
 BAR2 SZ EP   1   1846  1.37                             159    0.56 7 49.2 225 
 BAR2 SZ I        1846  1.93         5.5 0.37                          49.2 225 
 BAR2 SZ ES   2   1846 16.67                             159    0.54 5 49.2 225 
 BRR  HZ EP       1846  3.21                             143    0.0010 95.9 283 
 BRR  HZ I        1846  3.41         7.7 0.14                          95.9 283 
 BRR  HN ES   1   1846 20.21                             143   -0.20 7 95.9 283 
 GRA  SZ EP   2   1846  3.77                             140   -0.60 5  108   4 
 GRA  SZ ES   2   1846 22.52                             140    0.04 5  108   4 
 GRA  SZ I        1846 27.98         2.2 0.31                           108   4 
 RUS  HZ EP   1   1846  5.48                             138    0.13 7  115 192 
 RUS  HN ES   1   1846 23.70                             138   -0.51 7  115 192 
 RUS  HZ I        1846 25.18         1.7 0.21                           115 192 
                                                                                
