 2014  8 4 1626 34.3 L   6.795 -73.159146.0  RSN 11 0.4 1.8LRSN                1
 GAP=135        1.01       3.1     4.0  6.0 -0.9048E+00  0.6801E+01  0.9518E+00E
 Epicentro: LOS SANTOS - SANTANDER                                             3
 ACTION:UPD 14-09-15 21:46 OP:nd   STATUS:               ID:20140804162634 L   I
 OLDACT:REG 14-08-04 21:06 OP:spq  STATUS:               ID:20140804161817     3
 2014-08-04-1618-17M.COL___248                                                 6
 STAT SP IPHASW D HRMM SECON CODA AMPLIT PERI AZIMU VELO AIN AR TRES W  DIS CAZ7
 BAR2 SZ IP     D 1626 54.09                             171    0.1910 22.5 187 
 BAR2 SZ ES   1   1627  9.07                             171   -0.15 7 22.5 187 
 BAR2 SZ I        1627 10.83         7.1 0.21            168           22.5 187 
 BRR  HZ IP     D 1626 56.03                             153    0.6510 70.2 300 
 BRR  HN ES       1627 12.47                             153    0.6210 70.2 300 
 BRR  HZ I        1627 17.82         7.5 0.24            151           70.2 300 
 PAM  SZ EP       1626 56.73                             150    0.1510 78.8  40 
 PAM  SN ES       1627 13.43                             150   -0.5610 78.8  40 
 PAM  SZ I        1627 16.00         9.6 0.58            157           78.8  40 
 RUS  HZ EP       1626 57.54                             144   -0.4610  100 175 
 RUS  HE ES       1627 17.05                             144    0.5410  100 175 
 RUS  HZ I        1627 18.52         3.9 0.36            146            100 175 
 PTB  HZ EP       1627  0.77                             132   -0.34 9  146 259 
 PTB  HE ES       1627 21.20                             132   -0.85 9  146 259 
 PTB  HZ I        1627 27.94        10.2 0.26            132            146 259 
 SPBC HZ EP       1627  3.01                             129    0.36 9  162 219 
 SPBC HE ES       1627 24.46                             129   -0.33 9  162 219 
 SPBC HZ I        1627 32.08        14.1 0.24            130            162 219 
 ZAR  HZ EP       1627  6.57                             123   -0.04 9  203 292 
 ZAR  HN ES       1627 31.92                             123    0.09 9  203 292 
 ZAR  HZ I        1627 38.50         7.6 0.19            124            203 292 
 SML  HZ EP   1   1627 10.69                             117   -0.20 6  244 336 
 SML  HN ES       1627 39.36                             117   -0.11 8  244 336 
 SML  HZ I        1627 42.68         8.7 0.11            120            244 336 
 CHI  HZ EP   1   1627 11.82                             117   -0.05 6  248 195 
 CHI  HN ES   1   1627 40.68                             117   -0.52 6  248 195 
 CHI  HZ I        1627 45.47         2.2 0.24            119            248 195 
 GUY2CHZ EP   1   1627 17.82                             112    0.11 5  300 235 
 GUY2CHN ES       1627 52.00                             112    0.41 7  300 235 
 GUY2CHZ I        1628  1.12         3.7 0.36                           300 235 
 RREF HN ES   1   1627 56.21                             111    0.10 5  320 229 
 RREF HZ I        1628  6.13         3.7 0.30            113            320 229 
                                                                                
