 2010  5 4 1314 39.5 L   6.805 -72.935146.5  RSN  5 0.3 2.1LRSN                1
 GAP=269        0.58       6.6    10.5  8.0  0.1610E+01  0.5194E+01  0.2763E+02E
 Epicentro: CEPITA - SANTANDER                                                 3
 ACTION:UP  10-08-24 10:02 OP:vdl  STATUS:               ID:20100504131439 L   I
 2010-05-04-1311-15S.COL___105                                                 6
 STAT SP IPHASW D HRMM SECON CODA AMPLIT PERI AZIMU VELO SNR AR TRES W  DIS CAZ7
 BAR2 SZ EP   1   1314 59.76                             165     0.2 7   36 229 
 BAR2 SZ ES   2   1315 14.68                             165    -0.5 5   36 229 
 BRR  HZ EP   1   1315  2.23                             146     0.2 7   92 291 
 BRR  HE ES   2   1315 19.36                             146    -0.2 5   92 291 
 BRR  HZ I        1315 21.01        18.4 0.52                            92 291 
 CHI  HZ EP   1   1315 17.74                             117    -0.3 6  256 200 
 CHI  HZ I        1315 19.18         3.1 0.43                           256 200 
 CHI  HE ES   2   1315 48.72                             117     0.6 4  256 200 
 RREF BZ EP   1   1315 27.61                             110    -0.1 5  340 232 
 RREF BN ES   2   1316  5.64                             110     0.2 3  340 232 
 RREF BZ I        1316 12.27         3.1 0.29                           340 232 
 PRA  HZ EP   1   1315 34.07                             106    -0.4 4  404 212 
 PRA  HZ I        1315 55.64        11.0 0.47                           404 212 
                                                                                
