 2015  1 4 1708  9.0 L   6.760 -73.123149.9  RSN  7 0.5 2.0LRSN                1
 GAP=237        1.24       6.4     6.8  8.1  0.1334E+02  0.1439E+02  0.4537E+01E
 Epicentro: LOS SANTOS - SANTANDER                                             3
 ACTION:UPD 15-03-02 15:36 OP:nd   STATUS:               ID:20150104170809 L   I
 OLDACT:UP  15-01-04 23:38 OP:cam  STATUS:               ID:20150104170747     3
 OLDACT:REG 15-01-04 23:35 OP:cam  STATUS:               ID:20150104170747     3
 2015-01-04-1707-47M.COL___280                                                 6
 STAT SP IPHASW D HRMM SECON CODA AMPLIT PERI AZIMU VELO AIN AR TRES W  DIS CAZ7
 BAR2 EZ EP       17 8 29.04                             172    0.0010 19.7 199 
 BAR2 EZ ES       17 8 44.48                             172   -0.2110 19.7 199 
 BAR2 EZ I        17 8 45.13        13.5 0.22            165           19.7 199 
 BRR  HN ES       17 8 48.44                             152    0.5810 75.6 301 
 RUS  HZ EP       17 8 32.77                             146   -0.0510 96.0 177 
 RUS  HE ES       17 8 51.07                             146   -0.3510 96.0 177 
 RUS  HZ I        17 8 52.71         6.5 0.30            145           96.0 177 
 PTB  HZ EP       17 8 36.51                             133    0.08 9  149 261 
 PTB  HN ES       17 8 57.00                             133   -0.85 9  149 261 
 PTB  HZ I        17 9  4.41        10.9 0.32            130            149 261 
 SPBC HZ EP       17 8 37.87                             130    0.24 9  161 221 
 SPBC HE ES       17 9  0.96                             130    0.99 9  161 221 
 SPBC HZ I        17 9  7.21        16.4 0.28            128            161 221 
 ZAR  HZ EP       17 8 42.64                             123    0.54 8  208 293 
 ZAR  HN ES       17 9  7.57                             123   -0.38 8  208 293 
 ZAR  HN I        17 9 13.88        15.2 0.16            122            208 293 
 NOR  HZ EP       17 8 44.08                             119   -0.82 8  234 236 
 NOR  HN ES       17 9 13.06                             119    0.15 8  234 236 
 NOR  HZ I        17 9 16.59         8.2 0.20            118            234 236 
                                                                                
