 2012 11 4 1915 31.5 L   6.811 -73.093143.9  RSN 10 0.4 2.6LRSN                1
 GAP= 73        0.99       3.6     4.0  6.3  0.5258E+00  0.3538E+01  0.3458E+01E
 Epicentro: LOS SANTOS - SANTANDER                                             3
 ACTION:UPD 12-12-05 15:31 OP:}ep  STATUS:               ID:20121104191531 L   I
 2012-11-04-1910-00M.COL___230                                                 6
 STAT SP IPHASW D HRMM SECON CODA AMPLIT PERI AZIMU VELO AIN AR TRES W  DIS CAZ7
 BAR2 SZ IP       1915 50.80                             169   -0.1110 26.1 202 
 BAR2 SZ ES   1   1916  5.54                             169   -0.56 7 26.1 202 
 BAR2 SZ I        1916  6.87        66.5 0.20                          26.1 202 
 GIR2 SZ IP       1915 50.90                             167   -0.0110 31.7 339 
 PAM  SZ EP       1915 53.64                             152    0.4410 72.8  37 
 PAM  SN ES       1916 10.68                             152    0.5210 72.8  37 
 PAM  SN I        1916 11.67        86.5 0.46                          72.8  37 
 BRR  HZ IP     C 1915 52.73                             151    0.0610 75.9 296 
 BRR  HN ES       1916  9.70                             151    0.4810 75.9 296 
 BRR  HN I        1916 10.01       104.9 0.20                          75.9 296 
 RUS  HZ IP     C 1915 54.71                             143   -0.3810  102 179 
 RUS  HN ES       1916 13.20                             143   -0.3210  102 179 
 RUS  HN I        1916 13.88        44.0 0.22                           102 179 
 TAM  HZ EP       1915 59.01                             131    0.53 9  150 106 
 TAM  HN ES   2   1916 19.13                             131   -0.44 5  150 106 
 TAM  HN I        1916 24.69        28.6 0.32                           150 106 
 OCA  HZ EP   1   1915 59.07                             129   -0.51 7  160 351 
 OCA  HN ES       1916 20.67                             129   -0.85 9  160 351 
 OCA  HN I        1916 25.07        87.9 0.20                           160 351 
 ZAR  HN ES   1   1916 29.89                             121   -0.03 6  209 291 
 CHI  HZ EP   1   1916  8.92                             116   -0.42 6  251 196 
 CHI  HE ES   2   1916 39.63                             116    0.73 4  251 196 
 CHI  HN I        1916 42.38        15.9 0.22                           251 196 
 HEL  HZ EP       1916 12.34                             114    0.11 7  278 256 
 HEL  HN ES       1916 44.43                             114    0.39 7  278 256 
 HEL  HN I        1916 50.26        20.1 0.28                           278 256 
                                                                                
