 2013  9 4 1542 42.6 L   6.784 -73.172141.5  RSN  5 0.3 1.8LRSN                1
 GAP=134        0.54       3.5     4.5  6.1 -0.1714E+01  0.8219E+01 -0.2632E+01E
 Epicentro: LOS SANTOS - SANTANDER                                             3
 ACTION:UPD 13-10-22 09:20 OP:ep   STATUS:               ID:20130904154242 L   I
 OLDACT:REG 13-09-04 14:49 OP:mh   STATUS:               ID:20130904153959     3
 2013-09-04-1539-59M.COL___270                                                 6
 STAT SP IPHASW D HRMM SECON CODA AMPLIT PERI AZIMU VELO AIN AR TRES W  DIS CAZ7
 BAR2 SZ EP   1   1543  1.63                             171   -0.02 7 21.3 183 
 BAR2 SZ ES   2   1543 15.88                             171   -0.65 5 21.3 183 
 BAR2 SZ I        1543 17.62        14.8 0.16            172           21.3 183 
 BRR  HZ EP   1   1543  3.42                             152    0.26 7 69.6 301 
 BRR  HN ES   2   1543 19.90                             152    0.67 5 69.6 301 
 BRR  HN I        1543 20.72        40.4 0.20            153           69.6 301 
 PAM  SZ EP   1   1543  4.56                             149    0.03 7 80.5  40 
 PAM  SN ES   1   1543 21.50                             149   -0.16 7 80.5  40 
 PAM  SZ I        1543 23.79         9.0 0.64            152           80.5  40 
 RUS  HZ EP   1   1543  5.81                             143    0.02 7 99.1 174 
 RUS  HN ES       1543 24.04                             143    0.1310 99.1 174 
 RUS  HZ I        1543 25.52         4.6 0.30            146           99.1 174 
 PTB  HZ EP   1   1543  8.64                             132   -0.26 7  145 259 
 PTB  HN ES   2   1543 29.07                             132   -0.37 5  145 259 
 PTB  HZ I        1543 32.08         7.3 0.14            133            145 259 
                                                                                
