 2015  6 4 1408 59.5 L   6.759 -73.140145.6  RSN  5 0.4 2.0LRSN                1
 GAP=235        0.91       5.2     6.8  8.1  0.1747E+02  0.1719E+01 -0.3761E+01E
 Epicentro: LOS SANTOS - SANTANDER                                             3
 ACTION:UPD 15-09-10 22:09 OP:cam  STATUS:               ID:20150604140859 L   I
 OLDACT:REG 15-06-04 20:51 OP:ar   STATUS:               ID:20150604140749     3
 2015-06-04-1407-49M.COL___294                                                 6
 STAT SP IPHASW D HRMM SECON CODA AMPLIT PERI AZIMU VELO AIN AR TRES W  DIS CAZ7
 BAR2 EZ EP       14 9 19.05                             172   -0.0210 19.0 194 
 BAR2 EZ I        14 9 34.86        28.9 0.34            174           19.0 194 
 BRR  HZ EP       14 9 20.58                             152   -0.2510 74.0 301 
 BRR  HE ES       14 9 37.94                             152    0.5010 74.0 301 
 BRR  HZ I        14 9 40.99        16.3 0.16            152           74.0 301 
 RUS  HZ EP       14 9 22.96                             145    0.0110 96.0 176 
 RUS  HE ES       14 9 40.87                             145   -0.3410 96.0 176 
 RUS  HZ I        14 9 42.48         6.7 0.22            146           96.0 176 
 SPBC HZ EP       14 9 27.94                             130    0.21 9  160 220 
 SPBC HN ES       14 9 49.91                             130    0.19 9  160 220 
 SPBC HZ I        14 9 56.86        10.0 0.32            131            160 220 
 ZAR  HZ EP       14 9 32.63                             122    0.42 8  206 293 
 ZAR  HE ES       14 9 56.95                             122   -0.75 8  206 293 
 ZAR  HZ I        1410  3.60        16.4 0.24            122            206 293 
                                                                                
