 2014 12 4 1630 44.9 L   6.763 -73.129146.6  RSN 13 0.4 1.9LRSN                1
 GAP=140        0.97       3.0     4.2  5.9 -0.2627E+01  0.5897E+01  0.2509E+01E
 Epicentro: LOS SANTOS - SANTANDER                                             3
 ACTION:UPD 15-02-10 17:00 OP:nd   STATUS:               ID:20141204163044 L   I
 OLDACT:REG 14-12-04 20:38 OP:spq  STATUS:               ID:20141204162746     3
 2014-12-04-1627-46M.COL___306                                                 6
 STAT SP IPHASW D HRMM SECON CODA AMPLIT PERI AZIMU VELO AIN AR TRES W  DIS CAZ7
 BAR2 SZ EP       1631  4.40                             172   -0.1510 19.8 197 
 BAR2 SZ ES   1   1631 19.54                             172   -0.35 7 19.8 197 
 BAR2 SZ I        1631 20.64        14.0 0.24            169           19.8 197 
 BRR  HZ EP       1631  6.40                             151    0.0710 74.8 301 
 BRR  HE ES   1   1631 24.16                             151    1.11 7 74.8 301 
 BRR  HZ I        1631 29.74        14.4 0.48            149           74.8 301 
 PAM  SZ EP       1631  7.18                             150   -0.1310 79.4  37 
 PAM  SE ES       1631 24.46                             150   -0.3410 79.4  37 
 PAM  SZ I        1631 26.59         7.7 0.56            155           79.4  37 
 RUS  HZ EP       1631  8.33                             145   -0.0910 96.4 177 
 RUS  HE ES   1   1631 26.84                             145    0.06 7 96.4 177 
 RUS  HZ I        1631 28.35         5.0 0.26            149           96.4 177 
 PTB  HZ EP       1631 11.37                             132   -0.64 9  149 261 
 PTB  HN ES       1631 33.05                             132   -0.13 9  149 261 
 PTB  HZ I        1631 39.67        10.4 0.40            132            149 261 
 SPBC HZ EP       1631 13.43                             130    0.17 9  161 220 
 SPBC HE ES       1631 35.59                             130    0.20 9  161 220 
 SPBC HZ I        1631 41.38        14.1 0.44            131            161 220 
 OCA  HN ES       1631 36.83                             129    0.73 9  165 353 
 OCA  HZ I        1631 40.44        11.3 0.38            132            165 353 
 ZAR  HZ EP   1   1631 17.19                             122   -0.52 6  207 293 
 ZAR  HN ES   1   1631 42.95                             122   -0.37 6  207 293 
 ZAR  HZ I        1631 48.46         8.7 0.26            123            207 293 
 NOR  HZ EP       1631 20.79                             119    0.22 8  234 236 
 NOR  HN ES       1631 47.91                             119   -0.50 8  234 236 
 NOR  HZ I        1631 52.24         5.9 0.20            120            234 236 
 CHI  HZ EP       1631 22.67                             118    0.41 8  245 196 
 CHI  HN ES   1   1631 51.48                             118    0.07 6  245 196 
 CHI  HZ I        1631 57.46         2.2 0.32            120            245 196 
 SML  HZ EP   1   1631 21.87                             117   -0.16 6  248 335 
 SML  HN ES   1   1631 50.48                             117   -0.53 6  248 335 
 SML  HZ I        1631 54.16        10.6 0.26            119            248 335 
 GUY2CHZ EP       1631 29.29                             112    0.85 7  300 236 
 GUY2CHN ES   4   1632  4.34                             112    1.93 0  300 236 
 GUY2CHZ I        1632  9.71         3.3 0.46                           300 236 
 SJC  HZ EP   4   1631 38.75                             106   -2.24 0  414 327 
 SJC  HN ES   4   1632 19.96                             106   -4.79 0  414 327 
 SJC  HZ I        1632 29.65         2.0 0.56            108            414 327 
                                                                                
