 2010  5 4 1803 53.6 L   6.759 -73.091143.0  RSN  6 0.6 2.1LRSN                1
 GAP=194        1.17      18.2    23.9 18.6 -0.3642E+03 -0.2791E+03  0.2308E+03E
 Epicentro: LOS SANTOS - SANTANDER                                             3
 ACTION:UP  10-08-24 10:02 OP:vdl  STATUS:               ID:20100504180353 L   I
 2010-05-04-1800-07S.COL___105                                                 6
 STAT SP IPHASW D HRMM SECON CODA AMPLIT PERI AZIMU VELO SNR AR TRES W  DIS CAZ7
 GIR2 SZ EP   1   18 4 12.46                             165    -0.6 7   37 342 
 GIR2 SZ ES   2   18 4 28.17                             165    -0.1 5   37 342 
 BRR  HZ IP       18 4 14.84                             150     0.010   79 299 
 BRR  HN ES   2   18 4 31.96                             150     0.5 5   79 299 
 BRR  HZ I        18 4 32.71        16.0 0.14                            79 299 
 BRI  SZ IP     C 18 4 17.98                             140     0.610  111  17 
 GUE  SZ IP     D 18 4 17.39                             138    -0.910  120   9 
 GUE  SZ ES   2   18 4 36.99                             138    -0.6 5  120   9 
 GRA  SZ IP     D 18 4 19.19                             136     0.410  129  14 
 GRA  SZ ES   2   18 4 39.21                             136     0.8 5  129  14 
 PRA  HZ EP   1   18 4 47.03                             106     0.2 4  391 211 
 PRA  HE ES   2   18 5 28.89                             106     0.4 3  391 211 
 PRA  HZ I        18 5 32.96         6.5 0.30                           391 211 
                                                                                
