 2011 11 4 1722  1.9 L   6.780 -73.127137.9  RSN  5 0.3 1.6LRSN                1
 GAP=140        0.53       4.4     4.6  6.7 -0.1039E+01  0.5376E+01 -0.6134E+00E
 Epicentro: LOS SANTOS - SANTANDER                                             3
 ACTION:UPD 12-07-13 16:08 OP:ep   STATUS:               ID:20111104172201 L   I
 2011-11-04-1719-19S.COL___175                                                 6
 STAT SP IPHASW D HRMM SECON CODA AMPLIT PERI AZIMU VELO AIN AR TRES W  DIS CAZ7
 BAR2 SZ EP       1722 20.51                             171   -0.0710 21.6 197 
 BAR2 SZ ES   2   1722 34.79                             171   -0.33 5 21.6 197 
 BAR2 SZ I        1722 36.63        16.7 0.38                          21.6 197 
 BRR  HZ EP       1722 22.34                             150   -0.0610 74.1 299 
 BRR  HN ES   2   1722 39.18                             150    0.80 5 74.1 299 
 BRR  HZ I        1722 43.52        11.7 0.14                          74.1 299 
 PAM  SZ EP       1722 23.45                             149    0.1110 77.8  37 
 PAM  SN ES   1   1722 39.89                             149   -0.15 7 77.8  37 
 RUS  HZ EP   2   1722 25.08                             143    0.34 5 98.2 177 
 RUS  HN ES   2   1722 42.48                             143   -0.05 5 98.2 177 
 RUS  HZ I        1722 43.88         3.0 0.28                          98.2 177 
 ZAR  HN ES   2   1722 58.81                             120   -0.50 4  207 292 
                                                                                
