 2012 11 4 1053 33.6 L   6.694 -73.166150.9  RSN  7 0.4 1.7LRSN                1
 GAP=138        0.76       4.0     6.2  7.6  0.9377E+01 -0.9623E+01 -0.2839E+01E
 Epicentro: VILLANUEVA - SANTANDER                                             3
 ACTION:UPD 12-12-05 15:31 OP:}ep  STATUS:               ID:20121104105333 L   I
 2012-11-04-1050-00M.COL___229                                                 6
 STAT SP IPHASW D HRMM SECON CODA AMPLIT PERI AZIMU VELO AIN AR TRES W  DIS CAZ7
 BAR2 SZ EP       1053 53.85                             175    0.1410 11.4 189 
 BRR  HZ EP       1053 55.82                             152    0.2210 75.7 307 
 BRR  HN ES       1054 12.96                             152    0.2410 75.7 307 
 BRR  HN I        1054 13.66        12.9 0.20                          75.7 307 
 PAM  SZ EP       1053 56.80                             148   -0.2510 88.0  36 
 PAM  SN I        1054 15.08         6.8 0.52                          88.0  36 
 RUS  HZ EP   1   1053 57.52                             148    0.40 7 89.1 174 
 RUS  HN ES       1054 15.08                             148   -0.3610 89.1 174 
 RUS  HN I        1054 17.73         5.3 0.28                          89.1 174 
 OCA  HE ES   2   1054 26.70                             129    0.05 4  172 354 
 OCA  HE I        1054 28.83        12.5 0.54                           172 354 
 ZAR  HN ES   1   1054 31.89                             123   -0.59 6  207 295 
 CHI  HZ EP   1   1054  9.97                             119   -0.39 6  237 195 
 CHI  HN ES   2   1054 39.97                             119    0.98 4  237 195 
 CHI  HN I        1054 48.29         2.4 0.44                           237 195 
                                                                                
