 2010  9 4 1319 59.7 L   6.780 -73.035143.2  RSN 11 0.3 2.1LRSN                1
 GAP=171        0.61       3.0     6.0  4.2 -0.5500E+01 -0.4514E+00 -0.2069E-01E
 Epicentro: CEPITA - SANTANDER                                                 3
 ACTION:UP  11-02-18 11:00 OP:tino STATUS:               ID:20100904131959 L   I
 2010-09-04-1317-22S.COL___120                                                 6
 STAT SP IPHASW D HRMM SECON CODA AMPLIT PERI AZIMU VELO SNR AR TRES W  DIS CAZ7
 BAR2 SZ IP       1320 19.13                             169     0.110   26 218 
 BAR2 SZ ES   1   1320 34.06                             169    -0.1 7   26 218 
 BAR2 SZ I        1320 35.35        37.8 0.29                            26 218 
 BTL  SZ EP       1320 19.25                             168     0.110   30 301 
 BTL  SZ ES   1   1320 34.30                             168     0.0 7   30 301 
 BRR  HZ IP     C 1320 20.94                             148    -0.310   83 296 
 BRR  HZ I        1320 21.17        40.0 0.14                            83 296 
 BRR  HN ES   1   1320 38.20                             148     0.1 7   83 296 
 RUS  HZ EP   2   1320 23.04                             144     0.0 5   98 183 
 RUS  HE ES   1   1320 41.17                             144     0.0 7   98 183 
 RUS  HZ I        1320 42.96        15.2 0.44                            98 183 
 GUE  SZ EP   2   1320 24.24                             139     0.1 5  117   6 
 GRA  SZ IP       1320 24.86                             137     0.210  125  12 
 GRA  SZ ES   2   1320 44.54                             137     0.5 5  125  12 
 GRA  SZ I        1320 46.65         5.4 0.36                           125  12 
 OCA  SZ EP   1   1320 27.83                             128    -0.3 7  164 349 
 OCA  SZ I        1320 52.78        10.4 0.24                           164 349 
 CHI  HZ EP   2   1320 36.98                             116    -0.4 4  250 198 
 CHI  HE ES   2   1321  6.82                             116     0.0 4  250 198 
 CHI  HZ I        1321 14.14         5.9 0.26                           250 198 
 GUY  SZ EP   2   1320 45.03                             111     0.9 4  310 237 
 GUY  SZ I        1321 26.83        18.7 0.26                           310 237 
 RREF HZ EP   2   1320 46.25                             110    -0.4 3  330 231 
 RREF HN ES   2   1321 24.23                             110     1.0 3  330 231 
 RREF HZ I        1321 28.43         6.7 0.47                           330 231 
 PRA  HZ EP   1   1320 53.10                             106    -0.5 4  396 211 
 PRA  HE ES   2   1321 35.53                             106    -0.1 3  396 211 
 PRA  HZ I        1321 40.76         5.9 0.35                           396 211 
                                                                                
