 2017 11 4 1707 43.7 L   6.797 -73.177147.9  RSN 13 0.5 2.1LRSN                1
 GAP=109        0.85       2.9     2.9  5.3  0.3376E+00  0.2327E+01  0.4271E+01E
 Epicentro: LOS SANTOS - SANTANDER                                             3
 ACTION:UPD 17-12-12 19:52 OP:rebc STATUS:               ID:20171104170743 L   I
 OLDACT:UP  17-11-05 01:22 OP:mg   STATUS:               ID:20171104165737     3
 OLDACT:UP  17-11-05 01:22 OP:mg   STATUS:               ID:20171104165737     3
 OLDACT:REG 17-11-04 20:50 OP:mg   STATUS:               ID:20171104165737     3
 2017-11-04-1658-00M.COL___432                                                 6
 STAT SP IPHASW D HRMM SECON CODA AMPLIT PERI AZIMU VELO AIN AR TRES W  DIS CAZ7
 BAR2 EZ EP     D 17 8  3.55                             171   -0.0510 22.7 182 
 BAR2 EZ ES   2   17 8 18.75                             171   -0.35 5 22.7 182 
 BAR2 EZ I        17 8 21.27        33.4 0.32            170           22.7 182 
 BRR  HZ EP       17 8  5.32                             154    0.3710 68.4 300 
 BRR  HN ES       17 8 22.23                             154    0.7310 68.4 300 
 BRR  HZ I        17 8 23.19        16.2 0.17            153           68.4 300 
 PAM  EZ EP     C 17 8  6.22                             150   -0.0910 79.9  41 
 PAM  EN ES       17 8 23.66                             150   -0.2710 79.9  41 
 PAM  EZ I        17 8 26.52        18.0 0.40            152           79.9  41 
 RUS  HZ EP       17 8  7.36                             144   -0.3210  101 174 
 RUS  HN ES       17 8 26.04                             144   -0.3310  101 174 
 RUS  HZ I        17 8 27.33        22.2 0.36            144            101 174 
 PTB  HZ EP   2   17 8 10.38                             133   -0.18 5  144 259 
 PTB  HN ES       17 8 31.06                             133   -0.43 9  144 259 
 PTB  HZ I        17 8 33.33         6.1 0.11            133            144 259 
 SPBC HZ EP       17 8 12.55                             130    0.39 9  161 218 
 SPBC HN ES       17 8 34.15                             130   -0.19 9  161 218 
 SPBC HZ I        17 8 36.17        14.7 0.15            130            161 218 
 YPLC HZ EP       17 8 13.79                             127   -0.02 9  178 150 
 YPLC HN ES       17 8 37.89                             127    0.62 9  178 150 
 YPLC HZ I        17 8 40.64        13.1 0.22            127            178 150 
 ZAR  HZ EP   2   17 8 15.80                             123   -0.20 4  201 293 
 ZAR  HN ES       17 8 41.11                             123   -0.06 9  201 293 
 ZAR  HZ I        17 8 46.96        15.6 0.35            123            201 293 
 NOR  HZ EP       17 8 19.48                             119    0.22 8  232 234 
 NOR  HN ES       17 8 46.86                             119   -0.12 8  232 234 
 NOR  HZ I        17 8 50.26         6.9 0.22            119            232 234 
 CHI  HZ EP   2   17 8 21.45                             118    0.04 4  247 194 
 CHI  HN ES   1   17 8 50.80                             118   -0.01 6  247 194 
 CHI  HZ I        17 8 57.23         6.3 0.28            118            247 194 
 GUY2CHZ EP   2   17 8 28.66                             113    1.56 4  298 234 
 GUY2CHN ES   1   17 9  0.83                             113   -0.10 5  298 234 
 GUY2CHZ I        17 9  9.81         5.5 0.58                           298 234 
 PRA  HZ EP   1   17 8 37.21                             107    0.12 4  390 209 
 PRA  HN ES   1   17 9 17.81                             107   -0.90 4  390 209 
 PRA  HZ I        17 9 25.65         7.7 0.36            107            390 209 
 SJC  HZ EP   2   17 8 37.56                             106   -1.61 3  408 327 
 SJC  HE ES   3   17 9 20.31                             106   -2.11 1  408 327 
 SJC  HZ I        17 9 27.61         1.8 0.38            106            408 327 
                                                                                
