 2014  3 4 1507 35.6 L   6.803 -73.186141.5  RSN  5 0.2 1.7LRSN                1
 GAP=144        0.46       2.5     2.6  3.7 -0.2920E+01  0.2744E+01 -0.7551E+00E
 Epicentro: ZAPATOCA - SANTANDER                                               3
 OLDACT:DUP 14-03-04 18:28 OP:stll STATUS:               ID:20140304145814d    3
 ACTION:UPD 14-04-09 23:14 OP:nd   STATUS:               ID:20140304150735 L   I
 OLDACT:UP  14-03-04 18:31 OP:stll STATUS:               ID:20140304145814d    3
 2014-03-04-1458-13M.COL___235                                                 6
 STAT SP IPHASW D HRMM SECON CODA AMPLIT PERI AZIMU VELO AIN AR TRES W  DIS CAZ7
 BAR2 SZ EP       15 7 54.70                             170   -0.0310 23.3 179 
 BAR2 SZ ES       15 8  9.43                             170   -0.2210 23.3 179 
 BAR2 SZ I        15 8 12.22        19.0 0.32            170           23.3 179 
 PAM  SZ EP       15 7 57.55                             149    0.0110 80.0  42 
 PAM  SN ES       15 8 14.85                             149    0.2110 80.0  42 
 PAM  SZ I        15 8 16.63         7.3 0.54            153           80.0  42 
 RUS  HZ EP       15 7 58.98                             143   -0.0210  101 174 
 RUS  HN ES       15 8 17.17                             143   -0.0810  101 174 
 RUS  SZ I        15 8 18.38         7.0 0.74            144            101 174 
 PTB  HZ EP       15 8  1.70                             132   -0.15 9  144 258 
 PTB  HN ES       15 8 22.27                             132   -0.04 9  144 258 
 PTB  SZ I        15 8 24.07         7.4 0.44            133            144 258 
 SPBC HZ EP   1   15 8  3.55                             128   -0.00 7  161 218 
 SPBC HN ES       15 8 25.71                             128    0.36 9  161 218 
 SPBC SZ I        15 8 31.57         7.4 0.14            130            161 218 
                                                                                
