 2010  7 4 1546 18.8 L   6.560 -73.476113.4  RSN 14 0.5 2.8LRSN                1
 GAP= 66        0.87       3.1     5.0  5.9 -0.4993E+01  0.9229E+01 -0.2849E+01E
 Epicentro: EL CARMEN DE CHUCURI - SANTANDER                                   3
 ACTION:UPD 10-12-01 15:15 OP:pat  STATUS:               ID:20100704154618 L   I
 2010-07-04-1545-16S.COL___118                                                 6
 STAT SP IPHASW D HRMM SECON CODA AMPLIT PERI AZIMU VELO AIN AR TRES W  DIS CAZ7
 BAR2 SZ IP       1546 35.25                             163     0.410   33  84 
 BAR2 SZ ES   1   1546 47.29                             163    -0.1 7   33  84 
 BRR  HZ EP       1546 36.01                             147    -0.210   66 337 
 BRR  HN ES   1   1546 49.99                             147     0.2 7   66 337 
 BRR  HZ I        1546 52.52       254.2 0.15                            66 337 
 RUS  HZ IP       1546 38.17                             141    -0.210   86 149 
 RUS  HN ES   1   1546 53.18                             141    -0.4 7   86 149 
 RUS  HZ I        1546 56.58        73.2 0.32                            86 149 
 BRI  SZ EP   1   1546 44.61                             123     1.0 7  148  30 
 BRI  SZ I        1547 11.81        66.5 0.66                           148  30 
 GUE  SZ IP       1546 44.36                             123     0.0 9  153  23 
 GUE  SZ ES   2   1547  4.06                             123    -0.2 5  153  23 
 GRA  SZ EP   1   1546 44.53                             120    -0.8 7  164  27 
 GRA  SZ ES   2   1547  5.07                             120    -0.8 5  164  27 
 OCA  SZ EP       1546 47.58                             117    -0.1 9  186   5 
 OCA  SZ ES   2   1547 11.13                             117     1.0 4  186   5 
 OCA  SZ I        1547 16.93       116.4 0.24                           186   5 
 ROSC BZ EP   2   1546 51.57                             113     0.8 4  212 206 
 ROSC BN ES   1   1547 16.30                             113     0.6 6  212 206 
 ROSC BZ I        1547 21.75        41.2 0.32                           212 206 
 CHI  HZ EP   3   1546 51.03                             113    -0.2 2  215 188 
 CHI  HE ES   3   1547 15.99                             113    -0.4 2  215 188 
 HEL  HZ EP   2   1546 52.38                             111    -0.5 4  231 260 
 HEL  HN ES   3   1547 18.63                             111    -0.8 2  231 260 
 HEL  HZ I        1547 23.56        54.0 0.54                           231 260 
 DBB  SZ EP       1547  1.14                             105    -0.2 7  306 280 
 ANIL HZ EP   2   1547  2.46                             104     0.1 3  313 223 
 ANIL HE ES   2   1547 36.23                             104     0.0 3  313 223 
 ANIL HZ I        1547 42.59        58.8 0.20                           313 223 
 PRA  HZ EP   2   1547  5.85                             102    -0.7 3  351 206 
 PRA  HE ES   2   1547 43.80                             102     0.0 3  351 206 
 PRA  HZ I        1547 50.95        28.6 0.29                           351 206 
 SDV  BZ EP       1547 13.40                             100     0.1 6  405  51 
 SDV  BZ I        1547 58.30        25.9 0.34                           405  51 
                                                                                
