 2011  1 4 1503 25.9 L   6.776 -73.066152.7  RSN  8 0.5 2.0LRSN                1
 GAP=168        0.87       6.3    11.7  9.9 -0.4727E+02  0.4129E+02 -0.4094E+01E
 Epicentro: LOS SANTOS - SANTANDER                                             3
 ACTION:UP  11-02-08 08:38 OP:pat  STATUS:               ID:20110104150325 L   I
 2011-01-04-1500-00M.COL___137                                                 6
 STAT SP IPHASW D HRMM SECON CODA AMPLIT PERI AZIMU VELO SNR AR TRES W  DIS CAZ7
 BAR2 SZ EP   1   15 3 46.09                             171    -0.3 7   24 213 
 BAR2 SZ ES   2   15 4  1.97                             171    -0.4 5   24 213 
 BAR2 SZ I        15 4  2.60        13.5 0.40                            24 213 
 BTL  SZ EP       15 3 47.13                             170     0.710   27 305 
 RUS  HZ EP   1   15 3 49.89                             146    -0.2 7   98 181 
 RUS  HN ES   2   15 4  8.78                             146    -0.2 5   98 181 
 RUS  HZ I        15 4 10.03        11.0 0.47                            98 181 
 GRA  SZ IP       15 3 51.87                             138     0.110  126  13 
 GRA  SZ ES   2   15 4 11.35                             138    -0.6 5  126  13 
 GRA  SZ I        15 4 14.50        23.8 0.36                           126  13 
 NOR  SZ EP   1   15 4  1.91                             119    -0.7 6  241 236 
 NOR  SN ES   2   15 4 30.78                             119    -0.5 4  241 236 
 CHI  HZ EP   1   15 4  3.82                             118    -0.1 6  249 197 
 CHI  HN ES   2   15 4 34.33                             118     0.7 4  249 197 
 CHI  HZ I        15 4 37.19         5.8 0.42                           249 197 
 RREF HZ EP   1   15 4 12.55                             112    -0.3 5  327 231 
 RREF HE ES   2   15 4 50.30                             112     0.7 3  327 231 
 RREF HZ I        15 4 55.44         8.9 0.19                           327 231 
 PRA  HZ EP   1   15 4 20.01                             107     0.1 4  394 211 
 PRA  HN ES   2   15 5  2.35                             107     0.3 3  394 211 
                                                                                
