 2014  1 4 1115  5.3 L   6.635 -73.564 97.8  RSN 15 0.4 2.3LRSN                1
 GAP= 51        0.82       2.5     2.6  5.1 -0.2052E+01  0.5465E+01 -0.2135E+01E
 Epicentro: EL CARMEN DE CHUCURI - SANTANDER                                   3
 ACTION:UPD 14-03-13 09:51 OP:ep   STATUS:               ID:20140104111505 L   I
 OLDACT:UP  14-01-04 17:03 OP:mh   STATUS:               ID:20140104111000     3
 OLDACT:REG 14-01-04 14:50 OP:mh   STATUS:               ID:20140104111000     3
 2014-01-04-1110-00M.COL___285                                                 6
 STAT SP IPHASW D HRMM SECON CODA AMPLIT PERI AZIMU VELO AIN AR TRES W  DIS CAZ7
 BAR2 SZ IP     D 1115 20.58                             155    0.6310 42.4  96 
 BAR2 SZ ES       1115 31.73                             155    0.3210 42.4  96 
 BAR2 SZ I        1115 34.19       255.8 0.32            142           42.4  96 
 RUS  HZ EP       1115 24.26                             132   -0.1710 97.8 147 
 RUS  HN ES   1   1115 38.86                             132   -0.52 7 97.8 147 
 RUS  HZ I        1115 42.02        28.0 0.32            113           97.8 147 
 PTB  HZ EP     C 1115 23.62                             131   -0.3010 99.3 264 
 PTB  HN ES       1115 38.38                             131   -0.1010 99.3 264 
 PTB  HZ I        1115 44.23        37.0 0.12            110           99.3 264 
 SPBC HZ EP       1115 26.17                             125   -0.1010  122 207 
 SPBC HN ES       1115 42.58                             125   -0.0810  122 207 
 SPBC HZ I        1115 45.58        36.2 0.21            105            122 207 
 PAM  SZ EP       1115 26.74                             125   -0.1410  123  51 
 PAM  SE ES       1115 43.61                             125   -0.1310  123  51 
 PAM  SZ I        1115 45.33        32.7 0.15            106            123  51 
 OCA  HZ EP   1   1115 32.14                             114   -0.35 7  179   9 
 OCA  HN ES   2   1115 53.94                             114    0.21 4  179   9 
 OCA  HZ I        1116  0.92        27.0 0.19             99            179   9 
 NOR  HZ IP     C 1115 32.92                             113   -0.28 9  187 231 
 NOR  HN ES   1   1115 54.77                             113   -0.23 7  187 231 
 NOR  HZ I        1115 57.81        18.0 0.10             98            187 231 
 CHI  HZ EP   1   1115 37.31                             110   -0.44 6  223 185 
 CHI  HN ES   2   1116  3.98                             110    0.88 4  223 185 
 CHI  HZ I        1116  7.17         6.7 0.26             97            223 185 
 HEL  HZ EP       1115 38.32                             110    0.58 8  223 257 
 HEL  HZ I        1116  8.12         8.8 0.25             97            223 257 
 SML  HZ EP   1   1115 40.07                             107    0.09 6  246 347 
 SML  HN ES   2   1116  7.86                             107    0.80 4  246 347 
 SML  HZ I        1116 14.30        38.2 0.07             96            246 347 
 URE  HZ EP   1   1115 40.23                             107   -0.25 6  250 300 
 URE  HN ES   1   1116  7.28                             107   -0.68 6  250 300 
 URE  HZ I        1116 10.96        19.9 0.19             96            250 300 
 GUY2CHZ EP   4   1115 42.66                             107    1.23 0  253 232 
 GUY2CHN ES   4   1116 10.76                             107    1.12 0  253 232 
 GUY2CHZ I        1116 19.38        15.5 0.34                           253 232 
 RREF HZ EP   1   1115 44.90                             106    0.66 6  275 226 
 RREF HE ES   4   1116 15.52                             106    0.87 0  275 226 
 RREF HZ I        1116 20.46         9.6 0.22             95            275 226 
 DBB  SZ EP   1   1115 46.78                             104    0.81 5  296 278 
 DBB  SZ I        1116 26.26         9.3 0.40             94            296 278 
 ORTC HZ EP   1   1115 52.64                             102   -0.37 5  354 212 
 ORTC HN ES   1   1116 31.04                             102    0.78 5  354 212 
 ORTC HZ I        1116 34.51         4.4 0.17             93            354 212 
 SJC  HZ EP   4   1115 57.39                             100   -1.44 0  402 334 
 SJC  HN ES   4   1116 38.62                             100   -2.01 0  402 334 
                                                                                
