 2013  7 4 1343 36.7 L   6.740 -73.188147.3  RSN  4 0.2 1.4LRSN                1
 GAP=228        0.45       4.4     4.2  4.2  0.8327E+01  0.2092E+01 -0.7070E+00E
 Epicentro: VILLANUEVA - SANTANDER                                             3
 ACTION:UPD 13-08-12 10:35 OP:ep   STATUS:               ID:20130704134336 L   I
 OLDACT:REG 13-07-04 19:22 OP:jn   STATUS:               ID:20130704133959     3
 2013-07-04-1339-59M.COL___267                                                 6
 STAT SP IPHASW D HRMM SECON CODA AMPLIT PERI AZIMU VELO AIN AR TRES W  DIS CAZ7
 BAR2 SZ EP       1343 56.15                             173   -0.2510 16.3 178 
 BAR2 SZ ES       1344 11.73                             173   -0.0310 16.3 178 
 BAR2 SZ I        1344 13.79         4.0 0.30            177           16.3 178 
 BRR  HZ EP       1343 58.12                             153    0.1310 70.8 305 
 BRR  HN ES   1   1344 14.69                             153    0.09 7 70.8 305 
 BRR  HZ I        1344 21.39        13.5 0.38            152           70.8 305 
 RUS  HZ EP   1   1344  0.50                             146    0.33 7 94.4 173 
 RUS  HN ES   1   1344 18.48                             146    0.00 7 94.4 173 
 RUS  HZ I        1344 19.94         2.9 0.26            153           94.4 173 
 PTB  HZ EP   1   1344  3.09                             133   -0.19 7  142 261 
 PTB  HN ES   1   1344 24.02                             133    0.00 7  142 261 
 PTB  HZ I        1344 26.28         2.0 0.21            136            142 261 
                                                                                
