 2017 11 4 1910 28.1 L   6.759 -73.135140.0  RSN 10 0.5 1.5LRSN                1
 GAP=140        1.18       4.6     4.9  7.1 -0.4240E+01  0.1260E+02  0.1816E+01E
 Epicentro: LOS SANTOS - SANTANDER                                             3
 ACTION:UPD 17-12-12 19:52 OP:rebc STATUS:               ID:20171104191028 L   I
 OLDACT:UP  17-11-05 01:23 OP:osc  STATUS:               ID:20171104190741     3
 OLDACT:REG 17-11-04 21:13 OP:mg   STATUS:               ID:20171104190741     3
 2017-11-04-1908-00M.COL___435                                                 6
 STAT SP IPHASW D HRMM SECON CODA AMPLIT PERI AZIMU VELO AIN AR TRES W  DIS CAZ7
 BAR2 EZ ES       1911  1.94                             172    0.2510 19.1 196 
 BAR2 EZ I        1911  3.13         8.7 0.16            172           19.1 196 
 BRR  HZ EP       1910 48.44                             150   -0.4110 74.5 301 
 BRR  HN ES       1911  5.27                             150    0.2510 74.5 301 
 PAM  EZ EP       1910 49.48                             149   -0.4310 80.2  37 
 PAM  EE ES       1911  6.97                             149    0.0710 80.2  37 
 PAM  EZ I        1911  8.68         5.2 0.46            152           80.2  37 
 RUS  HZ EP       1910 50.64                             144   -0.3410 95.9 177 
 RUS  HN ES       1911  9.01                             144    0.2110 95.9 177 
 RUS  HZ I        1911 10.43         4.2 0.32            148           95.9 177 
 PTB  HZ EP       1910 54.48                             131   -0.19 9  148 261 
 PTB  HE ES       1911 15.07                             131   -0.30 9  148 261 
 PTB  HZ I        1911 21.32         2.2 0.24            132            148 261 
 SPBC HE ES       1911 18.01                             128    0.40 9  160 220 
 ZAR  HZ EP       1911  1.48                             121    0.97 8  207 293 
 ZAR  HN ES       1911 25.66                             121   -0.10 8  207 293 
 NOR  HZ EP       1911  3.10                             118   -0.25 8  233 236 
 NOR  HE ES       1911 29.79                             118   -1.04 8  233 236 
 NOR  HZ I        1911 38.34         2.3 0.22            119            233 236 
 ROSC BZ EP   4   1911  7.08                             116    1.50 0  249 212 
 ROSC BE ES   4   1911 26.94                             116   -7.85 0  249 212 
 ROSC BZ I        1911 28.13         6.3 0.50            118            249 212 
 GUY2CHZ EP       1911 12.46                             111    1.17 7  300 236 
 GUY2CHE ES       1911 45.15                             111    0.19 7  300 236 
 GUY2CHZ I        1911 56.75         1.5 0.52                           300 236 
                                                                                
