 2016  6 4 1742 35.1 L   6.884 -73.604  0.6  RSN 23 0.7 2.9LRSN                1
 GAP= 61        1.60       2.5     2.7  5.9 -0.6283E+00  0.2051E+01  0.1200E+01E
 Epicentro: SAN VICENTE DE CHUCURI - SANTANDER                                 3
 ACTION:UPD 16-07-21 22:15 OP:rebc STATUS:               ID:20160604174235 L   I
 OLDACT:UP  16-06-05 00:34 OP:ar   STATUS:               ID:20160604173742     3
 OLDACT:UP  16-06-05 00:11 OP:ar   STATUS:               ID:20160604173742     3
 OLDACT:REG 16-06-04 21:16 OP:ar   STATUS:               ID:20160604173742     3
 2016-06-04-1737-42M.COL___328                                                 6
 STAT SP IPHASW D HRMM SECON CODA AMPLIT PERI AZIMU VELO AIN AR TRES W  DIS CAZ7
 BRR  HZ IP     C 1742 40.34                              47    0.0310 27.4 334 
 BRR  HE ES       1742 44.67                              47    0.2810 27.4 334 
 BRR  HZ I        1742 44.90      6293.9 0.12                          27.4 334 
 BAR2 EZ IP     D 1742 45.54                              47    0.5510 56.7 125 
 BAR2 EZ ES       1742 52.94                              47    0.2210 56.7 125 
 BAR2 EZ I        1742 54.57       433.8 0.40                          56.7 125 
 PTB  HZ IP     D 1742 50.86                              47   -0.7110  102 248 
 PTB  HE ES       1743  2.72                              47   -1.7210  102 248 
 PAM  EZ EP       1742 54.28                              47    0.6710  112  63 
 PAM  EN ES       1743  7.63                              47   -0.4510  112  63 
 PAM  EZ I        1743  8.78       400.8 0.22                           112  63 
 RUS  HZ IP     C 1742 55.70                              47    0.2710  124 152 
 RUS  HN ES       1743 10.38                              47   -0.9210  124 152 
 RUS  HZ I        1743 14.74       178.8 0.24                           124 152 
 SPBC HZ EP       1742 58.51                              47    0.18 9  146 201 
 SPBC HN ES       1743 16.93                              47    0.46 9  146 201 
 SPBC HZ I        1743 20.35       140.3 0.26                           146 201 
 OCA  HZ EP       1742 59.47                              47   -0.04 9  153  12 
 OCA  HN ES       1743 18.00                              47   -0.57 9  153  12 
 OCA  HZ I        1743 21.77       398.7 0.34                           153  12 
 NOR  HZ EP       1743  5.42                              37   -0.83 9  202 224 
 NOR  HN ES   4   1743 28.43                              37   -2.14 0  202 224 
 NOR  HZ I        1743 30.79       117.5 0.20                           202 224 
 TAM  HZ EP   4   1743  8.74                              37    1.98 0  206 104 
 TAM  HN ES   4   1743 35.86                              37    4.39 0  206 104 
 TAM  HZ I        1743 38.54        39.0 0.54                           206 104 
 HEL  HZ EP   4   1743  8.38                              37   -1.25 0  226 250 
 HEL  HN ES   4   1743 32.80                              37   -3.78 0  226 250 
 HEL  HZ I        1743 34.58       131.5 0.24                           226 250 
 URE  HZ EP   4   1743 12.76                              37    2.65 0  234 294 
 URE  HN ES   4   1743 36.26                              37   -1.19 0  234 294 
 URE  HZ I        1743 41.62        74.2 0.16                           234 294 
 ROSC BZ EP   4   1743 15.06                              37    3.75 0  240 199 
 ROSC BN ES   4   1743 50.20                              37   10.62 0  240 199 
 ROSC BZ I        1743 56.18        47.8 0.35                           240 199 
 CHI  HZ EP   9   1743 15.14                              37    2.53 0  250 183 
 CHI  HN ES       1743 44.70                              37    0.28 8  250 183 
 CHI  HZ I        1743 57.33        31.5 0.38                           250 183 
 DBB  SZ EP   4   1743 21.62                              37    4.58 0  288 273 
 DBB  SZ ES       1743 50.86                              37    1.08 7  288 273 
 DBB  SZ I        1743 56.97       111.2 0.40                           288 273 
 CBOC HZ EP       1743 17.91                              37    0.64 7  289 247 
 CBOC HN ES       1743 51.38                              37    1.20 7  289 247 
 CBOC HZ I        1743 57.03        24.8 0.38                           289 247 
 ELA  HZ EP       1743 19.18                              36    0.23 7  299 222 
 ELA  HN ES       1743 52.65                              36   -0.53 7  299 222 
 ELA  HZ I        1743 55.39        46.8 0.42                           299 222 
 VIL  SZ EP   4   1743 21.76                              36    2.39 0  307 182 
 VIL  SE ES   4   1743 59.67                              36    5.75 0  307 182 
 LL6C HZ EP       1743 20.41                              36   -0.14 7  317   7 
 LL6C HE ES   4   1743 59.68                              36    3.66 0  317   7 
 LL6C HZ I        1744 12.32        18.6 0.34                           317   7 
 ANIL HZ EP       1743 23.36                              36    0.76 7  331 217 
 ANIL HN ES       1744  0.41                              36    0.74 7  331 217 
 ANIL HZ I        1744 23.09        56.9 0.38                           331 217 
 ARGC HZ EP   4   1743 25.96                              36    3.07 0  336 348 
 ARGC HN ES   4   1744  4.42                              36    4.23 0  336 348 
 ARGC HZ I        1744 21.71        16.5 0.44                           336 348 
 PAL  HZ EP   4   1743 35.24                              36    8.30 0  369 234 
 PAL  HN ES   4   1744 13.95                              36    6.55 0  369 234 
 PAL  HZ I        1744 19.53        14.6 0.36                           369 234 
 ORTC HZ EP       1743 28.09                              36    0.28 6  376 209 
 ORTC HN ES   4   1744 11.91                              36    2.96 0  376 209 
 ORTC HZ I        1744 27.30        27.3 0.42                           376 209 
 PRA  HZ EP   4   1743 30.65                              36    2.55 0  378 202 
 PRA  HN ES   4   1744 18.73                              36    9.27 0  378 202 
 PRA  HZ I        1744 30.08        43.7 0.52                           378 202 
 CRJC HZ EP   4   1743 38.12                              36   -0.67 0  464  10 
 CRJC HN ES       1744 29.32                              36    0.84 5  464  10 
 CRJC HZ I        1744 48.53        25.0 0.46                           464  10 
                                                                                
