 2015  4 4 1446 45.9 L   6.741 -73.049141.9  RSN  5 0.1 1.4LRSN                1
 GAP=152        0.37       1.9     2.3  2.7 -0.1168E+01  0.1328E+01  0.9030E+00E
 Epicentro: JORDAN - SANTANDER                                                 3
 ACTION:UPD 15-06-03 16:52 OP:cam  STATUS:               ID:20150404144645 L   I
 OLDACT:REG 15-04-04 22:31 OP:fm   STATUS:               ID:20150404143748     3
 2015-04-04-1437-48M.COL___276                                                 6
 STAT SP IPHASW D HRMM SECON CODA AMPLIT PERI AZIMU VELO AIN AR TRES W  DIS CAZ7
 BAR2 EZ EP       1447  5.06                             171   -0.0210 22.1 222 
 BAR2 EZ ES       1447 20.05                             171    0.0510 22.1 222 
 BAR2 EZ I        1447 23.31         4.8 0.40            171           22.1 222 
 PAM  SZ EP       1447  7.87                             150    0.1810 76.6  30 
 PAM  SE ES       1447 24.52                             150   -0.1410 76.6  30 
 PAM  SZ I        1447 27.17         3.8 0.56            153           76.6  30 
 BRR  HZ EP   1   1447  7.13                             148   -0.31 7 83.7 299 
 BRR  HE ES       1447 24.31                             148    0.1010 83.7 299 
 BRR  HZ I        1447 27.23         9.7 0.38            149           83.7 299 
 RUS  HZ EP       1447  8.83                             145   -0.0010 93.9 182 
 RUS  HN ES       1447 26.67                             145   -0.0210 93.9 182 
 RUS  HZ I        1447 28.67         2.2 0.20            148           93.9 182 
 GUY2CHZ EP       1447 30.04                             111    0.08 7  306 237 
 GUY2CHN ES       1448  4.24                             111   -0.06 7  306 237 
 GUY2CHZ I        1448 11.96         2.1 0.72                           306 237 
                                                                                
