 2011  1 4 1509 42.4 L   6.741 -72.928141.5  RSN  4 0.3 1.6LRSN                1
 GAP=253        0.71       6.9    28.3  9.7 -0.2299E+02 -0.8573E+02  0.2216E+02E
 Epicentro: CEPITA - SANTANDER                                                 3
 ACTION:UP  11-02-08 08:38 OP:pat  STATUS:               ID:20110104150942 L   I
 2011-01-04-1500-00M.COL___137                                                 6
 STAT SP IPHASW D HRMM SECON CODA AMPLIT PERI AZIMU VELO SNR AR TRES W  DIS CAZ7
 BAR2 SZ EP   1   1510  1.21                             166    -0.5 7   33 240 
 BAR2 SZ ES   2   1510 16.29                             166    -0.5 5   33 240 
 BAR2 SZ I        1510 17.19        10.4 0.31                            33 240 
 BTL  SZ IP       1510  2.33                             162     0.310   42 298 
 BTL  SZ ES   2   1510 17.67                             162     0.3 5   42 298 
 RUS  HZ EP   1   1510  5.53                             144     0.2 7   95 190 
 RUS  HE ES   2   1510 23.49                             144     0.2 5   95 190 
 RUS  HZ I        1510 25.63         4.8 0.32                            95 190 
 CHI  HZ EP   1   1510 19.73                             116    -0.3 6  250 201 
 CHI  HN ES   2   1510 49.44                             116     0.1 4  250 201 
 CHI  HZ I        1510 53.21         4.0 0.50                           250 201 
                                                                                
