 2013 12 4 1153 25.8 L   6.762 -73.146147.5  RSN  5 0.3 1.6LRSN                1
 GAP=234        0.74       6.0     5.9  6.0  0.1993E+02  0.5567E+01  0.1566E+01E
 Epicentro: LOS SANTOS - SANTANDER                                             3
 ACTION:UPD 14-01-13 10:15 OP:ep   STATUS:               ID:20131204115325 L   I
 OLDACT:UP  13-12-04 15:50 OP:cam  STATUS:               ID:20131204115000     3
 OLDACT:REG 13-12-04 14:32 OP:cam  STATUS:               ID:20131204115000     3
 2013-12-04-1150-00M.COL___285                                                 6
 STAT SP IPHASW D HRMM SECON CODA AMPLIT PERI AZIMU VELO AIN AR TRES W  DIS CAZ7
 BAR2 SZ EP   2   1153 45.27                             172   -0.28 5 19.2 192 
 BAR2 SZ ES       1154  0.51                             172   -0.4610 19.2 192 
 BAR2 SZ I        1154  1.89        15.1 0.18            168           19.2 192 
 BRR  HZ EP       1153 47.52                             152    0.2810 73.2 301 
 BRR  HN ES       1154  4.19                             152    0.2110 73.2 301 
 BRR  HZ I        1154 10.28         8.8 0.48            149           73.2 301 
 RUS  HZ EP       1153 49.54                             145    0.1210 96.4 176 
 RUS  HN ES       1154  8.13                             145    0.2810 96.4 176 
 RUS  HZ I        1154  9.07         2.9 0.24            147           96.4 176 
 PTB  HZ EP       1153 52.36                             133   -0.47 9  147 260 
 PTB  HN ES       1154 13.93                             133    0.02 9  147 260 
 PTB  HZ I        1154 20.51         3.5 0.40            132            147 260 
 ZAR  HN ES   2   1154 24.18                             122    0.15 4  206 293 
                                                                                
