 2014  3 4 1057 19.5 L   6.805 -73.166148.8  RSN  4 0.3 1.2LRSN                1
 GAP=134        0.85       3.8     4.8  8.2 -0.2097E+01  0.1403E+02 -0.8664E+01E
 Epicentro: LOS SANTOS - SANTANDER                                             3
 ACTION:UPD 14-04-09 23:14 OP:nd   STATUS:               ID:20140304105719 L   I
 OLDACT:DUP 14-03-04 16:26 OP:stll STATUS:               ID:20140304104818d    3
 2014-03-04-1048-16M.COL___229                                                 6
 STAT SP IPHASW D HRMM SECON CODA AMPLIT PERI AZIMU VELO AIN AR TRES W  DIS CAZ7
 PAM  SZ EP       1057 42.21                             151    0.1510 78.4  41 
 PAM  SZ I        1057 42.77         4.1 0.44            153           78.4  41 
 PAM  SN ES       1057 59.27                             151   -0.4210 78.4  41 
 RUS  HZ EP       1057 43.60                             144    0.0310  101 175 
 RUS  HN ES       1058  2.78                             144    0.4110  101 175 
 RUS  HZ I        1058  5.12         1.1 0.36            146            101 175 
 PTB  HZ EP       1057 46.17                             133   -0.32 9  146 258 
 PTB  HN ES       1058  7.38                             133   -0.20 9  146 258 
 PTB  HZ I        1058 10.34         1.5 0.10            134            146 258 
 SML  HZ EP       1057 55.89                             118   -0.21 8  242 336 
 SML  HE ES       1058 25.34                             118    0.66 8  242 336 
 SML  HZ I        1058 28.13         2.2 0.24            120            242 336 
                                                                                
