 2013  6 4 1221 17.2 L   6.798 -73.129145.6  RSN 13 0.5 2.4LRSN                1
 GAP=113        1.15       3.8     3.7  6.1  0.1080E+01  0.3552E+01  0.6077E+00E
 Epicentro: LOS SANTOS - SANTANDER                                             3
 ACTION:UPD 14-01-08 09:52 OP:ep   STATUS:               ID:20130604122117 L   I
 2013-06-04-1220-00M.COL___257                                                 6
 STAT SP IPHASW D HRMM SECON CODA AMPLIT PERI AZIMU VELO AIN AR TRES W  DIS CAZ7
 BAR2 SZ IP     D 1221 36.71                             170   -0.0710 23.5 194 
 BAR2 SZ ES       1221 51.59                             170   -0.4910 23.5 194 
 BAR2 SZ I        1221 54.57        43.0 0.34            172           23.5 194 
 BRR  HZ IP     D 1221 38.54                             152    0.1410 72.9 298 
 BRR  HN ES       1221 55.38                             152    0.4310 72.9 298 
 BRR  HZ I        1222  1.18        25.1 0.14            150           72.9 298 
 RUS  HZ EP       1221 40.47                             144   -0.4110  100 177 
 RUS  HN ES       1221 59.61                             144    0.2310  100 177 
 RUS  HZ I        1222  0.91        28.0 0.36            143            100 177 
 PTB  HZ EP       1221 43.48                             132   -0.80 9  150 259 
 PTB  HN ES       1222  4.64                             132   -0.79 9  150 259 
 PTB  HZ I        1222 10.45        33.9 0.44            130            150 259 
 TAM  HZ IP     C 1221 44.76                             131    0.09 9  153 105 
 TAM  HZ I        1222  5.47        16.5 0.32            128            153 105 
 TAM  HN ES       1222  6.62                             131    0.51 9  153 105 
 OCA  HZ EP   2   1221 45.77                             129    0.27 5  161 353 
 OCA  HN ES   2   1222  7.73                             129    0.13 5  161 353 
 OCA  HZ I        1222 11.55        29.5 0.28            127            161 353 
 NOR  HZ EP       1221 52.97                             118   -0.07 8  236 235 
 NOR  HN ES       1222 21.85                             118    0.84 8  236 235 
 NOR  HZ I        1222 24.85        30.1 0.18            117            236 235 
 SML  HZ EP       1221 52.98                             117   -0.91 8  245 335 
 SML  HN ES       1222 23.19                             117    0.67 8  245 335 
 SML  HZ I        1222 24.44        25.0 0.10            115            245 335 
 CHI  HZ EP       1221 54.68                             117   -0.21 8  249 196 
 CHI  HN ES       1222 24.25                             117   -0.07 8  249 196 
 CHI  HZ I        1222 29.15        10.8 0.64            116            249 196 
 HEL  HZ EP       1221 58.32                             115    0.75 8  274 256 
 HEL  HN ES       1222 29.63                             115    0.56 8  274 256 
 HEL  HZ I        1222 35.77        15.5 0.30            113            274 256 
 URE  HZ EP   4   1221 56.53                             113   -1.90 0  286 292 
 URE  HN ES   4   1222 28.01                             113   -2.60 0  286 292 
 URE  HZ I        1222 44.37        11.6 0.36            112            286 292 
 GUY2CHZ EP   2   1222  1.63                             112    0.70 4  303 235 
 GUY2CHN ES   4   1222 38.62                             112    3.56 0  303 235 
 GUY2CHZ I        1222 41.57        13.0 0.30                           303 235 
 PRA  HZ EP       1222 10.62                             106   -0.15 6  393 210 
 PRA  HN ES   4   1222 55.38                             106    2.80 0  393 210 
 PRA  HZ I        1222 57.70         9.7 0.28            105            393 210 
                                                                                
