 2010 11 4 1648  4.3 L   6.789 -73.106148.7  RSN 12 0.4 2.4LRSN                1
 GAP=139        0.84       3.8     6.2  6.7 -0.9538E+01  0.1490E+01  0.2514E+01E
 Epicentro: LOS SANTOS - SANTANDER                                             3
 ACTION:UP  10-12-17 16:50 OP:REBC STATUS:               ID:20101104164804 L   I
 2010-11-04-1646-08S.COL___129                                                 6
 STAT SP IPHASW D HRMM SECON CODA AMPLIT PERI AZIMU VELO SNR AR TRES W  DIS CAZ7
 BTL  SZ IP       1648 24.54                             171     0.310   23 309 
 BAR2 SZ IP       1648 24.26                             171     0.010   23 201 
 BAR2 SZ I        1648 41.84        53.5 0.51                            23 201 
 GIR2 SZ EP       1648 24.29                             167    -0.110   34 343 
 GIR2 SZ ES   2   1648 39.88                             167    -0.1 5   34 343 
 BRR  HZ IP     C 1648 26.14                             152     0.110   76 298 
 BRR  HZ I        1648 26.40        90.7 0.16                            76 298 
 BRR  HN ES   1   1648 43.60                             152     0.7 7   76 298 
 RUS  HZ EP       1648 28.11                             145    -0.110   99 179 
 RUS  HE ES   1   1648 46.92                             145     0.0 7   99 179 
 RUS  HZ I        1648 48.09        19.2 0.25                            99 179 
 GUE  SZ EP       1648 29.27                             140     0.010  117  10 
 GRA  SZ EP       1648 30.02                             138     0.210  126  15 
 GRA  SZ I        1648 31.17        29.3 0.36                           126  15 
 GRA  SZ ES   1   1648 48.76                             138    -0.9 7  126  15 
 OCA  SZ EP       1648 32.88                             130    -0.1 9  162 352 
 YOP  SZ EP   2   1648 34.42                             127     0.2 4  176 154 
 NOR  SZ EP       1648 40.50                             119     0.0 8  238 235 
 NOR  SE ES   1   1649  7.69                             119    -1.1 6  238 235 
 RREF HN ES   2   1649 27.23                             111     0.1 3  324 230 
 PRA  HZ EP       1648 58.17                             107     0.1 6  393 210 
                                                                                
