 2012  2 4 1218 37.1 L   6.692 -73.224149.0  RSN  4 0.3 1.8LRSN                1
 GAP=153        0.65      10.2     6.9  6.4  0.1100E+02  0.5585E+01 -0.8636E+01E
 ACTION:UP  12-03-07 16:27 OP:epov STATUS:               ID:20120204121837 L   I
 2012-02-04-1214-46S.COL___160                                                 6
 STAT SP IPHASW D HRMM SECON CODA AMPLIT PERI AZIMU VELO SNR AR TRES W  DIS CAZ7
 BAR2 SZ EP       1218 57.04                             175    0.0410 12.0 157 
 BAR2 SZ ES       1219 12.52                             175    0.0410 12.0 157 
 BAR2 SZ I        1219 13.29         8.5 0.50                          12.0 157 
 GIR2 SZ EP       1218 57.13                             163   -0.4410 42.9   5 
 BRR  HZ EP       1218 58.91                             153    0.2910 70.8 310 
 BRR  HZ I        1218 59.24        17.1 0.18                          70.8 310 
 BRR  HE ES   1   1219 15.49                             153    0.11 7 70.8 310 
 PTB  HZ EP   1   1219  3.72                             135    0.26 7  137 263 
 PTB  HE ES   2   1219 23.43                             135   -0.55 5  137 263 
                                                                                
