 2013  1 4 1808 32.0 L   6.850 -73.121147.8  RSN 11 0.5 2.8LRSN 3.0WRSN        1
 SPEC AVERAGE  MO 13.6 ST  6.4 OM  2.1 f0 4.58 R0.3430 AL 2.18 WI 17.3 MW  3.0 3
 SPEC SD       MO  0.2 ST  4.2 OM  0.3 f0 1.03 R0.1046 AL      WI      MW  0.2 3
 GAP=186        1.10       4.1     6.0  7.5  0.1317E+01  0.7392E+01  0.5355E+01E
 Epicentro: LOS SANTOS - SANTANDER                                             3
 SPEC ZAR HH Z MO 13.7 ST  5.2 OM  1.9 f0 4.23 R0.3475 AL 1.30 WI 22.1 MW  3.1 3
 SPEC ZAR HH Z T18 923 K 0.000 GD  252 VS 4.20 DE 3.20 Q0300.0 QA 0.60 VS 4.20 3
 SPEC ROSCBH Z MO 14.0 ST 10.8 OM  2.1 f0 4.38 R0.3356 AL 4.06 WI  9.5 MW  3.3 3
 SPEC ROSCBH Z T18 941 K 0.000 GD  298 VS 4.20 DE 3.20 Q0300.0 QA 0.60 VS 4.20 3
 SPEC PTB HH Z MO 13.5 ST  4.8 OM  1.8 f0 4.72 R0.3114 AL 1.76 WI 22.9 MW  3.0 3
 SPEC PTB HH Z T18 914 K 0.000 GD  212 VS 4.20 DE 3.20 Q0300.0 QA 0.60 VS 4.20 3
 SPEC RUS HH Z MO 13.2 ST  4.1 OM  1.5 f0 5.91 R0.2487 AL 2.67 WI 12.2 MW  2.7 3
 SPEC RUS HH Z T18 911 K 0.000 GD  181 VS 4.20 DE 3.20 Q0300.0 QA 0.60 VS 4.20 3
 SPEC HEL HH Z MO 13.5 ST  3.1 OM  1.6 f0 4.17 R0.3525 AL 2.11 WI 12.7 MW  2.9 3
 SPEC HEL HH Z T18 943 K 0.000 GD  313 VS 4.20 DE 3.20 Q0300.0 QA 0.60 VS 4.20 3
 SPEC NOR HH Z MO 13.6 ST 15.7 OM  1.8 f0 6.36 R0.2311 AL 2.50 WI 21.1 MW  3.0 3
 SPEC NOR HH Z T18 933 K 0.000 GD  281 VS 4.20 DE 3.20 Q0300.0 QA 0.60 VS 4.20 3
 SPEC OCA HH Z MO 13.5 ST  4.3 OM  1.8 f0 4.54 R0.3238 AL 1.75 WI 14.2 MW  3.0 3
 SPEC OCA HH Z T18 922 K 0.000 GD  214 VS 4.20 DE 3.20 Q0300.0 QA 0.60 VS 4.20 3
 SPEC CHI HH Z MO 13.8 ST  1.0 OM  1.9 f0 2.32 R0.6336 AL 2.00 WI 21.6 MW  3.1 3
 SPEC CHI HH Z T18 933 K 0.000 GD  294 VS 4.20 DE 3.20 Q0300.0 QA 0.60 VS 4.20 3
 SPEC BRR HH Z MO 13.5 ST  5.4 OM  1.9 f0 4.94 R0.2976 AL 1.69 WI 19.8 MW  3.0 3
 SPEC BRR HH Z T18 9 7 K 0.000 GD  164 VS 4.20 DE 3.20 Q0300.0 QA 0.60 VS 4.20 3
 SPEC BAR2SH Z MO 14.0 ST  9.8 OM  2.4 f0 4.22 R0.3483 AL 1.97 WI 16.5 MW  3.3 3
 SPEC BAR2SH Z T18 9 4 K 0.000 GD  150 VS 4.20 DE 3.20 Q0300.0 QA 0.60 VS 4.20 3
 ACTION:UPD 13-02-15 09:12 OP:ep   STATUS:               ID:20130104180832 L   I
 2013-01-04-1800-00M.COL___242                                                 6
 STAT SP IPHASW D HRMM SECON CODA AMPLIT PERI AZIMU VELO AIN AR TRES W  DIS CAZ7
 BAR2 SZ EP       18 8 52.06                             168    0.0810 29.3 193 
 BAR2 SZ ES   1   18 9  7.13                             168   -0.46 7 29.3 193 
 BAR2 SZ I        18 9  9.95       242.7 0.30            168           29.3 193 
 BRR  HZ EP     C 18 8 53.91                             153    0.5710 71.2 294 
 BRR  HN ES   1   18 9 10.92                             153    0.91 7 71.2 294 
 BRR  HZ I        18 9 15.00        95.3 0.22            151           71.2 294 
 RUS  HZ EP       18 8 56.02                             143   -0.2910  106 178 
 RUS  HN ES   1   18 9 14.85                             143   -0.45 7  106 178 
 RUS  HZ I        18 9 16.06        49.3 0.36            146            106 178 
 PTB  HZ EP   1   18 8 58.94                             132   -0.51 7  152 257 
 PTB  HE ES   1   18 9 20.72                             132   -0.17 7  152 257 
 PTB  HZ I        18 9 22.50        51.5 0.14            132            152 257 
 OCA  HZ EP   1   18 8 59.61                             131   -0.35 7  155 352 
 OCA  HN ES   1   18 9 22.02                             131    0.22 7  155 352 
 OCA  HZ I        18 9 30.85        40.6 0.32            133            155 352 
 ZAR  HZ EP       18 9  3.63                             123   -0.97 9  205 290 
 ZAR  HN ES   1   18 9 29.71                             123   -0.35 6  205 290 
 ZAR  HZ I        18 9 35.35        63.3 0.32            124            205 290 
 CTAB SZ EP       18 9  9.69                             119    1.19 8  236 211 
 CTAB SZ ES   1   18 9 37.61                             119    0.62 6  236 211 
 NOR  HZ EP       18 9  8.15                             118   -0.25 8  240 234 
 NOR  HN ES   1   18 9 36.82                             118    0.00 6  240 234 
 NOR  HZ I        18 9 41.72        41.5 0.18            120            240 234 
 CHI  HZ EP       18 9 10.32                             117   -0.12 8  255 195 
 CHI  HN ES   1   18 9 40.10                             117   -0.35 6  255 195 
 CHI  HZ I        18 9 49.60        26.4 0.40            119            255 195 
 ROSC BZ EP   1   18 9 11.66                             116    0.79 6  259 211 
 ROSC BN ES   1   18 9 40.76                             116   -0.46 6  259 211 
 ROSC BZ I        18 9 46.89        91.4 0.45            118            259 211 
 HEL  HZ EP   1   18 9 13.16                             115    0.42 6  276 255 
 HEL  HN ES   1   18 9 44.45                             115   -0.08 6  276 255 
 HEL  HZ I        18 9 50.82        26.0 0.38            116            276 255 
                                                                                
