 2017 12 4 1506 41.5 L   6.700 -73.204138.5  RSN  4 0.3 1.4LRSN                1
 GAP=233        0.75       7.3     5.5  7.1  0.2605E+02  0.7862E+01 -0.4999E+01E
 Epicentro: VILLANUEVA - SANTANDER                                             3
 ACTION:UPD 18-01-04 13:17 OP:rebc STATUS:               ID:20171204150641 L   I
 OLDACT:REG 17-12-04 21:30 OP:lv   STATUS:               ID:20171204145746     3
 2017-12-04-1458-00M.COL___488                                                 6
 STAT SP IPHASW D HRMM SECON CODA AMPLIT PERI AZIMU VELO AIN AR TRES W  DIS CAZ7
 BAR2 EZ EP       15 6 59.98                             175   -0.1010 12.1 169 
 BAR2 EZ ES       15 7 14.37                             175   -0.2010 12.1 169 
 BAR2 EZ I        15 7 16.73         6.5 0.22            171           12.1 169 
 RUS  HZ EP       15 7  3.90                             145    0.1010 90.3 172 
 RUS  HN ES       15 7 21.54                             145    0.3410 90.3 172 
 RUS  HZ I        15 7 23.82         4.4 0.26            145           90.3 172 
 PTB  HZ EP       15 7  6.84                             132   -0.31 9  140 263 
 PTB  HN ES       15 7 26.87                             132   -0.28 9  140 263 
 PTB  HZ I        15 7 30.47         4.2 0.24            133            140 263 
 ZAR  HE ES       15 7 38.71                             121    0.53 9  203 296 
                                                                                
