 2014  4 4 1935 29.8 L   6.800 -73.167152.3  RSN  7 0.4 2.3LRSN                1
 GAP=134        1.04       4.9     4.6  8.0 -0.1015E+01  0.1149E+02  0.6810E+01E
 Epicentro: LOS SANTOS - SANTANDER                                             3
 ACTION:UPD 14-05-13 23:06 OP:nd   STATUS:               ID:20140404193529 L   I
 OLDACT:DUP 14-04-05 00:15 OP:carl STATUS:               ID:20140404192813d    3
 2014-04-04-1928-12M.COL___262                                                 6
 STAT SP IPHASW D HRMM SECON CODA AMPLIT PERI AZIMU VELO AIN AR TRES W  DIS CAZ7
 PAM  SZ EP       1935 53.28                             151    0.4610 78.9  41 
 PAM  SN ES       1936 10.66                             151   -0.1010 78.9  41 
 PAM  SZ I        1936 12.91        26.8 0.62            154           78.9  41 
 RUS  HZ EP       1935 54.22                             145   -0.0010  101 175 
 RUS  HN ES       1936 13.04                             145   -0.2210  101 175 
 RUS  HZ I        1936 14.52        24.4 0.26            146            101 175 
 PTB  HZ EP       1935 56.99                             134   -0.13 9  145 259 
 PTB  HN ES       1936 18.20                             134   -0.22 9  145 259 
 ZAR  HZ EP       1936  1.41                             124   -1.06 9  202 292 
 ZAR  HN ES       1936 28.66                             124    0.71 9  202 292 
 NOR  HZ EP       1936  5.60                             120   -0.12 8  233 234 
 NOR  HE ES       1936 34.02                             120    0.28 8  233 234 
 NOR  HZ I        1936 39.67        21.5 0.48            121            233 234 
 CHI  HZ EP       1936  8.37                             118    0.56 8  248 195 
 PRA  HZ EP       1936 23.31                             108   -0.11 6  391 209 
                                                                                
