 2014  9 4 1928 37.5 L   6.807 -73.187144.1  RSN  8 0.4 1.7LRSN                1
 GAP=131        1.09       4.2     5.6  8.7 -0.5945E+01  0.1723E+02 -0.7869E+01E
 Epicentro: ZAPATOCA - SANTANDER                                               3
 ACTION:UPD 14-10-03 23:02 OP:nd   STATUS:               ID:20140904192837 L   I
 OLDACT:REG 14-09-04 21:14 OP:fm   STATUS:               ID:20140904192818     3
 2014-09-04-1928-18M.COL___280                                                 6
 STAT SP IPHASW D HRMM SECON CODA AMPLIT PERI AZIMU VELO AIN AR TRES W  DIS CAZ7
 BAR2 SZ EP       1928 57.06                             170    0.1410 23.8 179 
 BAR2 SZ ES   1   1929 12.53                             170    0.44 7 23.8 179 
 BAR2 SZ I        1929 13.55        21.5 0.20            172           23.8 179 
 PAM  SZ EP       1929  0.03                             150    0.3610 79.8  42 
 PAM  SN ES       1929 17.18                             150    0.2110 79.8  42 
 PAM  SZ I        1929 21.56         6.0 0.64            153           79.8  42 
 RUS  HZ EP       1929  0.82                             143   -0.3410  102 173 
 RUS  HN ES       1929 18.70                             143   -0.9310  102 173 
 RUS  HZ I        1929 20.68         4.2 0.20            147            102 173 
 PTB  HZ EP       1929  4.31                             132    0.39 9  143 258 
 PTB  HN ES       1929 24.33                             132   -0.21 9  143 258 
 PTB  HZ I        1929 26.66         4.8 0.12            133            143 258 
 SPBC HZ EP       1929  5.94                             129    0.30 9  161 218 
 SPBC HN ES       1929 28.08                             129    0.47 9  161 218 
 SPBC HZ I        1929 34.00         7.8 0.12            131            161 218 
 SML  HZ EP   1   1929 13.28                             117   -0.45 6  241 336 
 SML  HE ES       1929 41.50                             117   -0.50 8  241 336 
 SML  HZ I        1929 44.29         6.7 0.10            119            241 336 
 GUY2CHZ EP   4   1929 23.79                             112    3.14 0  298 234 
 GUY2CHE ES   4   1929 56.70                             112    2.39 0  298 234 
 GUY2CHZ I        1930  3.56         4.5 0.32                           298 234 
 MON  HN ES   4   1930  2.30                             108   -1.44 0  350 309 
 MON  HZ I        1930 10.51         1.6 0.52            110            350 309 
                                                                                
