 2014  2 4 1952 46.0 L   6.813 -73.146144.9  RSN 12 0.5 2.2LRSN                1
 GAP=136        1.24       3.7     4.7  6.5 -0.1989E+00  0.9883E+01  0.2792E+01E
 Epicentro: LOS SANTOS - SANTANDER                                             3
 ACTION:UPD 14-03-10 08:07 OP:ep   STATUS:               ID:20140204195246 L   I
 OLDACT:REG 14-02-04 16:10 OP:nd   STATUS:               ID:20140204195000     3
 2014-02-04-1950-00M.COL___288                                                 6
 STAT SP IPHASW D HRMM SECON CODA AMPLIT PERI AZIMU VELO AIN AR TRES W  DIS CAZ7
 BAR2 SZ EP       1953  5.47                             170   -0.1210 24.8 189 
 BAR2 SZ ES       1953 20.89                             170    0.0510 24.8 189 
 BAR2 SZ I        1953 23.58        45.4 0.28            168           24.8 189 
 BRR  HZ EP       1953  7.42                             153    0.3710 70.5 297 
 BRR  HN ES       1953 24.18                             153    0.7410 70.5 297 
 BRR  HZ I        1953 28.73        19.6 0.24            151           70.5 297 
 PAM  SZ EP       1953  8.60                             151    0.5210 76.2  40 
 PAM  SN ES       1953 25.50                             151    0.2110 76.2  40 
 PAM  SZ I        1953 28.72        19.1 0.56            157           76.2  40 
 RUS  HZ EP       1953  9.63                             143   -0.1710  102 176 
 RUS  HN ES       1953 27.82                             143   -0.5210  102 176 
 RUS  HZ I        1953 29.85        11.3 0.26            145            102 176 
 PTB  HZ EP       1953 12.32                             132   -0.63 9  148 258 
 PTB  HN ES       1953 32.96                             132   -0.99 9  148 258 
 PTB  HZ I        1953 38.58        14.0 0.32            132            148 258 
 ZAR  HZ EP       1953 18.50                             122    0.14 9  204 292 
 ZAR  HN ES       1953 43.90                             122    0.32 9  204 292 
 ZAR  HZ I        1953 49.57        12.6 0.28            123            204 292 
 NOR  HZ EP       1953 21.80                             118    0.00 8  236 234 
 NOR  HN ES       1953 49.79                             118    0.09 8  236 234 
 NOR  HZ I        1953 57.64         9.1 0.20            120            236 234 
 SML  HZ EP       1953 22.27                             117   -0.19 8  242 335 
 SML  HN ES       1953 49.54                             117   -1.34 8  242 335 
 SML  HZ I        1953 54.01        17.3 0.26            120            242 335 
 CHI  HZ EP       1953 24.06                             117    0.23 8  250 195 
 CHI  HN ES       1953 53.09                             117   -0.23 8  250 195 
 CHI  HZ I        1953 59.56         8.2 0.34            119            250 195 
 HEL  HZ EP       1953 26.91                             115    0.67 8  272 256 
 HEL  HN ES       1953 58.37                             115    0.77 8  272 256 
 HEL  HZ I        1954  4.55         8.3 0.44            116            272 256 
 GUY2CHZ EP   4   1953 30.92                             112    1.23 0  302 235 
 GUY2CHN ES   4   1954  4.99                             112    1.24 0  302 235 
 GUY2CHZ I        1954 12.20         9.3 0.68                           302 235 
 PRA  HZ EP       1953 39.43                             106   -0.24 6  393 209 
 PRA  HN ES       1954 22.00                             106    0.49 6  393 209 
 PRA  HZ I        1954 28.32         7.9 0.26            108            393 209 
                                                                                
