 2017  8 4 1639 34.5 L   6.818 -73.150136.0  RSN  7 0.5 1.6LRSN                1
 GAP=239        1.04       5.5     6.1  7.0  0.1437E+02  0.8290E+01  0.1541E+00E
 Epicentro: LOS SANTOS - SANTANDER                                             3
 ACTION:UPD 17-09-04 20:16 OP:rebc STATUS:               ID:20170804163934 L   I
 OLDACT:REG 17-08-04 21:26 OP:y    STATUS:               ID:20170804163743     3
 2017-08-04-1638-00M.COL___390                                                 6
 STAT SP IPHASW D HRMM SECON CODA AMPLIT PERI AZIMU VELO AIN AR TRES W  DIS CAZ7
 BAR2 EZ EP       1639 52.67                             169   -0.3410 25.2 188 
 BAR2 EZ ES       1640  7.23                             169   -0.2110 25.2 188 
 BAR2 EZ I        1640  8.83         9.9 0.34            168           25.2 188 
 BRR  HZ IP       1639 54.26                             151   -0.2710 69.8 297 
 BRR  HN ES       1640 10.61                             151    0.4610 69.8 297 
 BRR  HZ I        1640 13.15        12.0 0.24            150           69.8 297 
 RUS  HZ EP       1639 57.38                             141   -0.0910  103 176 
 RUS  HN ES       1640 16.01                             141    0.6310  103 176 
 RUS  HZ I        1640 17.54         4.9 0.34            143            103 176 
 PTB  HZ EP       1640  0.25                             130   -0.44 9  148 258 
 PTB  HE ES       1640 20.68                             130   -0.43 9  148 258 
 PTB  HZ I        1640 23.29         3.1 0.09            130            148 258 
 SPBC HZ EP       1640  2.09                             127   -0.31 9  164 218 
 SPBC HN ES       1640 24.23                             127    0.07 9  164 218 
 SPBC HZ I        1640 26.70         4.7 0.10            128            164 218 
 ZAR  HZ EP       1640  6.89                             121    0.67 9  203 292 
 ZAR  HN ES       1640 31.10                             121    0.16 9  203 292 
 ZAR  HZ I        1640 36.25         8.3 0.35            121            203 292 
 GUY2CHZ EP   2   1640 19.28                             111    1.51 4  302 234 
 GUY2CHN ES   4   1640 55.53                             111    4.01 0  302 234 
 GUY2CHZ I        1641  7.67         1.3 0.40                           302 234 
                                                                                
