 2012 12 4 1654 36.8 L   6.793 -73.145140.0  RSN  8 0.4 2.3LRSN                1
 GAP=137        0.90       3.1     3.9  5.8 -0.1397E+01  0.9205E+01 -0.8281E+00E
 Epicentro: LOS SANTOS - SANTANDER                                             3
 ACTION:UPD 13-01-04 14:25 OP:ep   STATUS:               ID:20121204165436 L   I
 2012-12-04-1650-00M.COL___232                                                 6
 STAT SP IPHASW D HRMM SECON CODA AMPLIT PERI AZIMU VELO AIN AR TRES W  DIS CAZ7
 BAR2 SZ EP       1654 55.25                             170   -0.4910 22.6 191 
 BAR2 SZ ES       1655 10.42                             170   -0.0810 22.6 191 
 BAR2 SZ I        1655 11.94        33.4 0.18                          22.6 191 
 PAM  SZ EP       1654 58.85                             150    0.3910 77.9  39 
 PAM  SN ES       1655 15.69                             150    0.3510 77.9  39 
 PAM  SN I        1655 16.45        27.0 0.44                          77.9  39 
 RUS  HZ EP     C 1654 59.97                             143    0.0210 99.8 176 
 RUS  HN ES       1655 17.86                             143   -0.1310 99.8 176 
 RUS  HN I        1655 19.26        17.7 0.22                          99.8 176 
 PTB  HZ EP       1655  2.75                             131   -0.57 9  148 259 
 PTB  HN ES       1655 23.74                             131   -0.25 9  148 259 
 PTB  HN I        1655 27.41        20.4 0.16                           148 259 
 ZAR  HN ES       1655 34.48                             121    0.49 9  204 292 
 ZAR  HN I        1655 40.19        22.5 0.24                           204 292 
 NOR  HZ EP       1655 12.40                             117    0.22 8  234 235 
 NOR  HN ES       1655 40.08                             117    0.32 8  234 235 
 NOR  HN I        1655 42.94        22.7 0.16                           234 235 
 SML  HZ EP       1655 12.56                             116   -0.66 8  244 335 
 SML  HN ES       1655 41.68                             116    0.08 8  244 335 
 SML  HN I        1655 44.49        34.5 0.10                           244 335 
 PRA  HZ EP       1655 30.27                             106    0.20 6  391 210 
 PRA  HN ES       1656 12.36                             106    0.75 6  391 210 
 PRA  HN I        1656 18.63         3.5 0.36                           391 210 
                                                                                
