 2017 11 4 1809 13.7 L   6.849 -73.131152.6  RSN 25 0.9 2.5LRSN                1
 GAP= 66        1.85       3.9     4.3  7.4  0.1355E+01  0.7700E+01  0.2658E+01E
 Epicentro: LOS SANTOS - SANTANDER                                             3
 ACTION:UPD 17-12-12 19:52 OP:rebc STATUS:               ID:20171104180913 L   I
 OLDACT:REG 17-11-04 20:59 OP:mg   STATUS:               ID:20171104180744     3
 2017-11-04-1808-00M.COL___435                                                 6
 STAT SP IPHASW D HRMM SECON CODA AMPLIT PERI AZIMU VELO AIN AR TRES W  DIS CAZ7
 BAR2 EZ EP       18 9 34.33                             169    0.0210 29.0 191 
 BAR2 EZ ES       18 9 49.66                             169   -0.7010 29.0 191 
 BAR2 EZ I        18 9 52.31        82.3 0.38            167           29.0 191 
 BRR  HZ EP       18 9 36.27                             154    0.6910 70.3 294 
 BRR  HN ES       18 9 53.62                             154    1.0010 70.3 294 
 BRR  HZ I        1810  0.58        26.2 0.16            153           70.3 294 
 PAM  EZ IP     D 18 9 37.12                             153    0.7310 72.1  41 
 PAM  EE ES       18 9 54.39                             153    0.3310 72.1  41 
 PAM  EZ I        18 9 56.64        32.8 0.52            159           72.1  41 
 RUS  HZ EP       18 9 38.15                             144   -0.4010  106 177 
 RUS  HN ES       18 9 57.43                             144   -0.4710  106 177 
 RUS  HZ I        18 9 58.65        44.9 0.38            145            106 177 
 PTB  HZ EP       18 9 40.90                             133   -0.62 9  151 257 
 PTB  HN ES       1810  2.39                             133   -0.79 9  151 257 
 PTB  HZ I        1810  6.82        27.5 0.18            133            151 257 
 TAM  HZ EP       18 9 42.52                             132    0.56 9  155 107 
 TAM  HN ES       1810  4.26                             132    0.29 9  155 107 
 SPBC HZ EP       18 9 43.26                             130   -0.00 9  168 218 
 SPBC HE ES       1810  6.09                             130   -0.20 9  168 218 
 SPBC HZ I        1810 11.10        65.8 0.10            130            168 218 
 YPLC HZ EP       18 9 44.49                             128    0.06 9  181 153 
 YPLC HE ES       1810  8.65                             128    0.29 9  181 153 
 YPLC HZ I        1810  9.25        31.0 0.30            130            181 153 
 ZAR  HZ EP       18 9 47.04                             124    0.45 9  204 291 
 ZAR  HN ES       1810 12.53                             124    0.31 9  204 291 
 ZAR  HZ I        1810 19.20        33.2 0.40            125            204 291 
 TABC EZ EP       18 9 51.61                             120    1.12 8  235 210 
 TABC EZ ES       1810 19.04                             120   -0.11 8  235 210 
 TABC EZ I        1810 28.87        18.4 0.46            121            235 210 
 NOR  HZ EP       18 9 50.20                             119   -0.15 8  239 234 
 NOR  HE ES       1810 18.98                             119    0.07 8  239 234 
 NOR  HZ I        1810 22.01        27.7 0.18            120            239 234 
 CHI  HZ EP       18 9 52.42                             118   -0.02 8  254 195 
 CHI  HE ES       1810 22.22                             118   -0.40 8  254 195 
 CHI  HZ I        1810 29.52        10.7 0.25            119            254 195 
 ROSC BZ EP       18 9 53.87                             118    1.03 8  258 211 
 ROSC BE ES       1810 22.53                             118   -0.80 8  258 211 
 ROSC BZ I        1810 32.00        31.1 0.45            119            258 211 
 URE  HZ EP       18 9 54.82                             115   -0.28 7  283 291 
 URE  HE ES       1810 25.78                             115   -1.58 7  283 291 
 URE  HZ I        1810 38.56        13.9 0.20            116            283 291 
 GUY2CHZ EP       18 9 59.11                             113    0.93 7  306 234 
 GUY2CHN ES       1810 34.12                             113    1.28 7  306 234 
 GUY2CHZ I        1810 39.26        19.9 0.34                           306 234 
 VIL  EZ EP       18 9 57.76                             113   -0.35 7  309 192 
 VIL  EE ES       1810 34.37                             113    1.65 7  309 192 
 VIL  EZ I        1810 42.66        14.0 0.60            114            309 192 
 PTGC HZ EP       18 9 57.20                             113   -1.21 7  313 159 
 PTGC HN ES       1810 30.56                             113   -2.70 7  313 159 
 PTGC HZ I        1810 38.57        13.8 0.48            115            313 159 
 CBOC HE ES       1810 37.70                             111   -0.73 7  337 251 
 DBB  EZ EP       1810  2.10                             111    0.45 7  341 273 
 DBB  EE ES       1810 38.85                             111   -0.17 7  341 273 
 DBB  EZ I        1810 45.37         6.0 0.22            112            341 273 
 ARGC HE ES       1810 44.22                             110    2.55 6  355 340 
 PRA  HZ EP       1810  7.83                             107   -0.32 6  398 209 
 PRA  HE ES       1810 50.44                             107   -0.15 6  398 209 
 PRA  HZ I        1810 55.49        11.5 0.18            109            398 209 
 ORTC HZ EP       1810  8.98                             107    0.45 6  401 216 
 ORTC HN ES       1810 51.84                             107    0.58 6  401 216 
 ORTC HZ I        1810 57.23        10.7 0.44            109            401 216 
 SJC  HZ EP       1810  8.59                             107   -0.52 6  406 326 
 SJC  HE ES       1810 49.54                             107   -2.75 6  406 326 
 SJC  HZ I        1810 54.95         3.9 0.36            109            406 326 
 PAL  HZ EP       1810  9.65                             107    0.02 6  410 239 
 PAL  HE ES       1810 53.23                             107    0.01 6  410 239 
 PAL  HZ I        1810 58.42         4.6 0.20            108            410 239 
 CRJC HZ EP       1810 14.16                             105   -1.62 5  462   3 
 CRJC HE ES       1811  2.74                             105   -1.43 5  462   3 
                                                                                
