 2017 11 4 1206 32.1 L   6.733 -73.183151.3  RSN  4 0.3 1.1LRSN                1
 GAP=228        0.61       6.0     6.7  7.3  0.1967E+02 -0.1647E+01 -0.1648E+01E
 Epicentro: VILLANUEVA - SANTANDER                                             3
 ACTION:UPD 17-12-12 19:51 OP:rebc STATUS:               ID:20171104120632 L   I
 OLDACT:UP  17-11-04 22:05 OP:mg   STATUS:               ID:20171104115738     3
 OLDACT:REG 17-11-04 20:16 OP:mg   STATUS:               ID:20171104115738     3
 2017-11-04-1158-00M.COL___426                                                 6
 STAT SP IPHASW D HRMM SECON CODA AMPLIT PERI AZIMU VELO AIN AR TRES W  DIS CAZ7
 BAR2 EZ EP   2   12 6 51.93                             174   -0.32 5 15.5 180 
 BAR2 EZ ES   2   12 7  7.22                             174   -0.77 5 15.5 180 
 BAR2 EZ I        12 7 11.10         5.4 0.56            173           15.5 180 
 BRR  HZ EP       12 6 53.79                             154   -0.0710 71.6 305 
 BRR  HN ES       12 7 11.13                             154    0.2910 71.6 305 
 BRR  HZ I        12 7 14.24         5.1 0.34            154           71.6 305 
 RUS  HZ EP   2   12 6 56.30                             147    0.40 5 93.6 173 
 RUS  HN ES   1   12 7 14.70                             147    0.22 7 93.6 173 
 RUS  HZ I        12 7 15.65         1.2 0.28            150           93.6 173 
 PTB  HZ EP   2   12 6 58.79                             135   -0.24 5  142 261 
 PTB  HN ES   1   12 7 19.82                             135   -0.24 7  142 261 
 PTB  HZ I        12 7 23.73         0.9 0.11            136            142 261 
                                                                                
