 2017  1 4 1919 17.4 L   6.781 -73.162148.0  RSN  9 0.5 1.6LRSN                1
 GAP=135        1.03       4.0     4.2  6.8 -0.1065E+01  0.5752E+01  0.3850E+01E
 Epicentro: LOS SANTOS - SANTANDER                                             3
 ACTION:UPD 17-05-22 15:55 OP:jn   STATUS:               ID:20170104191917 L   I
 OLDACT:UP  17-01-05 00:02 OP:dnl  STATUS:               ID:20170104190751d    3
 OLDACT:UP  17-01-05 00:01 OP:dnl  STATUS:               ID:20170104190751d    3
 OLDACT:DUP 17-01-04 23:58 OP:dnl  STATUS:               ID:20170104190751d    3
 OLDACT:DUP 17-01-04 23:52 OP:dnl  STATUS:               ID:20170104190750d    3
 2017-01-04-1908-00M.COL___366                                                 6
 STAT SP IPHASW D HRMM SECON CODA AMPLIT PERI AZIMU VELO AIN AR TRES W  DIS CAZ7
 BAR2 EZ EP       1919 37.25                             172    0.0410 21.0 186 
 BAR2 EZ ES       1919 52.25                             172   -0.4510 21.0 186 
 BAR2 EZ I        1919 53.64        16.6 0.22            171           21.0 186 
 BRR  HZ EP       1919 39.11                             153    0.3910 70.7 301 
 BRR  HE ES       1919 56.39                             153    1.0110 70.7 301 
 BRR  HZ I        1919 59.22         9.1 0.38            152           70.7 301 
 PAM  EZ EP       1919 40.06                             150    0.0810 80.2  40 
 PAM  EN ES       1919 57.15                             150   -0.4710 80.2  40 
 PAM  EZ I        1920  1.87         2.8 0.48            153           80.2  40 
 RUS  HZ EP       1919 41.31                             145    0.1210 98.6 175 
 RUS  HE ES       1919 59.82                             145    0.0410 98.6 175 
 RUS  HZ I        1920  1.17         5.1 0.28            145           98.6 175 
 PTB  HZ EP       1919 44.52                             133    0.21 9  146 260 
 PTB  HN ES       1920  4.65                             133   -0.68 9  146 260 
 PTB  HZ I        1920  7.41         3.9 0.30            133            146 260 
 ZAR  HZ EP   2   1919 48.68                             123   -1.18 4  203 293 
 ZAR  HE ES       1920 14.88                             123   -0.33 9  203 293 
 ZAR  HZ I        1920 20.62         5.1 0.32            123            203 293 
 NOR  HZ EP   2   1919 53.25                             119    0.32 4  232 235 
 NOR  HN ES       1920 20.64                             119   -0.03 8  232 235 
 NOR  HZ I        1920 26.53         3.2 0.20            119            232 235 
 CHI  HZ EP   2   1919 54.84                             118   -0.07 4  246 195 
 CHI  HE ES       1920 24.31                             118    0.11 8  246 195 
 CHI  HZ I        1920 31.76         2.5 0.52            118            246 195 
 GUY2CHZ EP   9   1920  2.36                             113    1.60 0  298 235 
 GUY2CHN ES       1920 36.30                             112    0.08 7  298 235 
 GUY2CHZ  IAML    1920 43.63         2.1 0.34                           298 235 
                                                                                
