 2011 11 4 1339  8.9 L   6.772 -73.147142.8  RSN 14 0.5 2.4LRSN                1
 GAP= 81        0.99       4.6     5.3  5.8 -0.4628E+01  0.1189E+02  0.3106E+01E
 Epicentro: LOS SANTOS - SANTANDER                                             3
 ACTION:UPD 12-07-13 16:08 OP:ep   STATUS:               ID:20111104133908 L   I
 2011-11-04-1325-00M.COL___176                                                 6
 STAT SP IPHASW D HRMM SECON CODA AMPLIT PERI AZIMU VELO AIN AR TRES W  DIS CAZ7
 SAN  SZ EP       1339 28.45                             177    0.5510 8.17  95 
 SAN  SZ ES   1   1339 43.54                             177    0.81 7 8.17  95 
 BAR2 SZ EP       1339 27.87                             172   -0.2410 20.2 191 
 BAR2 SZ ES   1   1339 43.00                             172   -0.09 7 20.2 191 
 BAR2 SZ I        1339 44.58       119.9 0.24                          20.2 191 
 GIR2 SZ EP       1339 27.96                             166   -0.3410 34.3 351 
 GIR2 SZ ES   1   1339 42.88                             166   -0.56 7 34.3 351 
 BRR  HZ IP     C 1339 29.73                             151   -0.0810 72.6 301 
 BRR  HZ I        1339 30.06       127.0 0.30                          72.6 301 
 BRR  HN ES   1   1339 47.01                             151    0.90 7 72.6 301 
 PAM  SZ IP       1339 30.70                             150   -0.2510 79.9  38 
 PAM  SN ES   1   1339 48.14                             150   -0.01 7 79.9  38 
 RUS  HZ EP       1339 31.76                             144   -0.3710 97.5 176 
 RUS  HN ES   1   1339 50.15                             144   -0.10 7 97.5 176 
 RUS  HZ I        1339 51.39        27.7 0.48                          97.5 176 
 OCA  SZ EP       1339 37.37                             128    0.10 9  163 353 
 OCA  SZ I        1340  6.35        23.6 0.33                           163 353 
 ZAR  HZ EP   2   1339 41.74                             122    0.48 4  205 293 
 ZAR  HE ES   1   1340  5.49                             122   -1.01 6  205 293 
 ZAR  HZ I        1340 12.70        30.9 0.40                           205 293 
 NOR  SZ EP       1339 44.07                             118   -0.18 8  233 235 
 NOR  SN ES   1   1340 11.26                             118   -0.56 6  233 235 
 HEL  HZ EP       1339 49.67                             114    0.81 8  271 256 
 HEL  HZ I        1340 25.94         6.9 0.58                           271 256 
 GUY  SN ES   2   1340 26.68                             112    0.32 4  302 236 
 RREF HZ EP       1339 54.66                             110   -0.01 7  320 230 
 RREF HZ I        1340 35.02        10.9 0.70                           320 230 
 TOL  SZ EP       1339 57.38                             109    0.62 7  341 225 
 PRA  HZ EP   3   1340  1.83                             106   -0.16 1  389 210 
                                                                                
