 2013  1 4 1529 55.0 L   6.842 -73.100146.0  RSN 12 0.5 2.4LRSN                1
 GAP=188        0.91       3.2     5.0  6.2  0.1060E+00  0.5489E+01  0.2191E+01E
 Epicentro: LOS SANTOS - SANTANDER                                             3
 ACTION:UPD 13-02-15 09:12 OP:ep   STATUS:               ID:20130104152955 L   I
 2013-01-04-1530-00M.COL___242                                                 6
 STAT SP IPHASW D HRMM SECON CODA AMPLIT PERI AZIMU VELO AIN AR TRES W  DIS CAZ7
 BAR2 SZ EP       1530 14.86                             168    0.1210 29.1 198 
 BAR2 SZ ES   1   1530 30.09                             168   -0.09 7 29.1 198 
 BAR2 SZ I        1530 32.48        57.7 0.36            162           29.1 198 
 BRR  HZ EP       1530 16.59                             152    0.3210 73.7 293 
 BRR  HN ES   1   1530 33.84                             152    0.94 7 73.7 293 
 BRR  HZ I        1530 37.81        40.4 0.56            143           73.7 293 
 RUS  HZ EP       1530 18.94                             143   -0.1210  105 179 
 RUS  HN ES   1   1530 37.72                             143   -0.13 7  105 179 
 RUS  HZ I        1530 39.58        36.5 0.32            139            105 179 
 PTB  HZ IPg      1530 21.70                             131   -0.78 9  154 257 
 PTB  HN ES   1   1530 43.44                             131   -0.51 7  154 257 
 PTB  HZ I        1530 45.33        43.8 0.16            124            154 257 
 OCA  HZ EP       1530 22.94                             131    0.02 9  156 351 
 OCA  HN ES   1   1530 44.32                             131   -0.40 7  156 351 
 OCA  HZ I        1530 50.11        27.1 0.20            126            156 351 
 ZAR  HZ EP       1530 27.73                             122    0.01 8  207 290 
 ZAR  HN ES   1   1530 52.88                             122   -0.40 6  207 290 
 ZAR  HZ I        1531  1.89        18.6 0.24            117            207 290 
 CTAB SZ ES   1   1531  0.77                             119    0.90 6  237 211 
 NOR  HZ EP   1   1530 31.26                             118   -0.17 6  241 234 
 NOR  HZ I        1531  4.02        27.0 0.38            113            241 234 
 CHI  HZ EP       1530 33.17                             117   -0.13 8  254 196 
 CHI  HN ES   1   1531  2.33                             117   -0.89 6  254 196 
 CHI  HZ I        1531  6.59        11.4 0.46            113            254 196 
 ROSC BZ EP   1   1530 34.45                             116    0.64 6  259 211 
 ROSC BN ES   1   1531  4.31                             116    0.19 6  259 211 
 ROSC BZ I        1531 12.00        23.9 0.30            112            259 211 
 HEL  HZ EP   1   1530 36.49                             114    0.64 6  278 255 
 HEL  HN ES   1   1531  7.89                             114    0.14 6  278 255 
 HEL  HZ I        1531 14.56        16.2 0.36            110            278 255 
 RREF HZ EP   1   1530 42.44                             110    0.55 5  329 229 
 RREF HN ES   1   1531 18.34                             110   -0.16 5  329 229 
 RREF HZ I        1531 27.05        14.8 0.28            107            329 229 
 MON  HZ EP   4   1530 42.07                             109   -2.02 0  355 307 
 MON  HE ES   4   1531 19.98                             109   -2.44 0  355 307 
                                                                                
