 2013  7 4 1644 59.9 L   6.793 -73.146146.6  RSN 20 0.5 2.9LRSN 3.4WRSN        1
 SPEC AVERAGE  MO 14.1 ST  6.1 OM  2.5 f0 3.17 R0.5043 AL 2.33 WI 21.6 MW  3.4 3
 SPEC SD       MO  0.2 ST  3.9 OM  0.2 f00.503 R0.0861 AL      WI      MW  0.1 3
 GAP= 55        1.13       2.7     3.0  4.6  0.3599E+00  0.3530E+01  0.2776E+01E
 Epicentro: LOS SANTOS - SANTANDER                                             3
 SPEC YOP SH N MO 14.3 ST  5.1 OM  2.5 f0 2.88 R0.5396 AL 2.61 WI 14.4 MW  3.4 3
 SPEC YOP SH N T164552 K 0.000 GD  230 VS 4.20 DE 3.20 Q0300.0 QA 0.60 VS 4.20 3
 SPEC TAM HH N MO 14.2 ST  5.6 OM  2.5 f0 3.06 R0.5078 AL 2.40 WI 21.3 MW  3.4 3
 SPEC TAM HH N T164547 K 0.000 GD  213 VS 4.20 DE 3.20 Q0300.0 QA 0.60 VS 4.20 3
 SPEC ROSCBH Z MO 14.3 ST  4.4 OM  2.4 f0 2.74 R0.5672 AL 3.24 WI 19.6 MW  3.5 3
 SPEC ROSCBH Z T1646 6 K 0.000 GD  291 VS 4.20 DE 3.20 Q0300.0 QA 0.60 VS 4.20 3
 SPEC PTB HH N MO 14.1 ST  3.9 OM  2.4 f0 2.95 R0.5268 AL 1.96 WI 16.7 MW  3.4 3
 SPEC PTB HH N T164546 K 0.000 GD  208 VS 4.20 DE 3.20 Q0300.0 QA 0.60 VS 4.20 3
 SPEC ORTCHH N MO 14.4 ST 15.1 OM  2.4 f0 3.66 R0.4246 AL 2.64 WI 26.5 MW  3.6 3
 SPEC ORTCHH N T164631 K 0.000 GD  421 VS 4.20 DE 3.20 Q0300.0 QA 0.60 VS 4.20 3
 SPEC HEL HH N MO 14.2 ST  5.3 OM  2.3 f0 3.10 R0.5013 AL 2.82 WI 25.2 MW  3.4 3
 SPEC HEL HH N T164610 K 0.000 GD  308 VS 4.20 DE 3.20 Q0300.0 QA 0.60 VS 4.20 3
 SPEC NOR HH E MO 14.2 ST 12.3 OM  2.4 f0 3.94 R0.3944 AL 1.70 WI 26.5 MW  3.4 3
 SPEC NOR HH E T1646 2 K 0.000 GD  276 VS 4.20 DE 3.20 Q0300.0 QA 0.60 VS 4.20 3
 SPEC OCA HH Z MO 13.9 ST  3.4 OM  2.2 f0 3.25 R0.4782 AL 1.82 WI 26.3 MW  3.2 3
 SPEC OCA HH Z T164548 K 0.000 GD  217 VS 4.20 DE 3.20 Q0300.0 QA 0.60 VS 4.20 3
 SPEC RUS HH N MO 13.9 ST  4.7 OM  2.3 f0 3.57 R0.4353 AL 2.35 WI  9.8 MW  3.2 3
 SPEC RUS HH N T164540 K 0.000 GD  177 VS 4.20 DE 3.20 Q0300.0 QA 0.60 VS 4.20 3
 SPEC PAM SH N MO 13.9 ST  1.4 OM  2.3 f0 2.44 R0.6369 AL 2.44 WI 21.1 MW  3.2 3
 SPEC PAM SH N T164538 K 0.000 GD  166 VS 4.20 DE 3.20 Q0300.0 QA 0.60 VS 4.20 3
 SPEC CHI HH N MO 14.2 ST  9.5 OM  2.3 f0 3.84 R0.4047 AL 2.81 WI 24.0 MW  3.4 3
 SPEC CHI HH N T1646 4 K 0.000 GD  288 VS 4.20 DE 3.20 Q0300.0 QA 0.60 VS 4.20 3
 SPEC BRR HH N MO 14.2 ST  8.0 OM  2.6 f0 3.49 R0.4453 AL 2.06 WI 35.0 MW  3.4 3
 SPEC BRR HH N T164536 K 0.000 GD  163 VS 4.20 DE 3.20 Q0300.0 QA 0.60 VS 4.20 3
 SPEC BAR2SH Z MO 13.9 ST0.968 OM  2.3 f0 2.24 R0.6937 AL 1.49 WI 15.0 MW  3.2 3
 SPEC BAR2SH Z T164533 K 0.000 GD  148 VS 4.20 DE 3.20 Q0300.0 QA 0.60 VS 4.20 3
 ACTION:UPD 13-08-12 10:35 OP:ep   STATUS:               ID:20130704164459 L   I
 OLDACT:UP  13-07-04 21:01 OP:jn   STATUS:               ID:20130704163959     3
 OLDACT:REG 13-07-04 19:29 OP:jn   STATUS:               ID:20130704163959     3
 2013-07-04-1639-59M.COL___266                                                 6
 STAT SP IPHASW D HRMM SECON CODA AMPLIT PERI AZIMU VELO AIN AR TRES W  DIS CAZ7
 BAR2 SZ IP     C 1645 19.64                             171    0.0510 22.5 190 
 BAR2 SZ ES       1645 35.14                             171    0.1710 22.5 190 
 BAR2 SZ I        1645 37.35       190.1 0.30            167           22.5 190 
 GIR2 SZ EP       1645 19.69                             167    0.0310 32.0 351 
 GIR2 SZ ES       1645 34.69                             167   -0.4110 32.0 351 
 BRR  HZ IP     C 1645 21.48                             153    0.3510 71.5 299 
 BRR  HN ES       1645 38.80                             153    1.0910 71.5 299 
 BRR  HZ I        1645 44.67        76.8 0.20            151           71.5 299 
 PAM  SZ IP     C 1645 22.37                             151    0.1610 78.0  39 
 PAM  SN ES       1645 39.66                             151    0.0210 78.0  39 
 PAM  SZ I        1645 41.91       108.4 0.48            154           78.0  39 
 RUS  HZ EP     D 1645 23.51                             144   -0.1410 99.8 176 
 RUS  HN ES       1645 41.59                             144   -0.6110 99.8 176 
 RUS  HZ I        1645 45.28        97.4 0.30            142           99.8 176 
 PTB  HZ EP       1645 26.37                             132   -0.51 9  148 259 
 PTB  HN ES       1645 47.01                             132   -0.95 9  148 259 
 PTB  HZ I        1645 55.04       154.0 0.50            130            148 259 
 TAM  HZ IP     C 1645 27.77                             131    0.17 9  155 105 
 TAM  HN ES   1   1645 49.48                             131    0.25 7  155 105 
 TAM  HZ I        1645 55.83        53.3 0.44            132            155 105 
 OCA  HN ES       1645 50.18                             130   -0.33 9  161 353 
 YOP  SZ EP     D 1645 30.11                             126    0.20 9  178 153 
 YOP  SE ES       1645 53.25                             126   -0.09 9  178 153 
 YOP  SZ I        1645 54.85        77.2 0.22            126            178 153 
 ZAR  HZ EP       1645 32.16                             122   -0.23 9  204 292 
 ZAR  HE ES   1   1645 57.69                             122   -0.07 6  204 292 
 ZAR  HZ I        1646  5.03       100.4 0.46            121            204 292 
 NOR  HZ EP       1645 35.36                             119   -0.23 8  234 235 
 NOR  HN ES       1646  3.64                             119    0.19 8  234 235 
 NOR  HZ I        1646  7.37        95.2 0.22            117            234 235 
 SML  HN EP       1645 36.67                             117    0.06 8  244 335 
 SML  HE ES       1646  5.71                             117    0.43 8  244 335 
 CHI  HZ EP     C 1645 37.60                             117    0.07 8  248 195 
 CHI  HN ES       1646  6.40                             117   -0.50 8  248 195 
 CHI  HZ I        1646 15.33        32.7 0.43            116            248 195 
 ROSC BZ EP     D 1645 39.18                             117    1.23 8  252 211 
 ROSC BN ES   4   1646 11.92                             117    4.26 0  252 211 
 HEL  HZ EP       1645 40.34                             115    0.25 8  272 256 
 HEL  HN ES   1   1646 12.17                             115    0.70 6  272 256 
 HEL  HZ I        1646 18.82        44.4 0.40            114            272 256 
 RREF HZ EP       1645 46.66                             111    0.68 7  321 229 
 RREF HZ I        1646 30.58        59.2 0.26            110            321 229 
 DBB  SZ EP       1645 47.09                             110   -0.28 7  339 274 
 DBB  SZ ES       1646 23.42                             110   -1.01 7  339 274 
 DBB  SZ I        1646 27.60        31.9 0.60            109            339 274 
 SDV  BZ EP       1645 48.97                             108   -1.03 6  361  50 
 PRA  HZ EP       1645 52.93                             107   -0.40 6  391 210 
 PRA  HN ES       1646 35.39                             107    0.36 6  391 210 
 PRA  HZ I        1646 40.38        37.4 0.32            106            391 210 
 ORTC HZ EP       1645 53.66                             106   -0.07 6  395 216 
 ORTC HN ES       1646 36.45                             106    0.70 6  395 216 
 ORTC HZ I        1646 43.44        32.4 0.38            106            395 216 
                                                                                
