 2017 11 4 1428  0.6 L   6.647 -74.070  2.7  RSN 22 0.8 2.8LRSN                1
 GAP= 57        1.15       2.0     1.9  4.4 -0.6949E+00  0.1436E+01  0.7832E+00E
 Epicentro: PUERTO PARRA - SANTANDER                                           3
 Evento Sentido                                                                2
 Reportado como sentido en:                                                    3
 BOGOTA D.C.                                                                   3
 ACTION:UPD 17-12-12 19:51 OP:rebc STATUS:               ID:20171104142800 L   I
 OLDACT:UP  17-11-04 23:56 OP:mg   STATUS:               ID:20171104141746d    3
 OLDACT:UP  17-11-04 23:56 OP:mg   STATUS:               ID:20171104141746d    3
 OLDACT:UP  17-11-04 23:50 OP:mg   STATUS:               ID:20171104141746d    3
 OLDACT:UP  17-11-04 23:39 OP:mg   STATUS:               ID:20171104141746d    3
 OLDACT:DUP 17-11-04 23:32 OP:mg   STATUS:               ID:20171104141746d    3
 2017-11-04-1418-00M.COL___423                                                 6
 STAT SP IPHASW D HRMM SECON CODA AMPLIT PERI AZIMU VELO AIN AR TRES W  DIS CAZ7
 PTB  HZ IP     D 1428  7.89                              47   -0.2210 44.3 255 
 PTB  HN ES       1428 13.91                              47   -0.0710 44.3 255 
 PTB  HZ I        1428 14.15       375.5 0.24             47           44.3 255 
 BRR  HZ IP     D 1428 11.02                              47   -0.1310 64.5  38 
 BRR  HN ES       1428 19.29                              47   -0.1010 64.5  38 
 BRR  HZ I        1428 20.11       416.9 0.10             47           64.5  38 
 BAR2 EZ IP     D 1428 16.36                              47   -0.1710 98.3  93 
 BAR2 EZ ES   2   1428 28.41                              47   -0.55 5 98.3  93 
 BAR2 EZ I        1428 34.67       318.6 0.44             47           98.3  93 
 SPBC HZ EP       1428 18.57                              47    0.4310  110 180 
 SPBC HN ES   1   1428 32.36                              47    0.54 7  110 180 
 SPBC HZ I        1428 33.81       230.7 0.23             47            110 180 
 ZAR  HZ EP       1428 20.29                              47   -0.4610  128 317 
 ZAR  HN ES       1428 36.02                              47   -0.4410  128 317 
 ZAR  HZ I        1428 37.74       159.8 0.27             47            128 317 
 RUS  HZ IP     D 1428 22.68                              47   -0.03 9  137 127 
 RUS  HN ES       1428 38.93                              47   -1.03 9  137 127 
 NOR  HZ EP       1428 23.33                              47   -0.67 9  149 216 
 NOR  HN ES   2   1428 40.78                              47   -1.47 5  149 216 
 NOR  HZ I        1428 42.10       133.7 0.26             47            149 216 
 PAM  EZ EP       1428 27.51                              47   -0.09 9  170  63 
 PAM  EN ES       1428 49.32                              47    0.65 9  170  63 
 PAM  EZ I        1428 51.00       294.7 0.28             47            170  63 
 TABC EZ EP   4   1428 30.58                              37    1.27 0  181 185 
 ROSC BZ EP   4   1428 38.19                              37    6.43 0  202 188 
 ROSC BN ES   4   1428 58.70                              37    2.64 0  202 188 
 ROSC BZ I        1429  1.15        62.5 0.42             37            202 188 
 URE  HZ EP   2   1428 32.04                              37    0.63 4  203 307 
 URE  HN ES   2   1428 56.29                              37    0.84 4  203 307 
 URE  HZ I        1428 59.22       123.5 0.30             37            203 307 
 GUY2CHZ EP     C 1428 33.34                              37    0.09 8  213 222 
 GUY2CHN ES       1428 58.29                              37   -0.43 8  213 222 
 GUY2CHZ I        1429  1.98       132.1 0.51                           213 222 
 CHI  HZ EP   2   1428 35.99                              37    1.14 4  226 170 
 CHI  HE ES   3   1429  4.75                              37    3.19 2  226 170 
 CHI  HZ I        1429 13.05        36.8 0.41             37            226 170 
 CBOC HZ EP   2   1428 36.73                              37    1.49 4  232 248 
 CBOC HN ES       1429  2.92                              37    0.65 8  232 248 
 CBOC HZ I        1429 10.38        58.4 0.62             37            232 248 
 YPLC HZ EP   3   1428 37.49                              37    2.25 2  233 126 
 YPLC HN ES   3   1429  4.40                              37    2.13 2  233 126 
 YPLC HZ I        1429 11.86       138.8 0.28             37            233 126 
 DBB  EZ EP   3   1428 38.45                              37    2.27 2  240 280 
 DBB  EN ES   4   1429  9.18                              37    5.25 0  240 280 
 DBB  EZ I        1429 12.13        37.2 0.45             37            240 280 
 TAM  HZ EP   3   1428 40.37                              37    2.60 2  253  95 
 TAM  HN ES   4   1429 11.41                              37    4.65 0  253  95 
 TAM  HZ I        1429 14.98        66.7 0.47             37            253  95 
 VIL  EZ EP       1428 41.96                              37    0.30 7  283 172 
 APAC HZ EP   4   1428 50.03                              36    5.25 0  310 297 
 APAC HN ES   4   1429 23.96                              36    4.72 0  310 297 
 APAC HZ I        1429 27.96        24.1 0.46             36            310 297 
 PAL  HZ EP   2   1428 46.39                              36    1.30 3  312 232 
 PAL  HN ES       1429 19.51                              36   -0.29 7  312 232 
 PAL  HZ I        1429 29.85        30.4 0.36             36            312 232 
 ORTC HZ EP       1428 47.90                              36    0.64 7  330 203 
 ORTC HE ES       1429 23.66                              36   -0.00 7  330 203 
 ORTC HZ I        1429 39.13        60.9 0.84             36            330 203 
 PRA  HZ EP       1428 48.38                              36    0.24 7  337 196 
 PRA  HN ES       1429 25.30                              36    0.07 7  337 196 
 PRA  HZ I        1429 43.22        42.9 0.64             36            337 196 
 SJC  HZ EP       1428 54.18                              36    0.71 6  380 341 
 SJC  HN ES   3   1429 37.47                              36    2.76 2  380 341 
 SJC  HZ I        1429 40.09         8.2 0.75             36            380 341 
                                                                                
