 2013  3 4 1855 20.8 L   6.771 -73.157141.7  RSN  6 0.4 1.9LRSN                1
 GAP=136        1.15       5.9     5.7  7.8 -0.1756E+01  0.1099E+02 -0.2442E+01E
 Epicentro: LOS SANTOS - SANTANDER                                             3
 ACTION:UPD 13-04-09 13:59 OP:ep   STATUS:               ID:20130304185520 L   I
 2013-03-04-1848-50M.COL___190                                                 6
 STAT SP IPHASW D HRMM SECON CODA AMPLIT PERI AZIMU VELO AIN AR TRES W  DIS CAZ7
 BAR2 SZ EP   1   1855 39.69                             172   -0.15 7 19.9 188 
 BAR2 SZ ES       1855 54.92                             172    0.2010 19.9 188 
 BRR  HZ IP     C 1855 41.60                             152    0.0910 71.7 301 
 BRR  HZ I        1855 41.93        19.1 0.16            152           71.7 301 
 BRR  HN ES       1855 58.33                             152    0.6510 71.7 301 
 PAM  SZ EP       1855 42.62                             149   -0.1310 80.7  39 
 PAM  SZ I        1855 42.83        14.7 0.24            150           80.7  39 
 PAM  SN ES       1855 59.43                             149   -0.4710 80.7  39 
 RUS  HZ EP       1855 44.58                             144    0.6910 97.4 175 
 RUS  HN ES       1856  1.71                             144   -0.2210 97.4 175 
 RUS  HE I        1856  3.43        15.6 0.50            143           97.4 175 
 PTB  HZ EP       1855 46.58                             131   -0.66 9  146 260 
 PTB  HN ES       1856  7.33                             131   -0.56 9  146 260 
 PTB  HE I        1856  9.56        11.9 0.30            131            146 260 
 ZAR  HZ EP       1855 53.41                             121    0.45 9  204 293 
                                                                                
