 2015  4 4 1959 30.3 L   6.774 -73.111138.6  RSN  5 0.5 1.1LRSN                1
 GAP=142        1.34       7.0     7.1 13.4 -0.5363E+01 -0.4554E+01  0.1491E+02E
 Epicentro: LOS SANTOS - SANTANDER                                             3
 ACTION:UPD 15-06-03 16:52 OP:cam  STATUS:               ID:20150404195930 L   I
 OLDACT:REG 15-04-05 02:51 OP:stll STATUS:               ID:20150404195750     3
 2015-04-04-1957-50M.COL___285                                                 6
 STAT SP IPHASW D HRMM SECON CODA AMPLIT PERI AZIMU VELO AIN AR TRES W  DIS CAZ7
 BAR2 EZ EP       1959 49.24                             171    0.2010 21.6 201 
 BRR  HZ EP       1959 51.16                             150    0.1910 75.9 299 
 BRR  HZ I        1959 51.32         5.3 0.22            148           75.9 299 
 BRR  HN ES       20 0  7.64                             150    0.5510 75.9 299 
 PAM  SZ EP     D 1959 52.32                             149    0.5610 77.3  36 
 PAM  SN ES       20 0  7.76                             149   -0.7410 77.3  36 
 PAM  SZ I        20 0 10.94         1.7 0.14            152           77.3  36 
 RUS  HZ EP       1959 52.54                             143   -0.6010 97.5 178 
 RUS  HZ I        1959 54.02         1.1 0.16            145           97.5 178 
 RUS  HN ES       20 0 11.33                             143    0.3810 97.5 178 
 PTB  HN ES       20 0 17.19                             130   -0.63 9  151 260 
 PTB  HZ I        20 0 24.31         1.5 0.50            130            151 260 
                                                                                
