 2015  5 4 1938  8.7 L   6.827 -73.146145.1  RSN  9 0.4 2.0LRSN                1
 GAP=135        1.03       3.5     4.5  6.4 -0.1774E+01  0.1069E+02  0.2366E+01E
 Epicentro: LOS SANTOS - SANTANDER                                             3
 ACTION:UPD 15-09-10 22:01 OP:cam  STATUS:               ID:20150504193808 L   I
 OLDACT:DUP 15-05-05 01:12 OP:stll STATUS:               ID:20150504192748d    3
 2015-05-04-1927-47M.COL___274                                                 6
 STAT SP IPHASW D HRMM SECON CODA AMPLIT PERI AZIMU VELO AIN AR TRES W  DIS CAZ7
 BAR2 EZ EP       1938 28.19                             169   -0.1110 26.3 189 
 BAR2 EZ ES       1938 43.16                             169   -0.4410 26.3 189 
 BAR2 EZ I        1938 44.66        18.7 0.22            168           26.3 189 
 BRR  HZ EP       1938 29.98                             153    0.2910 69.8 296 
 BRR  HN ES       1938 46.83                             153    0.7710 69.8 296 
 BRR  HZ I        1938 50.19        23.5 0.28            152           69.8 296 
 PAM  SZ EP       1938 31.18                             151    0.4810 75.1  41 
 PAM  SN ES       1938 47.72                             151   -0.1410 75.1  41 
 PAM  SZ I        1938 48.72        11.8 0.20            156           75.1  41 
 RUS  HZ EP       1938 32.21                             143   -0.3810  104 176 
 RUS  HZ I        1938 33.19         9.6 0.22            144            104 176 
 RUS  HN ES       1938 51.37                             143    0.1310  104 176 
 SPBC HZ EP       1938 37.30                             128   -0.06 9  166 218 
 SPBC HN ES       1938 59.65                             128   -0.07 9  166 218 
 SPBC HZ I        1939  6.07        21.2 0.34            129            166 218 
 ZAR  HN ES       1939  6.05                             122   -0.10 9  203 291 
 ZAR  HZ I        1939  8.05         8.6 0.30            124            203 291 
 NOR  HZ EP       1938 44.40                             118   -0.17 8  236 234 
 NOR  HN ES       1939 12.28                             118   -0.27 8  236 234 
 NOR  HZ I        1939 15.82         6.3 0.20            119            236 234 
 SML  HN ES       1939 12.46                             118   -0.82 8  241 335 
 GUY2CHZ EP       1938 53.39                             112    0.92 7  303 234 
 GUY2CHN ES       1939 26.46                             112   -0.15 7  303 234 
 GUY2CHZ I        1939 38.39         3.6 0.40                           303 234 
                                                                                
