 2016  9 4 1327 44.8 L   6.811 -73.137146.5  RSN 13 0.4 2.2LRSN                1
 GAP=137        0.90       2.8     3.5  5.2 -0.1355E+01  0.5716E+01  0.1671E+01E
 Epicentro: LOS SANTOS - SANTANDER                                             3
 ACTION:UPD 17-08-17 21:06 OP:lp   STATUS:               ID:20160904132744 L   I
 OLDACT:DUP 16-09-04 23:28 OP:dnl  STATUS:               ID:20160904131736d    3
 2016-09-04-1318-00M.COL___352                                                 6
 STAT SP IPHASW D HRMM SECON CODA AMPLIT PERI AZIMU VELO AIN AR TRES W  DIS CAZ7
 BAR2 EZ EP       1328  4.51                             170   -0.0110 24.7 192 
 BAR2 EZ ES       1328 19.65                             170   -0.2810 24.7 192 
 BAR2 EZ I        1328 20.79        50.0 0.68            169           24.7 192 
 BRR  HZ EP       1328  6.32                             153    0.3010 71.4 297 
 BRR  HN ES       1328 23.37                             153    0.7810 71.4 297 
 BRR  HZ I        1328 26.57        29.0 0.26            150           71.4 297 
 PAM  EZ EP       1328  7.47                             151    0.4910 75.8  40 
 PAM  EN ES       1328 24.39                             151    0.0910 75.8  40 
 PAM  EZ I        1328 26.70        21.1 0.52            154           75.8  40 
 RUS  HZ EP       1328  8.50                             144   -0.1810  102 177 
 RUS  HE ES       1328 27.39                             144    0.0610  102 177 
 RUS  HZ I        1328 28.20        14.6 0.20            146            102 177 
 PTB  HZ EP       1328 11.26                             132   -0.65 9  149 258 
 PTB  HE ES       1328 32.56                             132   -0.51 9  149 258 
 PTB  HZ I        1328 38.58        18.6 0.30            131            149 258 
 OCA  HZ EP   2   1328 12.83                             130   -0.21 5  159 353 
 OCA  HN ES       1328 34.46                             130   -0.63 9  159 353 
 OCA  HZ I        1328 37.83        34.1 0.24            131            159 353 
 SPBC HZ EP       1328 13.54                             129    0.06 9  165 219 
 SPBC HN ES       1328 35.71                             129   -0.15 9  165 219 
 SPBC HZ I        1328 39.92        34.1 0.20            129            165 219 
 ZAR  HZ EP       1328 17.53                             122    0.22 9  204 292 
 ZAR  HN ES       1328 42.42                             122   -0.27 9  204 292 
 ZAR  HZ I        1328 47.72        21.6 0.32            122            204 292 
 NOR  HZ EP       1328 20.66                             118   -0.05 8  236 234 
 NOR  HN ES       1328 48.81                             118    0.08 8  236 234 
 NOR  HZ I        1328 54.00        13.0 0.14            119            236 234 
 CHI  HZ EP   2   1328 22.72                             117    0.05 4  250 195 
 CHI  HN ES       1328 52.14                             117   -0.09 8  250 195 
 CHI  HZ I        1328 55.52        13.3 0.62            118            250 195 
 GUY2CHZ EP   2   1328 28.90                             112    0.32 4  303 235 
 GUY2CHE ES   4   1329  5.82                             112    3.07 0  303 235 
 GUY2CHZ I        1329 10.93        12.2 0.54                           303 235 
 CBOC HZ EP   2   1328 32.28                             110    0.41 3  335 252 
 CBOC HN ES       1329  9.45                             110    0.85 7  335 252 
 CBOC HZ I        1329 14.41         2.9 0.34            110            335 252 
 SJC  HZ EP   4   1328 38.73                             106   -1.57 0  409 327 
 SJC  HE ES   4   1329 19.67                             106   -3.94 0  409 327 
 SJC  HZ I        1329 31.98         3.0 0.30            106            409 327 
                                                                                
