 2014  3 4 1018 56.7 L   6.278 -73.610109.8  RSN  4 0.3 1.2LRSN                1
 GAP=161        0.90       6.9     4.7  8.3  0.1841E+02  0.1442E+02 -0.1660E+01E
 Epicentro: SANTA HELENA DEL OPON - SANTANDER                                  3
 ACTION:UPD 14-04-09 23:14 OP:nd   STATUS:               ID:20140304101856 L   I
 OLDACT:REG 14-03-04 15:59 OP:stll STATUS:               ID:20140304101810     3
 2014-03-04-1018-10M.COL___229                                                 6
 STAT SP IPHASW D HRMM SECON CODA AMPLIT PERI AZIMU VELO AIN AR TRES W  DIS CAZ7
 BAR2 SZ EP       1019 13.78                             150    0.1510 58.6  54 
 BAR2 SZ ES       1019 26.76                             150   -0.0610 58.6  54 
 BAR2 SZ I        1019 29.60         9.9 0.72            154           58.6  54 
 RUS  HZ EP       1019 15.41                             145    0.5210 72.2 126 
 RUS  HN ES       1019 28.72                             145   -0.3410 72.2 126 
 PTB  HZ EP       1019 15.67                             135   -0.5910 98.0 287 
 PTB  HN ES       1019 31.87                             135    0.3710 98.0 287 
 PTB  HZ I        1019 34.92         1.5 0.60            138           98.0 287 
 ZAR  HZ EP       1019 25.77                             115   -0.05 9  192 314 
 ZAR  HE ES       1019 48.48                             115   -0.04 9  192 314 
                                                                                
