 2010  7 4 1053 46.0 L   7.423 -73.242129.3  RSN  4 0.3 1.5LRSN                1
 GAP=119        0.60       6.2     7.9  9.8 -0.2181E+02  0.8452E+00  0.4693E+00E
 Epicentro: EL PLAYON - SANTANDER                                              3
 ACTION:UPD 10-12-01 15:15 OP:pat  STATUS:               ID:20100704105346 L   I
 2010-07-04-1049-57S.COL___117                                                 6
 STAT SP IPHASW D HRMM SECON CODA AMPLIT PERI AZIMU VELO AIN AR TRES W  DIS CAZ7
 BRI  SZ IP       1054  5.09                             154     0.110   59  57 
 BRI  SZ ES   2   1054 19.90                             154     0.2 5   59  57 
 BRR  HZ IP       1054  4.86                             152     0.010   63 236 
 BRR  HZ I        1054  6.93         7.8 0.43                            63 236 
 BRR  HN ES   2   1054 20.19                             152     0.6 5   63 236 
 OCA  SZ ES   2   1054 22.79                             143    -0.5 5   91 355 
 BAR2 SZ ES   2   1054 23.20                             142    -0.5 5   92 176 
                                                                                
