 2016  7 4 1145 23.6 L   6.761 -73.137144.0  RSN  8 0.2 1.7LRSN                1
 GAP=139        0.58       2.4     2.6  3.8 -0.9905E+00  0.1256E+01  0.1084E+01E
 Epicentro: LOS SANTOS - SANTANDER                                             3
 ACTION:UPD 17-03-29 16:46 OP:lp   STATUS:               ID:20160704114523 L   I
 OLDACT:DUP 16-07-04 23:27 OP:edw  STATUS:               ID:20160704113744d    3
 OLDACT:UP  16-07-04 23:25 OP:edw  STATUS:               ID:20160704113743d    3
 OLDACT:DUP 16-07-04 23:22 OP:edw  STATUS:               ID:20160704113743d    3
 OLDACT:UP  16-07-04 23:18 OP:edw  STATUS:               ID:20160704113741     3
 OLDACT:REG 16-07-04 20:03 OP:edw  STATUS:               ID:20160704113741     3
 2016-07-04-1137-41M.COL___316                                                 6
 STAT SP IPHASW D HRMM SECON CODA AMPLIT PERI AZIMU VELO AIN AR TRES W  DIS CAZ7
 BAR2 EZ EP       1145 42.84                             172   -0.1010 19.4 195 
 BAR2 EZ ES       1145 58.13                             172    0.1010 19.4 195 
 BAR2 EZ I        1145 58.78        17.3 0.32            173           19.4 195 
 BRR  HZ EP       1145 44.82                             151    0.1010 74.1 301 
 BRR  HE ES       1146  1.51                             151    0.3010 74.1 301 
 BRR  HZ I        1146  5.27        13.4 0.36            151           74.1 301 
 PAM  EZ EP       1145 45.98                             150    0.1910 80.2  37 
 PAM  EN ES       1146  2.65                             150   -0.4610 80.2  37 
 PAM  EZ I        1146  5.07        13.0 0.46            151           80.2  37 
 RUS  HZ EP       1145 47.15                             145    0.2810 96.3 176 
 RUS  HE ES       1146  5.09                             145    0.0710 96.3 176 
 RUS  HZ I        1146  6.72         3.6 0.30            147           96.3 176 
 PTB  HZ EP   9   1145 49.93                             132   -0.50 0  148 261 
 PTB  HN ES       1146 10.88                                    0.01 9  148 261 
 PTB  HZ I        1146 14.19         5.8 0.16            133            148 261 
 SPBC HZ EP       1145 51.54                             129   -0.16 9  160 220 
 SPBC HN ES       1146 13.36                             129   -0.27 9  160 220 
 SPBC HZ I        1146 13.91         4.0 0.10            131            160 220 
 ZAR  HZ EP   4   1145 57.14                             122    0.96 0  207 293 
 ZAR  HN ES       1146 21.51                             122   -0.09 8  207 293 
 HEL  HZ EP   4   1146  7.35                             114    3.65 0  272 257 
 HEL  HN ES   4   1146 37.14                             114    2.15 0  272 257 
 GUY2CHZ EP   4   1146  7.87                             112    0.94 0  300 236 
 GUY2CHN ES       1146 40.64                             112   -0.10 7  300 236 
                                                                                
