 2013 11 4 1607 15.0 L   7.470 -73.201132.5  RSN  6 0.5 1.4LRSN                1
 GAP=138        1.06       5.3     6.8 11.6  0.3900E+01  0.4301E+02 -0.7303E+01E
 Epicentro: EL PLAYON - SANTANDER                                              3
 ACTION:UPD 14-01-09 16:25 OP:ep   STATUS:               ID:20131104160715 L   I
 OLDACT:DUP 13-11-04 19:33 OP:jn   STATUS:               ID:20131104160001d    3
 OLDACT:REG 13-11-04 17:19 OP:jn   STATUS:               ID:20131104160000     3
 2013-11-04-1600-00M.COL___273                                                 6
 STAT SP IPHASW D HRMM SECON CODA AMPLIT PERI AZIMU VELO AIN AR TRES W  DIS CAZ7
 PAM  SN ES       16 7 50.32                             155    0.3110 57.2 105 
 PAM  SZ I        16 7 51.40         3.5 0.16            159           57.2 105 
 BRR  HZ EP       16 7 35.01                             151    0.3710 69.2 235 
 BRR  HN ES       16 7 50.20                             151    0.2710 69.2 235 
 BRR  HZ I        16 7 52.64         3.4 0.42            151           69.2 235 
 BAR2 SZ ES       16 7 53.30                             142   -0.6110 97.1 179 
 BAR2 SZ I        16 7 55.02         6.3 0.38            144           97.1 179 
 PTB  HZ EP       16 7 43.48                             124    0.08 9  173 234 
 PTB  HN ES   1   16 8  4.97                             124   -0.55 7  173 234 
 PTB  HZ I        16 8  7.76         2.4 0.42            126            173 234 
 SML  HN ES       16 8  5.45                             124   -0.57 9  176 327 
 SML  HZ I        16 8  7.53         6.7 0.10            126            176 327 
 ZAR  HN ES   1   16 8  8.03                             122    0.67 7  183 271 
                                                                                
