 2013  7 4 1403  4.2 L   6.812 -73.186145.5  RSN  7 0.3 1.7LRSN                1
 GAP=137        0.81       4.9     4.1  6.3 -0.4316E+01  0.4050E+01  0.6678E+01E
 Epicentro: ZAPATOCA - SANTANDER                                               3
 ACTION:UPD 13-08-12 10:35 OP:ep   STATUS:               ID:20130704140304 L   I
 OLDACT:REG 13-07-04 19:23 OP:jn   STATUS:               ID:20130704135959     3
 2013-07-04-1359-59M.COL___266                                                 6
 STAT SP IPHASW D HRMM SECON CODA AMPLIT PERI AZIMU VELO AIN AR TRES W  DIS CAZ7
 BAR2 SZ EP       14 3 23.91                             170    0.1010 24.3 179 
 BAR2 SZ ES       14 3 39.44                             170    0.3310 24.3 179 
 BAR2 SZ I        14 3 40.64         9.8 0.28            168           24.3 179 
 GIR2 SZ EP   1   14 3 23.91                             168    0.12 7 29.5 358 
 BRR  HZ EP       14 3 25.54                             154    0.4810 66.7 299 
 BRR  HN ES   1   14 3 41.45                             154    0.11 7 66.7 299 
 BRR  HZ I        14 3 48.64        13.9 0.31            153           66.7 299 
 PAM  SZ EP       14 3 26.66                             150    0.1710 79.3  43 
 PAM  SN ES       14 3 43.25                             150   -0.6410 79.3  43 
 PAM  SZ I        14 3 45.95         7.7 0.52            158           79.3  43 
 PTB  HZ EP       14 3 30.55                             133   -0.22 9  144 258 
 PTB  HN ES       14 3 51.57                             133    0.07 9  144 258 
 PTB  HZ I        14 3 59.14        10.1 0.44            134            144 258 
 ZAR  HE ES   1   14 4  0.61                             123   -0.46 6  199 292 
 CHI  HZ EP   1   14 3 41.79                             117   -0.10 6  249 194 
 CHI  HN ES   1   14 4 10.70                             117   -0.60 6  249 194 
 CHI  HZ I        14 4 16.64         1.6 0.40            120            249 194 
                                                                                
