 2016  9 4 1537 26.7 L   7.268 -73.407121.6  RSN 14 0.5 2.4LRSN                1
 GAP= 77        1.22       3.2     3.9  6.1 -0.3085E+01  0.4101E+01 -0.3109E+01E
 Epicentro: SABANA DE TORRES - SANTANDER                                       3
 ACTION:UPD 17-08-17 21:06 OP:lp   STATUS:               ID:20160904153726 L   I
 OLDACT:UP  16-09-04 23:56 OP:dani STATUS:               ID:20160904152733     3
 OLDACT:UP  16-09-04 23:56 OP:dani STATUS:               ID:20160904152733     3
 OLDACT:UP  16-09-04 23:55 OP:dani STATUS:               ID:20160904152733     3
 OLDACT:REG 16-09-04 20:56 OP:dnl  STATUS:               ID:20160904152733     3
 2016-09-04-1528-00M.COL___355                                                 6
 STAT SP IPHASW D HRMM SECON CODA AMPLIT PERI AZIMU VELO AIN AR TRES W  DIS CAZ7
 BRR  HZ EP       1537 43.48                             161   -0.0610 38.1 242 
 BRR  HN ES       1537 56.54                             161   -0.1410 38.1 242 
 BRR  HZ I        1537 57.19        53.4 0.12            157           38.1 242 
 PAM  EZ EP       1537 46.62                             145    0.1510 78.5  84 
 PAM  EN ES       1538  2.53                             145    0.6310 78.5  84 
 PAM  EZ I        1538  3.99        29.6 0.16            147           78.5  84 
 BAR2 HZ EP       1537 46.20                             145    0.0610 78.7 162 
 BAR2 HZ ES       1538  0.98                             145   -0.3210 78.7 162 
 OCA  HZ EP       1537 48.43                             136    0.1410  108   5 
 OCA  HN ES       1538  5.10                             136   -0.0310  108   5 
 OCA  HZ I        1538  6.30       185.6 0.12            138            108   5 
 PTB  HZ EP       1537 50.70                             127   -0.47 9  141 235 
 PTB  HN ES       1538 10.27                             127    0.01 9  141 235 
 PTB  HZ I        1538 14.85        42.2 0.46            125            141 235 
 RUS  HZ EP       1537 52.90                             125   -0.38 9  156 167 
 RUS  HE ES       1538 13.23                             125   -0.79 9  156 167 
 RUS  HZ I        1538 14.68        29.3 0.28            123            156 167 
 ZAR  HZ EP       1537 53.96                             123    0.72 9  162 279 
 ZAR  HN ES   4   1538 15.07                             123    1.12 0  162 279 
 ZAR  HZ I        1538 17.59        47.2 0.78            122            162 279 
 SPBC HZ EP   4   1537 58.68                             118    2.06 0  193 202 
 SPBC HN ES       1538 21.23                             118    1.26 9  193 202 
 SPBC HZ I        1538 29.52        27.9 0.22            117            193 202 
 URE  HE ES   4   1538 27.79                             112   -1.33 0  241 283 
 NOR  HZ EP       1538  2.47                             111   -0.22 8  248 221 
 NOR  HE ES       1538 30.03                             111   -0.74 8  248 221 
 NOR  HZ I        1538 35.92        32.2 0.68            110            248 221 
 LL6C HZ EP       1538  5.60                             109    0.13 8  273   3 
 CHI  HZ EP       1538  9.18                             108    0.80 7  294 187 
 CHI  HN ES   4   1538 44.28                             108    3.38 0  294 187 
 CHI  HZ I        1538 52.95        10.8 0.56            107            294 187 
 SOCV BZ EP       1538  9.50                             107    0.56 7  303  68 
 SOCV BE ES       1538 41.09                             107   -0.80 7  303  68 
 GUY2CHZ EP   4   1538 12.77                             106    2.08 0  313 224 
 GUY2CHN ES   4   1538 49.46                             106    4.45 0  313 224 
 GUY2CHZ I        1538 56.46        14.9 0.49                           313 224 
 SJC  HZ EP       1538 14.01                             104   -0.52 6  350 326 
 SJC  HE ES       1538 51.48                             104   -0.36 6  350 326 
 SJC  HZ I        1538 52.49         5.8 0.62            104            350 326 
                                                                                
