 2013 11 4 1604 39.8 L   7.493 -73.207130.0  RSN  6 0.5 1.6LRSN                1
 GAP=140        1.20       5.7     7.1 12.9  0.5589E+01  0.4920E+02 -0.2463E+01E
 Epicentro: EL PLAYON - SANTANDER                                              3
 ACTION:UPD 14-01-09 16:25 OP:ep   STATUS:               ID:20131104160439 L   I
 OLDACT:REG 13-11-04 17:19 OP:jn   STATUS:               ID:20131104160000     3
 2013-11-04-1600-00M.COL___273                                                 6
 STAT SP IPHASW D HRMM SECON CODA AMPLIT PERI AZIMU VELO AIN AR TRES W  DIS CAZ7
 PAM  SN ES       16 5 14.88                             154    0.4510 58.5 107 
 PAM  SZ I        16 5 17.67         6.9 0.46            160           58.5 107 
 BRR  HZ EP       16 4 59.50                             150    0.2910 70.2 233 
 BRR  HN ES   1   16 5 14.72                             150    0.37 7 70.2 233 
 BRR  HZ I        16 5 18.24         5.7 0.30            152           70.2 233 
 BAR2 SZ EP   1   16 5  1.77                             140    0.15 7 99.7 178 
 BAR2 SZ ES       16 5 18.03                             140   -0.6010 99.7 178 
 BAR2 SZ I        16 5 19.17        11.7 0.22            145           99.7 178 
 SML  HN ES       16 5 29.35                             123   -0.69 9  173 327 
 SML  HZ I        16 5 31.50         7.1 0.10            127            173 327 
 PTB  HZ EP       16 5  8.19                             123    0.08 9  174 233 
 PTB  HN ES       16 5 29.68                             123   -0.51 9  174 233 
 PTB  HZ I        16 5 33.23         4.0 0.16            127            174 233 
 ZAR  HN ES   1   16 5 32.80                             122    1.07 7  182 270 
                                                                                
