 2016  4 4 1442 47.9 L   6.798 -73.179140.8  RSN  4 0.2 1.5LRSN                1
 GAP=183        0.58       4.6     6.7  5.5 -0.2102E+02  0.1327E+02 -0.6529E+00E
 Epicentro: LOS SANTOS - SANTANDER                                             3
 ACTION:UPD 16-05-05 14:18 OP:rebc STATUS:               ID:20160404144247 L   I
 OLDACT:REG 16-04-04 20:31 OP:drio STATUS:               ID:20160404143746     3
 2016-04-04-1437-46M.COL___307                                                 6
 STAT SP IPHASW D HRMM SECON CODA AMPLIT PERI AZIMU VELO AIN AR TRES W  DIS CAZ7
 BAR2 EZ EP       1443  6.77                             170   -0.1110 22.8 181 
 BAR2 EZ ES       1443 21.37                             170   -0.3410 22.8 181 
 BAR2 EZ I        1443 25.23         5.7 0.22            170           22.8 181 
 PAM  EE ES       1443 27.00                             149    0.2510 80.0  41 
 PAM  EZ I        1443 31.50         5.3 0.38            155           80.0  41 
 RUS  HZ EP       1443 10.99                             143   -0.1410  101 174 
 RUS  HE ES       1443 29.44                             143    0.1610  101 174 
 RUS  HZ I        1443 32.43         3.3 0.80            148            101 174 
 SPBC HZ EP       1443 15.73                             128   -0.01 9  161 218 
 SPBC HE ES       1443 37.72                             128    0.23 9  161 218 
 SPBC HZ I        1443 44.51         6.9 0.10            131            161 218 
                                                                                
