 2013  8 4 1710 18.1 L   6.672 -73.635109.9  RSN  4 0.3 1.0LRSN                1
 GAP=116        0.83       5.5     4.9  8.8  0.1207E+02  0.1678E+02  0.1378E+02E
 Epicentro: EL CARMEN DE CHUCURI - SANTANDER                                   3
 ACTION:UPD 14-01-14 08:59 OP:ep   STATUS:               ID:20130804171018 L   I
 OLDACT:UP  13-08-04 17:24 OP:cam  STATUS:               ID:20130804170959     3
 OLDACT:REG 13-08-04 15:21 OP:cam  STATUS:               ID:20130804170959     3
 2013-08-04-1709-59M.COL___270                                                 6
 STAT SP IPHASW D HRMM SECON CODA AMPLIT PERI AZIMU VELO AIN AR TRES W  DIS CAZ7
 BRR  HZ EP       1710 34.12                             154    0.0210 48.9 350 
 BRR  HE ES       1710 46.99                             154    0.3910 48.9 350 
 BAR2 SZ EP       1710 34.33                             154   -0.2210 50.8 100 
 BAR2 SZ ES       1710 46.91                             154   -0.4810 50.8 100 
 BAR2 SZ I        1710 47.95         3.5 0.13            155           50.8 100 
 PTB  HZ EP       1710 37.20                             137    0.0710 92.0 261 
 PTB  HN ES   1   1710 51.66                             137   -0.32 7 92.0 261 
 PTB  HZ I        1710 52.70         2.0 0.14            137           92.0 261 
 RUS  HE ES       1710 55.63                             133    0.4110  106 145 
                                                                                
