 2017 11 4 1044 13.6 L   6.851 -73.190148.0  RSN  4 0.2 1.2LRSN                1
 GAP=189        0.36       5.2     8.4  4.9 -0.3750E+02  0.2018E+02 -0.7060E+01E
 Epicentro: ZAPATOCA - SANTANDER                                               3
 ACTION:UPD 17-12-12 19:51 OP:rebc STATUS:               ID:20171104104413 L   I
 OLDACT:UP  17-11-04 21:42 OP:mg   STATUS:               ID:20171104103739     3
 OLDACT:REG 17-11-04 20:08 OP:mg   STATUS:               ID:20171104103739     3
 2017-11-04-1038-00M.COL___423                                                 6
 STAT SP IPHASW D HRMM SECON CODA AMPLIT PERI AZIMU VELO AIN AR TRES W  DIS CAZ7
 BAR2 EZ EP       1044 33.53                             168   -0.1110 28.6 178 
 BAR2 EZ ES   2   1044 49.02                             168   -0.23 5 28.6 178 
 BAR2 EZ I        1044 51.12         4.4 0.20            168           28.6 178 
 PAM  EZ EP       1044 36.12                             151    0.0910 76.5  45 
 PAM  EN ES       1044 53.52                             151    0.0210 76.5  45 
 PAM  EZ I        1044 55.66         2.5 0.23            158           76.5  45 
 RUS  HZ EP   2   1044 37.76                             142   -0.28 5  107 174 
 RUS  HN ES   2   1044 57.33                             142    0.25 5  107 174 
 RUS  HZ I        1044 59.13         1.5 0.28            146            107 174 
 SPBC HZ EP   1   1044 42.52                             129    0.08 7  165 216 
 SPBC HN ES   2   1045  5.05                             129    0.14 5  165 216 
 SPBC HZ I        1045  9.79         3.2 0.10            131            165 216 
                                                                                
