 2011 10 4 1723 44.9 L   7.410 -73.188133.2  RSN 11 0.4 2.7LRSN                1
 GAP=107        0.75       3.2     4.1  5.4 -0.2295E-01  0.7750E+01  0.2892E+01E
 Epicentro: EL PLAYON - SANTANDER                                              3
 ACTION:UPD 12-07-13 16:01 OP:ep   STATUS:               ID:20111004172344 L   I
 2011-10-04-1721-13S.COL___171                                                 6
 STAT SP IPHASW D HRMM SECON CODA AMPLIT PERI AZIMU VELO AIN AR TRES W  DIS CAZ7
 PAM  SZ IP       1724  4.81                             156    0.3310 54.5  98 
 PAM  SN ES   1   1724 19.38                             156   -0.40 7 54.5  98 
 PAM  SZ I        1724 21.27       109.3 0.18                          54.5  98 
 BRR  HZ IP     D 1724  4.65                             152    0.2210 66.8 240 
 BRR  HN ES   1   1724 19.73                             152    0.06 7 66.8 240 
 BRR  HZ I        1724 21.34       302.4 0.14                          66.8 240 
 BAR2 SZ IP       1724  6.50                             144    0.1910 90.5 180 
 BAR2 SZ ES   1   1724 22.68                             144   -0.34 7 90.5 180 
 BAR2 SZ I        1724 24.06       194.7 0.15                          90.5 180 
 OCA  SZ EP       1724  6.40                             143    0.0510 92.7 351 
 OCA  SZ ES   1   1724 23.02                             143   -0.09 7 92.7 351 
 OCA  SZ I        1724 25.94       110.5 0.12                          92.7 351 
 RUS  HZ EP   1   1724 13.15                             125   -0.33 7  168 176 
 RUS  HZ I        1724 38.98        25.3 0.51                           168 176 
 ZAR  HZ EP   1   1724 14.51                             122    0.02 7  185 273 
 ZAR  HN ES   1   1724 37.59                             122    0.00 7  185 273 
 ZAR  HZ I        1724 41.49       125.9 0.28                           185 273 
 NOR  SZ EP       1724 25.07                             111    0.52 7  276 222 
 NOR  SN ES   1   1724 54.83                             111   -0.66 6  276 222 
 NOR  SZ I        1724 58.74         3.9 0.39                           276 222 
 HEL  HZ EP   1   1724 26.16                             110   -0.56 5  292 243 
 HEL  HZ I        1725  7.97        41.6 0.50                           292 243 
 CHI  HZ EP   1   1724 28.37                             109   -0.88 5  313 191 
 CHI  HN ES   1   1725  4.54                             109    0.67 5  313 191 
 CHI  HZ I        1725 11.45        18.7 0.48                           313 191 
 DBB  SZ EP   1   1724 31.95                             107    0.42 5  337 263 
 SJC  HZ EP   1   1724 32.48                             106   -0.78 5  352 322 
                                                                                
