 2013 11 4 1630 35.2 L   6.769 -73.126148.0  RSN  8 0.5 1.9LRSN                1
 GAP=140        1.11       5.3     5.1  6.8 -0.7065E+01  0.8575E+01  0.2429E+01E
 Epicentro: LOS SANTOS - SANTANDER                                             3
 ACTION:UPD 14-01-09 16:25 OP:ep   STATUS:               ID:20131104163035 L   I
 OLDACT:REG 13-11-04 17:19 OP:jn   STATUS:               ID:20131104163000     3
 2013-11-04-1630-00M.COL___273                                                 6
 STAT SP IPHASW D HRMM SECON CODA AMPLIT PERI AZIMU VELO AIN AR TRES W  DIS CAZ7
 BAR2 SZ EP       1630 54.96                             172   -0.0810 20.5 198 
 BAR2 SZ ES       1631 10.78                             172    0.2610 20.5 198 
 BAR2 SZ I        1631 14.00        23.1 0.48            171           20.5 198 
 BRR  HZ EP       1630 56.92                             152    0.1310 74.7 300 
 BRR  HN ES       1631 14.05                             152    0.4210 74.7 300 
 BRR  HZ I        1631 19.19        15.0 0.12            150           74.7 300 
 PAM  SZ EP       1630 57.81                             151    0.0810 78.7  37 
 PAM  SN ES   1   1631 15.08                             151   -0.22 7 78.7  37 
 RUS  HZ EP       1630 58.83                             145   -0.0910 97.1 177 
 RUS  HN ES       1631 17.23                             145   -0.1910 97.1 177 
 RUS  HZ I        1631 19.01         4.3 0.42            150           97.1 177 
 PTB  HZ EP       1631  1.64                             132   -0.84 9  149 260 
 PTB  HN ES       1631 22.84                             132   -0.92 9  149 260 
 PTB  HZ I        1631 28.93        20.0 0.40            133            149 260 
 SPBC HZ EP       1631  3.88                             130    0.13 9  162 220 
 SPBC HN ES       1631 26.55                             130    0.53 9  162 220 
 NOR  HZ EP       1631 10.75                             119   -0.28 8  235 235 
 NOR  HN ES       1631 38.99                             119    0.00 8  235 235 
 HEL  HZ EP       1631 16.68                             115    1.02 8  273 257 
 HEL  HN ES   1   1631 47.75                             115    0.52 6  273 257 
 HEL  HZ I        1631 52.35         7.0 0.38            117            273 257 
                                                                                
