 2012  9 4 1051 50.2 L   6.723 -73.188144.0  RSN  5 0.1 1.3LRSN                1
 GAP=174        0.32       4.3     5.8  8.4 -0.3832E+00  0.3001E+02 -0.1798E+02E
 Epicentro: VILLANUEVA - SANTANDER                                             3
 ACTION:UPD 12-10-22 14:17 OP:ep   STATUS:               ID:20120904105150 L   I
 2012-09-04-1050-00M.COL___218                                                 6
 STAT SP IPHASW D HRMM SECON CODA AMPLIT PERI AZIMU VELO AIN AR TRES W  DIS CAZ7
 BAR2 SZ EP       1052  9.39                             174   -0.0810 14.4 178 
 BAR2 SZ I        1052 25.98         4.5 0.26                          14.4 178 
 GIR2 SZ EP   3   1052  9.47                             164   -0.44 2 39.4 359 
 GIR2 SZ ES   3   1052 25.22                             164   -0.07 2 39.4 359 
 BRR  HZ EP       1052 11.33                             152    0.1310 71.8 306 
 BRR  HZ I        1052 16.11         8.6 0.30                          71.8 306 
 RUS  HZ EP   3   1052 13.12                             146   -0.09 2 92.5 173 
 RUS  HN ES   1   1052 31.24                             146    0.08 7 92.5 173 
 RUS  HZ I        1052 34.07         1.8 0.30                          92.5 173 
 PTB  HZ EP       1052 16.43                             133   -0.05 9  142 262 
 PTB  HN ES   3   1052 36.82                             133   -0.16 2  142 262 
                                                                                
