 2010  9 4 1639 28.2 L   6.757 -73.105145.7  RSN  8 0.4 1.9LRSN                1
 GAP=164        1.00       5.0    10.9  8.9 -0.8994E+01 -0.1314E+02 -0.5988E+01E
 Epicentro: LOS SANTOS - SANTANDER                                             3
 ACTION:UP  11-02-18 11:00 OP:tino STATUS:               ID:20100904163928 L   I
 2010-09-04-1636-30S.COL___120                                                 6
 STAT SP IPHASW D HRMM SECON CODA AMPLIT PERI AZIMU VELO SNR AR TRES W  DIS CAZ7
 BAR2 SZ IP       1639 47.67                             172    -0.110   20 205 
 BAR2 SZ ES   1   1640  3.04                             172     0.0 7   20 205 
 BAR2 SZ I        1640  3.85        17.5 0.34                            20 205 
 GIR2 SZ EP   2   1639 47.68                             165    -0.4 5   37 345 
 BRR  HZ IP     C 1639 49.48                             151    -0.310   77 300 
 BRR  HZ I        1639 49.75        42.9 0.22                            77 300 
 BRR  HN ES   1   1640  6.93                             151     0.4 7   77 300 
 RUS  HZ EP   1   1639 51.26                             146    -0.4 7   96 179 
 RUS  HN ES   1   1640 10.14                             146     0.3 7   96 179 
 RUS  HZ I        1640 11.44         8.2 0.27                            96 179 
 GUE  SZ EP   1   1639 52.61                             139    -0.6 7  120  10 
 GUE  SZ I        1639 54.18         5.2 0.08                           120  10 
 GRA  SZ EP       1639 54.38                             137     0.610  129  15 
 GRA  SZ ES   1   1640 14.17                             137     0.5 7  129  15 
 GRA  SZ I        1640 16.55         8.6 0.44                           129  15 
 OCA  SZ EP   2   1639 56.51                             129    -0.5 5  166 352 
 OCA  SZ ES   2   1640 18.91                             129    -0.6 5  166 352 
 OCA  SZ I        1640 23.81        10.4 0.14                           166 352 
 PRA  HZ EP   2   1640 21.97                             107     0.4 3  390 210 
 PRA  HE ES   2   1641  3.93                             107     0.8 3  390 210 
 PRA  HZ I        1641  5.76         2.8 0.28                           390 210 
                                                                                
