 2017  1 4 1525  5.0 L   6.835 -73.325123.6  RSN  6 0.4 1.9LRSN                1
 GAP=106        1.10       5.0     4.2  8.1  0.2293E+01  0.6508E+01  0.1657E+01E
 Epicentro: ZAPATOCA - SANTANDER                                               3
 ACTION:UPD 17-05-22 15:55 OP:jn   STATUS:               ID:20170104152505 L   I
 OLDACT:DUP 17-01-04 22:51 OP:dnl  STATUS:               ID:20170104151746d    3
 2017-01-04-1518-00M.COL___366                                                 6
 STAT SP IPHASW D HRMM SECON CODA AMPLIT PERI AZIMU VELO AIN AR TRES W  DIS CAZ7
 BAR2 EZ EP       1525 22.40                             165    0.2510 31.2 150 
 BAR2 EZ ES       1525 35.41                             165   -0.1410 31.2 150 
 BAR2 EZ I        1525 36.79        39.4 0.32            172           31.2 150 
 BRR  HZ EP       1525 22.76                             156    0.0910 52.3 305 
 BRR  HE ES       1525 36.77                             156    0.2910 52.3 305 
 BRR  HZ I        1525 43.23        14.9 0.38            153           52.3 305 
 PAM  EZ EP       1525 25.73                             142    0.0510 88.8  51 
 PAM  EE ES       1525 41.41                             142   -0.4310 88.8  51 
 PAM  EZ I        1525 44.08        11.5 0.30            146           88.8  51 
 RUS  HZ EP       1525 27.41                             136    0.2310  108 166 
 RUS  HN ES       1525 44.88                             136    0.3610  108 166 
 PTB  HZ EP       1525 27.73                             130   -0.7210  129 255 
 PTB  HE ES       1525 46.12                             130   -0.6610  129 255 
 PTB  HZ I        1525 49.60        14.0 0.44            133            129 255 
 ZAR  HN ES       1525 57.29                             120    0.74 9  184 293 
 ZAR  HZ I        1526  2.51         6.1 0.22            122            184 293 
                                                                                
