 2017  2 4 1305 31.2 L   6.796 -73.135150.9  RSN  7 0.4 2.1LRSN                1
 GAP=138        1.02       4.2     4.6  6.6  0.1844E+01  0.5862E+01  0.6055E+01E
 Epicentro: LOS SANTOS - SANTANDER                                             3
 ACTION:UPD 17-05-24 15:32 OP:jn   STATUS:               ID:20170204130531 L   I
 OLDACT:UP  17-02-04 23:53 OP:ar   STATUS:               ID:20170204125742     3
 OLDACT:REG 17-02-04 21:08 OP:ar   STATUS:               ID:20170204125742     3
 2017-02-04-1258-00M.COL___346                                                 6
 STAT SP IPHASW D HRMM SECON CODA AMPLIT PERI AZIMU VELO AIN AR TRES W  DIS CAZ7
 BAR2 EZ EP       13 5 51.09                             171   -0.3310 23.2 193 
 BAR2 EZ ES       13 6  6.59                             171   -0.6210 23.2 193 
 BAR2 EZ I        13 6  7.73        24.5 0.40            168           23.2 193 
 BRR  HZ EP       13 5 52.91                             153   -0.0310 72.4 298 
 BRR  HN ES       13 6 10.52                             153    0.5910 72.4 298 
 BRR  HZ I        13 6 18.87        21.9 0.22            151           72.4 298 
 PAM  EZ EP       13 5 53.86                             152   -0.0510 77.0  39 
 PAM  EN ES       13 6 11.70                             152    0.0510 77.0  39 
 PAM  EZ I        13 6 13.15        19.8 0.48            158           77.0  39 
 RUS  HZ EP       13 5 55.40                             145    0.0010  100 177 
 RUS  HN ES       13 6 14.99                             145    0.7010  100 177 
 RUS  HZ I        13 6 16.59         8.8 0.26            147            100 177 
 PTB  HZ EP       13 5 58.19                             133   -0.46 9  149 259 
 PTB  HN ES       13 6 19.60                             133   -0.49 9  149 259 
 PTB  HZ I        13 6 26.13        28.6 0.60            133            149 259 
 ZAR  HZ EP   2   13 6  4.96                             123    0.88 4  205 292 
 ZAR  HN ES       13 6 30.04                             123    0.29 8  205 292 
 ZAR  HZ I        13 6 35.25        18.9 0.32            124            205 292 
 CHI  HZ EP       13 6  9.31                             118    0.16 8  249 195 
 CHI  HE ES       13 6 38.85                             118    0.08 8  249 195 
 CHI  HZ I        13 6 44.35         5.1 0.32            120            249 195 
                                                                                
