 2016  3 4 1454  5.4 L   7.206 -73.346114.2  RSN  7 0.4 1.6LRSN                1
 GAP=157        0.80       3.7     3.4  8.2  0.4315E+00  0.1620E+02  0.4200E+01E
 Epicentro: LEBRIJA - SANTANDER                                                3
 ACTION:UPD 16-05-13 21:21 OP:cam  STATUS:               ID:20160304145405 L   I
 OLDACT:UP  16-03-04 22:39 OP:ak   STATUS:               ID:20160304144750d    3
 OLDACT:UP  16-03-04 22:38 OP:ak   STATUS:               ID:20160304144750d    3
 OLDACT:DUP 16-03-04 22:34 OP:ak   STATUS:               ID:20160304144750d    3
 OLDACT:REG 16-03-04 19:46 OP:ar   STATUS:               ID:20160304144749     3
 2016-03-04-1447-49M.COL___328                                                 6
 STAT SP IPHASW D HRMM SECON CODA AMPLIT PERI AZIMU VELO AIN AR TRES W  DIS CAZ7
 BAR2 EZ EP       1454 23.68                             146    0.1810 70.3 165 
 BAR2 EZ ES       1454 37.81                             146    0.1810 70.3 165 
 PAM  EZ EP   2   1454 24.31                             145    0.27 5 72.9  78 
 PAM  EN ES       1454 38.44                             145   -0.1510 72.9  78 
 PAM  EZ I        1454 41.13        10.5 0.20            150           72.9  78 
 PTB  HZ EP       1454 29.14                             125   -0.37 9  143 239 
 PTB  HE ES       1454 47.63                             125   -0.70 9  143 239 
 PTB  HZ I        1454 50.20         6.3 0.16            125            143 239 
 RUS  HZ EP   2   1454 30.40                             124   -0.25 5  148 169 
 RUS  HE ES       1454 50.20                             124   -0.15 9  148 169 
 RUS  HZ I        1454 51.50         2.0 0.38            125            148 169 
 ZAR  HZ EP   2   1454 32.27                             119    0.00 5  170 281 
 ZAR  HN ES       1454 53.72                             119    0.48 9  170 281 
 ZAR  HZ I        1454 57.08         8.8 0.13            120            170 281 
 SPBC HZ EP   2   1454 34.91                             116    0.40 4  190 205 
 SPBC HN ES       1454 57.70                             116    0.47 9  190 205 
 SPBC HZ I        1455  4.14         5.3 0.16            117            190 205 
 NOR  HZ EP   2   1454 40.38                             110   -0.60 4  248 223 
 NOR  HN ES       1455  8.95                             110    0.19 8  248 223 
 NOR  HZ I        1455 15.53         3.3 0.42            111            248 223 
                                                                                
