 2015  1 4 1003 42.2 L   6.805 -73.147142.0  RSN  8 0.6 1.7LRSN                1
 GAP=183        1.40       5.6     7.7  9.8  0.4346E+01  0.1050E+02 -0.2267E+02E
 Epicentro: LOS SANTOS - SANTANDER                                             3
 ACTION:UPD 15-03-02 15:36 OP:nd   STATUS:               ID:20150104100342 L   I
 OLDACT:UP  15-01-04 21:15 OP:cam  STATUS:               ID:20150104095815     3
 OLDACT:REG 15-01-04 20:24 OP:cam  STATUS:               ID:20150104095815     3
 2015-01-04-0958-15M.COL___277                                                 6
 STAT SP IPHASW D HRMM SECON CODA AMPLIT PERI AZIMU VELO AIN AR TRES W  DIS CAZ7
 BAR2 EZ EP       10 4  1.64                             170    0.2310 23.9 189 
 BAR2 EZ ES       10 4 15.75                             170   -0.6210 23.9 189 
 BAR2 EZ I        10 4 17.80         9.3 0.20            171           23.9 189 
 BRR  HZ EP       10 4  3.56                             152    0.6210 70.8 298 
 BRR  HE ES       10 4 19.94                             152    0.8410 70.8 298 
 BRR  HZ I        10 4 23.60        10.2 0.28            149           70.8 298 
 RUS  HN ES       10 4 24.18                             143    0.2710  101 176 
 PTB  HZ EP       10 4  8.71                             131   -0.17 9  148 259 
 PTB  HN ES       10 4 28.57                             131   -1.11 9  148 259 
 PTB  HZ I        10 4 36.62         5.2 0.28            132            148 259 
 OCA  HZ EP       10 4  9.84                             129   -0.35 9  160 353 
 OCA  HE ES       10 4 31.65                             129   -0.35 9  160 353 
 OCA  HZ I        10 4 37.01         5.6 0.28            130            160 353 
 ZAR  HZ EP       10 4 15.02                             122    0.63 9  204 292 
 ZAR  HN ES       10 4 39.81                             122    0.33 9  204 292 
 ZAR  HZ I        10 4 45.60         5.2 0.40            123            204 292 
 SML  HZ EP       10 4 17.96                             117   -0.62 8  243 335 
 SML  HE ES       10 4 47.04                             117    0.10 8  243 335 
 SML  HZ I        10 4 52.99         7.1 0.28            118            243 335 
 URE  HN ES   4   10 4 50.09                             113   -4.85 0  283 292 
 MON  HZ EP   4   10 4 28.42                             108   -2.61 0  353 308 
 MON  HE ES   4   10 5  7.78                             108   -1.32 0  353 308 
 MON  HZ I        10 5  8.72         2.2 0.18            110            353 308 
                                                                                
