 2017 12 4 1802 14.2 L   6.738 -73.189141.9  RSN  6 0.4 1.7LRSN                1
 GAP=214        0.87       5.5     4.9  6.4  0.1694E+02  0.4758E+01  0.5659E+01E
 Epicentro: VILLANUEVA - SANTANDER                                             3
 ACTION:UPD 18-01-04 13:17 OP:rebc STATUS:               ID:20171204180214 L   I
 OLDACT:REG 17-12-04 21:41 OP:lv   STATUS:               ID:20171204175741     3
 2017-12-04-1758-00M.COL___488                                                 6
 STAT SP IPHASW D HRMM SECON CODA AMPLIT PERI AZIMU VELO AIN AR TRES W  DIS CAZ7
 BAR2 EZ EP       18 2 32.99                             173   -0.2610 16.2 177 
 BAR2 EZ ES       18 2 47.81                             173   -0.2910 16.2 177 
 BAR2 EZ I        18 2 50.74        22.0 0.42            171           16.2 177 
 RUS  HZ EP       18 2 37.07                             145   -0.0610 94.3 173 
 RUS  HN ES       18 2 55.64                             145    0.6410 94.3 173 
 RUS  HZ I        18 2 56.68         7.1 0.32            145           94.3 173 
 PTB  HZ EP       18 2 40.04                             132   -0.28 9  142 261 
 PTB  HN ES       18 3  0.92                             132    0.22 9  142 261 
 PTB  HZ I        18 3  2.23         5.9 0.26            132            142 261 
 YPLC HZ EP       18 2 43.67                             126    0.29 9  173 149 
 YPLC HN ES       18 3  5.97                             126   -0.16 9  173 149 
 YPLC HZ I        18 3  8.03         6.8 0.28            128            173 149 
 ZAR  HZ EP   4   18 2 48.40                             122    2.17 0  202 294 
 ZAR  HN ES       18 3 11.35                             122    0.15 9  202 294 
 ZAR  HZ I        18 3 17.25         6.5 0.28            122            202 294 
 CHI  HZ EP       18 2 51.19                             117    0.35 8  241 194 
 CHI  HN ES       18 3 18.76                             117   -0.66 8  241 194 
 CHI  HZ I        18 3 24.40         2.2 0.78            118            241 194 
                                                                                
