 2016 11 4 1347 32.0 L   6.746 -73.115140.8  RSN  6 0.4 1.7LRSN                1
 GAP=168        1.07       6.7     5.1  7.3 -0.1155E+02  0.1038E+02  0.6258E+01E
 Epicentro: LOS SANTOS - SANTANDER                                             3
 ACTION:UPD 17-10-26 21:04 OP:lp   STATUS:               ID:20161104134732 L   I
 OLDACT:REG 16-11-04 20:27 OP:cog  STATUS:               ID:20161104133748     3
 2016-11-04-1338-00M.COL___340                                                 6
 STAT SP IPHASW D HRMM SECON CODA AMPLIT PERI AZIMU VELO AIN AR TRES W  DIS CAZ7
 BAR2 EZ EP       1347 50.92                             172   -0.0110 18.6 203 
 BAR2 EZ ES       1348  5.75                             172    0.0410 18.6 203 
 BAR2 EZ I        1348  7.83        10.6 0.30            172           18.6 203 
 BRR  HZ EP       1347 52.84                             150   -0.1110 77.1 301 
 BRR  HN ES       1348  9.68                             150    0.3810 77.1 301 
 BRR  HZ I        1348 10.79        11.7 0.18            148           77.1 301 
 PAM  EZ EP       1347 54.03                             149    0.1810 80.1  35 
 PAM  EN ES       1348 10.74                             149   -0.1510 80.1  35 
 PAM  EZ I        1348 12.32         7.9 0.20            150           80.1  35 
 PTB  HZ EP       1347 57.87                             130   -0.90 9  150 261 
 PTB  HN ES       1348 19.02                             130   -0.63 9  150 261 
 PTB  HZ I        1348 21.32         6.4 0.16            131            150 261 
 ZAR  HZ EP       1348  5.30                             120    0.62 8  209 293 
 ZAR  HN ES       1348 30.19                             120    0.01 8  209 293 
 ZAR  HZ I        1348 35.87         5.6 0.26            121            209 293 
 NOR  HZ EP       1348  7.45                             117    0.08 8  234 236 
 NOR  HN ES       1348 35.71                             117    0.75 8  234 236 
 NOR  HZ I        1348 36.85         3.7 0.16            119            234 236 
                                                                                
