 2014  3 4 1847 50.5 L   6.774 -73.550105.2  RSN  4 0.5 1.4LRSN                1
 GAP=161        1.17       7.2     5.2 14.9 -0.9399E+01  0.3039E+02 -0.2093E+02E
 Epicentro: EL CARMEN DE CHUCURI - SANTANDER                                   3
 ACTION:UPD 14-04-09 23:14 OP:nd   STATUS:               ID:20140304184750 L   I
 OLDACT:DUP 14-03-04 20:27 OP:stll STATUS:               ID:20140304183814d    3
 2014-03-04-1838-13M.COL___237                                                 6
 STAT SP IPHASW D HRMM SECON CODA AMPLIT PERI AZIMU VELO AIN AR TRES W  DIS CAZ7
 BAR2 SZ EP       1848  6.71                             155    0.5710 45.3 116 
 BAR2 SZ ES       1848 18.87                             155    0.5210 45.3 116 
 BAR2 SZ I        1848 19.75        14.6 0.14            156           45.3 116 
 PTB  HZ EP       1848 10.33                             132    0.2110  104 256 
 PTB  HN ES       1848 25.11                             132   -0.3410  104 256 
 PTB  HZ I        1848 26.36         3.2 0.16            134            104 256 
 RUS  HN ES       1848 27.21                             130   -0.4910  110 152 
 RUS  HZ I        1848 28.59         2.4 0.36            132            110 152 
 PAM  SN ES       1848 27.62                             129   -0.5010  113  56 
 PAM  SZ I        1848 29.14         7.7 0.20            131            113  56 
                                                                                
