 2013  4 4 1438 44.0 L   6.489 -73.741 94.0  RSN  5 0.5 1.6LRSN                1
 GAP= 99        1.13       7.6     4.7 13.7  0.3188E+01  0.1508E+02  0.5278E+02E
 Epicentro: SANTA HELENA DEL OPON - SANTANDER                                  3
 ACTION:UPD 13-05-22 14:35 OP:EP   STATUS:               ID:20130404143844 L   I
 2013-04-04-1430-00M.COL___245                                                 6
 STAT SP IPHASW D HRMM SECON CODA AMPLIT PERI AZIMU VELO AIN AR TRES W  DIS CAZ7
 BAR2 SZ EP       1438 59.53                             144   -0.0810 62.8  80 
 BAR2 SZ ES   1   1439 11.99                             144    0.24 7 62.8  80 
 BAR2 SZ I        1439 13.22        24.5 0.20            149           62.8  80 
 BRR  HN ES   1   1439 12.68                             142    0.78 7 68.4   3 
 PTB  HZ EP       1439  0.05                             137   -0.5510 79.3 274 
 PTB  HN ES   1   1439 12.82                             137   -0.70 7 79.3 274 
 PTB  HZ I        1439 14.79        13.3 0.10            141           79.3 274 
 RUS  HZ EP       1439  2.76                             131   -0.1810 98.2 132 
 RUS  HE ES   1   1439 17.50                             131   -0.18 7 98.2 132 
 RUS  HZ I        1439 20.68         3.0 0.22            133           98.2 132 
 NOR  HZ EP   1   1439  9.57                             116    0.63 7  161 231 
 NOR  HE ES   1   1439 29.33                             116    0.97 7  161 231 
 NOR  HZ I        1439 31.33         6.5 0.16            118            161 231 
                                                                                
