 2014  6 4 1107  4.7 L   6.888 -73.294120.4  RSN  5 0.6 1.4LRSN                1
 GAP=181        1.45       7.6     8.1 14.5  0.1467E+02  0.2836E+02 -0.5984E+02E
 Epicentro: BETULIA - SANTANDER                                                3
 ACTION:UPD 14-07-01 22:50 OP:nd   STATUS:               ID:20140604110704 L   I
 OLDACT:DUP 14-06-04 23:56 OP:stll STATUS:               ID:20140604105814d    3
 2014-06-04-1058-13M.COL___256                                                 6
 STAT SP IPHASW D HRMM SECON CODA AMPLIT PERI AZIMU VELO AIN AR TRES W  DIS CAZ7
 BAR2 SZ EP       11 7 22.54                             163    0.8610 34.9 159 
 BAR2 SZ ES       11 7 35.20                             163    0.3110 34.9 159 
 RUS  HN ES       11 7 43.71                             135   -0.8310  112 168 
 RUS  HZ I        11 7 48.64         2.0 0.36            137            112 168 
 PTB  HZ EP       11 7 27.91                             129   -0.5410  134 253 
 PTB  HN ES       11 7 46.85                             129   -0.0810  134 253 
 PTB  HZ I        11 7 49.50         4.1 0.12            131            134 253 
 ZAR  HZ EP       11 7 34.45                             119    0.81 9  185 291 
 ZAR  HN ES       11 7 56.38                             119    0.20 9  185 291 
 SML  HZ EP       11 7 38.24                             113   -0.10 8  228 338 
 SML  HN ES       11 8  3.75                             113   -0.80 8  228 338 
 SML  HZ I        11 8 10.65         4.1 0.24            115            228 338 
                                                                                
