 2013  7 4 1242 56.0 L   6.757 -73.129145.8  RSN  4 0.1 1.3LRSN                1
 GAP=236        0.33       3.4     2.7  3.7  0.2864E+01  0.1553E+01 -0.1828E+01E
 Epicentro: LOS SANTOS - SANTANDER                                             3
 ACTION:UPD 13-08-12 10:35 OP:ep   STATUS:               ID:20130704124256 L   I
 OLDACT:REG 13-07-04 18:54 OP:jn   STATUS:               ID:20130704123959     3
 2013-07-04-1239-59M.COL___267                                                 6
 STAT SP IPHASW D HRMM SECON CODA AMPLIT PERI AZIMU VELO AIN AR TRES W  DIS CAZ7
 BAR2 SZ EP       1243 15.54                             172    0.0210 19.1 198 
 BAR2 SZ ES       1243 30.73                             172   -0.0410 19.1 198 
 BAR2 SZ I        1243 32.53         4.9 0.26            170           19.1 198 
 BRR  HZ EP   1   1243 17.21                             151   -0.13 7 75.2 301 
 BRR  HN ES   1   1243 34.16                             151    0.14 7 75.2 301 
 RUS  HE ES   1   1243 37.66                             145    0.03 7 95.7 177 
 RUS  HZ I        1243 39.14         2.6 0.20            145           95.7 177 
 PTB  HZ EP   2   1243 23.24                             132    0.22 5  149 261 
 PTB  HN ES       1243 44.07                             132   -0.06 9  149 261 
 PTB  HZ I        1243 45.45         2.9 0.16            133            149 261 
                                                                                
