 2017  2 4 1233 22.4 L   6.836 -73.150142.2  RSN  5 0.2 1.2LRSN                1
 GAP=240        0.41       4.7     4.9  4.3  0.1393E+02  0.5993E+00 -0.4860E+01E
 Epicentro: LOS SANTOS - SANTANDER                                             3
 ACTION:UPD 17-05-24 15:32 OP:jn   STATUS:               ID:20170204123322 L   I
 OLDACT:REG 17-02-04 21:06 OP:ar   STATUS:               ID:20170204122747     3
 2017-02-04-1228-00M.COL___340                                                 6
 STAT SP IPHASW D HRMM SECON CODA AMPLIT PERI AZIMU VELO AIN AR TRES W  DIS CAZ7
 BAR2 EZ EP       1233 41.53                             169   -0.1310 27.2 187 
 BAR2 EZ ES       1233 56.66                             169   -0.0410 27.2 187 
 BAR2 EZ I        1233 57.84         5.8 0.22            169           27.2 187 
 BRR  HZ EP   2   1233 43.36                             153    0.36 5 68.9 296 
 RUS  HZ EP       1233 45.99                             142   -0.0810  105 176 
 RUS  HN ES       1234  4.69                             142    0.1410  105 176 
 RUS  HZ I        1234  5.50         2.0 0.32            143            105 176 
 PTB  HE ES   2   1234  9.62                             131   -0.29 5  148 257 
 ZAR  HZ EP   2   1233 54.80                             122    0.42 4  202 291 
 ZAR  HE ES   2   1234 19.35                             122   -0.00 4  202 291 
                                                                                
