 2011  9 4 1325 35.8 L   6.765 -73.095145.5  RSN 11 0.3 2.1LRSN                1
 GAP=188        0.51       2.7     4.0  4.3 -0.2290E+00  0.4623E+01  0.1697E+01E
 Epicentro: LOS SANTOS - SANTANDER                                             3
 ACTION:UPD 12-07-13 15:55 OP:ep   STATUS:               ID:20110904132535 L   I
 2011-09-04-1321-50S.COL___170                                                 6
 STAT SP IPHASW D HRMM SECON CODA AMPLIT PERI AZIMU VELO AIN AR TRES W  DIS CAZ7
 BAR2 SZ IP       1325 55.20                             171   -0.1110 21.3 207 
 BAR2 SZ ES   1   1326 10.23                             171   -0.33 7 21.3 207 
 BAR2 SZ I        1326 11.96        25.5 0.36                          21.3 207 
 GIR2 SZ EP   2   1325 55.26                             165   -0.28 5 36.4 343 
 BRR  HZ EP   1   1325 57.17                             150   -0.09 7 77.9 299 
 BRR  HE ES   1   1326 14.41                             150    0.37 7 77.9 299 
 BRR  HZ I        1326 18.46        23.8 0.11                          77.9 299 
 RUS  HZ EP   1   1325 59.38                             145    0.20 7 96.4 179 
 RUS  HN ES   2   1326 17.97                             145    0.52 5 96.4 179 
 RUS  HZ I        1326 19.62        16.2 0.56                          96.4 179 
 OCA  SZ EP   1   1326  4.37                             129   -0.11 7  165 351 
 OCA  SZ ES   2   1326 27.27                             129    0.39 5  165 351 
 OCA  SZ I        1326 30.58        13.5 0.33                           165 351 
 ZAR  HZ EP   2   1326  9.02                             121    0.15 4  211 293 
 ZAR  HN ES   2   1326 34.31                             121   -0.38 4  211 293 
 ZAR  HZ I        1326 40.87        17.1 0.22                           211 293 
 NOR  SZ EP   1   1326 11.10                             118   -0.62 6  237 236 
 NOR  SN ES   2   1326 39.30                             118   -0.46 4  237 236 
 CHI  HN ES   2   1326 42.30                             117   -0.09 4  246 197 
 CHI  HZ I        1326 48.50         7.3 0.49                           246 197 
 HEL  HZ EP   1   1326 16.96                             114    0.51 6  277 257 
 HEL  HN ES   2   1326 48.12                             114   -0.07 4  277 257 
 HEL  HZ I        1326 53.34         7.4 0.47                           277 257 
 RREF HZ EP   2   1326 22.54                             111    0.46 3  323 231 
 RREF HN ES   2   1326 58.37                             111    0.16 3  323 231 
 RREF HZ I        1327  6.80         9.4 0.18                           323 231 
 PRA  HZ EP   1   1326 29.35                             106    0.16 4  391 211 
 PRA  HE ES   2   1327 11.34                             106    0.47 3  391 211 
                                                                                
