 2014 11 4 1230 36.4 L   6.754 -73.138149.4  RSN  5 0.4 1.9LRSN                1
 GAP=159        1.03       6.0     5.9  8.7 -0.1139E+02 -0.3386E+01  0.2467E+02E
 Epicentro: LOS SANTOS - SANTANDER                                             3
 ACTION:UPD 14-12-19 15:39 OP:nd   STATUS:               ID:20141104123036 L   I
 OLDACT:UP  14-11-04 23:40 OP:cam  STATUS:               ID:20141104122750     3
 OLDACT:REG 14-11-04 22:20 OP:cam  STATUS:               ID:20141104122750     3
 2014-11-04-1227-50M.COL___265                                                 6
 STAT SP IPHASW D HRMM SECON CODA AMPLIT PERI AZIMU VELO AIN AR TRES W  DIS CAZ7
 BAR2 SZ EP     D 1230 56.51                             173    0.1510 18.6 195 
 BAR2 SZ I        1230 56.80        18.0 0.10            171           18.6 195 
 BAR2 SZ ES   1   1231 11.55                             173   -0.40 7 18.6 195 
 BRR  HZ EP     C 1230 58.41                             152    0.3110 74.5 302 
 BRR  HE ES       1231 15.65                             152    0.6010 74.5 302 
 BRR  HE I        1231 20.59        20.3 0.20            149           74.5 302 
 PAM  SZ EP       1230 59.46                             150    0.2810 80.8  37 
 PAM  SN ES       1231 16.55                             150   -0.4210 80.8  37 
 PAM  SN I        1231 17.42        20.1 0.46            153           80.8  37 
 PTB  HZ EP       1231  3.20                             133   -0.44 9  148 261 
 PTB  HN ES       1231 24.47                             133   -0.43 9  148 261 
 PTB  HZ I        1231 29.65         6.3 0.18            132            148 261 
 CHI  HZ EP       1231 13.34                             118   -0.44 8  244 196 
 CHI  HN ES       1231 43.51                             118    0.56 8  244 196 
                                                                                
