 2013  1 4 1724 50.9 L   6.807 -73.108152.6  RSN  6 0.4 1.8LRSN                1
 GAP=242        0.88       6.5     6.4  7.6  0.1369E+02  0.9742E+01 -0.3628E+01E
 Epicentro: LOS SANTOS - SANTANDER                                             3
 ACTION:UPD 13-02-15 09:12 OP:ep   STATUS:               ID:20130104172450 L   I
 2013-01-04-1720-00M.COL___242                                                 6
 STAT SP IPHASW D HRMM SECON CODA AMPLIT PERI AZIMU VELO AIN AR TRES W  DIS CAZ7
 BAR2 SZ EP       1725 11.02                             170   -0.4110 25.2 199 
 BAR2 SZ ES   1   1725 26.99                             170   -0.42 7 25.2 199 
 BAR2 SZ I        1725 29.96        11.6 0.18            170           25.2 199 
 BRR  HZ EP       1725 13.46                             153    0.4410 74.5 296 
 BRR  HN ES   1   1725 30.93                             153    0.70 7 74.5 296 
 BRR  HZ I        1725 35.62         9.5 0.26            152           74.5 296 
 RUS  HZ EP   1   1725 15.77                             145    0.36 7  101 178 
 RUS  HE ES   1   1725 34.49                             145   -0.01 7  101 178 
 RUS  HZ I        1725 36.72         4.7 0.54            150            101 178 
 PTB  HZ EP   1   1725 18.87                             133    0.02 7  152 259 
 PTB  HE ES   1   1725 40.24                             133   -0.38 7  152 259 
 PTB  HZ I        1725 41.63        10.0 0.36            135            152 259 
 ZAR  HZ EP       1725 24.14                             123   -0.06 8  208 292 
 ZAR  HE ES   1   1725 49.51                             123   -0.64 6  208 292 
 ZAR  HZ I        1725 55.96         6.6 0.54            126            208 292 
 NOR  HZ EP   1   1725 27.09                             119   -0.40 6  239 235 
 NOR  HE ES   1   1725 56.63                             119    0.64 6  239 235 
 NOR  HZ I        1725 59.23         8.2 0.16            122            239 235 
                                                                                
