 2017  6 4 1452 13.3 L   6.748 -73.127142.8  RSN  5 0.4 1.5LRSN                1
 GAP=235        0.94       5.7     6.0  9.1  0.1476E+02  0.6772E+01  0.7011E+00E
 Epicentro: LOS SANTOS - SANTANDER                                             3
 ACTION:UPD 17-09-14 16:49 OP:jn   STATUS:               ID:20170604145213 L   I
 OLDACT:REG 17-06-04 22:08 OP:ar   STATUS:               ID:20170604144129     3
 2017-06-04-1448-00M.COL___353                                                 6
 STAT SP IPHASW D HRMM SECON CODA AMPLIT PERI AZIMU VELO AIN AR TRES W  DIS CAZ7
 BRR  HZ EP       1452 34.13                             151   -0.2810 75.8 302 
 BRR  HE ES       1452 51.25                             151    0.3810 75.8 302 
 RUS  HZ EP       1452 36.51                             145    0.1610 94.7 177 
 RUS  HN ES       1452 54.32                             145    0.0010 94.7 177 
 RUS  HZ I        1452 55.35         3.1 0.22            145           94.7 177 
 PTB  HZ EP       1452 39.63                             131   -0.50 9  149 261 
 PTB  HN ES       1453  0.67                             131   -0.38 9  149 261 
 PTB  HZ I        1453  4.37         5.6 0.40            131            149 261 
 ZAR  HZ EP   2   1452 47.26                             121    1.27 4  208 293 
 ZAR  HN ES       1453 11.35                             121   -0.13 8  208 293 
 ZAR  HZ I        1453 13.27         3.3 0.20            122            208 293 
 NOR  HN ES       1453 16.87                             118    0.58 8  233 236 
 NOR  HZ I        1453 17.83         2.5 0.16            118            233 236 
                                                                                
