 2011  9 4 1856  9.7 L   6.794 -73.126146.5  RSN  9 0.3 2.1LRSN                1
 GAP=185        0.56       2.5     4.0  4.6  0.5459E+00  0.3752E+01  0.1827E+01E
 Epicentro: LOS SANTOS - SANTANDER                                             3
 ACTION:UPD 12-07-13 15:55 OP:ep   STATUS:               ID:20110904185609 L   I
 2011-09-04-1854-05S.COL___171                                                 6
 STAT SP IPHASW D HRMM SECON CODA AMPLIT PERI AZIMU VELO AIN AR TRES W  DIS CAZ7
 BAR2 SZ EP   1   1856 28.99                             171   -0.46 7 23.2 195 
 BAR2 SZ ES   1   1856 44.38                             171   -0.45 7 23.2 195 
 BAR2 SZ I        1856 47.20        21.4 0.33                          23.2 195 
 GIR2 SZ EP   1   1856 29.66                             167    0.13 7 32.3 347 
 BRR  HZ EP   1   1856 31.33                             152    0.24 7 73.4 298 
 BRR  HN ES   1   1856 48.03                             152    0.29 7 73.4 298 
 BRR  HZ I        1856 52.16        25.3 0.22                          73.4 298 
 RUS  HZ EP       1856 33.53                             144    0.0210 99.8 177 
 RUS  HN ES   1   1856 52.37                             144    0.33 7 99.8 177 
 RUS  HZ I        1856 54.30        10.2 0.32                          99.8 177 
 OCA  SZ EP   1   1856 37.91                             130   -0.28 7  161 352 
 OCA  SZ ES   1   1857  0.69                             130    0.31 7  161 352 
 OCA  SZ I        1857  4.59        10.7 0.35                           161 352 
 ZAR  HN ES   1   1857  7.63                             122   -0.35 6  206 292 
 NOR  SZ EP   1   1856 45.80                             118    0.14 6  236 235 
 NOR  SN ES   1   1857 13.61                             118   -0.06 6  236 235 
 TOL  SZ EP   1   1856 58.51                             109    0.36 5  345 225 
 PRA  HZ EP   1   1857  2.97                             107   -0.38 4  393 210 
 PRA  HN ES   1   1857 45.26                             107    0.10 4  393 210 
 PRA  HZ I        1857 48.55        16.4 0.22                           393 210 
                                                                                
