 2016  2 4 1154  9.0 L   6.804 -73.098142.5  RSN 11 0.3 2.0LRSN                1
 GAP=142        0.70       1.9     2.8  4.2 -0.1012E+01  0.4358E+01 -0.8314E-01E
 Epicentro: LOS SANTOS - SANTANDER                                             3
 ACTION:UPD 16-03-04 21:23 OP:rebc STATUS:               ID:20160204115409 L   I
 OLDACT:DUP 16-02-04 23:24 OP:cara STATUS:               ID:20160204114301d    3
 2016-02-04-1142-59S.COL___223                                                 6
 STAT SP IPHASW D HRMM SECON CODA AMPLIT PERI AZIMU VELO AIN AR TRES W  DIS CAZ7
 BAR2 EZ IP     C 1154 28.13                             169   -0.1210 25.2 202 
 BAR2 EZ ES       1154 42.97                             169   -0.3210 25.2 202 
 BAR2 EZ I        1154 43.86        20.3 0.34            169           25.2 202 
 PAM  EZ EP       1154 31.15                             151    0.5310 73.8  37 
 PAM  EN ES       1154 47.80                             151    0.2810 73.8  37 
 PAM  EZ I        1154 50.03        30.1 0.46            153           73.8  37 
 RUS  HZ EP       1154 32.26                             143   -0.1610  101 179 
 RUS  HN ES       1154 50.90                             143    0.1910  101 179 
 RUS  HZ I        1154 52.26        11.3 0.44            145            101 179 
 PTB  HZ EP       1154 35.75                             130   -0.41 9  153 259 
 PTB  HE ES       1154 57.44                             130    0.08 9  153 259 
 PTB  HZ I        1154 59.02         8.3 0.34            131            153 259 
 OCA  HZ EP       1154 36.90                             129   -0.15 9  161 351 
 OCA  HE ES       1154 58.67                             129   -0.29 9  161 351 
 OCA  HZ I        1155  3.60        29.8 0.20            130            161 351 
 SPBC HZ EP       1154 37.18                             128   -0.40 9  167 220 
 SPBC HN ES       1154 59.59                             128   -0.30 9  167 220 
 SPBC HZ I        1155  2.47        19.9 0.22            129            167 220 
 ZAR  HZ EP       1154 41.78                             121    0.09 8  209 291 
 ZAR  HN ES       1155  7.40                             121    0.18 8  209 291 
 ZAR  HZ I        1155 10.37         9.6 0.28            122            209 291 
 NOR  HZ EP       1154 45.04                             117    0.04 8  239 235 
 NOR  HN ES       1155 13.32                             117    0.21 8  239 235 
 NOR  HZ I        1155 19.44         4.8 0.12            118            239 235 
 SML  HZ EP   4   1154 44.52                             116   -1.09 0  246 334 
 SML  HN ES       1155 14.20                             116    0.01 8  246 334 
 SML  HZ I        1155 16.05        14.3 0.28            118            246 334 
 CHI  HZ EP       1154 46.91                             116    0.22 8  251 196 
 CHI  HN ES       1155 16.13                             116    0.01 8  251 196 
 CHI  HZ I        1155 18.83         3.6 0.28            118            251 196 
 GUY2CHZ EP   4   1154 54.30                             111    1.35 0  306 235 
 GUY2CHN ES       1155 27.89                             111    0.64 7  306 235 
 GUY2CHZ I        1155 33.09         3.2 0.30                           306 235 
                                                                                
