 2011 10 4 1325 58.6 L   6.496 -73.559 26.1  RSN  6 0.3 2.0LRSN                1
 GAP=120        0.66       2.3     2.6  4.6  0.1455E+01  0.4846E+01 -0.3881E+00E
 Epicentro: SANTA HELENA DEL OPON - SANTANDER                                  3
 ACTION:UPD 12-07-13 16:01 OP:ep   STATUS:               ID:20111004132558 L   I
 2011-10-04-1323-45S.COL___171                                                 6
 STAT SP IPHASW D HRMM SECON CODA AMPLIT PERI AZIMU VELO AIN AR TRES W  DIS CAZ7
 BAR2 SZ IP       1326  6.97                             114    0.0910 43.0  76 
 BAR2 SZ I        1326  7.08        78.9 0.09                          43.0  76 
 BRR  HZ EP   1   1326 10.21                              97   -0.09 7 69.7 346 
 BRR  HN ES   1   1326 19.19                              97   -0.21 7 69.7 346 
 BRR  HZ I        1326 20.24        39.9 0.08                          69.7 346 
 RUS  HZ EP   1   1326 13.39                              93    0.38 7 84.9 142 
 RUS  HN ES   1   1326 23.77                              93   -0.44 7 84.9 142 
 PAM  SZ EP   1   1326 19.92                              61    0.67 7  133  45 
 PAM  SN ES   1   1326 34.92                              61   -0.40 7  133  45 
 PAM  SZ I        1326 36.38        46.8 0.19                           133  45 
 ZAR  HN ES   1   1326 45.04                              61    0.09 7  181 308 
 HEL  HZ EP   1   1326 29.88                              61   -0.15 6  221 261 
 HEL  HN ES   1   1326 54.50                              61   -0.02 6  221 261 
                                                                                
