 2016 10 4 1248 58.9 L   6.799 -73.137145.9  RSN 25 0.4 2.8LRSN                1
 GAP= 72        0.89       2.5     2.4  3.8 -0.9198E-01  0.2828E+01  0.1886E+01E
 Epicentro: LOS SANTOS - SANTANDER                                             3
 ACTION:UPD 16-11-09 19:16 OP:rebc STATUS:               ID:20161004124858 L   I
 OLDACT:REG 16-10-04 19:46 OP:lv   STATUS:               ID:20161004124746     3
 2016-10-04-1248-00M.COL___366                                                 6
 STAT SP IPHASW D HRMM SECON CODA AMPLIT PERI AZIMU VELO AIN AR TRES W  DIS CAZ7
 BAR2 EZ IP     D 1249 18.45                             170   -0.1410 23.4 192 
 BAR2 EZ ES       1249 33.60                             170   -0.3210 23.4 192 
 BAR2 EZ I        1249 36.36       183.5 0.34            168           23.4 192 
 BRR  HZ EP       1249 20.34                             152    0.1810 72.1 298 
 BRR  HE ES       1249 36.93                             152    0.2310 72.1 298 
 BRR  HZ I        1249 42.04        64.0 0.11            152           72.1 298 
 PAM  EZ IP     C 1249 21.19                             151    0.0410 76.9  39 
 PAM  EN ES       1249 38.55                             151    0.0910 76.9  39 
 PAM  EZ I        1249 43.30        51.4 0.31            153           76.9  39 
 RUS  HZ EP       1249 22.33                             144   -0.3710  100 177 
 RUS  HN ES       1249 41.38                             144    0.1610  100 177 
 RUS  HZ I        1249 43.92        83.6 0.42            142            100 177 
 PTB  HZ EP   9   1249 25.01                             132   -0.99 0  149 259 
 PTB  HN ES       1249 46.14                                    0.03 9  149 259 
 PTB  HZ I        1249 53.85       135.4 0.48            131            149 259 
 TAM  HZ IP     C 1249 26.60                             131    0.05 9  154 105 
 TAM  HZ I        1249 47.44        56.4 0.26            130            154 105 
 TAM  HE ES       1249 48.37                             131    0.29 9  154 105 
 SPBC HZ EP       1249 27.33                             129   -0.17 9  164 219 
 SPBC HN ES       1249 49.81                             129    0.04 9  164 219 
 SPBC HZ I        1249 56.05       144.4 0.23            128            164 219 
 ZAR  HZ EP       1249 30.89                             122   -0.60 9  205 292 
 ZAR  HN ES       1249 56.75                             122   -0.13 9  205 292 
 ZAR  HZ I        1250  3.05        51.1 0.14            122            205 292 
 NOR  HZ EP       1249 34.46                             118   -0.30 8  235 235 
 NOR  HE ES       1250  2.59                             118   -0.10 8  235 235 
 NOR  HZ I        1250  6.22        81.5 0.20            118            235 235 
 CHI  HZ EP       1249 36.70                             117    0.03 8  249 195 
 CHI  HN ES       1250  5.82                             117   -0.27 8  249 195 
 CHI  HZ I        1250 15.68        29.3 0.20            116            249 195 
 ROSC BZ EP       1249 37.95                             117    0.84 8  253 211 
 ROSC BE ES   4   1250  9.82                             117    2.94 0  253 211 
 ROSC BZ I        1250 16.09        68.6 0.40            116            253 211 
 HEL  HZ EP       1249 39.82                             115    0.56 8  273 256 
 HEL  HE ES       1250 11.41                             115    0.71 8  273 256 
 HEL  HZ I        1250 17.47        59.2 0.38            114            273 256 
 GUY2CHZ EP       1249 43.38                             112    0.74 7  302 235 
 GUY2CHN ES   4   1250 18.23                             112    1.51 0  302 235 
 GUY2CHZ I        1250 25.37        39.0 0.32                           302 235 
 VIL  EZ EP       1249 42.49                             112    0.11 7  303 192 
 VIL  HE ES       1250 15.41                             112   -0.84 7  303 192 
 VIL  EZ I        1250 31.87        42.0 0.38            111            303 192 
 LL1C HN ES   4   1250 20.27                             112    3.66 0  307 351 
 PTGC HZ EP   4   1249 41.41                             112   -1.35 0  308 159 
 PTGC HE ES   4   1250 14.56                             112   -2.37 0  308 159 
 PTGC HZ I        1250 19.55        32.9 0.36            111            308 159 
 ELA  HZ EP   4   1249 47.34                             110    1.47 0  330 230 
 ELA  HN ES   4   1250 21.77                             110   -0.70 0  330 230 
 ELA  HZ I        1250 38.23        34.4 0.55            110            330 230 
 CBOC HZ EP       1249 46.55                             110    0.59 7  334 252 
 CBOC HN ES       1250 23.35                             110    0.72 7  334 252 
 CBOC HZ I        1250 36.32        17.7 0.44            109            334 252 
 DBB  HZ EP       1249 46.22                             109   -0.31 7  340 274 
 DBB  HN ES       1250 23.06                             109   -0.59 7  340 274 
 ANIL HZ EP       1249 49.67                             108    0.85 6  358 225 
 ANIL HN ES   4   1250 29.46                             108    1.74 0  358 225 
 ARGC HZ EP   4   1249 50.39                             108    1.73 0  360 340 
 ARGC HN ES       1250 26.85                             108   -0.58 6  360 340 
 ARGC HZ I        1250 34.68        25.5 0.38            108            360 340 
 PRA  HZ EP       1249 52.02                             106   -0.49 6  392 210 
 PRA  HN ES       1250 34.01                             106   -0.28 6  392 210 
 PRA  HZ I        1250 42.88        28.8 0.34            106            392 210 
 PAL  HZ EP       1249 54.15                             106   -0.05 6  406 239 
 PAL  HN ES       1250 36.61                             106   -0.68 6  406 239 
 PAL  HZ I        1250 43.14        14.3 0.40            105            406 239 
 SJC  HZ IP   4   1249 52.71                             106   -1.87 0  410 327 
 SJC  HN ES   4   1250 34.01                             106   -3.97 0  410 327 
 SJC  HZ I        1250 40.10         9.7 0.27            106            410 327 
 CRJC HZ EP   9   1249 58.80                             103   -2.66 0  468   3 
 CRJC HE ES       1250 47.12                                   -0.44 5  468   3 
 CRJC HZ I        1250 53.59        14.7 0.16            103            468   3 
 YOT  HZ EP       1250  1.30                             103   -0.77 5  473 229 
 YOT  HN ES   4   1250 53.31                             103    2.01 0  473 229 
 URI  HZ EP   4   1250  8.79                             101   -3.15 0  557  13 
 URI  HN ES   4   1251  2.91                             101   -5.97 0  557  13 
                                                                                
