 2012  9 4 1757 20.2 L   6.841 -73.161146.4  RSN  6 0.5 2.3LRSN                1
 GAP=133        0.76       8.1     7.6  9.5 -0.1950E+01  0.1533E+02  0.3251E+02E
 Epicentro: LOS SANTOS - SANTANDER                                             3
 ACTION:UPD 12-10-22 14:17 OP:ep   STATUS:               ID:20120904175720 L   I
 2012-09-04-1750-00M.COL___218                                                 6
 STAT SP IPHASW D HRMM SECON CODA AMPLIT PERI AZIMU VELO AIN AR TRES W  DIS CAZ7
 GIR2 SZ ES   1   1757 54.44                             168   -0.68 7 26.5 352 
 BAR2 SZ EP       1757 39.89                             169   -0.0910 27.6 185 
 BAR2 SZ ES   3   1757 56.16                             169    0.74 2 27.6 185 
 BAR2 SZ I        1757 59.52        30.5 0.10                          27.6 185 
 BRR  HZ EP       1757 41.47                             153    0.2710 67.7 296 
 BRR  HE ES   3   1757 59.35                             153    1.75 2 67.7 296 
 BRR  HZ I        1758  3.84        60.8 0.16                          67.7 296 
 PAM  SZ EP       1757 42.57                             150    0.2510 75.0  43 
 PAM  SN ES   3   1757 59.08                             150   -0.51 2 75.0  43 
 RUS  HZ EP       1757 44.34                             142    0.0110  105 175 
 PTB  HZ EP       1757 46.92                             132   -0.22 9  147 257 
                                                                                
