 2010  9 4 1106 30.9 L   6.822 -73.118141.0  RSN  4 0.1 1.5LRSN                1
 GAP=161        0.34       2.4     4.4  3.9  0.1377E+01 -0.5065E+01 -0.1827E+01E
 Epicentro: LOS SANTOS - SANTANDER                                             3
 ACTION:UP  11-02-18 11:00 OP:tino STATUS:               ID:20100904110630 L   I
 2010-09-04-1103-51S.COL___120                                                 6
 STAT SP IPHASW D HRMM SECON CODA AMPLIT PERI AZIMU VELO SNR AR TRES W  DIS CAZ7
 BTL  SZ EP   1   11 6 49.65                             172    -0.2 7   20 303 
 BTL  SZ ES   1   11 7  4.66                             172     0.0 7   20 303 
 BRR  HZ IP     C 11 6 51.68                             151     0.110   73 296 
 BRR  HZ I        11 6 54.39         8.0 0.47                            73 296 
 BRR  HE ES   1   11 7  7.76                             151     0.0 7   73 296 
 RUS  HZ EP   2   11 6 54.54                             142     0.2 5  103 178 
 RUS  HE ES   1   11 7 12.59                             142     0.0 7  103 178 
 GRA  SZ EP   1   11 6 55.37                             137     0.0 7  123  16 
 GRA  SZ ES   2   11 7 14.70                             137     0.1 5  123  16 
 GRA  SZ I        11 7 15.93         3.0 0.33                           123  16 
                                                                                
