 2013  2 4 1214  5.9 L   6.770 -73.117148.0  RSN  4 0.3 1.5LRSN                1
 GAP=238        0.73       8.8     8.5  7.9  0.5108E+02  0.1215E+02  0.1198E+02E
 Epicentro: LOS SANTOS - SANTANDER                                             3
 ACTION:UPD 13-03-12 09:30 OP:ep   STATUS:               ID:20130204121405 L   I
 2013-02-04-1210-00M.COL___241                                                 6
 STAT SP IPHASW D HRMM SECON CODA AMPLIT PERI AZIMU VELO AIN AR TRES W  DIS CAZ7
 BAR2 SZ ES   1   1214 40.68                             172   -0.60 7 20.9 200 
 BAR2 SZ I        1214 42.55        10.1 0.20            170           20.9 200 
 BRR  HE ES   1   1214 44.93                             151    0.46 7 75.6 300 
 RUS  HZ EP       1214 29.80                             145    0.1310 97.1 178 
 RUS  HE ES       1214 48.32                             145    0.1510 97.1 178 
 RUS  HE I        1214 50.22         4.1 0.24            145           97.1 178 
 PTB  HZ EP   1   1214 32.96                             132   -0.37 7  150 260 
 PTB  HN ES   1   1214 54.64                             132   -0.04 7  150 260 
                                                                                
