 2011  2 4 1629 32.2 L   6.755 -73.169138.3  RSN 10 0.4 2.6LRSN                1
 GAP=134        0.82       4.2     6.0  7.4 -0.6584E+01  0.1294E+02  0.3848E+01E
 Epicentro: VILLANUEVA - SANTANDER                                             3
 ACTION:UP  11-03-28 15:05 OP:jfem STATUS:               ID:20110204162932 L   I
 2011-02-04-1626-22S.COL___138                                                 6
 STAT SP IPHASW D HRMM SECON CODA AMPLIT PERI AZIMU VELO SNR AR TRES W  DIS CAZ7
 BAR2 SZ IP       1629 50.64                             172    -0.210   18 185 
 BAR2 SZ ES   2   1630  4.51                             172    -0.9 5   18 185 
 BAR2 SZ I        1630  6.98       143.4 0.31                            18 185 
 BTL  SZ EP   1   1629 50.82                             171    -0.1 7   21 329 
 BTL  SZ ES   2   1630  6.22                             171     0.7 5   21 329 
 RUS  HZ EP   1   1629 54.58                             144    -0.3 7   96 174 
 RUS  HN ES   2   1630 13.30                             144     0.7 5   96 174 
 RUS  HZ I        1630 15.03        46.7 0.42                            96 174 
 GRA  SZ IP       1629 57.48                             134     0.210  131  18 
 GRA  SZ ES   2   1630 17.16                             134     0.3 5  131  18 
 GRA  SZ I        1630 18.64        61.4 0.32                           131  18 
 YOP  SZ EP   1   1630  1.23                             125    -0.2 7  176 152 
 YOP  SE ES   2   1630 24.63                             125     0.4 4  176 152 
 YOP  SZ I        1630 29.49        18.1 0.64                           176 152 
 NOR  SZ EP   1   1630  6.68                             117    -0.3 6  230 235 
 NOR  SE ES   2   1630 34.33                             117     0.2 4  230 235 
 CHI  HZ EP   1   1630  8.45                             116    -0.5 6  243 195 
 CHI  HE ES   2   1630 37.95                             116     0.4 4  243 195 
 CHI  HZ I        1630 41.66        31.8 0.54                           243 195 
 ROSC BZ EP   1   1630 10.19                             116     0.8 6  247 211 
 ROSC BE ES   2   1630 38.37                             116     0.1 4  247 211 
 ROSC BZ I        1630 44.54        58.6 0.43                           247 211 
 HEL  HZ EP   1   1630 11.99                             113     0.3 6  268 257 
 HEL  HE ES   2   1630 41.79                             113    -0.6 4  268 257 
 HEL  HZ I        1630 49.73        18.2 0.47                           268 257 
 TOL  SZ EP   1   1630 19.93                             108     0.3 5  338 225 
                                                                                
