 2010  6 4 1241 24.4 L   6.589 -73.588  7.6  RSN 10 0.4 2.8LRSN                1
 GAP= 95        1.02       3.2     4.6  7.1 -0.7041E+01  0.2237E+02 -0.2112E+01E
 Epicentro: EL CARMEN DE CHUCURI - SANTANDER                                   3
 ACTION:UP  10-08-24 10:08 OP:vdl  STATUS:               ID:20100604124124 L   I
 2010-06-04-1237-41S.COL___109                                                 6
 STAT SP IPHASW D HRMM SECON CODA AMPLIT PERI AZIMU VELO SNR AR TRES W  DIS CAZ7
 BAR2 SZ IP       1241 32.07                              96     0.110   45  90 
 BAR2 SZ ES       1241 37.69                              96    -0.310   45  90 
 GIR2 SZ EP       1241 36.16                              93     0.510   70  39 
 GIR2 SZ ES       1241 44.29                              93    -0.210   70  39 
 GUE  SZ EP       1241 48.77                              91    -0.1 9  156  28 
 GUE  SZ ES   1   1242  7.18                              91    -0.8 7  156  28 
 GRA  SZ EP       1241 50.59                              56     0.2 9  167  31 
 GRA  SZ ES       1242 10.88                              56     0.1 9  167  31 
 OCA  SZ EP       1241 52.70                              56     0.1 9  185   9 
 OCA  SZ I        1242 22.92        67.0 0.40                           185   9 
 CHI  HZ EP   1   1241 57.48                              56     0.5 6  217 184 
 CHI  HZ I        1242 29.87        21.8 0.98                           217 184 
 RREF BZ EP   1   1242  4.19                              56     0.4 6  270 226 
 RREF BN ES       1242 33.60                              56    -1.0 8  270 226 
 RREF BZ I        1242 36.37        56.6 0.15                           270 226 
 TOL  SZ EP       1242  6.90                              55     0.6 7  293 221 
 TOL  SZ ES   1   1242 38.49                              55    -0.6 5  293 221 
 DBB  SZ EP   2   1242  5.69                              55    -0.4 4  294 279 
 ANIL BN ES   1   1242 42.59                              55     0.5 5  307 221 
 ANIL BZ I        1242 46.38       103.5 0.40                           307 221 
                                                                                
