 2012  3 4 1524 57.8 L   6.761 -73.121150.9  RSN  4 0.2 1.7LRSN                1
 GAP=237        0.62       8.7     9.9  7.1  0.7002E+02 -0.9675E+01 -0.1361E+02E
 ACTION:UP  12-03-31 23:17 OP:EP   STATUS:               ID:20120304152457 L   I
 2012-03-04-1520-00M.COL___191                                                 6
 STAT SP IPHASW D HRMM SECON CODA AMPLIT PERI AZIMU VELO SNR AR TRES W  DIS CAZ7
 BAR2 SZ EP       1525 17.91                             172    -0.110   20 200 
 BAR2 SZ ES   1   1525 33.44                             172    -0.3 7   20 200 
 BAR2 SZ I        1525 34.74         6.2 0.14                            20 200 
 BRR  HZ EP       1525 19.79                             152     0.010   76 300 
 BRR  HZ I        1525 20.10        14.1 0.15                            76 300 
 BRR  HE ES   1   1525 37.32                             152     0.4 7   76 300 
 RUS  HZ EP   1   1525 21.96                             146     0.2 7   96 178 
 RUS  HN ES   1   1525 40.52                             146     0.1 7   96 178 
 RUS  HZ I        1525 41.81         3.7 0.39                            96 178 
 ZAR  HN ES   1   1525 56.67                             123    -0.3 6  208 293 
 ZAR  HZ I        1526  3.03         6.5 0.27                           208 293 
                                                                                
