 2017 10 4 1615 27.8 L   6.744 -73.146143.1  RSN  5 0.4 1.4LRSN                1
 GAP=242        0.93       5.6     5.8  7.5  0.6399E+01  0.2343E+02  0.2282E+00E
 Epicentro: LOS SANTOS - SANTANDER                                             3
 ACTION:UPD 17-11-07 19:28 OP:rebc STATUS:               ID:20171004161527 L   I
 OLDACT:DUP 17-10-04 23:32 OP:osc  STATUS:               ID:20171004160742d    3
 2017-10-04-1608-00M.COL___438                                                 6
 STAT SP IPHASW D HRMM SECON CODA AMPLIT PERI AZIMU VELO AIN AR TRES W  DIS CAZ7
 BAR2 EZ EP       1615 46.86                             173   -0.1710 17.2 194 
 BAR2 EZ ES       1616  2.37                             173    0.3710 17.2 194 
 RUS  HZ EP       1615 50.95                             145    0.0810 94.4 176 
 RUS  HN ES       1616  8.51                             145   -0.3410 94.4 176 
 RUS  HZ I        1616 12.58         1.9 0.17            143           94.4 176 
 ZAR  HZ EP       1616  0.68                             121    0.33 8  206 294 
 ZAR  HE ES       1616 25.30                             121   -0.42 8  206 294 
 NOR  HZ EP       1616  2.39                             118   -0.63 8  231 236 
 NOR  HN ES       1616 30.91                             118    0.44 8  231 236 
 NOR  HZ I        1616 37.18         3.0 0.18            118            231 236 
 GUY2CHZ EP       1616 11.64                             112    0.73 7  298 236 
 GUY2CHE ES       1616 44.29                             112   -0.23 7  298 236 
 GUY2CHZ I        1616 53.92         1.9 0.38                           298 236 
                                                                                
