 2012  8 4 1211  3.5 L   6.748 -73.144142.0  RSN  5 0.4 1.2LRSN                1
 GAP=139        0.72       9.6     6.1  9.9 -0.2084E+02  0.6569E+00  0.4453E+02E
 Epicentro: LOS SANTOS - SANTANDER                                             3
 ACTION:UPD 12-09-10 11:54 OP:ep   STATUS:               ID:20120804121103 L   I
 2012-08-04-1209-35M.COL___212                                                 6
 STAT SP IPHASW D HRMM SECON CODA AMPLIT PERI AZIMU VELO AIN AR TRES W  DIS CAZ7
 BAR2 SZ EP       1211 22.74                             172    0.1710 17.7 194 
 BAR2 SZ I        1211 38.29         4.5 0.28                          17.7 194 
 BRR  HZ EP       1211 24.70                             151    0.2810 74.2 302 
 BRR  HN ES   1   1211 41.08                             151    0.34 7 74.2 302 
 BRR  HZ I        1211 45.58        18.3 0.42                          74.2 302 
 PAM  SZ EP       1211 25.64                             149    0.0510 81.8  37 
 PAM  SN ES   1   1211 42.36                             149   -0.46 7 81.8  37 
 PAM  SZ I        1211 44.07         1.6 0.22                          81.8  37 
 RUS  HZ EP   3   1211 27.40                             145    0.93 2 94.8 176 
 RUS  HN ES   3   1211 44.33                             145   -0.05 2 94.8 176 
 RUS  HZ I        1211 46.41         1.4 0.28                          94.8 176 
 PTB  HZ EP       1211 29.59                             132   -0.49 9  147 261 
 PTB  HN ES   3   1211 49.84                             132   -0.98 2  147 261 
 PTB  HZ I        1211 52.68         1.7 0.20                           147 261 
                                                                                
