 2011 11 4 1417 33.2 L   6.800 -73.014144.5  RSN  4 0.2 1.5LRSN                1
 GAP=154        0.50       4.9     6.9  5.5  0.1403E+02 -0.1305E+01  0.4418E+01E
 Epicentro: CEPITA - SANTANDER                                                 3
 ACTION:UPD 12-07-13 16:08 OP:ep   STATUS:               ID:20111104141733 L   I
 2011-11-04-1413-35S.COL___174                                                 6
 STAT SP IPHASW D HRMM SECON CODA AMPLIT PERI AZIMU VELO AIN AR TRES W  DIS CAZ7
 BAR2 SZ EP       1417 53.21                             168    0.3510 29.5 219 
 BAR2 SZ ES   1   1418  8.01                             168   -0.16 7 29.5 219 
 BAR2 SZ I        1418 10.86         8.5 0.26                          29.5 219 
 PAM  SE ES   2   1418 11.59                             153   -0.11 5 69.0  30 
 BRR  HZ EP       1417 54.87                             148   -0.1710 84.2 294 
 BRR  HE ES   1   1418 12.15                             148    0.10 7 84.2 294 
 BRR  HZ I        1418 12.45         9.6 0.32                          84.2 294 
 RUS  HZ EP       1417 56.74                             143   -0.1310  101 184 
 RUS  HN ES   2   1418 15.37                             143    0.07 5  101 184 
 RUS  HZ I        1418 16.83         2.3 0.36                           101 184 
                                                                                
