 2011  7 4 1327 27.2 L   6.816 -73.086142.0  RSN  4 0.3 1.4LRSN                1
 GAP=165        0.56       3.8     7.3  7.3  0.5716E+01 -0.1758E+02 -0.6446E+01E
 Epicentro: LOS SANTOS - SANTANDER                                             3
 ACTION:UPD 12-07-25 13:58 OP:epov STATUS:               ID:20110704132727 L   I
 2011-07-04-1323-49S.COL___139                                                 6
 STAT SP IPHASW D HRMM SECON CODA AMPLIT PERI AZIMU VELO AIN AR TRES W  DIS CAZ7
 BAR2 SZ EP   1   1327 46.00                             169   -0.46 7 27.0 203 
 BAR2 SZ ES   2   1328  1.11                             169   -0.37 5 27.0 203 
 BAR2 SZ I        1328  2.14         7.5 0.16                          27.0 203 
 BRR  HZ EP       1327 48.09                             150   -0.1610 76.3 295 
 BRR  HZ I        1328  4.00        10.0 0.33                          76.3 295 
 BRR  HE ES   1   1328  4.94                             150    0.28 7 76.3 295 
 RUS  HZ EP   1   1327 50.96                             143    0.26 7  102 180 
 RUS  HN ES   1   1328  9.19                             143    0.16 7  102 180 
 RUS  HZ I        1328 10.14         1.6 0.30                           102 180 
 GRA  SZ EP   1   1327 52.03                             137    0.22 7  122  15 
 GRA  SZ I        1327 54.26         3.2 0.64                           122  15 
 GRA  SZ ES   2   1328 11.03                             137    0.02 5  122  15 
                                                                                
