 2013  4 4 1045  5.7 L   6.799 -73.144150.6  RSN 10 0.4 2.1LRSN                1
 GAP=183        0.77       2.9     5.0  5.5  0.2332E+01  0.3492E+01  0.8704E+00E
 Epicentro: LOS SANTOS - SANTANDER                                             3
 ACTION:UPD 13-05-22 14:35 OP:EP   STATUS:               ID:20130404104505 L   I
 2013-04-04-1040-00M.COL___245                                                 6
 STAT SP IPHASW D HRMM SECON CODA AMPLIT PERI AZIMU VELO AIN AR TRES W  DIS CAZ7
 BAR2 SZ EP       1045 25.86                             171   -0.0910 23.3 190 
 BAR2 SZ ES   1   1045 41.76                             171    0.05 7 23.3 190 
 BAR2 SZ I        1045 42.62        43.9 0.42            169           23.3 190 
 BRR  HZ IP     C 1045 27.66                             154    0.2410 71.4 299 
 BRR  HN ES   1   1045 45.34                             154    1.01 7 71.4 299 
 BRR  HZ I        1045 53.06        17.8 0.32            150           71.4 299 
 RUS  HZ EP   1   1045 29.90                             145   -0.07 7  101 176 
 RUS  HN ES   1   1045 48.48                             145   -0.38 7  101 176 
 RUS  HZ I        1045 49.41        11.9 0.30            148            101 176 
 PTB  HZ EP   1   1045 32.53                             133   -0.59 7  148 259 
 PTB  HN ES   1   1045 53.94                             133   -0.53 7  148 259 
 PTB  HZ I        1045 57.12        16.0 0.18            132            148 259 
 OCA  HZ EP   1   1045 34.75                             131    0.31 7  160 353 
 OCA  HE ES   1   1045 56.70                             131   -0.12 7  160 353 
 OCA  HZ I        1046  1.68        12.5 0.18            132            160 353 
 ZAR  HZ EP   1   1045 38.21                             124   -0.31 6  204 292 
 ZAR  HE ES   1   1046  3.68                             124   -0.41 6  204 292 
 ZAR  HZ I        1046  9.88        17.7 0.22            124            204 292 
 SML  HZ EP   1   1045 42.21                             119   -0.45 6  244 335 
 SML  HN ES   1   1046 11.43                             119   -0.02 6  244 335 
 SML  HZ I        1046 15.45        20.0 0.10            120            244 335 
 CHI  HZ EP       1045 43.92                             118    0.21 8  249 195 
 CHI  HE ES   1   1046 13.36                             118    0.04 6  249 195 
 CHI  HZ I        1046 19.03         6.2 0.24            120            249 195 
 HEL  HZ EP   2   1045 47.37                             116    1.15 4  272 256 
 HEL  HN ES   2   1046 17.69                             116   -0.10 4  272 256 
 HEL  HZ I        1046 24.51         5.0 0.38            117            272 256 
 PRA  HZ EP   1   1045 59.58                             107    0.14 4  392 210 
 PRA  HN ES   1   1046 41.92                             107    0.60 4  392 210 
 PRA  HZ I        1046 44.99         6.1 0.30            109            392 210 
                                                                                
