 2013  2 4 1531 32.0 L   6.765 -73.126140.6  RSN  4 0.2 1.6LRSN                1
 GAP=141        0.40       3.1     6.5  4.8 -0.1020E+02  0.1231E+02 -0.2407E+01E
 Epicentro: LOS SANTOS - SANTANDER                                             3
 ACTION:UPD 13-03-12 09:30 OP:ep   STATUS:               ID:20130204153132 L   I
 2013-02-04-1530-00M.COL___240                                                 6
 STAT SP IPHASW D HRMM SECON CODA AMPLIT PERI AZIMU VELO AIN AR TRES W  DIS CAZ7
 BAR2 SZ EP   1   1531 50.85                             171   -0.08 7 20.1 198 
 BAR2 SZ ES   1   1532  5.48                             171   -0.22 7 20.1 198 
 BAR2 SZ I        1532  7.43         8.9 0.43            164           20.1 198 
 BRR  HZ EP   1   1531 52.96                             150    0.16 7 75.0 300 
 BRR  HZ I        1531 59.67        15.5 0.40            141           75.0 300 
 PAM  SZ EP   1   1531 53.53                             149   -0.23 7 79.1  37 
 PAM  SE ES       1532 10.85                             149    0.1110 79.1  37 
 PAM  SZ I        1532 13.35         5.2 0.61            150           79.1  37 
 RUS  HZ EP   1   1531 54.97                             144    0.03 7 96.6 177 
 RUS  HN ES   1   1532 12.97                             144    0.13 7 96.6 177 
 RUS  HN I        1532 15.18         7.3 0.43            145           96.6 177 
                                                                                
