 2010  8 4 1557  4.3 L   6.757 -73.109151.8  RSN  4 0.1 1.5LRSN                1
 GAP=163        0.31       2.5     4.8  3.6  0.5082E+01 -0.8531E+01 -0.3974E+01E
 Epicentro: LOS SANTOS - SANTANDER                                             3
 ACTION:UP  10-09-07 10:52 OP:vdl  STATUS:               ID:20100804155704 L   I
 2010-08-04-1554-02S.COL___126                                                 6
 STAT SP IPHASW D HRMM SECON CODA AMPLIT PERI AZIMU VELO SNR AR TRES W  DIS CAZ7
 BAR2 SZ IP       1557 24.62                             172     0.010   20 204 
 BAR2 SZ ES   1   1557 40.46                             172     0.0 7   20 204 
 BAR2 SZ I        1557 41.31        18.6 0.17                            20 204 
 BRR  HZ IP     C 1557 26.41                             151    -0.110   77 300 
 BRR  HN ES   1   1557 43.83                             151     0.1 7   77 300 
 RUS  HZ EP       1557 28.43                             146     0.110   96 178 
 RUS  HE ES   1   1557 47.04                             146     0.0 7   96 178 
 RUS  HZ I        1557 48.46         2.5 0.48                            96 178 
 GRA  SZ IP       1557 30.43                             137     0.010  129  15 
 GRA  SZ I        1557 55.85         3.5 0.36                           129  15 
                                                                                
