 2012  4 4 1454  1.1 L   6.704 -73.175149.2  RSN  5 0.5 1.6LRSN                1
 GAP=227        1.00      14.0    10.9 10.9  0.7620E+02  0.3309E+02  0.3458E+02E
 Epicentro: VILLANUEVA - SANTANDER                                             3
 ACTION:UPD 12-07-05 11:50 OP:tino STATUS:               ID:20120404145401 L   I
 2012-04-04-1450-00M.COL___196                                                 6
 STAT SP IPHASW D HRMM SECON CODA AMPLIT PERI AZIMU VELO AIN AR TRES W  DIS CAZ7
 BAR2 SZ EP       1454 20.98                             176     0.010   12 184 
 BAR2 SZ ES   1   1454 35.78                             176    -0.7 7   12 184 
 BAR2 SZ I        1454 37.97         6.8 0.14                            12 184 
 BRR  HZ EP       1454 22.96                             152     0.110   74 307 
 BRR  HZ I        1454 40.18         8.5 0.48                            74 307 
 BRR  HN ES   1   1454 40.44                             152     0.7 7   74 307 
 RUS  HZ EP   2   1454 25.21                             148     0.7 5   90 174 
 RUS  HN ES   3   1454 43.57                             148     0.8 2   90 174 
 RUS  HZ I        1454 44.99         6.6 0.58                            90 174 
 PTB  HZ EP       1454 27.82                             134    -0.1 9  143 263 
 PTB  HN ES   2   1454 48.75                             134    -0.1 5  143 263 
 PTB  HZ I        1454 54.76         5.3 0.42                           143 263 
 ZAR  HN ES   2   1454 58.83                             123    -0.7 4  205 295 
                                                                                
