 2013 12 4 1017 17.9 L   6.733 -73.178153.2  RSN  4 0.3 1.5LRSN                1
 GAP=228        0.72       5.9     5.6  6.0  0.1509E+02  0.4195E+01 -0.7699E+00E
 Epicentro: VILLANUEVA - SANTANDER                                             3
 ACTION:UPD 14-01-13 10:15 OP:ep   STATUS:               ID:20131204101717 L   I
 OLDACT:UP  13-12-04 15:24 OP:cam  STATUS:               ID:20131204101000     3
 OLDACT:REG 13-12-04 14:12 OP:cam  STATUS:               ID:20131204101000     3
 2013-12-04-1010-00M.COL___285                                                 6
 STAT SP IPHASW D HRMM SECON CODA AMPLIT PERI AZIMU VELO AIN AR TRES W  DIS CAZ7
 BAR2 SZ EP       1017 37.94                             174   -0.3610 15.5 182 
 BAR2 SZ ES       1017 53.90                             174   -0.3110 15.5 182 
 BAR2 SZ I        1017 54.60        10.0 0.32            169           15.5 182 
 BRR  HZ EP       1017 40.19                             153    0.2810 72.1 305 
 BRR  HN ES       1017 57.31                             153    0.2510 72.1 305 
 BRR  HZ I        1017 59.65         6.1 0.26            151           72.1 305 
 RUS  HZ EP   1   1017 42.29                             147    0.38 7 93.5 174 
 RUS  HN ES       1018  0.84                             147    0.2110 93.5 174 
 RUS  HZ I        1018  1.68         2.6 0.48            147           93.5 174 
 PTB  HZ EP       1017 44.80                             135   -0.26 9  143 261 
 PTB  HN ES       1018  6.19                             135   -0.05 9  143 261 
 PTB  HZ I        1018 11.75         3.6 0.52            132            143 261 
                                                                                
