 2017 11 4 1623 12.8 L   6.467 -73.651104.9  RSN  6 0.2 1.3LRSN                1
 GAP= 98        0.44       1.8     2.1  4.0  0.3152E+00  0.2550E+01  0.5356E+00E
 Epicentro: SANTA HELENA DEL OPON - SANTANDER                                  3
 ACTION:UPD 17-12-12 19:51 OP:rebc STATUS:               ID:20171104162312 L   I
 OLDACT:UP  17-11-05 00:52 OP:mg   STATUS:               ID:20171104161739     3
 OLDACT:UP  17-11-05 00:52 OP:mg   STATUS:               ID:20171104161739     3
 OLDACT:REG 17-11-04 20:47 OP:mg   STATUS:               ID:20171104161739     3
 2017-11-04-1618-00M.COL___432                                                 6
 STAT SP IPHASW D HRMM SECON CODA AMPLIT PERI AZIMU VELO AIN AR TRES W  DIS CAZ7
 BAR2 EZ EP   1   1623 28.98                             151    0.13 7 53.6  75 
 BAR2 EZ ES   2   1623 41.64                             151    0.24 5 53.6  75 
 BAR2 EZ I        1623 42.85        16.5 0.44            152           53.6  75 
 BRR  HZ EP       1623 29.43                             143   -0.2410 71.1 355 
 BRR  HN ES       1623 42.80                             143   -0.0510 71.1 355 
 BRR  HZ I        1623 43.64         5.7 0.13            144           71.1 355 
 RUS  HZ EP       1623 31.95                             136    0.1510 89.4 135 
 RUS  HN ES       1623 46.63                             136   -0.0210 89.4 135 
 RUS  HZ I        1623 48.05         3.3 0.34            139           89.4 135 
 PAM  EZ EP       1623 37.02                             122    0.17 9  143  47 
 PAM  EN ES       1623 55.50                             122   -0.13 9  143  47 
 PAM  EZ I        1623 57.69         1.4 0.19            124            143  47 
 NOR  HZ EP   1   1623 38.79                             117   -0.16 7  168 234 
 NOR  HN ES   2   1623 59.29                             117   -0.10 5  168 234 
 NOR  HZ I        1624  0.21         1.6 0.21            119            168 234 
 ZAR  HZ EP   1   1623 39.57                             116   -0.11 7  175 310 
 ZAR  HN ES   2   1624  1.31                             116    0.63 4  175 310 
 ZAR  HZ I        1624  2.70         5.9 0.04            117            175 310 
                                                                                
