 2017  9 4 1452 25.7 L   7.465 -73.377112.9  RSN  7 0.7 1.6LRSN                1
 GAP=204        1.07       6.2     6.2  7.7  0.2150E+02  0.1717E+00 -0.9262E+01E
 Epicentro: SABANA DE TORRES - SANTANDER                                       3
 ACTION:UPD 17-10-05 19:09 OP:rebc STATUS:               ID:20170904145225 L   I
 OLDACT:REG 17-09-04 20:08 OP:lv   STATUS:               ID:20170904144742     3
 2017-09-04-1448-00M.COL___422                                                 6
 STAT SP IPHASW D HRMM SECON CODA AMPLIT PERI AZIMU VELO AIN AR TRES W  DIS CAZ7
 BRR  HZ EP       1452 42.44                             154    0.0810 54.2 223 
 BRR  HN ES       1452 55.19                             154   -0.1410 54.2 223 
 BRR  HZ I        1452 57.12        16.2 0.18            143           54.2 223 
 BAR2 EZ EP       1452 46.51                             137    0.5910 98.9 167 
 BAR2 EZ ES       1453  1.94                             137    0.2710 98.9 167 
 BAR2 EZ I        1453  3.93         6.1 0.11            129           98.9 167 
 ZAR  HZ EP       1452 51.90                             121    0.04 9  163 271 
 ZAR  HE ES       1453 12.44                             121    0.20 9  163 271 
 ZAR  HZ I        1453 14.28         8.8 0.09            116            163 271 
 RUS  HZ EP       1452 53.84                             119   -0.08 9  177 169 
 RUS  HN ES       1453 15.26                             119   -0.64 9  177 169 
 RUS  HZ I        1453 21.80         2.5 0.28            114            177 169 
 NOR  HZ EP       1453  4.07                             108    0.53 8  267 218 
 NOR  HE ES       1453 32.08                             108   -0.96 8  267 218 
 NOR  HZ I        1453 37.68         2.5 0.19            104            267 218 
 SJC  HZ EP       1453 10.78                             103   -0.64 7  334 324 
 SJC  HN ES   4   1453 44.54                             103   -2.52 0  334 324 
 SJC  HZ I        1453 47.38         1.9 0.33            101            334 324 
 PRA  HZ EP   3   1453 28.48                              98    3.52 1  447 202 
 PRA  HN ES   3   1454 14.08                              98    2.91 1  447 202 
 PRA  HZ I        1454 22.48         2.0 0.42             95            447 202 
                                                                                
