 2012  6 4 1003 10.3 L   6.831 -73.109127.5  RSN  4 0.3 1.0LRSN                1
 GAP=187        0.55       3.3     4.6  9.5  0.3577E+01  0.9734E+01 -0.6611E+01E
 Epicentro: LOS SANTOS - SANTANDER                                             3
 ACTION:UPD 12-08-06 17:47 OP:ep   STATUS:               ID:20120604100311 L   I
 2012-06-04-1000-00M.COL___201                                                 6
 STAT SP IPHASW D HRMM SECON CODA AMPLIT PERI AZIMU VELO AIN AR TRES W  DIS CAZ7
 RUS  HZ EP   1   10 3 32.86                             139    0.32 7  104 178 
 RUS  HN ES   1   10 3 49.59                             139   -0.31 7  104 178 
 RUS  HZ I        10 3 53.25         1.6 0.28            138            104 178 
 PTB  HZ EP   1   10 3 36.13                             126   -0.15 7  152 258 
 PTB  HN ES   1   10 3 56.97                             126    0.42 7  152 258 
 OCA  HN ES   1   10 3 57.86                             126    0.09 7  157 352 
 ZAR  HZ EP   1   10 3 41.72                             118   -0.16 6  207 291 
 ZAR  HZ I        10 3 44.02         1.2 0.07            119            207 291 
 ZAR  HN ES   1   10 4  6.23                             118   -0.29 6  207 291 
                                                                                
