 2013 12 4 1003 12.7 L   6.817 -73.134148.5  RSN  9 0.3 1.7LRSN                1
 GAP=137        0.67       2.7     3.5  4.1  0.9162E+00  0.3551E+01  0.6474E+00E
 Epicentro: LOS SANTOS - SANTANDER                                             3
 ACTION:UPD 14-01-13 10:15 OP:ep   STATUS:               ID:20131204100312 L   I
 OLDACT:REG 13-12-04 14:11 OP:cam  STATUS:               ID:20131204100000     3
 2013-12-04-1000-00M.COL___285                                                 6
 STAT SP IPHASW D HRMM SECON CODA AMPLIT PERI AZIMU VELO AIN AR TRES W  DIS CAZ7
 BAR2 SZ EP       10 3 32.49                             170   -0.2410 25.4 192 
 BAR2 SZ ES       10 3 47.83                             170   -0.5010 25.4 192 
 BAR2 SZ I        10 3 49.01        19.2 0.26            168           25.4 192 
 BRR  HZ EP       10 3 34.31                             153    0.1210 71.5 297 
 BRR  HN ES       10 3 50.96                             153    0.0310 71.5 297 
 PAM  SZ EP     C 10 3 35.49                             152    0.3910 75.1  40 
 PAM  SN ES       10 3 52.67                             152    0.1110 75.1  40 
 PAM  SN I        10 3 54.65        14.7 0.48            155           75.1  40 
 RUS  HZ EP       10 3 36.76                             144   -0.1110  102 177 
 RUS  HN ES       10 3 55.87                             144    0.1610  102 177 
 RUS  HZ I        10 3 56.35         4.7 0.28            146            102 177 
 PTB  HN ES   4   10 3 59.92                             132   -1.48 0  149 258 
 OCA  HN ES   2   10 4  3.45                             130    0.23 5  159 353 
 OCA  HZ I        10 4  7.83         4.0 0.32            131            159 353 
 SPBC HZ EP   1   10 3 41.48                             129   -0.17 7  165 219 
 SPBC HN ES   1   10 4  4.89                             129    0.68 7  165 219 
 SPBC HZ I        10 4 10.42         8.2 0.24            129            165 219 
 ZAR  HZ EP       10 3 45.03                             123   -0.37 9  205 292 
 ZAR  HE ES       10 4 10.97                             123    0.07 9  205 292 
 ZAR  HZ I        10 4 20.89         3.2 0.18            122            205 292 
 SML  HZ EP   1   10 3 49.33                             118   -0.05 6  243 335 
 CHI  HZ EP       10 3 50.81                             117    0.00 8  251 195 
                                                                                
