 2012  6 4 1924 44.9 L   6.796 -73.178132.8  RSN  9 0.4 2.2LRSN                1
 GAP=133        0.69       2.8     3.5  6.0 -0.1481E+01  0.8033E+01 -0.3584E+00E
 Epicentro: LOS SANTOS - SANTANDER                                             3
 ACTION:UPD 12-08-06 17:47 OP:ep   STATUS:               ID:20120604192444 L   I
 2012-06-04-1920-00M.COL___201                                                 6
 STAT SP IPHASW D HRMM SECON CODA AMPLIT PERI AZIMU VELO AIN AR TRES W  DIS CAZ7
 BAR2 SZ EP   1   1925  3.21                             170    0.24 7 22.5 181 
 BAR2 SZ ES   1   1925 16.86                             170   -0.19 7 22.5 181 
 BAR2 SZ I        1925 19.44        48.2 0.21            170           22.5 181 
 PAM  SZ EP   1   1925  6.18                             147    0.24 7 80.0  41 
 PAM  SZ I        1925  6.62        43.1 0.23            151           80.0  41 
 PAM  SN ES   1   1925 22.99                             147    0.65 7 80.0  41 
 RUS  HZ EP   1   1925  7.36                             141   -0.04 7  100 174 
 RUS  HN ES   1   1925 24.68                             141   -0.26 7  100 174 
 RUS  HZ I        1925 27.13        29.7 0.26            143            100 174 
 PTB  HZ EP   1   1925 10.27                             130   -0.25 7  144 259 
 PTB  HN ES   1   1925 30.35                             130   -0.14 7  144 259 
 PTB  HZ I        1925 33.30        11.4 0.11            130            144 259 
 OCA  HZ EP   1   1925 11.79                             126   -0.47 7  160 354 
 OCA  HE ES   1   1925 32.95                             126   -0.63 7  160 354 
 OCA  HZ I        1925 36.82        64.2 0.29            128            160 354 
 ZAR  HZ EP   1   1925 16.92                             120    0.70 6  201 293 
 ZAR  HN ES   1   1925 40.62                             120   -0.01 6  201 293 
 ZAR  HZ I        1925 47.55        17.5 0.23            121            201 293 
 NOR  SN ES   1   1925 46.99                             116    0.37 6  232 234 
 CHI  HZ EP   1   1925 21.57                             114   -0.21 6  247 194 
 CHI  HN ES   1   1925 50.43                             114   -0.10 6  247 194 
 CHI  HZ I        1925 55.10         4.9 0.26            116            247 194 
 HEL  HN ES   1   1925 54.79                             112    0.13 6  268 256 
                                                                                
