 2011  1 4 1300 59.7 L   6.777 -73.125146.7  RSN 19 0.5 3.0LRSN                1
 GAP=137        1.00       3.8     5.9  7.2 -0.5657E+01  0.1205E+02  0.6196E+01E
 Epicentro: LOS SANTOS - SANTANDER                                             3
 ACTION:UP  11-02-08 08:38 OP:pat  STATUS:               ID:20110104130059 L   I
 2011-01-04-1300-00M.COL___136                                                 6
 STAT SP IPHASW D HRMM SECON CODA AMPLIT PERI AZIMU VELO SNR AR TRES W  DIS CAZ7
 BAR2 SZ IP       13 1 19.29                             171    -0.210   22 198 
 BTL  SZ IP       13 1 20.56                             171     1.110   22 315 
 BTL  SZ ES   2   13 1 35.59                             171     0.7 5   22 315 
 BAR2 SZ I        13 1 19.48       257.9 0.19                            22 198 
 BAR2 SZ ES   2   13 1 34.56                             171    -0.3 5   22 198 
 GIR2 SZ EP   1   13 1 19.53                             166    -0.1 7   34 347 
 GIR2 SZ ES   2   13 1 34.26                             166    -0.8 5   34 347 
 RUS  HZ IP     C 13 1 23.05                             145    -0.410   98 177 
 RUS  HE ES   2   13 1 41.73                             145    -0.1 5   98 177 
 RUS  HZ I        13 1 42.51       107.1 0.35                            98 177 
 GUE  SZ EP   1   13 1 24.75                             139     0.0 7  119  11 
 GRA  SZ IP       13 1 25.38                             137     0.210  128  16 
 GRA  SZ ES   2   13 1 45.26                             137     0.2 5  128  16 
 GRA  SZ I        13 1 46.45       161.7 0.37                           128  16 
 OCA  SZ EP   1   13 1 27.72                             129    -0.7 7  163 352 
 OCA  SZ ES   2   13 1 49.80                             129    -0.9 5  163 352 
 OCA  SZ I        13 1 52.93       108.4 0.35                           163 352 
 YOP  SZ IP     C 13 1 29.66                             127     0.1 9  176 154 
 YOP  SN ES   2   13 1 53.11                             127     0.3 4  176 154 
 YOP  SZ I        13 1 56.15        56.8 0.20                           176 154 
 NOR  SZ EP   1   13 1 35.14                             119    -0.4 6  235 235 
 NOR  SE ES   2   13 2  3.51                             119     0.0 4  235 235 
 CHI  HZ EP   1   13 1 37.14                             118    -0.2 6  247 196 
 CHI  HE ES   2   13 2  5.87                             118    -0.7 4  247 196 
 CHI  HZ I        13 2 13.21        39.4 0.32                           247 196 
 ROSC BZ EP   1   13 1 38.53                             117     0.7 6  252 212 
 ROSC BN ES   2   13 2  6.64                             117    -0.9 4  252 212 
 ROSC BZ I        13 2 16.55        82.6 0.27                           252 212 
 HEL  HZ EP   1   13 1 39.36                             115    -0.8 6  274 256 
 HEL  HN ES   2   13 2 12.41                             115     0.7 4  274 256 
 HEL  HZ I        13 2 18.26        76.1 0.33                           274 256 
 VIL  SZ EP   1   13 1 42.82                             113     0.0 5  300 190 
 VIL  SN ES   2   13 2 16.31                             113     0.0 4  300 190 
 VIL  SZ I        13 2 19.88        23.5 0.36                           300 190 
 GUY  SZ EP   1   13 1 44.31                             113     0.8 5  302 235 
 GUY  SE ES   2   13 2 18.65                             113     1.1 4  302 235 
 GUY  SZ I        13 2 27.04       114.1 0.43                           302 235 
 RREF HZ EP   1   13 1 45.57                             111    -0.4 5  322 230 
 RREF HN ES   2   13 2 21.48                             111    -0.5 3  322 230 
 RREF HZ I        13 2 28.74        82.8 0.22                           322 230 
 DBB  SZ EP   1   13 1 47.46                                    -0.1 5  342 275 
 TOL  SZ EP   1   13 1 48.27                             110     0.3 5  343 225 
 TOL  SZ ES   2   13 2 25.40                             110    -0.3 3  343 225 
 PRA  HZ EP   1   13 1 52.88                             107    -0.3 4  391 210 
 PRA  HE ES   2   13 2 35.61                             107     0.8 3  391 210 
 SJA  SZ EP   1   13 1 53.34                             106    -0.8 4  398 193 
                                                                                
