 2013  5 4 1104 50.6 L   6.825 -73.392121.5  RSN  6 0.5 1.8LRSN                1
 GAP= 93        1.10       6.1     5.0  9.1 -0.5518E+01  0.4536E+01  0.3445E+01E
 Epicentro: SAN VICENTE DE CHUCURI - SANTANDER                                 3
 ACTION:UPD 13-06-20 09:47 OP:ep   STATUS:               ID:20130504110450 L   I
 2013-05-04-1100-00M.COL___253                                                 6
 STAT SP IPHASW D HRMM SECON CODA AMPLIT PERI AZIMU VELO AIN AR TRES W  DIS CAZ7
 BAR2 SZ EP       11 5  7.94                             163    0.3110 34.6 138 
 BAR2 SZ ES       11 5 20.88                             163   -0.0610 34.6 138 
 BAR2 SZ I        11 5 22.17        30.9 0.34            169           34.6 138 
 GIR2 SZ EP       11 5  7.54                             162    0.0210 35.6  38 
 GIR2 SZ I        11 5 21.02        11.9 0.22            162           35.6  38 
 BRR  HZ IP     D 11 5  8.31                             157    0.5210 47.1 311 
 BRR  HE ES   1   11 5 22.02                             157    0.79 7 47.1 311 
 BRR  HN I        11 5 29.72        18.5 0.16            153           47.1 311 
 PAM  SZ EP   1   11 5 10.92                             139   -0.68 7 95.4  53 
 PAM  SN ES       11 5 27.58                             139   -0.4210 95.4  53 
 PAM  SN I        11 5 28.77        14.3 0.28            141           95.4  53 
 RUS  HZ EP       11 5 13.11                             135    0.4210  109 162 
 RUS  HN ES   1   11 5 29.72                             135   -0.23 7  109 162 
 RUS  HN I        11 5 33.17         4.5 0.44            140            109 162 
 PTB  HZ EP   1   11 5 13.15                             131   -0.06 7  122 255 
 PTB  HN ES       11 5 30.14                             131   -0.7210  122 255 
 PTB  HN I        11 5 34.95        22.1 0.44            131            122 255 
                                                                                
