 2012  3 4 1156  5.3 L   6.337 -73.572107.6  RSN  8 0.4 2.2LRSN                1
 GAP= 75        0.88       4.7     4.0  8.5  0.3868E+01  0.1763E+02  0.6971E+01E
 ACTION:UP  12-03-31 23:17 OP:EP   STATUS:               ID:20120304115605 L   I
 2012-03-04-1150-00M.COL___191                                                 6
 STAT SP IPHASW D HRMM SECON CODA AMPLIT PERI AZIMU VELO SNR AR TRES W  DIS CAZ7
 BAR2 SZ EP       1156 21.76                             152     0.210   52  57 
 BAR2 SZ ES   1   1156 34.68                             152     0.4 7   52  57 
 BAR2 SZ I        1156 35.98        86.8 0.38                            52  57 
 RUS  HZ EP       1156 23.24                             143    -0.110   73 132 
 RUS  HN ES   1   1156 37.38                             143     0.0 7   73 132 
 RUS  HZ I        1156 39.43        24.1 0.22                            73 132 
 BRR  HZ EP       1156 23.62                             138     0.010   87 350 
 BRR  HZ I        1156 23.76        37.7 0.12                            87 350 
 PTB  HZ EP       1156 24.30                             134    -0.610  100 283 
 PTB  HN ES   1   1156 39.60                             134    -0.5 7  100 283 
 NOR  SZ EP   1   1156 31.40                             118    -0.2 7  167 239 
 NOR  SN ES   2   1156 51.96                             118    -0.1 5  167 239 
 ZAR  HZ EP   1   1156 33.88                             114    -0.3 7  191 312 
 ZAR  HN ES   1   1156 56.93                             114     0.3 7  191 312 
 ZAR  HZ I        1157  1.96        38.9 0.24                           191 312 
 HEL  HZ EP   1   1156 38.29                             111     0.8 6  217 266 
 HEL  HN ES   1   1157  3.35                             111     0.7 6  217 266 
 HEL  HZ I        1157  6.17         9.0 0.21                           217 266 
 PRA  HZ EP   1   1156 49.58                             102    -0.1 5  325 207 
 PRA  HE ES   2   1157 24.88                             102     0.6 3  325 207 
                                                                                
