 2017  6 4 1927  2.5 L   6.772 -73.151146.0  RSN  7 0.4 1.7LRSN                1
 GAP=210        1.05       5.6     6.0  8.2  0.1630E+02 -0.1385E+02 -0.9515E+01E
 Epicentro: LOS SANTOS - SANTANDER                                             3
 ACTION:UPD 17-09-14 16:49 OP:jn   STATUS:               ID:20170604192702 L   I
 OLDACT:DUP 17-06-04 21:14 OP:dani STATUS:               ID:20170604192240d    3
 OLDACT:UP  17-06-04 21:09 OP:dani STATUS:               ID:20170604192239     3
 OLDACT:UP  17-06-04 21:07 OP:dani STATUS:               ID:20170604192239     3
 OLDACT:UP  17-06-04 21:07 OP:dani STATUS:               ID:20170604192239     3
 OLDACT:UP  17-06-04 21:06 OP:dani STATUS:               ID:20170604192239     3
 OLDACT:UP  17-06-04 20:27 OP:dani STATUS:               ID:20170604192239     3
 OLDACT:UP  17-06-04 20:26 OP:dani STATUS:               ID:20170604192239     3
 OLDACT:REG 17-06-04 20:25 OP:dani STATUS:               ID:20170604192239     3
 2017-06-04-1923-00M.COL___347                                                 6
 STAT SP IPHASW D HRMM SECON CODA AMPLIT PERI AZIMU VELO AIN AR TRES W  DIS CAZ7
 BRR  HZ EP       1927 23.98                             152    0.2610 72.3 301 
 BRR  HN ES       1927 40.73                             152    0.4410 72.3 301 
 BRR  HZ I        1927 44.06         9.7 0.42            149           72.3 301 
 RUS  HZ EP       1927 25.93                             145   -0.1210 97.5 176 
 RUS  HN ES       1927 44.06                             145   -0.3610 97.5 176 
 RUS  HZ I        1927 45.46         5.3 0.32            143           97.5 176 
 PTB  HZ EP       1927 28.75                             133   -0.63 9  147 260 
 PTB  HN ES       1927 49.83                             133   -0.52 9  147 260 
 PTB  HZ I        1927 53.65         5.2 0.24            129            147 260 
 SPBC HZ EP       1927 31.02                             130    0.27 9  160 220 
 SPBC HN ES       1927 53.20                             130    0.41 9  160 220 
 SPBC HZ I        1927 58.40        11.8 0.11            127            160 220 
 YPLC HZ EP       1927 32.25                             127    0.19 9  174 151 
 ZAR  HZ EP       1927 35.41                             123    0.39 9  205 293 
 ZAR  HN ES       1928  0.06                             123   -0.33 9  205 293 
 ZAR  HZ I        1928  5.58         6.6 0.38            121            205 293 
 NOR  HZ EP   9   1927 38.36                             119    0.37 0  232 235 
 NOR  HN ES       1928  6.83                             116    0.78 8  232 235 
 NOR  HZ I        1928 12.76         4.3 0.22            118            232 235 
                                                                                
