 2014  3 4 1544 27.5 L   6.799 -73.179146.3  RSN  4 0.2 1.4LRSN                1
 GAP=143        0.60       4.0     3.8  5.9 -0.2019E+01  0.9221E+01  0.2362E+01E
 Epicentro: LOS SANTOS - SANTANDER                                             3
 ACTION:UPD 14-04-09 23:14 OP:nd   STATUS:               ID:20140304154427 L   I
 OLDACT:REG 14-03-04 15:23 OP:stll STATUS:               ID:20140304153816     3
 2014-03-04-1538-16M.COL___238                                                 6
 STAT SP IPHASW D HRMM SECON CODA AMPLIT PERI AZIMU VELO AIN AR TRES W  DIS CAZ7
 BAR2 SZ ES       1545  2.83                             171    0.3410 22.8 181 
 BAR2 SZ I        1545  3.25         7.0 0.60            173           22.8 181 
 PAM  SN ES       1545  7.20                             150   -0.1610 79.8  41 
 PAM  SZ I        1545  9.51         3.3 0.26            150           79.8  41 
 RUS  HZ EP       1544 51.23                             144   -0.0410  101 174 
 RUS  HN ES       1545  9.70                             144   -0.1510  101 174 
 PTB  HZ EP       1544 54.39                             133    0.25 9  144 259 
 PTB  HN ES       1545 14.72                             133   -0.24 9  144 259 
 PTB  HZ I        1545 18.06         2.6 0.36            133            144 259 
                                                                                
