 2014  7 4 1731 13.3 L   6.806 -73.151136.0  RSN  5 0.4 1.4LRSN                1
 GAP=136        1.12       5.8     5.6  8.9 -0.3331E+01  0.6928E+01  0.4452E+01E
 Epicentro: LOS SANTOS - SANTANDER                                             3
 ACTION:UPD 15-03-16 20:41 OP:nd   STATUS:               ID:20140704173113 L   I
 OLDACT:REG 14-07-08 09:04 OP:spq  STATUS:               ID:20140704172819     3
 2014-07-04-1728-19M.COL___259                                                 6
 STAT SP IPHASW D HRMM SECON CODA AMPLIT PERI AZIMU VELO AIN AR TRES W  DIS CAZ7
 BAR2 SZ ES   1   1731 45.83                             170   -0.33 7 23.9 188 
 BAR2 SZ I        1731 47.88         4.9 0.16            171           23.9 188 
 BRR  HZ EP       1731 33.99                             151    0.6510 70.4 298 
 BRR  HN ES       1731 49.53                             151    0.5510 70.4 298 
 BRR  HZ I        1731 55.93         6.6 0.38            151           70.4 298 
 PAM  SZ EP       1731 34.51                             149    0.0510 77.2  40 
 PAM  SN ES       1731 50.51                             149   -0.4710 77.2  40 
 PAM  SZ I        1731 53.45         7.0 0.44            153           77.2  40 
 RUS  HZ EP       1731 36.28                             141    0.1410  101 176 
 RUS  HN ES       1731 54.18                             141    0.2110  101 176 
 RUS  HZ I        1731 56.03         3.6 0.40            147            101 176 
 PTB  HZ EP       1731 38.80                             130   -0.64 9  147 259 
 PTB  HN ES       1731 59.40                             130   -0.43 9  147 259 
 PTB  HZ I        1732  2.52         4.4 0.12            133            147 259 
                                                                                
