 2011 11 4 1602 24.0 L   6.784 -73.141137.3  RSN  4 0.1 1.5LRSN                1
 GAP=138        0.36       2.6     3.9  4.5 -0.1718E+01  0.2774E+01 -0.1848E+01E
 Epicentro: LOS SANTOS - SANTANDER                                             3
 ACTION:UPD 12-07-13 16:08 OP:ep   STATUS:               ID:20111104160224 L   I
 2011-11-04-1559-30S.COL___175                                                 6
 STAT SP IPHASW D HRMM SECON CODA AMPLIT PERI AZIMU VELO AIN AR TRES W  DIS CAZ7
 BAR2 SZ EP       16 2 42.42                             171   -0.1510 21.7 192 
 BAR2 SZ ES   2   16 2 56.91                             171   -0.15 5 21.7 192 
 BAR2 SZ I        16 2 59.61         6.2 0.38                          21.7 192 
 BRR  HZ EP       16 2 44.35                             150    0.0410 72.5 300 
 BRR  HE ES   2   16 3  0.23                             150    0.07 5 72.5 300 
 BRR  HZ I        16 3  6.48         6.7 0.68                          72.5 300 
 PAM  SZ EP       16 2 45.51                             149    0.1310 78.4  38 
 PAM  SN ES   1   16 3  1.99                             149   -0.07 7 78.4  38 
 RUS  HZ EP   2   16 2 46.59                             142   -0.20 5 98.8 176 
 RUS  HN ES   1   16 3  4.74                             142    0.18 7 98.8 176 
                                                                                
