 2011 10 4 1632 38.2 L   6.795 -73.135143.6  RSN  5 0.3 1.6LRSN                1
 GAP=138        0.67       4.7     5.0  8.6  0.5148E+01  0.5677E+01  0.4659E+01E
 Epicentro: LOS SANTOS - SANTANDER                                             3
 ACTION:UPD 12-07-13 16:01 OP:ep   STATUS:               ID:20111004163238 L   I
 2011-10-04-1630-08S.COL___171                                                 6
 STAT SP IPHASW D HRMM SECON CODA AMPLIT PERI AZIMU VELO AIN AR TRES W  DIS CAZ7
 BAR2 SZ EP   1   1632 57.53                             171   -0.02 7 23.0 193 
 BAR2 SZ I        1633 18.14         9.3 0.25                          23.0 193 
 BRR  HZ EP   1   1632 58.97                             152   -0.20 7 72.5 298 
 BRR  HN ES   1   1633 16.12                             152    0.58 7 72.5 298 
 BRR  HZ I        1633 18.15        14.7 0.17                          72.5 298 
 PAM  SZ EP   1   1633  0.29                             150    0.14 7 77.1  39 
 PAM  SZ I        1633  0.61         9.9 0.13                          77.1  39 
 PAM  SN ES   1   1633 17.04                             150   -0.24 7 77.1  39 
 RUS  HZ EP   1   1633  2.04                             144    0.37 7 99.9 177 
 RUS  HN ES   1   1633 19.66                             144   -0.33 7 99.9 177 
 RUS  HZ I        1633 21.79         3.4 0.17                          99.9 177 
 ZAR  HE ES   1   1633 35.52                             122   -0.40 6  205 292 
                                                                                
