 2013  9 4 1154 18.9 L   6.328 -73.673114.7  RSN  5 0.5 1.5LRSN                1
 GAP= 84        1.10       7.4     6.1 13.6 -0.2903E+01 -0.2666E+02 -0.1721E+02E
 Epicentro: SANTA HELENA DEL OPON - SANTANDER                                  3
 ACTION:UPD 13-10-22 09:20 OP:ep   STATUS:               ID:20130904115418 L   I
 OLDACT:UP  13-09-04 19:19 OP:mh   STATUS:               ID:20130904114959     3
 OLDACT:UP  13-09-04 19:14 OP:mh   STATUS:               ID:20130904114959     3
 OLDACT:REG 13-09-04 14:33 OP:mh   STATUS:               ID:20130904114959     3
 2013-09-04-1149-59M.COL___269                                                 6
 STAT SP IPHASW D HRMM SECON CODA AMPLIT PERI AZIMU VELO AIN AR TRES W  DIS CAZ7
 BAR2 SZ EP       1154 36.77                             150    0.3110 61.7  62 
 BAR2 SZ ES   1   1154 50.16                             150   -0.04 7 61.7  62 
 BAR2 SZ I        1154 51.18        17.4 0.56            132           61.7  62 
 RUS  HZ EP       1154 37.46                             143   -0.6810 81.1 126 
 RUS  HN ES   4   1154 51.12                             143   -2.07 0 81.1 126 
 RUS  HZ I        1154 52.58         1.6 0.26            130           81.1 126 
 BRR  HZ EP   1   1154 38.58                             140    0.73 7 86.3 357 
 BRR  HZ I        1154 55.87        10.7 0.28                          86.3 357 
 SPBC HN ES       1154 53.39                             140    0.4410 86.8 211 
 SPBC HN I        1154 57.69        12.4 0.26            124           86.8 211 
 PTB  HZ EP   1   1154 38.08                             139   -0.06 7 89.7 285 
 PTB  HN ES       1154 52.76                             139   -0.4210 89.7 285 
 PTB  HZ I        1154 56.16         6.3 0.12            118           89.7 285 
                                                                                
