 2016  5 4 1136 22.7 L   6.761 -73.160148.0  RSN  4 0.4 1.4LRSN                1
 GAP=233        0.98       8.8     7.7  8.4  0.3678E+02  0.1021E+02  0.1194E+02E
 Epicentro: LOS SANTOS - SANTANDER                                             3
 ACTION:UPD 16-08-18 17:41 OP:cam  STATUS:               ID:20160504113622 L   I
 OLDACT:DUP 16-05-04 21:46 OP:dnl  STATUS:               ID:20160504112744d    3
 2016-05-04-1127-43M.COL___294                                                 6
 STAT SP IPHASW D HRMM SECON CODA AMPLIT PERI AZIMU VELO AIN AR TRES W  DIS CAZ7
 BAR2 EZ EP       1136 42.48                             172   -0.0410 18.8 187 
 BAR2 EZ ES       1136 57.26                             172   -0.7110 18.8 187 
 BAR2 EZ I        1136 58.83         5.7 0.20            174           18.8 187 
 BRR  HZ EP   3   1136 44.26                             153    0.13 2 72.0 302 
 BRR  HN ES       1137  1.41                             153    0.5610 72.0 302 
 BRR  HZ I        1137  5.82        10.8 0.28            152           72.0 302 
 RUS  HZ EP       1136 46.55                             145    0.1710 96.4 175 
 RUS  HN ES       1137  5.22                             145    0.3710 96.4 175 
 RUS  HZ I        1137  6.08         2.4 0.22            149           96.4 175 
 PTB  HZ EP       1136 49.32                             133   -0.32 9  145 260 
 PTB  HN ES       1137 10.55                             133   -0.10 9  145 260 
 PTB  HZ I        1137 12.69         3.0 0.14            134            145 260 
                                                                                
