 2017 11 4 1435 49.0 L   7.412 -73.295122.6  RSN 11 0.6 1.9LRSN                1
 GAP=134        0.82       4.1     3.3  5.7  0.6445E+00  0.6855E+01  0.2167E+01E
 Epicentro: EL PLAYON - SANTANDER                                              3
 ACTION:UPD 17-12-12 19:51 OP:rebc STATUS:               ID:20171104143549 L   I
 OLDACT:UP  17-11-05 00:07 OP:mg   STATUS:               ID:20171104142738     3
 OLDACT:UP  17-11-05 00:07 OP:mg   STATUS:               ID:20171104142738     3
 OLDACT:UP  17-11-05 00:06 OP:mg   STATUS:               ID:20171104142738     3
 OLDACT:REG 17-11-04 20:32 OP:mg   STATUS:               ID:20171104142738     3
 2017-11-04-1428-00M.COL___423                                                 6
 STAT SP IPHASW D HRMM SECON CODA AMPLIT PERI AZIMU VELO AIN AR TRES W  DIS CAZ7
 BRR  HZ EP       1436  6.81                             154   -0.0610 57.1 234 
 BRR  HN ES       1436 20.65                             154   -0.1510 57.1 234 
 BRR  HZ I        1436 21.51        57.3 0.16            148           57.1 234 
 PAM  EZ EP       1436  8.26                             150    0.1510 66.2  97 
 PAM  EN ES       1436 23.11                             150    0.1110 66.2  97 
 PAM  EZ I        1436 24.06        15.4 0.18            151           66.2  97 
 BAR2 EZ IP     C 1436  9.74                             141    0.2410 91.5 172 
 BAR2 EZ ES       1436 25.53                             141    0.0510 91.5 172 
 PTB  HZ EP       1436 15.16                             124   -0.33 9  161 233 
 PTB  HN ES   2   1436 35.72                             124   -0.42 5  161 233 
 PTB  HZ I        1436 38.08         7.0 0.16            121            161 233 
 RUS  HZ EP   2   1436 16.62                             122   -0.43 5  170 172 
 RUS  HN ES       1436 38.41                             122   -0.50 9  170 172 
 RUS  HZ I        1436 41.90         5.4 0.24            120            170 172 
 ZAR  HZ EP   2   1436 16.91                             121    0.18 4  173 273 
 ZAR  HN ES       1436 38.78                             121    0.43 9  173 273 
 ZAR  HZ I        1436 42.92        10.9 0.20            120            173 273 
 SPBC HZ EP   1   1436 21.53                             116    0.40 6  213 204 
 SPBC HN ES   2   1436 46.06                             116   -0.12 4  213 204 
 SPBC HZ I        1436 53.61         7.5 0.17            114            213 204 
 NOR  HZ EP   2   1436 27.37                             110    0.01 4  269 221 
 NOR  HN ES       1436 56.83                             110   -0.44 8  269 221 
 NOR  HZ I        1437  3.72         5.9 0.16            108            269 221 
 GUY2CHZ EP   2   1436 36.89                             105    1.49 3  333 224 
 GUY2CHE ES   3   1437 14.89                             105    3.31 2  333 224 
 GUY2CHZ I        1437 20.59         2.4 0.54                           333 224 
 SJC  HZ EP   2   1436 34.93                             104   -1.27 3  344 323 
 SJC  HN ES   4   1437  7.97                             104   -5.02 0  344 323 
 SJC  HZ I        1437 11.92         1.2 0.17            104            344 323 
 PRA  HZ EP   2   1436 50.07                             100    1.85 3  445 203 
 PRA  HN ES   4   1437 37.50                             100    3.11 0  445 203 
 PRA  HZ I        1437 42.34         2.4 0.28             99            445 203 
                                                                                
