 2016  1 4 1848 17.6 L   5.947 -73.769112.6  RSN  4 0.4 1.9LRSN                1
 GAP=184        0.92       5.8     4.8  8.2 -0.1457E+02  0.6590E+00 -0.2245E+01E
 Epicentro: SUCRE - SANTANDER                                                  3
 ACTION:UPD 16-03-09 23:22 OP:cam  STATUS:               ID:20160104184817 L   I
 OLDACT:REG 16-01-04 22:10 OP:ar   STATUS:               ID:20160104184749     3
 2016-01-04-1847-49M.COL___335                                                 6
 STAT SP IPHASW D HRMM SECON CODA AMPLIT PERI AZIMU VELO AIN AR TRES W  DIS CAZ7
 SPBC HZ EP       1848 33.67                             156   -0.2610 46.8 226 
 SPBC HN ES       1848 46.34                             156   -0.3410 46.8 226 
 SPBC HZ I        1848 47.06        25.5 0.44            157           46.8 226 
 BAR2 EZ EP       1848 37.71                             137    0.1710 96.4  42 
 BAR2 EZ ES       1848 53.40                             137    0.2910 96.4  42 
 BAR2 EZ I        1848 54.72        26.8 0.36            137           96.4  42 
 PTB  HZ EP       1848 37.10                             135   -0.4710  100 311 
 PTB  HE ES       1848 53.08                             135   -0.0810  100 311 
 PTB  HZ I        1848 53.81         9.0 0.12            136            100 311 
 NOR  HZ EP       1848 40.31                             127    0.0610  129 251 
 NOR  HE ES       1848 58.63                             127    0.6910  129 251 
 NOR  HZ I        1849  0.02        18.1 0.18            128            129 251 
                                                                                
