 2017  6 4 1928 15.9 L   6.325 -74.144 67.7  RSN 17 0.6 2.4LRSN                1
 GAP= 83        1.02       2.3     2.6  5.8  0.1069E+01  0.1961E+01  0.8627E+00E
 Epicentro: CIMITARRA - SANTANDER                                              3
 ACTION:UPD 17-09-14 16:49 OP:jn   STATUS:               ID:20170604192815 L   I
 OLDACT:UP  17-06-04 21:09 OP:dani STATUS:               ID:20170604192239     3
 OLDACT:UP  17-06-04 21:07 OP:dani STATUS:               ID:20170604192239     3
 OLDACT:UP  17-06-04 21:07 OP:dani STATUS:               ID:20170604192239     3
 OLDACT:UP  17-06-04 21:06 OP:dani STATUS:               ID:20170604192239     3
 OLDACT:UP  17-06-04 20:27 OP:dani STATUS:               ID:20170604192239     3
 OLDACT:UP  17-06-04 20:26 OP:dani STATUS:               ID:20170604192239     3
 OLDACT:REG 17-06-04 20:25 OP:dani STATUS:               ID:20170604192239     3
 2017-06-04-1923-00M.COL___347                                                 6
 STAT SP IPHASW D HRMM SECON CODA AMPLIT PERI AZIMU VELO AIN AR TRES W  DIS CAZ7
 PTB  HZ EP     C 1928 26.73                             145   -0.3110 41.9 304 
 PTB  HN ES       1928 36.31                             145    0.6110 41.9 304 
 PTB  HZ I        1928 36.65        71.7 0.40            145           41.9 304 
 SPBC HZ EP       1928 29.36                             127   -0.6410 74.8 174 
 SPBC HN ES       1928 40.51                             127   -0.4710 74.8 174 
 BRR  HZ EP     D 1928 32.84                             118    0.4610 98.7  29 
 BRR  HE ES   3   1928 47.12                             118    1.91 2 98.7  29 
 BRR  HZ I        1928 48.54        73.5 0.14            114           98.7  29 
 NOR  HZ EP   9   1928 32.89                             113   -1.52 0  116 224 
 NOR  HN ES       1928 47.27                             116   -0.0410  116 224 
 RUS  HZ EP       1928 35.80                             112   -0.3510  127 112 
 RUS  HN ES       1928 52.16                             112    0.2510  127 112 
 RUS  HZ I        1928 57.44        17.1 0.18            107            127 112 
 ZAR  HZ EP       1928 38.45                             107    0.05 9  151 329 
 ZAR  HE ES   3   1928 57.07                             107    1.15 2  151 329 
 ZAR  HZ I        1928 59.99        57.8 0.12            105            151 329 
 HEL  HZ EP   3   1928 38.10                             107   -1.07 2  154 265 
 HEL  HE ES       1928 56.79                             107   -0.50 9  154 265 
 HEL  HZ I        1929  0.12        40.5 0.24            105            154 265 
 ROSC BN EP       1928 40.59                             106    0.04 9  165 187 
 ROSC BE ES       1928 59.37                             106   -0.38 9  165 187 
 ROSC BN I        1929  3.59        64.1 0.34            103            165 187 
 ELA  HZ EP       1928 46.79                             101    0.29 8  214 221 
 ELA  HE ES       1929 10.73                             101    0.38 8  214 221 
 ELA  HZ I        1929 14.08        39.4 0.28             99            214 221 
 URE  HZ EP   3   1928 45.08                             101   -1.58 2  220 316 
 URE  HN ES       1929  9.66                             101   -0.97 8  220 316 
 URE  HZ I        1929 11.40        49.9 0.13             99            220 316 
 YPLC HE ES   3   1929 10.07                             101   -0.81 2  221 118 
 YPLC HZ I        1929 19.01        46.1 0.32             98            221 118 
 DBB  EZ EP       1928 49.81                             100    0.53 8  241 289 
 DBB  EN ES   3   1929 16.31                             100    1.02 2  241 289 
 DBB  EZ I        1929 19.41         9.0 0.16             98            241 289 
 ANIL HZ EP       1928 50.49                              99    0.31 8  246 215 
 ANIL HE ES       1929 17.26                              99    0.37 8  246 215 
 VIL  EZ EP   3   1928 51.94                              99    1.52 2  250 168 
 VIL  EN ES   4   1929 21.21                              99    3.90 0  250 168 
 VIL  EZ I        1929 26.32        20.3 0.34             97            250 168 
 ORTC HZ EP       1928 55.78                              97    0.10 7  294 205 
 ORTC HN ES       1929 27.60                              97    0.91 7  294 205 
 ORTC HZ I        1929 29.06         7.2 0.22             96            294 205 
 APAC HZ EP       1928 58.52                              97   -0.38 7  321 303 
 APAC HE ES       1929 32.59                              97    0.17 7  321 303 
 APAC HZ I        1929 35.35        16.9 0.32             95            321 303 
 SJC  HZ EP   3   1929  8.78                              95   -1.33 1  411 344 
 SJC  HN ES   4   1929 50.04                              95   -2.33 0  411 344 
 SJC  HZ I        1929 53.84         4.7 0.39             94            411 344 
                                                                                
