 2017  8 4 1018 38.9 L   6.705 -73.063145.3  RSN  6 0.5 1.3LRSN                1
 GAP=152        1.12       5.8     5.9  7.6 -0.1800E+01  0.1013E+02 -0.2465E+01E
 Epicentro: JORDAN - SANTANDER                                                 3
 ACTION:UPD 17-09-04 20:16 OP:rebc STATUS:               ID:20170804101838 L   I
 OLDACT:REG 17-08-04 20:36 OP:y    STATUS:               ID:20170804101740     3
 2017-08-04-1018-00M.COL___360                                                 6
 STAT SP IPHASW D HRMM SECON CODA AMPLIT PERI AZIMU VELO AIN AR TRES W  DIS CAZ7
 BAR2 EZ EP       1018 57.74                             172   -0.6510 18.1 227 
 BAR2 EZ ES       1019 13.33                             172   -0.2510 18.1 227 
 BAR2 EZ I        1019 15.72         4.3 0.16            173           18.1 227 
 PAM  EZ IP     D 1019  1.99                             150    0.7010 80.9  30 
 PAM  EN ES       1019 18.46                             150   -0.2810 80.9  30 
 PAM  EZ I        1019 21.41         4.3 0.50            147           80.9  30 
 BRR  HZ EP       1019  1.03                             148    0.2210 84.4 302 
 BRR  HZ I        1019 17.98         4.8 0.63            146           84.4 302 
 BRR  HN ES       1019 18.08                             148    0.1910 84.4 302 
 RUS  HZ EP       1019  1.34                             147   -0.5310 89.8 181 
 RUS  HN ES       1019 20.34                             147    0.5710 89.8 181 
 RUS  HZ I        1019 23.01         3.6 0.23            146           89.8 181 
 PTB  HZ EP       1019  6.28                             130   -0.25 9  155 263 
 PTB  HE ES       1019 28.37                             130    0.31 9  155 263 
 PTB  HZ I        1019 31.88         1.0 0.30            128            155 263 
 ZAR  HZ EP       1019 12.75                             121    0.11 8  217 294 
 ZAR  HE ES   3   1019 36.79                             121   -2.15 2  217 294 
 ZAR  HZ I        1019 38.63         1.3 0.08            118            217 294 
                                                                                
