 2011  7 4 1012 35.0 L   6.776 -73.129140.9  RSN 16 0.3 2.5LRSN                1
 GAP=116        0.53       1.7     2.5  3.1 -0.1146E+01  0.9265E+00  0.1252E+01E
 Epicentro: LOS SANTOS - SANTANDER                                             3
 ACTION:UPD 12-07-25 13:58 OP:epov STATUS:               ID:20110704101235 L   I
 2011-07-04-1000-00M.COL___124                                                 6
 STAT SP IPHASW D HRMM SECON CODA AMPLIT PERI AZIMU VELO AIN AR TRES W  DIS CAZ7
 BAR2 SZ EP       1012 53.95                             171   -0.0310 21.2 196 
 BAR2 SZ ES   1   1013  8.71                             171   -0.09 7 21.2 196 
 BAR2 SZ I        1013 10.34       115.5 0.26                          21.2 196 
 GIR2 SZ EP       1012 54.12                             166   -0.0410 34.2 348 
 BRR  HZ IP     C 1012 55.86                             151    0.0810 74.1 300 
 BRR  HZ I        1012 56.34       110.6 0.03                          74.1 300 
 BRR  HN ES       1013 12.53                             151    0.5310 74.1 300 
 PAM  SZ EP       1012 56.78                             150    0.0410 78.3  37 
 PAM  SZ I        1012 57.15        52.7 0.15                          78.3  37 
 PAM  SN ES   1   1013 13.66                             150   -0.04 7 78.3  37 
 RUS  HZ EP   1   1012 57.78                             144   -0.28 7 97.8 177 
 RUS  HE ES   1   1013 15.94                             144   -0.11 7 97.8 177 
 RUS  HZ I        1013 17.75        45.0 0.28                          97.8 177 
 BRI  SZ EP       1012 58.51                             140   -0.0410  110  19 
 GRA  SZ IP       1012 59.86                             135   -0.1010  128  16 
 GRA  SZ ES       1013 19.30                             135   -0.1510  128  16 
 GRA  SZ I        1013 20.60        57.8 0.46                           128  16 
 OCA  SZ EP   1   1013  3.13                             128   -0.06 7  163 353 
 OCA  SZ ES   1   1013 24.86                             128   -0.33 7  163 353 
 OCA  SZ I        1013 28.51        43.0 0.14                           163 353 
 YOP  SZ EP       1013  4.81                             126    0.45 9  176 153 
 YOP  SN ES   2   1013 27.28                             126    0.01 4  176 153 
 YOP  SZ I        1013 31.94        15.0 0.16                           176 153 
 NOR  SZ EP   1   1013 10.46                             117    0.03 6  235 235 
 NOR  SN ES   1   1013 37.43                             117   -0.66 6  235 235 
 CHI  HZ EP   1   1013 12.42                             116    0.23 6  247 196 
 CHI  HE ES   1   1013 41.10                             116   -0.11 6  247 196 
 CHI  HZ I        1013 49.45        13.1 0.33                           247 196 
 HEL  HZ EP   1   1013 14.72                             114   -0.36 6  273 256 
 HEL  HN ES   2   1013 46.08                             114   -0.28 4  273 256 
 RREF HZ EP   2   1013 20.95                             110    0.07 3  321 230 
 DBB  SZ EP   1   1013 22.87                             108    0.37 5  342 275 
 TOL  SZ EP   1   1013 23.42                             108    0.44 5  343 225 
 PRA  HZ EP   1   1013 28.00                             106   -0.18 4  391 210 
 PRA  HE ES   1   1014  9.54                             106   -0.13 4  391 210 
                                                                                
