 2016  7 4 1108 22.7 L   6.761 -73.132137.5  RSN 11 0.4 1.9LRSN                1
 GAP=140        0.95       3.4     3.5  5.2 -0.1846E+01  0.6582E+01  0.2815E+01E
 Epicentro: LOS SANTOS - SANTANDER                                             3
 ACTION:UPD 17-03-29 16:46 OP:lp   STATUS:               ID:20160704110822 L   I
 OLDACT:REG 16-07-04 19:58 OP:edw  STATUS:               ID:20160704110743     3
 2016-07-04-1107-43M.COL___307                                                 6
 STAT SP IPHASW D HRMM SECON CODA AMPLIT PERI AZIMU VELO AIN AR TRES W  DIS CAZ7
 BAR2 EZ EP       11 8 41.08                             171   -0.1610 19.5 197 
 BAR2 EZ ES       11 8 55.80                             171    0.0810 19.5 197 
 BAR2 EZ I        11 8 57.03        30.6 0.11            172           19.5 197 
 BRR  HZ EP       11 8 42.95                             150   -0.1910 74.6 301 
 BRR  HN ES       11 8 59.71                             150    0.6010 74.6 301 
 PAM  EZ EP       11 8 44.08                             149   -0.0910 79.8  37 
 PAM  EN ES       11 9  0.87                             149   -0.0710 79.8  37 
 PAM  EZ I        11 9  3.32        23.9 0.48            150           79.8  37 
 RUS  HZ EP       11 8 45.35                             143    0.0510 96.2 177 
 RUS  HE ES       11 9  3.09                             143    0.1410 96.2 177 
 RUS  HZ I        11 9  4.47        10.0 0.22            146           96.2 177 
 PTB  HZ EP       11 8 48.12                             130   -0.93 9  148 261 
 PTB  HN ES       11 9  9.50                             130   -0.12 9  148 261 
 PTB  HZ I        11 9 11.95         9.8 0.18            130            148 261 
 SPBC HZ EP       11 8 50.09                             128   -0.24 9  161 220 
 SPBC HN ES       11 9 11.85                             128   -0.05 9  161 220 
 ZAR  HZ EP       11 8 55.24                             120    0.32 8  207 293 
 ZAR  HN ES       11 9 19.82                             120   -0.24 8  207 293 
 ZAR  HZ I        11 9 25.87        11.3 0.20            120            207 293 
 NOR  HN ES       11 9 25.23                             117    0.02 8  233 236 
 HEL  HZ EP       11 9  3.37                             113    0.84 8  273 257 
 HEL  HN ES       11 9 33.09                             113   -0.53 8  273 257 
 HEL  HZ I        11 9 41.89         3.4 0.24            114            273 257 
 URE  HZ EP   4   11 9  3.06                             112   -0.64 0  287 293 
 URE  HE ES   4   11 9 32.00                             112   -3.69 0  287 293 
 GUY2CHZ EP       11 9  6.37                             111    0.59 7  300 236 
 GUY2CHN ES       11 9 39.91                             111    0.51 7  300 236 
 GUY2CHZ I        11 9 47.69         4.4 0.48                           300 236 
 PRA  HZ EP       11 9 16.12                             105    0.54 6  389 210 
 PRA  HN ES       11 9 56.28                             105   -0.56 6  389 210 
 SJC  HZ EP   4   11 9 16.07                             104   -2.43 0  414 327 
 SJC  HE ES   4   11 9 56.43                             104   -5.61 0  414 327 
                                                                                
