 2011  4 4 1611 33.8 L   6.830 -73.004144.1  RSN  7 0.3 1.6LRSN                1
 GAP=168        0.64       5.1     8.4  7.2 -0.7578E+01 -0.2525E+02 -0.1386E+01E
 Epicentro: CEPITA - SANTANDER                                                 3
 ACTION:UP  11-06-22 15:28 OP:REBC STATUS:               ID:20110404161134 L   I
 2011-04-04-1600-00M.COL___139                                                 6
 STAT SP IPHASW D HRMM SECON CODA AMPLIT PERI AZIMU VELO SNR AR TRES W  DIS CAZ7
 BTL  SZ EP       1611 53.81                             166     0.410   31 289 
 BTL  SZ ES   3   1612  9.02                             166     0.3 2   31 289 
 BAR2 SZ EP       1611 53.54                             164     0.010   33 217 
 BAR2 SZ ES   1   1612  8.47                             164    -0.4 7   33 217 
 BAR2 SZ I        1612  9.93        17.9 0.08                            33 217 
 GIR2 SZ EP   3   1611 53.67                                     0.3 2   35 323 
 GIR2 SZ ES   3   1612  8.60                                    -0.1 2   35 323 
 PAM  SZ EP   2   1611 55.52                             155     0.3 5   66  31 
 BRR  HZ EP       1611 55.78                             146     0.210   84 291 
 BRR  HN ES   1   1612 12.36                             146    -0.2 7   84 291 
 GRA  SZ EP       1611 58.04                             138    -0.310  119  11 
 GRA  SZ I        1612 19.09         6.5 0.00                           119  11 
 CHI  HZ EP   2   1612 11.47                                    -0.8 4  256 198 
 CHI  HZ I        1612 12.99         1.6 0.20                           256 198 
 CHI  HN ES   2   1612 42.41                                     0.1 4  256 198 
                                                                                
