 2017 11 4 1452 35.1 L   6.654 -74.080  9.9  RSN  6 0.3 1.0LRSN                1
 GAP= 95        0.62       1.8     1.3  7.3 -0.1928E+00 -0.4340E+00  0.3252E+01E
 Epicentro: PUERTO PARRA - SANTANDER                                           3
 ACTION:UPD 17-12-12 19:51 OP:rebc STATUS:               ID:20171104145235 L   I
 OLDACT:REG 17-11-04 20:34 OP:mg   STATUS:               ID:20171104144739     3
 2017-11-04-1448-00M.COL___423                                                 6
 STAT SP IPHASW D HRMM SECON CODA AMPLIT PERI AZIMU VELO AIN AR TRES W  DIS CAZ7
 PTB  HZ IP     D 1452 42.24                              99   -0.1210 43.5 253 
 PTB  HN ES       1452 48.06                              99    0.0310 43.5 253 
 PTB  HZ I        1452 48.26         7.5 0.14             47           43.5 253 
 BRR  HZ EP       1452 45.54                              96    0.0310 64.5  39 
 BRR  HE ES       1452 53.80                              96    0.1710 64.5  39 
 BRR  HZ I        1452 56.09        18.6 0.35             47           64.5  39 
 BAR2 EZ EP       1452 50.77                              94   -0.2710 99.5  94 
 BAR2 EZ ES   2   1453  2.81                              94   -0.66 5 99.5  94 
 BAR2 EZ I        1453  4.74         3.5 0.41             47           99.5  94 
 ZAR  HN ES       1453 10.21                              93   -0.0910  126 317 
 ZAR  HZ I        1453 14.80         3.1 0.30             47            126 317 
 RUS  HZ EP       1452 57.77                              93    0.53 9  139 127 
 RUS  HN ES   1   1453 14.42                              93   -0.10 7  139 127 
 RUS  HZ I        1453 17.22         2.3 0.22             47            139 127 
 GUY2CHZ EP   2   1453  6.59                              56   -0.41 4  213 222 
 GUY2CHE ES   2   1453 32.13                              56    0.23 4  213 222 
 GUY2CHZ I        1453 36.15         1.2 0.30                           213 222 
                                                                                
