 2012  7 4 1341 23.2 L   6.777 -73.216149.5  RSN  5 0.3 1.2LRSN                1
 GAP=226        0.77       8.0     7.3  9.0  0.3649E+02  0.2290E+01 -0.2196E+01E
 Epicentro: ZAPATOCA - SANTANDER                                               3
 ACTION:UPD 12-08-14 11:42 OP:ep   STATUS:               ID:20120704134123 L   I
 2012-07-04-1335-59S.COL___215                                                 6
 STAT SP IPHASW D HRMM SECON CODA AMPLIT PERI AZIMU VELO AIN AR TRES W  DIS CAZ7
 BAR2 SZ EP   1   1341 42.74                             172    -0.5 7   21 170 
 BAR2 SZ ES   2   1341 58.84                             172    -0.1 5   21 170 
 BAR2 SZ I        1341 58.85         4.0 0.27            149             21 170 
 BRR  HZ EP   1   1341 45.07                             155     0.6 7   66 304 
 BRR  HN ES   1   1342  1.20                             155     0.1 7   66 304 
 RUS  HZ EP   1   1341 47.49                             145     0.2 7   99 171 
 RUS  HN ES   1   1342  5.86                             145    -0.1 7   99 171 
 RUS  HZ IPn      1342  7.38                                             99 171 
 RUS  HZ I        1342  7.96         1.6 0.27            120             99 171 
 PTB  HZ EP   1   1341 49.67                             134    -0.1 7  140 259 
 PTB  HN ES   1   1342 10.73                             134     0.2 7  140 259 
 PTB  HZ I        1342 13.72         3.1 0.22            118            140 259 
 ZAR  HN ES   1   1342 19.89                             124    -0.4 6  198 294 
