 2010  5 4 1811 25.0 L   6.743 -73.024145.0  RSN  6 0.5 2.1LRSN                1
 GAP=188        0.83       6.6    14.4 10.5 -0.6094E+02 -0.4425E+02  0.3257E+02E
 Epicentro: CEPITA - SANTANDER                                                 3
 ACTION:UP  10-08-24 10:02 OP:vdl  STATUS:               ID:20100504181125 L   I
 2010-05-04-1808-27S.COL___105                                                 6
 STAT SP IPHASW D HRMM SECON CODA AMPLIT PERI AZIMU VELO SNR AR TRES W  DIS CAZ7
 BAR2 SZ EP   1   1811 44.29                             170    -0.3 7   24 227 
 BAR2 SZ ES   2   1811 59.45                             170    -0.4 5   24 227 
 BRR  HZ EP   1   1811 46.80                             147    -0.2 7   86 298 
 BRR  HZ I        1811 47.07        42.6 0.16                            86 298 
 BRR  HE ES   2   1812  4.34                             147     0.2 5   86 298 
 GUE  SZ EP   1   1811 49.23                             138    -0.8 7  121   5 
 GUE  SZ ES   2   1812  9.79                             138     0.3 5  121   5 
 GRA  SZ EP   1   1811 51.04                             136     0.6 7  129  11 
 GRA  SZ ES   2   1812 10.86                             136     0.6 5  129  11 
 CHI  HZ EP   1   1812  2.26                             117    -0.2 6  246 199 
 CHI  HN ES   2   1812 32.46                             117     0.8 4  246 199 
 CHI  HZ I        1812 37.55         3.6 0.41                           246 199 
 PRA  HZ EP   1   1812 19.06                             106     0.4 4  393 212 
 PRA  HE ES   2   1813  0.71                             106     0.2 3  393 212 
 PRA  HZ I        1813  3.49         4.2 0.12                           393 212 
                                                                                
