 2016  8 4 1750 46.5 L   6.799 -73.147146.0  RSN  8 0.3 1.7LRSN                1
 GAP=136        0.72       2.8     3.5  4.4 -0.4509E+00  0.4945E+01  0.2052E+01E
 Epicentro: LOS SANTOS - SANTANDER                                             3
 ACTION:UPD 16-10-29 15:32 OP:rebc STATUS:               ID:20160804174734 L   I
 OLDACT:UPD 16-08-04 23:10 OP:AR   STATUS:               ID:20160804174734 L   3
 2016-08-04-1748-00M.COL___329                                                 6
 STAT SP IPHASW D HRMM SECON CODA AMPLIT PERI AZIMU VELO AIN AR TRES W  DIS CAZ7
 BAR2 EZ EP       1751  6.00                             170   -0.1710 23.2 190 
 BAR2 EZ ES       1751 21.13                             170   -0.3710 23.2 190 
 BRR  HZ EP       1751  7.85                             152    0.1610 71.2 299 
 BRR  HN ES       1751 24.49                             152    0.2910 71.2 299 
 BRR  HZ I        1751 27.72        11.3 0.42                          71.2 299 
 PAM  EZ EP       1751  8.95                             151    0.1810 77.6  40 
 PAM  EN ES       1751 25.76                             151   -0.3610 77.6  40 
 PAM  EZ I        1751 28.35         8.6 0.24                          77.6  40 
 RUS  HZ EP       1751 10.36                             144    0.0810  100 176 
 RUS  HN ES       1751 29.17                             144    0.3610  100 176 
 RUS  HZ I        1751 29.69         6.4 0.26                           100 176 
 SPBC HZ EP       1751 15.32                             129    0.30 9  163 219 
 SPBC HN ES       1751 37.29                             129    0.05 9  163 219 
 SPBC HZ I        1751 39.36        14.4 0.10                           163 219 
 ZAR  HZ EP       1751 19.17                             122    0.20 9  204 292 
 ZAR  HN ES       1751 43.99                             122   -0.30 9  204 292 
 ZAR  HZ I        1751 50.15         4.2 0.34                           204 292 
 GUY2CHZ EP   2   1751 30.13                             112    0.01 4  301 235 
 GUY2CHN ES   2   1752  4.57                             112    0.44 4  301 235 
 GUY2CHZ I        1752 12.06         2.3 0.28                           301 235 
 PRA  HZ EP       1751 39.37                             106   -0.66 6  392 210 
 PRA  HN ES       1752 21.09                             106   -0.67 6  392 210 
                                                                                
