 2013  4 4 1612  5.5 L   6.808 -73.129145.5  RSN 10 0.5 2.1LRSN                1
 GAP=190        0.97       5.0     6.2  7.4  0.5731E+01  0.1188E+02  0.1105E+02E
 Epicentro: LOS SANTOS - SANTANDER                                             3
 ACTION:UPD 13-05-22 14:35 OP:EP   STATUS:               ID:20130404161205 L   I
 2013-04-04-1610-00M.COL___245                                                 6
 STAT SP IPHASW D HRMM SECON CODA AMPLIT PERI AZIMU VELO AIN AR TRES W  DIS CAZ7
 BAR2 SZ EP       1612 25.18                             170    0.0810 24.6 194 
 BAR2 SZ ES   1   1612 39.77                             170   -0.63 7 24.6 194 
 BAR2 SZ I        1612 41.80        56.8 0.18            161           24.6 194 
 GIR2 SZ EP   1   1612 25.03                             167   -0.07 7 30.8 347 
 GIR2 SZ ES   2   1612 39.89                             167   -0.52 5 30.8 347 
 BRR  HZ IP     C 1612 27.01                             152    0.3510 72.4 297 
 BRR  HE ES   1   1612 44.29                             152    1.10 7 72.4 297 
 BRR  HZ I        1612 46.68        18.9 0.14            146           72.4 297 
 RUS  HZ EP   1   1612 29.31                             144    0.05 7  101 177 
 RUS  HN ES   1   1612 48.14                             144    0.34 7  101 177 
 RUS  HZ I        1612 48.96        15.0 0.28            142            101 177 
 PTB  HZ EP       1612 31.79                             132   -0.81 9  150 259 
 PTB  HN ES   1   1612 52.96                             132   -0.80 7  150 259 
 PTB  HZ I        1612 59.12        15.7 0.36            128            150 259 
 ZAR  HZ EP   2   1612 37.71                             122   -0.33 4  205 292 
 ZAR  HN ES   1   1613  3.50                             122    0.05 6  205 292 
 ZAR  HZ I        1613  9.39        13.9 0.36            121            205 292 
 CTAB SZ EP   2   1612 42.06                             119    0.67 4  232 211 
 CTAB SZ ES   2   1613  8.53                             119   -0.87 4  232 211 
 NOR  HZ EP   1   1612 41.56                             118    0.16 6  237 235 
 NOR  HN ES   1   1613 10.06                             118    0.63 6  237 235 
 NOR  HZ I        1613 18.39         8.4 0.32            117            237 235 
 CHI  HZ EP   1   1612 43.38                             117    0.08 6  250 196 
 CHI  HN ES   1   1613 12.81                             117    0.00 6  250 196 
 CHI  HZ I        1613 17.88         7.2 0.28            117            250 196 
 PRA  HZ EP   1   1612 59.09                             106   -0.09 4  394 210 
 PRA  HE ES   1   1613 41.68                             106    0.61 4  394 210 
 PRA  HZ I        1613 47.63         6.6 0.28            107            394 210 
                                                                                
