 2012 11 4 1024 23.4 L   6.788 -73.121146.0  RSN  9 0.4 2.1LRSN                1
 GAP=140        0.91       3.2     4.8  5.8  0.1051E+01  0.7586E+01  0.4456E+01E
 Epicentro: LOS SANTOS - SANTANDER                                             3
 ACTION:UPD 12-12-05 15:31 OP:}ep  STATUS:               ID:20121104102423 L   I
 2012-11-04-1020-00M.COL___229                                                 6
 STAT SP IPHASW D HRMM SECON CODA AMPLIT PERI AZIMU VELO AIN AR TRES W  DIS CAZ7
 BAR2 SZ EP       1024 43.05                             171   -0.0210 22.7 197 
 BAR2 SZ ES       1024 58.00                             171   -0.3910 22.7 197 
 BAR2 SZ I        1024 59.45        48.4 0.22                          22.7 197 
 GIR2 SZ EP       1024 43.09                             167   -0.0810 33.1 346 
 BRR  HZ IP     C 1024 44.92                             152    0.1510 74.2 298 
 BRR  HN ES       1025  2.14                             152    0.7210 74.2 298 
 BRR  HN I        1025  2.52        53.9 0.32                          74.2 298 
 PAM  SZ EP       1024 45.95                             151    0.3310 76.7  37 
 PAM  SN ES       1025  3.14                             151    0.2010 76.7  37 
 PAM  SN I        1025  3.53        14.9 0.26                          76.7  37 
 RUS  HZ EP       1024 46.94                             144   -0.1610 99.2 178 
 RUS  HN ES       1025  5.37                             144   -0.1910 99.2 178 
 RUS  HN I        1025  7.76         8.4 0.18                          99.2 178 
 OCA  HE ES   1   1025 13.40                             129   -0.72 7  162 352 
 ZAR  HZ EP   1   1024 56.30                             122    0.11 6  207 292 
 ZAR  HN ES       1025 21.17                             122   -0.58 8  207 292 
 ZAR  HN I        1025 26.59        10.3 0.28                           207 292 
 CHI  HZ EP   1   1025  0.66                             117   -0.42 6  248 196 
 CHI  HN ES   1   1025 30.23                             117   -0.22 6  248 196 
 CHI  HN I        1025 32.78         9.2 0.36                           248 196 
 PRA  HZ EP       1025 17.25                             106    0.27 6  392 210 
 PRA  HN ES       1025 59.59                             106    0.84 6  392 210 
 PRA  HN I        1026  3.73         4.3 0.46                           392 210 
                                                                                
