 2015  6 4 1730  2.5 L   6.056 -73.817104.7  RSN  6 0.4 1.8LRSN                1
 GAP=139        0.99       3.7     3.7  9.8 -0.4173E+01  0.1990E+02 -0.3714E+01E
 Epicentro: EL PENON - SANTANDER                                               3
 ACTION:UPD 15-09-10 22:09 OP:cam  STATUS:               ID:20150604173002 L   I
 OLDACT:REG 15-06-04 21:11 OP:ar   STATUS:               ID:20150604172749     3
 2015-06-04-1727-49M.COL___300                                                 6
 STAT SP IPHASW D HRMM SECON CODA AMPLIT PERI AZIMU VELO AIN AR TRES W  DIS CAZ7
 RUS  HZ EP       1730 21.17                             139    0.1310 83.2 103 
 RUS  HE ES       1730 35.13                             139   -0.3510 83.2 103 
 RUS  HZ I        1730 36.50        16.6 0.18            146           83.2 103 
 BAR2 EZ EP       1730 21.66                             135    0.2510 91.9  50 
 BAR2 EZ ES       1730 36.18                             135    0.0510 91.9  50 
 BAR2 EZ I        1730 39.25        18.8 0.42            140           91.9  50 
 BRR  HZ EP       1730 23.11                             128   -0.2510  117   6 
 BRR  HE ES       1730 40.16                             128    0.5510  117   6 
 BRR  HZ I        1730 44.91        12.2 0.16            131            117   6 
 NOR  HZ EP       1730 24.50                             125   -0.0910  129 245 
 NOR  HN ES       1730 41.27                             125   -0.5410  129 245 
 NOR  HZ I        1730 43.25        18.5 0.18            130            129 245 
 GUY2CHZ EP       1730 32.41                             113    0.21 9  195 242 
 GUY2CHE ES       1730 56.18                             113    0.83 9  195 242 
 GUY2CHZ I        1730 59.34         5.4 0.44                           195 242 
 ZAR  HZ EP       1730 31.27                             112   -0.52 9  196 324 
 ZAR  HN ES       1730 54.36                             112   -0.25 9  196 324 
 ZAR  HZ I        1731  0.23         8.0 0.36            116            196 324 
                                                                                
