 2011  7 4 1717 54.9 L   6.800 -73.125143.7  RSN  8 0.4 1.9LRSN                1
 GAP=139        0.69       3.0     5.0  5.5 -0.4854E+01  0.4242E+01  0.1342E+01E
 Epicentro: LOS SANTOS - SANTANDER                                             3
 ACTION:UPD 12-07-25 13:58 OP:epov STATUS:               ID:20110704171755 L   I
 2011-07-04-1715-12S.COL___139                                                 6
 STAT SP IPHASW D HRMM SECON CODA AMPLIT PERI AZIMU VELO AIN AR TRES W  DIS CAZ7
 BAR2 SZ EP       1718 14.28                             170   -0.0410 23.9 195 
 BAR2 SZ ES   1   1718 29.21                             170   -0.23 7 23.9 195 
 BAR2 SZ I        1718 30.64        23.8 0.26                          23.9 195 
 BRR  HZ EP       1718 16.07                             151    0.1010 73.2 298 
 BRR  HN ES   1   1718 32.95                             151    0.57 7 73.2 298 
 BRR  HZ I        1718 35.56        21.5 0.27                          73.2 298 
 PAM  SZ EP       1718 17.22                             151    0.3910 75.9  38 
 PAM  SE ES   1   1718 33.91                             151   -0.01 7 75.9  38 
 PAM  SZ I        1718 36.68         6.5 0.42                          75.9  38 
 RUS  HZ EP       1718 18.19                             143   -0.2810  101 177 
 RUS  HZ I        1718 19.03         9.4 0.13                           101 177 
 RUS  HE ES   1   1718 36.83                             143    0.00 7  101 177 
 GRA  SZ EP   2   1718 19.84                             137   -0.09 5  125  16 
 GRA  SZ ES   2   1718 38.55                             137   -0.87 5  125  16 
 GRA  SZ I        1718 40.70         9.1 0.38                           125  16 
 OCA  SZ EP   1   1718 23.19                             129    0.09 7  161 352 
 OCA  SZ ES   2   1718 44.48                             129   -0.59 5  161 352 
 OCA  SZ I        1718 47.86        14.3 0.26                           161 352 
 NOR  SZ EP   1   1718 30.70                             118   -0.04 6  237 235 
 NOR  SE ES   1   1718 58.04                             118   -0.63 6  237 235 
 CHI  HZ EP   2   1718 32.46                             117   -0.12 4  249 196 
 CHI  HN ES   1   1719  2.56                             117    0.61 6  249 196 
 CHI  HZ I        1719  9.14         5.2 0.36                           249 196 
                                                                                
