 2011 10 4 1620  7.5 L   6.743 -73.133143.4  RSN  6 0.4 1.7LRSN                1
 GAP=141        0.73       4.6     5.4  6.9  0.5113E+01  0.6176E+01  0.5509E+01E
 Epicentro: JORDAN - SANTANDER                                                 3
 ACTION:UPD 12-07-13 16:01 OP:ep   STATUS:               ID:20111004162007 L   I
 2011-10-04-1618-53S.COL___171                                                 6
 STAT SP IPHASW D HRMM SECON CODA AMPLIT PERI AZIMU VELO AIN AR TRES W  DIS CAZ7
 BAR2 SZ EP   1   1620 26.80                             173    0.02 7 17.6 198 
 BAR2 SZ ES   1   1620 41.46                             173   -0.32 7 17.6 198 
 BAR2 SZ I        1620 43.71        13.3 0.22                          17.6 198 
 BRR  HZ EP   1   1620 28.99                             150    0.30 7 75.6 302 
 BRR  HN ES   1   1620 45.82                             150    0.63 7 75.6 302 
 BRR  HZ I        1620 50.10        17.7 0.15                          75.6 302 
 PAM  SZ EP   1   1620 29.90                             149    0.15 7 81.5  36 
 PAM  SE ES   1   1620 46.70                             149   -0.38 7 81.5  36 
 PAM  SZ I        1620 49.28         5.4 0.23                          81.5  36 
 RUS  HZ EP   1   1620 30.91                             145    0.31 7 94.2 177 
 RUS  HZ I        1620 32.36         6.3 0.16                          94.2 177 
 RUS  HN ES   1   1620 48.54                             145   -0.05 7 94.2 177 
 ZAR  HN ES   1   1621  5.07                             121   -0.64 6  208 294 
 CHI  HZ EP   1   1620 44.14                             117   -0.34 6  243 196 
 CHI  HZ I        1621 18.72         3.7 0.32                           243 196 
                                                                                
