 2014 12 4 1717  7.8 L   6.754 -73.121144.9  RSN  8 0.3 1.6LRSN                1
 GAP=142        0.77       4.3     4.3  6.0 -0.6811E+01  0.3006E+01  0.3902E+01E
 Epicentro: LOS SANTOS - SANTANDER                                             3
 ACTION:UPD 15-02-10 17:00 OP:nd   STATUS:               ID:20141204171707 L   I
 OLDACT:DUP 14-12-05 00:43 OP:spq  STATUS:               ID:20141204170751d    3
 2014-12-04-1707-50M.COL___306                                                 6
 STAT SP IPHASW D HRMM SECON CODA AMPLIT PERI AZIMU VELO AIN AR TRES W  DIS CAZ7
 BAR2 SZ EP       1717 27.12                             172   -0.1010 19.2 201 
 BAR2 SZ ES   1   1717 41.98                             172   -0.40 7 19.2 201 
 BAR2 SZ I        1717 43.60         5.0 0.38            167           19.2 201 
 BRR  HZ EP       1717 29.10                             151   -0.0010 76.0 301 
 BRR  HE ES       1717 46.29                             151    0.5510 76.0 301 
 BRR  HZ I        1717 47.37        11.3 0.34            152           76.0 301 
 PAM  SZ EP       1717 30.07                             150    0.0410 79.7  36 
 PAM  SE ES   1   1717 47.19                             150   -0.21 7 79.7  36 
 PAM  SZ I        1717 49.08        10.4 0.76            156           79.7  36 
 RUS  HZ EP   1   1717 31.11                             145    0.05 7 95.4 177 
 RUS  HN ES   1   1717 49.47                             145    0.24 7 95.4 177 
 RUS  HZ I        1717 51.11         3.4 0.24            144           95.4 177 
 PTB  HZ EP   1   1717 34.49                             131   -0.34 7  150 261 
 PTB  HE ES   1   1717 55.00                             131   -0.93 7  150 261 
 PTB  HZ I        1717 57.61         3.3 0.36            132            150 261 
 SPBC HE ES   1   1717 58.00                             129   -0.01 7  161 221 
 SPBC HZ I        1718  6.48        10.4 0.22            129            161 221 
 NOR  HZ EP       1717 43.59                             118    0.21 8  234 236 
 NOR  HN ES       1718 11.42                             118    0.27 8  234 236 
 NOR  HZ I        1718 17.73         2.5 0.18            119            234 236 
 SJC  HZ EP   4   1718  1.90                             105   -2.07 0  415 327 
 SJC  HN ES   4   1718 43.24                             105   -4.57 0  415 327 
 SJC  HZ I        1718 45.28         1.8 0.76            107            415 327 
                                                                                
