 2012  5 4 1338 49.0 L   6.785 -73.147146.8  RSN  5 0.3 1.7LRSN                1
 GAP=137        0.82       6.0     6.0 10.7 -0.4112E+01 -0.5350E+01  0.9803E+01E
 Epicentro: LOS SANTOS - SANTANDER                                             3
 ACTION:UP  12-07-05 12:02 OP:pat  STATUS:               ID:20120504133848 L   I
 2012-05-04-1330-00M.COL___189                                                 6
 STAT SP IPHASW D HRMM SECON CODA AMPLIT PERI AZIMU VELO SNR AR TRES W  DIS CAZ7
 BAR2 SZ EP   1   1339  8.31                             171    -0.4 7   22 190 
 BAR2 SZ I        1339 26.41        11.7 0.23                            22 190 
 BRR  HZ EP   1   1339 10.55                             152     0.3 7   72 300 
 BRR  HZ I        1339 10.87        20.5 0.30                            72 300 
 BRR  HN ES   1   1339 27.40                             152     0.5 7   72 300 
 PAM  SZ EP   1   1339 11.40                             151     0.0 7   79  39 
 PAM  SN ES   1   1339 28.59                             151    -0.3 7   79  39 
 RUS  HZ EP   1   1339 12.99                             144     0.3 7   99 176 
 RUS  HN ES   1   1339 31.30                             144     0.1 7   99 176 
 RUS  HZ I        1339 32.94         3.8 0.20                            99 176 
 PTB  HN ES   1   1339 36.55                             132    -0.5 7  147 259 
 PTB  HZ I        1339 43.69         6.7 0.29                           147 259 
                                                                                
