 2013  4 4 1648 42.6 L   6.683 -73.226151.6  RSN  4 0.3 1.7LRSN                1
 GAP=203        0.58       5.8     5.6  6.0  0.1492E+02  0.3138E+01 -0.1142E+01E
 Epicentro: BARICHARA - SANTANDER                                              3
 ACTION:UPD 13-05-22 14:35 OP:EP   STATUS:               ID:20130404164842 L   I
 2013-04-04-1640-00M.COL___245                                                 6
 STAT SP IPHASW D HRMM SECON CODA AMPLIT PERI AZIMU VELO AIN AR TRES W  DIS CAZ7
 BAR2 SZ EP   1   1649  2.44                             176   -0.29 7 11.2 154 
 BAR2 SZ ES   1   1649 18.07                             176   -0.37 7 11.2 154 
 BAR2 SZ I        1649 18.17        15.7 0.18            173           11.2 154 
 BRR  HZ EP       1649  4.51                             153    0.1510 71.3 311 
 BRR  HN ES   1   1649 21.62                             153    0.27 7 71.3 311 
 BRR  HZ I        1649 25.41         9.9 0.14            150           71.3 311 
 RUS  HZ EP   1   1649  5.99                             148   -0.12 7 88.9 170 
 RUS  HE ES   1   1649 24.87                             148    0.40 7 88.9 170 
 RUS  HZ I        1649 25.21         5.2 0.50            150           88.9 170 
 PTB  HZ EP   1   1649  9.16                             136    0.08 7  137 263 
 PTB  HN ES   1   1649 29.50                             136   -0.26 7  137 263 
 PTB  HZ I        1649 34.27         5.0 0.14            134            137 263 
                                                                                
