 2017 11 4 1803 33.3 L   6.757 -73.142139.9  RSN  8 0.4 1.6LRSN                1
 GAP=139        0.93       3.9     4.4  6.7 -0.3863E+01  0.1339E+02 -0.3852E+01E
 Epicentro: LOS SANTOS - SANTANDER                                             3
 ACTION:UPD 17-12-12 19:52 OP:rebc STATUS:               ID:20171104180333 L   I
 OLDACT:UP  17-11-05 01:15 OP:mg   STATUS:               ID:20171104175747d    3
 OLDACT:DUP 17-11-05 01:11 OP:mg   STATUS:               ID:20171104175747d    3
 2017-11-04-1758-00M.COL___435                                                 6
 STAT SP IPHASW D HRMM SECON CODA AMPLIT PERI AZIMU VELO AIN AR TRES W  DIS CAZ7
 BAR2 EZ IP     C 18 3 52.11                             172   -0.0310 18.8 194 
 BAR2 EZ ES       18 4  6.82                             172   -0.0210 18.8 194 
 BAR2 EZ I        18 4  8.39        11.3 0.28            172           18.8 194 
 BRR  HZ EP       18 3 54.02                             150    0.0310 74.0 302 
 BRR  HN ES   2   18 4 10.76                             150    0.64 5 74.0 302 
 BRR  HZ I        18 4 16.93        18.1 0.37            149           74.0 302 
 PAM  EZ EP     D 18 3 55.16                             149    0.0410 80.8  37 
 PAM  EN ES       18 4 11.76                             149   -0.3710 80.8  37 
 PAM  EZ I        18 4 14.51         7.7 0.64            152           80.8  37 
 RUS  HZ EP       18 3 56.45                             144    0.3110 95.8 176 
 RUS  HN ES       18 4 14.32                             144    0.3810 95.8 176 
 RUS  HZ I        18 4 15.36         3.0 0.24            150           95.8 176 
 PTB  HZ EP       18 3 58.99                             131   -0.77 9  147 261 
 PTB  HN ES   2   18 4 19.50                             131   -0.90 5  147 261 
 PTB  HZ I        18 4 22.28         5.3 0.17            132            147 261 
 SPBC HN ES       18 4 22.34                             128   -0.32 9  160 220 
 SPBC HZ I        18 4 25.01                             132            160 220 
 ZAR  HZ EP       18 4  5.69                             121    0.08 8  206 293 
 ZAR  HE ES       18 4 31.48                             121    0.67 8  206 293 
 ZAR  HZ I        18 4 37.89         4.3 0.35            123            206 293 
 NOR  HZ EP   1   18 4  8.97                             117    0.53 6  232 235 
 NOR  HE ES       18 4 35.68                             117   -0.17 8  232 235 
 NOR  HZ I        18 4 38.06         3.1 0.15            121            232 235 
                                                                                
