 2016  7 4 1353 55.2 L   6.785 -73.172150.3  RSN  8 0.3 1.8LRSN                1
 GAP=134        0.77       3.1     3.1  4.6 -0.1210E+01  0.4113E+01  0.8120E+00E
 Epicentro: LOS SANTOS - SANTANDER                                             3
 ACTION:UPD 17-03-29 16:46 OP:lp   STATUS:               ID:20160704135355 L   I
 OLDACT:DUP 16-07-05 00:28 OP:edw  STATUS:               ID:20160704134744d    3
 OLDACT:DUP 16-07-05 00:24 OP:edw  STATUS:               ID:20160704134743d    3
 2016-07-04-1347-42M.COL___322                                                 6
 STAT SP IPHASW D HRMM SECON CODA AMPLIT PERI AZIMU VELO AIN AR TRES W  DIS CAZ7
 BAR2 EZ EP       1354 15.34                             172   -0.0210 21.3 183 
 BAR2 EZ ES       1354 31.01                             172   -0.0610 21.3 183 
 BAR2 EZ I        1354 31.33        14.8 0.28            171           21.3 183 
 BRR  HZ EP       1354 17.23                             154    0.4610 69.5 301 
 BRR  HN ES       1354 33.84                             154    0.2610 69.5 301 
 PAM  EZ EP       1354 18.08                             151   -0.0310 80.5  40 
 PAM  EN ES       1354 35.60                             151   -0.3610 80.5  40 
 PAM  EZ I        1354 36.80        14.1 0.64            154           80.5  40 
 RUS  HZ EP       1354 19.91                             145    0.5810 99.2 174 
 RUS  HE ES       1354 38.11                             145   -0.0110 99.2 174 
 RUS  HZ I        1354 40.43         5.2 0.36            146           99.2 174 
 PTB  HZ EP       1354 22.16                             134   -0.12 9  145 259 
 PTB  HN ES       1354 43.05                             134   -0.34 9  145 259 
 PTB  HZ I        1354 46.83         7.3 0.16            133            145 259 
 SPBC HZ EP       1354 23.24                             131   -0.54 9  160 219 
 SPBC HN ES       1354 46.09                             131    0.03 9  160 219 
 ZAR  HZ EP       1354 27.47                             124   -0.29 9  202 293 
 ZAR  HN ES       1354 53.38                             124    0.24 9  202 293 
 ZAR  HZ I        1354 59.12         7.9 0.17            124            202 293 
 NOR  HZ EP       1354 30.85                             120   -0.02 8  231 234 
 NOR  HE ES       1354 58.74                             120    0.07 8  231 234 
 NOR  HZ I        1355  4.94         4.3 0.22            120            231 234 
 GUY2CHZ EP   4   1354 33.72                             113   -4.95 0  298 235 
 GUY2CHN ES   4   1355 15.35                             113    2.79 0  298 235 
 ANIL HZ EP   4   1354 18.76                             109   -26.1 0  354 224 
 ANIL HE ES   4   1354 30.45                             109   -53.1 0  354 224 
                                                                                
