 2012  7 4 2212  8.0 L   6.776 -73.405119.5  RSN  4 0.2 1.8LRSN                1
 GAP=172        0.53       7.1     9.1  5.9  0.4981E+02  0.8290E+01  0.1186E+02E
 Epicentro: SAN VICENTE DE CHUCURI - SANTANDER                                 3
 ACTION:UPD 12-08-14 11:42 OP:ep   STATUS:               ID:20120704221208 L   I
 2012-07-04-2210-00M.COL___201                                                 6
 STAT SP IPHASW D HRMM SECON CODA AMPLIT PERI AZIMU VELO AIN AR TRES W  DIS CAZ7
 BAR2 SZ EP       2212 24.62                             164    -0.110   32 129 
 BAR2 SZ ES   1   2212 37.49                             164    -0.3 7   32 129 
 BAR2 SZ I        2212 38.95        45.6 0.48            160             32 129 
 BRR  HZ EP       2212 25.08                             156    -0.110   50 317 
 BRR  HZ I        2212 25.38        23.0 0.44            148             50 317 
 BRR  HN ES   1   2212 38.78                             156     0.3 7   50 317 
 RUS  HZ EP       2212 29.68                             136     0.110  104 160 
 RUS  HN ES   2   2212 46.80                             136     0.4 5  104 160 
 PTB  HZ EP   3   2212 30.08                             131    -0.2 2  119 257 
 PTB  HN ES   3   2212 47.13                             131    -0.4 2  119 257 
 PTB  HZ I        2212 54.70         2.6 0.14            124            119 257 
