 2016 11 4 2057 17.5 L   6.777 -73.135145.2  RSN 10 0.3 1.9LRSN                1
 GAP=157        0.68       2.6     3.1  3.8 -0.2058E+01  0.1163E+01  0.3478E+01E
 Epicentro: LOS SANTOS - SANTANDER                                             3
 ACTION:UPD 17-10-26 21:04 OP:lp   STATUS:               ID:20161104205717 L   I
 OLDACT:UP  16-11-05 03:51 OP:edw  STATUS:               ID:20161104204744     3
 OLDACT:UP  16-11-05 03:48 OP:edw  STATUS:               ID:20161104204744     3
 OLDACT:REG 16-11-05 03:12 OP:cara STATUS:               ID:20161104204744     3
 2016-11-04-2048-00M.COL___355                                                 6
 STAT SP IPHASW D HRMM SECON CODA AMPLIT PERI AZIMU VELO AIN AR TRES W  DIS CAZ7
 BAR2 EZ EP       2057 36.83                             171   -0.2110 21.1 194 
 BAR2 EZ ES       2057 52.52                             171    0.2610 21.1 194 
 BAR2 EZ I        2057 53.55        13.3 0.14            169           21.1 194 
 BRR  HZ EP       2057 38.52                             152   -0.2110 73.4 300 
 BRR  HN ES       2057 55.74                             152    0.4610 73.4 300 
 BRR  HZ I        2057 56.34        17.5 0.10            150           73.4 300 
 PAM  EZ EP       2057 39.70                             150   -0.0510 78.6  38 
 PAM  EE ES       2057 56.87                             150   -0.2110 78.6  38 
 PAM  EZ I        2057 58.96        22.9 0.54            154           78.6  38 
 PTB  HZ EP   9   2057 43.54                             132   -0.96 0  148 260 
 PTB  HN ES       2058  4.62                             132    0.04 9  148 260 
 PTB  HZ I        2058 10.44         8.3 0.74            131            148 260 
 SPBC HZ EP       2057 45.74                             129   -0.12 9  162 220 
 SPBC HN ES       2058  7.47                             129   -0.50 9  162 220 
 SPBC HZ I        2058 10.69        15.4 0.16            129            162 220 
 ZAR  HZ EP       2057 50.61                             122    0.47 8  206 293 
 ZAR  HN ES       2058 15.21                             122   -0.37 8  206 293 
 ZAR  HZ I        2058 20.55         8.4 0.12            122            206 293 
 NOR  HZ EP       2057 53.40                             118    0.23 8  234 235 
 NOR  HN ES       2058 20.75                             118   -0.22 8  234 235 
 NOR  HZ I        2058 28.44         2.7 0.10            118            234 235 
 CHI  HZ EP       2057 55.05                             117    0.09 8  247 196 
 CHI  HN ES       2058 24.40                             117    0.24 8  247 196 
 CHI  HZ I        2058 26.82         3.7 0.26            118            247 196 
 PRA  HZ EP       2058 10.87                             106    0.03 6  390 210 
 PRA  HN ES       2058 52.52                             106    0.10 6  390 210 
 PRA  HZ I        2058 57.58         4.5 0.34            107            390 210 
 ORTC HZ EP       2058 11.66                             106    0.39 6  394 217 
 ORTC HN ES   4   2058 55.12                             106    1.93 0  394 217 
 SJC  HZ EP   4   2058 10.93                             105   -2.46 0  412 327 
 SJC  HN ES   4   2058 53.46                             105   -3.50 0  412 327 
                                                                                
