 2015  7 4 2226  3.9 L   6.830 -73.199137.0  RSN 18 0.4 2.4LRSN                1
 GAP=129        0.91       2.1     3.3  5.0 -0.4798E+00  0.8876E+01  0.2579E+00E
 Epicentro: ZAPATOCA - SANTANDER                                               3
 ACTION:UPD 15-09-08 21:46 OP:cam  STATUS:               ID:20150704222603 L   I
 OLDACT:REG 15-07-05 03:14 OP:drio STATUS:               ID:20150704221748     3
 2015-07-04-2217-48M.COL___334                                                 6
 STAT SP IPHASW D HRMM SECON CODA AMPLIT PERI AZIMU VELO AIN AR TRES W  DIS CAZ7
 BAR2 EZ EP     D 2226 22.52                             169   -0.0310 26.4 176 
 BAR2 EZ ES       2226 37.00                             169   -0.1010 26.4 176 
 BAR2 EZ I        2226 38.28        57.4 0.18            167           26.4 176 
 PAM  EZ EP       2226 25.51                             149    0.2210 78.8  44 
 PAM  EN ES       2226 42.36                             149    0.4010 78.8  44 
 PAM  EZ I        2226 45.17        44.8 0.42            151           78.8  44 
 RUS  HZ EP       2226 26.52                             141   -0.5810  104 173 
 RUS  HE ES       2226 44.98                             141   -0.2210  104 173 
 RUS  HZ I        2226 45.95        43.8 0.30            141            104 173 
 OCA  HZ EP       2226 30.93                             128   -0.24 9  156 355 
 OCA  HN ES       2226 52.49                             128    0.05 9  156 355 
 OCA  HZ I        2226 54.65        51.5 0.50            128            156 355 
 ZAR  HZ EP       2226 36.07                             121    0.97 9  197 292 
 ZAR  HE ES       2226 59.99                             121    0.57 9  197 292 
 ZAR  HZ I        2227  8.56        36.8 0.26            119            197 292 
 NOR  HZ EP       2226 39.17                             117    0.33 8  232 233 
 NOR  HE ES       2227  6.23                             117    0.14 8  232 233 
 NOR  HZ I        2227 12.22        25.0 0.38            115            232 233 
 SML  HZ EP       2226 39.05                             116   -0.41 8  238 336 
 SML  HE ES       2227  6.61                             116   -0.58 8  238 336 
 SML  HZ I        2227 14.57        26.9 0.30            115            238 336 
 CHI  HZ EP       2226 41.08                             115   -0.25 8  250 194 
 CHI  HN ES       2227 10.28                             115   -0.24 8  250 194 
 CHI  HZ I        2227 13.12        11.0 0.26            114            250 194 
 HEL  HZ EP       2226 43.09                             113   -0.06 8  267 255 
 HEL  HE ES       2227 13.41                             113   -0.34 8  267 255 
 HEL  HZ I        2227 21.52        21.1 0.52            112            267 255 
 GUY2CHZ EP       2226 47.75                             111    0.94 7  298 234 
 GUY2CHE ES       2227 20.41                             111    0.14 7  298 234 
 GUY2CHZ I        2227 30.01        12.4 0.68                           298 234 
 CBOC HZ EP       2226 50.66                             108    0.71 7  329 251 
 CBOC HN ES       2227 25.30                             108   -0.57 7  329 251 
 CBOC HZ I        2227 27.22         4.5 0.22            108            329 251 
 DBB  SZ EP       2226 50.20                             108   -0.14 7  333 274 
 DBB  SZ ES       2227 25.96                             108   -0.59 7  333 274 
 DBB  SZ I        2227 34.10        35.7 0.32            107            333 274 
 TOL  SZ EP       2226 51.70                             108    0.07 7  342 224 
 TOL  SE ES   4   2227 25.63                             108   -3.22 0  342 224 
 TOL  SZ I        2227 34.01         8.1 0.48            107            342 224 
 MON  HZ EP   4   2226 50.60                             107   -1.21 0  347 309 
 MON  HN ES       2227 29.19                             107    0.02 6  347 309 
 MON  HZ I        2227 31.41         5.2 0.56            107            347 309 
 PRA  HZ EP       2226 57.47                             105    0.32 6  392 209 
 PRA  HN ES       2227 38.53                             105   -0.14 6  392 209 
 PRA  HZ I        2227 44.25        12.4 0.38            104            392 209 
 ORTC HZ EP       2226 57.70                             105    0.24 6  395 215 
 ORTC HE ES   4   2227 40.44                             105    1.21 0  395 215 
 ORTC HZ I        2227 47.04         7.6 0.44            104            395 215 
 PAL  HZ EP       2226 58.66                             104    0.26 6  402 238 
 PAL  HZ I        2227 45.63         4.2 0.38            104            402 238 
 SJC  HZ EP       2226 57.67                             104   -0.82 6  403 327 
 SJC  HN ES       2227 40.69                             104   -0.37 6  403 327 
 SJC  HZ I        2227 42.38         4.8 0.60            104            403 327 
                                                                                
