 2014  8 4 2019 53.3 L   6.767 -73.154143.3  RSN 10 0.4 2.2LRSN                1
 GAP=137        0.87       4.5     4.4  5.9 -0.7368E+01  0.3808E+01  0.3539E+01E
 Epicentro: LOS SANTOS - SANTANDER                                             3
 ACTION:UPD 14-09-15 21:46 OP:nd   STATUS:               ID:20140804201953 L   I
 OLDACT:UP  14-08-05 03:51 OP:mh   STATUS:               ID:20140804201813     3
 OLDACT:UP  14-08-05 03:51 OP:mh   STATUS:               ID:20140804201813     3
 OLDACT:REG 14-08-05 03:11 OP:mh   STATUS:               ID:20140804201813     3
 2014-08-04-2018-13M.COL___254                                                 6
 STAT SP IPHASW D HRMM SECON CODA AMPLIT PERI AZIMU VELO AIN AR TRES W  DIS CAZ7
 BAR2 SZ EP       2020 12.54                             172    0.0310 19.6 189 
 BAR2 SZ ES       2020 27.15                             172   -0.3810 19.6 189 
 BAR2 SZ I        2020 28.43        57.1 0.12            170           19.6 189 
 BRR  HZ EP       2020 14.29                             152    0.1010 72.2 301 
 BRR  HN ES       2020 31.16                             152    0.6410 72.2 301 
 BRR  HZ I        2020 37.20        24.3 0.16            149           72.2 301 
 PAM  SZ EP       2020 15.53                             149    0.1210 80.8  38 
 PAM  SN ES   1   2020 32.40                             149   -0.30 7 80.8  38 
 PAM  SZ I        2020 35.28        19.9 0.27            153           80.8  38 
 RUS  HZ EP   1   2020 16.72                             144    0.22 7 97.0 175 
 RUS  HN ES   1   2020 34.47                             144   -0.17 7 97.0 175 
 RUS  HZ I        2020 35.95        20.3 0.22            145           97.0 175 
 PTB  HZ EP       2020 19.34                             132   -0.54 9  146 260 
 PTB  HN ES       2020 40.20                             132   -0.44 9  146 260 
 PTB  HZ I        2020 43.53                             130            146 260 
 SPBC HZ EP   1   2020 21.53                             129    0.29 7  160 220 
 SPBC HN ES       2020 43.70                             129    0.63 9  160 220 
 NOR  HZ EP   1   2020 28.43                             118   -0.11 6  232 235 
 NOR  HN ES       2020 55.79                             118   -0.26 8  232 235 
 NOR  HZ I        2021  0.68         9.7 0.37            118            232 235 
 GUY2CHZ EP   4   2020 38.49                             112    2.06 0  298 235 
 GUY2CHN ES   4   2021 13.32                             112    3.22 0  298 235 
 GUY2CHZ I        2021 18.84         6.0 0.64                           298 235 
 RREF HZ EP   1   2020 39.13                             111    0.19 5  319 230 
 RREF HN ES   4   2021 16.53                             111    1.95 0  319 230 
 RREF HZ I        2021 26.74         5.7 0.26            111            319 230 
 TOL  SZ EP   4   2020 42.46                             109    1.42 0  340 225 
 TOL  SN ES   4   2021 20.29                             109    1.98 0  340 225 
 TOL  SZ I        2021 25.10        14.9 0.38            109            340 225 
                                                                                
