 2017 11 4 2131 37.6 L   6.534 -73.518112.0  RSN  7 0.4 1.5LRSN                1
 GAP= 66        0.95       4.2     4.2  7.1  0.4726E+01  0.1152E+02  0.1661E+00E
 Epicentro: EL CARMEN - SANTANDER                                              3
 ACTION:UPD 17-12-12 19:52 OP:rebc STATUS:               ID:20171104213137 L   I
 OLDACT:UP  17-11-05 09:26 OP:edw  STATUS:               ID:20171104212741d    3
 OLDACT:DUP 17-11-05 08:39 OP:edw  STATUS:               ID:20171104212741d    3
 OLDACT:UP  17-11-05 08:39 OP:edw  STATUS:               ID:20171104212740     3
 OLDACT:REG 17-11-05 03:59 OP:edw  STATUS:               ID:20171104212740     3
 2017-11-04-2128-00M.COL___435                                                 6
 STAT SP IPHASW D HRMM SECON CODA AMPLIT PERI AZIMU VELO AIN AR TRES W  DIS CAZ7
 BAR2 EZ EP     D 2131 54.13                             160    0.4610 37.6  80 
 BAR2 EZ ES       2132  6.13                             160   -0.0810 37.6  80 
 BAR2 EZ I        2132  7.65        21.2 0.54            166           37.6  80 
 BRR  HZ EP       2131 55.05                             147    0.1310 66.9 341 
 BRR  HN ES       2132  8.53                             147    0.0910 66.9 341 
 BRR  HZ I        2132 14.35        12.3 0.36            149           66.9 341 
 RUS  HZ EP       2131 57.28                             140    0.3010 85.7 146 
 RUS  HN ES       2132 12.14                             140    0.0410 85.7 146 
 RUS  HZ I        2132 13.11         3.0 0.26            146           85.7 146 
 PTB  HZ EP       2131 56.95                             134   -0.8810  104 270 
 PTB  HE ES   4   2132 11.83                             134   -1.79 0  104 270 
 PTB  HZ I        2132 13.10         5.8 0.14            136            104 270 
 SPBC HN ES   3   2132 14.78                             131   -0.85 2  115 212 
 SPBC HZ I        2132 21.14        10.1 0.10            134            115 212 
 PAM  EZ EP       2132  0.41                             128   -0.2010  127  45 
 PAM  EE ES       2132 18.19                             128   -0.3610  127  45 
 PAM  EZ I        2132 19.78         2.8 0.58            134            127  45 
 ZAR  HZ EP       2132  6.01                             117    0.33 9  182 306 
 ZAR  HN ES       2132 27.89                             117    0.31 9  182 306 
 ZAR  HZ I        2132 32.36         5.5 0.32            120            182 306 
                                                                                
