 2013 12 4 2006 59.6 L   6.750 -73.152142.0  RSN  8 0.4 2.1LRSN                1
 GAP=138        1.07       5.0     4.8  8.0  0.3214E+01  0.1445E+02  0.1044E+02E
 Epicentro: LOS SANTOS - SANTANDER                                             3
 ACTION:UPD 14-01-13 10:15 OP:ep   STATUS:               ID:20131204200659 L   I
 OLDACT:UP  13-12-04 23:11 OP:mh   STATUS:               ID:20131204200000     3
 OLDACT:UP  13-12-04 23:10 OP:mh   STATUS:               ID:20131204200000     3
 OLDACT:UP  13-12-04 23:10 OP:mh   STATUS:               ID:20131204200000     3
 OLDACT:REG 13-12-04 22:48 OP:mh   STATUS:               ID:20131204200000     3
 2013-12-04-2000-00M.COL___285                                                 6
 STAT SP IPHASW D HRMM SECON CODA AMPLIT PERI AZIMU VELO AIN AR TRES W  DIS CAZ7
 BAR2 SZ EP   1   20 7 18.90                             172    0.26 7 17.8 191 
 BAR2 SZ ES   1   20 7 33.42                             172   -0.11 7 17.8 191 
 BAR2 SZ I        20 7 34.99        28.3 0.16            175           17.8 191 
 BRR  HZ EP   1   20 7 20.74                             151    0.30 7 73.4 303 
 BRR  HZ I        20 7 33.67        16.2 0.31            145           73.4 303 
 BRR  HN ES       20 7 37.64                             151    0.9210 73.4 303 
 PAM  SN ES       20 7 38.20                             149   -0.7310 82.1  37 
 RUS  HZ EP       20 7 22.73                             145    0.1710 95.1 175 
 RUS  HZ IP   1   20 7 22.74                             145    0.18 7 95.1 175 
 RUS  HN ES       20 7 40.54                             145    0.0510 95.1 175 
 PTB  HZ EP   1   20 7 25.89                             131   -0.19 7  146 261 
 PTB  HN ES       20 7 46.26                             131   -0.50 9  146 261 
 PTB  HZ I        20 7 48.80        11.9 0.15            128            146 261 
 ZAR  HZ EP   1   20 7 31.61                             121   -0.31 6  206 294 
 ZAR  HN ES       20 7 57.12                             121   -0.04 8  206 294 
 ZAR  HZ I        20 8  3.29        11.0 0.31            117            206 294 
 NOR  HZ EP       20 7 35.14                             118    0.47 8  231 235 
 NOR  HN ES       20 8  1.46                             118   -0.60 8  231 235 
 NOR  HZ I        20 8  7.42         7.0 0.22            115            231 235 
 SML  HZ EP   4   20 7 34.37                             116   -2.13 0  248 336 
 SML  HN ES   4   20 8  3.70                             116   -1.61 0  248 336 
 SML  HZ I        20 8  8.49        12.7 0.10            112            248 336 
 GUY2CHZ EP   4   20 7 44.02                             112    1.44 0  297 236 
 GUY2CHN ES   4   20 8 17.67                             112    1.54 0  297 236 
 SJC  HZ EP   4   20 7 53.00                             105   -2.50 0  413 327 
 SJC  HN ES   4   20 8 34.70                             105   -4.44 0  413 327 
                                                                                
