 2012  2 4 2051 42.7 L   5.924 -73.649119.5  RSN  8 0.5 1.4LRSN                1
 GAP= 91        1.04       5.0     5.8 10.8 -0.8039E+01  0.2383E+02  0.1360E+01E
 ACTION:UP  12-03-07 16:27 OP:epov STATUS:               ID:20120204205142 L   I
 2012-02-04-2050-00M.COL___188                                                 6
 STAT SP IPHASW D HRMM SECON CODA AMPLIT PERI AZIMU VELO SNR AR TRES W  DIS CAZ7
 RUS  HZ EP   1   2052  1.34                             150    0.06 7 62.7  93 
 RUS  HN ES   1   2052 15.69                             150   -0.07 7 62.7  93 
 RUS  HZ I        2052 16.77         3.0 0.28                          62.7  93 
 BAR2 SZ EP       2052  3.12                             140    0.3110 90.2  35 
 BAR2 SZ ES   1   2052 18.04                             140   -0.44 7 90.2  35 
 PTB  HZ EP       2052  3.19                             134   -1.1610  112 307 
 PTB  HZ I        2052  5.21         2.5 0.10                           112 307 
 BRR  HZ EP       2052  6.41                             129    0.3710  131 357 
 BRR  HZ I        2052  6.61        14.7 0.34                           131 357 
 BRR  HN ES   1   2052 24.70                             129    0.47 7  131 357 
 GIR2 SZ EP       2052  6.94                             127    0.11 9  137  22 
 NOR  SZ EP       2052  7.37                             127    0.30 9  141 254 
 NOR  SE ES   1   2052 26.42                             127    0.37 7  141 254 
 CHI  HZ EP       2052  7.71                             126   -0.08 9  143 184 
 CHI  HZ I        2052  8.54         3.2 0.12                           143 184 
 CHI  HN ES   3 D 2052 27.60                             126    0.26 2  143 184 
 ZAR  HZ EP   3   2052 15.21                             114   -0.05 2  219 322 
 ZAR  HZ I        2052 45.61         3.5 0.34                           219 322 
                                                                                
