 2015 12 4 2307 44.2 L   6.804 -73.168150.0  RSN  5 0.3 1.5LRSN                1
 GAP=242        0.72       5.6     4.9  6.9  0.1162E+02  0.1363E+02 -0.1064E+01E
 Epicentro: LOS SANTOS - SANTANDER                                             3
 ACTION:UPD 16-02-04 15:02 OP:cam  STATUS:               ID:20151204230744 L   I
 OLDACT:UP  15-12-05 07:14 OP:ak   STATUS:               ID:20151204225749d    3
 OLDACT:DUP 15-12-05 07:10 OP:ak   STATUS:               ID:20151204225749d    3
 OLDACT:REG 15-12-05 04:48 OP:ak   STATUS:               ID:20151204225748     3
 2015-12-04-2257-48M.COL___313                                                 6
 STAT SP IPHASW D HRMM SECON CODA AMPLIT PERI AZIMU VELO AIN AR TRES W  DIS CAZ7
 BAR2 EZ EP   2   23 8  4.35                             171    0.03 5 23.5 184 
 BAR2 EZ ES       23 8 20.06                             171    0.0310 23.5 184 
 BAR2 EZ I        23 8 21.17         4.2 0.10            170           23.5 184 
 RUS  HZ EP   1   23 8  8.23                             145   -0.16 7  101 175 
 RUS  HN ES       23 8 27.44                             145    0.1610  101 175 
 RUS  HZ I        23 8 29.76         2.3 0.31            147            101 175 
 PTB  HZ EP       23 8 10.87                             133   -0.41 9  145 258 
 PTB  HN ES       23 8 31.93                             133   -0.49 9  145 258 
 PTB  HZ I        23 8 36.05         4.3 0.25            133            145 258 
 ZAR  HZ EP   2   23 8 17.27                             124    0.62 4  202 292 
 ZAR  HE ES       23 8 42.37                             124    0.40 9  202 292 
 ZAR  HZ I        23 8 49.80         3.9 0.37            124            202 292 
 NOR  HZ EP   2   23 8 20.16                             120    0.19 4  233 234 
 NOR  HN ES       23 8 48.25                             120    0.37 8  233 234 
 NOR  HZ I        23 8 52.24         3.1 0.18            120            233 234 
                                                                                
