 2015  5 4 2349  6.5 L   6.822 -73.120141.9  RSN  6 0.5 1.5LRSN                1
 GAP=139        1.17       4.8     6.7  9.4 -0.2337E+00  0.3526E+02 -0.3861E+01E
 Epicentro: LOS SANTOS - SANTANDER                                             3
 ACTION:UPD 15-09-10 22:01 OP:cam  STATUS:               ID:20150504234906 L   I
 OLDACT:UP  15-05-08 07:35 OP:AK   STATUS:               ID:20150504234906 L   3
 OLDACT:REG 15-05-05 03:41 OP:ak   STATUS:               ID:20150504234749     3
 2015-05-04-2347-49M.COL___274                                                 6
 STAT SP IPHASW D HRMM SECON CODA AMPLIT PERI AZIMU VELO AIN AR TRES W  DIS CAZ7
 BAR2 EZ EP   1   2349 25.27                             169   -0.46 7 26.3 195 
 BAR2 EZ ES       2349 40.18                             169   -0.5510 26.3 195 
 BAR2 EZ I        2349 43.23         6.6 0.26            169           26.3 195 
 PAM  SZ EP   1   2349 28.45                             151    0.36 7 73.7  39 
 PAM  SN ES       2349 45.70                             151    0.7710 73.7  39 
 PAM  SZ I        2349 47.95         4.6 0.55            155           73.7  39 
 RUS  HZ EP       2349 29.56                             142   -0.4810  103 178 
 RUS  HN ES   1   2349 48.54                             142    0.14 7  103 178 
 RUS  HZ I        2349 51.36         1.9 0.26            146            103 178 
 ZAR  HZ EP       2349 39.39                             121    0.50 8  206 291 
 ZAR  HN ES       2350  4.34                             121    0.20 8  206 291 
 ZAR  HZ I        2350  9.78         3.2 0.13            124            206 291 
 SML  HZ EP   1   2349 42.18                             117   -0.63 6  243 334 
 SML  HN ES       2350 10.42                             117   -0.71 8  243 334 
 SML  HZ I        2350 12.65         4.7 0.13            119            243 334 
 GUY2CHZ EP   1   2349 51.13                             111    0.77 5  305 235 
 GUY2CHN ES       2350 24.94                             111    0.38 7  305 235 
 GUY2CHZ I        2350 32.22         2.0 0.46                           305 235 
                                                                                
