 2014 12 4 2227 13.7 L   6.814 -73.173143.2  RSN  4 0.2 1.8LRSN                1
 GAP=132        0.59       3.3     3.1  7.0 -0.3460E+00  0.9459E+01 -0.1217E+01E
 Epicentro: LOS SANTOS - SANTANDER                                             3
 ACTION:UPD 15-02-10 17:00 OP:nd   STATUS:               ID:20141204222713 L   I
 OLDACT:REG 14-12-05 03:39 OP:mh   STATUS:               ID:20141204221748     3
 2014-12-04-2217-48M.COL___300                                                 6
 STAT SP IPHASW D HRMM SECON CODA AMPLIT PERI AZIMU VELO AIN AR TRES W  DIS CAZ7
 PAM  SZ EP       2227 35.84                             150    0.1510 78.2  42 
 PAM  SN ES       2227 52.68                             150   -0.1610 78.2  42 
 PAM  SZ I        2227 55.02        15.7 0.50            153           78.2  42 
 RUS  HZ EP   1   2227 37.27                             143   -0.06 7  102 174 
 RUS  HN ES       2227 55.95                             143    0.1910  102 174 
 RUS  HZ I        2227 57.83         8.2 0.34            145            102 174 
 PTB  HZ EP       2227 39.97                             132   -0.25 9  145 258 
 PTB  HN ES   1   2228  0.53                             132   -0.36 7  145 258 
 PTB  HZ I        2228  2.97        10.3 0.16            135            145 258 
 ZAR  HZ EP   4   2227 47.59                             122    1.96 0  201 292 
 ZAR  HN ES       2228 10.88                             122    0.35 9  201 292 
                                                                                
