 2016 12 4 2129 30.1 L   6.797 -73.156147.6  RSN 10 0.4 2.1LRSN                1
 GAP=147        0.91       4.1     4.2  5.5 -0.2521E+01  0.3223E+01  0.7383E+01E
 Epicentro: LOS SANTOS - SANTANDER                                             3
 ACTION:UPD 17-01-11 20:12 OP:rebc STATUS:               ID:20161204212930 L   I
 OLDACT:UP  16-12-05 03:53 OP:edw  STATUS:               ID:20161204212748     3
 OLDACT:REG 16-12-05 02:41 OP:edw  STATUS:               ID:20161204212748     3
 2016-12-04-2128-00M.COL___352                                                 6
 STAT SP IPHASW D HRMM SECON CODA AMPLIT PERI AZIMU VELO AIN AR TRES W  DIS CAZ7
 BAR2 EZ EP       2129 49.89                             171   -0.0810 22.9 187 
 BAR2 EZ ES       2130  5.16                             171   -0.2910 22.9 187 
 BAR2 HN ES       2130  5.39                             170           22.9 187 
 BAR2 EZ I        2130  6.16        53.1 0.28            169           22.9 187 
 BRR  HZ IP     C 2129 51.69                             153    0.2610 70.4 299 
 BRR  HN ES       2130  8.88                             153    0.8310 70.4 299 
 BRR  HZ I        2130 11.41        18.2 0.12            145           70.4 299 
 PAM  EZ EP     C 2129 52.77                             151    0.1710 78.3  40 
 PAM  EN ES       2130  9.73                             151   -0.3910 78.3  40 
 PAM  EZ I        2130 12.41        23.3 0.62            151           78.3  40 
 PTB  HZ EP   9   2129 56.38                             133   -0.77 0  147 259 
 PTB  HN ES       2130 17.25                             133   -0.20 9  147 259 
 PTB  HZ I        2130 23.27        16.8 0.16            128            147 259 
 ZAR  HZ EP       2130  2.50                             123   -0.11 9  203 292 
 ZAR  HN ES       2130 27.39                             123   -0.54 9  203 292 
 ZAR  HZ I        2130 34.52        15.5 0.32            119            203 292 
 NOR  HZ EP       2130  6.18                             119    0.33 8  234 234 
 NOR  HN ES       2130 33.32                             119   -0.40 8  234 234 
 NOR  HZ I        2130 40.26         6.4 0.20            117            234 234 
 CHI  HZ EP       2130  7.59                             118   -0.28 8  248 195 
 CHI  HN ES       2130 37.60                             118    0.30 8  248 195 
 CHI  HZ I        2130 39.78         5.0 0.40            117            248 195 
 ROSC BN ES   4   2130 40.09                             117    2.09 0  252 211 
 URE  HZ EP   4   2130 13.86                             114    2.67 0  283 292 
 URE  HN ES   4   2130 41.14                             114   -2.08 0  283 292 
 URE  HZ I        2130 54.09        11.7 0.22            111            283 292 
 PRA  HZ EP       2130 23.65                             107    0.03 6  391 209 
 PRA  HN ES   4   2131  3.92                             107   -1.42 0  391 209 
 PRA  HZ I        2131 11.16         4.4 0.30            106            391 209 
 ORTC HN ES   4   2131  7.57                             107    1.54 0  395 216 
 SJC  HZ EP   4   2130 24.22                             106   -1.49 0  409 327 
 SJC  HN ES   4   2131  5.02                             106   -4.05 0  409 327 
 SJC  HZ I        2131 19.53         3.1 0.30            105            409 327 
                                                                                
