 2016  1 4 2124 42.7 L   7.445 -73.208125.8  RSN  8 0.5 1.8LRSN                1
 GAP=110        0.64       3.5     4.2  8.9 -0.2665E+01  0.9426E+01  0.5307E+00E
 Epicentro: EL PLAYON - SANTANDER                                              3
 ACTION:UPD 16-03-09 23:22 OP:cam  STATUS:               ID:20160104212442 L   I
 OLDACT:DUP 16-01-05 05:54 OP:dnl  STATUS:               ID:20160104211749d    3
 OLDACT:REG 16-01-05 03:42 OP:dnl  STATUS:               ID:20160104211748     3
 2016-01-04-2117-48M.COL___335                                                 6
 STAT SP IPHASW D HRMM SECON CODA AMPLIT PERI AZIMU VELO AIN AR TRES W  DIS CAZ7
 PAM  EZ EP       2125  2.05                             154    0.3810 57.3 102 
 PAM  EE ES   2   2125 16.26                             154   -0.17 5 57.3 102 
 PAM  EZ I        2125 19.03         9.0 0.25            164           57.3 102 
 BRR  HZ EP   2   2125  2.10                             150    0.59 5 67.0 236 
 BRR  HN ES   3   2125 16.82                             150    0.67 2 67.0 236 
 OCA  HZ EP   2   2125  3.62                             142    0.42 5 88.6 352 
 OCA  HE ES   2   2125 19.06                             142   -0.08 5 88.6 352 
 OCA  HZ I        2125 22.72        34.7 0.05            146           88.6 352 
 BAR2 EZ EP   2   2125  3.73                             141   -0.02 5 94.4 178 
 BAR2 EZ ES   2   2125 19.69                             141   -0.44 5 94.4 178 
 BAR2 EZ I        2125 22.57         6.9 0.12            148           94.4 178 
 PTB  HZ EP   2   2125 10.51                             122    0.07 4  170 234 
 PTB  HE ES       2125 32.03                             122   -0.01 9  170 234 
 PTB  HZ I        2125 38.26         6.6 0.25            127            170 234 
 RUS  HZ EP   2   2125 10.68                             122   -0.57 4  172 175 
 RUS  HE ES   2   2125 32.63                             122   -0.84 4  172 175 
 SML  HZ EP   2   2125 10.56                             121   -0.59 4  178 328 
 SML  HN ES   2   2125 32.51                             121   -0.79 4  178 328 
 SML  HZ I        2125 38.09         9.1 0.07            126            178 328 
 GUY2CHZ EP   4   2125 33.57                             105    3.24 0  342 224 
 GUY2CHE ES   2   2126  7.90                             105    0.46 3  342 224 
 GUY2CHZ I        2126 19.36         3.6 0.24                           342 224 
                                                                                
