 2010  9 4 2248 14.2 L   6.814 -73.015143.3  RSN  8 0.4 1.8LRSN                1
 GAP=173        0.84       3.8     7.6  7.1 -0.7910E+01 -0.3376E+01  0.2459E+01E
 Epicentro: CEPITA - SANTANDER                                                 3
 ACTION:UP  11-02-18 11:00 OP:tino STATUS:               ID:20100904224814 L   I
 2010-09-04-2244-31S.COL___120                                                 6
 STAT SP IPHASW D HRMM SECON CODA AMPLIT PERI AZIMU VELO SNR AR TRES W  DIS CAZ7
 BAR2 SZ EP       2248 33.56                             167    -0.210   31 217 
 BAR2 SZ ES   1   2248 49.24                             167     0.3 7   31 217 
 BAR2 SZ I        2248 51.47        13.4 0.62                            31 217 
 BRR  HZ EP       2248 35.52                             148    -0.310   84 293 
 BRR  HE ES       2248 52.79                             148     0.110   84 293 
 BRR  HZ I        2248 55.28        13.9 0.50                            84 293 
 RUS  HZ EP   2   2248 37.44                             143    -0.4 5  102 184 
 RUS  HN ES   1   2248 56.27                             143     0.0 7  102 184 
 RUS  HZ I        2248 57.37         3.8 0.13                           102 184 
 GRA  SZ EP   1   2248 39.23                             138     0.4 7  121  11 
 GRA  SZ ES   1   2248 58.03                             138     0.0 7  121  11 
 GRA  SZ I        2249  0.19         7.8 0.08                           121  11 
 OCA  SZ EP   1   2248 42.39                             129     0.0 7  161 348 
 OCA  SZ I        2249  5.72        11.2 0.26                           161 348 
 CHI  HN ES   1   2249 22.69                             116     0.5 6  254 198 
 RREF HZ EP   2   2249  2.63                             110     1.0 3  334 231 
 RREF HN ES   2   2249 39.50                             110     0.9 3  334 231 
 RREF HZ I        2249 42.19         3.2 0.39                           334 231 
 PRA  HN ES   1   2249 50.15                             106    -1.0 4  401 211 
 PRA  HZ I        2249 55.00         4.5 0.59                           401 211 
                                                                                
