 2017 11 4 2146 43.3 L   6.781 -73.162146.0  RSN 13 0.5 1.9LRSN                1
 GAP=111        1.10       3.5     3.7  5.6  0.1367E+01  0.3346E+01  0.5803E+01E
 Epicentro: LOS SANTOS - SANTANDER                                             3
 ACTION:UPD 17-12-12 19:52 OP:rebc STATUS:               ID:20171104214643 L   I
 OLDACT:UP  17-11-05 09:43 OP:edw  STATUS:               ID:20171104213519     3
 OLDACT:REG 17-11-05 06:35 OP:edw  STATUS:               ID:20171104213519     3
 2017-11-04-2138-00M.COL___435                                                 6
 STAT SP IPHASW D HRMM SECON CODA AMPLIT PERI AZIMU VELO AIN AR TRES W  DIS CAZ7
 BAR2 EZ EP       2147  2.88                             171   -0.0710 21.0 186 
 BAR2 EZ ES       2147 18.52                             171    0.2710 21.0 186 
 BAR2 EZ I        2147 18.78        21.2 0.34            169           21.0 186 
 BRR  HZ EP       2147  4.55                             153    0.0610 70.7 301 
 BRR  HN ES       2147 21.73                             153    0.7510 70.7 301 
 PAM  EZ EP       2147  5.71                             150   -0.0410 80.2  40 
 PAM  EE ES       2147 22.95                             150   -0.2810 80.2  40 
 PAM  EZ I        2147 24.28         7.9 0.18            154           80.2  40 
 RUS  HZ EP       2147  6.84                             144   -0.1310 98.6 175 
 RUS  HN ES       2147 25.37                             144   -0.0410 98.6 175 
 RUS  HZ I        2147 26.46         8.5 0.26            144           98.6 175 
 PTB  HZ EP       2147  9.44                             133   -0.69 9  146 260 
 PTB  HN ES       2147 30.53                             133   -0.50 9  146 260 
 PTB  HZ I        2147 37.44         7.0 0.22            131            146 260 
 SPBC HZ EP       2147 11.68                             130    0.08 9  160 219 
 SPBC HN ES       2147 33.46                             130   -0.17 9  160 219 
 SPBC HZ I        2147 36.95        13.2 0.10            129            160 219 
 YPLC HZ EP       2147 12.47                             127   -0.59 9  176 150 
 YPLC HN ES       2147 36.33                             127    0.10 9  176 150 
 ZAR  HZ EP       2147 16.87                             123    1.16 9  203 293 
 ZAR  HN ES       2147 40.38                             123   -0.58 9  203 293 
 ZAR  HZ I        2147 45.83         8.9 0.38            122            203 293 
 NOR  HZ EP       2147 18.85                             119    0.05 8  232 235 
 NOR  HN ES       2147 46.02                             119   -0.43 8  232 235 
 NOR  HZ I        2147 51.36         4.4 0.24            119            232 235 
 CHI  HZ EP       2147 21.36                             117    0.58 8  246 195 
 CHI  HE ES       2147 50.46                             117    0.48 8  246 195 
 CHI  HZ I        2147 55.35         5.7 0.32            118            246 195 
 GUY2CHZ EP   4   2147 28.10                             113    1.44 0  298 235 
 GUY2CHN ES   4   2148  4.76                             113    4.32 0  298 235 
 GUY2CHZ I        2148  8.91         3.4 0.34                           298 235 
 PTGC HZ EP       2147 26.65                             112   -0.41 7  307 158 
 PTGC HE ES   4   2147 57.03                             112   -4.13 0  307 158 
 PRA  HZ EP       2147 37.19                             107    0.64 6  389 209 
 PRA  HE ES       2148 18.44                             107    0.39 6  389 209 
 PRA  HZ I        2148 26.47         3.7 0.24            107            389 209 
 SJC  HZ EP   4   2147 37.06                             106   -1.94 0  410 327 
 SJC  HN ES   4   2148 19.14                             106   -3.28 0  410 327 
                                                                                
