 2016  8 4 2234 26.7 L   6.760 -73.109144.9  RSN  9 0.4 2.0LRSN                1
 GAP=143        0.97       3.9     4.2  6.0 -0.2319E+01  0.9877E+01  0.1278E+01E
 Epicentro: LOS SANTOS - SANTANDER                                             3
 ACTION:UPD 16-10-29 15:32 OP:rebc STATUS:               ID:20160804223426 L   I
 OLDACT:REG 16-08-05 05:59 OP:ar   STATUS:               ID:20160804222735     3
 2016-08-04-2228-00M.COL___359                                                 6
 STAT SP IPHASW D HRMM SECON CODA AMPLIT PERI AZIMU VELO AIN AR TRES W  DIS CAZ7
 BAR2 EZ EP       2234 46.10                             172   -0.0510 20.2 203 
 BAR2 EZ ES       2235  0.86                             172   -0.4710 20.2 203 
 BAR2 EZ I        2235  2.12        22.0 0.18                          20.2 203 
 BRR  HZ EP       2234 47.99                             150   -0.0810 76.9 300 
 BRR  HN ES       2235  4.95                             150    0.2110 76.9 300 
 BRR  HZ I        2235  6.11        19.8 0.18                          76.9 300 
 PAM  EZ EP       2234 48.92                             150    0.0510 78.4  35 
 PAM  EN ES       2235  6.29                             150    0.1210 78.4  35 
 PAM  EZ I        2235  8.78        10.6 0.44                          78.4  35 
 RUS  HZ EP       2234 50.08                             145    0.0610 96.0 178 
 RUS  HN ES       2235  8.74                             145    0.5210 96.0 178 
 RUS  HZ I        2235 10.22        10.9 0.42                          96.0 178 
 SPBC HZ EP       2234 54.28                             129   -0.76 9  162 221 
 SPBC HN ES       2235 16.83                             129   -0.32 9  162 221 
 SPBC HZ I        2235 22.17        14.2 0.36                           162 221 
 ZAR  HZ EP       2235  0.20                             121    0.57 8  209 293 
 ZAR  HN ES       2235 24.77                             121   -0.56 8  209 293 
 ZAR  HZ I        2235 31.26        12.6 0.36                           209 293 
 NOR  HZ EP       2235  2.60                             118    0.16 8  235 236 
 NOR  HN ES       2235 30.47                             118    0.13 8  235 236 
 NOR  HZ I        2235 37.65         9.4 0.24                           235 236 
 HEL  HZ EP       2235  6.92                             114   -0.25 8  275 257 
 HEL  HN ES       2235 39.58                             114    0.83 8  275 257 
 HEL  HZ I        2235 46.63         4.8 0.22                           275 257 
 GUY2CHZ EP   4   2235 12.38                             112    2.04 0  302 236 
 GUY2CHN ES   4   2235 42.73                             112   -1.66 0  302 236 
 GUY2CHZ I        2235 51.30         4.0 0.32                           302 236 
                                                                                
