 2013  2 4 2259 59.2 L   6.859 -73.342126.0  RSN  6 0.1 1.6LRSN                1
 GAP=109        0.33       2.2     2.1  3.4  0.1427E+00  0.4560E+00  0.2349E+01E
 Epicentro: BETULIA - SANTANDER                                                3
 ACTION:UPD 13-03-12 09:30 OP:ep   STATUS:               ID:20130204225959 L   I
 2013-02-04-2258-50M.COL___179                                                 6
 STAT SP IPHASW D HRMM SECON CODA AMPLIT PERI AZIMU VELO AIN AR TRES W  DIS CAZ7
 BAR2 SZ EP       23 0 16.80                             164    0.0210 34.4 149 
 BAR2 SZ ES       23 0 30.48                             164   -0.0110 34.4 149 
 BAR2 SZ I        23 0 31.06        28.4 0.22            170           34.4 149 
 BRR  HN ES   1   23 0 30.97                             157    0.04 7 49.2 304 
 BRR  HN I        23 0 38.95        13.3 0.20            153           49.2 304 
 PAM  SN ES   1   23 0 36.50                             143    0.01 7 88.7  53 
 RUS  HZ EP   1   23 0 21.69                             136   -0.20 7  111 165 
 RUS  HN ES       23 0 39.62                             136    0.0310  111 165 
 RUS  HN I        23 0 41.82         2.3 0.44            142            111 165 
 PTB  HN ES   1   23 0 41.14                             131   -0.04 7  128 254 
 PTB  HN I        23 0 44.31         8.2 0.28            132            128 254 
 CHI  HZ EP   2   23 0 36.46                             113    0.39 4  250 190 
                                                                                
