 2012 12 4 2112 53.3 L   6.786 -73.199132.7  RSN  6 0.2 1.7LRSN                1
 GAP=131        0.49       3.1     2.7  3.8 -0.3774E+01  0.3561E+01 -0.7785E-01E
 Epicentro: ZAPATOCA - SANTANDER                                               3
 ACTION:UPD 13-01-04 14:25 OP:ep   STATUS:               ID:20121204211253 L   I
 2012-12-04-2110-00M.COL___237                                                 6
 STAT SP IPHASW D HRMM SECON CODA AMPLIT PERI AZIMU VELO AIN AR TRES W  DIS CAZ7
 BAR2 SZ EP       2113 11.56                             170    0.1910 21.6 175 
 BAR2 SZ ES       2113 25.41                             170   -0.0210 21.6 175 
 GIR2 SZ EP   1   2113 11.64                             166    0.14 7 32.3   1 
 PAM  SZ EP       2113 14.43                             147   -0.0910 82.4  42 
 PAM  SZ I        2113 14.85        14.4 0.23                          82.4  42 
 PAM  SN ES       2113 31.12                             147    0.0810 82.4  42 
 RUS  HZ EP       2113 15.46                             141   -0.3110 99.7 173 
 RUS  HE ES   1   2113 33.32                             141    0.06 7 99.7 173 
 RUS  HE I        2113 35.24         9.8 0.21                          99.7 173 
 PTB  HZ EP       2113 18.61                             130   -0.10 9  142 259 
 PTB  HN ES       2113 38.28                             130   -0.21 9  142 259 
 PTB  HZ I        2113 42.42         5.3 0.07                           142 259 
 NOR  HZ EP       2113 27.95                             116    0.22 8  229 234 
 NOR  HN ES   1   2113 54.98                             116    0.43 6  229 234 
 NOR  HZ I        2114  1.55         2.8 0.20                           229 234 
                                                                                
