 2014 11 4 2319 18.9 L   6.765 -73.131150.0  RSN  4 0.4 1.4LRSN                1
 GAP=140        0.90       5.8     5.5  8.8 -0.4946E+01  0.8439E-01  0.1383E+02E
 Epicentro: LOS SANTOS - SANTANDER                                             3
 ACTION:UPD 14-12-19 15:39 OP:nd   STATUS:               ID:20141104231918 L   I
 OLDACT:REG 14-11-05 05:15 OP:spq  STATUS:               ID:20141104231748     3
 2014-11-04-2317-48M.COL___271                                                 6
 STAT SP IPHASW D HRMM SECON CODA AMPLIT PERI AZIMU VELO AIN AR TRES W  DIS CAZ7
 BRR  HZ EP     D 2319 40.76                             152    0.0510 74.5 301 
 BRR  HE ES       2319 58.31                             152    0.6010 74.5 301 
 BRR  HZ I        2320  6.63         8.4 0.44            153           74.5 301 
 PAM  SZ EP     C 2319 41.80                             151    0.1010 79.4  37 
 PAM  SN ES       2319 59.06                             151   -0.4110 79.4  37 
 PAM  SZ I        2320  5.27         2.4 0.54            153           79.4  37 
 RUS  HZ EP       2319 42.96                             146    0.1610 96.6 177 
 RUS  HE ES   1   2320  1.34                             146   -0.10 7 96.6 177 
 RUS  HZ I        2320  2.59         3.0 0.26            154           96.6 177 
 PTB  HZ EP   1   2319 46.19                             133   -0.12 7  149 260 
 PTB  HE ES   1   2320  6.88                             133   -0.80 7  149 260 
 PTB  HZ I        2320  8.79         2.7 0.14            138            149 260 
                                                                                
