 2011 11 4 2200 59.9 L   6.749 -73.113136.0  RSN  7 0.2 1.8LRSN                1
 GAP=143        0.34       2.9     3.3  4.2  0.1922E+00  0.4297E+01  0.2463E+01E
 Epicentro: LOS SANTOS - SANTANDER                                             3
 ACTION:UPD 12-07-13 16:08 OP:ep   STATUS:               ID:20111104220059 L   I
 2011-11-04-2145-00M.COL___176                                                 6
 STAT SP IPHASW D HRMM SECON CODA AMPLIT PERI AZIMU VELO AIN AR TRES W  DIS CAZ7
 BAR2 SZ EP   1   22 1 18.37                             172    0.08 7 18.9 204 
 BAR2 SZ ES   2   22 1 32.99                             172    0.37 5 18.9 204 
 BAR2 SZ I        22 1 34.70         9.8 0.31                          18.9 204 
 GIR2 SZ EP   2   22 1 18.36                             164   -0.27 5 37.6 346 
 GIR2 SZ ES   2   22 1 33.09                             164   -0.13 5 37.6 346 
 BRR  HZ EP   1   22 1 20.27                             149   -0.12 7 77.2 301 
 BRR  HZ I        22 1 32.82        17.9 0.47                          77.2 301 
 BRR  HE ES   2   22 1 36.55                             149    0.20 5 77.2 301 
 PAM  SZ EP   2   22 1 21.34                             148    0.09 5 79.7  35 
 PAM  SN ES   2   22 1 37.87                             148   -0.02 5 79.7  35 
 RUS  HZ EP   2   22 1 22.38                             143    0.09 5 94.7 178 
 RUS  HZ I        22 1 23.13         4.9 0.27                          94.7 178 
 RUS  HN ES   2   22 1 39.42                             143   -0.31 5 94.7 178 
 ZAR  HE ES   2   22 1 57.53                             119   -0.09 4  210 293 
 ZAR  HZ I        22 2  2.17         9.3 0.47                           210 293 
 RREF HZ EP   2   22 1 45.98                             109    0.43 3  321 231 
 RREF HN ES   2   22 2 20.98                             109   -0.17 3  321 231 
 RREF HZ I        22 2 30.42         2.6 0.40                           321 231 
                                                                                
