 2015  2 4 2144 35.2 L   6.852 -73.136145.4  RSN  7 0.3 1.7LRSN                1
 GAP=202        0.51       2.7     3.2  5.0  0.6542E+00  0.3328E+01 -0.4372E+01E
 Epicentro: LOS SANTOS - SANTANDER                                             3
 ACTION:UPD 15-04-30 21:21 OP:nd   STATUS:               ID:20150204214435 L   I
 OLDACT:UP  15-02-05 09:18 OP:spq  STATUS:               ID:20150204213748     3
 OLDACT:REG 15-02-05 03:55 OP:spq  STATUS:               ID:20150204213748     3
 2015-02-04-2137-48M.COL___278                                                 6
 STAT SP IPHASW D HRMM SECON CODA AMPLIT PERI AZIMU VELO AIN AR TRES W  DIS CAZ7
 BAR2 EZ EP   1   2144 55.00                             168    0.08 8 29.1 190 
 BAR2 EZ ES   1   2145 10.02                             168   -0.27 8 29.1 190 
 BAR2 EZ I        2145 12.98         9.5 0.22            168           29.1 190 
 RUS  HZ EP       2144 59.36                             142    0.0310  106 177 
 RUS  HN ES   1   2145 18.20                             142    0.05 7  106 177 
 RUS  HZ I        2145 20.91         3.3 0.32            145            106 177 
 PTB  HZ EP       2145  2.02                             131   -0.32 9  150 257 
 PTB  HE ES       2145 23.62                             131    0.12 9  150 257 
 PTB  HZ I        2145 25.08         9.8 0.42            133            150 257 
 SPBC HE ES   2   2145 26.87                             128    0.13 5  168 218 
 SPBC HZ I        2145 31.97         9.9 0.45            130            168 218 
 NOR  HZ EP   1   2145 11.40                             118    0.04 6  239 233 
 NOR  HE ES       2145 39.70                             118    0.14 8  239 233 
 NOR  HZ I        2145 44.49         5.8 0.32            120            239 233 
 SML  HZ EP   1   2145 11.43                             118    0.14 6  239 334 
 SML  HE ES   1   2145 39.97                             118    0.53 6  239 334 
 SML  HZ I        2145 44.57         8.6 0.10            120            239 334 
 MON  HZ EP   4   2145 22.16                             109   -1.72 0  351 308 
 MON  HN ES   1   2146  1.18                             109   -0.66 5  351 308 
 MON  HZ I        2146  3.95         1.0 0.43            110            351 308 
                                                                                
