 2010  3 4 2100 58.5 L   6.788 -73.063147.4  RSN 11 0.4 2.4LRSN                1
 GAP=191        0.80       3.3     7.3  6.4  0.7994E+00  0.1574E+02  0.4840E+01E
 Epicentro: LOS SANTOS - SANTANDER                                             3
 ACTION:UP  10-08-24 09:52 OP:vdl  STATUS:               ID:20100304210058 L   I
 2010-03-04-2059-27S.COL___101                                                 6
 STAT SP IPHASW D HRMM SECON CODA AMPLIT PERI AZIMU VELO SNR AR TRES W  DIS CAZ7
 BAR2 SZ EP       21 1 18.32                             170    -0.110   25 212 
 BAR2 SZ ES   3   21 1 33.44                             170    -0.4 2   25 212 
 BRR  HZ IP       21 1 20.19                             150    -0.210   80 296 
 BRR  HE ES   1   21 1 37.60                             150     0.2 7   80 296 
 BRR  HZ I        21 1 39.79        27.0 0.22                            80 296 
 RUS  BZ EP       21 1 22.21                             145    -0.110   99 181 
 RUS  BE ES   1   21 1 41.19                             145     0.3 7   99 181 
 RUS  BZ I        21 1 42.64        31.1 0.50                            99 181 
 OCA  SZ EP       21 1 27.34                             130     0.1 9  163 350 
 OCA  SZ ES   1   21 1 49.47                             130    -0.1 7  163 350 
 OCA  SZ I        21 1 53.33        59.6 0.36                           163 350 
 CHI  HZ EP       21 1 36.24                             117    -0.2 8  250 197 
 CHI  HZ I        21 1 38.81        10.9 0.41                           250 197 
 CHI  HE ES   1   21 2  5.34                             117    -0.7 6  250 197 
 HEL  HZ EP   1   21 1 40.10                             114     0.3 6  281 257 
 HEL  HN ES   3   21 2 10.73                             114    -1.2 2  281 257 
 HEL  HZ I        21 2 16.24        12.4 0.31                           281 257 
 RREF BZ EP       21 1 45.88                             111     0.5 7  328 231 
 RREF BZ I        21 2 30.20        11.4 0.50                           328 231 
 DBB  SZ EP       21 1 46.26                             109    -0.9 6  349 274 
 TOL  SZ EP       21 1 48.21                             109     0.7 6  349 226 
 TOL  SZ ES   3   21 2 25.82                             109     0.2 2  349 226 
 ANIL BZ EP   1   21 1 49.55                             108     0.5 5  363 226 
 ANIL BN ES   2   21 2 29.20                             108     0.8 3  363 226 
 ANIL BZ I        21 2 35.74        17.7 0.23                           363 226 
 PRA  HZ EP       21 1 52.21                             107    -0.3 6  395 211 
 PRA  HN ES   2   21 2 34.37                             107    -0.2 3  395 211 
 PRA  HZ I        21 2 38.00         8.5 0.42                           395 211 
                                                                                
