 2013  9 4 2230 30.8 L   6.839 -73.150146.0  RSN  7 0.5 1.9LRSN                1
 GAP=134        1.15       5.1     6.0  8.7 -0.4769E+01  0.4322E+01  0.1921E+02E
 Epicentro: LOS SANTOS - SANTANDER                                             3
 ACTION:UPD 13-10-22 09:20 OP:ep   STATUS:               ID:20130904223030 L   I
 OLDACT:DUP 13-09-05 02:45 OP:nd   STATUS:               ID:20130904222960d    3
 2013-09-04-2229-59M.COL___269                                                 6
 STAT SP IPHASW D HRMM SECON CODA AMPLIT PERI AZIMU VELO AIN AR TRES W  DIS CAZ7
 BRR  HZ IP     C 2230 51.83                             153    0.0210 68.8 296 
 BRR  HN ES       2231  9.04                             153    0.8210 68.8 296 
 BRR  HZ I        2231 15.13        16.8 0.28            154           68.8 296 
 PAM  SZ EP       2230 52.96                             152    0.1310 74.5  42 
 PAM  SN ES       2231  9.76                             152   -0.2910 74.5  42 
 PAM  SZ I        2231 10.45        18.2 0.20            159           74.5  42 
 RUS  HZ EP       2230 54.91                             143    0.0610  105 176 
 RUS  HN ES       2231 13.31                             143   -0.3310  105 176 
 RUS  HZ I        2231 16.67         4.3 0.38            144            105 176 
 PTB  HZ EP       2230 56.87                             132   -0.92 9  148 257 
 PTB  HN ES       2231 18.53                             132   -0.34 9  148 257 
 PTB  HZ I        2231 20.77        19.2 0.26            133            148 257 
 CHI  HZ EP       2231  9.77                             117    0.86 8  253 195 
 CHI  HN ES       2231 38.83                             117    0.16 8  253 195 
 CHI  HZ I        2231 44.32         3.9 0.28            119            253 195 
 GUY2CHZ EP   4   2231 16.07                             112    1.45 0  303 234 
 GUY2CHN ES   4   2231 53.62                             112    4.79 0  303 234 
 GUY2CHZ I        2231 58.82         7.7 0.64                           303 234 
 PRA  HZ EP       2231 24.67                             106   -0.03 6  396 209 
 PRA  HN ES       2232  6.96                             106    0.19 6  396 209 
 PRA  HZ I        2232 15.88         3.5 0.30            108            396 209 
                                                                                
