 2016  9 4 2227 51.9 L   6.751 -73.182152.0  RSN  5 0.4 1.5LRSN                1
 GAP=230        0.84       6.7     6.3  6.6  0.2695E+02  0.7787E+01  0.7170E+00E
 Epicentro: LOS SANTOS - SANTANDER                                             3
 ACTION:UPD 17-08-17 21:06 OP:lp   STATUS:               ID:20160904222751 L   I
 OLDACT:UP  16-09-05 08:05 OP:and  STATUS:               ID:20160904221735     3
 OLDACT:REG 16-09-05 02:59 OP:and  STATUS:               ID:20160904221735     3
 2016-09-04-2218-00M.COL___354                                                 6
 STAT SP IPHASW D HRMM SECON CODA AMPLIT PERI AZIMU VELO AIN AR TRES W  DIS CAZ7
 BAR2 EZ EP   2   2228 11.88                             173   -0.25 5 17.6 180 
 BAR2 EZ ES       2228 27.37                             173   -0.5810 17.6 180 
 BRR  HZ EP       2228 13.64                             154   -0.0110 70.6 304 
 BRR  HN ES       2228 30.98                             154    0.3410 70.6 304 
 RUS  HZ EP       2228 16.24                             146    0.3610 95.6 173 
 RUS  HN ES       2228 34.83                             146    0.2110 95.6 173 
 PTB  HZ EP       2228 18.80                             134   -0.10 9  143 261 
 PTB  HN ES       2228 39.76                             134   -0.25 9  143 261 
 PTB  HZ I        2228 40.61         4.1 0.18            134            143 261 
 ZAR  HZ EP   2   2228 23.61                             124   -0.94 4  202 294 
 ZAR  HN ES       2228 50.36                             124    0.30 9  202 294 
                                                                                
