 2017  2 4 2220  8.7 L   6.800 -73.180144.0  RSN  4 0.3 1.2LRSN                1
 GAP=234        0.76       6.2     6.2  7.7  0.2623E+02 -0.1241E+01 -0.2761E+01E
 Epicentro: LOS SANTOS - SANTANDER                                             3
 ACTION:UPD 17-05-24 15:32 OP:jn   STATUS:               ID:20170204222008 L   I
 OLDACT:REG 17-02-05 05:57 OP:cog  STATUS:               ID:20170204221741     3
 2017-02-04-2218-00M.COL___340                                                 6
 STAT SP IPHASW D HRMM SECON CODA AMPLIT PERI AZIMU VELO AIN AR TRES W  DIS CAZ7
 BRR  HZ EP       2220 29.37                             153   -0.1110 67.9 300 
 BRR  HN ES       2220 45.57                             153   -0.1210 67.9 300 
 RUS  HZ EP       2220 32.05                             143   -0.2510  101 174 
 RUS  HN ES       2220 51.06                             143    0.3510  101 174 
 RUS  HZ I        2220 52.53         2.2 0.30            142            101 174 
 PTB  HZ EP       2220 35.32                             132    0.13 9  144 259 
 PTB  HN ES       2220 55.46                             132   -0.40 9  144 259 
 PTB  HZ I        2220 57.94         2.3 0.09            132            144 259 
 ZAR  HE ES       2221  6.12                             122    0.50 9  201 293 
                                                                                
