 2015 10 4 2243 15.0 L   6.894 -72.832143.3  RSN  5 0.5 1.6LRSN                1
 GAP=227        1.10       8.1    12.2 11.4  0.7232E+02 -0.5821E+02 -0.5184E+02E
 Epicentro: GUACA - SANTANDER                                                  3
 ACTION:UPD 15-12-22 20:37 OP:cam  STATUS:               ID:20151004224315 L   I
 OLDACT:UP  15-10-05 05:59 OP:mh   STATUS:               ID:20151004223749d    3
 OLDACT:DUP 15-10-05 05:59 OP:mh   STATUS:               ID:20151004223749d    3
 2015-10-04-2237-48M.COL___352                                                 6
 STAT SP IPHASW D HRMM SECON CODA AMPLIT PERI AZIMU VELO AIN AR TRES W  DIS CAZ7
 BAR2 EZ EP       2243 35.81                             159    0.5710 51.2 229 
 BAR2 EZ ES       2243 50.86                             159   -0.1610 51.2 229 
 BAR2 EZ I        2243 52.82         8.0 0.34            163           51.2 229 
 BRR  HZ EP   1   2243 36.94                             143   -0.85 7  100 284 
 BRR  HN ES       2243 55.21                             143   -0.3510  100 284 
 BRR  HZ I        2244  0.01         6.6 0.33            146            100 284 
 RUS  HZ EP       2243 39.01                             140   -0.5510  114 194 
 RUS  HN ES       2243 59.23                             140    0.5210  114 194 
 RUS  HZ I        2243 59.61         2.1 0.34            145            114 194 
 ZAR  HN ES       2244 18.26                             118    0.26 8  233 287 
 SML  HZ EP   1   2243 52.58                             116    0.25 6  251 327 
 SML  HN ES       2244 21.73                             116    0.29 8  251 327 
 SML  HZ I        2244 25.28         6.5 0.10            118            251 327 
                                                                                
