 2011  1 4 2046 43.7 L   6.011 -73.695109.5  RSN  5 0.2 1.4LRSN                1
 GAP=136        0.44       2.9     3.3  7.2 -0.3400E+01  0.1058E+02  0.4745E+00E
 Epicentro: VELEZ - SANTANDER                                                  3
 ACTION:UP  11-02-08 08:38 OP:pat  STATUS:               ID:20110104204643 L   I
 2011-01-04-2042-27S.COL___135                                                 6
 STAT SP IPHASW D HRMM SECON CODA AMPLIT PERI AZIMU VELO SNR AR TRES W  DIS CAZ7
 RUS  HZ EP       2047  1.56                             145    -0.110   69 101 
 RUS  HN ES   2   2047 15.81                             145     0.2 5   69 101 
 RUS  HZ I        2047 17.65         4.2 0.37                            69 101 
 BAR2 SZ EP   3   2047  2.35                             139    -0.2 2   86  41 
 BAR2 SZ ES   2   2047 16.70                             139    -0.5 5   86  41 
 BAR2 SZ I        2047 17.90        12.2 0.18                            86  41 
 BTL  SZ EP       2047  4.91                             131     0.210  111  25 
 NOR  SZ EP       2047  7.08                             124    -0.1 9  139 249 
 NOR  SN ES   2   2047 25.66                             124     0.1 5  139 249 
 CHI  HZ EP       2047  9.05                             121     0.0 9  153 182 
 CHI  HN ES   2   2047 28.82                             121     0.0 5  153 182 
 CHI  HZ I        2047 32.10         2.9 0.39                           153 182 
                                                                                
