 2017  4 4 2339 26.2 L   6.767 -73.144144.2  RSN  9 0.4 1.9LRSN                1
 GAP=138        1.04       3.8     4.2  6.6 -0.1826E+01  0.7044E+01  0.4790E+01E
 Epicentro: LOS SANTOS - SANTANDER                                             3
 ACTION:UPD 17-05-30 21:08 OP:jn   STATUS:               ID:20170404233926 L   I
 OLDACT:REG 17-04-05 04:40 OP:dnl  STATUS:               ID:20170404233746     3
 2017-04-04-2338-00M.COL___359                                                 6
 STAT SP IPHASW D HRMM SECON CODA AMPLIT PERI AZIMU VELO AIN AR TRES W  DIS CAZ7
 BAR2 EZ EP       2339 45.41                             172   -0.1410 19.8 192 
 BAR2 EZ ES       2340  0.49                             172   -0.1810 19.8 192 
 BAR2 EZ I        2340  1.45        25.8 0.24            168           19.8 192 
 BRR  HZ IP     C 2339 47.33                             152    0.0610 73.2 301 
 BRR  HN ES       2340  4.30                             152    0.5710 73.2 301 
 BRR  HZ I        2340  5.49        15.2 0.18            150           73.2 301 
 PAM  EZ EP       2339 48.95                             150    0.5610 80.0  38 
 PAM  EN ES       2340  5.27                             150   -0.4510 80.0  38 
 PAM  EZ I        2340  6.39        10.5 0.18            154           80.0  38 
 RUS  HZ EP       2339 49.40                             144   -0.1210 97.0 176 
 RUS  HN ES       2340  7.86                             144    0.1410 97.0 176 
 RUS  HZ I        2340  8.81         9.9 0.22            144           97.0 176 
 PTB  HZ EP       2339 52.27                             132   -0.71 9  147 260 
 PTB  HN ES       2340 13.31                             132   -0.57 9  147 260 
 PTB  HZ I        2340 17.23         8.5 0.16            130            147 260 
 SPBC HZ EP       2339 54.53                             129    0.23 9  161 220 
 SPBC HE ES       2340 16.93                             129    0.68 9  161 220 
 SPBC HZ I        2340 23.23        14.9 0.22            128            161 220 
 ZAR  HZ EP   4   2340  0.16                             122    1.48 0  206 293 
 ZAR  HN ES       2340 24.01                             122   -0.03 8  206 293 
 ZAR  HZ I        2340 29.86        11.9 0.36            122            206 293 
 NOR  HZ EP       2340  1.98                             118    0.37 8  233 235 
 NOR  HN ES       2340 29.26                             118    0.01 8  233 235 
 NOR  HZ I        2340 33.76         6.5 0.14            118            233 235 
 CHI  HZ EP   4   2340  4.43                             117    1.01 0  245 195 
 CHI  HN ES       2340 31.96                             117   -0.51 8  245 195 
 CHI  HZ I        2340 40.01         2.7 0.26            117            245 195 
                                                                                
