 2012 11 4 2305 25.5 L   6.742 -73.094144.5  RSN  4 0.2 1.6LRSN                1
 GAP=146        0.36       2.5     3.9  5.1 -0.9424E+00 -0.4630E+01  0.4136E+01E
 Epicentro: JORDAN - SANTANDER                                                 3
 ACTION:UPD 12-12-05 15:31 OP:}ep  STATUS:               ID:20121104230525 L   I
 2012-11-04-2300-00M.COL___230                                                 6
 STAT SP IPHASW D HRMM SECON CODA AMPLIT PERI AZIMU VELO AIN AR TRES W  DIS CAZ7
 PAM  SZ EP       23 5 47.69                             150    0.0510 79.2  33 
 PAM  SZ I        23 5 47.81         9.3 0.18                          79.2  33 
 PAM  SE ES   2   23 6  4.70                             150   -0.25 5 79.2  33 
 BRR  HZ EP       23 5 46.82                             150   -0.1310 79.4 301 
 BRR  HN ES   1   23 6  3.82                             150    0.10 7 79.4 301 
 BRR  HZ I        23 6  6.34         4.0 0.13                          79.4 301 
 RUS  HZ EP       23 5 48.73                             145    0.1310 93.9 179 
 RUS  HE ES   2   23 6  6.75                             145    0.09 5 93.9 179 
 RUS  HE I        23 6  8.49         7.9 0.48                          93.9 179 
 CHI  HZ EP   2   23 6  2.58                             117    0.00 4  244 197 
 CHI  HN ES   2   23 6 31.16                             117   -0.38 4  244 197 
                                                                                
