 2010  2 4 2158 56.9 L   6.732 -73.099144.3  RSN  6 0.3 1.8LRSN                1
 GAP=308        0.62       7.5    10.5  6.9 -0.3567E+02  0.1863E+02  0.1446E+02E
 Epicentro: LOS SANTOS - SANTANDER                                             3
 ACTION:UP  10-08-24 09:47 OP:vdl  STATUS:               ID:20100204215856 L   I
 2010-02-04-2157-09S.COL___097                                                 6
 STAT SP IPHASW D HRMM SECON CODA AMPLIT PERI AZIMU VELO SNR AR TRES W  DIS CAZ7
 BAR2 SZ EP   1   2159 15.90                             172    -0.3 7   18 211 
 BAR2 SZ ES   1   2159 31.37                             172     0.0 7   18 211 
 RUS  BZ EP       2159 19.92                             146     0.010   93 179 
 RUS  BN ES   2   2159 38.53                             146     0.6 5   93 179 
 RUS  BZ I        2159 39.33         6.0 0.49                            93 179 
 CHI  HZ EP       2159 33.98                             117     0.1 8  243 197 
 CHI  HN ES   1   22 0  2.31                             117    -0.4 6  243 197 
 CHI  HZ I        22 0  2.99         4.2 0.19                           243 197 
 RREF BN ES   2   22 0 18.69                             111     0.0 3  321 231 
 RREF BZ I        22 0 25.20         4.1 0.52                           321 231 
 TOL  SZ EP   1   2159 45.53                             109     0.6 5  342 226 
 PRA  HE ES   1   22 0 31.03                             106    -0.2 4  388 211 
                                                                                
