 2014  1 4 2354 50.4 L   6.804 -73.129144.8  RSN 14 0.5 2.0LRSN                1
 GAP=138        1.15       3.3     4.3  6.1 -0.1692E+01  0.7271E+01  0.4206E+00E
 Epicentro: LOS SANTOS - SANTANDER                                             3
 ACTION:UPD 14-03-13 09:51 OP:ep   STATUS:               ID:20140104235450 L   I
 OLDACT:REG 14-01-04 21:25 OP:nd   STATUS:               ID:20140104235000     3
 2014-01-04-2350-00M.COL___285                                                 6
 STAT SP IPHASW D HRMM SECON CODA AMPLIT PERI AZIMU VELO AIN AR TRES W  DIS CAZ7
 BAR2 SZ IP     D 2355 10.24                             170    0.2910 24.2 194 
 BAR2 SZ ES       2355 24.81                             170   -0.3710 24.2 194 
 BAR2 SZ I        2355 27.73        25.3 0.42            168           24.2 194 
 BRR  HZ IP     C 2355 12.03                             152    0.4910 72.6 298 
 BRR  HN ES       2355 28.72                             152    0.7010 72.6 298 
 BRR  HZ I        2355 33.35        24.7 0.14            148           72.6 298 
 PAM  SZ EP       2355 12.98                             151    0.5410 75.9  39 
 PAM  SN ES       2355 29.84                             151    0.2210 75.9  39 
 PAM  SZ I        2355 30.66         9.2 0.18            155           75.9  39 
 RUS  HZ IP     C 2355 14.25                             144    0.1510  101 177 
 RUS  HN ES       2355 32.48                             144   -0.0910  101 177 
 RUS  HZ I        2355 34.23        11.1 0.26            146            101 177 
 PTB  HZ EP       2355 17.22                             131   -0.26 9  150 259 
 PTB  HN ES       2355 37.80                             131   -0.78 9  150 259 
 PTB  HZ I        2355 41.51        15.4 0.14            130            150 259 
 OCA  HZ EP       2355 17.98                             129   -0.65 9  160 352 
 OCA  HN ES       2355 39.80                             129   -0.83 9  160 352 
 OCA  HZ I        2355 44.69        11.1 0.16            131            160 352 
 SPBC HZ EP   4   2355 19.57                             129    0.58 0  165 219 
 SPBC HN ES   4   2355 40.71                             129   -0.56 0  165 219 
 SPBC HZ I        2355 47.70        14.1 0.16            129            165 219 
 ZAR  HZ EP       2355 22.90                             122   -0.05 8  206 292 
 ZAR  HN ES       2355 48.97                             122    0.64 8  206 292 
 ZAR  HZ I        2355 54.73        17.6 0.28            122            206 292 
 NOR  HZ EP       2355 26.58                             118    0.30 8  236 235 
 NOR  HN ES       2355 54.02                             118   -0.23 8  236 235 
 NOR  HZ I        2355 56.44         9.3 0.24            119            236 235 
 SML  HZ EP       2355 26.58                             117   -0.44 8  244 335 
 SML  HN ES   2   2355 55.35                             117   -0.23 4  244 335 
 SML  HZ I        2356  2.54        19.9 0.26            118            244 335 
 CHI  HZ EP       2355 28.49                             117    0.33 8  250 196 
 CHI  HN ES       2355 56.90                             117   -0.71 8  250 196 
 CHI  HZ I        2356  5.60         3.4 0.38            118            250 196 
 HEL  HZ EP   2   2355 30.95                             114    0.16 4  274 256 
 HEL  HN ES       2356  2.73                             114    0.45 8  274 256 
 HEL  HZ I        2356  9.29         5.3 0.22            115            274 256 
 URE  HZ EP   4   2355 31.05                             113   -0.56 0  285 292 
 URE  HN ES   4   2356  4.17                             113    0.43 0  285 292 
 URE  HZ I        2356 13.92         7.6 0.16            114            285 292 
 GUY2CHZ EP   4   2355 34.02                             112   -0.16 0  303 235 
 GUY2CHN ES   4   2356  9.40                             112    1.09 0  303 235 
 GUY2CHZ I        2356 16.09         3.9 0.24                           303 235 
 SJC  HZ EP   4   2355 42.86                             106   -3.15 0  410 327 
 SJC  HN ES   4   2356 25.37                             106   -4.01 0  410 327 
                                                                                
