 2016  2 4 2026 40.9 L   6.469 -73.719 98.4  RSN  9 0.5 1.7LRSN                1
 GAP= 97        1.20       3.4     3.2  7.7 -0.1244E+01  0.5368E+01 -0.3943E-01E
 Epicentro: SANTA HELENA DEL OPON - SANTANDER                                  3
 ACTION:UPD 16-03-04 21:23 OP:rebc STATUS:               ID:20160204202640 L   I
 OLDACT:REG 16-02-05 03:51 OP:ar   STATUS:               ID:20160204201748     3
 2016-02-04-2017-48M.COL___337                                                 6
 STAT SP IPHASW D HRMM SECON CODA AMPLIT PERI AZIMU VELO AIN AR TRES W  DIS CAZ7
 BAR2 EZ EP       2026 56.85                             146    0.0310 60.8  77 
 BAR2 EZ ES       2027  9.92                             146    0.7210 60.8  77 
 BAR2 EZ I        2027 11.14        48.4 0.15            148           60.8  77 
 PTB  HZ EP       2026 57.43                             137   -0.7010 82.0 275 
 PTB  HN ISg      2027 10.93                             137   -0.5910 82.0 275 
 PTB  HZ I        2027 13.91        13.8 0.10            137           82.0 275 
 RUS  HZ EP       2026 59.47                             133   -0.4310 94.9 132 
 RUS  HN ES       2027 14.87                             133    0.1810 94.9 132 
 RUS  HZ I        2027 16.49         5.3 0.24            134           94.9 132 
 SPBC HZ EP       2026 59.30                             132   -0.3810 98.5 203 
 SPBC HE ES       2027 14.08                             132   -0.2110 98.5 203 
 SPBC HZ I        2027 16.46        16.7 0.26            131           98.5 203 
 PAM  EZ EP       2027  5.11                             120   -0.09 9  148  49 
 PAM  EN ES       2027 24.02                             120   -0.10 9  148  49 
 PAM  EZ I        2027 25.25         6.2 0.54            121            148  49 
 NOR  HZ EP       2027  6.22                             117    0.07 9  162 232 
 NOR  HE ES       2027 26.70                             117    0.90 9  162 232 
 NOR  HZ I        2027 28.13        12.9 0.17            116            162 232 
 ZAR  HZ EP       2027  7.48                             116    0.59 9  169 312 
 ZAR  HE ES       2027 27.11                             116   -0.01 9  169 312 
 ZAR  HZ I        2027 33.48         6.2 0.20            116            169 312 
 CHI  HZ EP       2027 10.96                             112   -0.30 9  203 180 
 CHI  HE ES       2027 34.82                             112   -0.09 9  203 180 
 CHI  HZ I        2027 44.89         2.4 0.48            111            203 180 
 GUY2CHZ EP       2027 15.09                             109    0.85 8  228 233 
 GUY2CHE ES   4   2027 41.53                             109    1.33 0  228 233 
 GUY2CHZ I        2027 46.11         7.6 0.32                           228 233 
                                                                                
