 2013  1 4 2356 12.6 L   6.800 -73.151148.4  RSN  7 0.5 1.7LRSN                1
 GAP=182        0.93       4.8     7.5  8.9  0.1192E+02  0.1146E+02  0.8581E+01E
 Epicentro: LOS SANTOS - SANTANDER                                             3
 ACTION:UPD 13-02-15 09:12 OP:ep   STATUS:               ID:20130104235612 L   I
 2013-01-04-2350-00M.COL___242                                                 6
 STAT SP IPHASW D HRMM SECON CODA AMPLIT PERI AZIMU VELO AIN AR TRES W  DIS CAZ7
 BAR2 SZ ES   1   2356 48.10                             171    0.04 7 23.3 189 
 BAR2 SZ I        2356 49.00        25.2 0.18            169           23.3 189 
 BRR  HZ EP   1   2356 34.45                             153    0.49 7 70.6 299 
 BRR  HN ES   1   2356 51.39                             153    0.73 7 70.6 299 
 BRR  HZ I        2356 54.76         8.0 0.15            152           70.6 299 
 RUS  HZ EP   1   2356 36.66                             144    0.08 7  101 176 
 RUS  HN ES   1   2356 55.22                             144   -0.09 7  101 176 
 RUS  HZ I        2356 56.70         8.2 0.26            145            101 176 
 PTB  HZ EP   1   2356 39.62                             133   -0.07 7  147 259 
 PTB  HN ES   1   2357  0.34                             133   -0.51 7  147 259 
 PTB  HZ I        2357  3.77         6.2 0.14            132            147 259 
 OCA  HN ES   1   2357  2.42                             130   -0.88 7  160 353 
 OCA  HZ I        2357  5.77         8.0 0.20            132            160 353 
 ZAR  HE ES   1   2357 10.64                             123    0.13 6  203 292 
 CHI  HZ EP   1   2356 51.03                             118    0.64 6  249 195 
 CHI  HN ES   1   2357 19.12                             118   -0.78 6  249 195 
 CHI  HZ I        2357 25.76         1.7 0.17            118            249 195 
                                                                                
