 2013  1 4 2250 29.5 L   6.802 -73.144139.2  RSN  9 0.4 2.3LRSN                1
 GAP=183        0.78       3.9     6.0  7.3  0.6685E+01  0.1354E+02  0.4845E+01E
 Epicentro: LOS SANTOS - SANTANDER                                             3
 ACTION:UPD 13-02-15 09:12 OP:ep   STATUS:               ID:20130104225029 L   I
 2013-01-04-2250-00M.COL___242                                                 6
 STAT SP IPHASW D HRMM SECON CODA AMPLIT PERI AZIMU VELO AIN AR TRES W  DIS CAZ7
 BAR2 SZ EP   1   2250 48.44                             170    0.15 7 23.6 190 
 BAR2 SZ ES   1   2251  3.27                             170    0.28 7 23.6 190 
 BAR2 SZ I        2251  6.18        68.2 0.44            144           23.6 190 
 BRR  HZ EP   1   2250 50.33                             151    0.44 7 71.3 298 
 BRR  HN ES   4   2251  7.74                             151    1.91 0 71.3 298 
 BRR  HZ I        2251 13.47        24.7 0.22            127           71.3 298 
 RUS  HZ EP   1   2250 52.56                             142   -0.02 7  101 176 
 RUS  HN ES   1   2251 10.52                             142   -0.09 7  101 176 
 RUS  HZ I        2251 13.93        26.1 0.38            120            101 176 
 PTB  HZ EP   1   2250 55.14                             130   -0.77 7  148 259 
 PTB  HN ES   1   2251 16.34                             130   -0.21 7  148 259 
 PTB  HZ I        2251 23.69        31.0 0.54            109            148 259 
 OCA  HN ES   1   2251 18.45                             128   -0.45 7  160 353 
 ZAR  HE ES   1   2251 26.79                             121    0.32 6  204 292 
 ZAR  HZ I        2251 33.50        25.4 0.26            105            204 292 
 CTAB SZ EP   4   2251  6.06                             118    1.21 0  230 211 
 CHI  HZ EP   1   2251  6.53                             116   -0.29 6  249 195 
 CHI  HN ES   1   2251 35.53                             116   -0.45 6  249 195 
 CHI  HZ I        2251 45.85         8.3 0.38            102            249 195 
 ROSC BZ EP   1   2251  8.22                             115    0.97 6  253 211 
 ROSC BZ I        2251 43.41        17.1 0.55            102            253 211 
 HEL  HZ EP   1   2251  9.54                             113    0.18 6  272 256 
 HEL  HZ I        2251 46.75        14.2 0.32            101            272 256 
 URE  HN ES   4   2251 40.60                             112   -1.42 0  284 292 
                                                                                
