 2017 11 4 2132 18.6 L   6.773 -73.101147.8  RSN 12 0.6 1.9LRSN                1
 GAP=117        1.41       4.6     4.8  7.5  0.1991E+01  0.8332E+01  0.8348E+01E
 Epicentro: LOS SANTOS - SANTANDER                                             3
 ACTION:UPD 17-12-12 19:52 OP:rebc STATUS:               ID:20171104213218 L   I
 OLDACT:UP  17-11-05 08:39 OP:edw  STATUS:               ID:20171104212740     3
 OLDACT:REG 17-11-05 03:59 OP:edw  STATUS:               ID:20171104212740     3
 2017-11-04-2128-00M.COL___435                                                 6
 STAT SP IPHASW D HRMM SECON CODA AMPLIT PERI AZIMU VELO AIN AR TRES W  DIS CAZ7
 BAR2 EZ EP       2132 38.40                             171   -0.0310 21.9 204 
 BAR2 EZ ES       2132 54.32                             171    0.4110 21.9 204 
 BAR2 EZ I        2132 56.17        20.5 0.38            171           21.9 204 
 PAM  EZ IP     C 2132 41.31                             151    0.3310 76.8  35 
 PAM  EE ES       2132 58.70                             151    0.2510 76.8  35 
 PAM  EZ I        2133  0.75        12.4 0.64            154           76.8  35 
 BRR  HZ EP       2132 40.42                             151    0.1410 76.9 299 
 BRR  HE ES       2132 57.61                             151    0.4010 76.9 299 
 BRR  HZ I        2133  1.93        13.4 0.30            151           76.9 299 
 RUS  HZ EP       2132 42.38                             145    0.0710 97.4 179 
 RUS  HN ES       2133  0.93                             145    0.1210 97.4 179 
 RUS  HZ I        2133  2.18         8.8 0.30            147           97.4 179 
 PTB  HZ EP       2132 45.52                             132   -0.58 9  152 260 
 PTB  HE ES       2133  6.63                             132   -0.94 9  152 260 
 PTB  HZ I        2133  8.63         7.5 0.34            133            152 260 
 SPBC HZ EP       2132 47.31                             129   -0.01 9  164 221 
 SPBC HE ES       2133  9.81                             129    0.08 9  164 221 
 SPBC HZ I        2133 13.03        12.8 0.20            131            164 221 
 YPLC HZ EP       2132 48.70                             128    0.66 9  172 152 
 YPLC HN ES       2133  9.14                             128   -1.88 9  172 152 
 ZAR  HZ EP       2132 51.36                             122   -0.39 8  210 292 
 ZAR  HN ES       2133 16.81                             122   -0.80 8  210 292 
 ZAR  HZ I        2133 22.05         6.6 0.12            124            210 292 
 TABC EZ EP   4   2132 56.22                             120    1.77 0  230 212 
 NOR  HZ EP       2132 54.67                             119   -0.01 8  237 236 
 NOR  HN ES       2133 23.45                             119    0.62 8  237 236 
 NOR  HZ I        2133 24.03         6.5 0.18            120            237 236 
 CHI  HZ EP       2132 56.66                             118    0.43 8  247 196 
 CHI  HN ES       2133 26.13                             118    0.54 8  247 196 
 CHI  HZ I        2133 29.87         2.9 0.34            120            247 196 
 GUY2CHZ EP       2133  2.83                             113    0.28 7  304 236 
 GUY2CHN ES       2133 37.33                             113    0.49 7  304 236 
 GUY2CHZ I        2133 44.83         5.9 0.28                           304 236 
 SJC  HZ EP   9   2133 12.34                             106   -2.48 0  414 327 
 SJC  HN ES       2133 56.25                             106    0.04 6  414 327 
                                                                                
