 2016  4 4 2006 14.0 L   6.830 -73.147148.7  RSN 19 0.4 2.3LRSN                1
 GAP=119        0.92       3.0     2.8  4.4 -0.2377E+01  0.3067E+01 -0.1493E+01E
 Epicentro: LOS SANTOS - SANTANDER                                             3
 ACTION:UPD 16-05-05 14:18 OP:rebc STATUS:               ID:20160404200614 L   I
 OLDACT:REG 16-04-05 05:08 OP:ak   STATUS:               ID:20160404195747     3
 2016-04-04-1957-47M.COL___313                                                 6
 STAT SP IPHASW D HRMM SECON CODA AMPLIT PERI AZIMU VELO AIN AR TRES W  DIS CAZ7
 BAR2 EZ EP       20 6 34.19                             169    0.1810 26.6 189 
 BAR2 EZ ES       20 6 49.37                             169   -0.2810 26.6 189 
 BAR2 EZ I        20 6 50.56        95.4 0.14            167           26.6 189 
 PAM  EZ IP     C 20 6 36.93                             152    0.5810 74.9  41 
 PAM  EN ES       20 6 54.31                             152    0.5010 74.9  41 
 PAM  EZ I        20 6 56.68        26.9 0.66            154           74.9  41 
 RUS  HZ EP       20 6 38.09                             144   -0.1510  104 176 
 RUS  HE ES       20 6 56.63                             144   -0.5410  104 176 
 RUS  HZ I        20 6 58.05        29.6 0.32            142            104 176 
 PTB  HZ EP       20 6 40.90                             133   -0.32 9  148 258 
 PTB  HN ES       20 7  1.99                             133   -0.49 9  148 258 
 PTB  HZ I        20 7  9.42        22.4 0.46            129            148 258 
 SPBC HZ EP       20 6 43.00                             129    0.08 9  166 218 
 SPBC HN ES       20 7  5.58                             129    0.07 9  166 218 
 SPBC HZ I        20 7  7.91        57.8 0.18            127            166 218 
 ZAR  HZ EP       20 6 45.79                             123   -0.67 9  203 291 
 ZAR  HN ES       20 7 12.49                             123    0.68 9  203 291 
 ZAR  HZ I        20 7 19.01        13.6 0.37            120            203 291 
 NOR  HZ EP       20 6 50.45                             119    0.39 8  237 234 
 NOR  HN ES       20 7 18.09                             119   -0.12 8  237 234 
 NOR  HZ I        20 7 21.61        20.4 0.18            117            237 234 
 CHI  HZ EP       20 6 51.76                             117   -0.40 8  252 195 
 CHI  HN ES       20 7 22.43                             117    0.47 8  252 195 
 CHI  HZ I        20 7 24.47         9.4 0.22            116            252 195 
 ROSC BZ EP   9   20 6 54.12                             117    1.58 0  256 211 
 ROSC BN ES       20 7 25.10                                    0.89 8  256 211 
 ROSC BZ I        20 7 29.19        27.1 0.45            115            256 211 
 HEL  HZ EP   2   20 6 54.51                             115    0.11 4  273 255 
 HEL  HN ES   2   20 7 25.41                             115   -0.54 4  273 255 
 HEL  HZ I        20 7 33.12         9.6 0.24            113            273 255 
 URE  HZ EP       20 6 54.74                             114   -0.28 7  283 291 
 URE  HN ES   4   20 7 24.78                             114   -2.28 0  283 291 
 SOCV BZ EP       20 6 56.65                             113   -0.30 7  300  57 
 SOCV BN ES   4   20 7 27.72                             113   -2.76 0  300  57 
 GUY2CHZ EP   2   20 6 58.34                             113    0.43 4  303 234 
 GUY2CHN ES       20 7 32.55                             113    0.36 7  303 234 
 GUY2CHZ I        20 7 38.90         9.8 0.54                           303 234 
 ELA  HZ EP   9   20 7  3.42                             111    2.25 0  331 229 
 ELA  HN ES       20 7 40.67                                    0.42 7  331 229 
 ELA  HZ I        20 7 53.35         8.3 0.54            109            331 229 
 CBOC HZ EP       20 7  1.70                             110    0.60 7  335 252 
 CBOC HZ I        20 7 32.57         2.3 0.12            109            335 252 
 CBOC HE ES       20 7 37.47                             110   -0.40 7  335 252 
 DBB  SZ EP       20 7  1.76                             110    0.24 7  339 274 
 DBB  SZ ES       20 7 38.67                             110    0.06 7  339 274 
 DBB  SZ I        20 7 41.88        24.8 0.68            108            339 274 
 MON  HZ EP   9   20 7  1.43                             109   -1.40 0  352 308 
 MON  HN ES       20 7 39.35                                   -0.20 6  352 308 
 MON  HZ I        20 7 44.44         3.0 0.33            108            352 308 
 SDV  BZ EP       20 7  3.47                             109   -0.41 6  358  51 
 SDV  BE ES   4   20 7 41.06                             109   -1.76 0  358  51 
 SDV  BZ I        20 7 43.00         3.1 0.45            108            358  51 
 ORTC HZ EP       20 7  8.12                             107   -0.16 6  398 216 
 ORTC HN ES       20 7 51.21                             107    0.56 6  398 216 
 ORTC HZ I        20 7 57.16         8.0 0.46            105            398 216 
                                                                                
