 2014  9 4 2201 22.8 L   6.791 -73.174141.3  RSN 15 0.6 2.4LRSN                1
 GAP=133        1.26       2.9     4.6  6.0 -0.2800E+01  0.7512E+01  0.2159E+01E
 Epicentro: LOS SANTOS - SANTANDER                                             3
 ACTION:UPD 14-10-03 23:02 OP:nd   STATUS:               ID:20140904220122 L   I
 OLDACT:REG 14-09-05 04:36 OP:stll STATUS:               ID:20140904215819     3
 2014-09-04-2158-19M.COL___271                                                 6
 STAT SP IPHASW D HRMM SECON CODA AMPLIT PERI AZIMU VELO AIN AR TRES W  DIS CAZ7
 BAR2 SZ EP       22 1 42.06                             171    0.2410 21.9 183 
 BAR2 SZ ES       22 1 56.37                             171   -0.3210 21.9 183 
 BAR2 SZ I        22 1 58.69        84.7 0.16            171           21.9 183 
 BRR  HZ IP     D 22 1 43.91                             152    0.6110 69.0 301 
 BRR  HN ES       22 2  0.27                             152    0.9410 69.0 301 
 BRR  HZ I        22 2  2.51        31.4 0.40            150           69.0 301 
 PAM  SZ EP     D 22 1 44.82                             149    0.1510 80.2  41 
 PAM  SZ I        22 1 45.14        68.0 0.24            151           80.2  41 
 PAM  SN ES       22 2  1.75                             149   -0.0210 80.2  41 
 RUS  HZ EP       22 1 45.81                             143   -0.2110 99.8 174 
 RUS  HN ES       22 2  3.85                             143   -0.3010 99.8 174 
 RUS  HZ I        22 2  5.82        27.1 0.32            145           99.8 174 
 PTB  HZ EP       22 1 48.76                             132   -0.31 9  145 259 
 PTB  HN ES       22 2  9.57                             132   -0.02 9  145 259 
 PTB  HZ I        22 2 11.35        20.7 0.22            131            145 259 
 SPBC HZ EP       22 1 50.90                             129    0.25 9  160 218 
 SPBC HZ I        22 1 51.37        43.4 0.10            129            160 218 
 SPBC HE ES       22 2 12.89                             129    0.48 9  160 218 
 OCA  HZ EP       22 1 50.15                             129   -0.64 9  161 354 
 OCA  HN ES       22 2 12.51                             129   -0.15 9  161 354 
 OCA  HZ I        22 2 19.11        19.2 0.18            129            161 354 
 ZAR  HZ EP       22 1 55.34                             122    0.68 9  202 293 
 ZAR  HE ES       22 2 19.55                             122    0.01 9  202 293 
 ZAR  HZ I        22 2 25.91        13.4 0.32            122            202 293 
 NOR  HZ EP       22 1 58.29                             118    0.40 8  232 234 
 NOR  HN ES       22 2 24.59                             118   -0.71 8  232 234 
 NOR  HZ I        22 2 29.98        19.3 0.24            118            232 234 
 SML  HZ EP       22 1 58.36                             117   -0.74 8  243 336 
 SML  HN ES       22 2 26.52                             117   -0.93 8  243 336 
 SML  HZ I        22 2 34.36        38.6 0.10            117            243 336 
 CHI  HZ EP       22 2  0.01                             116   -0.00 8  247 195 
 CHI  HZ I        22 2  0.95        11.3 0.14            118            247 195 
 CHI  HN ES       22 2 28.59                             116   -0.48 8  247 195 
 ROSC BZ EP       22 2  0.84                             116    0.47 8  250 211 
 ROSC BN ES       22 2 29.62                             116   -0.08 8  250 211 
 ROSC BZ I        22 2 37.56        25.8 0.40            117            250 211 
 GUY2CHZ EP       22 2  7.11                             112    1.30 7  298 235 
 GUY2CHE ES       22 2 38.31                             112   -1.08 7  298 235 
 GUY2CHZ I        22 2 48.89        10.4 0.64                           298 235 
 TOL  SZ EP       22 2 11.46                             109    0.96 7  341 224 
 TOL  SN ES       22 2 47.19                             109   -0.55 7  341 224 
 PRA  HZ EP       22 2 15.30                             106   -0.54 6  390 209 
 PRA  HN ES       22 2 57.19                             106   -0.06 6  390 209 
 PRA  HZ I        22 3  4.36         9.8 0.30            107            390 209 
                                                                                
