 2017  6 4 2142 17.9 L   6.735 -73.220152.3  RSN  5 0.2 1.5LRSN                1
 GAP=224        0.52       3.1     3.6  5.8  0.5181E+01 -0.1448E+01 -0.1871E+01E
 Epicentro: VILLANUEVA - SANTANDER                                             3
 ACTION:UPD 17-09-14 16:49 OP:jn   STATUS:               ID:20170604214217 L   I
 OLDACT:REG 17-06-05 02:40 OP:dnl  STATUS:               ID:20170604213728     3
 2017-06-04-2138-00M.COL___347                                                 6
 STAT SP IPHASW D HRMM SECON CODA AMPLIT PERI AZIMU VELO AIN AR TRES W  DIS CAZ7
 BRR  HZ EP       2142 39.38                             155   -0.1710 68.2 307 
 BRR  HE ES       2142 56.45                             155   -0.0210 68.2 307 
 BRR  HZ I        2142 59.49         7.3 0.14            151           68.2 307 
 RUS  HZ EP       2142 41.98                             147    0.1510 94.4 171 
 RUS  HE ES       2143  0.53                             147   -0.0010 94.4 171 
 RUS  HZ I        2143  1.68         3.0 0.26            147           94.4 171 
 PTB  HZ EP   2   2142 44.10                             135   -0.45 5  138 261 
 PTB  HN ES       2143  5.12                             135   -0.25 9  138 261 
 PTB  HZ I        2143 12.82         2.7 0.44            132            138 261 
 SPBC HE ES       2143  7.87                             132    0.13 9  152 218 
 SPBC HZ I        2143 12.58         7.9 0.20            130            152 218 
 ZAR  HE ES       2143 15.88                             124    0.35 9  199 295 
 ZAR  HZ I        2143 21.25         4.3 0.32            123            199 295 
                                                                                
