 2015 12 4 2313  9.6 L   6.806 -73.108147.8  RSN  9 0.4 1.8LRSN                1
 GAP=204        1.03       3.8     5.5  6.6  0.2784E+01  0.6373E+01 -0.3231E+01E
 Epicentro: LOS SANTOS - SANTANDER                                             3
 ACTION:UPD 16-02-04 15:02 OP:cam  STATUS:               ID:20151204231309 L   I
 OLDACT:UP  15-12-05 07:20 OP:ak   STATUS:               ID:20151204230748     3
 OLDACT:REG 15-12-05 04:49 OP:ak   STATUS:               ID:20151204230748     3
 2015-12-04-2307-48M.COL___313                                                 6
 STAT SP IPHASW D HRMM SECON CODA AMPLIT PERI AZIMU VELO AIN AR TRES W  DIS CAZ7
 BAR2 EZ EP   2   2313 30.00                             170    0.44 5 25.0 199 
 BAR2 EZ ES       2313 44.68                             170   -0.4110 25.0 199 
 BAR2 EZ I        2313 46.55        33.5 0.16            166           25.0 199 
 BRR  HZ EP     C 2313 31.83                             152    0.6210 74.6 297 
 BRR  HN ES       2313 48.40                             152    0.3710 74.6 297 
 RUS  HZ EP       2313 33.71                             144    0.0810  101 178 
 RUS  HN ES       2313 52.33                             144   -0.0110  101 178 
 RUS  HZ I        2313 53.87         9.5 0.20            144            101 178 
 PTB  HZ EP       2313 36.76                             132   -0.40 9  152 259 
 PTB  HN ES       2313 57.71                             132   -0.91 9  152 259 
 PTB  HZ I        2314  3.45         5.2 0.22            130            152 259 
 SPBC HZ EP   1   2313 38.91                             129    0.31 7  166 220 
 SPBC HE ES       2314  1.64                             129    0.46 9  166 220 
 SPBC HZ I        2314  4.47         9.8 0.06            128            166 220 
 ZAR  HZ EP   4   2313 44.54                             122    1.94 0  208 292 
 ZAR  HN ES       2314  8.82                             122    0.52 8  208 292 
 ZAR  HZ I        2314 14.40         4.9 0.15            122            208 292 
 NOR  HZ EP       2313 45.50                             119   -0.40 8  238 235 
 NOR  HE ES       2314 14.13                             119   -0.04 8  238 235 
 NOR  HZ I        2314 19.70         4.6 0.18            118            238 235 
 SML  HZ EP       2313 46.11                             118   -0.41 8  245 334 
 SML  HN ES       2314 15.17                             118   -0.11 8  245 334 
 GUY2CHN ES   2   2314 28.79                             112    0.60 4  305 235 
 GUY2CHZ I        2314 34.44         2.7 0.24                           305 235 
                                                                                
