 2017  1 4 2034 26.7 L   6.825 -73.173138.7  RSN  8 0.3 1.5LRSN                1
 GAP=132        0.83       3.2     3.6  5.2 -0.2977E+00  0.2238E+01  0.3758E+01E
 Epicentro: ZAPATOCA - SANTANDER                                               3
 ACTION:UPD 17-05-22 15:55 OP:jn   STATUS:               ID:20170104203426 L   I
 OLDACT:UP  17-01-05 04:05 OP:edw  STATUS:               ID:20170104202747d    3
 OLDACT:UP  17-01-05 04:04 OP:edw  STATUS:               ID:20170104202747d    3
 OLDACT:DUP 17-01-05 04:01 OP:edw  STATUS:               ID:20170104202747d    3
 OLDACT:UP  17-01-05 04:01 OP:edw  STATUS:               ID:20170104202746     3
 OLDACT:REG 17-01-05 03:42 OP:edw  STATUS:               ID:20170104202746     3
 2017-01-04-2028-00M.COL___375                                                 6
 STAT SP IPHASW D HRMM SECON CODA AMPLIT PERI AZIMU VELO AIN AR TRES W  DIS CAZ7
 BAR2 EZ EP       2034 45.20                             169   -0.3310 25.8 182 
 BAR2 EZ ES       2035  0.08                             169   -0.1410 25.8 182 
 BAR2 EZ I        2035  1.05        12.5 0.24            170           25.8 182 
 BRR  HZ EP       2034 47.15                             152    0.3010 67.2 298 
 BRR  HE ES       2035  2.78                             152    0.2110 67.2 298 
 PAM  EZ EP     C 2034 48.02                             149   -0.1310 77.3  43 
 PAM  EN ES       2035  5.31                             149    0.4210 77.3  43 
 PAM  EZ I        2035  7.49         6.7 0.60            150           77.3  43 
 RUS  HZ EP       2034 49.85                             141   -0.1310  104 174 
 RUS  HE ES       2035  7.66                             141   -0.4910  104 174 
 RUS  HZ I        2035  8.54         6.1 0.24            143            104 174 
 PTB  HZ EP   9   2034 52.91                             131    0.04 0  145 258 
 PTB  HN ES       2035 13.07                             132   -0.26 9  145 258 
 PTB  HZ I        2035 14.82         2.8 0.13            132            145 258 
 ZAR  HZ EP   2   2034 58.09                             121   -0.19 4  200 292 
 ZAR  HE ES       2035 22.38                             121   -0.54 9  200 292 
 NOR  HE ES       2035 29.95                             117    0.53 8  234 233 
 CHI  HZ EP       2035  4.46                             115    0.24 8  251 194 
 CHI  HN ES       2035 33.83                             115    0.34 8  251 194 
                                                                                
