 2017 12 4 2106 17.4 L   6.793 -73.176144.2  RSN  4 0.1 1.5LRSN                1
 GAP=142        0.35       2.2     2.1  3.0 -0.1380E+01  0.1674E+01 -0.6175E+00E
 Epicentro: LOS SANTOS - SANTANDER                                             3
 ACTION:UPD 18-01-04 13:17 OP:rebc STATUS:               ID:20171204210617 L   I
 OLDACT:REG 17-12-05 06:59 OP:dani STATUS:               ID:20171204205746     3
 2017-12-04-2058-00M.COL___497                                                 6
 STAT SP IPHASW D HRMM SECON CODA AMPLIT PERI AZIMU VELO AIN AR TRES W  DIS CAZ7
 BAR2 EZ EP       21 6 36.77                             171   -0.0810 22.2 182 
 BAR2 EZ ES       21 6 52.11                             171    0.1110 22.2 182 
 BAR2 EZ I        21 6 54.50         9.2 0.30            172           22.2 182 
 PAM  EZ EP       21 6 39.73                             150    0.0810 80.1  41 
 PAM  EN ES       21 6 56.90                             150   -0.0710 80.1  41 
 PAM  EZ I        21 6 59.63         5.9 0.58            153           80.1  41 
 RUS  HZ EP       21 6 40.90                             144   -0.1010  100 174 
 RUS  HN ES       21 6 59.40                             144    0.0210  100 174 
 RUS  HZ I        21 7  1.43         3.0 0.20            148            100 174 
 PTB  HZ EP       21 6 44.12                             132    0.15 9  144 259 
 PTB  HE ES       21 7  4.56                             132   -0.10 9  144 259 
 PTB  HZ I        21 7  9.54         3.6 0.16            134            144 259 
                                                                                
