 2010  4 4 2234 18.9 L   6.798 -73.043136.0  RSN  6 0.4 2.1LRSN                1
 GAP=208        0.67       4.9     9.4  8.4 -0.2349E+01 -0.1146E+02  0.2103E+02E
 Epicentro: LOS SANTOS - SANTANDER                                             3
 ACTION:UPD 10-08-24 09:57 OP:vdl  STATUS:               ID:20100404223418 L   I
 2010-04-04-2232-12S.COL___098                                                 6
 STAT SP IPHASW D HRMM SECON CODA AMPLIT PERI AZIMU VELO AIN AR TRES W  DIS CAZ7
 BAR2 SZ EP       2234 37.60                             168     0.210   28 214 
 BAR2 SZ ES   2   2234 51.55                             168    -0.4 5   28 214 
 BRR  HZ IP       2234 39.55                             147    -0.110   82 295 
 BRR  HE ES   1   2234 56.19                             147     0.4 7   82 295 
 BRR  HZ I        2235  0.21        22.1 0.14                            82 295 
 OCA  SZ EP   3   2234 47.53                             127     0.9 2  162 349 
 OCA  SZ ES   2   2235  7.39                             127    -0.9 5  162 349 
 OCA  SZ I        2235 13.49        24.4 0.18                           162 349 
 CHI  HZ EP       2234 56.43                             115     0.1 8  252 198 
 CHI  HN ES   2   2235 25.80                             115     0.2 4  252 198 
 CHI  HZ I        2235 28.69         4.5 0.28                           252 198 
 RREF BE ES   2   2235 41.70                             108    -0.3 3  330 231 
 RREF BZ I        2235 50.56         4.6 0.41                           330 231 
 PRA  HZ EP   2   2235 12.46                             105    -0.3 3  397 211 
 PRA  HE ES   2   2235 53.93                             105    -0.8 3  397 211 
 PRA  HZ I        2235 59.52         3.5 0.43                           397 211 
                                                                                
