 2011 11 4 2154 35.2 L   6.789 -73.095141.5  RSN  6 0.2 1.7LRSN                1
 GAP=144        0.37       3.2     3.8  4.5  0.1860E+01  0.5913E+00  0.1123E+01E
 Epicentro: LOS SANTOS - SANTANDER                                             3
 ACTION:UPD 12-07-13 16:08 OP:ep   STATUS:               ID:20111104215435 L   I
 2011-11-04-2145-00M.COL___176                                                 6
 STAT SP IPHASW D HRMM SECON CODA AMPLIT PERI AZIMU VELO AIN AR TRES W  DIS CAZ7
 BAR2 SZ EP   1   2154 54.13                             170   -0.22 7 23.7 204 
 BAR2 SZ ES   2   2155  9.48                             170    0.22 5 23.7 204 
 BAR2 SZ I        2155  9.73         9.2 0.37                          23.7 204 
 GIR2 SZ EP   1   2154 54.47                             166    0.01 7 33.9 341 
 GIR2 SZ ES   2   2155  8.96                             166   -0.51 5 33.9 341 
 PAM  SZ EP   1   2154 56.88                             151    0.04 7 75.0  36 
 PAM  SN ES   2   2155 13.94                             151    0.24 5 75.0  36 
 BRR  HZ EP   1   2154 56.21                             150   -0.03 7 76.7 297 
 BRR  HN ES   2   2155 12.84                             150    0.21 5 76.7 297 
 BRR  HZ I        2155 17.54        27.0 0.45                          76.7 297 
 RUS  HZ EP   1   2154 58.57                             143    0.12 7 99.1 179 
 RUS  HE ES   2   2155 16.52                             143   -0.04 5 99.1 179 
 RUS  HZ I        2155 17.49         3.6 0.31                          99.1 179 
 ZAR  HN ES   2   2155 33.61                             121    0.07 4  210 292 
 ZAR  HZ I        2155 35.60         4.6 0.10                           210 292 
                                                                                
