 2016 11 4 2323 44.5 L   6.747 -73.198143.0  RSN  6 0.4 1.7LRSN                1
 GAP=134        1.09       5.3     4.9  8.0 -0.1615E+01  0.5505E+01  0.1489E+02E
 Epicentro: VILLANUEVA - SANTANDER                                             3
 ACTION:UPD 17-10-26 21:04 OP:lp   STATUS:               ID:20161104232344 L   I
 OLDACT:REG 16-11-05 03:37 OP:cara STATUS:               ID:20161104231738     3
 2016-11-04-2318-00M.COL___352                                                 6
 STAT SP IPHASW D HRMM SECON CODA AMPLIT PERI AZIMU VELO AIN AR TRES W  DIS CAZ7
 BAR2 EZ IP       2324  3.97                             173    0.2410 17.2 174 
 BAR2 EZ ES       2324 19.02                             173    0.3310 17.2 174 
 BAR2 EZ I        2324 21.06         9.1 0.32            171           17.2 174 
 BRR  HZ IP       2324  5.67                             153    0.3910 69.3 305 
 BRR  HN ES       2324 21.90                             153    0.4410 69.3 305 
 BRR  HZ I        2324 27.94         9.5 0.42            152           69.3 305 
 PAM  EZ EP       2324  6.95                             148   -0.0310 85.6  40 
 PAM  EN ES       2324 23.81                             148   -0.6710 85.6  40 
 PAM  EZ I        2324 26.38         7.1 0.58            154           85.6  40 
 PTB  HZ EP       2324 10.57                             133   -0.10 9  141 261 
 PTB  HN ES       2324 30.89                             133   -0.16 9  141 261 
 PTB  HZ I        2324 37.31         6.2 0.56            133            141 261 
 ZAR  HN ES       2324 40.93                             122   -0.48 9  201 294 
 ZAR  HZ I        2324 48.34         6.5 0.54            124            201 294 
 CHI  HZ EP       2324 21.91                             117    0.60 8  241 194 
 CHI  HN ES       2324 49.18                             117   -0.81 8  241 194 
 CHI  HZ I        2324 56.48         2.5 0.40            119            241 194 
                                                                                
