 2011  1 4 2218 49.0 L   6.817 -73.071147.3  RSN 13 0.4 2.1LRSN                1
 GAP=142        0.88       3.7     7.6  7.3 -0.5825E+01  0.1691E+02  0.6045E+01E
 Epicentro: LOS SANTOS - SANTANDER                                             3
 ACTION:UP  11-02-08 08:38 OP:pat  STATUS:               ID:20110104221849 L   I
 2011-01-04-2217-37S.COL___135                                                 6
 STAT SP IPHASW D HRMM SECON CODA AMPLIT PERI AZIMU VELO SNR AR TRES W  DIS CAZ7
 BTL  SZ IP       2219  9.18                             170     0.410   24 297 
 BTL  SZ ES   2   2219 24.77                             170     0.5 5   24 297 
 BAR2 SZ EP       2219  8.91                             169     0.010   28 206 
 BAR2 SZ ES   2   2219 24.29                             169    -0.1 5   28 206 
 BAR2 SZ I        2219 26.87        32.4 0.35                            28 206 
 RUS  HZ EP       2219 12.86                             144    -0.110  102 181 
 RUS  HN ES   2   2219 30.72                             144    -1.0 5  102 181 
 RUS  HZ I        2219 33.01        15.5 0.24                           102 181 
 GRA  SZ IP       2219 13.75                             138    -0.310  122  14 
 GRA  SZ ES   1   2219 33.12                             138    -0.4 7  122  14 
 GRA  SZ I        2219 34.72        18.8 0.33                           122  14 
 OCA  SZ EP       2219 17.41                             130     0.1 9  160 350 
 OCA  SZ ES   2   2219 40.23                             130     0.8 5  160 350 
 OCA  SZ I        2219 45.70        25.7 0.39                           160 350 
 YOP  SZ EP       2219 19.62                             127     0.7 9  177 156 
 YOP  SZ I        2219 19.98         5.7 0.09                           177 156 
 NOR  SZ EP       2219 25.16                             118    -0.5 8  243 235 
 CHI  HZ EP       2219 26.90                             117    -0.3 8  253 197 
 CHI  HN ES   2   2219 57.73                             117     0.7 4  253 197 
 CHI  HZ I        2220  2.11        10.4 0.32                           253 197 
 HEL  HZ EP   2   2219 30.75                             114     0.5 4  280 256 
 HEL  HZ I        2220  7.29         7.2 0.28                           280 256 
 RREF HZ EP   1   2219 36.44                             111     0.4 5  329 230 
 RREF HN ES   2   2220 13.20                             111     0.4 3  329 230 
 RREF HZ I        2220 17.57        11.6 0.25                           329 230 
 DBB  SZ EP   1   2219 37.43                             109     0.0 5  348 274 
 PRA  HZ EP   1   2219 43.00                             106    -0.2 4  398 210 
 PRA  HN ES   3   2220 25.47                             106    -0.1 1  398 210 
 SJA  SZ EP   2   2219 43.35                             106    -0.7 3  404 194 
                                                                                
