 2014 10 4 2245  4.1 L   6.799 -73.138146.0  RSN 16 0.5 2.1LRSN                1
 GAP=120        0.96       3.0     3.9  5.5 -0.5444E+00  0.2511E+01  0.4640E+01E
 Epicentro: LOS SANTOS - SANTANDER                                             3
 ACTION:UPD 14-11-29 23:46 OP:nd   STATUS:               ID:20141004224504 L   I
 OLDACT:REG 14-10-05 08:44 OP:spq  STATUS:               ID:20141004223748     3
 2014-10-04-2237-48M.COL___286                                                 6
 STAT SP IPHASW D HRMM SECON CODA AMPLIT PERI AZIMU VELO AIN AR TRES W  DIS CAZ7
 BAR2 SZ EP     D 2245 23.92                             170    0.1110 23.4 192 
 BAR2 SZ ES   1   2245 38.88                             170   -0.26 7 23.4 192 
 BAR2 SZ I        2245 40.32        31.1 0.28            167           23.4 192 
 BRR  HZ EP       2245 25.74                             152    0.3710 72.0 298 
 BRR  HE ES       2245 42.59                             152    0.6710 72.0 298 
 BRR  HZ I        2245 43.59        17.4 0.15            150           72.0 298 
 PAM  SZ EP     C 2245 26.83                             151    0.4710 76.9  39 
 PAM  SN ES       2245 43.52                             151   -0.1610 76.9  39 
 PAM  SZ I        2245 45.88        18.0 0.50            155           76.9  39 
 RUS  HZ EP       2245 27.84                             144   -0.0710  100 177 
 RUS  HE ES   1   2245 46.35                             144   -0.10 7  100 177 
 RUS  HZ I        2245 47.61         8.4 0.31            143            100 177 
 PTB  HZ EP       2245 30.82                             132   -0.39 9  149 259 
 PTB  HN ES       2245 51.69                             132   -0.63 9  149 259 
 PTB  HZ I        2245 54.15        10.6 0.02            130            149 259 
 OCA  HN ES   1   2245 54.43                             130   -0.17 7  160 353 
 OCA  HZ I        2245 57.14        19.3 0.18            131            160 353 
 SPBC HZ EP       2245 32.53                             129   -0.18 9  164 219 
 SPBC HN ES   1   2245 55.04                             129    0.05 7  164 219 
 SPBC HZ I        2245 59.91        14.3 0.22            127            164 219 
 ZAR  HZ EP   4   2245 37.80                             122    1.11 0  205 292 
 ZAR  HE ES       2246  1.87                             122   -0.21 9  205 292 
 ZAR  HZ I        2246  8.08        13.8 0.38            122            205 292 
 SML  HZ EP       2245 40.39                             117   -0.44 8  244 335 
 SML  HN ES   1   2246  9.34                             117   -0.10 6  244 335 
 SML  HZ I        2246 10.80        14.8 0.28            118            244 335 
 CHI  HZ EP   1   2245 42.28                             117    0.40 6  249 195 
 CHI  HN ES   1   2246 10.64                             117   -0.67 6  249 195 
 CHI  HZ I        2246 18.51         6.7 0.58            117            249 195 
 GUY2CHZ EP   1   2245 48.70                             112    0.86 5  302 235 
 GUY2CHE ES   4   2246 23.64                             112    1.71 0  302 235 
 GUY2CHZ I        2246 30.48         6.7 0.58                           302 235 
 PTGC HZ EP     D 2245 47.17                             112   -0.80 7  308 159 
 TOL  SZ EP   4   2245 53.57                             109    1.09 0  344 225 
 TOL  SE ES   4   2246 32.85                             109    2.67 0  344 225 
 ANIL HN ES   1   2246 33.66                             108    0.73 5  358 225 
 ANIL HZ I        2246 44.33         1.7 0.38            108            358 225 
 PRA  HZ EP       2245 57.99                             107    0.27 6  392 210 
 PRA  HN ES       2246 40.50                             107    0.99 6  392 210 
 PRA  HZ I        2246 46.00         8.1 0.28            106            392 210 
 ORTC HN ES   4   2246 41.88                             106    1.64 0  396 216 
 ORTC HZ I        2246 48.22         4.1 0.60            106            396 216 
 SJC  HZ EP   4   2245 58.39                             106   -1.39 0  410 327 
 SJC  HN ES   4   2246 39.30                             106   -3.87 0  410 327 
 SJC  HZ I        2246 43.34         2.7 0.58            106            410 327 
                                                                                
