 2010  6 4 2116 54.2 L   6.543 -72.577134.1  RSN  4 0.3 2.0LRSN                1
 GAP=249        0.43      10.9    18.8  9.3 -0.1804E+03 -0.7541E+02  0.4947E+02E
 Epicentro: CAPITANEJO - SANTANDER                                             3
 ACTION:UP  10-08-24 10:08 OP:vdl  STATUS:               ID:20100604211654 L   I
 2010-06-04-2113-15S.COL___109                                                 6
 STAT SP IPHASW D HRMM SECON CODA AMPLIT PERI AZIMU VELO SNR AR TRES W  DIS CAZ7
 BAR2 SZ EP   2   2117 14.29                             152     0.0 5   67 275 
 BAR2 SZ ES   2   2117 29.84                             152     0.0 5   67 275 
 GUE  SZ EP   2   2117 20.29                             129    -0.4 5  147 345 
 GRA  SZ ES   2   2117 41.62                             129     0.2 5  151 350 
 RREF BZ EP   2   2117 44.55                             106     0.6 3  357 240 
 RREF BE ES   2   2118 22.45                             106    -0.3 3  357 240 
 RREF BZ I        2118 27.00         3.9 0.81                           357 240 
                                                                                
