 2012  4 4 2232 40.8 L   6.456 -73.397 31.6  RSN  5 0.2 1.2LRSN                1
 GAP=124        0.36       1.7     1.8  2.5  0.1043E+01  0.2128E+01  0.1549E+01E
 Epicentro: SIMACOTA - SANTANDER                                               3
 ACTION:UPD 12-07-05 11:50 OP:tino STATUS:               ID:20120404223240 L   I
 2012-04-04-2230-00M.COL___196                                                 6
 STAT SP IPHASW D HRMM SECON CODA AMPLIT PERI AZIMU VELO AIN AR TRES W  DIS CAZ7
 BAR2 SZ EP   2   2232 47.82                             135     0.1 5   28  58 
 BAR2 SZ ES   2   2232 53.10                             135     0.0 5   28  58 
 BAR2 SZ I        2232 53.86        34.8 0.16                            28  58 
 RUS  HZ EP   1   2232 53.25                              61     0.0 7   71 151 
 RUS  HN ES   1   2233  3.09                              61     0.1 7   71 151 
 RUS  HZ I        2233  3.65         6.0 0.30                            71 151 
 BRR  HN ES   2   2233  4.29                              61     0.4 5   80 334 
 PTB  HZ EP   2   2232 58.56                              61     0.1 5  118 275 
 PTB  HN ES   1   2233 12.15                              61    -0.1 7  118 275 
 PTB  HZ I        2233 13.12         3.6 0.40                           118 275 
 PAM  SZ EP   2   2232 59.73                              61    -0.2 5  124  38 
 PAM  SN ES   2   2233 14.72                              61    -0.1 5  124  38 
                                                                                
