 2014  8 4 2053 18.2 L   6.149 -73.794 98.9  RSN  6 0.4 1.5LRSN                1
 GAP=122        1.03       5.9     3.4  9.9 -0.2581E+01  0.8411E+01  0.2084E+02E
 Epicentro: LANDAZURI - SANTANDER                                              3
 ACTION:UPD 14-09-15 21:46 OP:nd   STATUS:               ID:20140804205318 L   I
 OLDACT:REG 14-08-05 03:12 OP:mh   STATUS:               ID:20140804204820     3
 2014-08-04-2048-20M.COL___251                                                 6
 STAT SP IPHASW D HRMM SECON CODA AMPLIT PERI AZIMU VELO AIN AR TRES W  DIS CAZ7
 BAR2 SZ EP       2053 36.38                             137    0.4910 83.5  54 
 BAR2 SZ ES   1   2053 50.26                             137    0.59 7 83.5  54 
 BAR2 SZ I        2053 52.03        22.0 0.24            146           83.5  54 
 RUS  HZ EP       2053 36.15                             137   -0.0910 83.6 110 
 RUS  HN ES       2053 49.91                             137   -0.3910 83.6 110 
 RUS  HZ I        2053 51.52         4.7 0.10            145           83.6 110 
 PTB  HZ EP       2053 35.19                             136   -0.5210 85.1 301 
 PTB  HN ES       2053 49.16                             136   -0.1910 85.1 301 
 PTB  HZ I        2053 54.31         6.5 0.12            140           85.1 301 
 NOR  HZ EP   1   2053 40.64                             122    0.03 7  136 242 
 NOR  HN ES       2053 58.48                             122    0.40 9  136 242 
 NOR  HZ I        2054  2.59         5.3 0.17            126            136 242 
 GUY2CHZ EP   1   2053 49.16                             112    0.70 6  202 240 
 GUY2CHN ES   4   2054 13.68                             112    1.64 0  202 240 
 GUY2CHZ I        2054 19.49         2.5 0.36                           202 240 
 RREF HZ EP       2053 50.18                             110   -0.64 8  221 231 
 RREF HN ES   1   2054 16.63                             110    0.39 6  221 231 
 RREF HZ I        2054 21.27         3.2 0.26            113            221 231 
                                                                                
