 2014  5 4 2027 16.8 L   6.831 -73.194142.8  RSN  9 0.5 2.2LRSN                1
 GAP=129        1.15       3.8     4.7  7.9 -0.2133E+01  0.1150E+02 -0.1936E+01E
 Epicentro: ZAPATOCA - SANTANDER                                               3
 ACTION:UPD 15-03-16 16:55 OP:nd   STATUS:               ID:20140504202716 L   I
 OLDACT:REG 14-05-05 02:36 OP:nd   STATUS:               ID:20140504202000     3
 2014-05-04-2020-00M.COL___273                                                 6
 STAT SP IPHASW D HRMM SECON CODA AMPLIT PERI AZIMU VELO AIN AR TRES W  DIS CAZ7
 BRR  HZ IP     C 2027 37.93                             154    0.6210 64.8 298 
 BRR  HN ES   1   2027 53.55                             154    0.27 7 64.8 298 
 BRR  HZ I        2027 58.30        30.4 0.48            151           64.8 298 
 PAM  SZ EP       2027 39.00                             150    0.2010 78.4  44 
 PAM  SN ES       2027 55.92                             150   -0.0110 78.4  44 
 RUS  HZ EP       2027 40.22                             142   -0.3610  104 173 
 RUS  HN ES       2027 59.16                             142    0.0510  104 173 
 RUS  HZ I        2028  1.06        13.3 0.26            146            104 173 
 PTB  HZ EP       2027 42.99                             132   -0.15 9  143 257 
 PTB  HN ES       2028  3.20                             132   -0.47 9  143 257 
 PTB  HZ I        2028  9.52        24.9 0.28            132            143 257 
 SPBC HZ EP       2027 45.14                             128    0.09 9  163 217 
 SPBC HN ES       2028  6.80                             128   -0.25 9  163 217 
 SPBC HZ I        2028 14.23        19.1 0.28            130            163 217 
 ZAR  HZ EP       2027 49.40                             123    0.96 9  198 292 
 ZAR  HN ES       2028 13.49                             123    0.40 9  198 292 
 ZAR  HZ I        2028 16.49        10.7 0.24            124            198 292 
 SML  HZ EP       2027 51.65                             117   -1.06 8  238 336 
 SML  HN ES       2028 20.13                             117   -0.57 8  238 336 
 SML  HZ I        2028 23.60        16.0 0.24            120            238 336 
 URE  HZ EP   4   2028  0.00                             113    2.94 0  278 292 
 URE  HN ES   4   2028 31.04                             113    2.61 0  278 292 
 URE  HZ I        2028 40.13        12.0 0.20            115            278 292 
 GUY2CHZ EP       2028  0.55                             112    0.52 7  299 234 
 GUY2CHN ES       2028 33.32                             112   -0.41 7  299 234 
 GUY2CHZ I        2028 42.68         7.1 0.58                           299 234 
                                                                                
