 2015 11 4 2011  5.8 L   6.809 -73.145148.8  RSN 13 0.5 2.2LRSN                1
 GAP=136        1.04       3.2     4.5  5.8 -0.2870E+01  0.8919E+01  0.1082E+01E
 Epicentro: LOS SANTOS - SANTANDER                                             3
 ACTION:UPD 15-12-28 16:08 OP:cam  STATUS:               ID:20151104201105 L   I
 OLDACT:REG 15-11-05 05:27 OP:mh   STATUS:               ID:20151104200748     3
 2015-11-04-2007-48M.COL___313                                                 6
 STAT SP IPHASW D HRMM SECON CODA AMPLIT PERI AZIMU VELO AIN AR TRES W  DIS CAZ7
 BAR2 EZ IP     C 2011 25.90                             170    0.0510 24.3 190 
 BAR2 EZ ES       2011 41.47                             170    0.0110 24.3 190 
 BRR  HZ EP       2011 27.73                             153    0.4410 70.8 298 
 BRR  HN ES       2011 44.62                             153    0.5910 70.8 298 
 BRR  HZ I        2011 47.59        29.4 0.36            148           70.8 298 
 PAM  EZ EP       2011 28.64                             152    0.3110 76.6  40 
 PAM  EN ES   1   2011 45.87                             152   -0.00 7 76.6  40 
 RUS  HZ EP       2011 29.74                             144   -0.2110  102 176 
 RUS  HN ES   1   2011 48.57                             144   -0.19 7  102 176 
 RUS  HZ I        2011 49.26        13.3 0.26            147            102 176 
 OCA  HN ES       2011 55.81                             130   -0.69 9  159 353 
 SPBC HZ EP       2011 34.51                             130   -0.13 9  164 219 
 SPBC HN ES       2011 56.77                             130   -0.34 9  164 219 
 SPBC HZ I        2011 58.81        20.8 0.22            129            164 219 
 ZAR  HZ EP       2011 39.32                             123    0.86 9  204 292 
 ZAR  HN ES       2012  4.10                             123    0.21 9  204 292 
 ZAR  HZ I        2012  9.23        24.1 0.60            122            204 292 
 NOR  HZ EP       2011 41.70                             119   -0.11 8  235 234 
 NOR  HN ES       2012  9.05                             119   -0.82 8  235 234 
 NOR  HZ I        2012 17.29        10.6 0.36            119            235 234 
 SML  HZ EP       2011 42.09                             118   -0.46 8  243 335 
 SML  HN ES   1   2012 10.49                             118   -0.69 6  243 335 
 SML  HZ I        2012 15.17        19.1 0.10            118            243 335 
 HEL  HZ EP       2011 46.10                             115   -0.14 8  272 256 
 HEL  HN ES       2012 17.24                             115   -0.51 8  272 256 
 HEL  HZ I        2012 24.77         6.6 0.24            115            272 256 
 URE  HZ IP   4   2011 49.98                             114    2.95 0  284 292 
 URE  HN ES   4 C 2012 16.80                             114   -2.35 0  284 292 
 URE  HZ I        2012 29.85        13.7 0.28            114            284 292 
 GUY2CHZ EP       2011 49.72                             113    0.06 7  302 235 
 GUY2CHN ES   4   2012 26.51                             113    2.68 0  302 235 
 GUY2CHZ I        2012 34.30         6.6 0.32                           302 235 
 ELA  HZ EP       2011 53.22                             111    0.32 7  330 229 
 ELA  HN ES       2012 30.58                             111    0.98 7  330 229 
                                                                                
