 2012  8 4 2111 29.6 L   6.742 -73.175157.8  RSN  5 0.2 1.4LRSN                1
 GAP=135        0.44       3.7     3.5  5.2  0.4472E+01 -0.3367E+01 -0.2962E+01E
 Epicentro: VILLANUEVA - SANTANDER                                             3
 ACTION:UPD 12-09-10 11:54 OP:ep   STATUS:               ID:20120804211129 L   I
 2012-08-04-2110-00M.COL___216                                                 6
 STAT SP IPHASW D HRMM SECON CODA AMPLIT PERI AZIMU VELO AIN AR TRES W  DIS CAZ7
 BRR  HZ EP       2111 52.17                             154    0.0810 71.8 304 
 BRR  HZ I        2111 53.89        14.0 0.13                          71.8 304 
 BRR  HN ES   1   2112  9.82                             154    0.19 7 71.8 304 
 PAM  SZ EP   1   2111 53.19                             151   -0.31 7 84.4  38 
 RUS  HZ EP       2111 54.29                             148    0.1510 94.5 174 
 RUS  HZ I        2111 55.44         1.5 0.16                          94.5 174 
 RUS  HN ES   1   2112 13.20                             148   -0.08 7 94.5 174 
 PTB  HZ EP       2111 57.20                             135    0.00 9  143 261 
 PTB  HN ES   1   2112 18.45                             135   -0.28 7  143 261 
 PTB  HZ I        2112 24.32         3.3 0.33                           143 261 
 ZAR  HN ES   2   2112 28.79                             125    0.08 4  204 294 
                                                                                
