 2010  7 4 2304 33.4 L   6.043 -73.685108.2  RSN  5 0.2 1.5LRSN                1
 GAP= 93        0.51       4.7    10.4 11.5  0.2280E+02  0.9425E+02  0.1641E+02E
 Epicentro: BOLIVAR - SANTANDER                                                3
 ACTION:UPD 10-12-01 15:15 OP:pat  STATUS:               ID:20100704230433 L   I
 2010-07-04-2300-49S.COL___118                                                 6
 STAT SP IPHASW D HRMM SECON CODA AMPLIT PERI AZIMU VELO AIN AR TRES W  DIS CAZ7
 RUS  HZ EP   1   23 4 51.21                             144     0.1 7   69 104 
 RUS  HN ES   1   23 5  4.84                             144    -0.1 7   69 104 
 RUS  HZ I        23 5  7.24         7.2 0.42                            69 104 
 BAR2 SZ EP       23 4 51.94                             139     0.210   82  42 
 BAR2 SZ ES   1   23 5  6.07                             139     0.0 7   82  42 
 BRR  HZ EP   1   23 4 54.12                             128    -0.4 7  118 359 
 BRR  HE ES   2   23 5 11.20                             128     0.1 5  118 359 
 BRR  HZ I        23 5 13.25         7.9 0.47                           118 359 
 CHI  HN ES   3   23 5 18.87                             120    -0.1 2  156 182 
 CHI  HZ I        23 5 25.20         4.0 0.25                           156 182 
 HEL  HZ EP   3   23 5  4.61                             112     0.4 2  205 275 
 HEL  HZ I        23 5 32.21         4.7 0.71                           205 275 
                                                                                
