 2012  3 4 2032  9.8 L   6.762 -73.114157.7  RSN  5 0.3 1.8LRSN                1
 GAP=142        0.51       6.3     5.2 11.4 -0.1587E+01  0.1095E+02 -0.1422E+02E
 ACTION:UP  12-03-31 23:17 OP:EP   STATUS:               ID:20120304203209 L   I
 2012-03-04-2030-00M.COL___192                                                 6
 STAT SP IPHASW D HRMM SECON CODA AMPLIT PERI AZIMU VELO SNR AR TRES W  DIS CAZ7
 BRR  HZ EP   2   2032 32.93                             153     0.4 5   76 300 
 BRR  HZ I        2032 33.30         9.5 0.31                            76 300 
 BRR  HN ES   2   2032 50.84                             153     0.5 5   76 300 
 PAM  SZ EP   2   2032 33.38                             152     0.0 5   79  36 
 PAM  SE ES   2   2032 51.44                             152    -0.3 5   79  36 
 RUS  HN ES   2   2032 53.66                             147     0.0 5   96 178 
 PTB  HE ES   2   2032 59.73                             134    -0.3 5  150 261 
 ZAR  HN ES   2   2033  9.54                             124    -0.4 4  209 293 
                                                                                
