 2010  7 4 2202 25.4 L   6.770 -73.890 16.0  RSN  5 0.2 1.5LRSN                1
 GAP=250        0.57       2.1     8.2  3.8  0.6970E+01 -0.1527E+02 -0.2985E+01E
 Epicentro: PUERTO PARRA - SANTANDER                                           3
 ACTION:UPD 10-12-01 15:15 OP:pat  STATUS:               ID:20100704220225 L   I
 2010-07-04-2158-31S.COL___118                                                 6
 STAT SP IPHASW D HRMM SECON CODA AMPLIT PERI AZIMU VELO AIN AR TRES W  DIS CAZ7
 BRR  HZ EP       22 2 32.46                             107    -0.210   42  28 
 BRR  HZ I        22 2 38.07        29.7 0.11                            42  28 
 BRR  HN ES   1   22 2 38.56                             107     0.2 7   42  28 
 BAR2 SZ EP   1   22 2 38.62                              99     0.0 7   81 104 
 RUS  HZ EP       22 2 46.75                              95     0.110  132 137 
 RUS  HN ES   1   22 3  2.93                              95    -0.2 7  132 137 
 RUS  HZ I        22 3  4.78        10.0 0.12                           132 137 
 GUE  SZ ES   1   22 3  8.49                              56    -0.4 7  158  42 
 BRI  SZ EP   1   22 2 50.13                              56     0.3 7  160  49 
 BRI  SZ ES   1   22 3  9.13                              56     0.2 7  160  49 
                                                                                
