 2017  1 4 2207 25.8 L   6.793 -73.145146.0  RSN 11 0.3 2.3LRSN                1
 GAP=137        0.86       3.2     3.7  4.9 -0.3569E-01  0.4030E+01  0.2862E+01E
 Epicentro: LOS SANTOS - SANTANDER                                             3
 ACTION:UPD 17-05-22 15:55 OP:jn   STATUS:               ID:20170104220725 L   I
 OLDACT:UP  17-01-05 04:28 OP:edw  STATUS:               ID:20170104215743     3
 OLDACT:REG 17-01-05 03:46 OP:edw  STATUS:               ID:20170104215743     3
 2017-01-04-2158-00M.COL___374                                                 6
 STAT SP IPHASW D HRMM SECON CODA AMPLIT PERI AZIMU VELO AIN AR TRES W  DIS CAZ7
 BAR2 EZ EP     D 22 7 45.36                             171   -0.1010 22.6 190 
 BAR2 EZ ES       22 8  0.24                             171   -0.5410 22.6 190 
 BAR2 EZ I        22 8  2.02        62.0 0.18            168           22.6 190 
 BRR  HZ IP     D 22 7 47.25                             152    0.2410 71.6 299 
 BRR  HN ES       22 8  4.29                             152    0.7410 71.6 299 
 BRR  HZ I        22 8  4.90        48.4 0.10            150           71.6 299 
 PAM  EZ EP       22 7 48.28                             150    0.1910 78.0  39 
 PAM  EN ES       22 8  5.35                             150   -0.1110 78.0  39 
 PAM  EZ I        22 8  7.55        56.9 0.52            155           78.0  39 
 RUS  HZ EP       22 7 49.29                             144   -0.2410 99.8 176 
 RUS  HN ES       22 8  8.10                             144    0.0710 99.8 176 
 RUS  HZ I        22 8  9.91        31.0 0.28            145           99.8 176 
 PTB  HZ EP   9   22 7 52.23                             132   -0.56 0  148 259 
 PTB  HN ES       22 8 12.77                             131   -0.50 9  148 259 
 PTB  HZ I        22 8 18.82        13.6 0.36            131            148 259 
 ZAR  HZ EP       22 7 58.11                             122   -0.20 9  204 292 
 ZAR  HN ES       22 8 23.04                             122   -0.61 9  204 292 
 ZAR  HZ I        22 8 30.38        20.6 0.32            122            204 292 
 NOR  HZ EP     D 22 8  1.54                             118    0.03 8  234 235 
 NOR  HE ES       22 8 29.75                             118    0.39 8  234 235 
 NOR  HZ I        22 8 37.07        12.6 0.48            119            234 235 
 CHI  HZ EP       22 8  3.53                             117    0.08 8  248 195 
 CHI  HN ES       22 8 32.83                             117    0.03 8  248 195 
 CHI  HZ I        22 8 36.40         9.7 0.40            118            248 195 
 GUY2CHZ EP   4   22 8 10.82                             112    1.43 0  301 235 
 GUY2CHN ES   4   22 8 47.31                             112    3.94 0  301 235 
 GUY2CHZ  IAML    22 8 51.67         7.8 0.32                           301 235 
 DBB  EZ EP   2   22 8 13.40                             109    0.09 3  340 274 
 DBB  EN ES   4   22 8 48.95                             109   -1.41 0  340 274 
 DBB  EZ I        22 8 49.83         3.9 0.12            110            340 274 
 CRJC HZ EP   9   22 8 25.76                             103   -2.65 0  468   4 
 CRJC HN ES       22 9 14.46                                   -0.12 5  468   4 
                                                                                
