 2013  7 4 2154 44.3 L   6.783 -73.170145.2  RSN  7 0.4 1.7LRSN                1
 GAP=134        0.87       5.4     4.2  7.6  0.5072E+00  0.3278E+01 -0.3217E+01E
 Epicentro: LOS SANTOS - SANTANDER                                             3
 ACTION:UPD 13-08-12 10:35 OP:ep   STATUS:               ID:20130704215444 L   I
 OLDACT:REG 13-07-04 22:53 OP:y    STATUS:               ID:20130704214959     3
 2013-07-04-2149-59M.COL___267                                                 6
 STAT SP IPHASW D HRMM SECON CODA AMPLIT PERI AZIMU VELO AIN AR TRES W  DIS CAZ7
 BAR2 SZ ES   1   2155 18.78                             171   -0.21 7 21.1 184 
 BAR2 SZ I        2155 19.55        16.7 0.24            171           21.1 184 
 GIR2 SZ EP       2155  3.71                             167   -0.1910 32.8 355 
 GIR2 SZ ES   1   2155 19.32                             167    0.10 7 32.8 355 
 GIR2 SZ I        2155 20.11        10.6 0.10            167           32.8 355 
 BRR  HZ IP     D 2155  5.36                             153    0.1010 69.8 301 
 BRR  HN ES   1   2155 22.50                             153    0.86 7 69.8 301 
 BRR  HZ I        2155 24.24         7.8 0.14            153           69.8 301 
 PAM  SZ EP       2155  6.57                             150   -0.0310 80.5  40 
 PAM  SN ES   1   2155 23.64                             150   -0.38 7 80.5  40 
 PAM  SZ I        2155 25.31         9.1 0.70            152           80.5  40 
 RUS  HZ EP   1   2155  8.22                             144    0.40 7 98.9 174 
 RUS  HN ES   1   2155 26.45                             144    0.24 7 98.9 174 
 RUS  HZ I        2155 27.20         6.1 0.26            146           98.9 174 
 PTB  HN ES       2155 31.01                             133   -0.68 9  145 259 
 PTB  HN I        2155 35.77         8.6 0.10            133            145 259 
 ZAR  HE ES       2155 41.80                             122    0.19 9  202 293 
                                                                                
