 2011 10 4 2250 31.9 L   6.806 -73.175142.2  RSN  4 0.3 1.4LRSN                1
 GAP=133        0.61       4.3     6.3  6.6 -0.2966E+00 -0.2617E+01  0.1356E+01E
 Epicentro: LOS SANTOS - SANTANDER                                             3
 ACTION:UPD 12-07-13 16:01 OP:ep   STATUS:               ID:20111004225031 L   I
 2011-10-04-2249-48S.COL___171                                                 6
 STAT SP IPHASW D HRMM SECON CODA AMPLIT PERI AZIMU VELO AIN AR TRES W  DIS CAZ7
 BAR2 SZ EP   1   2250 51.19                             170    0.06 7 23.6 182 
 BAR2 SZ ES   1   2251  6.14                             170    0.03 7 23.6 182 
 BAR2 SZ I        2251  7.10         6.5 0.19                          23.6 182 
 BRR  HZ EP   1   2250 51.92                             153   -0.59 7 68.1 299 
 BRR  HE ES   1   2251  8.87                             153    0.31 7 68.1 299 
 BRR  HZ I        2251 14.83        11.8 0.42                          68.1 299 
 PAM  SZ EP   1   2250 54.16                             150    0.31 7 79.0  42 
 PAM  SE ES   1   2251 10.77                             150   -0.19 7 79.0  42 
 RUS  HZ EP   1   2250 55.63                             143    0.24 7  101 174 
 RUS  HN ES   1   2251 13.51                             143   -0.18 7  101 174 
 RUS  HZ I        2251 15.18         2.2 0.27                           101 174 
                                                                                
