 2010  6 4 2111 32.1 L   6.660 -72.827144.1  RSN  5 0.5 2.0LRSN                1
 GAP=229        0.63      15.0    24.2  9.9 -0.3336E+03  0.1019E+02  0.1178E+02E
 Epicentro: MOLAGAVITA - SANTANDER                                             3
 ACTION:UP  10-08-24 10:08 OP:vdl  STATUS:               ID:20100604211132 L   I
 2010-06-04-2106-52S.COL___109                                                 6
 STAT SP IPHASW D HRMM SECON CODA AMPLIT PERI AZIMU VELO SNR AR TRES W  DIS CAZ7
 BAR2 SZ EP   2   2111 52.08                             164     0.1 5   40 259 
 BAR2 SZ ES   2   2112  7.39                             164    -0.1 5   40 259 
 GUE  SZ EP   2   2111 56.84                             136    -0.9 5  130 355 
 GRA  SZ EP   2   2111 58.89                             134     0.9 5  135   1 
 GRA  SZ ES   2   2112 18.25                             134     0.0 5  135   1 
 RREF BZ EP   2   2112 19.79                             109    -0.5 3  340 235 
 RREF BN ES   2   2112 57.97                             109     0.1 3  340 235 
 RREF BZ I        2113  1.15         3.9 0.19                           340 235 
 TOL  SZ EP   2   2112 22.10                             108     0.0 3  359 230 
 TOL  SZ ES   2   2113  1.34                             108     0.3 3  359 230 
                                                                                
