 2011  5 4 2051 29.5 L   6.753 -73.224156.2  RSN  4 0.3 1.5LRSN                1
 GAP=219        0.51       4.9     6.3  6.3  0.1070E+02  0.7889E+01  0.6750E+01E
 Epicentro: VILLANUEVA - SANTANDER                                             3
 ACTION:UP  11-06-29 08:50 OP:tino STATUS:               ID:20110504205129 L   I
 2011-05-04-2040-00M.COL___138                                                 6
 STAT SP IPHASW D HRMM SECON CODA AMPLIT PERI AZIMU VELO SNR AR TRES W  DIS CAZ7
 BAR2 SZ EP   1   2051 50.08                             173    -0.2 7   18 165 
 BAR2 SZ I        2052  6.34         4.0 0.18                            18 165 
 BAR2 SZ ES   3   2052  7.23                             173     0.7 2   18 165 
 BRR  HZ EP   1   2051 51.39                             156    -0.1 7   67 306 
 BRR  HE ES   1   2052  8.77                             156     0.0 7   67 306 
 BRR  HZ I        2052 10.49         9.4 0.17                            67 306 
 RUS  HZ EP   1   2051 54.32                             147     0.3 7   96 171 
 RUS  HE ES   1   2052 12.93                             147    -0.2 7   96 171 
 RUS  HZ I        2052 13.43         5.7 0.49                            96 171 
 NOR  SZ EP   1   2052  5.01                             122     0.2 6  225 234 
 NOR  SN ES   2   2052 32.22                             122    -0.1 4  225 234 
                                                                                
