 2014 11 4 2212 43.4 L   6.874 -73.127148.1  RSN  4 0.3 1.5LRSN                1
 GAP=282        0.70       7.8     5.2  8.0  0.1249E+02  0.2300E+01 -0.2011E+02E
 Epicentro: LOS SANTOS - SANTANDER                                             3
 ACTION:UPD 14-12-19 15:39 OP:nd   STATUS:               ID:20141104221243 L   I
 OLDACT:REG 14-11-05 05:00 OP:spq  STATUS:               ID:20141104220748     3
 2014-11-04-2207-48M.COL___273                                                 6
 STAT SP IPHASW D HRMM SECON CODA AMPLIT PERI AZIMU VELO AIN AR TRES W  DIS CAZ7
 BAR2 SZ EP   1   2213  3.33                             168   -0.19 8 31.7 191 
 BAR2 SZ ES   1   2213 19.60                             168    0.40 8 31.7 191 
 BAR2 SZ I        2213 20.82         6.3 0.44            162           31.7 191 
 RUS  HZ EP       2213  8.23                             142    0.2510  109 177 
 RUS  HN ES       2213 26.74                             142   -0.4010  109 177 
 RUS  HZ I        2213 29.23         3.1 0.52            142            109 177 
 PTB  HZ EP       2213 10.90                             132   -0.01 9  152 256 
 PTB  HN ES       2213 32.18                             132   -0.19 9  152 256 
 PTB  HZ I        2213 39.51         5.0 0.44            130            152 256 
 SPBC HN ES   1   2213 36.20                             128    0.44 7  171 218 
 SPBC HZ I        2213 40.03         4.6 0.19            127            171 218 
                                                                                
