 2011  4 4 2050 12.2 L   6.757 -73.091150.0  RSN  6 0.4 2.0LRSN                1
 GAP=206        0.63       5.0    10.0  7.7 -0.1714E+02  0.3908E+01  0.8997E+01E
 Epicentro: LOS SANTOS - SANTANDER                                             3
 ACTION:UP  11-06-22 15:28 OP:REBC STATUS:               ID:20110404205012 L   I
 2011-04-04-2045-14S.COL___122                                                 6
 STAT SP IPHASW D HRMM SECON CODA AMPLIT PERI AZIMU VELO SNR AR TRES W  DIS CAZ7
 BAR2 SZ EP   2   2050 31.36                             172    -0.9 5   21 209 
 BAR2 SZ ES   2   2050 47.92                             172     0.0 5   21 209 
 BAR2 SZ I        2050 50.31        13.6 0.32                            21 209 
 GIR2 SZ EP   1   2050 32.53                             165     0.0 7   37 342 
 GIR2 SZ ES   2   2050 48.91                             165     0.5 5   37 342 
 BRR  HZ EP   1   2050 34.23                             151     0.0 7   79 299 
 BRR  HZ I        2050 35.77        23.9 0.09                            79 299 
 BRR  HE ES   2   2050 51.65                             151     0.2 5   79 299 
 OCA  SZ EP   2   2050 41.50                             130     0.2 5  166 351 
 OCA  SZ ES   2   2051  3.87                             130    -0.2 5  166 351 
 OCA  SZ I        2051  8.74        16.2 0.27                           166 351 
 NOR  SZ EP   2   2050 48.96                             119     0.5 4  237 236 
 NOR  SE ES   2   2051 16.03                             119    -0.6 4  237 236 
 CHI  HZ EP   2   2050 50.14                             118     0.3 4  246 197 
 CHI  HE ES   2   2051 19.46                             118     0.3 4  246 197 
 CHI  HZ I        2051 25.14         3.6 0.57                           246 197 
                                                                                
