 2017  1 4 2058 40.9 L   6.786 -73.132148.0  RSN  6 0.2 1.3LRSN                1
 GAP=139        0.78       4.1     4.1  5.6  0.3148E+01 -0.1109E+01 -0.1515E+01E
 Epicentro: LOS SANTOS - SANTANDER                                             3
 ACTION:UPD 17-05-22 15:55 OP:jn   STATUS:               ID:20170104205840 L   I
 OLDACT:REG 17-01-05 03:43 OP:edw  STATUS:               ID:20170104205744     3
 2017-01-04-2058-00M.COL___375                                                 6
 STAT SP IPHASW D HRMM SECON CODA AMPLIT PERI AZIMU VELO AIN AR TRES W  DIS CAZ7
 BAR2 EZ EP       2059  0.65                             171   -0.1110 22.1 195 
 BAR2 EZ ES       2059 16.35                             171    0.0910 22.1 195 
 BAR2 EZ I        2059 16.91        10.1 0.64            171           22.1 195 
 BRR  HZ EP       2059  2.49                             152    0.1010 73.3 299 
 BRR  HN ES       2059 19.36                             152    0.1910 73.3 299 
 PAM  EZ EP     C 2059  3.57                             151    0.2210 77.7  38 
 PAM  EN ES       2059 20.53                             151   -0.3510 77.7  38 
 PAM  EZ I        2059 21.86         2.2 0.22            151           77.7  38 
 RUS  HZ EP       2059  4.57                             144   -0.1610 98.9 177 
 RUS  HN ES       2059 23.38                             144    0.0410 98.9 177 
 RUS  HZ I        2059 24.10         1.9 0.34            145           98.9 177 
 PTB  HZ EP   9   2059  7.77                             132   -0.37 0  149 260 
 PTB  HN ES       2059 28.23                             133   -0.80 9  149 260 
 PTB  HZ I        2059 30.46         3.6 0.12            132            149 260 
 ZAR  HN ES       2059 39.24                             122   -0.03 8  206 292 
                                                                                
