 2015 10 4 2348 50.3 L   6.817 -73.049155.0  RSN  5 0.4 1.5LRSN                1
 GAP=193        0.97       3.8     9.6  9.3 -0.1132E+01 -0.2337E+02 -0.1565E+01E
 Epicentro: LOS SANTOS - SANTANDER                                             3
 ACTION:UPD 15-12-22 20:37 OP:cam  STATUS:               ID:20151004234850 L   I
 OLDACT:UP  15-10-29 04:28 OP:DRIO STATUS:               ID:20151004234850 L   3
 OLDACT:UP  15-10-05 09:25 OP:mh   STATUS:               ID:20151004234749     3
 OLDACT:UP  15-10-05 09:25 OP:mh   STATUS:               ID:20151004234749     3
 OLDACT:UP  15-10-05 09:23 OP:mh   STATUS:               ID:20151004234749     3
 OLDACT:UP  15-10-05 09:17 OP:mh   STATUS:               ID:20151004234749     3
 OLDACT:UP  15-10-05 09:16 OP:mh   STATUS:               ID:20151004234749     3
 OLDACT:REG 15-10-05 05:34 OP:mh   STATUS:               ID:20151004234749     3
 2015-10-04-2347-49M.COL___349                                                 6
 STAT SP IPHASW D HRMM SECON CODA AMPLIT PERI AZIMU VELO AIN AR TRES W  DIS CAZ7
 BAR2 EZ EP   1   2349 11.30                             169    0.13 7 28.9 211 
 BAR2 EZ I        2349 29.32         4.2 0.46            169           28.9 211 
 BRR  HZ EP       2349 12.35                             151   -0.6110 80.0 294 
 BRR  HN ES       2349 31.11                             151    0.4910 80.0 294 
 BRR  HZ I        2349 32.35        10.7 0.28            160           80.0 294 
 RUS  HZ EP       2349 15.28                             145    0.1810  102 182 
 RUS  HN ES       2349 34.30                             145   -0.1310  102 182 
 RUS  HZ I        2349 36.76         2.0 0.38            145            102 182 
 OCA  HZ EP       2349 19.94                             132    0.61 9  160 349 
 OCA  HE ES       2349 41.48                             132   -0.49 9  160 349 
 OCA  HZ I        2349 47.35         5.5 0.28            131            160 349 
 SPBC HZ EP       2349 20.29                             130   -0.02 9  172 221 
 SPBC HN ES       2349 43.59                             130   -0.11 9  172 221 
                                                                                
