 2010  5 4 2211 39.3 L   6.762 -73.077147.0  RSN 16 0.5 2.9LRSN                1
 GAP=148        1.07       5.4     7.7  6.4 -0.2813E+02 -0.3744E+01  0.1044E+02E
 Epicentro: LOS SANTOS - SANTANDER                                             3
 ACTION:UP  10-08-24 10:02 OP:vdl  STATUS:               ID:20100504221139 L   I
 2010-05-04-2208-05S.COL___105                                                 6
 STAT SP IPHASW D HRMM SECON CODA AMPLIT PERI AZIMU VELO SNR AR TRES W  DIS CAZ7
 BAR2 SZ IP       2211 59.10                             171     0.010   22 212 
 BAR2 SZ ES   1   2212 13.77                             171    -0.7 7   22 212 
 GIR2 SZ IP       2211 59.16                             165    -0.210   37 340 
 GIR2 SZ ES   1   2212 14.91                             165     0.0 7   37 340 
 BRR  HZ IP     C 2212  1.59                             150     0.510   80 299 
 BRR  HZ I        2212  1.85       337.0 0.17                            80 299 
 BRR  HE ES   1   2212 18.47                             150     0.3 7   80 299 
 BRI  SZ IP       2212  4.63                             141     1.210  110  16 
 BRI  SZ ES   1   2212 22.67                             141     0.4 7  110  16 
 GUE  SZ EP   1   2212  3.95                             139    -0.4 7  119   8 
 GUE  SZ ES   2   2212 23.63                             139    -0.3 5  119   8 
 GRA  SZ IP       2212  4.91                             137     0.010  128  14 
 GRA  SZ ES       2212 24.48                             137    -0.310  128  14 
 OCA  SZ IP       2212  7.55                             129    -0.7 9  166 351 
 OCA  SZ I        2212 39.21        62.9 0.45                           166 351 
 CHI  HZ EP   1   2212 17.13                             118     0.2 6  247 197 
 CHI  HN ES   2   2212 46.06                             118    -0.1 4  247 197 
 CHI  HZ I        2212 53.84        24.4 0.63                           247 197 
 ROSC BN ES   2   2212 47.53                             117     0.1 4  253 213 
 ROSC BZ I        2212 56.92        36.4 0.40                           253 213 
 HEL  HZ EP   1   2212 20.03                             115    -0.3 6  278 257 
 HEL  HE ES   2   2212 52.17                             115    -0.1 4  278 257 
 HEL  HZ I        2212 58.19        48.8 0.50                           278 257 
 RREF BZ EP   2   2212 25.83                             111    -0.1 3  325 231 
 RREF BE ES   1   2213  2.40                             111     0.2 5  325 231 
 RREF BZ I        2213  8.90        37.4 0.31                           325 231 
 TOL  SZ EP   1   2212 28.37                             109     0.4 5  346 226 
 DBB  SZ EP   1   2212 27.04                             109    -0.7 5  347 275 
 SDV  BZ IP     D 2212 28.62                             109    -0.5 6  357  49 
 SDV  BZ I        2212 29.40        14.9 0.18                           357  49 
 ANIL BN ES   2   2213  8.42                             109    -0.1 3  360 226 
 ANIL BZ I        2213 15.33        74.0 0.30                           360 226 
 PRA  HZ IP     C 2212 32.87                             107    -0.1 6  392 211 
 PRA  HE ES   1   2213 14.52                             107    -0.2 4  392 211 
 PRA  HZ I        2213 20.30        31.2 0.85                           392 211 
                                                                                
