 2013  9 4 2312 19.9 L   6.792 -73.145148.6  RSN 15 0.4 2.1LRSN                1
 GAP=137        0.90       2.7     3.7  4.8 -0.6998E+00  0.3459E+01  0.1267E+01E
 Epicentro: LOS SANTOS - SANTANDER                                             3
 ACTION:UPD 13-10-22 09:20 OP:ep   STATUS:               ID:20130904231219 L   I
 OLDACT:REG 13-09-05 02:14 OP:nd   STATUS:               ID:20130904230959     3
 2013-09-04-2309-59M.COL___269                                                 6
 STAT SP IPHASW D HRMM SECON CODA AMPLIT PERI AZIMU VELO AIN AR TRES W  DIS CAZ7
 BAR2 SZ EP       2312 39.92                             171    0.0710 22.5 191 
 BAR2 SZ ES       2312 55.04                             171   -0.3710 22.5 191 
 BAR2 SZ I        2312 56.91        18.2 0.34            168           22.5 191 
 BRR  HZ IP     D 2312 41.78                             153    0.4010 71.7 299 
 BRR  HN ES       2312 59.04                             153    0.9110 71.7 299 
 BRR  HZ I        2313  2.86        18.8 0.36            148           71.7 299 
 PAM  SZ EP     D 2312 42.71                             151    0.2610 78.0  39 
 PAM  SN ES       2312 59.83                             151   -0.2110 78.0  39 
 PAM  SZ I        2313  2.12        26.1 0.56            155           78.0  39 
 RUS  HZ EP       2312 43.82                             145   -0.0410 99.7 176 
 RUS  HN ES       2313  2.42                             145   -0.1310 99.7 176 
 RUS  HZ I        2313  5.18        17.1 0.50            146           99.7 176 
 PTB  HZ EP       2312 46.81                             133   -0.28 9  148 259 
 PTB  HN ES       2313  7.79                             133   -0.51 9  148 259 
 PTB  HZ I        2313 13.84        18.9 0.46            130            148 259 
 SPBC HZ IP     D 2312 48.96                             130    0.41 9  163 219 
 SPBC HN ES       2313 10.63                             130   -0.27 9  163 219 
 SPBC HZ I        2313 15.94        23.6 0.22            129            163 219 
 ZAR  HZ EP   2   2312 52.00                             123   -0.57 4  205 292 
 ZAR  HN ES       2313 18.14                             123    0.08 9  205 292 
 ZAR  HZ I        2313 24.90        14.7 0.28            121            205 292 
 SML  HZ EP       2312 56.28                             118   -0.50 8  245 335 
 SML  HN ES   2   2313 24.63                             118   -0.91 4  245 335 
 SML  HZ I        2313 32.18        16.1 0.10            118            245 335 
 CHI  HZ EP       2312 58.06                             118    0.40 8  248 195 
 CHI  HN ES       2313 26.78                             118   -0.34 8  248 195 
 CHI  HZ I        2313 32.82         5.7 0.28            118            248 195 
 HEL  HZ EP   4   2313  3.18                             115    2.94 0  272 256 
 HEL  HN ES   2   2313 31.55                             115   -0.16 4  272 256 
 HEL  HZ I        2313 39.11         5.7 0.40            115            272 256 
 GUY2CHZ EP   4   2313  5.05                             113    1.46 0  301 235 
 GUY2CHN ES   4   2313 37.54                             113   -0.13 0  301 235 
 GUY2CHZ I        2313 45.30         8.3 0.30                           301 235 
 RREF HZ EP   4   2313  7.36                             111    1.25 0  321 230 
 RREF HN ES   4   2313 44.49                             111    2.34 0  321 230 
 RREF HZ I        2313 50.89         9.5 0.22            111            321 230 
 COD  HZ EP   2   2313  8.53                             109    0.04 3  349 355 
 COD  HN ES   2   2313 45.72                             109   -0.67 3  349 355 
 COD  HZ I        2313 52.65         2.5 0.38            110            349 355 
 PRA  HZ EP       2313 13.50                             107    0.07 6  391 210 
 PRA  HN ES       2313 55.79                             107    0.60 6  391 210 
 PRA  HZ I        2314  1.20         6.3 0.26            107            391 210 
 SJC  HZ EP   4   2313 14.00                             106   -1.65 0  410 327 
 SJC  HN ES   4   2313 56.18                             106   -2.95 0  410 327 
 SJC  HZ I        2313 59.60         3.1 0.50            106            410 327 
                                                                                
