 2017 11 4 2002 11.3 L   6.791 -73.138139.5  RSN 13 0.5 1.8LRSN                1
 GAP=113        1.00       3.4     3.8  5.9 -0.5027E+00  0.6382E+01  0.3448E+01E
 Epicentro: LOS SANTOS - SANTANDER                                             3
 ACTION:UPD 17-12-12 19:52 OP:rebc STATUS:               ID:20171104200211 L   I
 OLDACT:UP  17-11-05 06:52 OP:edw  STATUS:               ID:20171104195740     3
 OLDACT:UP  17-11-05 06:51 OP:edw  STATUS:               ID:20171104195740     3
 OLDACT:UP  17-11-05 06:49 OP:edw  STATUS:               ID:20171104195740     3
 OLDACT:REG 17-11-05 02:28 OP:edw  STATUS:               ID:20171104195740     3
 2017-11-04-1958-00M.COL___435                                                 6
 STAT SP IPHASW D HRMM SECON CODA AMPLIT PERI AZIMU VELO AIN AR TRES W  DIS CAZ7
 BAR2 EZ EP       20 2 30.11                             170   -0.0210 22.5 193 
 BAR2 EZ ES       20 2 44.58                             170   -0.2610 22.5 193 
 BAR2 EZ I        20 2 45.68        12.2 0.32            168           22.5 193 
 BRR  HZ EP       20 2 31.71                             151   -0.1110 72.4 299 
 BRR  HN ES       20 2 48.16                             151    0.3110 72.4 299 
 BRR  HZ I        20 2 52.51        12.8 0.22            150           72.4 299 
 PAM  EZ EP       20 2 32.79                             150   -0.0510 77.6  39 
 PAM  EE ES       20 2 49.69                             150    0.0310 77.6  39 
 PAM  EZ I        20 2 51.19         9.2 0.42            154           77.6  39 
 RUS  HZ EP       20 2 34.38                             143    0.0510 99.5 177 
 RUS  HN ES       20 2 52.55                             143    0.2310 99.5 177 
 RUS  HZ I        20 2 53.86         4.1 0.34            143           99.5 177 
 PTB  HZ EP       20 2 36.86                             130   -0.94 9  148 259 
 PTB  HE ES       20 2 57.68                             130   -0.81 9  148 259 
 PTB  HZ I        20 3  0.18         7.2 0.22            130            148 259 
 SPBC HZ EP       20 2 39.88                             128    0.60 9  163 219 
 SPBC HN ES       20 3  1.60                             128    0.48 9  163 219 
 SPBC HZ I        20 3  5.58         8.1 0.30            127            163 219 
 YPLC HZ EP   2   20 2 40.38                             125   -0.11 4  176 151 
 YPLC HE ES   2   20 3  3.28                             125    0.00 4  176 151 
 ZAR  HZ EP       20 2 43.74                             121    0.30 8  205 292 
 ZAR  HE ES       20 3  9.10                             121    0.57 8  205 292 
 ZAR  HZ I        20 3 14.91         7.1 0.28            121            205 292 
 NOR  HZ EP       20 2 46.50                             117   -0.16 8  235 235 
 NOR  HN ES       20 3 14.42                             117    0.16 8  235 235 
 NOR  HZ I        20 3 18.92         4.4 0.52            117            235 235 
 CHI  HE ES   1   20 3 17.04                             116   -0.59 6  248 195 
 CHI  HZ I        20 3 24.84         3.4 0.54            117            248 195 
 GUY2CHZ EP   4   20 2 57.15                             111    2.53 0  301 235 
 GUY2CHE ES   4   20 3 32.00                             111    3.58 0  301 235 
 GUY2CHZ I        20 3 36.31         3.3 0.42                           301 235 
 PRA  HZ EP   4   20 3  5.87                             105    1.34 0  392 210 
 PRA  HE ES   1   20 3 45.60                             105   -0.48 4  392 210 
 PRA  HZ I        20 3 52.53         3.0 0.26            106            392 210 
 ORTC HE ES   2   20 3 48.39                             105    1.57 3  395 216 
 SJC  HZ EP   4   20 3  4.37                             105   -2.42 0  411 327 
 SJC  HE ES   4   20 3 44.81                             105   -5.29 0  411 327 
                                                                                
