 2012  3 4 2312 31.0 L   6.161 -73.664110.0  RSN 12 0.3 2.2LRSN                1
 GAP= 68        0.67       2.6     3.0  6.5  0.9420E-01  0.8205E+01  0.3006E+01E
 ACTION:UP  12-03-31 23:17 OP:EP   STATUS:               ID:20120304231231 L   I
 2012-03-04-2310-00M.COL___191                                                 6
 STAT SP IPHASW D HRMM SECON CODA AMPLIT PERI AZIMU VELO SNR AR TRES W  DIS CAZ7
 RUS  HZ EP   1   2312 49.16                             145     0.0 7   71 115 
 RUS  HN ES   1   2313  3.11                             145    -0.1 7   71 115 
 RUS  HZ I        2313  4.19        16.2 0.28                            71 115 
 BAR2 SZ EP       2312 49.01                             144     0.210   72  48 
 BAR2 SZ ES   2   2313  2.97                             144     0.3 5   72  48 
 BAR2 SZ I        2313  4.54       129.6 0.42                            72  48 
 PTB  HZ EP   1   2312 49.65                             135    -0.9 7   97 296 
 PTB  HE ES   2   2313  5.45                             135    -0.3 5   97 296 
 BRR  HZ EP       2312 51.12                             133     0.010  105 357 
 BRR  HZ I        2312 51.47       113.4 0.10                           105 357 
 BRR  HN ES   2   2313  7.56                             133     0.7 5  105 357 
 NOR  SZ EP   1   2312 55.16                             122    -0.4 7  149 244 
 NOR  SN ES   2   2313 14.48                             122    -0.1 5  149 244 
 PAM  SZ EP   1   2312 58.14                             119     0.0 7  168  39 
 PAM  SN ES   2   2313 19.07                             119    -0.2 5  168  39 
 CHI  HZ EP   1   2312 57.79                             118    -0.4 7  169 183 
 CHI  HN ES   2   2313 19.42                             118     0.1 5  169 183 
 CHI  HZ I        2313 22.02        10.2 0.38                           169 183 
 ZAR  HZ EP   1   2313  0.76                             114     0.0 6  198 318 
 ZAR  HN ES   1   2313 23.88                             114     0.0 6  198 318 
 ZAR  HZ I        2313 25.61        31.7 0.38                           198 318 
 HEL  HZ EP   1   2313  2.60                             113     0.4 6  206 271 
 HEL  HN ES   2   2313 26.93                             113     0.5 4  206 271 
 HEL  HZ I        2313 31.40         6.1 0.31                           206 271 
 RREF HZ EP   1   2313  5.83                             110     0.4 6  233 233 
 RREF HZ I        2313 38.03         7.8 0.31                           233 233 
 PRA  HZ EP   2   2313 12.95                             104     0.1 4  303 207 
 PRA  HN ES   2   2313 46.17                             104     0.7 4  303 207 
 SJA  SZ EP   2   2313 15.41                             103     0.3 3  321 186 
 SJA  SZ ES   2   2313 49.70                             103     0.2 3  321 186 
                                                                                
