 2015  5 4 2338  7.0 L   6.545 -73.490114.5  RSN 16 0.5 2.3LRSN                1
 GAP= 67        1.08       2.3     3.4  5.9 -0.2188E+01  0.9118E+01 -0.1230E+01E
 Epicentro: EL CARMEN - SANTANDER                                              3
 ACTION:UPD 15-09-10 22:01 OP:cam  STATUS:               ID:20150504233807 L   I
 OLDACT:DUP 15-05-05 07:00 OP:ak   STATUS:               ID:20150504232750d    3
 2015-05-04-2327-49M.COL___274                                                 6
 STAT SP IPHASW D HRMM SECON CODA AMPLIT PERI AZIMU VELO AIN AR TRES W  DIS CAZ7
 BAR2 EZ IP     C 2338 23.61                             162    0.4110 34.4  81 
 BAR2 EZ ES       2338 35.54                             162   -0.3210 34.4  81 
 BAR2 EZ I        2338 37.84       127.6 0.26            169           34.4  81 
 BRR  HZ IP     C 2338 24.44                             147   -0.1010 66.8 339 
 BRR  HN ES       2338 38.35                             147    0.1010 66.8 339 
 BRR  HZ I        2338 49.48        30.9 0.21            150           66.8 339 
 RUS  HZ EP       2338 26.64                             141    0.1010 85.1 148 
 RUS  HN ES   1   2338 42.24                             141    0.44 7 85.1 148 
 RUS  HZ I        2338 43.78        16.2 0.38            151           85.1 148 
 SPBC HZ EP       2338 28.48                             131   -0.3010  118 213 
 SPBC HN ES       2338 45.50                             131   -0.2910  118 213 
 SPBC HZ I        2338 51.67        50.1 0.26            137            118 213 
 PAM  SZ EP       2338 30.11                             129    0.2310  124  45 
 PAM  SE ES       2338 47.91                             129    0.1610  124  45 
 PAM  SZ I        2338 52.51        17.4 0.34            137            124  45 
 ZAR  HZ EP       2338 35.37                             117   -0.00 9  184 305 
 ZAR  HE ES       2338 58.51                             117    0.98 9  184 305 
 ZAR  HZ I        2339  1.47        19.1 0.14            122            184 305 
 NOR  HZ EP       2338 35.31                             117   -0.49 9  187 235 
 NOR  HE ES       2338 57.67                             117   -0.62 9  187 235 
 NOR  HZ I        2339  0.73        37.6 0.16            122            187 235 
 OCA  HZ EP   1   2338 35.38                             117   -0.66 7  188   6 
 OCA  HN ES       2338 57.83                             117   -0.88 9  188   6 
 OCA  HZ I        2339  4.72        41.0 0.39            123            188   6 
 ROSC BZ EP   1   2338 39.35                             114    0.64 6  210 206 
 ROSC BN ES   1   2339  3.07                             114   -0.40 6  210 206 
 ROSC BZ I        2339  9.93        14.1 0.45            120            210 206 
 CHI  HZ EP   2   2338 39.07                             113   -0.08 4  213 187 
 CHI  HN ES       2339  4.07                             113   -0.19 8  213 187 
 HEL  HZ EP       2338 41.16                             112    0.33 8  229 260 
 HEL  HN ES       2339  6.72                             112   -0.53 8  229 260 
 HEL  HZ I        2339 10.88        13.7 0.30            117            229 260 
 GUY2CHZ EP       2338 44.55                             109    0.74 8  254 235 
 GUY2CHN ES   1   2339 13.32                             109    0.77 6  254 235 
 GUY2CHZ I        2339 17.32        12.4 0.34                           254 235 
 SML  HZ EP       2338 43.57                             109   -0.07 8  258 346 
 SML  HN ES       2339 13.02                             109    0.77 8  258 346 
 SML  HZ I        2339 17.26        36.2 0.08            114            258 346 
 URE  HZ EP       2338 43.75                             108   -0.44 8  262 301 
 URE  HN ES   4   2339 11.18                             108   -2.04 0  262 301 
 URE  HZ I        2339 19.41        19.3 0.16            113            262 301 
 RREF HZ EP   2   2338 46.93                             107    0.53 4  275 229 
 RREF HN ES       2339 17.80                             107    0.63 8  275 229 
 RREF HZ I        2339 21.13         4.2 0.24            113            275 229 
 LL2C HZ EP   4   2338 54.00                             103    1.53 0  333   1 
 LL2C HN ES   4   2339 29.79                             103    1.82 0  333   1 
 MON  HZ EP   2   2338 52.86                             103   -0.97 3  344 316 
 MON  HN ES   1   2339 29.51                             103   -0.88 5  344 316 
 MON  HZ I        2339 31.30         9.2 0.22            107            344 316 
                                                                                
