 2012  1 4 2344  5.2 L   6.781 -73.157138.0  RSN 14 0.4 2.7LRSN                1
 GAP=136        1.09       3.6     4.6  5.9 -0.3388E+01  0.8423E+01  0.4196E+01E
 Epicentro: LOS SANTOS - SANTANDER                                             3
 ACTION:UP  12-02-03 08:14 OP:REBC STATUS:               ID:20120104234405 L   I
 2012-01-04-2340-00M.COL___189                                                 6
 STAT SP IPHASW D HRMM SECON CODA AMPLIT PERI AZIMU VELO SNR AR TRES W  DIS CAZ7
 BAR2 SZ IP       2344 23.87                             171     0.010   21 188 
 BAR2 SZ ES       2344 38.27                             171    -0.210   21 188 
 BAR2 SZ I        2344 40.77       117.2 0.24                            21 188 
 GIR2 SZ EP       2344 23.75                             166    -0.310   33 353 
 BRR  HZ EP       2344 25.53                             151     0.010   71 301 
 BRR  HE ES       2344 42.33                             151     1.010   71 301 
 PAM  SZ EP       2344 26.53                             149    -0.210   80  39 
 PAM  SN ES       2344 43.37                             149    -0.210   80  39 
 RUS  HZ EP       2344 28.05                             143     0.010   99 175 
 RUS  HE ES   1   2344 46.01                             143     0.1 7   99 175 
 RUS  HZ I        2344 48.64        36.4 0.25                            99 175 
 PTB  HZ EP       2344 30.65                             131    -0.8 9  146 260 
 PTB  HE ES   1   2344 51.39                             131    -0.5 7  146 260 
 OCA  SZ EP       2344 33.98                             128     0.8 9  162 354 
 OCA  SZ ES   1   2344 55.04                             128     0.1 7  162 354 
 OCA  SZ I        2345  0.72       113.2 0.47                           162 354 
 ZAR  HZ EP       2344 36.64                             121    -0.5 9  204 293 
 ZAR  HE ES   1   2345  1.42                             121    -0.6 6  204 293 
 ZAR  HZ I        2345  8.42       105.6 0.40                           204 293 
 NOR  SZ EP       2344 40.17                             117    -0.1 8  232 235 
 NOR  SN ES   1   2345  7.43                             117    -0.2 6  232 235 
 CHI  HZ EP       2344 42.51                             116     0.3 8  246 195 
 CHI  HN ES   1   2345 11.41                             116     0.3 6  246 195 
 CHI  HZ I        2345 16.48        19.8 0.49                           246 195 
 HEL  HZ EP   1   2344 44.80                             113    -0.1 6  270 256 
 HEL  HZ I        2345 24.22        33.2 0.12                           270 256 
 GUY  SZ EP   1   2344 49.34                             111     0.8 5  301 235 
 GUY  SE ES   1   2345 22.77                             111     0.5 5  301 235 
 GUY  SZ I        2345 32.13        48.7 0.45                           301 235 
 RREF HZ EP   1   2344 51.01                             110     0.2 5  319 230 
 RREF HE ES   1   2345 26.60                             110     0.3 5  319 230 
 RREF HZ I        2345 36.18        22.7 0.67                           319 230 
 PRA  HZ EP   1   2344 58.27                             105     0.1 4  390 210 
 PRA  HE ES   1   2345 39.45                             105    -0.1 4  390 210 
                                                                                
