 2015  4 4 2112 16.4 L   6.812 -73.156144.7  RSN 14 0.5 2.0LRSN                1
 GAP= 70        1.21       3.3     3.8  5.9 -0.2229E+01  0.5017E+01 -0.3015E-01E
 Epicentro: LOS SANTOS - SANTANDER                                             3
 ACTION:UPD 15-06-03 16:52 OP:cam  STATUS:               ID:20150404211216 L   I
 OLDACT:REG 15-04-05 02:53 OP:stll STATUS:               ID:20150404210749     3
 2015-04-04-2107-49M.COL___285                                                 6
 STAT SP IPHASW D HRMM SECON CODA AMPLIT PERI AZIMU VELO AIN AR TRES W  DIS CAZ7
 BAR2 EZ EP     C 2112 35.98                             170    0.0410 24.4 187 
 BAR2 EZ ES       2112 51.65                             170    0.4810 24.4 187 
 BAR2 EZ I        2112 52.87        15.4 0.38            169           24.4 187 
 BRR  HZ IP     C 2112 37.88                             153    0.5210 69.6 298 
 BRR  HZ I        2112 38.11        24.3 0.26            148           69.6 298 
 BRR  HN ES       2112 54.68                             153    0.9810 69.6 298 
 PAM  SZ EP     C 2112 38.75                             151    0.2410 77.1  41 
 PAM  SZ I        2112 39.01        12.5 0.26            154           77.1  41 
 PAM  SN ES       2112 55.41                             151   -0.3210 77.1  41 
 RUS  HZ EP       2112 40.05                             143   -0.1110  102 175 
 RUS  HN ES       2112 58.03                             143   -0.6510  102 175 
 RUS  HZ I        2112 59.61         8.3 0.38            145            102 175 
 PTB  HZ EP       2112 42.84                             132   -0.38 9  147 258 
 PTB  HN ES       2113  3.57                             132   -0.56 9  147 258 
 PTB  HZ I        2113  8.58        12.1 0.28            130            147 258 
 TAM  HZ IP     D 2112 44.17                             130    0.03 9  157 105 
 OCA  HZ EP       2112 44.02                             130   -0.49 9  159 353 
 OCA  HE ES       2113  6.08                             130   -0.35 9  159 353 
 OCA  HZ I        2113 10.05        20.2 0.42            130            159 353 
 SPBC HZ EP       2112 44.92                             129    0.06 9  163 218 
 SPBC HN ES       2113  6.85                             129   -0.20 9  163 218 
 SPBC HZ I        2113 11.64        14.4 0.22            128            163 218 
 ZAR  HZ EP       2112 48.93                             122    0.29 9  203 292 
 ZAR  HE ES       2113 13.43                             122   -0.34 9  203 292 
 ZAR  HZ I        2113 20.84        15.2 0.36            121            203 292 
 NOR  HZ EP       2112 51.70                             118   -0.37 8  235 234 
 NOR  HN ES       2113 19.87                             118   -0.00 8  235 234 
 NOR  HZ I        2113 27.86         7.2 0.38            118            235 234 
 SML  HZ EP       2112 52.38                             117   -0.43 8  242 335 
 SML  HN ES       2113 21.13                             117   -0.06 8  242 335 
 SML  HZ I        2113 23.82        12.0 0.30            117            242 335 
 HEL  HZ EP       2112 58.07                             115    1.58 8  271 255 
 HEL  HN ES       2113 27.31                             115   -0.44 8  271 255 
 HEL  HZ I        2113 35.26         3.5 0.28            114            271 255 
 GUY2CHZ EP       2113  0.31                             112    0.35 7  301 234 
 GUY2CHN ES       2113 34.30                             112    0.38 7  301 234 
 GUY2CHZ I        2113 44.56         3.4 0.64                           301 234 
 MON  HZ EP   9   2113  3.25                             108   -1.93 0  352 308 
 MON  HN ES       2113 42.05                                    0.76 6  352 308 
 MON  HZ I        2113 57.03         4.0 0.52            108            352 308 
                                                                                
