 2012  5 4 2116 43.1 L   6.107 -73.890 79.5  RSN  9 0.4 1.6LRSN                1
 GAP=126        0.81       3.4     2.8  9.9 -0.9224E+00  0.1067E+02  0.9898E+01E
 Epicentro: EL PEON - SANTANDER                                                3
 ACTION:UP  12-07-05 12:02 OP:pat  STATUS:               ID:20120504211643 L   I
 2012-05-04-2110-00M.COL___192                                                 6
 STAT SP IPHASW D HRMM SECON CODA AMPLIT PERI AZIMU VELO SNR AR TRES W  DIS CAZ7
 PTB  HZ EP   1   2116 57.91                             131    -0.5 7   79 307 
 PTB  HN ES   1   2117 10.04                             131    -0.3 7   79 307 
 PTB  HZ I        2117 11.20         6.1 0.15                            79 307 
 RUS  HZ EP   1   2117  0.50                             127     0.2 7   92 105 
 RUS  HN ES   1   2117 13.69                             127    -0.1 7   92 105 
 BAR2 SZ ES   1   2117 13.66                             126     0.0 7   95  56 
 BAR2 SZ I        2117 16.16        17.9 0.17                            95  56 
 BRR  HZ EP   1   2117  1.61                             120    -0.1 7  112  10 
 BRR  HZ I        2117  1.76        20.9 0.12                           112  10 
 BRR  HN ES   1   2117 16.46                             120     0.2 7  112  10 
 NOR  SZ EP   1   2117  2.81                             117    -0.3 7  124 241 
 NOR  SN ES   1   2117 19.20                             117     0.6 7  124 241 
 HEL  HZ EP   1   2117 10.63                             108     0.6 7  182 273 
 HEL  HZ I        2117 11.16         4.4 0.11                           182 273 
 HEL  HN ES   1   2117 30.65                             108    -0.4 7  182 273 
 ZAR  HN ES   1   2117 31.83                             107     0.5 7  187 325 
 ZAR  HZ I        2117 34.87         6.9 0.31                           187 325 
 GUY  SZ EP   1   2117 10.87                             107    -0.6 7  193 240 
 GUY  SZ I        2117 38.50         5.5 0.28                           193 240 
 RREF HZ EP   1   2117 13.69                             106     0.0 6  209 231 
 RREF HN ES   1   2117 37.69                             106     0.2 6  209 231 
                                                                                
