 2014  6 4 2248 25.4 L   6.788 -73.144145.1  RSN  8 0.5 1.9LRSN                1
 GAP=137        1.14       4.2     4.8  6.9 -0.5614E+00  0.1062E+02 -0.2225E+01E
 Epicentro: LOS SANTOS - SANTANDER                                             3
 ACTION:UPD 14-07-01 22:50 OP:nd   STATUS:               ID:20140604224825 L   I
 OLDACT:UP  14-06-05 03:01 OP:cam  STATUS:               ID:20140604224000     3
 OLDACT:REG 14-06-05 02:35 OP:cam  STATUS:               ID:20140604224000     3
 2014-06-04-2240-00M.COL___276                                                 6
 STAT SP IPHASW D HRMM SECON CODA AMPLIT PERI AZIMU VELO AIN AR TRES W  DIS CAZ7
 BAR2 SZ EP     D 2248 44.77                             171   -0.1110 22.0 191 
 BAR2 SZ ES       2249  0.44                             171    0.3310 22.0 191 
 BAR2 SZ I        2249  0.97        17.2 0.40            169           22.0 191 
 BRR  HZ EP     C 2248 46.65                             152    0.1710 72.0 299 
 BRR  HE ES       2249  3.69                             152    0.7310 72.0 299 
 BRR  HZ I        2249  4.22        16.9 0.28            150           72.0 299 
 PAM  SZ IP     D 2248 47.79                             150    0.2310 78.3  39 
 PAM  SN ES       2249  4.42                             150   -0.4610 78.3  39 
 PAM  SZ I        2249  5.22        11.7 0.28            154           78.3  39 
 RUS  HZ EP       2248 48.76                             144   -0.1810 99.2 176 
 RUS  HN ES       2249  7.27                             144   -0.0710 99.2 176 
 RUS  HZ I        2249  8.38         6.6 0.30            145           99.2 176 
 PTB  HZ EP       2248 51.52                             132   -0.74 9  148 259 
 PTB  HN ES       2249 12.35                             132   -0.90 9  148 259 
 PTB  HZ I        2249 16.04         8.9 0.12            131            148 259 
 ZAR  HZ EP       2248 58.07                             122    0.24 9  205 292 
 ZAR  HN ES       2249 23.42                             122    0.27 9  205 292 
 ZAR  HZ I        2249 29.81         9.4 0.24            122            205 292 
 NOR  HZ EP       2249  1.50                             118    0.52 8  234 235 
 NOR  HN ES       2249 29.05                             118    0.29 8  234 235 
 NOR  HZ I        2249 35.54         5.1 0.20            118            234 235 
 SML  HZ EP   1   2249  2.74                             117    0.66 6  245 335 
 SML  HE ES       2249 30.19                             117   -0.54 8  245 335 
 GUY2CHZ EP   4   2249 10.57                             112    1.71 0  301 235 
                                                                                
