 2015  1 4 2231 51.1 L   6.810 -73.161143.0  RSN 12 0.4 1.8LRSN                1
 GAP=134        0.97       3.3     4.1  5.8 -0.9032E+00  0.3681E+01  0.1390E+01E
 Epicentro: LOS SANTOS - SANTANDER                                             3
 ACTION:UPD 15-03-02 15:36 OP:nd   STATUS:               ID:20150104223151 L   I
 OLDACT:REG 15-01-05 07:40 OP:spq  STATUS:               ID:20150104222750     3
 2015-01-04-2227-50M.COL___277                                                 6
 STAT SP IPHASW D HRMM SECON CODA AMPLIT PERI AZIMU VELO AIN AR TRES W  DIS CAZ7
 BAR2 EZ EP       2232 10.51                             170    0.1210 24.2 186 
 BAR2 EZ ES   1   2232 25.50                             170    0.04 7 24.2 186 
 BAR2 EZ I        2232 26.63        15.8 0.18            168           24.2 186 
 BRR  HZ EP       2232 12.02                             153    0.2110 69.2 298 
 BRR  HN ES       2232 28.61                             153    0.6310 69.2 298 
 BRR  HZ I        2232 30.89        16.0 0.36            151           69.2 298 
 PAM  SZ EP     D 2232 13.20                             150    0.1910 77.7  41 
 PAM  SE ES   1   2232 29.79                             150   -0.33 7 77.7  41 
 PAM  SZ I        2232 32.42         8.0 0.56            155           77.7  41 
 RUS  HZ EP   1   2232 14.49                             143   -0.15 7  102 175 
 RUS  HN ES   1   2232 33.11                             143    0.08 7  102 175 
 RUS  HZ I        2232 34.40         6.7 0.22            144            102 175 
 PTB  HZ EP       2232 17.17                             132   -0.51 9  146 258 
 PTB  HN ES       2232 37.56                             132   -0.88 9  146 258 
 PTB  HZ I        2232 40.46        12.7 0.48            131            146 258 
 SPBC HZ EP       2232 19.35                             128    0.01 9  163 218 
 SPBC HN ES       2232 41.20                             128   -0.19 9  163 218 
 SPBC HZ I        2232 48.30        10.8 0.30            129            163 218 
 ZAR  HZ EP   1   2232 23.59                             122    0.46 6  202 292 
 ZAR  HN ES       2232 48.50                             122    0.36 9  202 292 
 ZAR  HZ I        2232 55.30         8.8 0.36            123            202 292 
 NOR  HZ EP       2232 27.05                             118    0.49 8  234 234 
 NOR  HN ES       2232 54.50                             118    0.26 8  234 234 
 NOR  HZ I        2233  0.15         4.6 0.18            119            234 234 
 SML  HZ EP   1   2232 26.53                             117   -0.83 6  242 336 
 SML  HE ES   1   2232 54.75                             117   -0.91 6  242 336 
 SML  HZ I        2232 56.59         9.2 0.24            119            242 336 
 CHI  HZ EP       2232 28.83                             116    0.14 8  249 195 
 CHI  HE ES   1   2232 57.56                             116   -0.46 6  249 195 
 CHI  HZ I        2233  1.61         1.5 0.28            118            249 195 
 HEL  HE ES   4   2233  4.19                             114    2.06 0  271 255 
 HEL  HZ I        2233  8.71         5.8 0.52            115            271 255 
 MON  HZ EP   1   2232 40.45                             108    0.72 5  352 308 
 MON  HN ES   4   2233 16.21                             108   -1.48 0  352 308 
 MON  HZ I        2233 18.96         1.3 0.38            109            352 308 
                                                                                
