 2010 11 4 2037 56.3 L   6.793 -73.164156.8  RSN  5 0.5 1.7LRSN                1
 GAP=157        1.07       8.8    12.1 13.1 -0.3069E+02  0.8653E+01 -0.2116E+02E
 Epicentro: LOS SANTOS - SANTANDER                                             3
 ACTION:UP  10-12-17 16:50 OP:REBC STATUS:               ID:20101104203756 L   I
 2010-11-04-2033-53S.COL___129                                                 6
 STAT SP IPHASW D HRMM SECON CODA AMPLIT PERI AZIMU VELO SNR AR TRES W  DIS CAZ7
 BAR2 SZ EP   1   2038 17.42                                     0.2 7   22 186 
 BAR2 SZ ES   2   2038 32.87                                    -0.7 5   22 186 
 BAR2 SZ I        2038 33.39        14.5 0.37                            22 186 
 BRR  HZ IP     C 2038 19.18                             155     0.610   70 300 
 BRR  HZ I        2038 20.71        14.1 0.39                            70 300 
 BRR  HE ES   2   2038 36.26                             155     0.3 5   70 300 
 RUS  HZ EP   1   2038 21.43                             147     0.3 7  100 175 
 RUS  HN ES   2   2038 40.26                             147    -0.2 5  100 175 
 RUS  HZ I        2038 41.17         4.1 0.29                           100 175 
 GRA  SZ EP       2038 22.07                             140    -0.610  127  18 
 NOR  SZ EP   1   2038 31.94                             122    -0.5 6  233 234 
 NOR  SN ES   2   2039  0.09                             122    -0.6 4  233 234 
                                                                                
