 2013  2 4 2247  7.6 L   6.823 -73.083142.8  RSN  5 0.5 1.7LRSN                1
 GAP=246        1.03       6.3     9.3  8.1  0.2540E+02  0.3683E+01  0.1483E+02E
 Epicentro: LOS SANTOS - SANTANDER                                             3
 ACTION:UPD 13-03-12 09:30 OP:ep   STATUS:               ID:20130204224707 L   I
 2013-02-04-2238-52M.COL___176                                                 6
 STAT SP IPHASW D HRMM SECON CODA AMPLIT PERI AZIMU VELO AIN AR TRES W  DIS CAZ7
 BAR2 SZ EP   1   2247 26.69                             168   -0.26 7 27.8 203 
 BAR2 SZ ES       2247 42.03                             168   -0.0310 27.8 203 
 BAR2 SZ I        2247 43.32        13.2 0.18            163           27.8 203 
 BRR  HZ EP       2247 28.75                             150    0.0410 76.3 294 
 BRR  HN ES       2247 45.66                             150    0.4810 76.3 294 
 BRR  HN I        2247 46.01        14.2 0.22            149           76.3 294 
 RUS  HZ EP       2247 31.35                             143    0.1410  103 180 
 RUS  HN ES       2247 49.26                             143   -0.3710  103 180 
 PTB  HE ES   1   2247 55.47                             130   -0.89 7  155 258 
 CHI  HZ EP       2247 45.23                             116   -0.36 8  253 197 
 CHI  HN ES       2248 16.10                             116    0.87 8  253 197 
 CHI  HN I        2248 21.23         2.2 0.46            115            253 197 
                                                                                
