 2012  8 4 2335  5.3 L   7.401 -73.183133.5  RSN  7 0.3 2.2LRSN                1
 GAP=106        0.76       3.6     3.7  6.1 -0.1221E+01  0.5514E+01  0.7770E-01E
 Epicentro: EL PLAYON - SANTANDER                                              3
 ACTION:UPD 12-09-10 11:54 OP:ep   STATUS:               ID:20120804233505 L   I
 2012-08-04-2330-00M.COL___216                                                 6
 STAT SP IPHASW D HRMM SECON CODA AMPLIT PERI AZIMU VELO AIN AR TRES W  DIS CAZ7
 PAM  SZ EP       2335 25.36                             157    0.4210 53.8  97 
 PAM  SN ES   1   2335 40.21                             157   -0.02 7 53.8  97 
 BRR  HZ IP     C 2335 25.17                             152    0.2510 66.8 241 
 BRR  HZ I        2335 25.63        59.4 0.13                          66.8 241 
 BRR  HN ES   1   2335 40.70                             152    0.52 7 66.8 241 
 BAR2 SZ EP       2335 26.72                             144    0.0010 89.5 180 
 BAR2 SZ ES   1   2335 43.35                             144   -0.05 7 89.5 180 
 BAR2 SZ I        2335 44.74        30.6 0.19                          89.5 180 
 OCA  HZ EP       2335 26.93                             143    0.0110 93.8 351 
 OCA  HN ES   1   2335 43.02                             143   -0.73 7 93.8 351 
 OCA  HZ I        2335 45.15        48.6 0.14                          93.8 351 
 RUS  HZ EP   1   2335 33.63                             126   -0.23 7  167 176 
 RUS  HN ES   2   2335 55.80                             126   -0.30 5  167 176 
 PTB  HZ EP       2335 33.27                             125   -0.23 9  170 236 
 PTB  HN ES       2335 54.99                             125   -0.47 9  170 236 
 PTB  HZ I        2335 59.43        11.5 0.20                           170 236 
 ZAR  HZ EP       2335 35.07                             122    0.03 9  185 273 
 ZAR  HN ES   1   2335 58.64                             122    0.44 7  185 273 
 ZAR  HZ I        2336  1.78        14.7 0.26                           185 273 
                                                                                
