 2017 10 4 2120 16.7 L   6.798 -73.128141.9  RSN 14 0.5 2.1LRSN                1
 GAP= 67        1.02       3.0     3.3  5.6 -0.1197E+01  0.4547E+01  0.1109E+00E
 Epicentro: LOS SANTOS - SANTANDER                                             3
 ACTION:UPD 17-11-07 19:28 OP:rebc STATUS:               ID:20171004212016 L   I
 OLDACT:UP  17-10-05 05:45 OP:edw  STATUS:               ID:20171004211743     3
 OLDACT:REG 17-10-05 03:15 OP:edw  STATUS:               ID:20171004211743     3
 2017-10-04-2118-00M.COL___449                                                 6
 STAT SP IPHASW D HRMM SECON CODA AMPLIT PERI AZIMU VELO AIN AR TRES W  DIS CAZ7
 BAR2 EZ IP     D 2120 35.95                             170    0.0810 23.6 195 
 BAR2 EZ ES       2120 50.50                             170   -0.3210 23.6 195 
 BAR2 EZ I        2120 52.10        29.7 0.24            167           23.6 195 
 PAM  EZ EP       2120 38.93                             150    0.5010 76.3  38 
 PAM  EN ES       2120 55.74                             150    0.3510 76.3  38 
 PAM  EZ I        2120 57.33        20.5 0.26            155           76.3  38 
 RUS  HZ EP       2120 39.92                             143   -0.1310  100 177 
 RUS  HN ES       2120 58.68                             143    0.4210  100 177 
 RUS  HZ I        2121  0.09        23.5 0.34            143            100 177 
 TAM  HZ EP       2120 44.30                             130    0.41 9  153 105 
 TAM  HN ES       2121  4.03                             130   -1.07 9  153 105 
 SPBC HZ EP       2120 45.13                             128    0.12 9  164 220 
 SPBC HN ES       2121  6.68                             128   -0.41 9  164 220 
 SPBC HZ I        2121 13.57        17.5 0.14            128            164 220 
 YPLC HZ IP     D 2120 46.39                             126    0.29 9  176 152 
 YPLC HE ES       2121  9.24                             126    0.20 9  176 152 
 YPLC HZ I        2121 15.23         9.6 0.28            127            176 152 
 ZAR  HZ EP   4   2120 51.57                             121    2.48 0  206 292 
 ZAR  HN ES       2121 14.62                             121    0.27 8  206 292 
 ZAR  HZ I        2121 20.83        16.7 0.26            122            206 292 
 NOR  HZ EP       2120 52.45                             117    0.09 8  236 235 
 NOR  HN ES       2121 19.85                             117   -0.34 8  236 235 
 NOR  HZ I        2121 25.81        10.7 0.30            118            236 235 
 CHI  HZ EP       2120 54.37                             116    0.15 8  249 196 
 CHI  HN ES   4   2121 22.02                             116   -1.47 0  249 196 
 CHI  HZ I        2121 26.67         5.4 0.26            117            249 196 
 GUY2CHZ EP   4   2121  1.79                             111    1.49 0  303 235 
 GUY2CHN ES   4   2121 36.67                             111    2.37 0  303 235 
 GUY2CHZ I        2121 41.10         5.2 0.58                           303 235 
 LL6C HZ EP       2121  1.08                             110   -1.18 7  325 357 
 LL6C HN ES       2121 37.66                             110   -0.15 7  325 357 
 PRA  HZ EP       2121 10.68                             106    0.50 6  393 210 
 PRA  HN ES       2121 51.40                             106   -0.50 6  393 210 
 PRA  HZ I        2121 57.86         6.0 0.36            106            393 210 
 PAL  HZ EP   2   2121 12.35                             105    0.44 3  407 239 
 PAL  HE ES   2   2121 54.59                             105   -0.40 3  407 239 
 PAL  HZ I        2121 59.04         2.5 0.36            106            407 239 
 SJC  HZ EP   4   2121 10.38                             105   -1.89 0  410 327 
 SJC  HN ES   4   2121 51.92                             105   -3.71 0  410 327 
 SJC  HZ I        2121 55.71         3.4 0.50            106            410 327 
                                                                                
