 2012  8 4 2141 33.8 L   7.174 -73.060155.0  RSN  5 0.2 1.6LRSN                1
 GAP=145        0.39       4.8     3.2  4.7 -0.3238E+01  0.4951E+01  0.3720E+01E
 Epicentro: BUCARAMANGA - SANTANDER                                            3
 ACTION:UPD 12-09-10 11:54 OP:ep   STATUS:               ID:20120804214133 L   I
 2012-08-04-2140-00M.COL___216                                                 6
 STAT SP IPHASW D HRMM SECON CODA AMPLIT PERI AZIMU VELO AIN AR TRES W  DIS CAZ7
 PAM  SZ EP   2   2141 55.38                             164   -0.12 6 43.8  65 
 PAM  SN ES   1   2142 12.29                             164   -0.11 8 43.8  65 
 BRR  HZ EP   1   2141 56.31                             154    0.26 8 72.4 264 
 BRR  HZ I        2141 57.23         7.4 0.13                          72.4 264 
 BRR  HN ES   1   2142 13.55                             154    0.17 8 72.4 264 
 RUS  HN ES   2   2142 23.32                             136   -0.10 5  142 181 
 PTB  HZ EP       2142  3.52                             130   -0.0210  170 246 
 PTB  HN ES   1   2142 26.62                             130   -0.09 7  170 246 
 PTB  HZ I        2142 28.41         3.5 0.33                           170 246 
 ZAR  HN ES   2   2142 31.85                             125   -0.40 5  202 280 
                                                                                
