 2012  9 4 2324 52.6 L   6.804 -73.151145.8  RSN  6 0.3 1.6LRSN                1
 GAP=136        0.60       4.2     3.7  7.7  0.1398E+01  0.1751E+01  0.2899E+01E
 Epicentro: LOS SANTOS - SANTANDER                                             3
 ACTION:UPD 12-10-22 14:17 OP:ep   STATUS:               ID:20120904232452 L   I
 2012-09-04-2320-00M.COL___218                                                 6
 STAT SP IPHASW D HRMM SECON CODA AMPLIT PERI AZIMU VELO AIN AR TRES W  DIS CAZ7
 BAR2 SZ EP   1   2325 12.18                             170   -0.03 7 23.6 188 
 BAR2 SZ I        2325 12.68         8.6 0.18                          23.6 188 
 BRR  HZ EP   1   2325 13.86                             153    0.18 7 70.5 298 
 BRR  HN ES   1   2325 30.76                             153    0.61 7 70.5 298 
 PAM  SZ EP   1   2325 14.87                             151    0.08 7 77.4  40 
 PAM  SZ I        2325 15.17         8.1 0.23                          77.4  40 
 PAM  SN ES   1   2325 31.76                             151   -0.36 7 77.4  40 
 RUS  HZ EP   1   2325 16.50                             144    0.14 7  101 176 
 RUS  HN ES   1   2325 34.77                             144   -0.14 7  101 176 
 RUS  HZ I        2325 36.73         3.0 0.25                           101 176 
 PTB  HN ES   1   2325 40.27                             132   -0.23 7  147 259 
 ZAR  HN ES   1   2325 49.83                             122   -0.37 6  203 292 
 ZAR  HZ I        2325 55.70         8.0 0.32                           203 292 
                                                                                
