 2017 11 4 2059  3.2 L   6.759 -73.132143.4  RSN 12 0.4 1.9LRSN                1
 GAP=114        1.01       3.2     3.3  5.6  0.8576E+00  0.4152E+01  0.4028E+01E
 Epicentro: LOS SANTOS - SANTANDER                                             3
 ACTION:UPD 17-12-12 19:52 OP:rebc STATUS:               ID:20171104205903 L   I
 OLDACT:UP  17-11-05 07:27 OP:edw  STATUS:               ID:20171104205741     3
 OLDACT:UP  17-11-05 07:27 OP:edw  STATUS:               ID:20171104205741     3
 OLDACT:UP  17-11-05 07:25 OP:edw  STATUS:               ID:20171104205741     3
 OLDACT:REG 17-11-05 03:54 OP:edw  STATUS:               ID:20171104205741     3
 2017-11-04-2058-00M.COL___435                                                 6
 STAT SP IPHASW D HRMM SECON CODA AMPLIT PERI AZIMU VELO AIN AR TRES W  DIS CAZ7
 BAR2 EZ EP       2059 22.25                             172   -0.1910 19.3 197 
 BAR2 EZ ES       2059 37.03                             172   -0.4410 19.3 197 
 BAR2 EZ I        2059 37.88        10.6 0.38            170           19.3 197 
 BRR  HZ EP       2059 24.38                             151    0.1010 74.8 301 
 BRR  HN ES       2059 41.04                             151    0.3110 74.8 301 
 BRR  HZ I        2059 45.72        20.6 0.50            149           74.8 301 
 PAM  EZ EP       2059 25.32                             150    0.0210 80.0  37 
 PAM  EN ES       2059 42.20                             150   -0.3510 80.0  37 
 PAM  EZ I        2059 44.19        18.2 0.48            153           80.0  37 
 RUS  HZ EP       2059 26.24                             145   -0.1210 95.9 177 
 RUS  HN ES       2059 44.83                             145    0.3910 95.9 177 
 RUS  HZ I        2059 46.38        11.3 0.36            146           95.9 177 
 PTB  HZ EP       2059 29.39                             131   -0.63 9  148 261 
 PTB  HE ES       2059 51.15                             131    0.20 9  148 261 
 PTB  HZ I        2059 53.13        10.0 0.10            131            148 261 
 SPBC HZ EP   3   2059 30.40                             129   -0.85 2  161 220 
 SPBC HE ES       2059 53.17                             129    0.02 9  161 220 
 SPBC HZ I        2059 57.01         9.0 0.26            129            161 220 
 YPLC HZ EP       2059 33.26                             127    0.92 9  172 151 
 YPLC HN ES       2059 55.28                             127    0.20 9  172 151 
 ZAR  HZ EP       2059 35.53                             121   -0.27 8  207 293 
 ZAR  HE ES       21 0  1.93                             121    0.69 8  207 293 
 ZAR  HZ I        21 0  9.78         7.1 0.42            122            207 293 
 NOR  HZ EP       2059 39.08                             118    0.46 8  233 236 
 NOR  HE ES       21 0  5.69                             118   -0.58 8  233 236 
 NOR  HZ I        21 0 13.46         6.1 0.22            119            233 236 
 CHI  HZ EP       2059 39.69                             117   -0.62 8  245 196 
 CHI  HE ES       21 0  9.02                             117   -0.26 8  245 196 
 CHI  HZ I        21 0 13.05         3.5 0.48            118            245 196 
 GUY2CHZ EP   4   2059 48.69                             112    2.16 0  300 236 
 GUY2CHN ES       21 0 20.57                             112    0.24 7  300 236 
 GUY2CHZ I        21 0 34.74         2.6 0.28                           300 236 
 PTGC HE ES   4   21 0 18.56                             111   -1.53 0  304 159 
 SJC  HZ EP   4   2059 57.31                             105   -1.90 0  414 327 
 SJC  HN ES   4   21 0 38.14                             105   -4.77 0  414 327 
 SJC  HZ I        21 0 42.15         3.7 0.54            106            414 327 
                                                                                
