 2017  2 4 2058 37.9 L   6.708 -73.229152.6  RSN  4 0.3 1.6LRSN                1
 GAP=220        0.75       6.1     6.1  6.6  0.2528E+02 -0.1107E+01 -0.6241E+01E
 Epicentro: VILLANUEVA - SANTANDER                                             3
 ACTION:UPD 17-05-24 15:32 OP:jn   STATUS:               ID:20170204205837 L   I
 OLDACT:REG 17-02-05 05:48 OP:cog  STATUS:               ID:20170204205744     3
 2017-02-04-2058-00M.COL___346                                                 6
 STAT SP IPHASW D HRMM SECON CODA AMPLIT PERI AZIMU VELO AIN AR TRES W  DIS CAZ7
 BRR  HZ EP       2058 59.51                             154   -0.1410 69.3 310 
 BRR  HN ES       2059 16.52                             154   -0.1310 69.3 310 
 BRR  HZ I        2059 20.44        12.2 0.46            155           69.3 310 
 RUS  HZ EP       2059  1.41                             148   -0.2710 91.6 170 
 RUS  HN ES       2059 20.62                             148    0.3610 91.6 170 
 RUS  HZ I        2059 21.52         3.3 0.44            151           91.6 170 
 PTB  HZ EP       2059  4.19                             136   -0.27 9  137 262 
 PTB  HN ES       2059 25.04                             136   -0.17 9  137 262 
 PTB  HZ I        2059 28.42         5.1 0.20            138            137 262 
 ZAR  HZ EP       2059 10.91                             124    0.58 9  200 296 
 ZAR  HN ES       2059 35.86                             124    0.20 9  200 296 
                                                                                
