 2014  7 4 2108 20.5 L   6.816 -73.144143.4  RSN 22 0.5 2.8LRSN                1
 GAP= 71        1.08       2.4     2.8  4.7 -0.3176E+00  0.4418E+01  0.2737E+01E
 Epicentro: LOS SANTOS - SANTANDER                                             3
 ACTION:UPD 15-03-16 20:41 OP:nd   STATUS:               ID:20140704210820 L   I
 OLDACT:REG 14-07-05 03:03 OP:carl STATUS:               ID:20140704205819     3
 2014-07-04-2058-19M.COL___259                                                 6
 STAT SP IPHASW D HRMM SECON CODA AMPLIT PERI AZIMU VELO AIN AR TRES W  DIS CAZ7
 BAR2 SZ EP     D 21 8 39.95                             170    0.0710 25.1 190 
 BAR2 SZ ES       21 8 54.77                             170   -0.2310 25.1 190 
 BAR2 SZ I        21 8 56.23       137.0 0.20            169           25.1 190 
 BRR  HZ EP     D 21 8 41.88                             152    0.5210 70.5 297 
 BRR  HN ES       21 8 58.30                             152    0.6810 70.5 297 
 BRR  HZ I        21 9  1.76        93.6 0.18            152           70.5 297 
 PAM  SZ EP       21 8 42.79                             151    0.4210 75.9  40 
 PAM  SN ES       21 8 59.79                             151    0.3610 75.9  40 
 PAM  SZ I        21 9  2.01        76.4 0.54            150           75.9  40 
 RUS  HZ EP     C 21 8 43.79                             143   -0.3610  102 176 
 RUS  HN ES       21 9  2.01                             143   -0.5810  102 176 
 RUS  HZ I        21 9  3.10        53.4 0.44            141            102 176 
 PTB  HZ EP       21 8 46.57                             131   -0.76 9  148 258 
 PTB  HN ES       21 9  7.16                             131   -1.09 9  148 258 
 PTB  HZ I        21 9 13.08        58.1 0.28            130            148 258 
 TAM  HZ EP     C 21 8 48.16                             130    0.14 9  155 106 
 TAM  HZ I        21 9  8.98        31.9 0.24            128            155 106 
 TAM  HN ES       21 9  9.52                             130    0.04 9  155 106 
 OCA  HZ EP       21 8 48.32                             129   -0.14 9  158 353 
 OCA  HN ES       21 9 10.15                             129   -0.12 9  158 353 
 OCA  HZ I        21 9 14.70        79.5 0.24            128            158 353 
 ZAR  HZ EP       21 8 52.56                             122   -0.18 9  204 292 
 ZAR  HN ES       21 9 18.24                             122    0.35 9  204 292 
 ZAR  HZ I        21 9 24.66        59.4 0.34            121            204 292 
 SML  HZ EP       21 8 56.52                             117   -0.31 8  242 335 
 SML  HN ES       21 9 24.34                             117   -0.82 8  242 335 
 SML  HZ I        21 9 33.35        63.0 0.30            116            242 335 
 CHI  HZ EP       21 8 58.06                             116   -0.21 8  250 195 
 CHI  HE ES       21 9 28.69                             116    0.97 8  250 195 
 CHI  HZ I        21 9 33.32        30.9 0.26            115            250 195 
 ROSC BZ EP   4   21 8 59.74                             116    1.06 0  254 211 
 ROSC BN ES   4   21 9 30.77                             116    2.32 0  254 211 
 ROSC BZ I        21 9 35.93        49.2 0.50            115            254 211 
 HEL  HZ EP       21 9  1.14                             114    0.47 8  273 255 
 HEL  HN ES       21 9 31.90                             114   -0.10 8  273 255 
 HEL  HZ I        21 9 39.44        20.7 0.56            113            273 255 
 URE  HZ EP   4   21 9  0.01                             113   -1.40 0  283 292 
 URE  HE ES   4   21 9 31.24                             113   -2.07 0  283 292 
 URE  HZ I        21 9 33.83        40.3 0.38            112            283 292 
 GUY2CHZ EP       21 9  4.50                             112    0.36 7  302 235 
 GUY2CHE ES       21 9 39.16                             112    0.98 7  302 235 
 GUY2CHZ I        21 9 46.56        31.2 0.56                           302 235 
 VIL  SZ EP       21 9  3.54                             111   -0.48 7  305 192 
 VIL  SN ES       21 9 37.64                             111   -0.32 7  305 192 
 VIL  SZ I        21 9 49.05        29.6 0.36            110            305 192 
 RREF HZ EP       21 9  7.40                             110    0.70 7  323 229 
 RREF HN ES       21 9 42.66                             110   -0.07 7  323 229 
 RREF HZ I        21 9 52.41        35.7 0.26            109            323 229 
 CBOC HZ EP       21 9  7.66                             109    0.25 7  334 252 
 CBOC HE ES       21 9 44.51                             109    0.52 7  334 252 
 CBOC HZ I        21 9 47.07         9.9 0.20            108            334 252 
 DBB  SZ EP       21 9  8.15                             109    0.26 7  340 274 
 DBB  SZ ES       21 9 44.85                             109   -0.01 7  340 274 
 DBB  SZ I        21 9 53.64        59.1 0.36            108            340 274 
 TOL  SZ EP       21 9  9.21                             109    0.38 7  345 224 
 TOL  SN ES       21 9 45.96                             109   -0.56 7  345 224 
 TOL  SZ I        21 9 53.51        64.8 0.30            108            345 224 
 ANIL HZ EP       21 9 10.54                             108    0.16 6  359 224 
 ANIL HN ES       21 9 49.10                             108   -0.19 6  359 224 
 PRA  HZ EP       21 9 13.29                             106   -0.85 6  394 209 
 PRA  HN ES       21 9 55.87                             106   -0.10 6  394 209 
 PRA  HZ I        2110  2.49        30.7 0.30            105            394 209 
 ORTC HZ EP       21 9 14.52                             106   -0.01 6  397 216 
 ORTC HN ES       21 9 56.95                             106    0.28 6  397 216 
 ORTC HZ I        2110  4.15        23.1 0.46            105            397 216 
 SJC  HZ EP   4   21 9 14.00                             105   -1.82 0  408 327 
 SJC  HN ES   4   21 9 55.38                             105   -3.59 0  408 327 
                                                                                
