 2011 10 4 2330 31.5 L   6.763 -73.092142.8  RSN  6 0.2 2.2LRSN                1
 GAP=145        0.48       2.6     3.5  3.5 -0.2040E+00  0.1255E+01 -0.1242E+01E
 Epicentro: LOS SANTOS - SANTANDER                                             3
 ACTION:UPD 12-07-13 16:01 OP:ep   STATUS:               ID:20111004233031 L   I
 2011-10-04-2328-35S.COL___169                                                 6
 STAT SP IPHASW D HRMM SECON CODA AMPLIT PERI AZIMU VELO AIN AR TRES W  DIS CAZ7
 BAR2 SZ EP       2330 50.42                             171   -0.2810 21.3 208 
 BAR2 SZ ES       2331  5.63                             171   -0.0810 21.3 208 
 BAR2 SZ I        2331  7.23        36.1 0.23                          21.3 208 
 PAM  SZ EP       2330 53.61                             150    0.2610 77.1  34 
 PAM  SE ES       2331 10.46                             150    0.0310 77.1  34 
 BRR  HZ EP       2330 52.62                             150   -0.1010 78.4 299 
 BRR  HZ I        2330 52.97        23.9 0.18                          78.4 299 
 BRR  HN ES       2331  9.40                             150    0.0910 78.4 299 
 RUS  HZ EP   1   2330 54.66                             144    0.05 7 96.2 179 
 RUS  HN ES   1   2331 12.80                             144    0.13 7 96.2 179 
 OCA  SZ EP   1   2330 59.69                             128   -0.33 7  165 351 
 OCA  SZ ES   2   2331 22.22                             128   -0.07 5  165 351 
 OCA  SZ I        2331 24.60        13.4 0.21                           165 351 
 ZAR  HZ EP   1   2331  4.82                             121    0.37 6  211 293 
 ZAR  HZ I        2331 35.45        17.2 0.27                           211 293 
                                                                                
