 2016  3 4 2158 31.9 L   6.805 -73.196130.1  RSN  5 0.3 1.5LRSN                1
 GAP=145        0.46       6.1     5.7  7.0 -0.2515E+02  0.9664E+01 -0.7940E+01E
 Epicentro: ZAPATOCA - SANTANDER                                               3
 ACTION:UPD 16-05-13 21:21 OP:cam  STATUS:               ID:20160304215831 L   I
 OLDACT:REG 16-03-05 03:36 OP:dnl  STATUS:               ID:20160304214749     3
 2016-03-04-2147-49M.COL___316                                                 6
 STAT SP IPHASW D HRMM SECON CODA AMPLIT PERI AZIMU VELO AIN AR TRES W  DIS CAZ7
 BAR2 EZ ES   2   2159  3.63                             169    0.17 5 23.6 176 
 BAR2 EZ I        2159  6.60        11.5 0.12            168           23.6 176 
 PAM  EZ EP       2158 52.82                             146    0.1710 80.7  43 
 PAM  EE ES   2   2159  8.45                             146   -0.42 5 80.7  43 
 PAM  EZ I        2159 11.87         3.8 0.34            155           80.7  43 
 RUS  HZ EP   3   2158 53.58                             140   -0.60 2  102 173 
 RUS  HE ES   3   2159 10.98                             140   -0.62 2  102 173 
 RUS  HZ I        2159 13.70         4.8 0.24            144            102 173 
 PTB  HZ EP   2   2158 57.01                             129   -0.07 5  142 258 
 PTB  HN ES   2   2159 16.49                             129   -0.27 5  142 258 
 PTB  HZ I        2159 22.48         4.2 0.26            130            142 258 
 SPBC HZ EP   2   2158 58.62                             126   -0.28 5  160 217 
 SPBC HN ES   2   2159 20.46                             126    0.47 5  160 217 
 SPBC HZ I        2159 27.53         6.4 0.17            128            160 217 
                                                                                
