 2017 10 4 2302 20.8 L   6.794 -73.257134.5  RSN  4 0.3 1.4LRSN                1
 GAP=125        0.78       4.0     4.6  7.4  0.1608E+01  0.9612E+01 -0.2754E+01E
 Epicentro: ZAPATOCA - SANTANDER                                               3
 ACTION:UPD 17-11-07 19:28 OP:rebc STATUS:               ID:20171004230220 L   I
 OLDACT:UP  17-10-05 08:24 OP:edw  STATUS:               ID:20171004225738     3
 OLDACT:REG 17-10-05 04:55 OP:edw  STATUS:               ID:20171004225738     3
 2017-10-04-2258-00M.COL___444                                                 6
 STAT SP IPHASW D HRMM SECON CODA AMPLIT PERI AZIMU VELO AIN AR TRES W  DIS CAZ7
 BAR2 EZ EP       23 2 39.15                             169    0.0710 23.8 160 
 BAR2 EZ ES       23 2 52.86                             169   -0.4810 23.8 160 
 BAR2 EZ I        23 2 56.64        14.4 0.86            170           23.8 160 
 PAM  EZ EP       23 2 42.12                             146   -0.2810 86.1  46 
 PAM  EN ES       23 2 59.59                             146    0.3410 86.1  46 
 RUS  HZ EP       23 2 43.41                             141   -0.1110  102 169 
 RUS  HN ES       23 3  1.62                             141    0.3610  102 169 
 RUS  HZ I        23 3  2.73         1.9 0.32            143            102 169 
 ZAR  HN ES       23 3 15.35                             121    0.14 9  193 294 
                                                                                
