 2015  8 4 2255 29.0 L   6.286 -74.099  4.0  RSN  8 0.5 1.6LRSN                1
 GAP=116        1.18       2.7     2.0  5.8 -0.5831E+00  0.1179E+01 -0.2989E+01E
 Epicentro: CIMITARRA - SANTANDER                                              3
 ACTION:UPD 15-09-15 23:00 OP:cam  STATUS:               ID:20150804225529 L   I
 OLDACT:REG 15-08-05 04:37 OP:stll STATUS:               ID:20150804224749     3
 2015-08-04-2247-49M.COL___352                                                 6
 STAT SP IPHASW D HRMM SECON CODA AMPLIT PERI AZIMU VELO AIN AR TRES W  DIS CAZ7
 CPBEREZ EP       2255 36.86                              47   -0.0710 48.4 305 
 CPBEREN ES       2255 43.25                              47    0.1210 48.4 305 
 BRR  HZ EP     D 2255 44.80                              47    0.0210  100  25 
 BRR  HE ES       2255 57.65                              47    0.5410  100  25 
 BRR  HZ I        2256  0.91        21.7 0.40             47            100  25 
 BAR2 EZ EP       2255 45.27                              47   -0.7510  107  71 
 NOR  HZ EP       2255 47.37                              47    0.0410  117 227 
 NOR  HN ES       2256  1.95                              47    0.3110  117 227 
 NOR  HZ I        2256  3.37        10.1 0.38             47            117 227 
 RUS  HZ EP       2255 48.60                              47    0.2510  121 111 
 RUS  HN ES       2256  2.94                              47   -0.5310  121 111 
 RUS  HZ I        2256 11.81         5.6 0.30             47            121 111 
 ZAR  HN ES       2256 11.76                              47   -0.78 9  158 328 
 ZAR  HZ I        2256 13.15        16.2 0.20             47            158 328 
 HEL  HZ EP       2255 54.36                              47    0.39 9  159 266 
 HEL  HN ES       2256 13.06                              47   -0.41 9  159 266 
 HEL  HZ I        2256 14.77        11.7 0.14             47            159 266 
 PAM  EZ EP       2255 59.91                              37    0.88 9  194  53 
 PAM  EE ES       2256 22.56                              37    0.08 9  194  53 
                                                                                
