 2011  8 4 2237 26.8 L   6.808 -73.105147.1  RSN 12 0.4 2.6LRSN                1
 GAP=129        0.73       2.8     4.6  4.5 -0.4744E+01  0.3676E+01  0.1751E+01E
 Epicentro: LOS SANTOS - SANTANDER                                             3
 ACTION:UPD 12-07-25 14:06 OP:epov STATUS:               ID:20110804223726 L   I
 2011-08-04-2235-45S.COL___138                                                 6
 STAT SP IPHASW D HRMM SECON CODA AMPLIT PERI AZIMU VELO AIN AR TRES W  DIS CAZ7
 BAR2 SZ EP       2237 46.76                             170    0.1110 25.3 200 
 BAR2 SZ ES   1   2238  1.97                             170   -0.15 7 25.3 200 
 BAR2 SZ I        2238  3.45       165.9 0.13                          25.3 200 
 PAM  SZ EP   1   2237 49.54                             152    0.57 7 73.9  37 
 PAM  SN ES   1   2238  6.17                             152   -0.09 7 73.9  37 
 BRR  HZ EP   1   2237 48.62                             152    0.30 7 74.8 296 
 BRR  HN ES   1   2238  5.69                             152    0.60 7 74.8 296 
 BRR  HZ I        2238  8.03        94.9 0.09                          74.8 296 
 RUS  HZ EP   1   2237 50.60                             144   -0.15 7  101 179 
 RUS  HN ES   1   2238  9.14                             144   -0.27 7  101 179 
 RUS  HZ I        2238 10.73        48.8 0.28                           101 179 
 OCA  SZ EP   1   2237 54.88                             130   -0.33 7  160 352 
 OCA  SZ ES   1   2238 16.88                             130   -0.48 7  160 352 
 OCA  SZ I        2238 22.03        39.7 0.12                           160 352 
 NOR  SZ EP       2238  2.75                             118   -0.32 8  239 235 
 NOR  SN ES   1   2238 30.66                             118   -0.69 6  239 235 
 CHI  HZ EP       2238  4.99                             117    0.18 8  251 196 
 CHI  HN ES       2238 34.12                             117   -0.32 8  251 196 
 CHI  HZ I        2238 39.83        24.0 0.13                           251 196 
 ROSC BZ EP   1   2238  6.01                             117    0.66 6  256 212 
 ROSC BN ES   1   2238 35.74                             117    0.34 6  256 212 
 ROSC BZ I        2238 41.76        52.4 0.57                           256 212 
 DBB  SZ EP       2238 14.69                             109   -0.17 7  344 274 
 DBB  SZ I        2238 54.95         5.0 0.40                           344 274 
 TOL  SZ EP   1   2238 16.31                             109    0.75 5  347 225 
 SDV  BZ EP       2238 16.33                             109   -0.12 6  356  50 
 SDV  BZ I        2238 17.16        12.7 0.20                           356  50 
 PRA  HZ EP   1   2238 20.11                             107   -0.62 4  395 210 
 PRA  HN ES   1   2239  3.15                             107    0.37 4  395 210 
                                                                                
