 2014  6 4 2043  1.1 L   6.818 -73.139143.9  RSN  9 0.5 1.8LRSN                1
 GAP=136        1.31       4.7     5.9  8.5 -0.1444E+01  0.1314E+02  0.5196E+00E
 Epicentro: LOS SANTOS - SANTANDER                                             3
 ACTION:UPD 14-07-01 22:50 OP:nd   STATUS:               ID:20140604204301 L   I
 OLDACT:UP  14-06-05 02:46 OP:cam  STATUS:               ID:20140604204000     3
 OLDACT:REG 14-06-05 02:31 OP:cam  STATUS:               ID:20140604204000     3
 2014-06-04-2040-00M.COL___276                                                 6
 STAT SP IPHASW D HRMM SECON CODA AMPLIT PERI AZIMU VELO AIN AR TRES W  DIS CAZ7
 BAR2 SZ ES       2043 34.64                             170   -1.1310 25.4 191 
 BAR2 SZ I        2043 38.16        17.9 0.34            169           25.4 191 
 BRR  HZ EP       2043 22.50                             152    0.4310 70.9 297 
 BRR  HN ES       2043 39.23                             152    0.8310 70.9 297 
 BRR  HN I        2043 43.10        21.9 0.20            153           70.9 297 
 PAM  SZ EP       2043 23.36                             151    0.3210 75.4  40 
 PAM  SE ES       2043 40.39                             151    0.2610 75.4  40 
 PAM  SZ I        2043 42.69         7.2 0.50            156           75.4  40 
 RUS  HZ EP       2043 24.71                             143   -0.1410  102 177 
 RUS  HN ES       2043 43.52                             143    0.1710  102 177 
 RUS  HZ I        2043 45.24         5.7 0.44            145            102 177 
 PTB  HZ EP       2043 27.55                             131   -0.51 9  149 258 
 PTB  HN ES       2043 48.74                             131   -0.31 9  149 258 
 PTB  HZ I        2043 51.04         9.6 0.14            133            149 258 
 SPBC HZ EP       2043 29.63                             128   -0.06 9  165 219 
 SPBC HN ES       2043 52.35                             128    0.40 9  165 219 
 SPBC HZ I        2043 59.14        11.7 0.32            130            165 219 
 ZAR  HN ES   1   2043 59.00                             122    0.34 6  204 292 
 SML  HE ES       2044  5.05                             117   -0.81 8  242 335 
 GUY2CHZ EP   1   2043 45.11                             112    0.26 5  303 235 
                                                                                
