 2014  6 4 2208 54.5 L   6.794 -73.154147.4  RSN  7 0.5 1.8LRSN                1
 GAP=136        1.12       4.9     6.7  8.8  0.4631E+01  0.2608E+02 -0.1036E+02E
 Epicentro: LOS SANTOS - SANTANDER                                             3
 ACTION:UPD 14-07-01 22:50 OP:nd   STATUS:               ID:20140604220854 L   I
 OLDACT:REG 14-06-05 03:39 OP:cam  STATUS:               ID:20140604220635     3
 2014-06-04-2206-35M.COL___265                                                 6
 STAT SP IPHASW D HRMM SECON CODA AMPLIT PERI AZIMU VELO AIN AR TRES W  DIS CAZ7
 BAR2 SZ EP   1   22 9 14.38                             171    0.10 7 22.5 188 
 BAR2 SZ ES       22 9 29.67                             171   -0.0610 22.5 188 
 BAR2 SZ I        22 9 32.00        21.3 0.30            171           22.5 188 
 BRR  HZ EP     C 22 9 16.16                             153    0.3910 70.7 299 
 BRR  HE ES   4   22 9 33.63                             153    1.25 0 70.7 299 
 BRR  HZ I        22 9 37.43        14.3 0.40            151           70.7 299 
 PAM  SZ EP       22 9 17.15                             151    0.2210 78.5  40 
 PAM  SE ES       22 9 34.74                             151    0.3010 78.5  40 
 PAM  SZ I        22 9 38.79         4.1 0.36            156           78.5  40 
 RUS  HZ EP       22 9 18.47                             144    0.1310100.0 175 
 RUS  HN ES       22 9 36.38                             144   -0.5810100.0 175 
 RUS  HZ I        22 9 38.11         6.1 0.26            150          100.0 175 
 PTB  HZ EP   1   22 9 21.09                             132   -0.39 7  147 259 
 PTB  HN ES   4   22 9 40.46                             132   -2.08 0  147 259 
 PTB  HZ I        22 9 48.15         7.0 0.44            134            147 259 
 ZAR  HZ EP       22 9 27.76                             123    0.79 9  203 292 
 ZAR  HN ES       22 9 52.58                             123    0.28 9  203 292 
 ZAR  HZ I        22 9 59.39         8.3 0.28            125            203 292 
 SML  HZ EP       22 9 30.37                             118   -0.85 8  244 336 
 SML  HN ES       22 9 59.09                             118   -0.78 8  244 336 
 SML  HZ I        2210  2.79        13.3 0.10            121            244 336 
                                                                                
