 2015  5 4 2330 30.2 L   6.819 -73.151141.4  RSN 17 0.5 2.3LRSN                1
 GAP= 70        1.06       2.5     2.9  5.2 -0.2259E+00  0.5210E+01  0.2080E+00E
 Epicentro: LOS SANTOS - SANTANDER                                             3
 ACTION:UPD 15-09-10 22:01 OP:cam  STATUS:               ID:20150504233030 L   I
 OLDACT:REG 15-05-05 03:33 OP:ak   STATUS:               ID:20150504232749     3
 2015-05-04-2327-49M.COL___274                                                 6
 STAT SP IPHASW D HRMM SECON CODA AMPLIT PERI AZIMU VELO AIN AR TRES W  DIS CAZ7
 BAR2 EZ IP     C 2330 49.41                             169    0.0510 25.4 188 
 BAR2 EZ ES       2331  3.44                             169   -0.8510 25.4 188 
 BAR2 EZ I        2331  5.76        70.7 0.16            169           25.4 188 
 BRR  HZ IP     C 2330 51.30                             152    0.5010 69.7 297 
 BRR  HN ES       2331  7.74                             152    0.8810 69.7 297 
 BRR  HZ I        2331 11.26        36.8 0.16            151           69.7 297 
 PAM  SZ IP     C 2330 52.26                             150    0.3810 76.1  41 
 PAM  SE ES       2331  9.03                             150    0.2410 76.1  41 
 PAM  SZ I        2331 11.69        61.3 0.50            154           76.1  41 
 RUS  HZ EP   1   2330 53.42                             142   -0.27 7  103 176 
 RUS  HN ES       2331 11.63                             142   -0.3810  103 176 
 RUS  HZ I        2331 12.75        19.8 0.22            144            103 176 
 TAM  HZ IP     D 2330 57.74                             129    0.09 9  156 106 
 TAM  HN ES       2331 19.27                             129    0.23 9  156 106 
 TAM  HZ I        2331 20.04        14.5 0.27            133            156 106 
 OCA  HZ EP       2330 57.65                             129   -0.32 9  158 353 
 OCA  HN ES       2331 19.53                             129   -0.10 9  158 353 
 OCA  HZ I        2331 25.60        78.6 0.32            131            158 353 
 SPBC HZ EP   1   2330 58.63                             128    0.13 7  165 218 
 SPBC HN ES       2331 19.94                             128   -0.63 9  165 218 
 SPBC HZ I        2331 24.04        20.2 0.10            129            165 218 
 ZAR  HZ EP   1   2331  2.36                             122    0.12 6  203 292 
 ZAR  HN ES       2331 27.88                             122    0.66 9  203 292 
 ZAR  HZ I        2331 34.21        42.3 0.36            122            203 292 
 NOR  HZ EP     C 2331  5.95                             117    0.18 8  235 234 
 NOR  HN ES       2331 33.34                             117   -0.17 8  235 234 
 NOR  HZ I        2331 40.33        12.9 0.21            119            235 234 
 SML  HZ EP       2331  5.96                             117   -0.40 8  242 335 
 SML  HN ES       2331 34.62                             117    0.07 8  242 335 
 SML  HZ I        2331 41.49        32.1 0.10            118            242 335 
 CHI  HZ EP       2331  7.73                             116   -0.15 8  251 195 
 CHI  HN ES       2331 37.47                             116    0.21 8  251 195 
 CHI  HZ I        2331 43.79         7.1 0.40            118            251 195 
 HEL  HZ EP       2331 10.56                             114    0.36 8  272 255 
 HEL  HN ES       2331 41.66                             114    0.26 8  272 255 
 HEL  HZ I        2331 49.73         7.9 0.37            115            272 255 
 URE  HZ EP       2331 10.38                             113   -0.54 7  283 292 
 URE  HN ES       2331 41.67                             113   -1.01 7  283 292 
 URE  HZ I        2331 46.82        14.3 0.12            114            283 292 
 GUY2CHZ EP   2   2331 14.56                             111    0.85 4  302 234 
 GUY2CHN ES       2331 47.55                             111   -0.09 7  302 234 
 GUY2CHZ I        2331 55.84        10.3 0.36                           302 234 
 RREF HZ EP   2   2331 15.88                             110   -0.40 3  323 229 
 RREF HN ES       2331 52.90                             110    0.69 7  323 229 
 RREF HZ I        2332  1.17         4.0 0.28            111            323 229 
 MON  HZ EP   4   2331 22.93                             108    4.09 0  352 308 
 MON  HN ES       2331 55.95                             108   -0.82 6  352 308 
 MON  HZ I        2331 56.36         7.6 0.20            109            352 308 
 SJC  HZ EP   4   2331 23.57                             105   -1.81 0  407 327 
 SJC  HN ES   4   2332  3.25                             105   -5.17 0  407 327 
 SJC  HZ I        2332  9.54         7.1 0.44            106            407 327 
                                                                                
