 2017 12 4 2040  8.3 L   6.796 -73.175142.5  RSN  4 0.3 1.2LRSN                1
 GAP=142        0.88       5.3     5.1  7.4 -0.8394E+01  0.1040E+02 -0.3756E+01E
 Epicentro: LOS SANTOS - SANTANDER                                             3
 ACTION:UPD 18-01-04 13:17 OP:rebc STATUS:               ID:20171204204008 L   I
 OLDACT:REG 17-12-05 06:57 OP:dani STATUS:               ID:20171204203458     3
 2017-12-04-2038-00M.COL___467                                                 6
 STAT SP IPHASW D HRMM SECON CODA AMPLIT PERI AZIMU VELO AIN AR TRES W  DIS CAZ7
 BAR2 EZ EP       2040 26.72                             171   -0.8310 22.5 182 
 BAR2 EZ IP       2040 26.74                             171           22.5 182 
 BAR2 EZ ES       2040 42.53                             171   -0.0110 22.5 182 
 BAR2 EZ I        2040 43.96         6.5 0.20            172           22.5 182 
 PAM  EZ EP       2040 30.45                             149    0.1010 79.8  41 
 PAM  EE ES       2040 47.68                             149    0.1610 79.8  41 
 PAM  EZ I        2040 49.82         2.8 0.22            152           79.8  41 
 RUS  HZ EP       2040 32.04                             143    0.3010  100 174 
 RUS  HN ES       2040 50.08                             143    0.0710  100 174 
 RUS  HZ I        2040 51.23         3.7 0.22            146            100 174 
 PTB  HZ EP       2040 34.92                             132    0.19 9  145 259 
 PTB  HN ES       2040 55.37                             132    0.04 9  145 259 
 PTB  HZ I        2040 58.77         1.3 0.14            133            145 259 
                                                                                
