 2010 11 4 2339 35.3 L   6.815 -72.980140.1  RSN  6 0.4 1.8LRSN                1
 GAP=200        0.93       8.3    22.7 15.6  0.9932E+02 -0.1761E+03 -0.5981E+02E
 Epicentro: CEPITA - SANTANDER                                                 3
 ACTION:UP  10-12-17 16:50 OP:REBC STATUS:               ID:20101104233935 L   I
 2010-11-04-2338-06S.COL___129                                                 6
 STAT SP IPHASW D HRMM SECON CODA AMPLIT PERI AZIMU VELO SNR AR TRES W  DIS CAZ7
 BAR2 SZ EP   1   2339 54.27                                    -0.2 7   33 222 
 BAR2 SZ ES   2   2340  8.91                                    -0.5 5   33 222 
 BAR2 SZ I        2340 10.77        10.0 0.39                            33 222 
 BTL  SZ EP       2339 55.02                                     0.510   34 290 
 GIR2 SZ EP   2   2339 54.74                                     0.3 5   38 321 
 BRR  HZ EP   1   2339 56.23                             147    -0.6 7   87 292 
 BRR  HZ I        2339 56.72        18.8 0.15                            87 292 
 BRR  HE ES   2   2340 13.97                             147     0.4 5   87 292 
 RUS  HZ EP   1   2339 58.26                             143    -0.3 7  103 186 
 RUS  HN ES   2   2340 17.03                             143     0.2 5  103 186 
 RUS  HZ I        2340 20.62         5.1 0.41                           103 186 
 OCA  SZ EP   1   2340  3.57                             129     0.3 7  162 347 
 OCA  SZ ES   2   2340 24.42                             129    -0.7 5  162 347 
 OCA  SZ I        2340 30.83        10.4 0.27                           162 347 
                                                                                
