 2014  6 4 2257 35.0 L   6.808 -73.125148.3  RSN  4 0.3 1.6LRSN                1
 GAP=139        0.69       3.3     5.3  6.0  0.3045E+01  0.2498E+01 -0.1704E+01E
 Epicentro: LOS SANTOS - SANTANDER                                             3
 ACTION:UPD 14-07-01 22:50 OP:nd   STATUS:               ID:20140604225735 L   I
 OLDACT:DUP 14-06-05 03:03 OP:cam  STATUS:               ID:20140604225001d    3
 2014-06-04-2250-00M.COL___276                                                 6
 STAT SP IPHASW D HRMM SECON CODA AMPLIT PERI AZIMU VELO AIN AR TRES W  DIS CAZ7
 BRR  HZ EP       2257 56.55                             152    0.0410 72.8 297 
 BRR  HN ES       2258 13.55                             152    0.2610 72.8 297 
 BRR  HZ I        2258 17.08         7.8 0.12            152           72.8 297 
 PAM  SZ IP     C 2257 57.61                             152    0.2510 75.2  39 
 PAM  SN ES       2258 14.70                             152   -0.1010 75.2  39 
 PAM  SZ I        2258 16.51         6.8 0.54            154           75.2  39 
 RUS  HZ EP       2257 59.31                             144    0.2510  101 177 
 RUS  HE ES       2258 17.46                             144   -0.3610  101 177 
 PTB  HN ES   4   2258 21.57                             132   -2.19 0  150 259 
 SML  HZ EP   1   2258 11.20                             118   -0.59 6  244 335 
 SML  HN ES   1   2258 40.12                             118   -0.35 6  244 335 
                                                                                
