 2011  9 4 2015 12.2 L   6.803 -73.098144.6  RSN  4 0.2 1.5LRSN                1
 GAP=198        0.51       5.3    10.1  5.5  0.3289E+02 -0.8432E+01 -0.5061E+00E
 Epicentro: LOS SANTOS - SANTANDER                                             3
 ACTION:UPD 12-07-13 15:55 OP:ep   STATUS:               ID:20110904201512 L   I
 2011-09-04-2011-56S.COL___170                                                 6
 STAT SP IPHASW D HRMM SECON CODA AMPLIT PERI AZIMU VELO AIN AR TRES W  DIS CAZ7
 BAR2 SZ EP   1   2015 31.68                             170    0.00 7 25.1 202 
 BAR2 SZ ES   1   2015 46.44                             170   -0.47 7 25.1 202 
 BAR2 SZ I        2015 47.93         7.1 0.48                          25.1 202 
 GIR2 SZ EP   1   2015 31.89                             167    0.18 7 32.2 341 
 GIR2 SZ ES   1   2015 47.11                             167    0.15 7 32.2 341 
 BRR  HZ EP   1   2015 33.20                             151   -0.24 7 75.7 296 
 BRR  HN ES   1   2015 50.20                             151    0.17 7 75.7 296 
 BRR  HZ I        2015 52.84         7.6 0.13                          75.7 296 
 RUS  HZ EP   1   2015 35.74                             143   -0.06 7  101 179 
 RUS  HZ I        2015 53.44         3.0 0.68                           101 179 
 RUS  HE ES   1   2015 54.50                             143    0.26 7  101 179 
                                                                                
