 2017  6 4 2309 34.5 L   6.760 -73.201146.0  RSN  6 0.4 1.7LRSN                1
 GAP=228        1.06       5.4     6.2  8.6  0.1072E+02  0.5140E+01  0.5595E+01E
 Epicentro: ZAPATOCA - SANTANDER                                               3
 ACTION:UPD 17-09-14 16:49 OP:jn   STATUS:               ID:20170604230934 L   I
 OLDACT:REG 17-06-05 02:44 OP:dnl  STATUS:               ID:20170604230738     3
 2017-06-04-2308-00M.COL___341                                                 6
 STAT SP IPHASW D HRMM SECON CODA AMPLIT PERI AZIMU VELO AIN AR TRES W  DIS CAZ7
 BRR  HZ EP       23 9 55.22                             154   -0.3110 68.2 304 
 BRR  HN ES       2310 12.56                             154    0.6410 68.2 304 
 BRR  HZ I        2310 13.49         9.0 0.15            151           68.2 304 
 RUS  HZ EP       23 9 57.82                             145   -0.2110 96.8 172 
 RUS  HN ES       2310 16.37                             145    0.0110 96.8 172 
 RUS  HZ I        2310 17.43         6.3 0.22            145           96.8 172 
 PTB  HZ EP       2310  0.41                             134   -0.48 9  141 260 
 PTB  HN ES       2310 21.20                             134   -0.26 9  141 260 
 PTB  HZ I        2310 28.45         6.2 0.10            132            141 260 
 SPBC HZ EP       2310  2.78                             131    0.43 9  156 218 
 SPBC HN ES       2310 23.56                             131   -0.50 9  156 218 
 SPBC HZ I        2310 26.99        10.6 0.06            130            156 218 
 ZAR  HE ES       2310 31.30                             123   -0.28 9  200 294 
 ZAR  HZ I        2310 36.15         4.0 0.33            123            200 294 
 NOR  HZ EP       2310 10.13                             120    0.68 8  227 234 
 NOR  HN ES       2310 37.20                             120    0.50 8  227 234 
 NOR  HZ I        2310 42.36         3.3 0.11            119            227 234 
                                                                                
