 2013 12 4 2254 29.1 L   6.805 -73.136151.9  RSN  8 0.5 1.7LRSN                1
 GAP=137        1.06       3.9     7.2  8.2  0.1265E+01  0.8822E+01  0.1505E+01E
 Epicentro: LOS SANTOS - SANTANDER                                             3
 ACTION:UPD 14-01-13 10:15 OP:ep   STATUS:               ID:20131204225429 L   I
 OLDACT:REG 13-12-04 22:51 OP:mh   STATUS:               ID:20131204225000     3
 2013-12-04-2250-00M.COL___285                                                 6
 STAT SP IPHASW D HRMM SECON CODA AMPLIT PERI AZIMU VELO AIN AR TRES W  DIS CAZ7
 BAR2 SZ EP   1   2254 49.63                             171    0.10 7 24.0 192 
 BRR  HZ EP   1   2254 51.48                             153    0.48 7 71.9 298 
 BRR  HN ES       2255  8.88                             153    0.8410 71.9 298 
 BRR  HZ I        2255 12.75         8.1 0.23            151           71.9 298 
 PAM  SZ EP   1   2254 52.39                             152    0.44 7 76.3  39 
 PAM  SE ES   1   2255  9.41                             152   -0.34 7 76.3  39 
 PAM  SZ I        2255 11.86         9.6 0.22            159           76.3  39 
 RUS  HZ EP   1   2254 53.35                             145   -0.19 7  101 177 
 RUS  HN ES       2255 12.19                             145   -0.3710  101 177 
 RUS  HZ I        2255 14.00         4.5 0.20            146            101 177 
 PTB  HZ EP   1   2254 56.38                             133   -0.34 7  149 259 
 PTB  HN ES   2   2255 17.50                             133   -0.73 5  149 259 
 PTB  HZ I        2255 25.23         4.1 0.21            132            149 259 
 SPBC HZ EP       2254 58.59                             130    0.37 9  164 219 
 SPBC HN ES   1   2255 20.46                             130   -0.44 7  164 219 
 SML  HZ EP   1   2255  6.45                             119    0.34 6  244 335 
 SML  HN ES       2255 33.91                             119   -1.04 8  244 335 
 SML  HZ I        2255 37.88        11.7 0.07            121            244 335 
 CHI  HZ EP   1   2255  7.47                             118    0.20 6  249 195 
 CHI  HN ES   1   2255 36.84                             118   -0.17 6  249 195 
 CHI  HZ I        2255 46.15         1.9 0.29            120            249 195 
 GUY2CHZ EP   4   2255 15.47                             113    2.30 0  302 235 
 GUY2CHN ES   4   2255 50.36                             113    2.85 0  302 235 
                                                                                
