 2013  2 4 2015 48.5 L   6.625 -73.593107.9  RSN  4 0.3 1.5LRSN                1
 GAP=119        0.74       4.6     4.0  7.9  0.8330E+01  0.5237E+01  0.1192E+02E
 Epicentro: EL CARMEN DE CHUCURI - SANTANDER                                   3
 ACTION:UPD 13-03-12 09:30 OP:ep   STATUS:               ID:20130204201548 L   I
 2013-02-04-2008-51M.COL___196                                                 6
 STAT SP IPHASW D HRMM SECON CODA AMPLIT PERI AZIMU VELO AIN AR TRES W  DIS CAZ7
 BAR2 SZ ES       2016 16.49                             156   -0.4310 45.6  95 
 BAR2 SZ I        2016 17.39        25.7 0.46            156           45.6  95 
 BRR  HZ EP       2016  4.59                             151   -0.0410 54.9 346 
 BRR  HE ES       2016 17.55                             151    0.3410 54.9 346 
 BRR  HE I        2016 18.23         9.8 0.18            152           54.9 346 
 PTB  HN ES       2016 22.53                             135   -0.1310 95.9 264 
 RUS  HZ EP       2016  8.51                             135   -0.0810 98.7 145 
 RUS  HN ES       2016 24.60                             135    0.3410 98.7 145 
 RUS  HN I        2016 25.60         3.5 0.28            135           98.7 145 
                                                                                
