 2013  9 4 2034 10.1 L   5.881 -73.633124.7  RSN 10 0.3 1.9LRSN                1
 GAP= 96        0.80       2.2     2.9  4.9 -0.7165E+00  0.3167E+01  0.1056E+01E
 Epicentro: PUENTE NACIONAL - SANTANDER                                        3
 ACTION:UPD 13-10-22 09:20 OP:ep   STATUS:               ID:20130904203410 L   I
 OLDACT:REG 13-09-04 22:36 OP:nd   STATUS:               ID:20130904202959     3
 2013-09-04-2029-59M.COL___270                                                 6
 STAT SP IPHASW D HRMM SECON CODA AMPLIT PERI AZIMU VELO AIN AR TRES W  DIS CAZ7
 SPBC HZ IP     D 2034 28.19                             155   -0.0510 54.9 243 
 SPBC HN ES       2034 42.74                             155    0.3910 54.9 243 
 SPBC HZ I        2034 44.35        24.2 0.26            154           54.9 243 
 RUS  HZ IP     D 2034 29.09                             153   -0.0510 60.8  89 
 RUS  HN ES       2034 43.66                             153   -0.3010 60.8  89 
 RUS  HZ I        2034 44.71         8.7 0.26            156           60.8  89 
 BAR2 SZ EP       2034 30.95                             141    0.0110 93.1  32 
 BAR2 SZ ES       2034 47.48                             141    0.3210 93.1  32 
 BAR2 SZ I        2034 48.45        23.6 0.30            142           93.1  32 
 PTB  HZ EP       2034 32.36                             134   -0.2210  117 309 
 PTB  HN ES       2034 49.80                             134   -0.2810  117 309 
 PTB  HZ I        2034 51.64        12.8 0.14            133            117 309 
 BRR  HZ EP       2034 34.44                             129    0.13 9  136 356 
 BRR  HN ES       2034 53.11                             129   -0.05 9  136 356 
 BRR  HZ I        2035  4.90        22.6 0.52            129            136 356 
 CHI  HZ IP     D 2034 35.42                             129    0.27 9  139 185 
 CHI  HN ES       2034 54.28                             129   -0.37 9  139 185 
 CHI  HZ I        2034 56.94         7.5 0.30            131            139 185 
 NOR  HZ EP       2034 35.35                             128    0.44 9  141 256 
 NOR  HN ES       2034 54.54                             128    0.31 9  141 256 
 NOR  HZ I        2034 58.03        10.5 0.34            128            141 256 
 GUY2CHZ EP   4   2034 43.69                             117    1.65 0  205 249 
 GUY2CHN ES   4   2035  7.30                             117    0.39 0  205 249 
 GUY2CHZ I        2035 11.56         3.3 0.54                           205 249 
 ZAR  HZ EP   2   2034 42.98                             115   -0.50 4  224 323 
 ZAR  HN ES       2035  9.12                             115   -0.35 8  224 323 
 ZAR  HZ I        2035 14.30         9.2 0.20            115            224 323 
 PRA  HZ EP       2034 50.02                             110    0.49 7  277 210 
 PRA  HN ES       2035 19.49                             110   -0.77 7  277 210 
 PRA  HZ I        2035 25.30         4.0 0.20            111            277 210 
                                                                                
