 2012  3 4 2243  6.6 L   6.657 -73.139146.0  RSN  5 0.3 1.2LRSN                1
 GAP=228        0.67       9.3     9.1 10.1  0.5255E+02 -0.5833E+01 -0.7168E+01E
 ACTION:UP  12-03-31 23:17 OP:EP   STATUS:               ID:20120304224306 L   I
 2012-03-04-2240-00M.COL___191                                                 6
 STAT SP IPHASW D HRMM SECON CODA AMPLIT PERI AZIMU VELO SNR AR TRES W  DIS CAZ7
 BAR2 SZ EP   1   2243 25.90                             177    -0.2 7    9 214 
 BAR2 SZ ES   2   2243 40.95                             177    -0.3 5    9 214 
 BAR2 SZ I        2243 43.77         3.7 0.46                             9 214 
 BRR  HZ EP   1   2243 28.01                             150    -0.3 7   81 308 
 BRR  HZ I        2243 34.74         6.0 0.42                            81 308 
 BRR  HN ES   1   2243 45.74                             150     0.5 7   81 308 
 RUS  HZ EP   2   2243 29.97                             149     0.7 5   85 176 
 RUS  HN ES   2   2243 47.05                             149     0.0 5   85 176 
 RUS  HZ I        2243 49.75         1.7 0.31                            85 176 
 PTB  HN ES   2   2243 54.15                             133    -0.3 5  146 265 
 ZAR  HN ES   2   2244  5.62                             122    -0.1 4  211 296 
                                                                                
