 2017  4 4 2024 39.9 L   6.744 -73.153146.4  RSN  4 0.3 1.5LRSN                1
 GAP=138        0.68       4.0     3.8  7.6 -0.2789E+01  0.3146E+00  0.6292E+00E
 Epicentro: LOS SANTOS - SANTANDER                                             3
 ACTION:UPD 17-05-30 21:08 OP:jn   STATUS:               ID:20170404202439 L   I
 OLDACT:REG 17-04-05 04:32 OP:dnl  STATUS:               ID:20170404201747     3
 2017-04-04-2018-00M.COL___362                                                 6
 STAT SP IPHASW D HRMM SECON CODA AMPLIT PERI AZIMU VELO AIN AR TRES W  DIS CAZ7
 BRR  HZ EP   2   2025  1.73                             152    0.49 5 73.6 303 
 BRR  HN ES       2025 18.29                             152    0.3910 73.6 303 
 BRR  HZ I        2025 23.08        18.0 0.54            152           73.6 303 
 PAM  EZ EP       2025  2.49                             149   -0.0110 82.8  37 
 PAM  EE ES       2025 19.85                             149   -0.2810 82.8  37 
 PAM  EZ I        2025 24.33         3.9 0.42            152           82.8  37 
 RUS  HZ EP   2   2025  3.81                             146    0.54 5 94.4 175 
 RUS  HN ES       2025 21.49                             146   -0.0110 94.4 175 
 RUS  HZ I        2025 22.92         3.3 0.26            151           94.4 175 
 PTB  HZ EP   2   2025  6.36                             132   -0.37 5  146 261 
 PTB  HN ES       2025 27.36                             132   -0.31 9  146 261 
 PTB  HZ I        2025 32.85         2.9 0.50            135            146 261 
                                                                                
