 2015 10 4 2246 14.1 L   6.807 -73.135149.1  RSN  9 0.4 2.0LRSN                1
 GAP=120        1.06       3.4     5.0  6.2 -0.6651E+00  0.2417E+01 -0.2967E+01E
 Epicentro: LOS SANTOS - SANTANDER                                             3
 ACTION:UPD 15-12-22 20:37 OP:cam  STATUS:               ID:20151004224614 L   I
 OLDACT:DUP 15-10-05 05:59 OP:mh   STATUS:               ID:20151004223750d    3
 OLDACT:DUP 15-10-05 05:59 OP:mh   STATUS:               ID:20151004223749d    3
 2015-10-04-2237-48M.COL___352                                                 6
 STAT SP IPHASW D HRMM SECON CODA AMPLIT PERI AZIMU VELO AIN AR TRES W  DIS CAZ7
 BAR2 EZ EP       2246 34.42                             170    0.3110 24.3 192 
 BAR2 EZ ES       2246 49.09                             170   -0.6610 24.3 192 
 BAR2 EZ I        2246 50.75        24.3 0.26            171           24.3 192 
 BRR  HZ EP   1   2246 34.83                             153   -0.77 7 71.8 298 
 BRR  HN ES       2246 52.94                             153    0.5310 71.8 298 
 BRR  HZ I        2246 54.99        16.7 0.32            149           71.8 298 
 PAM  EZ EP       2246 37.39                             152    0.8410 76.0  39 
 PAM  EN ES       2246 54.13                             152    0.0410 76.0  39 
 PAM  EZ I        2246 56.43        20.2 0.56            153           76.0  39 
 RUS  HZ EP       2246 38.32                             144    0.1310  101 177 
 RUS  HN ES       2246 56.86                             144   -0.1510  101 177 
 RUS  HZ I        2246 57.78         6.2 0.30            148            101 177 
 OCA  HN ES       2247  4.76                             130   -0.04 9  160 353 
 OCA  HZ I        2247 12.77        18.4 0.22            130            160 353 
 SPBC HZ EP       2246 43.32                             129    0.38 9  165 219 
 SPBC HN ES       2247  5.36                             129   -0.11 9  165 219 
 SPBC HZ I        2247  9.43        14.6 0.10            130            165 219 
 ZAR  HZ EP   1   2246 46.51                             123   -0.29 6  205 292 
 ZAR  HN ES   1   2247 12.17                             123   -0.17 6  205 292 
 ZAR  HZ I        2247 19.03         7.2 0.12            122            205 292 
 SML  HZ EP       2246 50.64                             118   -0.20 8  243 335 
 SML  HN ES       2247 19.36                             118   -0.18 8  243 335 
 SML  HZ I        2247 26.75        13.2 0.22            118            243 335 
 SOCV BZ EP       2246 56.34                             113   -0.76 7  300  57 
                                                                                
