 2017  8 4 2310 32.1 L   6.203 -73.782102.1  RSN  5 0.3 1.2LRSN                1
 GAP=126        0.75       3.4     2.7  6.5  0.1684E+00  0.7120E+01 -0.9423E+00E
 Epicentro: LANDAZURI - SANTANDER                                              3
 ACTION:UPD 17-09-04 20:16 OP:rebc STATUS:               ID:20170804231032 L   I
 OLDACT:DUP 17-08-05 05:57 OP:lv   STATUS:               ID:20170804230742d    3
 2017-08-04-2308-00M.COL___402                                                 6
 STAT SP IPHASW D HRMM SECON CODA AMPLIT PERI AZIMU VELO AIN AR TRES W  DIS CAZ7
 BAR2 EZ EP       2310 49.75                             139    0.0810 79.1  57 
 BAR2 EZ ES       2311  3.49                             139    0.1010 79.1  57 
 BAR2 EZ I        2311  5.04        10.3 0.22            143           79.1  57 
 PTB  HZ EP   9   2310 48.79                             137   -0.92 0 83.4 297 
 PTB  HN ES       2311  2.26                                   -0.2810 83.4 297 
 PTB  HZ I        2311  6.09         2.5 0.12            139           83.4 297 
 RUS  HZ EP       2310 50.44                             137   -0.0310 84.6 114 
 RUS  HN ES       2311  4.66                             137   -0.1510 84.6 114 
 RUS  HZ I        2311  6.31         1.8 0.24            142           84.6 114 
 NOR  HN EP       2310 55.59                             121    0.49 9  140 240 
 NOR  HE ES       2311 12.87                             121   -0.18 9  140 240 
 NOR  HN I        2311 15.00                             124            140 240 
 ZAR  HZ EP       2310 59.46                             113   -0.58 9  186 320 
 ZAR  HN ES       2311 22.07                             113    0.22 9  186 320 
 ZAR  HZ I        2311 24.48         3.4 0.06            116            186 320 
 GUY2CHZ EP   4   2311  4.03                             110    1.10 0  206 238 
 GUY2CHN ES   4   2311 29.69                             110    2.69 0  206 238 
                                                                                
