 2011 11 4 2338 35.9 L   7.050 -73.336117.3  RSN  6 0.1 1.6LRSN                1
 GAP=111        0.31       2.2     2.6  4.4  0.1031E+01  0.1177E+01 -0.5028E+00E
 Epicentro: LEBRIJA - SANTANDER                                                3
 ACTION:UPD 12-07-13 16:08 OP:ep   STATUS:               ID:20111104233835 L   I
 2011-11-04-2325-00M.COL___175                                                 6
 STAT SP IPHASW D HRMM SECON CODA AMPLIT PERI AZIMU VELO AIN AR TRES W  DIS CAZ7
 BRR  HZ EP       2338 52.26                             159   -0.1310 42.0 279 
 BRR  HZ I        2338 52.44        14.0 0.12                          42.0 279 
 BRR  HE ES   2   2339  5.12                             159   -0.15 5 42.0 279 
 BAR2 SZ EP   1   2338 53.46                             154    0.17 7 53.4 161 
 BAR2 SZ ES   2   2339  6.98                             154    0.10 5 53.4 161 
 BAR2 SZ I        2339  8.45        30.3 0.50                          53.4 161 
 PAM  SZ EP   2   2338 55.13                             145   -0.01 5 77.2  65 
 PAM  SE ES   2   2339 10.26                             145    0.10 5 77.2  65 
 RUS  HZ EP   2   2338 59.72                             129    0.04 5  131 168 
 RUS  HZ I        2339  5.16         2.0 0.62                           131 168 
 RUS  HE ES   2   2339 18.09                             129   -0.15 5  131 168 
 OCA  SZ EP   2   2338 59.14                             128   -0.13 5  131   1 
 OCA  SZ ES   2   2339 17.55                             128    0.03 5  131   1 
 OCA  SZ I        2339 18.50         9.7 0.48                           131   1 
 ZAR  HN ES   2   2339 25.39                             120    0.34 4  175 286 
 ZAR  HZ I        2339 27.05         3.5 0.31                           175 286 
                                                                                
