 2010  6 4 2348 32.7 L   6.772 -73.120146.0  RSN  6 0.6 2.3LRSN                1
 GAP=184        1.02       9.4    18.8 11.8 -0.1091E+03  0.5603E+02 -0.2662E+02E
 Epicentro: LOS SANTOS - SANTANDER                                             3
 ACTION:UP  10-08-24 10:08 OP:vdl  STATUS:               ID:20100604234832 L   I
 2010-06-04-2347-30S.COL___109                                                 6
 STAT SP IPHASW D HRMM SECON CODA AMPLIT PERI AZIMU VELO SNR AR TRES W  DIS CAZ7
 BAR2 SZ IP       2348 51.89                             171    -0.410   21 199 
 BAR2 SZ ES   2   2349  7.39                             171    -0.2 5   21 199 
 GIR2 SZ EP   2   2348 52.12                             166    -0.3 5   35 347 
 GIR2 SZ ES   2   2349  8.48                             166     0.6 5   35 347 
 GUE  SZ EP   2   2348 58.13                             139     0.5 5  119  10 
 GRA  SZ EP       2348 58.69                             137     0.610  128  16 
 GRA  SZ ES   2   2349 18.24                             137     0.3 5  128  16 
 OCA  SZ EP       2349  0.57                             129    -0.7 9  164 352 
 OCA  SZ ES   2   2349 23.71                             129     0.1 5  164 352 
 OCA  SZ I        2349 27.08        14.7 0.23                           164 352 
 RREF BZ EP   2   2349 19.80                             111     1.0 3  322 230 
 RREF BN ES   2   2349 55.67                             111     0.8 3  322 230 
 RREF BZ I        2350  4.27        12.2 0.34                           322 230 
                                                                                
