 2015  2 4 2011 13.6 L   6.815 -73.153146.9  RSN 19 0.4 2.5LRSN                1
 GAP= 70        1.02       2.8     3.0  5.3 -0.9192E+00  0.2808E+01  0.3050E+01E
 Epicentro: LOS SANTOS - SANTANDER                                             3
 ACTION:UPD 15-04-30 21:21 OP:nd   STATUS:               ID:20150204201113 L   I
 OLDACT:UP  15-02-05 08:56 OP:spq  STATUS:               ID:20150204200746     3
 OLDACT:UP  15-02-05 08:50 OP:spq  STATUS:               ID:20150204200746     3
 OLDACT:REG 15-02-05 03:31 OP:spq  STATUS:               ID:20150204200746     3
 2015-02-04-2007-46M.COL___257                                                 6
 STAT SP IPHASW D HRMM SECON CODA AMPLIT PERI AZIMU VELO AIN AR TRES W  DIS CAZ7
 BAR2 EZ EP       2011 33.33                             170   -0.0210 24.8 188 
 BAR2 EZ ES   1   2011 48.53                             170   -0.27 7 24.8 188 
 BAR2 EZ I        2011 49.43        66.4 0.20            169           24.8 188 
 BRR  HZ EP       2011 35.07                             153    0.3210 69.8 298 
 BRR  HE ES       2011 52.33                             153    1.0510 69.8 298 
 BRR  HZ I        2011 56.00        36.5 0.05            152           69.8 298 
 PAM  SZ EP       2011 36.14                             151    0.2910 76.6  41 
 PAM  SE ES       2011 53.19                             151   -0.0510 76.6  41 
 PAM  SZ I        2011 55.41        66.3 0.42            154           76.6  41 
 RUS  HZ EP       2011 37.32                             144   -0.2210  102 176 
 RUS  HN ES   1   2011 56.30                             144    0.05 7  102 176 
 RUS  HZ I        2011 57.00        45.4 0.24            144            102 176 
 PTB  HZ EP       2011 39.75                             132   -0.82 9  147 258 
 PTB  HN ES       2012  1.09                             132   -0.56 9  147 258 
 PTB  HZ I        2012  3.04        39.4 0.14            132            147 258 
 TAM  HZ EP       2011 41.69                             131    0.26 9  156 105 
 TAM  HN ES   1   2012  3.03                             131   -0.14 7  156 105 
 TAM  HZ I        2012  5.77        18.3 0.38            133            156 105 
 OCA  HZ EP   1   2011 42.20                             130    0.41 7  159 353 
 OCA  HN ES       2012  3.13                             130   -0.69 9  159 353 
 OCA  HZ I        2012  8.00        31.5 0.54            131            159 353 
 SPBC HZ EP       2011 42.20                             129   -0.01 9  164 218 
 SPBC HE ES       2012  4.18                             129   -0.39 9  164 218 
 SPBC HZ I        2012  6.98        54.7 0.25            129            164 218 
 ZAR  HZ EP       2011 46.41                             123    0.47 9  203 292 
 ZAR  HN ES       2012 11.11                             123   -0.09 9  203 292 
 ZAR  HZ I        2012 16.54        27.9 0.44            123            203 292 
 NOR  HZ EP       2011 49.31                             119   -0.07 8  235 234 
 NOR  HN ES       2012 17.53                             119    0.20 8  235 234 
 NOR  HZ I        2012 23.20        28.6 0.18            119            235 234 
 SML  HZ EP   1   2011 49.51                             118   -0.54 6  242 335 
 SML  HE ES   1   2012 17.98                             118   -0.54 6  242 335 
 SML  HZ I        2012 21.69        43.4 0.10            119            242 335 
 CHI  HZ EP       2011 51.34                             117   -0.12 8  250 195 
 CHI  HN ES       2012 20.85                             117   -0.18 8  250 195 
 CHI  HZ I        2012 24.08        22.9 0.36            118            250 195 
 ROSC BZ EP   4   2011 53.35                             117    1.51 0  254 211 
 ROSC BN ES   4   2012 24.02                             117    2.31 0  254 211 
 ROSC BZ I        2012 27.61        40.6 0.45            117            254 211 
 HEL  HZ EP   4   2011 55.19                             115    1.40 0  272 255 
 HEL  HN ES       2012 25.73                             115    0.56 8  272 255 
 HEL  HZ I        2012 31.43        18.7 0.32            115            272 255 
 GUY2CHZ EP       2011 57.46                             112    0.21 7  302 234 
 GUY2CHN ES   4   2012 32.94                             112    1.61 0  302 234 
 GUY2CHZ I        2012 37.44        13.7 0.34                           302 234 
 CBOC HZ EP   4   2012  1.65                             110    1.16 0  333 252 
 CBOC HE ES   1   2012 36.80                             110   -0.30 5  333 252 
 CBOC HZ I        2012 43.05         4.6 0.42            110            333 252 
 TOL  SZ EP       2012  2.84                             109    0.92 7  344 224 
 TOL  SN ES   4   2012 42.32                             109    2.66 0  344 224 
 TOL  SZ I        2012 46.82        13.0 0.56            110            344 224 
 ANIL HZ EP   1   2012  3.33                             109   -0.14 5  358 224 
 ANIL HN ES   4   2012 44.45                             109    2.04 0  358 224 
 ANIL HZ I        2012 47.76         4.2 0.28            109            358 224 
 ORTC HN ES   4   2012 51.06                             106    1.28 0  396 216 
 ORTC HZ I        2012 54.65        10.9 0.30            107            396 216 
                                                                                
