 2017 10 4 2128 19.7 L   6.451 -73.223140.7  RSN 20 0.4 2.4LRSN                1
 GAP= 60        0.99       3.0     2.9  5.0 -0.1204E+01  0.4723E+01  0.1699E-01E
 Epicentro: SOCORRO - SANTANDER                                                3
 ACTION:UPD 17-11-07 19:28 OP:rebc STATUS:               ID:20171004212819 L   I
 OLDACT:UP  17-10-05 06:39 OP:edw  STATUS:               ID:20171004212739     3
 OLDACT:UP  17-10-05 06:38 OP:edw  STATUS:               ID:20171004212739     3
 OLDACT:UP  17-10-05 06:38 OP:edw  STATUS:               ID:20171004212739     3
 OLDACT:REG 17-10-05 03:16 OP:edw  STATUS:               ID:20171004212739     3
 2017-10-04-2128-00M.COL___449                                                 6
 STAT SP IPHASW D HRMM SECON CODA AMPLIT PERI AZIMU VELO AIN AR TRES W  DIS CAZ7
 BAR2 EZ IP     D 2128 38.35                             173   -0.2710 16.3  16 
 BAR2 EZ ES       2128 53.03                             173   -0.3310 16.3  16 
 BAR2 EZ I        2128 54.20       209.5 0.12            175           16.3  16 
 RUS  HZ IP     D 2128 40.54                             155   -0.0810 63.6 166 
 RUS  HN ES       2128 57.17                             155    0.2410 63.6 166 
 RUS  HZ I        2128 59.61        52.9 0.28            155           63.6 166 
 PAM  EZ EP       2128 43.87                             139   -0.1410  114  30 
 PAM  EN ES       2129  3.25                             139    0.2910  114  30 
 PAM  EZ I        2129  5.20        41.4 0.40            145            114  30 
 SPBC HZ EP       2128 44.90                             135    0.1910  129 227 
 SPBC HN ES       2129  3.28                             135   -0.9210  129 227 
 SPBC HZ I        2129 11.11        52.7 0.30            135            129 227 
 YPLC HZ EP       2128 46.30                             130   -0.21 9  149 141 
 YPLC HN ES       2129  8.31                             130    0.91 9  149 141 
 YPLC HZ I        2129  8.94        61.7 0.22            134            149 141 
 TAM  HZ EP       2128 47.04                             129   -0.27 9  158  91 
 TAM  HE ES       2129  8.81                             129   -0.02 9  158  91 
 TAM  HZ I        2129  9.18        48.8 0.28            134            158  91 
 TABC EZ EP   4   2128 53.02                             123    1.75 0  193 214 
 TABC EZ ES   4   2129 19.25                             123    3.37 0  193 214 
 TABC EZ I        2129 23.82        15.2 0.52            124            193 214 
 NOR  HZ EP       2128 52.27                             121    0.06 8  207 242 
 NOR  HN ES       2129 18.20                             121    0.65 8  207 242 
 NOR  HZ I        2129 22.14        18.5 0.24            122            207 242 
 CHI  HZ EP       2128 52.82                             121   -0.08 8  209 196 
 CHI  HN ES   1   2129 18.05                             121   -0.73 6  209 196 
 CHI  HZ I        2129 21.27         8.9 0.34            122            209 196 
 ZAR  HZ EP       2128 52.58                             120   -0.34 8  214 303 
 ZAR  HN ES       2129 19.53                             120    0.72 8  214 303 
 ZAR  HZ I        2129 24.76        47.3 0.50            121            214 303 
 ROSC BZ EP   4   2128 55.79                             120    2.23 0  216 214 
 ROSC BN ES   4   2129 22.38                             120    2.43 0  216 214 
 ROSC BZ I        2129 28.55        14.1 0.35            121            216 214 
 GUY2CHZ EP   4   2129  1.39                             114    1.44 0  273 240 
 GUY2CHN ES   4   2129 34.79                             114    3.46 0  273 240 
 GUY2CHZ I        2129 40.86        15.3 0.56                           273 240 
 ELA  HZ EP       2129  3.00                             111    0.14 7  298 234 
 ELA  HN ES   4   2129 40.13                             111    3.62 0  298 234 
 ELA  HZ I        2129 48.55         8.0 0.40            113            298 234 
 DBB  EZ EP       2129  6.11                             109   -0.50 7  336 281 
 DBB  EN ES   4   2129 41.82                             109   -1.36 0  336 281 
 PRA  HZ EP       2129  8.56                             108   -0.12 6  354 211 
 PRA  HN ES   1   2129 47.00                             108    0.14 5  354 211 
 PRA  HZ I        2129 48.12         9.0 0.20            109            354 211 
 ORTC HZ EP   2   2129 10.01                             107    0.73 3  360 219 
 LL6C HZ EP       2129  9.61                             107   -0.05 6  363 359 
 LL6C HN ES   4   2129 50.86                             107    2.25 0  363 359 
 PAL  HZ EP       2129 12.43                             106    0.77 6  380 243 
 PAL  HN ES   4   2129 51.13                             106   -1.03 0  380 243 
 PAL  HZ I        2129 55.40         4.3 0.24            108            380 243 
 SJC  HZ EP   4   2129 15.90                             104   -2.61 0  438 331 
 SJC  HN ES   4   2129 59.08                             104   -5.28 0  438 331 
 SJC  HZ I        2130  2.91         2.7 0.36            106            438 331 
 CRJC HZ EP   9   2129 24.19                             101   -2.56 0  507   4 
 CRJC HN ES       2130 16.16                             102   -0.31 4  507   4 
 CRJC HZ I        2130 20.35         5.9 0.30            103            507   4 
                                                                                
