 2017  1 4 2029 33.6 L   6.793 -73.070144.0  RSN  5 0.4 1.2LRSN                1
 GAP=147        1.22       6.4     8.7  9.6 -0.3001E+01 -0.2081E+02  0.4874E+00E
 Epicentro: LOS SANTOS - SANTANDER                                             3
 ACTION:UPD 17-05-22 15:55 OP:jn   STATUS:               ID:20170104202933 L   I
 OLDACT:UP  17-01-05 04:01 OP:edw  STATUS:               ID:20170104202746     3
 OLDACT:REG 17-01-05 03:42 OP:edw  STATUS:               ID:20170104202746     3
 2017-01-04-2028-00M.COL___375                                                 6
 STAT SP IPHASW D HRMM SECON CODA AMPLIT PERI AZIMU VELO AIN AR TRES W  DIS CAZ7
 BAR2 EZ ES       2030  7.49                             170   -0.7210 25.4 209 
 PAM  EZ EP       2029 54.86                             151   -0.4710 73.0  34 
 PAM  EN ES       2030 12.74                             151    0.4210 73.0  34 
 PAM  EZ I        2030 15.11         3.2 0.42            155           73.0  34 
 BRR  HZ EP       2029 54.88                             150   -0.1110 79.0 296 
 BRR  HE ES       2030 12.00                             150    0.3110 79.0 296 
 RUS  HZ EP       2029 57.34                             143    0.2710 99.5 181 
 RUS  HN ES       2030 15.69                             143    0.2910 99.5 181 
 RUS  HZ I        2030 22.57         1.6 0.38            142           99.5 181 
 PTB  HZ EP   9   2030  0.08                             130   -1.05 0  156 260 
 PTB  HN ES       2030 20.79                             132   -0.79 9  156 260 
 PTB  HZ I        2030 23.38         3.1 0.32            133            156 260 
                                                                                
