 2014  1 4 2307 27.7 L   6.807 -73.191142.2  RSN  6 0.3 1.4LRSN                1
 GAP=131        0.71       2.7     3.8  5.6 -0.1260E+01  0.5327E+01  0.3399E+00E
 Epicentro: ZAPATOCA - SANTANDER                                               3
 ACTION:UPD 14-03-13 09:51 OP:ep   STATUS:               ID:20140104230727 L   I
 OLDACT:REG 14-01-04 21:23 OP:nd   STATUS:               ID:20140104230000     3
 2014-01-04-2300-00M.COL___285                                                 6
 STAT SP IPHASW D HRMM SECON CODA AMPLIT PERI AZIMU VELO AIN AR TRES W  DIS CAZ7
 BRR  HZ EP       23 7 48.93                             153    0.6910 66.5 300 
 BRR  HN ES   2   23 8  4.48                             153    0.25 5 66.5 300 
 BRR  HZ I        23 8  9.35         4.0 0.28            151           66.5 300 
 PAM  SZ EP       23 7 49.90                             149    0.1610 80.1  43 
 PAM  SN ES       23 8  6.79                             149   -0.1110 80.1  43 
 PAM  SZ I        23 8  9.03         5.2 0.52            154           80.1  43 
 RUS  HZ EP       23 7 51.04                             143   -0.1910  102 173 
 RUS  HN ES       23 8  9.40                             143   -0.1510  102 173 
 RUS  HZ I        23 8 10.61         2.3 0.34            147            102 173 
 PTB  HZ EP       23 7 53.87                             132   -0.11 9  143 258 
 PTB  HN ES       23 8 14.39                             132   -0.06 9  143 258 
 PTB  HZ I        23 8 20.22         3.5 0.18            133            143 258 
 SML  HZ EP       23 8  3.63                             117   -0.24 8  241 336 
 SML  HN ES   2   23 8 31.27                             117   -0.78 4  241 336 
 SML  HZ I        23 8 36.97         4.7 0.10            119            241 336 
 CHI  HZ EP     D 23 8  5.30                             116    0.12 8  248 194 
 CHI  HN ES       23 8 34.19                             116   -0.19 8  248 194 
 CHI  HZ I        23 8 37.65         1.3 0.50            120            248 194 
                                                                                
