 2011 11 4 2246  7.6 L   6.773 -73.134147.8  RSN  6 0.3 1.7LRSN                1
 GAP=139        0.45       4.1     4.7  5.9  0.3518E+01  0.8178E+00  0.7314E+00E
 Epicentro: LOS SANTOS - SANTANDER                                             3
 ACTION:UPD 12-07-13 16:08 OP:ep   STATUS:               ID:20111104224607 L   I
 2011-11-04-2245-00M.COL___176                                                 6
 STAT SP IPHASW D HRMM SECON CODA AMPLIT PERI AZIMU VELO AIN AR TRES W  DIS CAZ7
 BAR2 SZ EP   1   2246 27.15                             172   -0.26 7 20.7 195 
 BAR2 SZ ES   2   2246 43.37                             172    0.49 5 20.7 195 
 BAR2 SZ I        2246 43.77        10.3 0.12                          20.7 195 
 GIR2 SZ EP   3   2246 27.26                             166   -0.33 2 34.5 349 
 GIR2 SZ ES   3   2246 42.33                             166   -0.87 2 34.5 349 
 BRR  HZ EP   1   2246 29.13                             152    0.02 7 73.8 300 
 BRR  HE ES   2   2246 46.19                             152    0.30 5 73.8 300 
 BRR  HZ I        2246 49.04        13.4 0.42                          73.8 300 
 PAM  SZ EP   1   2246 30.36                             151    0.25 7 78.9  37 
 PAM  SE ES   2   2246 47.44                             151   -0.24 5 78.9  37 
 RUS  HZ EP   1   2246 31.33                             145    0.01 7 97.5 177 
 RUS  HZ I        2246 32.11         4.1 0.34                          97.5 177 
 RUS  HE ES   2   2246 49.72                             145   -0.12 5 97.5 177 
 ZAR  HN ES   2   2247  5.78                             123   -0.23 4  206 293 
 ZAR  HZ I        2247 11.51         8.2 0.24                           206 293 
                                                                                
