 2012  7 4 2223 32.1 L   6.338 -73.537113.8  RSN  5 0.4 1.6LRSN                1
 GAP=148        0.92       7.4     8.6 11.7  0.3913E+02  0.6575E+02  0.3092E+02E
 Epicentro: CONTRATACION - SANTANDER                                           3
 ACTION:UPD 12-08-14 11:42 OP:ep   STATUS:               ID:20120704222332 L   I
 2012-07-04-2220-00M.COL___201                                                 6
 STAT SP IPHASW D HRMM SECON CODA AMPLIT PERI AZIMU VELO AIN AR TRES W  DIS CAZ7
 BAR2 SZ EP       2223 49.03                             155     0.210   48  54 
 BAR2 SZ ES   1   2224  1.53                             155    -0.4 7   48  54 
 BAR2 SZ I        2224  2.82        45.5 0.16            158             48  54 
 RUS  HZ EP       2223 50.69                             146     0.210   70 134 
 RUS  HN ES   1   2224  5.28                             146     0.4 7   70 134 
 RUS  HZ I        2224  7.39         4.0 0.26            152             70 134 
 BRR  HZ EP       2223 50.85                             139    -0.210   87 347 
 BRR  HN ES   1   2224  5.87                             139     0.0 7   87 347 
 BRR  HZ I        2224 11.20        14.5 0.32            142             87 347 
 PTB  HZ EP       2223 51.95                             134    -0.510  104 282 
 PTB  HN ES   3   2224  7.92                             134    -0.5 2  104 282 
 PTB  HZ I        2224 10.01         3.9 0.14            138            104 282 
 ZAR  HZ EP   1   2224  1.74                             115     0.2 6  194 311 
 ZAR  HN ES   2   2224 25.65                             115     1.2 4  194 311 
