 2015  6 4 2131 34.6 L   6.810 -73.134147.3  RSN  7 0.3 1.7LRSN                1
 GAP=137        0.62       2.8     4.0  5.8 -0.2501E+01  0.8173E+01 -0.1506E+00E
 Epicentro: LOS SANTOS - SANTANDER                                             3
 ACTION:UPD 15-09-10 22:09 OP:cam  STATUS:               ID:20150604213134 L   I
 OLDACT:REG 15-06-05 03:52 OP:spq  STATUS:               ID:20150604212750     3
 2015-06-04-2127-50M.COL___291                                                 6
 STAT SP IPHASW D HRMM SECON CODA AMPLIT PERI AZIMU VELO AIN AR TRES W  DIS CAZ7
 BAR2 EZ EP   1   2131 54.39                             170   -0.09 7 24.6 192 
 BAR2 EZ ES   1   2132  9.44                             170   -0.51 7 24.6 192 
 BAR2 EZ I        2132 12.19         8.5 0.24            169           24.6 192 
 PAM  SZ EP       2131 57.09                             152    0.1710 75.7  39 
 PAM  SN ES       2132 14.41                             152    0.1110 75.7  39 
 PAM  SZ I        2132 16.71         4.9 0.54            156           75.7  39 
 RUS  HZ EP       2131 58.68                             144    0.0710  102 177 
 RUS  HE ES   1   2132 17.48                             144    0.17 7  102 177 
 RUS  HZ I        2132 19.77         4.4 0.40            148            102 177 
 SPBC HZ EP       2132  3.05                             129   -0.36 9  165 219 
 SPBC HE ES       2132 26.02                             129    0.17 9  165 219 
 SPBC HZ I        2132 29.33         7.2 0.33            131            165 219 
 ZAR  HN ES   1   2132 33.16                             123    0.45 6  205 292 
 ZAR  HZ I        2132 39.37         4.1 0.42            124            205 292 
 SML  HN ES   1   2132 39.48                             118   -0.42 6  243 335 
 SML  HZ I        2132 43.04         7.1 0.10            120            243 335 
 GUY2CHZ EP   4   2132 20.43                             112    1.93 0  303 235 
 GUY2CHE ES   4   2132 56.00                             112    3.28 0  303 235 
 GUY2CHZ I        2132 58.49         2.3 0.30                           303 235 
                                                                                
