 2014 10 4 2324 42.9 L   7.187 -73.371 51.4  RSN  6 0.4 1.2LRSN                1
 GAP=106        0.87       3.2     2.9  7.7 -0.2271E+01 -0.4651E+01  0.3236E+01E
 Epicentro: LEBRIJA - SANTANDER                                                3
 ACTION:UPD 14-11-29 23:46 OP:nd   STATUS:               ID:20141004232442 L   I
 OLDACT:DUP 14-10-05 11:09 OP:spq  STATUS:               ID:20141004231748d    3
 2014-10-04-2317-47M.COL___283                                                 6
 STAT SP IPHASW D HRMM SECON CODA AMPLIT PERI AZIMU VELO AIN AR TRES W  DIS CAZ7
 BRR  HZ EP       2324 52.38                             137    0.1910 38.6 257 
 BRR  HE ES       2324 59.49                             137    0.0710 38.6 257 
 BRR  HZ I        2325  1.18        12.6 0.34            133           38.6 257 
 BAR2 SZ ES   1   2325  5.58                             118    0.27 7 69.0 162 
 BAR2 SZ I        2325  8.98         6.3 0.28            112           69.0 162 
 PAM  SZ EP       2324 56.66                             115    0.0610 76.1  77 
 PAM  SN ES       2325  6.64                             115   -0.6310 76.1  77 
 PAM  SZ I        2325  7.74        11.8 0.22            110           76.1  77 
 OCA  HE ES   1   2325 15.49                             103    0.58 7  116   3 
 OCA  HZ I        2325 19.66         9.0 0.08             99            116   3 
 PTB  HZ EP   1   2325  3.14                             100   -0.39 7  140 239 
 PTB  HE ES   1   2325 19.02                             100   -0.58 7  140 239 
 PTB  HZ I        2325 19.80         2.1 0.34             96            140 239 
 RUS  HZ EP   1   2325  5.16                              99    0.20 7  147 167 
 RUS  HN ES   1   2325 22.63                              99    0.48 7  147 167 
 RUS  HZ I        2325 28.52         1.2 0.32             96            147 167 
                                                                                
