 2011  3 4 2113 23.0 L   6.792 -73.086134.1  RSN  9 0.3 2.1LRSN                1
 GAP=106        0.62       2.7     7.6  5.7 -0.3998E+01 -0.3412E+01 -0.1862E+00E
 Epicentro: LOS SANTOS - SANTANDER                                             3
 ACTION:UP  11-06-16 14:31 OP:jfem STATUS:               ID:20110304211323 L   I
 2011-03-04-2110-06S.COL___135                                                 6
 STAT SP IPHASW D HRMM SECON CODA AMPLIT PERI AZIMU VELO SNR AR TRES W  DIS CAZ7
 BAR2 SZ EP       2113 41.24                             169     0.010   25 206 
 BAR2 SZ ES   1   2113 55.08                             169    -0.4 7   25 206 
 BAR2 SZ I        2113 57.13        48.1 0.36                            25 206 
 RUS  HZ EP       2113 45.30                             141    -0.210  100 180 
 RUS  HN ES   1   2114  3.56                             141     0.5 7  100 180 
 RUS  HZ I        2114  5.48        22.9 0.33                           100 180 
 GRA  SZ IP       2113 47.42                             134     0.310  125  14 
 GRA  SZ ES   1   2114  5.88                             134    -0.1 7  125  14 
 GRA  SZ I        2114  8.03        15.1 0.29                           125  14 
 OCA  SZ ES   2   2114 11.94                             126    -0.2 5  162 351 
 OCA  SZ I        2114 15.71        18.7 0.23                           162 351 
 YOP  SZ EP   1   2113 52.04                             124     0.2 7  175 155 
 YOP  SN ES   2   2114 14.24                             124    -0.1 4  175 155 
 YOP  SZ I        2114 16.32        12.8 0.31                           175 155 
 CHI  HZ EP   3   2114  0.27                             114     0.1 2  250 197 
 CHI  HN ES   3   2114 28.85                             114    -0.3 2  250 197 
 CHI  HZ I        2114 32.02         8.9 0.27                           250 197 
 HEL  HZ EP   2   2114  3.35                             112     0.0 4  278 256 
 HEL  HZ I        2114 40.17        10.3 0.69                           278 256 
 SDV  BZ EP   2   2114 11.25                             106    -0.8 3  356  49 
 PRA  HE ES   2   2114 57.83                                    -0.3 3  395 210 
                                                                                
