 2017  8 4 2238 45.4 L   6.766 -73.116138.8  RSN  5 0.4 1.5LRSN                1
 GAP=142        0.94       4.7     5.1  6.8  0.5238E+01  0.8410E+01 -0.1668E+01E
 Epicentro: LOS SANTOS - SANTANDER                                             3
 ACTION:UPD 17-09-04 20:16 OP:rebc STATUS:               ID:20170804223845 L   I
 OLDACT:REG 17-08-05 04:29 OP:lv   STATUS:               ID:20170804223743     3
 2017-08-04-2238-00M.COL___402                                                 6
 STAT SP IPHASW D HRMM SECON CODA AMPLIT PERI AZIMU VELO AIN AR TRES W  DIS CAZ7
 BAR2 EZ EP       2239  3.80                             171   -0.3110 20.6 201 
 BAR2 EZ ES       2239 18.63                             171   -0.0910 20.6 201 
 BAR2 EZ I        2239 19.56        13.5 0.19            171           20.6 201 
 BRR  HZ EP       2239  5.93                             150   -0.1210 75.9 300 
 BRR  HN ES       2239 22.83                             150    0.6510 75.9 300 
 PAM  EZ EP       2239  6.93                             149    0.0310 78.3  36 
 PAM  EN ES       2239 23.56                             149   -0.1410 78.3  36 
 PAM  EZ I        2239 26.15         3.8 0.18            150           78.3  36 
 RUS  HZ EP       2239  8.40                             143    0.2510 96.7 178 
 RUS  HN ES       2239 25.83                             143   -0.1010 96.7 178 
 RUS  HZ I        2239 27.18         3.5 0.06            146           96.7 178 
 ZAR  HZ EP       2239 18.36                             120    0.52 8  209 293 
 ZAR  HN ES       2239 42.42                             120   -0.75 8  209 293 
 ZAR  HZ I        2239 49.81         4.9 0.14            120            209 293 
                                                                                
