 2017  1 4 2334 28.2 L   6.705 -73.221148.3  RSN  4 0.4 0.8LRSN                1
 GAP=212        1.02       8.2     8.1  8.5  0.3518E+02  0.1512E+02  0.8044E+01E
 Epicentro: VILLANUEVA - SANTANDER                                             3
 ACTION:UPD 17-05-22 15:55 OP:jn   STATUS:               ID:20170104233428 L   I
 OLDACT:REG 17-01-05 03:51 OP:edw  STATUS:               ID:20170104232743     3
 2017-01-04-2328-00M.COL___371                                                 6
 STAT SP IPHASW D HRMM SECON CODA AMPLIT PERI AZIMU VELO AIN AR TRES W  DIS CAZ7
 BAR2 EZ ES       2335  2.82                             175   -0.5910 13.2 161 
 BRR  HZ EP       2334 49.33                             153   -0.2510 70.1 309 
 BRR  HN ES       2335  6.84                             153    0.6010 70.1 309 
 RUS  HZ EP       2334 51.97                             147    0.4010 91.2 170 
 RUS  HN ES       2335  9.93                             147    0.1510 91.2 170 
 RUS  HZ I        2335 11.32         1.1 0.26            146           91.2 170 
 PTB  HZ EP       2334 54.22                             135   -0.29 9  138 262 
 PTB  HN ES       2335 14.96                             135   -0.06 9  138 262 
 PTB  HZ I        2335 17.15         1.0 0.11            134            138 262 
                                                                                
