 2013  6 4 2303 42.9 L   6.983 -73.479  4.0  RSN  5 0.3 1.7LRSN                1
 GAP=133        0.80       3.0     2.3  5.9  0.4089E+01  0.5850E+01  0.8038E+01E
 Epicentro: SAN VICENTE DE CHUCURI - SANTANDER                                 3
 ACTION:UP  14-01-08 09:52 OP:ep   STATUS:               ID:20130604230342 L   I
 OLDACT:UP  14-01-07 14:28 OP:jn   STATUS:               ID:20130604230342 L   3
 OLDACT:UPD 13-07-15 19:28 OP:ep   STATUS:               ID:20130604230342 L   3
 2013-06-04-2258-52M.COL___219                                                 6
 STAT SP IPHASW D HRMM SECON CODA AMPLIT PERI AZIMU VELO AIN AR TRES W  DIS CAZ7
 BRR  HZ IP     D 23 3 47.65                              47   -0.2610 29.2 298 
 BRR  HZ I        23 3 47.81        86.1 0.14             47           29.2 298 
 BRR  HE ES       23 3 51.79                              47   -0.0310 29.2 298 
 GIR2 SZ IP       23 3 48.68                              47    0.0010 33.3  71 
 BAR2 SZ EP       23 3 52.26                              47    0.3110 54.2 143 
 BAR2 SZ ES       23 3 58.50                              47   -0.5110 54.2 143 
 BAR2 SZ I        23 3 59.65        25.2 0.20             47           54.2 143 
 PTB  HZ EP       23 4  1.72                              47    0.2510  119 246 
 PTB  HN ES       23 4 15.85                              47   -0.1210  119 246 
 PTB  HE I        23 4 18.29        24.6 0.44             47            119 246 
 RUS  HZ EP   1   23 4  4.15                              47    0.73 7  128 160 
 RUS  HE ES   1   23 4 19.39                              47   -0.05 7  128 160 
                                                                                
