 2016  3 4 2116 22.6 L   6.785 -73.160142.4  RSN 11 0.3 2.1LRSN                1
 GAP=135        0.40       2.9     3.1  3.9 -0.5013E+01  0.3677E+01  0.9604E+00E
 Epicentro: LOS SANTOS - SANTANDER                                             3
 ACTION:UPD 16-05-13 21:21 OP:cam  STATUS:               ID:20160304211622 L   I
 OLDACT:UP  16-03-14 10:32 OP:Ak   STATUS:               ID:20160304211622 L   3
 OLDACT:REG 16-03-05 03:35 OP:dnl  STATUS:               ID:20160304210749     3
 2016-03-04-2107-49M.COL___325                                                 6
 STAT SP IPHASW D HRMM SECON CODA AMPLIT PERI AZIMU VELO AIN AR TRES W  DIS CAZ7
 BAR2 EZ EP   2   2116 41.99                             171    0.15 5 21.5 186 
 BAR2 EZ ES   2   2116 56.49                             171   -0.31 5 21.5 186 
 BAR2 EZ I        2117  0.12        12.9 0.10            170           21.5 186 
 PAM  EZ EP       2116 44.91                             149    0.2710 79.7  40 
 PAM  EN ES       2117  1.69                             149   -0.1110 79.7  40 
 PAM  EZ I        2117  4.13        19.8 0.52            138           79.7  40 
 RUS  HZ EP   2   2116 45.91                             143   -0.05 5 99.1 175 
 RUS  HN ES   2   2117  4.35                             143    0.21 5 99.1 175 
 RUS  HZ I        2117  7.40        14.4 0.40            138           99.1 175 
 PTB  HZ EP       2116 48.93                             132   -0.24 9  146 259 
 PTB  HN ES   2   2117  9.85                             132   -0.00 5  146 259 
 PTB  HZ I        2117 12.12        18.6 0.14            118            146 259 
 SPBC HZ EP       2116 50.61                             129   -0.06 9  161 219 
 SPBC HN ES   2   2117 12.80                             129    0.27 5  161 219 
 SPBC HZ I        2117 17.04        29.6 0.18            118            161 219 
 ZAR  HN ES   3   2117 20.28                             122    0.43 2  203 293 
 ZAR  HZ I        2117 26.08        15.1 0.13            109            203 293 
 NOR  HZ EP   2   2116 57.93                             118   -0.01 4  232 235 
 NOR  HE ES   2   2117 25.91                             118    0.44 4  232 235 
 NOR  HZ I        2117 29.67        11.0 0.18            107            232 235 
 CHI  HZ EP   2   2117  0.20                             116    0.26 4  247 195 
 CHI  HE ES   2   2117 28.53                             116   -0.51 4  247 195 
 CHI  HZ I        2117 34.88         5.7 0.34            108            247 195 
 HEL  HE ES   3   2117 34.26                             114    0.73 2  270 256 
 HEL  HZ I        2117 41.13         9.7 0.36            104            270 256 
 URE  HZ EP   3   2117  2.70                             113   -0.75 2  283 292 
 URE  HZ I        2117 46.19         7.9 0.20            102            283 292 
 GUY2CHZ EP   9   2117  7.39                             112    1.55 0  299 235 
 GUY2CHE ES       2117 41.14                             112    0.06 7  299 235 
 GUY2CHZ I        2117 47.34         7.8 0.26                           299 235 
                                                                                
