 2012  7 4 2035 26.0 L   6.753 -73.140143.9  RSN  6 0.4 2.0LRSN                1
 GAP=139        1.00       8.5     8.2  9.8  0.2164E+01  0.1938E+02  0.2575E+02E
 Epicentro: LOS SANTOS - SANTANDER                                             3
 ACTION:UPD 12-08-14 11:42 OP:ep   STATUS:               ID:20120704203525 L   I
 2012-07-04-2030-00M.COL___201                                                 6
 STAT SP IPHASW D HRMM SECON CODA AMPLIT PERI AZIMU VELO AIN AR TRES W  DIS CAZ7
 BAR2 SZ IP       2035 45.49                             172     0.210   18 195 
 BAR2 SZ I        2035 45.64        36.6 0.40            163             18 195 
 BAR2 SZ ES   1   2035 59.81                             172    -0.6 7   18 195 
 BRR  HZ IP     C 2035 47.39                             151     0.310   74 302 
 BRR  HZ I        2035 47.82        38.7 0.30            135             74 302 
 BRR  HN ES   1   2036  4.18                             151     0.6 7   74 302 
 PAM  SZ EP   1   2035 48.23                             149     0.0 7   81  37 
 PAM  SN ES   1   2036  5.23                             149    -0.3 7   81  37 
 PAM  SZ I        2036  7.29         7.5 0.32            145             81  37 
 RUS  HZ EP       2035 49.42                             145     0.210   95 176 
 RUS  HZ I        2035 50.57         9.4 0.12            138             95 176 
 RUS  HN ES   3   2036  7.85                             145     0.6 2   95 176 
 PTB  HZ EP       2035 52.14                             132    -0.6 9  147 261 
 PTB  HZ I        2036 17.23         9.7 0.14            119            147 261 
 ZAR  HZ EP   3   2035 58.34                             121    -0.2 2  207 293 
 ZAR  HN ES   3   2036 23.58                             121    -0.4 2  207 293 
 ZAR  HZ I        2036 29.42        15.2 0.48            111            207 293 
