 2017  4 4 2220  1.1 L   6.770 -73.158147.0  RSN  7 0.5 1.8LRSN                1
 GAP=136        1.07       4.7     5.2  8.5 -0.9158E+00  0.8267E+01 -0.5647E+00E
 Epicentro: LOS SANTOS - SANTANDER                                             3
 ACTION:UPD 17-05-30 21:08 OP:jn   STATUS:               ID:20170404222001 L   I
 OLDACT:UP  17-04-05 05:37 OP:dnl  STATUS:               ID:20170404221742     3
 OLDACT:UP  17-04-05 05:37 OP:dnl  STATUS:               ID:20170404221742     3
 OLDACT:REG 17-04-05 04:37 OP:dnl  STATUS:               ID:20170404221742     3
 2017-04-04-2218-00M.COL___359                                                 6
 STAT SP IPHASW D HRMM SECON CODA AMPLIT PERI AZIMU VELO AIN AR TRES W  DIS CAZ7
 BAR2 EZ ES       2220 35.55                             172   -0.6210 19.9 188 
 BAR2 EZ I        2220 36.64        17.5 0.32            174           19.9 188 
 BRR  HZ EP       2220 22.40                             152    0.0210 71.6 301 
 BRR  HZ I        2220 38.99        20.4 0.42            145           71.6 301 
 BRR  HE ES       2220 39.62                             152    0.6210 71.6 301 
 PAM  EZ EP       2220 23.61                             150   -0.0210 80.8  39 
 PAM  EN ES       2220 40.92                             150   -0.3010 80.8  39 
 PAM  EZ I        2220 42.78         8.6 0.56            143           80.8  39 
 RUS  HZ EP       2220 24.83                             145    0.1010 97.4 175 
 RUS  HN ES       2220 43.86                             145    0.6910 97.4 175 
 RUS  HZ I        2220 44.17         3.1 0.30            142           97.4 175 
 PTB  HZ EP   2   2220 27.37                             133   -0.60 5  146 260 
 PTB  HN ES   2   2220 48.22                             133   -0.72 5  146 260 
 PTB  HZ I        2220 49.49         4.6 0.46            126            146 260 
 SPBC HZ EP   4   2220 28.10                             130   -1.25 0  160 219 
 SPBC HN ES       2220 50.96                             130   -0.44 9  160 219 
 SPBC HZ I        2220 53.00        10.5 0.10            124            160 219 
 ZAR  HZ EP   4   2220 35.06                             123    1.46 0  204 293 
 ZAR  HN ES       2220 59.19                             123    0.22 9  204 293 
 ZAR  HZ I        2221  5.10         6.5 0.50            116            204 293 
                                                                                
