 2013  1 4 2336  6.8 L   6.664 -72.845  0.0  RSN  5 0.3 1.3LRSN                1
 GAP=260        0.60       4.0     6.5  7.1  0.1850E+02  0.3288E+02  0.1605E+02E
 Epicentro: MOLAGAVITA - SANTANDER                                             3
 ACTION:UPD 13-02-15 09:12 OP:ep   STATUS:               ID:20130104233606 L   I
 2013-01-04-2330-00M.COL___242                                                 6
 STAT SP IPHASW D HRMM SECON CODA AMPLIT PERI AZIMU VELO AIN AR TRES W  DIS CAZ7
 BAR2 SZ EP   1   2336 13.49                              47   -0.51 7 38.1 258 
 BAR2 SZ ES   1   2336 19.50                              47   -0.11 7 38.1 258 
 BAR2 SZ I        2336 20.35        25.6 0.60             47           38.1 258 
 RUS  HZ EP   1   2336 22.23                              47    0.22 7 89.2 197 
 RUS  HN ES   1   2336 33.89                              47    0.03 7 89.2 197 
 RUS  HZ I        2336 36.47         4.5 0.18             47           89.2 197 
 BRR  HZ EP   1   2336 24.07                              47   -0.22 7  108 297 
 PTB  HZ EP   1   2336 35.20                              47    0.13 7  179 266 
 PTB  HN ES   1   2336 57.23                              47    0.12 7  179 266 
 PTB  HZ I        2337  0.42         5.7 0.16             37            179 266 
 ZAR  HE ES   1   2337 11.51                              37    0.62 6  241 293 
                                                                                
