 2013  8 4 2149 35.2 L   6.751 -73.138144.8  RSN  6 0.4 2.0LRSN                1
 GAP=186        0.90       5.5     5.9  7.9  0.7487E+01  0.1308E+02  0.1248E+02E
 Epicentro: LOS SANTOS - SANTANDER                                             3
 ACTION:UPD 14-01-14 08:59 OP:ep   STATUS:               ID:20130804214935 L   I
 OLDACT:REG 13-08-05 01:57 OP:mh   STATUS:               ID:20130804214851     3
 2013-08-04-2148-51M.COL___226                                                 6
 STAT SP IPHASW D HRMM SECON CODA AMPLIT PERI AZIMU VELO AIN AR TRES W  DIS CAZ7
 GIR2 SZ EP   1   2149 54.90                             165    0.01 7 36.8 350 
 GIR2 SZ ES   1   2150 10.05                             165   -0.22 7 36.8 350 
 GIR2 SZ I        2150 11.26         7.8 0.12            168           36.8 350 
 BRR  HZ EP   1   2149 56.63                             151    0.21 7 74.6 302 
 BRR  HN ES       2150 13.55                             151    0.5710 74.6 302 
 BRR  HN I        2150 14.50        37.5 0.18            151           74.6 302 
 RUS  HZ EP   1   2149 58.66                             145    0.22 7 95.1 176 
 RUS  HN ES       2150 16.38                             145   -0.2110 95.1 176 
 RUS  HZ I        2150 18.48         8.5 0.24            144           95.1 176 
 PTB  HZ EP   1   2150  1.34                             132   -0.71 7  148 261 
 PTB  HN ES       2150 22.42                             132   -0.59 9  148 261 
 PTB  HN I        2150 23.93        18.7 0.32            131            148 261 
 ZAR  HN ES   2   2150 33.24                             122   -0.10 4  207 293 
 NOR  HZ EP       2150 10.79                             119    0.20 8  232 236 
 NOR  HN ES   1   2150 38.93                             119    0.73 6  232 236 
 NOR  HN I        2150 46.81        15.5 0.18            118            232 236 
                                                                                
