 2013  1 4 2121 39.4 L   6.804 -73.154144.2  RSN  9 0.4 2.1LRSN                1
 GAP=181        0.76       3.3     4.9  7.3  0.1875E+01  0.9487E+01 -0.2045E+01E
 Epicentro: LOS SANTOS - SANTANDER                                             3
 ACTION:UPD 13-02-15 09:12 OP:ep   STATUS:               ID:20130104212139 L   I
 2013-01-04-2120-00M.COL___242                                                 6
 STAT SP IPHASW D HRMM SECON CODA AMPLIT PERI AZIMU VELO AIN AR TRES W  DIS CAZ7
 BAR2 SZ EP   1   2121 59.06                             170    0.22 7 23.6 188 
 BAR2 SZ ES   1   2122 13.74                             170   -0.27 7 23.6 188 
 BAR2 SZ I        2122 15.71        70.5 0.24            167           23.6 188 
 BRR  HZ EP   1   2122  0.83                             153    0.51 7 70.2 299 
 BRR  HN ES   4   2122 18.01                             153    1.38 0 70.2 299 
 BRR  HZ I        2122 21.20        21.6 0.30            147           70.2 299 
 RUS  HZ EP   1   2122  2.99                             143   -0.04 7  101 176 
 RUS  HN ES   1   2122 21.80                             143    0.33 7  101 176 
 RUS  HZ I        2122 23.00        17.8 0.28            146            101 176 
 PTB  HZ EP   1   2122  5.73                             132   -0.43 7  147 259 
 PTB  HN ES   1   2122 26.34                             132   -0.70 7  147 259 
 PTB  HZ I        2122 32.02        22.1 0.14            129            147 259 
 OCA  HN ES   1   2122 29.66                             129    0.18 7  160 353 
 OCA  HZ I        2122 35.87        11.3 0.24            130            160 353 
 ZAR  HZ EP   1   2122 11.18                             122   -0.45 6  203 292 
 ZAR  HN ES   1   2122 37.25                             122    0.47 6  203 292 
 ZAR  HZ I        2122 47.59        14.1 0.24            121            203 292 
 CTAB SZ EP   4   2122 16.58                             119    1.54 0  230 210 
 CHI  HZ EP   1   2122 17.30                             117    0.27 6  249 195 
 CHI  HN ES   1   2122 46.03                             117   -0.35 6  249 195 
 CHI  HZ I        2122 52.12         5.9 0.28            119            249 195 
 HEL  HN ES   1   2122 51.30                             114    0.62 6  271 256 
 HEL  HZ I        2122 59.44        10.3 0.30            114            271 256 
 COD  HN ES   1   2123  4.71                             109   -0.57 5  348 355 
                                                                                
