 2014  7 4 2156  8.7 L   6.798 -73.165145.0  RSN  8 0.3 1.8LRSN                1
 GAP=134        0.76       2.6     3.2  4.6 -0.5220E-01  0.3691E+01 -0.1807E+01E
 Epicentro: LOS SANTOS - SANTANDER                                             3
 ACTION:UPD 15-03-16 20:41 OP:nd   STATUS:               ID:20140704215608 L   I
 OLDACT:DUP 14-07-05 04:27 OP:carl STATUS:               ID:20140704214820d    3
 2014-07-04-2148-19M.COL___259                                                 6
 STAT SP IPHASW D HRMM SECON CODA AMPLIT PERI AZIMU VELO AIN AR TRES W  DIS CAZ7
 BAR2 SZ EP       2156 28.38                             171    0.1610 22.9 185 
 BAR2 SZ ES       2156 43.13                             171   -0.3310 22.9 185 
 BAR2 SZ I        2156 46.10        17.8 0.18            172           22.9 185 
 BRR  HZ EP       2156 30.32                             153    0.6610 69.5 299 
 BRR  HN ES       2156 46.47                             153    0.4510 69.5 299 
 BRR  HZ I        2156 48.46         9.2 0.14            150           69.5 299 
 PAM  SZ EP       2156 30.98                             150    0.0610 78.9  41 
 PAM  SN ES       2156 48.07                             150   -0.1810 78.9  41 
 PAM  SZ I        2156 50.88         6.6 0.56            152           78.9  41 
 RUS  HZ EP       2156 32.23                             144   -0.1410  101 175 
 RUS  HE ES       2156 50.90                             144    0.0610  101 175 
 RUS  HZ I        2156 52.65         5.9 0.20            147            101 175 
 PTB  HZ EP       2156 35.07                             132   -0.34 9  146 259 
 PTB  HN ES       2156 56.13                             132   -0.12 9  146 259 
 PTB  HZ I        2156 59.31         9.3 0.10            132            146 259 
 SPBC HZ EP       2156 37.29                             129    0.29 9  162 218 
 SPBC HN ES       2156 58.79                             129   -0.28 9  162 218 
 SPBC HZ I        2157  6.49        14.7 0.48            131            162 218 
 ZAR  HZ EP       2156 41.03                             122    0.13 9  202 292 
 ZAR  HN ES       2157  5.97                             122   -0.05 9  202 292 
 ZAR  HZ I        2157 12.61         7.6 0.30            123            202 292 
 SML  HZ EP       2156 44.88                             117   -0.32 8  243 336 
 SML  HN ES       2157 13.37                             117   -0.31 8  243 336 
 SML  HZ I        2157 25.49         9.6 0.10            118            243 336 
                                                                                
