 2017 12 4 2135  6.3 L   6.825 -73.187146.0  RSN  5 0.2 1.4LRSN                1
 GAP=130        0.53       2.3     2.5  5.0  0.2071E+00  0.3221E+01  0.2937E+01E
 Epicentro: ZAPATOCA - SANTANDER                                               3
 ACTION:UPD 18-01-04 13:17 OP:rebc STATUS:               ID:20171204213506 L   I
 OLDACT:REG 17-12-05 07:01 OP:dani STATUS:               ID:20171204212738     3
 2017-12-04-2128-00M.COL___491                                                 6
 STAT SP IPHASW D HRMM SECON CODA AMPLIT PERI AZIMU VELO AIN AR TRES W  DIS CAZ7
 PAM  EZ EP       2135 28.80                             151    0.2410 78.3  43 
 PAM  EN ES       2135 45.96                             151    0.0110 78.3  43 
 PAM  EZ I        2135 48.47         5.5 0.44            153           78.3  43 
 RUS  HZ EP       2135 29.92                             143   -0.3510  104 174 
 RUS  HN ES       2135 48.92                             143   -0.0710  104 174 
 RUS  HZ I        2135 50.33         3.4 0.30            144            104 174 
 PTB  HZ EP       2135 32.77                             133   -0.13 9  144 257 
 PTB  HN ES       2135 53.67                             133   -0.01 9  144 257 
 PTB  HZ I        2135 55.62         3.4 0.11            135            144 257 
 ZAR  HN ES       2136  3.12                             123    0.04 9  199 292 
 CHI  HZ EP       2135 44.18                             117    0.04 8  250 194 
 CHI  HN ES       2136 14.07                             117    0.39 8  250 194 
 CHI  HZ I        2136 16.67         2.2 0.35            119            250 194 
                                                                                
