 2013 11 4 2133 34.1 L   6.828 -73.117151.1  RSN 13 0.5 2.2LRSN                1
 GAP=139        1.30       3.7     4.9  6.7 -0.4870E+01  0.1015E+02 -0.2915E+01E
 Epicentro: LOS SANTOS - SANTANDER                                             3
 ACTION:UPD 14-01-09 16:25 OP:ep   STATUS:               ID:20131104213334 L   I
 OLDACT:REG 13-11-05 00:46 OP:carl STATUS:               ID:20131104212842     3
 2013-11-04-2128-42M.COL___226                                                 6
 STAT SP IPHASW D HRMM SECON CODA AMPLIT PERI AZIMU VELO AIN AR TRES W  DIS CAZ7
 BAR2 SZ IP     C 2133 54.56                             170    0.1410 27.0 195 
 BAR2 SZ ES       2134  9.89                             170   -0.4010 27.0 195 
 BAR2 SZ I        2134 11.25        41.4 0.36            169           27.0 195 
 BRR  HZ EP       2133 56.45                             153    0.5710 72.6 295 
 BRR  HN ES       2134 13.83                             153    0.9510 72.6 295 
 BRR  HZ I        2134 17.47        18.0 0.38            149           72.6 295 
 PAM  SZ IP     C 2133 57.32                             153    0.7110 73.0  39 
 PAM  SE ES       2134 14.49                             153    0.3010 73.0  39 
 PAM  SZ I        2134 16.71        28.5 0.52            157           73.0  39 
 RUS  HZ EP       2133 58.34                             144   -0.2210  103 178 
 RUS  HN ES       2134 16.78                             144   -0.8710  103 178 
 RUS  HZ I        2134 18.56         8.1 0.40            148            103 178 
 PTB  HZ EP       2134  1.00                             132   -0.81 9  151 258 
 PTB  HE ES       2134 22.70                             132   -0.74 9  151 258 
 PTB  HZ I        2134 29.93        22.8 0.50            132            151 258 
 SPBC HZ EP       2134  3.54                             129    0.15 9  168 219 
 SPBC HN ES       2134 25.93                             129   -0.33 9  168 219 
 SPBC HZ I        2134 30.60        24.6 0.20            131            168 219 
 ZAR  HZ EP   4   2134  8.82                             123    1.77 0  206 291 
 ZAR  HE ES       2134 33.02                             123    0.25 8  206 291 
 ZAR  HZ I        2134 43.47        15.5 0.32            124            206 291 
 NOR  HZ EP       2134 10.39                             119   -0.18 8  239 234 
 NOR  HE ES       2134 38.95                             119   -0.10 8  239 234 
 NOR  HZ I        2134 42.35        11.9 0.28            121            239 234 
 SML  HZ EP       2134 10.72                             119   -0.13 8  242 334 
 SML  HN ES       2134 38.87                             119   -0.66 8  242 334 
 SML  HZ I        2134 43.54        19.7 0.10            120            242 334 
 ROSC BZ EP   4   2134 14.20                             117    1.25 0  257 211 
 ROSC BN ES       2134 43.68                             117    0.41 8  257 211 
 HEL  HZ EP       2134 15.77                             115    0.79 7  276 255 
 HEL  HN ES       2134 46.70                             115   -0.18 7  276 255 
 HEL  HZ I        2134 53.23         6.0 0.38            117            276 255 
 GUY2CHZ EP       2134 18.87                             113    0.45 7  306 235 
 GUY2CHN ES       2134 53.72                             113    0.72 7  306 235 
 GUY2CHZ I        2135  1.43        10.7 0.74                           306 235 
 COD  HZ EP       2134 21.59                             110   -0.76 6  346 354 
 COD  HN ES       2134 59.87                             110   -0.13 6  346 354 
                                                                                
