 2017 11 4 2304 27.9 L   6.785 -73.139147.1  RSN 14 0.6 1.9LRSN                1
 GAP=113        1.32       4.2     4.4  6.8  0.2056E+01  0.4867E+01  0.8380E+01E
 Epicentro: LOS SANTOS - SANTANDER                                             3
 ACTION:UPD 17-12-12 19:52 OP:rebc STATUS:               ID:20171104230427 L   I
 OLDACT:UP  17-11-05 10:07 OP:edw  STATUS:               ID:20171104225737     3
 OLDACT:UP  17-11-05 10:06 OP:edw  STATUS:               ID:20171104225737     3
 OLDACT:REG 17-11-05 06:40 OP:edw  STATUS:               ID:20171104225737     3
 2017-11-04-2258-00M.COL___435                                                 6
 STAT SP IPHASW D HRMM SECON CODA AMPLIT PERI AZIMU VELO AIN AR TRES W  DIS CAZ7
 BAR2 EZ EP       23 4 47.55                             171   -0.1210 21.8 193 
 BAR2 EZ ES       23 5  3.08                             171   -0.0010 21.8 193 
 BAR2 EZ I        23 5  4.18        27.8 0.16            168           21.8 193 
 BRR  HZ EP       23 4 49.39                             152    0.1010 72.7 299 
 BRR  HN ES       23 5  6.50                             152    0.5410 72.7 299 
 BRR  HZ I        23 5 10.43        13.2 0.64            152           72.7 299 
 PAM  EZ EP       23 4 50.46                             151    0.1510 78.2  38 
 PAM  EN ES       23 5  7.51                             151   -0.2810 78.2  38 
 PAM  EZ I        23 5  9.66        15.8 0.48            156           78.2  38 
 RUS  HZ EP       23 4 51.53                             145   -0.1410 98.9 176 
 RUS  HN ES       23 5 10.42                             145    0.2210 98.9 176 
 RUS  HZ I        23 5 11.95         7.0 0.46            145           98.9 176 
 PTB  HZ EP       23 4 54.81                             132   -0.22 9  148 260 
 PTB  HN ES       23 5 15.20                             132   -0.98 9  148 260 
 PTB  HZ I        23 5 17.29         4.6 0.38            132            148 260 
 SPBC HZ EP       23 4 56.25                             129   -0.18 9  162 220 
 SPBC HN ES       23 5 18.43                             129   -0.25 9  162 220 
 SPBC HZ I        23 5 23.35        19.3 0.26            129            162 220 
 YPLC HZ EP       23 4 57.92                             127    0.30 9  175 151 
 YPLC HE ES       23 5 21.28                             127    0.49 9  175 151 
 ZAR  HZ EP       23 5  1.96                             122    1.38 8  205 292 
 ZAR  HN ES       23 5 25.44                             122   -0.63 8  205 292 
 ZAR  HZ I        23 5 30.75         8.2 0.24            123            205 292 
 TABC EZ EP   4   23 5  5.83                             120    2.20 0  229 211 
 TABC EZ ES   4   23 5 33.99                             120    2.50 0  229 211 
 TABC EZ I        23 5 38.61         9.6 0.40            120            229 211 
 NOR  HZ EP       23 5  3.81                             119    0.13 8  234 235 
 NOR  HN ES       23 5 32.36                             119    0.78 8  234 235 
 NOR  HZ I        23 5 37.48         4.9 0.24            119            234 235 
 CHI  HZ EP       23 5  4.46                             117   -1.07 8  247 195 
 CHI  HN ES       23 5 34.64                             117   -0.23 8  247 195 
 CHI  HZ I        23 5 38.78         5.0 0.46            118            247 195 
 GUY2CHZ EP   4   23 5 13.69                             113    2.15 0  301 235 
 GUY2CHE ES   4   23 5 48.98                             113    3.40 0  301 235 
 GUY2CHZ I        23 5 53.78         4.3 0.40                           301 235 
 PTGC HZ EP       23 5 10.64                             112   -0.97 7  307 159 
 PTGC HN ES   4   23 5 43.96                             112   -1.75 0  307 159 
 PRA  HZ EP       23 5 21.77                             107    0.42 6  391 210 
 PRA  HE ES       23 6  3.95                             107    0.92 6  391 210 
 PRA  HZ I        23 6  9.90         3.9 0.26            108            391 210 
 SJC  HZ EP   4   23 5 21.64                             106   -2.09 0  411 327 
 SJC  HN ES   4   23 6  3.18                             106   -4.09 0  411 327 
                                                                                
