 2017  6 4 2040 30.8 L   6.803 -73.100153.3  RSN  7 0.2 1.9LRSN                1
 GAP=243        0.58       3.0     3.8  5.1  0.2983E+01  0.1829E+00 -0.8298E+00E
 Epicentro: LOS SANTOS - SANTANDER                                             3
 ACTION:UPD 17-09-14 16:49 OP:jn   STATUS:               ID:20170604204030 L   I
 OLDACT:UP  17-06-05 02:59 OP:dnl  STATUS:               ID:20170604203743     3
 OLDACT:UP  17-06-05 02:59 OP:dnl  STATUS:               ID:20170604203743     3
 OLDACT:UP  17-06-05 02:59 OP:dnl  STATUS:               ID:20170604203743     3
 OLDACT:REG 17-06-05 02:38 OP:dnl  STATUS:               ID:20170604203743     3
 2017-06-04-2038-00M.COL___353                                                 6
 STAT SP IPHASW D HRMM SECON CODA AMPLIT PERI AZIMU VELO AIN AR TRES W  DIS CAZ7
 BRR  HZ EP       2040 53.19                             152    0.2010 75.5 296 
 BRR  HN ES       2041 10.56                             152    0.2510 75.5 296 
 BRR  HZ I        2041 11.10        10.4 0.44            147           75.5 296 
 RUS  HZ EP       2040 55.23                             145   -0.0610  101 179 
 RUS  HN ES       2041 14.12                             145   -0.2910  101 179 
 RUS  HZ I        2041 15.05         6.9 0.46            141            101 179 
 PTB  HZ EP       2040 58.67                             133   -0.15 9  153 259 
 PTB  HN ES   4   2041 19.16                             133   -1.53 0  153 259 
 PTB  HZ I        2041 22.43         5.5 0.24            128            153 259 
 SPBC HZ EP       2041  0.40                             130    0.20 9  167 220 
 SPBC HE ES       2041 23.31                             130    0.17 9  167 220 
 SPBC HZ I        2041 28.32        13.4 0.10            125            167 220 
 ZAR  HZ EP   4   2041  6.98                             123    2.79 0  209 292 
 ZAR  HN ES       2041 29.80                             123   -0.45 8  209 292 
 ZAR  HZ I        2041 35.79         6.2 0.30            120            209 292 
 NOR  HE ES       2041 36.06                             120    0.06 8  239 235 
 NOR  HZ I        2041 41.71         5.0 0.14            116            239 235 
 ROSC BZ EP   9   2041 11.80                             118    2.16 0  256 212 
 ROSC BN ES       2041 42.07                             118   -0.04 8  256 212 
 ROSC BZ I        2041 46.13         6.5 0.45            115            256 212 
                                                                                
