 2014  9 4 2221 14.0 L   6.758 -73.160135.4  RSN  4 0.5 1.3LRSN                1
 GAP=138        1.19       6.9     6.8 10.0 -0.1463E+02  0.1949E+02 -0.7153E+01E
 Epicentro: LOS SANTOS - SANTANDER                                             3
 ACTION:UPD 14-10-03 23:02 OP:nd   STATUS:               ID:20140904222114 L   I
 OLDACT:REG 14-09-05 04:37 OP:stll STATUS:               ID:20140904221818     3
 2014-09-04-2218-18M.COL___280                                                 6
 STAT SP IPHASW D HRMM SECON CODA AMPLIT PERI AZIMU VELO AIN AR TRES W  DIS CAZ7
 BAR2 SZ EP       2221 32.48                             172    0.1510 18.5 188 
 BAR2 SZ ES       2221 47.35                             172    0.7610 18.5 188 
 BAR2 SZ I        2221 50.67         6.0 0.46            171           18.5 188 
 PAM  SZ EP       2221 35.40                             147   -0.0610 82.0  38 
 PAM  SN ES       2221 51.79                             147   -0.3710 82.0  38 
 PAM  SZ I        2221 54.94         5.0 0.22            153           82.0  38 
 RUS  HZ EP       2221 37.00                             143    0.5510 96.1 175 
 RUS  HN ES       2221 53.19                             143   -0.7410 96.1 175 
 RUS  HZ I        2221 56.81         1.8 0.38            148           96.1 175 
 PTB  HZ EP       2221 39.82                             130   -0.14 9  145 260 
 PTB  HN ES       2221 59.99                             130   -0.18 9  145 260 
 PTB  HZ I        2222  8.42         3.6 0.26            132            145 260 
                                                                                
