 2011  9 4 2232  6.4 L   6.769 -73.125144.7  RSN  5 0.2 1.9LRSN                1
 GAP=190        0.40       4.1     6.7  4.2  0.1724E+02  0.5127E+01  0.2590E+01E
 Epicentro: LOS SANTOS - SANTANDER                                             3
 ACTION:UPD 12-07-13 15:55 OP:ep   STATUS:               ID:20110904223206 L   I
 2011-09-04-2231-03S.COL___170                                                 6
 STAT SP IPHASW D HRMM SECON CODA AMPLIT PERI AZIMU VELO AIN AR TRES W  DIS CAZ7
 BAR2 SZ EP   1   2232 25.83                             171   -0.05 7 20.5 198 
 BAR2 SZ I        2232 42.76        20.6 0.32                          20.5 198 
 GIR2 SZ EP   1   2232 26.05                             166   -0.03 7 35.1 347 
 GIR2 SZ ES   1   2232 41.32                             166   -0.09 7 35.1 347 
 BRR  HZ EP   1   2232 27.71                             151    0.03 7 74.9 300 
 BRR  HZ I        2232 28.07        16.2 0.11                          74.9 300 
 BRR  HN ES   1   2232 44.44                             151    0.19 7 74.9 300 
 RUS  HZ EP   1   2232 30.11                             145    0.29 7 97.0 177 
 RUS  HN ES   1   2232 47.89                             145   -0.17 7 97.0 177 
 RUS  HZ I        2232 49.81         9.0 0.35                          97.0 177 
 ZAR  HZ EP   1   2232 38.92                             122   -0.24 6  208 293 
 ZAR  HZ I        2233 10.76         5.7 0.30                           208 293 
                                                                                
