 2013  3 4 2259 18.3 L   6.822 -73.152143.8  RSN 16 0.5 3.1LRSN 3.5WRSN        1
 SPEC AVERAGE  MO 14.3 ST 16.0 OM  2.8 f0 3.59 R0.4269 AL 1.93 WI 20.9 MW  3.5 3
 SPEC SD       MO  0.1 ST 12.3 OM  0.3 f00.727 R0.0886 AL      WI      MW  0.1 3
 GAP= 70        1.05       3.7     4.0  6.1 -0.2463E+01  0.2407E+01  0.3944E+01E
 Epicentro: LOS SANTOS - SANTANDER                                             3
 SPEC ZAR HH N MO 14.4 ST 21.6 OM  2.6 f0 3.99 R0.3684 AL 2.09 WI 26.6 MW  3.5 3
 SPEC ZAR HH N T23 015 K 0.000 GD  247 VS 4.20 DE 3.20 Q0300.0 QA 0.60 VS 4.20 3
 SPEC NOR HH E MO 14.4 ST 40.7 OM  2.6 f0 4.76 R0.3088 AL 1.83 WI 16.8 MW  3.6 3
 SPEC NOR HH E T23 021 K 0.000 GD  275 VS 4.20 DE 3.20 Q0300.0 QA 0.60 VS 4.20 3
 SPEC OCA HH N MO 14.5 ST 28.1 OM  2.8 f0 3.93 R0.3740 AL 1.97 WI 18.9 MW  3.6 3
 SPEC OCA HH N T23 0 7 K 0.000 GD  213 VS 4.20 DE 3.20 Q0300.0 QA 0.60 VS 4.20 3
 SPEC PTB HH N MO 14.3 ST 23.7 OM  2.6 f0 4.38 R0.3356 AL 1.95 WI 19.4 MW  3.5 3
 SPEC PTB HH N T23 0 5 K 0.000 GD  206 VS 4.20 DE 3.20 Q0300.0 QA 0.60 VS 4.20 3
 SPEC RUS HH N MO 14.0 ST  8.9 OM  2.4 f0 3.88 R0.3789 AL 2.27 WI  8.5 MW  3.3 3
 SPEC RUS HH N T225959 K 0.000 GD  176 VS 4.20 DE 3.20 Q0300.0 QA 0.60 VS 4.20 3
 SPEC PAM SH N MO 14.2 ST  4.6 OM  2.6 f0 2.75 R0.5345 AL 1.75 WI  8.5 MW  3.4 3
 SPEC PAM SH N T225957 K 0.000 GD  162 VS 4.20 DE 3.20 Q0300.0 QA 0.60 VS 4.20 3
 SPEC HEL HH N MO 14.3 ST  4.8 OM  2.4 f0 2.62 R0.5611 AL 1.81 WI 30.5 MW  3.5 3
 SPEC HEL HH N T23 028 K 0.000 GD  307 VS 4.20 DE 3.20 Q0300.0 QA 0.60 VS 4.20 3
 SPEC CHI HH N MO 14.3 ST  5.5 OM  2.4 f0 2.81 R0.5231 AL 2.04 WI 20.4 MW  3.4 3
 SPEC CHI HH N T23 024 K 0.000 GD  289 VS 4.20 DE 3.20 Q0300.0 QA 0.60 VS 4.20 3
 SPEC BRR HH E MO 14.1 ST  5.7 OM  2.5 f0 3.21 R0.4579 AL 1.64 WI 38.7 MW  3.3 3
 SPEC BRR HH E T225954 K 0.000 GD  159 VS 4.20 DE 3.20 Q0300.0 QA 0.60 VS 4.20 3
 ACTION:UPD 13-04-09 13:59 OP:ep   STATUS:               ID:20130304225918 L   I
 2013-03-04-2257-49M.COL___199                                                 6
 STAT SP IPHASW D HRMM SECON CODA AMPLIT PERI AZIMU VELO AIN AR TRES W  DIS CAZ7
 BAR2 SZ EP       2259 37.85                             169    0.0610 25.6 187 
 BAR2 SZ ES   1   2259 52.52                             169   -0.44 7 25.6 187 
 BAR2 SZ I        2259 55.37       499.4 0.28            173           25.6 187 
 BRR  HZ IP     C 2259 39.61                             153    0.4310 69.4 297 
 BRR  HE ES   1   2259 56.22                             153    0.78 7 69.4 297 
 BRR  HZ I        23 0  1.02       164.1 0.28            145           69.4 297 
 PAM  SZ EP     C 2259 40.54                             151    0.2710 76.0  41 
 PAM  SN ES   1   2259 57.54                             151    0.16 7 76.0  41 
 PAM  SZ I        2259 59.74       256.3 0.48            145           76.0  41 
 RUS  HZ EP     D 2259 41.92                             143   -0.1610  103 176 
 RUS  HN ES   1   23 0  0.23                             143   -0.37 7  103 176 
 RUS  HZ I        23 0  2.40       269.0 0.40            143            103 176 
 PTB  HZ EP       2259 44.37                             131   -0.76 9  148 258 
 PTB  HN ES   1   23 0  5.48                             131   -0.55 7  148 258 
 PTB  HZ I        23 0  8.39       231.4 0.14            126            148 258 
 TAM  HZ IP     C 2259 46.23                             130    0.24 9  156 106 
 OCA  HZ EP   1   2259 46.35                             129    0.08 7  158 353 
 OCA  HN ES   1   23 0  7.33                             129   -0.72 7  158 353 
 OCA  HZ I        23 0 12.34       168.3 0.18            123            158 353 
 ZAR  HZ EP   1   2259 50.33                             122   -0.17 6  202 292 
 ZAR  HE ES   1   23 0 16.15                             122    0.57 6  202 292 
 ZAR  HZ I        23 0 22.59       120.6 0.26            116            202 292 
 NOR  HZ EP     C 2259 54.41                             118    0.36 8  235 234 
 NOR  HE ES   1   23 0 22.10                             118    0.20 6  235 234 
 NOR  HZ I        23 0 27.07       124.8 0.20            114            235 234 
 CHI  HZ EP   1   2259 56.22                             116    0.05 6  251 195 
 CHI  HN ES   1   23 0 25.00                             116   -0.67 6  251 195 
 CHI  HZ I        23 0 32.15        41.5 0.44            114            251 195 
 ROSC BZ EP     D 2259 57.76                             116    1.22 8  254 211 
 HEL  HZ EP   1   2259 58.62                             114    0.18 6  272 255 
 HEL  HE ES   1   23 0 29.06                             114   -0.66 6  272 255 
 HEL  HZ I        23 0 36.39        90.4 0.60            110            272 255 
 URE  HZ EP   4   2259 57.56                             113   -1.58 0  282 292 
 URE  HN ES   4   23 0 28.87                             113   -2.10 0  282 292 
 RREF HZ EP   1   23 0  5.08                             110    0.56 5  323 229 
 COD  HZ EP   1   23 0  5.49                             109   -0.87 5  346 355 
 COD  HZ I        23 0 51.39        12.9 0.34            105            346 355 
 SDV  BZ EP   1   23 0  7.35                             108   -0.85 5  359  51 
 PRA  HZ EP   1   23 0 10.88                             106   -1.12 4  394 209 
 PRA  HE ES   1   23 0 53.75                             106   -0.10 4  394 209 
 PRA  HZ I        23 1  0.23        66.0 0.34            103            394 209 
                                                                                
