 2010  5 4 2103 31.5 L   6.763 -73.064142.0  RSN 13 0.5 2.5LRSN                1
 GAP=182        0.84       4.9     8.8  7.1 -0.1975E+02 -0.1774E+01  0.6282E+01E
 Epicentro: LOS SANTOS - SANTANDER                                             3
 ACTION:UP  10-08-24 10:02 OP:vdl  STATUS:               ID:20100504210331 L   I
 2010-05-04-2100-07S.COL___105                                                 6
 STAT SP IPHASW D HRMM SECON CODA AMPLIT PERI AZIMU VELO SNR AR TRES W  DIS CAZ7
 BAR2 SZ IP       21 3 50.58                             170    -0.110   23 215 
 BAR2 SZ ES   1   21 4  5.82                             170     0.2 7   23 215 
 GIR2 SZ IP       21 3 50.65                             164    -0.210   38 338 
 BRR  HZ IP     C 21 3 53.00                             148     0.210   81 298 
 BRR  HN ES   1   21 4  9.31                             148    -0.2 7   81 298 
 BRR  HZ I        21 4 13.68        46.5 0.14                            81 298 
 BRI  SZ EP   2   21 3 55.97                             140     0.9 5  110  16 
 GUE  SZ EP   1   21 3 55.54                             138    -0.5 7  119   7 
 GRA  SZ EP   2   21 3 57.06                             136     0.5 5  127  13 
 GRA  SZ ES   2   21 4 16.65                             136     0.6 5  127  13 
 OCA  SZ EP   1   21 3 59.14                             128    -0.9 7  166 350 
 OCA  SZ ES   2   21 4 23.01                             128     0.7 5  166 350 
 OCA  SZ I        21 4 25.59        66.7 0.38                           166 350 
 CHI  HZ EP   2   21 4  8.55                             116    -0.3 4  247 197 
 CHI  HE ES   2   21 4 37.66                             116    -0.3 4  247 197 
 CHI  HZ I        21 4 41.54        11.2 0.79                           247 197 
 HEL  HZ EP   2   21 4 12.87                             113     0.5 4  280 257 
 HEL  HZ I        21 4 49.69        14.7 0.54                           280 257 
 RREF BZ EP   2   21 4 17.76                             110    -0.2 3  326 231 
 RREF BE ES   2   21 4 53.84                             110    -0.4 3  326 231 
 RREF BZ I        21 4 58.97        10.3 0.74                           326 231 
 TOL  SZ EP   2   21 4 21.47                             108     1.5 3  347 226 
 DBB  SZ EP   3   21 4 19.10                             108    -0.8 2  349 275 
 PRA  HZ EP   1   21 4 25.27                             106     0.3 4  393 211 
 PRA  HE ES   2   21 5  6.91                             106     0.2 3  393 211 
 PRA  HZ I        21 5 12.96        15.3 0.25                           393 211 
                                                                                
