 2012  5 4 2247 12.0 L   5.851 -73.688130.0  RSN  4 0.2 1.5LRSN                1
 GAP=226        0.56       6.3     9.0 11.0  0.2816E+02  0.7544E+02  0.2577E+02E
 Epicentro: PUENTE NACIONAL - SANTANDER                                        3
 ACTION:UP  12-07-05 12:02 OP:pat  STATUS:               ID:20120504224712 L   I
 2012-05-04-2240-00M.COL___192                                                 6
 STAT SP IPHASW D HRMM SECON CODA AMPLIT PERI AZIMU VELO SNR AR TRES W  DIS CAZ7
 RUS  HZ EP   1   2247 32.15                             152     0.2 7   67  86 
 RUS  HN ES   1   2247 47.59                             152     0.1 7   67  86 
 BAR2 SZ EP   1   2247 33.68                             141    -0.1 7   99  34 
 BAR2 SZ ES   1   2247 50.41                             141    -0.4 7   99  34 
 BAR2 SZ I        2247 52.96        17.9 0.40                            99  34 
 PTB  HZ EP   1   2247 34.50                             136    -0.2 7  114 312 
 PTB  HZ I        2247 52.10         2.0 0.11                           114 312 
 BRR  HZ EP   1   2247 36.91                             130     0.0 7  139 359 
 BRR  HN ES   1   2247 56.67                             130     0.4 7  139 359 
                                                                                
