 2013  1 4 2343 37.0 L   6.775 -73.155148.1  RSN  7 0.3 1.6LRSN                1
 GAP=182        0.62       3.2     4.7  5.8  0.4673E+01  0.4010E+01  0.3382E+01E
 Epicentro: LOS SANTOS - SANTANDER                                             3
 ACTION:UPD 13-02-15 09:12 OP:ep   STATUS:               ID:20130104234337 L   I
 2013-01-04-2340-00M.COL___242                                                 6
 STAT SP IPHASW D HRMM SECON CODA AMPLIT PERI AZIMU VELO AIN AR TRES W  DIS CAZ7
 BAR2 SZ EP   1   2343 56.60                             172   -0.21 7 20.4 189 
 BAR2 SZ ES   1   2344 12.46                             172    0.17 7 20.4 189 
 BAR2 SZ I        2344 13.39        12.3 0.46            165           20.4 189 
 BRR  HZ EP   1   2343 58.73                             153    0.35 7 71.7 301 
 BRR  HN ES   1   2344 15.10                             153    0.01 7 71.7 301 
 RUS  HZ EP   1   2344  0.72                             145   -0.02 7 97.9 175 
 RUS  HN ES   1   2344 18.96                             145   -0.34 7 97.9 175 
 RUS  HZ I        2344 20.26         3.7 0.36            140           97.9 175 
 PTB  HZ EP   1   2344  3.65                             133   -0.32 7  146 260 
 PTB  HN ES   1   2344 24.72                             133   -0.33 7  146 260 
 PTB  HZ I        2344 26.75         7.3 0.12            130            146 260 
 OCA  HN ES   1   2344 28.22                             130    0.11 7  163 354 
 ZAR  HE ES   1   2344 35.18                             123    0.18 6  204 293 
 CHI  HZ EP   1   2344 14.21                             118   -0.25 6  246 195 
 CHI  HN ES   1   2344 44.57                             118    0.85 6  246 195 
 CHI  HZ I        2344 53.70         2.0 0.36            115            246 195 
                                                                                
