 2015  2 4 2220  5.8 L   6.806 -73.157142.3  RSN  4 0.1 1.6LRSN                1
 GAP=135        0.35       1.8     2.1  4.2 -0.7631E+00  0.3342E+01  0.7358E+00E
 Epicentro: LOS SANTOS - SANTANDER                                             3
 ACTION:UPD 15-04-30 21:21 OP:nd   STATUS:               ID:20150204222005 L   I
 OLDACT:REG 15-02-05 03:57 OP:spq  STATUS:               ID:20150204221747     3
 2015-02-04-2217-47M.COL___278                                                 6
 STAT SP IPHASW D HRMM SECON CODA AMPLIT PERI AZIMU VELO AIN AR TRES W  DIS CAZ7
 PAM  SZ EP       2220 27.56                             150   -0.1210 77.6  41 
 PAM  SE ES       2220 44.77                             150    0.0310 77.6  41 
 PAM  SZ I        2220 46.58         7.3 0.52            154           77.6  41 
 RUS  HZ EP   1   2220 29.40                             143    0.11 7  101 175 
 RUS  HE ES   1   2220 47.68                             143    0.08 7  101 175 
 RUS  HZ I        2220 49.22         4.2 0.32            147            101 175 
 SPBC HZ EP       2220 34.11                             128    0.08 9  163 219 
 SPBC HE ES       2220 55.90                             128   -0.14 9  163 219 
 SPBC HZ I        2220 58.58         8.0 0.24            131            163 219 
 ZAR  HN ES       2221  2.98                             122    0.06 9  203 292 
 ZAR  HZ I        2221  8.62         4.1 0.28            123            203 292 
                                                                                
