 2012  8 4 2328 25.6 L   6.798 -73.158139.1  RSN  8 0.4 2.2LRSN                1
 GAP=135        0.99       4.3     5.0  7.2  0.1232E+00  0.1478E+02  0.3083E-01E
 Epicentro: LOS SANTOS - SANTANDER                                             3
 ACTION:UPD 12-09-10 11:54 OP:ep   STATUS:               ID:20120804232825 L   I
 2012-08-04-2320-00M.COL___216                                                 6
 STAT SP IPHASW D HRMM SECON CODA AMPLIT PERI AZIMU VELO AIN AR TRES W  DIS CAZ7
 BAR2 SZ EP       2328 44.58                             170    0.1410 22.9 187 
 BAR2 SZ ES   1   2328 58.67                             170   -0.44 7 22.9 187 
 BAR2 SZ I        2329  0.66        60.0 0.32                          22.9 187 
 BRR  HZ EP       2328 46.32                             152    0.3310 70.1 299 
 BRR  HZ I        2328 46.78        50.9 0.17                          70.1 299 
 BRR  HN ES   1   2329  2.69                             152    0.82 7 70.1 299 
 PAM  SZ EP       2328 47.26                             149    0.0610 78.5  40 
 PAM  SN ES       2329  4.16                             149    0.1410 78.5  40 
 RUS  HZ EP       2328 48.61                             142   -0.1010  100 175 
 RUS  HN ES       2329  6.68                             142   -0.0410  100 175 
 RUS  HZ I        2329  8.20        12.0 0.23                           100 175 
 PTB  HZ EP       2328 51.38                             131   -0.54 9  146 259 
 PTB  HN ES   1   2329 11.99                             131   -0.44 7  146 259 
 PTB  HZ I        2329 13.82         9.6 0.30                           146 259 
 OCA  HN ES   1   2329 14.39                             128   -0.73 7  160 354 
 OCA  HZ I        2329 17.60        55.3 0.26                           160 354 
 ZAR  HZ EP       2328 57.14                             121   -0.37 9  203 292 
 ZAR  HN ES   1   2329 22.44                             121    0.05 6  203 292 
 ZAR  HZ I        2329 30.37        15.4 0.25                           203 292 
 HEL  HZ EP       2329  6.28                             113    0.93 8  271 256 
 HEL  HZ I        2329 42.89         9.0 0.37                           271 256 
                                                                                
