 2013  4 4 2332 54.7 L   6.761 -73.175148.2  RSN  6 0.4 1.8LRSN                1
 GAP=177        0.88       6.4     5.9  8.0  0.1778E+02  0.8677E+01  0.1877E+02E
 Epicentro: LOS SANTOS - SANTANDER                                             3
 ACTION:UPD 13-05-22 14:35 OP:EP   STATUS:               ID:20130404233254 L   I
 2013-04-04-2330-00M.COL___245                                                 6
 STAT SP IPHASW D HRMM SECON CODA AMPLIT PERI AZIMU VELO AIN AR TRES W  DIS CAZ7
 GIR2 SZ EP   1   2333 14.70                             166   -0.08 7 35.2 357 
 GIR2 SZ ES   1   2333 30.31                             166   -0.13 7 35.2 357 
 GIR2 SZ I        2333 30.93         7.6 0.62            171           35.2 357 
 BRR  HZ EP   1   2333 16.01                             153   -0.08 7 70.6 303 
 BRR  HN ES       2333 32.90                             153    0.1310 70.6 303 
 BRR  HN I        2333 33.54        32.9 0.18            154           70.6 303 
 RUS  HZ EP       2333 18.28                             146   -0.1410 96.5 174 
 RUS  HN ES   1   2333 37.23                             146    0.32 7 96.5 174 
 RUS  HN I        2333 39.58         3.0 0.64            144           96.5 174 
 PTB  HZ EP       2333 21.12                             133   -0.41 9  144 260 
 PTB  HN ES       2333 41.93                             133   -0.51 9  144 260 
 PTB  HN I        2333 47.02        10.9 0.54            133            144 260 
 ZAR  HN ES       2333 53.20                             123    0.69 9  203 294 
 CHI  HZ EP   1   2333 32.82                             118    0.81 6  244 195 
                                                                                
