 2012 10 4 2308 46.5 L   6.760 -73.138142.1  RSN 13 0.3 2.6LRSN                1
 GAP= 73        0.67       2.6     2.5  4.7 -0.7957E+00  0.2895E+01  0.3158E+01E
 Epicentro: LOS SANTOS - SANTANDER                                             3
 ACTION:UPD 12-11-22 17:02 OP:ep   STATUS:               ID:20121004230846 L   I
 2012-10-04-2307-49M.COL___202                                                 6
 STAT SP IPHASW D HRMM SECON CODA AMPLIT PERI AZIMU VELO AIN AR TRES W  DIS CAZ7
 BAR2 SZ EP       23 9  5.50                             172   -0.1010 19.2 195 
 BAR2 SZ ES   1   23 9 20.08                             172   -0.42 7 19.2 195 
 BAR2 SZ I        23 9 21.98       129.3 0.20                          19.2 195 
 GIR2 SZ EP       23 9  5.57                             165   -0.2910 35.8 350 
 BRR  HZ EP       23 9  7.32                             151   -0.1010 74.1 301 
 BRR  HZ I        23 9  7.75        28.0 0.12                          74.1 301 
 BRR  HN ES   1   23 9 24.37                             151    0.63 7 74.1 301 
 PAM  SZ EP       23 9  8.34                             149   -0.1610 80.3  37 
 PAM  SN ES   1   23 9 25.49                             149   -0.18 7 80.3  37 
 PAM  SN I        23 9 26.42        94.7 0.48                          80.3  37 
 RUS  HZ EP       23 9  9.50                             144   -0.0610 96.1 176 
 RUS  HN ES   1   23 9 27.45                             144   -0.10 7 96.1 176 
 GRA  SZ ES   1   23 9 32.00                             135    0.55 7  130  17 
 TAM  HZ EP       23 9 13.89                             130    0.19 9  153 103 
 TAM  HE ES   1   23 9 35.41                             130    0.49 7  153 103 
 TAM  HE I        23 9 36.86        60.6 0.58                           153 103 
 ZAR  HZ EP   1   23 9 18.38                             121   -0.58 6  207 293 
 ZAR  HN ES   1   23 9 43.98                             121   -0.30 6  207 293 
 ZAR  HN I        23 9 49.72        54.7 0.16                           207 293 
 NOR  SN ES   1   23 9 49.37                             118    0.01 6  233 235 
 CHI  HN ES   1   23 9 52.40                             117   -0.05 6  245 196 
 CHI  HN I        23 9 59.33        31.2 0.34                           245 196 
 HEL  HZ EP       23 9 26.81                             114    0.32 8  272 257 
 HEL  HN ES   1   23 9 58.14                             114    0.45 6  272 257 
 HEL  HN I        2310  6.12        14.8 0.24                           272 257 
 RREF HZ EP   2   23 9 32.83                             110    0.61 3  320 230 
 RREF HN ES   1   2310  8.53                             110    0.64 5  320 230 
 RREF HZ I        2310 19.57        17.3 0.34                           320 230 
 PRA  HZ EP       23 9 39.17                             106   -0.31 6  389 210 
 PRA  HN ES   1   2310 20.70                             106   -0.12 4  389 210 
 PRA  HN I        2310 26.01        19.7 0.38                           389 210 
                                                                                
