 2016  7 4 2331 12.1 L   6.809 -73.137147.5  RSN 24 0.5 2.4LRSN                1
 GAP=120        1.04       2.9     2.9  4.5 -0.2798E+01  0.1417E+01  0.2428E+01E
 Epicentro: LOS SANTOS - SANTANDER                                             3
 ACTION:UPD 17-03-29 16:47 OP:lp   STATUS:               ID:20160704233112 L   I
 OLDACT:REG 16-07-05 03:03 OP:ak   STATUS:               ID:20160704232745     3
 2016-07-04-2327-45M.COL___328                                                 6
 STAT SP IPHASW D HRMM SECON CODA AMPLIT PERI AZIMU VELO AIN AR TRES W  DIS CAZ7
 BAR2 EZ EP       2331 32.10                             170    0.1510 24.5 192 
 BAR2 EZ ES       2331 47.22                             170   -0.2210 24.5 192 
 BAR2 EZ I        2331 48.60        97.3 0.30            170           24.5 192 
 BRR  HZ IP     C 2331 33.88                             153    0.4310 71.6 297 
 BRR  HN ES       2331 50.84                             153    0.7410 71.6 297 
 BRR  HZ I        2331 54.92        44.6 0.30            151           71.6 297 
 PAM  EZ IP     C 2331 34.87                             151    0.4610 76.0  39 
 PAM  EN ES       2331 52.27                             151    0.4610 76.0  39 
 PAM  EZ I        2331 59.63        17.2 0.40            154           76.0  39 
 RUS  HZ EP       2331 36.01                             144   -0.0710  102 177 
 RUS  HN ES       2331 54.80                             144    0.0110  102 177 
 RUS  HZ I        2331 56.12        30.6 0.28            147            102 177 
 PTB  HZ EP       2331 38.84                             132   -0.46 9  149 259 
 PTB  HN ES       2331 59.71                             132   -0.82 9  149 259 
 PTB  HZ I        2332  6.49        15.3 0.07            132            149 259 
 SPBC HZ EP       2331 40.98                             129    0.12 9  165 219 
 SPBC HN ES       2332  2.40                             129   -0.89 9  165 219 
 SPBC HZ I        2332  7.92        44.0 0.20            130            165 219 
 ZAR  HZ EP       2331 44.69                             123   -0.01 9  205 292 
 ZAR  HN ES       2332 10.08                             123   -0.05 9  205 292 
 ZAR  HZ I        2332 15.41        27.4 0.42            123            205 292 
 NOR  HZ EP       2331 48.08                             119    0.01 8  236 234 
 NOR  HN ES       2332 15.65                             119   -0.48 8  236 234 
 NOR  HZ I        2332 23.86        16.6 0.14            120            236 234 
 CHI  HZ EP       2331 50.32                             117    0.30 8  250 195 
 CHI  HN ES       2332 19.59                             117   -0.02 8  250 195 
 CHI  HZ I        2332 23.34         9.6 0.44            119            250 195 
 ROSC BZ EP   9   2331 51.70                             117    1.24 0  254 211 
 ROSC BN ES       2332 22.00                                    0.38 8  254 211 
 ROSC BZ I        2332 26.72        34.5 0.45            118            254 211 
 HEL  HZ EP   2   2331 52.34                             115   -0.18 4  273 256 
 HEL  HE ES       2332 24.37                             115    0.31 8  273 256 
 HEL  HZ I        2332 31.26         6.7 0.20            116            273 256 
 URE  HZ EP   4   2331 48.95                             114   -4.35 0  284 292 
 URE  HE ES   4   2332 23.71                             114   -1.73 0  284 292 
 URE  HZ I        2332 33.47        14.1 0.26            115            284 292 
 SOCV BZ EP       2331 54.73                             113   -0.33 7  300  57 
 SOCV BN ES       2332 27.36                             113   -1.22 7  300  57 
 GUY2CHZ EP       2331 56.66                             113    0.72 7  303 235 
 GUY2CHN ES       2332 29.65                             113   -0.48 7  303 235 
 GUY2CHZ I        2332 38.30        11.9 0.34                           303 235 
 VIL  SZ EP       2331 55.79                             112    0.07 7  305 192 
 VIL  SE ES       2332 30.13                             112    0.37 7  305 192 
 ELA  HZ EP   4   2332  2.30                             111    3.12 0  331 229 
 ELA  HE ES       2332 36.79                             111    0.89 7  331 229 
 CBOC HZ EP       2331 59.43                             110    0.21 7  335 252 
 CBOC HE ES       2332 35.04                             110   -0.94 7  335 252 
 DBB  SZ EP   2   2331 59.88                             110    0.14 3  340 274 
 ANIL HZ EP   9   2332  5.02                             109    2.89 0  359 225 
 ANIL HE ES       2332 43.69                                   -0.36 6  359 225 
 ANIL HZ I        2332 46.18        28.6 0.30            110            359 225 
 PRA  HZ EP       2332  5.33                             107   -0.50 6  393 210 
 PRA  HN ES       2332 47.72                             107   -0.03 6  393 210 
 PRA  HZ I        2332 54.34        17.4 0.25            108            393 210 
 ORTC HZ EP       2332  6.77                             107    0.53 6  397 216 
 ORTC HN ES       2332 48.76                             107    0.29 6  397 216 
 ORTC HZ I        2332 55.92         6.1 0.38            108            397 216 
 PAL  HZ EP   2   2332  7.69                             106    0.22 3  407 239 
 PAL  HN ES       2332 50.82                             106    0.16 6  407 239 
 PAL  HZ I        2332 53.48         2.3 0.36            107            407 239 
 SJC  HZ EP   9   2332  5.80                             106   -1.87 0  409 327 
 SJC  HN ES       2332 49.14                                   -0.01 6  409 327 
 SJC  HZ I        2332 55.21         4.7 0.46            107            409 327 
 CRJC HZ EP   9   2332 12.53                             104   -1.98 0  467   3 
 CRJC HE ES       2333  0.11                                   -1.10 5  467   3 
 CRJC HZ I        2333  7.50         8.4 0.15            105            467   3 
                                                                                
