 2011  7 4 2251 45.9 L   6.782 -73.078146.2  RSN  9 0.4 2.0LRSN                1
 GAP=146        0.70       3.6     5.7  5.4 -0.7348E+01  0.3668E+01  0.1906E+01E
 Epicentro: LOS SANTOS - SANTANDER                                             3
 ACTION:UPD 12-07-25 13:58 OP:epov STATUS:               ID:20110704225145 L   I
 2011-07-04-2250-36S.COL___139                                                 6
 STAT SP IPHASW D HRMM SECON CODA AMPLIT PERI AZIMU VELO AIN AR TRES W  DIS CAZ7
 BAR2 SZ IP       2252  5.46                             170   -0.1710 24.0 209 
 BAR2 SZ I        2252  6.00        15.0 0.12                          24.0 209 
 BAR2 SZ ES   1   2252 20.34                             170   -0.65 7 24.0 209 
 PAM  SZ EP       2252  8.25                             152    0.2310 74.5  34 
 PAM  SN ES   1   2252 25.63                             152    0.37 7 74.5  34 
 BRR  HZ EP       2252  7.42                             150   -0.1510 78.7 297 
 BRR  HN ES   1   2252 24.79                             150    0.35 7 78.7 297 
 BRR  HZ I        2252 27.06        23.1 0.12                          78.7 297 
 RUS  HZ EP       2252  9.38                             144   -0.1910 98.4 180 
 RUS  HZ I        2252  9.95         6.8 0.18                          98.4 180 
 RUS  HN ES   1   2252 28.39                             144    0.38 7 98.4 180 
 BRI  SZ EP       2252  9.98                             141    0.1610  108  17 
 GRA  SZ ES   1   2252 30.62                             137   -0.30 7  126  14 
 GRA  SZ I        2252 32.06        13.9 0.30                           126  14 
 OCA  SZ ES   3   2252 35.36                             129   -1.52 2  163 351 
 CHI  HZ EP   3   2252 22.67                             117   -1.00 2  249 197 
 RREF HZ EP       2252 32.84                             110    0.24 7  326 230 
 RREF HN ES   2   2253  9.33                             110    0.33 3  326 230 
 RREF HZ I        2253 17.64         6.8 0.56                           326 230 
                                                                                
