 2010  6 4 2152 31.7 L   6.744 -73.060139.4  RSN  6 0.6 2.1LRSN                1
 GAP=206        0.94      10.0    14.5 11.3 -0.1169E+03  0.3838E+02  0.8665E+01E
 Epicentro: JORDAN - SANTANDER                                                 3
 ACTION:UP  10-08-24 10:08 OP:vdl  STATUS:               ID:20100604215231 L   I
 2010-06-04-2150-44S.COL___109                                                 6
 STAT SP IPHASW D HRMM SECON CODA AMPLIT PERI AZIMU VELO SNR AR TRES W  DIS CAZ7
 BAR2 SZ EP   1   2152 50.58                             171     0.0 8   22 219 
 BAR2 SZ ES   2   2153  5.22                             171     0.0 5   22 219 
 GUE  SZ EP   1   2152 55.42                             137    -0.8 8  121   7 
 GUE  SZ ES   2   2153 14.37                             137    -1.0 5  121   7 
 GRA  SZ EP       2152 57.10                             135     0.410  129  13 
 GRA  SZ ES   1   2153 16.73                             135     0.5 7  129  13 
 HEL  HZ EP   2   2153 12.59                             113     0.1 4  280 258 
 HEL  HN ES   2   2153 44.41                             113     0.1 4  280 258 
 RREF BZ EP   1   2153 19.00                             109     1.0 5  325 231 
 RREF BE ES   2   2153 53.94                             109    -0.1 4  325 231 
 RREF BZ I        2154  3.68         5.7 0.29                           325 231 
 TOL  SZ EP       2153 19.36                             108    -0.7 7  346 226 
 TOL  SZ ES   2   2153 58.01                             108     0.3 3  346 226 
                                                                                
