 2014 10 4 2035 48.5 L   6.464 -73.594  4.0  RSN  5 0.4 0.9LRSN                1
 GAP=137        0.95       3.0     2.5  6.9  0.9741E+00 -0.1404E+01 -0.4173E+01E
 Epicentro: SANTA HELENA DEL OPON - SANTANDER                                  3
 ACTION:UPD 14-11-29 23:46 OP:nd   STATUS:               ID:20141004203548 L   I
 OLDACT:REG 14-10-05 06:48 OP:spq  STATUS:               ID:20141004202750     3
 2014-10-04-2027-50M.COL___286                                                 6
 STAT SP IPHASW D HRMM SECON CODA AMPLIT PERI AZIMU VELO AIN AR TRES W  DIS CAZ7
 BAR2 SZ EP       2035 56.98                              47    0.4310 47.7  73 
 BAR2 SZ ES   1   2036  2.41                              47   -0.44 7 47.7  73 
 BAR2 SZ I        2036  3.18         4.0 0.10             47           47.7  73 
 BRR  HZ EP   1   2036  0.59                              47    0.56 7 72.3 350 
 BRR  HE ES       2036  9.00                              47   -0.0410 72.3 350 
 BRR  HZ I        2036 12.56         8.0 0.43             47           72.3 350 
 RUS  HZ EP   2   2036  2.95                              47    0.51 5 84.8 138 
 RUS  HE ES   1   2036 12.98                              47   -0.34 7 84.8 138 
 RUS  HZ I        2036 14.55         3.1 0.18             47           84.8 138 
 PTB  HZ EP   1   2036  3.97                              47    0.37 7 95.7 275 
 PTB  HN ES   1   2036 14.64                              47   -0.75 7 95.7 275 
 PTB  HZ I        2036 15.69         4.0 0.15             47           95.7 275 
 PAM  SZ EP   1   2036 10.97                              47    0.42 7  138  46 
 PAM  SE ES       2036 27.33                              47   -0.43 9  138  46 
 PAM  SZ I        2036 32.68         2.5 0.26             47            138  46 
                                                                                
