 2011  7 4 2226 50.2 L   6.764 -73.123140.9  RSN  6 0.3 2.0LRSN                1
 GAP=141        0.43       3.4     4.7  5.2 -0.2888E+01  0.1895E+01 -0.1009E+00E
 Epicentro: LOS SANTOS - SANTANDER                                             3
 ACTION:UPD 12-07-25 13:58 OP:epov STATUS:               ID:20110704222650 L   I
 2011-07-04-2224-39S.COL___139                                                 6
 STAT SP IPHASW D HRMM SECON CODA AMPLIT PERI AZIMU VELO AIN AR TRES W  DIS CAZ7
 BAR2 SZ ES   2   2227 23.86                             172   -0.18 5 20.1 199 
 BAR2 SZ I        2227 25.20        21.2 0.26                          20.1 199 
 BRR  HZ IP       2227 10.97                             150   -0.1510 75.3 300 
 BRR  HZ I        2227 11.12        30.4 0.16                          75.3 300 
 BRR  HN ES   2   2227 27.90                             150    0.50 5 75.3 300 
 PAM  SZ EP       2227 12.19                             149    0.1410 79.0  36 
 PAM  SN ES   1   2227 29.02                             149   -0.03 7 79.0  36 
 RUS  HZ EP   1   2227 13.33                             144    0.11 7 96.5 177 
 RUS  HN ES   2   2227 30.97                             144   -0.18 5 96.5 177 
 BRI  SZ EP   2   2227 13.76                             140   -0.14 5  111  19 
 OCA  SZ ES   3   2227 39.87                             128   -0.83 2  165 352 
 OCA  SZ I        2227 44.26        10.7 0.20                           165 352 
                                                                                
