 2017 11 4 2343 16.3 L   6.819 -73.161147.6  RSN  4 0.4 1.3LRSN                1
 GAP=243        0.91       9.0     6.9  8.2  0.4078E+02  0.1136E+01 -0.2425E+02E
 Epicentro: LOS SANTOS - SANTANDER                                             3
 ACTION:UPD 17-12-12 19:52 OP:rebc STATUS:               ID:20171104234316 L   I
 OLDACT:REG 17-11-05 06:44 OP:edw  STATUS:               ID:20171104233738     3
 2017-11-04-2338-00M.COL___432                                                 6
 STAT SP IPHASW D HRMM SECON CODA AMPLIT PERI AZIMU VELO AIN AR TRES W  DIS CAZ7
 BAR2 EZ EP       2343 36.35                             170    0.1810 25.2 185 
 BAR2 EZ ES       2343 51.61                             170   -0.0710 25.2 185 
 BAR2 EZ I        2343 54.16         4.6 0.44            174           25.2 185 
 RUS  HZ EP       2343 40.84                             144    0.4610  103 175 
 RUS  HN ES       2343 58.85                             144   -0.3110  103 175 
 RUS  HZ I        2343 59.89         2.4 0.28            149            103 175 
 PTB  HZ EP       2343 43.32                             133    0.03 9  147 258 
 PTB  HN ES       2344  4.36                             133    0.00 9  147 258 
 PTB  HZ I        2344  6.56         2.0 0.14            135            147 258 
 ZAR  HZ EP       2343 47.83                             123   -0.78 9  202 292 
 ZAR  HN ES       2344 14.23                             123    0.40 9  202 292 
 ZAR  HZ I        2344 20.09         3.6 0.52            125            202 292 
                                                                                
