 2012 12 4 2206 11.2 L   6.786 -73.180144.0  RSN  5 0.3 1.8LRSN                1
 GAP=133        0.58       3.5     4.3  6.2 -0.5055E+01  0.8663E+01 -0.2502E+00E
 Epicentro: LOS SANTOS - SANTANDER                                             3
 ACTION:UPD 13-01-04 14:25 OP:ep   STATUS:               ID:20121204220611 L   I
 2012-12-04-2200-00M.COL___237                                                 6
 STAT SP IPHASW D HRMM SECON CODA AMPLIT PERI AZIMU VELO AIN AR TRES W  DIS CAZ7
 GIR2 SZ EP   1   22 6 31.25                             167    0.53 7 32.4 357 
 PAM  SZ EP       22 6 33.40                             149   -0.0810 81.1  41 
 PAM  SZ I        22 6 33.67        15.0 0.17                          81.1  41 
 PAM  SN ES       22 6 50.80                             149   -0.0410 81.1  41 
 RUS  HZ EP       22 6 34.42                             144   -0.2910 99.3 174 
 RUS  HN ES       22 6 53.15                             144    0.1210 99.3 174 
 RUS  HN I        22 6 54.84         9.7 0.22                          99.3 174 
 PTB  HZ EP   1   22 6 37.58                             132   -0.10 7  144 259 
 PTB  HN ES   1   22 6 58.21                             132   -0.11 7  144 259 
 PTB  HZ I        22 7  4.57         7.2 0.28                           144 259 
 PRA  HZ EP   1   22 7  4.81                             106    0.51 4  389 209 
 PRA  HZ I        22 7 51.81         2.6 0.38                           389 209 
                                                                                
