 2011 12 4 2255 13.3 L   6.768 -73.111140.6  RSN  5 0.2 1.4LRSN                1
 GAP=142        0.47       3.2     4.8  5.2 -0.1951E+00 -0.1715E+01  0.1427E+01E
 Epicentro: LOS SANTOS - SANTANDER                                             3
 ACTION:UPD 12-07-13 16:14 OP:ep   STATUS:               ID:20111204225513 L   I
 2011-12-04-2250-00M.COL___181                                                 6
 STAT SP IPHASW D HRMM SECON CODA AMPLIT PERI AZIMU VELO AIN AR TRES W  DIS CAZ7
 BAR2 SZ ES   2   2255 47.15                             171    0.09 5 21.0 202 
 BAR2 SZ I        2255 52.32         6.0 0.33                          21.0 202 
 GIR2 SZ EP   1   2255 32.22                             165   -0.27 7 35.5 345 
 GIR2 SZ ES   2   2255 47.03                             165   -0.42 5 35.5 345 
 BRR  HZ EP   1   2255 34.06                             150   -0.14 7 76.2 299 
 BRR  HZ I        2255 50.18         8.2 0.46                          76.2 299 
 BRR  HE ES   1   2255 50.72                             150    0.23 7 76.2 299 
 PAM  SZ EP   1   2255 35.00                             150    0.00 7 77.8  36 
 PAM  SE ES   1   2255 52.09                             150    0.17 7 77.8  36 
 PAM  SZ I        2255 54.21         2.3 0.53                          77.8  36 
 RUS  HZ EP   1   2255 36.60                             144    0.32 7 96.9 178 
 RUS  HN ES   1   2255 54.05                             144   -0.16 7 96.9 178 
 RUS  HZ I        2255 55.05         3.4 0.57                          96.9 178 
                                                                                
