 2015  4 4 2319 35.7 L   6.843 -73.136140.9  RSN 20 0.5 2.3LRSN                1
 GAP= 70        1.71       4.1     4.1  7.3 -0.4321E+01  0.5730E+01  0.2113E+01E
 Epicentro: LOS SANTOS - SANTANDER                                             3
     108.0      35.0    -109.0 35.0  6.0 30.0  0.1  0.2           RSN FPFIT    F
 ACTION:UPD 15-06-03 16:52 OP:cam  STATUS:               ID:20150404231935 L   I
 OLDACT:REG 15-04-05 03:05 OP:stll STATUS:               ID:20150404231750     3
 2015-04-04-2317-50M.COL___285                                                 6
 STAT SP IPHASW D HRMM SECON CODA AMPLIT PERI AZIMU VELO AIN AR TRES W  DIS CAZ7
 BAR2 EZ IP     D 2319 55.02                             168    0.1310 28.2 191 
 BAR2 EZ ES       2320  9.90                             168    0.0710 28.2 191 
 BAR2 EZ I        2320 10.97        47.7 0.36            169           28.2 191 
 BRR  HZ IP     D 2319 56.84                             152    0.5510 70.1 295 
 BRR  HN ES       2320 13.27                             152    0.9510 70.1 295 
 BRR  HZ I        2320 16.91        28.4 0.28            151           70.1 295 
 PAM  SZ EP       2319 57.89                             151    0.7210 73.0  41 
 PAM  SN ES       2320 13.94                             151    0.0510 73.0  41 
 PAM  SZ I        2320 16.92        42.3 0.50            154           73.0  41 
 RUS  HZ EP       2319 59.02                             141   -0.3410  105 177 
 RUS  HN ES       2320 17.70                             141   -0.0810  105 177 
 RUS  HZ I        2320 18.55        19.4 0.32            144            105 177 
 PTB  HZ EP       2320  1.77                             130   -0.73 9  150 257 
 PTB  HN ES       2320 22.10                             130   -1.27 9  150 257 
 PTB  HZ I        2320 30.02        21.2 0.26            131            150 257 
 TAM  HZ IP     D 2320  3.34                             129    0.29 9  155 107 
 TAM  HZ I        2320  3.56        30.0 0.38            133            155 107 
 TAM  HN ES       2320 24.41                             129    0.06 9  155 107 
 OCA  HZ EP     D 2320  3.07                             129   -0.16 9  156 353 
 OCA  HN ES       2320 24.70                             129    0.02 9  156 353 
 OCA  HZ I        2320 28.36        51.1 0.26            131            156 353 
 SPBC HZ IP     C 2320  4.17                             127   -0.12 9  168 218 
 SPBC HE ES       2320 25.75                             127   -0.81 9  168 218 
 SPBC HZ I        2320 28.58        33.3 0.16            129            168 218 
 ZAR  HZ EP       2320  8.37                             121    0.58 9  203 291 
 ZAR  HE ES       2320 33.41                             121    0.61 9  203 291 
 ZAR  HZ I        2320 38.75        22.8 0.52            122            203 291 
 NOR  HZ EP     D 2320 11.40                             117   -0.18 8  238 234 
 NOR  HE ES       2320 39.41                             117   -0.13 8  238 234 
 NOR  HZ I        2320 45.06        16.2 0.14            118            238 234 
 SML  HZ EP       2320 11.43                             117   -0.24 8  240 335 
 SML  HN ES       2320 39.08                             117   -0.62 8  240 335 
 SML  HZ I        2320 42.23        23.4 0.26            118            240 335 
 HEL  HZ EP       2320 16.41                             113    0.45 8  274 255 
 HEL  HE ES       2320 47.37                             113    0.04 8  274 255 
 HEL  HZ I        2320 53.98        10.4 0.32            115            274 255 
 SOCV BZ EP     C 2320 17.85                             111   -0.31 7  298  57 
 SOCV BN ES       2320 49.91                             111   -1.34 7  298  57 
 GUY2CHZ EP     C 2320 19.57                             111    0.03 7  305 234 
 GUY2CHN ES       2320 53.87                             111    0.17 7  305 234 
 GUY2CHZ I        2321  1.53        11.4 0.46                           305 234 
 RREF HN EP       2320 22.32                             110    0.20 7  326 229 
 RREF HE ES       2320 59.07                             110    0.77 7  326 229 
 CBOC HZ EP       2320 23.54                             109    0.80 7  336 251 
 CBOC HZ I        2320 24.10         5.0 0.24            110            336 251 
 TOL  SZ EP       2320 24.27                             108   -0.01 6  348 224 
 TOL  SN ES       2321  1.50                             108   -0.64 6  348 224 
 ORTC HZ EP       2320 30.70                             105    0.68 6  400 216 
 ORTC HE ES       2321 11.94                             105   -0.42 6  400 216 
 ORTC HZ I        2321 19.49         7.2 0.26            107            400 216 
 SJC  HZ IP   9 C 2320 29.58                             105   -1.16 0  406 326 
 SJC  HN ES       2321  9.33                                   -3.16 6  406 326 
 SJC  HZ I        2321 14.98         4.2 0.44            106            406 326 
 CRJC HZ EP   9   2320 35.41                             103   -2.12 0  463   3 
 CRJC HN ES       2321 19.57                                   -4.04 5  463   3 
                                                                                
