 2015 12 4 2309 25.1 L   6.796 -73.160142.6  RSN  9 0.4 2.0LRSN                1
 GAP=135        1.00       3.5     4.0  5.8 -0.4701E+00  0.7487E+01 -0.1952E+01E
 Epicentro: LOS SANTOS - SANTANDER                                             3
 ACTION:UPD 16-02-04 15:02 OP:cam  STATUS:               ID:20151204230925 L   I
 OLDACT:REG 15-12-05 04:48 OP:ak   STATUS:               ID:20151204225748     3
 2015-12-04-2257-48M.COL___313                                                 6
 STAT SP IPHASW D HRMM SECON CODA AMPLIT PERI AZIMU VELO AIN AR TRES W  DIS CAZ7
 BAR2 EZ EP       23 9 44.32                             171    0.0110 22.7 186 
 BAR2 EZ ES       23 9 59.30                             171   -0.0110 22.7 186 
 BAR2 EZ I        2310  0.09        17.0 0.18            171           22.7 186 
 BRR  HZ EP       23 9 46.23                             152    0.4210 70.0 299 
 BRR  HN ES       2310  1.85                             152   -0.1410 70.0 299 
 BRR  HZ I        2310  7.82        16.6 0.09            149           70.0 299 
 PAM  EZ EP       23 9 47.26                             150    0.2210 78.7  40 
 PAM  EN ES       2310  4.41                             150    0.2510 78.7  40 
 PAM  EZ I        2310  6.18        18.6 0.64            153           78.7  40 
 RUS  HZ EP       23 9 48.09                             143   -0.4010  100 175 
 RUS  HN ES       2310  6.78                             143    0.0310  100 175 
 RUS  HZ I        2310  8.02         4.9 0.26            147            100 175 
 PTB  HZ EP       23 9 51.37                             132   -0.26 9  146 259 
 PTB  HN ES       2310 11.59                             132   -0.76 9  146 259 
 PTB  HZ I        2310 14.30        13.0 0.26            131            146 259 
 ZAR  HZ EP       23 9 57.81                             122    0.63 9  203 292 
 ZAR  HN ES       2310 22.68                             122    0.46 9  203 292 
 ZAR  HZ I        2310 31.10        17.1 0.50            122            203 292 
 NOR  HZ EP       2310  0.83                             118    0.38 8  233 234 
 NOR  HN ES       2310 28.47                             118    0.42 8  233 234 
 NOR  HZ I        2310 35.28         5.2 0.22            119            233 234 
 SML  HZ EP       2310  0.70                             117   -0.80 8  243 336 
 SML  HN ES       2310 29.59                             117   -0.32 8  243 336 
 SML  HZ I        2310 36.08        14.2 0.12            118            243 336 
 SOCV BZ EP   4   2310  3.61                             111   -4.55 0  303  57 
 SOCV BE ES   4   2310 38.02                             111   -3.74 0  303  57 
 PRA  HZ EP   2   2310 17.23                             106   -1.12 3  391 209 
 PRA  HN ES   4   2311  2.05                             106    2.15 0  391 209 
                                                                                
