 2012  5 4 2239 11.6 L   6.930 -73.164140.0  RSN  5 0.3 1.9LRSN                1
 GAP=127        0.78       5.7     5.3  7.8 -0.3488E+01  0.6520E+01  0.3076E+01E
 Epicentro: BETULIA - SANTANDER                                                3
 ACTION:UP  12-07-05 12:02 OP:pat  STATUS:               ID:20120504223911 L   I
 2012-05-04-2236-45M.COL___191                                                 6
 STAT SP IPHASW D HRMM SECON CODA AMPLIT PERI AZIMU VELO SNR AR TRES W  DIS CAZ7
 BAR2 SZ ES   1   2239 45.99                             164    -0.1 7   37 183 
 BAR2 SZ I        2239 47.25        21.9 0.14                            37 183 
 BRR  HZ EP   1   2239 32.03                             154     0.3 7   64 288 
 BRR  HZ I        2239 34.11        22.5 0.11                            64 288 
 BRR  HN ES   1   2239 48.00                             154     0.6 7   64 288 
 PAM  SZ EP   1   2239 32.92                             153     0.2 7   68  49 
 PAM  SN ES   1   2239 48.66                             153    -0.5 7   68  49 
 RUS  HZ EP   1   2239 36.11                             139     0.1 7  115 176 
 RUS  HN ES   1   2239 55.03                             139     0.1 7  115 176 
 PTB  HZ EP   1   2239 37.98                             130    -0.3 7  149 253 
 PTB  HZ I        2239 38.79         5.4 0.21                           149 253 
 PTB  HN ES   1   2239 58.62                             130    -0.5 7  149 253 
                                                                                
