 2013  3 4 2248 22.2 L   6.787 -73.158145.5  RSN  6 0.4 1.6LRSN                1
 GAP=136        0.79       5.3     4.7  7.7  0.2247E+01  0.6991E+01  0.6741E+00E
 Epicentro: LOS SANTOS - SANTANDER                                             3
 ACTION:UPD 13-04-09 13:59 OP:ep   STATUS:               ID:20130304224822 L   I
 2013-03-04-2240-00M.COL___228                                                 6
 STAT SP IPHASW D HRMM SECON CODA AMPLIT PERI AZIMU VELO AIN AR TRES W  DIS CAZ7
 BAR2 SZ EP   1   2248 41.75                             171    0.00 7 21.7 187 
 BAR2 SZ ES   1   2248 56.95                             171   -0.06 7 21.7 187 
 BAR2 SZ I        2249  2.68        10.0 0.24            172           21.7 187 
 BRR  HZ EP   1   2248 43.48                             153    0.20 7 70.7 300 
 BRR  HE ES   1   2249  0.40                             153    0.67 7 70.7 300 
 BRR  HZ I        2249  3.76         7.5 0.49            156           70.7 300 
 PAM  SZ EP   1   2248 44.70                             150    0.21 7 79.4  40 
 PAM  SN ES   1   2249  1.27                             150   -0.62 7 79.4  40 
 PAM  SZ I        2249  3.35         5.7 0.18            155           79.4  40 
 RUS  HZ EP   1   2248 46.05                             144    0.24 7 99.2 175 
 RUS  HN ES   1   2249  4.41                             144    0.17 7 99.2 175 
 PTB  HZ EP   1   2248 48.52                             132   -0.46 7  146 259 
 PTB  HN ES   1   2249  9.21                             132   -0.67 7  146 259 
 PTB  HZ I        2249 11.12         8.2 0.40            137            146 259 
 ZAR  HE ES   1   2249 20.03                             122    0.26 6  203 293 
                                                                                
