 2012  1 4 2202 33.8 L   6.853 -73.131143.6  RSN  6 0.3 1.7LRSN                1
 GAP=136        0.63       5.5     3.7  7.8 -0.2804E+01  0.2256E+01  0.8286E+01E
 Epicentro: LOS SANTOS - SANTANDER                                             3
 ACTION:UP  12-02-03 08:14 OP:REBC STATUS:               ID:20120104220233 L   I
 2012-01-04-2200-00M.COL___189                                                 6
 STAT SP IPHASW D HRMM SECON CODA AMPLIT PERI AZIMU VELO SNR AR TRES W  DIS CAZ7
 BAR2 SZ EP   2   22 2 53.16                             168    -0.2 5   29 191 
 BAR2 SZ I        22 3 17.41         4.4 0.17                            29 191 
 BRR  HZ EP   2   22 2 55.02                             152     0.3 5   70 294 
 BRR  HE ES   1   22 3 11.38                             152     0.4 7   70 294 
 BRR  HE I        22 3 13.88        17.0 0.18                            70 294 
 PAM  SZ EP       22 2 55.71                             152     0.210   72  42 
 PAM  SE ES   1   22 3 11.94                             152    -0.5 7   72  42 
 RUS  HZ EP   2   22 2 57.93                             142     0.1 5  106 177 
 RUS  HE ES   2   22 3 16.63                             142     0.1 5  106 177 
 PTB  HZ EP   1   22 3  0.60                             131    -0.3 7  151 257 
 PTB  HE ES   1   22 3 21.70                             131    -0.3 7  151 257 
 ZAR  HE ES   1   22 3 31.20                             122     0.0 6  203 290 
 ZAR  HZ I        22 3 36.85         6.0 0.35                           203 290 
                                                                                
