 2015  5 4 2210 27.4 L   6.600 -73.745 88.1  RSN 13 0.5 1.9LRSN                1
 GAP= 52        1.10       2.3     2.8  6.9 -0.6399E+00  0.8823E+01  0.1196E+01E
 Epicentro: EL CARMEN - SANTANDER                                              3
 ACTION:UPD 15-09-10 22:01 OP:cam  STATUS:               ID:20150504220749 L   I
 OLDACT:UPD 15-05-05 02:54 OP:AK   STATUS:               ID:20150504220749 L   3
 2015-05-04-2207-49M.COL___274                                                 6
 STAT SP IPHASW D HRMM SECON CODA AMPLIT PERI AZIMU VELO AIN AR TRES W  DIS CAZ7
 BRR  HZ EP       2210 41.44                             145   -0.0810 56.2   4 
 BRR  HE ES       2210 52.74                             145    0.1710 56.2   4 
 BRR  HZ I        2210 55.45        29.1 0.15            146           56.2   4 
 BAR2 EZ IP     D 2210 42.62                             142    0.3210 62.3  91 
 BAR2 EZ ES       2210 54.25                             142    0.2910 62.3  91 
 BAR2 EZ I        2210 55.31        24.5 0.18            144           62.3  91 
 RUS  HZ EP       2210 46.43                             126   -0.2410  107 137 
 RUS  HE ES       2211  1.57                             126   -0.1710  107 137 
 SPBC HZ EP       2210 46.02                             124   -0.5010  111 199 
 SPBC HN ES       2211  1.12                             124   -0.3410  111 199 
 SPBC HZ I        2211  5.79        18.2 0.18            126            111 199 
 PAM  SZ EP       2210 50.49                             117    0.20 9  142  55 
 PAM  SN ES       2211  8.18                             117    0.01 9  142  55 
 PAM  SZ I        2211 12.27         8.5 0.21            119            142  55 
 ZAR  HZ EP       2210 51.52                             114    0.06 9  158 309 
 ZAR  HN ES       2211 10.79                             114    0.53 9  158 309 
 ZAR  HZ I        2211 13.81        19.7 0.35            115            158 309 
 NOR  HZ EP       2210 53.65                             113    0.83 9  169 227 
 NOR  HN ES       2211 12.03                             113   -0.65 9  169 227 
 NOR  HZ I        2211 13.82        11.7 0.14            114            169 227 
 HEL  HZ EP   2   2210 57.16                             109    0.10 4  202 257 
 HEL  HN ES       2211 20.08                             109   -0.15 9  202 257 
 HEL  HZ I        2211 22.53         8.3 0.24            110            202 257 
 CHI  HZ EP       2210 59.66                             107    0.73 8  218 180 
 CHI  HN ES       2211 22.82                             107   -0.74 8  218 180 
 CHI  HZ I        2211 31.39         4.9 0.31            108            218 180 
 GUY2CHZ EP       2211  1.19                             106    0.14 8  235 230 
 GUY2CHN ES       2211 27.96                             106    0.62 8  235 230 
 GUY2CHZ I        2211 33.22         5.0 0.29                           235 230 
 SML  HZ EP   1   2211  0.87                             105   -0.88 6  246 352 
 SML  HN ES       2211 28.13                             105   -0.45 8  246 352 
 SML  HZ I        2211 35.46        17.7 0.10            106            246 352 
 RREF HZ EP       2211  4.74                             104    0.72 8  258 223 
 RREF HN ES       2211 32.46                             104   -0.16 8  258 223 
 RREF HZ I        2211 37.70         2.8 0.24            105            258 223 
 MON  HN ES       2211 43.64                             101   -0.95 7  321 319 
 SJC  HZ EP   4   2211 18.71                              99   -1.43 0  397 337 
 SJC  HN ES   4   2211 54.90                              99   -6.42 0  397 337 
                                                                                
