 2010  7 4 2358 12.9 L   6.870 -73.272122.7  RSN  4 0.1 1.5LRSN                1
 GAP=164        0.40       2.9     6.4  4.3  0.1241E+02 -0.1469E+02 -0.4664E+01E
 Epicentro: BETULIA - SANTANDER                                                3
 ACTION:UPD 10-12-01 15:15 OP:pat  STATUS:               ID:20100704235812 L   I
 2010-07-04-2354-29S.COL___118                                                 6
 STAT SP IPHASW D HRMM SECON CODA AMPLIT PERI AZIMU VELO AIN AR TRES W  DIS CAZ7
 BAR2 SZ IP       2358 30.16                             164     0.210   32 162 
 BAR2 SZ ES   1   2358 43.15                             164    -0.2 7   32 162 
 BRR  HZ EP   1   2358 30.46                             154    -0.2 7   55 298 
 BRR  HE ES       2358 44.55                             154     0.110   55 298 
 BRR  HZ I        2358 45.72        11.1 0.15                            55 298 
 RUS  HZ EP       2358 35.18                             136     0.010  110 169 
 RUS  HE ES   1   2358 52.72                             136     0.1 7  110 169 
 RUS  HZ I        2358 53.92         2.3 0.11                           110 169 
 OCA  SZ EP   1   2358 38.54                             125    -0.1 7  151 358 
 OCA  SZ ES   2   2358 58.80                             125     0.1 5  151 358 
 OCA  SZ I        2359  4.53         7.4 0.22                           151 358 
                                                                                
