 2017 10 4 2237  2.1 L   6.833 -73.162148.1  RSN  6 0.4 1.4LRSN                1
 GAP=133        1.01       4.5     6.3  8.1  0.5440E-01  0.1577E+02  0.7601E+01E
 Epicentro: LOS SANTOS - SANTANDER                                             3
 ACTION:UPD 17-11-07 19:28 OP:rebc STATUS:               ID:20171004223702 L   I
 OLDACT:UP  17-10-05 08:19 OP:edw  STATUS:               ID:20171004222742d    3
 OLDACT:UP  17-10-05 08:15 OP:edw  STATUS:               ID:20171004222742d    3
 OLDACT:DUP 17-10-05 06:56 OP:edw  STATUS:               ID:20171004222742d    3
 OLDACT:UP  17-10-05 06:55 OP:edw  STATUS:               ID:20171004222741     3
 OLDACT:REG 17-10-05 04:53 OP:edw  STATUS:               ID:20171004222741     3
 2017-10-04-2228-00M.COL___444                                                 6
 STAT SP IPHASW D HRMM SECON CODA AMPLIT PERI AZIMU VELO AIN AR TRES W  DIS CAZ7
 BAR2 EZ EP       2237 21.69                             169   -0.3510 26.7 185 
 BAR2 EZ ES       2237 38.01                             169    0.3910 26.7 185 
 BAR2 EZ I        2237 38.52         7.4 0.48            168           26.7 185 
 PAM  EZ EP     C 2237 24.76                             152    0.3310 75.8  42 
 PAM  EN ES       2237 41.94                             152    0.0610 75.8  42 
 PAM  EZ I        2237 44.03         3.7 0.50            153           75.8  42 
 RUS  HZ EP       2237 26.04                             143   -0.2710  104 175 
 RUS  HN ES       2237 44.62                             143   -0.6010  104 175 
 RUS  HZ I        2237 45.74         3.2 0.32            143            104 175 
 ZAR  HN ES       2237 59.38                             123   -0.14 9  201 291 
 CHI  HZ EP       2237 40.22                             117    0.01 8  252 195 
 CHI  HE ES       2238 10.83                             117    0.86 8  252 195 
 CHI  HZ I        2238 14.98         1.4 0.20            117            252 195 
 GUY2CHZ EP   4   2237 47.71                             113    1.87 0  302 234 
 GUY2CHE ES   4   2238 22.06                             113    2.07 0  302 234 
 GUY2CHZ I        2238 27.98         1.7 0.46                           302 234 
                                                                                
