 2015 12 4 2325 31.9 L   6.804 -73.147146.0  RSN  8 0.4 1.7LRSN                1
 GAP=201        0.94       3.4     5.3  6.0  0.5665E+00  0.5937E+01 -0.2501E+00E
 Epicentro: LOS SANTOS - SANTANDER                                             3
 ACTION:UPD 16-02-04 15:02 OP:cam  STATUS:               ID:20151204232531 L   I
 OLDACT:REG 15-12-05 04:50 OP:ak   STATUS:               ID:20151204231748     3
 2015-12-04-2317-48M.COL___313                                                 6
 STAT SP IPHASW D HRMM SECON CODA AMPLIT PERI AZIMU VELO AIN AR TRES W  DIS CAZ7
 BAR2 EZ EP       2325 51.44                             170   -0.1010 23.8 190 
 BAR2 EZ ES       2326  6.86                             170   -0.0210 23.8 190 
 BAR2 EZ I        2326  9.25         9.9 0.31            171           23.8 190 
 BRR  HZ EP       2325 53.55                             153    0.5210 70.9 298 
 BRR  HN ES       2326 10.11                             153    0.5810 70.9 298 
 RUS  HZ EP       2325 55.37                             144   -0.3110  101 176 
 RUS  HN ES       2326 14.24                             144   -0.0110  101 176 
 RUS  HZ I        2326 15.29         5.8 0.24            145            101 176 
 PTB  HZ EP       2325 58.05                             132   -0.81 9  148 259 
 PTB  HN ES       2326 19.37                             132   -0.54 9  148 259 
 PTB  HZ I        2326 21.10         2.9 0.16            133            148 259 
 SPBC HZ EP       2326  0.68                             129    0.26 9  163 219 
 SPBC HN ES       2326 22.67                             129   -0.01 9  163 219 
 SPBC HZ I        2326 25.25        12.5 0.18            130            163 219 
 NOR  HZ EP   2   2326  8.06                             119    0.42 4  235 234 
 NOR  HE ES       2326 36.03                             119    0.50 8  235 234 
 NOR  HZ I        2326 37.53         2.5 0.08            120            235 234 
 SML  HZ EP   1   2326  8.61                             118    0.15 6  243 335 
 SML  HE ES       2326 36.66                             118   -0.34 8  243 335 
 SML  HZ I        2326 39.63         4.6 0.06            119            243 335 
 PRA  HZ EP   2   2326 25.95                             107    0.51 3  392 210 
 PRA  HN ES       2327  7.28                             107    0.05 6  392 210 
                                                                                
