 2017 10 4 2203 40.9 L   6.701 -74.054 11.0  RSN  4 0.0 1.0LRSN                1
 GAP=185        0.31       3.6     3.2  5.6  0.1103E+02 -0.1603E+02 -0.1809E+02E
 Epicentro: PUERTO PARRA - SANTANDER                                           3
 ACTION:UPD 17-11-07 19:28 OP:rebc STATUS:               ID:20171004220340 L   I
 OLDACT:REG 17-10-05 04:50 OP:edw  STATUS:               ID:20171004215741     3
 2017-10-04-2158-00M.COL___444                                                 6
 STAT SP IPHASW D HRMM SECON CODA AMPLIT PERI AZIMU VELO AIN AR TRES W  DIS CAZ7
 BAR2 EZ EP       22 3 56.51                              94    0.0010 97.1  97 
 ZAR  HN ES       22 4 15.66                              93   -0.0010  125 315 
 RUS  HZ EP       22 4  3.24                              93    0.02 9  140 130 
 RUS  HN ES       22 4 20.60                              93   -0.02 9  140 130 
 RUS  HZ I        22 4 23.00         1.7 0.22             47            140 130 
 PAM  EN ES       22 4 27.06                              56   -0.00 9  165  65 
 PAM  EZ I        22 4 30.20         2.2 0.26             47            165  65 
                                                                                
