 2017 11 4 2324 26.7 L   6.734 -73.231148.5  RSN  4 0.3 1.1LRSN                1
 GAP=213        0.90       7.1     6.6  7.3  0.2280E+02  0.5659E+01  0.2613E+01E
 Epicentro: VILLANUEVA - SANTANDER                                             3
 ACTION:UPD 17-12-12 19:52 OP:rebc STATUS:               ID:20171104232426 L   I
 OLDACT:UP  17-11-05 10:11 OP:edw  STATUS:               ID:20171104231740     3
 OLDACT:REG 17-11-05 06:42 OP:edw  STATUS:               ID:20171104231740     3
 2017-11-04-2318-00M.COL___435                                                 6
 STAT SP IPHASW D HRMM SECON CODA AMPLIT PERI AZIMU VELO AIN AR TRES W  DIS CAZ7
 BAR2 EZ EP       2324 46.19                             173   -0.3910 16.6 161 
 BAR2 EZ ES       2325  1.59                             173   -0.4710 16.6 161 
 BAR2 EZ I        2325  2.08         4.7 0.30            174           16.6 161 
 BRR  HZ EP       2324 48.23                             154    0.2610 67.3 308 
 BRR  HN ES       2325  4.93                             154    0.3910 67.3 308 
 BRR  HZ I        2325  8.81         4.3 0.38            153           67.3 308 
 RUS  HZ EP       2324 50.29                             146   -0.0410 94.5 170 
 RUS  HN ES       2325  9.21                             146    0.4710 94.5 170 
 RUS  HZ I        2325  9.95         1.9 0.30            148           94.5 170 
 PTB  HZ EP       2324 53.06                             135    0.06 9  137 261 
 PTB  HN ES       2325 13.18                             135   -0.30 9  137 261 
 PTB  HZ I        2325 17.11         0.9 0.32            134            137 261 
                                                                                
