 2017  8 4 2005 30.0 L   6.741 -73.568 99.7  RSN  6 0.4 1.4LRSN                1
 GAP=107        1.11       4.9     4.7  7.9  0.7415E+01 -0.2971E+01 -0.3480E+00E
 Epicentro: EL CARMEN - SANTANDER                                              3
 ACTION:UPD 17-09-04 20:16 OP:rebc STATUS:               ID:20170804200530 L   I
 OLDACT:DUP 17-08-05 04:50 OP:lv   STATUS:               ID:20170804195750d    3
 2017-08-04-1958-00M.COL___384                                                 6
 STAT SP IPHASW D HRMM SECON CODA AMPLIT PERI AZIMU VELO AIN AR TRES W  DIS CAZ7
 BRR  HN ES       20 5 55.92                             155   -0.0910 43.5 339 
 BAR2 EZ EP       20 5 45.61                             154    0.5210 45.7 111 
 BAR2 EZ ES       20 5 57.32                             154    0.4710 45.7 111 
 BAR2 EZ I        20 5 58.49        16.7 0.12            153           45.7 111 
 PTB  HZ EP   9   20 5 48.42                             131   -0.54 0  101 257 
 PTB  HN ES       20 6  2.95                                   -0.2510  101 257 
 PTB  HZ I        20 6  4.54         6.7 0.05            131            101 257 
 RUS  HZ EP       20 5 50.78                             129    0.4910  108 150 
 RUS  HN ES       20 6  5.30                             129   -0.8110  108 150 
 RUS  HZ I        20 6  8.32         2.6 0.12            129            108 150 
 PAM  EZ EP       20 5 50.84                             127   -0.2710  117  55 
 PAM  EN ES       20 6  7.33                             127   -0.2310  117  55 
 ZAR  HN ES       20 6 15.32                             117   -0.14 9  165 300 
                                                                                
