 2011  5 4 2200 51.2 L   6.793 -73.059148.5  RSN  4 0.3 1.6LRSN                1
 GAP=168        0.69       4.2     8.9  7.9 -0.1375E+01 -0.1905E+02 -0.3786E+01E
 Epicentro: LOS SANTOS - SANTANDER                                             3
 ACTION:UP  11-06-29 08:50 OP:tino STATUS:               ID:20110504220051 L   I
 2011-05-04-2200-00M.COL___139                                                 6
 STAT SP IPHASW D HRMM SECON CODA AMPLIT PERI AZIMU VELO SNR AR TRES W  DIS CAZ7
 BAR2 SZ EP   1   22 1 10.93                             170    -0.3 7   26 212 
 BAR2 SZ I        22 1 11.31         4.9 0.15                            26 212 
 BAR2 SZ ES   1   22 1 26.58                             170    -0.3 7   26 212 
 BRR  HZ EP   1   22 1 12.79                             150    -0.4 7   80 296 
 BRR  HN ES   1   22 1 30.69                             150     0.4 7   80 296 
 RUS  HZ EP   1   22 1 15.53                             145     0.3 7  100 182 
 RUS  HN ES   1   22 1 33.99                             145     0.1 7  100 182 
 RUS  HZ I        22 1 35.42         3.9 0.29                           100 182 
 GRA  SZ EP   1   22 1 16.76                             138     0.2 7  124  13 
 GRA  SZ ES   1   22 1 36.37                             138     0.0 7  124  13 
 GRA  SZ I        22 1 37.23        12.6 0.36                           124  13 
                                                                                
