 2011 12 4 2202 22.5 L   6.800 -73.111144.5  RSN  4 0.2 1.3LRSN                1
 GAP=141        0.42       3.0     4.4  4.8 -0.2555E+00 -0.1536E+01  0.3219E+01E
 Epicentro: LOS SANTOS - SANTANDER                                             3
 ACTION:UPD 12-07-13 16:14 OP:ep   STATUS:               ID:20111204220222 L   I
 2011-12-04-2200-00M.COL___182                                                 6
 STAT SP IPHASW D HRMM SECON CODA AMPLIT PERI AZIMU VELO AIN AR TRES W  DIS CAZ7
 GIR2 SZ EP   2   22 2 42.45                             167    0.36 5 32.2 343 
 GIR2 SZ ES   1   22 2 57.29                             167   -0.05 7 32.2 343 
 BRR  HZ EP   1   22 2 43.42                             151   -0.33 7 74.6 297 
 BRR  HZ I        22 2 46.56         5.6 0.29                          74.6 297 
 BRR  HE ES   1   22 3  0.46                             151    0.16 7 74.6 297 
 PAM  SZ EP   1   22 2 44.51                             151    0.03 7 75.0  37 
 PAM  SN ES   1   22 3  1.56                             151   -0.04 7 75.0  37 
 PAM  SZ I        22 3  3.32         3.3 0.25                          75.0  37 
 RUS  HZ EP   1   22 2 46.31                             144    0.15 7  100 178 
 RUS  HN ES   1   22 3  4.49                             144   -0.08 7  100 178 
 RUS  HZ I        22 3  6.32         2.4 0.27                           100 178 
                                                                                
