 2011 11 4 2213 38.8 L   6.787 -73.121145.5  RSN 19 0.3 3.1LRSN                1
 GAP= 78        0.48       1.9     2.6  3.4 -0.1936E+00  0.2621E+01  0.1570E+01E
 Epicentro: LOS SANTOS - SANTANDER                                             3
 ACTION:UPD 12-07-13 16:08 OP:ep   STATUS:               ID:20111104221338 L   I
 2011-11-04-2205-00M.COL___176                                                 6
 STAT SP IPHASW D HRMM SECON CODA AMPLIT PERI AZIMU VELO AIN AR TRES W  DIS CAZ7
 SAN  SZ EP   1   2213 58.59                             178    0.50 7 5.83 115 
 SAN  SZ ES   2   2214 13.39                             178    0.22 5 5.83 115 
 BTL  SZ EP   1   2213 58.64                             171    0.30 7 21.7 312 
 BAR2 SZ IP       2213 58.22                             171   -0.1310 22.6 197 
 BAR2 SZ I        2213 58.78       378.9 0.39                          22.6 197 
 BAR2 SZ ES   2   2214 13.81                             171    0.18 5 22.6 197 
 GIR2 SZ IP       2213 58.33                             166   -0.1310 33.2 346 
 GIR2 SZ ES   2   2214 13.42                             166   -0.41 5 33.2 346 
 BRR  HZ IP     C 2214  0.15                             151    0.0910 74.2 298 
 BRR  HZ I        2214  0.50       235.3 0.11                          74.2 298 
 BRR  HE ES   2   2214 17.16                             151    0.48 5 74.2 298 
 PAM  SZ IP     C 2214  1.07                             151    0.1510 76.8  37 
 PAM  SE ES   2   2214 18.06                             151   -0.14 5 76.8  37 
 RUS  HZ IP     C 2214  2.07                             144   -0.3110 99.0 178 
 RUS  HZ I        2214  3.29       100.5 0.12                          99.0 178 
 RUS  HN ES   2   2214 20.20                             144   -0.61 5 99.0 178 
 OCA  SZ EP   1   2214  7.47                             129    0.25 7  162 352 
 OCA  SZ ES   2   2214 29.12                             129   -0.29 5  162 352 
 OCA  SZ I        2214 37.11       160.1 0.36                           162 352 
 YOP  SZ IP       2214  8.79                             127    0.24 9  176 154 
 YOP  SZ I        2214 11.54        78.2 0.52                           176 154 
 YOP  SN ES   2   2214 31.56                             127   -0.22 4  176 154 
 ZAR  HZ EP   2   2214 11.30                             122   -0.21 4  207 292 
 ZAR  HN ES   2   2214 36.59                             122   -0.46 4  207 292 
 ZAR  HZ I        2214 42.34       154.0 0.45                           207 292 
 NOR  SZ EP   1   2214 14.15                             118   -0.48 6  236 235 
 NOR  SN ES   2   2214 42.46                             118   -0.15 4  236 235 
 ROSC BZ EP   2   2214 17.32                             117    0.42 4  253 212 
 ROSC BN ES   2   2214 46.96                             117    0.32 4  253 212 
 ROSC BZ I        2214 55.94       121.7 0.49                           253 212 
 HEL  HZ EP   1   2214 18.96                             114   -0.26 6  274 256 
 HEL  HN ES   2   2214 51.16                             114    0.38 4  274 256 
 HEL  HZ I        2214 58.14        62.6 0.41                           274 256 
 VIL  SZ EP   1   2214 21.81                             112   -0.27 5  303 192 
 VIL  SN ES   2   2214 56.21                             112    0.34 4  303 192 
 VIL  SZ I        2215  2.61        37.9 0.50                           303 192 
 RREF HZ EP   1   2214 25.08                             111    0.05 5  323 230 
 RREF HN ES   2   2215  0.99                             111   -0.13 3  323 230 
 RREF HZ I        2215 11.78        78.8 0.39                           323 230 
 DBB  SZ EP   1   2214 26.86                             109    0.30 5  342 274 
 TOL  SZ EP   2   2214 27.21                             109    0.09 3  344 225 
 TOL  SZ ES   2   2215  4.91                             109    0.07 3  344 225 
 COD  HZ EP   2   2214 26.83                             109   -0.49 3  350 354 
 COD  HN ES   2   2215  4.91                             109   -0.29 3  350 354 
 COD  HZ I        2215 15.21        40.8 0.74                           350 354 
 PRA  HZ EP   1   2214 32.63                             106    0.33 4  392 210 
 PRA  HZ ES   2   2215 13.66                             106   -0.39 3  392 210 
                                                                                
