 2011  1 4 2319 55.1 L   6.815 -73.189138.0  RSN 14 0.4 2.3LRSN                1
 GAP=154        0.72       2.7     5.3  5.3 -0.5544E+01  0.1241E+02 -0.1111E+01E
 Epicentro: ZAPATOCA - SANTANDER                                               3
 ACTION:UP  11-02-08 08:38 OP:pat  STATUS:               ID:20110104231955 L   I
 2011-01-04-2320-00M.COL___137                                                 6
 STAT SP IPHASW D HRMM SECON CODA AMPLIT PERI AZIMU VELO SNR AR TRES W  DIS CAZ7
 BTL  SZ EP       2320 14.01                             174     0.410   14 323 
 BAR2 SZ IP       2320 13.83                             169     0.010   25 179 
 BAR2 SZ ES   1   2320 28.52                             169     0.1 7   25 179 
 BAR2 SZ I        2320 29.96        66.4 0.20                            25 179 
 GIR2 SZ EP       2320 13.97                             167     0.210   29 359 
 GIR2 SZ ES   1   2320 28.87                             167     0.5 7   29 359 
 RUS  HZ EP       2320 17.87                             142    -0.410  103 173 
 RUS  HN ES   1   2320 36.20                             142    -0.1 7  103 173 
 RUS  HZ I        2320 37.39        17.8 0.33                           103 173 
 GRA  SZ IP       2320 19.72                             135     0.110  126  20 
 GRA  SZ I        2320 20.97        26.7 0.45                           126  20 
 GRA  SZ ES   1   2320 38.47                             135    -0.3 7  126  20 
 OCA  SZ EP       2320 22.31                             128    -0.3 9  158 355 
 OCA  SZ ES   1   2320 43.78                             128    -0.3 7  158 355 
 OCA  SZ I        2320 49.18        32.9 0.19                           158 355 
 NOR  SZ EP       2320 30.14                             117     0.0 8  232 234 
 NOR  SN ES   1   2320 56.82                             117    -0.6 6  232 234 
 CHI  HZ EP   1   2320 32.91                             116     0.5 6  249 194 
 CHI  HN ES   1   2321  1.28                             116    -0.3 6  249 194 
 HEL  HN ES   2   2321  5.02                             114    -0.1 4  268 255 
 HEL  HZ I        2321 13.12        16.8 0.40                           268 255 
 GUY  SN ES   3   2321 11.58                             111     0.0 2  298 234 
 RREF HZ EP   3   2320 40.75                             110     0.1 2  319 229 
 RREF HZ I        2321 23.74        11.5 0.21                           319 229 
 DBB  SZ EP       2320 41.95                             108     0.2 7  335 274 
 TOL  SZ EP   2   2320 44.13                             108     1.3 3  341 224 
 PRA  HZ EP   3   2320 48.21                             105    -0.1 1  391 209 
                                                                                
