 2016 12 4 2100 57.6 L   6.833 -73.140140.4  RSN  9 0.2 2.0LRSN                1
 GAP=149        0.59       2.6     2.7  3.8 -0.1721E+01  0.2341E+01  0.2192E+01E
 Epicentro: LOS SANTOS - SANTANDER                                             3
 ACTION:UPD 17-01-11 20:12 OP:rebc STATUS:               ID:20161204210057 L   I
 OLDACT:UP  16-12-05 03:34 OP:edw  STATUS:               ID:20161204205741     3
 OLDACT:UP  16-12-05 03:33 OP:edw  STATUS:               ID:20161204205741     3
 OLDACT:REG 16-12-05 02:32 OP:edw  STATUS:               ID:20161204205741     3
 2016-12-04-2058-00M.COL___352                                                 6
 STAT SP IPHASW D HRMM SECON CODA AMPLIT PERI AZIMU VELO AIN AR TRES W  DIS CAZ7
 BAR2 EZ EP     C 21 1 16.39                             169   -0.3110 27.0 190 
 BAR2 EZ ES       21 1 31.26                             169   -0.3210 27.0 190 
 BAR2 EZ I        21 1 32.08        29.1 0.24            171           27.0 190 
 BRR  HZ IP     C 21 1 18.28                             152    0.1410 70.1 296 
 BRR  HN ES       21 1 34.51                             152    0.3710 70.1 296 
 BRR  HZ I        21 1 39.33        22.8 0.12            149           70.1 296 
 PAM  EZ EP       21 1 19.20                             151    0.1110 74.2  41 
 PAM  EE ES       21 1 35.88                             151    0.0610 74.2  41 
 PAM  EZ I        21 1 38.76        20.6 0.38            152           74.2  41 
 PTB  HZ EP   9   21 1 23.30                             130   -1.00 0  149 258 
 PTB  HN ES       21 1 43.88                             130   -0.21 9  149 258 
 PTB  HZ I        21 1 46.35        16.2 0.11            131            149 258 
 ZAR  HZ EP       21 1 29.65                             121   -0.01 9  203 291 
 ZAR  HN ES       21 1 54.42                             121   -0.22 9  203 291 
 ZAR  HZ I        21 2  3.38        11.6 0.22            121            203 291 
 NOR  HZ EP       21 1 33.10                             117   -0.25 8  237 234 
 NOR  HN ES       21 2  1.22                             117    0.02 8  237 234 
 NOR  HZ I        21 2  2.28         7.2 0.15            118            237 234 
 CHI  HN ES       21 2  5.28                             116    0.34 8  252 195 
 ELA  HN ES       21 2 21.34                             109    0.12 7  332 229 
 SJC  HZ EP   4   21 1 51.43                             105   -1.28 0  407 327 
 SJC  HN ES   4   21 2 32.77                             105   -2.90 0  407 327 
 SJC  HZ I        21 2 36.07         1.1 0.20            106            407 327 
                                                                                
