 2014  9 4 2354 44.8 L   6.770 -73.178143.8  RSN  4 0.3 1.2LRSN                1
 GAP=134        0.80       5.6     5.2  8.7  0.3588E+01 -0.5748E+01 -0.1358E+02E
 Epicentro: LOS SANTOS - SANTANDER                                             3
 ACTION:UPD 14-10-03 23:02 OP:nd   STATUS:               ID:20140904235444 L   I
 OLDACT:REG 14-09-05 05:11 OP:stll STATUS:               ID:20140904234819     3
 2014-09-04-2348-19M.COL___276                                                 6
 STAT SP IPHASW D HRMM SECON CODA AMPLIT PERI AZIMU VELO AIN AR TRES W  DIS CAZ7
 BRR  HZ EP       2355  6.03                             153    0.4010 69.8 302 
 BRR  HN ES       2355 22.05                             153    0.1510 69.8 302 
 PAM  SZ EP       2355  6.69                             149   -0.3910 82.3  40 
 PAM  SZ I        2355  6.97         3.9 0.24            155           82.3  40 
 RUS  HN ES       2355 26.40                             144    0.0710 97.6 174 
 RUS  HZ I        2355 29.30         2.0 0.36            142           97.6 174 
 PTB  HZ EP       2355 11.39                             132    0.18 9  144 260 
 PTB  HN ES       2355 31.39                             132   -0.43 9  144 260 
 PTB  HZ I        2355 39.44         2.4 0.32            130            144 260 
                                                                                
