 2013  6 4 2327 23.3 L   6.992 -73.476  4.1  RSN  6 0.3 1.9LRSN                1
 GAP=101        0.74       1.6     1.6  4.3  0.4221E+00  0.3678E+00  0.9412E+00E
 Epicentro: SAN VICENTE DE CHUCURI - SANTANDER                                 3
 ACTION:UP  14-01-08 09:52 OP:ep   STATUS:               ID:20130604232723 L   I
 OLDACT:UPD 13-07-15 19:28 OP:ep   STATUS:               ID:20130604232723 L   3
 2013-06-04-2318-52M.COL___219                                                 6
 STAT SP IPHASW D HRMM SECON CODA AMPLIT PERI AZIMU VELO AIN AR TRES W  DIS CAZ7
 BRR  HZ IP     D 2327 28.16                              47   -0.1610 29.0 296 
 BRR  HZ I        2327 28.31       166.9 0.14             47           29.0 296 
 BRR  HN ES       2327 32.23                              47    0.0310 29.0 296 
 GIR2 SZ IP     D 2327 29.15                              47    0.1210 32.7  73 
 BAR2 SZ EP       2327 32.80                              47    0.3110 54.9 144 
 BAR2 SZ ES       2327 39.18                              47   -0.4610 54.9 144 
 BAR2 SZ I        2327 40.10        42.6 0.22             47           54.9 144 
 PTB  HZ IP     D 2327 42.21                              47    0.1810  119 245 
 PTB  HN ES   1   2327 56.30                              47   -0.31 7  119 245 
 PTB  HE I        2327 58.79        53.1 0.44             47            119 245 
 GRA  SZ EP       2327 42.97                              47    0.1710  124  37 
 GRA  SZ ES       2327 57.70                              47   -0.2910  124  37 
 RUS  HZ EP   1   2327 44.71                              47    0.71 7  129 160 
 RUS  HN ES       2328  0.01                              47   -0.1210  129 160 
 RUS  HE I        2328  1.73         8.6 0.24             47            129 160 
                                                                                
