 2014 11 4 2111 32.4 L   6.642 -73.120149.1  RSN  4 0.4 1.0LRSN                1
 GAP=146        0.81       5.6     5.4  8.7 -0.2966E+01 -0.3489E+01  0.4781E+01E
 Epicentro: VILLANUEVA - SANTANDER                                             3
 ACTION:UPD 14-12-19 15:39 OP:nd   STATUS:               ID:20141104211132 L   I
 OLDACT:REG 14-11-05 04:48 OP:spq  STATUS:               ID:20141104210748     3
 2014-11-04-2107-48M.COL___277                                                 6
 STAT SP IPHASW D HRMM SECON CODA AMPLIT PERI AZIMU VELO AIN AR TRES W  DIS CAZ7
 RUS  HZ EP   1   2111 55.49                             150    0.15 7 83.0 177 
 RUS  HN ES   1   2112 13.25                             150    0.04 7 83.0 177 
 RUS  HZ I        2112 15.88         1.2 0.28            150           83.0 177 
 BRR  HZ EP   1   2111 54.94                             149    0.30 7 83.2 308 
 BRR  HE ES       2112 12.42                             149    0.4510 83.2 308 
 PAM  SZ EP       2111 55.85                             148    0.0710 90.0  31 
 PAM  SN ES   1   2112 13.33                             148   -0.67 7 90.0  31 
 PAM  SZ I        2112 16.22         1.6 0.52            150           90.0  31 
 PTB  HZ EP   1   2111 59.45                             133   -0.26 7  148 266 
 PTB  HN ES   1   2112 20.41                             133   -0.58 7  148 266 
 PTB  HZ I        2112 21.69         1.6 0.18            136            148 266 
                                                                                
