 2013  5 4 2310 49.4 L   6.753 -73.099144.8  RSN  6 0.3 1.9LRSN                1
 GAP=145        0.81       3.9     4.9  5.4 -0.5921E+01  0.5941E+01  0.5317E+01E
 Epicentro: LOS SANTOS - SANTANDER                                             3
 ACTION:UPD 13-06-20 09:47 OP:ep   STATUS:               ID:20130504231049 L   I
 2013-05-04-2310-00M.COL___253                                                 6
 STAT SP IPHASW D HRMM SECON CODA AMPLIT PERI AZIMU VELO AIN AR TRES W  DIS CAZ7
 BAR2 SZ EP       2311  8.97                             172    0.1410 20.0 207 
 BAR2 SZ ES       2311 23.43                             172   -0.5810 20.0 207 
 BAR2 SZ I        2311 25.54        23.7 0.28            170           20.0 207 
 BRR  HZ EP       2311 10.83                             150   -0.0110 78.3 300 
 BRR  HN ES       2311 28.00                             150    0.4210 78.3 300 
 BRR  HZ I        2311 31.80        28.0 0.30            149           78.3 300 
 PAM  SZ EP       2311 11.83                             150    0.2710 78.5  34 
 PAM  SN ES       2311 28.47                             150   -0.3910 78.5  34 
 PAM  SZ I        2311 32.05         4.5 0.46            154           78.5  34 
 RUS  HZ EP       2311 12.83                             145    0.1810 95.1 179 
 RUS  HN ES       2311 31.19                             145    0.3910 95.1 179 
 RUS  HZ I        2311 32.96         9.0 0.34            146           95.1 179 
 NOR  HZ EP       2311 24.86                             118   -0.33 8  236 236 
 NOR  HN ES       2311 53.08                             118   -0.04 8  236 236 
 NOR  HZ I        2311 58.25         2.8 0.18            119            236 236 
 PRA  HZ EP       2311 42.32                             106   -0.32 6  390 211 
 PRA  HN ES       2312 24.04                             106   -0.14 6  390 211 
 PRA  HZ I        2312 31.11         4.7 0.36            107            390 211 
                                                                                
