 2012  7 4 2101  2.4 L   6.910 -73.264132.8  RSN  5 0.3 1.9LRSN                1
 GAP=232        0.66       7.5     6.5  6.5  0.3143E+02  0.7670E+01  0.9432E+01E
 Epicentro: BETULIA - SANTANDER                                                3
 ACTION:UPD 12-08-14 11:42 OP:ep   STATUS:               ID:20120704210102 L   I
 2012-07-04-2100-00M.COL___201                                                 6
 STAT SP IPHASW D HRMM SECON CODA AMPLIT PERI AZIMU VELO AIN AR TRES W  DIS CAZ7
 BAR2 SZ EP       21 1 20.79                             164     0.010   36 166 
 BAR2 SZ ES   1   21 1 34.98                             164    -0.2 7   36 166 
 BAR2 SZ I        21 1 36.55        66.9 0.38            160             36 166 
 BRR  HZ EP       21 1 21.02                             157    -0.210   54 294 
 BRR  HZ I        21 1 21.20        15.8 0.24            156             54 294 
 BRR  HN ES   1   21 1 36.12                             157     0.2 7   54 294 
 RUS  HZ EP       21 1 26.28                             137     0.310  114 170 
 RUS  HN ES   2   21 1 44.66                             137     0.3 5  114 170 
 RUS  HZ I        21 1 46.43         3.6 0.20            136            114 170 
 PTB  HZ EP       21 1 27.26                             131    -0.2 9  138 253 
 PTB  HN ES   2   21 1 46.59                             131    -0.4 5  138 253 
 PTB  HZ I        21 1 49.17         9.2 0.42            130            138 253 
 ZAR  HZ ES   2   21 1 56.29                             122     0.7 4  188 290 
