 2011 11 4 2237  5.1 L   6.790 -73.099145.2  RSN  6 0.1 1.7LRSN                1
 GAP=143        0.31       3.0     3.2  4.3  0.1324E+01  0.6509E+00 -0.9891E+00E
 Epicentro: LOS SANTOS - SANTANDER                                             3
 ACTION:UPD 12-07-13 16:08 OP:ep   STATUS:               ID:20111104223705 L   I
 2011-11-04-2225-00M.COL___176                                                 6
 STAT SP IPHASW D HRMM SECON CODA AMPLIT PERI AZIMU VELO AIN AR TRES W  DIS CAZ7
 BAR2 SZ EP   1   2237 24.56                             170   -0.13 7 23.8 203 
 BAR2 SZ ES   2   2237 39.87                             170   -0.09 5 23.8 203 
 BAR2 SZ I        2237 42.32         8.7 0.17                          23.8 203 
 GIR2 SZ EP   3   2237 24.56                             166   -0.23 2 33.6 342 
 GIR2 SZ ES   3   2237 40.07                             166   -0.06 2 33.6 342 
 PAM  SZ EP   1   2237 27.34                             151    0.20 7 75.0  36 
 PAM  SN ES   2   2237 44.18                             151   -0.13 5 75.0  36 
 BRR  HZ EP   1   2237 26.40                             151   -0.10 7 76.3 297 
 BRR  HZ I        2237 31.83        21.3 0.55                          76.3 297 
 BRR  HN ES   2   2237 43.46                             151    0.28 5 76.3 297 
 RUS  HZ EP   2   2237 28.75                             144    0.03 5 99.3 179 
 RUS  HN ES   2   2237 47.25                             144    0.12 5 99.3 179 
 RUS  HZ I        2237 49.94         3.7 0.41                          99.3 179 
 ZAR  HN ES   2   2238  3.69                             122   -0.08 4  209 292 
 ZAR  HZ I        2238  9.71         5.0 0.21                           209 292 
                                                                                
