 2011  1 4 2308 13.7 L   5.976 -73.834 80.0  RSN  4 0.3 1.3LRSN                1
 GAP=158        0.45       7.1     3.3 15.1 -0.1237E+02  0.7135E+01  0.6097E+02E
 Epicentro: EL PEON - SANTANDER                                                3
 ACTION:UP  11-02-08 08:38 OP:pat  STATUS:               ID:20110104230813 L   I
 2011-01-04-2300-00M.COL___137                                                 6
 STAT SP IPHASW D HRMM SECON CODA AMPLIT PERI AZIMU VELO SNR AR TRES W  DIS CAZ7
 RUS  HZ EP       23 8 30.10                             129     0.010   84  96 
 RUS  HN ES   3   23 8 43.00                             129     0.1 2   84  96 
 BAR2 SZ ES   1   23 8 45.02                             123     0.0 7   99  47 
 NOR  SZ EP       23 8 33.81                             117     0.110  124 249 
 NOR  SN ES   2   23 8 48.86                             117    -0.4 5  124 249 
 RREF HZ EP   2   23 8 43.48                             105    -0.4 4  206 235 
 RREF HN ES   3   23 9  8.36                             105     1.0 2  206 235 
 RREF HZ I        23 9 18.06         2.0 0.48                           206 235 
                                                                                
