 2016  5 4 2015 15.5 L   6.802 -73.120148.2  RSN  6 0.4 1.6LRSN                1
 GAP=140        0.99       4.7     4.9  7.2 -0.1261E+01  0.1118E+02  0.3492E+01E
 Epicentro: LOS SANTOS - SANTANDER                                             3
 ACTION:UPD 16-08-18 17:42 OP:cam  STATUS:               ID:20160504201515 L   I
 OLDACT:UP  16-05-05 06:00 OP:mh   STATUS:               ID:20160504200749d    3
 OLDACT:UP  16-05-05 06:00 OP:mh   STATUS:               ID:20160504200749d    3
 OLDACT:UP  16-05-05 05:58 OP:mh   STATUS:               ID:20160504200749d    3
 OLDACT:DUP 16-05-05 05:55 OP:mh   STATUS:               ID:20160504200749d    3
 2016-05-04-2007-48M.COL___307                                                 6
 STAT SP IPHASW D HRMM SECON CODA AMPLIT PERI AZIMU VELO AIN AR TRES W  DIS CAZ7
 BAR2 EZ EP       2015 35.74                             170    0.2610 24.2 197 
 BAR2 EZ ES       2015 50.55                             170   -0.4810 24.2 197 
 BAR2 EZ I        2015 51.89        10.6 0.46            170           24.2 197 
 BRR  HZ EP       2015 37.16                             152    0.0710 73.6 297 
 BRR  HN ES       2015 54.38                             152    0.4810 73.6 297 
 BRR  HZ I        2015 59.66         8.4 0.36            148           73.6 297 
 PAM  EZ EP       2015 38.37                             152    0.4710 75.4  38 
 PAM  EN ES       2015 54.94                             152   -0.4010 75.4  38 
 PAM  EZ I        2015 57.83         4.6 0.57            154           75.4  38 
 RUS  HZ EP   1   2015 39.46                             144   -0.07 7  101 178 
 RUS  HN ES       2015 58.44                             144    0.1910  101 178 
 RUS  HZ I        2015 58.80         3.2 0.18            148            101 178 
 ZAR  HN ES       2016 13.73                             122   -0.31 8  207 292 
 ZAR  HZ I        2016 21.18         4.5 0.41            122            207 292 
 NOR  HZ EP       2015 50.89                             119   -0.78 8  237 235 
 NOR  HN ES       2016 20.11                             119    0.26 8  237 235 
 NOR  HZ I        2016 24.70         2.6 0.28            120            237 235 
                                                                                
