 2017  8 4 2127 28.7 L   6.751 -73.115141.9  RSN  8 0.2 1.7LRSN                1
 GAP=143        0.62       2.7     2.6  3.7 -0.5277E+00  0.1918E+01  0.9228E-01E
 Epicentro: LOS SANTOS - SANTANDER                                             3
 ACTION:UPD 17-09-04 20:16 OP:rebc STATUS:               ID:20170804212728 L   I
 OLDACT:REG 17-08-05 04:19 OP:lv   STATUS:               ID:20170804211738     3
 2017-08-04-2118-00M.COL___402                                                 6
 STAT SP IPHASW D HRMM SECON CODA AMPLIT PERI AZIMU VELO AIN AR TRES W  DIS CAZ7
 BAR2 EZ EP       2127 47.79                             172   -0.0110 19.1 203 
 BAR2 EZ ES       2128  2.64                             172   -0.0510 19.1 203 
 BAR2 EZ I        2128  3.95        10.5 0.10            169           19.1 203 
 BRR  HZ EP       2127 49.70                             150   -0.0910 76.9 301 
 BRR  HN ES       2128  6.54                             150    0.3210 76.9 301 
 BRR  HZ I        2128  6.94        19.7 0.19            147           76.9 301 
 PAM  EZ EP       2127 50.80                             149    0.1410 79.6  35 
 PAM  EN ES       2128  7.57                             149   -0.2010 79.6  35 
 PAM  EZ I        2128  8.39         7.8 0.30            151           79.6  35 
 RUS  HZ EP       2127 52.01                             144    0.3210 95.0 178 
 RUS  HN ES       2128  9.34                             144   -0.2610 95.0 178 
 RUS  HZ I        2128 11.51         6.8 0.29            144           95.0 178 
 PTB  HZ EP   9   2127 55.06                             130   -0.54 0  150 261 
 PTB  HN ES       2128 15.46                                   -0.56 9  150 261 
 PTB  HZ I        2128 17.80         4.8 0.07            128            150 261 
 ZAR  HZ EP       2128  1.29                             120   -0.17 8  209 293 
 ZAR  HN ES       2128 26.89                             120   -0.11 8  209 293 
 ZAR  HZ I        2128 34.85         8.5 0.07            119            209 293 
 NOR  HZ EP       2128  4.08                             117   -0.12 8  234 236 
 NOR  HN ES       2128 32.02                             117    0.15 8  234 236 
 NOR  HZ I        2128 38.92         3.7 0.41            117            234 236 
 GUY2CHZ EP   9   2128 13.70                             111    1.58 0  301 236 
 GUY2CHN ES       2128 47.64                                    0.09 7  301 236 
                                                                                
