 2015  6 4 2339 44.5 L   6.791 -73.102144.2  RSN 14 0.4 2.1LRSN                1
 GAP=143        0.89       2.9     4.0  6.2 -0.1880E+01  0.4198E+01 -0.2868E+00E
 Epicentro: LOS SANTOS - SANTANDER                                             3
 ACTION:UPD 15-09-10 22:09 OP:cam  STATUS:               ID:20150604233944 L   I
 OLDACT:REG 15-06-05 04:03 OP:spq  STATUS:               ID:20150604233750     3
 2015-06-04-2337-50M.COL___300                                                 6
 STAT SP IPHASW D HRMM SECON CODA AMPLIT PERI AZIMU VELO AIN AR TRES W  DIS CAZ7
 BAR2 EZ EP       2340  3.97                             170    0.0310 23.7 202 
 BAR2 EZ ES   1   2340 18.47                             170   -0.64 7 23.7 202 
 BAR2 EZ I        2340 19.61        36.7 0.28            169           23.7 202 
 PAM  SZ EP       2340  6.97                             151    0.5610 75.2  36 
 PAM  SN ES   1   2340 23.85                             151    0.35 7 75.2  36 
 PAM  SZ I        2340 26.04        26.0 0.54            155           75.2  36 
 BRR  HZ EP       2340  5.82                             151    0.0710 76.0 297 
 BRR  HE ES       2340 22.80                             151    0.4710 76.0 297 
 BRR  HZ I        2340 29.86        19.5 0.39            149           76.0 297 
 RUS  HZ EP       2340  7.94                             144   -0.0610 99.3 179 
 RUS  HE ES   1   2340 26.39                             144    0.06 7 99.3 179 
 RUS  HZ I        2340 27.11         8.9 0.26            147           99.3 179 
 OCA  HZ EP       2340 12.72                             129   -0.12 9  162 351 
 OCA  HE ES       2340 34.33                             129   -0.62 9  162 351 
 OCA  HZ I        2340 37.35        37.3 0.44            131            162 351 
 SPBC HE ES   1   2340 34.91                             128   -0.49 7  166 221 
 SPBC HZ I        2340 36.80        17.7 0.16            130            166 221 
 ZAR  HN ES       2340 43.18                             121    0.21 8  209 292 
 ZAR  HZ I        2340 48.77        11.4 0.23            122            209 292 
 NOR  HZ EP   4   2340 21.85                             118    1.35 0  238 235 
 NOR  HN ES       2340 48.13                             118   -0.45 8  238 235 
 NOR  HZ I        2340 49.72         7.0 0.18            120            238 235 
 SML  HZ EP   1   2340 20.74                             117   -0.62 6  247 334 
 SML  HE ES   1   2340 49.88                             117   -0.23 6  247 334 
 SML  HZ I        2340 52.02        20.6 0.28            119            247 334 
 HEL  HN ES   1   2340 57.61                             114    0.79 6  277 256 
 HEL  HZ I        2341  6.54         4.5 0.28            116            277 256 
 GUY2CHZ EP   4   2340 29.96                             112    1.54 0  305 235 
 GUY2CHE ES   4   2341  5.50                             112    2.82 0  305 235 
 GUY2CHZ I        2341  9.29         4.8 0.24                           305 235 
 MON  HZ EP   4   2340 31.80                             108   -2.15 0  358 308 
 MON  HN ES   4   2341 10.42                             108   -2.11 0  358 308 
 MON  HZ I        2341 11.20         3.8 0.18            110            358 308 
 PRA  HZ EP   1   2340 38.75                             106    0.61 4  394 210 
 PRA  HN ES   1   2341 19.88                             106   -0.11 4  394 210 
 PRA  HZ I        2341 22.47         3.1 0.52            108            394 210 
 SJC  HE ES   4   2341 20.07                             105   -3.97 0  413 326 
 SJC  HZ I        2341 24.20         3.4 0.42            107            413 326 
                                                                                
