 2011  2 4 2253  3.5 L   6.769 -73.218137.5  RSN  8 0.3 1.7LRSN                1
 GAP=149        0.65       3.5     6.4  5.8 -0.1213E+02  0.1066E+02 -0.1617E+01E
 Epicentro: ZAPATOCA - SANTANDER                                               3
 ACTION:UP  11-03-28 15:05 OP:jfem STATUS:               ID:20110204225302 L   I
 2011-02-04-2250-12S.COL___138                                                 6
 STAT SP IPHASW D HRMM SECON CODA AMPLIT PERI AZIMU VELO SNR AR TRES W  DIS CAZ7
 BTL  SZ EP       2253 22.27                             173     0.310   17 342 
 BAR2 SZ EP   1   2253 21.81                                    -0.2 7   20 169 
 BAR2 SZ ES   1   2253 36.02                                    -0.5 7   20 169 
 GIR2 SZ EP       2253 22.03                             166    -0.210   34   5 
 GIR2 SZ ES   2   2253 36.99                             166     0.1 5   34   5 
 RUS  HZ EP       2253 26.14                             144    -0.110   98 171 
 RUS  HN ES   1   2253 44.54                             144     0.5 7   98 171 
 RUS  HZ I        2253 45.88         6.3 0.71                            98 171 
 GRA  SZ EP       2253 28.60                             136     0.110  132  20 
 GRA  SZ ES   1   2253 48.14                             136     0.1 7  132  20 
 GRA  SZ I        2253 49.42         9.8 0.38                           132  20 
 NOR  SZ EP   2   2253 38.08                             119     0.2 4  226 234 
 NOR  SN ES   1   2254  4.89                             119     0.3 6  226 234 
 CHI  HZ EP   1   2253 39.86                             117    -0.3 6  243 194 
 CHI  HN ES   2   2254  8.75                             117     0.0 4  243 194 
 CHI  HZ I        2254 19.08         2.9 0.40                           243 194 
 RREF HN ES   2   2254 22.92                             111    -0.4 3  313 229 
 RREF HZ I        2254 32.04         3.9 0.66                           313 229 
                                                                                
