 2015  6 4 2113 24.9 L   6.781 -73.087145.2  RSN  6 0.3 1.6LRSN                1
 GAP=145        0.60       3.3     3.8  5.6  0.5984E-01 -0.1202E+01  0.1589E+01E
 Epicentro: LOS SANTOS - SANTANDER                                             3
 ACTION:UPD 15-09-10 22:09 OP:cam  STATUS:               ID:20150604211324 L   I
 OLDACT:REG 15-06-05 03:51 OP:spq  STATUS:               ID:20150604210750     3
 2015-06-04-2107-50M.COL___297                                                 6
 STAT SP IPHASW D HRMM SECON CODA AMPLIT PERI AZIMU VELO AIN AR TRES W  DIS CAZ7
 BAR2 EZ EP       2113 44.17                             170   -0.3310 23.4 207 
 BAR2 EZ ES   1   2113 59.47                             170   -0.29 7 23.4 207 
 BAR2 EZ I        2114  0.74         8.3 0.14            167           23.4 207 
 PAM  SZ EP       2113 47.25                             151    0.2910 75.2  35 
 PAM  SN ES   1   2114  4.16                             151    0.02 7 75.2  35 
 PAM  SZ I        2114  6.83         3.9 0.29            155           75.2  35 
 BRR  HZ EP   1   2113 46.01                             150   -0.41 7 77.9 298 
 BRR  HE ES       2114  3.23                             150    0.0610 77.9 298 
 BRR  HZ I        2114  6.98        14.7 0.30            147           77.9 298 
 RUS  HZ EP       2113 48.46                             144   -0.0010 98.2 180 
 RUS  HE ES   1   2114  7.20                             144    0.39 7 98.2 180 
 RUS  HZ I        2114  9.16         2.5 0.32            145           98.2 180 
 SPBC HE ES   1   2114 16.07                             128    0.05 7  166 221 
 SPBC HZ I        2114 22.14         9.8 0.32            128            166 221 
 ZAR  HE ES   1   2114 24.16                             121    0.28 6  211 292 
 ZAR  HZ I        2114 29.99         6.3 0.46            121            211 292 
                                                                                
