 2012 12 4 2344 51.9 L   6.837 -73.468109.8  RSN  5 0.1 1.5LRSN                1
 GAP=155        0.37       2.3     1.7  4.4 -0.1182E+01  0.5149E+00 -0.8618E+00E
 Epicentro: SAN VICENTE DE CHUCURI - SANTANDER                                 3
 ACTION:UPD 13-01-04 14:25 OP:ep   STATUS:               ID:20121204234451 L   I
 2012-12-04-2340-00M.COL___237                                                 6
 STAT SP IPHASW D HRMM SECON CODA AMPLIT PERI AZIMU VELO AIN AR TRES W  DIS CAZ7
 GIR2 SZ EP   1   2345  7.91                             158    0.18 7 40.5  49 
 BAR2 SZ EP       2345  8.09                             158    0.1710 41.6 130 
 BAR2 SZ ES   2   2345 20.50                             158    0.10 5 41.6 130 
 BAR2 SZ I        2345 22.17        25.4 0.43                          41.6 130 
 PAM  SZ EP       2345 12.47                             134    0.0510  102  57 
 PAM  SN ES   1   2345 28.18                             134   -0.23 7  102  57 
 PAM  SZ I        2345 29.61         3.6 0.31                           102  57 
 RUS  HZ EP       2345 13.38                             131   -0.0610  113 158 
 RUS  HN ES   1   2345 30.13                             131   -0.08 7  113 158 
 PTB  HZ EP       2345 12.81                             130   -0.1010  114 253 
 PTB  HN ES       2345 29.27                             130   -0.0110  114 253 
 PTB  HZ I        2345 33.91         5.0 0.23                           114 253 
                                                                                
