 2016  7 4 2306 44.8 L   6.808 -73.147145.2  RSN 24 0.5 2.8LRSN                1
 GAP=119        1.12       3.1     3.2  4.7 -0.6432E+00  0.3972E+01  0.1721E+01E
 Epicentro: LOS SANTOS - SANTANDER                                             3
 ACTION:UPD 17-03-29 16:47 OP:lp   STATUS:               ID:20160704230644 L   I
 OLDACT:REG 16-07-05 03:01 OP:ak   STATUS:               ID:20160704225746     3
 2016-07-04-2257-46M.COL___328                                                 6
 STAT SP IPHASW D HRMM SECON CODA AMPLIT PERI AZIMU VELO AIN AR TRES W  DIS CAZ7
 BAR2 EZ EP       23 7  4.51                             170    0.1210 24.2 189 
 BAR2 EZ ES       23 7 19.62                             170   -0.0410 24.2 189 
 BAR2 EZ I        23 7 20.87       141.3 0.24            167           24.2 189 
 BRR  HZ EP       23 7  6.31                             153    0.4410 70.7 298 
 BRR  HN ES       23 7 23.07                             153    0.7810 70.7 298 
 PAM  EZ EP       23 7  7.44                             151    0.5110 76.8  40 
 PAM  EN ES       23 7 24.18                             151   -0.0010 76.8  40 
 PAM  EZ I        23 7 26.65       129.2 0.48            157           76.8  40 
 RUS  HZ EP       23 7  8.48                             143   -0.0910  101 176 
 RUS  HN ES       23 7 26.53                             143   -0.5710  101 176 
 RUS  HZ I        23 7 28.39        87.9 0.30            144            101 176 
 PTB  HZ EP       23 7 10.99                             132   -0.75 9  148 258 
 PTB  HN ES       23 7 32.20                             132   -0.54 9  148 258 
 PTB  HZ I        23 7 39.31        48.8 0.16            131            148 258 
 SPBC HZ EP       23 7 13.27                             129   -0.06 9  164 219 
 SPBC HN ES       23 7 35.52                             129   -0.04 9  164 219 
 SPBC HZ I        23 7 42.03        82.1 0.08            128            164 219 
 ZAR  HZ EP       23 7 17.09                             122   -0.09 9  204 292 
 ZAR  HN ES       23 7 42.31                             122   -0.11 9  204 292 
 ZAR  HZ I        23 7 51.46        36.6 0.15            122            204 292 
 NOR  HZ EP       23 7 20.28                             118   -0.27 8  235 234 
 NOR  HN ES       23 7 48.22                             118   -0.21 8  235 234 
 NOR  HZ I        23 7 54.21        48.7 0.15            118            235 234 
 CHI  HZ EP       23 7 22.73                             117    0.16 8  249 195 
 CHI  HN ES       23 7 52.26                             117    0.24 8  249 195 
 CHI  HZ I        23 7 56.04        31.5 0.74            118            249 195 
 ROSC BZ EP   9   23 7 24.23                             117    1.25 0  253 211 
 ROSC BN ES       23 7 54.48                                    0.48 8  253 211 
 ROSC BZ I        23 8  2.73        38.9 0.35            117            253 211 
 HEL  HZ EP       23 7 26.07                             115    1.06 8  272 256 
 HEL  HN ES       23 7 56.32                             115   -0.04 8  272 256 
 HEL  HZ I        23 8  2.60        30.0 0.26            115            272 256 
 URE  HZ EP       23 7 24.57                             114   -1.24 7  283 292 
 URE  HN ES       23 7 57.12                             114   -0.66 7  283 292 
 URE  HZ I        23 8  7.22        28.1 0.22            114            283 292 
 SOCV BZ EP       23 7 27.50                             112   -0.29 7  301  57 
 SOCV BN ES   4   23 7 57.33                             112   -3.98 0  301  57 
 GUY2CHZ EP       23 7 28.60                             112    0.16 7  302 235 
 GUY2CHN ES   4   23 8  4.53                             112    2.06 0  302 235 
 GUY2CHZ I        23 8  9.77        24.4 0.62                           302 235 
 VIL  SZ EP       23 7 28.09                             112   -0.21 7  304 192 
 VIL  SN ES       23 8  1.79                             112   -0.43 7  304 192 
 PTGC HZ EP   4   23 7 27.09                             111   -1.65 0  310 159 
 PTGC HN ES   4   23 8  0.58                             111   -2.42 0  310 159 
 PTGC HZ I        23 8  5.95        37.6 0.28            113            310 159 
 ELA  HZ EP   9   23 7 33.86                             110    2.16 0  330 229 
 ELA  HN ES       23 8 11.22                                    0.79 7  330 229 
 ELA  HZ I        23 8 16.16        17.9 0.30            111            330 229 
 CBOC HZ EP       23 7 32.54                             110    0.82 7  334 252 
 CBOC HN ES       23 8  9.15                             110    0.84 7  334 252 
 CBOC HZ I        23 8 12.72         9.1 0.33            110            334 252 
 DBB  SZ EP       23 7 31.85                             109   -0.40 7  339 274 
 DBB  SZ ES       23 8  8.93                             109   -0.31 7  339 274 
 DBB  SZ I        23 8 12.20        76.7 0.58            110            339 274 
 ANIL HZ EP       23 7 35.28                             108    0.62 6  358 224 
 ANIL HN ES   4   23 8 14.90                             108    1.36 0  358 224 
 ANIL HZ I        23 8 20.19        60.4 0.30            109            358 224 
 SDV  BN ES   4   23 8 11.04                             108   -2.71 0  360  50 
 ORTC HZ IP       23 7 38.80                             106    0.01 6  396 216 
 ORTC HN ES       23 8 20.87                             106   -0.02 6  396 216 
 ORTC HZ I        23 8 26.09        16.6 0.41            107            396 216 
 PAL  HZ IP       23 7 40.03                             106    0.03 6  406 239 
 PAL  HN ES       23 8 24.38                             106    1.34 6  406 239 
 PAL  HZ I        23 8 34.05        13.6 0.70            106            406 239 
 SJC  HZ EP   4   23 7 37.74                             106   -2.52 0  408 327 
 SJC  HN ES   4   23 8 18.18                             106   -5.33 0  408 327 
 SJC  HZ I        23 8 26.18        22.6 0.05            107            408 327 
 CRJC HZ EP   4   23 7 44.75                             103   -2.44 0  467   4 
 CRJC HN ES   4   23 8 31.41                             103   -4.44 0  467   4 
 CRJC HZ I        23 8 35.84        13.6 0.15            105            467   4 
                                                                                
