 2015  9 4 2042 10.5 L   6.255 -73.902 13.8  RSN  5 0.4 1.4LRSN                1
 GAP=111        0.96       3.1     2.4  6.6  0.2246E+01 -0.6730E+01 -0.1076E+02E
 Epicentro: CIMITARRA - SANTANDER                                              3
 ACTION:UPD 15-10-28 16:24 OP:cam  STATUS:               ID:20150904204210 L   I
 OLDACT:REG 15-09-05 02:52 OP:spq  STATUS:               ID:20150904203750     3
 2015-09-04-2037-50M.COL___355                                                 6
 STAT SP IPHASW D HRMM SECON CODA AMPLIT PERI AZIMU VELO AIN AR TRES W  DIS CAZ7
 PTB  HZ EP       2042 21.50                              99   -0.1710 68.9 297 
 PTB  HN ES       2042 30.42                              99    0.0310 68.9 297 
 PTB  HZ I        2042 31.95        20.7 0.12             99           68.9 297 
 SPBC HZ IP     D 2042 22.10                              99    0.3110 69.2 196 
 SPBC HE ES       2042 31.04                              99    0.4410 69.2 196 
 SPBC HZ I        2042 31.71        35.6 0.30             99           69.2 196 
 RUS  HZ EP       2042 26.61                              96   -0.0910 99.1 114 
 RUS  HN ES       2042 38.89                              96   -0.4410 99.1 114 
 RUS  HZ I        2042 40.50         6.7 0.50             96           99.1 114 
 PAM  EZ EP       2042 38.22                              56    0.33 9  179  48 
 PAM  EN ES       2042 59.56                              56    0.31 9  179  48 
 PAM  EZ I        2043  1.01         4.4 0.18             56            179  48 
 GUY2CHZ EP       2042 39.45                              56   -0.80 9  198 235 
 GUY2CHN ES   4   2043  0.98                              56   -2.47 0  198 235 
 GUY2CHZ I        2043  2.31         1.7 0.32                           198 235 
                                                                                
