 2015  3 4 2352 19.1 L   6.807 -73.192143.0  RSN  4 0.3 1.4LRSN                1
 GAP=197        0.76       4.4     6.1  8.6  0.1220E+02 -0.3300E+01 -0.6011E+01E
 Epicentro: ZAPATOCA - SANTANDER                                               3
 ACTION:UPD 15-04-30 16:23 OP:nd   STATUS:               ID:20150304235219 L   I
 OLDACT:UP  15-03-05 05:54 OP:mh   STATUS:               ID:20150304234749     3
 OLDACT:REG 15-03-05 05:22 OP:mh   STATUS:               ID:20150304234749     3
 2015-03-04-2347-49M.COL___275                                                 6
 STAT SP IPHASW D HRMM SECON CODA AMPLIT PERI AZIMU VELO AIN AR TRES W  DIS CAZ7
 RUS  HZ EP       2352 42.89                             143    0.1910  102 173 
 RUS  HN ES       2353  1.07                             143   -0.0210  102 173 
 RUS  HZ I        2353  3.10         4.2 0.24            143            102 173 
 PTB  HZ EP       2352 45.22                             132   -0.21 9  143 258 
 PTB  HN ES       2353  6.20                             132    0.25 9  143 258 
 PTB  HZ I        2353  9.49         3.7 0.10            132            143 258 
 SML  HZ EP   4   2352 53.07                             117   -2.22 0  241 336 
 SML  HN ES   1   2353 23.18                             117   -0.32 6  241 336 
 CHI  HZ EP       2352 57.09                             117    0.47 8  248 194 
 CHI  HN ES       2353 25.25                             117   -0.61 8  248 194 
 CHI  HZ I        2353 29.89         1.7 0.34            117            248 194 
                                                                                
