 2011  7 4 2030 11.2 L   7.546 -73.622 94.7  RSN  4 0.2 1.4LRSN                1
 GAP=192        0.47       3.6     5.6  5.9 -0.1154E+02 -0.9933E+01 -0.5733E+00E
 Epicentro: SABANA DE TORRES - SANTANDER                                       3
 ACTION:UPD 12-07-25 13:58 OP:epov STATUS:               ID:20110704203011 L   I
 2011-07-04-2028-00S.COL___140                                                 6
 STAT SP IPHASW D HRMM SECON CODA AMPLIT PERI AZIMU VELO AIN AR TRES W  DIS CAZ7
 BRR  HZ EP       2030 25.43                             150   -0.2010 49.6 192 
 BRR  HN ES   1   2030 37.05                             150    0.18 7 49.6 192 
 BRR  HZ I        2030 39.86         6.6 0.46                          49.6 192 
 OCA  SZ EP       2030 28.62                             136    0.2310 83.5  24 
 OCA  SZ ES   1   2030 41.57                             136   -0.21 7 83.5  24 
 OCA  SZ I        2030 45.88         6.7 0.37                          83.5  24 
 BRI  SZ EP       2030 29.34                             132    0.0810 92.9  78 
 GRA  SZ EP       2030 29.56                             131   -0.1110 97.7  67 
 GRA  SZ ES   2   2030 44.11                             131    0.05 5 97.7  67 
 GRA  SZ I        2030 45.09         6.6 0.30                          97.7  67 
                                                                                
