 2017  6 4 2324 14.1 L   6.851 -73.183142.0  RSN  8 0.4 2.0LRSN                1
 GAP=215        0.90       5.1     4.4  9.2  0.1081E+02 -0.5528E+01 -0.1911E+02E
 Epicentro: ZAPATOCA - SANTANDER                                               3
 ACTION:UPD 17-09-14 16:49 OP:jn   STATUS:               ID:20170604232414 L   I
 OLDACT:REG 17-06-05 02:44 OP:dnl  STATUS:               ID:20170604231730     3
 2017-06-04-2318-00M.COL___341                                                 6
 STAT SP IPHASW D HRMM SECON CODA AMPLIT PERI AZIMU VELO AIN AR TRES W  DIS CAZ7
 BRR  HZ EP       2324 34.69                             154    0.2110 64.9 296 
 BRR  HZ I        2324 54.77        17.6 0.44            152           64.9 296 
 RUS  HZ EP       2324 37.25                             142   -0.6610  107 174 
 RUS  HN ES       2324 56.65                             142    0.1510  107 174 
 RUS  HZ I        2324 57.78         4.5 0.26            152            107 174 
 PTB  HZ EP       2324 39.86                             132   -0.63 9  145 256 
 PTB  HN ES       2325  0.73                             132   -0.35 9  145 256 
 PTB  HZ I        2325  8.35        10.2 0.33            137            145 256 
 SPBC HZ EP       2324 42.63                             128    0.15 9  165 217 
 SPBC HN ES       2325  4.82                             128    0.19 9  165 217 
 SPBC HZ I        2325  9.18         8.4 0.20            136            165 217 
 YPLC HZ EP   4   2324 42.11                             125   -2.19 0  184 151 
 YPLC HN ES       2325  8.17                             125    0.30 9  184 151 
 YPLC HZ I        2325 10.45        13.0 0.16            132            184 151 
 ZAR  HZ EP       2324 46.31                             123    0.64 9  198 291 
 ZAR  HE ES       2325 10.41                             123    0.10 9  198 291 
 ZAR  HZ I        2325 16.87        10.4 0.30            125            198 291 
 NOR  HZ EP       2324 49.59                             118   -0.01 8  235 233 
 NOR  HN ES       2325 17.42                             118    0.13 8  235 233 
 NOR  HZ I        2325 21.51        14.4 0.05            123            235 233 
 HEL  HZ EP   9   2324 55.19                             114    1.37 0  269 254 
 HEL  HN ES       2325 26.38                                    0.20 8  269 254 
 HEL  HZ I        2325 32.57         6.9 0.16            118            269 254 
 SJC  HZ EP   4   2325  7.31                             106   -1.39 0  402 327 
 SJC  HN ES   4   2325 47.25                             106   -4.05 0  402 327 
                                                                                
