 2011  6 4 2030 59.4 L   6.931 -72.924146.0  RSN  4 0.2 1.6LRSN                1
 GAP=182        0.50       6.9    13.0 15.3  0.4577E+02 -0.1282E+03 -0.5461E+02E
 Epicentro: SANTA BARBARA - SANTANDER                                          3
 ACTION:UP  11-07-14 19:03 OP:ep   STATUS:               ID:20110604203059 L   I
 2011-06-04-2029-45S.COL___132                                                 6
 STAT SP IPHASW D HRMM SECON CODA AMPLIT PERI AZIMU VELO SNR AR TRES W  DIS CAZ7
 BAR2 SZ EP   1   2031 20.10                             162     0.3 7   47 217 
 BAR2 SZ I        2031 36.90        14.4 0.23                            47 217 
 BRR  HZ EP   1   2031 21.53                             147    -0.2 7   89 283 
 BRR  HE ES   2   2031 39.25                             147     0.1 5   89 283 
 BRR  HZ I        2031 43.24         8.5 0.29                            89 283 
 GRA  SZ EP   2   2031 23.02                             142    -0.1 5  106   7 
 GRA  SZ I        2031 51.10         4.4 0.40                           106   7 
 RUS  HZ EP   2   2031 24.40                             140     0.0 5  116 189 
 RUS  HE ES   2   2031 43.60                             140    -0.3 5  116 189 
 RUS  HZ I        2031 43.97         3.9 0.24                           116 189 
                                                                                
