 2015 10 4 2255 16.0 L   6.819 -73.145143.8  RSN 13 0.4 2.5LRSN                1
 GAP=136        1.00       2.6     4.6  5.3 -0.2517E+01  0.8781E+01  0.1394E+01E
 Epicentro: LOS SANTOS - SANTANDER                                             3
 ACTION:UPD 15-12-22 20:37 OP:cam  STATUS:               ID:20151004225516 L   I
 OLDACT:UP  15-10-05 08:57 OP:mh   STATUS:               ID:20151004224746     3
 OLDACT:UP  15-10-05 08:57 OP:mh   STATUS:               ID:20151004224746     3
 OLDACT:UP  15-10-05 08:57 OP:mh   STATUS:               ID:20151004224746     3
 OLDACT:UP  15-10-05 08:56 OP:mh   STATUS:               ID:20151004224746     3
 OLDACT:REG 15-10-05 05:31 OP:mh   STATUS:               ID:20151004224746     3
 2015-10-04-2247-46M.COL___349                                                 6
 STAT SP IPHASW D HRMM SECON CODA AMPLIT PERI AZIMU VELO AIN AR TRES W  DIS CAZ7
 BAR2 EZ EP       2255 35.36                             169   -0.0710 25.4 189 
 BAR2 EZ ES       2255 49.89                             169   -0.7010 25.4 189 
 BAR2 EZ I        2255 51.57        68.4 0.45            169           25.4 189 
 BRR  HZ IP     C 2255 37.23                             152    0.3610 70.3 297 
 BRR  HN ES       2255 53.89                             152    0.7210 70.3 297 
 BRR  HZ I        2255 58.11        42.6 0.20            150           70.3 297 
 PAM  EZ EP   1   2255 38.42                             151    0.52 7 75.7  41 
 PAM  EN ES       2255 55.53                             151    0.5410 75.7  41 
 PAM  EZ I        2255 58.12        29.1 0.44            155           75.7  41 
 RUS  HZ EP       2255 39.48                             143   -0.2210  103 176 
 RUS  HN ES       2255 58.17                             143   -0.0310  103 176 
 RUS  HZ I        2255 58.82        36.0 0.26            146            103 176 
 OCA  HZ EP   1   2255 43.91                             130   -0.04 7  158 353 
 OCA  HN ES       2256  5.27                             130   -0.49 9  158 353 
 OCA  HZ I        2256 13.81        45.3 0.24            131            158 353 
 SPBC HZ EP       2255 44.35                             128   -0.15 9  165 219 
 SPBC HN ES       2256  6.53                             128   -0.21 9  165 219 
 SPBC HZ I        2256 11.97        44.8 0.20            129            165 219 
 NOR  HZ EP   1   2255 51.71                             118   -0.03 6  236 234 
 NOR  HN ES       2256 19.59                             118   -0.04 8  236 234 
 NOR  HZ I        2256 23.97        19.5 0.24            119            236 234 
 SML  HZ EP       2255 51.90                             117   -0.40 8  242 335 
 SML  HN ES       2256 20.06                             117   -0.56 8  242 335 
 SML  HZ I        2256 23.45        34.6 0.24            118            242 335 
 CHI  HZ EP       2255 53.56                             116   -0.24 8  251 195 
 CHI  HN ES       2256 22.95                             116   -0.35 8  251 195 
 CHI  HZ I        2256 25.38        22.2 0.35            118            251 195 
 ROSC BZ EP       2255 55.02                             116    0.82 8  255 211 
 ROSC BN ES   4   2256 26.59                             116    2.58 0  255 211 
 ROSC BZ I        2256 29.86        38.3 0.35            118            255 211 
 HEL  HZ EP   1   2255 57.13                             114    0.96 6  273 255 
 HEL  HN ES       2256 27.39                             114   -0.12 8  273 255 
 HEL  HZ I        2256 33.17        13.9 0.32            115            273 255 
 URE  HZ EP   4   2255 58.99                             113    2.11 0  283 292 
 URE  HN ES   4   2256 25.76                             113   -3.02 0  283 292 
 GUY2CHZ EP       2255 59.60                             112   -0.05 7  302 234 
 GUY2CHN ES   4   2256 37.27                             112    3.56 0  302 234 
 GUY2CHZ I        2256 43.15        11.6 0.24                           302 234 
 ORTC HZ EP   1   2256  9.68                             106   -0.37 4  397 216 
 ORTC HN ES       2256 52.83                             106    0.62 6  397 216 
 ORTC HZ I        2256 58.93         7.5 0.56            107            397 216 
                                                                                
