 2011  1 4 2033 35.3 L   7.407 -73.213123.4  RSN  6 0.3 1.9LRSN                1
 GAP=166        0.49       4.0    10.2  7.8 -0.1802E+02  0.4324E+02 -0.8505E+01E
 Epicentro: EL PLAYON - SANTANDER                                              3
 ACTION:UP  11-02-08 08:38 OP:pat  STATUS:               ID:20110104203335 L   I
 2011-01-04-2031-47S.COL___135                                                 6
 STAT SP IPHASW D HRMM SECON CODA AMPLIT PERI AZIMU VELO SNR AR TRES W  DIS CAZ7
 GIR2 SZ ES   2   2034  5.88                             162     0.0 5   36 177 
 BTL  SZ EP       2033 53.63                             154     0.210   54 186 
 GRA  SZ EP       2033 54.37                             148     0.210   69  41 
 GRA  SZ ES   1   2034  8.82                             148    -0.1 7   69  41 
 GRA  SZ I        2034 11.15        28.1 0.27                            69  41 
 BAR2 SZ ES   3   2034 11.18                             141    -0.5 2   90 178 
 BAR2 SZ I        2034 13.21        10.2 0.11                            90 178 
 OCA  SZ EP       2033 55.60                             141    -0.210   93 353 
 OCA  SZ ES   3   2034 12.28                             141     0.4 2   93 353 
 OCA  SZ I        2034 14.32        17.1 0.15                            93 353 
 RUS  HZ EP   3   2034  2.56                             122    -0.7 2  168 175 
 RUS  HN ES   3   2034 24.70                             122    -0.3 2  168 175 
                                                                                
