 2011  1 4 2117 39.9 L   6.812 -73.155142.1  RSN 12 0.4 2.1LRSN                1
 GAP=135        0.67       3.0     5.3  6.3 -0.5714E+01  0.8060E+01 -0.9532E+00E
 Epicentro: LOS SANTOS - SANTANDER                                             3
 ACTION:UP  11-02-08 08:38 OP:pat  STATUS:               ID:20110104211739 L   I
 2011-01-04-2114-00S.COL___133                                                 6
 STAT SP IPHASW D HRMM SECON CODA AMPLIT PERI AZIMU VELO SNR AR TRES W  DIS CAZ7
 BTL  SZ IP   2   2118  0.21                             173     1.2 5   17 313 
 BAR2 SZ EP       2117 59.07                             170     0.010   25 187 
 BAR2 SZ ES   2   2118 13.98                             170    -0.1 5   25 187 
 BAR2 SZ I        2118 15.50        19.7 0.27                            25 187 
 GIR2 SZ EP   3   2117 59.49                             168     0.4 2   30 352 
 GIR2 SZ ES   3   2118 13.80                             168    -0.2 2   30 352 
 RUS  HZ EP       2118  3.27                             143    -0.110  102 176 
 RUS  HN ES   1   2118 21.39                             143    -0.3 7  102 176 
 RUS  HZ I        2118 23.63        15.6 0.32                           102 176 
 GRA  SZ IP       2118  4.76                             136     0.010  125  18 
 GRA  SZ ES   1   2118 24.30                             136     0.2 7  125  18 
 GRA  SZ I        2118 25.55        26.8 0.32                           125  18 
 OCA  SZ EP       2118  7.39                             129    -0.4 9  159 353 
 OCA  SZ I        2118 33.60        25.0 0.25                           159 353 
 YOP  SZ EP       2118  9.98                             125     0.1 9  181 153 
 NOR  SZ EP       2118 15.51                             118     0.1 8  235 234 
 NOR  SN ES   1   2118 42.96                             118    -0.2 6  235 234 
 CHI  HZ EP   2   2118 17.15                             116    -0.3 4  250 195 
 CHI  HN ES   2   2118 47.54                             116     0.7 4  250 195 
 CHI  HZ I        2118 51.96         6.9 0.41                           250 195 
 HEL  HN ES   3   2118 51.09                             114     0.1 2  271 255 
 HEL  HZ I        2118 58.88         9.0 0.31                           271 255 
 RREF HN ES   3   2119  2.01                             110     0.3 2  322 229 
 RREF HZ I        2119  7.93         7.5 0.45                           322 229 
 PRA  HZ EP   3   2118 33.30                             106    -0.1 1  393 209 
                                                                                
