 2014 11 4 2245 18.2 L   6.758 -73.146146.9  RSN  4 0.4 1.3LRSN                1
 GAP=138        0.91       5.8     5.3  8.5 -0.4708E+01  0.2798E+01  0.1358E+02E
 Epicentro: LOS SANTOS - SANTANDER                                             3
 ACTION:UPD 14-12-19 15:39 OP:nd   STATUS:               ID:20141104224518 L   I
 OLDACT:REG 14-11-05 05:12 OP:spq  STATUS:               ID:20141104223750     3
 2014-11-04-2237-50M.COL___267                                                 6
 STAT SP IPHASW D HRMM SECON CODA AMPLIT PERI AZIMU VELO AIN AR TRES W  DIS CAZ7
 BRR  HZ EP       2245 39.96                             152    0.3110 73.5 302 
 BRR  HN ES       2245 56.78                             152    0.4310 73.5 302 
 BRR  HZ I        2245 58.59         7.2 0.14            153           73.5 302 
 PAM  SZ EP       2245 40.59                             150   -0.2210 81.1  37 
 PAM  SN ES       2245 58.14                             150   -0.2610 81.1  37 
 PAM  SZ I        2245 59.59         2.5 0.58            153           81.1  37 
 RUS  HZ EP       2245 42.23                             145    0.4510 95.9 176 
 RUS  HE ES   1   2245 59.98                             145   -0.16 7 95.9 176 
 RUS  HZ I        2246  1.49         2.2 0.32            147           95.9 176 
 PTB  HZ EP       2245 44.87                             132   -0.36 9  147 261 
 PTB  HN ES   1   2246  5.66                             132   -0.62 7  147 261 
 PTB  HZ I        2246  8.22         3.6 0.19            134            147 261 
                                                                                
