 2016  6 4 2355 44.7 L   6.786 -73.160149.8  RSN  7 0.4 1.8LRSN                1
 GAP=135        0.92       4.9     4.8  7.3 -0.3715E+01  0.4357E+01  0.4295E+01E
 Epicentro: LOS SANTOS - SANTANDER                                             3
 ACTION:UPD 16-07-21 22:15 OP:rebc STATUS:               ID:20160604235544 L   I
 OLDACT:REG 16-06-05 04:04 OP:mh   STATUS:               ID:20160604234741     3
 2016-06-04-2347-41M.COL___331                                                 6
 STAT SP IPHASW D HRMM SECON CODA AMPLIT PERI AZIMU VELO AIN AR TRES W  DIS CAZ7
 BAR2 EZ EP   2   2356  4.26                             171   -0.53 5 21.6 187 
 BAR2 EZ ES   2   2356 19.67                             171   -0.78 5 21.6 187 
 BAR2 EZ I        2356 21.26        13.0 0.20                          21.6 187 
 BRR  HZ EP       2356  6.54                             154    0.2810 70.6 300 
 BRR  HE ES       2356 23.70                             154    0.6310 70.6 300 
 BRR  HZ I        2356 25.89        10.8 0.12                          70.6 300 
 PAM  EZ EP       2356  7.72                             151    0.2410 79.6  40 
 PAM  EN ES       2356 24.74                             151   -0.5010 79.6  40 
 PAM  EZ I        2356 27.36         5.8 0.50                          79.6  40 
 RUS  HZ EP       2356  8.75                             145   -0.0010 99.1 175 
 RUS  HZ IP       2356  8.75                             145           99.1 175 
 RUS  HN ES       2356 27.87                             145    0.3610 99.1 175 
 RUS  HZ I        2356 29.45         5.3 0.30                          99.1 175 
 PTB  HZ EP       2356 11.41                             133   -0.43 9  146 259 
 PTB  HN ES       2356 32.58                             133   -0.43 9  146 259 
 PTB  HZ I        2356 34.52         8.6 0.14                           146 259 
 SPBC HZ EP   2   2356 13.39                             130    0.08 5  161 219 
 SPBC HN ES   2   2356 35.68                             130    0.05 5  161 219 
 SPBC HZ I        2356 43.17        16.4 0.10                           161 219 
 HEL  HZ EP   2   2356 25.30                             116    0.38 4  270 256 
 HEL  HN ES   4   2356 57.52                             116    1.23 0  270 256 
 HEL  HZ I        2357  3.45         4.8 0.36                           270 256 
                                                                                
