 2016 12 4 2009 49.1 L   6.638 -73.147139.4  RSN  4 0.2 1.2LRSN                1
 GAP=288        0.54       6.6     5.7  6.9 -0.4910E+01 -0.7215E+01  0.2004E+02E
 Epicentro: VILLANUEVA - SANTANDER                                             3
 ACTION:UPD 17-01-11 20:12 OP:rebc STATUS:               ID:20161204200949 L   I
 OLDACT:UP  16-12-05 03:05 OP:edw  STATUS:               ID:20161204200744     3
 OLDACT:UP  16-12-05 03:03 OP:edw  STATUS:               ID:20161204200744     3
 OLDACT:REG 16-12-05 02:21 OP:edw  STATUS:               ID:20161204200744     3
 2016-12-04-2008-00M.COL___352                                                 6
 STAT SP IPHASW D HRMM SECON CODA AMPLIT PERI AZIMU VELO AIN AR TRES W  DIS CAZ7
 BRR  HZ EP       2010  9.89                             148   -0.2710 81.2 310 
 BRR  HE ES       2010 26.75                             148    0.1510 81.2 310 
 PTB  HZ EP       2010 15.60                             131    0.30 9  145 266 
 PTB  HN ES       2010 35.53                             131   -0.22 9  145 266 
 PTB  HZ I        2010 38.35         2.1 0.11            125            145 266 
 ZAR  HZ EP   2   2010 21.72                             120   -0.16 4  211 297 
 ZAR  HE ES       2010 47.53                             120    0.06 8  211 297 
 ZAR  HZ I        2010 51.97         1.7 0.40            116            211 297 
 NOR  HZ EP   2   2010 23.57                             118    0.21 4  225 238 
 NOR  HE ES   4   2010 48.50                             118   -1.60 0  225 238 
 NOR  HZ I        2010 54.08         1.2 0.16            114            225 238 
                                                                                
