 2011 10 4 2057 53.1 L   6.791 -73.121134.6  RSN  6 0.3 1.6LRSN                1
 GAP=140        0.54       3.3     4.0  5.1 -0.2192E+01  0.5246E+01  0.8954E+00E
 Epicentro: LOS SANTOS - SANTANDER                                             3
 ACTION:UPD 12-07-13 16:01 OP:ep   STATUS:               ID:20111004205753 L   I
 2011-10-04-2054-32S.COL___171                                                 6
 STAT SP IPHASW D HRMM SECON CODA AMPLIT PERI AZIMU VELO AIN AR TRES W  DIS CAZ7
 BAR2 SZ EP       2058 11.19                             170   -0.1410 23.0 197 
 BAR2 SZ ES   1   2058 25.61                             170    0.02 7 23.0 197 
 BAR2 SZ I        2058 27.39         8.3 0.16                          23.0 197 
 BRR  HZ EP   1   2058 12.89                             149   -0.29 7 74.0 298 
 BRR  HZ I        2058 14.10        13.7 0.11                          74.0 298 
 BRR  HE ES   2   2058 29.30                             149    0.43 5 74.0 298 
 PAM  SZ EP       2058 13.87                             149   -0.1610 76.5  38 
 PAM  SN ES   1   2058 30.67                             149    0.27 7 76.5  38 
 RUS  HZ EP       2058 15.91                             142    0.2710 99.5 178 
 RUS  HE ES   1   2058 32.96                             142   -0.29 7 99.5 178 
 RUS  HZ I        2058 35.63         2.8 0.28                          99.5 178 
 ZAR  HE ES   2   2058 49.86                             119   -0.23 4  207 292 
 ZAR  HZ I        2058 54.98         6.8 0.23                           207 292 
 NOR  SZ EP   1   2058 28.75                             116    0.41 6  236 235 
 NOR  SN ES   2   2058 55.74                             116   -0.12 4  236 235 
                                                                                
