 2015 12 4 2353 47.1 L   6.845 -73.145144.0  RSN 22 0.5 2.5LRSN                1
 GAP= 70        1.16       2.7     3.0  5.1 -0.6822E+00  0.4644E+01  0.2200E+01E
 Epicentro: LOS SANTOS - SANTANDER                                             3
 ACTION:UPD 16-02-04 15:02 OP:cam  STATUS:               ID:20151204235347 L   I
 OLDACT:REG 15-12-05 04:52 OP:ak   STATUS:               ID:20151204234748     3
 2015-12-04-2347-48M.COL___313                                                 6
 STAT SP IPHASW D HRMM SECON CODA AMPLIT PERI AZIMU VELO AIN AR TRES W  DIS CAZ7
 BAR2 EZ IP     D 2354  6.63                             168   -0.0310 28.3 188 
 BAR2 EZ ES       2354 21.51                             168   -0.3810 28.3 188 
 BAR2 EZ I        2354 24.30        49.1 0.28            167           28.3 188 
 BRR  HZ EP   1   2354  8.33                             153    0.36 7 69.0 295 
 BRR  HN ES       2354 25.00                             153    0.7810 69.0 295 
 BRR  HZ I        2354 28.53        31.3 0.16            150           69.0 295 
 PAM  EZ EP     D 2354  9.39                             152    0.4610 73.5  42 
 PAM  EN ES       2354 26.20                             152    0.2710 73.5  42 
 PAM  EZ I        2354 28.35        73.1 0.50            156           73.5  42 
 RUS  HZ EP       2354 10.61                             142   -0.4610  106 176 
 RUS  HN ES       2354 29.52                             142   -0.2310  106 176 
 RUS  HZ I        2354 31.15        52.8 0.26            144            106 176 
 PTB  HZ EP       2354 13.21                             131   -0.85 9  149 257 
 PTB  HE ES       2354 35.07                             131    0.01 9  149 257 
 PTB  HZ I        2354 37.14        25.8 0.39            131            149 257 
 OCA  HZ EP       2354 15.03                             130    0.19 9  155 353 
 OCA  HE ES       2354 36.04                             130   -0.41 9  155 353 
 OCA  HZ I        2354 39.80        71.7 0.28            132            155 353 
 TAM  HZ EP       2354 14.69                             130   -0.10 9  156 107 
 TAM  HN ES       2354 36.61                             130    0.25 9  156 107 
 SPBC HZ EP       2354 15.66                             128   -0.21 9  167 218 
 SPBC HN ES       2354 37.68                             128   -0.61 9  167 218 
 SPBC HZ I        2354 41.53        55.9 0.28            128            167 218 
 ZAR  HZ EP       2354 20.25                             122    0.97 9  202 291 
 ZAR  HN ES       2354 44.80                             122    0.44 9  202 291 
 ZAR  HZ I        2354 50.42        37.9 0.18            122            202 291 
 NOR  HZ EP       2354 22.61                             118   -0.47 8  238 233 
 NOR  HN ES       2354 50.61                             118   -0.51 8  238 233 
 NOR  HZ I        2354 57.18        29.9 0.18            118            238 233 
 SML  HZ EP       2354 22.68                             118   -0.49 8  239 335 
 SML  HN ES       2354 50.42                             118   -0.86 8  239 335 
 SML  HZ I        2354 54.72        43.7 0.12            119            239 335 
 ROSC BZ EP   1   2354 26.82                             116    1.19 6  257 210 
 ROSC BN ES   4   2354 57.89                             116    2.24 0  257 210 
 ROSC BZ I        2355  3.50        36.2 0.65            117            257 210 
 HEL  HZ EP   1   2354 28.29                             114    0.89 6  273 255 
 HEL  HN ES       2354 59.18                             114    0.37 8  273 255 
 HEL  HZ I        2355  6.29        16.3 0.26            115            273 255 
 URE  HZ EP   4   2354 31.20                             113    3.28 0  282 291 
 URE  HN ES   4   2354 57.39                             113   -2.34 0  282 291 
 URE  HZ I        2355  7.89        14.2 0.19            114            282 291 
 SOCV BZ EP   4   2354 28.31                             112   -1.47 0  299  58 
 SOCV BN ES   4   2355  0.29                             112   -2.76 0  299  58 
 GUY2CHZ EP   1   2354 31.96                             112    0.97 5  304 234 
 GUY2CHN ES       2355  6.15                             112    0.95 7  304 234 
 GUY2CHZ I        2355 13.45        18.3 0.50                           304 234 
 VIL  SZ EP       2354 30.89                             111   -0.13 7  308 191 
 VIL  SN ES       2355  5.28                             111    0.02 7  308 191 
 CBOC HZ EP       2354 33.84                             109   -0.32 7  335 251 
 CBOC HE ES       2355 10.86                             109    0.02 7  335 251 
 CBOC HZ I        2355 22.89         6.0 0.48            110            335 251 
 DBB  SZ EP       2354 34.32                             109   -0.19 7  339 273 
 DBB  SZ ES       2355 10.48                             109   -0.98 7  339 273 
 DBB  SZ I        2355 14.63        31.3 0.48            110            339 273 
 PRA  HZ EP       2354 40.71                             106   -0.39 6  396 209 
 PRA  HN ES       2355 22.92                             106   -0.28 6  396 209 
 PRA  HZ I        2355 27.47        14.6 0.28            107            396 209 
 ORTC HZ EP       2354 42.17                             106    0.70 6  400 216 
 ORTC HN ES       2355 24.77                             106    0.92 6  400 216 
 ORTC HZ I        2355 31.29         8.2 0.40            107            400 216 
 SJC  HZ EP   4   2354 40.77                             106   -1.38 0  405 327 
 SJC  HN ES   4   2355 21.64                             106   -3.42 0  405 327 
 SJC  HZ I        2355 29.48         4.0 0.40            107            405 327 
 PAL  HZ EP   2   2354 42.69                             105    0.15 3  408 238 
 PAL  HN ES       2355 25.82                             105    0.06 6  408 238 
 PAL  HZ I        2355 31.06         5.9 0.40            106            408 238 
                                                                                
