 2014  7 4 2121 15.5 L   6.873 -73.126143.2  RSN 13 0.5 2.3LRSN                1
 GAP=135        1.09       3.2     4.1  5.6 -0.6794E+00  0.8429E+01  0.2568E+01E
 Epicentro: LOS SANTOS - SANTANDER                                             3
 ACTION:UPD 15-03-16 20:41 OP:nd   STATUS:               ID:20140704212115 L   I
 OLDACT:REG 14-07-05 03:04 OP:carl STATUS:               ID:20140704211820     3
 2014-07-04-2118-20M.COL___259                                                 6
 STAT SP IPHASW D HRMM SECON CODA AMPLIT PERI AZIMU VELO AIN AR TRES W  DIS CAZ7
 BAR2 SZ EP       2121 34.93                             167   -0.0610 31.7 191 
 BAR2 SZ ES       2121 50.03                             167   -0.1910 31.7 191 
 BAR2 SZ I        2121 51.82        23.0 0.74            167           31.7 191 
 BRR  HZ EP       2121 36.56                             153    0.3010 69.8 292 
 BRR  HE ES       2121 53.17                             153    0.7010 69.8 292 
 BRR  HZ I        2121 57.66        23.8 0.44            152           69.8 292 
 PAM  SZ EP       2121 37.48                             153    0.5010 69.8  42 
 PAM  SE ES       2121 54.26                             153    0.5210 69.8  42 
 PAM  SZ I        2121 56.26        18.8 0.26            150           69.8  42 
 RUS  HZ EP       2121 39.11                             141   -0.4510  109 178 
 RUS  HN ES       2121 57.68                             141   -0.6710  109 178 
 RUS  HZ I        2121 59.73         9.9 0.30            140            109 178 
 PTB  HZ EP   4   2121 41.66                             131   -0.93 0  152 256 
 PTB  HN ES       2122  3.09                             131   -0.65 9  152 256 
 PTB  HZ I        2122  5.16        26.1 0.40            129            152 256 
 ZAR  HZ EP       2121 47.29                             122   -0.38 9  203 290 
 ZAR  HN ES       2122 12.80                             122    0.02 9  203 290 
 ZAR  HZ I        2122 18.53        33.9 0.28            120            203 290 
 SML  HZ EP       2121 50.80                             118   -0.47 8  237 334 
 SML  HE ES       2122 18.18                             118   -1.01 8  237 334 
 SML  HZ I        2122 23.62        17.7 0.10            116            237 334 
 CHI  HZ EP       2121 53.78                             116   -0.17 8  257 195 
 CHI  HN ES       2122 23.99                             116    0.04 8  257 195 
 CHI  HZ I        2122 28.83         7.6 0.30            114            257 195 
 ROSC BZ EP   4   2121 54.87                             115    0.53 0  261 211 
 ROSC BN ES   4   2122 26.36                             115    1.71 0  261 211 
 ROSC BZ I        2122 33.15        14.6 0.40            114            261 211 
 HEL  HZ EP       2121 56.71                             114    0.68 7  276 254 
 HEL  HN ES       2122 27.72                             114    0.06 7  276 254 
 HEL  HZ I        2122 33.91        15.7 0.28            112            276 254 
 GUY2CHZ EP       2122  0.28                             111    0.58 7  308 234 
 GUY2CHE ES       2122 34.63                             111    0.43 7  308 234 
 GUY2CHZ I        2122 43.40        15.2 0.46                           308 234 
 RREF HZ EP       2122  2.59                             110    0.29 7  329 229 
 RREF HN ES       2122 39.01                             110    0.18 7  329 229 
 RREF HZ I        2122 48.68         7.0 0.50            109            329 229 
 TOL  SZ EP       2122  4.51                             108    0.04 6  351 224 
 TOL  SN ES       2122 42.77                             108    0.08 6  351 224 
 TOL  SZ I        2122 50.63        22.5 0.70            107            351 224 
                                                                                
