 2017 11 4 2337 52.8 L   6.765 -73.182141.3  RSN  4 0.3 0.9LRSN                1
 GAP=231        0.81       6.5     6.5  6.8  0.2331E+02  0.8835E+01  0.4579E+01E
 Epicentro: LOS SANTOS - SANTANDER                                             3
 ACTION:UPD 17-12-12 19:52 OP:rebc STATUS:               ID:20171104233752 L   I
 OLDACT:DUP 17-11-05 10:21 OP:edw  STATUS:               ID:20171104232746d    3
 OLDACT:UP  17-11-05 10:16 OP:edw  STATUS:               ID:20171104232744     3
 OLDACT:REG 17-11-05 06:43 OP:edw  STATUS:               ID:20171104232744     3
 2017-11-04-2328-00M.COL___435                                                 6
 STAT SP IPHASW D HRMM SECON CODA AMPLIT PERI AZIMU VELO AIN AR TRES W  DIS CAZ7
 BAR2 EZ ES       2338 26.33                             172   -0.2910 19.1 180 
 BRR  HZ EP       2338 13.84                             152    0.4810 69.7 303 
 BRR  HN ES       2338 29.37                             152   -0.0410 69.7 303 
 RUS  HZ EP       2338 15.79                             144   -0.0510 97.1 174 
 RUS  HN ES       2338 34.04                             144    0.2110 97.1 174 
 RUS  HZ I        2338 35.92         1.0 0.28            142           97.1 174 
 PTB  HZ EP       2338 18.43                             132   -0.53 9  143 260 
 PTB  HN ES       2338 39.55                             132    0.17 9  143 260 
 PTB  HZ I        2338 42.22         1.3 0.40            130            143 260 
                                                                                
