 2016 12 4 2048 12.0 L   6.723 -73.132118.9  RSN  5 0.3 1.3LRSN                1
 GAP=258        0.93       9.1     6.7  7.6  0.2706E+02  0.6164E+01 -0.3483E+01E
 Epicentro: JORDAN - SANTANDER                                                 3
 ACTION:UPD 17-01-11 20:12 OP:rebc STATUS:               ID:20161204204812 L   I
 OLDACT:UP  16-12-05 03:25 OP:edw  STATUS:               ID:20161204203743     3
 OLDACT:UP  16-12-05 03:23 OP:edw  STATUS:               ID:20161204203743     3
 OLDACT:REG 16-12-05 02:31 OP:edw  STATUS:               ID:20161204203743     3
 2016-12-04-2038-00M.COL___352                                                 6
 STAT SP IPHASW D HRMM SECON CODA AMPLIT PERI AZIMU VELO AIN AR TRES W  DIS CAZ7
 BAR2 EZ EP       2048 28.13                             172   -0.0910 15.5 201 
 BAR2 EZ ES       2048 41.18                             172    0.2910 15.5 201 
 BAR2 EZ I        2048 44.11         4.2 0.23            176           15.5 201 
 BRR  HZ EP       2048 30.22                             145   -0.4610 76.9 304 
 BRR  HN ES       2048 45.41                             145    0.1410 76.9 304 
 BRR  HZ I        2048 49.53         9.9 0.22            147           76.9 304 
 PTB  HZ EP   9   2048 36.79                             125   -0.11 0  148 262 
 PTB  HN ES       2048 55.47                             123   -0.77 9  148 262 
 PTB  HZ I        2048 57.15         2.5 0.08            129            148 262 
 ZAR  HZ EP   4   2048 48.44                             115    5.10 0  209 294 
 ZAR  HE ES       2049  7.93                             115    0.12 8  209 294 
 NOR  HZ EP   2   2048 46.58                             113    0.69 4  231 236 
 NOR  HE ES   2   2049 11.85                             113   -0.50 4  231 236 
                                                                                
