 2011  6 4 2013  2.0 L   6.782 -73.097142.0  RSN  7 0.2 1.8LRSN                1
 GAP=144        0.40       2.3     3.6  3.6 -0.2199E+01  0.8544E+00  0.3951E+00E
 Epicentro: LOS SANTOS - SANTANDER                                             3
 ACTION:UP  11-07-14 19:03 OP:ep   STATUS:               ID:20110604201302 L   I
 2011-06-04-2010-31S.COL___132                                                 6
 STAT SP IPHASW D HRMM SECON CODA AMPLIT PERI AZIMU VELO SNR AR TRES W  DIS CAZ7
 BAR2 SZ EP   1   2013 21.14                             170     0.0 7   23 204 
 BAR2 SZ ES   1   2013 36.08                             170     0.0 7   23 204 
 BAR2 SZ I        2013 37.27        14.2 0.29                            23 204 
 PAM  SZ EP   2   2013 23.99                             151     0.3 5   76  35 
 PAM  SE ES   2   2013 40.53                             151    -0.1 5   76  35 
 BRR  HZ EP   1   2013 23.03                             150     0.0 7   77 298 
 BRR  HZ I        2013 32.00        21.7 0.42                            77 298 
 BRR  HN ES   1   2013 39.61                             150     0.1 7   77 298 
 RUS  HZ EP   1   2013 25.34                             144     0.2 7   98 179 
 RUS  HZ I        2013 26.43         7.2 0.21                            98 179 
 RUS  HN ES   1   2013 43.21                             144    -0.1 7   98 179 
 GRA  SZ EP   1   2013 26.92                             136     0.0 7  126  15 
 GRA  SZ ES   2   2013 45.94                             136    -0.4 5  126  15 
 GRA  SZ I        2013 47.45         8.6 0.37                           126  15 
 NOR  SZ EP   2   2013 37.26                             117    -0.6 4  238 236 
 NOR  SE ES   2   2014  5.83                             117     0.0 4  238 236 
 PRA  HZ EP   2   2013 55.91                             106     0.4 3  393 210 
 PRA  HN ES   2   2014 36.81                             106    -0.4 3  393 210 
                                                                                
