 2010  1 4 2225  1.0 L   6.800 -73.203140.9  RSN 11 0.5 2.9LRSN                1
 GAP=152        0.85       3.8    10.1  8.2 -0.1272E+02  0.3578E+02 -0.6761E+01E
 Epicentro: ZAPATOCA - SANTANDER                                               3
 ACTION:UP  10-08-24 09:42 OP:vdl  STATUS:               ID:20100104222501 L   I
 2010-01-04-2223-19S.COL___097                                                 6
 STAT SP IPHASW D HRMM SECON CODA AMPLIT PERI AZIMU VELO SNR AR TRES W  DIS CAZ7
 BAR2 SZ IP       2225 20.00                             170     0.010   23 175 
 BAR2 SZ ES   2   2225 34.65                             170    -0.2 5   23 175 
 GIR2 SZ IP       2225 20.03                             167     0.010   31   2 
 GIR2 SZ ES   2   2225 35.16                             167     0.2 5   31   2 
 RUS  BZ IP       2225 23.93                             143    -0.410  101 172 
 RUS  BZ I        2225 24.68        62.5 0.33                           101 172 
 RUS  BN ES   1   2225 42.52                             143     0.0 7  101 172 
 GUE  SZ IP       2225 25.99                             138     0.710  118  15 
 GRA  SZ IP       2225 25.80                             135    -0.110  128  20 
 GRA  SZ ES   2   2225 45.26                             135    -0.2 5  128  20 
 OCA  SZ EP   1   2225 28.25                             128    -0.6 7  160 355 
 CHI  HZ EP   1   2225 38.35                             116     0.1 6  247 194 
 CHI  HE ES   1   2226  7.29                             116     0.0 6  247 194 
 CHI  HZ I        2226 11.50        60.2 0.45                           247 194 
 HEL  HZ EP   2   2225 41.80                             114     1.6 4  266 255 
 HEL  HZ I        2226 20.33        33.8 0.21                           266 255 
 DBB  SZ EP   2   2225 47.72                             109     0.2 3  333 274 
 MON  HE ES   2   2226 25.68                             108    -1.1 3  348 309 
 PRA  HZ EP   1   2225 53.75                             106    -0.2 4  389 209 
 PRA  HZ I        2226 40.79        43.5 0.43                           389 209 
                                                                                
