 2016 11 4 2234 15.1 L   6.762 -73.153144.5  RSN  8 0.3 1.7LRSN                1
 GAP=152        0.75       3.0     3.3  4.7 -0.2179E+01  0.2673E+01  0.3978E+01E
 Epicentro: LOS SANTOS - SANTANDER                                             3
 ACTION:UPD 17-10-26 21:04 OP:lp   STATUS:               ID:20161104223415 L   I
 OLDACT:REG 16-11-05 03:31 OP:cara STATUS:               ID:20161104222744     3
 2016-11-04-2228-00M.COL___355                                                 6
 STAT SP IPHASW D HRMM SECON CODA AMPLIT PERI AZIMU VELO AIN AR TRES W  DIS CAZ7
 BAR2 EZ ES       2234 49.81                             172    0.1610 19.1 190 
 BAR2 EZ I        2234 52.06        13.3 0.52            170           19.1 190 
 BRR  HZ EP       2234 36.29                             152    0.0710 72.6 302 
 BRR  HN ES       2234 53.03                             152    0.3710 72.6 302 
 PAM  EZ IP       2234 37.28                             149   -0.1510 81.1  38 
 PAM  EE ES       2234 54.57                             149   -0.2610 81.1  38 
 PAM  EZ I        2234 56.43        11.4 0.54            153           81.1  38 
 PTB  HE ES       2235  2.19                             132   -0.50 9  146 260 
 PTB  HZ I        2235  5.05         3.8 0.10            131            146 260 
 SPBC HZ EP       2234 43.46                             129    0.29 9  159 220 
 SPBC HN ES       2235  4.85                             129   -0.20 9  159 220 
 SPBC HZ I        2235  7.79        12.4 0.38            129            159 220 
 ZAR  HZ EP       2234 48.12                             122    0.54 9  205 293 
 ZAR  HN ES       2235 12.80                             122   -0.09 9  205 293 
 ZAR  HZ I        2235 21.08         5.4 0.24            122            205 293 
 NOR  HZ EP       2234 50.06                             119   -0.39 8  232 235 
 NOR  HE ES       2235 18.03                             119    0.03 8  232 235 
 NOR  HZ I        2235 26.18         4.0 0.16            119            232 235 
 CHI  HZ EP       2234 52.06                             117   -0.23 8  244 195 
 CHI  HN ES       2235 21.65                             117    0.37 8  244 195 
 CHI  HZ I        2235 27.68         2.6 0.64            118            244 195 
                                                                                
