 2012  2 4 2023 55.1 L   5.919 -73.660120.6  RSN  7 0.4 1.4LRSN                1
 GAP= 91        0.81       4.4     4.7 10.7 -0.1025E+01  0.1264E+02  0.1444E+02E
 ACTION:UP  12-03-07 16:27 OP:epov STATUS:               ID:20120204202355 L   I
 2012-02-04-2020-00M.COL___188                                                 6
 STAT SP IPHASW D HRMM SECON CODA AMPLIT PERI AZIMU VELO SNR AR TRES W  DIS CAZ7
 RUS  HZ EP       2024 13.69                             150   -0.1310 64.0  93 
 RUS  HN ES   2   2024 28.25                             150   -0.19 5 64.0  93 
 BAR2 SZ EP       2024 15.44                             140    0.0910 91.3  35 
 BAR2 SZ ES   2   2024 30.63                             140   -0.54 5 91.3  35 
 BAR2 SZ I        2024 32.43        12.4 0.48                          91.3  35 
 PTB  HZ EP       2024 16.02                             134   -0.7110  112 308 
 PTB  HN ES   2   2024 33.38                             134   -0.24 5  112 308 
 PTB  HZ I        2024 39.01         2.4 0.20                           112 308 
 BRR  HZ EP       2024 18.67                             129    0.1510  131 358 
 BRR  HN ES   1   2024 37.57                             129    0.77 7  131 358 
 GIR2 SZ EP   2   2024 19.42                             128    0.07 5  138  22 
 NOR  SZ EP       2024 19.50                             127    0.13 9  140 254 
 NOR  SN ES   2   2024 38.78                             127    0.47 5  140 254 
 CHI  HZ EP       2024 20.39                             127    0.23 9  143 183 
 CHI  HZ I        2024 20.85         3.3 0.10                           143 183 
                                                                                
