 2014  6 4 2334 49.9 L   6.797 -73.142146.0  RSN 20 0.5 2.6LRSN                1
 GAP= 71        1.12       3.0     3.1  5.1 -0.5101E+00  0.4664E+01  0.2016E+01E
 Epicentro: LOS SANTOS - SANTANDER                                             3
 ACTION:UPD 14-07-01 22:50 OP:nd   STATUS:               ID:20140604233449 L   I
 OLDACT:UP  14-06-05 03:26 OP:cam  STATUS:               ID:20140604233000     3
 OLDACT:REG 14-06-05 02:38 OP:cam  STATUS:               ID:20140604233000     3
 2014-06-04-2330-00M.COL___276                                                 6
 STAT SP IPHASW D HRMM SECON CODA AMPLIT PERI AZIMU VELO AIN AR TRES W  DIS CAZ7
 BAR2 SZ EP       2335  9.35                             171   -0.2110 23.1 191 
 BAR2 SZ ES       2335 24.32                             171   -0.5710 23.1 191 
 BAR2 SZ I        2335 27.29        98.9 0.38            169           23.1 191 
 BRR  HZ EP       2335 11.23                             152    0.1210 71.7 299 
 BRR  HN ES       2335 28.70                             152    1.0610 71.7 299 
 BRR  HZ I        2335 32.31        41.2 0.12            152           71.7 299 
 PAM  SZ EP       2335 12.10                             151   -0.0410 77.3  39 
 PAM  SN ES       2335 29.59                             151    0.1110 77.3  39 
 PAM  SZ I        2335 34.24        32.9 0.58            156           77.3  39 
 RUS  HZ EP       2335 13.37                             144   -0.2810  100 176 
 RUS  HN ES       2335 32.28                             144    0.1010  100 176 
 RUS  HZ I        2335 33.68        35.9 0.40            145            100 176 
 PTB  HZ EP       2335 16.03                             132   -0.89 9  148 259 
 PTB  HN ES       2335 37.56                             132   -0.44 9  148 259 
 PTB  HZ I        2335 39.62        53.0 0.14            132            148 259 
 TAM  HZ IP     D 2335 17.52                             131   -0.03 9  155 105 
 TAM  HZ I        2335 17.61        71.0 0.20            135            155 105 
 TAM  HN ES       2335 39.58                             131    0.46 9  155 105 
 SPBC HZ EP     D 2335 18.41                             129   -0.01 9  163 219 
 SPBC HN ES       2335 40.79                             129    0.12 9  163 219 
 SPBC HZ I        2335 45.33        67.7 0.22            130            163 219 
 ZAR  HZ EP       2335 21.98                             122   -0.44 9  205 292 
 ZAR  HN ES       2335 47.38                             122   -0.39 9  205 292 
 ZAR  HZ I        2335 55.72        31.3 0.36            124            205 292 
 NOR  HZ EP       2335 26.05                             119    0.39 8  235 235 
 NOR  HN ES       2335 53.35                             119   -0.21 8  235 235 
 NOR  HZ I        2335 57.04        31.2 0.26            120            235 235 
 SML  HZ EP       2335 25.84                             118   -0.75 8  244 335 
 SML  HE ES       2335 55.65                             118    0.44 8  244 335 
 SML  HZ I        2335 57.36        49.6 0.10            120            244 335 
 CHI  HZ EP       2335 27.53                             117   -0.06 8  248 195 
 CHI  HN ES       2335 56.59                             117   -0.40 8  248 195 
 CHI  HZ I        2336  2.25        14.5 0.26            119            248 195 
 ROSC BZ EP   4   2335 29.22                             117    1.19 0  253 211 
 HEL  HZ EP       2335 31.06                             115    0.90 8  272 256 
 HEL  HN ES       2336  2.17                             115    0.60 8  272 256 
 HEL  HZ I        2336  8.50        18.0 0.38            116            272 256 
 GUY2CHZ EP       2335 34.02                             112    0.48 7  301 235 
 GUY2CHN ES   4   2336  9.19                             112    1.61 0  301 235 
 GUY2CHZ I        2336 14.67        19.6 0.28                           301 235 
 RREF HZ EP   2   2335 36.88                             111    0.81 3  322 229 
 RREF HN ES   2   2336 11.65                             111   -0.43 3  322 229 
 RREF HZ I        2336 20.19        26.7 0.24            112            322 229 
 CBOC HZ EP   1   2335 37.79                             110    0.93 5  334 252 
 CBOC HN ES       2336 13.73                             110    0.24 7  334 252 
 CBOC HZ I        2336 19.46         7.5 0.68            111            334 252 
 DBB  SZ EP       2335 36.50                             110   -0.94 7  340 274 
 DBB  SZ ES   4   2336 12.16                             110   -2.36 0  340 274 
 DBB  SZ I        2336 17.53        50.9 0.44            111            340 274 
 TOL  SZ EP   4   2335 39.09                             109    0.91 0  344 225 
 TOL  SZ ES   4   2336 12.38                             109   -3.45 0  344 225 
 TOL  SZ I        2336 22.14        27.0 0.26            111            344 225 
 PRA  HZ EP       2335 43.24                             107   -0.18 6  392 210 
 PRA  HE ES       2336 24.83                             107   -0.34 6  392 210 
 PRA  HZ I        2336 29.26        10.1 0.32            108            392 210 
 ORTC HZ EP   1   2335 44.38                             106    0.55 4  395 216 
 ORTC HN ES       2336 27.00                             106    1.11 6  395 216 
 ORTC HZ I        2336 33.15        10.2 0.42            108            395 216 
 SJC  HZ EP   4   2335 43.48                             106   -2.05 0  410 327 
 SJC  HN ES   4   2336 24.92                             106   -4.00 0  410 327 
 SJC  HZ I        2336 28.98         6.5 0.50            107            410 327 
                                                                                
