 2017  5 4 2035 38.6 L   6.796 -73.141144.5  RSN  4 0.4 1.2LRSN                1
 GAP=137        0.89       5.0     5.0  9.0 -0.5274E+01  0.1176E+02 -0.2225E+00E
 Epicentro: LOS SANTOS - SANTANDER                                             3
 ACTION:UPD 17-06-16 13:32 OP:jn   STATUS:               ID:20170504203538 L   I
 OLDACT:REG 17-05-05 03:34 OP:ar   STATUS:               ID:20170504202748     3
 2017-05-04-2028-00M.COL___368                                                 6
 STAT SP IPHASW D HRMM SECON CODA AMPLIT PERI AZIMU VELO AIN AR TRES W  DIS CAZ7
 BRR  HZ EP       2035 59.89                             152    0.2610 71.9 299 
 BRR  HN ES   2   2036 17.10                             152    1.05 5 71.9 299 
 PAM  EZ EP       2036  0.81                             150    0.1510 77.4  39 
 PAM  EN ES       2036 17.54                             150   -0.3410 77.4  39 
 PAM  EZ I        2036 18.00         4.7 0.36            155           77.4  39 
 RUS  HZ EP       2036  2.00                             143   -0.1710  100 176 
 RUS  HN ES       2036 20.75                             143    0.1910  100 176 
 RUS  HZ I        2036 26.43         1.3 0.24            142            100 176 
 PTB  HZ EP       2036  5.66                             131    0.18 9  148 259 
 PTB  HN ES       2036 25.87                             131   -0.59 9  148 259 
 PTB  HZ I        2036 27.71         3.5 0.24            134            148 259 
                                                                                
