 2011  4 4 2148 12.5 L   6.769 -73.110142.5  RSN 11 0.4 2.6LRSN                1
 GAP=162        0.76       3.9     5.2  6.2 -0.3354E+00  0.4983E+01  0.8022E+01E
 Epicentro: LOS SANTOS - SANTANDER                                             3
 ACTION:UP  11-06-22 15:28 OP:REBC STATUS:               ID:20110404214812 L   I
 2011-04-04-2146-23S.COL___121                                                 6
 STAT SP IPHASW D HRMM SECON CODA AMPLIT PERI AZIMU VELO SNR AR TRES W  DIS CAZ7
 BAR2 SZ EP   1   2148 31.78                             171     0.0 7   21 202 
 BAR2 SZ ES   1   2148 46.17                             171    -0.5 7   21 202 
 BAR2 SZ I        2148 49.73        92.3 0.24                            21 202 
 GIR2 SZ EP   1   2148 31.88                             165    -0.1 7   35 345 
 BRR  HZ IP     D 2148 33.64                             150     0.010   76 299 
 BRR  HN ES   1   2148 50.90                             150     0.8 7   76 299 
 BRR  HZ I        2148 54.44        93.4 0.20                            76 299 
 OCA  SZ EP   1   2148 40.65                             128    -0.3 7  164 352 
 OCA  SZ ES   2   2149  2.64                             128    -0.5 5  164 352 
 OCA  SZ I        2149  9.07        31.8 0.50                           164 352 
 YOP  SZ EP   1   2148 42.51                             126     0.6 7  174 154 
 YOP  SE ES   2   2149  4.88                             126     0.1 4  174 154 
 YOP  SZ I        2149  7.46        28.5 0.33                           174 154 
 NOR  SZ EP   1   2148 47.88                             118    -0.3 6  236 236 
 NOR  SN ES   2   2149 15.71                             118    -0.4 4  236 236 
 CHI  HZ EP   1   2148 49.72                             117    -0.1 6  246 196 
 CHI  HE ES   2   2149 19.00                             117     0.1 4  246 196 
 CHI  HZ I        2149 28.96        16.0 0.52                           246 196 
 HEL  HZ EP   1   2148 53.18                             114     0.2 6  275 257 
 HEL  HN ES   2   2149 24.54                             114     0.1 4  275 257 
 HEL  HZ I        2149 32.06        26.3 0.36                           275 257 
 GUY  SN ES   2   2149 30.34                             112    -0.3 4  305 236 
 GUY  SZ I        2149 39.49        42.3 0.43                           305 236 
 RREF HZ EP   1   2148 59.11                             110     0.5 5  323 230 
 RREF HN ES   2   2149 34.42                             110    -0.2 3  323 230 
 RREF HZ I        2149 44.04        23.0 0.28                           323 230 
 PRA  HZ EP   1   2149  5.68                             106    -0.2 4  391 210 
 PRA  HE ES   2   2149 46.46                             106    -1.0 3  391 210 
                                                                                
