 2011 12 4 2331 53.6 L   6.616 -73.364128.0  RSN  4 0.3 1.2LRSN                1
 GAP=166        0.42       5.6    11.3 10.0  0.3189E+02  0.2519E+02  0.2813E+02E
 Epicentro: GALAN - SANTANDER                                                  3
 ACTION:UPD 12-07-13 16:14 OP:ep   STATUS:               ID:20111204233153 L   I
 2011-12-04-2330-00M.COL___182                                                 6
 STAT SP IPHASW D HRMM SECON CODA AMPLIT PERI AZIMU VELO AIN AR TRES W  DIS CAZ7
 BAR2 SZ ES   2   2332 24.33                             171   -0.27 5 20.2  98 
 GIR2 SZ EP   3   2332 12.54                             156    0.45 2 54.5  20 
 GIR2 SZ ES   1   2332 26.57                             156    0.04 7 54.5  20 
 BRR  HE ES   2   2332 27.39                             151    0.05 5 66.5 325 
 BRR  HZ I        2332 27.67         5.9 0.15                          66.5 325 
 RUS  HZ EP   2   2332 14.17                             145   -0.34 5 85.8 159 
 RUS  HE ES   2   2332 31.20                             145    0.35 5 85.8 159 
 RUS  HZ I        2332 32.09         2.3 0.22                          85.8 159 
                                                                                
