 2011  5 5 0046 24.9 L   6.793 -73.121143.0  RSN  9 0.3 1.7LRSN                1
 GAP=140        0.48       3.3     4.2  4.7 -0.5320E+01 -0.2374E+00  0.8045E+00E
 Epicentro: LOS SANTOS - SANTANDER                                             3
 ACTION:UP  11-06-29 08:50 OP:tino STATUS:               ID:20110505004624 L   I
 2011-05-05-0041-33S.COL___133                                                 6
 STAT SP IPHASW D HRMM SECON CODA AMPLIT PERI AZIMU VELO SNR AR TRES W  DIS CAZ7
 BAR2 SZ EP   1    046 44.22                             170     0.0 8   23 197 
 BAR2 SZ ES   2    046 59.54                             170     0.3 5   23 197 
 BAR2 SZ I         047  2.91        11.3 0.18                            23 197 
 GIR2 SZ EP   2    046 44.37                             167     0.1 5   33 346 
 BRR  HZ EP   1    046 45.79                             151    -0.2 8   74 298 
 BRR  HE ES   1    047  2.32                             151     0.0 8   74 298 
 PAM  SZ EP   1    046 47.01                             151     0.2 8   76  38 
 PAM  SN ES   1    047  3.98                             151     0.1 8   76  38 
 RUS  HZ EP   1    046 48.56                             143     0.2 8  100 178 
 RUS  HN ES   2    047  6.14                             143    -0.5 5  100 178 
 RUS  HZ I         047  8.42         4.9 0.18                           100 178 
 BRI  SZ EP   2    046 48.17                             141    -0.4 5  108  19 
 BRI  SZ I         047 12.69         8.0 0.71                           108  19 
 GRA  SZ IP        046 49.84                             136    -0.110  126  16 
 GRA  SZ ES   2    047  9.22                             136    -0.2 5  126  16 
 GRA  SZ I         047 12.24        10.4 0.30                           126  16 
 NOR  SE ES   2    047 28.31                             118    -0.3 4  236 235 
 HEL  HZ EP   2    047  5.95                             114     0.7 4  274 256 
 HEL  HZ I         047 44.76         3.9 0.32                           274 256 
                                                                                
