 2016  8 5 0314 44.4 L   6.767 -73.123152.9  RSN  6 0.5 1.5LRSN                1
 GAP=141        1.08       5.3     6.0  7.2  0.9007E+01  0.1060E+02 -0.7238E+01E
 Epicentro: LOS SANTOS - SANTANDER                                             3
 ACTION:UPD 16-10-29 15:32 OP:rebc STATUS:               ID:20160805031444 L   I
 OLDACT:REG 16-08-05 12:57 OP:edw  STATUS:               ID:20160805030732     3
 2016-08-05-0308-00M.COL___350                                                 6
 STAT SP IPHASW D HRMM SECON CODA AMPLIT PERI AZIMU VELO AIN AR TRES W  DIS CAZ7
 BAR2 EZ EP        315  4.73                             172   -0.1010 20.4 199 
 BAR2 EZ ES        315 20.30                             172   -0.4710 20.4 199 
 BAR2 EZ I         315 21.01         7.7 0.58                          20.4 199 
 BRR  HZ EP        315  6.96                             152    0.4110 75.2 300 
 BRR  HN ES        315 24.24                             152    0.4210 75.2 300 
 PAM  EZ EP        315  7.94                             151    0.4910 78.7  36 
 PAM  EN ES        315 25.34                             151   -0.1010 78.7  36 
 PAM  EZ I         315 27.93         6.5 0.44                          78.7  36 
 RUS  HZ EP        315  9.07                             146    0.4810 96.8 177 
 RUS  HN ES        315 26.89                             146   -0.5810 96.8 177 
 RUS  HZ I         315 28.64         3.1 0.30                          96.8 177 
 ZAR  HZ EP        315 17.65                             123   -0.05 8  208 293 
 ZAR  HN ES        315 43.75                             123    0.07 8  208 293 
 ZAR  HZ I         315 45.62         3.7 0.14                           208 293 
 SJC  HZ EP        315 39.89                             106   -0.83 6  414 327 
 SJC  HN ES        316 23.67                             106   -0.99 6  414 327 
                                                                                
