 2016  7 5 0731 51.7 L   6.833 -73.097155.1  RSN  7 0.5 1.6LRSN                1
 GAP=213        1.04       5.6     8.8  8.4  0.2667E+02 -0.4729E+01 -0.1377E+02E
 Epicentro: LOS SANTOS - SANTANDER                                             3
 ACTION:UPD 17-03-29 16:47 OP:lp   STATUS:               ID:20160705073151 L   I
 OLDACT:UP  16-07-05 17:49 OP:dani STATUS:               ID:20160705072741     3
 OLDACT:UP  16-07-05 17:49 OP:dani STATUS:               ID:20160705072741     3
 OLDACT:REG 16-07-05 13:07 OP:dani STATUS:               ID:20160705072741     3
 2016-07-05-0727-41M.COL___322                                                 6
 STAT SP IPHASW D HRMM SECON CODA AMPLIT PERI AZIMU VELO AIN AR TRES W  DIS CAZ7
 BRR  HZ EP        732 14.72                             153    0.7010 74.4 294 
 BRR  HN ES        732 31.64                             153    0.1910 74.4 294 
 BRR  HZ I         732 37.46         3.2 0.18            150           74.4 294 
 RUS  HZ EP        732 16.90                             145    0.3010  104 179 
 RUS  HN ES        732 35.33                             145   -0.7110  104 179 
 RUS  HZ I         732 36.54         3.4 0.36            149            104 179 
 PTB  HZ EP        732 19.66                             133   -0.30 9  154 258 
 PTB  HN ES   4    732 39.83                             133   -2.19 0  154 258 
 PTB  HZ I         732 44.02         3.3 0.14            133            154 258 
 SPBC HZ EP        732 21.67                             130    0.18 9  169 220 
 SPBC HE ES        732 44.73                             130   -0.02 9  169 220 
 SPBC HZ I         732 50.39        21.5 0.92            132            169 220 
 ZAR  HZ EP        732 25.39                             124    0.27 8  208 291 
 ZAR  HN ES        732 51.06                             124   -0.15 8  208 291 
 ZAR  HZ I         732 56.27         4.2 0.46            124            208 291 
 GUY2CHZ EP   4    732 38.28                             113    1.82 0  308 235 
 GUY2CHN ES   4    733 15.41                             113    4.01 0  308 235 
 GUY2CHZ I         733 19.36         2.1 0.52                           308 235 
 SJC  HZ EP        732 46.97                             107   -0.58 6  409 326 
 SJC  HN ES        733 30.24                             107   -0.89 6  409 326 
 SJC  HZ I         733 44.38         1.2 0.54            108            409 326 
                                                                                
