 2016  8 5 0634 43.8 L   6.848 -73.094154.0  RSN  5 0.3 0.9LRSN                1
 GAP=247        0.89       5.4     6.8  6.5  0.1831E+02  0.5981E+01 -0.1145E+01E
 Epicentro: LOS SANTOS - SANTANDER                                             3
 ACTION:UPD 16-10-29 15:32 OP:rebc STATUS:               ID:20160805063443 L   I
 OLDACT:REG 16-08-05 13:11 OP:edw  STATUS:               ID:20160805062736     3
 2016-08-05-0628-00M.COL___338                                                 6
 STAT SP IPHASW D HRMM SECON CODA AMPLIT PERI AZIMU VELO AIN AR TRES W  DIS CAZ7
 BAR2 EZ EP        635  5.00                             168    0.4110 30.0 199 
 BAR2 EZ ES        635 20.60                             168   -0.1910 30.0 199 
 BAR2 EZ I         635 21.23         1.6 0.26                          30.0 199 
 BRR  HZ EP        635  5.24                             153   -0.7810 74.0 293 
 BRR  HN ES        635 23.61                             153    0.2710 74.0 293 
 RUS  HZ EP        635  8.73                             144   -0.0310  106 179 
 RUS  HE ES        635 28.34                             144    0.1410  106 179 
 SPBC HZ EP        635 14.00                             129    0.31 9  171 219 
 SPBC HN ES        635 36.68                             129   -0.30 9  171 219 
 ZAR  HZ EP        635 17.25                             124    0.09 8  207 290 
 ZAR  HN ES        635 43.33                             124    0.17 8  207 290 
                                                                                
