 2016  8 5 0145 37.1 L   7.066 -73.449168.7  RSN  4 0.3 1.3LRSN                1
 GAP=151        0.90       6.0     8.0  7.2 -0.1303E+01  0.3592E+00  0.2403E+01E
 Epicentro: SAN VICENTE DE CHUCURI - SANTANDER                                 3
 ACTION:UPD 16-10-29 15:32 OP:rebc STATUS:               ID:20160805014537 L   I
 OLDACT:DUP 16-08-05 14:24 OP:edw  STATUS:               ID:20160805013740d    3
 OLDACT:REG 16-08-05 12:49 OP:edw  STATUS:               ID:20160805013739     3
 2016-08-05-0138-00M.COL___350                                                 6
 STAT SP IPHASW D HRMM SECON CODA AMPLIT PERI AZIMU VELO AIN AR TRES W  DIS CAZ7
 BRR  HZ EP        145 58.78                             170   -0.5010 29.4 279 
 BRR  HN ES        146 16.91                             170    0.3510 29.4 279 
 BRR  HZ I         146 21.77         7.8 0.32                          29.4 279 
 BAR2 EZ EP        146  0.38                             160   -0.2510 60.1 151 
 BAR2 EZ ES        146 18.90                             160   -0.0710 60.1 151 
 PAM  EZ EP        146  2.52                             151    0.0910 88.2  70 
 PAM  EZ ES        146 22.16                             151   -0.0010 88.2  70 
 PAM  EZ I         146 26.33         3.4 0.28                          88.2  70 
 RUS  HZ EP        146  6.41                             140    0.66 9  136 163 
 RUS  HN ES        146 27.83                             140   -0.24 9  136 163 
 RUS  HZ I         146 29.09         0.9 0.32                           136 163 
                                                                                
