 2013  1 5 0711 13.1 L   6.667 -73.572106.4  RSN  4 0.2 1.5LRSN                1
 GAP=118        0.56       3.4     2.8  5.0  0.4181E+01  0.3745E+01  0.5733E+01E
 Epicentro: EL CARMEN DE CHUCURI - SANTANDER                                   3
 ACTION:UPD 13-02-15 09:12 OP:ep   STATUS:               ID:20130105071113 L   I
 2013-01-05-0709-49M.COL___195                                                 6
 STAT SP IPHASW D HRMM SECON CODA AMPLIT PERI AZIMU VELO AIN AR TRES W  DIS CAZ7
 BAR2 SZ EP        711 28.80                             156   -0.0210 43.9 101 
 BAR2 SZ ES        711 40.74                             156   -0.3410 43.9 101 
 BAR2 SZ I         711 42.09        11.0 0.44            158           43.9 101 
 BRR  HZ EP        711 28.78                             152   -0.0710 51.1 342 
 BRR  HN ES        711 41.45                             152    0.3010 51.1 342 
 BRR  HN I         711 42.11        19.9 0.18            154           51.1 342 
 PTB  HZ EP        711 32.44                             134    0.0210 98.8 262 
 PTB  HN ES        711 47.37                             134   -0.1210 98.8 262 
 PTB  HN I         711 48.82         2.7 0.22            135           98.8 262 
 RUS  HZ EP        711 33.26                             133   -0.0210  101 148 
 RUS  HN ES        711 49.30                             133    0.2610  101 148 
                                                                                
