 2010 11 5 0507 45.2 L   6.791 -73.083146.3  RSN  4 0.2 1.4LRSN                1
 GAP=243        0.43       9.0    15.8  6.6  0.1089E+03  0.3914E+02  0.2588E+02E
 Epicentro: LOS SANTOS - SANTANDER                                             3
 ACTION:UP  10-12-17 16:50 OP:REBC STATUS:               ID:20101105050745 L   I
 2010-11-05-0504-52S.COL___129                                                 6
 STAT SP IPHASW D HRMM SECON CODA AMPLIT PERI AZIMU VELO SNR AR TRES W  DIS CAZ7
 BAR2 SZ ES   2    5 8 20.62                             170     0.3 5   25 207 
 BAR2 SZ I         5 8 24.76         8.7 0.49                            25 207 
 BRR  HZ EP   2    5 8  6.60                             150    -0.2 5   78 297 
 BRR  HE ES   2    5 8 23.66                             150     0.0 5   78 297 
 BRR  HZ I         5 8 24.93         4.3 0.16                            78 297 
 RUS  HZ EP   2    5 8  9.07                             144     0.1 5   99 180 
 RUS  HN ES   2    5 8 27.16                             144    -0.3 5   99 180 
 RUS  HZ I         5 8 30.00         2.6 0.53                            99 180 
 PRA  HZ EP   1    5 8 39.25                             106     0.2 4  395 211 
                                                                                
