 2013  8 5 0734 46.8 L   6.154 -73.945  4.1  RSN 16 0.6 2.2LRSN                1
 GAP= 87        1.25       3.8     2.5  7.2 -0.1577E+01  0.7293E+00 -0.1367E+02E
 Epicentro: CIMITARRA - SANTANDER                                              3
 ACTION:UPD 14-01-14 08:59 OP:ep   STATUS:               ID:20130805073446 L   I
 OLDACT:REG 13-08-05 08:01 OP:jn   STATUS:               ID:20130805072959     3
 2013-08-05-0729-59M.COL___269                                                 6
 STAT SP IPHASW D HRMM SECON CODA AMPLIT PERI AZIMU VELO AIN AR TRES W  DIS CAZ7
 SPBC HZ EP   1    734 56.03                              90   -0.11 7 57.2 194 
 SPBC HZ I         735 13.96        89.2 0.18             47           57.2 194 
 PTB  HZ EP        734 58.19                              90    0.0610 70.8 307 
 PTB  HN ES   1    735  6.96                              90   -0.01 7 70.8 307 
 PTB  HZ I         735 16.87        67.8 0.16             47           70.8 307 
 BAR2 SZ EP        735  2.05                              90   -0.3210 97.3  60 
 BAR2 SZ ESg  1    735 14.82                              90    0.30 7 97.3  60 
 BAR2 SZ I         735 19.81        59.7 0.74             47           97.3  60 
 RUS  HZ EP   1    735  2.49                              90   -0.50 7 99.7 107 
 RUS  HN ESg  1    735 15.00                              90   -0.63 7 99.7 107 
 RUS  HZ I         735 15.96        35.1 0.44             47           99.7 107 
 BRR  HZ EPg  1    735  4.28                              90    0.46 7  109  14 
 BRR  HN ES   4    735 20.10                              90    3.00 0  109  14 
 BRR  HZ I         735 23.69        51.6 0.22             47            109  14 
 NOR  HZ EP        735  6.25                              90    0.4310  121 238 
 NOR  HE ES   1    735 20.46                              90   -0.22 7  121 238 
 NOR  HZ I         735 24.19        36.5 0.22             47            121 238 
 GIR2 SZ EPg  4    735  8.29                              90    0.80 0  132  39 
 ROSC BZ EP   4    735 14.09                              90    3.41 0  151 196 
 ROSC BN ES   4    735 31.65                              90    2.33 0  151 196 
 CHI  HZ EP   4    735 17.40                              90    3.81 0  170 172 
 CHI  HN ES   4    735 40.05                              90    5.54 0  170 172 
 CHI  HZ I         735 41.79        17.8 0.60             37            170 172 
 HEL  HZ EP   1    735 14.11                              90   -0.21 7  175 271 
 HEL  HN ES   1    735 34.73                              90   -1.08 7  175 271 
 HEL  HZ I         735 37.72        48.8 0.28             47            175 271 
 ZAR  HZ EP        735 13.61                              56   -0.82 9  179 326 
 ZAR  HN ES   1    735 36.16                              56    0.16 7  179 326 
 ZAR  HZ I         735 43.46        27.1 0.42             47            179 326 
 GUY2CHZ EP   1    735 17.22                              56    1.13 7  188 237 
 PAM  SZ EP   1    735 17.12                              56    0.74 7  190  46 
 PAM  SN ES   1    735 39.97                              56    0.50 7  190  46 
 PAM  SZ I         735 44.08        95.3 0.22             47            190  46 
 RREF HZ EP   1    735 19.72                              56    0.90 6  208 228 
 RREF HZ I         735 50.64        25.2 0.60             37            208 228 
 VIL  SN ES   4    735 53.95                              56    6.92 0  227 173 
 OCA  HN ES   1    735 51.01                              56    1.00 6  241  17 
 URE  HZ EP   1    735 24.27                              56    1.10 6  249 315 
 PRA  HZ EP   4    735 35.49                              56    7.25 0  289 201 
 PRA  HZ I         736 19.28        22.2 0.50             36            289 201 
 SML  HZ EP   1    735 27.51                              55   -1.14 5  293 357 
 SML  HE ES        736  0.59                              55   -0.72 7  293 357 
                                                                                
