 2013  8 5 0837 39.2 L   6.173 -73.942  6.8  RSN 10 0.6 1.7LRSN                1
 GAP= 64        1.19       4.0     3.4  7.7 -0.5417E+01  0.1287E+02 -0.1131E+02E
 Epicentro: CIMITARRA - SANTANDER                                              3
 ACTION:UPD 14-01-14 08:59 OP:ep   STATUS:               ID:20130805083739 L   I
 OLDACT:REG 13-08-05 08:06 OP:jn   STATUS:               ID:20130805082960d    3
 2013-08-05-0829-59M.COL___269                                                 6
 STAT SP IPHASW D HRMM SECON CODA AMPLIT PERI AZIMU VELO AIN AR TRES W  DIS CAZ7
 SPBC HZ EP        837 48.35                              93   -0.5410 59.4 194 
 SPBC HZ I         838  5.22        33.6 0.20            108           59.4 194 
 PTB  HZ IP     D  837 50.67                              92    0.2810 69.8 306 
 PTB  HN ES   4    838  2.68                              92    3.55 0 69.8 306 
 PTB  HZ I         838  3.48        31.8 0.11            109           69.8 306 
 BAR2 SZ EP   1    837 54.48                              92   -0.11 7 96.0  61 
 BAR2 SZ ES   1    838  6.37                              92   -0.23 7 96.0  61 
 BAR2 SZ I         838 11.50        14.3 0.56             61           96.0  61 
 RUS  HZ EP        837 55.02                              92   -0.4410  100 108 
 RUS  HZ I         838  9.58        10.5 0.28             61            100 108 
 BRR  HZ EP   1    837 56.65                              92    0.74 7  106  14 
 BRR  HN ES   4    838 13.24                              92    4.29 0  106  14 
 BRR  HZ I         838 15.51        13.2 0.24             61            106  14 
 NOR  HZ IP     D  837 58.78                              91    0.3310  123 237 
 NOR  HE ES        838 13.24                              91   -0.2310  123 237 
 NOR  HZ I         838 15.11        16.0 0.33             61            123 237 
 CHI  HZ EP   1    838  7.69                              56    1.44 7  172 172 
 CHI  HE ES   4    838 31.29                              56    3.95 0  172 172 
 CHI  HZ I         838 33.63         7.3 0.64             61            172 172 
 HEL  HZ EP     D  838  6.59                              56   -0.02 9  176 271 
 HEL  HN ES        838 27.53                              56   -0.46 9  176 271 
 HEL  HZ I         838 28.92        29.1 0.26             61            176 271 
 ZAR  HZ EP   1    838  6.02                              56   -0.40 7  178 325 
 ZAR  HE ES   1    838 27.34                              56   -0.31 7  178 325 
 ZAR  HZ I         838 30.46         9.0 0.38             61            178 325 
 PAM  SN ES   4    838 34.08                              56    2.97 0  188  47 
 GUY2CHZ EP   1    838  9.46                              56    1.01 7  189 236 
                                                                                
