 2013  1 5 0238 58.4 L   6.740 -73.186144.8  RSN  4 0.5 1.3LRSN                1
 GAP=228        1.23      12.1    10.9 11.6  0.8488E+02  0.4518E+02  0.4785E+02E
 Epicentro: VILLANUEVA - SANTANDER                                             3
 ACTION:UPD 13-02-15 09:12 OP:ep   STATUS:               ID:20130105023858 L   I
 2013-01-05-0229-49M.COL___198                                                 6
 STAT SP IPHASW D HRMM SECON CODA AMPLIT PERI AZIMU VELO AIN AR TRES W  DIS CAZ7
 BAR2 SZ ES        239 32.14                             173   -0.7510 16.4 179 
 BAR2 SZ I         239 34.07         3.1 0.16            160           16.4 179 
 BRR  HN I         239 28.74         6.9 0.44            153           70.9 305 
 BRR  HN ES        239 36.39                             152    0.5910 70.9 305 
 RUS  HZ EP        239 21.42                             145   -0.1710 94.4 173 
 RUS  HN ES        239 40.29                             145    0.5810 94.4 173 
 PTB  HZ EP        239 24.79                             133    0.03 9  142 261 
 PTB  HN ES        239 45.03                             133   -0.31 9  142 261 
 PTB  HN I         239 47.61         2.3 0.62            129            142 261 
                                                                                
