 2013  1 5 0322 37.7 L   6.367 -73.216168.0  RSN  4 0.2 1.6LRSN                1
 GAP=156        0.49       5.1     4.9  5.3  0.1513E+02  0.7639E+01  0.6319E+01E
 Epicentro: CONFINES - SANTANDER                                               3
 ACTION:UPD 13-02-15 09:12 OP:ep   STATUS:               ID:20130105032237 L   I
 2013-01-05-0319-49M.COL___202                                                 6
 STAT SP IPHASW D HRMM SECON CODA AMPLIT PERI AZIMU VELO AIN AR TRES W  DIS CAZ7
 BAR2 SZ I         323  9.61         6.5 0.10            173           25.2   8 
 BAR2 SZ ES   2    323 16.79                             171   -0.63 5 25.2   8 
 RUS  HZ EP        323  1.35                             161    0.1210 54.5 164 
 RUS  HN ES        323 19.63                             161    0.0210 54.5 164 
 RUS  HN I         323 22.43         3.4 0.42            155           54.5 164 
 BRR  HN ES        323 22.56                             148    0.1310 98.5 326 
 BRR  HN I         323 24.01        10.6 0.20            147           98.5 326 
 PTB  HZ EP        323  5.60                             139   -0.16 9  139 278 
 PTB  HN ES        323 27.71                             139    0.03 9  139 278 
 PTB  HN I         323 29.76         4.2 0.56            133            139 278 
                                                                                
