 2012  5 5 0448 10.9 L   6.775 -73.169148.0  RSN  6 0.3 1.2LRSN                1
 GAP=135        0.57       5.0     4.5  6.7  0.6922E+01 -0.3226E+01 -0.5011E+01E
 Epicentro: LOS SANTOS - SANTANDER                                             3
 ACTION:UP  12-07-05 12:02 OP:pat  STATUS:               ID:20120505044810 L   I
 2012-05-05-0440-00M.COL___192                                                 6
 STAT SP IPHASW D HRMM SECON CODA AMPLIT PERI AZIMU VELO SNR AR TRES W  DIS CAZ7
 BAR2 SZ ES   2    448 45.84                             172    -0.4 5   20 184 
 BRR  HZ EP   2    448 32.32                             153     0.1 5   70 301 
 BRR  HN ES   1    448 49.33                             153     0.4 7   70 301 
 BRR  HZ I         448 51.68         5.2 0.23                            70 301 
 PAM  SZ EP   1    448 33.34                             150    -0.3 7   81  40 
 RUS  HZ EP   1    448 34.78                             145     0.1 7   98 174 
 RUS  HE ES   1    448 53.41                             145     0.1 7   98 174 
 RUS  HZ I         448 54.36         2.4 0.24                            98 174 
 PTB  HZ EP   1    448 37.89                             133     0.1 7  145 260 
 PTB  HN ES   1    448 58.39                             133    -0.4 7  145 260 
 PTB  HZ I         449  0.78         1.6 0.19                           145 260 
 ZAR  HN ES   2    449  8.62                             123    -0.1 4  203 293 
                                                                                
