 2016  8 5 0907 11.8 L   6.713 -73.312142.0  RSN  7 0.3 1.6LRSN                1
 GAP=178        0.68       3.1     3.5  4.8  0.2320E+01  0.7985E+01  0.2057E+01E
 Epicentro: GALAN - SANTANDER                                                  3
 ACTION:UPD 16-10-29 15:32 OP:rebc STATUS:               ID:20160805090711 L   I
 OLDACT:UP  16-08-05 18:44 OP:edw  STATUS:               ID:20160805085733     3
 OLDACT:REG 16-08-05 13:23 OP:edw  STATUS:               ID:20160805085733     3
 2016-08-05-0858-00M.COL___338                                                 6
 STAT SP IPHASW D HRMM SECON CODA AMPLIT PERI AZIMU VELO AIN AR TRES W  DIS CAZ7
 BAR2 EZ EP        9 7 30.82                             172   -0.0810 19.6 133 
 BAR2 EZ ES        9 7 45.85                             172    0.0510 19.6 133 
 BAR2 EZ I         9 7 46.30        18.4 0.18                          19.6 133 
 BRR  HZ EP        9 7 32.14                             155    0.1110 62.1 315 
 BRR  HN ES        9 7 48.13                             155    0.3110 62.1 315 
 RUS  HZ EP        9 7 34.60                             145   -0.1210 94.2 164 
 RUS  HE ES        9 7 52.34                             145   -0.2610 94.2 164 
 RUS  HZ I         9 7 55.29         3.4 0.36                          94.2 164 
 SPBC HZ EP        9 7 38.22                             132   -0.02 9  144 216 
 SPBC HN ES        9 7 59.11                             132    0.23 9  144 216 
 SPBC HZ I         9 8  3.57         6.9 0.38                           144 216 
 ZAR  HZ EP        9 7 42.58                             123   -0.10 9  191 297 
 ZAR  HN ES        9 8  6.30                             123   -0.47 9  191 297 
 ZAR  HZ I         9 8 11.54        10.2 0.44                           191 297 
 GUY2CHN ES        9 8 25.00                             113    0.02 7  281 234 
 CBOC HZ EP        9 7 57.00                             111    0.79 7  313 253 
 CBOC HN ES        9 8 30.51                             111   -0.34 7  313 253 
 CBOC HZ I         9 8 36.65         0.6 0.48                           313 253 
 SJC  HZ EP   4    9 8  5.07                             105   -1.99 0  408 330 
 SJC  HN ES   4    9 8 47.46                             105   -2.71 0  408 330 
                                                                                
