 2014  3 5 0956 18.5 L   6.809 -73.158145.5  RSN 13 0.3 2.2LRSN                1
 GAP= 70        0.75       2.0     2.3  4.2 -0.1541E+00  0.2532E+01 -0.5053E+00E
 Epicentro: LOS SANTOS - SANTANDER                                             3
 ACTION:UPD 14-04-09 23:14 OP:nd   STATUS:               ID:20140305095618 L   I
 OLDACT:REG 14-03-05 09:41 OP:nd   STATUS:               ID:20140305095042     3
 2014-03-05-0950-42M.COL___219                                                 6
 STAT SP IPHASW D HRMM SECON CODA AMPLIT PERI AZIMU VELO AIN AR TRES W  DIS CAZ7
 BAR2 SZ EP        956 38.13                             170    0.0110 24.1 186 
 BAR2 SZ ES        956 52.93                             170   -0.4910 24.1 186 
 BAR2 SZ I         956 56.03        64.8 0.30            167           24.1 186 
 PAM  SZ EP        956 41.13                             151    0.4310 77.5  41 
 PAM  SN ES        956 57.97                             151   -0.0410 77.5  41 
 PAM  SZ I         957  1.15        21.3 0.56            148           77.5  41 
 RUS  HZ EP     D  956 42.15                             143   -0.1610  102 175 
 RUS  HN ES        957  1.36                             143    0.4810  102 175 
 RUS  HZ I         957  2.93        13.7 0.28            138            102 175 
 PTB  HZ EP        956 44.95                             132   -0.40 9  147 258 
 PTB  HN ES        957  6.21                             132   -0.08 9  147 258 
 PTB  HZ I         957 11.18        17.8 0.44            128            147 258 
 TAM  HZ EP     C  956 46.64                             130    0.33 9  157 105 
 TAM  HN ES        957  7.72                             130   -0.27 9  157 105 
 TAM  HZ I         957  9.10        11.0 0.54            126            157 105 
 OCA  HZ EP        956 46.40                             130   -0.29 9  159 354 
 OCA  HN ES        957  8.94                             130    0.27 9  159 354 
 OCA  HZ I         957 14.80        15.5 0.42            126            159 354 
 SPBC HZ EP        956 46.80                             129   -0.18 9  163 218 
 SPBC HN ES        957  9.27                             129    0.08 9  163 218 
 SPBC HZ I         957 15.22        27.1 0.46            124            163 218 
 ZAR  HZ EP        956 50.37                             122   -0.40 9  202 292 
 ZAR  HN ES        957 16.56                             122    0.63 9  202 292 
 ZAR  HZ I         957 21.07        16.9 0.24            119            202 292 
 SML  HZ EP        956 54.84                             117   -0.12 8  242 335 
 SML  HN ES        957 23.35                             117   -0.04 8  242 335 
 SML  HZ I         957 26.59        24.2 0.26            114            242 335 
 CHI  HZ EP        956 56.49                             117    0.23 8  249 195 
 CHI  HN ES        957 25.75                             117    0.05 8  249 195 
 CHI  HZ I         957 32.03         7.6 0.34            113            249 195 
 HEL  HZ EP        956 58.75                             115    0.16 8  271 256 
 HEL  HN ES        957 29.77                             115   -0.09 8  271 256 
 HEL  HZ I         957 37.01        10.5 0.46            111            271 256 
 PTGC HZ EP   4    957  1.46                             111   -1.05 0  310 158 
 PTGC HZ I         957 31.64        17.8 0.44            108            310 158 
 PTGC HN ES   4    957 33.38                             111   -3.46 0  310 158 
 SJC  HZ EP   4    957 12.18                             106   -1.70 0  408 327 
 SJC  HN ES   4    957 52.78                             106   -4.29 0  408 327 
 SJC  HZ I         958  1.52         2.6 0.58            103            408 327 
                                                                                
