 2011  1 5 0639 33.9 L   6.825 -73.239157.5  RSN  7 0.5 2.3LRSN                1
 GAP=196        0.84       3.6     6.8 13.5 -0.5387E+01  0.2112E+01  0.1367E+02E
 Epicentro: ZAPATOCA - SANTANDER                                               3
 ACTION:UP  11-02-08 08:38 OP:pat  STATUS:               ID:20110105063933 L   I
 2011-01-05-0640-00M.COL___137                                                 6
 STAT SP IPHASW D HRMM SECON CODA AMPLIT PERI AZIMU VELO SNR AR TRES W  DIS CAZ7
 OCA  SZ IP        640  2.69                             133    -0.210  157 357 
 OCA  SZ ES   1    640 25.83                             133     0.4 7  157 357 
 OCA  SZ I         640 29.40        26.4 0.40                           157 357 
 NOR  SZ EP   1    640 10.06                             122     0.4 7  228 233 
 NOR  SN ES   1    640 37.67                             122     0.1 7  228 233 
 CHI  HZ IP     C  640 12.35                             119     0.0 9  249 193 
 CHI  HE ES   1    640 41.43                             119    -0.8 6  249 193 
 CHI  HZ I         640 45.13        11.7 0.67                           249 193 
 HEL  HZ EP   2    640 14.86                             118     1.1 4  263 255 
 HEL  HE ES   2    640 45.23                             118     0.4 4  263 255 
 HEL  HZ I         640 52.56         8.0 0.20                           263 255 
 RREF HZ EP   1    640 20.55                             113     0.6 6  316 228 
 RREF HE ES   1    640 55.60                             113    -0.2 6  316 228 
 RREF HZ I         641  5.75        14.7 0.33                           316 228 
 MON  HZ EP   1    640 21.34                             111    -0.9 5  343 309 
 MON  HE ES        640 59.56                             111    -0.4 7  343 309 
 PRA  HZ EP   1    640 27.89                             109     0.3 5  389 208 
 PRA  HE ES   1    641  9.67                             109     0.2 5  389 208 
                                                                                
