 2010  6 5 0511 22.3 L   6.788 -73.140143.5  RSN 13 0.5 3.4LRSN                1
 GAP=143        0.98       4.3     7.3  6.3 -0.1953E+02  0.1012E+02  0.2223E+01E
 Epicentro: LOS SANTOS - SANTANDER                                             3
 ACTION:UP  10-08-24 10:08 OP:vdl  STATUS:               ID:20100605051122 L   I
 2010-06-05-0509-25S.COL___109                                                 6
 STAT SP IPHASW D HRMM SECON CODA AMPLIT PERI AZIMU VELO SNR AR TRES W  DIS CAZ7
 BAR2 SZ IP        511 41.60                             171    -0.110   22 193 
 BAR2 SZ ES   1    511 56.38                             171    -0.3 7   22 193 
 GIR2 SZ EP   1    511 41.80                             166     0.0 7   33 350 
 GIR2 SZ ES   1    511 57.01                             166     0.1 7   33 350 
 GUE  SZ EP        511 46.58                             139    -0.310  118  12 
 GUE  SZ ES   2    512  6.21                             139     0.1 5  118  12 
 GRA  SZ IP        511 47.79                             136     0.310  127  17 
 GRA  SZ ES   1    512  7.46                             136     0.4 7  127  17 
 OCA  SZ EP        511 50.46                             129    -0.1 9  162 353 
 OCA  SZ ES   1    512 12.82                             129     0.2 7  162 353 
 OCA  SZ I         512 17.48       281.0 0.23                           162 353 
 CHI  HZ EP   1    511 59.63                             117    -0.1 6  247 195 
 CHI  HN ES   1    512 28.72                             117    -0.3 6  247 195 
 CHI  HZ I         512 36.91        83.7 0.32                           247 195 
 ROSC BZ IP     C  512  1.33                             116     1.1 8  252 211 
 ROSC BN ES   1    512 30.03                             116     0.2 6  252 211 
 ROSC BZ I         512 37.23       126.4 0.36                           252 211 
 HEL  HZ EP   1    512  1.97                             114    -0.5 6  272 256 
 HEL  HE ES   2    512 33.48                             114    -0.3 4  272 256 
 HEL  HZ I         512 43.22       132.2 0.68                           272 256 
 RREF BZ EP        512  7.92                             110    -0.4 7  321 230 
 RREF BE ES   1    512 42.98                             110    -1.2 5  321 230 
 RREF BZ I         512 51.15        98.3 0.56                           321 230 
 DBB  SZ EP        512  9.89                             109     0.1 7  340 274 
 TOL  SZ EP   1    512 10.88                             109     0.5 5  343 225 
 ANIL BZ EP   1    512 12.66                             108     0.7 5  357 225 
 ANIL BN ES   2    512 51.36                             108     0.6 3  357 225 
 ANIL BZ I         512 58.17       173.6 0.28                           357 225 
 SDV  BZ IP     C  512 11.47                             108    -0.8 6  361  50 
 SDV  BZ I         512 53.42        66.8 0.58                           361  50 
                                                                                
