 2011  9 5 0902  9.4 L   6.874 -73.116151.2  RSN 10 0.3 1.9LRSN                1
 GAP=136        0.35       2.0     3.1  3.8 -0.3434E+00  0.3004E+01  0.1331E+01E
 Epicentro: LOS SANTOS - SANTANDER                                             3
 ACTION:UPD 12-07-13 15:55 OP:ep   STATUS:               ID:20110905090209 L   I
 2011-09-05-0900-25S.COL___171                                                 6
 STAT SP IPHASW D HRMM SECON CODA AMPLIT PERI AZIMU VELO AIN AR TRES W  DIS CAZ7
 BAR2 SZ EP   1    9 2 29.80                             168   -0.04 7 32.0 193 
 BAR2 SZ ES   2    9 2 45.61                             168   -0.21 5 32.0 193 
 BAR2 SZ I         9 2 46.99        11.1 0.50                          32.0 193 
 PAM  SN ES   2    9 2 49.15                             154    0.03 5 69.1  42 
 BRR  HZ EP   2    9 2 31.13                             154    0.06 5 70.7 291 
 BRR  HZ I         9 2 32.51        26.5 0.12                          70.7 291 
 BRR  HN ES   2    9 2 48.10                             154    0.09 5 70.7 291 
 RUS  HZ EP   2    9 2 34.12                             143   -0.10 5  109 178 
 RUS  HN ES   2    9 2 53.55                             143   -0.07 5  109 178 
 RUS  HZ I         9 2 56.43         4.9 0.41                           109 178 
 OCA  SZ EP   1    9 2 37.30                             132   -0.10 7  153 352 
 OCA  SZ ES   2    9 2 59.78                             132    0.51 5  153 352 
 OCA  SZ I         9 3  2.96        11.1 0.25                           153 352 
 ZAR  HZ EP   2    9 2 41.93                             124   -0.25 4  204 290 
 ZAR  HN ES   2    9 3  7.43                             124   -0.35 4  204 290 
 ZAR  HZ I         9 3 12.77        21.5 0.30                           204 290 
 NOR  SN ES   2    9 3 14.92                             119   -0.02 4  242 233 
 CHI  HZ EP   1    9 2 48.23                             117   -0.07 6  257 195 
 CHI  HN ES   2    9 3 19.34                             117    0.66 4  257 195 
 CHI  HZ I         9 3 22.49         4.5 0.40                           257 195 
 HEL  HN ES   2    9 3 22.79                             115    0.32 4  277 254 
 HEL  HZ I         9 3 28.76         4.3 0.71                           277 254 
 PRA  HZ EP   2    9 3  4.48                             107    0.40 3  401 209 
 PRA  HN ES   2    9 3 46.47                             107   -0.30 3  401 209 
                                                                                
