 2017  5 5 0801 44.7 L   6.806 -73.150151.8  RSN 11 0.5 1.7LRSN                1
 GAP=111        1.07       3.7     4.0  6.6  0.2463E+01  0.8726E+00  0.4044E+01E
 Epicentro: LOS SANTOS - SANTANDER                                             3
 ACTION:UPD 17-06-16 13:33 OP:jn   STATUS:               ID:20170505080144 L   I
 OLDACT:UP  17-05-05 17:58 OP:edw  STATUS:               ID:20170505075741d    3
 OLDACT:UP  17-05-05 17:58 OP:edw  STATUS:               ID:20170505075741d    3
 OLDACT:DUP 17-05-05 17:53 OP:edw  STATUS:               ID:20170505075741d    3
 2017-05-05-0758-00M.COL___349                                                 6
 STAT SP IPHASW D HRMM SECON CODA AMPLIT PERI AZIMU VELO AIN AR TRES W  DIS CAZ7
 BRR  HZ IP     C  8 2  6.64                             153    0.1510 70.5 298 
 BRR  HN ES        8 2 24.06                             153    0.6010 70.5 298 
 BRR  HZ I         8 2 27.03        14.8 0.32            152           70.5 298 
 PAM  EZ EP     C  8 2  7.97                             151    0.4010 77.2  40 
 PAM  EN ES        8 2 25.03                             151   -0.3610 77.2  40 
 PAM  EZ I         8 2 27.67         6.3 0.38            155           77.2  40 
 RUS  HZ EP        8 2  8.87                             145   -0.2410  101 176 
 RUS  HN ES        8 2 27.46                             145   -0.6810  101 176 
 RUS  HZ I         8 2 28.53         8.1 0.26            145            101 176 
 PTB  HZ EP   9    8 2 11.61                             133   -0.55 0  147 259 
 PTB  HN ES        8 2 32.64                             133   -0.37 9  147 259 
 PTB  HZ I         8 2 39.94         7.7 0.32            132            147 259 
 SPBC HN ES        8 2 35.87                             130   -0.44 9  163 219 
 YPLC HZ EP     D  8 2 15.35                             128    0.32 9  178 151 
 YPLC HN ES        8 2 39.30                             128    0.63 9  178 151 
 YPLC HZ I         8 2 40.27         4.9 0.30            130            178 151 
 ZAR  HZ EP        8 2 17.25                             123   -0.25 9  203 292 
 ZAR  HN ES        8 2 42.84                             123   -0.23 9  203 292 
 ZAR  HZ I         8 2 48.35         7.8 0.28            124            203 292 
 CHI  HZ EP   2    8 2 23.68                             118    0.87 4  249 195 
 CHI  HE ES        8 2 52.70                             118    0.18 8  249 195 
 CHI  HZ I         8 2 58.70         3.6 0.36            119            249 195 
 HEL  HE ES   4    8 2 57.81                             116    1.01 0  272 256 
 PTGC HZ EP     C  8 2 28.16                             112   -0.78 7  309 159 
 PTGC HE ES   4    8 3  1.20                             112   -2.22 0  309 159 
 PTGC HZ I         8 3  4.23         3.5 0.28            114            309 159 
 CBOC HZ EP   4    8 2 33.09                             111    1.22 0  333 252 
 CBOC HE ES        8 3  9.30                             111    0.66 7  333 252 
 CBOC HZ I         8 3 14.03         0.9 0.16            111            333 252 
 SJC  HZ EP   2    8 2 39.71                             106   -0.69 3  408 327 
 SJC  HN ES   4    8 3 19.78                             106   -4.05 0  408 327 
                                                                                
