 2016 10 5 0338 51.9 L   6.790 -73.219161.4  RSN  4 0.2 1.4LRSN                1
 GAP=274        0.47       3.0     4.8  4.5  0.1339E+01 -0.5299E+01  0.7668E+00E
 Epicentro: ZAPATOCA - SANTANDER                                               3
 ACTION:UPD 16-11-09 19:16 OP:rebc STATUS:               ID:20161005033851 L   I
 OLDACT:REG 16-10-05 12:43 OP:dani STATUS:               ID:20161005033748     3
 2016-10-05-0338-00M.COL___357                                                 6
 STAT SP IPHASW D HRMM SECON CODA AMPLIT PERI AZIMU VELO AIN AR TRES W  DIS CAZ7
 BRR  HZ EP        339 14.54                             157    0.1410 64.8 303 
 BRR  HN ES        339 31.90                             157   -0.0810 64.8 303 
 BRR  HZ I         339 35.77         3.8 0.26            150           64.8 303 
 PTB  HZ EP        339 19.66                             137    0.21 9  140 259 
 PTB  HN ES        339 40.81                             137   -0.17 9  140 259 
 PTB  HZ I         339 46.68         1.7 0.38            133            140 259 
 SPBC HZ EP        339 20.89                             133   -0.18 9  157 217 
 SPBC HN ES        339 43.99                             133    0.12 9  157 217 
 SPBC HZ I         339 51.06         4.0 0.15            131            157 217 
 ZAR  HZ EP        339 24.44                             127   -0.23 9  197 293 
 ZAR  HE ES        339 50.43                             127    0.16 9  197 293 
 ZAR  HZ I         339 59.89         2.0 0.28            125            197 293 
                                                                                
