 2016  2 5 0202 50.7 L   6.849 -73.116149.2  RSN  8 0.2 1.2LRSN                1
 GAP=138        0.56       2.0     2.9  3.8 -0.1268E+01  0.2594E+01  0.2478E+00E
 Epicentro: LOS SANTOS - SANTANDER                                             3
 ACTION:UPD 16-03-04 21:23 OP:rebc STATUS:               ID:20160205020250 L   I
 OLDACT:REG 16-02-05 13:02 OP:cara STATUS:               ID:20160205015743     3
 2016-02-05-0157-43M.COL___331                                                 6
 STAT SP IPHASW D HRMM SECON CODA AMPLIT PERI AZIMU VELO AIN AR TRES W  DIS CAZ7
 BAR2 EZ EP        2 3 10.93                             168    0.0210 29.3 194 
 BAR2 EZ ES        2 3 26.83                             168    0.1810 29.3 194 
 BAR2 EZ I         2 3 29.22         3.9 0.12            165           29.3 194 
 PAM  EZ IP        2 3 12.86                             153   -0.1110 71.2  40 
 PAM  EN ES        2 3 30.18                             153   -0.1210 71.2  40 
 RUS  HZ IP        2 3 15.36                             143    0.1610  106 178 
 RUS  HN ES        2 3 34.18                             143   -0.1010  106 178 
 RUS  HZ I         2 3 35.06         0.8 0.18            142            106 178 
 PTB  HZ EP        2 3 17.87                             132   -0.51 9  152 257 
 PTB  HN ES        2 3 39.96                             132    0.03 9  152 257 
 PTB  HZ I         2 3 41.05         2.6 0.26            131            152 257 
 SPBC HZ IP     C  2 3 20.01                             129   -0.08 9  169 219 
 SPBC HN ES        2 3 42.81                             129   -0.17 9  169 219 
 SPBC HZ I         2 3 52.11         3.1 0.30            128            169 219 
 SML  HN ES        2 3 56.01                             119    0.39 8  240 334 
 CHI  HZ EP        2 3 29.52                             117    0.24 8  255 196 
 CHI  HN ES        2 3 59.67                             117    0.32 8  255 196 
 CHI  HZ I         2 4  6.37         0.8 0.34            117            255 196 
 GUY2CHZ EP   9    2 3 37.87                             112    2.71 0  307 234 
 GUY2CHE ES        2 4 12.60                                    0.08 7  307 234 
 GUY2CHZ I         2 4 20.41         1.4 0.70                           307 234 
                                                                                
