 2011 10 5 0527 18.2 L   6.737 -73.116146.2  RSN  9 0.4 2.3LRSN                1
 GAP=143        0.80       4.3     5.3  6.1 -0.4596E+01  0.7202E+01 -0.2530E+00E
 Epicentro: JORDAN - SANTANDER                                                 3
 ACTION:UPD 12-07-13 16:02 OP:ep   STATUS:               ID:20111005052718 L   I
 2011-10-05-0520-00M.COL___172                                                 6
 STAT SP IPHASW D HRMM SECON CODA AMPLIT PERI AZIMU VELO AIN AR TRES W  DIS CAZ7
 BAR2 SZ EP   1    527 37.93                             173    0.17 7 17.6 205 
 BAR2 SZ ES   1    527 52.56                             173   -0.47 7 17.6 205 
 BAR2 SZ I         527 54.81        36.2 0.22                          17.6 205 
 GIR2 SZ EP   1    527 38.07                             165   -0.05 7 38.8 347 
 GIR2 SZ ES   1    527 53.52                             165   -0.16 7 38.8 347 
 BRR  HZ EP        527 39.82                             151    0.0810 77.6 302 
 BRR  HZ I         527 40.14        93.1 0.15                          77.6 302 
 BRR  HN ES   1    527 57.35                             151    0.78 7 77.6 302 
 PAM  SZ EP        527 40.88                             150    0.2310 80.9  35 
 PAM  SN ES   1    527 58.08                             150   -0.10 7 80.9  35 
 PAM  SZ I         528  0.11        16.2 0.32                          80.9  35 
 RUS  HZ EP   1    527 42.00                             146    0.53 7 93.4 178 
 RUS  HE ES   2    527 59.50                             146   -0.14 5 93.4 178 
 RUS  HZ I         528  1.81        13.6 0.25                          93.4 178 
 OCA  SZ EP   1    527 46.79                             128   -0.42 7  168 352 
 OCA  SZ ES   1    528  9.57                             128   -0.29 7  168 352 
 OCA  SZ I         528 14.87        26.8 0.27                           168 352 
 ZAR  HZ EP   1    527 50.43                             122   -0.81 6  210 294 
 ZAR  HN ES   2    528 17.68                             122    0.64 4  210 294 
 ZAR  HZ I         528 21.73        23.6 0.35                           210 294 
 NOR  SE ES   1    528 21.05                             119   -0.54 6  233 236 
 HEL  HZ EP   2    527 59.10                             115    0.51 4  274 257 
 HEL  HZ I         528 36.63        13.8 0.24                           274 257 
                                                                                
