 2017  2 5 0055 23.0 L   6.725 -73.183144.8  RSN  4 0.2 1.2LRSN                1
 GAP=227        0.39       3.5     3.5  4.8  0.6638E+01  0.5858E+01  0.3683E+01E
 Epicentro: VILLANUEVA - SANTANDER                                             3
 ACTION:UPD 17-05-24 15:32 OP:jn   STATUS:               ID:20170205005523 L   I
 OLDACT:REG 17-02-05 13:00 OP:dnl  STATUS:               ID:20170205004742     3
 2017-02-05-0048-00M.COL___328                                                 6
 STAT SP IPHASW D HRMM SECON CODA AMPLIT PERI AZIMU VELO AIN AR TRES W  DIS CAZ7
 BAR2 EZ EP   2    055 42.12                             174   -0.27 5 14.7 180 
 BAR2 EZ ES        055 57.36                             174   -0.1310 14.7 180 
 BAR2 EZ I         055 58.12         5.1 0.32            178           14.7 180 
 BRR  HZ EP   2    055 44.10                             152   -0.02 5 72.1 306 
 BRR  HZ I         055 58.55         8.1 0.40            140           72.1 306 
 BRR  HN ES        056  0.73                             152    0.1610 72.1 306 
 RUS  HZ EP   2    055 46.11                             146   -0.01 5 92.7 173 
 RUS  HE ES        056  4.26                             146    0.1210 92.7 173 
 RUS  HZ I         056  6.80         1.0 0.44            141           92.7 173 
 PTB  HZ EP   2    055 49.64                             133    0.22 5  142 262 
 PTB  HE ES        056  9.86                             133   -0.14 9  142 262 
 PTB  HZ I         056 17.09         1.9 0.42            124            142 262 
                                                                                
