 2017 12 5 0120 35.7 L   6.853 -73.143148.4  RSN 28 0.9 2.7LRSN                1
 GAP= 65        1.76       3.6     4.4  7.5  0.3634E+00  0.1059E+02  0.2507E+01E
 Epicentro: LOS SANTOS - SANTANDER                                             3
 ACTION:UPD 18-01-04 13:17 OP:rebc STATUS:               ID:20171205012035 L   I
 OLDACT:UP  17-12-05 15:11 OP:e    STATUS:               ID:20171205011735     3
 OLDACT:UP  17-12-05 15:07 OP:e    STATUS:               ID:20171205011735     3
 OLDACT:REG 17-12-05 13:09 OP:y    STATUS:               ID:20171205011735     3
 2017-12-05-0118-00M.COL___494                                                 6
 STAT SP IPHASW D HRMM SECON CODA AMPLIT PERI AZIMU VELO AIN AR TRES W  DIS CAZ7
 BAR2 EZ EP        120 55.88                             168    0.1110 29.2 189 
 BAR2 EZ ES        121 10.63                             168   -0.8010 29.2 189 
 BAR2 EZ I         121 12.13       123.0 0.18            167           29.2 189 
 PAM  EZ EP        120 58.85                             153    0.9210 72.7  42 
 PAM  EN ES        121 15.92                             153    0.6610 72.7  42 
 PAM  EZ I         121 18.06        69.9 0.50            150           72.7  42 
 RUS  HZ EP        120 59.81                             143   -0.3210  106 176 
 RUS  HN ES        121 18.78                             143   -0.4110  106 176 
 RUS  HZ I         121 20.16        79.2 0.42            140            106 176 
 PTB  HZ EP        121  2.54                             132   -0.48 9  149 257 
 PTB  HE ES        121 24.24                             132   -0.09 9  149 257 
 PTB  HZ I         121 25.50        32.0 0.16            130            149 257 
 OCA  HZ EP        121  4.19                             131    0.51 9  154 353 
 OCA  HN ES        121 25.92                             131    0.42 9  154 353 
 OCA  HZ I         121 34.38        86.0 0.22            129            154 353 
 TAM  HZ IP        121  4.27                             131    0.56 9  156 107 
 TAM  HZ I         121 25.15        35.6 0.40            127            156 107 
 TAM  HN ES        121 25.88                             131    0.33 9  156 107 
 SPBC HZ EP        121  4.87                             129    0.02 9  168 218 
 SPBC HN ES        121 27.12                             129   -0.47 9  168 218 
 SPBC HZ I         121 33.25        74.1 0.20            126            168 218 
 YPLC HZ IP        121  6.31                             126    0.13 9  182 152 
 YPLC HN ES        121 30.01                             126    0.06 9  182 152 
 YPLC HZ I         121 37.93        17.0 0.20            123            182 152 
 ZAR  HZ EP        121  8.42                             123    0.30 9  202 291 
 ZAR  HN ES        121 33.73                             123    0.31 9  202 291 
 ZAR  HZ I         121 39.02        54.4 0.38            121            202 291 
 TABC EZ EP        121 13.89                             119    1.73 8  235 210 
 TABC EZ I         121 44.35        44.0 0.54            117            235 210 
 CHI  HZ EP        121 14.00                             117   -0.17 8  254 195 
 CHI  HN ES        121 43.29                             117   -0.88 8  254 195 
 CHI  HZ I         121 48.37        28.6 0.50            114            254 195 
 ROSC BZ EP   4    121 15.88                             117    1.35 0  258 210 
 ROSC BN ES   4    121 46.16                             117    1.34 0  258 210 
 ROSC BZ I         121 50.53        82.8 0.40            114            258 210 
 CVER HZ EP        121 16.78                             115   -0.03 7  278 202 
 CVER HN ES        121 48.80                             115   -0.07 7  278 202 
 CVER HZ I         121 53.44        28.7 0.42            112            278 202 
 URE  HZ EP        121 15.71                             114   -0.98 7  282 291 
 URE  HN ES   4    121 46.48                             114   -2.18 0  282 291 
 URE  HZ I         121 57.38        27.5 0.32            112            282 291 
 DRL03HZ EP        121 15.78                             114   -1.01 7  283 353 
 DRL03HN ES   4    121 50.19                             114    1.36 0  283 353 
 GUY2CHZ EP        121 20.66                             112    0.82 7  305 234 
 GUY2CHZ ES        121 54.61                             112    0.34 7  305 234 
 GUY2CHZ I         122  2.07        29.4 0.32                           305 234 
 VIL  EZ EP        121 19.69                             112   -0.20 7  309 191 
 VIL  EN ES        121 53.84                             112   -0.53 7  309 191 
 VIL  EZ I         122  3.56        46.4 0.42            110            309 191 
 PTGC HZ EP        121 18.96                             112   -1.32 7  314 159 
 PTGC HN ES        121 52.78                             112   -2.28 7  314 159 
 ELA  HZ EP        121 25.54                             110    2.41 7  333 229 
 ELA  HN ES        122  2.40                             110    2.28 7  333 229 
 ELA  HZ I         122  8.55        22.8 0.60            108            333 229 
 CBOC HZ EP        121 23.49                             110    0.52 7  336 251 
 CBOC HN ES        121 59.62                             110   -0.22 7  336 251 
 CBOC HZ I         122  5.63         7.0 0.52            108            336 251 
 DBB  EZ EP        121 23.63                             110    0.36 7  339 273 
 DBB  HN ES        121 59.24                             110   -1.14 7  339 273 
 DBB  EZ I         122  3.04        12.4 0.20            108            339 273 
 ANIL HZ EP   4    121 27.61                             109    1.49 0  362 224 
 ANIL HE ES   4    122  7.65                             109    2.21 0  362 224 
 PRA  HZ EP        121 29.97                             107    0.04 6  397 209 
 PRA  HN ES        122 11.62                             107   -0.60 6  397 209 
 PRA  HZ I         122 18.29        24.7 0.24            105            397 209 
 ORTC HZ EP        121 30.26                             106   -0.03 6  400 216 
 ORTC HN ES        122 13.81                             106    0.95 6  400 216 
 ORTC HZ I         122 17.26        19.5 0.22            104            400 216 
 SJC  HZ EP        121 29.74                             106   -1.05 6  404 326 
 SJC  HN ES        122 11.69                             106   -2.07 6  404 326 
 SJC  HZ I         122 19.82         6.7 0.40            104            404 326 
 PAL  HZ EP        121 31.35                             106    0.02 6  409 238 
 PAL  HN ES   4    122 16.72                             106    1.99 0  409 238 
 PAL  HZ I         122 19.46         5.7 0.26            104            409 238 
 CRJC HZ EP   4    121 36.24                             104   -1.33 0  462   4 
 CRJC HN ES        122 24.98                             104   -0.85 5  462   4 
 CRJC HZ I         122 31.04        13.7 0.38            102            462   4 
 YOT  HZ EP        121 38.54                             103   -0.76 5  476 228 
 SMAR HZ EP   4    121 38.06                             103   -2.91 0  491 346 
 JAMC HZ EP        121 50.31                             101    0.71 3  561 224 
 BBAC HZ EP   4    122  4.16                              98   -2.36 0  702 221 
                                                                                
