 2016  5 5 0107 10.6 L   6.795 -73.122157.9  RSN 14 0.5 1.7LRSN                1
 GAP=185        1.01       3.6     4.7  5.9  0.7911E+00  0.6956E+01  0.3889E+00E
 Epicentro: LOS SANTOS - SANTANDER                                             3
 ACTION:UPD 16-08-18 17:42 OP:cam  STATUS:               ID:20160505010710 L   I
 OLDACT:DUP 16-05-05 15:27 OP:ak   STATUS:               ID:20160505005749d    3
 OLDACT:REG 16-05-05 12:44 OP:ak   STATUS:               ID:20160505005748     3
 2016-05-05-0057-48M.COL___307                                                 6
 STAT SP IPHASW D HRMM SECON CODA AMPLIT PERI AZIMU VELO AIN AR TRES W  DIS CAZ7
 BAR2 EZ EP        1 7 31.66                             171    0.0110 23.3 197 
 BAR2 EZ ES        1 7 47.76                             171   -0.3410 23.3 197 
 BAR2 EZ I         1 7 49.91         5.3 0.34            166           23.3 197 
 BRR  HZ EP   2    1 7 33.70                             154    0.53 5 73.8 298 
 BRR  HN ES        1 7 51.43                             154    0.6210 73.8 298 
 BRR  HZ I         1 7 54.78        10.0 0.16            150           73.8 298 
 RUS  HZ EP        1 7 35.86                             146    0.3910 99.8 178 
 RUS  HE ES        1 7 54.70                             146   -0.2110 99.8 178 
 RUS  HZ I         1 7 55.41         2.9 0.29            145           99.8 178 
 PTB  HZ EP        1 7 38.16                             134   -0.60 9  150 259 
 PTB  HN ES        1 7 59.78                             134   -0.97 9  150 259 
 PTB  HZ I         1 8  7.11         8.3 0.46            132            150 259 
 OCA  HN ES        1 8  2.72                             132   -0.11 9  161 352 
 SPBC HZ EP        1 7 40.64                             131    0.51 9  164 220 
 SPBC HN ES        1 8  3.33                             131    0.14 9  164 220 
 SPBC HZ I         1 8  6.08         8.9 0.10            130            164 220 
 ZAR  HZ EP   2    1 7 44.09                             125   -0.00 4  207 292 
 ZAR  HE ES        1 8 11.07                             125    0.82 8  207 292 
 ZAR  HZ I         1 8 16.76         6.9 0.30            124            207 292 
 NOR  HZ EP        1 7 47.49                             121    0.28 8  236 235 
 NOR  HE ES        1 8 15.68                             121   -0.12 8  236 235 
 NOR  HZ I         1 8 19.35         4.2 0.16            120            236 235 
 CHI  HZ EP   2    1 7 49.12                             119    0.14 4  249 196 
 CHI  HN ES   2    1 8 19.14                             119    0.20 4  249 196 
 CHI  HZ I         1 8 27.09         1.8 0.36            119            249 196 
 HEL  HN ES        1 8 23.87                             117    0.12 8  274 256 
 HEL  HZ I         1 8 31.33         3.3 0.24            116            274 256 
 URE  HZ EP        1 7 52.19                             116   -0.35 7  286 292 
 CBOC HN ES   2    1 8 35.22                             112   -0.25 3  336 252 
 ORTC HZ EP   2    1 8  4.83                             108   -0.22 3  397 217 
 ORTC HN ES   4    1 8 49.19                             108    1.65 0  397 217 
 ORTC HZ I         1 8 56.57         1.0 0.34            108            397 217 
 SJC  HZ EP        1 8  5.92                             107   -0.85 6  411 327 
 SJC  HN ES   4    1 8 48.80                             107   -1.82 0  411 327 
                                                                                
