 2012  9 5 0810 25.9 L   6.755 -73.156154.0  RSN  5 0.4 1.3LRSN                1
 GAP=233        0.60       7.7     8.8  9.7  0.4785E+02 -0.2642E+02 -0.1884E+02E
 Epicentro: LOS SANTOS - SANTANDER                                             3
 ACTION:UPD 12-10-22 14:17 OP:ep   STATUS:               ID:20120905081025 L   I
 2012-09-05-0810-00M.COL___218                                                 6
 STAT SP IPHASW D HRMM SECON CODA AMPLIT PERI AZIMU VELO AIN AR TRES W  DIS CAZ7
 BAR2 SZ EP   1    810 46.04                             173   -0.39 7 18.2 189 
 BAR2 SZ I         810 46.43         3.5 0.22                          18.2 189 
 BRR  HZ EP   1    810 48.04                             154    0.02 7 72.7 302 
 BRR  HN ES   1    811  5.33                             154    0.05 7 72.7 302 
 BRR  HZ I         811  7.82         4.1 0.15                          72.7 302 
 RUS  HZ EP   1    810 50.26                             147    0.13 7 95.7 175 
 RUS  HN ES   1    811  9.24                             147    0.21 7 95.7 175 
 PTB  HN ES   2    811 14.12                             134   -0.67 5  146 261 
 ZAR  HN ES   2    811 25.51                             124    0.73 4  205 294 
                                                                                
