 2015  3 5 0429 27.5 L   6.758 -73.207146.0  RSN  5 0.4 1.1LRSN                1
 GAP=227        0.86       5.9     6.8  7.5  0.8363E+01  0.3912E+01  0.8554E+01E
 Epicentro: ZAPATOCA - SANTANDER                                               3
 ACTION:UPD 15-04-30 16:23 OP:nd   STATUS:               ID:20150305042927 L   I
 OLDACT:REG 15-03-05 13:35 OP:spq  STATUS:               ID:20150305042749     3
 2015-03-05-0427-49M.COL___284                                                 6
 STAT SP IPHASW D HRMM SECON CODA AMPLIT PERI AZIMU VELO AIN AR TRES W  DIS CAZ7
 BAR2 EZ EP        429 46.89                             172   -0.1710 18.5 172 
 BAR2 EZ ES   1    430  1.89                             172   -0.44 7 18.5 172 
 BAR2 EZ I         430  2.79         3.4 0.24            169           18.5 172 
 BRR  HZ EP     C  429 48.42                             154   -0.0610 67.9 305 
 BRR  HN ES        430  5.37                             154    0.5210 67.9 305 
 BRR  HZ I         430  7.68         3.7 0.53            153           67.9 305 
 RUS  HZ EP   1    429 50.92                             145   -0.07 7 96.7 172 
 RUS  HE ES   1    430  9.42                             145    0.10 7 96.7 172 
 RUS  HZ I         430 10.40         1.0 0.28            144           96.7 172 
 PTB  HZ EP   1    429 53.32                             134   -0.49 7  140 260 
 PTB  HN ES   1    430 13.65                             134   -0.68 7  140 260 
 PTB  HZ I         430 15.91         1.6 0.14            132            140 260 
 SPBC HZ EP        429 55.78                             131    0.51 9  155 218 
 SPBC HN ES   1    430 17.16                             131    0.22 7  155 218 
 SPBC HZ I         430 22.62         1.9 0.24            130            155 218 
                                                                                
