 2017  5 5 0452 33.5 L   6.811 -73.168146.1  RSN  5 0.3 1.3LRSN                1
 GAP=133        0.69       3.8     3.5  6.1 -0.7666E+00  0.2312E+01  0.3139E+01E
 Epicentro: LOS SANTOS - SANTANDER                                             3
 ACTION:UPD 17-06-16 13:33 OP:jn   STATUS:               ID:20170505045233 L   I
 OLDACT:UP  17-05-05 15:27 OP:ed   STATUS:               ID:20170505044742     3
 OLDACT:REG 17-05-05 12:13 OP:edw  STATUS:               ID:20170505044742     3
 2017-05-05-0448-00M.COL___364                                                 6
 STAT SP IPHASW D HRMM SECON CODA AMPLIT PERI AZIMU VELO AIN AR TRES W  DIS CAZ7
 BRR  HZ EP        452 54.99                             153    0.5010 68.5 299 
 BRR  HN ES        453 11.16                             153    0.2710 68.5 299 
 PAM  EZ EP        452 55.47                             151   -0.2810 78.0  41 
 PAM  EN ES        453 12.97                             151   -0.1610 78.0  41 
 PAM  EZ I         453 15.23         3.2 0.44            154           78.0  41 
 RUS  HZ EP        452 57.37                             143    0.0310  102 175 
 RUS  HN ES        453 15.99                             143    0.0210  102 175 
 RUS  HZ I         453 16.99         4.8 0.32            146            102 175 
 PTB  HZ EP        453  0.25                             132   -0.01 9  146 258 
 PTB  HN ES        453 20.76                             132   -0.40 9  146 258 
 PTB  HZ I         453 26.33         1.7 0.50            133            146 258 
 ZAR  HN ES   2    453 30.65                             123   -0.10 4  201 292 
                                                                                
