 2012  9 5 0335 20.3 L   6.768 -73.149148.5  RSN 10 0.4 2.2LRSN                1
 GAP=138        0.78       4.2     4.0  5.5 -0.1697E+01  0.7821E+01  0.5249E+01E
 Epicentro: LOS SANTOS - SANTANDER                                             3
 ACTION:UPD 12-10-22 14:17 OP:ep   STATUS:               ID:20120905033520 L   I
 2012-09-05-0330-00M.COL___218                                                 6
 STAT SP IPHASW D HRMM SECON CODA AMPLIT PERI AZIMU VELO AIN AR TRES W  DIS CAZ7
 BAR2 SZ EP   1    335 40.07                             172   -0.09 7 19.8 191 
 BAR2 SZ I         335 40.51        24.7 0.10                          19.8 191 
 BAR2 SZ ES   1    335 54.93                             172   -0.75 7 19.8 191 
 GIR2 SZ EP   1    335 40.23                             166   -0.13 7 34.7 352 
 GIR2 SZ ES   1    335 56.31                             166    0.28 7 34.7 352 
 BRR  HZ EP   1    335 42.13                             152    0.34 7 72.7 301 
 BRR  HN ES   1    335 59.48                             152    0.90 7 72.7 301 
 BRR  HZ I         336  2.36        23.1 0.15                          72.7 301 
 PAM  SZ EP   1    335 43.08                             150    0.13 7 80.3  38 
 PAM  SN ES   1    336  0.20                             150   -0.44 7 80.3  38 
 PAM  SZ I         336  2.76        23.8 0.60                          80.3  38 
 RUS  HZ EP   1    335 44.00                             145   -0.04 7 97.1 176 
 RUS  HN ES   1    336  3.05                             145    0.47 7 97.1 176 
 RUS  HZ I         336  4.45        16.5 0.39                          97.1 176 
 PTB  HZ EP   1    335 47.12                             133   -0.25 7  147 260 
 PTB  HN ES   1    336  8.12                             133   -0.39 7  147 260 
 ZAR  HZ EP   1    335 52.71                             123   -0.29 6  205 293 
 ZAR  HE ES   1    336 18.25                             123   -0.28 6  205 293 
 ZAR  HZ I         336 23.77        15.3 0.17                           205 293 
 NOR  SZ EP   1    335 56.14                             119    0.23 6  232 235 
 NOR  SN ES   1    336 23.79                             119    0.08 6  232 235 
 NOR  SZ I         336 29.75        11.8 0.23                           232 235 
 HEL  HZ EP   1    336  1.25                             115    0.76 6  271 257 
 HEL  HN ES   1    336 31.54                             115   -0.33 6  271 257 
 HEL  HZ I         336 38.55         7.9 0.43                           271 257 
 PRA  HZ EP   1    336 13.17                             107   -0.34 4  389 210 
 PRA  HN ES   1    336 54.98                             107   -0.05 4  389 210 
 PRA  HZ I         337  1.78         9.5 0.30                           389 210 
                                                                                
