 2011 11 5 0850 59.9 L   6.785 -73.084145.5  RSN  4 0.1 1.5LRSN                1
 GAP=145        0.34       2.7     4.5  4.5  0.9919E+00  0.7878E+00 -0.2144E+01E
 Epicentro: LOS SANTOS - SANTANDER                                             3
 ACTION:UPD 12-07-13 16:08 OP:ep   STATUS:               ID:20111105085060 L   I
 2011-11-05-0848-57S.COL___175                                                 6
 STAT SP IPHASW D HRMM SECON CODA AMPLIT PERI AZIMU VELO AIN AR TRES W  DIS CAZ7
 BAR2 SZ EP   2    851 19.30                             170   -0.25 5 23.9 207 
 BAR2 SZ ES   2    851 34.89                             170    0.04 5 23.9 207 
 BAR2 SZ I         851 35.90         7.6 0.38                          23.9 207 
 PAM  SZ EP   1    851 22.17                             152    0.20 7 74.6  35 
 PAM  SN ES   2    851 38.93                             152   -0.22 5 74.6  35 
 BRR  HZ EP        851 21.47                             150    0.0110 78.0 297 
 BRR  HZ I         851 23.00         9.1 0.13                          78.0 297 
 BRR  HN ES   2    851 38.28                             150    0.03 5 78.0 297 
 RUS  HZ EP   1    851 23.41                             144   -0.12 7 98.7 180 
 RUS  HN ES   1    851 42.01                             144    0.08 7 98.7 180 
 RUS  HZ I         851 44.03         2.6 0.37                          98.7 180 
                                                                                
