 2014 12 5 0704 22.7 L   6.840 -73.324116.0  RSN 12 0.5 1.9LRSN                1
 GAP= 99        1.17       3.3     4.0  6.2 -0.1424E+01  0.7105E+01  0.1854E+01E
 Epicentro: ZAPATOCA - SANTANDER                                               3
 ACTION:UPD 15-02-10 17:00 OP:nd   STATUS:               ID:20141205070422 L   I
 OLDACT:UP  14-12-05 15:15 OP:cam  STATUS:               ID:20141205065735     3
 OLDACT:REG 14-12-05 12:48 OP:fm   STATUS:               ID:20141205065735     3
 2014-12-05-0657-35M.COL___294                                                 6
 STAT SP IPHASW D HRMM SECON CODA AMPLIT PERI AZIMU VELO AIN AR TRES W  DIS CAZ7
 BAR2 SZ EP        7 4 39.22                             164    0.1710 31.6 150 
 BAR2 SZ ES        7 4 51.80                             164    0.0310 31.6 150 
 BAR2 SZ I         7 4 53.81        83.6 0.40            167           31.6 150 
 BRR  HZ EP     D  7 4 39.86                             154    0.2710 52.0 305 
 BRR  HN ES        7 4 53.13                             154    0.3910 52.0 305 
 BRR  HZ I         7 4 54.93        20.9 0.46            153           52.0 305 
 PAM  SZ EP        7 4 42.27                             140   -0.4410 88.4  51 
 PAM  SN ES        7 4 59.08                             140    0.7910 88.4  51 
 PAM  SZ I         7 5  1.09        11.6 0.22            145           88.4  51 
 RUS  HZ EP        7 4 44.31                             134   -0.0310  108 166 
 RUS  HE ES        7 5  0.91                             134   -0.2810  108 166 
 RUS  HZ I         7 5  3.55         7.8 0.22            138            108 166 
 PTB  HZ EP        7 4 45.60                             128   -0.0610  129 255 
 PTB  HN ES        7 5  2.88                             128   -0.6610  129 255 
 PTB  HZ I         7 5  6.94        16.3 0.32            129            129 255 
 OCA  HZ EP        7 4 47.67                             123   -0.68 9  155   0 
 OCA  HN ES        7 5  7.59                             123   -0.74 9  155   0 
 OCA  HZ I         7 5 13.59        15.5 0.32            125            155   0 
 SPBC HZ EP        7 4 48.58                             123    0.26 9  155 212 
 SPBC HN ES        7 5  7.72                             123   -0.55 9  155 212 
 SPBC HZ I         7 5 13.41        10.1 0.40            125            155 212 
 ZAR  HN ES        7 5 13.96                             118    0.46 9  184 293 
 ZAR  HZ I         7 5 18.61        11.8 0.36            119            184 293 
 CHI  HZ EP        7 4 58.92                             110   -0.04 8  249 190 
 HEL  HZ EP        7 4 59.94                             110    0.39 8  254 254 
 HEL  HN ES   4    7 5 26.42                             110   -1.85 0  254 254 
 HEL  HZ I         7 5 34.70         3.7 0.32            111            254 254 
 GUY2CHZ EP        7 5  4.54                             107    0.94 7  288 232 
 GUY2CHN ES   4    7 5 37.66                             107    2.18 0  288 232 
 GUY2CHZ I         7 5 46.54         2.5 0.54                           288 232 
 CBOC HZ EP        7 5  6.80                             105    0.25 7  316 250 
                                                                                
