 2010 11 5 0410  2.8 L   6.748 -73.136136.7  RSN 10 0.4 2.4LRSN                1
 GAP=137        0.92       3.8     5.4  6.2 -0.2900E+01  0.3078E+01  0.3777E+01E
 Epicentro: LOS SANTOS - SANTANDER                                             3
 ACTION:UP  10-12-17 16:50 OP:REBC STATUS:               ID:20101105041002 L   I
 2010-11-05-0408-20S.COL___129                                                 6
 STAT SP IPHASW D HRMM SECON CODA AMPLIT PERI AZIMU VELO SNR AR TRES W  DIS CAZ7
 BAR2 SZ EP        410 21.05                             172    -0.210   18 197 
 BAR2 SZ ES        410 35.14                             172    -0.410   18 197 
 BAR2 SZ I         410 37.17        63.3 0.15                            18 197 
 BRR  HZ EP        410 22.94                             149    -0.210   75 302 
 BRR  HN ES   1    410 39.54                             149     0.5 7   75 302 
 BRR  HZ I         410 44.15       110.9 0.15                            75 302 
 RUS  HZ EP        410 25.10                             143    -0.110   95 176 
 RUS  HE ES   2    410 43.09                             143     0.4 5   95 176 
 RUS  HZ I         410 44.91        27.4 0.36                            95 176 
 GUE  SZ EP   1    410 26.17                             136    -0.9 7  122  11 
 GRA  SZ EP        410 27.89                             133     0.210  131  16 
 GRA  SZ ES        410 47.40                             133     0.310  131  16 
 GRA  SZ I         410 48.31        53.8 0.36                           131  16 
 YOP  SZ EP        410 31.77                             125     0.2 9  173 153 
 YOP  SE ES   2    410 55.13                             125     1.0 4  173 153 
 NOR  SZ EP   2    410 37.93                             117     0.2 4  232 236 
 NOR  SN ES   2    411  5.24                             117     0.2 4  232 236 
 HEL  HZ EP        410 43.04                             113     0.6 8  272 257 
 HEL  HE ES   2    411 13.10                             113    -0.4 4  272 257 
 HEL  HZ I         411 19.58        11.9 0.41                           272 257 
 RREF HZ EP   2    410 48.28                             109     0.1 3  319 230 
 RREF HZ I         411 35.24        11.6 0.17                           319 230 
 PRA  HZ EP   2    410 54.89                             105    -0.6 3  388 210 
 PRA  HE ES   2    411 35.92                             105    -0.6 3  388 210 
                                                                                
