 2011  2 5 0732  3.9 L   6.790 -73.156137.1  RSN  8 0.3 1.6LRSN                1
 GAP=158        0.60       2.6     6.9  6.8 -0.3651E+01  0.2083E+02  0.1926E+01E
 Epicentro: LOS SANTOS - SANTANDER                                             3
 ACTION:UP  11-03-28 15:06 OP:jfem STATUS:               ID:20110205073203 L   I
 2011-02-05-0730-01S.COL___139                                                 6
 STAT SP IPHASW D HRMM SECON CODA AMPLIT PERI AZIMU VELO SNR AR TRES W  DIS CAZ7
 BAR2 SZ EP   2    732 22.59                             170     0.1 5   22 188 
 BAR2 SZ ES   2    732 36.90                             170     0.0 5   22 188 
 BAR2 SZ I         732 40.19         8.7 0.37                            22 188 
 RUS  HZ EP   2    732 26.39                             142    -0.3 5  100 175 
 RUS  HE ES   2    732 44.90                             142     0.4 5  100 175 
 RUS  HZ I         732 46.75         3.9 0.49                           100 175 
 GRA  SZ EP   1    732 28.85                             135     0.4 8  127  18 
 GRA  SZ ES   1    732 47.25                             135    -0.4 8  127  18 
 GRA  SZ I         732 49.34         9.0 0.35                           127  18 
 OCA  SZ EP        732 31.50                             127    -0.110  161 354 
 OCA  SZ ES        732 53.36                             127     0.110  161 354 
 OCA  SZ I         733  0.94         7.0 0.32                           161 354 
 CHI  HZ EP        732 41.28                             115     0.3 9  247 195 
 CHI  HE ES   2    733  9.42                             115    -0.5 4  247 195 
 CHI  HZ I         733 16.10         2.1 0.33                           247 195 
 HEL  HZ EP   2    732 43.48                             113     0.0 4  271 256 
 HEL  HZ I         733 21.57         2.9 0.28                           271 256 
 RREF HZ EP   2    732 48.94                             109    -0.6 4  320 229 
 RREF HZ I         733 34.07         1.8 0.44                           320 229 
 DBB  SZ EP   2    732 50.59                             108    -0.3 4  338 274 
 DBB  SZ ES   2    733 27.94                             108     0.4 4  338 274 
 DBB  SZ I         733 37.44         0.7 0.90                           338 274 
                                                                                
