 2017  5 5 0720 48.4 L   6.416 -73.678112.1  RSN  4 0.2 1.1LRSN                1
 GAP=148        0.60       2.9     2.5  5.8  0.5435E+00 -0.2878E+01 -0.8465E+00E
 Epicentro: SANTA HELENA DEL OPON - SANTANDER                                  3
 ACTION:UPD 17-06-16 13:33 OP:jn   STATUS:               ID:20170505072048 L   I
 OLDACT:REG 17-05-05 13:07 OP:edw  STATUS:               ID:20170505071740     3
 2017-05-05-0718-00M.COL___349                                                 6
 STAT SP IPHASW D HRMM SECON CODA AMPLIT PERI AZIMU VELO AIN AR TRES W  DIS CAZ7
 BRR  HZ EP        721  6.59                             143    0.1710 76.5 357 
 BRR  HN ES        721 20.80                             143    0.3410 76.5 357 
 PTB  HZ EP        721  7.20                             139   -0.0610 87.2 279 
 PTB  HN ES        721 21.72                             139   -0.2510 87.2 279 
 PTB  HZ I         721 22.97         2.9 0.46            143           87.2 279 
 RUS  HZ EP        721  8.11                             140    0.1510 87.6 131 
 RUS  HN ES        721 23.19                             140   -0.0210 87.6 131 
 RUS  HZ I         721 26.56         2.6 0.40            140           87.6 131 
 PAM  EZ EP        721 13.59                             123    0.00 9  149  47 
 PAM  EN ES        721 32.84                             123   -0.38 9  149  47 
 PAM  EZ I         721 33.29         1.9 0.14            126            149  47 
                                                                                
