 2016  5 5 0734  0.1 L   6.780 -73.182148.7  RSN  6 0.4 1.2LRSN                1
 GAP=179        1.01       4.1     6.1  7.9  0.1471E+00  0.2660E+01 -0.2399E+01E
 Epicentro: LOS SANTOS - SANTANDER                                             3
 ACTION:UPD 16-08-18 17:42 OP:cam  STATUS:               ID:20160505073400 L   I
 OLDACT:REG 16-05-05 13:10 OP:ak   STATUS:               ID:20160505072748     3
 2016-05-05-0727-48M.COL___285                                                 6
 STAT SP IPHASW D HRMM SECON CODA AMPLIT PERI AZIMU VELO AIN AR TRES W  DIS CAZ7
 BAR2 EZ EP        734 19.73                             172   -0.3110 20.8 180 
 BAR2 EZ ES        734 35.00                             172   -0.5910 20.8 180 
 BAR2 EZ I         734 36.97         4.2 0.19            172           20.8 180 
 BRR  HZ IP     C  734 21.97                             154    0.5310 68.8 302 
 BRR  HN ES        734 38.60                             154    0.5210 68.8 302 
 BRR  HZ I         734 43.48         1.9 0.08            150           68.8 302 
 RUS  HZ EP        734 24.02                             145    0.0110 98.7 174 
 RUS  HN ES        734 43.24                             145    0.5710 98.7 174 
 RUS  HZ I         734 43.66         1.2 0.24            150           98.7 174 
 PTB  HZ EP        734 26.83                             134   -0.09 9  143 259 
 PTB  HN ES        734 47.75                             134   -0.09 9  143 259 
 PTB  HZ I         734 55.30         1.3 0.22            133            143 259 
 SPBC HN ES        734 50.14                             130   -0.39 9  159 218 
 SPBC HZ I         734 53.76         2.2 0.11            132            159 218 
 OCA  HZ EP   2    734 28.78                             130   -0.02 5  162 355 
 OCA  HN ES        734 50.91                             130   -0.29 9  162 355 
 OCA  HZ I         734 57.60         4.3 0.16            131            162 355 
                                                                                
