 2015 10 5 0027 21.1 L   6.828 -73.125141.5  RSN 15 0.5 2.2LRSN                1
 GAP=127        1.06       2.6     3.9  5.1 -0.3024E+01  0.6054E+01  0.3350E+00E
 Epicentro: LOS SANTOS - SANTANDER                                             3
 ACTION:UPD 15-12-22 20:37 OP:cam  STATUS:               ID:20151005002721 L   I
 OLDACT:UP  15-10-05 14:40 OP:ak   STATUS:               ID:20151005001750     3
 OLDACT:REG 15-10-05 12:51 OP:ak   STATUS:               ID:20151005001750     3
 2015-10-05-0017-50M.COL___349                                                 6
 STAT SP IPHASW D HRMM SECON CODA AMPLIT PERI AZIMU VELO AIN AR TRES W  DIS CAZ7
 BAR2 EZ EP        027 40.32                             169    0.0610 26.8 194 
 BAR2 EZ ES        027 55.17                             169   -0.0610 26.8 194 
 BAR2 EZ I         027 56.71        39.9 0.18            168           26.8 194 
 BRR  HZ EP        027 42.30                             152    0.5110 71.8 296 
 BRR  HE ES        027 58.67                             152    0.7210 71.8 296 
 BRR  HZ I         028  1.78        14.5 0.14            150           71.8 296 
 PAM  EZ EP        027 43.22                             151    0.6210 73.6  40 
 PAM  EN ES        027 59.40                             151    0.0010 73.6  40 
 PAM  EZ I         028  5.89         7.8 0.17            155           73.6  40 
 RUS  HZ EP        027 44.27                             142   -0.3510  104 177 
 RUS  HE ES        028  2.60                             142   -0.3910  104 177 
 RUS  HZ I         028  4.23        10.9 0.40            144            104 177 
 OCA  HZ EP        027 49.05                             129    0.26 9  157 352 
 OCA  HN ES        028 10.56                             129    0.15 9  157 352 
 OCA  HZ I         028 13.54        36.9 0.20            131            157 352 
 SPBC HZ EP        027 49.28                             127   -0.33 9  167 219 
 SPBC HN ES        028 11.42                             127   -0.45 9  167 219 
 SPBC HZ I         028 14.33        19.5 0.22            128            167 219 
 ZAR  HZ EP        027 53.78                             121    0.44 9  205 291 
 ZAR  HE ES        028 17.75                             121   -0.76 9  205 291 
 ZAR  HZ I         028 24.18        13.7 0.45            122            205 291 
 NOR  HZ EP        027 56.49                             117   -0.46 8  238 234 
 NOR  HN ES        028 24.41                             117   -0.52 8  238 234 
 NOR  HZ I         028 31.11        11.2 0.15            118            238 234 
 SML  HZ EP        027 56.78                             117   -0.48 8  242 335 
 SML  HE ES        028 24.50                             117   -0.99 8  242 335 
 SML  HZ I         028 29.15        18.6 0.10            118            242 335 
 ROSC BZ EP   1    027 59.94                             115    0.56 6  257 211 
 ROSC BN ES        028 29.58                             115    0.32 8  257 211 
 ROSC BZ I         028 38.56        11.5 0.45            117            257 211 
 HEL  HZ EP        028  1.75                             114    0.35 8  275 255 
 HEL  HN ES        028 33.10                             114    0.25 8  275 255 
 HEL  HZ I         028 41.34         5.0 0.38            115            275 255 
 GUY2CHZ EP        028  5.34                             111    0.44 7  305 235 
 GUY2CHN ES        028 39.00                             111   -0.08 7  305 235 
 GUY2CHZ I         028 46.77        10.2 0.30                           305 235 
 SDV  BZ EP        028  9.80                             108   -0.72 6  357  50 
 ANIL HZ EP   1    028 11.82                             107    0.67 5  361 224 
 ANIL HE ES        028 50.93                             107    0.71 6  361 224 
 ANIL HZ I         028 57.26        10.9 0.96            109            361 224 
 ORTC HZ EP        028 15.37                             105    0.07 6  399 216 
 ORTC HE ES        028 57.35                             105   -0.24 6  399 216 
 ORTC HZ I         029  4.59         5.9 0.36            107            399 216 
                                                                                
