 2011  1 5 0509 14.5 L   6.726 -73.168136.4  RSN  5 0.2 1.5LRSN                1
 GAP=202        0.44       5.4     6.7  7.4 -0.8780E+01  0.2546E+02 -0.5970E+01E
 Epicentro: VILLANUEVA - SANTANDER                                             3
 ACTION:UP  11-02-08 08:38 OP:pat  STATUS:               ID:20110105050914 L   I
 2011-01-05-0500-00M.COL___137                                                 6
 STAT SP IPHASW D HRMM SECON CODA AMPLIT PERI AZIMU VELO SNR AR TRES W  DIS CAZ7
 BAR2 SZ EP   2    5 9 32.36                             174    -0.5 5   15 187 
 BAR2 SZ ES   2    5 9 46.96                             174    -0.2 5   15 187 
 BAR2 SZ I         5 9 48.23        10.4 0.21                            15 187 
 BTL  SZ EP        5 9 33.17                             169     0.210   24 332 
 RUS  HZ EP   1    5 9 36.63                             144    -0.1 7   93 174 
 RUS  HE ES   2    5 9 54.19                             144     0.1 5   93 174 
 RUS  HZ I         5 9 56.73         5.3 0.28                            93 174 
 NOR  SZ EP   2    5 9 49.10                             117     0.1 4  228 236 
 NOR  SE ES   2    510 15.88                             117     0.0 4  228 236 
 HEL  HZ EP   2    5 9 53.52                             113    -0.2 4  268 257 
 HEL  HZ I         510 30.99         1.6 0.38                           268 257 
                                                                                
