 2012  5 5 0245 14.4 L   6.791 -73.928 22.9  RSN  7 0.4 1.7LRSN                1
 GAP=108        0.80       3.0     2.1  3.3 -0.1507E+01 -0.5560E+00  0.2875E+01E
 Epicentro: PUERTO PARRA - SANTANDER                                           3
 ACTION:UP  12-07-05 12:02 OP:pat  STATUS:               ID:20120505024514 L   I
 2012-05-05-0240-00M.COL___192                                                 6
 STAT SP IPHASW D HRMM SECON CODA AMPLIT PERI AZIMU VELO SNR AR TRES W  DIS CAZ7
 BRR  HZ EP        245 21.91                             116    -0.210   42  34 
 BRR  HN ES   1    245 28.32                             116     0.2 7   42  34 
 BRR  HZ I         245 28.96        54.2 0.08                            42  34 
 PTB  HZ EP   1    245 25.38                             107     0.1 7   65 245 
 PTB  HN ES   1    245 34.06                             107     0.3 7   65 245 
 PTB  HZ I         245 35.29        68.9 0.15                            65 245 
 BAR2 SZ EP   1    245 28.11                             103    -0.4 7   85 105 
 BAR2 SZ I         245 28.38        20.5 0.16                            85 105 
 BAR2 SZ ES   2    245 38.64                             103    -0.9 5   85 105 
 ZAR  HZ EP   1    245 34.04                              56    -0.1 7  129 307 
 ZAR  HN ES   2    245 49.07                              56    -0.5 5  129 307 
 ZAR  HZ I         245 53.58         6.0 0.11                           129 307 
 RUS  HZ IP     D  245 36.13                              56     0.4 9  136 137 
 RUS  HN ES   1    245 52.25                              56    -0.1 7  136 137 
 RUS  HZ I         245 54.19        20.6 0.24                           136 137 
 PAM  SZ EP   1    245 37.46                              56     0.2 7  149  66 
 PAM  SN ES   1    245 55.35                              56     0.3 7  149  66 
 HEL  HN ES   1    246  3.35                              56    -0.4 7  189 250 
                                                                                
