 2013  9 5 0225 29.4 L   6.861 -73.565 10.0  RSN  5 0.2 1.5LRSN                1
 GAP=156        0.54       1.9     2.6  3.4 -0.8583E-01  0.2219E+01  0.2254E+00E
 Epicentro: SAN VICENTE DE CHUCURI - SANTANDER                                 3
 ACTION:UPD 13-10-22 09:20 OP:ep   STATUS:               ID:20130905022529 L   I
 OLDACT:UP  13-09-05 09:21 OP:cam  STATUS:               ID:20130905021959     3
 OLDACT:REG 13-09-05 08:43 OP:cam  STATUS:               ID:20130905021959     3
 2013-09-05-0219-59M.COL___269                                                 6
 STAT SP IPHASW D HRMM SECON CODA AMPLIT PERI AZIMU VELO AIN AR TRES W  DIS CAZ7
 BRR  HZ EP        225 34.62                             102   -0.3210 31.7 329 
 BRR  HE ES        225 39.43                             102    0.2110 31.7 329 
 BRR  HZ I         225 39.64        19.8 0.42             47           31.7 329 
 BAR2 SZ EP   2    225 37.91                              97   -0.27 5 51.7 125 
 PTB  HZ EP     D  225 45.98                              93    0.0310  105 250 
 PTB  HN ES        225 58.78                              93   -0.0410  105 250 
 PTB  HZ I         226  1.87        18.6 0.40             47            105 250 
 RUS  HZ EP   2    225 49.19                              93    0.49 5  120 153 
 ZAR  HZ EP   1    225 54.39                              56    0.32 7  159 296 
 ZAR  HE ES        226 13.18                              56   -0.09 9  159 296 
 ZAR  HZ I         226 15.41         7.5 0.42             47            159 296 
                                                                                
