 2015  9 5 0007 51.8 L   6.801 -73.155140.9  RSN 12 0.4 2.0LRSN                1
 GAP=135        0.96       2.6     3.7  5.0 -0.2220E+01  0.6203E+01 -0.9060E+00E
 Epicentro: LOS SANTOS - SANTANDER                                             3
 ACTION:UPD 15-10-28 16:24 OP:cam  STATUS:               ID:20150905000751 L   I
 OLDACT:REG 15-09-05 12:27 OP:stll STATUS:               ID:20150905000004     3
 2015-09-05-0000-04M.COL___355                                                 6
 STAT SP IPHASW D HRMM SECON CODA AMPLIT PERI AZIMU VELO AIN AR TRES W  DIS CAZ7
 BAR2 EZ EP        0 8 10.78                             170   -0.0310 23.3 187 
 BAR2 EZ ES        0 8 25.54                             170   -0.1210 23.3 187 
 BAR2 EZ I         0 8 27.09        17.6 0.18            167           23.3 187 
 BRR  HZ EP        0 8 12.64                             152    0.3110 70.2 299 
 BRR  HN ES        0 8 29.26                             152    0.8910 70.2 299 
 BRR  HZ I         0 8 32.28        17.0 0.34            146           70.2 299 
 PAM  EZ EP        0 8 13.66                             150    0.1610 77.9  40 
 PAM  EZ I         0 8 13.91        14.0 0.18            150           77.9  40 
 PAM  EN ES        0 8 30.07                             150   -0.3810 77.9  40 
 RUS  HZ EP        0 8 14.91                             143   -0.1410  101 175 
 RUS  HZ I         0 8 15.97         9.2 0.10            140            101 175 
 RUS  HN ES        0 8 33.14                             143   -0.0810  101 175 
 PTB  HZ EP        0 8 17.83                             131   -0.42 9  147 259 
 PTB  HZ I         0 8 18.77        11.5 0.18            126            147 259 
 PTB  HN ES        0 8 38.27                             131   -0.64 9  147 259 
 OCA  HZ EP        0 8 20.24                             129    0.56 9  160 353 
 OCA  HE ES        0 8 41.31                             129   -0.13 9  160 353 
 OCA  HZ I         0 8 44.80        24.1 0.28            125            160 353 
 SPBC HZ EP        0 8 19.62                             128   -0.22 9  163 219 
 SPBC HE ES        0 8 42.04                             128    0.30 9  163 219 
 SPBC HZ I         0 8 47.90        15.2 0.22            124            163 219 
 ZAR  HZ EP        0 8 23.92                             121    0.13 9  203 292 
 ZAR  HN ES        0 8 48.29                             121   -0.48 9  203 292 
 ZAR  HZ I         0 8 54.16        15.1 0.44            117            203 292 
 NOR  HZ EP        0 8 27.20                             117    0.07 8  234 234 
 NOR  HN ES        0 8 54.93                             117    0.21 8  234 234 
 NOR  HZ I         0 8 56.87        11.2 0.20            114            234 234 
 SML  HZ EP        0 8 27.53                             116   -0.53 8  243 335 
 SML  HN ES        0 8 56.29                             116   -0.08 8  243 335 
 SML  HZ I         0 8 58.54        15.3 0.10            113            243 335 
 HEL  HZ EP        0 8 32.45                             114    0.82 8  271 256 
 HEL  HZ I         0 9  9.07         5.5 0.42            110            271 256 
 GUY2CHZ EP        0 8 34.94                             111   -0.13 7  300 235 
 GUY2CHN ES        0 9  8.75                             111   -0.09 7  300 235 
 GUY2CHZ I         0 9 17.03         3.8 0.46                           300 235 
                                                                                
