 2017 10 5 0712 14.5 L   6.754 -73.115149.7  RSN  7 0.4 1.2LRSN                1
 GAP=143        0.89       4.0     4.6  6.9 -0.5341E+01  0.1434E+02 -0.3546E+01E
 Epicentro: LOS SANTOS - SANTANDER                                             3
 ACTION:UPD 17-11-07 19:28 OP:rebc STATUS:               ID:20171005071214 L   I
 OLDACT:REG 17-10-05 13:39 OP:osc  STATUS:               ID:20171005070637     3
 2017-10-05-0707-00M.COL___444                                                 6
 STAT SP IPHASW D HRMM SECON CODA AMPLIT PERI AZIMU VELO AIN AR TRES W  DIS CAZ7
 BAR2 EZ EP        712 34.34                             172   -0.1810 19.3 202 
 BAR2 EZ ES        712 50.23                             172    0.0810 19.3 202 
 BAR2 EZ I         712 53.03         3.6 0.24            170           19.3 202 
 PAM  EZ EP        712 37.14                             151   -0.1110 79.4  35 
 PAM  EN ES        712 54.52                             151   -0.4710 79.4  35 
 PAM  EZ I         712 56.30         2.5 0.44            155           79.4  35 
 RUS  HZ EP        712 38.56                             146    0.2910 95.3 178 
 RUS  HE ES        712 57.17                             146    0.3610 95.3 178 
 RUS  HZ I         712 58.19         1.4 0.23            149           95.3 178 
 SPBC HZ EP        712 43.22                             130    0.09 9  161 221 
 SPBC HN ES        713  5.26                             130   -0.21 9  161 221 
 SPBC HZ I         713 12.02         2.1 0.21            132            161 221 
 ZAR  HZ EP        712 48.07                             122    0.36 8  209 293 
 ZAR  HN ES        713 14.14                             122    0.51 8  209 293 
 ZAR  HZ I         713 18.92         2.4 0.28            124            209 293 
 NOR  HE ES        713 18.02                             119   -0.45 8  235 236 
 GUY2CHE ES   2    713 30.79                             113   -1.62 4  301 236 
                                                                                
