 2010 12 5 0423 34.6 L   6.802 -73.186143.4  RSN  9 0.5 2.1LRSN                1
 GAP=165        0.93       5.7    10.7  8.6 -0.2867E+02  0.3353E+02 -0.6758E+01E
 Epicentro: ZAPATOCA - SANTANDER                                               3
 ACTION:UP  11-01-14 15:22 OP:pat  STATUS:               ID:20101205042334 L   I
 2010-12-05-0422-05S.COL___133                                                 6
 STAT SP IPHASW D HRMM SECON CODA AMPLIT PERI AZIMU VELO SNR AR TRES W  DIS CAZ7
 BAR2 SZ EP        423 53.77                             170    -0.210   23 179 
 BAR2 SZ I         423 54.27        16.2 0.35                            23 179 
 BAR2 SZ ES   1    424  8.42                             170    -0.6 7   23 179 
 GIR2 SZ EP        423 54.77                             167     0.810   31 358 
 GIR2 SZ ES   2    424  9.87                             167     0.8 5   31 358 
 GUE  SZ EP        423 59.16                             138     0.010  117  14 
 OCA  SZ EP        424  2.60                             129    -0.1 9  160 355 
 OCA  SZ ES   1    424 23.92                             129    -0.7 7  160 355 
 OCA  SZ I         424 28.89        14.0 0.38                           160 355 
 NOR  SZ EP   3    424 10.14                             118     0.3 2  231 234 
 CHI  HZ EP   2    424 12.18                             116     0.1 4  248 194 
 CHI  HE ES   3    424 41.45                             116     0.2 2  248 194 
 HEL  HZ EP   2    424 14.40                             114     0.2 4  268 256 
 HEL  HN ES   2    424 45.40                             114     0.3 4  268 256 
 HEL  HZ I         424 51.91         5.0 0.73                           268 256 
 RREF HZ EP   2    424 20.12                             110    -0.2 3  319 229 
 RREF HE ES   2    424 55.64                             110    -0.3 3  319 229 
 RREF HZ I         425  6.74         4.1 0.43                           319 229 
 PRA  HZ EP   1    424 27.30                             106    -0.5 4  390 209 
 PRA  HZ I         425 13.60         9.5 0.22                           390 209 
                                                                                
