 2017  4 5 0021  8.5 L   6.702 -73.189154.4  RSN  4 0.1 1.3LRSN                1
 GAP=225        0.33       2.9     3.1  3.6  0.4454E+01  0.6759E+00 -0.9488E+00E
 Epicentro: VILLANUEVA - SANTANDER                                             3
 ACTION:UPD 17-05-30 21:08 OP:jn   STATUS:               ID:20170405002108 L   I
 OLDACT:UP  17-04-05 13:06 OP:and  STATUS:               ID:20170405001741     3
 OLDACT:REG 17-04-05 12:21 OP:and  STATUS:               ID:20170405001741     3
 2017-04-05-0018-00M.COL___365                                                 6
 STAT SP IPHASW D HRMM SECON CODA AMPLIT PERI AZIMU VELO AIN AR TRES W  DIS CAZ7
 BRR  HZ EP        021 30.68                             153   -0.0410 73.1 308 
 BRR  HN ES        021 48.06                             153    0.0310 73.1 308 
 RUS  HZ EP   2    021 32.71                             148    0.26 5 90.2 173 
 RUS  HN ES        021 51.07                             148   -0.0410 90.2 173 
 RUS  HZ I         021 52.31         1.3 0.28            146           90.2 173 
 PTB  HZ EP        021 35.58                             135   -0.06 9  141 263 
 PTB  HN ES        021 56.85                             135    0.05 9  141 263 
 PTB  HZ I         022  2.59         2.9 0.26            130            141 263 
 ZAR  HN ES   4    022  9.08                             124    1.78 0  204 295 
 ZAR  HZ I         022 14.29         3.6 0.28            122            204 295 
                                                                                
