 2014  3 5 0422 11.3 L   6.823 -73.158140.3  RSN 14 0.5 2.1LRSN                1
 GAP=134        1.11       2.8     4.1  6.2 -0.2450E+01  0.1000E+02 -0.9623E+00E
 Epicentro: LOS SANTOS - SANTANDER                                             3
 ACTION:UPD 14-04-09 23:14 OP:nd   STATUS:               ID:20140305042211 L   I
 OLDACT:REG 14-03-05 09:02 OP:nd   STATUS:               ID:20140305042043     3
 2014-03-05-0420-43M.COL___229                                                 6
 STAT SP IPHASW D HRMM SECON CODA AMPLIT PERI AZIMU VELO AIN AR TRES W  DIS CAZ7
 BAR2 SZ EP        422 30.37                             169    0.0110 25.7 186 
 BAR2 SZ ES        422 45.28                             169    0.0910 25.7 186 
 BAR2 SZ I         422 46.58        39.6 0.30            168           25.7 186 
 PAM  SZ EP        422 33.02                             150    0.1210 76.3  42 
 PAM  SN ES        422 49.87                             150    0.1510 76.3  42 
 PAM  SZ I         422 52.32        23.0 0.48            155           76.3  42 
 RUS  HZ EP        422 34.43                             142   -0.3210  103 175 
 RUS  HN ES        422 52.70                             142   -0.3110  103 175 
 RUS  HZ I         422 55.22         9.1 0.34            145            103 175 
 PTB  HZ EP        422 37.16                             131   -0.63 9  147 258 
 PTB  HN ES        422 58.35                             131   -0.07 9  147 258 
 PTB  HZ I         423  1.86        20.6 0.46            132            147 258 
 OCA  HZ EP        422 39.96                             129    1.00 9  158 354 
 OCA  HN ES        423  0.56                             129    0.05 9  158 354 
 OCA  HZ I         423  4.93        12.0 0.18            132            158 354 
 SPBC HZ EP        422 39.71                             127    0.18 9  164 218 
 SPBC HN ES        423  2.00                             127    0.47 9  164 218 
 SPBC HZ I         423  9.77        13.2 0.26            129            164 218 
 ZAR  HZ EP        422 42.97                             121   -0.23 9  202 292 
 ZAR  HN ES        423  8.66                             121    0.61 9  202 292 
 ZAR  HZ I         423 14.78        22.7 0.46            123            202 292 
 NOR  HZ EP        422 46.78                             117   -0.02 8  235 234 
 NOR  HN ES        423 14.42                             117   -0.04 8  235 234 
 NOR  HZ I         423 20.10        13.5 0.38            119            235 234 
 SML  HZ EP        422 47.04                             117   -0.30 8  241 335 
 SML  HN ES        423 14.28                             117   -1.14 8  241 335 
 SML  HZ I         423 18.02        19.0 0.28            119            241 335 
 CHI  HZ EP        422 48.51                             116   -0.46 8  251 195 
 CHI  HN ES        423 18.14                             116   -0.19 8  251 195 
 CHI  HZ I         423 23.66         4.2 0.20            118            251 195 
 HEL  HZ EP        422 51.78                             114    0.58 8  271 255 
 HEL  HN ES        423 21.59                             114   -0.71 8  271 255 
 HEL  HZ I         423 30.20         6.2 0.28            115            271 255 
 URE  HZ EP   4    422 50.20                             113   -1.70 0  282 292 
 URE  HN ES   4    423 21.23                             113   -2.30 0  282 292 
 URE  HZ I         423 24.29        11.6 0.16            115            282 292 
 GUY2CHZ EP        422 55.58                             111    0.84 7  302 234 
 GUY2CHN ES        423 28.97                             111    0.37 7  302 234 
 GUY2CHZ I         423 37.16         5.0 0.42                           302 234 
 SJC  HZ EP   4    423  4.37                             105   -2.01 0  406 327 
 SJC  HN ES   4    423 46.24                             105   -3.07 0  406 327 
 SJC  HZ I         423 49.75         3.5 0.40            107            406 327 
                                                                                
