 2010  4 5 0654 24.0 L   6.802 -73.082145.2  RSN  6 0.4 2.2LRSN                1
 GAP=261        1.11       6.2     7.9  8.1  0.1625E+01  0.1794E+02  0.2326E+02E
 Epicentro: LOS SANTOS - SANTANDER                                             3
 ACTION:UPD 10-08-24 09:57 OP:vdl  STATUS:               ID:20100405065424 L   I
 2010-04-05-0650-31S.COL___098                                                 6
 STAT SP IPHASW D HRMM SECON CODA AMPLIT PERI AZIMU VELO AIN AR TRES W  DIS CAZ7
 BAR2 SZ EP        654 43.26                             169    -0.410   26 206 
 BAR2 SZ ES        654 58.98                             169     0.010   26 206 
 BRR  HZ EP        654 45.34                             150    -0.110   77 296 
 BRR  HN ES        655  2.52                             150     0.310   77 296 
 BRR  HZ I         655  3.60        26.2 0.09                            77 296 
 CHI  HZ EP        655  1.51                             117    -0.4 8  251 197 
 CHI  HN ES        655 31.39                             117    -0.1 8  251 197 
 CHI  HZ I         655 34.22         9.5 0.57                           251 197 
 ROSC BZ EP        655  3.50                             116     1.0 8  257 212 
 ROSC BE ES        655 32.75                             116     0.2 8  257 212 
 ROSC BZ I         655 37.70         9.5 0.39                           257 212 
 HEL  HZ EP        655  5.50                             114     0.5 7  279 256 
 HEL  HN ES        655 36.16                             114    -0.8 7  279 256 
 HEL  HZ I         655 41.55         7.9 0.25                           279 256 
 RREF BZ EP        655 10.63                             110    -0.1 7  327 230 
 RREF BN ES        655 47.33                             110     0.1 7  327 230 
 RREF BZ I         655 55.20         7.6 0.43                           327 230 
                                                                                
