 2012  1 5 0617 39.6 L   6.756 -73.094144.7  RSN  6 0.3 1.5LRSN                1
 GAP=145        0.65       5.3     5.6  6.4 -0.2662E+01  0.2964E+01  0.8223E+01E
 Epicentro: LOS SANTOS - SANTANDER                                             3
 ACTION:UP  12-02-03 08:14 OP:REBC STATUS:               ID:20120105061739 L   I
 2012-01-05-0610-00M.COL___189                                                 6
 STAT SP IPHASW D HRMM SECON CODA AMPLIT PERI AZIMU VELO SNR AR TRES W  DIS CAZ7
 BAR2 SZ EP   2    617 58.75                             171    -0.3 5   21 208 
 BAR2 SZ ES   1    618 14.38                             171     0.2 7   21 208 
 BAR2 SZ I         618 16.23         6.3 0.29                            21 208 
 GIR2 SZ EP   1    617 59.28                             165    -0.1 7   37 343 
 GIR2 SZ ES   1    618 14.10                             165    -0.6 7   37 343 
 PAM  SZ EP   2    618  1.96                             150     0.2 5   78  34 
 PAM  SN ES   1    618 19.07                             150     0.1 7   78  34 
 BRR  HZ EP   1    618  1.12                             150     0.0 7   79 300 
 BRR  HZ I         618  1.37         9.2 0.10                            79 300 
 BRR  HE ES   1    618 18.36                             150     0.5 7   79 300 
 RUS  HZ EP   1    618  2.92                             145     0.0 7   96 179 
 RUS  HN ES   2    618 21.23                             145     0.2 5   96 179 
 RUS  HZ I         618 22.19         4.4 0.46                            96 179 
 PTB  HZ EP   2    618  6.93                             131     0.0 5  153 261 
 PTB  HE ES   2    618 27.66                             131    -0.6 5  153 261 
                                                                                
