 2012  4 5 0821  5.5 L   6.740 -73.154153.1  RSN  5 0.3 1.0LRSN                1
 GAP=232        0.69       9.2     7.2  8.1  0.4315E+02  0.1396E+02  0.1663E+02E
 Epicentro: JORDAN - SANTANDER                                                 3
 ACTION:UPD 12-07-05 11:50 OP:tino STATUS:               ID:20120405082105 L   I
 2012-04-05-0820-00M.COL___196                                                 6
 STAT SP IPHASW D HRMM SECON CODA AMPLIT PERI AZIMU VELO AIN AR TRES W  DIS CAZ7
 BAR2 SZ EP   1    821 26.01                             173     0.1 7   17 191 
 BAR2 SZ ES   1    821 41.86                             173     0.0 7   17 191 
 BRR  HE ES   1    821 44.71                             153    -0.1 7   74 303 
 BRR  HZ I         821 48.20         3.3 0.39                            74 303 
 RUS  HZ EP   1    821 29.95                             147     0.4 7   94 175 
 RUS  HZ I         821 30.85         0.8 0.18                            94 175 
 RUS  HN ES   2    821 47.93                             147    -0.4 5   94 175 
 PTB  HZ EP   1    821 32.34                             134    -0.6 7  146 261 
 PTB  HE ES   1    821 54.52                             134     0.2 7  146 261 
 PTB  HZ I         822  0.87         1.1 0.42                           146 261 
 ZAR  HN ES   1    822  4.59                             124     0.1 6  206 294 
 ZAR  HZ I         822 10.61         1.0 0.13                           206 294 
                                                                                
