 2011  4 5 0431 12.2 L   6.827 -73.166146.0  RSN 16 0.3 3.3LRSN                1
 GAP=102        0.68       2.8     3.7  3.9 -0.2304E+01  0.1106E+01  0.3347E+01E
 Epicentro: LOS SANTOS - SANTANDER                                             3
 ACTION:UP  11-06-22 15:28 OP:REBC STATUS:               ID:20110405043112 L   I
 2011-04-05-0429-38S.COL___122                                                 6
 STAT SP IPHASW D HRMM SECON CODA AMPLIT PERI AZIMU VELO SNR AR TRES W  DIS CAZ7
 BTL  SZ IP        431 31.90                             174     0.210   15 312 
 BTL  SZ ES   1    431 46.53                             174    -0.4 7   15 312 
 BAR2 SZ IP        431 31.85                             169    -0.110   26 184 
 BAR2 SZ ES   1    431 46.92                             169    -0.4 7   26 184 
 BAR2 SZ I         431 47.91       619.6 0.25                            26 184 
 GIR2 SZ IP        431 31.75                             169    -0.110   28 354 
 GIR2 SZ ES   2    431 47.07                             169     0.0 5   28 354 
 BRR  HZ IP     C  431 33.34                             154     0.210   68 297 
 BRR  HZ I         431 33.77       667.9 0.34                            68 297 
 BRR  HN ES   1    431 50.14                             154     0.6 7   68 297 
 PAM  SZ IP        431 34.75                             151     0.410   77  42 
 PAM  SN ES   2    431 51.33                             151    -0.4 5   77  42 
 OCA  SZ EP   1    431 40.08                             130    -0.1 7  157 354 
 OCA  SZ ES   2    432  1.85                             130    -0.2 5  157 354 
 OCA  SZ I         432  9.61       272.5 0.22                           157 354 
 YOP  SZ IP        431 42.96                             126     0.3 9  183 153 
 YOP  SN ES   2    432  6.55                             126     0.2 4  183 153 
 YOP  SZ I         432 10.51       109.1 0.40                           183 153 
 NOR  SZ EP   1    431 47.55                             118    -0.4 6  235 234 
 CHI  HZ EP        431 50.20                             117     0.0 8  251 194 
 CHI  HN ES   1    432 19.66                             117    -0.1 6  251 194 
 CHI  HZ I         432 24.11        74.0 0.68                           251 194 
 HEL  HZ EP   2    431 52.54                             115     0.3 4  271 255 
 HEL  HZ I         432 30.00       123.5 0.48                           271 255 
 GUY  SZ EP   1    431 56.47                             112     0.4 5  303 234 
 GUY  SN ES   2    432 29.39                             112    -0.9 4  303 234 
 GUY  SZ I         432 37.22       144.3 0.29                           303 234 
 VIL  SZ EP   2    431 55.88                             112     0.0 4  306 191 
 VIL  SN ES   2    432 29.77                             112    -0.2 4  306 191 
 VIL  SZ I         432 33.45        77.5 0.43                           306 191 
 RREF HZ EP   1    431 58.42                             111     0.0 5  322 229 
 RREF HN ES   1    432 34.18                             111    -0.2 5  322 229 
 RREF HZ I         432 41.25        66.4 0.39                           322 229 
 DBB  SZ EP        431 59.30                             110    -0.1 7  337 274 
 SDV  BZ EP        432  1.54                             108    -0.7 6  360  51 
 SDV  BZ I         432 42.18        46.4 0.47                           360  51 
 PRA  HZ EP   1    432  5.68                             106    -0.2 4  393 209 
                                                                                
