 2011  9 5 0050 19.0 L   6.788 -73.036135.5  RSN  5 0.4 1.5LRSN                1
 GAP=194        0.66       5.3     8.8  7.3  0.2748E+02 -0.1091E+02 -0.1207E+02E
 Epicentro: CEPITA - SANTANDER                                                 3
 ACTION:UPD 12-07-13 15:55 OP:ep   STATUS:               ID:20110905005019 L   I
 2011-09-05-0049-39S.COL___171                                                 6
 STAT SP IPHASW D HRMM SECON CODA AMPLIT PERI AZIMU VELO AIN AR TRES W  DIS CAZ7
 BAR2 SZ EP   1    050 37.81                             168    0.37 7 27.1 217 
 BAR2 SZ ES   1    050 51.34                             168   -0.52 7 27.1 217 
 BAR2 SZ I         050 53.90         7.7 0.28                          27.1 217 
 BRR  HZ EP   1    050 39.53                             146   -0.20 7 82.6 295 
 BRR  HN ES   1    050 56.53                             146    0.60 7 82.6 295 
 BRR  HZ I         050 57.27        10.0 0.08                          82.6 295 
 RUS  HZ EP   1    050 41.83                             142    0.22 7 99.2 183 
 RUS  HN ES   1    050 59.13                             142   -0.15 7 99.2 183 
 RUS  HZ I         051  0.04         3.7 0.66                          99.2 183 
 OCA  SZ EP   2    050 46.69                             126   -0.11 5  163 349 
 OCA  SZ ES   2    051  8.38                             126   -0.14 5  163 349 
 OCA  SZ I         051 16.91         4.2 0.29                           163 349 
 ZAR  HZ EP   2    050 51.84                             118   -0.17 4  216 291 
 ZAR  HN ES   2    051 17.26                             118   -0.53 4  216 291 
 ZAR  HZ I         051 22.01         4.0 0.47                           216 291 
                                                                                
