 2017 11 5 0559  4.1 L   6.667 -73.160140.2  RSN  4 0.3 0.9LRSN                1
 GAP=226        0.65       5.3     5.1  6.9  0.1322E+02  0.7125E+01  0.2783E+01E
 Epicentro: VILLANUEVA - SANTANDER                                             3
 ACTION:UPD 17-12-12 19:52 OP:rebc STATUS:               ID:20171105055904 L   I
 OLDACT:REG 17-11-05 15:54 OP:dnl  STATUS:               ID:20171105055740     3
 2017-11-05-0558-00M.COL___426                                                 6
 STAT SP IPHASW D HRMM SECON CODA AMPLIT PERI AZIMU VELO AIN AR TRES W  DIS CAZ7
 BAR2 EZ EP        559 22.80                             176   -0.0710 8.67 196 
 BAR2 EZ ES        559 37.15                             176   -0.3410 8.67 196 
 BAR2 EZ I         559 38.82         3.0 0.72            174           8.67 196 
 BRR  HZ EP   2    559 24.76                             149   -0.32 5 78.0 309 
 BRR  HE ES        559 41.75                             149    0.3310 78.0 309 
 BRR  HZ I         559 42.08         1.8 0.42            151           78.0 309 
 RUS  HZ EP   2    559 26.98                             147    0.67 5 86.1 174 
 RUS  HN ES        559 43.75                             147    0.1410 86.1 174 
 RUS  HZ I         559 46.11         0.9 0.22            146           86.1 174 
 PTB  HZ EP   2    559 29.86                             131   -0.43 5  144 264 
 PTB  HE ES        559 50.65                             131   -0.06 9  144 264 
 PTB  HZ I         559 51.92         0.7 0.16            132            144 264 
                                                                                
