 2014 10 5 0142  4.8 L   6.810 -73.095145.2  RSN  4 0.1 1.2LRSN                1
 GAP=280        0.35       3.4     2.6  3.4  0.2329E+01  0.2285E+01 -0.9821E+00E
 Epicentro: LOS SANTOS - SANTANDER                                             3
 ACTION:UPD 14-11-29 23:46 OP:nd   STATUS:               ID:20141005014204 L   I
 OLDACT:REG 14-10-05 14:26 OP:stll STATUS:               ID:20141005013743     3
 2014-10-05-0137-43M.COL___286                                                 6
 STAT SP IPHASW D HRMM SECON CODA AMPLIT PERI AZIMU VELO AIN AR TRES W  DIS CAZ7
 BAR2 SZ ES        142 39.66                             169   -0.0210 25.9 202 
 BAR2 SZ I         142 41.17         4.6 0.16            166           25.9 202 
 RUS  HZ EP        142 28.63                             143    0.1110  101 179 
 RUS  HN ES        142 47.01                             143   -0.0410  101 179 
 RUS  HZ I         142 48.58         1.4 0.26            142            101 179 
 PTB  HZ EP        142 32.08                             131   -0.13 9  153 259 
 PTB  HN ES        142 53.70                             131    0.09 9  153 259 
 SPBC HN ES        142 56.13                             128   -0.03 9  168 220 
 SPBC HZ I         142 59.48         1.9 0.30            128            168 220 
                                                                                
