 2017  4 5 0317 20.8 L   6.823 -73.135142.0  RSN  8 0.3 1.4LRSN                1
 GAP=137        0.68       3.0     3.1  5.5 -0.1935E+01  0.2886E+01 -0.1598E-01E
 Epicentro: LOS SANTOS - SANTANDER                                             3
 ACTION:UPD 17-05-30 21:08 OP:jn   STATUS:               ID:20170405031720 L   I
 OLDACT:UP  17-04-05 14:12 OP:and  STATUS:               ID:20170405030745     3
 OLDACT:UP  17-04-05 14:12 OP:and  STATUS:               ID:20170405030745     3
 OLDACT:UP  17-04-05 14:12 OP:and  STATUS:               ID:20170405030745     3
 OLDACT:REG 17-04-05 12:41 OP:and  STATUS:               ID:20170405030745     3
 2017-04-05-0308-00M.COL___365                                                 6
 STAT SP IPHASW D HRMM SECON CODA AMPLIT PERI AZIMU VELO AIN AR TRES W  DIS CAZ7
 BAR2 EZ ES   2    317 54.05                             169   -1.03 5 26.0 192 
 BAR2 EZ I         317 55.30         7.8 0.32            168           26.0 192 
 BRR  HZ EP        317 41.33                             152   -0.2510 71.1 296 
 BRR  HN ES        317 58.08                             152    0.3310 71.1 296 
 PAM  EZ EP        317 42.41                             151   -0.0910 74.7  40 
 PAM  EN ES        317 59.52                             151    0.1310 74.7  40 
 PAM  EZ I         318  1.94         5.0 0.42            152           74.7  40 
 RUS  HZ EP   2    317 44.27                             142   -0.13 5  103 177 
 RUS  HN ES        318  3.02                             142    0.2410  103 177 
 RUS  HZ I         318  4.48         1.2 0.32            142            103 177 
 PTB  HZ EP   9    317 46.38                             131   -1.28 0  149 258 
 PTB  HN ES        318  7.22                             131   -0.08 9  149 258 
 PTB  HZ I         318  9.13         3.1 0.14            130            149 258 
 SPBC HN ES        318 11.20                             128   -0.32 9  166 219 
 SPBC HZ I         318 16.40         2.5 0.15            127            166 219 
 ZAR  HZ EP   2    317 53.25                             122    0.19 4  204 291 
 ZAR  HN ES        318 18.06                             122   -0.13 9  204 291 
 ZAR  HZ I         318 22.13         3.0 0.32            121            204 291 
 NOR  HN ES        318 24.90                             118    0.38 8  237 234 
 NOR  HZ I         318 27.40         2.1 0.40            117            237 234 
                                                                                
