 2010 12 5 0349 58.8 L   6.791 -73.176148.0  RSN 14 0.5 3.1LRSN                1
 GAP=132        0.89       3.4     5.5  5.9 -0.8811E+01  0.6291E+01  0.4925E+01E
 Epicentro: LOS SANTOS - SANTANDER                                             3
 ACTION:UP  11-01-14 15:22 OP:pat  STATUS:               ID:20101205034958 L   I
 2010-12-05-0348-16S.COL___133                                                 6
 STAT SP IPHASW D HRMM SECON CODA AMPLIT PERI AZIMU VELO SNR AR TRES W  DIS CAZ7
 BAR2 SZ IP        350 18.60                             171    -0.110   22 182 
 BAR2 SZ ES   1    350 33.53                             171    -0.7 7   22 182 
 BAR2 SZ I         350 36.40       290.2 0.34                            22 182 
 GIR2 SZ EP   2    350 19.70                             167     0.9 5   32 357 
 GIR2 SZ ES   1    350 35.01                             167     0.6 7   32 357 
 GUE  SZ EP        350 23.91                             139     0.010  118  14 
 GRA  SZ IP        350 24.48                             137     0.010  128  19 
 GRA  SZ ES   1    350 44.24                             137    -0.2 7  128  19 
 GRA  SZ I         350 48.58        90.4 0.39                           128  19 
 OCA  SZ EP   1    350 27.02                             130    -0.4 7  161 354 
 OCA  SZ ES   1    350 49.62                             130     0.0 7  161 354 
 OCA  SZ I         350 53.62       127.5 0.27                           161 354 
 NOR  SZ EP        350 34.47                             119     0.1 8  231 234 
 NOR  SN ES   1    351  1.91                             119    -0.2 6  231 234 
 CHI  HZ IP     C  350 36.79                             118     0.3 8  247 194 
 CHI  HZ I         350 37.62        60.5 0.20                           247 194 
 CHI  HE ES   1    351  6.32                             118     0.5 6  247 194 
 HEL  HZ EP   1    350 39.10                             115     0.3 6  269 256 
 HEL  HE ES   1    351  9.61                             115    -0.3 6  269 256 
 HEL  HZ I         351 17.74        97.0 0.32                           269 256 
 VIL  SZ EP        350 42.16                             113     0.2 7  300 189 
 VIL  SN ES   1    351 15.92                             113     0.3 5  300 189 
 VIL  SZ I         351 20.10        45.8 0.28                           300 189 
 RREF HZ EP   1    350 45.63                             111     0.9 5  319 229 
 RREF HE ES   1    351 19.66                             111    -0.8 5  319 229 
 RREF HZ I         351 30.68        75.7 0.29                           319 229 
 DBB  SZ EP        350 46.33                             110     0.3 7  336 274 
 SDV  BZ EP   2    350 48.66                             108    -0.7 3  364  50 
 PRA  HZ EP        350 51.78                             107    -0.4 6  389 209 
 PRA  HE ES   1    351 33.72                             107     0.0 4  389 209 
 SJA  SZ EP        350 52.32                             106    -1.0 6  398 192 
 SJA  SZ ES   3    351 33.90                             106    -1.8 1  398 192 
 SJA  SZ I         351 39.43        99.6 0.31                           398 192 
                                                                                
