 2017  9 5 0604 20.5 L   6.955 -73.502107.8  RSN  4 0.4 1.1LRSN                1
 GAP=193        0.66       9.5     9.4  8.2  0.8286E+02  0.4876E+02  0.4563E+02E
 Epicentro: SAN VICENTE DE CHUCURI - SANTANDER                                 3
 ACTION:UPD 17-10-05 19:09 OP:rebc STATUS:               ID:20170905060420 L   I
 OLDACT:UP  17-09-05 15:53 OP:ndl  STATUS:               ID:20170905055742d    3
 OLDACT:UP  17-09-05 15:53 OP:ndl  STATUS:               ID:20170905055742d    3
 OLDACT:DUP 17-09-05 15:28 OP:ndl  STATUS:               ID:20170905055742d    3
 2017-09-05-0558-00M.COL___426                                                 6
 STAT SP IPHASW D HRMM SECON CODA AMPLIT PERI AZIMU VELO AIN AR TRES W  DIS CAZ7
 BRR  HZ EP   2    6 4 35.17                             164   -0.23 5 28.7 306 
 BRR  HN ES        6 4 46.93                             164   -0.0810 28.7 306 
 BRR  HZ I         6 4 47.64         6.0 0.38            153           28.7 306 
 BAR2 EZ EP   2    6 4 37.92                             152    1.03 5 53.4 139 
 BAR2 EZ ES        6 4 49.52                             152   -0.1510 53.4 139 
 BAR2 EZ I         6 4 51.03         6.8 0.16            144           53.4 139 
 RUS  HZ EP   2    6 4 42.68                             127   -0.46 5  126 158 
 RUS  HN ES        6 5  0.88                             127    0.0910  126 158 
 RUS  HZ I         6 5  6.80         0.7 0.54            122            126 158 
 ZAR  HZ EP   2    6 4 45.57                             119   -0.51 5  161 292 
 ZAR  HN ES        6 5  6.22                             119    0.19 9  161 292 
 ZAR  HZ I         6 5  8.75         1.7 0.38            117            161 292 
                                                                                
