 2012  2 5 0637 21.3 L   6.650 -73.172135.6  RSN  4 0.2 1.5LRSN                1
 GAP=239        0.50       9.0     5.4  9.7 -0.6359E-01 -0.7208E+01  0.3999E+02E
 ACTION:UP  12-03-07 16:27 OP:epov STATUS:               ID:20120205063721 L   I
 2012-02-05-0630-00M.COL___188                                                 6
 STAT SP IPHASW D HRMM SECON CODA AMPLIT PERI AZIMU VELO SNR AR TRES W  DIS CAZ7
 BAR2 SZ EP   1    637 39.62                             177    0.13 7 6.52 190 
 BRR  HZ EP   1    637 42.01                             148    0.20 7 78.2 310 
 BRR  HN ES   1    637 57.57                             148   -0.22 7 78.2 310 
 BRR  HZ I         638  0.09         7.4 0.11                          78.2 310 
 PTB  HZ EP   1    637 46.60                             131   -0.39 7  143 265 
 PTB  HN ES   1    638  7.21                             131    0.20 7  143 265 
 ZAR  HN ES   2    638 18.90                             120    0.19 4  208 297 
 ZAR  HZ I         638 24.73         2.0 0.16                           208 297 
                                                                                
