 2011  8 5 0707 45.7 L   6.705 -73.158149.5  RSN  4 0.2 1.5LRSN                1
 GAP=229        0.47       4.6     6.3  5.6  0.1281E+02  0.2607E+01  0.1918E+01E
 Epicentro: VILLANUEVA - SANTANDER                                             3
 *BAR2-BRR                                                                     3
 ACTION:UPD 12-07-25 14:06 OP:epov STATUS:               ID:20110805070745 L   I
 2011-08-05-0704-41S.COL___135                                                 6
 STAT SP IPHASW D HRMM SECON CODA AMPLIT PERI AZIMU VELO AIN AR TRES W  DIS CAZ7
 BAR2 SZ EP   1    7 8  5.56                             175   -0.02 7 12.7 192 
 BAR2 SZ ES   1    7 8 20.72                             175   -0.39 7 12.7 192 
 BAR2 SZ I         7 8 22.29         9.9 0.21                          12.7 192 
 BRR  HZ EP   1    7 8  7.44                             152   -0.02 7 75.7 306 
 BRR  HE ES   1    7 8 24.69                             152    0.22 7 75.7 306 
 BRR  HZ I         7 8 26.18         7.0 0.12                          75.7 306 
 RUS  HZ EP   1    7 8  9.06                             147   -0.01 7 90.2 175 
 RUS  HN ES   1    7 8 27.60                             147    0.27 7 90.2 175 
 RUS  HZ I         7 8 31.05         2.5 0.26                          90.2 175 
 NOR  SE ES   2    7 8 48.16                             120   -0.15 4  228 236 
                                                                                
