 2011 10 5 0907  6.4 L   6.183 -73.624109.7  RSN  5 0.2 1.4LRSN                1
 GAP=236        0.42       2.9     4.9  4.8  0.4510E+01  0.6791E+01 -0.5530E+00E
 Epicentro: LA PAZ - SANTANDER                                                 3
 ACTION:UPD 12-07-13 16:02 OP:ep   STATUS:               ID:20111005090706 L   I
 2011-10-05-0900-00M.COL___172                                                 6
 STAT SP IPHASW D HRMM SECON CODA AMPLIT PERI AZIMU VELO AIN AR TRES W  DIS CAZ7
 BAR2 SZ EP        9 7 24.01                             147    0.1510 66.6  47 
 BAR2 SZ ES   1    9 7 37.52                             147    0.08 7 66.6  47 
 BAR2 SZ I         9 7 39.26        20.9 0.14                          66.6  47 
 RUS  HZ EP   1    9 7 24.14                             146   -0.17 7 68.0 118 
 RUS  HZ I         9 7 24.46         2.6 0.16                          68.0 118 
 RUS  HN ES   1    9 7 38.24                             146   -0.01 7 68.0 118 
 BRR  HZ EP   1    9 7 26.06                             133   -0.30 7  103 355 
 BRR  HZ I         9 7 41.03         4.5 0.06                           103 355 
 BRR  HN ES   1    9 7 42.02                             133    0.12 7  103 355 
 GIR2 SZ EP   1    9 7 27.38                             131    0.17 7  110  26 
 GIR2 SZ ES   2    9 7 42.96                             131   -0.44 5  110  26 
 PAM  SZ EP   1    9 7 33.17                             120    0.14 7  164  39 
 PAM  SE ES   1    9 7 53.66                             120   -0.11 7  164  39 
                                                                                
