 2017  2 5 0013 58.1 L   6.472 -73.613110.8  RSN  4 0.2 1.3LRSN                1
 GAP=137        0.35       3.0     1.8  4.1  0.9627E+00  0.2320E+01  0.4159E+01E
 Epicentro: SANTA HELENA DEL OPON - SANTANDER                                  3
 ACTION:UPD 17-05-24 15:32 OP:jn   STATUS:               ID:20170205001358 L   I
 OLDACT:REG 17-02-05 12:59 OP:dnl  STATUS:               ID:20170205000740     3
 2017-02-05-0008-00M.COL___328                                                 6
 STAT SP IPHASW D HRMM SECON CODA AMPLIT PERI AZIMU VELO AIN AR TRES W  DIS CAZ7
 BAR2 EZ EP        014 14.60                             154    0.0010 49.4  74 
 BAR2 EZ ES        014 27.47                             154    0.0110 49.4  74 
 BAR2 EZ I         014 28.22        14.7 0.42            157           49.4  74 
 BRR  HZ EP   2    014 15.24                             145   -0.35 5 71.0 351 
 BRR  HE ES        014 29.30                             145    0.0610 71.0 351 
 BRR  HZ I         014 33.00         5.6 0.32            169           71.0 351 
 RUS  HZ EP   3    014 17.98                             139    0.51 2 86.9 138 
 RUS  HN ES   2    014 32.47                             139   -0.11 5 86.9 138 
 RUS  HZ I         014 47.57         1.8 0.44            137           86.9 138 
 PTB  HZ EP        014 17.44                             137    0.0810 93.6 275 
 PTB  HN ES        014 32.32                             137   -0.0710 93.6 275 
 PTB  HZ I         014 37.14         3.8 0.36            142           93.6 275 
                                                                                
