 2016 11 5 0929 42.5 L   7.219 -73.655 94.4  RSN  5 0.4 1.2LRSN                1
 GAP=160        0.88       6.5     3.0  7.1 -0.5044E+01  0.1861E+00  0.5348E+00E
 Epicentro: SABANA DE TORRES - SANTANDER                                       3
 ACTION:UPD 17-10-26 21:04 OP:lp   STATUS:               ID:20161105092942 L   I
 OLDACT:REG 16-11-05 14:23 OP:dani STATUS:               ID:20161105092750     3
 2016-11-05-0928-00M.COL___346                                                 6
 STAT SP IPHASW D HRMM SECON CODA AMPLIT PERI AZIMU VELO AIN AR TRES W  DIS CAZ7
 BRR  HZ EP        929 55.23                             171   -0.1510 13.9 207 
 BRR  HN ES        930  5.69                             171    0.2510 13.9 207 
 BRR  HZ I         930  6.51         9.3 0.24            159           13.9 207 
 BAR2 EZ EP        930  0.67                             134    0.6410 86.8 143 
 BAR2 EZ I         930 16.49         9.2 0.30            122           86.8 143 
 PAM  EZ EP        930  1.92                             129   -0.2610  106  83 
 PAM  EN ES        930 17.39                             129   -0.1610  106  83 
 PAM  EZ I         930 17.98         2.0 0.20            119            106  83 
 PTB  HZ EP        930  2.25                             125   -0.2810  116 230 
 PTB  HN ES        930 17.90                             125   -0.2610  116 230 
 PTB  HZ I         930 20.07         1.7 0.46            115            116 230 
 ZAR  HZ EP   2    930  5.63                             121    1.03 5  136 283 
 ZAR  HE ES        930 21.81                             121   -0.04 9  136 283 
 ZAR  HZ I         930 28.06         2.3 0.10            113            136 283 
                                                                                
