 2014  4 5 0710 41.6 L   6.809 -73.160140.6  RSN  7 0.4 1.6LRSN                1
 GAP=182        0.93       3.3     5.7 10.3  0.6609E+01  0.7484E+00 -0.5982E+01E
 Epicentro: LOS SANTOS - SANTANDER                                             3
 ACTION:UPD 14-05-13 23:06 OP:nd   STATUS:               ID:20140405071041 L   I
 OLDACT:UP  14-04-05 15:16 OP:cam  STATUS:               ID:20140405070816     3
 OLDACT:REG 14-04-05 13:17 OP:cam  STATUS:               ID:20140405070816     3
 2014-04-05-0708-16M.COL___247                                                 6
 STAT SP IPHASW D HRMM SECON CODA AMPLIT PERI AZIMU VELO AIN AR TRES W  DIS CAZ7
 RUS  HZ EP        711  5.10                             142    0.1810  102 175 
 RUS  HN ES        711 22.87                             142   -0.2510  102 175 
 RUS  HZ I         711 24.93         3.7 0.24            144            102 175 
 PTB  HZ EP   1    711  7.36                             131   -0.66 7  146 258 
 PTB  HN ES        711 28.33                             131   -0.30 9  146 258 
 PTB  HE I         711 34.04         6.7 0.30            130            146 258 
 OCA  HN ES   1    711 31.80                             128    0.72 7  159 354 
 SPBC HN ES   2    711 31.82                             128    0.23 5  163 218 
 ZAR  HZ EP   1    711 13.63                             121    0.12 6  202 292 
 ZAR  HN ES        711 39.09                             121    0.68 9  202 292 
 ZAR  HZ I         711 43.87         3.4 0.16            122            202 292 
 SML  HZ EP   2    711 17.73                             116   -0.03 4  242 336 
 SML  HN ES        711 45.22                             116   -0.75 8  242 336 
 SML  HZ I         711 50.86         6.1 0.10            118            242 336 
 CHI  HZ EP   1    711 19.36                             116    0.29 6  249 195 
 CHI  HN ES        711 48.47                             116    0.17 8  249 195 
 CHI  HZ I         711 52.21         2.1 0.72            117            249 195 
                                                                                
