 2017  6 5 0823  9.8 L   6.770 -73.283156.3  RSN  5 0.3 1.1LRSN                1
 GAP=267        0.69       4.2     6.6  8.0 -0.5844E+01 -0.1456E+01  0.5658E+01E
 Epicentro: ZAPATOCA - SANTANDER                                               3
 ACTION:UPD 17-09-14 16:49 OP:jn   STATUS:               ID:20170605082309 L   I
 OLDACT:DUP 17-06-05 17:15 OP:edw  STATUS:               ID:20170605081738d    3
 OLDACT:UP  17-06-05 17:14 OP:edw  STATUS:               ID:20170605081737     3
 OLDACT:UP  17-06-05 17:13 OP:edw  STATUS:               ID:20170605081737     3
 OLDACT:REG 17-06-05 14:26 OP:edw  STATUS:               ID:20170605081737     3
 2017-06-05-0818-00M.COL___344                                                 6
 STAT SP IPHASW D HRMM SECON CODA AMPLIT PERI AZIMU VELO AIN AR TRES W  DIS CAZ7
 BRR  HZ EP        823 31.36                             158   -0.2110 60.3 308 
 BRR  HE ES        823 48.71                             158    0.1710 60.3 308 
 PTB  HZ EP        823 36.42                             138    0.0810  132 259 
 PTB  HN ES        823 56.51                             138   -0.5310  132 259 
 PTB  HZ I         824  5.01         1.5 0.54            136            132 259 
 SPBC HN ES        824  0.35                             134    0.22 9  151 215 
 ZAR  HN ES        824  6.89                             127    0.29 9  191 295 
 NOR  HE ES        824 11.99                             122    0.07 8  221 233 
                                                                                
