 2013  1 5 0327 51.1 L   6.733 -73.167150.7  RSN  4 0.3 1.6LRSN                1
 GAP=230        0.81       6.5     6.2  6.5  0.1967E+02  0.3625E+01  0.5920E+00E
 Epicentro: VILLANUEVA - SANTANDER                                             3
 ACTION:UPD 13-02-15 09:12 OP:ep   STATUS:               ID:20130105032751 L   I
 2013-01-05-0319-49M.COL___202                                                 6
 STAT SP IPHASW D HRMM SECON CODA AMPLIT PERI AZIMU VELO AIN AR TRES W  DIS CAZ7
 BAR2 SZ EP        328 10.84                             174   -0.3210 15.7 186 
 BAR2 SZ ES        328 26.37                             174   -0.4610 15.7 186 
 BAR2 SZ I         328 27.39        12.6 0.18            171           15.7 186 
 BRR  HZ EP        328 12.97                             153    0.1210 73.0 305 
 BRR  HN ES        328 30.27                             153    0.4410 73.0 305 
 RUS  HZ EP        328 14.91                             147    0.1010 93.4 174 
 RUS  HN ES        328 33.69                             147    0.3610 93.4 174 
 RUS  HN I         328 35.43         4.9 0.32            145           93.4 174 
 PTB  HZ EP        328 18.10                             134   -0.02 9  144 262 
 PTB  HN ES        328 38.97                             134   -0.25 9  144 262 
 PTB  HN I         328 40.73         3.5 0.10            133            144 262 
                                                                                
