 2015  3 5 0538 28.6 L   6.791 -73.139148.0  RSN  6 0.4 1.1LRSN                1
 GAP=138        0.88       5.1     5.0  7.1 -0.6349E+01  0.4609E+00  0.5891E+01E
 Epicentro: LOS SANTOS - SANTANDER                                             3
 ACTION:UPD 15-04-30 16:23 OP:nd   STATUS:               ID:20150305053828 L   I
 OLDACT:REG 15-03-05 13:41 OP:spq  STATUS:               ID:20150305053738     3
 2015-03-05-0537-38M.COL___284                                                 6
 STAT SP IPHASW D HRMM SECON CODA AMPLIT PERI AZIMU VELO AIN AR TRES W  DIS CAZ7
 BAR2 EZ ES   1    539  3.54                             171   -0.42 7 22.5 192 
 BAR2 EZ I         539  4.63         3.0 0.36            169           22.5 192 
 BRR  HZ EP        538 50.14                             152    0.1110 72.4 299 
 BRR  HN ES        539  7.42                             152    0.6610 72.4 299 
 BRR  HZ I         539  9.50         2.9 0.48            152           72.4 299 
 PAM  SZ EP        538 51.06                             151    0.0210 77.7  39 
 PAM  SE ES   1    539  8.14                             151   -0.43 7 77.7  39 
 PAM  SZ I         539  8.94         1.3 0.34            155           77.7  39 
 RUS  HZ EP   1    538 52.74                             145    0.27 7 99.5 176 
 RUS  HN ES   1    539 11.13                             145    0.03 7 99.5 176 
 RUS  HZ I         539 13.75         1.2 0.40            145           99.5 176 
 PTB  HZ EP   1    538 55.25                             132   -0.53 7  148 259 
 PTB  HN ES        539 16.44                             132   -0.55 9  148 259 
 PTB  HZ I         539 22.35         2.0 0.38            132            148 259 
 SPBC HZ EP        538 57.37                             130    0.15 9  163 219 
 SPBC HE ES   1    539 19.83                             130    0.28 7  163 219 
 SPBC HZ I         539 22.03         2.5 0.34            130            163 219 
                                                                                
