 2014 12 5 0031 53.9 L   6.801 -73.171143.6  RSN 10 0.5 1.7LRSN                1
 GAP=133        1.25       4.0     4.8  7.8 -0.3673E+01  0.1135E+02 -0.6932E+00E
 Epicentro: LOS SANTOS - SANTANDER                                             3
 ACTION:UPD 15-02-10 17:00 OP:nd   STATUS:               ID:20141205003153 L   I
 OLDACT:DUP 14-12-05 13:46 OP:fm   STATUS:               ID:20141205002752d    3
 OLDACT:REG 14-12-05 12:33 OP:fm   STATUS:               ID:20141205002750     3
 2014-12-05-0027-50M.COL___300                                                 6
 STAT SP IPHASW D HRMM SECON CODA AMPLIT PERI AZIMU VELO AIN AR TRES W  DIS CAZ7
 BRR  HZ EP        032 15.62                             153    0.8910 68.7 300 
 BRR  HN ES        032 31.29                             153    0.3610 68.7 300 
 BRR  HZ I         032 35.64        18.1 0.48            151           68.7 300 
 PAM  SZ EP     D  032 16.62                             150    0.5810 79.1  41 
 PAM  SN ES        032 33.03                             150   -0.2410 79.1  41 
 PAM  SZ I         032 35.58         9.1 0.50            157           79.1  41 
 RUS  HZ EP        032 18.22                             143    0.7110  101 174 
 RUS  HE ES        032 35.19                             143   -0.7010  101 174 
 RUS  HZ I         032 37.94         3.5 0.46            147            101 174 
 PTB  HZ EP        032 20.37                             132   -0.13 9  145 259 
 PTB  HE ES        032 41.20                             132   -0.00 9  145 259 
 PTB  HZ I         032 45.31         4.4 0.48            133            145 259 
 SPBC HZ EP        032 21.53                             129   -0.60 9  162 218 
 SPBC HN ES        032 44.10                             129   -0.00 9  162 218 
 SPBC HZ I         032 52.37         7.8 0.32            131            162 218 
 ZAR  HZ EP        032 25.49                             122   -0.50 9  201 292 
 ZAR  HN ES        032 51.31                             122    0.34 9  201 292 
 ZAR  HZ I         032 58.07         6.6 0.22            124            201 292 
 NOR  HE ES        032 56.51                             118   -0.40 8  232 234 
 NOR  HZ I         033  4.02         4.2 0.14            120            232 234 
 SML  HZ EP        032 29.74                             117   -0.58 8  242 336 
 SML  HE ES        032 57.79                             117   -0.90 8  242 336 
 SML  HZ I         033  1.51         8.8 0.10            120            242 336 
 HEL  HZ EP        032 33.79                             115    0.03 8  269 256 
 HEL  HN ES        033  5.39                             115    0.58 8  269 256 
 HEL  HZ I         033 16.92         1.6 0.42            117            269 256 
 GUY2CHZ EP        032 37.53                             112    0.32 7  299 234 
 GUY2CHE ES        033 10.62                             112   -0.33 7  299 234 
 GUY2CHZ I         033 20.56         2.2 0.34                           299 234 
                                                                                
