 2017  9 5 0706 53.5 L   6.794 -73.146144.0  RSN 10 0.5 1.8LRSN                1
 GAP=137        1.06       4.2     4.7  6.7 -0.1413E+01  0.1089E+02  0.5670E+01E
 Epicentro: LOS SANTOS - SANTANDER                                             3
 ACTION:UPD 17-10-05 19:09 OP:rebc STATUS:               ID:20170905070653 L   I
 OLDACT:UP  17-09-05 16:13 OP:ndl  STATUS:               ID:20170905065745     3
 OLDACT:REG 17-09-05 13:27 OP:dnl  STATUS:               ID:20170905065745     3
 2017-09-05-0658-00M.COL___423                                                 6
 STAT SP IPHASW D HRMM SECON CODA AMPLIT PERI AZIMU VELO AIN AR TRES W  DIS CAZ7
 BAR2 EZ EP        7 7 12.66                             171   -0.2210 22.7 190 
 BAR2 EZ ES        7 7 27.81                             171   -0.2110 22.7 190 
 BAR2 EZ I         7 7 29.25        30.1 0.20            168           22.7 190 
 BRR  HZ IP     C  7 7 14.51                             152    0.0610 71.4 299 
 BRR  HN ES        7 7 31.88                             152    1.0710 71.4 299 
 BRR  HZ I         7 7 32.67        10.3 0.46            150           71.4 299 
 PAM  EZ EP        7 7 15.46                             151   -0.0810 77.9  39 
 PAM  EN ES        7 7 32.76                             151    0.0210 77.9  39 
 PAM  EZ I         7 7 35.13         5.8 0.38            155           77.9  39 
 RUS  HZ EP        7 7 16.56                             144   -0.4510100.0 176 
 RUS  HE ES        7 7 35.56                             144    0.1910100.0 176 
 RUS  HZ I         7 7 36.40         5.8 0.48            144          100.0 176 
 SPBC HZ EP        7 7 21.60                             129   -0.19 9  163 219 
 SPBC HN ES        7 7 43.83                             129   -0.05 9  163 219 
 SPBC HZ I         7 7 49.46        12.8 0.48            128            163 219 
 ZAR  HZ EP   2    7 7 25.57                             122   -0.26 4  204 292 
 ZAR  HN ES        7 7 50.30                             122   -0.76 9  204 292 
 ZAR  HZ I         7 7 56.04         5.3 0.30            122            204 292 
 NOR  HZ EP   2    7 7 28.77                             118   -0.29 4  234 235 
 NOR  HN ES   4    7 7 55.51                             118   -1.30 0  234 235 
 NOR  HZ I         7 8  3.07         4.0 0.14            118            234 235 
 HEL  HZ EP   2    7 7 34.38                             115    0.80 4  272 256 
 HEL  HE ES        7 8  4.35                             115   -0.50 8  272 256 
 HEL  HZ I         7 8 10.53         2.5 0.34            115            272 256 
 GUY2CHZ EP        7 7 37.83                             112    0.87 7  301 235 
 GUY2CHN ES   4    7 8 13.49                             112    2.62 0  301 235 
 GUY2CHZ I         7 8 16.32         1.7 0.26                           301 235 
 PRA  HZ EP   2    7 7 47.13                             107    0.26 3  391 210 
 PRA  HN ES        7 8 29.02                             107    0.50 6  391 210 
 PRA  HZ I         7 8 34.35         3.3 0.22            107            391 210 
                                                                                
