 2011 10 5 0842 20.0 L   6.780 -73.096144.8  RSN  5 0.3 1.6LRSN                1
 GAP=197        0.58       5.6     7.9  5.2  0.2842E+02  0.7766E+01  0.1360E+01E
 Epicentro: LOS SANTOS - SANTANDER                                             3
 ACTION:UPD 12-07-13 16:02 OP:ep   STATUS:               ID:20111005084220 L   I
 2011-10-05-0840-00M.COL___172                                                 6
 STAT SP IPHASW D HRMM SECON CODA AMPLIT PERI AZIMU VELO AIN AR TRES W  DIS CAZ7
 BAR2 SZ EP   1    842 39.33                             170   -0.17 7 22.9 205 
 BAR2 SZ ES   1    842 54.35                             170   -0.36 7 22.9 205 
 BAR2 SZ I         842 56.03        10.2 0.20                          22.9 205 
 GIR2 SZ EP   1    842 39.67                             166    0.02 7 34.7 342 
 GIR2 SZ ES   1    842 55.15                             166    0.17 7 34.7 342 
 BRR  HZ EP        842 41.23                             150   -0.1510 77.0 298 
 BRR  HZ I         842 41.51        13.4 0.12                          77.0 298 
 BRR  HN ES   1    842 58.32                             150    0.26 7 77.0 298 
 RUS  HZ EP   1    842 43.36                             144   -0.12 7 98.2 179 
 RUS  HN ES   1    843  2.12                             144    0.32 7 98.2 179 
 RUS  HZ I         843  5.04         2.1 0.44                          98.2 179 
 ZAR  HZ EP   1    842 53.49                             121    0.50 6  210 292 
 ZAR  HN ES   2    843 18.08                             121   -0.64 4  210 292 
 ZAR  HZ I         843 23.50         3.7 0.12                           210 292 
                                                                                
