 2010  9 5 0325 53.2 L   6.787 -73.093138.0  RSN  4 0.1 1.2LRSN                1
 GAP=165        0.40       4.6     8.1  9.0  0.1928E+02 -0.5101E+02 -0.2009E+02E
 Epicentro: LOS SANTOS - SANTANDER                                             3
 ACTION:UP  11-02-18 11:00 OP:tino STATUS:               ID:20100905032553 L   I
 2010-09-05-0322-20S.COL___120                                                 6
 STAT SP IPHASW D HRMM SECON CODA AMPLIT PERI AZIMU VELO SNR AR TRES W  DIS CAZ7
 BAR2 SZ EP   1    326 11.92                             170     0.0 7   24 205 
 BAR2 SZ I         326 59.02         8.5 1.05                            24 205 
 BRR  HZ EP        326 13.79                             150    -0.110   77 297 
 BRR  HZ I         326 14.12         5.1 0.14                            77 297 
 BRR  HE ES   1    326 30.16                             150     0.1 7   77 297 
 RUS  HZ EP   2    326 16.39                             143     0.3 5   99 179 
 RUS  HN ES   2    326 33.85                             143    -0.1 5   99 179 
 RUS  HZ I         326 36.32         1.3 0.25                            99 179 
 GRA  SZ EP   1    326 17.81                             135     0.0 7  126  15 
 GRA  SZ I         326 39.34         2.2 0.75                           126  15 
                                                                                
