 2013 11 5 0147 45.9 L   6.766 -73.098146.1  RSN  6 0.1 1.2LRSN                1
 GAP=144        0.32       1.6     2.1  2.5 -0.1054E+01  0.5743E+00  0.4105E+00E
 Epicentro: LOS SANTOS - SANTANDER                                             3
 ACTION:UPD 14-01-09 16:25 OP:ep   STATUS:               ID:20131105014745 L   I
 OLDACT:DUP 13-11-05 10:34 OP:stll STATUS:               ID:20131105013844d    3
 2013-11-05-0138-40M.COL___220                                                 6
 STAT SP IPHASW D HRMM SECON CODA AMPLIT PERI AZIMU VELO AIN AR TRES W  DIS CAZ7
 BAR2 SZ ES        148 20.85                             171   -0.0310 21.3 206 
 BAR2 SZ I         148 24.41         5.0 0.30            158           21.3 206 
 PAM  SZ EP        148  8.13                             151   -0.0510 77.2  35 
 PAM  SZ I         148  8.72         4.5 0.20            146           77.2  35 
 PAM  SN ES        148 25.59                             151    0.0610 77.2  35 
 BRR  HN ES        148 24.33                             150    0.0110 77.6 299 
 RUS  HZ EP        148  9.55                             145    0.1110 96.5 179 
 RUS  HN ES        148 27.67                             145   -0.0910 96.5 179 
 RUS  HZ I         148 30.52         1.7 0.26            136           96.5 179 
 PTB  HZ EP        148 13.25                             131   -0.10 9  152 261 
 PTB  HZ I         148 38.29         2.0 0.12            117            152 261 
 SPBC HN ES        148 36.88                             129    0.09 9  164 221 
                                                                                
