 2011  6 5 0643 32.4 L   6.770 -73.119142.1  RSN  7 0.3 1.8LRSN                1
 GAP=141        0.65       3.1     6.2  5.7 -0.2247E+01 -0.3160E+01 -0.3238E+01E
 Epicentro: LOS SANTOS - SANTANDER                                             3
 ACTION:UP  11-07-14 19:03 OP:ep   STATUS:               ID:20110605064332 L   I
 2011-06-05-0640-04S.COL___132                                                 6
 STAT SP IPHASW D HRMM SECON CODA AMPLIT PERI AZIMU VELO SNR AR TRES W  DIS CAZ7
 BAR2 SZ EP   1    643 51.46                             171    -0.1 7   21 200 
 BAR2 SZ ES   1    644  5.97                             171    -0.5 7   21 200 
 BAR2 SZ I         644  7.67        19.0 0.22                            21 200 
 BRR  HZ EP   1    643 53.35                             150    -0.1 7   75 300 
 BRR  HE ES   1    644 10.26                             150     0.5 7   75 300 
 BRR  HZ I         644 11.39        14.7 0.16                            75 300 
 PAM  SZ EP   1    643 54.47                             150     0.2 7   78  36 
 PAM  SN ES   1    644 11.47                             150     0.1 7   78  36 
 RUS  HZ EP   1    643 55.86                             144     0.3 7   97 178 
 RUS  HN ES   1    644 13.57                             144     0.0 7   97 178 
 RUS  HZ I         644 15.25         8.1 0.37                            97 178 
 BRI  SZ EP   1    643 56.13                             140     0.0 7  111  19 
 GRA  SZ EP   1    643 57.37                             136    -0.2 7  128  16 
 GRA  SZ ES   1    644 17.41                             136     0.3 7  128  16 
 GRA  SZ I         644 17.97         7.4 0.30                           128  16 
 OCA  SZ EP   1    644  0.58                             128    -0.2 7  164 352 
 OCA  SZ ES   1    644 22.53                             128    -0.4 7  164 352 
 OCA  SZ I         644 26.32         8.3 0.18                           164 352 
                                                                                
