 2013  2 5 0520 51.4 L   6.806 -73.134150.0  RSN  5 0.4 1.6LRSN                1
 GAP=245        0.77       8.5     6.7 11.1  0.3375E+02 -0.2506E+01 -0.2030E+02E
 Epicentro: LOS SANTOS - SANTANDER                                             3
 ACTION:UPD 13-03-12 09:30 OP:ep   STATUS:               ID:20130205052051 L   I
 2013-02-05-0520-00M.COL___241                                                 6
 STAT SP IPHASW D HRMM SECON CODA AMPLIT PERI AZIMU VELO AIN AR TRES W  DIS CAZ7
 BAR2 SZ EP   1    521 10.98                             170   -0.57 8 24.2 193 
 BAR2 SZ ES   2    521 26.89                             170   -0.39 5 24.2 193 
 BAR2 SZ I         521 28.75         8.4 0.40            165           24.2 193 
 RUS  HZ EP   1    521 16.17                             144    0.57 8  101 177 
 RUS  HN ES   1    521 34.81                             144    0.33 8  101 177 
 RUS  HN I         521 35.04         4.9 0.30            141            101 177 
 PTB  HZ EP   1    521 18.63                             132   -0.21 7  149 259 
 PTB  HN ES        521 40.16                             132   -0.0910  149 259 
 PTB  HN I         521 40.40         4.5 0.28            131            149 259 
 ZAR  HE ES   1    521 50.30                             123    0.47 7  205 292 
 CHI  HN ES   2    521 58.51                             118   -0.59 4  250 195 
 CHI  HN I         522  4.17         2.7 0.26            116            250 195 
                                                                                
