 2010  6 5 0731 55.1 L   6.818 -73.070148.8  RSN  7 0.4 2.2LRSN                1
 GAP=193        0.67       4.9    12.0  8.7 -0.3522E+02  0.1750E+02  0.1622E+01E
 Epicentro: LOS SANTOS - SANTANDER                                             3
 ACTION:UP  10-08-24 10:08 OP:vdl  STATUS:               ID:20100605073155 L   I
 2010-06-05-0729-34S.COL___109                                                 6
 STAT SP IPHASW D HRMM SECON CODA AMPLIT PERI AZIMU VELO SNR AR TRES W  DIS CAZ7
 BAR2 SZ EP   1    732 14.72                             169    -0.5 8   28 207 
 BAR2 SZ ES   2    732 30.85                             169    -0.1 5   28 207 
 GIR2 SZ EP   2    732 14.76                             167    -0.4 5   32 335 
 GUE  SZ EP   1    732 19.94                             141     0.1 8  113   8 
 GRA  SZ IP        732 20.44                             138     0.110  122  14 
 GRA  SZ ES   2    732 40.68                             138     0.7 5  122  14 
 OCA  SZ EP   1    732 23.57                             130     0.0 7  159 350 
 OCA  SZ ES   1    732 45.69                             130    -0.1 7  159 350 
 OCA  SZ I         732 49.39        22.3 0.16                           159 350 
 ROSC BZ EP   1    732 34.29                             117     0.2 6  259 212 
 ROSC BN ES   2    733  5.35                             117     0.9 4  259 212 
 ROSC BZ I         733 10.77         6.5 0.31                           259 212 
 HEL  HZ EP   2    732 36.16                             114    -0.3 4  281 256 
 HEL  HZ I         733 13.08         7.4 0.46                           281 256 
                                                                                
