 2016 10 5 0143 20.7 L   6.816 -73.175148.8  RSN 21 0.4 2.4LRSN                1
 GAP= 69        0.87       2.3     2.4  4.1 -0.7369E+00  0.2091E+01  0.5348E+00E
 Epicentro: ZAPATOCA - SANTANDER                                               3
 ACTION:UPD 16-11-09 19:16 OP:rebc STATUS:               ID:20161005014320 L   I
 OLDACT:UP  16-10-05 14:51 OP:dani STATUS:               ID:20161005013743     3
 OLDACT:UP  16-10-05 14:50 OP:dani STATUS:               ID:20161005013743     3
 OLDACT:REG 16-10-05 12:32 OP:dani STATUS:               ID:20161005013743     3
 2016-10-05-0138-00M.COL___366                                                 6
 STAT SP IPHASW D HRMM SECON CODA AMPLIT PERI AZIMU VELO AIN AR TRES W  DIS CAZ7
 BAR2 EZ EP        143 40.73                             170   -0.0210 24.8 182 
 BAR2 EZ ES        143 55.94                             170   -0.4310 24.8 182 
 BAR2 EZ I         143 58.57        73.5 0.30            165           24.8 182 
 BRR  HZ EP        143 42.53                             154    0.5310 67.5 298 
 BRR  HN ES        143 59.12                             154    0.5210 67.5 298 
 BRR  HZ I         144  3.80        35.4 0.17            149           67.5 298 
 PAM  EZ EP        143 43.69                             151    0.3810 78.1  42 
 PAM  EN ES        144  0.95                             151    0.0310 78.1  42 
 PAM  EZ I         144  2.91        35.4 0.50            152           78.1  42 
 RUS  HZ EP        143 44.76                             144   -0.1610  103 174 
 RUS  HE ES        144  3.47                             144   -0.3210  103 174 
 RUS  HZ I         144  4.64        34.6 0.26            139            103 174 
 PTB  HZ EP        143 47.31                             133   -0.38 9  145 258 
 PTB  HN ES        144  8.50                             133   -0.22 9  145 258 
 PTB  HZ I         144 13.65        21.2 0.13            127            145 258 
 OCA  HZ EP        143 48.52                             131   -0.55 9  158 354 
 OCA  HE ES        144 11.30                             131    0.12 9  158 354 
 OCA  HZ I         144 14.42        47.1 0.16            128            158 354 
 TAM  HZ IP     C  143 49.11                             130    0.14 9  159 105 
 TAM  HN ES        144 11.09                             130    0.08 9  159 105 
 TAM  HZ I         144 12.49        14.1 0.31            128            159 105 
 SPBC HZ EP        143 49.68                             130    0.28 9  163 218 
 SPBC HN ES        144 11.45                             130   -0.32 9  163 218 
 SPBC HZ I         144 19.48        33.1 0.28            124            163 218 
 ZAR  HZ EP        143 53.00                             123    0.00 9  200 292 
 ZAR  HE ES        144 18.12                             123   -0.04 9  200 292 
 ZAR  HZ I         144 24.74        18.3 0.30            119            200 292 
 NOR  HZ EP   4    143 58.66                             119    2.20 0  233 234 
 NOR  HE ES        144 24.66                             119    0.32 8  233 234 
 NOR  HZ I         144 30.29        22.3 0.13            114            233 234 
 CHI  HZ EP        143 59.01                             118    0.32 8  250 194 
 CHI  HN ES        144 28.42                             118    0.12 8  250 194 
 CHI  HZ I         144 38.13        11.1 0.40            113            250 194 
 ROSC BZ EP   9    144  0.46                             117    1.46 0  253 210 
 ROSC BE ES        144 30.28                             117   -0.03 8  253 210 
 ROSC BZ I         144 35.62        24.0 0.45            113            253 210 
 HEL  HZ EP   4    144  2.33                             116    1.53 0  269 255 
 HEL  HN ES        144 32.28                             116    0.23 8  269 255 
 HEL  HZ I         144 39.58        10.3 0.40            111            269 255 
 URE  HZ EP        144  0.77                             114   -0.77 7  280 292 
 GUY2CHZ EP   4    144  5.75                             113    1.45 0  300 234 
 GUY2CHN ES        144 38.19                             113   -0.09 7  300 234 
 GUY2CHZ I         144 50.96        11.4 0.45                           300 234 
 PTGC HZ EP   4    144  3.89                             112   -1.15 0  312 158 
 PTGC HN ES   4    144 37.17                             112   -2.44 0  312 158 
 PTGC HZ I         144 42.16        13.4 0.31            109            312 158 
 ELA  HZ EP   4    144 10.47                             111    2.91 0  328 229 
 ELA  HZ I         145  0.23         9.7 0.48            107            328 229 
 CBOC HZ EP        144  8.53                             111    1.05 7  331 252 
 CBOC HN ES   4    144 45.44                             111    1.49 0  331 252 
 CBOC HZ I         144 58.45         3.9 0.21            107            331 252 
 PRA  HZ EP        144 14.07                             107   -0.28 6  392 209 
 PRA  HE ES        144 56.13                             107   -0.05 6  392 209 
 PRA  HZ I         145  3.17        14.4 0.46            104            392 209 
 SJC  HZ EP        144 15.18                             106   -0.83 6  406 327 
 SJC  HN ES   4    144 55.89                             106   -3.23 0  406 327 
 SJC  HZ I         144 59.54         3.0 0.35            103            406 327 
 CRJC HZ EP   4    144 21.19                             104   -1.93 0  466   4 
 CRJC HE ES   4    145  8.72                             104   -3.07 0  466   4 
 CRJC HZ I         145 18.47         4.0 0.15            101            466   4 
                                                                                
