 2013  4 5 0015 38.9 L   6.755 -73.172141.9  RSN  7 0.2 1.4LRSN                1
 GAP=178        0.48       3.9     4.1  4.3  0.7810E+01  0.2385E+01  0.2190E+01E
 Epicentro: VILLANUEVA - SANTANDER                                             3
 ACTION:UPD 13-05-22 14:35 OP:EP   STATUS:               ID:20130405001538 L   I
 2013-04-05-0010-00M.COL___245                                                 6
 STAT SP IPHASW D HRMM SECON CODA AMPLIT PERI AZIMU VELO AIN AR TRES W  DIS CAZ7
 BAR2 SZ ES   1    016 12.63                             172   -0.16 7 18.0 184 
 BAR2 SZ I         016 15.81        13.6 0.26            167           18.0 184 
 GIR2 SZ EP   1    015 58.00                             165   -0.20 7 35.9 356 
 BRR  HZ EP        015 59.82                             152    0.2310 71.3 303 
 BRR  HN ES   1    016 15.95                             152    0.19 7 71.3 303 
 BRR  HZ I         016 20.74         5.8 0.46            150           71.3 303 
 RUS  HZ EP        016  1.82                             144   -0.0610 95.9 174 
 RUS  HN ES   1    016 20.02                             144    0.17 7 95.9 174 
 RUS  HZ I         016 22.33         1.8 0.24            146           95.9 174 
 PTB  HZ EP        016  4.88                             132   -0.29 9  144 261 
 PTB  HN ES   1    016 25.56                             132   -0.13 7  144 261 
 PTB  HZ I         016 33.26         2.7 0.46            132            144 261 
 ZAR  HN ES   2    016 36.23                             122    0.20 4  203 294 
 CHI  HZ EP   1    016 16.08                             117    0.35 6  243 195 
                                                                                
