 2011  1 5 0852 45.4 L   6.804 -72.962138.5  RSN  4 0.3 1.5LRSN                1
 GAP=202        0.66       3.6    27.2  7.8  0.2393E+02 -0.5226E+02 -0.6683E+01E
 Epicentro: CEPITA - SANTANDER                                                 3
 ACTION:UP  11-02-08 08:38 OP:pat  STATUS:               ID:20110105085245 L   I
 2011-01-05-0847-43S.COL___135                                                 6
 STAT SP IPHASW D HRMM SECON CODA AMPLIT PERI AZIMU VELO SNR AR TRES W  DIS CAZ7
 BAR2 SZ EP   1    853  4.50                             165     0.1 7   34 226 
 BAR2 SZ ES   1    853 19.45                             165     0.2 7   34 226 
 BAR2 SZ I         853 21.33         9.6 0.36                            34 226 
 RUS  HZ EP   1    853  8.78                             142     0.3 7  102 188 
 RUS  HZ I         853  9.94         4.3 0.15                           102 188 
 RUS  HE ES   1    853 26.08                             142    -0.4 7  102 188 
 OCA  SZ EP   1    853 13.57                             127     0.1 7  164 346 
 OCA  SZ ES   1    853 35.09                             127    -0.2 7  164 346 
 OCA  SZ I         853 38.00         6.3 0.20                           164 346 
 CHI  HZ EP   2    853 22.77                             115    -0.6 4  255 200 
 CHI  HZ I         853 23.70         1.2 0.25                           255 200 
 CHI  HE ES   2    853 53.36                             115     0.3 4  255 200 
                                                                                
