 2010  4 5 0140  3.2 L   7.122 -73.763 92.6  RSN  4 0.3 1.9LRSN                1
 GAP=166        0.71       2.8     4.9  5.3 -0.4182E+01  0.8855E+01 -0.1291E+01E
 Epicentro: BARRANCABERMEJA - SANTANDER                                        3
 ACTION:UPD 10-08-24 09:57 OP:vdl  STATUS:               ID:20100405014003 L   I
 2010-04-05-0137-54S.COL___098                                                 6
 STAT SP IPHASW D HRMM SECON CODA AMPLIT PERI AZIMU VELO AIN AR TRES W  DIS CAZ7
 BRR  HZ EP        140 15.56                             174    -0.210    6 106 
 BRR  HE ES        140 25.72                             174     0.210    6 106 
 BRR  HZ I         140 27.34        32.6 0.19                             6 106 
 BAR2 SZ EP        140 20.82                             131     0.210   87 132 
 BAR2 SZ ES        140 33.98                             131    -0.210   87 132 
 OCA  SZ EP        140 24.83                             120    -0.210  133  22 
 OCA  SZ ES        140 42.12                             120     0.110  133  22 
 RREF BZ EP   1    140 45.95                             102     0.8 5  302 216 
 RREF BN ES        141 17.57                             102    -0.4 7  302 216 
 RREF BZ I         141 23.49         4.9 0.42                           302 216 
                                                                                
