 2016  8 5 0706 33.0 L   6.355 -73.598 10.7  RSN  5 0.2 1.2LRSN                1
 GAP=180        0.50       1.4     2.3  4.9  0.1551E+01  0.8985E+01  0.2001E+01E
 Epicentro: SANTA HELENA DEL OPON - SANTANDER                                  3
 ACTION:UPD 16-10-29 15:32 OP:rebc STATUS:               ID:20160805070633 L   I
 OLDACT:REG 16-08-05 13:13 OP:edw  STATUS:               ID:20160805065727     3
 2016-08-05-0658-00M.COL___338                                                 6
 STAT SP IPHASW D HRMM SECON CODA AMPLIT PERI AZIMU VELO AIN AR TRES W  DIS CAZ7
 BAR2 EZ EP        7 6 42.14                              98    0.1910 52.9  60 
 BAR2 EZ ES        7 6 48.90                              98   -0.0110 52.9  60 
 RUS  HZ EP        7 6 46.04                              96    0.2710 76.6 132 
 RUS  HN ES        7 6 55.53                              96   -0.1810 76.6 132 
 BRR  HZ EP        7 6 46.07                              95   -0.3310 84.1 351 
 BRR  HN ES        7 6 57.01                              95    0.1710 84.1 351 
 PAM  EZ EP        7 6 56.43                              93   -0.04 9  147  42 
 PAM  EN ES        7 7 14.69                              93   -0.07 9  147  42 
 PAM  EZ I         7 7 20.85         2.8 0.18                           147  42 
 ZAR  HZ EP        7 7  1.11                              56   -0.06 9  188 312 
 ZAR  HN ES        7 7 23.17                              56    0.04 9  188 312 
 ZAR  HZ I         7 7 24.08         2.4 0.38                           188 312 
                                                                                
