 2013  7 5 0856 37.9 L   6.805 -73.140138.0  RSN 13 0.5 2.4LRSN                1
 GAP= 71        1.33       4.0     3.8  6.1 -0.4600E+01  0.3851E+01  0.2645E+01E
 Epicentro: LOS SANTOS - SANTANDER                                             3
 ACTION:UPD 13-08-12 10:35 OP:ep   STATUS:               ID:20130705085637 L   I
 OLDACT:UP  13-07-05 13:26 OP:stll STATUS:               ID:20130705084837d    3
 OLDACT:DUP 13-07-05 13:15 OP:stll STATUS:               ID:20130705084837d    3
 2013-07-05-0848-36M.COL___230                                                 6
 STAT SP IPHASW D HRMM SECON CODA AMPLIT PERI AZIMU VELO AIN AR TRES W  DIS CAZ7
 BAR2 SZ EP        856 56.66                             170    0.0310 24.0 191 
 BAR2 SZ ES        857 10.86                             170   -0.3610 24.0 191 
 BAR2 SZ I         857 12.67        39.8 0.20            169           24.0 191 
 GIR2 SZ EP        856 56.71                             167    0.0610 30.8 349 
 GIR2 SZ ES        857 11.96                             167    0.6910 30.8 349 
 BRR  HZ IP     C  856 58.52                             151    0.2710 71.5 298 
 BRR  HN ES        857 14.94                             151    0.8310 71.5 298 
 BRR  HN I         857 19.17       158.6 0.20            150           71.5 298 
 PAM  SZ IP     C  856 59.62                             150    0.3610 76.5  39 
 PAM  SZ I         856 59.80        74.8 0.18            152           76.5  39 
 PAM  SN ES        857 16.17                             150    0.2610 76.5  39 
 RUS  HE EP        857  1.52                             142    0.5710  101 176 
 RUS  HZ ES        857 18.30                             142   -0.6210  101 176 
 RUS  HZ I         857 20.72        11.4 0.52            143            101 176 
 GRA  SZ IP     D  857  2.43                             135    0.0210  125  17 
 GRA  SZ ES        857 21.31                             135   -0.2110  125  17 
 CAPV BZ IP     D  857  4.68                             130    0.07 9  148  38 
 PTB  HZ EP        857  3.41                             130   -0.92 9  148 259 
 PTB  HN ES        857 24.92                             130   -0.01 9  148 259 
 PTB  HN I         857 26.93        42.8 0.36            130            148 259 
 TAM  HZ IP     D  857  5.12                             129    0.17 9  155 105 
 TAM  HZ I         857  5.50        13.8 0.44            132            155 105 
 TAM  HN ES        857 25.60                             129   -0.43 9  155 105 
 OCA  HZ EP        857  5.03                             128   -0.56 9  160 353 
 OCA  HN ES        857 26.17                             128   -1.00 9  160 353 
 OCA  HZ I         857 30.40        21.0 0.44            129            160 353 
 NOR  HZ EP        857 13.16                             117   -0.14 8  236 234 
 NOR  HN ES        857 40.62                             117   -0.28 8  236 234 
 NOR  HN I         857 47.04        55.8 0.18            117            236 234 
 HEL  HZ EP        857 18.96                             113    1.13 8  273 256 
 HEL  HN ES        857 48.22                             113   -0.74 8  273 256 
 HEL  HN I         857 55.13        12.5 0.48            114            273 256 
 GUY2CHZ EP        857 22.21                             111    0.94 7  302 235 
 GUY2CHN ES        857 54.95                             111   -0.14 7  302 235 
 GUY2CHN I         858  1.59        15.8 0.64                           302 235 
                                                                                
