 2011  6 5 0754 23.4 L   7.167 -73.070148.6  RSN  5 0.3 1.8LRSN                1
 GAP=154        0.67       3.6     7.8  6.6 -0.2916E+01 -0.9853E+01  0.4019E+01E
 Epicentro: BUCARAMANGA - SANTANDER                                            3
 ACTION:UP  11-07-14 19:03 OP:ep   STATUS:               ID:20110605075423 L   I
 2011-06-05-0740-00M.COL___122                                                 6
 STAT SP IPHASW D HRMM SECON CODA AMPLIT PERI AZIMU VELO SNR AR TRES W  DIS CAZ7
 BAR2 SZ EP   1    754 45.14                             155     0.3 8   65 191 
 BAR2 SZ ES   1    755  1.28                             155    -0.3 8   65 191 
 BAR2 SZ I         755  3.09        14.3 0.38                            65 191 
 BRI  SZ EP   1    754 44.69                             154    -0.2 8   68  26 
 BRI  SZ ES   1    755  2.02                             154     0.3 8   68  26 
 BRI  SZ I         755  4.12        12.6 0.46                            68  26 
 BRR  HZ EP   1    754 44.57                             153    -0.3 8   71 265 
 BRR  HZ I         754 45.22        19.2 0.17                            71 265 
 BRR  HN ES   1    755  1.86                             153     0.3 8   71 265 
 OCA  SZ EP   1    754 48.51                             139     0.0 8  122 347 
 OCA  SZ ES   1    755  7.94                             139    -0.2 8  122 347 
 OCA  SZ I         755  9.37        11.4 0.21                           122 347 
 RUS  HZ EP        754 50.86                             134     0.210  141 181 
 RUS  HN ES   2    755 11.45                             134    -0.4 5  141 181 
 RUS  HZ I         755 12.59         3.3 0.40                           141 181 
                                                                                
