 2015  3 5 0702 31.9 L   6.791 -73.136153.0  RSN 10 0.4 1.5LRSN                1
 GAP=138        0.91       3.1     4.7  5.7 -0.3677E+01  0.3092E+01  0.1309E+00E
 Epicentro: LOS SANTOS - SANTANDER                                             3
 ACTION:UPD 15-04-30 16:23 OP:nd   STATUS:               ID:20150305070231 L   I
 OLDACT:DUP 15-03-05 17:35 OP:spq  STATUS:               ID:20150305065748d    3
 2015-03-05-0657-47M.COL___281                                                 6
 STAT SP IPHASW D HRMM SECON CODA AMPLIT PERI AZIMU VELO AIN AR TRES W  DIS CAZ7
 BAR2 EZ EP   1    7 2 51.92                             171   -0.42 7 22.5 193 
 BAR2 EZ ES   1    7 3  8.24                             171   -0.07 7 22.5 193 
 BAR2 EZ I         7 3  9.83         5.1 0.34            171           22.5 193 
 BRR  HZ EP        7 2 54.15                             153    0.2910 72.6 299 
 BRR  HE ES        7 3 11.54                             153    0.5110 72.6 299 
 BRR  HZ I         7 3 14.55         4.2 0.16            151           72.6 299 
 PAM  SZ EP        7 2 55.00                             152    0.1510 77.5  38 
 PAM  SE ES        7 3 12.52                             152   -0.2710 77.5  38 
 PAM  SZ I         7 3 14.49         5.4 0.54            154           77.5  38 
 RUS  HZ EP   1    7 2 56.48                             146    0.24 7 99.5 177 
 RUS  HN ES   1    7 3 15.05                             146   -0.22 7 99.5 177 
 RUS  HZ I         7 3 16.46         1.6 0.18            148           99.5 177 
 PTB  HZ EP        7 2 58.97                             134   -0.52 9  149 259 
 PTB  HN ES        7 3 20.34                             134   -0.71 9  149 259 
 PTB  HZ I         7 3 26.18         5.3 0.42            133            149 259 
 OCA  HZ EP   1    7 3  0.35                             131   -0.49 7  161 353 
 OCA  HN ES   1    7 3 23.77                             131    0.32 7  161 353 
 OCA  HZ I         7 3 33.17         3.6 0.54            131            161 353 
 SPBC HZ EP        7 3  0.88                             131   -0.02 9  163 220 
 SPBC HN ES        7 3 23.91                             131    0.35 9  163 220 
 SPBC HZ I         7 3 26.68         4.5 0.12            131            163 220 
 SML  HZ EP        7 3  8.77                             119   -0.27 8  245 335 
 SML  HE ES   1    7 3 38.81                             119    0.76 6  245 335 
 SML  HZ I         7 3 43.96         4.6 0.10            119            245 335 
 CHI  HZ EP   1    7 3 10.46                             119    0.58 6  248 195 
 CHI  HN ES   1    7 3 40.02                             119    0.47 6  248 195 
 CHI  HZ I         7 3 47.62         1.6 0.42            120            248 195 
 MON  HZ EP   4    7 3 19.66                             110   -1.65 0  355 308 
 MON  HN ES   4    7 3 58.42                             110   -1.47 0  355 308 
 MON  HZ I         7 4  1.58         0.7 0.52            110            355 308 
                                                                                
