 2016  2 5 0804 24.0 L   6.829 -73.116141.8  RSN 10 0.3 1.4LRSN                1
 GAP=139        0.77       2.3     3.1  4.6 -0.1165E+01  0.5179E+01  0.1109E+00E
 Epicentro: LOS SANTOS - SANTANDER                                             3
 ACTION:UPD 16-03-04 21:23 OP:rebc STATUS:               ID:20160205080424 L   I
 OLDACT:REG 16-02-05 14:04 OP:cara STATUS:               ID:20160205075735     3
 2016-02-05-0757-35M.COL___328                                                 6
 STAT SP IPHASW D HRMM SECON CODA AMPLIT PERI AZIMU VELO AIN AR TRES W  DIS CAZ7
 BAR2 EZ EP        8 4 42.86                             169   -0.3610 27.1 196 
 BAR2 EZ ES        8 4 58.01                             169   -0.2210 27.1 196 
 BAR2 EZ I         8 4 59.56         4.1 0.18            168           27.1 196 
 PAM  EZ IP        8 4 45.73                             152    0.2210 72.9  39 
 PAM  EN ES        8 5  2.74                             152    0.4410 72.9  39 
 PAM  EZ I         8 5  4.63         3.8 0.56            154           72.9  39 
 RUS  HZ EP        8 4 47.25                             142   -0.3210  104 178 
 RUS  HN ES        8 5  6.02                             142    0.0610  104 178 
 RUS  HZ I         8 5  7.44         2.6 0.42            143            104 178 
 PTB  HZ EP   4    8 4 49.87                             130   -1.12 0  152 258 
 PTB  HE ES        8 5 12.52                             130    0.47 9  152 258 
 PTB  HZ I         8 5 14.55         3.5 0.10            130            152 258 
 SPBC HZ EP        8 4 52.91                             127    0.29 9  168 219 
 SPBC HN ES        8 5 14.43                             127   -0.52 9  168 219 
 SPBC HZ I         8 5 16.32         3.9 0.20            127            168 219 
 ZAR  HN ES        8 5 21.56                             121   -0.07 8  206 291 
 ZAR  HZ I         8 5 26.69         5.7 0.40            121            206 291 
 NOR  HZ EP        8 5  0.34                             117    0.37 8  239 234 
 NOR  HN ES        8 5 27.94                             117   -0.11 8  239 234 
 NOR  HZ I         8 5 33.09         2.1 0.28            117            239 234 
 SML  HZ EP        8 4 59.77                             117   -0.46 8  242 334 
 SML  HE ES        8 5 28.21                             117   -0.29 8  242 334 
 SML  HZ I         8 5 31.12         3.6 0.10            118            242 334 
 CHI  HZ EP        8 5  2.02                             116    0.13 8  253 196 
 CHI  HN ES        8 5 31.45                             116   -0.01 8  253 196 
 CHI  HZ I         8 5 40.72         0.9 0.34            116            253 196 
 GUY2CHZ EP        8 5  8.28                             111    0.36 7  306 235 
 GUY2CHN ES        8 5 42.36                             111    0.17 7  306 235 
 GUY2CHZ I         8 5 49.69         1.6 0.46                           306 235 
                                                                                
