 2013  2 5 0759 13.5 L   6.775 -73.140144.0  RSN  7 0.5 1.4LRSN                1
 GAP=138        1.21       6.7     6.2  9.6 -0.1161E+02  0.1713E+02 -0.8878E+01E
 Epicentro: LOS SANTOS - SANTANDER                                             3
 ACTION:UPD 13-03-12 09:30 OP:ep   STATUS:               ID:20130205075913 L   I
 2013-02-05-0758-45M.COL___161                                                 6
 STAT SP IPHASW D HRMM SECON CODA AMPLIT PERI AZIMU VELO AIN AR TRES W  DIS CAZ7
 BAR2 SZ EP   2    759 33.09                             171    0.21 5 20.7 193 
 BAR2 SZ ES        759 47.80                             171   -0.1910 20.7 193 
 BAR2 SZ I         759 48.68         8.0 0.20            171           20.7 193 
 BRR  HZ EP        759 34.98                             152    0.4010 73.1 300 
 BRR  HN ES        759 51.84                             152    0.8310 73.1 300 
 BRR  HZ I         759 52.63         4.2 0.26            151           73.1 300 
 PAM  SZ IP     D  759 36.00                             150    0.3510 79.1  38 
 PAM  SZ I         759 36.06         5.2 0.20            151           79.1  38 
 PAM  SN ES        759 52.79                             150   -0.1210 79.1  38 
 RUS  HN ES   2    759 55.15                             144    0.03 5 97.8 176 
 PTB  HZ EP        759 39.93                             132   -0.42 9  148 260 
 PTB  HN ES        8 0  0.58                             132   -0.70 9  148 260 
 PTB  HZ I         8 0  3.42         3.1 0.10            132            148 260 
 OCA  HN ES        8 0  3.29                             129   -0.85 9  163 353 
 ZAR  HZ EP   2    759 46.24                             122    0.22 4  206 293 
 ZAR  HN ES   1    8 0 12.10                             122    0.73 6  206 293 
                                                                                
