 2016  5 5 0741 32.8 L   6.814 -73.150142.7  RSN 12 0.5 1.5LRSN                1
 GAP=135        1.19       3.7     4.5  6.9 -0.2145E+01  0.1209E+02 -0.6907E+00E
 Epicentro: LOS SANTOS - SANTANDER                                             3
 ACTION:UPD 16-08-18 17:42 OP:cam  STATUS:               ID:20160505074132 L   I
 OLDACT:DUP 16-05-05 18:52 OP:ak   STATUS:               ID:20160505073742d    3
 OLDACT:REG 16-05-05 13:11 OP:ak   STATUS:               ID:20160505073741     3
 2016-05-05-0737-41M.COL___291                                                 6
 STAT SP IPHASW D HRMM SECON CODA AMPLIT PERI AZIMU VELO AIN AR TRES W  DIS CAZ7
 BAR2 EZ IP     C  741 51.98                             170   -0.1610 24.8 188 
 BAR2 EZ ES        742  7.33                             170    0.1510 24.8 188 
 BAR2 EZ I         742  7.75         6.4 0.29            170           24.8 188 
 BRR  HZ IP     C  741 53.88                             152    0.2810 70.0 298 
 BRR  HN ES        742 10.46                             152    0.6810 70.0 298 
 BRR  HZ I         742 14.90         4.6 0.08            150           70.0 298 
 PAM  EZ IP     D  741 55.00                             150    0.3210 76.5  41 
 PAM  EN ES        742 11.86                             150    0.1510 76.5  41 
 PAM  EZ I         742 14.76         3.7 0.34            154           76.5  41 
 RUS  HZ EP        741 56.05                             143   -0.3610  102 176 
 RUS  HN ES        742 14.47                             143   -0.3210  102 176 
 RUS  HZ I         742 16.06         4.5 0.32            146            102 176 
 PTB  HZ EP        741 59.09                             131   -0.46 9  148 258 
 PTB  HN ES        742 19.42                             131   -0.95 9  148 258 
 PTB  HZ I         742 22.04         4.4 0.26            132            148 258 
 OCA  HZ EP   2    742  0.39                             129   -0.38 5  159 353 
 OCA  HN ES        742 21.91                             129   -0.63 9  159 353 
 OCA  HZ I         742 24.00         7.3 0.56            131            159 353 
 SPBC HZ EP        742  2.07                             128    0.87 9  164 219 
 SPBC HN ES        742 22.68                             128   -0.63 9  164 219 
 SPBC HZ I         742 26.18         4.8 0.08            130            164 219 
 ZAR  HZ EP        742  5.10                             122    0.11 9  203 292 
 ZAR  HE ES        742 30.72                             122    0.67 9  203 292 
 ZAR  HZ I         742 38.09         4.1 0.22            123            203 292 
 HEL  HZ EP   2    742 13.66                             114    0.76 4  272 255 
 HEL  HN ES        742 44.62                             114    0.49 8  272 255 
 HEL  HZ I         742 51.33         2.3 0.30            115            272 255 
 CBOC HZ EP        742 19.74                             109    0.10 7  334 252 
 CBOC HN ES        742 56.44                             109    0.31 7  334 252 
 CBOC HZ I         743  0.59         0.5 0.15            111            334 252 
 ORTC HN ES   2    743  9.20                             106    0.36 3  396 216 
 SJC  HN ES        743 10.31                             105   -0.93 6  408 327 
                                                                                
