 2016  1 5 0329 45.2 L   6.825 -73.128146.3  RSN 30 0.5 2.7LRSN                1
 GAP= 53        1.19       2.4     2.8  4.7 -0.1477E+01  0.2193E+01  0.1069E+01E
 Epicentro: LOS SANTOS - SANTANDER                                             3
 ACTION:UPD 16-03-09 23:22 OP:cam  STATUS:               ID:20160105032945 L   I
 OLDACT:REG 16-01-05 12:27 OP:drio STATUS:               ID:20160105032747     3
 2016-01-05-0327-47M.COL___335                                                 6
 STAT SP IPHASW D HRMM SECON CODA AMPLIT PERI AZIMU VELO AIN AR TRES W  DIS CAZ7
 BAR2 EZ EP        330  5.14                             169    0.2110 26.4 193 
 BAR2 EZ ES        330 19.78                             169   -0.5610 26.4 193 
 BAR2 EZ I         330 21.18        85.6 0.24            170           26.4 193 
 BRR  HZ EP        330  6.89                             152    0.4910 71.7 296 
 BRR  HN ES        330 24.03                             152    1.0710 71.7 296 
 BRR  HZ I         330 27.91        61.1 0.48            149           71.7 296 
 PAM  EZ EP        330  7.93                             152    0.6910 74.0  40 
 PAM  EN ES        330 24.83                             152    0.3710 74.0  40 
 PAM  EZ I         330 27.23        77.5 0.52            153           74.0  40 
 RUS  HZ EP        330  9.05                             143   -0.1110  103 177 
 RUS  HE ES        330 27.87                             143   -0.0110  103 177 
 RUS  HZ I         330 29.00        31.0 0.44            146            103 177 
 PTB  HZ EP        330 11.68                             132   -0.73 9  150 258 
 PTB  HN ES        330 32.71                             132   -0.94 9  150 258 
 PTB  HZ I         330 34.38        30.2 0.12            131            150 258 
 TAM  HZ EP        330 13.36                             131    0.58 9  154 106 
 TAM  HN ES        330 34.64                             131    0.32 9  154 106 
 OCA  HZ EP        330 13.22                             130   -0.07 9  158 352 
 OCA  HE ES        330 34.71                             130   -0.51 9  158 352 
 OCA  HZ I         330 43.20        82.5 0.50            130            158 352 
 SPBC HZ EP        330 14.04                             129    0.01 9  167 219 
 SPBC HN ES        330 36.12                             129   -0.42 9  167 219 
 SPBC HZ I         330 40.67        77.1 0.30            129            167 219 
 ZAR  HZ EP        330 18.32                             122    0.59 9  205 291 
 ZAR  HN ES        330 42.58                             122   -0.55 9  205 291 
 ZAR  HZ I         330 48.08        43.5 0.32            122            205 291 
 NOR  HZ EP        330 21.27                             118   -0.00 8  238 234 
 NOR  HN ES        330 48.80                             118   -0.64 8  238 234 
 NOR  HZ I         330 56.51        31.0 0.24            118            238 234 
 SML  HZ EP        330 21.40                             118   -0.24 8  242 335 
 SML  HE ES        330 49.94                             118   -0.15 8  242 335 
 SML  HZ I         330 59.56        57.2 0.10            117            242 335 
 CHI  HZ EP        330 23.33                             117    0.09 8  252 195 
 CHI  HN ES        330 52.65                             117   -0.29 8  252 195 
 CHI  HZ I         330 55.92        30.9 0.58            118            252 195 
 ROSC BZ EP   4    330 25.10                             116    1.41 0  256 211 
 ROSC BN ES   4    330 51.94                             116   -1.79 0  256 211 
 ROSC BZ I         330 59.40        64.4 0.45            117            256 211 
 HEL  HZ EP        330 26.57                             115    0.87 8  275 255 
 HEL  HN ES        330 57.43                             115    0.12 8  275 255 
 HEL  HZ I         331  3.16        21.5 0.30            115            275 255 
 URE  HZ EP   4    330 24.95                             114   -1.41 0  285 291 
 URE  HN ES   4    330 55.71                             114   -2.77 0  285 291 
 URE  HZ I         331  8.78        27.3 0.34            113            285 291 
 SOCV BZ EP   4    330 27.04                             112   -0.84 0  298  57 
 SOCV BN ES        331  0.65                             112   -0.55 7  298  57 
 GUY2CHZ EP        330 29.68                             112    0.52 7  304 235 
 GUY2CHN ES        331  4.39                             112    0.91 7  304 235 
 GUY2CHZ I         331 11.54        19.0 0.58                           304 235 
 VIL  SZ EP        330 29.06                             112    0.10 7  306 192 
 VIL  SN ES        331  2.32                             112   -0.80 7  306 192 
 PTGC HZ EP        330 28.33                             111   -0.93 7  311 159 
 PTGC HN ES   4    331  2.04                             111   -1.61 0  311 159 
 PTGC HZ I         331  4.38        23.4 0.34            113            311 159 
 LL6C HZ EP        330 30.27                             111   -0.32 7  322 357 
 LL6C HN ES        331  5.09                             111   -0.92 7  322 357 
 LL6C HZ I         331 12.30        12.1 0.40            111            322 357 
 ELA  HZ EP   4    330 34.47                             110    2.05 0  332 229 
 ELA  HN ES   4    331 10.54                             110    1.27 0  332 229 
 ELA  HZ I         331 17.65        18.2 0.54            111            332 229 
 CBOC HZ EP        330 32.91                             110    0.49 7  336 252 
 CBOC HN ES        331 10.14                             110    0.87 7  336 252 
 DBB  SZ EP        330 33.31                             109    0.44 7  341 274 
 DBB  SZ ES   4    331  9.39                             109   -0.69 0  341 274 
 DBB  SZ I         331 12.82        49.4 0.28            109            341 274 
 SDV  BZ EP        330 34.23                             108   -0.62 6  357  50 
 SDV  BE ES   4    331 12.29                             108   -1.31 0  357  50 
 ANIL HZ EP        330 35.62                             108    0.24 6  361 224 
 ANIL HN ES        331 15.02                             108    0.47 6  361 224 
 PRA  HZ EP        330 39.21                             106    0.11 6  395 210 
 PRA  HN ES        331 21.14                             106   -0.03 6  395 210 
 PRA  HZ I         331 25.15        20.4 0.44            107            395 210 
 ORTC HZ EP        330 39.37                             106   -0.13 6  399 216 
 ORTC HN ES        331 21.60                             106   -0.29 6  399 216 
 ORTC HZ I         331 26.49        16.1 0.24            107            399 216 
 SJC  HZ EP   4    330 39.35                             106   -1.25 0  408 327 
 SJC  HN ES   4    331 20.45                             106   -3.39 0  408 327 
 SJC  HZ I         331 34.90         6.8 0.72            106            408 327 
 PAL  HZ EP        330 40.72                             106    0.01 6  409 239 
 PAL  HE ES        331 23.33                             106   -0.71 6  409 239 
 PAL  HZ I         331 28.61         4.6 0.20            106            409 239 
 CRJC HZ EP   4    330 45.61                             103   -1.73 0  465   3 
 CRJC HE ES   4    331 32.28                             103   -3.55 0  465   3 
 CRJC HZ I         331 40.27        12.3 0.20            104            465   3 
                                                                                
