 2016 11 5 0915 27.0 L   6.782 -73.139146.0  RSN  8 0.3 1.7LRSN                1
 GAP=155        0.68       2.9     3.1  4.8 -0.1843E+01  0.2126E+01  0.4708E+01E
 Epicentro: LOS SANTOS - SANTANDER                                             3
 ACTION:UPD 17-10-26 21:04 OP:lp   STATUS:               ID:20161105091527 L   I
 OLDACT:REG 16-11-05 14:21 OP:dani STATUS:               ID:20161105090742     3
 2016-11-05-0908-00M.COL___346                                                 6
 STAT SP IPHASW D HRMM SECON CODA AMPLIT PERI AZIMU VELO AIN AR TRES W  DIS CAZ7
 BAR2 EZ EP        915 46.49                             171   -0.1310 21.5 193 
 BAR2 EZ ES        916  1.90                             171   -0.0210 21.5 193 
 BAR2 EZ I         916  4.34        14.5 0.30            168           21.5 193 
 BRR  HZ EP        915 48.31                             152    0.0510 72.8 300 
 BRR  HN ES        916  5.24                             152    0.3910 72.8 300 
 BRR  HZ I         916  9.33        11.9 0.40            151           72.8 300 
 PAM  EZ EP        915 49.43                             151    0.1210 78.5  38 
 PAM  EN ES        916  6.61                             151   -0.0910 78.5  38 
 PAM  EZ I         916  8.95         5.8 0.22            157           78.5  38 
 PTB  HZ EP        915 53.23                             132   -0.78 9  148 260 
 PTB  HE ES        916 14.95                             132   -0.13 9  148 260 
 PTB  HZ I         916 21.32         4.5 0.42            133            148 260 
 SPBC HZ EP        915 55.59                             129    0.18 9  162 220 
 SPBC HN ES        916 17.45                             129   -0.12 9  162 220 
 SPBC HZ I         916 25.44         5.6 0.22            130            162 220 
 ZAR  HZ EP   4    916  0.88                             122    1.28 0  205 293 
 ZAR  HE ES        916 25.22                             122    0.18 8  205 293 
 ZAR  HZ I         916 30.65         3.9 0.30            124            205 293 
 CHI  HZ EP   2    916  4.85                             117    0.33 4  247 195 
 CHI  HN ES        916 33.96                             117    0.18 8  247 195 
 CHI  HZ I         916 37.68         2.2 0.38            120            247 195 
 PRA  HZ EP   2    916 20.56                             107    0.20 3  391 210 
 PRA  HN ES        917  2.30                             107    0.32 6  391 210 
 PRA  HZ I         917  7.92         2.6 0.52            109            391 210 
                                                                                
