 2014  6 5 0426 17.0 L   6.822 -73.150142.4  RSN 12 0.4 1.9LRSN                1
 GAP=135        0.85       2.8     3.8  5.5 -0.2464E+01  0.6020E+01  0.1345E+01E
 Epicentro: LOS SANTOS - SANTANDER                                             3
 OLDACT:REG 14-06-05 12:56 OP:fm   STATUS:               ID:20140605041810     3
 ACTION:UPD 14-07-01 22:51 OP:nd   STATUS:               ID:20140605042617 L   I
 OLDACT:UP  14-06-05 18:08 OP:fm   STATUS:               ID:20140605041810     3
 2014-06-05-0418-10M.COL___262                                                 6
 STAT SP IPHASW D HRMM SECON CODA AMPLIT PERI AZIMU VELO AIN AR TRES W  DIS CAZ7
 BAR2 SZ EP        426 36.05                             169   -0.2310 25.6 188 
 BAR2 SZ ES        426 51.37                             169    0.0610 25.6 188 
 BAR2 SZ I         426 51.92        30.5 0.38            170           25.6 188 
 PAM  SZ EP        426 39.04                             150    0.2610 75.9  41 
 PAM  SE ES        426 55.97                             150    0.2210 75.9  41 
 PAM  SZ I         426 57.70        16.8 0.52            153           75.9  41 
 RUS  HZ EP        426 40.41                             142   -0.2010  103 176 
 RUS  HN ES   1    426 58.90                             142   -0.12 7  103 176 
 RUS  SZ I         426 59.93         4.9 1.50            144            103 176 
 PTB  HZ EP   1    426 43.10                             131   -0.60 7  148 258 
 PTB  HN ES        427  3.82                             131   -0.70 9  148 258 
 PTB  SZ I         427  9.12         8.3 0.46            130            148 258 
 OCA  HZ EP   1    426 44.29                             129   -0.54 7  158 353 
 OCA  HN ES   2    427  6.88                             129    0.36 5  158 353 
 OCA  SZ I         427 10.74        11.8 0.26            129            158 353 
 SPBC HZ EP   1    426 45.41                             128    0.01 7  165 218 
 SPBC HN ES   1    427  7.73                             128    0.19 7  165 218 
 SPBC SZ I         427 13.05         7.1 0.26            128            165 218 
 ZAR  HN ES   1    427 14.73                             122    0.61 6  203 292 
 NOR  HN ES        427 20.54                             118    0.09 8  236 234 
 SML  HZ EP   2    426 52.01                             117   -1.18 4  241 335 
 SML  HE ES   1    427 21.83                             117    0.43 6  241 335 
 SML  SZ I         427 29.92         8.5 0.10            117            241 335 
 CHI  HZ EP        426 54.77                             116    0.01 8  251 195 
 CHI  HN ES        427 24.46                             116    0.25 8  251 195 
 CHI  SZ I         427 31.90         3.5 0.32            117            251 195 
 HEL  HN ES   4    427 30.78                             114    2.48 0  272 255 
 GUY2CHZ EP        427  1.38                             111    0.81 7  302 234 
 GUY2CHE ES   4    427 39.33                             111    4.78 0  302 234 
 GUY2CSZ I         427 48.44         4.8 3.42                           302 234 
 RREF HN ES   4    427 42.60                             110    3.47 0  323 229 
 TOL  SN ES   4    427 45.29                             108    2.35 0  345 224 
 PRA  HN ES   1    427 53.00                             106    0.54 4  394 209 
                                                                                
