 2017  9 5 0448 19.7 L   6.801 -73.145147.6  RSN 12 0.3 1.8LRSN                1
 GAP=112        0.60       2.3     2.7  3.9 -0.7308E+00  0.8403E+00  0.2688E+01E
 Epicentro: LOS SANTOS - SANTANDER                                             3
 ACTION:UPD 17-10-05 19:09 OP:rebc STATUS:               ID:20170905044819 L   I
 OLDACT:UP  17-09-05 14:21 OP:dnl  STATUS:               ID:20170905043744     3
 OLDACT:REG 17-09-05 13:16 OP:dnl  STATUS:               ID:20170905043744     3
 2017-09-05-0438-00M.COL___426                                                 6
 STAT SP IPHASW D HRMM SECON CODA AMPLIT PERI AZIMU VELO AIN AR TRES W  DIS CAZ7
 BAR2 EZ EP        448 39.21                             171   -0.3310 23.5 190 
 BAR2 EZ ES        448 54.58                             171   -0.4510 23.5 190 
 BAR2 EZ I         448 57.01        20.0 0.30            167           23.5 190 
 BRR  HZ EP        448 41.07                             153    0.0310 71.2 298 
 BRR  HE ES        448 58.19                             153    0.5110 71.2 298 
 BRR  HZ I         449  2.01        11.3 0.28            150           71.2 298 
 PAM  EZ EP        448 42.17                             151    0.0810 77.2  40 
 PAM  EN ES        448 59.51                             151   -0.0510 77.2  40 
 PAM  EZ I         449  2.29         7.0 0.28            156           77.2  40 
 RUS  HZ EP        448 43.34                             144   -0.2910  101 176 
 RUS  HE ES        449  2.51                             144    0.2110  101 176 
 RUS  HZ I         449  3.13         6.8 0.34            144            101 176 
 SPBC HZ EP   2    448 48.20                             129   -0.15 5  163 219 
 SPBC HN ES        449 10.48                             129   -0.21 9  163 219 
 SPBC HZ I         449 16.44        10.9 0.22            128            163 219 
 YPLC HZ EP        448 49.70                             127    0.07 9  177 151 
 YPLC HN ES        449 13.41                             127    0.43 9  177 151 
 YPLC HZ I         449 14.63        10.0 0.26            129            177 151 
 ZAR  HZ EP   2    448 52.35                             123    0.09 4  204 292 
 ZAR  HN ES   3    449 17.57                             123   -0.09 2  204 292 
 ZAR  HZ I         449 22.44         6.1 0.24            122            204 292 
 NOR  HZ EP   4    448 54.60                             119   -0.94 0  235 234 
 NOR  HE ES        449 23.58                             119    0.08 8  235 234 
 NOR  HZ I         449 30.01         3.9 0.26            118            235 234 
 CHI  HZ EP   2    448 57.61                             117    0.10 4  249 195 
 CHI  HN ES   2    449 26.99                             117   -0.01 4  249 195 
 CHI  HZ I         449 30.41         2.5 0.38            118            249 195 
 ROSC BZ EP   2    448 58.23                             117    0.30 4  253 211 
 ROSC BN ES   4    449 30.35                             117    2.60 0  253 211 
 ROSC BZ I         449 35.89         7.0 0.40            117            253 211 
 GUY2CHZ EP   4    449  5.51                             113    2.11 0  301 235 
 GUY2CHN ES   4    449 40.63                             113    3.14 0  301 235 
 GUY2CHZ I         449 49.49         3.0 0.42                           301 235 
 PRA  HZ EP   2    449 13.26                             107   -0.04 3  392 210 
 PRA  HN ES        449 55.07                             107   -0.03 6  392 210 
 PRA  HZ I         450  1.53         3.3 0.46            107            392 210 
                                                                                
