 2013  4 5 0213 10.0 L   6.725 -73.222153.3  RSN  5 0.4 1.3LRSN                1
 GAP=166        0.77       5.2     7.5  9.1  0.1779E+02 -0.1781E+02 -0.1665E+02E
 Epicentro: VILLANUEVA - SANTANDER                                             3
 ACTION:UPD 13-05-22 14:35 OP:EP   STATUS:               ID:20130405021310 L   I
 2013-04-05-0210-00M.COL___245                                                 6
 STAT SP IPHASW D HRMM SECON CODA AMPLIT PERI AZIMU VELO AIN AR TRES W  DIS CAZ7
 GIR2 SZ EP   1    213 30.51                             165   -0.29 7 39.2   5 
 GIR2 SZ I         213 47.49         4.2 0.56            157           39.2   5 
 BRR  HZ EP   1    213 32.28                             155    0.44 7 68.7 308 
 BRR  HN ES   1    213 49.41                             155    0.54 7 68.7 308 
 RUS  HZ EP        213 34.23                             147    0.2110 93.4 171 
 RUS  HN ES   1    213 52.28                             147   -0.46 7 93.4 171 
 RUS  HZ I         213 53.74         1.7 0.20            151           93.4 171 
 PTB  HZ EP   1    213 36.62                             136   -0.13 7  138 262 
 PTB  HE ES   1    213 57.42                             136   -0.20 7  138 262 
 PTB  HZ I         214  1.80         3.2 0.16            140            138 262 
 SML  HZ EP   1    213 47.74                             118    0.22 6  248 338 
 SML  HE ES   1    214 16.05                             118   -0.72 6  248 338 
                                                                                
