 2013  2 5 0418  2.0 L   6.861 -73.061147.3  RSN  6 0.4 1.7LRSN                1
 GAP=192        0.95       5.4     7.6  9.1  0.1579E+02  0.3027E+01  0.5727E+01E
 Epicentro: LOS SANTOS - SANTANDER                                             3
 ACTION:UPD 13-03-12 09:30 OP:ep   STATUS:               ID:20130205041802 L   I
 2013-02-05-0410-00M.COL___241                                                 6
 STAT SP IPHASW D HRMM SECON CODA AMPLIT PERI AZIMU VELO AIN AR TRES W  DIS CAZ7
 BAR2 SZ EP   1    418 22.41                             167    0.36 7 32.6 204 
 BAR2 SZ ES   1    418 37.58                             167   -0.10 7 32.6 204 
 BAR2 SZ I         418 38.36         7.4 0.38            152           32.6 204 
 BRR  HZ EP        418 24.13                             151    0.4710 76.9 291 
 BRR  HN ES        418 40.95                             151    0.4110 76.9 291 
 BRR  HN I         418 41.60        15.2 0.24            135           76.9 291 
 RUS  HZ EP        418 26.51                             142    0.1110  107 181 
 RUS  HN ES   2    418 44.46                             142   -0.96 5  107 181 
 RUS  HN I         418 48.03         1.7 0.20            125            107 181 
 OCA  HE ES        418 51.29                             131   -0.46 9  155 349 
 OCA  HE I         418 55.37        10.0 0.44            119            155 349 
 PTB  HZ EP   1    418 29.51                             130   -0.57 7  158 257 
 PTB  HN I         418 54.79         5.7 0.38            114            158 257 
 ZAR  HN ES        419  0.77                             122   -0.34 8  210 289 
 ZAR  HN I         419  4.34         6.0 0.40            109            210 289 
                                                                                
