 2010  5 5 0811 25.8 L   6.775 -73.031142.5  RSN  8 0.3 2.1LRSN                1
 GAP=197        0.76       5.4     8.4  6.4 -0.2753E+02 -0.7195E+01  0.5254E+01E
 Epicentro: CEPITA - SANTANDER                                                 3
 ACTION:UP  10-08-24 10:02 OP:vdl  STATUS:               ID:20100505081125 L   I
 2010-05-05-0809-52S.COL___105                                                 6
 STAT SP IPHASW D HRMM SECON CODA AMPLIT PERI AZIMU VELO SNR AR TRES W  DIS CAZ7
 BAR2 SZ IP        811 45.20                             169     0.110   26 220 
 BAR2 SZ ES   1    811 59.70                             169    -0.5 7   26 220 
 BRR  HZ IP     D  811 47.59                             148     0.210   84 296 
 BRR  HE ES   1    812  4.46                             148     0.2 7   84 296 
 BRR  HZ I         812  5.25        39.7 0.07                            84 296 
 BRI  SZ IP        811 49.70                             141     0.410  107  14 
 BRI  SZ ES   1    812  7.65                             141     0.0 7  107  14 
 GUE  SZ EP        811 50.11                             139    -0.210  117   6 
 GUE  SZ ES   1    812  9.39                             139     0.0 7  117   6 
 GRA  SZ EP   1    811 50.95                             136     0.2 7  125  12 
 OCA  SZ EP   1    811 53.51                             128    -0.8 7  165 349 
 OCA  SZ I         812 18.40        11.0 0.21                           165 349 
 HEL  HZ EP   2    812  6.72                             113    -0.5 4  284 257 
 HEL  HZ I         812 43.54         6.0 0.47                           284 257 
 PRA  HZ EP   2    812 19.60                             106    -0.1 3  396 211 
 PRA  HN ES   1    813  1.91                             106     0.2 4  396 211 
 PRA  HZ I         813  9.02         3.4 0.15                           396 211 
                                                                                
