 2010 12 5 0048 46.5 L   6.765 -73.046145.2  RSN 11 0.3 2.6LRSN                1
 GAP=180        0.81       3.6     8.0  6.6 -0.1522E+02  0.1025E+02  0.5055E+01E
 Epicentro: LOS SANTOS - SANTANDER                                             3
 ACTION:UP  11-01-14 15:22 OP:pat  STATUS:               ID:20101205004846 L   I
 2010-12-05-0046-36S.COL___133                                                 6
 STAT SP IPHASW D HRMM SECON CODA AMPLIT PERI AZIMU VELO SNR AR TRES W  DIS CAZ7
 BAR2 SZ EP        049  5.91                             170    -0.210   25 218 
 BAR2 SZ ES   1    049 21.40                             170     0.1 7   25 218 
 BAR2 SZ I         049 22.94       163.3 0.21                            25 218 
 GIR2 SZ EP        049  6.33                             164     0.010   38 335 
 GUE  SZ EP        049 11.69                             139     0.410  118   6 
 GRA  SZ IP        049 12.09                             137     0.310  127  12 
 GRA  SZ I         049 13.11        44.1 0.58                           127  12 
 GRA  SZ ES   1    049 30.98                             137    -0.5 7  127  12 
 OCA  SZ EP        049 14.55                             128    -0.7 9  166 350 
 OCA  SZ ES   1    049 38.14                             128     0.4 7  166 350 
 OCA  SZ I         049 40.11        30.7 0.17                           166 350 
 CHI  HZ EP        049 24.21                             117     0.1 8  248 198 
 CHI  HE ES   1    049 53.30                             117    -0.1 6  248 198 
 CHI  HZ I         049 57.26        19.6 0.47                           248 198 
 HEL  HZ EP   1    049 27.75                             114     0.0 6  282 257 
 HEL  HE ES   2    049 59.69                             114    -0.3 4  282 257 
 HEL  HZ I         050  5.21        13.2 0.41                           282 257 
 VIL  SZ EP        049 29.43                             112    -0.1 7  300 192 
 VIL  SZ I         050  8.97        14.5 0.48                           300 192 
 RREF HZ EP        049 33.66                             110     0.4 7  328 231 
 RREF HN ES   2    050  9.74                             110    -0.1 3  328 231 
 RREF HZ I         050 17.73        18.1 0.38                           328 231 
 PRA  HZ EP        049 39.92                             106    -0.3 6  394 211 
 PRA  HE ES   1    050 22.54                             106     0.4 4  394 211 
 SJA  SZ EP   2    049 40.46                             106    -0.4 3  399 195 
 SJA  SZ I         050 33.75        29.1 0.35                           399 195 
                                                                                
