 2012  9 5 0827 24.1 L   6.738 -73.190150.8  RSN  6 0.3 1.8LRSN                1
 GAP=173        0.56       4.6     4.4  5.1  0.9075E+01  0.4350E+01  0.2853E+00E
 Epicentro: VILLANUEVA - SANTANDER                                             3
 ACTION:UPD 12-10-22 14:17 OP:ep   STATUS:               ID:20120905082724 L   I
 2012-09-05-0820-00M.COL___218                                                 6
 STAT SP IPHASW D HRMM SECON CODA AMPLIT PERI AZIMU VELO AIN AR TRES W  DIS CAZ7
 BAR2 SZ EP   1    827 44.18                             174   -0.07 7 16.2 177 
 BAR2 SZ ES   1    827 59.41                             174   -0.53 7 16.2 177 
 BAR2 SZ I         828  0.71        19.3 0.17                          16.2 177 
 GIR2 SZ EP   1    827 44.43                             165   -0.16 7 37.7 359 
 GIR2 SZ ES   1    828  0.59                             165    0.05 7 37.7 359 
 BRR  HZ EP   1    827 46.05                             153    0.25 7 70.7 305 
 BRR  HN ES   1    828  3.17                             153    0.47 7 70.7 305 
 BRR  HZ I         828  5.61        10.8 0.13                          70.7 305 
 RUS  HZ EP   1    827 48.18                             147    0.23 7 94.2 173 
 RUS  HN ES   1    828  6.63                             147    0.11 7 94.2 173 
 RUS  HZ I         828  7.93         8.7 0.23                          94.2 173 
 PTB  HN ES   1    828 11.87                             134   -0.07 7  142 261 
 ZAR  HZ EP   1    827 56.44                             124   -0.29 6  202 294 
 ZAR  HE ES   1    828 22.04                             124   -0.12 6  202 294 
 ZAR  HZ I         828 28.28         5.2 0.15                           202 294 
                                                                                
