 2012  4 5 0641 14.6 L   6.803 -73.180146.5  RSN  6 0.3 1.5LRSN                1
 GAP=132        0.75       5.6     5.2  8.9  0.3876E+01  0.1968E+02  0.8035E+00E
 Epicentro: LOS SANTOS - SANTANDER                                             3
 ACTION:UPD 12-07-05 11:50 OP:tino STATUS:               ID:20120405064114 L   I
 2012-04-05-0640-00M.COL___196                                                 6
 STAT SP IPHASW D HRMM SECON CODA AMPLIT PERI AZIMU VELO AIN AR TRES W  DIS CAZ7
 BAR2 SZ EP   1    641 34.31                             171     0.0 7   23 181 
 BAR2 SZ ES   1    641 50.11                             171     0.4 7   23 181 
 BAR2 SZ I         641 51.09         7.0 0.26                            23 181 
 BRR  HZ EP   1    641 36.26                             154     0.6 7   68 300 
 BRR  HZ I         641 37.82        11.4 0.15                            68 300 
 PAM  SN ES   1    641 54.20                             150    -0.3 7   80  42 
 PAM  SZ I         641 56.46         3.2 0.28                            80  42 
 RUS  HZ EP   1    641 38.51                             144     0.0 7  101 174 
 RUS  HN ES   1    641 56.93                             144    -0.2 7  101 174 
 RUS  HZ I         641 59.83         3.5 0.73                           101 174 
 PTB  HZ EP   1    641 41.12                             133    -0.2 7  144 258 
 PTB  HN ES   1    642  1.99                             133    -0.2 7  144 258 
 PTB  HZ I         642  8.24         4.1 0.30                           144 258 
 ZAR  HN ES   1    642 11.71                             123    -0.1 6  200 292 
 ZAR  HZ I         642 18.77         6.9 0.34                           200 292 
                                                                                
