 2011  2 5 0052 48.7 L   6.772 -73.153139.5  RSN 10 0.4 1.8LRSN                1
 GAP=158        0.79       4.1     7.1  7.0 -0.7676E+01  0.1779E+02 -0.2192E+01E
 Epicentro: LOS SANTOS - SANTANDER                                             3
 ACTION:UP  11-03-28 15:05 OP:jfem STATUS:               ID:20110205005248 L   I
 2011-02-05-0051-19S.COL___137                                                 6
 STAT SP IPHASW D HRMM SECON CODA AMPLIT PERI AZIMU VELO SNR AR TRES W  DIS CAZ7
 BAR2 SZ EP   1    053  7.01                             171    -0.5 7   20 190 
 BAR2 SZ ES   1    053 22.51                             171     0.3 7   20 190 
 BAR2 SZ I         053 23.53        21.3 0.34                            20 190 
 BTL  SZ EP   1    053  7.62                             171     0.1 7   21 322 
 BTL  SZ ES   2    053 21.43                             171    -0.8 5   21 322 
 GIR2 SZ EP   2    053  7.48                             165    -0.2 5   34 353 
 RUS  HZ EP   1    053 11.46                             143    -0.2 7   98 175 
 RUS  HE ES   1    053 29.66                             143     0.2 7   98 175 
 RUS  HZ I         053 31.24         4.3 0.18                            98 175 
 GRA  SZ EP   1    053 14.22                             135     0.6 7  129  17 
 GRA  SZ ES   2    053 33.90                             135     0.8 5  129  17 
 GRA  SZ I         053 41.27         5.0 0.40                           129  17 
 OCA  SZ EP   2    053 16.52                             128    -0.3 5  163 354 
 OCA  SZ ES   2    053 38.00                             128    -0.8 5  163 354 
 OCA  SZ I         053 46.21         8.7 0.30                           163 354 
 NOR  SZ EP   2    053 23.42                             117    -0.4 4  232 235 
 CHI  HZ EP   1    053 25.37                             116    -0.3 6  245 195 
 CHI  HE ES   2    053 54.86                             116     0.3 4  245 195 
 CHI  HZ I         054  1.20         4.3 0.16                           245 195 
 HEL  HZ EP   2    053 28.72                             114     0.3 4  271 256 
 HEL  HN ES   1    053 59.85                             114     0.4 6  271 256 
 HEL  HZ I         054  6.77         3.4 0.57                           271 256 
 RREF HZ EP   2    053 34.28                             110     0.0 3  319 230 
 RREF HZ I         054 19.25         4.1 0.42                           319 230 
                                                                                
