 2013  5 5 0942 35.3 L   6.773 -73.154150.2  RSN  6 0.4 2.1LRSN                1
 GAP=137        1.01       4.1     5.3  6.8 -0.2529E+01  0.3546E+01 -0.3184E+01E
 Epicentro: LOS SANTOS - SANTANDER                                             3
 ACTION:UPD 13-06-20 09:48 OP:ep   STATUS:               ID:20130505094235 L   I
 2013-05-05-0938-47M.COL___217                                                 6
 STAT SP IPHASW D HRMM SECON CODA AMPLIT PERI AZIMU VELO AIN AR TRES W  DIS CAZ7
 BAR2 SZ EP        942 55.31                             172   -0.1210 20.3 189 
 BAR2 SZ ES        943 11.22                             172    0.1010 20.3 189 
 BAR2 SZ I         943 13.48        10.9 0.18            172           20.3 189 
 BRR  HZ IP     D  942 57.38                             153    0.3910 71.9 301 
 BRR  HN ES        943 14.64                             153    0.7410 71.9 301 
 BRR  HN I         943 17.93        23.7 0.20            152           71.9 301 
 PAM  SZ EP        942 58.34                             151    0.1610 80.2  39 
 PAM  SN ES        943 15.93                             151   -0.0810 80.2  39 
 PAM  SN I         943 17.61        13.7 0.62            154           80.2  39 
 RUS  HZ EP        942 59.58                             146    0.2710 97.7 175 
 RUS  HN ES        943 17.61                             146   -0.4110 97.7 175 
 RUS  HN I         943 19.80        10.5 0.32            149           97.7 175 
 PTB  HZ EP        943  2.32                             133   -0.21 9  146 260 
 PTB  HN ES        943 23.34                             133   -0.41 9  146 260 
 PTB  HN I         943 28.75        24.9 0.46            134            146 260 
 OCA  HZ EP        943  4.39                             130    0.14 9  163 354 
 OCA  HN ES        943 26.05                             130   -0.76 9  163 354 
 OCA  HN I         943 29.45        37.9 0.24            132            163 354 
                                                                                
