 2013  1 5 0618 56.5 L   6.532 -73.556103.8  RSN  8 0.6 2.3LRSN                1
 GAP= 75        1.44       4.3     4.9  9.7  0.2697E+01  0.1749E+02 -0.1658E+01E
 Epicentro: EL CARMEN DE CHUCURI - SANTANDER                                   3
 ACTION:UPD 13-02-15 09:12 OP:ep   STATUS:               ID:20130105061856 L   I
 2013-01-05-0609-38M.COL___192                                                 6
 STAT SP IPHASW D HRMM SECON CODA AMPLIT PERI AZIMU VELO AIN AR TRES W  DIS CAZ7
 BAR2 SZ IP        619 12.17                             156    0.3110 41.8  81 
 BAR2 SZ ES        619 24.44                             156    0.6310 41.8  81 
 BAR2 SZ I         619 25.97       318.1 0.46            156           41.8  81 
 BRR  HZ EP        619 12.97                             145    0.0110 65.9 345 
 BRR  HZ I         619 13.16        20.0 0.12            144           65.9 345 
 RUS  HZ EP        619 15.00                             137   -0.3410 87.9 143 
 RUS  HN ES        619 30.12                             137    0.1010 87.9 143 
 RUS  HN I         619 31.93        30.8 0.16            138           87.9 143 
 PTB  HZ EP        619 15.06                             133   -0.6510 99.6 271 
 PTB  HN ES        619 29.64                             133   -1.0310 99.6 271 
 PTB  HN I         619 30.67        91.6 0.28            133           99.6 271 
 ZAR  HZ EP        619 24.96                             115    1.15 9  179 307 
 ZAR  HN ES        619 45.49                             115    0.39 9  179 307 
 ZAR  HN I         619 48.88        27.8 0.16            115            179 307 
 OCA  HZ EP        619 24.55                             113   -0.76 9  191   8 
 OCA  HN ES        619 47.45                             113   -0.30 9  191   8 
 OCA  HN I         619 53.39        79.9 0.24            113            191   8 
 CHI  HZ EP        619 27.59                             111   -0.39 8  211 185 
 CHI  HZ I         619 29.33         5.6 0.40            112            211 185 
 CHI  HN ES        619 52.67                             111    0.17 8  211 185 
 HEL  HZ EP        619 29.70                             109    0.60 8  222 260 
 HEL  HN ES        619 54.93                             109    0.43 8  222 260 
 HEL  HN I         619 58.24         9.1 0.22            110            222 260 
                                                                                
