 2017  2 5 0655 56.1 L   6.683 -73.517112.4  RSN  5 0.2 1.3LRSN                1
 GAP=156        0.43       4.1     2.5  3.8  0.1066E+01  0.3032E+01 -0.8592E+00E
 Epicentro: EL CARMEN - SANTANDER                                              3
 ACTION:UPD 17-05-24 15:32 OP:jn   STATUS:               ID:20170205065556 L   I
 OLDACT:UP  17-02-05 16:03 OP:dnl  STATUS:               ID:20170205064742d    3
 OLDACT:UP  17-02-05 16:03 OP:dnl  STATUS:               ID:20170205064742d    3
 OLDACT:DUP 17-02-05 16:00 OP:dnl  STATUS:               ID:20170205064742d    3
 OLDACT:REG 17-02-05 13:33 OP:dnl  STATUS:               ID:20170205064741     3
 2017-02-05-0648-00M.COL___316                                                 6
 STAT SP IPHASW D HRMM SECON CODA AMPLIT PERI AZIMU VELO AIN AR TRES W  DIS CAZ7
 BAR2 EZ IP     C  656 12.34                             160    0.1310 38.3 105 
 BAR2 EZ ES        656 24.66                             160   -0.1510 38.3 105 
 BAR2 EZ I         656 25.92        19.0 0.42            156           38.3 105 
 BRR  HZ EP        656 12.47                             153   -0.0310 51.6 335 
 BRR  HN ES        656 25.45                             153    0.1310 51.6 335 
 BRR  HZ I         656 25.47         3.9 0.18            158           51.6 335 
 PTB  HZ EP   2    656 16.88                             134    0.43 5  105 261 
 PTB  HN ES        656 32.29                             134   -0.0610  105 261 
 PTB  HZ I         656 37.74         3.7 0.32            127            105 261 
 ZAR  HZ EP        656 23.04                             118   -0.15 9  173 301 
 ZAR  HN ES   4    656 46.43                             118    2.08 0  173 301 
 ZAR  HZ I         656 47.31         3.4 0.38            117            173 301 
 CHI  HZ EP   4    656 31.09                             111    1.26 0  228 186 
 CHI  HN ES   4    657  1.61                             111    5.44 0  228 186 
 CHI  HZ I         657  6.31         1.1 0.30            107            228 186 
                                                                                
