 2017  2 5 0736 35.9 L   6.739 -73.121148.0  RSN  4 0.3 1.2LRSN                1
 GAP=261        0.65       8.1     5.4  6.8  0.1207E+02  0.1073E+02 -0.1053E+02E
 Epicentro: LOS SANTOS - SANTANDER                                             3
 ACTION:UPD 17-05-24 15:32 OP:jn   STATUS:               ID:20170205073635 L   I
 OLDACT:DUP 17-02-05 16:22 OP:dnl  STATUS:               ID:20170205072747d    3
 2017-02-05-0728-00M.COL___316                                                 6
 STAT SP IPHASW D HRMM SECON CODA AMPLIT PERI AZIMU VELO AIN AR TRES W  DIS CAZ7
 BAR2 EZ EP   2    736 55.81                             173    0.14 5 17.6 203 
 BAR2 EZ ES        737 10.81                             173   -0.3010 17.6 203 
 BAR2 EZ I         737 12.09         4.1 0.74            166           17.6 203 
 BRR  HZ EP        736 57.83                             151    0.2410 76.9 302 
 BRR  HN ES        737 14.78                             151    0.2510 76.9 302 
 BRR  HZ I         737 18.99         1.8 0.40            144           76.9 302 
 PTB  HZ EP   2    737  2.82                             132   -0.34 5  149 262 
 PTB  HN ES        737 24.67                             132    0.23 9  149 262 
 PTB  HZ I         737 31.23         2.4 0.42            129            149 262 
 ZAR  HZ EP   2    737  8.85                             122   -0.14 4  209 294 
 ZAR  HE ES        737 34.37                             122   -0.45 8  209 294 
 ZAR  HZ I         737 44.78         1.8 0.32            120            209 294 
                                                                                
