 2010  9 5 0752 25.3 L   7.244 -73.480117.4  RSN  6 0.3 1.7LRSN                1
 GAP=109        0.82       5.4     8.2  8.8 -0.1828E+02 -0.1557E+02  0.3700E+01E
 Epicentro: SABANA DE TORRES - SANTANDER                                       3
 ACTION:UP  11-02-18 11:00 OP:tino STATUS:               ID:20100905075225 L   I
 2010-09-05-0750-31S.COL___120                                                 6
 STAT SP IPHASW D HRMM SECON CODA AMPLIT PERI AZIMU VELO SNR AR TRES W  DIS CAZ7
 BRR  HZ EP   1    752 41.22                             164    -0.2 7   30 239 
 BRR  HN ES   1    752 54.07                             164     0.2 7   30 239 
 BRR  HZ I         752 55.96        11.4 0.04                            30 239 
 BAR2 SZ EP        752 44.30                             144    -0.110   79 156 
 BAR2 SZ I         752 59.93        29.1 0.24                            79 156 
 GUE  SZ EP   1    752 44.83                             140    -0.4 7   89  43 
 GUE  SZ I         752 45.19        10.9 0.12                            89  43 
 GRA  SZ EP        752 46.66                             136     0.510  103  46 
 GRA  SZ ES   1    753  2.00                             136    -0.4 7  103  46 
 GRA  SZ I         753  4.40         8.3 0.19                           103  46 
 OCA  SZ EP   1    752 47.08                             133     0.2 7  111   9 
 OCA  SZ ES   1    753  3.63                             133    -0.1 7  111   9 
 OCA  SZ I         753  5.91         7.9 0.34                           111   9 
 MON  HZ EP   2    753  5.99                             106    -0.4 4  294 305 
                                                                                
