 2010  9 5 0842 49.7 L   6.803 -73.046140.8  RSN  4 0.2 1.3LRSN                1
 GAP=170        0.52       4.4    10.2 12.3  0.1317E+02 -0.9796E+02 -0.2145E+02E
 Epicentro: LOS SANTOS - SANTANDER                                             3
 ACTION:DUP 11-02-18 11:00 OP:tino STATUS:               ID:20100905084250dL   I
 2010-09-05-0839-16S.COL___120                                                 6
 STAT SP IPHASW D HRMM SECON CODA AMPLIT PERI AZIMU VELO SNR AR TRES W  DIS CAZ7
 BRR  HZ EP   1    843 10.57                             149    -0.3 8   81 295 
 BRR  HE ES   1    843 27.57                             149     0.1 8   81 295 
 BRR  HZ I         843 31.88         3.8 0.14                            81 295 
 RUS  HZ EP   1    843 13.18                             143     0.2 8  101 182 
 RUS  HN ES   2    843 30.83                             143    -0.3 5  101 182 
 GUE  SZ EP   1    843 13.75                             139     0.0 8  114   7 
 GUE  SZ I         843 14.43         2.8 0.15                           114   7 
 GRA  SZ EP        843 14.24                             137     0.010  123  13 
 GRA  SZ I         843 15.49         3.1 0.31                           123  13 
                                                                                
