 2016  8 5 0438 14.1 L   6.811 -73.133149.1  RSN 11 0.3 1.8LRSN                1
 GAP=138        0.74       2.8     3.0  4.2 -0.1370E+01  0.5214E+01  0.1746E+01E
 Epicentro: LOS SANTOS - SANTANDER                                             3
 ACTION:UPD 16-10-29 15:32 OP:rebc STATUS:               ID:20160805043814 L   I
 OLDACT:UP  16-08-05 16:13 OP:edw  STATUS:               ID:20160805042725     3
 OLDACT:REG 16-08-05 13:03 OP:edw  STATUS:               ID:20160805042725     3
 2016-08-05-0428-00M.COL___344                                                 6
 STAT SP IPHASW D HRMM SECON CODA AMPLIT PERI AZIMU VELO AIN AR TRES W  DIS CAZ7
 BAR2 HZ EP        438 34.01                             170   -0.1410 24.8 193 
 BAR2 HZ ES        438 49.35                             170   -0.4510 24.8 193 
 BRR  HZ EP        438 35.75                             153    0.1210 71.8 297 
 BRR  HN ES        438 52.70                             153    0.2610 71.8 297 
 BRR  HZ I         438 56.68         7.9 0.32                          71.8 297 
 PAM  EZ EP        438 36.83                             152    0.2810 75.6  39 
 PAM  EE ES        438 54.36                             152    0.2810 75.6  39 
 PAM  EZ I         438 56.06         8.2 0.44                          75.6  39 
 RUS  HZ EP        438 38.17                             144   -0.0810  102 177 
 RUS  HN ES        438 57.13                             144    0.0310  102 177 
 RUS  HZ I         438 57.81         8.0 0.28                           102 177 
 SPBC HZ EP        438 42.86                             129   -0.15 9  165 219 
 SPBC HN ES        439  5.22                             129   -0.36 9  165 219 
 SPBC HZ I         439  7.49         9.8 0.40                           165 219 
 ZAR  HZ EP        438 46.45                             123   -0.39 9  205 292 
 ZAR  HN ES        439 11.87                             123   -0.51 9  205 292 
 ZAR  HZ I         439 17.44         3.8 0.32                           205 292 
 NOR  HN ES        439 19.25                             119    0.87 8  237 234 
 HEL  HZ EP        438 54.43                             115   -0.22 8  274 256 
 HEL  HN ES        439 26.62                             115    0.33 8  274 256 
 HEL  HZ I         439 32.69         4.2 0.33                           274 256 
 GUY2CHZ EP        438 58.02                             113   -0.04 7  303 235 
 GUY2CHE ES        439 32.31                             113   -0.04 7  303 235 
 GUY2CHZ I         439 39.93         3.0 0.30                           303 235 
 CBOC HZ EP        439  1.61                             110    0.28 7  335 252 
 CBOC HN ES        439 38.24                             110    0.05 7  335 252 
 PRA  HZ EP        439  8.00                             107    0.07 6  394 210 
 PRA  HE ES        439 50.00                             107    0.08 6  394 210 
 PRA  HZ I         439 56.14         2.4 0.60                           394 210 
                                                                                
