 2013  8 5 0741 22.8 L   6.210 -73.981  4.1  RSN 12 0.6 2.1LRSN                1
 GAP= 62        1.15       2.9     3.3 12.0 -0.1700E+00 -0.1626E+02 -0.8881E+01E
 Epicentro: CIMITARRA - SANTANDER                                              3
 ACTION:UPD 14-01-14 08:59 OP:ep   STATUS:               ID:20130805074122 L   I
 OLDACT:REG 13-08-05 08:01 OP:jn   STATUS:               ID:20130805073959     3
 2013-08-05-0739-59M.COL___270                                                 6
 STAT SP IPHASW D HRMM SECON CODA AMPLIT PERI AZIMU VELO AIN AR TRES W  DIS CAZ7
 SPBC HZ EPg  1    741 32.14                              90   -0.85 7 62.5 189 
 SPBC HZ I         741 48.27        67.4 0.14            149           62.5 189 
 PTB  HZ IP     D  741 33.78                              90    0.6510 64.0 305 
 PTB  HZ I         741 46.60        91.3 0.26            150           64.0 305 
 BAR2 SZ EP   1    741 37.50                              90   -0.99 7 97.9  64 
 BAR2 SZ I         741 54.45        38.1 0.40            128           97.9  64 
 BRR  HZ EPg  1    741 39.77                              90    0.67 7  104  17 
 BRR  HZ I         741 57.73        34.3 0.58            128            104  17 
 RUS  HZ EP   4    741 38.03                              90   -1.86 0  105 109 
 RUS  HZ EPg  1    741 39.30                              90   -0.59 7  105 109 
 RUS  HZ I         741 50.23        29.1 0.46            127            105 109 
 NOR  HZ IP     D  741 41.87                              90   -0.0310  122 234 
 NOR  HE ES   1    741 56.30                              90   -0.49 7  122 234 
 NOR  HZ I         741 58.23        31.2 0.22            131            122 234 
 GIR2 SZ EP   1    741 43.29                              90    0.09 7  130  42 
 ROSC BN ES   1    742  7.59                              90    0.88 7  156 194 
 HEL  HZ IP     D  741 49.68                              90   -0.08 9  171 269 
 HEL  HN ES   1    742 10.25                              90   -0.53 7  171 269 
 HEL  HZ I         742 11.97        40.7 0.28            119            171 269 
 ZAR  HZ EP   1    741 49.27                              90   -0.18 7  172 326 
 ZAR  HN ES   1    742 10.13                              90   -0.09 7  172 326 
 ZAR  HZ I         742 12.35        24.8 0.40            116            172 326 
 CHI  HZ EP   1    741 51.59                              90    0.93 7  177 171 
 CHI  HN ES   1    742 12.45                              90    0.08 7  177 171 
 CHI  HZ I         742 18.69        27.4 0.86            115            177 171 
 PAM  SZ EP   1    741 52.85                              56    0.59 7  189  49 
 PAM  SN ES   1    742 14.92                              56   -0.30 7  189  49 
 PAM  SZ I         742 18.37        61.3 0.20            111            189  49 
                                                                                
