 2011  6 5 0728 17.9 L   6.745 -73.083147.6  RSN  5 0.1 1.4LRSN                1
 GAP=147        0.41       2.7     4.5  4.0  0.3390E-01 -0.8711E+00 -0.1848E+01E
 Epicentro: JORDAN - SANTANDER                                                 3
 ACTION:UP  11-07-14 19:03 OP:ep   STATUS:               ID:20110605072817 L   I
 2011-06-05-0724-23S.COL___132                                                 6
 STAT SP IPHASW D HRMM SECON CODA AMPLIT PERI AZIMU VELO SNR AR TRES W  DIS CAZ7
 BAR2 SZ EP   1    728 37.51                             172    -0.2 7   20 213 
 BAR2 SZ ES   1    728 53.19                             172     0.1 7   20 213 
 BAR2 SZ I         728 55.36         7.7 0.49                            20 213 
 PAM  SZ EP   1    728 40.60                             151     0.2 7   78  33 
 PAM  SN ES   1    728 57.74                             151    -0.1 7   78  33 
 BRR  HZ EP   1    728 39.55                             150    -0.2 7   80 300 
 BRR  HZ I         728 41.48         6.7 0.11                            80 300 
 BRR  HN ES   1    728 56.96                             150     0.1 7   80 300 
 RUS  HZ EP   1    728 41.46                             146     0.1 7   94 180 
 RUS  HN ES   1    728 59.76                             146     0.0 7   94 180 
 RUS  HZ I         729  0.59         2.1 0.30                            94 180 
 OCA  SZ EP   1    728 47.13                             129     0.1 7  167 351 
                                                                                
