 2010  9 5 0328 38.1 L   6.754 -73.050138.0  RSN  7 0.3 1.6LRSN                1
 GAP=170        0.75       4.5     9.0  7.6 -0.3928E+01 -0.1411E+02 -0.1077E+02E
 Epicentro: LOS SANTOS - SANTANDER                                             3
 ACTION:UP  11-02-18 11:00 OP:tino STATUS:               ID:20100905032838 L   I
 2010-09-05-0326-35S.COL___120                                                 6
 STAT SP IPHASW D HRMM SECON CODA AMPLIT PERI AZIMU VELO SNR AR TRES W  DIS CAZ7
 BAR2 SZ ES   1    329 11.97                             170     0.6 7   23 219 
 BAR2 SZ I         329 13.85         9.0 0.11                            23 219 
 BRR  HZ EP   1    328 59.10                             147    -0.1 7   83 298 
 BRR  HN ES   1    329 15.51                             147    -0.1 7   83 298 
 BRR  HZ I         329 20.00         6.3 0.19                            83 298 
 RUS  HZ EP   2    329  1.02                             144     0.3 5   95 182 
 RUS  HN ES   1    329 17.87                             144    -0.5 7   95 182 
 RUS  HZ I         329 21.40         2.8 0.24                            95 182 
 GUE  SZ EP   1    329  2.69                             137     0.3 7  120   7 
 GRA  SZ EP   1    329  2.87                             135     0.0 7  128  12 
 GRA  SZ ES   1    329 22.02                             135    -0.2 7  128  12 
 GRA  SZ I         329 23.81         5.7 0.43                           128  12 
 OCA  SZ EP   1    329  6.14                             127    -0.3 7  167 350 
 OCA  SZ I         329 30.83         5.8 0.35                           167 350 
 PRA  HZ EP   2    329 31.78                             105     0.3 3  393 211 
 PRA  HZ I         330 17.88         2.3 0.22                           393 211 
                                                                                
