 2015  9 5 0649 52.6 L   6.757 -73.147139.4  RSN  7 0.5 1.5LRSN                1
 GAP=155        1.25       7.9     7.0  8.1 -0.3115E+02  0.8659E+01  0.1446E+02E
 Epicentro: LOS SANTOS - SANTANDER                                             3
 ACTION:UPD 15-10-28 16:24 OP:cam  STATUS:               ID:20150905064952 L   I
 OLDACT:REG 15-09-05 12:40 OP:stll STATUS:               ID:20150905064735     3
 2015-09-05-0647-35M.COL___355                                                 6
 STAT SP IPHASW D HRMM SECON CODA AMPLIT PERI AZIMU VELO AIN AR TRES W  DIS CAZ7
 BAR2 EZ EP        650 11.46                             172    0.0310 18.7 192 
 BAR2 EZ ES        650 25.93                             172   -0.1410 18.7 192 
 BAR2 EZ I         650 28.76         7.1 0.22            169           18.7 192 
 BRR  HZ IP     C  650 13.17                             151   -0.0810 73.5 302 
 BRR  HN ES        650 30.08                             151    0.7710 73.5 302 
 BRR  HZ I         650 31.30         7.0 0.20            153           73.5 302 
 PAM  EZ EP     C  650 14.35                             148   -0.0810 81.1  37 
 PAM  EZ I         650 14.48         6.4 0.16            153           81.1  37 
 PAM  EN ES        650 31.41                             148   -0.0010 81.1  37 
 PTB  HZ EP        650 17.94                             131   -1.08 9  147 261 
 PTB  HN ES        650 38.83                             131   -0.75 9  147 261 
 PTB  HZ I         650 41.21         4.8 0.10            133            147 261 
 SPBC HZ EP        650 20.31                             128    0.00 9  159 220 
 SPBC HN ES        650 42.01                             128    0.12 9  159 220 
 SPBC HZ I         650 46.58         4.6 0.16            129            159 220 
 HEL  HZ EP        650 33.05                             114    0.64 8  271 257 
 GUY2CHZ EP        650 36.44                             111    0.79 7  298 235 
 GUY2CHN ES        651  9.61                             111    0.41 7  298 235 
                                                                                
