 2013  5 5 0552 50.6 L   6.753 -73.120143.0  RSN  6 0.4 1.7LRSN                1
 GAP=142        1.03       5.2     5.3  6.8 -0.3080E+01  0.4157E+01  0.4056E+01E
 Epicentro: LOS SANTOS - SANTANDER                                             3
 ACTION:UPD 13-06-20 09:47 OP:ep   STATUS:               ID:20130505055250 L   I
 2013-05-05-0548-50M.COL___220                                                 6
 STAT SP IPHASW D HRMM SECON CODA AMPLIT PERI AZIMU VELO AIN AR TRES W  DIS CAZ7
 BAR2 SZ EP        553  9.97                             172    0.1510 19.1 201 
 BAR2 SZ ES        553 24.49                             172   -0.3210 19.1 201 
 BAR2 SZ I         553 26.17         5.6 0.22            170           19.1 201 
 GIR2 SZ EP        553 10.22                             165    0.1110 36.9 347 
 GIR2 SZ ES        553 25.28                             165   -0.0510 36.9 347 
 BRR  HZ EP        553 11.99                             150    0.2410 76.2 301 
 BRR  HZ I         553 13.36         6.9 0.14            150           76.2 301 
 BRR  HN ES        553 29.10                             150    0.8610 76.2 301 
 PAM  SZ EP        553 12.70                             150    0.0310 79.7  36 
 PAM  SN ES        553 29.34                             150   -0.5410 79.7  36 
 PAM  SN I         553 31.16         6.7 0.54            152           79.7  36 
 RUS  HZ EP        553 13.87                             145    0.1710 95.3 178 
 RUS  HN ES        553 31.92                             145    0.2010 95.3 178 
 RUS  HN I         553 34.16         9.7 0.44            145           95.3 178 
 PTB  HZ EP        553 17.11                             131   -0.41 9  150 261 
 PTB  HN ES        553 37.92                             131   -0.59 9  150 261 
 PTB  HN I         553 43.30        26.2 0.48            131            150 261 
                                                                                
