 2016 10 5 0428 17.4 L   6.335 -73.577113.6  RSN  7 0.5 1.4LRSN                1
 GAP= 84        1.19       4.7     4.9  8.5 -0.5412E+00  0.3144E+01 -0.2269E+01E
 Epicentro: SANTA HELENA DEL OPON - SANTANDER                                  3
 ACTION:UPD 16-11-09 19:16 OP:rebc STATUS:               ID:20161005042817 L   I
 OLDACT:REG 16-10-05 12:46 OP:dani STATUS:               ID:20161005042742     3
 2016-10-05-0428-00M.COL___357                                                 6
 STAT SP IPHASW D HRMM SECON CODA AMPLIT PERI AZIMU VELO AIN AR TRES W  DIS CAZ7
 BAR2 EZ ES        428 47.79                             154    0.2110 52.1  57 
 BAR2 EZ I         428 48.70        16.2 0.24            139           52.1  57 
 RUS  HZ EP        428 35.90                             145   -0.1410 73.3 132 
 BRR  HZ EP        428 36.13                             140   -0.2110 86.7 350 
 BRR  HN ES        428 51.20                             140    0.0910 86.7 350 
 BRR  HZ I         428 52.07         3.6 0.10            129           86.7 350 
 SPBC HZ EP        428 37.36                             138    0.3610 93.3 216 
 SPBC HE ES        428 52.64                             138    0.3710 93.3 216 
 SPBC HZ I         428 56.71         4.0 0.26            128           93.3 216 
 PTB  HZ EP        428 36.89                             136   -0.5610 99.9 283 
 PTB  HN ES        428 52.21                             136   -0.8710 99.9 283 
 PTB  HZ I         428 52.90         5.7 0.12            128           99.9 283 
 PAM  EZ EP        428 42.34                             124   -0.22 9  147  41 
 PAM  EZ I         429  3.04         2.3 0.21            112            147  41 
 ZAR  HZ EP        428 46.89                             116    0.36 9  191 312 
 ZAR  HE ES        429 10.12                             116    0.87 9  191 312 
 ZAR  HZ I         429 14.45         4.2 0.22            108            191 312 
                                                                                
