 2017  2 5 0527 37.4 L   6.401 -73.628108.6  RSN 13 0.4 1.9LRSN                1
 GAP= 73        0.83       2.9     2.2  5.0  0.6899E+00  0.2544E+01  0.4168E+01E
 Epicentro: SANTA HELENA DEL OPON - SANTANDER                                  3
 ACTION:UPD 17-05-24 15:32 OP:jn   STATUS:               ID:20170205052737 L   I
 OLDACT:UP  17-02-05 15:26 OP:dnl  STATUS:               ID:20170205051739     3
 OLDACT:UP  17-02-05 15:26 OP:dnl  STATUS:               ID:20170205051739     3
 OLDACT:REG 17-02-05 13:21 OP:dnl  STATUS:               ID:20170205051739     3
 2017-02-05-0518-00M.COL___316                                                 6
 STAT SP IPHASW D HRMM SECON CODA AMPLIT PERI AZIMU VELO AIN AR TRES W  DIS CAZ7
 BAR2 EZ IP     C  527 54.03                             152    0.1710 53.7  67 
 BAR2 EZ ES        528  6.94                             152    0.2210 53.7  67 
 BRR  HZ EP        527 55.06                             141   -0.1510 78.7 353 
 BRR  HE ES        528  9.16                             141    0.0410 78.7 353 
 BRR  HZ I         528 15.20        14.0 0.24            129           78.7 353 
 RUS  HZ EP        527 56.04                             140   -0.1510 82.4 133 
 RUS  HN ES        528 10.15                             140   -0.7110 82.4 133 
 RUS  HZ I         528 11.95        14.8 0.34            129           82.4 133 
 PTB  HZ IP   4 D  527 55.04                             136   -1.34 0 92.9 280 
 PTB  HE ES        528 11.46                             136    0.2610 92.9 280 
 PTB  HZ I         528 12.33        28.3 0.26            126           92.9 280 
 NOR  HZ EP   2    528  3.24                             118   -0.31 5  166 236 
 NOR  HE ES        528 24.20                             118    0.25 9  166 236 
 NOR  HZ I         528 25.77        18.7 0.16            110            166 236 
 ZAR  HZ EP        528  5.18                             116   -0.05 9  182 312 
 ZAR  HE ES        528 26.72                             116   -0.24 9  182 312 
 ZAR  HZ I         528 30.60        21.5 0.26            107            182 312 
 ROSC BZ EP   4    528  7.67                             115    1.17 0  189 204 
 ROSC BN ES   4    528 32.58                             115    3.36 0  189 204 
 ROSC BZ I         528 37.46        11.1 0.40            107            189 204 
 CHI  HZ EP        528  6.92                             114   -0.43 9  196 183 
 CHI  HN ES   2    528 32.40                             114    1.68 4  196 183 
 CHI  HZ I         528 33.79         6.0 0.22            106            196 183 
 TAM  HZ IP     C  528  7.90                             113    0.23 9  203  89 
 TAM  HZ I         528 31.36         6.0 0.14            105            203  89 
 TAM  HN ES        528 31.63                             113    0.34 9  203  89 
 URE  HZ EP   4    528 12.15                             107   -1.76 0  258 305 
 URE  HN ES   4    528 39.60                             107   -2.81 0  258 305 
 URE  HZ I         528 48.66         8.1 0.28            101            258 305 
 CBOC HZ EP        528 15.85                             106    0.29 8  270 257 
 CBOC HE ES   4    528 42.66                             106   -2.68 0  270 257 
 CBOC HZ I         528 53.68         4.7 0.40            101            270 257 
 ORTC HZ EP   2    528 22.50                             102    0.21 3  329 213 
 ORTC HN ES   4    528 58.76                             102    1.44 0  329 213 
 ORTC HZ I         529  3.67         5.2 0.44             99            329 213 
 PAL  HZ EP   2    528 23.35                             102   -0.01 3  337 241 
 PAL  HN ES        528 58.79                             102   -0.43 7  337 241 
 PAL  HZ I         529  5.14         2.6 0.26             98            337 241 
                                                                                
