 2014 11 5 0433 28.0 L   7.417 -73.176134.0  RSN  7 0.3 1.5LRSN                1
 GAP=109        0.79       3.1     4.5  5.5 -0.2003E+01  0.6779E+01  0.4696E+01E
 Epicentro: EL PLAYON - SANTANDER                                              3
 ACTION:UPD 14-12-19 15:39 OP:nd   STATUS:               ID:20141105043328 L   I
 OLDACT:UP  14-11-05 14:33 OP:cam  STATUS:               ID:20141105042812     3
 OLDACT:REG 14-11-05 13:19 OP:cam  STATUS:               ID:20141105042812     3
 2014-11-05-0428-12M.COL___274                                                 6
 STAT SP IPHASW D HRMM SECON CODA AMPLIT PERI AZIMU VELO AIN AR TRES W  DIS CAZ7
 PAM  SN ES        434  3.24                             157    0.2910 53.3  99 
 BRR  HZ IP     C  433 47.90                             151    0.1810 68.3 240 
 BRR  HE ES        434  3.29                             151    0.1910 68.3 240 
 BRR  HZ I         434  7.14         7.6 0.30            153           68.3 240 
 OCA  HZ EP        433 49.50                             143   -0.0210 92.3 350 
 OCA  HN ES        434  6.05                             143   -0.2510 92.3 350 
 OCA  HZ I         434  8.43        11.5 0.14            149           92.3 350 
 RUS  HZ EP        433 56.22                             125   -0.50 9  169 176 
 RUS  HN ES        434 18.77                             125   -0.35 9  169 176 
 RUS  HZ I         434 26.43         1.5 0.20            128            169 176 
 PTB  HZ EP        433 56.11                             125   -0.24 9  172 236 
 PTB  HN ES        434 18.12                             125   -0.34 9  172 236 
 PTB  HZ I         434 21.26         5.4 0.14            127            172 236 
 SPBC HZ EP        434  1.96                             118    0.57 8  219 207 
 SPBC HE ES        434 27.68                             118    0.24 8  219 207 
 HEL  HZ EP        434 10.44                             111    0.40 7  293 243 
                                                                                
