 2013  4 5 0906  9.9 L   6.801 -73.137146.6  RSN 10 0.5 1.5LRSN                1
 GAP=184        0.98       3.6     6.2  6.9  0.2369E+01  0.1158E+02  0.3435E+01E
 Epicentro: LOS SANTOS - SANTANDER                                             3
 ACTION:UPD 13-05-22 14:36 OP:EP   STATUS:               ID:20130405090609 L   I
 2013-04-05-0900-00M.COL___245                                                 6
 STAT SP IPHASW D HRMM SECON CODA AMPLIT PERI AZIMU VELO AIN AR TRES W  DIS CAZ7
 BAR2 SZ EP        9 6 29.91                             170    0.3010 23.6 192 
 BAR2 SZ ES   1    9 6 44.80                             170   -0.20 7 23.6 192 
 BAR2 SZ I         9 6 46.61        12.0 0.36            169           23.6 192 
 GIR2 SZ ES   1    9 6 45.73                             167    0.66 7 31.4 349 
 GIR2 SZ I         9 6 47.09         6.0 0.50            167           31.4 349 
 RUS  HZ EP        9 6 33.83                             144    0.1210  101 177 
 RUS  HN ES   1    9 6 52.22                             144   -0.07 7  101 177 
 RUS  HZ I         9 6 54.11         2.1 0.42            145            101 177 
 PTB  HZ EP   1    9 6 36.87                             132   -0.13 7  149 259 
 PTB  HN ES   1    9 6 57.60                             132   -0.55 7  149 259 
 PTB  HZ I         9 7  3.76         5.1 0.24            132            149 259 
 OCA  HE ES   1    9 7  0.09                             130   -0.30 7  160 353 
 OCA  HZ I         9 7  4.90         4.0 0.38            132            160 353 
 ZAR  HE ES   1    9 7  8.36                             122    0.48 6  205 292 
 NOR  HZ EP   1    9 6 46.36                             119    0.62 6  236 235 
 NOR  HE ES   1    9 7 14.13                             119    0.42 6  236 235 
 SML  HZ EP        9 6 46.30                             118   -0.28 8  244 335 
 SML  HN ES   1    9 7 14.58                             118   -0.63 6  244 335 
 CHI  HZ EP        9 6 47.90                             117    0.25 8  249 195 
 CHI  HN ES   1    9 7 15.39                             117   -1.73 6  249 195 
 CHI  HZ I         9 7 21.34         1.8 0.46            118            249 195 
 PRA  HZ EP   1    9 7  3.53                             107    0.04 4  393 210 
 PRA  HN ES   1    9 7 45.80                             107    0.50 4  393 210 
 PRA  HZ I         9 7 51.68         1.6 0.36            108            393 210 
                                                                                
