 2013  3 5 0912 29.4 L   6.802 -73.137148.2  RSN  9 0.5 1.8LRSN                1
 GAP=184        0.91       3.4     6.6  5.9  0.5329E+01  0.7306E+01  0.1812E+01E
 Epicentro: LOS SANTOS - SANTANDER                                             3
 ACTION:UPD 13-04-09 13:59 OP:ep   STATUS:               ID:20130305091229 L   I
 2013-03-05-0910-00M.COL___228                                                 6
 STAT SP IPHASW D HRMM SECON CODA AMPLIT PERI AZIMU VELO AIN AR TRES W  DIS CAZ7
 BAR2 SZ EP        912 49.39                             171    0.1010 23.7 192 
 BAR2 SZ ES        913  4.58                             171   -0.2610 23.7 192 
 BAR2 SZ I         913  5.88        33.5 0.20            167           23.7 192 
 BRR  HZ EP        912 51.21                             153    0.4010 72.0 298 
 BRR  HN ES   1    913  8.56                             153    1.01 7 72.0 298 
 BRR  HZ I         913 12.47         8.5 0.48            148           72.0 298 
 RUS  HZ EP        912 53.26                             144   -0.1010  101 177 
 RUS  HN ES   1    913 11.69                             144   -0.39 7  101 177 
 RUS  HZ I         913 13.00         3.6 0.24            147            101 177 
 PTB  HZ EP        912 56.28                             132   -0.34 9  149 259 
 PTB  HN ES   1    913 17.08                             132   -0.80 7  149 259 
 PTB  HZ I         913 24.57         9.1 0.36            130            149 259 
 OCA  HN ES   1    913 20.41                             130    0.34 7  160 353 
 OCA  HZ I         913 24.18         5.5 0.26            131            160 353 
 ZAR  HZ EP   2    913  1.99                             123   -0.06 4  205 292 
 ZAR  HN ES   2    913 28.13                             123    0.58 4  205 292 
 ZAR  HZ I         913 33.52         7.1 0.36            122            205 292 
 SML  HZ EP        913  5.82                             118   -0.32 8  244 335 
 SML  HN ES   1    913 34.03                             118   -0.81 6  244 335 
 CHI  HZ EP        913  7.47                             118    0.23 8  249 195 
 CHI  HE ES   1    913 36.97                             118    0.18 6  249 195 
 CHI  HZ I         913 39.13         2.2 0.34            119            249 195 
 PRA  HZ EP        913 23.46                             107    0.42 6  393 210 
 PRA  HE ES   1    914  5.38                             107    0.47 4  393 210 
 PRA  HZ I         914  6.37         2.8 0.76            108            393 210 
                                                                                
