 2013  3 5 0731 55.6 L   6.786 -73.164144.3  RSN 12 0.4 2.3LRSN                1
 GAP=109        0.80       2.5     2.9  4.6  0.1373E+01  0.1808E+01 -0.1125E+01E
 Epicentro: LOS SANTOS - SANTANDER                                             3
 ACTION:UPD 13-04-09 13:59 OP:ep   STATUS:               ID:20130305073155 L   I
 2013-03-05-0730-00M.COL___228                                                 6
 STAT SP IPHASW D HRMM SECON CODA AMPLIT PERI AZIMU VELO AIN AR TRES W  DIS CAZ7
 BAR2 SZ IP        732 15.22                             171    0.1510 21.5 185 
 BAR2 SZ ES        732 29.68                             171   -0.5410 21.5 185 
 BAR2 SZ I         732 31.91        51.3 0.44            169           21.5 185 
 BRR  HZ IP     C  732 17.10                             152    0.5110 70.2 300 
 BRR  HN ES   1    732 33.47                             152    0.55 7 70.2 300 
 BRR  HN I         732 35.07        63.9 0.34            149           70.2 300 
 RUS  HZ EP        732 19.08                             144   -0.0810 99.2 175 
 RUS  HN ES        732 37.33                             144   -0.1710 99.2 175 
 RUS  HN I         732 38.36        24.0 0.35            144           99.2 175 
 PTB  HZ EP        732 22.01                             132   -0.28 9  145 259 
 PTB  HN ES   1    732 43.19                             132    0.12 7  145 259 
 PTB  HZ I         732 50.53        28.6 0.20            130            145 259 
 TAM  HZ EP        732 23.34                             130   -0.02 9  157 104 
 TAM  HN ES        732 45.07                             130    0.09 9  157 104 
 OCA  HZ EP   1    732 24.19                             129    0.22 7  162 354 
 OCA  HN ES   1    732 46.05                             129   -0.02 7  162 354 
 OCA  HZ I         732 50.14        32.0 0.34            130            162 354 
 ZAR  HZ EP   1    732 27.66                             122   -0.21 6  203 293 
 ZAR  HE ES   1    732 52.87                             122   -0.13 6  203 293 
 ZAR  HZ I         732 58.89        14.7 0.22            121            203 293 
 SML  HZ EP        732 31.61                             117   -0.65 8  244 336 
 SML  HE ES        733  1.21                             117    0.40 8  244 336 
 CHI  HZ EP        732 33.29                             117    0.24 8  247 195 
 CHI  HZ I         732 35.38         7.8 0.11            117            247 195 
 CHI  HN ES   1    733  2.78                             117    0.56 6  247 195 
 HEL  HZ EP   1    732 36.23                             115    0.70 6  270 256 
 HEL  HN ES   1    733  5.90                             115   -0.73 6  270 256 
 HEL  HZ I         733 14.37        10.7 0.34            114            270 256 
 COD  HZ EP   1    732 43.30                             108   -0.83 5  350 355 
 PRA  HZ EP   1    732 48.82                             106   -0.02 4  390 209 
 PRA  HN ES   1    733 30.31                             106   -0.02 4  390 209 
 PRA  HZ I         733 37.00         5.9 0.27            107            390 209 
                                                                                
