 2017 11 5 0709  0.7 L   6.787 -73.146146.7  RSN 12 0.6 1.7LRSN                1
 GAP=112        1.40       4.8     4.9  7.3  0.3795E+00  0.3700E+01  0.1355E+02E
 Epicentro: LOS SANTOS - SANTANDER                                             3
 ACTION:UPD 17-12-12 19:52 OP:rebc STATUS:               ID:20171105070900 L   I
 OLDACT:DUP 17-11-05 16:26 OP:dhb  STATUS:               ID:20171105065739d    3
 2017-11-05-0658-00M.COL___421                                                 6
 STAT SP IPHASW D HRMM SECON CODA AMPLIT PERI AZIMU VELO AIN AR TRES W  DIS CAZ7
 BAR2 EZ IP     C  7 9 20.24                             171   -0.1610 21.9 190 
 BAR2 EZ ES        7 9 35.35                             171   -0.4310 21.9 190 
 BAR2 EZ I         7 9 38.01        12.6 0.28            168           21.9 190 
 BRR  HZ IP     C  7 9 22.00                             153    0.0210 71.8 300 
 BRR  HE ES        7 9 38.96                             153    0.3910 71.8 300 
 BRR  HZ I         7 9 42.24         8.5 0.24            154           71.8 300 
 PAM  EZ IP     C  7 9 23.24                             151    0.1610 78.6  39 
 PAM  EE ES        7 9 40.34                             151   -0.1910 78.6  39 
 PAM  EZ I         7 9 42.97         5.2 0.58            156           78.6  39 
 RUS  HZ EP        7 9 24.23                             144   -0.2010 99.1 176 
 RUS  HN ES        7 9 43.39                             144    0.4510 99.1 176 
 RUS  HZ I         7 9 44.14         8.0 0.30            144           99.1 176 
 PTB  HZ EP        7 9 26.96                             132   -0.74 9  147 259 
 PTB  HE ES        7 9 48.57                             132   -0.20 9  147 259 
 PTB  HZ I         7 9 49.54         3.5 0.50            133            147 259 
 SPBC HZ EP        7 9 29.16                             130    0.01 9  162 219 
 SPBC HN ES        7 9 51.41                             130    0.07 9  162 219 
 SPBC HZ I         7 9 58.32         8.8 0.12            130            162 219 
 YPLC HZ EP        7 9 30.64                             127    0.21 9  176 151 
 YPLC HE ES        7 9 55.04                             127    1.41 9  176 151 
 YPLC HZ I         7 9 55.62         8.0 0.26            129            176 151 
 NOR  HZ EP        7 9 36.74                             119    0.36 8  234 235 
 NOR  HE ES        710  4.02                             119   -0.19 8  234 235 
 NOR  HZ I         710 11.00         3.2 0.26            120            234 235 
 CHI  HZ EP        7 9 38.15                             117   -0.13 8  247 195 
 CHI  HE ES        710  6.70                             117   -0.91 8  247 195 
 CHI  HZ I         710 14.39         1.9 0.42            119            247 195 
 GUY2CHZ EP        7 9 45.64                             113    1.40 7  300 235 
 GUY2CHE ES   4    710 21.03                             113    2.83 0  300 235 
 GUY2CHZ I         710 28.19         3.1 0.78                           300 235 
 PTGC HZ EP        7 9 43.47                             112   -0.97 7  307 159 
 PTGC HN ES        710 17.23                             112   -1.33 7  307 159 
 PTGC HZ I         710 23.26         3.4 0.32            114            307 159 
 PRA  HZ EP        7 9 54.29                             107    0.20 6  391 210 
 PRA  HN ES        710 36.62                             107    0.88 6  391 210 
 PRA  HZ I         710 39.23         1.6 0.26            108            391 210 
                                                                                
