 2017  2 5 0933 56.6 L   6.145 -73.634116.1  RSN  6 0.2 1.1LRSN                1
 GAP=112        0.57       3.1     4.5  6.1  0.8738E+01  0.1878E+02  0.7338E+01E
 Epicentro: LA PAZ - SANTANDER                                                 3
 ACTION:UPD 17-05-24 15:32 OP:jn   STATUS:               ID:20170205093356 L   I
 OLDACT:UP  17-02-05 17:12 OP:dnl  STATUS:               ID:20170205092744d    3
 OLDACT:UP  17-02-05 17:12 OP:dnl  STATUS:               ID:20170205092744d    3
 OLDACT:UP  17-02-05 17:11 OP:dnl  STATUS:               ID:20170205092744d    3
 OLDACT:UP  17-02-05 17:10 OP:dnl  STATUS:               ID:20170205092744d    3
 OLDACT:DUP 17-02-05 17:08 OP:dnl  STATUS:               ID:20170205092744d    3
 2017-02-05-0928-00M.COL___310                                                 6
 STAT SP IPHASW D HRMM SECON CODA AMPLIT PERI AZIMU VELO AIN AR TRES W  DIS CAZ7
 RUS  HZ EP        934 14.96                             147   -0.0810 67.1 115 
 RUS  HN ES        934 29.15                             147   -0.2910 67.1 115 
 RUS  HZ I         934 31.27         2.5 0.24            149           67.1 115 
 BAR2 EZ EP        934 15.19                             146    0.3010 70.3  45 
 BAR2 EZ ES        934 29.31                             146    0.1310 70.3  45 
 PTB  HZ EP   9    934 15.39                             136   -1.53 0  101 296 
 PTB  HE ES   2    934 30.49                             134   -0.77 5  101 296 
 PTB  HZ I         934 33.14         2.1 0.15            137            101 296 
 BRR  HZ EP        934 17.22                             133   -0.1810  107 355 
 BRR  HN ES        934 33.71                             133    0.0710  107 355 
 CHI  HZ EP   2    934 24.10                             120    0.20 5  168 184 
 CHI  HN ES   2    934 45.62                             120    0.41 5  168 184 
 CHI  HZ I         934 47.26         1.5 0.26            121            168 184 
 ZAR  HZ EP        934 26.85                             115   -0.12 9  201 318 
 ZAR  HN ES        934 50.71                             115    0.03 9  201 318 
 ZAR  HZ I         934 51.73         2.0 0.10            116            201 318 
                                                                                
