 2012  1 5 0620 38.2 L   6.829 -73.104141.0  RSN  5 0.3 1.2LRSN                1
 GAP=244        0.57       8.2     8.5  7.7  0.5125E+02  0.7195E+01 -0.2937E+01E
 Epicentro: LOS SANTOS - SANTANDER                                             3
 ACTION:UP  12-02-03 08:14 OP:REBC STATUS:               ID:20120105062038 L   I
 2012-01-05-0620-00M.COL___189                                                 6
 STAT SP IPHASW D HRMM SECON CODA AMPLIT PERI AZIMU VELO SNR AR TRES W  DIS CAZ7
 BAR2 SZ ES   2    621 12.18                             169    -0.2 5   28 198 
 BRR  HZ EP   2    620 58.68                             151    -0.3 5   74 295 
 BRR  HN ES   2    621 15.60                             151     0.4 5   74 295 
 BRR  HZ I         621 20.14         4.7 0.12                            74 295 
 RUS  HZ EP   1    621  2.19                             142     0.4 7  104 179 
 RUS  HN ES   1    621 19.85                             142    -0.2 7  104 179 
 RUS  HZ I         621 21.73         1.6 0.16                           104 179 
 PTB  HZ EP   1    621  5.08                             130    -0.2 7  153 258 
 PTB  HE ES   2    621 26.65                             130     0.2 5  153 258 
 ZAR  HN ES   2    621 35.86                             121    -0.2 4  207 291 
                                                                                
