 2010  8 5 0036 14.7 L   6.829 -73.096142.0  RSN  5 0.3 1.9LRSN                1
 GAP=279        0.56       8.5    11.9  6.4 -0.6448E+02 -0.3282E+02  0.1614E+02E
 Epicentro: LOS SANTOS - SANTANDER                                             3
 ACTION:UP  10-09-07 10:52 OP:vdl  STATUS:               ID:20100805003614 L   I
 2010-08-05-0034-28S.COL___126                                                 6
 STAT SP IPHASW D HRMM SECON CODA AMPLIT PERI AZIMU VELO SNR AR TRES W  DIS CAZ7
 BTL  SZ EP        036 33.95                             171     0.110   21 298 
 BTL  SZ ES   1    036 48.70                             171     0.0 7   21 298 
 BRR  HZ EP   1    036 35.64                             151     0.0 7   75 294 
 BRR  HZ I         036 42.07         8.0 0.37                            75 294 
 BRR  HN ES   2    036 52.07                             151     0.1 5   75 294 
 BTN  SZ EP        036 35.88                             150    -0.310   77 360 
 BTN  SZ ES   1    036 52.87                             150    -0.1 7   77 360 
 BTN  SZ I         036 53.75        25.2 0.22                            77 360 
 GUE  SZ EP        036 38.75                             140     0.010  112  10 
 GUE  SZ ES   2    036 57.87                             140     0.4 5  112  10 
 GRA  SZ EP   3    036 40.48                             137     1.3 2  121  15 
                                                                                
