 2011  7 5 0328 10.6 L   6.814 -73.158146.0  RSN  9 0.4 1.9LRSN                1
 GAP=134        0.73       3.2     5.3  6.2 -0.6517E+01  0.7191E+01 -0.9050E+00E
 Epicentro: LOS SANTOS - SANTANDER                                             3
 ACTION:UPD 12-07-25 13:58 OP:epov STATUS:               ID:20110705032810 L   I
 2011-07-05-0320-00M.COL___124                                                 6
 STAT SP IPHASW D HRMM SECON CODA AMPLIT PERI AZIMU VELO AIN AR TRES W  DIS CAZ7
 BAR2 SZ EP   1    328 30.01                             170   -0.25 7 24.6 186 
 BAR2 SZ ES   1    328 44.85                             170   -0.77 7 24.6 186 
 BAR2 SZ I         328 47.48        10.7 0.18                          24.6 186 
 BRR  HZ EP   1    328 32.13                             153    0.49 7 69.3 298 
 BRR  HN ES   1    328 48.75                             153    0.67 7 69.3 298 
 BRR  HZ I         328 52.55        14.5 0.14                          69.3 298 
 PAM  SZ EP   1    328 33.00                             151    0.20 7 77.1  41 
 PAM  SN ES   1    328 50.12                             151   -0.02 7 77.1  41 
 RUS  HZ EP   1    328 34.59                             143    0.12 7  102 175 
 RUS  HN ES   1    328 53.49                             143    0.39 7  102 175 
 RUS  HZ I         328 54.89        11.3 0.28                           102 175 
 GRA  SZ EP   1    328 35.84                             137    0.08 7  125  18 
 GRA  SZ ES   1    328 55.14                             137   -0.26 7  125  18 
 GRA  SZ I         328 56.80         9.2 0.29                           125  18 
 OCA  SZ EP   1    328 38.87                             130    0.12 7  159 354 
 OCA  SZ ES   1    329  0.38                             130   -0.34 7  159 354 
 NOR  SN ES   2    329 14.17                             118    0.02 4  234 234 
 ROSC BN ES   1    329 18.23                             117   -0.34 6  253 211 
 ROSC BZ I         329 25.40         8.2 0.54                           253 211 
 HEL  HZ EP   2    328 49.85                             115   -0.85 4  271 255 
 HEL  HN ES   2    329 21.75                             115   -0.24 4  271 255 
                                                                                
