 2013  3 5 0544 45.4 L   6.715 -73.215142.6  RSN  4 0.3 1.2LRSN                1
 GAP=217        0.61       7.0     8.3  7.9  0.3349E+02 -0.5951E+01 -0.1519E+02E
 Epicentro: VILLANUEVA - SANTANDER                                             3
 ACTION:UPD 13-04-09 13:59 OP:ep   STATUS:               ID:20130305054445 L   I
 2013-03-05-0540-00M.COL___228                                                 6
 STAT SP IPHASW D HRMM SECON CODA AMPLIT PERI AZIMU VELO AIN AR TRES W  DIS CAZ7
 BAR2 SZ EP        545  4.36                             174   -0.1510 14.0 165 
 BAR2 SZ ES   1    545 18.99                             174   -0.41 7 14.0 165 
 BAR2 SZ I         545 20.42         4.1 0.21            173           14.0 165 
 BRR  HZ IP     C  545  6.20                             152    0.0510 70.0 308 
 BRR  HN ES   1    545 22.68                             152    0.36 7 70.0 308 
 BRR  HN I         545 23.40         4.1 0.24            154           70.0 308 
 RUS  HN ES   1    545 26.40                             145    0.34 7 92.1 171 
 RUS  HN I         545 27.72         2.3 0.38            146           92.1 171 
 PTB  HE ES   2    545 31.19                             133   -0.29 5  139 262 
                                                                                
