 2012  9 5 0952  2.1 L   6.809 -73.391107.4  RSN  4 0.3 1.3LRSN                1
 GAP=159        0.52       8.2     5.9  7.0  0.3306E+02  0.2166E+02  0.1565E+02E
 Epicentro: SAN VICENTE DE CHUCURI - SANTANDER                                 3
 ACTION:UPD 12-10-22 14:17 OP:ep   STATUS:               ID:20120905095202 L   I
 2012-09-05-0950-00M.COL___218                                                 6
 STAT SP IPHASW D HRMM SECON CODA AMPLIT PERI AZIMU VELO AIN AR TRES W  DIS CAZ7
 BAR2 SZ EP   1    952 17.48                             162    0.02 7 33.2 136 
 BAR2 SZ ES   1    952 29.49                             162    0.05 7 33.2 136 
 BAR2 SZ I         952 30.75         7.7 0.25                          33.2 136 
 GIR2 SZ EP   2    952 18.02                             160    0.56 5 37.0  36 
 GIR2 SZ ES   1    952 29.42                             160   -0.03 7 37.0  36 
 BRR  HZ EP   1    952 17.36                             154   -0.45 7 48.5 313 
 BRR  HZ I         952 18.26         5.2 0.13                          48.5 313 
 BRR  HN ES   1    952 30.06                             154   -0.01 7 48.5 313 
 ZAR  HN ES   1    952 51.22                             116    0.23 7  179 295 
                                                                                
