 2013  8 5 0452 19.5 L   6.760 -73.105143.4  RSN  6 0.3 1.5LRSN                1
 GAP=187        0.71       3.2     6.2  5.7  0.1369E+01  0.1154E+01  0.8349E+00E
 Epicentro: LOS SANTOS - SANTANDER                                             3
 ACTION:UPD 14-01-14 08:59 OP:ep   STATUS:               ID:20130805045219 L   I
 OLDACT:REG 13-08-05 07:53 OP:jn   STATUS:               ID:20130805044959     3
 2013-08-05-0449-59M.COL___269                                                 6
 STAT SP IPHASW D HRMM SECON CODA AMPLIT PERI AZIMU VELO AIN AR TRES W  DIS CAZ7
 BAR2 SZ EP   1    452 38.79                             171   -0.01 7 20.5 205 
 BAR2 SZ ES        452 53.35                             171   -0.4910 20.5 205 
 GIR2 SZ EP   1    452 38.85                             165   -0.21 7 36.5 344 
 BRR  HZ EP        452 40.74                             150   -0.0210 77.3 300 
 BRR  HN ES        452 57.74                             150    0.4110 77.3 300 
 BRR  HZ I         453  1.83         5.9 0.24            148           77.3 300 
 RUS  HZ EP        452 42.82                             145    0.1210 96.0 179 
 RUS  HN ES        453  1.17                             145    0.3910 96.0 179 
 RUS  HZ I         453  2.76         3.4 0.26            146           96.0 179 
 SPBC HZ EP        452 47.77                             129   -0.02 9  163 221 
 SPBC HN ES        453  9.55                             129   -0.29 9  163 221 
 SPBC HZ I         453 12.71         5.9 0.24            129            163 221 
 OCA  HN ES   1    453 10.35                             128   -0.06 7  165 352 
                                                                                
