 2011  1 5 0852  2.2 L   6.868 -73.274121.0  RSN  5 0.3 1.4LRSN                1
 GAP=167        0.57       2.5    14.2  6.8 -0.5024E+01  0.4137E+02 -0.3500E+01E
 Epicentro: BETULIA - SANTANDER                                                3
 ACTION:UP  11-02-08 08:38 OP:pat  STATUS:               ID:20110105085202 L   I
 2011-01-05-0847-43S.COL___135                                                 6
 STAT SP IPHASW D HRMM SECON CODA AMPLIT PERI AZIMU VELO SNR AR TRES W  DIS CAZ7
 BAR2 SZ EP   1    852 19.07                             164     0.0 7   32 162 
 BAR2 SZ ES   1    852 32.29                             164     0.0 7   32 162 
 BAR2 SZ I         852 33.47         9.0 0.25                            32 162 
 RUS  HZ EP   1    852 24.42                             135     0.0 7  110 169 
 RUS  HN ES   1    852 41.47                             135    -0.2 7  110 169 
 RUS  HZ I         852 42.67         2.2 0.19                           110 169 
 GRA  SZ EP   2    852 25.42                             131     0.3 5  124  25 
 GRA  SZ ES   2    852 43.41                             131     0.3 5  124  25 
 GRA  SZ I         852 46.35         4.2 0.35                           124  25 
 OCA  SZ EP   1    852 27.45                             125    -0.4 7  152 358 
 OCA  SZ ES   1    852 47.94                             125     0.1 7  152 358 
 OCA  SZ I         852 50.64         6.1 0.44                           152 358 
 CHI  HZ EP   2    852 38.94                             111    -0.2 4  253 192 
 CHI  HZ I         852 39.61         1.4 0.33                           253 192 
 CHI  HN ES   2    853  8.74                             111     0.9 4  253 192 
                                                                                
