 2012 12 5 0925 37.5 L   6.795 -73.164149.6  RSN  7 0.3 1.5LRSN                1
 GAP=134        0.57       3.2     3.5  4.8  0.6887E+00  0.5860E+01 -0.3243E+01E
 Epicentro: LOS SANTOS - SANTANDER                                             3
 ACTION:UPD 13-01-04 14:25 OP:ep   STATUS:               ID:20121205092537 L   I
 2012-12-05-0920-00M.COL___237                                                 6
 STAT SP IPHASW D HRMM SECON CODA AMPLIT PERI AZIMU VELO AIN AR TRES W  DIS CAZ7
 BAR2 SZ EP   1    925 57.67                             171    0.06 9 22.5 185 
 BAR2 SZ ES   1    926 13.20                             171   -0.07 9 22.5 185 
 BAR2 SZ I         926 13.88        13.0 0.26                          22.5 185 
 GIR2 SZ EP   1    925 57.77                             167    0.10 9 31.5 354 
 GIR2 SZ ES   1    926 13.79                             167    0.41 9 31.5 354 
 GIR2 SZ I         926 17.36         3.8 0.58                          31.5 354 
 PAM  SZ EP   1    926  0.52                             151    0.26 9 79.1  40 
 PAM  SN ES   1    926 17.70                             151   -0.29 9 79.1  40 
 PAM  SZ I         926 19.85         4.1 0.54                          79.1  40 
 RUS  HZ EP   1    926  1.64                             145    0.00 9  100 175 
 RUS  HN ES   1    926 20.07                             145   -0.37 9  100 175 
 RUS  HZ I         926 21.59         2.1 0.28                           100 175 
 PTB  HZ EP   2    926  4.34                             133   -0.29 5  146 259 
 PTB  HE ES   1    926 25.89                             133    0.13 8  146 259 
 PTB  HZ I         926 32.92         5.3 0.60                           146 259 
 ZAR  HZ EP        926 10.48                             123    0.4210  202 292 
 ZAR  HE ES   1    926 35.09                             123   -0.34 7  202 292 
 ZAR  HZ I         926 42.28         2.3 0.20                           202 292 
 SML  HZ EP   1    926 13.86                             118   -0.48 7  243 336 
 SML  HN ES   1    926 42.86                             118   -0.18 7  243 336 
 SML  HZ I         926 49.09         4.6 0.10                           243 336 
                                                                                
