 2010 10 5 0239 27.4 L   6.795 -73.116143.8  RSN 12 0.4 2.3LRSN                1
 GAP=162        0.69       2.8     5.2  5.2 -0.5717E+01  0.4986E+01  0.7246E+00E
 Epicentro: LOS SANTOS - SANTANDER                                             3
 ACTION:UP  11-02-18 11:07 OP:tino STATUS:               ID:20101005023927 L   I
 2010-10-05-0235-56S.COL___122                                                 6
 STAT SP IPHASW D HRMM SECON CODA AMPLIT PERI AZIMU VELO SNR AR TRES W  DIS CAZ7
 BAR2 SZ IP     D  239 46.82                             170     0.110   24 198 
 BAR2 SZ ES   1    240  1.77                             170    -0.1 7   24 198 
 BAR2 SZ I         240  6.16        36.1 0.45                            24 198 
 BRR  HZ IP     C  239 48.60                             151     0.110   74 298 
 BRR  HE ES   1    240  5.23                             151     0.3 7   74 298 
 BRR  HZ I         240  8.45        54.0 0.14                            74 298 
 RUS  HZ IP     C  239 50.87                             143     0.010  100 178 
 RUS  HZ I         239 52.03        19.9 0.15                           100 178 
 RUS  HE ES   1    240  9.09                             143    -0.1 7  100 178 
 GUE  SZ EP   2    239 52.80                             139     0.9 5  116  10 
 GRA  SZ IP        239 52.55                             137     0.210  125  16 
 GRA  SZ ES   1    240 11.50                             137    -0.4 7  125  16 
 GRA  SZ I         240 18.29        15.6 0.35                           125  16 
 OCA  SZ EP   1    239 54.91                             129    -0.7 7  161 352 
 OCA  SZ ES   1    240 17.76                             129     0.1 7  161 352 
 OCA  SZ I         240 21.64        30.5 0.34                           161 352 
 NOR  SZ EP   2    240  2.95                             118    -0.3 4  237 235 
 NOR  SN ES   2    240 30.67                             118    -0.6 4  237 235 
 ROSC BZ EP   2    240  5.78                             116     0.3 4  254 212 
 ROSC BN ES   2    240 36.03                             116     0.8 4  254 212 
 ROSC BZ I         240 42.69        14.7 0.46                           254 212 
 HEL  HZ EP   2    240  7.47                             114    -0.4 4  275 256 
 HEL  HZ I         240 45.12        14.6 0.41                           275 256 
 RREF HZ EP   1    240 14.13                             110     0.5 5  324 230 
 RREF HN ES   1    240 49.44                             110    -0.4 5  324 230 
 RREF HZ I         240 57.40        11.2 0.24                           324 230 
 TOL  SZ EP   2    240 16.15                             109     0.4 3  345 225 
 PRA  HZ EP   2    240 20.43                             106    -0.5 3  393 210 
 PRA  HE ES   2    241  2.62                             106    -0.1 3  393 210 
                                                                                
