 2010  7 5 0616 10.7 L   6.808 -73.070140.9  RSN  5 0.2 1.6LRSN                1
 GAP=167        0.47       3.6     5.9  5.7 -0.2818E+01  0.4233E+01 -0.1334E+01E
 Epicentro: LOS SANTOS - SANTANDER                                             3
 ACTION:UPD 10-12-01 15:15 OP:pat  STATUS:               ID:20100705061610 L   I
 2010-07-05-0612-24S.COL___118                                                 6
 STAT SP IPHASW D HRMM SECON CODA AMPLIT PERI AZIMU VELO AIN AR TRES W  DIS CAZ7
 BAR2 SZ EP   1    616 29.77                             169    -0.1 7   27 208 
 BAR2 SZ ES   2    616 44.60                             169    -0.2 5   27 208 
 BRR  HZ EP   1    616 31.51                             149    -0.2 7   78 295 
 BRR  HN ES   2    616 48.23                             149     0.0 5   78 295 
 BRR  HZ I         616 49.43        14.1 0.48                            78 295 
 RUS  HZ EP   1    616 33.83                             143    -0.2 7  101 181 
 RUS  HZ I         616 34.98         4.1 0.17                           101 181 
 RUS  HE ES   2    616 52.68                             143     0.5 5  101 181 
 GRA  SZ EP   1    616 35.41                             137     0.2 7  123  14 
 GRA  SZ ES   2    616 54.53                             137     0.1 5  123  14 
 HEL  HZ EP   1    616 51.91                             113     0.3 6  280 256 
 HEL  HZ I         617 29.32         2.0 0.45                           280 256 
                                                                                
