 2010  8 5 0944 39.6 L   6.661 -73.368162.7  RSN  4 0.5 1.7LRSN                1
 GAP=153        0.88      22.7    34.4 12.4  0.7149E+03 -0.7873E+02 -0.4099E+02E
 Epicentro: GALAN - SANTANDER                                                  3
 ACTION:UP  10-09-07 10:52 OP:vdl  STATUS:               ID:20100805094439 L   I
 2010-08-05-0940-00S.COL___119                                                 6
 STAT SP IPHASW D HRMM SECON CODA AMPLIT PERI AZIMU VELO SNR AR TRES W  DIS CAZ7
 BAR2 SZ EP        945  0.88                             173    -0.410   22 111 
 BRR  HZ EP        945  2.48                             157     0.310   62 322 
 BRR  HZ I         945  2.93        14.4 0.13                            62 322 
 BRR  HN ES   1    945 19.78                             157     0.0 7   62 322 
 RUS  HZ EP   1    945  5.07                             149     0.6 7   91 160 
 RUS  HN ES   2    945 23.25                             149    -0.6 5   91 160 
 RUS  HZ I         945 24.91         4.0 0.36                            91 160 
 MON  HZ EP   2    945 28.12                             111    -0.2 3  344 313 
 MON  HN ES   3    946  4.91                             111    -1.4 2  344 313 
                                                                                
