 2016 12 5 0557 21.8 L   6.774 -73.126140.5  RSN  9 0.5 1.8LRSN                1
 GAP= 92        1.05       4.5     3.3  6.5  0.1224E+01  0.3234E+01  0.1105E+02E
 Epicentro: LOS SANTOS - SANTANDER                                             3
 ACTION:UPD 17-01-11 20:12 OP:rebc STATUS:               ID:20161205055721 L   I
 OLDACT:UP  16-12-05 18:19 OP:ar   STATUS:               ID:20161205054749     3
 OLDACT:UP  16-12-05 18:19 OP:ar   STATUS:               ID:20161205054749     3
 OLDACT:REG 16-12-05 15:19 OP:ar   STATUS:               ID:20161205054749     3
 2016-12-05-0548-00M.COL___343                                                 6
 STAT SP IPHASW D HRMM SECON CODA AMPLIT PERI AZIMU VELO AIN AR TRES W  DIS CAZ7
 BAR2 EZ EP        557 40.80                             171    0.0510 21.1 197 
 BAR2 EZ ES        557 55.48                             171   -0.0510 21.1 197 
 BAR2 EZ I         557 56.81        20.5 0.28            169           21.1 197 
 BRR  HZ EP        557 42.72                             150    0.1410 74.4 300 
 BRR  HN ES        557 59.44                             150    0.6710 74.4 300 
 BRR  HZ I         558  4.01         9.5 0.14            150           74.4 300 
 PAM  EZ EP        557 43.81                             150    0.3010 78.3  37 
 PAM  EN ES        558  0.46                             150    0.0210 78.3  37 
 PAM  EZ I         558  2.59        10.2 0.52            153           78.3  37 
 PTB  HZ EP        557 48.18                             130   -0.31 9  149 260 
 PTB  HN ES        558  8.48                             130   -0.83 9  149 260 
 PTB  HZ I         558 11.75         6.0 0.26            131            149 260 
 TAM  HZ EP        557 49.24                             130    0.43 9  152 104 
 TAM  HN ES        558  9.09                             130   -0.77 9  152 104 
 ZAR  HZ EP        557 53.88                             121   -0.35 8  207 293 
 ZAR  HN ES        558 19.42                             121   -0.10 8  207 293 
 ZAR  HZ I         558 25.64         8.7 0.40            122            207 293 
 CHI  HZ EP        557 58.79                             116   -0.19 8  246 196 
 CHI  HN ES        558 28.29                             116    0.31 8  246 196 
 CHI  HZ I         558 31.53         2.1 0.24            117            246 196 
 PRA  HZ EP        558 15.46                             106    0.47 6  391 210 
 PRA  HE ES   1    558 57.74                             106    1.27 4  391 210 
 PRA  HZ I         559  2.86         1.9 0.29            107            391 210 
 SJC  HZ EP   9    558 12.27                             105   -5.35 0  413 327 
 SJC  HN ES   0    558 56.02                             104    0.22 6  413 327 
 SJC  HZ I         559  0.82         3.0 0.62            106            413 327 
                                                                                
