 2017  2 5 0133 16.1 L   6.732 -73.237144.0  RSN  4 0.4 1.2LRSN                1
 GAP=210        0.68       5.5     5.9  8.2  0.1599E+02  0.3918E+01 -0.2064E+01E
 Epicentro: VILLANUEVA - SANTANDER                                             3
 ACTION:UPD 17-05-24 15:32 OP:jn   STATUS:               ID:20170205013316 L   I
 OLDACT:DUP 17-02-05 14:05 OP:dnl  STATUS:               ID:20170205012745d    3
 OLDACT:UP  17-02-05 14:04 OP:dnl  STATUS:               ID:20170205012744     3
 OLDACT:REG 17-02-05 13:14 OP:dnl  STATUS:               ID:20170205012744     3
 2017-02-05-0128-00M.COL___328                                                 6
 STAT SP IPHASW D HRMM SECON CODA AMPLIT PERI AZIMU VELO AIN AR TRES W  DIS CAZ7
 BAR2 EZ EP   4    133 37.17                             173    1.73 0 16.6 159 
 BAR2 EZ ES   2    133 49.54                             173   -0.95 5 16.6 159 
 BAR2 EZ I         133 51.70         4.1 0.28            178           16.6 159 
 BRR  HZ EP        133 36.81                             154   -0.0510 66.9 308 
 BRR  HN ES        133 53.26                             154    0.2410 66.9 308 
 BRR  HZ I         133 59.74         5.0 0.54            154           66.9 308 
 RUS  HZ EP   2    133 39.60                             145    0.33 5 94.3 170 
 RUS  HN ES        133 57.44                             145    0.1210 94.3 170 
 RUS  HZ I         133 58.70         2.1 0.24            152           94.3 170 
 PTB  HZ EP   2    133 41.33                             134   -0.63 5  137 261 
 PTB  HN ES        134  2.08                             134   -0.02 9  137 261 
 PTB  HZ I         134  4.78         1.7 0.14            138            137 261 
                                                                                
