 2017  9 5 0027 21.4 L   6.755 -73.123144.0  RSN 12 0.3 2.0LRSN                1
 GAP=115        0.65       2.5     2.7  3.7 -0.6000E+00  0.3164E+01  0.1239E+01E
 Epicentro: LOS SANTOS - SANTANDER                                             3
 ACTION:UPD 17-10-05 19:09 OP:rebc STATUS:               ID:20170905002721 L   I
 OLDACT:UP  17-09-05 14:44 OP:leo  STATUS:               ID:20170905001743     3
 OLDACT:UP  17-09-05 14:35 OP:leo  STATUS:               ID:20170905001743     3
 OLDACT:UP  17-09-05 14:24 OP:leo  STATUS:               ID:20170905001743     3
 OLDACT:UP  17-09-05 14:11 OP:leo  STATUS:               ID:20170905001743     3
 OLDACT:REG 17-09-05 12:55 OP:dnl  STATUS:               ID:20170905001743     3
 2017-09-05-0018-00M.COL___429                                                 6
 STAT SP IPHASW D HRMM SECON CODA AMPLIT PERI AZIMU VELO AIN AR TRES W  DIS CAZ7
 BAR2 EZ EP        027 40.57                             172   -0.1810 19.2 200 
 BAR2 EZ ES        027 55.61                             172   -0.2210 19.2 200 
 BAR2 EZ I         027 56.59        29.7 0.20            168           19.2 200 
 BRR  HZ EP        027 42.61                             151   -0.0310 75.9 301 
 BRR  HN ES        027 59.68                             151    0.4810 75.9 301 
 BRR  HZ I         028  0.66        32.4 0.18            149           75.9 301 
 PAM  EZ IP     C  027 43.58                             150   -0.0010 79.8  36 
 PAM  EN ES        028  0.86                             150   -0.0110 79.8  36 
 PAM  EZ I         028  2.29        10.8 0.44            155           79.8  36 
 RUS  HZ EP        027 44.45                             145   -0.1710 95.5 177 
 RUS  HN ES        028  3.04                             145    0.3210 95.5 177 
 RUS  HZ I         028  4.39        15.4 0.26            145           95.5 177 
 SPBC HZ EP        027 49.51                             129   -0.05 9  161 221 
 SPBC HN ES        028 11.28                             129   -0.24 9  161 221 
 SPBC HZ I         028 18.21        14.8 0.22            128            161 221 
 YPLC HZ EP   1    027 50.73                             127    0.20 7  171 151 
 ZAR  HZ EP        027 53.71                             122   -0.47 8  208 293 
 ZAR  HE ES        028 19.85                             122    0.11 8  208 293 
 ZAR  HZ I         028 27.39        13.6 0.26            121            208 293 
 NOR  HZ EP        027 57.23                             118    0.28 8  234 236 
 NOR  HN ES        028 24.87                             118    0.19 8  234 236 
 NOR  HZ I         028 30.92        12.2 0.22            118            234 236 
 HEL  HZ EP   3    028  3.50                             114    1.82 2  273 257 
 HEL  HN ES   3    028 33.27                             114    0.19 2  273 257 
 HEL  HZ I         028 38.66         5.3 0.24            114            273 257 
 GUY2CHZ EP   4    028  7.54                             112    2.69 0  300 236 
 GUY2CHN ES   1    028 38.05                             112   -0.69 5  300 236 
 GUY2CHZ I         028 45.80         4.6 0.62                           300 236 
 DBB  EZ EP        028  8.96                             109   -0.19 7  342 275 
 DBB  EN ES   4    028 43.96                             109   -2.43 0  342 275 
 DBB  EZ I         028 46.61         3.7 0.30            109            342 275 
 PRA  HZ EP        028 14.90                             106    0.39 6  389 210 
 PRA  HE ES   4    028 58.64                             106    2.71 0  389 210 
 PRA  HZ I         029  2.53         1.8 0.20            107            389 210 
                                                                                
