 2016  6 5 0358 31.3 L   6.720 -73.213153.6  RSN  4 0.2 0.9LRSN                1
 GAP=219        0.57       4.6     4.3  4.6  0.9390E+01  0.1972E+01  0.6560E+00E
 Epicentro: VILLANUEVA - SANTANDER                                             3
 ACTION:UPD 16-07-21 22:15 OP:rebc STATUS:               ID:20160605035831 L   I
 OLDACT:DUP 16-06-05 17:26 OP:edw  STATUS:               ID:20160605035742d    3
 2016-06-05-0357-40M.COL___325                                                 6
 STAT SP IPHASW D HRMM SECON CODA AMPLIT PERI AZIMU VELO AIN AR TRES W  DIS CAZ7
 BAR2 EZ EP        358 51.37                             174   -0.3410 14.6 166 
 BAR2 EZ ES        359  7.46                             174   -0.1910 14.6 166 
 BAR2 EZ I         359  7.50         1.8 0.26                          14.6 166 
 BRR  HZ EP        358 53.48                             154    0.2910 69.8 308 
 BRR  HN ES        359 10.43                             154    0.1310 69.8 308 
 RUS  HZ EP        358 55.30                             148    0.0410 92.6 171 
 RUS  HN ES        359 14.20                             148    0.2210 92.6 171 
 RUS  HZ I         359 14.81         1.4 0.22                          92.6 171 
 PTB  HZ EP        358 58.06                             136   -0.06 9  139 262 
 PTB  HN ES        359 18.95                             136   -0.11 9  139 262 
 PTB  HZ I         359 22.01         1.0 0.18                           139 262 
                                                                                
