 2016 12 5 0107 43.7 L   6.788 -73.143146.2  RSN 13 0.4 2.2LRSN                1
 GAP= 99        0.84       3.3     2.5  4.8 -0.4544E+00  0.1485E+01  0.7542E+01E
 Epicentro: LOS SANTOS - SANTANDER                                             3
 ACTION:UPD 17-01-11 20:12 OP:rebc STATUS:               ID:20161205010743 L   I
 OLDACT:UP  16-12-05 16:35 OP:ar   STATUS:               ID:20161205005747     3
 OLDACT:REG 16-12-05 14:07 OP:ar   STATUS:               ID:20161205005747     3
 2016-12-05-0058-00M.COL___351                                                 6
 STAT SP IPHASW D HRMM SECON CODA AMPLIT PERI AZIMU VELO AIN AR TRES W  DIS CAZ7
 BAR2 EZ EP        1 8  3.32                             171   -0.0410 22.0 191 
 BAR2 EZ ES        1 8 18.32                             171   -0.3710 22.0 191 
 BAR2 EZ I         1 8 21.13        56.5 0.32            168           22.0 191 
 BRR  HZ EP        1 8  5.19                             152    0.2410 72.1 299 
 BRR  HN ES        1 8 21.86                             152    0.3410 72.1 299 
 BRR  HZ I         1 8 26.13        28.8 0.28            153           72.1 299 
 PAM  EZ EP        1 8  6.13                             151    0.1210 78.2  39 
 PAM  EN ES        1 8 23.44                             151    0.0210 78.2  39 
 PAM  EZ I         1 8 26.48        15.5 0.48            149           78.2  39 
 PTB  HZ EP        1 8  9.93                             132   -0.78 9  148 259 
 PTB  HE ES        1 8 31.80                             132    0.03 9  148 259 
 PTB  HZ I         1 8 33.68        10.1 0.16            131            148 259 
 TAM  HZ EP        1 8 11.73                             131    0.38 9  154 105 
 TAM  HZ I         1 8 32.55         9.8 0.46            127            154 105 
 TAM  HN ES        1 8 32.81                             131   -0.11 9  154 105 
 ZAR  HZ EP        1 8 16.44                             122    0.18 9  205 292 
 ZAR  HN ES        1 8 41.52                             122   -0.13 9  205 292 
 ZAR  HZ I         1 8 46.45        16.4 0.22            121            205 292 
 NOR  HZ EP        1 8 19.40                             119    0.00 8  234 235 
 NOR  HN ES        1 8 46.83                             119   -0.41 8  234 235 
 NOR  HZ I         1 8 50.09         9.2 0.28            117            234 235 
 CHI  HZ EP        1 8 21.69                             117    0.40 8  247 195 
 CHI  HE ES        1 8 50.86                             117    0.25 8  247 195 
 CHI  HZ I         1 8 54.42         8.6 0.44            115            247 195 
 ROSC BZ EP   4    1 8 24.01                             117    2.28 0  252 211 
 ROSC BN ES   4    1 8 53.93                             117    2.53 0  252 211 
 ROSC BZ I         1 8 58.04        20.5 0.45            115            252 211 
 PTGC HZ EP        1 8 26.46                             112   -0.96 7  307 159 
 PTGC HN ES   4    1 8 59.97                             112   -1.55 0  307 159 
 ELA  HZ EP   4    1 8 33.13                             110    2.64 0  328 230 
 ELA  HE ES   4    1 9 10.40                             110    3.41 0  328 230 
 ELA  HZ I         1 9 19.97         8.2 0.46            109            328 230 
 PRA  HZ EP        1 8 37.16                             107    0.05 6  391 210 
 PRA  HN ES        1 9 19.04                             107    0.26 6  391 210 
 PRA  HZ I         1 9 25.57         9.8 0.34            105            391 210 
 ORTC HZ EP        1 8 37.66                             106    0.13 6  395 216 
 ORTC HE ES        1 9 20.26                             106    0.75 6  395 216 
 ORTC HZ I         1 9 26.94         4.3 0.62            105            395 216 
                                                                                
