 2017 11 5 0610 32.9 L   7.049 -73.344115.4  RSN 10 0.5 1.9LRSN                1
 GAP=138        1.11       3.8     3.4  7.3  0.2445E+01  0.7607E+01  0.2778E+01E
 Epicentro: LEBRIJA - SANTANDER                                                3
 ACTION:UPD 17-12-12 19:52 OP:rebc STATUS:               ID:20171105061032 L   I
 OLDACT:UP  17-11-05 18:22 OP:dnl  STATUS:               ID:20171105060740     3
 OLDACT:UP  17-11-05 18:22 OP:dnl  STATUS:               ID:20171105060740     3
 OLDACT:REG 17-11-05 15:56 OP:dnl  STATUS:               ID:20171105060740     3
 2017-11-05-0608-00M.COL___426                                                 6
 STAT SP IPHASW D HRMM SECON CODA AMPLIT PERI AZIMU VELO AIN AR TRES W  DIS CAZ7
 BRR  HZ IP     D  610 48.61                             159   -0.5710 41.1 279 
 BRR  HE ES        611  1.98                             159    0.1210 41.1 279 
 BRR  HZ I         611  2.54        20.5 0.14            139           41.1 279 
 BAR2 EZ IP     D  610 50.01                             154   -0.1410 53.6 160 
 BAR2 EZ ES        611  3.79                             154    0.2110 53.6 160 
 BAR2 EZ I         611  6.03        27.0 0.30            138           53.6 160 
 PAM  EZ EP        610 51.69                             144   -0.3810 78.1  66 
 PAM  EN ES        611  7.18                             144    0.1810 78.1  66 
 PAM  EZ I         611  8.55        10.9 0.18            121           78.1  66 
 RUS  HZ EP   2    610 56.01                             128   -0.58 5  131 167 
 RUS  HE ES        611 15.04                             128   -0.0110  131 167 
 PTB  HZ EP   4    610 55.33                             127   -1.03 0  135 245 
 PTB  HE ES        611 13.99                             127   -0.64 9  135 245 
 PTB  HZ I         611 15.20         5.8 0.14            106            135 245 
 SPBC HZ EP   4    611  1.67                             119    1.22 0  174 208 
 SPBC HN ES        611 21.45                             119   -0.47 9  174 208 
 SPBC HZ I         611 29.64         8.1 0.14            102            174 208 
 ZAR  HZ EP        610 59.92                             119   -0.42 9  174 286 
 ZAR  HN ES        611 22.51                             119    0.78 9  174 286 
 ZAR  HZ I         611 33.64        12.3 0.12            101            174 286 
 YPLC HN EP   2    611  4.58                             114    0.06 4  212 150 
 YPLC HE ES        611 30.04                             114    0.88 8  212 150 
 YPLC HN I         611 31.56        12.8 0.32             99            212 150 
 NOR  HZ EP   4    611  8.62                             111    1.44 0  235 226 
 NOR  HN ES        611 34.37                             111    0.47 8  235 226 
 NOR  HZ I         611 39.68         4.4 0.28             98            235 226 
 URE  HZ EP   2    611  9.73                             109    0.51 4  254 288 
 URE  HE ES        611 38.14                             109    0.60 8  254 288 
 URE  HZ I         611 44.39         8.8 0.18             97            254 288 
                                                                                
