 2012  2 5 0802 32.7 L   6.752 -73.195145.8  RSN 11 0.5 1.6LRSN                1
 GAP=172        0.97       3.9     5.1  8.3 -0.2046E+01  0.5704E+01  0.4602E+01E
 ACTION:UP  12-03-07 16:27 OP:epov STATUS:               ID:20120205080232 L   I
 2012-02-05-0800-00M.COL___188                                                 6
 STAT SP IPHASW D HRMM SECON CODA AMPLIT PERI AZIMU VELO SNR AR TRES W  DIS CAZ7
 BAR2 SZ EP   1    8 2 51.89                             173   -0.30 7 17.7 175 
 GIR2 SZ EP   1    8 2 52.10                             165   -0.38 7 36.1   0 
 BRR  HZ EP        8 2 53.80                             153    0.0910 69.3 305 
 BRR  HE ES   1    8 3 10.89                             153    0.77 7 69.3 305 
 BRR  HZ I         8 3 14.13        27.9 0.16                          69.3 305 
 RUS  HZ EP   1    8 2 55.77                             145   -0.31 7 95.8 173 
 RUS  HN ES   1    8 3 14.00                             145   -0.34 7 95.8 173 
 RUS  HZ I         8 3 16.27        11.2 0.50                          95.8 173 
 PTB  HZ EP   1    8 2 58.42                             133   -0.64 7  141 261 
 PTB  HN ES   1    8 3 18.80                             133   -0.85 7  141 261 
 PTB  HZ I         8 3 21.92         0.1 0.09                           141 261 
 OCA  SZ EP   1    8 3  1.74                             129    0.32 7  165 355 
 OCA  SZ ES   1    8 3 24.40                             129    0.55 7  165 355 
 ZAR  HZ EP   1    8 3  4.29                             123   -0.51 6  201 294 
 ZAR  HN ES   1    8 3 29.44                             123   -0.43 6  201 294 
 ZAR  HZ I         8 3 35.68         8.5 0.15                           201 294 
 NOR  SZ EP   1    8 3  7.65                             119    0.06 6  227 235 
 NOR  SN ES        8 3 35.71                             119    0.88 8  227 235 
 CHI  HZ EP   1    8 3  9.81                             118    0.16 6  242 194 
 CHI  HN ES   1    8 3 39.09                             118    0.58 6  242 194 
 CHI  HZ I         8 3 45.18         5.5 0.41                           242 194 
 HEL  HZ EP   1    8 3 12.84                             115    0.69 6  265 257 
 HEL  HN ES   1    8 3 42.35                             115   -0.59 6  265 257 
 HEL  HZ I         8 3 49.31         5.0 0.19                           265 257 
 RREF HZ EP   1    8 3 18.14                             111    0.20 5  314 229 
 RREF HN ES   1    8 3 53.20                             111   -0.05 5  314 229 
                                                                                
