 2017 10 5 0611 58.6 L   6.826 -73.140145.6  RSN 22 0.6 2.5LRSN                1
 GAP= 66        1.21       3.4     3.3  5.9 -0.4627E+00  0.7925E+01  0.1843E+00E
 Epicentro: LOS SANTOS - SANTANDER                                             3
 ACTION:UPD 17-11-07 19:28 OP:rebc STATUS:               ID:20171005061158 L   I
 OLDACT:UP  17-10-05 17:10 OP:osc  STATUS:               ID:20171005060743d    3
 OLDACT:DUP 17-10-05 16:47 OP:osc  STATUS:               ID:20171005060743d    3
 2017-10-05-0608-00M.COL___444                                                 6
 STAT SP IPHASW D HRMM SECON CODA AMPLIT PERI AZIMU VELO AIN AR TRES W  DIS CAZ7
 BAR2 EZ EP        612 18.16                             169   -0.1510 26.3 190 
 BAR2 EZ ES        612 33.24                             169   -0.4210 26.3 190 
 BAR2 EZ I         612 34.23        77.8 0.20            171           26.3 190 
 PAM  EZ EP        612 21.10                             151    0.4210 74.7  41 
 PAM  EN ES        612 38.33                             151    0.4610 74.7  41 
 PAM  EZ I         612 40.64        39.0 0.45            148           74.7  41 
 RUS  HZ EP        612 22.17                             143   -0.4110  103 177 
 RUS  HE ES        612 40.49                             143   -0.7610  103 177 
 RUS  HZ I         612 41.45        32.6 0.40            142            103 177 
 TAM  HZ EP        612 26.51                             130    0.20 9  155 106 
 TAM  HZ I         612 47.34        24.1 0.44            128            155 106 
 TAM  HE ES        612 47.94                             130    0.04 9  155 106 
 SPBC HZ EP        612 27.31                             128   -0.06 9  166 219 
 SPBC HE ES        612 49.41                             128   -0.38 9  166 219 
 SPBC HZ I         612 54.11        53.7 0.32            126            166 219 
 YPLC HZ EP        612 28.52                             126   -0.12 9  179 152 
 YPLC HN ES        612 52.25                             126    0.21 9  179 152 
 ZAR  HZ EP        612 31.91                             122    0.89 9  204 291 
 ZAR  HE ES        612 56.99                             122    0.71 9  204 291 
 ZAR  HZ I         613  2.67        33.3 0.11            119            204 291 
 TABC EZ EP        612 34.04                             119   -0.63 8  233 210 
 TABC EZ ES        613  3.77                             119    0.98 8  233 210 
 TABC EZ I         613  9.93        33.0 0.46            117            233 210 
 NOR  HZ EP        612 34.78                             118    0.19 8  237 234 
 NOR  HE ES        613  2.16                             118   -0.48 8  237 234 
 NOR  HZ I         613  9.09        27.1 0.27            116            237 234 
 CHI  HZ EP        612 36.18                             117   -0.47 8  252 195 
 CHI  HE ES        613  5.80                             117   -0.50 8  252 195 
 CHI  HZ I         613 11.68        19.3 0.26            114            252 195 
 ROSC BZ EP        612 37.87                             116    0.82 8  256 211 
 ROSC BE ES        613  7.96                             116    0.94 8  256 211 
 ROSC BZ I         613 14.54        28.1 0.45            114            256 211 
 URE  HZ EP        612 39.14                             113   -0.50 7  283 291 
 URE  HE ES   4    613 10.20                             113   -1.43 0  283 291 
 URE  HZ I         613 23.93        24.2 0.20            111            283 291 
 GUY2CHZ EP   9    612 43.62                             112    1.14 0  303 234 
 GUY2CHE ES        613 17.95                             112    0.13 7  303 234 
 GUY2CHZ I         613 23.34        17.8 0.40                           303 234 
 ELA  HZ EP   3    612 47.47                             110    1.72 2  332 229 
 ELA  HN ES   4    613 26.15                             110    3.65 0  332 229 
 ELA  HZ I         613 27.51        11.4 0.40            108            332 229 
 DBB  EZ EP   4    612 48.84                             109    2.69 0  340 274 
 DBB  EN ES        613 22.46                             109   -0.76 7  340 274 
 DBB  EZ I         613 25.38         7.1 0.19            107            340 274 
 ARGC HZ EP   3    612 48.98                             108    0.99 2  357 340 
 ARGC HE ES   4    613 29.11                             108    2.62 0  357 340 
 ARGC HZ I         613 42.11         3.7 0.26            106            357 340 
 ANIL HZ EP        612 49.43                             108    0.71 6  360 224 
 ANIL HE ES        613 28.75                             108    0.96 6  360 224 
 PRA  HZ EP        612 51.93                             106   -0.55 6  395 209 
 PRA  HE ES   4    613 32.37                             106   -2.11 0  395 209 
 PRA  HZ I         613 40.82        16.7 0.40            104            395 209 
 ORTC HZ EP        612 53.06                             106    0.19 6  398 216 
 ORTC HN ES   4    613 36.82                             106    1.65 0  398 216 
 ORTC HZ I         613 42.49        10.6 0.16            104            398 216 
 APAC HZ EP        612 51.52                             106   -1.26 6  398 288 
 APAC HE ES        613 34.94                             106   -0.08 6  398 288 
 SJC  HZ EP        612 52.92                             106   -1.02 6  407 327 
 SJC  HE ES   4    613 27.29                             106   -9.80 0  407 327 
 PAL  HZ EP        612 54.35                             106    0.32 6  408 239 
 PAL  HE ES        613 36.90                             106   -0.33 6  408 239 
 PAL  HZ I         613 41.29         8.9 0.18            104            408 239 
 CRJC HZ EP   4    612 56.75                             103   -4.03 0  465   3 
 CRJC HE ES   4    613 46.30                             103   -2.95 0  465   3 
 MACC HZ EP   4    613  5.16                             101   -2.53 0  524 189 
 MACC HN ES   4    613 58.15                             101   -3.41 0  524 189 
                                                                                
