 2010 12 5 0313 44.4 L   6.822 -73.188138.0  RSN  9 0.3 2.6LRSN                1
 GAP=159        0.51       2.6     4.8  3.9 -0.7812E+01  0.7222E+01 -0.1730E+00E
 Epicentro: ZAPATOCA - SANTANDER                                               3
 ACTION:UP  11-01-14 15:22 OP:pat  STATUS:               ID:20101205031344 L   I
 2010-12-05-0310-16S.COL___133                                                 6
 STAT SP IPHASW D HRMM SECON CODA AMPLIT PERI AZIMU VELO SNR AR TRES W  DIS CAZ7
 BAR2 SZ IP        314  3.36                             169     0.210   26 179 
 BAR2 SZ ES   1    314 17.74                             169    -0.1 7   26 179 
 BAR2 SZ I         314 19.46       119.5 0.28                            26 179 
 GIR2 SZ EP   3    314  1.83                             168    -1.3 2   28 359 
 GIR2 SZ ES   1    314 17.48                             168    -0.2 7   28 359 
 GRA  SZ IP        314  9.10                             135     0.210  125  20 
 GRA  SZ ES   1    314 28.23                             135     0.2 7  125  20 
 GRA  SZ I         314 29.89        63.5 0.28                           125  20 
 OCA  SZ EP        314 11.67                             128    -0.2 9  157 355 
 OCA  SZ ES   1    314 33.18                             128    -0.1 7  157 355 
 OCA  SZ I         314 37.32        38.8 0.22                           157 355 
 NOR  SZ EP   2    314 19.16                             117    -0.3 4  232 233 
 NOR  SE ES   2    314 46.54                             117    -0.3 4  232 233 
 CHI  HZ EP   2    314 21.44                             115    -0.4 4  250 194 
 CHI  HE ES   2    314 50.78                             115    -0.3 4  250 194 
 CHI  HZ I         314 54.84        19.0 0.96                           250 194 
 HEL  HZ EP   1    314 23.86                             113     0.0 6  268 255 
 HEL  HE ES   2    314 54.45                             113    -0.1 4  268 255 
 HEL  HZ I         315  1.76        32.5 0.42                           268 255 
 RREF HZ EP        314 30.16                             109     0.1 7  320 228 
 RREF HE ES   1    315  6.11                             109     0.5 5  320 228 
 RREF HZ I         315 14.32        22.0 0.31                           320 228 
 PRA  HZ EP        314 37.46                             105    -0.2 6  392 209 
 PRA  HN ES   1    315 19.50                             105     0.3 4  392 209 
                                                                                
