 2013 12 5 0144 41.0 L   6.793 -73.146140.8  RSN 14 0.4 2.0LRSN                1
 GAP=137        1.08       2.6     3.8  5.5 -0.1883E+01  0.5935E+01  0.7263E+00E
 Epicentro: LOS SANTOS - SANTANDER                                             3
 ACTION:UPD 14-01-13 10:15 OP:ep   STATUS:               ID:20131205014441 L   I
 OLDACT:REG 13-12-05 08:07 OP:carl STATUS:               ID:20131205014000     3
 2013-12-05-0140-00M.COL___285                                                 6
 STAT SP IPHASW D HRMM SECON CODA AMPLIT PERI AZIMU VELO AIN AR TRES W  DIS CAZ7
 BAR2 SZ IP     C  145  0.16                             170    0.1010 22.5 190 
 BAR2 SZ ES        145 14.53                             170   -0.3710 22.5 190 
 BAR2 SZ I         145 15.81        63.1 0.32            169           22.5 190 
 BRR  HZ IP     C  145  2.04                             152    0.3610 71.5 299 
 BRR  HN ES        145 18.65                             152    0.8810 71.5 299 
 BRR  HZ I         145 22.07        24.3 0.14            148           71.5 299 
 PAM  SZ EP        145  3.07                             150    0.2910 78.1  39 
 PAM  SN ES        145 20.08                             150    0.3510 78.1  39 
 RUS  HZ EP        145  4.14                             143   -0.1110 99.8 176 
 RUS  HE ES        145 22.05                             143   -0.3010 99.8 176 
 RUS  HZ I         145 24.24         7.9 0.28            146           99.8 176 
 PTB  HN ES        145 27.14                             131   -1.16 9  148 259 
 PTB  HZ I         145 33.49        14.5 0.30            130            148 259 
 OCA  HZ EP        145  8.55                             128   -0.50 9  161 353 
 OCA  HN ES        145 30.40                             128   -0.50 9  161 353 
 OCA  HZ I         145 38.02        16.5 0.48            129            161 353 
 SPBC HZ EP        145  9.31                             128    0.21 9  162 219 
 SPBC HN ES        145 31.18                             128    0.19 9  162 219 
 SPBC HZ I         145 33.00        14.9 0.22            128            162 219 
 ZAR  HZ EP        145 13.63                             121    0.43 9  204 292 
 ZAR  HE ES        145 38.67                             121    0.40 9  204 292 
 ZAR  HZ I         145 46.71         9.9 0.26            121            204 292 
 NOR  HZ EP        145 16.79                             117    0.36 8  234 235 
 NOR  HN ES        145 43.99                             117   -0.04 8  234 235 
 NOR  HZ I         145 48.31         7.5 0.22            118            234 235 
 SML  HZ EP        145 16.86                             116   -0.62 8  244 335 
 SML  HN ES        145 45.75                             116   -0.14 8  244 335 
 SML  HZ I         145 51.23        18.9 0.10            117            244 335 
 CHI  HZ EP        145 18.08                             116   -0.30 8  248 195 
 CHI  HN ES        145 47.52                             116    0.01 8  248 195 
 CHI  HZ I         145 51.31         2.9 0.38            118            248 195 
 HEL  HN ES        145 51.77                             114   -0.36 8  272 256 
 HEL  HZ I         146  0.50         5.2 0.64            114            272 256 
 GUY2CHZ EP        145 24.74                             111    0.37 7  301 235 
 GUY2CHN ES        145 58.53                             111    0.37 7  301 235 
 GUY2CHZ I         146 10.48         3.7 0.56                           301 235 
 PRA  HN ES        146 15.81                             106   -0.05 6  391 210 
 PRA  HZ I         146 21.81         2.9 0.22            107            391 210 
                                                                                
