 2014  9 5 0301 45.1 L   6.769 -73.188152.0  RSN  5 0.4 1.4LRSN                1
 GAP=230        0.90       5.5     7.2  8.7  0.1623E+02 -0.9033E+00  0.3610E+01E
 Epicentro: LOS SANTOS - SANTANDER                                             3
 ACTION:UPD 14-10-03 23:02 OP:nd   STATUS:               ID:20140905030145 L   I
 OLDACT:UP  14-09-05 17:44 OP:mh   STATUS:               ID:20140905025818     3
 OLDACT:REG 14-09-05 13:25 OP:mh   STATUS:               ID:20140905025818     3
 2014-09-05-0258-18M.COL___269                                                 6
 STAT SP IPHASW D HRMM SECON CODA AMPLIT PERI AZIMU VELO AIN AR TRES W  DIS CAZ7
 BRR  HZ EP        3 2  6.77                             155    0.0010 68.9 303 
 BRR  HN ES        3 2 24.16                             155    0.4710 68.9 303 
 BRR  HZ I         3 3  2.65         6.0 0.53            153           68.9 303 
 RUS  HZ EP   1    3 2  9.02                             146   -0.21 7 97.6 173 
 RUS  HN ES   1    3 2 27.54                             146   -0.54 7 97.6 173 
 RUS  HZ I         3 2 29.75         1.6 0.23            171           97.6 173 
 PTB  HZ EP        3 2 11.74                             135   -0.35 9  142 260 
 PTB  HN ES   1    3 2 32.64                             135   -0.52 7  142 260 
 PTB  HZ I         3 2 40.23         3.8 0.49            152            142 260 
 SPBC HZ EP        3 2 14.01                             132    0.48 9  158 218 
 SPBC HN ES        3 2 36.10                             132    0.36 9  158 218 
 SPBC HZ I         3 2 38.97         3.4 0.18            161            158 218 
 ZAR  HN ES        3 2 42.76                             124   -0.25 9  201 294 
                                                                                
