 2013  8 5 0713 44.0 L   6.786 -73.226153.3  RSN  4 0.3 1.1LRSN                1
 GAP=273        0.70       5.5     8.4  8.0 -0.1179E+01 -0.1152E+02  0.7637E+01E
 Epicentro: ZAPATOCA - SANTANDER                                               3
 ACTION:UPD 14-01-14 08:59 OP:ep   STATUS:               ID:20130805071344 L   I
 OLDACT:REG 13-08-05 08:00 OP:jn   STATUS:               ID:20130805070959     3
 2013-08-05-0709-59M.COL___270                                                 6
 STAT SP IPHASW D HRMM SECON CODA AMPLIT PERI AZIMU VELO AIN AR TRES W  DIS CAZ7
 BRR  HZ EP        714  5.36                             156   -0.2110 64.3 303 
 BRR  HE ES        714 22.56                             156    0.1310 64.3 303 
 BRR  HZ I         714 25.91         2.0 0.38            147           64.3 303 
 PTB  HN ES   1    714 30.98                             136   -0.69 7  139 259 
 PTB  HZ I         714 38.01         1.8 0.50            130            139 259 
 SPBC HZ EP   1    714 12.44                             132    0.00 7  157 217 
 SPBC HN ES   1    714 35.05                             132    0.41 7  157 217 
 SPBC HZ I         714 40.04         1.6 0.30            128            157 217 
 ZAR  HZ EP   1    714 16.35                             125    0.21 6  196 294 
 ZAR  HN ES   1    714 41.58                             125    0.34 6  196 294 
 ZAR  HZ I         714 48.38         1.4 0.36            122            196 294 
                                                                                
