 2017  2 5 0145 28.2 L   6.122 -73.798109.8  RSN  6 0.4 1.4LRSN                1
 GAP=135        0.77       4.8     4.0  8.8  0.6872E+01  0.4616E+01  0.9491E+01E
 Epicentro: EL PENON - SANTANDER                                               3
 ACTION:UPD 17-05-24 15:32 OP:jn   STATUS:               ID:20170205014528 L   I
 OLDACT:UP  17-02-05 14:37 OP:dnl  STATUS:               ID:20170205013748     3
 OLDACT:UP  17-02-05 14:36 OP:dnl  STATUS:               ID:20170205013748     3
 OLDACT:UP  17-02-05 14:36 OP:dnl  STATUS:               ID:20170205013748     3
 OLDACT:REG 17-02-05 13:15 OP:dnl  STATUS:               ID:20170205013748     3
 2017-02-05-0138-00M.COL___328                                                 6
 STAT SP IPHASW D HRMM SECON CODA AMPLIT PERI AZIMU VELO AIN AR TRES W  DIS CAZ7
 RUS  HZ EP        145 47.48                             140    0.2910 83.1 108 
 RUS  HN ES   2    146  1.47                             140   -0.52 5 83.1 108 
 BAR2 EZ EP   4    145 45.44                             139   -1.60 0 85.6  53 
 BAR2 EZ ES   2    146  2.11                             139    0.39 5 85.6  53 
 BAR2 EZ I         146  3.33         9.9 0.32            138           85.6  53 
 PTB  HZ EP   2    145 45.85                             139   -0.93 5 86.3 302 
 PTB  HN ES        146  1.09                             139   -0.1610 86.3 302 
 PTB  HZ I         146  2.24         3.9 0.10            137           86.3 302 
 BRR  HZ EP        145 48.35                             131   -0.3910  109   5 
 BRR  HN ES   2    146  5.04                             131    0.29 5  109   5 
 BRR  HZ I         146  7.91         8.3 0.38            130            109   5 
 NOR  HZ EP        145 51.45                             125    0.3010  134 243 
 NOR  HN ES   4    146  6.44                             125   -2.61 0  134 243 
 NOR  HZ I         146  9.59         3.6 0.12            126            134 243 
 ZAR  HZ EP   2    145 56.84                             115   -0.37 4  192 322 
 ZAR  HE ES        146 20.15                             115    0.32 9  192 322 
 ZAR  HZ I         146 24.58         3.1 0.36            114            192 322 
                                                                                
