 2017  1 5 0859 54.1 L   6.827 -73.138146.1  RSN  6 0.1 1.1LRSN                1
 GAP=136        0.42       2.2     1.9  3.3  0.4308E+00  0.1389E+01  0.4311E+00E
 Epicentro: LOS SANTOS - SANTANDER                                             3
 ACTION:UPD 17-05-22 15:55 OP:jn   STATUS:               ID:20170105085954 L   I
 OLDACT:REG 17-01-05 13:08 OP:lv   STATUS:               ID:20170105085741     3
 2017-01-05-0858-00M.COL___368                                                 6
 STAT SP IPHASW D HRMM SECON CODA AMPLIT PERI AZIMU VELO AIN AR TRES W  DIS CAZ7
 BAR2 EZ EP        9 0 13.69                             169   -0.1610 26.4 191 
 BAR2 EZ ES   4    9 0 26.19                             169   -3.05 0 26.4 191 
 BRR  HZ EP        9 0 15.45                             153    0.1910 70.6 296 
 BRR  HN ES        9 0 31.85                             153    0.0910 70.6 296 
 PAM  EZ EP        9 0 16.23                             152    0.0310 74.6  40 
 PAM  EE ES        9 0 33.36                             152   -0.0610 74.6  40 
 PAM  EZ I         9 0 35.38         3.5 0.52            152           74.6  40 
 RUS  HZ EP        9 0 18.27                             143    0.1710  103 177 
 RUS  HN ES        9 0 36.74                             143   -0.0810  103 177 
 PTB  HZ EP        9 0 20.99                             132   -0.24 9  149 258 
 PTB  HE ES        9 0 42.51                             132    0.12 9  149 258 
 PTB  HZ I         9 0 44.32         0.9 0.12            132            149 258 
 ZAR  HZ EP        9 0 26.63                             122    0.09 9  204 291 
 ZAR  HE ES        9 0 51.65                             122   -0.19 9  204 291 
 ZAR  HZ I         9 0 57.60         1.6 0.25            122            204 291 
                                                                                
