 2017 11 5 0956 25.0 L   6.572 -73.278152.4  RSN 10 0.6 1.6LRSN                1
 GAP= 76        1.32       5.1     4.5  7.7  0.6755E+01  0.8218E+01  0.1197E+01E
 Epicentro: PALMAR - SANTANDER                                                 3
 ACTION:UPD 17-12-12 19:52 OP:rebc STATUS:               ID:20171105095625 L   I
 OLDACT:UP  17-11-05 17:57 OP:dhb  STATUS:               ID:20171105094744d    3
 OLDACT:UP  17-11-05 17:57 OP:dhb  STATUS:               ID:20171105094744d    3
 OLDACT:DUP 17-11-05 17:49 OP:dhb  STATUS:               ID:20171105094744d    3
 OLDACT:REG 17-11-05 16:14 OP:dnl  STATUS:               ID:20171105094743     3
 2017-11-05-0948-00M.COL___420                                                 6
 STAT SP IPHASW D HRMM SECON CODA AMPLIT PERI AZIMU VELO AIN AR TRES W  DIS CAZ7
 BAR2 EZ IP     C  956 45.14                             176   -0.1010 10.8  78 
 BAR2 EZ ES        957  0.48                             176   -0.5510 10.8  78 
 BAR2 EZ I         957  1.34         6.7 0.30            179           10.8  78 
 BRR  HZ IP     D  956 47.87                             152    0.7310 76.2 321 
 BRR  HE ES        957  4.48                             152    0.0710 76.2 321 
 BRR  HZ I         957  6.97         9.5 0.12            151           76.2 321 
 RUS  HZ IP     C  956 47.91                             152   -0.0610 78.2 164 
 RUS  HE ES        957  5.48                             152   -0.4010 78.2 164 
 RUS  HZ I         957  7.05        10.8 0.34            153           78.2 164 
 PAM  EZ EP        956 49.90                             143    0.1010  106  37 
 PAM  EN ES        957  9.42                             143    0.2710  106  37 
 PAM  EZ I         957 11.79         2.3 0.48            146            106  37 
 PTB  HZ EP        956 50.56                             137   -0.4610  130 268 
 PTB  HN ES        957 11.75                             137    0.4410  130 268 
 PTB  HZ I         957 13.76         3.8 0.14            136            130 268 
 YPLC HZ EP        956 54.11                             130    0.08 9  164 143 
 YPLC HN ES        957 16.79                             130    0.11 9  164 143 
 YPLC HZ I         957 19.56         4.0 0.32            132            164 143 
 ZAR  HZ EP        956 57.83                             124    0.15 9  202 300 
 ZAR  HE ES        957 23.95                             124    0.78 9  202 300 
 ZAR  HZ I         957 29.58         6.5 0.42            124            202 300 
 NOR  HN ES        957 24.86                             123    0.43 8  208 238 
 NOR  HZ I         957 31.78         1.9 0.20            123            208 238 
 GUY2CHZ EP   3    957  9.20                             116    3.19 2  275 237 
 GUY2CHE ES   4    957 43.72                             116    5.72 0  275 237 
 GUY2CHZ I         957 48.72         1.3 0.46                           275 237 
 URE  HZ EP        957  5.39                             115   -0.71 7  281 298 
 URE  HN ES        957 36.50                             115   -1.65 7  281 298 
 URE  HZ I         957 45.99         3.2 0.16            115            281 298 
                                                                                
