 2013  5 5 0334 21.6 L   6.813 -73.143146.5  RSN  6 0.3 1.8LRSN                1
 GAP=136        0.74       3.9     3.8  5.0 -0.1479E+01  0.2493E+01  0.3013E+01E
 Epicentro: LOS SANTOS - SANTANDER                                             3
 ACTION:UPD 13-06-20 09:47 OP:ep   STATUS:               ID:20130505033421 L   I
 2013-05-05-0328-40M.COL___220                                                 6
 STAT SP IPHASW D HRMM SECON CODA AMPLIT PERI AZIMU VELO AIN AR TRES W  DIS CAZ7
 BAR2 SZ EP        334 41.31                             170   -0.0410 24.8 190 
 BAR2 SZ ES        334 56.65                             170   -0.1010 24.8 190 
 GIR2 SZ ES        334 56.55                             168   -0.1610 29.9 349 
 BRR  HZ EP        334 43.05                             153    0.2510 70.8 297 
 BRR  HN ES        334 59.88                             153    0.5410 70.8 297 
 BRR  HN I         335  0.49        17.6 0.26            153           70.8 297 
 PAM  SZ EP        334 43.95                             151    0.1310 76.1  40 
 PAM  SN ES        335  0.84                             151   -0.3110 76.1  40 
 RUS  HZ EP        334 45.74                             144    0.2210  102 176 
 RUS  HN ES        335  4.26                             144    0.0810  102 176 
 RUS  HN I         335  5.40         3.8 0.28            144            102 176 
 PTB  HZ EP        334 48.23                             132   -0.45 9  148 258 
 PTB  HN ES        335  9.53                             132   -0.26 9  148 258 
 PTB  HN I         335 11.02        16.5 0.24            132            148 258 
                                                                                
