 2017 11 5 0556  3.1 L   6.779 -73.127148.0  RSN 11 0.4 1.6LRSN                1
 GAP=140        0.84       3.8     4.0  5.3 -0.5080E+01  0.3557E+01  0.4182E+01E
 Epicentro: LOS SANTOS - SANTANDER                                             3
 ACTION:UPD 17-12-12 19:52 OP:rebc STATUS:               ID:20171105055603 L   I
 OLDACT:UP  17-11-05 18:06 OP:dnl  STATUS:               ID:20171105054735     3
 OLDACT:UP  17-11-05 18:06 OP:dnl  STATUS:               ID:20171105054735     3
 OLDACT:UP  17-11-05 18:06 OP:dnl  STATUS:               ID:20171105054735     3
 OLDACT:UP  17-11-05 18:06 OP:dnl  STATUS:               ID:20171105054735     3
 OLDACT:REG 17-11-05 15:54 OP:dnl  STATUS:               ID:20171105054735     3
 2017-11-05-0548-00M.COL___426                                                 6
 STAT SP IPHASW D HRMM SECON CODA AMPLIT PERI AZIMU VELO AIN AR TRES W  DIS CAZ7
 BAR2 EZ IP     C  556 22.85                             171   -0.0910 21.5 197 
 BAR2 EZ ES        556 38.29                             171   -0.1410 21.5 197 
 BAR2 EZ I         556 50.01         4.8 0.46            170           21.5 197 
 BRR  HZ EP        556 24.72                             152    0.0910 74.1 299 
 BRR  HN ES        556 42.20                             152    0.7510 74.1 299 
 BRR  HZ I         556 44.43         5.1 0.48            154           74.1 299 
 PAM  EZ EP        556 25.63                             151    0.0710 77.9  37 
 PAM  EN ES        556 42.90                             151   -0.2010 77.9  37 
 PAM  EZ I         556 45.05         7.9 0.60            158           77.9  37 
 RUS  HZ EP        556 26.74                             145   -0.1310 98.1 177 
 RUS  HE ES        556 45.61                             145    0.1810 98.1 177 
 RUS  HZ I         556 47.06         3.6 0.48            148           98.1 177 
 PTB  HZ EP        556 29.76                             132   -0.61 9  149 260 
 PTB  HE ES        556 51.35                             132   -0.31 9  149 260 
 PTB  HZ I         556 56.59         3.0 0.50            135            149 260 
 SPBC HZ EP   2    556 31.94                             130    0.24 5  163 220 
 SPBC HN ES        556 53.81                             130   -0.21 9  163 220 
 SPBC HZ I         556 56.86         8.7 0.70            133            163 220 
 NOR  HZ EP   2    556 38.62                             119   -0.35 4  235 235 
 NOR  HN ES        557  6.84                             119   -0.13 8  235 235 
 NOR  HZ I         557 13.65         3.1 0.32            122            235 235 
 GUY2CHZ EP   2    556 47.55                             113    0.72 4  302 235 
 GUY2CHN ES   4    557 24.00                             113    3.05 0  302 235 
 GUY2CHZ I         557 29.86         2.0 0.34                           302 235 
 PTGC HZ EP   4    556 44.79                             112   -1.91 0  306 159 
 PTGC HN ES   4    557 16.71                             112   -4.02 0  306 159 
 PTGC HZ I         557 21.81         5.0 0.36            116            306 159 
 PRA  HZ EP        556 57.35                             107    0.79 6  391 210 
 PRA  HN ES        557 38.82                             107    0.55 6  391 210 
 PRA  HZ I         557 44.09         1.7 0.30            110            391 210 
 SJC  HZ EP   4    556 57.34                             106   -1.74 0  412 327 
 SJC  HN ES   4    557 38.82                             106   -3.94 0  412 327 
 SJC  HZ I         557 43.84         1.0 0.44            109            412 327 
                                                                                
