 2013  4 5 0349 42.3 L   6.751 -73.212156.0  RSN  4 0.4 0.8LRSN                1
 GAP=194        0.84       6.2     8.6 11.1  0.2551E+02 -0.1883E+02 -0.2827E+02E
 Epicentro: VILLANUEVA - SANTANDER                                             3
 ACTION:UPD 13-05-22 14:35 OP:EP   STATUS:               ID:20130405034942 L   I
 2013-04-05-0347-50M.COL___218                                                 6
 STAT SP IPHASW D HRMM SECON CODA AMPLIT PERI AZIMU VELO AIN AR TRES W  DIS CAZ7
 BRR  HN ES   2    350 22.13                             155    0.54 5 67.8 306 
 RUS  HZ EP        350  7.12                             147    0.3810 96.0 171 
 RUS  HN ES   1    350 25.23                             147   -0.59 7 96.0 171 
 RUS  HZ I         350 28.79         0.6 0.30            148           96.0 171 
 PTB  HZ EP        350  9.57                             136    0.19 9  140 260 
 PTB  HN ES   1    350 30.30                             136   -0.23 7  140 260 
 PTB  HZ I         350 32.63         1.4 0.12            138            140 260 
 SML  HZ EP   1    350 18.92                             119   -0.78 6  246 337 
 SML  HN ES   1    350 49.00                             119    0.10 6  246 337 
                                                                                
