 2014  6 5 0850 37.5 L   6.807 -73.153144.0  RSN 18 0.4 2.1LRSN                1
 GAP=135        0.89       2.3     3.7  5.4 -0.1312E+01  0.7708E+01  0.3477E+00E
 Epicentro: LOS SANTOS - SANTANDER                                             3
 OLDACT:DUP 14-06-05 18:28 OP:fm   STATUS:               ID:20140605084806d    3
 ACTION:UPD 14-07-01 22:51 OP:nd   STATUS:               ID:20140605085037 L   I
 OLDACT:UP  14-06-05 18:31 OP:fm   STATUS:               ID:20140605084806d    3
 2014-06-05-0848-05M.COL___262                                                 6
 STAT SP IPHASW D HRMM SECON CODA AMPLIT PERI AZIMU VELO AIN AR TRES W  DIS CAZ7
 BAR2 SZ EP        850 56.85                             170   -0.0410 24.0 188 
 BAR2 SZ ES   1    851 11.61                             170   -0.44 7 24.0 188 
 PAM  SZ EP        850 59.77                             151    0.2910 77.2  40 
 PAM  SN ES        851 16.96                             151    0.3110 77.2  40 
 PAM  SZ I         851 18.96        17.6 0.36            130           77.2  40 
 RUS  HZ EP        851  0.88                             143   -0.2210  101 176 
 RUS  HE ES        851 19.57                             143    0.0310  101 176 
 RUS  SZ I         851 20.49        13.6 0.22            121            101 176 
 PTB  HZ EP   1    851  3.58                             132   -0.65 7  147 258 
 PTB  HN ES   1    851 24.54                             132   -0.57 7  147 258 
 PTB  SZ I         851 30.34        10.6 0.24            115            147 258 
 OCA  HZ EP        851  5.29                             130   -0.25 9  159 353 
 OCA  HN ES        851 27.92                             130    0.47 9  159 353 
 OCA  SZ I         851 36.54         9.0 0.24            112            159 353 
 SPBC HZ EP   1    851  5.68                             129   -0.16 7  163 219 
 SPBC HN ES   1    851 27.96                             129   -0.01 7  163 219 
 SPBC SZ I         851 33.48        10.3 0.24            111            163 219 
 ZAR  HZ EP        851  9.25                             122   -0.43 9  203 292 
 ZAR  HE ES        851 35.02                             122    0.20 9  203 292 
 ZAR  SZ I         851 41.33        11.3 0.54            107            203 292 
 NOR  HN ES        851 41.72                             118    0.87 8  235 234 
 SML  HZ EP        851 13.19                             117   -0.68 8  243 335 
 SML  HN ES        851 42.50                             117    0.23 8  243 335 
 SML  SZ I         851 45.05        16.0 0.10            104            243 335 
 CHI  HZ EP        851 14.69                             117   -0.43 8  249 195 
 CHI  HN ES        851 44.45                             117   -0.05 8  249 195 
 CHI  SZ I         851 47.43         5.3 0.32            102            249 195 
 ROSC BZ EP   4    851 16.77                             116    1.25 0  253 211 
 ROSC SZ I         851 51.75         7.6 1.70            102            253 211 
 HEL  HN ES   1    851 48.20                             115   -0.57 6  272 256 
 GUY2CHZ EP        851 21.27                             112    0.30 7  301 235 
 GUY2CHN ES   4    851 57.07                             112    2.16 0  301 235 
 GUY2CSZ I         852  2.38         4.3 3.74                           301 235 
 PTGC HZ EP   4    851 19.85                             111   -1.50 0  310 159 
 PTGC SZ I         852  6.89         7.5 1.96             99            310 159 
 RREF HZ EP   1    851 24.18                             111    0.66 5  322 229 
 RREF HN ES   4    852  0.79                             111    1.34 0  322 229 
 RREF SZ I         852 12.36         3.5 0.30             99            322 229 
 TOL  SZ EP   1    851 26.08                             109    0.43 5  344 224 
 TOL  SN ES   4    852  4.54                             109    1.30 0  344 224 
 TOL  SZ I         852 10.07         9.0 0.28             99            344 224 
 PRA  HZ EP   1    851 30.65                             106   -0.31 4  392 209 
 PRA  HN ES   1    852 13.76                             106    1.07 4  392 209 
 PRA  SZ I         852 25.08         5.6 2.08             97            392 209 
 ORTC HN ES   1    852 14.15                             106    0.78 4  396 216 
                                                                                
