 2016  4 5 0316 34.0 L   7.417 -73.227127.9  RSN  5 0.2 1.7LRSN                1
 GAP=105        0.51       2.2     2.4  4.9 -0.3532E+00  0.5392E+01 -0.5105E+00E
 Epicentro: EL PLAYON - SANTANDER                                              3
 ACTION:UPD 16-05-05 14:18 OP:rebc STATUS:               ID:20160405031634 L   I
 OLDACT:REG 16-04-05 12:59 OP:mh   STATUS:               ID:20160405030743     3
 2016-04-05-0307-43M.COL___304                                                 6
 STAT SP IPHASW D HRMM SECON CODA AMPLIT PERI AZIMU VELO AIN AR TRES W  DIS CAZ7
 PAM  EZ IP        316 53.29                             154    0.0410 58.8  98 
 PAM  EE ES        317  8.43                             154    0.1810 58.8  98 
 PAM  EZ I         317  9.27         8.0 0.14            159           58.8  98 
 BAR2 EZ EP        316 55.16                             142    0.1710 91.3 177 
 BAR2 EZ ES        317 11.17                             142   -0.1810 91.3 177 
 BAR2 EZ I         317 12.27        13.2 0.34            146           91.3 177 
 OCA  HZ EP        316 54.58                             142   -0.3010 91.5 354 
 OCA  HN ES        317 11.13                             142   -0.0310 91.5 354 
 OCA  HZ I         317 13.36        20.3 0.18            144           91.5 354 
 PTB  HZ IP   4    316 57.54                             124   -3.95 0  167 235 
 PTB  HN ES        317 22.73                             124   -0.19 9  167 235 
 PTB  HZ I         317 24.95         4.0 0.18            126            167 235 
 ZAR  HZ EP        317  2.94                             122    0.10 9  180 273 
 ZAR  HE ES        317 25.57                             122    0.24 9  180 273 
 ZAR  HZ I         317 29.03         5.3 0.22            123            180 273 
                                                                                
