 2010  9 5 0204 37.0 L   6.803 -73.092146.0  RSN  4 0.2 1.1LRSN                1
 GAP=165        0.37       5.3    10.4 12.0  0.1079E+02 -0.8935E+02 -0.1373E+02E
 Epicentro: LOS SANTOS - SANTANDER                                             3
 ACTION:UP  11-02-18 11:00 OP:tino STATUS:               ID:20100905020437 L   I
 2010-09-05-0202-21S.COL___120                                                 6
 STAT SP IPHASW D HRMM SECON CODA AMPLIT PERI AZIMU VELO SNR AR TRES W  DIS CAZ7
 BRR  HZ EP   1    2 4 58.41                             151    -0.1 7   76 296 
 BRR  HE ES   2    2 5 15.40                             151     0.1 5   76 296 
 BRR  HZ I         2 5 17.38         4.2 0.11                            76 296 
 RUS  HZ EP   2    2 5  0.97                             144     0.2 5  101 179 
 RUS  HE ES   3    2 5 19.06                             144    -0.3 2  101 179 
 RUS  HZ I         2 5 24.05         1.8 0.44                           101 179 
 GUE  SZ EP   2    2 5  1.53                             140    -0.1 5  115   9 
 GUE  SZ I         2 5  2.72         0.9 0.05                           115   9 
 GRA  SZ EP   2    2 5  2.28                             138     0.1 5  124  15 
 GRA  SZ I         2 5  3.70         2.2 0.55                           124  15 
                                                                                
