 2013 11 5 0108 27.8 L   6.790 -73.204137.9  RSN  6 0.6 1.9LRSN                1
 GAP=130        1.59       7.7     6.8 11.3  0.6716E+01  0.1519E+02 -0.6967E+01E
 Epicentro: ZAPATOCA - SANTANDER                                               3
 ACTION:UPD 14-01-09 16:25 OP:ep   STATUS:               ID:20131105010827 L   I
 OLDACT:REG 13-11-05 08:10 OP:stll STATUS:               ID:20131105005840     3
 2013-11-05-0058-40M.COL___223                                                 6
 STAT SP IPHASW D HRMM SECON CODA AMPLIT PERI AZIMU VELO AIN AR TRES W  DIS CAZ7
 BAR2 SZ EP        1 8 46.39                             171   -0.0610 22.0 174 
 BAR2 SZ ES        1 9  1.30                             171    0.3010 22.0 174 
 BAR2 SZ I         1 9  2.15       429.5 1.24            170           22.0 174 
 BRR  HZ EP        1 8 48.03                             153    0.2210 66.2 302 
 BRR  HZ I         1 8 48.22        12.5 0.26            154           66.2 302 
 BRR  HN ES        1 9  4.02                             153    0.6010 66.2 302 
 PAM  SZ EP        1 8 49.22                             148   -0.2810 82.4  43 
 PAM  SN ES        1 9  6.20                             148   -0.2210 82.4  43 
 PAM  SZ I         1 9  8.84         3.9 0.52            149           82.4  43 
 RUS  HZ EP        1 8 50.49                             142   -0.2610  100 172 
 RUS  HN ES        1 9  8.45                             142   -0.2010  100 172 
 RUS  HZ I         1 9 10.69         2.7 0.22            143            100 172 
 PTB  HN ES        1 9 13.58                             132   -0.02 9  141 259 
 PTB  HN I         1 9 16.43         9.4 0.28            133            141 259 
 ZAR  HZ EP        1 9  0.56                             121    1.40 9  199 293 
 ZAR  HE ES        1 9 22.09                             121   -1.53 9  199 293 
                                                                                
