 2010 10 5 0745  3.0 L   6.783 -73.072144.9  RSN 11 0.4 2.3LRSN                1
 GAP=167        0.77       3.1     6.1  5.8 -0.6936E+01  0.2984E+01  0.7270E+00E
 Epicentro: LOS SANTOS - SANTANDER                                             3
 ACTION:UP  11-02-18 11:07 OP:tino STATUS:               ID:20101005074503 L   I
 2010-10-05-0741-18S.COL___122                                                 6
 STAT SP IPHASW D HRMM SECON CODA AMPLIT PERI AZIMU VELO SNR AR TRES W  DIS CAZ7
 BAR2 SZ IP        745 22.53                             170     0.010   25 210 
 BAR2 SZ ES   1    745 37.21                             170    -0.6 7   25 210 
 BAR2 SZ I         745 39.30        42.1 0.34                            25 210 
 BRR  HZ IP     C  745 24.45                             150    -0.110   79 297 
 BRR  HZ I         745 24.69        92.7 0.12                            79 297 
 BRR  HN ES   1    745 41.90                             150     0.6 7   79 297 
 RUS  HZ EP   1    745 26.64                             144     0.1 7   98 181 
 RUS  HN ES   1    745 45.03                             144     0.2 7   98 181 
 RUS  HZ I         745 46.40        15.3 0.42                            98 181 
 GUE  SZ IP        745 27.57                             139    -0.110  117   8 
 GRA  SZ IP        745 28.33                             137     0.210  125  14 
 GRA  SZ ES   1    745 47.84                             137     0.1 7  125  14 
 GRA  SZ I         745 48.98        22.1 0.25                           125  14 
 OCA  SZ EP   1    745 30.98                             129    -0.6 7  163 350 
 OCA  SZ ES   1    745 53.96                             129     0.2 7  163 350 
 OCA  SZ I         745 58.79        29.1 0.19                           163 350 
 CHI  HZ EP   2    745 40.28                             117    -0.4 4  249 197 
 CHI  HZ I         745 43.17         6.2 0.36                           249 197 
 CHI  HE ES   2    746 10.94                             117     0.8 4  249 197 
 ROSC BZ EP   2    745 42.41                             116     1.0 4  255 213 
 HEL  HZ EP   2    745 44.46                             114     0.4 4  280 257 
 HEL  HN ES   2    746 15.14                             114    -0.9 4  280 257 
 HEL  HZ I         746 20.85         9.6 0.40                           280 257 
 RREF HZ EP   2    745 49.84                             110     0.1 3  327 231 
 RREF HE ES   2    746 25.98                             110    -0.1 3  327 231 
 RREF HZ I         746 31.51         6.9 0.29                           327 231 
 PRA  HZ EP   1    745 56.69                             106    -0.1 4  394 211 
 PRA  HZ I         745 58.16        22.6 0.18                           394 211 
 PRA  HN ES   1    746 38.32                             106    -0.4 4  394 211 
                                                                                
