 2014  9 5 0626 35.3 L   6.781 -73.141144.4  RSN  8 0.5 1.6LRSN                1
 GAP=138        1.11       3.8     4.7  7.0 -0.2286E+01  0.6779E+01 -0.3137E+01E
 Epicentro: LOS SANTOS - SANTANDER                                             3
 ACTION:UPD 14-10-03 23:02 OP:nd   STATUS:               ID:20140905062635 L   I
 OLDACT:REG 14-09-05 13:45 OP:mh   STATUS:               ID:20140905061818     3
 2014-09-05-0618-18M.COL___269                                                 6
 STAT SP IPHASW D HRMM SECON CODA AMPLIT PERI AZIMU VELO AIN AR TRES W  DIS CAZ7
 BAR2 SZ EP   1    626 54.65                             171   -0.06 7 21.4 192 
 BAR2 SZ ES        627  9.36                             171   -0.5010 21.4 192 
 BAR2 SZ I    1    627 10.67        12.0 0.07            171           21.4 192 
 BRR  HN ES        627 13.35                             152    0.5410 72.7 300 
 PAM  SZ EP        626 57.71                             150    0.2810 78.7  38 
 PAM  SN ES        627 14.96                             150    0.2610 78.7  38 
 PAM  SZ I         627 17.00         7.8 0.58            152           78.7  38 
 RUS  HZ EP        626 58.64                             144   -0.1010 98.4 176 
 RUS  HN ES        627 17.31                             144    0.2710 98.4 176 
 RUS  HZ I         627 18.99         4.1 0.08            146           98.4 176 
 PTB  HZ EP   1    627  1.55                             132   -0.60 7  148 260 
 PTB  HN ES        627 22.25                             132   -0.86 9  148 260 
 PTB  HZ I         627 24.32         6.0 0.42            131            148 260 
 SPBC HZ I         627 28.92         3.4 0.28            129            162 220 
 OCA  HZ I         627 27.45         7.0 0.09            129            162 353 
 SPBC HZ EP   1    627  3.89                             129    0.34 7  162 220 
 SPBC HN ES        627 25.72                             129    0.12 9  162 220 
 OCA  HZ EP        627  3.43                             129   -0.25 9  162 353 
 OCA  HN ES        627 25.27                             129   -0.57 9  162 353 
 ZAR  HZ EP        627  7.99                             122    0.22 8  205 293 
 ZAR  HN ES        627 33.93                             122    0.82 8  205 293 
 ZAR  HZ I         627 41.78         3.6 0.46            122            205 293 
                                                                                
