 2015  5 5 0316  9.6 L   6.790 -73.172138.5  RSN  6 0.3 1.5LRSN                1
 GAP=134        0.86       3.5     4.1  5.8  0.1608E+00  0.6822E+01  0.5254E+00E
 Epicentro: LOS SANTOS - SANTANDER                                             3
 ACTION:UPD 15-09-10 22:01 OP:cam  STATUS:               ID:20150505031609 L   I
 OLDACT:UP  15-05-05 15:16 OP:drio STATUS:               ID:20150505030748     3
 OLDACT:REG 15-05-05 12:49 OP:drio STATUS:               ID:20150505030748     3
 2015-05-05-0307-48M.COL___271                                                 6
 STAT SP IPHASW D HRMM SECON CODA AMPLIT PERI AZIMU VELO AIN AR TRES W  DIS CAZ7
 BAR2 EZ EP        316 28.34                             171   -0.0210 21.9 183 
 BAR2 EZ ES        316 42.51                             171   -0.4510 21.9 183 
 BAR2 EZ I         316 44.88         5.1 0.28            168           21.9 183 
 BRR  HZ EP        316 30.03                             152    0.1510 69.2 300 
 BRR  HN ES        316 46.07                             152    0.3910 69.2 300 
 BRR  HZ I         316 50.82         5.3 0.24            149           69.2 300 
 PAM  SZ EP        316 31.10                             149   -0.1410 80.0  41 
 PAM  SZ I         316 31.25         6.7 0.20            154           80.0  41 
 PAM  SN ES        316 48.09                             149   -0.0110 80.0  41 
 RUS  HZ EP        316 32.38                             142   -0.2310 99.7 174 
 RUS  HN ES        316 51.02                             142    0.4910 99.7 174 
 RUS  HZ I         316 51.96         3.7 0.36            145           99.7 174 
 SPBC HZ EP        316 37.15                             128   -0.18 9  161 218 
 SPBC HN ES        316 58.83                             128   -0.10 9  161 218 
 SPBC HZ I         317  5.28         7.1 0.20            128            161 218 
 ZAR  HZ EP        316 41.97                             121    0.59 9  202 293 
 ZAR  HE ES        317  5.62                             121   -0.52 9  202 293 
 ZAR  HZ I         317 12.50         3.0 0.38            121            202 293 
                                                                                
