 2016  9 5 0631 17.0 L   6.808 -73.142150.5  RSN 26 0.3 2.7LRSN                1
 GAP= 55        0.86       2.2     2.4  3.8 -0.6308E+00 -0.2638E-01  0.1449E+01E
 Epicentro: LOS SANTOS - SANTANDER                                             3
 ACTION:UPD 17-08-17 21:07 OP:lp   STATUS:               ID:20160905063117 L   I
 OLDACT:UP  16-09-05 14:53 OP:dani STATUS:               ID:20160905062727     3
 OLDACT:UP  16-09-05 14:53 OP:dani STATUS:               ID:20160905062727     3
 OLDACT:UP  16-09-05 14:52 OP:dani STATUS:               ID:20160905062727     3
 OLDACT:UP  16-09-05 14:48 OP:dani STATUS:               ID:20160905062727     3
 OLDACT:REG 16-09-05 12:44 OP:dani STATUS:               ID:20160905062727     3
 2016-09-05-0628-00M.COL___345                                                 6
 STAT SP IPHASW D HRMM SECON CODA AMPLIT PERI AZIMU VELO AIN AR TRES W  DIS CAZ7
 BAR2 EZ EP     D  631 37.19                             170   -0.0710 24.2 191 
 BAR2 HN ES        631 52.66                             170   -0.3710 24.2 191 
 BAR2 EZ I         631 55.03       156.8 0.26            165           24.2 191 
 BRR  HZ IP     C  631 39.04                             153    0.3410 71.1 298 
 BRR  HN ES        631 56.06                             153    0.4710 71.1 298 
 BRR  HZ I         632  0.02       118.9 0.44            135           71.1 298 
 PAM  EZ EP        631 40.05                             152    0.3410 76.5  40 
 PAM  EE ES        631 57.38                             152   -0.0110 76.5  40 
 PAM  EZ I         631 59.40        94.5 0.58            141           76.5  40 
 RUS  HZ EP        631 41.15                             145   -0.1710  101 176 
 RUS  HN ES        631 59.98                             145   -0.2710  101 176 
 RUS  HZ I         632  1.31        29.9 0.24            137            101 176 
 PTB  HZ EP        631 43.70                             133   -0.75 9  148 259 
 PTB  HE ES        632  5.73                             133   -0.09 9  148 259 
 PTB  HZ I         632 12.19        61.3 0.46            117            148 259 
 TAM  HZ EP        631 45.65                             132    0.57 9  155 105 
 TAM  HN ES        632  7.17                             132    0.21 9  155 105 
 TAM  HZ I         632  9.54        26.3 0.50            124            155 105 
 OCA  HZ EP     C  631 45.27                             131   -0.38 9  159 353 
 OCA  HE ES        632  7.88                             131   -0.09 9  159 353 
 OCA  HZ I         632 15.74       104.9 0.42            116            159 353 
 SPBC HZ EP        631 46.05                             130    0.06 9  164 219 
 SPBC HN ES        632  8.52                             130   -0.05 9  164 219 
 SPBC HZ I         632 13.06        69.0 0.20            117            164 219 
 ZAR  HZ EP        631 49.83                             123    0.03 9  204 292 
 ZAR  HN ES        632 15.35                             123   -0.01 9  204 292 
 ZAR  HZ I         632 21.99        57.7 0.38            109            204 292 
 NOR  HZ EP        631 53.39                             119    0.26 8  235 234 
 NOR  HE ES        632 21.15                             119   -0.13 8  235 234 
 NOR  HZ I         632 28.10        24.2 0.18            107            235 234 
 CHI  HZ EP        631 55.56                             118    0.46 8  250 195 
 CHI  HE ES        632 24.75                             118   -0.04 8  250 195 
 CHI  HZ I         632 28.23        29.7 0.54            108            250 195 
 ROSC BZ EP   9    631 57.00                             118    1.48 0  254 211 
 ROSC BE ES        632 27.59                             117    0.58 8  254 211 
 ROSC BZ I         632 33.43        57.6 0.35            107            254 211 
 HEL  HZ EP   4    631 59.31                             116    1.75 0  273 256 
 HEL  HZ I         632 37.67        17.2 0.24            104            273 256 
 URE  HZ EP   4    631 57.13                             115   -1.22 0  284 292 
 URE  HZ I         632 40.95        33.2 0.26            103            284 292 
 SOCV BZ EP        632  0.07                             113   -0.15 7  301  57 
 SOCV BN ES   4    632 30.70                             113   -3.20 0  301  57 
 GUY2CHZ EP   4    632  3.25                             113    2.29 0  302 235 
 GUY2CHE ES   4    632 39.28                             113    4.06 0  302 235 
 GUY2CHZ I         632 43.63        18.1 0.62                           302 235 
 VIL  EZ EP        632  0.64                             113   -0.14 7  304 192 
 VIL  EE ES        632 35.59                             113    0.70 7  304 192 
 VIL  EZ I         632 40.42        52.1 0.54            103            304 192 
 PTGC HZ EP        632  0.38                             112   -0.81 7  309 159 
 PTGC HN ES   4    632 34.01                             112   -1.61 0  309 159 
 ELA  HZ EP   4    632  6.98                             111    2.79 0  330 229 
 ELA  HN ES   4    632 42.44                             111    1.47 0  330 229 
 ELA  HZ I         632 49.92        21.3 0.52            101            330 229 
 CBOC HZ EP   9    632  5.38                             111    1.15 0  334 252 
 CBOC HE ES        632 42.82                             111    0.64 7  334 252 
 CBOC HZ I         633  1.75         6.8 0.58            100            334 252 
 ANIL HN ES   4    632 48.42                             109    2.22 0  358 224 
 ARGC HZ EP   4    632  5.20                             109   -1.60 0  359 340 
 ARGC HZ I         632 54.55         9.9 0.40             99            359 340 
 PAL  HZ EP        632 12.84                             107    0.39 6  406 239 
 PAL  HN ES   4    632 54.09                             107   -1.58 0  406 239 
 PAL  HZ I         633  2.57         6.3 0.26             97            406 239 
 SJC  HZ EP   4    632 11.45                             107   -1.25 0  409 327 
 SJC  HE ES   4    632 52.93                             107   -3.19 0  409 327 
 SJC  HZ I         633  0.39        10.5 0.26             96            409 327 
 CRJC HZ EP   4    632 17.62                             104   -1.96 0  467   4 
 CRJC HE ES   4    633  5.13                             104   -3.22 0  467   4 
 CRJC HZ I         633  6.99        14.5 0.48             95            467   4 
 GUA  EZ EP        632 19.99                             104   -0.43 5  475 173 
 GUA  EE ES   4    633  8.85                             104   -1.00 0  475 173 
 GUA  EZ I         633 14.79        13.9 0.32             95            475 173 
 SMAR HZ EP   4    632 21.16                             103   -1.79 0  496 346 
 MACC HZ EP   4    632 24.10                             102   -1.87 0  521 189 
 MACC HN ES   4    633 15.61                             102   -4.13 0  521 189 
 MACC HZ I         633 27.80         6.3 0.39             94            521 189 
                                                                                
