 2016  5 5 0257 26.2 L   6.814 -73.118147.4  RSN 13 0.3 1.7LRSN                1
 GAP=186        0.57       2.0     2.7  4.6  0.6339E+00  0.4038E+01  0.2237E+01E
 Epicentro: LOS SANTOS - SANTANDER                                             3
 ACTION:UPD 16-08-18 17:42 OP:cam  STATUS:               ID:20160505025726 L   I
 OLDACT:DUP 16-05-05 16:22 OP:ak   STATUS:               ID:20160505024751d    3
 OLDACT:REG 16-05-05 12:53 OP:ak   STATUS:               ID:20160505024750     3
 2016-05-05-0247-50M.COL___301                                                 6
 STAT SP IPHASW D HRMM SECON CODA AMPLIT PERI AZIMU VELO AIN AR TRES W  DIS CAZ7
 BAR2 EZ IP        257 45.97                             170   -0.1310 25.5 196 
 BAR2 EZ ES        258  1.63                             170    0.0310 25.5 196 
 BAR2 EZ I         258  3.55         9.6 0.34            168           25.5 196 
 BRR  HZ EP   4    257 44.92                             152   -2.75 0 73.2 296 
 BRR  HN ES        258  4.28                             152   -0.1110 73.2 296 
 BRR  HZ I         258 11.28         9.8 0.14            152           73.2 296 
 RUS  HZ EP        257 50.38                             144    0.1410  102 178 
 RUS  HN ES        258  9.28                             144    0.3110  102 178 
 RUS  HZ I         258  9.75         3.0 0.14            147            102 178 
 PTB  HZ EP   2    257 53.04                             132   -0.59 5  151 258 
 PTB  HN ES        258 14.54                             132   -0.46 9  151 258 
 PTB  HZ I         258 21.23        12.5 0.40            133            151 258 
 OCA  HE ES        258 16.74                             130    0.08 9  159 352 
 SPBC HZ EP   2    257 54.78                             129   -0.37 5  166 219 
 SPBC HN ES        258 17.68                             129   -0.02 9  166 219 
 SPBC HZ I         258 23.51         8.5 0.24            131            166 219 
 ZAR  HN ES        258 24.78                             122    0.19 8  206 291 
 NOR  HN ES        258 30.88                             118    0.24 8  238 235 
 NOR  HZ I         258 33.80         5.4 0.22            121            238 235 
 CHI  HN ES        258 33.58                             117   -0.35 8  251 196 
 HEL  HN ES        258 38.91                             115    0.30 7  275 256 
 CBOC HE ES   2    258 50.70                             110    0.16 3  337 252 
 PRA  HN ES   2    259  2.90                             107    0.71 3  395 210 
 ORTC HE ES   2    259  2.84                             106   -0.10 3  398 216 
 SJC  HE ES   4    259  2.03                             106   -3.28 0  410 326 
                                                                                
