 2012 12 5 0149 55.9 L   6.804 -73.135145.4  RSN 16 0.5 2.3LRSN                1
 GAP= 71        0.90       2.7     3.2  5.2 -0.1001E+01  0.4529E+01  0.1066E+01E
 Epicentro: LOS SANTOS - SANTANDER                                             3
 ACTION:UPD 13-01-04 14:25 OP:ep   STATUS:               ID:20121205014955 L   I
 2012-12-05-0150-00M.COL___237                                                 6
 STAT SP IPHASW D HRMM SECON CODA AMPLIT PERI AZIMU VELO AIN AR TRES W  DIS CAZ7
 BAR2 SZ EP   1    150 15.43                             170   -0.03 7 24.1 193 
 BAR2 SZ ES   1    150 30.55                             170   -0.20 7 24.1 193 
 BAR2 SZ I         150 33.22        82.8 0.28                          24.1 193 
 GIR2 SZ EP     C  150 15.56                             167    0.0810 31.0 348 
 GIR2 SZ ES   1    150 31.26                             167    0.47 7 31.0 348 
 GIR2 SZ I         150 38.18        14.0 0.26                          31.0 348 
 PAM  SZ IP        150 18.23                             151    0.2610 76.2  39 
 PAM  SN ES   1    150 35.64                             151    0.43 7 76.2  39 
 PAM  SZ I         150 37.77        26.0 0.50                          76.2  39 
 RUS  HZ IP     D  150 19.38                             144   -0.2210  101 177 
 RUS  HN ES   1    150 37.70                             144   -0.43 7  101 177 
 RUS  HZ I         150 39.34        20.8 0.32                           101 177 
 PTB  HZ EP   1    150 22.24                             132   -0.67 7  149 259 
 PTB  HN ES   1    150 42.85                             132   -1.17 7  149 259 
 PTB  HZ I         150 49.12        31.3 0.50                           149 259 
 TAM  HZ IP     C  150 23.62                             131    0.21 9  154 105 
 TAM  HN ES   1    150 45.06                             131    0.16 7  154 105 
 TAM  HZ I         150 46.50        15.9 0.42                           154 105 
 OCA  HZ EP   1    150 23.80                             130   -0.31 7  160 353 
 OCA  HN ES   1    150 46.37                             130    0.23 7  160 353 
 OCA  HZ I         150 50.74        26.7 0.26                           160 353 
 ZAR  HZ EP   1    150 28.43                             122    0.05 6  205 292 
 ZAR  HN ES   1    150 54.32                             122    0.58 6  205 292 
 ZAR  HZ I         150 59.80        26.6 0.32                           205 292 
 NOR  HZ EP   1    150 31.28                             118   -0.42 6  236 235 
 NOR  HN ES   1    150 59.83                             118    0.17 6  236 235 
 NOR  HZ I         151  3.22        24.8 0.22                           236 235 
 SML  HZ EP   1    150 32.23                             117   -0.24 6  244 335 
 SML  HN ES   1    151  0.92                             117   -0.11 6  244 335 
 SML  HZ I         151  4.07        56.7 0.24                           244 335 
 CHI  HZ EP   1    150 33.52                             117   -0.10 6  249 195 
 CHI  HN ES   1    151  2.48                             117   -0.60 6  249 195 
 CHI  HZ I         151  8.59         7.5 0.52                           249 195 
 ROSC BZ EP   1    150 34.96                             116    0.89 6  254 211 
 ROSC BN ES   2    151  3.69                             116   -0.19 4  254 211 
 ROSC BZ I         151 10.48        24.4 0.55                           254 211 
 HEL  HZ EP   1    150 36.73                             115    0.53 6  273 256 
 HEL  HN ES   1    151  8.11                             115    0.45 6  273 256 
 HEL  HZ I         151 13.67         7.0 0.26                           273 256 
 COD  HZ EP   1    150 43.21                             109   -0.97 5  348 354 
 COD  HN ES   1    151 21.06                             109   -0.80 5  348 354 
 COD  HZ I         151 28.03         5.0 0.60                           348 354 
 ANIL HZ EP   1    150 46.96                             108    1.17 5  359 225 
 ANIL HN ES   1    151 26.03                             108    1.30 5  359 225 
 ANIL HZ I         151 29.46        10.5 0.28                           359 225 
 PRA  HZ EP   1    150 49.07                             106   -0.42 4  393 210 
 PRA  HE ES   1    151 31.26                             106   -0.06 4  393 210 
 PRA  HZ I         151 37.29        10.8 0.32                           393 210 
                                                                                
