 2014  9 5 0036 38.5 L   6.088 -73.836 92.1  RSN  7 0.5 1.4LRSN                1
 GAP=104        1.08       7.3     4.1 10.9 -0.8803E+01  0.1783E+02 -0.4319E+02E
 Epicentro: EL PENON - SANTANDER                                               3
 ACTION:UPD 14-10-03 23:02 OP:nd   STATUS:               ID:20140905003638 L   I
 OLDACT:UP  14-09-05 16:08 OP:mh   STATUS:               ID:20140905002816     3
 OLDACT:UP  14-09-05 15:58 OP:mh   STATUS:               ID:20140905002816     3
 OLDACT:REG 14-09-05 13:20 OP:mh   STATUS:               ID:20140905002816     3
 2014-09-05-0028-16M.COL___269                                                 6
 STAT SP IPHASW D HRMM SECON CODA AMPLIT PERI AZIMU VELO AIN AR TRES W  DIS CAZ7
 SPBC HZ EP        036 53.18                             147    0.0810 54.8 208 
 SPBC HN ES        037  5.10                             147    0.6010 54.8 208 
 SPBC HZ I         037  7.14        15.9 0.13            153           54.8 208 
 RUS  HZ EP        036 55.91                             134   -0.2210 86.1 104 
 RUS  HN ES        037  9.48                             134   -0.4110 86.1 104 
 RUS  HZ I         037 12.32         2.9 0.28            130           86.1 104 
 BAR2 SZ EP   1    036 56.93                             132    0.67 7 91.3  52 
 BAR2 SZ I         037 12.07        10.6 0.23            119           91.3  52 
 NOR  HZ EP        036 59.69                             122    0.0110  128 243 
 NOR  HN ES        037 15.49                             122   -0.7110  128 243 
 NOR  HZ I         037 19.91         6.7 0.14            116            128 243 
 HEL  HZ EP        037  7.24                             112    0.57 9  188 274 
 HEL  HZ I         037 31.08         2.6 0.50            105            188 274 
 ZAR  HN ES   1    037 28.34                             111   -0.38 7  192 324 
 GUY2CHZ EP   1    037  7.45                             111   -0.13 6  194 241 
 GUY2CHN ES   4    037 31.92                             111    1.67 0  194 241 
 GUY2CHZ I         037 37.41         1.9 0.32                           194 241 
                                                                                
