 2013  6 5 0348 48.0 L   6.767 -73.139143.1  RSN  6 0.5 2.0LRSN                1
 GAP=139        1.06       8.2     6.8  9.2  0.4044E+01  0.6614E+01  0.3041E+02E
 Epicentro: LOS SANTOS - SANTANDER                                             3
 ACTION:UPD 14-01-08 09:52 OP:ep   STATUS:               ID:20130605034848 L   I
 OLDACT:UP  13-06-05 14:12 OP:mh   STATUS:               ID:20130605034751     3
 OLDACT:REG 13-06-05 14:01 OP:mh   STATUS:               ID:20130605034751     3
 2013-06-05-0347-51M.COL___231                                                 6
 STAT SP IPHASW D HRMM SECON CODA AMPLIT PERI AZIMU VELO AIN AR TRES W  DIS CAZ7
 BAR2 SZ EP   1    349  7.39                             172    0.17 7 19.9 194 
 BAR2 SZ ES   1    349 22.34                             172    0.11 7 19.9 194 
 BAR2 SZ I         349 24.93        14.0 0.28            169           19.9 194 
 GIR2 SZ EP   1    349  7.43                             165   -0.01 7 35.0 350 
 GIR2 SZ ES        349 22.05                             165   -0.5710 35.0 350 
 GIR2 SZ I         349 24.26         9.9 0.24            168           35.0 350 
 BRR  HZ IP     D  349  9.25                             151    0.2610 73.7 301 
 BRR  HN ES        349 26.23                             151    0.8610 73.7 301 
 BRR  HN I         349 27.72        26.6 0.14            153           73.7 301 
 PAM  SN ES   2    349 26.57                             149   -0.71 5 79.8  37 
 PAM  SN I         349 28.46         9.8 0.52            155           79.8  37 
 RUS  HZ EP     C  349 11.32                             144    0.1210 96.9 176 
 RUS  HN ES   2    349 29.59                             144    0.28 5 96.9 176 
 RUS  HN I         349 31.75        18.5 0.22            145           96.9 176 
 PTB  HZ EP   1    349 14.29                             131   -0.45 7  148 260 
 PTB  HN ES        349 35.05                             131   -0.56 9  148 260 
 PTB  HN I         349 40.57        39.4 0.26            133            148 260 
                                                                                
