 2014  9 5 0950 58.0 L   6.806 -73.138150.0  RSN  9 0.4 1.9LRSN                1
 GAP=137        0.99       3.7     4.6  6.7 -0.1869E+01  0.7911E+01 -0.3377E+01E
 Epicentro: LOS SANTOS - SANTANDER                                             3
 ACTION:UPD 14-10-03 23:02 OP:nd   STATUS:               ID:20140905095058 L   I
 OLDACT:UP  14-09-05 19:36 OP:mh   STATUS:               ID:20140905095000     3
 OLDACT:REG 14-09-05 13:58 OP:mh   STATUS:               ID:20140905095000     3
 2014-09-05-0950-00M.COL___282                                                 6
 STAT SP IPHASW D HRMM SECON CODA AMPLIT PERI AZIMU VELO AIN AR TRES W  DIS CAZ7
 BAR2 SZ EP        951 17.87                             170   -0.2910 24.1 192 
 BAR2 SZ ES   1    951 33.51                             170   -0.38 7 24.1 192 
 BAR2 SZ I         951 34.59        17.2 0.05            168           24.1 192 
 BRR  HZ EP     C  951 20.11                             153    0.4710 71.6 298 
 BRR  HN ES   1    951 37.16                             153    0.65 7 71.6 298 
 BRR  HZ I         951 39.37         6.7 0.39            150           71.6 298 
 PAM  SZ EP        951 21.06                             152    0.4510 76.3  39 
 PAM  SN ES        951 38.27                             152    0.0210 76.3  39 
 PAM  SZ I         951 40.26        12.7 0.56            157           76.3  39 
 RUS  HZ EP        951 21.71                             144   -0.5110  101 177 
 RUS  HN ES   1    951 41.10                             144   -0.01 7  101 177 
 RUS  HZ I         951 43.96         4.6 0.28            147            101 177 
 PTB  HZ EP        951 25.12                             133   -0.29 9  149 259 
 PTB  HN ES        951 46.25                             133   -0.53 9  149 259 
 PTB  HZ I         951 53.50        10.6 0.16            132            149 259 
 SPBC HZ EP        951 27.16                             130    0.23 9  164 219 
 SPBC HN ES        951 49.88                             130    0.39 9  164 219 
 SPBC HZ I         951 53.47        10.4 0.16            130            164 219 
 ZAR  HZ EP        951 31.44                             123    0.66 9  205 292 
 ZAR  HE ES   1    951 56.26                             123   -0.09 6  205 292 
 ZAR  HZ I         952  1.50         8.9 0.08            124            205 292 
 SML  HZ EP        951 34.40                             118   -0.44 8  243 335 
 SML  HN ES        952  3.16                             118   -0.42 8  243 335 
 SML  HZ I         952  7.85         9.5 0.10            120            243 335 
 HEL  HZ EP   4    951 40.65                             115    2.11 0  273 256 
 HEL  HN ES   4    952 11.61                             115    1.44 0  273 256 
 HEL  HZ I         952 17.77         4.3 0.21            116            273 256 
                                                                                
