 2014  5 5 0101 40.8 L   6.794 -73.173134.0  RSN  5 0.4 1.4LRSN                1
 GAP=133        1.02       5.2     4.8 10.0 -0.5278E+00  0.1879E+02  0.4164E+01E
 Epicentro: LOS SANTOS - SANTANDER                                             3
 ACTION:UPD 15-03-16 16:55 OP:nd   STATUS:               ID:20140505010140 L   I
 OLDACT:REG 14-05-05 12:58 OP:mh   STATUS:               ID:20140505010000     3
 2014-05-05-0100-00M.COL___273                                                 6
 STAT SP IPHASW D HRMM SECON CODA AMPLIT PERI AZIMU VELO AIN AR TRES W  DIS CAZ7
 PAM  SZ EP        1 2  2.05                             148    0.0710 79.9  41 
 PAM  SN ES        1 2 18.50                             148    0.0310 79.9  41 
 PAM  SZ I         1 2 21.08         7.1 0.45            151           79.9  41 
 RUS  HZ EP        1 2  2.95                             142   -0.4810  100 174 
 RUS  HN ES        1 2 21.43                             142    0.3910  100 174 
 RUS  HZ I         1 2 22.76         3.6 0.22            147            100 174 
 PTB  HZ EP        1 2  6.02                             130   -0.57 9  145 259 
 PTB  HN ES        1 2 26.40                             130   -0.26 9  145 259 
 PTB  HZ I         1 2 28.86         6.9 0.05            131            145 259 
 ZAR  HN ES        1 2 37.21                             120    0.41 9  202 293 
 ZAR  HZ I         1 2 46.79         2.1 0.09            122            202 293 
 GUY2CHZ EP        1 2 24.41                             110    0.80 7  298 235 
 GUY2CHE ES   4    1 3  0.92                             110    3.96 0  298 235 
 GUY2CHZ I         1 3  5.79         0.9 0.41                           298 235 
                                                                                
