 2011  9 5 0727 43.2 L   6.805 -73.070146.1  RSN  5 0.2 1.5LRSN                1
 GAP=191        0.35       3.2     5.2  5.4  0.6600E+01 -0.6149E+01 -0.7278E+01E
 Epicentro: LOS SANTOS - SANTANDER                                             3
 ACTION:UPD 12-07-13 15:55 OP:ep   STATUS:               ID:20110905072743 L   I
 2011-09-05-0724-09S.COL___171                                                 6
 STAT SP IPHASW D HRMM SECON CODA AMPLIT PERI AZIMU VELO AIN AR TRES W  DIS CAZ7
 BAR2 SZ EP   2    728  2.78                             169   -0.16 5 26.6 208 
 BAR2 SZ ES   2    728 18.00                             169   -0.34 5 26.6 208 
 BAR2 SZ I         728 19.44         4.3 0.23                          26.6 208 
 BRR  HZ EP   1    728  4.82                             150    0.01 7 78.5 295 
 BRR  HN ES   2    728 21.98                             150    0.31 5 78.5 295 
 BRR  HZ I         728 24.86         5.3 0.26                          78.5 295 
 RUS  HZ EP   2    728  7.14                             144    0.13 5  101 181 
 RUS  HN ES   2    728 25.73                             144    0.15 5  101 181 
 RUS  HZ I         728 27.52         3.6 0.43                           101 181 
 OCA  SZ EP   1    728 11.58                             130   -0.02 7  161 350 
 OCA  SZ ES   2    728 33.84                             130    0.09 5  161 350 
 OCA  SZ I         728 38.97         4.7 0.46                           161 350 
 ZAR  HN ES   2    728 42.19                             121   -0.21 4  212 291 
 ZAR  HZ I         728 47.33         3.3 0.26                           212 291 
                                                                                
