 2017 12 5 0338 44.7 L   6.825 -73.169138.8  RSN  8 0.5 1.6LRSN                1
 GAP=181        1.05       3.7     4.7  7.4  0.5888E+00  0.1210E+02 -0.5468E+01E
 Epicentro: LOS SANTOS - SANTANDER                                             3
 ACTION:UPD 18-01-04 13:17 OP:rebc STATUS:               ID:20171205033844 L   I
 OLDACT:UP  17-12-05 17:03 OP:e    STATUS:               ID:20171205032744     3
 OLDACT:UP  17-12-05 17:00 OP:e    STATUS:               ID:20171205032744     3
 OLDACT:UP  17-12-05 16:58 OP:e    STATUS:               ID:20171205032744     3
 OLDACT:REG 17-12-05 13:32 OP:y    STATUS:               ID:20171205032744     3
 2017-12-05-0328-00M.COL___488                                                 6
 STAT SP IPHASW D HRMM SECON CODA AMPLIT PERI AZIMU VELO AIN AR TRES W  DIS CAZ7
 BAR2 EZ EP        339  3.69                             169    0.1310 25.8 183 
 BAR2 EZ ES        339 17.95                             169   -0.3110 25.8 183 
 BAR2 EZ I         339 21.04        12.0 0.40            168           25.8 183 
 RUS  HZ EP        339  7.88                             141   -0.1310  104 175 
 RUS  HN ES        339 26.20                             141    0.0210  104 175 
 RUS  HZ I         339 27.34         2.1 0.30            144            104 175 
 PTB  HZ EP        339 10.35                             131   -0.59 9  146 258 
 PTB  HN ES        339 31.11                             131   -0.28 9  146 258 
 PTB  HZ I         339 34.01         5.8 0.16            131            146 258 
 OCA  HZ EP        339 12.08                             129   -0.12 9  157 354 
 OCA  HE ES        339 33.71                             129    0.07 9  157 354 
 SPBC HZ EP        339 12.67                             127   -0.07 9  164 218 
 SPBC HN ES        339 35.51                             127    0.91 9  164 218 
 SPBC HZ I         339 39.62         9.3 0.22            129            164 218 
 ZAR  HZ EP        339 16.81                             121    0.46 9  201 292 
 ZAR  HE ES        339 41.45                             121    0.42 9  201 292 
 ZAR  HZ I         339 48.53         8.2 0.26            122            201 292 
 URE  HN ES        339 56.70                             112    0.16 7  280 292 
 GUY2CHZ EP   4    339 29.65                             111    1.70 0  301 234 
 GUY2CHN ES   4    340  4.72                             111    3.05 0  301 234 
 CBOC HZ EP        339 31.61                             109    0.45 7  332 251 
 CBOC HN ES        340  6.21                             109   -1.18 7  332 251 
 CBOC HZ I         340 11.93         1.2 0.66            110            332 251 
                                                                                
