 2016  1 5 0116 28.5 L   6.803 -73.177137.2  RSN  6 0.3 1.7LRSN                1
 GAP=132        0.70       4.7     3.6  6.6  0.4870E+01  0.1039E+01 -0.1219E+02E
 Epicentro: LOS SANTOS - SANTANDER                                             3
 ACTION:UPD 16-03-09 23:22 OP:cam  STATUS:               ID:20160105011628 L   I
 OLDACT:UP  16-01-05 13:20 OP:drio STATUS:               ID:20160105010749d    3
 OLDACT:DUP 16-01-05 13:10 OP:drio STATUS:               ID:20160105010749d    3
 2016-01-05-0107-48M.COL___335                                                 6
 STAT SP IPHASW D HRMM SECON CODA AMPLIT PERI AZIMU VELO AIN AR TRES W  DIS CAZ7
 BAR2 EZ EP        116 47.09                             170   -0.0010 23.3 181 
 BAR2 EZ ES        117  1.25                             170   -0.3510 23.3 181 
 BAR2 EZ I         117  3.37         8.8 0.22            170           23.3 181 
 BRR  HZ EP        116 48.90                             152    0.3610 68.0 300 
 BRR  HN EP        117  5.92                                           68.0 300 
 PAM  EZ EP        116 49.97                             148    0.0410 79.4  42 
 PAM  EN EP        117  7.04                              37           79.4  42 
 RUS  HZ EP        116 51.25                             142   -0.2110  101 174 
 RUS  HN ES        117  9.76                             142    0.3910  101 174 
 RUS  HZ I         117 11.59         6.7 0.34            144            101 174 
 PTB  HZ EP        116 54.11                             131   -0.36 9  144 258 
 PTB  HN ES        117 14.75                             131    0.03 9  144 258 
 PTB  HZ I         117 17.35         6.0 0.16            131            144 258 
 ZAR  HZ EP   4    117  1.71                             121    1.67 0  201 292 
 ZAR  HN ES        117 24.74                             121    0.09 9  201 292 
 ZAR  HZ I         117 28.82         6.5 0.28            122            201 292 
                                                                                
