 2016  8 5 0741 11.0 L   6.796 -73.100150.0  RSN 11 0.4 1.8LRSN                1
 GAP=143        0.86       3.3     3.5  4.8 -0.1691E+01  0.6946E+01  0.2386E+01E
 Epicentro: LOS SANTOS - SANTANDER                                             3
 ACTION:UPD 16-10-29 15:32 OP:rebc STATUS:               ID:20160805074111 L   I
 OLDACT:UP  16-08-05 18:15 OP:edw  STATUS:               ID:20160805073741     3
 OLDACT:REG 16-08-05 13:16 OP:edw  STATUS:               ID:20160805073741     3
 2016-08-05-0738-00M.COL___338                                                 6
 STAT SP IPHASW D HRMM SECON CODA AMPLIT PERI AZIMU VELO AIN AR TRES W  DIS CAZ7
 BAR2 EZ EP        741 30.87                             170   -0.2910 24.3 202 
 BAR2 EZ ES        741 46.99                             170    0.1110 24.3 202 
 BAR2 EZ I         741 48.95         8.9 0.36                          24.3 202 
 PAM  EZ EP        741 33.86                             153    0.3510 74.6  36 
 PAM  EE ES        741 51.28                             153    0.2110 74.6  36 
 BRR  HZ EP        741 32.81                             152   -0.0610 75.9 297 
 BRR  HN ES        741 50.34                             152    0.4110 75.9 297 
 RUS  HZ EP        741 34.81                             145   -0.3110 99.9 179 
 RUS  HN ES        741 53.85                             145   -0.0910 99.9 179 
 RUS  HZ I         741 54.48         5.3 0.26                          99.9 179 
 SPBC HZ EP        741 39.89                             130   -0.21 9  166 220 
 SPBC HN ES        742  2.45                             130   -0.34 9  166 220 
 SPBC HZ I         742  4.37         5.6 0.20                           166 220 
 ZAR  HZ EP        741 43.45                             123   -0.77 8  209 292 
 ZAR  HN ES        742  9.69                             123   -0.45 8  209 292 
 ZAR  HZ I         742 14.99        10.2 0.38                           209 292 
 NOR  HZ EP        741 46.86                             119   -0.53 8  239 235 
 NOR  HE ES        742 15.92                             119    0.14 8  239 235 
 NOR  HZ I         742 20.83         4.9 0.40                           239 235 
 HEL  HZ EP        741 52.33                             115    0.37 7  277 256 
 HEL  HN ES        742 24.21                             115    0.30 7  277 256 
 HEL  HZ I         742 30.09         2.9 0.44                           277 256 
 GUY2CHZ EP   2    741 55.56                             113    0.32 4  305 235 
 GUY2CHN ES   2    742 30.29                             113    0.54 4  305 235 
 GUY2CHZ I         742 39.62         3.7 0.50                           305 235 
 CBOC HZ EP        741 59.33                             110    0.70 7  338 252 
 CBOC HN ES        742 35.96                             110    0.18 7  338 252 
 CBOC HZ I         742 39.14         0.9 0.22                           338 252 
 PRA  HZ EP        742  5.16                             107    0.24 6  394 210 
 PRA  HE ES        742 47.86                             107    0.89 6  394 210 
 PRA  HZ I         742 50.40         2.6 0.54                           394 210 
                                                                                
