 2012  1 5 0317  6.8 L   6.802 -73.127145.7  RSN  8 0.3 1.5LRSN                1
 GAP=139        0.57       3.9     4.2  5.3 -0.9617E+00  0.2489E+01  0.6265E+01E
 Epicentro: LOS SANTOS - SANTANDER                                             3
 ACTION:UP  12-02-03 08:14 OP:REBC STATUS:               ID:20120105031706 L   I
 2012-01-05-0310-00M.COL___188                                                 6
 STAT SP IPHASW D HRMM SECON CODA AMPLIT PERI AZIMU VELO SNR AR TRES W  DIS CAZ7
 BAR2 SZ EP   1    317 26.29                             170    -0.1 7   24 195 
 BAR2 SZ ES   1    317 41.28                             170    -0.4 7   24 195 
 BAR2 SZ I         317 42.62         6.5 0.26                            24 195 
 GIR2 SZ EP   2    317 26.22                             167    -0.2 5   32 346 
 GIR2 SZ ES   2    317 41.85                             167     0.1 5   32 346 
 BRR  HZ EP   1    317 28.07                             152     0.1 7   73 298 
 BRR  HZ I         317 28.45         8.8 0.16                            73 298 
 BRR  HE ES   1    317 45.16                             152     0.6 7   73 298 
 PAM  SZ EP   1    317 29.13                             151     0.2 7   76  38 
 PAM  SE ES   1    317 46.01                             151    -0.1 7   76  38 
 RUS  HZ EP   2    317 30.66                             144     0.1 5  101 177 
 RUS  HN ES   2    317 49.27                             144     0.2 5  101 177 
 RUS  HZ I         317 50.82         5.8 0.41                           101 177 
 PTB  HZ EP   2    317 33.36                             131    -0.6 5  150 259 
 PTB  HN ES   2    317 54.78                             131    -0.3 5  150 259 
 ZAR  HN ES   2    318  4.88                             122     0.0 4  206 292 
 CHI  HZ EP   1    317 44.64                             117     0.1 6  249 196 
 CHI  HN ES   2    318 14.01                             117     0.0 4  249 196 
 CHI  HZ I         318 17.73         2.1 0.41                           249 196 
                                                                                
