 2012  2 5 0526 59.9 L   6.707 -73.083137.7  RSN  4 0.2 1.3LRSN                1
 GAP=190        0.49      11.4     4.8  9.7 -0.2717E+02 -0.1767E+02  0.8617E+02E
 ACTION:UP  12-03-07 16:27 OP:epov STATUS:               ID:20120205052659 L   I
 2012-02-05-0520-00M.COL___188                                                 6
 STAT SP IPHASW D HRMM SECON CODA AMPLIT PERI AZIMU VELO SNR AR TRES W  DIS CAZ7
 BAR2 SZ EP   1    527 18.32                             173   -0.08 7 16.8 221 
 BAR2 SZ I         527 19.59         3.3 0.11                          16.8 221 
 PAM  SZ EP   1    527 21.70                             148    0.19 7 81.8  31 
 PAM  SN ES   1    527 38.38                             148   -0.01 7 81.8  31 
 BRR  HZ EP   1    527 20.44                             147   -0.41 7 82.4 303 
 BRR  HN ES        527 37.27                             147    0.0510 82.4 303 
 BRR  HZ I         527 38.43         5.0 0.13                          82.4 303 
 PTB  HZ EP   1    527 26.92                             129    0.25 7  153 263 
 PTB  HZ I         527 47.59                                            153 263 
                                                                                
