 2010  1 5 0228 22.7 L   6.878 -73.535106.0  RSN  4 0.2 1.3LRSN                1
 GAP=177        0.53       7.0    17.7 12.5  0.6329E+02  0.1983E+03  0.4363E+02E
 Epicentro: SAN VICENTE DE CHUCURI - SANTANDER                                 3
 ACTION:UP  10-08-24 09:42 OP:vdl  STATUS:               ID:20100105022822 L   I
 2010-01-05-0220-00S.COL___096                                                 6
 STAT SP IPHASW D HRMM SECON CODA AMPLIT PERI AZIMU VELO SNR AR TRES W  DIS CAZ7
 BAR2 SZ EP        228 38.79                             153     0.110   50 129 
 BAR2 SZ ES   1    228 51.18                             153     0.0 7   50 129 
 RUS  BZ EP   1    228 44.15                             128    -0.4 7  120 155 
 RUS  BN ES   2    229  1.48                             128    -0.1 5  120 155 
 RUS  BZ I         229  2.56         3.1 0.19                           120 155 
 CHI  HZ EP        228 58.92                             107     0.3 8  250 185 
 CHI  HE ES   3    229 26.28                             107    -0.4 2  250 185 
 MON  HZ EP   2    229  5.55                             102    -0.3 3  314 312 
 MON  HZ I         229 54.87         1.5 0.22                           314 312 
                                                                                
