 2011  9 5 0749  6.6 L   6.798 -73.052148.4  RSN 11 0.3 2.0LRSN                1
 GAP=192        0.40       2.2     3.4  3.6 -0.4871E+00  0.2665E+01  0.1286E+01E
 Epicentro: LOS SANTOS - SANTANDER                                             3
 ACTION:UPD 12-07-13 15:55 OP:ep   STATUS:               ID:20110905074906 L   I
 2011-09-05-0746-01S.COL___170                                                 6
 STAT SP IPHASW D HRMM SECON CODA AMPLIT PERI AZIMU VELO AIN AR TRES W  DIS CAZ7
 BAR2 SZ IP     C  749 26.59                             169    0.0110 26.9 212 
 BAR2 SZ ES   2    749 41.69                             169   -0.51 5 26.9 212 
 BAR2 SZ I         749 43.24        23.5 0.16                          26.9 212 
 GIR2 SZ EP   2    749 27.12                             166    0.48 5 34.8 333 
 BRR  HZ IP     C  749 28.45                             150   -0.0910 80.6 295 
 BRR  HZ I         749 29.82        21.2 0.15                          80.6 295 
 BRR  HE ES   1    749 45.80                             150    0.11 7 80.6 295 
 RUS  HZ EP   1    749 30.54                             144    0.00 7  100 182 
 RUS  HE ES   2    749 49.35                             144    0.10 5  100 182 
 RUS  HZ I         749 50.48         8.0 0.47                           100 182 
 OCA  SZ EP   1    749 35.18                             130   -0.06 7  162 350 
 OCA  SZ ES   2    749 57.80                             130    0.18 5  162 350 
 OCA  SZ I         750  2.85        13.7 0.50                           162 350 
 ZAR  HZ EP   1    749 40.42                             122    0.24 6  214 291 
 ZAR  HZ I         750 10.24        13.1 0.45                           214 291 
 NOR  SZ EP   1    749 42.88                             118   -0.46 6  243 236 
 NOR  SN ES   2    750 11.95                             118   -0.08 4  243 236 
 CHI  HZ EP   2    749 44.94                             117    0.25 4  251 197 
 CHI  HN ES   2    750 14.96                             117    0.52 4  251 197 
 CHI  HZ I         750 20.11         3.1 0.34                           251 197 
 HEL  HZ EP   1    749 47.77                             114   -0.25 6  282 256 
 HEL  HE ES   2    750 20.56                             114    0.21 4  282 256 
 HEL  HZ I         750 26.18         7.3 0.42                           282 256 
 RREF HZ EP   2    749 53.33                             111   -0.37 3  330 231 
 RREF HN ES   2    750 30.63                             111    0.15 3  330 231 
 RREF HZ I         750 38.77         5.6 0.33                           330 231 
 PRA  HZ EP   1    750  0.82                             107    0.06 4  397 211 
 PRA  HN ES   2    750 43.36                             107    0.33 3  397 211 
                                                                                
