 2010  9 5 0828  2.6 L   6.758 -73.093149.9  RSN  5 0.1 1.5LRSN                1
 GAP=165        0.41       3.9     6.9  8.0  0.1281E+02 -0.3699E+02 -0.2051E+02E
 Epicentro: LOS SANTOS - SANTANDER                                             3
 ACTION:UP  11-02-18 11:00 OP:tino STATUS:               ID:20100905082802 L   I
 2010-09-05-0825-30S.COL___120                                                 6
 STAT SP IPHASW D HRMM SECON CODA AMPLIT PERI AZIMU VELO SNR AR TRES W  DIS CAZ7
 BAR2 SZ EP   1    828 22.66                             172     0.0 7   21 209 
 BAR2 SZ I         828 39.36         9.6 0.09                            21 209 
 BRR  HZ EP        828 24.52                             151    -0.110   79 299 
 BRR  HZ I         828 24.79        11.7 0.09                            79 299 
 BRR  HE ES   1    828 41.93                             151     0.1 7   79 299 
 RUS  HZ EP   2    828 26.79                             146     0.3 5   96 179 
 RUS  HN ES   1    828 44.95                             146    -0.1 7   96 179 
 RUS  HZ I         828 46.07         3.6 0.26                            96 179 
 GUE  SZ EP   1    828 28.03                             139     0.0 7  120   9 
 GUE  SZ I         828 28.67         1.4 0.09                           120   9 
 GRA  SZ EP        828 28.51                             137     0.010  129  14 
 GRA  SZ I         828 52.88         3.8 0.27                           129  14 
                                                                                
