 2017 10 5 0853 28.6 L   6.786 -73.122142.1  RSN  6 0.4 1.1LRSN                1
 GAP=140        0.79       3.8     4.6  6.2 -0.5390E+00  0.1379E+02 -0.1709E+01E
 Epicentro: LOS SANTOS - SANTANDER                                             3
 ACTION:UPD 17-11-07 19:28 OP:rebc STATUS:               ID:20171005085328 L   I
 OLDACT:DUP 17-10-05 18:02 OP:osc  STATUS:               ID:20171005084739d    3
 OLDACT:REG 17-10-05 14:00 OP:osc  STATUS:               ID:20171005084737     3
 2017-10-05-0848-00M.COL___441                                                 6
 STAT SP IPHASW D HRMM SECON CODA AMPLIT PERI AZIMU VELO AIN AR TRES W  DIS CAZ7
 BAR2 EZ EP        853 47.67                             171   -0.1210 22.5 197 
 BAR2 EZ ES        854  2.59                             171   -0.1510 22.5 197 
 BAR2 EZ I         854  4.68         4.4 0.30            171           22.5 197 
 PAM  EZ EP        853 50.69                             150    0.2710 76.9  37 
 PAM  EN ES        854  7.54                             150    0.1210 76.9  37 
 PAM  EZ I         854  9.54         2.3 0.68            152           76.9  37 
 RUS  HZ EP        853 51.42                             143   -0.4710 98.9 178 
 RUS  HN ES        854 10.31                             143    0.2710 98.9 178 
 RUS  HZ I         854 11.05         1.4 0.20            147           98.9 178 
 SPBC HN ES   2    854 18.49                             128   -0.45 5  164 220 
 ZAR  HZ EP        854  0.80                             121   -0.35 8  207 292 
 ZAR  HN ES        854 26.50                             121   -0.02 8  207 292 
 ZAR  HZ I         854 31.29         1.3 0.12            122            207 292 
 GUY2CHZ EP        854 12.98                             111    0.77 7  302 235 
 GUY2CHE ES   3    854 47.52                             111    1.31 2  302 235 
 GUY2CHZ I         855  1.88         0.6 0.42                           302 235 
                                                                                
