 2014  9 5 0454 56.2 L   6.791 -73.157151.8  RSN  7 0.4 1.5LRSN                1
 GAP=182        1.08       4.1     7.0  9.7 -0.8421E-01 -0.6281E+01  0.5516E+01E
 Epicentro: LOS SANTOS - SANTANDER                                             3
 ACTION:UPD 14-10-03 23:02 OP:nd   STATUS:               ID:20140905045456 L   I
 OLDACT:DUP 14-09-05 18:31 OP:mh   STATUS:               ID:20140905044811d    3
 OLDACT:UP  14-09-05 18:29 OP:mh   STATUS:               ID:20140905044810     3
 OLDACT:REG 14-09-05 13:41 OP:mh   STATUS:               ID:20140905044810     3
 2014-09-05-0448-10M.COL___269                                                 6
 STAT SP IPHASW D HRMM SECON CODA AMPLIT PERI AZIMU VELO AIN AR TRES W  DIS CAZ7
 BAR2 SZ EP        455 16.38                             171   -0.1110 22.2 187 
 BAR2 SZ I         455 33.72         6.7 0.46            172           22.2 187 
 BRR  HZ EP        455 18.44                             154    0.5110 70.6 300 
 BRR  HN ES        455 35.44                             154    0.5310 70.6 300 
 BRR  HZ I         455 40.89         4.4 0.38            156           70.6 300 
 RUS  HZ EP        455 20.71                             145    0.2710 99.7 175 
 RUS  HN ES        455 39.07                             145   -0.3110 99.7 175 
 RUS  HZ I         455 40.40         3.8 0.27            146           99.7 175 
 PTB  HZ EP        455 22.89                             134   -0.61 9  146 259 
 PTB  HN ES        455 44.51                             134   -0.31 9  146 259 
 PTB  HZ I         455 49.37         4.7 0.21            136            146 259 
 OCA  HN ES        455 47.00                             131   -0.53 9  161 354 
 SPBC HZ EP        455 25.56                             131    0.58 9  162 219 
 SPBC HN ES        455 47.55                             131    0.09 9  162 219 
 SPBC HZ I         455 50.26         5.0 0.40            132            162 219 
 SML  HE ES   4    456  2.84                             119    0.80 0  244 336 
 CHI  HN ES   1    456  3.06                             118   -0.56 6  247 195 
 CHI  HZ I         456  9.96         2.0 0.19            119            247 195 
 GUY2CHN ES   4    456 17.71                             113    3.74 0  300 235 
                                                                                
