 2016  8 5 0750 25.9 L   6.851 -73.197123.1  RSN  4 0.3 1.0LRSN                1
 GAP=237        0.70       4.0     5.8  5.6  0.6826E+01  0.4279E+01  0.5349E+01E
 Epicentro: ZAPATOCA - SANTANDER                                               3
 ACTION:UPD 16-10-29 15:32 OP:rebc STATUS:               ID:20160805075025 L   I
 OLDACT:UP  16-08-05 18:18 OP:edw  STATUS:               ID:20160805074735     3
 OLDACT:REG 16-08-05 13:17 OP:edw  STATUS:               ID:20160805074735     3
 2016-08-05-0748-00M.COL___338                                                 6
 STAT SP IPHASW D HRMM SECON CODA AMPLIT PERI AZIMU VELO AIN AR TRES W  DIS CAZ7
 BAR2 EZ EP        750 43.11                             166    0.1610 28.7 177 
 BAR2 EZ ES        750 56.57                             166    0.3110 28.7 177 
 BAR2 EZ I         750 57.26         6.3 0.36                          28.7 177 
 BRR  HZ EP        750 43.90                             151   -0.2710 63.5 296 
 BRR  HN ES        750 58.34                             151   -0.0810 63.5 296 
 BRR  HZ I         750 58.85         2.0 0.14                          63.5 296 
 RUS  HZ EP        750 47.82                             137   -0.1810  107 173 
 RUS  HN ES        751  4.98                             137   -0.2710  107 173 
 RUS  HZ I         751  6.79         0.7 0.30                           107 173 
 SPBC HZ EP        750 53.35                             123    0.48 9  164 216 
 SPBC HN ES        751 13.81                             123   -0.09 9  164 216 
 SPBC HZ I         751 17.43         1.2 0.10                           164 216 
                                                                                
