 2014 10 5 0723  5.9 L   6.872 -73.360123.0  RSN  7 0.6 1.2LRSN                1
 GAP= 93        1.52       4.9     7.1 10.0 -0.4567E+01 -0.2089E+00 -0.3568E+01E
 Epicentro: SAN VICENTE DE CHUCURI - SANTANDER                                 3
 ACTION:UPD 14-11-29 23:46 OP:nd   STATUS:               ID:20141005072305 L   I
 OLDACT:REG 14-10-05 14:44 OP:stll STATUS:               ID:20141005071747     3
 2014-10-05-0717-47M.COL___286                                                 6
 STAT SP IPHASW D HRMM SECON CODA AMPLIT PERI AZIMU VELO AIN AR TRES W  DIS CAZ7
 BAR2 SZ EP        723 23.45                             162    0.2510 36.7 148 
 BAR2 SZ ES        723 36.44                             162   -0.2610 36.7 148 
 BRR  HZ EP        723 23.84                             158    0.5710 46.7 304 
 BRR  HN ES        723 37.66                             158    0.8410 46.7 304 
 BRR  HZ I         723 39.45         3.6 0.28            154           46.7 304 
 PAM  SZ EP        723 26.84                             142    0.2310 89.4  55 
 PAM  SZ I         723 27.60         2.3 0.18            141           89.4  55 
 RUS  HZ EP        723 28.29                             135   -0.2010  113 164 
 RUS  HZ I         723 30.10         1.1 0.18            137            113 164 
 RUS  HN ES        723 45.47                             135   -0.6310  113 164 
 PTB  HZ EP        723 29.09                             131   -0.0110  127 253 
 PTB  HN ES        723 45.93                             131   -1.2610  127 253 
 PTB  HZ I         723 50.84         4.4 0.40            129            127 253 
 OCA  HZ EP        723 31.08                             126   -0.56 9  151   2 
 OCA  HN ES        723 51.44                             126   -0.27 9  151   2 
 OCA  HZ I         723 59.11         4.7 0.24            124            151   2 
 SPBC HZ EP        723 32.46                             125    0.41 9  156 210 
 SPBC HZ I         723 36.14         1.9 0.28            124            156 210 
 SPBC HN ES        723 53.28                             125    0.83 9  156 210 
                                                                                
