 2010  6 5 0752  1.2 L   6.811 -73.025146.8  RSN  5 0.4 1.9LRSN                1
 GAP=204        0.69       6.3    13.5  9.5 -0.3179E+02  0.2393E+02 -0.2957E+01E
 Epicentro: CEPITA - SANTANDER                                                 3
 ACTION:UP  10-08-24 10:08 OP:vdl  STATUS:               ID:20100605075201 L   I
 2010-06-05-0747-35S.COL___109                                                 6
 STAT SP IPHASW D HRMM SECON CODA AMPLIT PERI AZIMU VELO SNR AR TRES W  DIS CAZ7
 BAR2 SZ EP   2    752 20.72                             168    -0.4 5   30 216 
 BAR2 SZ ES   2    752 36.65                             168     0.0 5   30 216 
 GIR2 SZ EP   2    752 20.85                             166    -0.3 5   35 328 
 GRA  SZ IP        752 26.50                             138     0.310  121  12 
 GRA  SZ ES   1    752 45.79                             138     0.1 7  121  12 
 OCA  SZ EP   1    752 29.16                             130    -0.5 7  161 348 
 OCA  SZ ES   1    752 51.79                             130    -0.1 7  161 348 
 OCA  SZ I         752 55.59        10.3 0.14                           161 348 
 HEL  HZ EP   2    752 43.78                             114     0.8 4  285 256 
 HEL  HZ I         753 21.58         3.4 0.44                           285 256 
                                                                                
