 2015  1 5 0129 55.8 L   6.815 -73.167145.0  RSN 12 0.4 2.0LRSN                1
 GAP=133        1.06       2.7     4.1  5.6 -0.1321E+01  0.5367E+01 -0.4863E-01E
 Epicentro: LOS SANTOS - SANTANDER                                             3
 ACTION:UPD 15-03-02 15:36 OP:nd   STATUS:               ID:20150105012955 L   I
 OLDACT:UP  15-01-05 14:49 OP:cam  STATUS:               ID:20150105012810     3
 OLDACT:REG 15-01-05 13:43 OP:cam  STATUS:               ID:20150105012810     3
 2015-01-05-0128-10M.COL___280                                                 6
 STAT SP IPHASW D HRMM SECON CODA AMPLIT PERI AZIMU VELO AIN AR TRES W  DIS CAZ7
 BAR2 EZ EP        130 15.09                             170   -0.2410 24.7 184 
 BAR2 EZ ES        130 29.84                             170   -0.7610 24.7 184 
 BAR2 EZ I         130 32.08        20.2 0.22            171           24.7 184 
 BRR  HZ IP     C  130 17.00                             153    0.3310 68.3 298 
 BRR  HN ES        130 33.89                             153    0.9110 68.3 298 
 BRR  HZ I         130 34.47        20.8 0.36            150           68.3 298 
 PAM  SZ IP     C  130 18.25                             151    0.3410 77.6  42 
 PAM  SN ES        130 35.39                             151    0.2010 77.6  42 
 PAM  SZ I         130 37.84        23.1 0.56            152           77.6  42 
 RUS  HZ EP        130 19.50                             143   -0.0810  102 175 
 RUS  HN ES        130 38.45                             143    0.3010  102 175 
 RUS  HZ I         130 38.82        13.0 0.24            146            102 175 
 PTB  HZ EP        130 21.63                             132   -0.86 9  146 258 
 PTB  HN ES        130 42.85                             132   -0.49 9  146 258 
 PTB  HZ I         130 45.10         9.9 0.42            132            146 258 
 OCA  HZ EP        130 23.96                             130    0.13 9  158 354 
 OCA  HN ES        130 45.11                             130   -0.62 9  158 354 
 OCA  HZ I         130 55.31         7.0 0.22            130            158 354 
 SPBC HZ EP        130 24.10                             129   -0.09 9  163 218 
 SPBC HE ES        130 46.51                             129    0.15 9  163 218 
 SPBC HZ I         130 50.96        15.9 0.24            130            163 218 
 ZAR  HZ EP        130 28.24                             123    0.37 9  201 292 
 ZAR  HN ES        130 53.09                             123    0.18 9  201 292 
 ZAR  HZ I         130 59.74         9.1 0.34            122            201 292 
 NOR  HZ EP        130 31.55                             118    0.20 8  234 234 
 NOR  HN ES        130 59.33                             118    0.22 8  234 234 
 NOR  HZ I         131  3.95         8.8 0.18            119            234 234 
 SML  HZ EP        130 32.29                             118    0.21 8  241 336 
 SML  HN ES        131  0.08                             118   -0.32 8  241 336 
 SML  HZ I         131  6.81         8.8 0.34            118            241 336 
 CHI  HZ EP        130 33.51                             117   -0.02 8  250 195 
 CHI  HN ES        131  2.92                             117   -0.07 8  250 195 
 CHI  HZ I         131  6.06         6.4 0.30            118            250 195 
 HEL  HZ EP   4    130 37.57                             115    1.84 0  270 255 
 HEL  HN ES   4    131  9.05                             115    2.14 0  270 255 
 HEL  HZ I         131 13.34         4.8 0.64            115            270 255 
 MON  HZ EP   4    130 42.57                             109   -1.83 0  351 308 
 MON  HN ES   4    131 20.81                             109   -1.53 0  351 308 
                                                                                
