 2010 12 5 0645 45.8 L   5.831 -73.647119.1  RSN  8 0.2 1.8LRSN                1
 GAP=153        0.67       3.6     6.2  9.3 -0.9607E+01  0.1503E+02  0.9901E+01E
 Epicentro: PUENTE NACIONAL - SANTANDER                                        3
 ACTION:UP  11-01-14 15:22 OP:pat  STATUS:               ID:20101205064545 L   I
 2010-12-05-0644-00S.COL___129                                                 6
 STAT SP IPHASW D HRMM SECON CODA AMPLIT PERI AZIMU VELO SNR AR TRES W  DIS CAZ7
 BAR2 SZ EP        646  6.37                             138    -0.110   99  31 
 BAR2 SZ ES   1    646 22.68                             138     0.0 7   99  31 
 BAR2 SZ I         646 23.54        21.9 0.39                            99  31 
 CHI  HZ EP        646  9.75                             129    -0.110  133 184 
 CHI  HZ I         646 32.01         7.3 0.57                           133 184 
 NOR  SZ EP        646 10.16                             127     0.2 9  139 258 
 BRR  HZ EP        646  9.75                             126    -0.3 9  141 357 
 BRR  HZ I         646 10.90         9.6 0.09                           141 357 
 BRR  HN ES   1    646 28.99                             126     0.0 7  141 357 
 GIR2 SZ EP        646 11.33                             125     0.5 9  147  20 
 HEL  HZ EP   3    646 17.85                             115    -0.2 2  212 281 
 HEL  HE ES   3    646 42.79                             115    -0.3 2  212 281 
 HEL  HZ I         646 49.50         2.9 0.39                           212 281 
 OCA  SZ EP        646 23.98                             109    -0.2 8  269   8 
 OCA  SZ I         646 57.74         5.4 0.38                           269   8 
 PRA  HZ EP        646 24.26                             109    -0.1 8  271 210 
                                                                                
