 2011  5 5 0256 47.7 L   6.768 -73.094147.7  RSN  4 0.5 1.8LRSN                1
 GAP=145        0.92       9.1    13.4 12.7  0.1905E+02  0.1742E+02  0.5555E+01E
 Epicentro: LOS SANTOS - SANTANDER                                             3
 ACTION:UP  11-06-29 08:50 OP:tino STATUS:               ID:20110505025647 L   I
 2011-05-05-0240-00M.COL___140                                                 6
 STAT SP IPHASW D HRMM SECON CODA AMPLIT PERI AZIMU VELO SNR AR TRES W  DIS CAZ7
 BAR2 SZ EP   1    257  7.86                             171     0.3 7   22 207 
 BAR2 SZ ES   2    257 22.62                             171    -0.4 5   22 207 
 BAR2 SZ I         257 25.58        10.6 0.26                            22 207 
 PAM  SZ EP   2    257  9.66                             151    -0.4 5   77  35 
 PAM  SN ES   2    257 27.86                             151     0.3 5   77  35 
 BRR  HZ EP        257  9.73                             151     0.310   78 299 
 BRR  HN ES   2    257 26.01                             151    -0.4 5   78 299 
 BRR  HZ I         257 35.46        24.1 0.66                            78 299 
 RUS  HZ EP   1    257 10.69                             146    -0.7 7   97 179 
 RUS  HN ES   2    257 30.60                             146     0.7 5   97 179 
 RUS  HZ I         257 32.16         5.2 0.46                            97 179 
                                                                                
