 2016 10 5 0643  0.5 L   6.801 -73.175145.8  RSN  8 0.4 1.4LRSN                1
 GAP=133        0.91       3.7     5.1  9.0 -0.6336E+01  0.1341E+02 -0.3579E+01E
 Epicentro: LOS SANTOS - SANTANDER                                             3
 ACTION:UPD 16-11-09 19:16 OP:rebc STATUS:               ID:20161005064300 L   I
 OLDACT:UP  16-10-05 17:57 OP:dani STATUS:               ID:20161005063743d    3
 OLDACT:DUP 16-10-05 17:53 OP:dani STATUS:               ID:20161005063743d    3
 2016-10-05-0638-00M.COL___351                                                 6
 STAT SP IPHASW D HRMM SECON CODA AMPLIT PERI AZIMU VELO AIN AR TRES W  DIS CAZ7
 BAR2 HN ES   2    643 35.32                             171   -0.09 5 23.1 182 
 BRR  HZ EP        643 22.00                             153    0.5410 68.3 300 
 BRR  HN ES   4    643 39.10                             153    1.26 0 68.3 300 
 BRR  HZ I         643 43.28         5.3 0.14            155           68.3 300 
 PAM  EZ EP        643 23.14                             150    0.3310 79.4  41 
 PAM  EE ES        643 40.51                             150    0.2710 79.4  41 
 PAM  EZ I         643 44.63         4.0 0.44            153           79.4  41 
 RUS  HZ EP        643 23.88                             144   -0.3710  101 174 
 RUS  HE ES        643 42.50                             144   -0.3110  101 174 
 RUS  HZ I         643 43.57         2.6 0.23            150            101 174 
 PTB  HZ EP        643 26.92                             133   -0.23 9  145 259 
 PTB  HN ES        643 47.94                             133   -0.03 9  145 259 
 PTB  HZ I         643 49.51         4.9 0.23            137            145 259 
 OCA  HN ES        643 50.20                             130   -0.59 9  160 354 
 SPBC HN ES        643 51.22                             129    0.34 9  161 218 
 GUY2CHZ EP   4    643 47.09                             112    3.30 0  299 234 
 GUY2CHZ I         644 28.59         1.5 0.51                           299 234 
                                                                                
