 2015  3 5 0934 19.9 L   6.782 -73.156147.1  RSN  6 0.7 1.1LRSN                1
 GAP=128        1.64       6.8    10.7 11.2  0.2071E+02 -0.2244E+02 -0.1982E+02E
 Epicentro: LOS SANTOS - SANTANDER                                             3
 ACTION:UPD 15-04-30 16:23 OP:nd   STATUS:               ID:20150305093419 L   I
 OLDACT:REG 15-03-05 13:56 OP:spq  STATUS:               ID:20150305092748     3
 2015-03-05-0927-48M.COL___281                                                 6
 STAT SP IPHASW D HRMM SECON CODA AMPLIT PERI AZIMU VELO AIN AR TRES W  DIS CAZ7
 BAR2 EZ ES        934 54.64                             171   -0.4010 21.2 188 
 BAR2 EZ I         934 57.49         2.8 0.36            170           21.2 188 
 BRR  HZ EP        934 41.73                             153    0.5610 71.1 300 
 BRR  HE ES        934 58.88                             153    1.1010 71.1 300 
 RUS  HZ EP        934 44.06                             145    0.4310 98.7 175 
 RUS  HN ES        935  1.53                             145   -0.6310 98.7 175 
 RUS  HZ I         935  4.70         1.3 0.54            145           98.7 175 
 TAM  HZ EP        934 47.90                             131    0.17 9  156 104 
 SPBC HZ EP        934 48.78                             130    0.51 9  161 219 
 SPBC HN ES        935  9.80                             130   -0.61 9  161 219 
 SPBC HZ I         935 13.56         2.7 0.32            130            161 219 
 SML  HZ EP        934 55.97                             118   -0.75 8  245 336 
 SML  HN ES        935 24.43                             118   -1.03 8  245 336 
                                                                                
