 2010  1 5 0656  8.7 L   6.778 -73.044144.3  RSN  6 0.4 1.6LRSN                1
 GAP=134        0.87       5.3    14.4 10.0 -0.2579E+02 -0.4062E+02 -0.4774E+01E
 Epicentro: LOS SANTOS - SANTANDER                                             3
 ACTION:UP  10-08-24 09:42 OP:vdl  STATUS:               ID:20100105065608 L   I
 2010-01-05-0655-44S.COL___097                                                 6
 STAT SP IPHASW D HRMM SECON CODA AMPLIT PERI AZIMU VELO SNR AR TRES W  DIS CAZ7
 BAR2 SZ EP        656 28.27                             170     0.110   26 217 
 BAR2 SZ ES   2    656 42.89                             170    -0.5 5   26 217 
 GIR2 SZ EP        656 29.19                             165     0.810   37 334 
 RUS  BZ EP        656 31.96                             145    -0.210   98 183 
 RUS  BN ES   2    656 50.42                             145     0.0 5   98 183 
 OCA  SZ EP        656 36.94                             129    -0.4 9  164 349 
 OCA  SZ ES   3    656 58.87                             129    -0.7 2  164 349 
 CHI  HZ EP        656 46.21                             117    -0.2 8  250 198 
 CHI  HE ES   2    657 15.69                             117    -0.1 4  250 198 
 CHI  HZ I         657 18.37         2.9 0.43                           250 198 
 SDV  BZ EP        656 57.70                             109    -0.2 6  353  49 
                                                                                
