 2015  5 5 0045 35.6 L   6.757 -73.109148.6  RSN  6 0.3 1.6LRSN                1
 GAP=203        0.75       3.4     5.5  5.8  0.7880E+01  0.3993E+01 -0.1402E+01E
 Epicentro: LOS SANTOS - SANTANDER                                             3
 ACTION:UPD 15-09-10 22:01 OP:cam  STATUS:               ID:20150505004535 L   I
 OLDACT:REG 15-05-05 12:14 OP:drio STATUS:               ID:20150505003743     3
 2015-05-05-0037-43M.COL___274                                                 6
 STAT SP IPHASW D HRMM SECON CODA AMPLIT PERI AZIMU VELO AIN AR TRES W  DIS CAZ7
 BAR2 EZ EP        045 54.99                             172   -0.5610 20.0 204 
 BAR2 EZ ES        046 10.81                             172   -0.2610 20.0 204 
 BAR2 EZ I         046 12.30         4.9 0.24            165           20.0 204 
 BRR  HZ EP        045 57.62                             151    0.1910 77.0 300 
 BRR  HN ES        046 14.62                             151    0.2010 77.0 300 
 BRR  HZ I         046 18.40         8.0 0.42            146           77.0 300 
 RUS  HZ EP        045 59.37                             146    0.0510 95.7 178 
 RUS  HE ES        046 18.12                             146    0.3210 95.7 178 
 RUS  HZ I         046 19.44         2.8 0.26            145           95.7 178 
 SPBC HZ EP        046  4.33                             130    0.07 9  162 221 
 SPBC HN ES        046 26.64                             130    0.05 9  162 221 
 SPBC HZ I         046 33.63         7.2 0.30            128            162 221 
 ZAR  HZ EP   4    046 13.58                             122    4.74 0  210 293 
 ZAR  HN ES        046 34.36                             122   -0.37 8  210 293 
 ZAR  HZ I         046 41.07         3.2 0.30            121            210 293 
 SML  HZ EP   4    046 10.32                             117   -2.75 0  250 335 
 SML  HN ES        046 42.63                             117    0.37 8  250 335 
 SML  HZ I         046 45.71         4.9 0.10            118            250 335 
                                                                                
