 2012  8 5 0110 13.6 L   6.710 -73.205152.3  RSN  4 0.3 1.0LRSN                1
 GAP=221        0.64       7.8     7.0  8.9  0.2980E+02 -0.2363E+01  0.4704E+01E
 Epicentro: VILLANUEVA - SANTANDER                                             3
 ACTION:UPD 12-09-10 11:54 OP:ep   STATUS:               ID:20120805011013 L   I
 2012-08-05-0110-00M.COL___216                                                 6
 STAT SP IPHASW D HRMM SECON CODA AMPLIT PERI AZIMU VELO AIN AR TRES W  DIS CAZ7
 BAR2 SZ EP   1    110 33.42                             175   -0.39 7 13.3 169 
 BAR2 SZ I         110 33.72         3.3 0.15                          13.3 169 
 BRR  HN ES   1    110 52.62                             154    0.17 7 71.1 308 
 RUS  HZ EP   1    110 37.88                             148    0.55 7 91.4 171 
 RUS  HN ES   1    110 55.71                             148   -0.17 7 91.4 171 
 RUS  HZ I         110 56.76         1.1 0.35                          91.4 171 
 PTB  HZ EP   1    110 40.14                             135   -0.21 7  140 262 
 PTB  HN ES   1    111  1.28                             135    0.03 7  140 262 
 PTB  HZ I         111  4.73         1.0 0.20                           140 262 
                                                                                
