 2014  8 5 0523 13.2 L   6.769 -73.130138.3  RSN 14 0.4 1.5LRSN                1
 GAP=184        0.96       2.8     4.3  5.7 -0.2029E+01  0.5143E+01  0.6429E+00E
 Epicentro: LOS SANTOS - SANTANDER                                             3
 ACTION:UPD 14-09-15 21:47 OP:nd   STATUS:               ID:20140805052313 L   I
 OLDACT:REG 14-08-05 13:11 OP:spq  STATUS:               ID:20140805051817     3
 2014-08-05-0518-17M.COL___245                                                 6
 STAT SP IPHASW D HRMM SECON CODA AMPLIT PERI AZIMU VELO AIN AR TRES W  DIS CAZ7
 BAR2 SZ EP        523 32.16                             171    0.2810 20.4 196 
 BAR2 SZ ES   1    523 46.34                             171   -0.11 7 20.4 196 
 BAR2 SZ I         523 48.23         4.8 0.16            167           20.4 196 
 BRR  HZ EP        523 34.17                             150    0.4310 74.4 300 
 BRR  HN ES        523 49.72                             150   -0.0410 74.4 300 
 BRR  HZ I         523 56.99         4.6 0.48            148           74.4 300 
 RUS  HZ EP   1    523 35.32                             143   -0.66 7 97.1 177 
 RUS  HN ES   1    523 54.41                             143    0.67 7 97.1 177 
 RUS  HZ I         523 55.70         2.1 0.38            146           97.1 177 
 PTB  HZ EP        523 39.71                             130    0.03 9  149 260 
 PTB  HN ES        523 59.82                             130   -0.51 9  149 260 
 PTB  HZ I         524  5.67         3.0 0.14            130            149 260 
 SPBC HZ EP        523 41.15                             128    0.15 9  162 220 
 SPBC HN ES        524  2.46                             128   -0.22 9  162 220 
 SPBC HZ I         524  9.10         4.1 0.34            129            162 220 
 OCA  HZ EP        523 40.51                             127   -0.78 9  164 353 
 OCA  HN ES        524  2.82                             127   -0.38 9  164 353 
 OCA  HZ I         524  7.94         4.3 0.18            131            164 353 
 ZAR  HZ EP        523 45.14                             120   -0.34 8  207 293 
 ZAR  HN ES        524 11.36                             120    0.71 8  207 293 
 ZAR  HZ I         524 17.14         3.4 0.36            122            207 293 
 NOR  HN ES        524 15.90                             117   -0.05 8  234 235 
 NOR  HZ I         524 23.11         3.2 0.18            119            234 235 
 SML  HE ES        524 19.19                             115    0.77 8  247 335 
 SML  HZ I         524 21.39         7.6 0.10            118            247 335 
 HEL  HZ EP   1    523 53.31                             113    0.16 6  273 257 
 HEL  HN ES   1    524 24.07                             113   -0.23 6  273 257 
 HEL  HZ I         524 36.24         1.3 0.34            115            273 257 
 GUY2CHZ EP   1    523 55.85                             111   -0.57 5  301 235 
 GUY2CHN ES   1    524 30.06                             111   -0.07 5  301 235 
 GUY2CHZ I         524 39.62         1.5 0.68                           301 235 
 CBOC HZ EP        524  0.25                             108    0.35 7  334 253 
 CBOC HN ES        524 36.02                             108   -0.29 7  334 253 
 CBOC HZ I         524 39.20         0.8 0.64            110            334 253 
 PRA  HZ EP        524  7.05                             105    0.81 6  390 210 
 PRA  HN ES   1    524 47.65                             105    0.05 4  390 210 
 PRA  HZ I         524 56.76         1.0 0.32            108            390 210 
 SJC  HZ EP   4    524  6.93                             104   -2.05 0  413 327 
 SJC  HN ES   4    524 47.42                             104   -5.06 0  413 327 
 SJC  HZ I         524 51.24         0.9 0.44            107            413 327 
                                                                                
