 2016  6 5 0229  5.8 L   6.758 -73.108148.5  RSN  9 0.3 1.9LRSN                1
 GAP=143        0.72       2.4     3.9  4.4 -0.2807E+01  0.4055E+01  0.2014E+01E
 Epicentro: LOS SANTOS - SANTANDER                                             3
 ACTION:UPD 16-07-21 22:15 OP:rebc STATUS:               ID:20160605022905 L   I
 OLDACT:REG 16-06-05 12:41 OP:edw  STATUS:               ID:20160605022739     3
 2016-06-05-0227-39M.COL___328                                                 6
 STAT SP IPHASW D HRMM SECON CODA AMPLIT PERI AZIMU VELO AIN AR TRES W  DIS CAZ7
 BAR2 EZ EP        229 25.63                             172   -0.0710 20.1 204 
 BAR2 EZ ES        229 41.11                             172   -0.1110 20.1 204 
 BRR  HZ EP        229 27.87                             151    0.2910 77.1 300 
 BRR  HN ES        229 44.96                             151    0.3910 77.1 300 
 PAM  EZ EP        229 28.81                             151    0.4410 78.6  35 
 PAM  EN ES        229 45.96                             151   -0.0210 78.6  35 
 PAM  EZ I         229 48.26        18.1 0.44                          78.6  35 
 RUS  HZ EP        229 29.42                             146   -0.0610 95.7 178 
 RUS  HN ES        229 47.91                             146   -0.0410 95.7 178 
 RUS  HZ I         229 48.85         8.5 0.24                          95.7 178 
 PTB  HZ EP        229 33.06                             132   -0.23 9  151 261 
 PTB  HN ES   4    229 53.13                             132   -1.59 0  151 261 
 PTB  HZ I         229 57.49         6.6 0.16                           151 261 
 SPBC HZ EP        229 34.42                             130   -0.01 9  162 221 
 SPBC HE ES        229 56.92                             130    0.17 9  162 221 
 SPBC HZ I         229 58.78         9.2 0.29                           162 221 
 OCA  HZ EP   4    229 28.83                             129   -5.98 0  165 352 
 OCA  HE ES        229 56.74                             129   -0.69 9  165 352 
 OCA  HZ I         230  1.21        19.0 0.34                           165 352 
 NOR  HZ EP        229 41.97                             119    0.20 8  235 236 
 NOR  HN ES        230  9.65                             119   -0.18 8  235 236 
 NOR  HZ I         230 15.58         6.3 0.16                           235 236 
 CHI  HZ EP        229 43.37                             118    0.08 8  245 196 
 CHI  HN ES        230 12.12                             118   -0.41 8  245 196 
 CHI  HZ I         230 15.61         2.7 0.32                           245 196 
                                                                                
