 2016  5 5 0738 12.8 L   6.799 -73.064152.9  RSN 14 0.5 1.8LRSN                1
 GAP=126        1.10       3.2     3.9  5.6 -0.4695E+00  0.5798E+01  0.3776E+01E
 Epicentro: LOS SANTOS - SANTANDER                                             3
 ACTION:UPD 16-08-18 17:42 OP:cam  STATUS:               ID:20160505073812 L   I
 OLDACT:REG 16-05-05 13:11 OP:ak   STATUS:               ID:20160505073741     3
 2016-05-05-0737-41M.COL___291                                                 6
 STAT SP IPHASW D HRMM SECON CODA AMPLIT PERI AZIMU VELO AIN AR TRES W  DIS CAZ7
 BAR2 EZ IP     D  738 33.53                             170    0.1410 26.3 210 
 BAR2 EZ ES        738 48.92                             170   -0.5110 26.3 210 
 BAR2 EZ I         738 50.23         8.3 0.24            167           26.3 210 
 PAM  EZ EP        738 36.45                             154    0.9310 72.1  34 
 PAM  EN ES        738 53.62                             154    0.4010 72.1  34 
 PAM  EZ I         738 55.63        11.7 0.54            158           72.1  34 
 BRR  HZ IP     C  738 35.46                             151    0.2410 79.3 295 
 BRR  HE ES        738 52.16                             151   -0.5210 79.3 295 
 BRR  HZ I         738 57.87         6.5 0.24            150           79.3 295 
 RUS  HZ EP        738 37.37                             145    0.0910  100 181 
 RUS  HN ES        738 56.78                             145    0.4410  100 181 
 RUS  HZ I         738 59.03         2.9 0.52            147            100 181 
 PTB  HZ EP        738 40.40                             132   -0.79 9  157 260 
 PTB  HN ES   4    739  1.85                             132   -1.46 0  157 260 
 PTB  HZ I         739  8.94         9.9 0.42            132            157 260 
 OCA  HZ EP        738 41.28                             131   -0.57 9  162 350 
 OCA  HN ES        739  4.53                             131    0.06 9  162 350 
 OCA  HZ I         739  8.42        12.4 0.32            133            162 350 
 SPBC HZ EP        738 42.51                             130    0.08 9  169 221 
 SPBC HE ES        739  5.33                             130   -0.19 9  169 221 
 SPBC HZ I         739 11.57        11.1 0.32            130            169 221 
 ZAR  HZ EP        738 45.97                             123   -0.65 8  212 291 
 ZAR  HN ES        739 12.93                             123   -0.04 8  212 291 
 ZAR  HZ I         739 18.06         7.8 0.46            124            212 291 
 NOR  HZ EP        738 49.88                             119    0.11 8  242 236 
 NOR  HN ES        739 18.45                             119   -0.13 8  242 236 
 NOR  HZ I         739 20.22         4.4 0.16            120            242 236 
 HEL  HZ EP   2    738 54.62                             115    0.24 4  281 256 
 HEL  HN ES        739 27.61                             115    0.82 7  281 256 
 HEL  HZ I         739 32.69         4.2 0.30            116            281 256 
 PTGC HZ EP        738 56.31                             113   -0.35 7  305 160 
 PTGC HN ES        739 30.05                             113   -0.79 7  305 160 
 PTGC HZ I         739 32.98         2.0 0.22            116            305 160 
 CBOC HZ EP        739  1.18                             111    0.15 7  342 253 
 CBOC HE ES        739 39.04                             111    0.41 7  342 253 
 CBOC HZ I         739 44.70         1.2 0.52            112            342 253 
 ORTC HZ EP        739  7.83                             107    0.20 6  401 217 
 ORTC HN ES        739 51.17                             107    0.80 6  401 217 
 ORTC HZ I         739 58.28         1.5 0.60            109            401 217 
 SJC  HZ EP   4    739  7.86                             107   -1.38 0  414 326 
 SJC  HN ES   4    739 50.12                             107   -3.11 0  414 326 
 SJC  HZ I         739 53.41         1.7 0.60            108            414 326 
                                                                                
