 2017  8 5 0020  2.4 L   6.830 -73.135145.3  RSN 25 0.8 2.6LRSN                1
 GAP= 66        1.73       4.4     4.1  7.1  0.7243E+00  0.7022E+01 -0.1594E+00E
 Epicentro: LOS SANTOS - SANTANDER                                             3
 ACTION:UPD 17-09-04 20:16 OP:rebc STATUS:               ID:20170805002002 L   I
 OLDACT:UP  17-08-17 21:12 OP:nlst STATUS:               ID:20170805002002 L   3
 OLDACT:UP  17-08-05 14:11 OP:osc  STATUS:               ID:20170805001739     3
 OLDACT:REG 17-08-05 12:39 OP:osc  STATUS:               ID:20170805001739     3
 2017-08-05-0018-00M.COL___402                                                 6
 STAT SP IPHASW D HRMM SECON CODA AMPLIT PERI AZIMU VELO AIN AR TRES W  DIS CAZ7
 BAR2 EZ IP     C  020 22.12                             169    0.0410 26.8 191 
 BAR2 EZ ES        020 36.77                             169   -0.6410 26.8 191 
 BAR2 EZ I         020 37.93       114.1 0.16            165           26.8 191 
 BRR  HZ IP     C  020 24.02                             152    0.5110 70.8 296 
 BRR  HE ES        020 40.88                             152    0.9410 70.8 296 
 BRR  HZ I         020 45.26        83.1 0.14            151           70.8 296 
 PAM  EZ IP     C  020 24.98                             152    0.5810 74.1  40 
 PAM  EE ES        020 42.01                             152    0.4710 74.1  40 
 PAM  EZ I         020 44.08       170.4 0.44            153           74.1  40 
 RUS  HZ EP     D  020 26.16                             143   -0.2110  104 177 
 RUS  HN ES        020 44.38                             143   -0.6710  104 177 
 RUS  HZ I         020 45.60        79.5 0.38            139            104 177 
 PTB  HZ EP        020 29.05                             131   -0.48 9  150 258 
 PTB  HE ES        020 50.18                             131   -0.49 9  150 258 
 PTB  HZ I         020 53.22        36.8 0.14            128            150 258 
 TAM  HZ IP     C  020 30.53                             130    0.48 9  155 106 
 TAM  HE ES        020 51.86                             130    0.27 9  155 106 
 TAM  HZ I         020 54.18        20.3 0.38            129            155 106 
 SPBC HZ EP        020 31.12                             128   -0.09 9  167 219 
 SPBC HE ES        020 53.01                             128   -0.65 9  167 219 
 SPBC HZ I         020 56.31        83.6 0.18            125            167 219 
 YPLC HZ IP     D  020 32.61                             126    0.19 9  179 152 
 YPLC HE ES        020 56.55                             126    0.73 9  179 152 
 YPLC HZ I         020 59.01       100.7 0.24            123            179 152 
 TABC EZ ES   2    021  6.59                             119   -0.08 4  233 211 
 TABC EZ EP   4    021  6.59                             119   28.07 0  233 211 
 TABC EZ I         021 13.87        26.3 0.36            116            233 211 
 NOR  HZ EP        020 38.72                             118    0.27 8  238 234 
 NOR  HN ES        021  5.81                             118   -0.73 8  238 234 
 NOR  HZ I         021 13.40        34.8 0.16            115            238 234 
 CHI  HZ EP   9    020 40.40                             117   -0.08 0  252 195 
 CHI  HE ES        021 10.12                             114    0.04 8  252 195 
 CHI  HZ I         021 13.87        16.5 0.42            114            252 195 
 ROSC BZ EP   4    020 42.33                             116    1.43 0  256 211 
 ROSC BE IS   4    021 10.78                             116   -0.13 0  256 211 
 ROSC BZ I         021 16.70        31.2 0.35            113            256 211 
 HEL  HZ EP        020 43.82                             114    0.98 8  274 255 
 HEL  HE ES        021 14.02                             114   -0.34 8  274 255 
 HEL  HZ I         021 19.15        20.1 0.26            112            274 255 
 URE  HZ EP        020 43.35                             113   -0.12 7  284 291 
 URE  HE ES        021 14.10                             113   -1.37 7  284 291 
 URE  HZ I         021 16.16        42.0 0.14            112            284 291 
 GUY2CHZ EP        020 47.67                             112    1.33 7  304 234 
 GUY2CHE ES        021 23.15                             112    2.55 7  304 234 
 GUY2CHZ I         021 28.71        22.4 0.32                           304 234 
 VIL  EZ EP   9    020 45.97                             112   -0.25 0  307 192 
 VIL  EE ES        021 20.06                             110   -0.07 7  307 192 
 VIL  EZ I         021 28.78        20.3 0.28            109            307 192 
 PTGC HZ IP     C  020 45.45                             111   -1.12 7  311 159 
 PTGC HN ES        021 18.63                             111   -2.36 7  311 159 
 PTGC HZ I         021 20.97        36.3 0.30            109            311 159 
 LL6C HZ EP        020 47.13                             110   -0.61 7  322 357 
 LL6C HE ES        021 22.00                             110   -1.08 7  322 357 
 LL6C HZ I         021 28.96        10.4 0.50            109            322 357 
 CBOC HZ EP        020 50.19                             110    0.62 7  336 252 
 CBOC HE ES   4    021 25.90                             110   -0.45 0  336 252 
 CBOC HZ I         021 31.10         7.4 0.16            108            336 252 
 DBB  EZ EP        020 50.39                             109    0.39 7  340 274 
 DBB  EE ES        021 26.68                             109   -0.42 7  340 274 
 DBB  EZ I         021 29.60        13.6 0.36            107            340 274 
 PRA  HZ EP        020 56.36                             106    0.02 6  395 209 
 PRA  HE ES   4    021 40.25                             106    1.86 0  395 209 
 PRA  HZ I         021 43.29        15.4 0.28            104            395 209 
 ORTC HZ EP        020 57.14                             106    0.41 6  399 216 
 ORTC HE ES   4    021 40.35                             106    1.27 0  399 216 
 ORTC HZ I         021 45.18        12.7 0.14            104            399 216 
 SJC  HZ EP        020 57.04                             106   -0.69 6  407 327 
 SJC  HE ES   4    021 38.23                             106   -2.63 0  407 327 
 SJC  HZ I         021 41.84        14.5 0.52            104            407 327 
 PAL  HZ EP        020 58.44                             106    0.55 6  408 239 
 PAL  HE ES   4    021 40.00                             106   -1.16 0  408 239 
 PAL  HZ I         021 46.96        12.6 0.34            104            408 239 
 MACC HZ EP   4    021  9.47                             101   -2.07 0  524 189 
 MACC HE ES   4    022  1.65                             101   -3.80 0  524 189 
 MACC HZ I         022 18.97         4.9 0.10            100            524 189 
                                                                                
