 2017  5 5 0203 42.2 L   6.780 -73.221152.2  RSN  4 0.0 1.2LRSN                1
 GAP=227        0.30       2.5     2.4  2.9  0.4013E+01 -0.2203E+00 -0.3823E+00E
 Epicentro: ZAPATOCA - SANTANDER                                               3
 ACTION:UPD 17-06-16 13:33 OP:jn   STATUS:               ID:20170505020342 L   I
 OLDACT:REG 17-05-05 12:00 OP:edw  STATUS:               ID:20170505015738     3
 2017-05-05-0158-00M.COL___361                                                 6
 STAT SP IPHASW D HRMM SECON CODA AMPLIT PERI AZIMU VELO AIN AR TRES W  DIS CAZ7
 BRR  HZ EP        2 4  3.83                             156    0.0610 65.2 304 
 BRR  HN ES        2 4 20.51                             156   -0.0510 65.2 304 
 RUS  HZ EP        2 4  6.53                             145   -0.0110 99.3 171 
 RUS  HN ES        2 4 25.52                             145    0.0310 99.3 171 
 RUS  HZ I         2 4 26.81         2.4 0.28            141           99.3 171 
 PTB  HZ EP        2 4  8.91                             135   -0.08 9  139 259 
 PTB  HN ES        2 4 29.86                             135    0.01 9  139 259 
 PTB  HZ I         2 4 37.08         1.9 0.38            130            139 259 
 ZAR  HN ES        2 4 39.58                             125    0.05 9  197 294 
                                                                                
