 2017  7 5 0112 33.4 L   6.856 -73.328125.1  RSN 17 0.3 2.1LRSN                1
 GAP= 61        1.02       3.5     2.7  4.8  0.1247E+01  0.2117E+01  0.3609E+00E
 Epicentro: BETULIA - SANTANDER                                                3
 ACTION:UPD 17-08-30 15:29 OP:rebc STATUS:               ID:20170705011233 L   I
 OLDACT:UP  17-07-05 14:50 OP:edw  STATUS:               ID:20170705010739     3
 OLDACT:UP  17-07-05 14:46 OP:edw  STATUS:               ID:20170705010739     3
 OLDACT:REG 17-07-05 12:23 OP:edw  STATUS:               ID:20170705010739     3
 2017-07-05-0108-00M.COL___371                                                 6
 STAT SP IPHASW D HRMM SECON CODA AMPLIT PERI AZIMU VELO AIN AR TRES W  DIS CAZ7
 BAR2 EZ IP     C  112 50.65                             164   -0.1910 33.3 151 
 BAR2 EZ ES        113  4.42                             164   -0.0210 33.3 151 
 BRR  HZ IP     C  112 51.06                             156   -0.1410 50.7 303 
 BRR  HN ES        113  5.21                             156    0.1210 50.7 303 
 BRR  HZ I         113  6.81        48.1 0.16            156           50.7 303 
 PAM  EZ EP     C  112 54.14                             142   -0.0410 87.6  52 
 PAM  EN ES        113 10.17                             142   -0.2210 87.6  52 
 PAM  EZ I         113 13.92        22.1 0.46            146           87.6  52 
 PTB  HZ IP   9 D  112 56.01                             130   -1.04 0  130 254 
 PTB  HN ES        113 13.09                             131   -1.3610  130 254 
 PTB  HZ I         113 18.15        15.9 0.28            130            130 254 
 SPBC HZ EP   4    112 57.46                             125   -2.28 0  157 212 
 SPBC HN ES        113 19.91                             125   -0.37 9  157 212 
 SPBC HZ I         113 24.86        24.0 0.40            125            157 212 
 TAM  HZ IP     C  113  1.54                             121   -0.13 9  176 105 
 TAM  HN ES        113 23.59                             121   -0.13 9  176 105 
 TAM  HZ I         113 23.95        23.4 0.26            123            176 105 
 ZAR  HZ EP        113  2.73                             120    0.37 9  183 293 
 ZAR  HN ES        113 25.05                             120    0.11 9  183 293 
 ZAR  HZ I         113 30.35        18.9 0.30            121            183 293 
 YPLC HZ IP     C  113  3.68                             118    0.25 9  192 147 
 YPLC HN ES        113 27.25                             118    0.39 9  192 147 
 YPLC HZ I         113 29.45        27.8 0.22            120            192 147 
 NOR  HZ EP        113  6.93                             115    0.26 8  223 230 
 NOR  HN ES   4    113 33.26                             115    0.63 0  223 230 
 HEL  HZ EP   4    113 12.12                             111    1.49 0  254 253 
 HEL  HN ES        113 40.00                             111    0.33 8  254 253 
 HEL  HZ I         113 45.80         7.7 0.24            112            254 253 
 URE  HZ EP        113 11.10                             110   -0.05 8  263 292 
 URE  HN ES   4    113 38.62                             110   -1.98 0  263 292 
 URE  HZ I         113 41.26        13.9 0.14            111            263 292 
 GUY2CHZ EP   4    113 16.33                             108    1.62 0  289 231 
 GUY2CHN ES   4    113 44.96                             108   -1.97 0  289 231 
 GUY2CHZ I         113 52.64        11.5 0.88                           289 231 
 CBOC HZ EP   4    113 18.72                             106    1.16 0  317 250 
 CBOC HN ES   4    113 53.36                             106    1.37 0  317 250 
 CBOC HZ I         113 55.46         3.6 0.24            107            317 250 
 LL6C HZ EP        113 18.17                             106    0.61 7  318   1 
 LL6C HN ES   4    113 54.17                             106    2.17 0  318   1 
 DBB  EZ EP        113 17.76                             106    0.04 7  319 273 
 DBB  EN ES   4    113 50.34                             106   -1.95 0  319 273 
 DBB  EZ I         113 54.69         4.2 0.12            107            319 273 
 PTGC HZ EP   4    113 16.75                             106   -1.24 0  322 156 
 PTGC HN ES   4    113 50.75                             106   -2.03 0  322 156 
 ORTC HN ES   4    114 10.76                             102    3.85 0  389 213 
 PAL  HZ EP        113 25.85                             102   -0.46 6  392 237 
 PAL  HN ES   4    114  4.51                             102   -3.07 0  392 237 
 PAL  HZ I         114 13.96         2.8 0.44            103            392 237 
 SJC  HZ EP        113 25.51                             102   -0.95 6  393 329 
 SJC  HN ES   4    114  4.18                             102   -3.67 0  393 329 
 SJC  HZ I         114  8.99         2.6 0.50            103            393 329 
                                                                                
