 2014 12 5 0930 20.9 L   6.803 -73.145145.6  RSN 12 0.4 1.9LRSN                1
 GAP=136        1.05       3.1     4.3  5.6 -0.5113E+00  0.6756E+01  0.1541E+01E
 Epicentro: LOS SANTOS - SANTANDER                                             3
 ACTION:UPD 15-02-10 17:00 OP:nd   STATUS:               ID:20141205093020 L   I
 OLDACT:UP  14-12-05 15:34 OP:cam  STATUS:               ID:20141205092743     3
 OLDACT:REG 14-12-05 12:53 OP:fm   STATUS:               ID:20141205092743     3
 2014-12-05-0927-43M.COL___294                                                 6
 STAT SP IPHASW D HRMM SECON CODA AMPLIT PERI AZIMU VELO AIN AR TRES W  DIS CAZ7
 BAR2 SZ EP        930 40.54                             170    0.0110 23.7 190 
 BAR2 SZ ES        930 55.95                             170    0.1110 23.7 190 
 BAR2 SZ I         930 58.05        14.5 0.24            168           23.7 190 
 BRR  HZ EP        930 42.36                             153    0.3210 71.1 298 
 BRR  HN ES        930 58.85                             153    0.3310 71.1 298 
 BRR  HN I         930 59.90        27.6 0.30            152           71.1 298 
 PAM  SZ EP     C  930 43.32                             151    0.2310 77.1  40 
 PAM  SN ES        931  0.62                             151    0.2210 77.1  40 
 PAM  SZ I         931  2.62        12.1 0.48            155           77.1  40 
 RUS  HZ EP        930 44.45                             144   -0.2310  101 176 
 RUS  HE ES        931  2.60                             144   -0.6110  101 176 
 RUS  HZ I         931  4.29         4.4 0.46            144            101 176 
 PTB  HZ EP        930 47.36                             132   -0.52 9  148 259 
 PTB  HN ES        931  8.49                             132   -0.42 9  148 259 
 PTB  HZ I         931 14.18         8.4 0.18            132            148 259 
 SPBC HZ EP        930 49.50                             129    0.07 9  163 219 
 SPBC HN ES        931 12.15                             129    0.47 9  163 219 
 SPBC HZ I         931 17.15        13.9 0.14            129            163 219 
 ZAR  HN ES        931 18.70                             122    0.07 9  204 292 
 SML  HZ EP        930 56.87                             117   -0.63 8  243 335 
 SML  HN ES        931 25.46                             117   -0.57 8  243 335 
 SML  HZ I         931 29.11        11.5 0.10            119            243 335 
 CHI  HZ EP        930 58.62                             117   -0.02 8  249 195 
 CHI  HN ES        931 28.09                             117    0.02 8  249 195 
 CHI  HZ I         931 36.51         2.3 0.66            118            249 195 
 HEL  HZ EP        931  2.02                             115    0.89 8  272 256 
 GUY2CHZ EP        931  5.51                             112    0.97 7  301 235 
 TOL  SN ES        931 46.15                             109   -0.71 7  344 225 
 TOL  SZ I         931 54.18        10.0 0.38            110            344 225 
                                                                                
