 2014  9 5 0216  0.8 L   6.762 -73.114154.8  RSN 11 0.5 2.1LRSN                1
 GAP=238        0.90       4.1     5.2  6.0  0.3319E+01  0.4213E+01  0.8588E+01E
 Epicentro: LOS SANTOS - SANTANDER                                             3
 ACTION:UPD 14-10-03 23:02 OP:nd   STATUS:               ID:20140905021600 L   I
 OLDACT:UP  14-09-05 16:27 OP:mh   STATUS:               ID:20140905020817     3
 OLDACT:REG 14-09-05 13:22 OP:mh   STATUS:               ID:20140905020817     3
 2014-09-05-0208-17M.COL___269                                                 6
 STAT SP IPHASW D HRMM SECON CODA AMPLIT PERI AZIMU VELO AIN AR TRES W  DIS CAZ7
 BAR2 SZ EP        216 21.56                             172    0.1410 20.3 202 
 BAR2 SZ ES   1    216 37.01                             172   -0.52 7 20.3 202 
 BAR2 SZ I         216 45.73         9.3 0.19            167           20.3 202 
 BRR  HZ EP   1    216 23.49                             152    0.32 7 76.3 300 
 BRR  HN ES        216 41.14                             152    0.5010 76.3 300 
 BRR  HZ I         216 45.81        14.3 0.16            153           76.3 300 
 RUS  HZ EP   1    216 25.36                             147    0.25 7 96.2 178 
 RUS  HN ES   1    216 43.67                             147   -0.43 7 96.2 178 
 RUS  HZ I         216 46.60        33.9 0.04            148           96.2 178 
 PTB  HZ EP   1    216 28.35                             133   -0.36 7  150 261 
 PTB  HN ES        216 49.92                             133   -0.59 9  150 261 
 PTB  HZ I         216 56.82        18.4 0.40            135            150 261 
 SPBC HZ EP   1    216 30.06                             131    0.19 7  162 221 
 SPBC HN ES   1    216 53.33                             131    0.75 7  162 221 
 SPBC HZ I         216 59.40        24.4 0.30            133            162 221 
 ZAR  HZ EP   1    216 34.33                             124    0.04 6  209 293 
 ZAR  HN ES   1    217  0.53                             124    0.08 6  209 293 
 ZAR  HZ I         217  6.36        12.6 0.41            127            209 293 
 NOR  HZ EP   1    216 36.51                             120   -0.56 6  235 236 
 NOR  HN ES        217  4.94                             120   -0.46 8  235 236 
 NOR  HZ I         217  9.29         9.7 0.20            123            235 236 
 CHI  HZ EP        216 38.22                             119   -0.42 8  246 196 
 CHI  HN ES        217  8.57                             119    0.38 8  246 196 
 CHI  HZ I         217 16.73         4.1 0.26            123            246 196 
 GUY2CHZ EP   1    216 45.59                             114    0.74 5  302 236 
 GUY2CHN ES   4    217 20.16                             114    0.92 0  302 236 
 PRA  HZ EP   1    216 53.98                             108   -0.40 4  390 210 
 PRA  HE ES        217 36.89                             108    0.68 6  390 210 
 PRA  HZ I         217 43.32         4.0 0.61            111            390 210 
 ORTC HZ EP   1    216 54.07                             108   -0.78 4  394 217 
 ORTC HN ES   1    217 37.47                             108    0.43 4  394 217 
 ORTC HZ I         217 44.46         2.6 0.16            111            394 217 
 SJC  HZ EP   4    216 54.44                             107   -2.82 0  415 327 
 SJC  HN ES   4    217 37.32                             107   -4.01 0  415 327 
                                                                                
