 2013  7 5 0341  5.1 L   6.799 -73.409110.1  RSN  4 0.2 1.4LRSN                1
 GAP=155        0.49       3.2     5.5  4.3  0.1071E+02  0.5863E+01  0.5020E+01E
 Epicentro: SAN VICENTE DE CHUCURI - SANTANDER                                 3
 ACTION:UPD 13-08-12 10:35 OP:ep   STATUS:               ID:20130705034105 L   I
 OLDACT:REG 13-07-05 08:53 OP:stll STATUS:               ID:20130705033838     3
 2013-07-05-0338-38M.COL___236                                                 6
 STAT SP IPHASW D HRMM SECON CODA AMPLIT PERI AZIMU VELO AIN AR TRES W  DIS CAZ7
 BAR2 SZ ES        341 32.82                             162   -0.2410 33.9 132 
 BAR2 SZ I         341 33.57         6.5 0.40            163           33.9 132 
 GIR2 SZ EP        341 20.98                             159    0.1010 39.0  38 
 GIR2 SZ ES        341 33.25                             159    0.0710 39.0  38 
 BRR  HZ EP        341 20.83                             155   -0.2610 47.8 315 
 BRR  HN ES        341 33.72                             155    0.1610 47.8 315 
 BRR  HN I         341 34.16         9.0 0.20            155           47.8 315 
 RUS  HZ EP        341 26.13                             133    0.0610  107 160 
 RUS  HN ES        341 42.53                             133    0.1010  107 160 
                                                                                
