 2014  7 5 0919 12.5 L   6.833 -73.135143.9  RSN  8 0.4 1.9LRSN                1
 GAP=210        0.92       5.6     5.7  6.6  0.1105E+02  0.9376E+01 -0.8452E+01E
 Epicentro: LOS SANTOS - SANTANDER                                             3
 ACTION:UPD 15-03-16 20:41 OP:nd   STATUS:               ID:20140705091912 L   I
 OLDACT:UP  14-07-05 18:23 OP:cam  STATUS:               ID:20140705091738     3
 OLDACT:REG 14-07-05 18:16 OP:cam  STATUS:               ID:20140705091738     3
 2014-07-05-0917-38M.COL___256                                                 6
 STAT SP IPHASW D HRMM SECON CODA AMPLIT PERI AZIMU VELO AIN AR TRES W  DIS CAZ7
 BAR2 SZ EP        919 32.27                             169    0.2510 27.1 191 
 BAR2 SZ ES        919 47.22                             169   -0.0010 27.1 191 
 BAR2 SZ I         919 49.92        19.1 0.20            169           27.1 191 
 RUS  HZ EP   1    919 36.66                             143    0.29 7  104 177 
 RUS  HE ES        919 54.81                             143   -0.1410  104 177 
 RUS  HZ I         919 57.94         6.0 0.34            147            104 177 
 PTB  HZ EP        919 39.16                             131   -0.36 9  150 258 
 PTB  HN ES        920  0.27                             131   -0.30 9  150 258 
 PTB  HZ I         920  5.87        11.0 0.36            133            150 258 
 SPBC HZ EP        919 41.31                             128    0.08 9  167 219 
 SPBC HN ES        920  3.29                             128   -0.32 9  167 219 
 SPBC HZ I         920  5.95        14.5 0.16            131            167 219 
 ZAR  HZ EP        919 44.86                             122    0.03 9  204 291 
 ZAR  HN ES        920 10.72                             122    0.70 9  204 291 
 ZAR  HZ I         920 16.46         6.8 0.32            124            204 291 
 HEL  HZ EP   1    919 52.24                             114   -0.64 6  274 255 
 GUY2CHZ EP        919 57.20                             112    0.80 7  304 234 
 SJC  HZ EP   1    920  6.53                             105   -1.22 4  407 327 
                                                                                
