 2016  5 5 0024 15.1 L   7.415 -73.706  2.7  RSN  7 0.3 1.2LRSN                1
 GAP=180        0.70       2.5     1.4  3.7  0.7070E+00  0.2451E+00  0.2779E+01E
 Epicentro: PUERTO WILCHES - SANTANDER                                         3
 ACTION:UPD 16-08-18 17:42 OP:cam  STATUS:               ID:20160505002415 L   I
 OLDACT:REG 16-05-05 12:22 OP:ak   STATUS:               ID:20160505001749     3
 2016-05-05-0017-49M.COL___307                                                 6
 STAT SP IPHASW D HRMM SECON CODA AMPLIT PERI AZIMU VELO AIN AR TRES W  DIS CAZ7
 BRR  HZ IP     D  024 20.63                              47   -0.3810 34.0 181 
 BRR  HN ES        024 25.56                              47   -0.0810 34.0 181 
 BRR  HZ I         024 26.03        20.0 0.28             47           34.0 181 
 BAR2 EZ EP        024 32.72                              47    0.2810  108 148 
 BAR2 EZ ES        024 46.06                              47    0.0810  108 148 
 BAR2 EZ I         024 47.05         3.6 0.17             47            108 148 
 PAM  EZ EP   2    024 33.51                              47    0.27 5  111  94 
 PAM  EN ES        024 47.13                              47   -0.2810  111  94 
 PAM  EZ I         024 48.09         5.0 0.22             47            111  94 
 PTB  HZ EP        024 35.32                              47    0.1310  127 221 
 PTB  HN ES        024 50.49                              47   -0.3910  127 221 
 PTB  HZ I         024 52.03        10.0 0.22             47            127 221 
 ZAR  HZ EP        024 35.01                              47   -0.1810  127 274 
 ZAR  HN ES        024 50.88                              47    0.0110  127 274 
 ZAR  HZ I         024 52.23         8.0 0.17             47            127 274 
 RUS  HZ EP        024 44.27                              37    0.39 9  182 158 
 RUS  HE ES        025  6.40                              37    0.06 9  182 158 
 RUS  HZ I         025  8.55         2.3 0.18             47            182 158 
 HEL  HN ES        025 20.18                              37    0.55 8  243 236 
                                                                                
