 2014 11 5 0510  1.8 L   6.823 -73.187143.1  RSN 14 0.4 2.0LRSN                1
 GAP= 68        0.95       2.9     3.2  4.9 -0.2769E+01  0.2532E+01  0.2437E+01E
 Epicentro: ZAPATOCA - SANTANDER                                               3
 ACTION:UPD 14-12-19 15:39 OP:nd   STATUS:               ID:20141105051001 L   I
 OLDACT:UP  14-11-05 14:40 OP:cam  STATUS:               ID:20141105050811     3
 OLDACT:UP  14-11-05 14:39 OP:cam  STATUS:               ID:20141105050811     3
 OLDACT:REG 14-11-05 13:21 OP:cam  STATUS:               ID:20141105050811     3
 2014-11-05-0508-11M.COL___271                                                 6
 STAT SP IPHASW D HRMM SECON CODA AMPLIT PERI AZIMU VELO AIN AR TRES W  DIS CAZ7
 BAR2 SZ EP        510 21.10                             169   -0.0310 25.5 179 
 BAR2 SZ ES        510 35.70                             169   -0.5310 25.5 179 
 BAR2 SZ I         510 37.47        21.9 0.16            169           25.5 179 
 BRR  HZ EP        510 22.93                             154    0.5810 66.0 298 
 BRR  HN ES        510 38.83                             154    0.4410 66.0 298 
 BRR  HZ I         510 40.67        15.0 0.18            152           66.0 298 
 PAM  SZ EP        510 23.84                             150    0.0710 78.5  43 
 PAM  SN ES        510 40.85                             150   -0.0810 78.5  43 
 PAM  SZ I         510 43.03        22.3 0.48            154           78.5  43 
 RUS  HZ EP        510 25.18                             142   -0.3010  104 174 
 RUS  HE ES        510 44.29                             142    0.3210  104 174 
 RUS  HZ I         510 45.55        14.7 0.40            145            104 174 
 PTB  HZ EP        510 27.61                             132   -0.56 9  144 257 
 PTB  HE ES        510 49.02                             132    0.27 9  144 257 
 PTB  HZ I         510 55.13        12.6 0.42            132            144 257 
 OCA  HZ EP        510 29.86                             130    0.27 9  157 355 
 OCA  HN ES        510 50.93                             130   -0.36 9  157 355 
 OCA  HZ I         510 55.65        10.6 0.20            132            157 355 
 TAM  HZ EP     C  510 29.47                             129   -0.25 9  160 105 
 SPBC HZ EP        510 30.10                             129    0.11 9  162 217 
 SPBC HN ES        510 52.34                             129    0.34 9  162 217 
 SPBC HZ I         510 59.28        19.8 0.44            130            162 217 
 NOR  HZ EP        510 37.22                             118    0.11 8  233 233 
 NOR  HN ES        511  4.44                             118   -0.24 8  233 233 
 NOR  HZ I         511 10.13        10.5 0.30            119            233 233 
 CHI  HZ EP        510 39.43                             116   -0.04 8  250 194 
 CHI  HN ES        511  9.05                             116    0.18 8  250 194 
 CHI  HN I         511 11.51         9.6 0.54            118            250 194 
 HEL  HZ EP   4    510 43.48                             115    2.05 0  268 255 
 HEL  HN ES        511 11.54                             115   -0.83 8  268 255 
 HEL  HZ I         511 20.66         5.0 0.46            116            268 255 
 GUY2CHZ EP        510 45.85                             112    0.84 7  299 234 
 GUY2CHE ES        511 18.11                             112   -0.62 7  299 234 
 GUY2CHZ I         511 29.19         5.0 0.30                           299 234 
 CBOC HZ EP   4    510 49.31                             110    1.14 0  330 251 
 CBOC HN ES        511 24.53                             110    0.17 7  330 251 
 MON  HZ EP   4    510 48.19                             108   -1.89 0  349 309 
 MON  HN ES   4    511 26.13                             108   -1.62 0  349 309 
 MON  HZ I         511 27.83         1.3 0.24            110            349 309 
                                                                                
