 2014 11 5 0735 50.2 L   6.844 -73.179144.6  RSN  4 0.3 1.5LRSN                1
 GAP=147        0.85       4.8     5.0  8.3 -0.1035E+02  0.1159E+02 -0.2964E+00E
 Epicentro: ZAPATOCA - SANTANDER                                               3
 ACTION:UPD 14-12-19 15:39 OP:nd   STATUS:               ID:20141105073550 L   I
 OLDACT:UP  14-11-05 17:46 OP:cam  STATUS:               ID:20141105072808     3
 OLDACT:REG 14-11-05 13:26 OP:cam  STATUS:               ID:20141105072808     3
 2014-11-05-0728-08M.COL___262                                                 6
 STAT SP IPHASW D HRMM SECON CODA AMPLIT PERI AZIMU VELO AIN AR TRES W  DIS CAZ7
 PAM  SZ EP        736 12.74                             151    0.4710 76.2  44 
 PAM  SN ES        736 29.34                             151   -0.1110 76.2  44 
 PAM  SZ I         736 32.02         3.7 0.62            158           76.2  44 
 RUS  HZ EP        736 13.85                             142   -0.4110  106 174 
 RUS  HN ES        736 32.89                             142   -0.1010  106 174 
 RUS  HN I         736 34.31         4.2 0.38            148            106 174 
 PTB  HZ EP        736 16.80                             132   -0.09 9  145 257 
 PTB  HN ES        736 37.41                             132   -0.26 9  145 257 
 PTB  HZ I         736 45.33         3.6 0.36            134            145 257 
 SPBC HZ EP        736 18.72                             128   -0.08 9  165 217 
 SPBC HN ES        736 41.70                             128    0.62 9  165 217 
 SPBC HZ I         736 48.06         5.2 0.32            132            165 217 
                                                                                
