 2013  6 5 0848 33.8 L   7.090 -73.794144.6  RSN  4 0.2 1.9LRSN                1
 GAP=152        0.53       4.7     7.7  7.1 -0.2363E+02  0.1999E+02 -0.8697E+01E
 Epicentro: BARRANCABERMEJA - SANTANDER                                        3
 ACTION:UPD 14-01-08 09:52 OP:ep   STATUS:               ID:20130605084833 L   I
 OLDACT:REG 13-06-05 14:37 OP:mh   STATUS:               ID:20130605084750     3
 2013-06-05-0847-50M.COL___220                                                 6
 STAT SP IPHASW D HRMM SECON CODA AMPLIT PERI AZIMU VELO AIN AR TRES W  DIS CAZ7
 BRR  HZ EP   1    848 52.21                             176   -0.47 7 9.22  78 
 BRR  HE ES        849  7.46                             176    0.0110 9.22  78 
 BAR2 SZ ES   2    849 13.66                             148    0.13 5 87.1 129 
 PTB  HZ EP   1    848 56.63                             145    0.29 7 95.2 230 
 PTB  HN ES   2    849 13.87                             145   -0.08 5 95.2 230 
 PTB  HN I         849 22.83        10.5 0.60            138           95.2 230 
 OCA  HN ES        849 20.36                             134    0.08 9  137  22 
 OCA  HN I         849 23.14        12.5 0.18            136            137  22 
                                                                                
