 2017 11 5 0825 59.7 L   6.743 -73.220149.3  RSN  4 0.3 0.9LRSN                1
 GAP=220        0.92       7.3     6.8  7.4  0.2409E+02  0.5419E+01  0.2239E+01E
 Epicentro: VILLANUEVA - SANTANDER                                             3
 ACTION:UPD 17-12-12 19:52 OP:rebc STATUS:               ID:20171105082559 L   I
 OLDACT:REG 17-11-05 16:08 OP:dnl  STATUS:               ID:20171105081745     3
 2017-11-05-0818-00M.COL___420                                                 6
 STAT SP IPHASW D HRMM SECON CODA AMPLIT PERI AZIMU VELO AIN AR TRES W  DIS CAZ7
 BAR2 EZ EP        826 18.92                             173   -0.7810 17.2 166 
 BAR2 EZ ES        826 35.21                             173   -0.0510 17.2 166 
 BRR  HZ EP        826 21.48                             154    0.3910 67.6 307 
 BRR  HN ES        826 37.89                             154    0.1610 67.6 307 
 BRR  HZ I         826 50.10         1.8 0.52            151           67.6 307 
 RUS  HZ EP        826 23.65                             146    0.1710 95.3 171 
 RUS  HE ES        826 42.21                             146    0.2210 95.3 171 
 RUS  HZ I         826 43.33         1.8 0.40            155           95.3 171 
 PTB  HZ EP        826 26.34                             135    0.14 9  139 261 
 PTB  HN ES        826 46.56                             135   -0.27 9  139 261 
 PTB  HZ I         826 54.39         0.5 0.18            136            139 261 
                                                                                
