 2016  1 5 0748 35.8 L   6.782 -73.173153.6  RSN  6 0.4 1.0LRSN                1
 GAP=134        1.00       4.0     6.0  8.4  0.2463E+01 -0.9203E+01 -0.9297E+01E
 Epicentro: LOS SANTOS - SANTANDER                                             3
 ACTION:UPD 16-03-09 23:23 OP:cam  STATUS:               ID:20160105074835 L   I
 OLDACT:DUP 16-01-05 15:56 OP:drio STATUS:               ID:20160105074751d    3
 2016-01-05-0747-50M.COL___329                                                 6
 STAT SP IPHASW D HRMM SECON CODA AMPLIT PERI AZIMU VELO AIN AR TRES W  DIS CAZ7
 BRR  HZ EP        748 57.99                             154    0.3010 69.5 301 
 BRR  HN ES        749 15.12                             154    0.3410 69.5 301 
 PAM  EZ EP        748 58.66                             151   -0.3710 80.8  40 
 PAM  EZ I         749 17.15         1.1 0.18            146           80.8  40 
 RUS  HZ EP        749  0.20                             146    0.0110 98.9 174 
 RUS  HE ES        749 19.10                             146   -0.1410 98.9 174 
 RUS  HZ I         749 20.83         0.8 0.24            147           98.9 174 
 PTB  HZ EP        749  3.30                             134    0.20 9  144 259 
 PTB  HN ES        749 23.52                             134   -0.90 9  144 259 
 PTB  HZ I         749 29.91         1.5 0.38            138            144 259 
 SPBC HZ EP        749  4.35                             131   -0.22 9  160 219 
 SPBC HN ES        749 27.68                             131    0.64 9  160 219 
 SPBC HZ I         749 31.22         2.1 0.18            134            160 219 
 SML  HZ EP        749 13.13                             119    0.22 8  244 336 
 SML  HN ES        749 41.86                             119   -0.02 8  244 336 
 SML  HZ I         749 44.96         1.4 0.10            119            244 336 
                                                                                
