 2016 12 5 0652 26.1 L   6.292 -73.729 93.5  RSN  4 0.4 1.3LRSN                1
 GAP=228        0.95       7.6     4.1  9.2  0.3747E+01  0.1235E+02  0.7749E+01E
 Epicentro: LANDAZURI - SANTANDER                                              3
 ACTION:UPD 17-01-11 20:12 OP:rebc STATUS:               ID:20161205065226 L   I
 OLDACT:REG 16-12-05 15:26 OP:ar   STATUS:               ID:20161205064742     3
 2016-12-05-0648-00M.COL___342                                                 6
 STAT SP IPHASW D HRMM SECON CODA AMPLIT PERI AZIMU VELO AIN AR TRES W  DIS CAZ7
 BAR2 EZ EP        652 42.16                             141    0.1310 69.0  61 
 BAR2 EZ ES        652 54.91                             141    0.4210 69.0  61 
 BAR2 EZ I         652 55.86         7.0 0.10            141           69.0  61 
 PTB  HZ EP        652 42.79                             134   -0.2610 84.9 289 
 PTB  HN ES        652 56.25                             134   -0.0610 84.9 289 
 PTB  HZ I         652 57.32         3.8 0.15            134           84.9 289 
 BRR  HZ EP        652 43.09                             133   -0.4010 90.1   1 
 BRR  HE ES        652 56.63                             133   -0.4610 90.1   1 
 BRR  HZ I         652 57.79         4.9 0.10            131           90.1   1 
 ZAR  HZ EP        652 53.32                             113    0.13 9  182 317 
 ZAR  HE ES        653 15.05                             113    0.69 9  182 317 
 ZAR  HZ I         653 18.35         2.6 0.15            113            182 317 
                                                                                
