 2014  3 5 0420  2.3 L   6.809 -73.143145.7  RSN  9 0.4 1.9LRSN                1
 GAP=136        1.02       3.9     4.0  6.4 -0.1867E+01  0.9591E+01  0.1734E+01E
 Epicentro: LOS SANTOS - SANTANDER                                             3
 ACTION:UPD 14-04-09 23:14 OP:nd   STATUS:               ID:20140305042002 L   I
 OLDACT:REG 14-03-05 11:30 OP:nd   STATUS:               ID:20140305041743     3
 2014-03-05-0417-43M.COL___232                                                 6
 STAT SP IPHASW D HRMM SECON CODA AMPLIT PERI AZIMU VELO AIN AR TRES W  DIS CAZ7
 BAR2 SZ EP        420 21.94                             170    0.0410 24.4 190 
 BAR2 SZ ES        420 36.92                             170   -0.3110 24.4 190 
 BAR2 SZ I         420 38.52        27.0 0.26            167           24.4 190 
 PAM  SZ EP     C  420 24.95                             151    0.5410 76.4  40 
 PAM  SN ES        420 41.93                             151    0.2510 76.4  40 
 PAM  SZ I         420 44.70         7.8 0.44            156           76.4  40 
 RUS  HZ EP        420 25.83                             143   -0.2510  102 176 
 RUS  HN ES        420 44.59                             143   -0.0710  102 176 
 RUS  HZ I         420 45.86         8.7 0.30            143            102 176 
 PTB  HZ EP        420 28.49                             132   -0.78 9  148 258 
 PTB  HN ES        420 49.58                             132   -0.76 9  148 258 
 PTB  HZ I         420 51.37        10.2 0.46            132            148 258 
 SPBC HZ EP        420 30.91                             129    0.06 9  164 219 
 SPBC HN ES        420 53.82                             129    0.67 9  164 219 
 SPBC HZ I         420 59.96        13.6 0.24            129            164 219 
 ZAR  HZ EP        420 34.40                             122   -0.29 9  204 292 
 ZAR  HN ES        421  0.10                             122    0.11 9  204 292 
 NOR  HZ EP        420 38.17                             118    0.10 8  236 234 
 NOR  HN ES        421  6.53                             118    0.52 8  236 234 
 NOR  HZ I         421 13.88         7.2 0.18            119            236 234 
 CHI  HZ EP        420 40.04                             117   -0.03 8  250 195 
 CHI  HN ES        421  9.28                             117   -0.28 8  250 195 
 CHI  HZ I         421 15.82         3.2 0.30            118            250 195 
 HEL  HZ EP   2    420 42.69                             115    0.16 4  273 256 
 HEL  HN ES        421 14.67                             115    0.73 8  273 256 
 HEL  HZ I         421 21.64         5.0 0.40            115            273 256 
 GUY2CHN ES   4    421 23.36                             112    3.31 0  302 235 
                                                                                
