 2012 11 5 0034 38.6 L   7.218 -73.105144.9  RSN  5 0.2 1.7LRSN                1
 GAP=136        0.35       4.8    18.6 10.5  0.3807E+02  0.6048E+02  0.1642E+02E
 Epicentro: RIONEGRO - SANTANDER                                               3
 ACTION:UPD 12-12-05 15:31 OP:}ep  STATUS:               ID:20121105003438 L   I
 2012-11-05-0030-00M.COL___230                                                 6
 STAT SP IPHASW D HRMM SECON CODA AMPLIT PERI AZIMU VELO AIN AR TRES W  DIS CAZ7
 GIR2 SZ EP        034 57.95                             173    0.0510 18.2 212 
 GIR2 SZ ES   3    035 12.98                             173    0.04 2 18.2 212 
 PAM  SN ES   3    035 15.31                             161    0.04 2 46.8  73 
 BAR2 SZ ES   3    035 16.85                             153    0.30 2 69.7 187 
 BAR2 SZ I         035 20.00         5.5 0.16                          69.7 187 
 OCA  HN ES   2    035 21.73                             139   -0.16 5  115 348 
 OCA  HN I         035 24.01        11.7 0.16                           115 348 
 RUS  HN ES   3    035 26.77                             132   -0.67 2  147 179 
                                                                                
