 2015  6 5 0207  4.4 L   6.787 -73.123136.7  RSN  7 0.5 1.5LRSN                1
 GAP=222        1.23       4.6     8.5  8.1  0.5449E+00  0.1905E+02  0.5988E+01E
 Epicentro: LOS SANTOS - SANTANDER                                             3
 ACTION:UPD 15-09-10 22:09 OP:cam  STATUS:               ID:20150605020704 L   I
 OLDACT:REG 15-06-05 12:32 OP:ak   STATUS:               ID:20150605015749     3
 2015-06-05-0157-49M.COL___303                                                 6
 STAT SP IPHASW D HRMM SECON CODA AMPLIT PERI AZIMU VELO AIN AR TRES W  DIS CAZ7
 BAR2 EZ EP        2 7 22.88                             170    0.0110 22.5 197 
 BAR2 EZ ES        2 7 37.22                             170   -0.1010 22.5 197 
 BAR2 EZ I         2 7 38.86        11.6 0.16            171           22.5 197 
 BRR  HZ EP        2 7 24.81                             150    0.1010 74.2 299 
 BRR  HN ES        2 7 41.45                             150    0.8710 74.2 299 
 BRR  HZ I         2 7 46.77         5.0 0.18            150           74.2 299 
 SPBC HZ EP        2 7 32.06                             127   -0.16 9  164 220 
 SPBC HN ES        2 7 52.97                             127   -0.98 9  164 220 
 SPBC HZ I         2 7 54.86         4.9 0.13            130            164 220 
 ZAR  HN ES        2 8  0.92                             120   -0.71 8  207 292 
 SML  HZ EP   1    2 7 40.37                             115   -0.38 6  246 335 
 SML  HN ES        2 8  8.88                             115   -0.26 8  246 335 
 GUY2CHZ EP        2 7 48.60                             110    0.90 7  302 235 
 GUY2CHN ES        2 8 22.19                             110    0.68 7  302 235 
 GUY2CHZ I         2 8 25.71         1.0 0.34                           302 235 
 PRA  HZ EP        2 7 57.59                             105    0.02 6  392 210 
 PRA  HN ES        2 8 39.29                             105    0.21 6  392 210 
                                                                                
