 2013  3 5 0756 12.9 L   6.779 -73.191147.0  RSN  6 0.3 1.8LRSN                1
 GAP=196        0.77       4.0     5.1  6.0  0.8447E+01 -0.7683E+00 -0.8748E+01E
 Epicentro: LOS SANTOS - SANTANDER                                             3
 ACTION:UPD 13-04-09 13:59 OP:ep   STATUS:               ID:20130305075612 L   I
 2013-03-05-0750-00M.COL___228                                                 6
 STAT SP IPHASW D HRMM SECON CODA AMPLIT PERI AZIMU VELO AIN AR TRES W  DIS CAZ7
 BAR2 SZ EP        756 32.72                             172    0.1110 20.7 177 
 BAR2 SZ ES   1    756 47.27                             172   -0.73 7 20.7 177 
 BAR2 SZ I         756 49.00        21.9 0.20            170           20.7 177 
 BRR  HZ IP     C  756 34.46                             154    0.4710 68.1 302 
 BRR  HZ I         756 34.68        12.4 0.12            151           68.1 302 
 BRR  HE ES        756 50.89                             154    0.4310 68.1 302 
 RUS  HZ EP   1    756 36.84                             145    0.21 7 98.8 173 
 RUS  HN ES        756 55.08                             145   -0.0710 98.8 173 
 RUS  HN I         756 56.16        11.8 0.31            145           98.8 173 
 PTB  HZ EP        756 39.32                             133   -0.16 9  142 259 
 PTB  HN ES        757  0.11                             133   -0.11 9  142 259 
 PTB  HZ I         757  2.57         5.0 0.07            132            142 259 
 ZAR  HZ EP   1    756 45.14                             123    0.11 6  200 293 
 ZAR  HE ES   1    757  9.81                             123   -0.29 6  200 293 
 ZAR  HZ I         757 16.23         4.8 0.15            123            200 293 
 SML  HZ EP        756 49.17                             118   -0.42 8  244 337 
 SML  HE ES        757 18.11                             118   -0.10 8  244 337 
                                                                                
