 2013  5 5 0905  9.5 L   6.833 -73.162144.3  RSN 12 0.7 2.2LRSN                1
 GAP= 69        1.58       4.3     6.1  8.1 -0.5495E+01  0.7516E+01  0.3226E+01E
 Epicentro: LOS SANTOS - SANTANDER                                             3
 ACTION:UPD 13-06-20 09:48 OP:ep   STATUS:               ID:20130505090509 L   I
 2013-05-05-0858-39M.COL___215                                                 6
 STAT SP IPHASW D HRMM SECON CODA AMPLIT PERI AZIMU VELO AIN AR TRES W  DIS CAZ7
 BAR2 SZ EP        9 5 28.84                             169   -0.1310 26.7 185 
 BAR2 SZ ES        9 5 43.64                             169   -0.5610 26.7 185 
 BAR2 SZ I         9 5 47.28        20.2 0.26            168           26.7 185 
 GIR2 SZ EP        9 5 28.88                             169    0.0310 27.4 353 
 BRR  HZ EP        9 5 30.68                             153    0.4310 67.9 297 
 BRR  HN ES        9 5 47.71                             153    1.2310 67.9 297 
 BRR  HN I         9 5 48.72        52.2 0.18            152           67.9 297 
 PAM  SZ EP        9 5 31.73                             151    0.3210 75.8  42 
 PAM  SN ES        9 5 48.76                             151    0.2110 75.8  42 
 PAM  SN I         9 5 50.32        23.5 0.36            155           75.8  42 
 RUS  HZ EP        9 5 32.86                             142   -0.4710  104 175 
 RUS  HN ES        9 5 51.44                             142   -0.5210  104 175 
 RUS  HN I         9 5 53.38        33.3 0.34            143            104 175 
 PTB  HZ EP        9 5 35.88                             132   -0.32 9  147 257 
 PTB  HN ES        9 5 56.67                             132   -0.39 9  147 257 
 PTB  HN I         9 6  1.46        18.7 0.44            132            147 257 
 OCA  HZ EP        9 5 37.89                             130    0.61 9  156 354 
 OCA  HN ES        9 5 58.50                             130   -0.49 9  156 354 
 OCA  HN I         9 6  2.32        35.7 0.56            132            156 354 
 TAM  HZ IP     D  9 5 37.21                             130   -0.06 9  158 106 
 NOR  HZ EP        9 5 44.78                             118   -0.38 8  235 233 
 NOR  HN ES        9 6 12.30                             118   -0.72 8  235 233 
 NOR  HN I         9 6 21.78        19.6 0.18            119            235 233 
 SML  HZ EP        9 5 45.16                             118   -0.39 8  240 335 
 SML  HN ES        9 6 13.03                             118   -0.68 8  240 335 
 ROSC BZ EP        9 5 49.14                             116    1.41 8  255 210 
 ROSC BN ES        9 6 19.24                             116    1.65 8  255 210 
 ROSC BZ I         9 6 22.60         6.2 0.35            117            255 210 
 PRA  HZ EP        9 6  2.66                             106   -0.53 6  394 209 
 PRA  HN ES        9 6 44.35                             106   -0.75 6  394 209 
 PRA  HN I         9 6 50.74         3.4 0.42            107            394 209 
                                                                                
