 2011  1 5 0227 58.4 L   6.346 -73.619107.6  RSN  8 0.5 1.7LRSN                1
 GAP=104        0.91       4.7     6.0 10.6 -0.1573E+02  0.4165E+02 -0.1830E+02E
 Epicentro: SANTA HELENA DEL OPON - SANTANDER                                  3
 ACTION:UP  11-02-08 08:38 OP:pat  STATUS:               ID:20110105022758 L   I
 2011-01-05-0225-01S.COL___134                                                 6
 STAT SP IPHASW D HRMM SECON CODA AMPLIT PERI AZIMU VELO SNR AR TRES W  DIS CAZ7
 BAR2 SZ IP        228 14.93                             151     0.010   55  61 
 BAR2 SZ I         228 15.22        27.2 0.09                            55  61 
 BAR2 SZ ES   1    228 28.03                             151     0.2 7   55  61 
 RUS  HZ EP   1    228 16.60                             142    -0.2 7   78 130 
 RUS  HN ES   1    228 31.12                             142     0.0 7   78 130 
 RUS  HZ I         228 34.06        10.0 0.59                            78 130 
 NOR  SZ EP   2    228 23.88                             119    -0.4 5  163 238 
 NOR  SN ES   2    228 43.90                             119    -0.6 5  163 238 
 CHI  HZ EP   2    228 27.55                             115    -0.1 4  190 184 
 CHI  HE ES   2    228 49.94                             115    -0.6 4  190 184 
 GRA  SZ EP   1    228 28.35                             114     0.7 7  193  28 
 GRA  SZ ES   1    228 50.04                             114    -0.4 7  193  28 
 GRA  SZ I         228 52.50         8.6 0.27                           193  28 
 HEL  HZ EP   1    228 29.55                             112    -0.5 6  212 265 
 HEL  HZ I         228 57.54         3.4 0.46                           212 265 
 OCA  SZ EP   2    228 30.69                             112     0.9 4  212   9 
 OCA  SZ ES   2    228 53.43                             112    -0.8 4  212   9 
 OCA  SZ I         228 55.32         5.0 0.25                           212   9 
 HEL  HN ES   2    228 54.89                             112     0.1 4  212 265 
 RREF HZ EP   1    228 34.66                             108     0.0 6  249 230 
 RREF HE ES   1    229  4.04                             108     1.0 6  249 230 
 RREF HZ I         229  7.15         2.6 0.42                           249 230 
                                                                                
