 2013  7 5 0549 43.4 L   6.210 -73.562125.7  RSN  6 0.6 1.7LRSN                1
 GAP=104        1.55       6.1     7.8 12.8  0.8416E+01  0.2271E+02  0.6967E+01E
 Epicentro: LA PAZ - SANTANDER                                                 3
 ACTION:UPD 13-08-12 10:35 OP:ep   STATUS:               ID:20130705054943 L   I
 OLDACT:UP  13-07-05 13:03 OP:stll STATUS:               ID:20130705054837     3
 OLDACT:REG 13-07-05 08:58 OP:stll STATUS:               ID:20130705054837     3
 2013-07-05-0548-37M.COL___230                                                 6
 STAT SP IPHASW D HRMM SECON CODA AMPLIT PERI AZIMU VELO AIN AR TRES W  DIS CAZ7
 BAR2 SZ EP        550  1.99                             153   -0.0410 59.6  45 
 BAR2 SZ ES        550 16.86                             153    0.2710 59.6  45 
 BAR2 SZ I         550 17.67        11.0 0.32            154           59.6  45 
 RUS  HZ EP        550  2.04                             152   -0.5810 63.5 123 
 RUS  HN ES        550 16.92                             152   -0.7310 63.5 123 
 RUS  HN I         550 18.76         5.8 0.50            154           63.5 123 
 BRR  HZ EP        550  4.81                             139    0.3010  101 351 
 BRR  HN ES        550 21.76                             139    0.7510  101 351 
 BRR  HN I         550 22.38        18.2 0.18            140            101 351 
 GIR2 SZ EP        550  5.21                             138    0.2010  104  23 
 PTB  HZ EP        550  4.20                             137   -0.7310  105 290 
 PTB  HN ES        550 21.37                             137   -0.3910  105 290 
 PTB  HN I         550 22.79        12.1 0.28            139            105 290 
 CHI  HN ES        550 35.73                             122    1.19 9  176 186 
                                                                                
