 2017  1 5 0554 15.2 L   6.785 -73.172142.2  RSN  6 0.4 1.2LRSN                1
 GAP=134        1.05       4.5     5.3  7.0 -0.2364E+01  0.3985E+01  0.8350E+01E
 Epicentro: LOS SANTOS - SANTANDER                                             3
 ACTION:UPD 17-05-22 15:55 OP:jn   STATUS:               ID:20170105055415 L   I
 OLDACT:DUP 17-01-05 15:34 OP:lv   STATUS:               ID:20170105054745d    3
 2017-01-05-0548-00M.COL___374                                                 6
 STAT SP IPHASW D HRMM SECON CODA AMPLIT PERI AZIMU VELO AIN AR TRES W  DIS CAZ7
 BAR2 EZ EP        554 34.88                             171    0.5710 21.4 183 
 BAR2 EZ ES        554 48.58                             171   -0.6710 21.4 183 
 BAR2 EZ I         554 50.72         4.6 0.18            170           21.4 183 
 BRR  HZ EP        554 36.00                             152    0.1910 69.5 301 
 BRR  HN ES        554 52.55                             152    0.6210 69.5 301 
 PAM  EZ EP        554 37.11                             149   -0.0710 80.5  40 
 PAM  EE ES        554 54.24                             149   -0.1110 80.5  40 
 PAM  EZ I         554 56.21         3.7 0.44            151           80.5  40 
 RUS  HZ EP        554 38.18                             143   -0.2710 99.2 174 
 RUS  HN ES        554 56.87                             143    0.2510 99.2 174 
 RUS  HZ I         554 57.91         2.6 0.30            144           99.2 174 
 PTB  HZ EP        554 40.90                             132   -0.64 9  145 259 
 PTB  HN ES        555  1.90                             132   -0.22 9  145 259 
 PTB  HZ I         555  4.36         1.7 0.17            133            145 259 
 CHI  HZ EP        554 52.57                             117    0.17 8  246 195 
 CHI  HN ES        555 21.68                             117    0.23 8  246 195 
 CHI  HZ I         555 24.77         1.1 0.46            117            246 195 
                                                                                
