 2017 12 5 0250 13.0 L   6.641 -74.159  4.0  RSN  7 0.7 1.8LRSN                1
 GAP=132        1.68       4.3     3.1  8.7  0.3426E+01  0.2700E+01  0.4956E+01E
 Epicentro: PUERTO PARRA - SANTANDER                                           3
 ACTION:UPD 18-01-04 13:17 OP:rebc STATUS:               ID:20171205025013 L   I
 OLDACT:UP  17-12-05 16:23 OP:e    STATUS:               ID:20171205024738     3
 OLDACT:REG 17-12-05 13:28 OP:y    STATUS:               ID:20171205024738     3
 2017-12-05-0248-00M.COL___488                                                 6
 STAT SP IPHASW D HRMM SECON CODA AMPLIT PERI AZIMU VELO AIN AR TRES W  DIS CAZ7
 PTB  HZ IP        250 19.34                              47    0.5010 34.7 251 
 PTB  HN ES        250 24.23                              47    0.8110 34.7 251 
 PTB  HZ I         250 24.39       144.2 0.22             47           34.7 251 
 BAR2 EZ EP        250 30.92                              47    0.7310  108  93 
 BAR2 EZ ES        250 44.30                              47    0.6710  108  93 
 BAR2 EZ I         250 46.24        23.3 0.62             47            108  93 
 SPBC HZ EP        250 29.89                              47   -0.4010  110 175 
 SPBC HN ES        250 42.91                              47   -0.8910  110 175 
 SPBC HZ I         250 43.57        15.6 0.12             47            110 175 
 ZAR  HZ EP        250 32.06                              47    0.0510  122 321 
 ZAR  HE ES        250 45.55                              47   -1.3210  122 321 
 ZAR  HZ I         250 47.49        13.2 0.16             47            122 321 
 RUS  HZ EP        250 36.19                              47    0.15 9  145 125 
 RUS  HN ES        250 53.32                              47   -0.72 9  145 125 
 RUS  HZ I         250 55.38        16.0 0.24             47            145 125 
 GUY2CHZ EP        250 44.28                              37   -0.25 8  206 220 
 GUY2CHE ES   4    251  7.05                              37   -2.10 0  206 220 
 GUY2CHZ I         251  8.23         4.6 0.24                           206 220 
 CBOC HZ EP        250 46.48                              37    0.26 8  222 247 
 CBOC HN ES        251 12.56                              37    0.40 8  222 247 
                                                                                
