 2013  2 5 0844 35.3 L   6.785 -73.180147.6  RSN  8 0.5 1.6LRSN                1
 GAP=179        1.11       5.6     7.6  8.5  0.1635E+02  0.9727E+01  0.4570E+01E
 Epicentro: LOS SANTOS - SANTANDER                                             3
 ACTION:UPD 13-03-12 09:30 OP:ep   STATUS:               ID:20130205084435 L   I
 2013-02-05-0840-00M.COL___241                                                 6
 STAT SP IPHASW D HRMM SECON CODA AMPLIT PERI AZIMU VELO AIN AR TRES W  DIS CAZ7
 BAR2 SZ EP   1    844 55.26                             172    0.19 7 21.3 181 
 BAR2 SZ ES        845  9.77                             172   -0.7510 21.3 181 
 BAR2 SZ I         845 11.53        11.0 0.22            174           21.3 181 
 BRR  HZ EP        844 56.74                             154    0.2710 68.8 301 
 BRR  HN ES        845 13.99                             154    0.9810 68.8 301 
 RUS  HZ EP        844 59.13                             145    0.0410 99.3 174 
 RUS  HN ES        845 17.82                             145    0.1310 99.3 174 
 RUS  HZ I         845 19.20         2.0 0.24            145           99.3 174 
 PTB  HZ EP        845  1.68                             133   -0.33 9  144 259 
 PTB  HN ES        845 22.36                             133   -0.53 9  144 259 
 PTB  HZ I         845 24.28         2.3 0.26            131            144 259 
 OCA  HN ES   2    845 26.03                             130   -0.08 5  162 355 
 OCA  HN I         845 27.66        11.8 0.24            126            162 355 
 ZAR  HN ES   2    845 32.77                             123    0.07 4  201 293 
 ZAR  HN I         845 35.09         6.5 0.42            121            201 293 
 SML  HE ES   2    845 39.55                             118   -1.08 4  244 336 
 SML  HE I         845 51.64         6.8 0.10            115            244 336 
 CHI  HZ EP   2    845 13.01                             118    0.23 4  246 194 
 CHI  HN ES   1    845 42.39                             118    0.34 6  246 194 
 CHI  HZ I         845 44.59         1.0 0.44            117            246 194 
                                                                                
