 2012  1 5 0307  3.0 L   6.550 -73.420116.3  RSN  8 0.3 1.4LRSN                1
 GAP= 80        0.59       3.6     4.2  6.5  0.4074E+01  0.2979E+01  0.3004E+01E
 Epicentro: HATO - SANTANDER                                                   3
 ACTION:UP  12-02-03 08:14 OP:REBC STATUS:               ID:20120105030703 L   I
 2012-01-05-0300-00M.COL___188                                                 6
 STAT SP IPHASW D HRMM SECON CODA AMPLIT PERI AZIMU VELO SNR AR TRES W  DIS CAZ7
 BAR2 SZ EP   1    3 7 19.38                             166     0.2 7   27  80 
 BAR2 SZ ES   2    3 7 31.92                             166     0.1 5   27  80 
 GIR2 SZ EP   1    3 7 20.67                             149    -0.1 7   64  23 
 GIR2 SZ ES   2    3 7 34.72                             149     0.1 5   64  23 
 BRR  HZ EP   1    3 7 20.88                             147    -0.1 7   70 332 
 BRR  HE ES   1    3 7 35.38                             147     0.4 7   70 332 
 BRR  HZ I         3 7 36.88         4.9 0.19                            70 332 
 RUS  HZ EP   1    3 7 22.69                             143     0.2 7   82 153 
 RUS  HE ES   1    3 7 37.42                             143    -0.3 7   82 153 
 RUS  HZ I         3 7 39.59         4.9 0.29                            82 153 
 PTB  HE ES   2    3 7 40.75                             132    -0.6 5  115 269 
 PAM  SZ EP   2    3 7 25.19                             132    -0.3 5  118  42 
 PAM  SN ES   2    3 7 42.70                             132    -0.4 5  118  42 
 ZAR  HE ES   2    3 7 54.75                             117    -0.2 4  190 303 
 ZAR  HZ I         3 7 57.64         6.0 0.37                           190 303 
 CHI  HZ EP   2    3 7 36.01                             114     0.5 4  215 189 
 CHI  HZ I         3 7 36.67         2.5 0.49                           215 189 
                                                                                
