 2017  2 5 0720 13.5 L   6.806 -73.123146.5  RSN  4 0.2 1.1LRSN                1
 GAP=258        0.44       8.0     6.2  6.0  0.3439E+02  0.1670E+02  0.4319E+01E
 Epicentro: LOS SANTOS - SANTANDER                                             3
 ACTION:UPD 17-05-24 15:32 OP:jn   STATUS:               ID:20170205072013 L   I
 OLDACT:UP  17-02-05 16:12 OP:dnl  STATUS:               ID:20170205071744     3
 OLDACT:UP  17-02-05 16:12 OP:dnl  STATUS:               ID:20170205071744     3
 OLDACT:REG 17-02-05 13:35 OP:dnl  STATUS:               ID:20170205071744     3
 2017-02-05-0718-00M.COL___316                                                 6
 STAT SP IPHASW D HRMM SECON CODA AMPLIT PERI AZIMU VELO AIN AR TRES W  DIS CAZ7
 BAR2 EZ EP   2    720 33.24                             170   -0.04 5 24.5 196 
 BAR2 EZ ES        720 48.55                             170   -0.1310 24.5 196 
 BAR2 EZ I         720 49.36         3.3 0.28            175           24.5 196 
 BRR  HZ EP   2    720 35.01                             152    0.14 5 73.1 297 
 BRR  HN ES        720 51.71                             152    0.1910 73.1 297 
 BRR  HE ES        720 52.03                             152           73.1 297 
 BRR  HZ I         720 55.56         2.0 0.46            148           73.1 297 
 PTB  HZ EP   2    720 41.05                             132    0.25 5  150 259 
 PTB  HN ES   2    721  2.27                             132    0.21 5  150 259 
 PTB  HZ I         721  2.68         1.3 0.36            132            150 259 
 ZAR  HZ EP   4    720 47.81                             122    1.57 0  206 292 
 ZAR  HN ES        721 11.50                             122   -0.26 8  206 292 
 ZAR  HZ I         721 17.44         1.7 0.28            122            206 292 
                                                                                
