 2015  7 5 0719 39.5 L   6.815 -73.128141.2  RSN 11 0.3 2.2LRSN                1
 GAP=185        0.64       1.8     3.2  4.3 -0.7036E+00  0.6693E+01  0.2914E+00E
 Epicentro: LOS SANTOS - SANTANDER                                             3
 ACTION:UPD 15-09-08 21:47 OP:cam  STATUS:               ID:20150705071939 L   I
 OLDACT:UP  15-07-05 15:52 OP:ar   STATUS:               ID:20150705071747     3
 OLDACT:REG 15-07-05 12:39 OP:ar   STATUS:               ID:20150705071747     3
 2015-07-05-0717-47M.COL___334                                                 6
 STAT SP IPHASW D HRMM SECON CODA AMPLIT PERI AZIMU VELO AIN AR TRES W  DIS CAZ7
 BAR2 EZ EP        719 58.70                             169    0.0610 25.3 194 
 BAR2 EZ ES        720 13.73                             169    0.1810 25.3 194 
 BAR2 EZ I         720 15.06        36.1 0.18            166           25.3 194 
 RUS  HZ EP        720  2.66                             142   -0.2710  102 177 
 RUS  HE ES        720 21.21                             142    0.0210  102 177 
 RUS  HZ I         720 22.45        13.1 0.28            143            102 177 
 OCA  HZ EP        720  7.55                             129    0.21 9  159 352 
 OCA  HN ES        720 28.77                             129   -0.27 9  159 352 
 OCA  HZ I         720 31.82        34.4 0.24            130            159 352 
 ZAR  HN ES        720 36.78                             121   -0.18 8  205 292 
 ZAR  HZ I         720 42.29        15.9 0.95            121            205 292 
 NOR  HZ EP        720 14.93                             117   -0.32 8  237 234 
 NOR  HN ES        720 42.77                             117   -0.36 8  237 234 
 NOR  HZ I         720 48.20         9.4 0.46            117            237 234 
 SML  HE ES        720 44.28                             116    0.15 8  243 335 
 SML  HZ I         720 47.86        13.6 0.26            117            243 335 
 ROSC BZ EP   2    720 17.66                             115    0.01 4  255 211 
 ROSC BE ES        720 47.67                             115    0.27 8  255 211 
 ROSC BZ I         720 54.48        11.1 0.40            116            255 211 
 GUY2CHZ EP   2    720 23.63                             111    0.43 4  304 235 
 GUY2CHN ES        720 57.36                             111    0.09 7  304 235 
 GUY2CHZ I         721  5.02        11.1 0.32                           304 235 
 CBOC HZ EP        720 27.32                             109    0.81 7  336 252 
 CBOC HN ES        721  3.13                             109   -0.04 7  336 252 
 CBOC HZ I         721  9.10         2.5 0.56            109            336 252 
 TOL  SZ EP        720 28.24                             108    0.36 6  346 225 
 TOL  SN ES        721  5.72                             108    0.11 6  346 225 
 TOL  SZ I         721 15.23         7.0 0.42            109            346 225 
 PRA  HZ EP        720 32.37                             106   -0.79 6  394 210 
 PRA  HN ES        721 14.99                             106   -0.01 6  394 210 
 PRA  HZ I         721 21.21         7.6 0.28            106            394 210 
                                                                                
