 2016  6 5 0533 33.5 L   6.830 -73.137141.6  RSN  9 0.4 1.8LRSN                1
 GAP= 70        0.97       3.2     3.2  5.7 -0.1798E+01  0.9910E+00  0.9330E+00E
 Epicentro: LOS SANTOS - SANTANDER                                             3
 ACTION:UPD 16-07-21 22:15 OP:rebc STATUS:               ID:20160605053333 L   I
 OLDACT:REG 16-06-05 13:06 OP:edw  STATUS:               ID:20160605052744     3
 2016-06-05-0527-44M.COL___322                                                 6
 STAT SP IPHASW D HRMM SECON CODA AMPLIT PERI AZIMU VELO AIN AR TRES W  DIS CAZ7
 BAR2 EZ EP        533 52.61                             169   -0.0610 26.7 191 
 BAR2 EZ ES        534  6.95                             169   -0.7010 26.7 191 
 BAR2 EZ I         534  8.76        15.9 0.16                          26.7 191 
 BRR  HZ EP        533 54.36                             152    0.2310 70.5 296 
 BRR  HN ES        534 10.88                             152    0.6410 70.5 296 
 BRR  HZ I         534 15.75         9.5 0.30                          70.5 296 
 PAM  EZ EP        533 55.50                             151    0.4510 74.3  41 
 PAM  EE ES        534 12.10                             151    0.2110 74.3  41 
 PAM  EZ I         534 14.28        17.2 0.48                          74.3  41 
 RUS  HZ EP        533 56.71                             142   -0.3410  104 177 
 RUS  HN ES        534 15.32                             142   -0.1210  104 177 
 RUS  HZ I         534 16.90         6.9 0.26                           104 177 
 PTB  HZ EP        533 59.77                             131   -0.47 9  149 258 
 PTB  HE ES        534 21.28                             131    0.15 9  149 258 
 PTB  HZ I         534 23.23         6.0 0.14                           149 258 
 TAM  HZ EP     C  534  1.00                             130    0.19 9  155 106 
 TAM  HZ I         534 21.96         7.5 0.34                           155 106 
 TAM  HE ES        534 22.38                             130    0.24 9  155 106 
 OCA  HZ EP        534  0.71                             129   -0.45 9  157 353 
 OCA  HE ES        534 22.32                             129   -0.44 9  157 353 
 OCA  HZ I         534 25.86        12.8 0.28                           157 353 
 SPBC HZ EP        534  2.26                             127    0.31 9  166 219 
 SPBC HN ES        534 24.03                             127   -0.14 9  166 219 
 SPBC HZ I         534 28.59         7.3 0.12                           166 219 
 NOR  HN ES        534 37.49                             117    0.33 8  237 234 
 NOR  HZ I         534 41.25         4.8 0.14                           237 234 
 LL5C HN ES   4    534 31.87                             109   -23.5 0  329 349 
                                                                                
