 2015  5 5 0655 31.4 L   6.765 -73.152147.4  RSN  5 0.3 1.5LRSN                1
 GAP=234        0.76       4.3     5.5  5.5  0.1127E+02  0.6636E+01  0.3747E+00E
 Epicentro: LOS SANTOS - SANTANDER                                             3
 ACTION:UPD 15-09-10 22:01 OP:cam  STATUS:               ID:20150505065531 L   I
 OLDACT:REG 15-05-05 13:31 OP:drio STATUS:               ID:20150505064737     3
 2015-05-05-0647-37M.COL___271                                                 6
 STAT SP IPHASW D HRMM SECON CODA AMPLIT PERI AZIMU VELO AIN AR TRES W  DIS CAZ7
 BAR2 EZ I         655 50.86         6.5 0.40            156           19.4 190 
 BAR2 EZ EP        655 51.01                             172   -0.1210 19.4 190 
 BAR2 EZ ES        656  6.24                             172   -0.3010 19.4 190 
 BRR  HZ EP        655 52.91                             152    0.1410 72.5 301 
 BRR  HN ES        656  9.91                             152    0.4410 72.5 301 
 BRR  HZ I         656 12.70         5.0 0.36            135           72.5 301 
 RUS  HZ EP        655 55.34                             145    0.3210 96.8 175 
 RUS  HN ES        656 13.26                             145   -0.2010 96.8 175 
 RUS  HZ I         656 14.25         2.9 0.30            133           96.8 175 
 SPBC HZ EP        655 59.93                             130    0.26 9  160 220 
 SPBC HN ES        656 21.74                             130   -0.01 9  160 220 
 SPBC HZ I         656 25.85         5.4 0.10            116            160 220 
 ZAR  HZ EP        656  3.43                             123   -0.58 9  205 293 
 ZAR  HE ES        656 29.37                             123   -0.10 9  205 293 
 ZAR  HZ I         656 37.61         2.8 0.40            110            205 293 
                                                                                
