 2012  4 5 0952 26.7 L   7.437 -73.157143.4  RSN  4 0.3 1.6LRSN                1
 GAP=270        0.71      11.4     7.3  9.8  0.4405E+02 -0.1301E+02 -0.5653E+02E
 Epicentro: EL PLAYON - SANTANDER                                              3
 ACTION:UPD 12-07-05 11:50 OP:tino STATUS:               ID:20120405095226 L   I
 2012-04-05-0950-00M.COL___196                                                 6
 STAT SP IPHASW D HRMM SECON CODA AMPLIT PERI AZIMU VELO AIN AR TRES W  DIS CAZ7
 BRR  HZ EP   1    952 47.66                             152     0.0 7   71 239 
 BRR  HZ I         952 48.02         7.8 0.15                            71 239 
 BRR  HN ES   1    953  4.25                             152     0.3 7   71 239 
 BAR2 SZ EP   1    952 49.40                             145     0.0 7   93 182 
 BAR2 SZ ES   1    953  6.73                             145    -0.3 7   93 182 
 PTB  HZ EP   1    952 55.83                             126    -0.2 7  175 235 
 PTB  HN ES   1    953 19.23                             126     0.3 7  175 235 
 PTB  HZ I         953 21.75         2.7 0.19                           175 235 
 ZAR  HZ EP   1    952 57.72                             124     0.4 7  188 272 
 ZAR  HE ES   1    953 20.67                             124    -0.6 7  188 272 
 ZAR  HZ I         953 24.91         4.5 0.21                           188 272 
                                                                                
