 2017  2 5 0742 13.7 L   6.697 -73.478116.7  RSN  4 0.1 1.3LRSN                1
 GAP=151        0.40       4.1     2.2  3.7  0.1481E+01  0.1455E+01  0.4894E+01E
 Epicentro: EL CARMEN - SANTANDER                                              3
 ACTION:UPD 17-05-24 15:32 OP:jn   STATUS:               ID:20170205074213 L   I
 OLDACT:UP  17-02-05 16:28 OP:dnl  STATUS:               ID:20170205073740     3
 OLDACT:REG 17-02-05 13:37 OP:dnl  STATUS:               ID:20170205073740     3
 2017-02-05-0738-00M.COL___316                                                 6
 STAT SP IPHASW D HRMM SECON CODA AMPLIT PERI AZIMU VELO AIN AR TRES W  DIS CAZ7
 BAR2 EZ IP     C  742 30.40                             162    0.1810 34.7 110 
 BAR2 EZ ES        742 43.02                             162   -0.0710 34.7 110 
 BAR2 EZ I         742 44.61         8.9 0.36            168           34.7 110 
 BRR  HZ IP     C  742 30.47                             154   -0.1810 52.2 330 
 BRR  HN ES        742 43.93                             154    0.0610 52.2 330 
 PTB  HZ IP     C  742 34.92                             134    0.0710  110 261 
 PTB  HN ES        742 51.29                             134   -0.0610  110 261 
 PTB  HZ I         742 55.84         2.8 0.24            132            110 261 
 ZAR  HZ EP   9    742 42.89                             119    1.49 0  176 300 
 ZAR  HN ES        743  4.61                                    0.12 9  176 300 
 ZAR  HZ I         743  7.74         2.8 0.14            119            176 300 
                                                                                
