 2017 11 5 0756  4.2 L   6.792 -73.143146.4  RSN  7 0.4 1.3LRSN                1
 GAP=137        1.02       4.3     4.4  6.5 -0.5417E+00  0.7203E+01  0.3120E+00E
 Epicentro: LOS SANTOS - SANTANDER                                             3
 ACTION:UPD 17-12-12 19:52 OP:rebc STATUS:               ID:20171105075604 L   I
 OLDACT:REG 17-11-05 16:06 OP:dnl  STATUS:               ID:20171105074741     3
 2017-11-05-0748-00M.COL___420                                                 6
 STAT SP IPHASW D HRMM SECON CODA AMPLIT PERI AZIMU VELO AIN AR TRES W  DIS CAZ7
 BAR2 EZ EP        756 23.78                             171   -0.0810 22.5 191 
 BAR2 EZ ES        756 38.71                             171   -0.5110 22.5 191 
 BAR2 EZ I         756 41.32         5.0 0.24            171           22.5 191 
 BRR  HZ EP        756 25.69                             152    0.2610 71.9 299 
 BRR  HN ES        756 42.84                             152    0.8310 71.9 299 
 BRR  HZ I         756 45.63         3.5 0.62            151           71.9 299 
 PAM  EZ EP        756 26.32                             151   -0.1610 77.9  39 
 PAM  EE ES        756 43.77                             151   -0.1110 77.9  39 
 PAM  EZ I         756 45.70         1.9 0.68            153           77.9  39 
 RUS  HZ EP        756 27.83                             144   -0.0810 99.6 176 
 RUS  HN ES        756 46.70                             144    0.2610 99.6 176 
 RUS  HZ I         756 48.25         4.2 0.40            147           99.6 176 
 PTB  HZ EP        756 30.95                             132   -0.25 9  148 259 
 PTB  HN ES        756 51.49                             132   -0.79 9  148 259 
 PTB  HZ I         756 53.63         1.5 0.42            133            148 259 
 SPBC HZ EP        756 32.77                             129    0.10 9  163 219 
 SPBC HE ES        756 55.25                             129    0.35 9  163 219 
 SPBC HZ I         756 57.53         2.4 0.13            131            163 219 
 ZAR  HZ EP        756 37.05                             122    0.33 9  205 292 
 ZAR  HN ES        757  1.92                             122   -0.19 9  205 292 
 ZAR  HZ I         757  9.75         1.9 0.44            123            205 292 
                                                                                
