 2017  3 5 0332 22.9 L   6.074 -73.576123.9  RSN  6 0.2 1.5LRSN                1
 GAP=120        0.51       2.2     2.2  3.7  0.4721E+00  0.2190E+01 -0.1781E+01E
 Epicentro: GUEPSA - SANTANDER                                                 3
 ACTION:UPD 17-05-25 18:36 OP:jn   STATUS:               ID:20170305033222 L   I
 OLDACT:DUP 17-03-05 13:05 OP:ar   STATUS:               ID:20170305032743d    3
 OLDACT:REG 17-03-05 12:01 OP:ar   STATUS:               ID:20170305032742     3
 2017-03-05-0328-00M.COL___387                                                 6
 STAT SP IPHASW D HRMM SECON CODA AMPLIT PERI AZIMU VELO AIN AR TRES W  DIS CAZ7
 RUS  HZ EP        332 41.53                             154   -0.1310 58.1 110 
 RUS  HN ES        332 56.21                             154   -0.0910 58.1 110 
 BAR2 EZ EP        332 42.19                             148    0.0710 71.9  37 
 BAR2 EZ ES        332 57.17                             148    0.0610 71.9  37 
 BAR2 EZ I         332 57.49        16.8 0.38            150           71.9  37 
 SPBC HZ EP        332 42.06                             148    0.1410 72.1 230 
 SPBC HN ES        332 56.79                             148    0.0410 72.1 230 
 SPBC HZ I         332 58.88         4.6 0.14            148           72.1 230 
 PTB  HZ EP        332 44.46                             135   -0.2510  110 298 
 PTB  HN ES        333  1.78                             135    0.0610  110 298 
 PTB  HZ I         333  2.75         4.9 0.12            136            110 298 
 BRR  HZ EP        332 45.00                             134   -0.1210  115 353 
 BRR  HN ES        333  2.58                             134    0.1310  115 353 
 BRR  HZ I         333  3.26         6.7 0.34            135            115 353 
 ZAR  HZ EP        332 55.26                             116    0.44 8  211 318 
 ZAR  HE ES        333 19.38                             116   -0.33 8  211 318 
 ZAR  HZ I         333 20.90         3.3 0.26            117            211 318 
                                                                                
