 2012  2 5 0610 59.5 L   6.591 -73.136143.0  RSN  6 0.3 1.3LRSN                1
 GAP=145        0.61       5.1     4.1  8.1  0.7445E+01 -0.6325E+01 -0.1261E+02E
 ACTION:UP  12-03-07 16:27 OP:epov STATUS:               ID:20120205061059 L   I
 2012-02-05-0610-00M.COL___188                                                 6
 STAT SP IPHASW D HRMM SECON CODA AMPLIT PERI AZIMU VELO SNR AR TRES W  DIS CAZ7
 BAR2 SZ EP   1    611 18.50                             178   -0.10 8 5.13 272 
 RUS  HZ EP   1    611 21.88                             150    0.42 8 77.4 176 
 RUS  HN ES   1    611 38.54                             150   -0.02 8 77.4 176 
 RUS  HZ I         611 43.42         2.1 0.37                          77.4 176 
 BRR  HZ EP   1    611 21.68                             147    0.41 8 85.5 312 
 BRR  HE ES   1    611 38.24                             147    0.02 8 85.5 312 
 BRR  HZ I         611 42.69         7.2 0.12                          85.5 312 
 PAM  SZ EP   1    611 22.34                             144   -0.33 8 95.8  30 
 PTB  HZ EP   1    611 25.72                             132   -0.41 7  146 268 
 PTB  HN ES        611 46.69                             132   -0.1810  146 268 
 PTB  HZ I         611 50.67         0.0 0.05                           146 268 
 ZAR  HE ES   1    611 59.31                             120    0.34 7  215 298 
                                                                                
