 2014  6 5 0035  6.3 L   6.815 -73.165140.0  RSN 17 0.4 2.0LRSN                1
 GAP=133        1.03       3.1     3.8  6.6 -0.8490E+00  0.9392E+01  0.1231E+01E
 Epicentro: LOS SANTOS - SANTANDER                                             3
 OLDACT:REG 14-06-05 12:40 OP:fm   STATUS:               ID:20140605002820     3
 ACTION:UPD 14-07-01 22:50 OP:nd   STATUS:               ID:20140605003506 L   I
 OLDACT:UP  14-06-05 17:39 OP:fm   STATUS:               ID:20140605002820     3
 2014-06-05-0028-20M.COL___265                                                 6
 STAT SP IPHASW D HRMM SECON CODA AMPLIT PERI AZIMU VELO AIN AR TRES W  DIS CAZ7
 BAR2 SZ EP        035 25.24                             170   -0.0510 24.7 184 
 BAR2 SZ ES   1    035 39.22                             170   -0.87 7 24.7 184 
 BAR2 SZ I         035 41.39        34.9 0.18            161           24.7 184 
 BRR  HZ IP     C  035 27.24                             152    0.5410 68.5 298 
 BRR  HN ES        035 42.96                             152    0.3710 68.5 298 
 BRR  SZ I         035 48.12        15.5 0.12            149           68.5 298 
 PAM  SZ EP        035 28.41                             150    0.4710 77.6  42 
 PAM  SN ES        035 45.02                             150    0.2210 77.6  42 
 PAM  SZ I         035 47.00        16.5 0.50            151           77.6  42 
 RUS  HZ EP        035 29.38                             142   -0.2710  102 175 
 RUS  HN ES        035 47.57                             142   -0.2710  102 175 
 RUS  SZ I         035 48.60        10.7 0.70            134            102 175 
 PTB  HZ EP        035 31.99                             131   -0.67 9  146 258 
 PTB  HN ES        035 52.80                             131   -0.40 9  146 258 
 PTB  SZ I         035 55.31        18.0 0.16            124            146 258 
 OCA  HN ES        035 55.23                             129   -0.39 9  158 354 
 SPBC HZ EP        035 34.15                             128   -0.23 9  163 218 
 SPBC HN ES        035 57.21                             128    0.95 9  163 218 
 SPBC SZ I         036  9.18        13.1 0.06            120            163 218 
 ZAR  HZ EP        035 38.12                             121   -0.01 9  201 292 
 ZAR  HN ES        036  3.39                             121    0.46 9  201 292 
 ZAR  SZ I         036  6.82         9.4 0.14            117            201 292 
 SML  HN ES   1    036 10.14                             116   -0.35 6  241 336 
 CHI  HN ES   2    036 13.83                             116    0.76 4  250 195 
 HEL  HZ EP   1    035 46.14                             114    0.08 6  270 255 
 HEL  HN ES        036 16.76                             114   -0.29 8  270 255 
 HEL  SZ I         036 25.85         5.4 0.28            109            270 255 
 URE  HN ES   1    036 18.21                             113   -0.21 6  281 292 
 GUY2CHZ EP   4    035 51.11                             111    1.53 0  300 234 
 GUY2CHN ES   4    036 26.94                             111    3.62 0  300 234 
 GUY2CSZ I         036 30.52         3.6 0.32                           300 234 
 RREF HZ EP   4    035 53.73                             110    1.57 0  321 229 
 RREF HN ES   4    036 30.77                             110    2.86 0  321 229 
 RREF SZ I         036 45.31         4.3 2.70            105            321 229 
 CBOC HN ES   1    036 29.10                             109    0.00 5  332 252 
 TOL  SN ES   1    036 31.89                             108    0.15 5  343 224 
 PRA  HZ EP   4    035 57.91                             106   -1.78 0  392 209 
 PRA  SZ I         036 41.06         6.7 2.02            101            392 209 
                                                                                
