 2017  3 5 0223 40.0 L   6.769 -73.173146.9  RSN  6 0.4 1.5LRSN                1
 GAP=232        1.03       5.7     6.0  7.5  0.1373E+02  0.7758E+01  0.3166E+01E
 Epicentro: LOS SANTOS - SANTANDER                                             3
 ACTION:UPD 17-05-25 18:36 OP:jn   STATUS:               ID:20170305022340 L   I
 OLDACT:UP  17-03-05 12:57 OP:ar   STATUS:               ID:20170305021748     3
 OLDACT:REG 17-03-05 11:58 OP:ar   STATUS:               ID:20170305021748     3
 2017-03-05-0218-00M.COL___397                                                 6
 STAT SP IPHASW D HRMM SECON CODA AMPLIT PERI AZIMU VELO AIN AR TRES W  DIS CAZ7
 BAR2 EZ EP        223 59.79                             172    0.0710 19.5 183 
 BAR2 EZ ES        224 14.44                             172   -0.6310 19.5 183 
 BAR2 EZ I         224 15.35        12.5 0.26            169           19.5 183 
 BRR  HZ IP     C  224  1.12                             153   -0.1210 70.3 302 
 BRR  HE ES        224 18.53                             153    0.7410 70.3 302 
 BRR  HZ I         224 20.96         7.5 0.48            150           70.3 302 
 RUS  HZ EP        224  3.71                             145    0.0510 97.4 174 
 RUS  HN ES        224 22.24                             145    0.1510 97.4 174 
 RUS  HZ I         224 22.57         2.6 0.24            145           97.4 174 
 PTB  HZ EP        224  6.24                             133   -0.51 9  144 260 
 PTB  HN ES        224 27.15                             133   -0.45 9  144 260 
 PTB  HZ I         224 29.31         3.0 0.16            131            144 260 
 SPBC HZ EP        224  8.56                             130    0.39 9  159 219 
 SPBC HN ES        224 30.39                             130    0.26 9  159 219 
 SPBC HZ I         224 35.40         3.6 0.22            129            159 219 
 ZAR  HZ EP   4    224 14.49                             123    2.10 0  203 293 
 ZAR  HN ES        224 37.70                             123    0.07 9  203 293 
 ZAR  HZ I         224 43.10         3.8 0.66            122            203 293 
                                                                                
