 2017  8 5 0650 11.2 L   6.717 -73.221141.1  RSN  4 0.2 1.0LRSN                1
 GAP=235        0.56       5.2     4.4  7.2  0.1535E+02 -0.7331E+01 -0.1635E+02E
 Epicentro: VILLANUEVA - SANTANDER                                             3
 ACTION:UPD 17-09-04 20:16 OP:rebc STATUS:               ID:20170805065011 L   I
 OLDACT:DUP 17-08-05 18:49 OP:osc  STATUS:               ID:20170805064744d    3
 2017-08-05-0648-00M.COL___393                                                 6
 STAT SP IPHASW D HRMM SECON CODA AMPLIT PERI AZIMU VELO AIN AR TRES W  DIS CAZ7
 RUS  HZ EP        650 33.58                             145   -0.3010 92.5 170 
 RUS  HN ES        650 51.76                             145    0.1710 92.5 170 
 RUS  HZ I         650 55.06         0.9 0.18            141           92.5 170 
 PTB  HZ EP        650 36.83                             133   -0.04 9  138 262 
 PTB  HN ES        650 56.68                             133   -0.23 9  138 262 
 PTB  HZ I         651  2.69         1.4 0.42            130            138 262 
 SPBC HZ EP        650 38.42                             130    0.28 9  151 219 
 SPBC HN ES        650 59.16                             130   -0.02 9  151 219 
 SPBC HZ I         651  7.40         2.1 0.20            127            151 219 
 ZAR  HZ EP   4    650 39.83                             122   -3.07 0  200 295 
 ZAR  HE ES        651  7.84                             122    0.19 9  200 295 
                                                                                
