 2011  3 5 0620 19.9 L   6.821 -73.224134.1  RSN 16 0.5 3.1LRSN                1
 GAP=130        1.00       3.0     5.4  7.4  0.1226E+00  0.1978E+02  0.3894E+01E
 Epicentro: ZAPATOCA - SANTANDER                                               3
 ACTION:UP  11-06-16 14:31 OP:jfem STATUS:               ID:20110305062020 L   I
 2011-03-05-0619-36S.COL___135                                                 6
 STAT SP IPHASW D HRMM SECON CODA AMPLIT PERI AZIMU VELO SNR AR TRES W  DIS CAZ7
 BAR2 SZ IP        620 38.66                             169     0.410   26 170 
 BAR2 SZ ES   1    620 52.08                             169    -0.4 7   26 170 
 BAR2 SZ I         620 56.59       421.9 0.28                            26 170 
 RUS  HZ IP     D  620 42.57                             140    -0.310  104 171 
 RUS  HN ES   1    621  0.99                             140     0.3 7  104 171 
 RUS  HZ I         621  2.63       123.2 0.28                           104 171 
 GUE  SZ EP   2    620 43.83                             137     0.2 5  116  16 
 GRA  SZ IP        620 44.48                             134     0.210  126  22 
 GRA  SZ ES   1    621  3.42                             134     0.2 7  126  22 
 GRA  SZ I         621  5.16       105.6 0.36                           126  22 
 OCA  SZ EP   1    620 46.85                             127    -0.2 7  157 356 
 OCA  SZ ES   1    621  7.74                             127    -0.5 7  157 356 
 OCA  SZ I         621 12.10       103.6 0.22                           157 356 
 YOP  SZ IP        620 49.31                             123    -0.5 9  185 151 
 YOP  SN ES   1    621 13.12                             123     0.0 7  185 151 
 CHI  HZ EP   1    620 56.81                             115    -0.2 6  249 193 
 CHI  HZ I         620 57.45        69.3 0.20                           249 193 
 CHI  HE ES   1    621 26.06                             115     0.1 6  249 193 
 ROSC BZ IP   4 D  620 58.35                             114     1.1 0  250 209 
 ROSC BE ES   3    621 28.15                             114     1.9 2  250 209 
 HEL  HZ EP   2    620 58.39                             113    -0.3 4  264 255 
 HEL  HE ES   2    621 29.01                             113     0.1 4  264 255 
 HEL  HZ I         621 38.85        91.1 0.51                           264 255 
 GUY  SZ EP        621  3.75                             110     1.3 7  296 234 
 GUY  SZ I         621 46.32       164.1 0.41                           296 234 
 VIL  SZ EP        621  2.37                             110    -0.6 7  304 190 
 VIL  SE ES   1    621 36.62                             110     0.1 5  304 190 
 RREF HZ EP        621  4.96                             109    -0.1 7  317 228 
 RREF HZ I         621 50.11        66.8 0.21                           317 228 
 DBB  SZ EP        621  6.00                             108     0.0 7  331 274 
 DBB  SZ ES   1    621 41.35                             108    -0.5 5  331 274 
 TOL  SZ EP        621  7.63                             107     0.4 7  339 223 
 MON  HE ES   2    621 44.00                             107    -0.6 3  345 309 
 SDV  BZ EP   4    621  8.02                             106    -2.2 0  366  51 
 SDV  BE ES   4    621 45.22                             106    -4.1 0  366  51 
 PRA  HZ EP        621 12.63                             105    -0.2 6  390 208 
 PRA  HN ES   1    621 53.39                             105    -0.7 4  390 208 
                                                                                
