 2012  7 5 0413 35.0 L   6.742 -73.207152.5  RSN  5 0.3 1.4LRSN                1
 GAP=225        0.74       7.8     6.9  7.9  0.3317E+02  0.7316E+01  0.5686E+00E
 Epicentro: VILLANUEVA - SANTANDER                                             3
 ACTION:UPD 12-08-14 11:42 OP:ep   STATUS:               ID:20120705041335 L   I
 2012-07-05-0410-00M.COL___201                                                 6
 STAT SP IPHASW D HRMM SECON CODA AMPLIT PERI AZIMU VELO AIN AR TRES W  DIS CAZ7
 BAR2 SZ EP   1    413 55.25                             173     0.0 7   17 171 
 BAR2 SZ ES   1    414 10.77                             173    -0.4 7   17 171 
 BAR2 SZ I         414 11.94         6.2 0.42            171             17 171 
 BRR  HZ EP   1    413 56.46                             154    -0.3 7   69 306 
 BRR  HZ I         413 57.12         5.3 0.19            154             69 306 
 BRR  HN ES   1    414 14.30                             154     0.6 7   69 306 
 RUS  HZ EP   1    413 59.19                             147     0.2 7   95 172 
 RUS  HN ES   1    414 17.70                             147     0.0 7   95 172 
 RUS  HZ I         414 18.74         2.8 0.34            146             95 172 
 PTB  HZ EP   1    414  2.03                             135     0.2 7  140 261 
 PTB  HN ES   1    414 22.71                             135     0.0 7  140 261 
 PTB  HZ I         414 25.14         3.6 0.15            134            140 261 
 ZAR  HN ES   1    414 32.43                             124    -0.4 6  200 295 
