 2013 11 5 0636 10.1 L   6.812 -73.158144.6  RSN  8 0.5 1.6LRSN                1
 GAP=134        1.34       5.8     6.0  8.5 -0.1711E+02  0.9071E+01  0.5244E+01E
 Epicentro: LOS SANTOS - SANTANDER                                             3
 ACTION:UPD 14-01-09 16:25 OP:ep   STATUS:               ID:20131105063610 L   I
 OLDACT:REG 13-11-05 08:35 OP:stll STATUS:               ID:20131105062838     3
 2013-11-05-0628-38M.COL___217                                                 6
 STAT SP IPHASW D HRMM SECON CODA AMPLIT PERI AZIMU VELO AIN AR TRES W  DIS CAZ7
 BAR2 SZ EP        636 29.76                             170    0.1910 24.5 186 
 BAR2 SZ ES        636 44.76                             170   -0.0410 24.5 186 
 BAR2 SZ I         636 45.79        16.5 0.24            170           24.5 186 
 BRR  HZ EP        636 31.49                             153    0.5110 69.3 298 
 BRR  HN ES        636 48.34                             153    1.0410 69.3 298 
 BRR  HZ I         636 49.18         6.0 0.32            151           69.3 298 
 PAM  SZ EP        636 32.64                             151    0.5010 77.2  41 
 PAM  SN ES        636 49.09                             151   -0.2810 77.2  41 
 PAM  SZ I         636 51.64         5.8 0.44            154           77.2  41 
 RUS  HZ EP        636 33.83                             143    0.0310  102 175 
 RUS  HN ES        636 52.39                             143    0.0710  102 175 
 RUS  HZ I         636 53.35         5.4 0.26            145            102 175 
 PTB  HZ EP        636 36.49                             132   -0.34 9  147 258 
 PTB  HN ES        636 56.65                             132   -1.07 9  147 258 
 PTB  HZ I         637  4.26         5.3 0.32            132            147 258 
 CAPV BZ ES        636 57.73                             132   -0.89 9  149  39 
 SPBC HZ EP        636 38.48                             129   -0.00 9  163 218 
 SPBC HN ES        637  0.66                             129    0.00 9  163 218 
 SPBC HZ I         637  3.25         6.6 0.32            129            163 218 
 NOR  HZ EP        636 46.04                             118    0.36 8  234 234 
 NOR  HN ES        637 13.08                             118   -0.39 8  234 234 
 NOR  HZ I         637 18.66         3.8 0.24            119            234 234 
                                                                                
