 2016 10 5 0434 59.4 L   6.777 -73.179139.5  RSN  4 0.3 1.0LRSN                1
 GAP=133        0.82       5.1     5.1  8.3  0.5864E+01 -0.9145E+01 -0.6105E+01E
 Epicentro: LOS SANTOS - SANTANDER                                             3
 ACTION:UPD 16-11-09 19:16 OP:rebc STATUS:               ID:20161005043459 L   I
 OLDACT:UP  16-10-05 15:58 OP:dani STATUS:               ID:20161005042743d    3
 OLDACT:DUP 16-10-05 15:56 OP:dani STATUS:               ID:20161005042743d    3
 OLDACT:REG 16-10-05 12:46 OP:dani STATUS:               ID:20161005042742     3
 2016-10-05-0428-00M.COL___357                                                 6
 STAT SP IPHASW D HRMM SECON CODA AMPLIT PERI AZIMU VELO AIN AR TRES W  DIS CAZ7
 BRR  HZ EP        435 19.88                             152    0.0910 69.3 302 
 BRR  HN ES        435 35.95                             152    0.2810 69.3 302 
 BRR  HZ I         435 38.73         4.3 0.45            152           69.3 302 
 PAM  EZ EP        435 20.89                             148   -0.3510 81.7  40 
 RUS  HZ EP        435 22.42                             143    0.0210 98.4 174 
 RUS  HE ES        435 40.38                             143    0.0610 98.4 174 
 RUS  HZ I         435 41.01         1.0 0.29            146           98.4 174 
 PTB  HZ EP        435 25.94                             131    0.43 9  144 260 
 PTB  HN ES        435 45.31                             131   -0.55 9  144 260 
 PTB  HZ I         435 48.49         1.1 0.19            133            144 260 
                                                                                
