 2016  1 5 0858 53.4 L   6.810 -73.161145.0  RSN 13 0.4 1.8LRSN                1
 GAP=134        1.08       2.7     4.3  5.7 -0.1485E+01  0.5011E+01  0.1239E+01E
 Epicentro: LOS SANTOS - SANTANDER                                             3
 ACTION:UPD 16-03-09 23:23 OP:cam  STATUS:               ID:20160105085853 L   I
 OLDACT:REG 16-01-05 12:41 OP:drio STATUS:               ID:20160105085744     3
 2016-01-05-0857-44M.COL___329                                                 6
 STAT SP IPHASW D HRMM SECON CODA AMPLIT PERI AZIMU VELO AIN AR TRES W  DIS CAZ7
 BAR2 EZ EP        859 13.05                             170    0.1110 24.2 186 
 BAR2 EZ ES        859 27.71                             170   -0.4810 24.2 186 
 BAR2 EZ I         859 29.43        20.2 0.34            169           24.2 186 
 BRR  HZ EP     C  859 14.80                             153    0.4610 69.2 298 
 BRR  HE ES        859 31.63                             153    0.9510 69.2 298 
 BRR  HZ I         859 35.59        14.7 0.42            150           69.2 298 
 PAM  EZ EP        859 16.08                             151    0.5510 77.6  41 
 PAM  EN ES        859 32.50                             151   -0.3010 77.6  41 
 PAM  EZ I         859 35.07        11.0 0.58            154           77.6  41 
 RUS  HZ EP        859 17.05                             143   -0.1010  102 175 
 RUS  HN ES        859 35.71                             143    0.0210  102 175 
 RUS  HZ I         859 36.58         4.8 0.50            146            102 175 
 PTB  HZ EP        859 19.86                             132   -0.31 9  146 258 
 PTB  HN ES        859 40.25                             132   -0.80 9  146 258 
 PTB  HZ I         859 46.44         7.3 0.40            131            146 258 
 OCA  HZ EP        859 20.85                             130   -0.67 9  159 354 
 OCA  HN ES        859 43.85                             130    0.40 9  159 354 
 SPBC HZ EP        859 21.84                             129    0.03 9  163 218 
 SPBC HN ES        859 43.58                             129   -0.40 9  163 218 
 SPBC HZ I         859 47.96         7.5 0.14            129            163 218 
 ZAR  HZ EP   4    859 26.50                             122    0.92 0  202 292 
 ZAR  HE ES        859 50.86                             122    0.17 9  202 292 
 ZAR  HZ I         859 57.72         8.6 0.36            122            202 292 
 SML  HZ EP        859 29.44                             117   -0.35 8  242 336 
 SML  HN ES        859 57.83                             117   -0.35 8  242 336 
 SML  HZ I         9 0  2.20        10.9 0.24            118            242 336 
 CHI  HZ EP        859 31.27                             117    0.15 8  249 195 
 CHI  HN ES        9 0  0.81                             117    0.27 8  249 195 
 CHI  HZ I         9 0  4.03         3.1 0.60            118            249 195 
 GUY2CHZ EP   4    859 38.40                             112    1.52 0  300 234 
 GUY2CHN ES        9 0 11.29                             112    0.48 7  300 234 
 GUY2CHZ I         9 0 20.40         2.0 0.34                           300 234 
 PRA  HZ EP        859 46.89                             106   -0.01 6  392 209 
 PRA  HN ES        9 0 29.01                             106    0.37 6  392 209 
 PRA  HZ I         9 0 34.24         4.1 0.30            107            392 209 
 SJC  HZ EP   4    859 47.06                             106   -1.65 0  407 327 
 SJC  HN ES   4    9 0 29.23                             106   -2.63 0  407 327 
 SJC  HZ I         9 0 36.93         1.9 0.46            107            407 327 
                                                                                
