 2013  2 5 0929 50.3 L   6.806 -73.142146.1  RSN 13 0.5 2.4LRSN                1
 GAP= 71        1.06       3.4     3.4  6.2  0.3956E+00  0.3275E+00 -0.8516E+00E
 Epicentro: LOS SANTOS - SANTANDER                                             3
 ACTION:UPD 13-03-12 09:30 OP:ep   STATUS:               ID:20130205092950 L   I
 2013-02-05-0928-50M.COL___161                                                 6
 STAT SP IPHASW D HRMM SECON CODA AMPLIT PERI AZIMU VELO AIN AR TRES W  DIS CAZ7
 BAR2 SZ IP     D  930  9.97                             170    0.0310 24.0 191 
 BAR2 SZ I         930 10.06       151.6 0.40            166           24.0 191 
 BAR2 SZ ES   1    930 24.53                             170   -0.76 7 24.0 191 
 BRR  HZ IP     C  930 11.90                             153    0.4610 71.3 298 
 BRR  HZ I         930 12.14        59.1 0.10            139           71.3 298 
 BRR  HN ES        930 28.64                             153    0.6710 71.3 298 
 PAM  SZ IP     D  930 13.00                             151    0.5410 76.7  40 
 PAM  SN ES   1    930 29.75                             151   -0.04 7 76.7  40 
 PAM  SZ I         930 30.32        28.3 0.34            138           76.7  40 
 RUS  HZ IP     C  930 13.82                             144   -0.2610  101 176 
 RUS  HZ I         930 14.66        21.3 0.28            130            101 176 
 RUS  HN ES   1    930 32.38                             144   -0.29 7  101 176 
 PTB  HZ EP   1    930 16.70                             132   -0.59 7  148 259 
 PTB  HN ES        930 38.34                             132   -0.05 9  148 259 
 PTB  HZ I         930 39.92        46.3 0.64            117            148 259 
 TAM  HZ IP     D  930 18.31                             131    0.37 9  155 105 
 TAM  HZ I         930 38.67        21.4 0.30            117            155 105 
 TAM  HN ES   1    930 39.73                             131    0.20 7  155 105 
 OCA  HZ EP        930 18.59                             130    0.05 9  160 353 
 OCA  HN ES        930 39.99                             130   -0.61 9  160 353 
 OCA  HZ I         930 42.11        19.3 0.18            115            160 353 
 ZAR  HZ EP   1    930 23.34                             122    0.61 6  204 292 
 ZAR  HN ES   1    930 49.24                             122    1.17 6  204 292 
 ZAR  HZ I         930 54.58        25.1 0.28            110            204 292 
 SML  HZ EP   2    930 26.59                             118   -0.27 4  243 335 
 SML  HN ES        930 54.70                             118   -0.71 8  243 335 
 SML  HZ I         931  2.92        35.7 0.10            106            243 335 
 CHI  HZ EP   2    930 28.30                             117    0.25 4  249 195 
 CHI  HN ES   1    930 57.26                             117   -0.26 6  249 195 
 CHI  HZ I         931  3.96         6.3 0.36            106            249 195 
 HEL  HZ EP   1    930 30.89                             115    0.35 6  273 256 
 HEL  HN ES        931  1.32                             115   -0.65 8  273 256 
 HEL  HZ I         931  8.71        19.1 0.44            104            273 256 
 URE  HZ EP   1    930 30.83                             114   -0.52 6  284 292 
 URE  HZ I         931 11.75        15.6 0.16            104            284 292 
 SDV  BZ EP        930 39.71                             108   -0.51 6  360  50 
                                                                                
