 2012  7 5 0832 30.4 L   6.902 -73.290123.7  RSN  4 0.4 1.1LRSN                1
 GAP=162        0.92       7.2     9.5 14.9 -0.2423E+02  0.6655E+02 -0.3680E+02E
 Epicentro: BETULIA - SANTANDER                                                3
 ACTION:UPD 12-08-14 11:42 OP:ep   STATUS:               ID:20120705083230 L   I
 2012-07-05-0830-00M.COL___201                                                 6
 STAT SP IPHASW D HRMM SECON CODA AMPLIT PERI AZIMU VELO AIN AR TRES W  DIS CAZ7
 BAR2 SZ EP   1    832 47.19                             163    -0.6 7   36 161 
 BAR2 SZ I         832 47.41         2.6 0.26            163             36 161 
 BAR2 SZ ES   1    833  1.61                             163     0.3 7   36 161 
 BRR  HZ EP   1    832 48.68                             156     0.5 7   52 296 
 PTB  HZ EP   1    832 54.80                             129     0.3 7  135 253 
 PTB  HN ES   1    833 12.87                             129    -0.4 7  135 253 
 PTB  HZ I         833 21.12         2.7 0.46            127            135 253 
 OCA  HN ES   1    833 15.59                             126    -0.2 7  148 359 
