 2016 11 5 0623 56.8 L   6.804 -73.111152.5  RSN 19 0.6 2.5LRSN                1
 GAP=122        0.92       3.3     3.6  5.0 -0.1917E+01  0.3778E+01  0.5932E+01E
 Epicentro: LOS SANTOS - SANTANDER                                             3
 ACTION:UPD 17-10-26 21:04 OP:lp   STATUS:               ID:20161105062356 L   I
 OLDACT:UP  16-11-05 16:24 OP:dani STATUS:               ID:20161105061742     3
 OLDACT:UP  16-11-05 16:23 OP:dani STATUS:               ID:20161105061742     3
 OLDACT:UP  16-11-05 16:22 OP:dani STATUS:               ID:20161105061742     3
 OLDACT:UP  16-11-05 16:22 OP:dani STATUS:               ID:20161105061742     3
 OLDACT:UP  16-11-05 16:17 OP:dani STATUS:               ID:20161105061742     3
 OLDACT:REG 16-11-05 14:08 OP:dani STATUS:               ID:20161105061742     3
 2016-11-05-0618-00M.COL___352                                                 6
 STAT SP IPHASW D HRMM SECON CODA AMPLIT PERI AZIMU VELO AIN AR TRES W  DIS CAZ7
 BAR2 HZ EP     C  624 17.20                             171   -0.0310 24.7 199 
 BAR2 HE ES        624 33.01                             171   -0.1810 24.7 199 
 BAR2 HZ I         624 34.07        56.8 0.44            167           24.7 199 
 BRR  HZ EP     C  624 19.09                             153    0.2710 74.4 297 
 BRR  HE ES        624 36.45                             153    0.4210 74.4 297 
 BRR  HZ I         624 39.52        38.9 0.14            151           74.4 297 
 PAM  HZ EP        624 20.15                             153    0.6010 74.6  37 
 PAM  HN ES        624 37.43                             153    0.1210 74.6  37 
 PAM  HZ I         624 39.22        30.1 0.43            158           74.6  37 
 PTB  HZ EP        624 23.77                             133   -0.87 9  152 259 
 PTB  HN ES   3    624 45.26                             133   -1.11 2  152 259 
 PTB  HZ I         624 52.70        48.6 0.44            132            152 259 
 SPBC HZ EP        624 26.13                             130    0.08 9  166 220 
 SPBC HN ES        624 48.32                             130   -0.57 9  166 220 
 SPBC HZ I         624 50.38        39.2 0.14            130            166 220 
 ZAR  HZ EP        624 29.71                             123   -0.30 8  207 292 
 ZAR  HN ES        624 55.15                             123   -0.78 8  207 292 
 ZAR  HZ I         625  1.03        55.1 0.60            124            207 292 
 NOR  HZ EP     D  624 33.12                             119   -0.14 8  238 235 
 NOR  HE ES        625  1.88                             119    0.16 8  238 235 
 NOR  HZ I         625  9.09        26.5 0.28            120            238 235 
 CHI  HZ EP        624 35.25                             118    0.24 8  250 196 
 CHI  HN ES        625  4.90                             118    0.07 8  250 196 
 CHI  HZ I         625 10.45        14.3 0.32            119            250 196 
 ROSC BZ EP   3    624 37.25                             118    1.73 2  255 212 
 ROSC BE ES        625  5.74                             118   -0.01 8  255 212 
 ROSC BZ I         625 14.72        33.1 0.48            119            255 212 
 HEL  HZ EP   3    624 39.39                             116    1.63 2  276 256 
 HEL  HN ES        625 10.05                             116    0.33 7  276 256 
 HEL  HZ I         625 15.51        14.3 0.32            116            276 256 
 URE  HZ EP   3    624 36.36                             114   -2.19 2  287 292 
 PTGC HZ EP        624 40.26                             113   -0.56 7  308 159 
 PTGC HE ES   3    625 13.22                             113   -1.97 2  308 159 
 PTGC HZ I         625 16.01        13.7 0.30            115            308 159 
 LL6C HZ EP   4    624 22.26                             111   -20.5 0  325 357 
 ELA  HZ EP   3    624 46.04                             111    1.76 2  332 230 
 ELA  HE ES   4    625 24.72                             111    3.38 0  332 230 
 ELA  HZ I         625 29.68        13.4 0.42            112            332 230 
 CBOC HZ EP        624 45.17                             111    0.77 7  337 252 
 CBOC HN ES        625 21.69                             111    0.13 7  337 252 
 CBOC HZ I         625 23.01         4.5 0.40            112            337 252 
 PRA  HZ EP        624 50.93                             107    0.13 6  394 210 
 PRA  HE ES        625 32.58                             107   -0.36 6  394 210 
 PRA  HZ I         625 36.58        14.8 0.56            109            394 210 
 ORTC HZ EP        624 51.48                             107    0.25 6  398 217 
 ORTC HN ES        625 34.51                             107    0.79 6  398 217 
 PAL  HZ EP        624 52.70                             107    0.13 6  409 239 
 SJC  HZ EP   3    624 51.40                             107   -1.36 1  411 326 
 SJC  HN ES   4    625 32.76                             107   -3.68 0  411 326 
 SJC  HZ I         625 37.20         4.5 0.56            108            411 326 
 CRJC HZ EP   3    624 57.21                             104   -2.17 1  467   3 
 CRJC HN ES   4    625 44.74                             104   -3.48 0  467   3 
 CRJC HZ I         625 50.87         7.3 0.24            106            467   3 
                                                                                
