 2013  3 5 0950  3.3 L   6.806 -73.160145.4  RSN 10 0.5 1.5LRSN                1
 GAP=134        0.91       4.0     5.4  7.1  0.3310E+01  0.1273E+02  0.2747E+01E
 Epicentro: LOS SANTOS - SANTANDER                                             3
 ACTION:UPD 13-04-09 14:00 OP:ep   STATUS:               ID:20130305095003 L   I
 2013-03-05-0950-00M.COL___228                                                 6
 STAT SP IPHASW D HRMM SECON CODA AMPLIT PERI AZIMU VELO AIN AR TRES W  DIS CAZ7
 BAR2 SZ EP        950 22.91                             170    0.0510 23.7 186 
 BAR2 SZ ES   1    950 37.56                             170   -0.59 7 23.7 186 
 BAR2 SZ I         950 39.32        13.1 0.40            168           23.7 186 
 BRR  HZ EP        950 24.71                             153    0.4310 69.5 299 
 BRR  HE ES   1    950 41.12                             153    0.45 7 69.5 299 
 BRR  HZ I         950 44.58         6.2 0.46            150           69.5 299 
 PAM  SN ES   1    950 42.85                             150    0.05 7 78.0  41 
 RUS  HZ EP   1    950 27.40                             143    0.36 7  101 175 
 RUS  HN ES   1    950 46.03                             143    0.45 7  101 175 
 RUS  HZ I         950 46.66         4.1 0.32            145            101 175 
 PTB  HZ EP        950 29.61                             132   -0.46 9  146 258 
 PTB  HN ES   1    950 50.22                             132   -0.76 7  146 258 
 PTB  HZ I         950 53.59         3.8 0.40            131            146 258 
 ZAR  HZ EP   2    950 36.39                             123    0.88 4  202 292 
 ZAR  HN ES   1    951  1.26                             123    0.60 6  202 292 
 ZAR  HZ I         951  3.56         3.3 0.16            123            202 292 
 SML  HZ EP   1    950 39.36                             117   -0.38 6  242 336 
 SML  HN ES   1    951  7.33                             117   -0.86 6  242 336 
 CHI  HZ EP   2    950 40.92                             117   -0.04 4  249 195 
 CHI  HN ES   1    951  9.80                             117   -0.57 6  249 195 
 HEL  HZ EP   4    950 44.88                             115    1.58 0  271 256 
 HEL  HN ES   2    951 15.29                             115    0.76 4  271 256 
 HEL  HZ I         951 22.18         2.0 0.30            115            271 256 
 PRA  HZ EP   1    950 57.10                             106    0.36 4  392 209 
 PRA  HN ES   2    951 37.97                             106   -0.49 3  392 209 
                                                                                
