 2013  8 5 0724 54.7 L   6.050 -73.913 19.8  RSN  7 0.5 1.3LRSN                1
 GAP=142        1.15       7.6     5.7 12.9 -0.3392E+02  0.6175E+02 -0.7510E+02E
 Epicentro: EL PEON - SANTANDER                                                3
 ACTION:UPD 14-01-14 08:59 OP:ep   STATUS:               ID:20130805072454 L   I
 OLDACT:REG 13-08-05 08:00 OP:jn   STATUS:               ID:20130805071959     3
 2013-08-05-0719-59M.COL___270                                                 6
 STAT SP IPHASW D HRMM SECON CODA AMPLIT PERI AZIMU VELO AIN AR TRES W  DIS CAZ7
 PTB  HZ EP   4    725  5.71                             102   -2.12 0 80.9 312 
 PTB  HZ I         725 18.15        10.6 0.10             61           80.9 312 
 RUS  HZ EP   1    725 10.06                             100   -0.14 8 93.5 101 
 RUS  HN ES   1    725 21.65                             100   -0.63 8 93.5 101 
 RUS  HZ I         725 22.20         3.5 0.46             61           93.5 101 
 NOR  HZ EP        725 13.78                              56    0.2610  119 243 
 NOR  HE ES        725 28.57                              56    0.3710  119 243 
 NOR  HZ I         725 30.43         5.1 0.22             61            119 243 
 BRR  HZ EP   1    725 12.98                              56   -0.51 7  119  11 
 BRR  HE ES   1    725 28.18                              56    0.04 7  119  11 
 BRR  HZ I         725 29.30         5.5 0.12             61            119  11 
 HEL  HZ EP        725 21.66                              56    0.16 9  180 275 
 HEL  HN ES        725 41.51                              56   -0.89 9  180 275 
 HEL  HZ I         725 43.94         6.6 0.28             61            180 275 
 PAM  SZ EP   1    725 24.89                              56    1.21 7  196  43 
 PAM  SN ES        725 46.47                              56    0.20 9  196  43 
 PAM  SZ I         725 50.34         9.6 0.20             61            196  43 
 RREF HZ EP   4    725 27.94                              56    3.13 0  203 231 
 RREF HN ES   4    725 52.21                              56    3.92 0  203 231 
 RREF HZ I         725 59.52         2.2 0.42             61            203 231 
                                                                                
