 2010  1 5 0846 39.8 L   6.823 -73.265138.0  RSN  4 0.1 1.4LRSN                1
 GAP=166        0.35       3.5    27.4  7.7 -0.7012E+02  0.1732E+03 -0.1581E+02E
 Epicentro: SAN VICENTE DE CHUCURI - SANTANDER                                 3
 ACTION:UP  10-08-24 09:42 OP:vdl  STATUS:               ID:20100105084640 L   I
 2010-01-05-0841-30S.COL___097                                                 6
 STAT SP IPHASW D HRMM SECON CODA AMPLIT PERI AZIMU VELO SNR AR TRES W  DIS CAZ7
 BAR2 SZ EP        846 58.57                             168     0.010   27 161 
 BAR2 SZ ES   2    847 13.11                             168    -0.1 5   27 161 
 GIR2 SZ EP   2    846 58.65                             167     0.2 5   29  16 
 GIR2 SZ ES   3    847 12.70                             167    -0.3 2   29  16 
 OCA  SZ EP        847  7.13                             128     0.0 9  157 358 
 OCA  SZ I         847 33.50         5.9 0.21                           157 358 
 CHI  HZ EP        847 16.84                             116    -0.1 8  248 192 
 CHI  HN ES   2    847 46.27                             116     0.3 4  248 192 
 CHI  HZ I         847 49.34         1.1 0.77                           248 192 
                                                                                
