 2017 11 5 0142 23.5 L   6.571 -73.485122.6  RSN 11 0.3 1.7LRSN                1
 GAP= 68        0.78       2.4     2.4  5.2 -0.1147E+00  0.2335E+01  0.2047E+01E
 Epicentro: EL CARMEN - SANTANDER                                              3
 ACTION:UPD 17-12-12 19:52 OP:rebc STATUS:               ID:20171105014223 L   I
 OLDACT:UP  17-11-05 16:36 OP:dnl  STATUS:               ID:20171105013744     3
 OLDACT:REG 17-11-05 14:47 OP:dnl  STATUS:               ID:20171105013744     3
 2017-11-05-0138-00M.COL___435                                                 6
 STAT SP IPHASW D HRMM SECON CODA AMPLIT PERI AZIMU VELO AIN AR TRES W  DIS CAZ7
 BAR2 EZ EP        142 40.67                             164    0.0310 33.6  86 
 BAR2 EZ ES        142 53.83                             164   -0.1810 33.6  86 
 BAR2 EZ I         142 54.76        38.5 0.52            168           33.6  86 
 BRR  HZ EP        142 42.04                             150    0.2810 64.4 337 
 BRR  HN ES        142 56.42                             150    0.4210 64.4 337 
 BRR  HZ I         142 57.12        11.1 0.30            148           64.4 337 
 RUS  HZ EP        142 43.95                             143   -0.0510 87.2 149 
 RUS  HE ES        142 59.73                             143   -0.2610 87.2 149 
 RUS  HZ I         143  0.77         8.0 0.26            144           87.2 149 
 PTB  HZ EP        142 44.39                             136   -0.5610  107 268 
 PTB  HN ES   4    143  0.02                             136   -1.67 0  107 268 
 PTB  HZ I         143  4.97         5.6 0.10            132            107 268 
 SPBC HZ EP   2    142 46.92                             132    0.72 5  121 213 
 SPBC HE ES        143  3.84                             132   -0.0810  121 213 
 SPBC HZ I         143  9.53        11.9 0.40            130            121 213 
 PAM  EZ EP        142 46.67                             132   -0.1610  122  46 
 PAM  EN ES        143  4.93                             132   -0.1010  122  46 
 PAM  EZ I         143  8.80         4.4 0.22            133            122  46 
 YPLC HZ IP     C  142 52.17                             121    0.29 9  178 137 
 YPLC HE ES        143 14.23                             121    0.21 9  178 137 
 YPLC HZ I         143 16.42         8.6 0.24            121            178 137 
 ZAR  HZ EP   4    142 53.43                             120    1.18 0  183 304 
 ZAR  HN ES        143 14.58                             120   -0.10 9  183 304 
 ZAR  HZ I         143 20.54         6.1 0.52            118            183 304 
 NOR  HZ EP   4    142 54.28                             119    1.26 0  189 234 
 NOR  HE ES        143 16.57                             119    0.53 9  189 234 
 NOR  HZ I         143 24.77         3.6 0.22            117            189 234 
 GUY2CHZ EP   4    143  3.56                             111    2.64 0  256 235 
 GUY2CHN ES        143 29.66                             111   -0.45 8  256 235 
 GUY2CHZ I         143 35.91         2.4 0.36                           256 235 
 URE  HN ES   4    143 28.59                             110   -1.55 0  261 300 
 URE  HZ I         143 39.42         3.7 0.34            109            261 300 
                                                                                
