 2013  1 5 0727 29.2 L   6.299 -73.486 16.6  RSN  5 0.4 1.5LRSN                1
 GAP=149        0.95       2.6     2.7  6.7  0.2444E+01  0.8821E+01  0.2422E+00E
 Epicentro: CONTRATACION - SANTANDER                                           3
 ACTION:UPD 13-02-15 09:12 OP:ep   STATUS:               ID:20130105072729 L   I
 2013-01-05-0719-49M.COL___192                                                 6
 STAT SP IPHASW D HRMM SECON CODA AMPLIT PERI AZIMU VELO AIN AR TRES W  DIS CAZ7
 BAR2 SZ ES        727 43.38                             107   -0.3910 46.7  46 
 BAR2 SZ I         727 45.80        17.9 0.34            108           46.7  46 
 RUS  HZ IP     D  727 40.63                             103    0.5510 63.3 135 
 RUS  HZ I         727 40.78        20.5 0.16            104           63.3 135 
 RUS  HN ES        727 48.26                             103   -0.3310 63.3 135 
 BRR  HZ EP        727 44.14                              98    0.1910 92.8 344 
 BRR  HN ES        727 55.80                              98    0.3110 92.8 344 
 BRR  HN I         727 56.80        25.2 0.18             99           92.8 344 
 PTB  HZ EP        727 46.91                              97    0.2710  111 284 
 PTB  HN ES        727 59.80                              97   -0.4710  111 284 
 PTB  HN I         728  0.48        10.3 0.10             98            111 284 
 ZAR  HN ES        728 21.15                              56   -0.19 9  201 311 
                                                                                
