 2017  6 5 0218 29.1 L   6.820 -73.211156.5  RSN  5 0.2 1.3LRSN                1
 GAP=277        0.44       2.9     4.5  6.1 -0.1042E+01 -0.4784E+00  0.1872E+01E
 Epicentro: ZAPATOCA - SANTANDER                                               3
 ACTION:UPD 17-09-14 16:49 OP:jn   STATUS:               ID:20170605021829 L   I
 OLDACT:UP  17-06-05 15:32 OP:edw  STATUS:               ID:20170605021743     3
 OLDACT:REG 17-06-05 11:43 OP:edw  STATUS:               ID:20170605021743     3
 2017-06-05-0218-00M.COL___350                                                 6
 STAT SP IPHASW D HRMM SECON CODA AMPLIT PERI AZIMU VELO AIN AR TRES W  DIS CAZ7
 BRR  HZ IP     C  218 51.11                             157    0.1010 63.8 300 
 BRR  HN ES        219  8.23                             157    0.1010 63.8 300 
 BRR  HZ I         219 10.81         5.5 0.42            158           63.8 300 
 PTB  HZ EP   2    218 56.27                             136   -0.09 5  141 257 
 PTB  HN ES        219 17.54                             136   -0.11 9  141 257 
 PTB  HZ I         219 20.67         1.9 0.44            138            141 257 
 SPBC HE ES        219 20.68                             132   -0.18 9  161 216 
 ZAR  HE ES        219 26.71                             126   -0.06 9  197 292 
 NOR  HE ES   2    219 33.60                             121    0.63 4  230 233 
                                                                                
