 2010  2 5 0301 46.8 L   6.820 -73.602102.7  RSN  5 0.2 1.9LRSN                1
 GAP=220        0.43       3.1    15.7  8.5 -0.3476E+02  0.1113E+03 -0.1916E+02E
 Epicentro: EL CARMEN DE CHUCURI - SANTANDER                                   3
 ACTION:UP  10-08-24 09:47 OP:vdl  STATUS:               ID:20100205030146 L   I
 2010-02-05-0259-51S.COL___092                                                 6
 STAT SP IPHASW D HRMM SECON CODA AMPLIT PERI AZIMU VELO SNR AR TRES W  DIS CAZ7
 BAR2 SZ EP   1    3 2  2.47                             152    -0.1 7   53 119 
 BAR2 SZ ES        3 2 15.01                             152     0.110   53 119 
 RUS  HZ EP   1    3 2  8.29                             128     0.1 7  118 151 
 RUS  HE ES   2    3 2 24.68                             128    -0.2 5  118 151 
 RUS  HZ I         3 2 26.75         5.8 0.45                           118 151 
 GUE  SZ EP   1    3 2  9.45                             123    -0.2 7  134  34 
 GUE  SZ ES        3 2 27.27                             123    -0.210  134  34 
 GRA  SZ EP   2    3 2 11.10                             121     0.4 5  147  37 
 GRA  SZ ES   2    3 2 29.74                             121     0.3 5  147  37 
 OCA  SZ EP   2    3 2 12.26                             118     0.2 5  160  11 
 OCA  SZ I         3 2 24.38        28.8 0.31                           160  11 
                                                                                
