 2013  1 5 0455 30.3 L   6.800 -73.128144.4  RSN  9 0.6 2.3LRSN 2.9WRSN        1
 SPEC AVERAGE  MO 13.4 ST  1.9 OM  2.2 f0 3.34 R0.4733 AL 1.92 WI 25.2 MW  2.9 3
 SPEC SD       MO  0.1 ST  2.0 OM  0.5 f00.901 R0.1248 AL      WI      MW  0.1 3
 GAP=183        1.34       4.7     7.2  7.8  0.8576E+01  0.8307E+01  0.7030E+00E
 Epicentro: LOS SANTOS - SANTANDER                                             3
 SPEC RUS HH N MO 13.3 ST0.323 OM  1.7 f0 2.25 R0.6533 AL 1.54 WI 15.4 MW  2.8 3
 SPEC RUS HH N T 45611 K 0.000 GD  175 VS 4.20 DE 3.00 Q0230.0 QA 0.60 VS 4.20 3
 SPEC HEL HH N MO 13.4 ST  1.4 OM  1.5 f0 3.52 R0.4176 AL 1.70 WI 30.2 MW  2.8 3
 SPEC HEL HH N T 45640 K 0.000 GD  309 VS 4.20 DE 3.00 Q0230.0 QA 0.60 VS 4.20 3
 SPEC CHI HH N MO 13.3 ST0.708 OM  1.5 f0 2.89 R0.5087 AL 1.70 WI 19.9 MW  2.8 3
 SPEC CHI HH N T 45635 K 0.000 GD  287 VS 4.20 DE 3.00 Q0230.0 QA 0.60 VS 4.20 3
 SPEC BRR HH N MO 13.6 ST  5.4 OM  2.0 f0 4.69 R0.3134 AL 2.76 WI 35.4 MW  3.0 3
 SPEC BRR HH N T 456 5 K 0.000 GD  161 VS 4.20 DE 3.00 Q0230.0 QA 0.60 VS 4.20 3
 ACTION:UPD 13-02-15 09:12 OP:ep   STATUS:               ID:20130105045530 L   I
 2013-01-05-0449-49M.COL___196                                                 6
 STAT SP IPHASW D HRMM SECON CODA AMPLIT PERI AZIMU VELO AIN AR TRES W  DIS CAZ7
 BAR2 SZ EP        455 49.94                             170    0.1910 23.7 195 
 BAR2 SZ ES        456  4.98                             170    0.0510 23.7 195 
 BAR2 SZ I         456  6.63        50.7 0.40            170           23.7 195 
 BRR  HZ EP        455 51.82                             152    0.4510 72.9 298 
 BRR  HZ I         455 52.13        58.3 0.24            153           72.9 298 
 BRR  HN ES        456  8.81                             152    0.9810 72.9 298 
 RUS  HZ EP        455 53.85                             144   -0.0310  100 177 
 RUS  HN ES        456 11.75                             144   -0.5410  100 177 
 RUS  HN I         456 13.11        27.8 0.32            143            100 177 
 PTB  HZ EP        455 56.59                             131   -0.71 9  150 259 
 PTB  HN ES        456 17.84                             131   -0.54 9  150 259 
 OCA  HN ES        456 20.09                             129   -0.43 9  161 352 
 ZAR  HZ EP        456  2.27                             122   -0.54 8  206 292 
 ZAR  HN ES        456 27.86                             122   -0.33 8  206 292 
 CHI  HZ EP        456  8.03                             117    0.08 8  249 196 
 CHI  HZ I         456 10.12         5.9 0.14            117            249 196 
 CHI  HN ES        456 37.58                             117    0.25 8  249 196 
 HEL  HZ EP        456 11.96                             114    1.34 8  274 256 
 COD  HZ EP        456 18.63                             109    0.01 6  348 354 
                                                                                
