 2015  3 5 0320  5.7 L   6.775 -73.128144.6  RSN  7 0.3 1.4LRSN                1
 GAP=140        0.68       3.3     3.6  4.9 -0.3339E+01  0.3284E+01  0.2710E+01E
 Epicentro: LOS SANTOS - SANTANDER                                             3
 ACTION:UPD 15-04-30 16:23 OP:nd   STATUS:               ID:20150305032005 L   I
 OLDACT:REG 15-03-05 13:30 OP:spq  STATUS:               ID:20150305031742     3
 2015-03-05-0317-42M.COL___284                                                 6
 STAT SP IPHASW D HRMM SECON CODA AMPLIT PERI AZIMU VELO AIN AR TRES W  DIS CAZ7
 BAR2 EZ EP        320 25.11                             171   -0.0410 21.1 197 
 BAR2 EZ ES   1    320 40.38                             171    0.07 7 21.1 197 
 BAR2 EZ I         320 41.09         6.5 0.18            170           21.1 197 
 BRR  HZ EP        320 26.98                             151    0.0810 74.3 300 
 BRR  HN ES        320 43.77                             151    0.3310 74.3 300 
 BRR  HZ I         320 46.56         6.6 0.28            152           74.3 300 
 PAM  SZ EP        320 28.00                             150    0.1510 78.3  37 
 PAM  SE ES        320 44.85                             150   -0.2710 78.3  37 
 PAM  SZ I         320 47.79         4.1 0.30            154           78.3  37 
 RUS  HZ EP        320 28.95                             144   -0.1810 97.7 177 
 RUS  HN ES        320 47.42                             144    0.0210 97.7 177 
 RUS  HZ I         320 49.17         1.7 0.38            146           97.7 177 
 PTB  HZ EP   1    320 32.38                             131   -0.33 7  149 260 
 PTB  HN ES   1    320 53.05                             131   -0.72 7  149 260 
 PTB  HZ I         320 55.53         4.8 0.16            133            149 260 
 SPBC HZ EP   1    320 33.79                             129   -0.24 7  162 220 
 SPBC HE ES   1    320 56.54                             129    0.42 7  162 220 
 SPBC HZ I         321  1.78         2.6 0.20            130            162 220 
 NOR  HZ EP        320 41.88                             118    0.51 8  235 235 
 NOR  HN ES   1    321  9.04                             118   -0.14 6  235 235 
 NOR  HZ I         321 11.29         1.6 0.16            120            235 235 
                                                                                
