 2017  3 5 0707 23.2 L   6.776 -73.133153.5  RSN  6 0.4 1.1LRSN                1
 GAP=139        0.95       4.7     5.0  7.0 -0.5895E+01  0.4841E+01  0.6046E+00E
 Epicentro: LOS SANTOS - SANTANDER                                             3
 ACTION:UPD 17-05-25 18:36 OP:jn   STATUS:               ID:20170305070723 L   I
 OLDACT:REG 17-03-05 12:10 OP:ar   STATUS:               ID:20170305065745     3
 2017-03-05-0658-00M.COL___387                                                 6
 STAT SP IPHASW D HRMM SECON CODA AMPLIT PERI AZIMU VELO AIN AR TRES W  DIS CAZ7
 BAR2 EZ ES        7 7 59.67                             172   -0.0310 21.1 195 
 BAR2 EZ I         7 8  0.88         2.8 0.32            173           21.1 195 
 BRR  HZ EP        7 7 45.66                             153    0.3510 73.8 300 
 BRR  HN ES        7 8  3.19                             153    0.6210 73.8 300 
 BRR  HZ I         7 8  7.40         2.8 0.52            151           73.8 300 
 PAM  EZ EP        7 7 46.36                             152    0.0710 78.6  37 
 PAM  EN ES        7 8  3.87                             152   -0.4510 78.6  37 
 PAM  EZ I         7 8  5.89         1.9 0.60            154           78.6  37 
 RUS  HZ EP        7 7 47.69                             146    0.1810 97.8 177 
 RUS  HN ES        7 8  6.42                             146   -0.0710 97.8 177 
 RUS  HZ I         7 8  7.34         1.4 0.34            150           97.8 177 
 PTB  HZ EP        7 7 50.54                             133   -0.33 9  149 260 
 PTB  HN ES        7 8 11.84                             133   -0.63 9  149 260 
 PTB  HZ I         7 8 16.12         1.6 0.12            134            149 260 
 SPBC HN ES        7 8 15.01                             131    0.21 9  162 220 
                                                                                
