 2011 12 5 0251  1.3 L   7.215 -73.006160.5  RSN  7 0.4 1.7LRSN                1
 GAP=116        0.79       4.9     8.3  7.4  0.5332E+00  0.2545E+01  0.2162E+01E
 Epicentro: TONA - SANTANDER                                                   3
 ACTION:UPD 12-07-13 16:14 OP:ep   STATUS:               ID:20111205025101 L   I
 2011-12-05-0250-00M.COL___183                                                 6
 STAT SP IPHASW D HRMM SECON CODA AMPLIT PERI AZIMU VELO AIN AR TRES W  DIS CAZ7
 GIR2 SZ EP   1    251 22.92                             170    0.29 7 25.6 234 
 PAM  SZ EP   1    251 23.92                             167    0.50 7 36.5  68 
 PAM  SN ES   1    251 40.46                             167   -0.18 7 36.5  68 
 BAR2 SZ EP   1    251 24.60                             155    0.14 7 71.6 196 
 BAR2 SZ ES   1    251 42.00                             155   -0.49 7 71.6 196 
 BAR2 SZ I         251 44.99         9.0 0.17                          71.6 196 
 BRR  HZ EP   1    251 24.69                             152    0.18 7 78.9 261 
 BRR  HN ES   1    251 42.85                             152    0.27 7 78.9 261 
 BRR  HZ I         251 44.57         9.6 0.11                          78.9 261 
 OCA  SZ EP   1    251 27.47                             142    0.12 7  118 343 
 OCA  SZ ES   1    251 47.26                             142   -0.38 7  118 343 
 OCA  SZ I         251 49.08         8.5 0.22                           118 343 
 RUS  HZ EP   1    251 29.25                             136   -0.83 7  146 183 
 RUS  HN ES   2    251 53.33                             136    0.83 5  146 183 
 RUS  HZ I         251 54.36         3.0 0.38                           146 183 
 HEL  HZ EP   2    251 45.23                             115   -0.28 4  301 248 
                                                                                
