 2010  2 5 0852  9.6 L   6.538 -73.519108.4  RSN  9 0.4 1.7LRSN                1
 GAP=124        0.97       5.9     8.3  9.7 -0.1784E+02  0.4578E+02 -0.9576E+01E
 Epicentro: EL CARMEN DE CHUCURI - SANTANDER                                   3
 ACTION:UP  10-08-24 09:47 OP:vdl  STATUS:               ID:20100205085209 L   I
 2010-02-05-0839-50S.COL___092                                                 6
 STAT SP IPHASW D HRMM SECON CODA AMPLIT PERI AZIMU VELO SNR AR TRES W  DIS CAZ7
 BAR2 SZ EP        852 25.15                             160    -0.110   38  81 
 BAR2 SZ ES   1    852 36.85                             160    -0.6 7   38  81 
 GIR2 SZ EP        852 27.64                             145     0.710   70  31 
 GIR2 SZ ES   2    852 41.12                             145     0.7 5   70  31 
 RUS  HZ EP   1    852 28.58                             139    -0.1 7   86 146 
 RUS  HE ES   2    852 43.52                             139     0.0 5   86 146 
 RUS  HZ I         852 45.21         6.7 0.28                            86 146 
 GUE  SZ EP        852 35.00                             120    -0.2 9  157  25 
 GRA  SZ EP   1    852 35.38                             118    -0.8 7  169  28 
 CHI  HZ EP   1    852 41.48                             112     0.2 6  212 186 
 CHI  HZ I         853 11.97         2.9 0.72                           212 186 
 HEL  HZ EP   1    852 42.79                             110     0.0 6  226 260 
 HEL  HN ES   2    853  8.22                             110    -0.5 4  226 260 
 HEL  HZ I         853 15.49         7.2 0.23                           226 260 
 RREF HZ EP   2    852 48.79                             106     0.4 4  272 228 
 RREF HZ I         853 25.04         5.8 0.30                           272 228 
 PRA  HZ EP   2    852 56.65                             101     0.0 3  347 206 
 PRA  HZ I         853 40.02         3.5 0.33                           347 206 
                                                                                
