 2017  4 5 0222 27.8 L   6.734 -73.212155.0  RSN  4 0.2 1.0LRSN                1
 GAP=224        0.34       3.0     3.3  4.6  0.4930E+01  0.2702E+01  0.2929E+01E
 Epicentro: VILLANUEVA - SANTANDER                                             3
 ACTION:UPD 17-05-30 21:08 OP:jn   STATUS:               ID:20170405022227 L   I
 OLDACT:DUP 17-04-05 14:01 OP:and  STATUS:               ID:20170405021743d    3
 2017-04-05-0218-00M.COL___365                                                 6
 STAT SP IPHASW D HRMM SECON CODA AMPLIT PERI AZIMU VELO AIN AR TRES W  DIS CAZ7
 BRR  HZ EP   2    222 49.78                             155   -0.09 5 68.9 307 
 BRR  HN ES        223  7.09                             155    0.0310 68.9 307 
 RUS  HZ EP   2    222 51.90                             147   -0.17 5 94.2 171 
 RUS  HN ES        223 10.99                             147    0.0110 94.2 171 
 RUS  HZ I         223 11.38         1.1 0.20            142           94.2 171 
 PTB  HZ EP   2    222 54.71                             136   -0.13 5  139 261 
 PTB  HN ES        223 15.87                             136   -0.02 9  139 261 
 PTB  HZ I         223 17.76         1.3 0.10            131            139 261 
 SPBC HZ EP   2    222 56.58                             133    0.45 5  153 219 
 SPBC HN ES   2    223 18.07                             133   -0.12 5  153 219 
 SPBC HZ I         223 24.08         1.7 0.09            128            153 219 
                                                                                
