 2012 11 5 0545  2.2 L   6.803 -73.126147.6  RSN 10 0.5 1.9LRSN 2.7WRSN        1
 SPEC AVERAGE  MO 13.1 ST  6.1 OM  1.9 f0 6.65 R0.2222 AL 3.08 WI 18.5 MW  2.7 3
 SPEC SD       MO  0.4 ST  3.7 OM  0.9 f00.511 R0.0163 AL      WI      MW  0.2 3
 GAP=139        1.15       3.5     7.8  7.1 -0.1688E+01  0.7689E+01  0.2337E+01E
 Epicentro: LOS SANTOS - SANTANDER                                             3
 SPEC RUS HH N MO 12.6 ST  1.5 OM  1.0 f0 6.38 R0.2304 AL 2.75 WI 14.0 MW  2.4 3
 SPEC RUS HH N T 54544 K 0.000 GD  178 VS 4.20 DE 3.00 Q0230.0 QA 0.60 VS 4.20 3
 SPEC OCA HH N MO 13.5 ST 10.6 OM  1.8 f0 6.21 R0.2367 AL 2.91 WI 27.5 MW  2.9 3
 SPEC OCA HH N T 54551 K 0.000 GD  217 VS 4.20 DE 3.00 Q0230.0 QA 0.60 VS 4.20 3
 SPEC BRR HH Z MO 13.1 ST  6.3 OM  0.7 f0 7.37 R0.1995 AL 3.57 WI 14.0 MW  2.6 3
 SPEC BRR HH Z T 54523 K 0.000 GD  164 VP 7.60 DE 3.00 Q0230.0 QA 0.60 VS 4.20 3
 ACTION:UPD 12-12-05 15:31 OP:}ep  STATUS:               ID:20121105054502 L   I
 2012-11-05-0540-00M.COL___230                                                 6
 STAT SP IPHASW D HRMM SECON CODA AMPLIT PERI AZIMU VELO AIN AR TRES W  DIS CAZ7
 BAR2 SZ IP     C  545 22.06                             170   -0.0510 24.1 195 
 BAR2 SZ ES        545 36.81                             170   -0.7910 24.1 195 
 BAR2 SZ I         545 38.95        15.6 0.32                          24.1 195 
 GIR2 SZ EP        545 22.09                             167   -0.0510 31.4 346 
 BRR  HZ IP     C  545 24.05                             152    0.3610 73.0 297 
 BRR  HN ES        545 41.38                             152    0.9610 73.0 297 
 BRR  HZ I         545 44.91         7.6 0.44                          73.0 297 
 PAM  SZ EP        545 24.90                             152    0.3410 75.8  38 
 PAM  SE ES        545 42.26                             152    0.3010 75.8  38 
 PAM  SN I         545 43.53        15.7 0.44                          75.8  38 
 RUS  HZ EP        545 25.96                             144   -0.2310  101 177 
 RUS  HN ES        545 44.99                             144    0.1310  101 177 
 RUS  HN I         545 46.34        16.2 0.44                           101 177 
 OCA  HZ EP        545 30.84                             130    0.14 9  160 352 
 OCA  HE ES        545 52.07                             130   -0.82 9  160 352 
 OCA  HN I         545 55.95        28.0 0.36                           160 352 
 NOR  HN ES   2    546  6.08                             119   -0.33 4  237 235 
 NOR  HN I         546 14.82        12.4 0.46                           237 235 
 SML  HN ES   1    546  6.86                             118   -0.89 6  244 335 
 CHI  HZ EP        545 40.20                             117    0.06 8  250 196 
 CHI  HE ES        546  9.54                             117   -0.16 8  250 196 
 CHI  HZ I         546 14.87         2.1 0.30                           250 196 
 PRA  HZ EP   1    545 56.16                             107    0.17 4  393 210 
 PRA  HN I         546 44.70         1.4 0.22                           393 210 
                                                                                
