 2016  8 5 0525 51.4 L   6.808 -73.051146.8  RSN 17 0.4 2.1LRSN                1
 GAP=105        0.97       2.6     2.8  4.3 -0.2094E+01  0.1434E+01  0.7597E+00E
 Epicentro: LOS SANTOS - SANTANDER                                             3
 ACTION:UPD 16-10-29 15:32 OP:rebc STATUS:               ID:20160805052551 L   I
 OLDACT:UP  16-08-05 17:01 OP:edw  STATUS:               ID:20160805051733     3
 OLDACT:REG 16-08-05 13:07 OP:edw  STATUS:               ID:20160805051733     3
 2016-08-05-0518-00M.COL___344                                                 6
 STAT SP IPHASW D HRMM SECON CODA AMPLIT PERI AZIMU VELO AIN AR TRES W  DIS CAZ7
 BAR2 EZ EP        526 11.29                             169    0.0610 27.9 211 
 BAR2 EZ ES        526 26.45                             169   -0.2710 27.9 211 
 BAR2 EZ I         526 34.05        24.6 0.52                          27.9 211 
 PAM  EZ EP        526 14.18                             153    0.8710 70.4  33 
 PAM  EN ES        526 30.58                             153    0.1710 70.4  33 
 PAM  EZ I         526 32.95        13.0 0.20                          70.4  33 
 BRR  HZ IP     C  526 13.11                             150   -0.0610 80.2 294 
 BRR  HN ES        526 29.74                             150   -0.4210 80.2 294 
 BRR  HZ I         526 33.14        21.6 0.26                          80.2 294 
 RUS  HZ EP        526 15.35                             144    0.0710  101 182 
 RUS  HN ES        526 34.33                             144    0.4010  101 182 
 RUS  HZ I         526 36.23         9.7 0.20                           101 182 
 SPBC HZ EP        526 20.36                             128   -0.31 9  171 222 
 SPBC HN ES        526 42.97                             128   -0.54 9  171 222 
 SPBC HZ I         526 49.38        23.3 0.30                           171 222 
 ZAR  HZ EP        526 24.20                             121   -0.67 8  213 291 
 ZAR  HN ES        526 51.58                             121    0.59 8  213 291 
 ZAR  HZ I         526 54.74        13.2 0.32                           213 291 
 NOR  HZ EP        526 28.02                             118   -0.13 8  244 236 
 NOR  HE ES        526 56.84                             118    0.01 8  244 236 
 NOR  HZ I         526 58.70        11.3 0.32                           244 236 
 ROSC BZ EP        526 30.44                             116    0.20 8  259 213 
 ROSC BN ES        527  1.15                             116    0.59 8  259 213 
 ROSC BZ I         527  8.37        11.4 0.35                           259 213 
 HEL  HZ EP        526 32.75                             114   -0.05 7  282 256 
 HEL  HN ES        527  5.61                             114    0.51 7  282 256 
 HEL  HZ I         527 11.47         8.6 0.28                           282 256 
 SOCV BZ EP        526 34.30                             113    0.87 7  292  56 
 SOCV BN ES        527  5.88                             113   -0.36 7  292  56 
 URE  HZ EP   4    526 32.05                             113   -1.50 0  293 291 
 URE  HN ES   4    527  4.52                             113   -1.93 0  293 291 
 URE  HZ I         527 15.19         7.4 0.19                           293 291 
 PTGC HZ EP        526 34.73                             112   -0.23 7  306 161 
 PTGC HN ES        527  8.16                             112   -0.79 7  306 161 
 GUY2CHZ EP        526 35.96                             112   -0.10 7  310 236 
 GUY2CHN ES        527 11.07                             112    0.15 7  310 236 
 GUY2CHZ I         527 19.21         9.3 0.62                           310 236 
 LL6C HZ EP        526 36.61                             111   -0.48 7  325 356 
 LL6C HN ES        527 12.09                             111   -0.66 7  325 356 
 CBOC HZ EP        526 39.88                             109    0.37 7  344 253 
 CBOC HN ES        527 16.89                             109   -0.17 7  344 253 
 CBOC HZ I         527 25.57         2.1 0.58                           344 253 
 PRA  HZ EP        526 45.62                             106   -0.02 6  398 211 
 PRA  HN ES        527 27.76                             106   -0.20 6  398 211 
 PRA  HZ I         527 33.96         5.6 0.38                           398 211 
 SJC  HZ EP   4    526 46.64                             106   -0.93 0  414 326 
 SJC  HN ES   4    527 26.79                             106   -4.61 0  414 326 
 SJC  HZ I         527 34.11         2.0 0.40                           414 326 
                                                                                
