 2010  8 5 0131 18.0 L   6.732 -73.153150.0  RSN  5 0.4 1.4LRSN                1
 GAP=158        0.87       8.7    13.4 15.6 -0.1934E+02 -0.5195E+02 -0.4482E+02E
 Epicentro: VILLANUEVA - SANTANDER                                             3
 ACTION:UP  10-09-07 10:52 OP:vdl  STATUS:               ID:20100805013118 L   I
 2010-08-05-0127-51S.COL___126                                                 6
 STAT SP IPHASW D HRMM SECON CODA AMPLIT PERI AZIMU VELO SNR AR TRES W  DIS CAZ7
 BAR2 SZ EP   3    131 37.36                             173    -0.6 2   16 192 
 BAR2 SZ I         131 54.44         5.7 0.22                            16 192 
 BRR  HZ EP        131 39.98                             152     0.210   74 304 
 BRR  HN ES   2    131 56.63                             152    -0.1 5   74 304 
 RUS  HZ EP   3    131 41.83                             146     0.2 2   93 175 
 RUS  HN ES   2    132  0.12                             146     0.0 5   93 175 
 RUS  HZ I         132  1.72         2.6 0.17                            93 175 
 GUE  SZ EP        131 43.14                             138    -0.610  124  12 
 GRA  SZ EP   1    131 44.92                             136     0.7 7  133  17 
 GRA  SZ ES   2    132  4.75                             136     0.1 5  133  17 
 GRA  SZ I         132  7.15         4.5 0.36                           133  17 
                                                                                
