 2014  5 5 0133  6.8 L   6.834 -73.201141.7  RSN  5 0.4 1.2LRSN                1
 GAP=128        0.96       4.5     5.1  9.5 -0.5650E+00  0.9938E+01  0.5840E+00E
 Epicentro: ZAPATOCA - SANTANDER                                               3
 ACTION:UPD 15-03-16 16:55 OP:nd   STATUS:               ID:20140505013306 L   I
 OLDACT:UP  14-05-05 15:35 OP:mh   STATUS:               ID:20140505013000     3
 OLDACT:UP  14-05-05 15:35 OP:mh   STATUS:               ID:20140505013000     3
 OLDACT:REG 14-05-05 13:01 OP:mh   STATUS:               ID:20140505013000     3
 2014-05-05-0130-00M.COL___273                                                 6
 STAT SP IPHASW D HRMM SECON CODA AMPLIT PERI AZIMU VELO AIN AR TRES W  DIS CAZ7
 BRR  HZ EP        133 27.81                             154    0.6910 64.0 298 
 BRR  HN ES   1    133 43.24                             154    0.28 7 64.0 298 
 BRR  HZ I         133 48.83         4.2 0.09            153           64.0 298 
 PAM  SZ EP   1    133 28.97                             150    0.29 7 78.7  45 
 PAM  SN ES        133 45.54                             150   -0.1910 78.7  45 
 PAM  SZ I         133 48.37         5.3 0.57            155           78.7  45 
 RUS  HZ EP        133 30.50                             142    0.0110  105 173 
 RUS  HN ES        133 48.71                             142   -0.2410  105 173 
 RUS  HZ I         133 49.75         1.5 0.27            148            105 173 
 PTB  HZ EP   1    133 32.18                             132   -0.79 7  143 257 
 PTB  HN ES        133 53.43                             132    0.05 9  143 257 
 PTB  HZ I         133 59.37         1.7 0.35            135            143 257 
 SML  HN ES   1    134  9.77                             117   -0.69 6  238 336 
                                                                                
