 2013  9 5 0852 28.3 L   6.806 -73.121156.0  RSN  8 0.4 1.7LRSN                1
 GAP=139        0.87       3.6     4.3  6.4  0.2074E+00  0.5372E+01  0.1832E+01E
 Epicentro: LOS SANTOS - SANTANDER                                             3
 ACTION:UPD 13-10-22 09:20 OP:ep   STATUS:               ID:20130905085228 L   I
 OLDACT:UP  13-09-05 11:17 OP:cam  STATUS:               ID:20130905084959     3
 OLDACT:REG 13-09-05 09:05 OP:cam  STATUS:               ID:20130905084959     3
 2013-09-05-0849-59M.COL___269                                                 6
 STAT SP IPHASW D HRMM SECON CODA AMPLIT PERI AZIMU VELO AIN AR TRES W  DIS CAZ7
 BAR2 SZ EP        852 49.05                             171   -0.1510 24.6 196 
 BRR  HZ EP        852 50.95                             154    0.2610 73.3 297 
 BRR  HN ES        853  8.64                             154    0.5010 73.3 297 
 BRR  HZ I         853 11.29         6.7 0.34            151           73.3 297 
 PAM  SZ EP   1    852 52.13                             153    0.62 7 75.2  38 
 PAM  SN ES        853  9.34                             153   -0.2510 75.2  38 
 RUS  HZ EP        852 52.97                             146   -0.1510  101 178 
 RUS  HN ES   1    853 12.42                             146   -0.05 7  101 178 
 RUS  HZ I         853 14.57         2.4 0.34            147            101 178 
 PTB  HZ EP        852 55.81                             134   -0.57 9  151 259 
 PTB  HE ES        853 17.83                             134   -0.44 9  151 259 
 PTB  HZ I         853 24.44         7.6 0.40            133            151 259 
 SPBC HZ EP        852 58.09                             131    0.27 9  165 220 
 SPBC HN ES   1    853 21.03                             131    0.19 7  165 220 
 SPBC HZ I         853 27.27         8.8 0.30            131            165 220 
 ZAR  HZ EP        853  1.83                             124    0.16 8  206 292 
 ZAR  HN ES   1    853 28.19                             124    0.50 6  206 292 
 ZAR  HZ I         853 34.03         3.1 0.24            125            206 292 
 SML  HZ EP   2    853  5.99                             120    0.40 4  244 335 
 SML  HN ES        853 34.13                             120   -0.53 8  244 335 
 SML  HZ I         853 39.39         8.0 0.10            121            244 335 
 GUY2CHZ EP   4    853 14.25                             114    1.55 0  304 235 
                                                                                
