 2017 12 5 0713 36.2 L   6.803 -73.130147.4  RSN 16 0.7 1.9LRSN                1
 GAP=113        1.56       3.6     5.1  7.7  0.1406E+01  0.1091E+02  0.4218E+01E
 Epicentro: LOS SANTOS - SANTANDER                                             3
 ACTION:UPD 18-01-04 13:17 OP:rebc STATUS:               ID:20171205071336 L   I
 OLDACT:UP  17-12-05 18:30 OP:leo  STATUS:               ID:20171205070646d    3
 OLDACT:DUP 17-12-05 18:19 OP:leo  STATUS:               ID:20171205070646d    3
 OLDACT:UP  17-12-05 18:17 OP:leo  STATUS:               ID:20171205070645     3
 OLDACT:REG 17-12-05 14:06 OP:y    STATUS:               ID:20171205070645     3
 2017-12-05-0707-00M.COL___470                                                 6
 STAT SP IPHASW D HRMM SECON CODA AMPLIT PERI AZIMU VELO AIN AR TRES W  DIS CAZ7
 BAR2 EZ EP        713 55.89                             170   -0.1210 24.0 194 
 BAR2 EZ ES        714 11.06                             170   -0.4310 24.0 194 
 BAR2 EZ I         714 13.50        11.4 0.40            168           24.0 194 
 PAM  EZ EP        713 58.77                             152    0.2810 76.1  39 
 PAM  EN ES        714 16.10                             152    0.2110 76.1  39 
 RUS  HZ EP        714  0.27                             144    0.1710  101 177 
 RUS  HN ES        714 18.62                             144   -0.1410  101 177 
 RUS  HZ I         714 20.58        11.2 0.46            142            101 177 
 PTB  HZ EP        714  2.84                             132   -0.59 9  149 259 
 PTB  HN ES        714 24.69                             132    0.00 9  149 259 
 PTB  HZ I         714 27.24         7.2 0.14            130            149 259 
 OCA  HZ EP        714  4.44                             130   -0.16 9  160 353 
 OCA  HN ES        714 26.43                             130   -0.35 9  160 353 
 OCA  HZ I         714 33.08        19.4 0.22            130            160 353 
 SPBC HZ EP        714  4.98                             129    0.06 9  164 219 
 SPBC HZ I         714 30.36        12.7 0.38            127            164 219 
 YPLC HZ EP        714  6.39                             127    0.36 9  176 152 
 YPLC HN ES        714 30.56                             127    1.24 9  176 152 
 YPLC HZ I         714 33.08         6.0 0.30            126            176 152 
 ZAR  HZ EP        714  9.82                             122    0.95 8  206 292 
 ZAR  HN ES        714 34.01                             122   -0.37 8  206 292 
 ZAR  HZ I         714 39.44        12.8 0.36            121            206 292 
 CHI  HZ EP        714 14.32                             117    0.28 8  249 196 
 CHI  HN ES        714 43.72                             117    0.14 8  249 196 
 CHI  HZ I         714 47.50         2.1 0.60            116            249 196 
 ROSC BN EP   4    714 15.98                             117    1.48 0  254 211 
 ROSC BE ES   4    714 48.89                             117    4.49 0  254 211 
 ROSC BN I         714 52.76        12.3 0.40            116            254 211 
 DRL03HZ EP        714 17.50                             113   -0.35 7  289 352 
 DRL03HN ES        714 50.45                             113    0.09 7  289 352 
 GUY2CHZ EP        714 21.65                             112    1.62 7  303 235 
 GUY2CHN ES        714 54.85                             112    0.61 7  303 235 
 GUY2CHZ I         715  1.65         3.3 0.42                           303 235 
 PTGC HZ EP        714 19.19                             112   -0.87 7  308 159 
 PTGC HN ES        714 52.70                             112   -1.60 7  308 159 
 CBOC HZ EP        714 24.29                             110    0.94 7  335 252 
 CBOC HT ES        714 59.06                             110   -1.08 7  335 252 
 CBOC HZ I         715  3.27         1.0 0.36            109            335 252 
 PRA  HZ EP        714 29.53                             107   -0.34 6  393 210 
 PRA  HN ES        715 12.21                             107    0.45 6  393 210 
 PRA  HZ I         715 17.95         4.1 0.36            106            393 210 
 ORTC HZ EP        714 27.93                             107   -2.36 6  397 216 
                                                                                
