 2013  1 5 0240 41.9 L   6.824 -73.081149.5  RSN 18 0.5 3.0LRSN 3.5WRSN        1
 SPEC AVERAGE  MO 14.4 ST 15.4 OM  2.7 f0 3.08 R0.5104 AL 2.16 WI 31.9 MW  3.5 3
 SPEC SD       MO  0.2 ST 15.1 OM  0.5 f00.770 R0.1411 AL      WI      MW  0.1 3
 GAP=130        1.17       2.9     4.1  5.3 -0.2120E+01  0.8315E+00 -0.2980E+00E
 Epicentro: LOS SANTOS - SANTANDER                                             3
 SPEC ZAR HH N MO 14.6 ST 50.4 OM  2.8 f0 4.58 R0.3210 AL 2.51 WI 33.2 MW  3.7 3
 SPEC ZAR HH N T 24140 K 0.000 GD  257 VS 4.20 DE 3.00 Q0230.0 QA 0.60 VS 4.20 3
 SPEC RREFHH Z MO 14.2 ST  8.7 OM  1.5 f0 3.41 R0.4311 AL 2.54 WI 26.9 MW  3.4 3
 SPEC RREFHH Z T 24128 K 0.000 GD  361 VP 7.60 DE 3.00 Q0230.0 QA 0.60 VS 4.20 3
 SPEC HEL HH N MO 14.2 ST  1.1 OM  2.3 f0 1.75 R0.8400 AL 1.64 WI 35.0 MW  3.4 3
 SPEC HEL HH N T 24153 K 0.000 GD  317 VS 4.20 DE 3.00 Q0230.0 QA 0.60 VS 4.20 3
 SPEC OCA HH N MO 14.6 ST 22.2 OM  2.9 f0 3.41 R0.4311 AL 2.44 WI 27.9 MW  3.7 3
 SPEC OCA HH N T 24131 K 0.000 GD  218 VS 4.20 DE 3.00 Q0230.0 QA 0.60 VS 4.20 3
 SPEC PTB HH N MO 14.3 ST  4.7 OM  2.6 f0 2.58 R0.5698 AL 1.17 WI 25.5 MW  3.5 3
 SPEC PTB HH N T 24129 K 0.000 GD  215 VS 4.20 DE 3.00 Q0230.0 QA 0.60 VS 4.20 3
 SPEC ANILHH N MO 14.7 ST 13.1 OM  2.7 f0 2.74 R0.5365 AL 2.36 WI 50.6 MW  3.7 3
 SPEC ANILHH N T 242 9 K 0.000 GD  393 VS 4.20 DE 3.00 Q0230.0 QA 0.60 VS 4.20 3
 SPEC COD HH N MO 14.0 ST  2.6 OM  2.1 f0 2.58 R0.5698 AL 1.18 WI 23.4 MW  3.3 3
 SPEC COD HH N T 242 6 K 0.000 GD  376 VS 4.20 DE 3.00 Q0230.0 QA 0.60 VS 4.20 3
 SPEC CHI HH N MO 14.3 ST  7.5 OM  2.5 f0 2.92 R0.5034 AL 2.31 WI 36.5 MW  3.5 3
 SPEC CHI HH N T 24149 K 0.000 GD  293 VS 4.20 DE 3.00 Q0230.0 QA 0.60 VS 4.20 3
 SPEC BRR HH N MO 14.6 ST 28.8 OM  3.0 f0 3.76 R0.3910 AL 3.26 WI 28.5 MW  3.7 3
 SPEC BRR HH N T 24120 K 0.000 GD  167 VS 4.20 DE 3.00 Q0230.0 QA 0.60 VS 4.20 3
 ACTION:UPD 13-02-15 09:12 OP:ep   STATUS:               ID:20130105024042 L   I
 2013-01-05-0239-43M.COL___199                                                 6
 STAT SP IPHASW D HRMM SECON CODA AMPLIT PERI AZIMU VELO AIN AR TRES W  DIS CAZ7
 BAR2 SZ IP        241  2.41                             169    0.3110 28.0 203 
 BAR2 SZ ES        241 18.01                             169    0.1710 28.0 203 
 BAR2 SZ I         241 20.28       217.6 0.34            159           28.0 203 
 BRR  HZ IP     C  241  4.27                             152    0.5010 76.4 294 
 BRR  HN ES        241 21.30                             152    0.4910 76.4 294 
 BRR  HN I         241 22.12       308.8 0.28            134           76.4 294 
 RUS  HZ IP     D  241  6.25                             144    0.0310  103 180 
 RUS  HE ES        241 24.56                             144   -0.6110  103 180 
 RUS  HN I         241 26.79        97.3 0.20            136            103 180 
 PTB  HZ EP        241  9.02                             131   -0.85 9  155 258 
 PTB  HE ES        241 30.99                             131   -0.69 9  155 258 
 PTB  HN I         241 36.02       295.7 0.30            117            155 258 
 OCA  HZ EP        241 10.51                             131    0.14 9  159 350 
 OCA  HN ES        241 32.90                             131    0.33 9  159 350 
 OCA  HN I         241 42.37       208.5 0.24            118            159 350 
 ZAR  HZ EP        241 14.88                             122   -0.31 8  210 291 
 ZAR  HN ES        241 41.85                             122    0.71 8  210 291 
 ZAR  HN I         241 46.62       131.3 0.26            109            210 291 
 CTAB SZ EP   4    241 19.77                             119    1.24 0  236 212 
 CHI  HZ EP        241 20.29                             117   -0.02 8  253 197 
 CHI  HN ES        241 49.65                             117   -0.61 8  253 197 
 CHI  HN I         241 52.28        76.5 0.28            108            253 197 
 CVER SZ EP   4    241 25.36                             115    2.31 0  277 203 
 HEL  HZ EP        241 23.63                             115    0.47 7  280 256 
 HEL  HN ES        241 54.93                             115   -0.39 7  280 256 
 HEL  HN I         242  4.11        35.6 0.24            104            280 256 
 URE  HZ EP        241 22.90                             114   -0.90 7  289 291 
 VIL  SZ EP        241 25.88                             112   -0.09 7  307 193 
 VIL  SN ES        242  0.87                             112    0.54 7  307 193 
 RREF HZ EP        241 29.73                             111    0.69 7  329 230 
 RREF HZ ES        242  6.15                             111    0.36 7  329 230 
 COD  HZ EP        241 30.10                             110   -0.13 6  346 353 
 COD  HN ES        242  6.65                             110   -1.25 6  346 353 
 COD  HN I         242 13.37        19.1 0.38            101            346 353 
 DBB  SZ EP        241 30.01                             110   -0.33 6  346 274 
 DBB  SZ I         242 19.56        19.7 0.40            100            346 274 
 TOL  SZ EP        241 31.99                             110    0.87 6  350 225 
 TOL  SZ I         242 13.53        16.3 0.65            101            350 225 
 SDV  BZ EP        241 31.69                             109    0.41 6  353  50 
 SDV  BE ES        242  9.50                             109   -0.28 6  353  50 
 ANIL HZ EP        241 33.61                             109    0.95 6  364 225 
 ANIL HN ES        242 11.79                             109   -0.46 6  364 225 
 ANIL HN I         242 25.85        71.1 0.30            100            364 225 
 SJC  HN EP   4    241 36.55                             106   -1.25 0  411 326 
 SJC  HN I         242 21.26        18.2 0.42             98            411 326 
 SMAR HZ EP        241 47.64                             103   -0.15 4  496 345 
                                                                                
