 2014  5 5 0802  0.5 L   6.790 -73.142137.4  RSN 12 0.5 1.9LRSN                1
 GAP= 72        1.15       3.4     3.2  7.2 -0.1251E+01  0.6172E+01 -0.2232E+01E
 Epicentro: LOS SANTOS - SANTANDER                                             3
 2014-05-05-0800-00M.COL___273                                                 6
 ACTION:UPD 15-03-16 16:55 OP:nd   STATUS:               ID:20140505080200 L   I
 OLDACT:REG 14-05-05 14:08 OP:mh   STATUS:               ID:20140505080000     3
 STAT SP IPHASW D HRMM SECON CODA AMPLIT PERI AZIMU VELO AIN AR TRES W  DIS CAZ7
 PAM  SZ EP        8 2 22.38                             149    0.5110 78.0  39 
 PAM  SZ I         8 2 22.69        25.6 0.20            152           78.0  39 
 PAM  SN ES        8 2 38.87                             149    0.3310 78.0  39 
 RUS  HZ EP        8 2 23.13                             142   -0.2210 99.4 176 
 RUS  HN ES        8 2 41.03                             142   -0.1510 99.4 176 
 RUS  HZ I         8 2 43.65         8.6 0.42            144           99.4 176 
 PTB  HZ EP        8 2 26.78                             130   -0.03 9  148 259 
 PTB  HN ES        8 2 47.12                             130   -0.21 9  148 259 
 PTB  HZ I         8 2 50.26         7.7 0.26            131            148 259 
 TAM  HZ EP        8 2 27.88                             129    0.42 9  154 105 
 TAM  HZ I         8 2 28.01        14.2 0.20            132            154 105 
 TAM  HE ES        8 2 48.59                             129    0.09 9  154 105 
 SPBC HN ES        8 2 49.74                             127   -0.26 9  163 219 
 ZAR  HZ EP        8 2 32.54                             120    0.05 9  205 292 
 ZAR  HN ES        8 2 57.94                             120    0.50 9  205 292 
 ZAR  HZ I         8 3  5.29         8.8 0.30            121            205 292 
 SML  HZ EP        8 2 35.81                             115   -0.98 8  245 335 
 SML  HN ES        8 3  4.54                             115   -0.57 8  245 335 
 CHI  HZ EP        8 2 38.05                             115    0.41 8  248 195 
 CHI  HN ES        8 3  5.97                             115   -0.64 8  248 195 
 CHI  HZ I         8 3 10.20         3.1 0.32            117            248 195 
 HEL  HZ EP        8 2 41.19                             113    0.89 8  272 256 
 HEL  HE ES        8 3 11.04                             113   -0.31 8  272 256 
 HEL  HZ I         8 3 16.54         2.6 0.26            114            272 256 
 GUY2CHZ EP        8 2 44.12                             111    0.43 7  301 235 
 GUY2CHE ES        8 3 17.03                             111   -0.35 7  301 235 
 GUY2CHZ I         8 3 24.83         4.1 0.26                           301 235 
 SOCV BZ EP        8 2 42.11                             110   -1.10 7  302  57 
 CBOC HZ EP        8 2 48.03                             108    0.95 7  334 252 
                                                                                
