 2012  8 5 0401 35.9 L   6.809 -73.076140.2  RSN  5 0.3 1.1LRSN                1
 GAP=145        0.65       4.4     4.9  6.9  0.4078E+01  0.4395E+01 -0.1128E+00E
 Epicentro: LOS SANTOS - SANTANDER                                             3
 ACTION:UPD 12-09-10 11:54 OP:ep   STATUS:               ID:20120805040135 L   I
 2012-08-05-0400-00M.COL___216                                                 6
 STAT SP IPHASW D HRMM SECON CODA AMPLIT PERI AZIMU VELO AIN AR TRES W  DIS CAZ7
 BAR2 SZ EP   1    4 1 54.74                             169   -0.21 7 26.7 206 
 BAR2 SZ I         4 1 55.17         3.2 0.09                          26.7 206 
 BAR2 SZ ES   1    4 2  9.37                             169   -0.43 7 26.7 206 
 PAM  SZ EP   1    4 1 57.66                             152    0.45 7 71.9  35 
 PAM  SE ES   1    4 2 13.76                             152   -0.07 7 71.9  35 
 BRR  HZ EP   1    4 1 56.51                             149   -0.35 7 77.7 295 
 BRR  HZ I         4 1 56.76         5.6 0.12                          77.7 295 
 BRR  HN ES   1    4 2 13.48                             149    0.29 7 77.7 295 
 RUS  HZ EP   1    4 1 59.00                             142   -0.18 7  101 180 
 RUS  HN ES   1    4 2 17.77                             142    0.45 7  101 180 
 RUS  HZ I         4 2 19.79         1.2 0.26                           101 180 
 ZAR  HN ES   1    4 2 34.40                             120    0.09 6  211 291 
                                                                                
