 2013 11 5 0418 17.5 L   7.443 -73.219126.7  RSN  9 0.5 1.8LRSN                1
 GAP=108        1.36       4.0     5.4  8.2  0.6151E+00  0.1258E+02  0.2228E+01E
 Epicentro: EL PLAYON - SANTANDER                                              3
 ACTION:UPD 14-01-09 16:25 OP:ep   STATUS:               ID:20131105041817 L   I
 OLDACT:REE 13-11-05 12:36 OP:stll STATUS:               ID:20131105040838d    3
 2013-11-05-0408-37M.COL___220                                                 6
 STAT SP IPHASW D HRMM SECON CODA AMPLIT PERI AZIMU VELO AIN AR TRES W  DIS CAZ7
 PAM  SZ EP        418 37.09                             154    0.5210 58.5 101 
 PAM  SN ES        418 51.59                             154    0.1410 58.5 101 
 PAM  SZ I         418 53.65         8.4 0.14            139           58.5 101 
 BRR  HZ IP     C  418 36.69                             151    0.4110 65.8 236 
 BRR  HZ I         418 36.86        14.8 0.16            141           65.8 236 
 BRR  HN ES        418 51.67                             151    0.7410 65.8 236 
 OCA  HZ EP        418 38.41                             143    0.3810 88.7 353 
 OCA  HN ES        418 53.61                             143   -0.4510 88.7 353 
 BAR2 SZ EP        418 38.66                             141    0.1110 94.1 178 
 BAR2 SZ ES        418 54.25                             141   -0.7310 94.1 178 
 BAR2 SZ I         418 56.14        15.0 0.12            127           94.1 178 
 PTB  HZ EP        418 44.83                             123   -0.29 9  169 234 
 PTB  HN ES        419  5.62                             123   -1.04 9  169 234 
 PTB  HZ I         419 10.03         6.4 0.16            113            169 234 
 RUS  HZ EP        418 45.44                             123   -0.59 9  172 175 
 RUS  HZ I         419 15.20         1.7 0.22            112            172 175 
 SML  HZ EP        418 45.49                             122   -0.41 9  177 328 
 SML  HN ES        419  7.47                             122   -0.59 9  177 328 
 SML  HN I         419  8.88        44.3 0.10            114            177 328 
 ZAR  HZ EP        418 46.50                             121    0.19 9  181 272 
 ZAR  HN ES        419  9.60                             121    0.81 9  181 272 
 ZAR  HZ I         419 12.85         8.0 0.32            113            181 272 
 SPBC HZ EP        418 51.05                             116    0.52 8  219 206 
 SPBC HN ES        419 16.43                             116    0.13 8  219 206 
 SPBC HZ I         419 24.47         5.0 0.24            107            219 206 
                                                                                
