 2017  1 5 0250 55.8 L   6.761 -73.093148.0  RSN  8 0.4 1.2LRSN                1
 GAP=145        0.93       3.7     4.5  6.3  0.3346E-01  0.7561E+01  0.5660E+01E
 Epicentro: LOS SANTOS - SANTANDER                                             3
 ACTION:UPD 17-05-22 15:55 OP:jn   STATUS:               ID:20170105025055 L   I
 OLDACT:REG 17-01-05 12:47 OP:lv   STATUS:               ID:20170105024745     3
 2017-01-05-0248-00M.COL___374                                                 6
 STAT SP IPHASW D HRMM SECON CODA AMPLIT PERI AZIMU VELO AIN AR TRES W  DIS CAZ7
 BAR2 EZ EP        251 15.52                             171   -0.1810 21.1 208 
 BAR2 EZ ES        251 30.60                             171   -0.5810 21.1 208 
 PAM  EZ IP     D  251 18.52                             151    0.2310 77.4  34 
 PAM  EE ES        251 35.61                             151   -0.1910 77.4  34 
 BRR  HZ EP        251 17.72                             151    0.0710 78.4 299 
 BRR  HE ES        251 35.27                             151    0.6110 78.4 299 
 RUS  HZ EP        251 19.35                             146   -0.1410 96.0 179 
 RUS  HN ES        251 38.36                             146    0.4310 96.0 179 
 RUS  HZ I         251 39.08         1.0 0.28            145           96.0 179 
 PTB  HZ EP        251 22.95                             131   -0.49 9  153 261 
 PTB  HN ES   4    251 43.58                             131   -1.39 0  153 261 
 PTB  HZ I         251 49.63         2.7 0.20            129            153 261 
 ZAR  HN ES        251 55.28                             122    0.13 8  211 293 
 ZAR  HZ I         252  0.72         2.5 0.16            121            211 293 
 NOR  HZ EP   4    251 34.63                             119    2.68 0  237 236 
 NOR  HN ES        251 59.66                             119   -0.45 8  237 236 
 NOR  HZ I         252  4.45         1.6 0.32            118            237 236 
 CHI  HZ EP        251 33.76                             118    0.37 8  246 197 
 CHI  HN ES        252  2.89                             118    0.22 8  246 197 
 CHI  HZ I         252  7.72         1.0 0.48            117            246 197 
                                                                                
