 2013  5 5 0020 36.6 L   6.772 -73.161148.6  RSN  5 0.2 1.8LRSN                1
 GAP=181        0.61       3.9     4.0  4.3  0.4261E+01  0.2696E+01  0.2394E+01E
 Epicentro: LOS SANTOS - SANTANDER                                             3
 ACTION:UPD 13-06-20 09:47 OP:ep   STATUS:               ID:20130505002036 L   I
 2013-05-05-0018-52M.COL___223                                                 6
 STAT SP IPHASW D HRMM SECON CODA AMPLIT PERI AZIMU VELO AIN AR TRES W  DIS CAZ7
 BAR2 SZ EP        020 56.52                             172   -0.0210 20.0 187 
 BAR2 SZ ES        021 11.96                             172   -0.1110 20.0 187 
 BAR2 SZ I         021 13.35         8.0 0.38            168           20.0 187 
 GIR2 SZ EP        020 56.37                             166   -0.3510 34.2 354 
 GIR2 SZ ES        021 12.28                             166   -0.1110 34.2 354 
 BRR  HZ EP        020 58.30                             153    0.2010 71.3 301 
 BRR  HN ES        021 15.22                             153    0.3910 71.3 301 
 BRR  HN I         021 16.27        20.1 0.30            151           71.3 301 
 RUS  HZ EP        021  0.73                             145    0.2810 97.6 175 
 RUS  HN ES        021 19.04                             145    0.0110 97.6 175 
 RUS  HN I         021 19.90         8.1 0.30            145           97.6 175 
 PTB  HZ EP        021  3.52                             133   -0.12 9  146 260 
 PTB  HN ES        021 24.48                             133   -0.21 9  146 260 
 PTB  HN I         021 29.81        14.4 0.30            131            146 260 
                                                                                
