 2013  2 5 0243 44.5 L   6.822 -73.192142.3  RSN  8 0.4 1.9LRSN                1
 GAP= 68        0.79       3.3     3.5  6.3 -0.3844E+00  0.3842E+01  0.1240E+01E
 Epicentro: ZAPATOCA - SANTANDER                                               3
 ACTION:UPD 13-03-12 09:30 OP:ep   STATUS:               ID:20130205024344 L   I
 2013-02-05-0240-00M.COL___240                                                 6
 STAT SP IPHASW D HRMM SECON CODA AMPLIT PERI AZIMU VELO AIN AR TRES W  DIS CAZ7
 BAR2 SZ EP   1    244  3.87                             170    0.08 7 25.4 178 
 BAR2 SZ ES   1    244 18.79                             170   -0.02 7 25.4 178 
 BAR2 SZ I         244 20.35        16.5 0.18            172           25.4 178 
 BRR  HZ EP     C  244  5.73                             154    0.7410 65.5 299 
 BRR  HN I         244 23.43        28.3 0.24            145           65.5 299 
 PAM  SZ EP   1    244  6.84                             150    0.36 7 78.9  44 
 PAM  SN ES        244 23.55                             150   -0.0410 78.9  44 
 PAM  SN I         244 25.91         8.8 0.50            146           78.9  44 
 RUS  HZ EP        244  7.95                             142   -0.2110  104 173 
 RUS  HN ES        244 26.48                             142   -0.1110  104 173 
 RUS  HN I         244 27.40         6.8 0.24            144            104 173 
 PTB  HZ EP   1    244 10.70                             132   -0.11 7  143 257 
 PTB  HN ES        244 31.36                             132    0.06 9  143 257 
 PTB  HN I         244 36.68        10.5 0.54            127            143 257 
 TAM  HZ EP   1    244 12.35                             129   -0.12 7  161 105 
 TAM  HN ES   1    244 34.10                             129   -0.15 7  161 105 
 TAM  HN I         244 34.75         8.3 0.36            129            161 105 
 SML  HN ES   1    244 47.54                             117   -1.00 6  239 336 
 SML  HN I         244 55.30        10.3 0.32            113            239 336 
 CHI  HZ EP   1    244 22.28                             116    0.12 6  250 194 
 CHI  HN ES   1    244 51.01                             116   -0.50 6  250 194 
 CHI  HN I         244 53.80         6.8 0.48            115            250 194 
                                                                                
