 2011 12 5 0822 50.3 L   6.174 -74.190  5.4  RSN  6 0.5 1.2LRSN                1
 GAP=118        0.84       3.9     2.5  7.7 -0.2113E+01 -0.1224E+01  0.1322E+01E
 Epicentro: CIMITARRA - SANTANDER                                              3
 ACTION:UP  12-07-13 16:14 OP:ep   STATUS:               ID:20111205082250 L   I
 OLDACT:UPD 12-07-12 22:32 OP:ep   STATUS:               ID:20111205082250 L   3
 2011-12-05-0820-00M.COL___183                                                 6
 STAT SP IPHASW D HRMM SECON CODA AMPLIT PERI AZIMU VELO AIN AR TRES W  DIS CAZ7
 BRR  HZ EP   1    823  7.99                              91   -0.42 7  116  27 
 BRR  HE ES   1    823 22.64                              91    0.07 7  116  27 
 BRR  HZ I         823 23.48         4.0 0.12                           116  27 
 BAR2 SZ EP   2    823  9.99                              91    0.61 5  121  67 
 BAR2 SZ I         823 24.20         9.2 0.43                           121  67 
 RUS  HZ EP   1    823 11.10                              91    0.58 7  126 104 
 RUS  HN ES   1    823 25.70                              91   -0.62 7  126 104 
 RUS  HZ I         823 26.71         4.2 0.31                           126 104 
 HEL  HZ EP   1    823 14.29                              90    0.62 7  148 271 
 HEL  HN ES   1    823 31.45                              90   -0.49 7  148 271 
 HEL  HZ I         823 32.61         3.2 0.45                           148 271 
 RREF HN ES   2    823 43.08                              56   -0.05 4  190 222 
 PAM  SE ES   1    823 47.03                              56    0.04 6  209  52 
                                                                                
