 2013  1 5 0548  5.7 L   6.701 -73.200139.1  RSN  5 0.5 1.3LRSN                1
 GAP=222        1.22       8.6     9.2  9.3  0.3629E+02  0.2365E+02  0.1799E+02E
 Epicentro: VILLANUEVA - SANTANDER                                             3
 ACTION:UPD 13-02-15 09:12 OP:ep   STATUS:               ID:20130105054805 L   I
 2013-01-05-0539-49M.COL___196                                                 6
 STAT SP IPHASW D HRMM SECON CODA AMPLIT PERI AZIMU VELO AIN AR TRES W  DIS CAZ7
 BAR2 SZ EP        548 24.34                             175   -0.0210 12.2 171 
 BAR2 SZ I         548 24.69         5.4 0.36            168           12.2 171 
 BAR2 SZ ES        548 39.33                             175    0.4310 12.2 171 
 BRR  HZ EP        548 26.22                             151    0.0110 72.2 308 
 BRR  HZ I         548 26.48         4.8 0.26            150           72.2 308 
 BRR  HN ES        548 42.23                             151    0.0510 72.2 308 
 RUS  HN ES        548 44.93                             145   -0.5910 90.3 172 
 RUS  HN I         548 48.84         1.9 0.24            143           90.3 172 
 PTB  HZ EP        548 30.66                             132   -0.78 9  140 263 
 PTB  HN ES        548 51.71                             132    0.21 9  140 263 
 PTB  HN I         548 57.55         2.6 0.22            130            140 263 
 CHI  HZ EP        548 42.69                             117    0.96 8  237 194 
                                                                                
