 2012  3 5 0413 60.0 L   6.711 -73.193146.5  RSN  5 0.4 1.7LRSN                1
 GAP=225        0.91       9.1     8.4  8.8  0.4698E+02  0.1192E+02 -0.4867E+01E
 ACTION:UP  12-03-31 23:17 OP:EP   STATUS:               ID:20120305041360 L   I
 2012-03-05-0410-00M.COL___191                                                 6
 STAT SP IPHASW D HRMM SECON CODA AMPLIT PERI AZIMU VELO SNR AR TRES W  DIS CAZ7
 BAR2 SZ EP   1    414 19.33                             175    -0.2 7   13 175 
 BAR2 SZ ES   1    414 34.41                             175    -0.4 7   13 175 
 BAR2 SZ I         414 36.38        19.7 0.20                            13 175 
 BRR  HZ EP   1    414 21.48                             152     0.2 7   72 307 
 BRR  HN ES   1    414 38.46                             152     0.6 7   72 307 
 BRR  HZ I         414 39.80         9.8 0.11                            72 307 
 RUS  HZ EP   1    414 23.25                             147     0.1 7   91 172 
 RUS  HN ES   1    414 41.23                             147     0.0 7   91 172 
 RUS  HZ I         414 43.87         6.0 0.21                            91 172 
 PTB  HZ EP   1    414 26.34                             134    -0.1 7  141 262 
 PTB  HN ES   1    414 47.33                             134     0.3 7  141 262 
 ZAR  HZ EP   1    414 32.72                             123     0.3 6  203 295 
 ZAR  HN ES   1    414 56.72                             123    -1.0 6  203 295 
 ZAR  HZ I         415  3.87         3.5 0.20                           203 295 
                                                                                
