 2010 12 5 0434 49.9 L   6.544 -73.731 98.0  RSN  9 0.4 1.9LRSN                1
 GAP=115        0.84       7.1     8.2 12.4 -0.4749E+02  0.7680E+02 -0.5258E+02E
 Epicentro: SANTA HELENA DEL OPON - SANTANDER                                  3
 ACTION:UP  11-01-14 15:22 OP:pat  STATUS:               ID:20101205043449 L   I
 2010-12-05-0432-45S.COL___133                                                 6
 STAT SP IPHASW D HRMM SECON CODA AMPLIT PERI AZIMU VELO SNR AR TRES W  DIS CAZ7
 BAR2 SZ EP        435  5.60                             147    -0.110   61  85 
 BAR2 SZ ES   1    435 17.71                             147    -0.3 7   61  85 
 GIR2 SZ EP        435  8.20                             137     0.910   84  45 
 NOR  SZ EP   3    435 14.87                             117    -0.6 2  166 229 
 NOR  SN ES   2    435 35.57                             117     0.0 5  166 229 
 GUE  SZ EP        435 15.79                             117    -0.2 9  168  32 
 GRA  SZ EP   2    435 17.22                             115     0.0 4  180  35 
 GRA  SZ ES   1    435 38.36                             115    -0.1 7  180  35 
 OCA  SZ EP        435 18.28                             113    -0.3 9  193  14 
 OCA  SZ I         435 48.19        15.3 0.30                           193  14 
 HEL  HZ EP        435 20.06                             112     0.0 9  203 259 
 HEL  HE ES   3    435 42.74                             112    -0.8 2  203 259 
 HEL  HZ I         435 47.04         6.7 0.43                           203 259 
 CHI  HZ EP   2    435 20.69                             111    -0.4 4  212 180 
 RREF HZ EP        435 26.34                             107    -0.1 8  255 225 
 RREF HE ES   2    435 55.45                             107     0.5 4  255 225 
 RREF HZ I         436  0.03         6.1 0.43                           255 225 
                                                                                
