 2014  9 5 0932 21.7 L   6.788 -73.136146.4  RSN  5 0.4 1.8LRSN                1
 GAP=155        0.95       6.8     5.9  8.1 -0.2261E+02 -0.3971E+01  0.1761E+02E
 Epicentro: LOS SANTOS - SANTANDER                                             3
 ACTION:UPD 14-10-03 23:02 OP:nd   STATUS:               ID:20140905093226 L   I
 OLDACT:UP  14-09-18 06:03 OP:MHER STATUS:               ID:20140905093226 L   3
 OLDACT:UP  14-09-05 19:29 OP:mh   STATUS:               ID:20140905093000     3
 OLDACT:UP  14-09-05 19:29 OP:mh   STATUS:               ID:20140905093000     3
 OLDACT:REG 14-09-05 13:57 OP:mh   STATUS:               ID:20140905093000     3
 2014-09-05-0930-00M.COL___282                                                 6
 STAT SP IPHASW D HRMM SECON CODA AMPLIT PERI AZIMU VELO AIN AR TRES W  DIS CAZ7
 BAR2 SZ EP        932 41.39                             171    0.0210 22.3 193 
 BAR2 SZ ES   1    932 56.71                             171   -0.02 7 22.3 193 
 BAR2 SZ I         932 59.18        49.6 0.04            170           22.3 193 
 BRR  HZ EP        932 43.22                             152    0.2310 72.7 299 
 BRR  HZ I         932 56.99         4.4 0.47            143           72.7 299 
 BRR  HN ES        933  0.23                             152    0.6210 72.7 299 
 PAM  SZ EP        932 44.21                             151    0.2210 77.7  38 
 PAM  SN ES        933  0.88                             151   -0.5110 77.7  38 
 PAM  SZ I         933  3.67         5.5 0.15            148           77.7  38 
 PTB  HZ EP   1    932 48.24                             132   -0.54 7  149 259 
 PTB  HN ES        933  9.30                             132   -0.61 9  149 259 
 PTB  HZ I         933 16.99         6.9 0.53            127            149 259 
 SPBC HZ EP        932 50.35                             129    0.15 9  163 220 
 SPBC HN ES        933 12.57                             129    0.12 9  163 220 
 SPBC HZ I         933 16.70         8.2 0.13            126            163 220 
                                                                                
