 2011 10 5 0633 19.2 L   6.775 -73.128147.2  RSN 13 0.4 2.4LRSN                1
 GAP=140        0.84       3.2     5.4  5.3 -0.5114E+01  0.8590E+01  0.2611E+01E
 Epicentro: LOS SANTOS - SANTANDER                                             3
 ACTION:UPD 12-07-13 16:02 OP:ep   STATUS:               ID:20111005063319 L   I
 2011-10-05-0620-00M.COL___172                                                 6
 STAT SP IPHASW D HRMM SECON CODA AMPLIT PERI AZIMU VELO AIN AR TRES W  DIS CAZ7
 BAR2 SZ IP        633 38.92                             171   -0.0610 21.0 197 
 BAR2 SZ ES   1    633 53.34                             171   -1.06 7 21.0 197 
 BAR2 SZ I         633 55.71        46.4 0.34                          21.0 197 
 GIR2 SZ EP   1    633 39.10                             166   -0.06 7 34.4 348 
 GIR2 SZ ES   1    633 54.86                             166    0.16 7 34.4 348 
 BRR  HZ EP        633 40.81                             152    0.1110 74.3 300 
 BRR  HN ES   1    633 58.19                             152    0.73 7 74.3 300 
 BRR  HZ I         634  0.10        51.8 0.14                          74.3 300 
 PAM  SZ EP        633 41.79                             151    0.1410 78.4  37 
 PAM  SE ES   1    633 59.06                             151   -0.09 7 78.4  37 
 PAM  SZ I         634  1.05        24.6 0.20                          78.4  37 
 RUS  HZ EP        633 42.78                             145   -0.1310 97.7 177 
 RUS  HN ES   1    634  1.39                             145    0.00 7 97.7 177 
 RUS  HZ I         634  2.87        18.1 0.26                          97.7 177 
 BRI  SZ EP   1    633 43.71                             141    0.31 7  110  19 
 BRI  SZ ES   1    634  2.96                             141    0.70 7  110  19 
 OCA  SZ EP   1    633 47.56                             129   -0.37 7  163 353 
 OCA  SZ ES   1    634  9.65                             129   -0.67 7  163 353 
 OCA  SZ I         634 15.76        30.7 0.18                           163 353 
 ZAR  HZ EP   1    633 51.56                             122   -0.50 6  207 293 
 ZAR  HZ I         634 23.39        42.0 0.39                           207 293 
 NOR  SZ EP   1    633 54.81                             119   -0.22 6  235 235 
 NOR  SN ES   1    634 22.91                             119   -0.05 6  235 235 
 CHI  HZ EP   1    633 56.79                             118    0.02 6  246 196 
 CHI  HE ES   1    634 26.69                             118    0.64 6  246 196 
 CHI  HZ I         634 32.30        12.4 0.37                           246 196 
 HEL  HZ EP   1    633 59.58                             115   -0.06 6  273 256 
 HEL  HZ I         634 37.85        11.2 0.32                           273 256 
 GUY  SZ EP   1    634  3.84                             112    0.68 5  304 236 
 GUY  SZ I         634 46.42        31.5 0.41                           304 236 
 PRA  HZ EP   1    634 12.37                             107   -0.25 4  391 210 
                                                                                
