 2015  1 5 0141 17.7 L   6.788 -73.164136.0  RSN  7 0.3 1.6LRSN                1
 GAP=235        0.88       4.6     5.5  5.7  0.1274E+02  0.6248E+01  0.2328E+01E
 Epicentro: LOS SANTOS - SANTANDER                                             3
 ACTION:UPD 15-03-02 15:36 OP:nd   STATUS:               ID:20150105014117 L   I
 OLDACT:REG 15-01-05 13:44 OP:cam  STATUS:               ID:20150105013816     3
 2015-01-05-0138-16M.COL___280                                                 6
 STAT SP IPHASW D HRMM SECON CODA AMPLIT PERI AZIMU VELO AIN AR TRES W  DIS CAZ7
 BAR2 EZ ES        141 49.89                             170   -0.5910 21.8 185 
 BAR2 EZ I         141 52.51        12.7 0.20            163           21.8 185 
 BRR  HZ IP     C  141 38.00                             151    0.2810 70.0 300 
 BRR  HN ES        141 53.87                             151    0.5210 70.0 300 
 BRR  HN I         141 58.73        16.8 0.18            146           70.0 300 
 RUS  HZ EP        141 40.20                             142   -0.2110 99.5 175 
 RUS  HN ES        141 58.47                             142    0.3410 99.5 175 
 RUS  HZ I         141 59.76         4.1 0.18            130           99.5 175 
 PTB  HZ EP        141 43.16                             130   -0.51 9  145 259 
 PTB  HN ES        142  3.64                             130   -0.29 9  145 259 
 PTB  HZ I         142  6.56         5.1 0.22            121            145 259 
 SPBC HZ EP   1    141 45.45                             127    0.22 7  161 219 
 SPBC HN ES        142  6.96                             127    0.24 9  161 219 
 SPBC HZ I         142 13.48         7.2 0.14            117            161 219 
 ZAR  HZ EP        141 49.44                             120    0.07 9  203 293 
 ZAR  HN ES        142 14.00                             120   -0.08 9  203 293 
 ZAR  HZ I         142 21.22         3.2 0.56            112            203 293 
 CHI  HZ EP        141 54.76                             115    0.09 8  247 195 
 CHI  HZ I         142 29.78         1.4 0.24            106            247 195 
 SJC  HZ EP   4    142 10.62                             104   -2.32 0  409 327 
                                                                                
