 2013 12 5 0501 10.0 L   6.750 -73.111138.0  RSN 10 0.3 1.7LRSN                1
 GAP=143        0.78       3.0     3.4  5.5  0.4255E-01  0.7071E+01  0.5285E+01E
 Epicentro: LOS SANTOS - SANTANDER                                             3
 ACTION:UPD 14-01-13 10:15 OP:ep   STATUS:               ID:20131205050110 L   I
 OLDACT:REG 13-12-05 08:10 OP:carl STATUS:               ID:20131205050000     3
 2013-12-05-0500-00M.COL___285                                                 6
 STAT SP IPHASW D HRMM SECON CODA AMPLIT PERI AZIMU VELO AIN AR TRES W  DIS CAZ7
 BAR2 SZ EP        5 1 28.57                             172   -0.0710 19.1 204 
 BAR2 SZ ES        5 1 43.04                             172   -0.1210 19.1 204 
 BAR2 SZ I         5 1 44.48        15.1 0.16            168           19.1 204 
 BRR  HZ EP        5 1 30.53                             149   -0.1810 77.3 301 
 BRR  HN ES        5 1 47.25                             149    0.4110 77.3 301 
 BRR  HZ I         5 1 48.37         4.5 0.40            149           77.3 301 
 PAM  SN ES        5 1 48.35                             149    0.0010 79.5  35 
 RUS  HZ EP        5 1 32.36                             144   -0.2410 94.8 178 
 RUS  HN ES        5 1 50.60                             144    0.4010 94.8 178 
 PTB  HZ EP   4    5 1 35.17                             130   -1.46 0  151 261 
 PTB  HN ES        5 1 56.99                             130   -0.39 9  151 261 
 SPBC HZ EP        5 1 37.82                             128    0.06 9  161 221 
 SPBC HN ES        5 1 58.89                             128   -0.51 9  161 221 
 SPBC HZ I         5 2  5.98         4.6 0.18            127            161 221 
 ZAR  HN ES        5 2  7.84                             120   -0.12 8  210 293 
 ZAR  HN I         5 2 10.73         9.9 0.28            121            210 293 
 NOR  HN ES        5 2 13.40                             117    0.57 8  235 236 
 CHI  HN ES        5 2 15.35                             116   -0.18 8  244 196 
 CHI  HN I         5 2 20.98         3.9 0.30            116            244 196 
 GUY2CHZ EP        5 1 53.83                             111    0.55 7  301 236 
 GUY2CHN ES        5 2 27.13                             111    0.11 7  301 236 
 GUY2CHZ I         5 2 35.58         1.6 0.58                           301 236 
                                                                                
