 2015  2 5 0143 40.1 L   6.819 -73.142150.4  RSN  9 0.5 1.8LRSN                1
 GAP=136        1.18       3.7     5.1  6.9  0.1573E+00  0.8538E+01 -0.1892E+01E
 Epicentro: LOS SANTOS - SANTANDER                                             3
 ACTION:UPD 15-04-30 21:21 OP:nd   STATUS:               ID:20150205014340 L   I
 OLDACT:REG 15-02-05 14:45 OP:cam  STATUS:               ID:20150205013815     3
 2015-02-05-0138-15M.COL___278                                                 6
 STAT SP IPHASW D HRMM SECON CODA AMPLIT PERI AZIMU VELO AIN AR TRES W  DIS CAZ7
 BAR2 EZ EP        144  0.30                             170   -0.0610 25.5 190 
 BAR2 EZ ES        144 16.07                             170   -0.0710 25.5 190 
 BAR2 EZ I         144 16.52        10.6 0.26            169           25.5 190 
 BRR  HZ EP        144  2.48                             153    0.7310 70.6 297 
 BRR  HN ES        144 19.20                             153    0.5810 70.6 297 
 BRR  HZ I         144 22.22        12.3 0.26            152           70.6 297 
 PAM  SZ EP        144  3.18                             152    0.4510 75.5  40 
 PAM  SN ES        144 20.05                             152   -0.3110 75.5  40 
 PAM  SZ I         144 22.32        21.0 0.48            156           75.5  40 
 RUS  HZ EP        144  4.54                             144    0.0510  103 176 
 RUS  HN ES        144 22.93                             144   -0.5510  103 176 
 RUS  HZ I         144 25.24         5.0 0.30            146            103 176 
 PTB  HZ EP        144  7.24                             133   -0.32 9  149 258 
 PTB  HN ES        144 28.62                             133   -0.33 9  149 258 
 PTB  HZ I         144 31.07         6.6 0.18            133            149 258 
 SPBC HZ EP        144  9.68                             130    0.51 9  165 219 
 SPBC HN ES        144 32.58                             130    0.76 9  165 219 
 SPBC HZ I         144 36.77         9.2 0.10            131            165 219 
 ZAR  HZ EP        144 12.98                             123    0.13 9  204 292 
 ZAR  HN ES        144 37.92                             123   -0.44 9  204 292 
 ZAR  HZ I         144 44.43         7.2 0.28            124            204 292 
 SML  HZ EP        144 16.42                             118   -0.42 8  242 335 
 SML  HN ES        144 45.00                             118   -0.47 8  242 335 
 CHI  HN ES        144 47.29                             118   -0.82 8  251 195 
                                                                                
