 2016  5 5 0540  7.0 L   6.780 -73.119146.8  RSN  9 0.5 1.4LRSN                1
 GAP=141        1.17       3.7     5.2  7.6 -0.2056E+01  0.7835E+01  0.2867E+01E
 Epicentro: LOS SANTOS - SANTANDER                                             3
 ACTION:UPD 16-08-18 17:42 OP:cam  STATUS:               ID:20160505054007 L   I
 OLDACT:REG 16-05-05 13:05 OP:ak   STATUS:               ID:20160505053748     3
 2016-05-05-0537-48M.COL___298                                                 6
 STAT SP IPHASW D HRMM SECON CODA AMPLIT PERI AZIMU VELO AIN AR TRES W  DIS CAZ7
 BAR2 EZ EP        540 26.54                             171   -0.1610 21.9 199 
 BAR2 EZ ES        540 41.33                             171   -0.7510 21.9 199 
 BAR2 EZ I         540 43.27         8.2 0.22            171           21.9 199 
 BRR  HZ EP        540 28.26                             152   -0.1810 74.8 299 
 BRR  HE ES        540 46.16                             152    0.9810 74.8 299 
 PAM  EZ EP        540 29.01                             151   -0.2810 77.3  37 
 PAM  EN ES        540 46.85                             151    0.1510 77.3  37 
 PAM  EZ I         540 48.71         4.5 0.58            153           77.3  37 
 RUS  HZ EP   1    540 30.46                             145   -0.20 7 98.2 178 
 RUS  HN ES        540 49.26                             145    0.1310 98.2 178 
 RUS  HZ I         540 50.56         1.8 0.26            146           98.2 178 
 PTB  HZ EP        540 33.77                             132   -0.48 9  150 260 
 PTB  HN ES        540 54.71                             132   -0.81 9  150 260 
 PTB  HZ I         540 59.06         2.0 0.30            132            150 260 
 SPBC HZ EP        540 35.68                             129    0.11 9  163 220 
 SPBC HE ES        540 58.50                             129    0.63 9  163 220 
 SPBC HZ I         541  3.00         5.2 0.26            130            163 220 
 OCA  HZ EP   2    540 36.29                             130    0.69 5  163 352 
 OCA  HN ES        540 58.22                             130    0.29 9  163 352 
 OCA  HZ I         541  1.50         6.9 0.16            131            163 352 
 ZAR  HZ EP   3    540 40.48                             122    0.63 2  208 292 
 ZAR  HN ES        541  5.38                             122   -0.11 8  208 292 
 ZAR  HZ I         541  7.41         2.3 0.38            123            208 292 
 CHI  HZ EP   2    540 44.41                             118   -0.18 4  247 196 
 CHI  HN ES        541 14.59                             118    0.67 8  247 196 
                                                                                
