 2017  9 5 0635 55.8 L   6.788 -73.167149.1  RSN  6 0.5 1.3LRSN                1
 GAP=234        1.09       5.5     6.5  8.7  0.9489E+01  0.1507E+02  0.4153E+01E
 Epicentro: LOS SANTOS - SANTANDER                                             3
 ACTION:UPD 17-10-05 19:09 OP:rebc STATUS:               ID:20170905063555 L   I
 OLDACT:REG 17-09-05 13:26 OP:dnl  STATUS:               ID:20170905062739     3
 2017-09-05-0628-00M.COL___426                                                 6
 STAT SP IPHASW D HRMM SECON CODA AMPLIT PERI AZIMU VELO AIN AR TRES W  DIS CAZ7
 BAR2 EZ EP        636 15.69                             171   -0.1410 21.7 184 
 BAR2 EZ ES        636 30.66                             171   -0.7710 21.7 184 
 BAR2 EZ I         636 32.22         5.4 0.64            173           21.7 184 
 BRR  HZ EP        636 17.47                             153    0.2010 69.8 300 
 BRR  HE ES        636 34.83                             153    0.8410 69.8 300 
 BRR  HZ I         636 39.02         3.0 0.30            151           69.8 300 
 RUS  HZ EP        636 19.82                             145   -0.0110 99.4 175 
 RUS  HN ES        636 38.90                             145    0.3510 99.4 175 
 RUS  HZ I         636 40.09         2.9 0.44            149           99.4 175 
 SPBC HZ EP   2    636 24.60                             130    0.25 5  161 219 
 SPBC HN ES        636 46.35                             130   -0.25 9  161 219 
 ZAR  HZ EP   2    636 27.75                             123   -0.58 4  202 293 
 ZAR  HN ES        636 53.14                             123   -0.53 9  202 293 
 ZAR  HZ I         637  0.44         1.9 0.38            124            202 293 
 NOR  HZ EP   2    636 32.31                             119    0.84 4  232 234 
 NOR  HN ES        636 59.32                             119    0.06 8  232 234 
 NOR  HZ I         637  1.04         1.8 0.18            121            232 234 
                                                                                
