 2012  6 5 0600 51.6 L   6.863 -73.201136.3  RSN  5 0.2 1.7LRSN                1
 GAP=181        0.50       3.0     5.3  9.8 -0.5188E+01 -0.5713E+01  0.3877E+01E
 Epicentro: ZAPATOCA - SANTANDER                                               3
 ACTION:UPD 12-08-06 17:47 OP:ep   STATUS:               ID:20120605060059 L   I
 2012-06-05-0600-00M.COL___201                                                 6
 STAT SP IPHASW D HRMM SECON CODA AMPLIT PERI AZIMU VELO AIN AR TRES W  DIS CAZ7
 BAR2 SZ EP   1    6 1 10.60                             167    0.32 7 30.0 176 
 BAR2 SZ I         6 1 11.06         7.0 0.17            144           30.0 176 
 PTB  HZ EP   1    6 1 17.20                             131   -0.22 7  143 256 
 PTB  HN ES   1    6 1 37.48                             131   -0.06 7  143 256 
 PTB  HZ I         6 1 43.82         4.3 0.09            101            143 256 
 OCA  HZ EP   1    6 1 18.23                             129   -0.25 7  153 355 
 OCA  HN ES   1    6 1 39.36                             129   -0.07 7  153 355 
 OCA  HZ I         6 1 44.87        13.2 0.23            101            153 355 
 ZAR  HZ EP   1    6 1 23.00                             121    0.41 6  196 291 
 ZAR  HZ I         6 1 54.60         9.5 0.23             98            196 291 
 CHI  HN ES   1    6 1 58.68                             115   -0.18 6  254 193 
                                                                                
