 2011 12 5 0356 47.5 L   6.785 -73.122139.3  RSN  4 0.2 1.3LRSN                1
 GAP=140        0.43       4.1     7.6  8.2  0.1877E+02 -0.4332E+02 -0.1324E+02E
 Epicentro: LOS SANTOS - SANTANDER                                             3
 ACTION:UPD 12-07-13 16:14 OP:ep   STATUS:               ID:20111205035647 L   I
 2011-12-05-0350-00M.COL___183                                                 6
 STAT SP IPHASW D HRMM SECON CODA AMPLIT PERI AZIMU VELO AIN AR TRES W  DIS CAZ7
 BAR2 SZ EP   1    357  5.96                             170   -0.34 7 22.4 197 
 BAR2 SZ I         357 16.99         4.8 0.40                          22.4 197 
 BRR  HZ EP   1    357  8.06                             150   -0.04 7 74.3 299 
 BRR  HZ I         357  8.52         7.0 0.15                          74.3 299 
 BRR  HE ES        357 24.25                             150    0.0510 74.3 299 
 PAM  SZ EP   1    357  9.07                             150    0.09 7 77.0  37 
 RUS  HZ EP   1    357 10.67                             143    0.21 7 98.8 178 
 RUS  HN ES   1    357 28.38                             143   -0.01 7 98.8 178 
 RUS  HZ I         357 29.83         1.7 0.36                          98.8 178 
                                                                                
