 2012  5 5 0343 49.6 L   6.770 -73.154140.2  RSN  6 0.4 1.6LRSN                1
 GAP=137        0.82       5.3     4.8  7.1  0.2201E+01  0.1076E+02 -0.3379E+01E
 Epicentro: LOS SANTOS - SANTANDER                                             3
 ACTION:UP  12-07-05 12:02 OP:pat  STATUS:               ID:20120505034349 L   I
 2012-05-05-0340-00M.COL___192                                                 6
 STAT SP IPHASW D HRMM SECON CODA AMPLIT PERI AZIMU VELO SNR AR TRES W  DIS CAZ7
 BAR2 SZ ES   1    344 23.00                             171    -0.2 9   20 189 
 BAR2 SZ I         344 25.43        11.2 0.29                            20 189 
 BRR  HZ EP   1    344  9.54                             151    -0.6 9   72 301 
 BRR  HE ES   1    344 26.40                             151     0.2 9   72 301 
 PAM  SZ EP   1    344 11.44                             149     0.1 9   81  39 
 PAM  SN ES   1    344 28.33                             149    -0.1 9   81  39 
 RUS  HZ EP   1    344 12.72                             143     0.2 9   97 175 
 RUS  HN ES   1    344 30.78                             143     0.3 9   97 175 
 RUS  HZ I         344 32.12         3.3 0.26                            97 175 
 PTB  HZ EP   1    344 15.54                             131    -0.4 8  146 260 
 PTB  HN ES   1    344 36.05                             131    -0.4 8  146 260 
 PTB  HZ I         344 38.83         6.1 0.17                           146 260 
 ZAR  HZ EP        344 21.92                             121     0.210  204 293 
 ZAR  HN ES   1    344 47.37                             121     0.6 7  204 293 
 ZAR  HZ I         344 53.26         4.7 0.18                           204 293 
                                                                                
