 2013  8 5 0334 31.4 L   6.777 -73.053149.5  RSN  5 0.4 1.2LRSN                1
 GAP=209        0.88       4.9    10.0  9.8  0.8705E+01 -0.1855E+02 -0.1311E+02E
 Epicentro: LOS SANTOS - SANTANDER                                             3
 ACTION:UPD 14-01-14 08:59 OP:ep   STATUS:               ID:20130805033431 L   I
 OLDACT:REG 13-08-05 07:50 OP:jn   STATUS:               ID:20130805032959     3
 2013-08-05-0329-59M.COL___270                                                 6
 STAT SP IPHASW D HRMM SECON CODA AMPLIT PERI AZIMU VELO AIN AR TRES W  DIS CAZ7
 BRR  HZ EP        334 53.95                             150    0.3910 81.4 297 
 BRR  HN ES        335 11.18                             150    0.3410 81.4 297 
 BRR  HZ I         335 13.80         3.3 0.44            149           81.4 297 
 RUS  HN ES   1    335 13.46                             145   -0.54 7 97.8 182 
 RUS  HZ I         335 15.63         1.5 0.28            144           97.8 182 
 PTB  HN ES   1    335 20.84                             131   -0.67 7  157 260 
 PTB  HZ I         335 23.01         2.7 0.26            130            157 260 
 SPBC HZ EP   1    335  1.01                             129    0.36 7  168 222 
 SPBC HN ES   1    335 23.56                             129    0.11 7  168 222 
 SPBC HZ I         335 29.82         1.9 0.34            128            168 222 
 SML  HZ EP   1    335  8.48                             117   -0.50 6  250 333 
 SML  HN ES   1    335 37.85                             117   -0.43 6  250 333 
                                                                                
