 2017  3 5 0543 48.5 L   5.883 -73.667125.5  RSN  7 0.3 1.5LRSN                1
 GAP= 94        0.76       2.5     2.9  5.2 -0.1190E+01  0.1699E+01  0.1299E+00E
 Epicentro: PUENTE NACIONAL - SANTANDER                                        3
 ACTION:UPD 17-05-25 18:36 OP:jn   STATUS:               ID:20170305054348 L   I
 OLDACT:DUP 17-03-05 14:08 OP:ar   STATUS:               ID:20170305053745d    3
 OLDACT:UP  17-03-05 14:07 OP:ar   STATUS:               ID:20170305053744     3
 OLDACT:UP  17-03-05 14:05 OP:ar   STATUS:               ID:20170305053744     3
 OLDACT:UP  17-03-05 14:04 OP:ar   STATUS:               ID:20170305053744     3
 OLDACT:UP  17-03-05 14:02 OP:ar   STATUS:               ID:20170305053744     3
 OLDACT:UP  17-03-05 14:00 OP:ar   STATUS:               ID:20170305053744     3
 OLDACT:UP  17-03-05 13:58 OP:ar   STATUS:               ID:20170305053744     3
 OLDACT:UP  17-03-05 13:55 OP:ar   STATUS:               ID:20170305053744     3
 OLDACT:UP  17-03-05 13:53 OP:ar   STATUS:               ID:20170305053744     3
 OLDACT:UP  17-03-05 13:52 OP:ar   STATUS:               ID:20170305053744     3
 OLDACT:REG 17-03-05 12:06 OP:ar   STATUS:               ID:20170305053744     3
 2017-03-05-0538-00M.COL___387                                                 6
 STAT SP IPHASW D HRMM SECON CODA AMPLIT PERI AZIMU VELO AIN AR TRES W  DIS CAZ7
 SPBC HZ EP        544  6.38                             156   -0.1510 51.7 240 
 SPBC HN ES        544 20.90                             156    0.3110 51.7 240 
 SPBC HZ I         544 25.50        11.9 0.09            158           51.7 240 
 RUS  HZ EP        544  7.86                             151    0.0510 64.6  89 
 RUS  HN ES        544 22.66                             151   -0.2110 64.6  89 
 RUS  HZ I         544 25.67         3.6 0.38            156           64.6  89 
 BAR2 EZ EP        544  9.56                             141    0.0310 95.0  34 
 BAR2 EZ ES        544 25.92                             141   -0.0110 95.0  34 
 BAR2 EZ I         544 27.51        15.1 0.26            145           95.0  34 
 PTB  HZ EP        544 10.02                             135   -0.7410  114 310 
 PTB  HN ES        544 27.91                             135   -0.2010  114 310 
 PTB  HZ I         544 30.28         3.8 0.34            138            114 310 
 BRR  HZ EP        544 12.88                             130    0.17 9  135 358 
 BRR  HN ES        544 31.94                             130    0.36 9  135 358 
 BRR  HZ I         544 40.37         3.9 0.42            133            135 358 
 NOR  HZ EP        544 13.35                             129    0.35 9  138 255 
 NOR  HN ES        544 32.12                             129    0.02 9  138 255 
 NOR  HZ I         544 35.61         6.1 0.14            133            138 255 
 CHI  HZ EP        544 13.84                             129    0.26 9  139 183 
 CHI  HN ES        544 32.95                             129   -0.18 9  139 183 
 CHI  HZ I         544 36.15         3.1 0.44            134            139 183 
                                                                                
