 2017 12 5 0253 38.3 L   6.881 -73.350120.5  RSN  5 0.3 2.2LRSN                1
 GAP=149        0.71       2.8     3.3  6.1  0.1318E+01  0.4629E+01 -0.5329E+01E
 Epicentro: SAN VICENTE DE CHUCURI - SANTANDER                                 3
 ACTION:UPD 18-01-04 13:17 OP:rebc STATUS:               ID:20171205025338 L   I
 OLDACT:UP  17-12-05 16:33 OP:e    STATUS:               ID:20171205024739d    3
 OLDACT:DUP 17-12-05 16:28 OP:e    STATUS:               ID:20171205024739d    3
 OLDACT:UP  17-12-05 16:23 OP:e    STATUS:               ID:20171205024738     3
 OLDACT:REG 17-12-05 13:28 OP:y    STATUS:               ID:20171205024738     3
 2017-12-05-0248-00M.COL___488                                                 6
 STAT SP IPHASW D HRMM SECON CODA AMPLIT PERI AZIMU VELO AIN AR TRES W  DIS CAZ7
 BAR2 EZ EP        253 55.65                             162    0.2910 36.9 150 
 BAR2 EZ ES        254  8.65                             162    0.0110 36.9 150 
 BAR2 EZ I         254  9.92        33.1 0.24            163           36.9 150 
 RUS  HZ EP        254  0.88                             134    0.1110  113 165 
 RUS  HE ES        254 18.28                             134    0.0210  113 165 
 PTB  HZ EP        254  1.02                             130   -0.4510  128 253 
 PTB  HN ES        254 19.22                             130   -0.2910  128 253 
 OCA  HZ EP        254  3.76                             125   -0.04 9  150   1 
 OCA  HE ES        254 23.41                             125   -0.25 9  150   1 
 OCA  HZ I         254 24.59        24.8 0.26            126            150   1 
 ZAR  HZ EP        254  6.72                             120    0.06 9  180 292 
 ZAR  HE ES        254 29.31                             120    0.57 9  180 292 
                                                                                
