 2014  2 5 0213 38.3 L   6.769 -73.157146.6  RSN  8 0.4 1.6LRSN                1
 GAP=199        0.84       3.5     4.9  6.0  0.5021E+01  0.5727E+01  0.1079E+01E
 Epicentro: LOS SANTOS - SANTANDER                                             3
 ACTION:UPD 14-03-10 08:07 OP:ep   STATUS:               ID:20140205021338 L   I
 OLDACT:REG 14-02-05 07:44 OP:mh   STATUS:               ID:20140205021000     3
 2014-02-05-0210-00M.COL___288                                                 6
 STAT SP IPHASW D HRMM SECON CODA AMPLIT PERI AZIMU VELO AIN AR TRES W  DIS CAZ7
 BAR2 SZ EP        213 58.19                             172    0.1910 19.7 188 
 BAR2 SZ ES   1    214 12.96                             172   -0.38 7 19.7 188 
 BAR2 SZ I         214 14.81        16.8 0.11            169           19.7 188 
 BRR  HZ EP     C  213 59.94                             152    0.3310 71.9 301 
 BRR  HN ES        214 16.46                             152    0.2510 71.9 301 
 BRR  HZ I         214 21.03         5.5 0.20            151           71.9 301 
 RUS  HZ EP   1    214  2.10                             145    0.17 7 97.2 175 
 RUS  HN ES        214 20.18                             145   -0.1610 97.2 175 
 PTB  HZ EP   1    214  4.77                             133   -0.44 7  146 260 
 PTB  HN ES   1    214 25.51                             133   -0.66 7  146 260 
 PTB  HZ I         214 28.56         3.9 0.08            132            146 260 
 ZAR  HN ES        214 36.14                             122   -0.08 9  204 293 
 NOR  HZ EP        214 13.59                             119   -0.20 8  232 235 
 NOR  HN ES        214 41.97                             119    0.52 8  232 235 
 NOR  HZ I         214 47.72         2.6 0.17            119            232 235 
 CHI  HZ EP   1    214 16.12                             118    0.44 6  245 195 
 CHI  HN ES   1    214 44.70                             118   -0.12 6  245 195 
 CHI  HZ I         214 49.70         1.9 0.48            119            245 195 
 SML  HZ EP   1    214 14.22                             117   -1.07 6  246 336 
 SML  HN ES   1    214 44.61                             117    0.49 6  246 336 
 SML  HZ I         214 46.05         4.7 0.07            119            246 336 
                                                                                
