 2016  6 5 0215 32.0 L   6.767 -73.123141.0  RSN  7 0.3 1.6LRSN                1
 GAP=141        0.74       3.4     3.5  4.7 -0.3738E+01  0.3500E+01  0.2246E+01E
 Epicentro: LOS SANTOS - SANTANDER                                             3
 ACTION:UPD 16-07-21 22:15 OP:rebc STATUS:               ID:20160605021532 L   I
 OLDACT:UP  16-06-05 16:23 OP:edw  STATUS:               ID:20160605020742d    3
 OLDACT:DUP 16-06-05 16:19 OP:edw  STATUS:               ID:20160605020742d    3
 OLDACT:REG 16-06-05 12:40 OP:edw  STATUS:               ID:20160605020741     3
 2016-06-05-0207-41M.COL___328                                                 6
 STAT SP IPHASW D HRMM SECON CODA AMPLIT PERI AZIMU VELO AIN AR TRES W  DIS CAZ7
 BAR2 EZ EP        215 51.02                             171    0.0210 20.5 199 
 BAR2 EZ ES        216  5.53                             171   -0.2810 20.5 199 
 BAR2 EZ I         216  6.90        10.0 0.14                          20.5 199 
 BRR  HZ EP        215 52.92                             150    0.0510 75.2 300 
 BRR  HN ES        216  9.66                             150    0.5110 75.2 300 
 BRR  HZ I         216 13.50         9.1 0.34                          75.2 300 
 PAM  EZ EP     C  215 54.05                             149    0.2610 78.7  36 
 PAM  EN ES        216 10.50                             149   -0.2810 78.7  36 
 PAM  EZ I         216 13.12         5.7 0.46                          78.7  36 
 RUS  HZ EP        215 55.20                             144    0.1910 96.8 177 
 RUS  HE ES        216 12.92                             144   -0.0310 96.8 177 
 RUS  HZ I         216 15.36         4.4 0.40                          96.8 177 
 PTB  HZ EP        215 58.07                             130   -0.68 9  150 260 
 PTB  HN ES        216 19.48                             130   -0.14 9  150 260 
 PTB  HZ I         216 21.46         4.9 0.74                           150 260 
 SPBC HZ EP        216  0.17                             128    0.14 9  162 220 
 SPBC HN ES        216 22.08                             128    0.20 9  162 220 
 SPBC HZ I         216 26.72         6.6 0.28                           162 220 
 NOR  HZ EP        216  7.47                             117    0.01 8  235 236 
 NOR  HN ES        216 35.09                             117   -0.02 8  235 236 
 NOR  HZ I         216 37.87         3.4 0.22                           235 236 
                                                                                
