 2017 10 5 0315  3.0 L   6.773 -73.130141.8  RSN  9 0.3 1.7LRSN                1
 GAP=104        0.71       2.9     2.9  4.4 -0.2491E+01  0.3168E+01  0.1833E+01E
 Epicentro: LOS SANTOS - SANTANDER                                             3
 ACTION:UPD 17-11-07 19:28 OP:rebc STATUS:               ID:20171005031503 L   I
 OLDACT:REG 17-10-05 12:31 OP:osc  STATUS:               ID:20171005030744     3
 2017-10-05-0308-00M.COL___438                                                 6
 STAT SP IPHASW D HRMM SECON CODA AMPLIT PERI AZIMU VELO AIN AR TRES W  DIS CAZ7
 BAR2 EZ EP        315 22.04                             171   -0.0710 20.8 196 
 BAR2 EZ ES        315 36.77                             171   -0.2410 20.8 196 
 BAR2 EZ I         315 37.78        24.3 0.18            170           20.8 196 
 PAM  EZ EP        315 24.94                             150    0.0610 78.7  37 
 PAM  EE ES        315 41.85                             150   -0.1010 78.7  37 
 PAM  EZ I         315 44.22         9.5 0.62            152           78.7  37 
 RUS  HZ EP        315 26.13                             144   -0.0110 97.5 177 
 RUS  HN ES        315 44.58                             144    0.3910 97.5 177 
 RUS  HZ I         315 46.05         8.8 0.42            144           97.5 177 
 TAM  HZ EP        315 30.43                             130    0.28 9  153 104 
 SPBC HZ EP        315 31.01                             128   -0.07 9  162 220 
 SPBC HE ES        315 53.09                             128    0.11 9  162 220 
 SPBC HZ I         315 56.85         6.7 0.30            129            162 220 
 ZAR  HN ES        316  0.89                             121    0.09 8  207 293 
 NOR  HZ EP        315 37.97                             118   -0.50 8  234 235 
 NOR  HN ES        316  6.15                             118    0.02 8  234 235 
 NOR  HZ I         316  8.10         3.8 0.12            119            234 235 
 CHI  HZ EP        315 39.70                             116   -0.52 8  246 196 
 CHI  HN ES        316  8.99                             116   -0.25 8  246 196 
 CHI  HZ I         316 12.75         2.4 0.52            118            246 196 
 GUY2CHZ EP        315 47.22                             112    0.83 7  301 235 
 GUY2CHE ES        316 20.28                             112    0.04 7  301 235 
 GUY2CHZ I         316 27.21         2.0 0.26                           301 235 
                                                                                
