 2011 12 5 0717 51.9 L   6.760 -73.100142.4  RSN  8 0.3 1.7LRSN                1
 GAP=144        0.61       3.0     4.6  6.0 -0.3679E+01  0.6707E+01  0.2550E+01E
 Epicentro: LOS SANTOS - SANTANDER                                             3
 ACTION:UPD 12-07-13 16:14 OP:ep   STATUS:               ID:20111205071751 L   I
 2011-12-05-0710-00M.COL___183                                                 6
 STAT SP IPHASW D HRMM SECON CODA AMPLIT PERI AZIMU VELO AIN AR TRES W  DIS CAZ7
 BAR2 SZ EP   1    718 11.06                             171   -0.03 7 20.7 206 
 BAR2 SZ I         718 32.54        12.8 0.16                          20.7 206 
 GIR2 SZ EP   2    718 11.19                             165   -0.16 5 36.7 344 
 PAM  SZ EP   1    718 13.93                             150    0.13 7 77.8  35 
 BRR  HZ EP   1    718 12.69                             150   -0.40 7 77.8 300 
 BRR  HZ I         718 33.98        16.6 0.15                          77.8 300 
 PAM  SE ES        718 30.72                             150   -0.1510 77.8  35 
 BRR  HE ES   1    718 30.14                             150    0.53 7 77.8 300 
 RUS  HZ EP   1    718 15.01                             144    0.00 7 96.0 179 
 RUS  HN ES   1    718 33.02                             144    0.00 7 96.0 179 
 RUS  HZ I         718 34.62         3.4 0.29                          96.0 179 
 OCA  SZ EP   1    718 20.73                             128    0.28 7  165 352 
 OCA  SZ ES   1    718 42.49                             128   -0.21 7  165 352 
 OCA  SZ I         718 49.26         5.9 0.22                           165 352 
 CTAU SZ EP   1    718 25.06                             122    0.52 6  201 211 
 CTAU SZ I         718 57.82         4.7 0.50                           201 211 
 NOR  SN ES   1    718 54.99                             117   -0.50 6  236 236 
                                                                                
