 2011 11 5 0331 43.5 L   6.772 -73.116137.5  RSN  4 0.1 1.5LRSN                1
 GAP=142        0.32       2.1     3.0  3.2 -0.2097E+00 -0.5198E+00 -0.3309E+00E
 Epicentro: LOS SANTOS - SANTANDER                                             3
 ACTION:UPD 12-07-13 16:08 OP:ep   STATUS:               ID:20111105033143 L   I
 2011-11-05-0330-04S.COL___175                                                 6
 STAT SP IPHASW D HRMM SECON CODA AMPLIT PERI AZIMU VELO AIN AR TRES W  DIS CAZ7
 BAR2 SZ EP        332  1.99                             171   -0.1210 21.2 200 
 BAR2 SZ ES   1    332 16.72                             171    0.11 7 21.2 200 
 BAR2 SZ I         332 17.99         9.4 0.27                          21.2 200 
 BRR  HZ EP        332  4.02                             149   -0.0210 75.6 299 
 BRR  HE ES   1    332 20.07                             149    0.02 7 75.6 299 
 BRR  HZ I         332 21.94         9.4 0.12                          75.6 299 
 PAM  SZ EP        332  4.92                             149    0.0410 77.8  36 
 PAM  SN ES   1    332 21.52                             149   -0.03 7 77.8  36 
 RUS  HZ EP   1    332  6.39                             143    0.17 7 97.3 178 
 RUS  HN ES   1    332 23.82                             143   -0.10 7 97.3 178 
 RUS  HZ I         332 25.60         3.3 0.32                          97.3 178 
                                                                                
