 2011  1 5 0937  1.8 L   6.853 -73.138144.9  RSN  9 0.4 2.1LRSN                1
 GAP=162        0.73       3.3     5.4  6.4 -0.1111E+01  0.1269E+02  0.2476E+01E
 Epicentro: LOS SANTOS - SANTANDER                                             3
 ACTION:UP  11-02-08 08:38 OP:pat  STATUS:               ID:20110105093701 L   I
 2011-01-05-0920-00M.COL___136                                                 6
 STAT SP IPHASW D HRMM SECON CODA AMPLIT PERI AZIMU VELO SNR AR TRES W  DIS CAZ7
 BAR2 SZ IP        937 21.94                             168     0.510   29 190 
 BAR2 SZ ES   1    937 36.73                             168     0.0 7   29 190 
 BAR2 SZ I         937 38.61        50.6 0.24                            29 190 
 RUS  HZ IP     D  937 25.87                             142     0.010  106 177 
 RUS  HZ I         937 26.71         9.8 0.20                           106 177 
 RUS  HE ES   1    937 44.64                             142     0.0 7  106 177 
 OCA  SZ EP   1    937 28.71                             131    -0.8 7  155 353 
 OCA  SZ ES   1    937 51.07                             131     0.0 7  155 353 
 OCA  SZ I         937 53.85        16.0 0.18                           155 353 
 YOP  SZ EP   1    937 32.53                             125     0.3 7  184 154 
 YOP  SZ I         937 33.78        11.1 0.36                           184 154 
 YOP  SE ES   2    937 55.30                             125    -0.7 4  184 154 
 NOR  SZ EP   1    937 37.98                             118     0.1 6  239 234 
 NOR  SE ES   2    938  5.44                             118    -0.6 4  239 234 
 CHI  HZ EP   1    937 39.98                             116    -0.1 6  255 195 
 CHI  HE ES   2    938  9.34                             116    -0.6 4  255 195 
 CHI  HZ I         938 13.10         7.8 0.70                           255 195 
 HEL  HZ EP   2    937 42.33                             114     0.1 4  274 255 
 HEL  HE ES   2    938 14.19                             114     0.5 4  274 255 
 HEL  HZ I         938 20.94         8.7 0.26                           274 255 
 RREF HZ EP   1    937 48.62                             110     0.2 5  326 229 
 RREF HN ES   1    938 24.40                             110    -0.3 5  326 229 
 RREF HZ I         938 30.67         9.1 0.22                           326 229 
 PRA  HZ EP   1    937 55.55                             106    -0.3 4  398 209 
 PRA  HE ES   1    938 38.22                             106     0.1 4  398 209 
                                                                                
