 2015  5 5 0518 17.9 L   6.826 -73.096150.3  RSN 18 0.5 2.2LRSN                1
 GAP=142        1.03       2.5     3.9  4.9 -0.2133E+01  0.7719E+01  0.3135E+00E
 Epicentro: LOS SANTOS - SANTANDER                                             3
 ACTION:UPD 15-09-10 22:01 OP:cam  STATUS:               ID:20150505051817 L   I
 OLDACT:UP  15-05-08 07:35 OP:AK   STATUS:               ID:20150505051817 L   3
 OLDACT:REG 15-05-05 13:19 OP:drio STATUS:               ID:20150505050749     3
 2015-05-05-0507-49M.COL___271                                                 6
 STAT SP IPHASW D HRMM SECON CODA AMPLIT PERI AZIMU VELO AIN AR TRES W  DIS CAZ7
 BAR2 EZ EP        518 37.94                             169   -0.2010 27.5 200 
 BAR2 EZ ES        518 53.84                             169   -0.1110 27.5 200 
 BAR2 EZ I         518 54.40        25.5 0.36            169           27.5 200 
 PAM  SZ EP        518 41.00                             153    0.7510 71.7  38 
 PAM  SN ES        518 57.82                             153    0.1110 71.7  38 
 PAM  SZ I         518 59.95        18.2 0.48            152           71.7  38 
 BRR  HZ EP        518 39.88                             152    0.1710 74.8 295 
 BRR  HE ES        518 57.43                             152    0.6810 74.8 295 
 BRR  HZ I         518 59.26        20.7 0.16            147           74.8 295 
 RUS  HZ EP        518 41.91                             144   -0.3510  103 179 
 RUS  HZ I         518 42.56        10.3 0.42            144            103 179 
 RUS  HN ES        519  0.83                             144   -0.4510  103 179 
 OCA  HZ EP        518 46.84                             131    0.50 9  158 351 
 OCA  HN ES        519  8.29                             131   -0.26 9  158 351 
 OCA  HZ I         519 12.73        35.0 0.22            128            158 351 
 SPBC HZ EP        518 47.19                             129   -0.06 9  169 220 
 SPBC HN ES        519  9.95                             129   -0.22 9  169 220 
 SPBC HZ I         519 15.89        49.0 0.34            127            169 220 
 ZAR  HZ EP        518 50.77                             123   -0.25 8  208 291 
 ZAR  HN ES        519 16.68                             123   -0.20 8  208 291 
 ZAR  HZ I         519 22.28        26.7 0.54            120            208 291 
 NOR  HZ EP        518 54.29                             119   -0.22 8  241 235 
 NOR  HN ES        519 22.28                             119   -0.82 8  241 235 
 NOR  HZ I         519 25.51        19.9 0.18            117            241 235 
 SML  HZ EP        518 54.73                             118    0.01 8  243 334 
 SML  HN ES        519 22.93                             118   -0.54 8  243 334 
 SML  HZ I         519 27.40        19.7 0.10            116            243 334 
 CHI  HZ EP        518 55.99                             118   -0.29 8  253 196 
 CHI  HZ I         518 58.29         7.1 0.32            117            253 196 
 CHI  HN ES        519 26.38                             118    0.14 8  253 196 
 HEL  HZ E      C  515 19.10                                            278 256 
 HEL  HZ EP        518 59.82                             115    0.85 7  278 256 
 HEL  HN ES        519 31.12                             115    0.08 7  278 256 
 HEL  HZ I         519 36.49         8.6 0.34            113            278 256 
 URE  HZ EP        518 58.62                             114   -0.99 7  288 291 
 URE  HZ I         519 38.64        10.8 0.32            112            288 291 
 GUY2CHZ EP        519  2.87                             113    0.50 7  307 235 
 GUY2CHN ES        519 37.34                             113    0.25 7  307 235 
 GUY2CHZ I         519 44.96        11.4 0.30                           307 235 
 RREF HZ EP        519  4.85                             111   -0.04 7  328 230 
 RREF HN ES        519 41.64                             111    0.07 7  328 230 
 RREF HZ I         519 46.35         4.4 0.26            110            328 230 
 CBOC HZ EP        519  5.92                             110    0.25 7  340 252 
 CBOC HZ I         519  6.31         4.7 0.20            109            340 252 
 CBOC HN ES        519 43.56                             110    0.61 7  340 252 
 MON  HZ EP        519  6.38                             109   -0.96 6  356 307 
 MON  HN ES   4    519 42.06                             109   -3.87 0  356 307 
 MON  HZ I         519 46.06         4.0 0.28            107            356 307 
 ANIL HZ EP        519  9.08                             109    0.55 6  363 225 
 ANIL HN ES        519 48.75                             109    0.71 6  363 225 
 SJC  HZ EP   4    519 12.32                             106   -1.33 0  410 326 
 SJC  HN ES   4    519 53.63                             106   -3.53 0  410 326 
 SJC  HZ I         519 58.40         3.2 0.48            105            410 326 
                                                                                
