 2013  8 5 0815 25.9 L   6.080 -73.900 20.5  RSN  8 0.5 1.1LRSN                1
 GAP= 99        0.92       3.4     2.8  5.1 -0.6370E+00  0.5601E+01 -0.5374E+01E
 Epicentro: EL PEON - SANTANDER                                                3
 ACTION:UPD 14-01-14 08:59 OP:ep   STATUS:               ID:20130805081525 L   I
 OLDACT:REG 13-08-05 08:03 OP:jn   STATUS:               ID:20130805080960d    3
 2013-08-05-0809-59M.COL___269                                                 6
 STAT SP IPHASW D HRMM SECON CODA AMPLIT PERI AZIMU VELO AIN AR TRES W  DIS CAZ7
 SPBC HZ EP   1    815 34.81                             110    0.09 7 51.0 202 
 SPBC HZ I         815 50.56         5.4 0.24            129           51.0 202 
 PTB  HZ EP   4    815 37.09                             102   -1.76 0 79.8 310 
 PTB  HN ES   1    815 48.96                             102   -0.01 7 79.8 310 
 PTB  HZ I         815 49.51        14.8 0.10            122           79.8 310 
 RUS  HZ EP   1    815 41.35                             101    0.08 7 92.8 103 
 RUS  HN ES   1    815 52.79                             101   -0.50 7 92.8 103 
 BRR  HZ EP   1    815 43.93                              56   -0.22 7  115  10 
 BRR  HN ES   1    815 59.21                              56    0.81 7  115  10 
 BRR  HZ I         816  1.38         3.3 0.16            110            115  10 
 NOR  HZ EP   1    815 44.99                              56    0.02 7  122 242 
 NOR  HE ES   1    816  0.01                              56    0.14 7  122 242 
 NOR  HZ I         816  0.93         2.6 0.22            107            122 242 
 GIR2 SZ EP   1    815 47.18                              56    0.38 7  135  35 
 HEL  HZ EP   1    815 53.14                              56    0.39 7  181 274 
 HEL  HN ES   1    816 13.66                              56   -0.05 7  181 274 
 HEL  HZ I         816 15.32         4.9 0.22            100            181 274 
 ZAR  HN ES   1    816 13.43                              56   -1.28 7  189 326 
                                                                                
