 2017  1 5 0005 59.5 L   6.753 -73.155143.2  RSN  6 0.2 1.3LRSN                1
 GAP=137        0.64       3.2     2.9  5.2  0.8131E+00  0.2154E+01 -0.9183E+00E
 Epicentro: LOS SANTOS - SANTANDER                                             3
 ACTION:UPD 17-05-22 15:55 OP:jn   STATUS:               ID:20170105000559 L   I
 OLDACT:DUP 17-01-05 13:15 OP:lv   STATUS:               ID:20170105000007d    3
 2017-01-05-0000-15M.COL___368                                                 6
 STAT SP IPHASW D HRMM SECON CODA AMPLIT PERI AZIMU VELO AIN AR TRES W  DIS CAZ7
 BAR2 EZ ES        0 6 33.45                             172   -0.2610 18.1 190 
 BAR2 EZ I         0 6 34.76         4.9 0.14            172           18.1 190 
 BRR  HZ EP        0 6 20.66                             151    0.2010 73.0 302 
 BRR  HE ES        0 6 37.29                             151    0.4610 73.0 302 
 PAM  EZ EP        0 6 21.62                             149   -0.1010 82.0  38 
 PAM  EE ES        0 6 38.93                             149   -0.1310 82.0  38 
 PAM  EZ I         0 6 40.64         3.0 0.58            150           82.0  38 
 RUS  HZ EP        0 6 22.67                             145    0.0510 95.5 175 
 RUS  HN ES        0 6 40.82                             145    0.1510 95.5 175 
 RUS  HZ I         0 6 43.29         4.2 0.32            145           95.5 175 
 PTB  HN ES        0 6 46.51                             132   -0.31 9  146 261 
 PTB  HZ I         0 6 47.95         1.8 0.09            131            146 261 
 ZAR  HE ES        0 6 57.01                             122   -0.14 9  205 294 
 ZAR  HZ I         0 7  2.58         2.8 0.12            121            205 294 
                                                                                
