 2012  8 5 0120  6.6 L   7.024 -73.218129.9  RSN  7 0.2 1.7LRSN                1
 GAP=115        0.53       2.5     2.8  4.8 -0.9349E-01  0.2296E+01 -0.5896E+00E
 Epicentro: GIRON - SANTANDER                                                  3
 ACTION:UPD 12-09-10 11:54 OP:ep   STATUS:               ID:20120805012006 L   I
 2012-08-05-0120-00M.COL___216                                                 6
 STAT SP IPHASW D HRMM SECON CODA AMPLIT PERI AZIMU VELO AIN AR TRES W  DIS CAZ7
 BAR2 SZ EP   1    120 25.24                             159    0.11 7 47.9 175 
 BAR2 SZ ES   1    120 39.41                             159   -0.20 7 47.9 175 
 BAR2 SZ I         120 41.15        15.6 0.26                          47.9 175 
 BRR  HZ EP   1    120 25.47                             155    0.34 7 55.3 280 
 BRR  HZ I         120 25.76        10.6 0.23                          55.3 280 
 BRR  HN ES   1    120 39.95                             155    0.34 7 55.3 280 
 PAM  SZ EP   1    120 26.89                             151    0.41 7 67.0  59 
 PAM  SN ES   1    120 42.07                             151    0.06 7 67.0  59 
 RUS  HZ EP   1    120 30.89                             133   -0.04 7  126 173 
 RUS  HN ES   1    120 49.62                             133   -0.30 7  126 173 
 OCA  HZ EP   1    120 31.10                             131   -0.16 7  135 355 
 OCA  HE ES   1    120 50.06                             131   -0.46 7  135 355 
 PTB  HZ EP   1    120 32.11                             128   -0.12 7  147 249 
 PTB  HN ES   1    120 52.23                             128    0.00 7  147 249 
 PTB  HZ I         120 54.29         5.9 0.28                           147 249 
 ZAR  HN ES   1    120 59.54                             121   -0.08 7  188 286 
                                                                                
