 2012 11 5 0353 14.6 L   6.778 -73.075137.0  RSN  4 0.1 1.5LRSN                1
 GAP=202        0.35       2.8     5.4  2.9  0.1035E+02 -0.1684E+00  0.9219E+00E
 Epicentro: LOS SANTOS - SANTANDER                                             3
 ACTION:UPD 12-12-05 15:31 OP:}ep  STATUS:               ID:20121105035314 L   I
 2012-11-05-0350-00M.COL___230                                                 6
 STAT SP IPHASW D HRMM SECON CODA AMPLIT PERI AZIMU VELO AIN AR TRES W  DIS CAZ7
 BAR2 SZ EP   1    353 33.35                             170    0.16 7 23.7 210 
 BAR2 SZ ES        353 47.72                             170    0.0410 23.7 210 
 BAR2 SZ I         353 50.45         9.3 0.28                          23.7 210 
 GIR2 SZ EP   2    353 33.19                             165   -0.18 5 35.7 339 
 GIR2 SZ ES        353 47.99                             165   -0.0110 35.7 339 
 BRR  HZ EP        353 35.19                             148   -0.1210 79.2 297 
 BRR  HN ES        353 51.50                             148    0.0510 79.2 297 
 BRR  HN I         353 52.33        11.6 0.22                          79.2 297 
 RUS  HZ EP        353 37.42                             143    0.1110 98.0 181 
 RUS  HN ES        353 54.90                             143   -0.1110 98.0 181 
 RUS  HZ I         353 56.19         1.9 0.44                          98.0 181 
                                                                                
