 2017  2 5 0227 26.4 L   6.782 -73.147150.0  RSN 16 0.4 2.2LRSN                1
 GAP=137        0.82       3.1     3.4  4.8  0.4653E+00  0.5974E+01  0.3665E+01E
 Epicentro: LOS SANTOS - SANTANDER                                             3
 ACTION:UPD 17-05-24 15:32 OP:jn   STATUS:               ID:20170205022726 L   I
 OLDACT:UP  17-02-05 15:08 OP:dnl  STATUS:               ID:20170205021742d    3
 OLDACT:UP  17-02-05 15:07 OP:dnl  STATUS:               ID:20170205021742d    3
 OLDACT:DUP 17-02-05 14:53 OP:dnl  STATUS:               ID:20170205021742d    3
 2017-02-05-0218-00M.COL___328                                                 6
 STAT SP IPHASW D HRMM SECON CODA AMPLIT PERI AZIMU VELO AIN AR TRES W  DIS CAZ7
 BAR2 EZ IP     D  227 46.26                             172   -0.2210 21.3 191 
 BAR2 EZ ES        228  2.31                             172    0.1510 21.3 191 
 BAR2 EZ I         228  3.33        30.5 0.26            166           21.3 191 
 BRR  HZ IP     D  227 48.23                             153    0.1910 72.0 300 
 BRR  HN ES        228  5.71                             153    0.7810 72.0 300 
 BRR  HZ I         228  8.88        31.5 0.14            150           72.0 300 
 PAM  EZ EP   2    227 49.35                             151    0.21 5 79.0  39 
 PAM  EN ES        228  6.58                             151   -0.3210 79.0  39 
 PAM  EZ I         228  8.58        32.0 0.60            158           79.0  39 
 RUS  HZ EP        227 50.40                             145   -0.0110 98.6 176 
 RUS  HE ES        228  9.08                             145   -0.0810 98.6 176 
 RUS  HZ I         228 10.04        13.1 0.30            144           98.6 176 
 PTB  HZ EP        227 52.83                             133   -0.82 9  147 260 
 PTB  HE ES        228 14.66                             133   -0.26 9  147 260 
 PTB  HZ I         228 20.02        26.8 0.40            130            147 260 
 ZAR  HZ EP        227 59.54                             123    0.37 9  205 293 
 ZAR  HN ES        228 24.52                             123   -0.22 9  205 293 
 ZAR  HZ I         228 29.96        30.9 0.36            122            205 293 
 NOR  HZ EP   2    228  2.14                             120   -0.08 4  233 235 
 NOR  HE ES   4    228 31.93                             120    1.75 0  233 235 
 NOR  HZ I         228 35.87         9.7 0.16            118            233 235 
 CHI  HZ EP        228  4.28                             118    0.17 8  247 195 
 CHI  HN ES        228 33.63                             118    0.10 8  247 195 
 CHI  HZ I         228 43.29         8.7 0.38            118            247 195 
 ROSC BZ EP   9    228  7.10                             118    2.56 0  251 211 
 ROSC BN ES        228 36.81                             118   -0.05 8  251 211 
 ROSC BZ I         228 41.31        18.1 0.35            117            251 211 
 URE  HZ EP   4    228  6.36                             114   -1.37 0  284 292 
 URE  HE ES   4    228 38.09                             114   -1.89 0  284 292 
 URE  HZ I         228 47.29        12.4 0.38            114            284 292 
 PTGC HZ EP   4    228  9.04                             113   -1.19 0  307 158 
 PTGC HN ES   4    228 42.40                             113   -2.02 0  307 158 
 PTGC HZ I         228 44.65         8.6 0.56            113            307 158 
 ELA  HZ EP   2    228 13.87                             111    0.62 3  328 230 
 ELA  HN ES   4    228 53.62                             111    3.81 0  328 230 
 ELA  HZ I         229  0.33         7.2 0.40            111            328 230 
 CBOC HZ EP   4    228 14.71                             111    1.32 0  333 252 
 CBOC HE ES        228 49.56                             111   -0.49 7  333 252 
 CBOC HZ I         228 55.10         2.5 0.78            110            333 252 
 ORTC HZ EP   2    228 20.84                             107    0.59 3  394 216 
 ORTC HE ES        229  2.62                             107    0.35 6  394 216 
 ORTC HZ I         229  7.11         5.3 0.32            107            394 216 
 PAL  HZ EP   2    228 21.81                             107    0.26 3  405 239 
 PAL  HN ES        229  4.87                             107    0.29 6  405 239 
 PAL  HZ I         229 14.82         2.3 0.36            107            405 239 
 SJC  HZ EP   4    228 20.60                             106   -1.67 0  411 327 
 SJC  HN ES   4    229  0.97                             106   -4.90 0  411 327 
 SJC  HZ I         229  6.15         3.8 0.44            107            411 327 
                                                                                
