 2017  4 5 0356 40.0 L   6.364 -73.630108.7  RSN  6 0.2 1.0LRSN                1
 GAP= 81        0.57       2.4     2.9  4.7  0.1570E+01  0.4907E+01 -0.9101E+00E
 Epicentro: SANTA HELENA DEL OPON - SANTANDER                                  3
 ACTION:UPD 17-05-30 21:08 OP:jn   STATUS:               ID:20170405035640 L   I
 OLDACT:UP  17-04-05 14:44 OP:and  STATUS:               ID:20170405034745d    3
 OLDACT:UP  17-04-05 14:43 OP:and  STATUS:               ID:20170405034745d    3
 OLDACT:UP  17-04-05 14:43 OP:and  STATUS:               ID:20170405034745d    3
 OLDACT:DUP 17-04-05 14:39 OP:and  STATUS:               ID:20170405034745d    3
 OLDACT:UP  17-04-05 14:39 OP:and  STATUS:               ID:20170405034744d    3
 OLDACT:UP  17-04-05 14:39 OP:and  STATUS:               ID:20170405034744d    3
 OLDACT:DUP 17-04-05 14:36 OP:and  STATUS:               ID:20170405034744d    3
 2017-04-05-0348-00M.COL___365                                                 6
 STAT SP IPHASW D HRMM SECON CODA AMPLIT PERI AZIMU VELO AIN AR TRES W  DIS CAZ7
 BAR2 EZ ES        357  9.57                             152   -0.0210 55.6  63 
 BAR2 EZ I         357 10.49         5.2 0.14            149           55.6  63 
 RUS  HZ EP   2    356 58.52                             142   -0.13 5 79.9 131 
 RUS  HN ES        357 13.36                             142    0.1810 79.9 131 
 RUS  HZ I         357 22.17         0.7 0.32            138           79.9 131 
 BRR  HN ES        357 12.14                             140   -0.2010 82.7 354 
 SPBC HZ EP   2    356 58.66                             137   -0.46 5 92.7 212 
 SPBC HN ES        357 13.97                             137   -0.0410 92.7 212 
 SPBC HZ I         357 15.77         3.1 0.32            134           92.7 212 
 PTB  HZ EP   9    356 57.64                             136   -1.44 0 93.4 282 
 PTB  HN ES        357 12.94                             136    0.4410 93.4 282 
 PTB  HZ I         357 14.36         2.0 0.10            136           93.4 282 
 ZAR  HZ EP        357  8.26                             116    0.09 9  184 313 
 ZAR  HN ES        357 30.31                             116    0.19 9  184 313 
 ZAR  HZ I         357 35.75         2.1 0.22            115            184 313 
                                                                                
