 2014  7 5 0400 59.5 L   6.420 -73.635102.0  RSN  4 0.3 1.3LRSN                1
 GAP=209        0.67       4.9     3.4  7.2 -0.1212E+01  0.7169E+01 -0.1477E+00E
 Epicentro: SANTA HELENA DEL OPON - SANTANDER                                  3
 ACTION:UPD 15-03-16 20:41 OP:nd   STATUS:               ID:20140705040059 L   I
 OLDACT:UP  14-07-05 15:58 OP:cam  STATUS:               ID:20140705040000     3
 OLDACT:REG 14-07-05 14:18 OP:cam  STATUS:               ID:20140705040000     3
 2014-07-05-0400-00M.COL___279                                                 6
 STAT SP IPHASW D HRMM SECON CODA AMPLIT PERI AZIMU VELO AIN AR TRES W  DIS CAZ7
 BAR2 SZ EP        4 1 15.23                             150   -0.0210 53.6  69 
 BAR2 SZ ES        4 1 27.40                             150   -0.1610 53.6  69 
 BAR2 SZ I         4 1 29.29         9.5 0.40            150           53.6  69 
 BRR  HE ES        4 1 30.07                             140    0.2710 76.5 354 
 BRR  HE I         4 1 39.56         6.8 0.22            136           76.5 354 
 PTB  HZ EP        4 1 18.14                             134    0.3410 91.8 278 
 PTB  HE ES        4 1 31.81                             134   -0.2910 91.8 278 
 PTB  HZ I         4 1 34.24         3.2 0.18            136           91.8 278 
 SML  HN ES   1    4 2  5.66                             104   -0.42 6  268 350 
                                                                                
