 2017 11 5 0608 29.7 L   6.637 -73.617104.0  RSN  4 0.1 0.9LRSN                1
 GAP=119        0.45       2.7     2.1  4.2  0.2406E+01  0.2222E+01  0.3831E+01E
 Epicentro: EL CARMEN - SANTANDER                                              3
 ACTION:UPD 17-12-12 19:52 OP:rebc STATUS:               ID:20171105060829 L   I
 OLDACT:DUP 17-11-05 18:15 OP:dnl  STATUS:               ID:20171105055741d    3
 OLDACT:REG 17-11-05 15:54 OP:dnl  STATUS:               ID:20171105055740     3
 2017-11-05-0558-00M.COL___426                                                 6
 STAT SP IPHASW D HRMM SECON CODA AMPLIT PERI AZIMU VELO AIN AR TRES W  DIS CAZ7
 BAR2 EZ EP        6 8 45.37                             153   -0.0510 48.4  96 
 BAR2 EZ ES        6 8 57.50                             153   -0.1610 48.4  96 
 BAR2 EZ I         6 8 59.20         5.0 0.38            155           48.4  96 
 BRR  HZ EP        6 8 45.17                             151   -0.1710 53.0 349 
 BRR  HE ES        6 8 57.74                             151    0.2310 53.0 349 
 BRR  HZ I         6 8 58.71         1.7 0.12            155           53.0 349 
 PTB  HZ EP        6 8 48.30                             135   -0.0710 93.4 263 
 PTB  HE ES        6 9  2.90                             135   -0.0210 93.4 263 
 PTB  HZ I         6 9  4.20         2.1 0.16            137           93.4 263 
 RUS  HZ EP        6 8 49.96                             132    0.2410  101 144 
 RUS  HN ES        6 9  5.32                             132   -0.0010  101 144 
 RUS  HZ I         6 9  7.74         1.0 0.36            135            101 144 
                                                                                
