 2014  3 5 0439  0.4 L   6.774 -73.170156.7  RSN  4 0.3 1.6LRSN                1
 GAP=241        0.84       6.9     6.0  9.2  0.2214E+02 -0.3681E+01 -0.2357E+02E
 Epicentro: LOS SANTOS - SANTANDER                                             3
 ACTION:UPD 14-04-09 23:14 OP:nd   STATUS:               ID:20140305043900 L   I
 OLDACT:REG 14-03-05 09:04 OP:nd   STATUS:               ID:20140305043049     3
 2014-03-05-0430-49M.COL___229                                                 6
 STAT SP IPHASW D HRMM SECON CODA AMPLIT PERI AZIMU VELO AIN AR TRES W  DIS CAZ7
 RUS  HZ EP        439 25.16                             147    0.1310 98.0 174 
 RUS  HN ES        439 44.35                             147    0.0910 98.0 174 
 RUS  HZ I         439 46.30         2.9 0.48            150           98.0 174 
 PTB  HZ EP        439 27.54                             135   -0.43 9  145 260 
 PTB  HN ES        439 48.94                             135   -0.56 9  145 260 
 PTB  HZ I         439 56.57         5.9 0.40            136            145 260 
 ZAR  HZ EP        439 33.53                             125    0.12 9  203 293 
 ZAR  HN ES        439 59.63                             125    0.45 9  203 293 
 ZAR  HZ I         440  5.00         4.4 0.62            127            203 293 
 NOR  HZ EP        439 36.24                             121   -0.11 8  231 235 
 NOR  HN ES        440  4.89                             121    0.47 8  231 235 
 NOR  HZ I         440  9.26         3.2 0.20            124            231 235 
                                                                                
