 2011  1 5 0324 25.0 L   6.791 -73.155137.7  RSN 10 0.4 2.0LRSN                1
 GAP=158        0.74       3.1     7.4  6.8 -0.1198E+02  0.2290E+02 -0.3195E+01E
 Epicentro: LOS SANTOS - SANTANDER                                             3
 ACTION:UP  11-02-08 08:38 OP:pat  STATUS:               ID:20110105032425 L   I
 2011-01-05-0320-22S.COL___135                                                 6
 STAT SP IPHASW D HRMM SECON CODA AMPLIT PERI AZIMU VELO SNR AR TRES W  DIS CAZ7
 BTL  SZ EP        324 44.04                             172     0.510   19 319 
 BAR2 SZ IP        324 43.76                             170     0.110   22 188 
 BAR2 SZ I         324 44.12        27.3 0.09                            22 188 
 BAR2 SZ ES   1    324 58.28                             170     0.1 7   22 188 
 RUS  HZ EP   1    324 47.70                             142    -0.2 7  100 175 
 RUS  HN ES   1    325  5.45                             142    -0.3 7  100 175 
 RUS  HZ I         325  7.41        13.8 0.36                           100 175 
 GRA  SZ IP        324 49.81                             135     0.210  127  18 
 GRA  SZ ES   1    325  8.68                             135    -0.2 7  127  18 
 GRA  SZ I         325 10.59        21.8 0.35                           127  18 
 OCA  SZ EP   1    324 52.67                             127    -0.1 7  161 354 
 OCA  SZ ES   1    325 13.78                             127    -0.7 7  161 354 
 OCA  SZ I         325 16.07        19.5 0.40                           161 354 
 NOR  SZ EP   2    324 59.94                             117    -0.2 4  233 235 
 NOR  SN ES   2    325 27.14                             117    -0.4 4  233 235 
 CHI  HZ EP   1    325  2.07                             115     0.0 6  247 195 
 CHI  HZ I         325  4.10         2.0 0.36                           247 195 
 CHI  HE ES   1    325 30.49                             115    -0.6 6  247 195 
 HEL  HZ EP   2    325  4.76                             113     0.1 4  271 256 
 HEL  HZ I         325 42.52         6.6 0.35                           271 256 
 RREF HZ EP   1    325 10.38                             109    -0.2 5  320 229 
 RREF HE ES   1    325 46.69                             109     0.5 5  320 229 
 RREF HZ I         325 52.19         3.2 0.16                           320 229 
 PRA  HZ EP   2    325 17.38                             105    -0.7 3  391 210 
 PRA  HE ES   2    326  0.31                             105     0.8 3  391 210 
 PRA  HZ I         326  6.91        10.4 0.33                           391 210 
                                                                                
