 2017  1 5 0000 18.2 L   6.999 -72.959175.6  RSN  5 0.4 1.5LRSN                1
 GAP=149        1.07       6.8     5.7  9.0  0.2582E+01  0.7705E+01  0.8741E+01E
 Epicentro: SANTA BARBARA - SANTANDER                                          3
 ACTION:UPD 17-05-22 15:55 OP:jn   STATUS:               ID:20170105000018 L   I
 OLDACT:REG 17-01-05 17:05 OP:lv   STATUS:               ID:20170104235745     3
 2017-01-04-2358-00M.COL___368                                                 6
 STAT SP IPHASW D HRMM SECON CODA AMPLIT PERI AZIMU VELO AIN AR TRES W  DIS CAZ7
 PAM  EZ EP        0 0 42.59                             164    0.2410 47.3  37 
 PAM  EN ES        0 1  0.66                             164   -0.5610 47.3  37 
 PAM  EZ I         0 1  3.38         9.2 0.46            167           47.3  37 
 BRR  HZ EP        0 0 43.33                             153    0.0710 84.0 278 
 BRR  HN ES        0 1  3.47                             153    0.6310 84.0 278 
 RUS  HZ EP        0 0 46.65                             144    0.1810  123 186 
 RUS  HE ES        0 1  8.74                             144    0.1910  123 186 
 RUS  HZ I         0 1 13.84         1.2 0.27            143            123 186 
 PTB  HZ EP        0 0 49.42                             133   -0.45 9  173 253 
 PTB  HN ES        0 1 13.91                             133   -0.69 9  173 253 
 PTB  HZ I         0 1 14.74         4.0 0.35            136            173 253 
 ZAR  HZ EP   4    0 0 57.36                             127    3.42 0  217 285 
 ZAR  HE ES        0 1 22.12                             127    0.28 8  217 285 
 SJC  HZ EP   4    0 1 12.60                             110   -1.54 0  403 323 
 SJC  HN ES   4    0 1 54.90                             110   -2.90 0  403 323 
                                                                                
