 2013  2 5 0738 40.4 L   6.767 -73.146149.1  RSN  7 0.5 1.5LRSN                1
 GAP=138        1.09       4.7     5.4  7.7 -0.1502E+01  0.5726E+01  0.6441E+01E
 Epicentro: LOS SANTOS - SANTANDER                                             3
 ACTION:UPD 13-03-12 09:30 OP:ep   STATUS:               ID:20130205073840 L   I
 2013-02-05-0737-39M.COL___169                                                 6
 STAT SP IPHASW D HRMM SECON CODA AMPLIT PERI AZIMU VELO AIN AR TRES W  DIS CAZ7
 BAR2 SZ EP        739  0.18                             172   -0.1410 19.7 192 
 BAR2 SZ ES        739 15.69                             172   -0.2110 19.7 192 
 BAR2 SZ I         739 16.91        12.6 0.20            171           19.7 192 
 BRR  HZ IP     C  739  2.17                             153    0.2010 73.0 301 
 BRR  HN ES        739 19.50                             153    0.6710 73.0 301 
 BRR  HZ I         739 21.82         7.3 0.12            150           73.0 301 
 PAM  SZ EP        739  3.30                             151    0.2010 80.2  38 
 PAM  SN ES        739 20.72                             151   -0.1110 80.2  38 
 PAM  SZ I         739 25.05         4.3 0.40            153           80.2  38 
 RUS  HZ EP        739  3.97                             146   -0.2110 96.9 176 
 RUS  HN ES        739 22.66                             146   -0.1110 96.9 176 
 RUS  HZ I         739 24.07         3.3 0.20            147           96.9 176 
 PTB  HZ EP        739  6.86                             133   -0.68 9  147 260 
 PTB  HN ES        739 28.17                             133   -0.57 9  147 260 
 PTB  HZ I         739 33.77         4.3 0.12            132            147 260 
 ZAR  HN ES   2    739 39.58                             123    0.82 4  205 293 
 ZAR  HN I         739 46.17         5.6 0.12            122            205 293 
 CHI  HZ EP   2    739 18.07                             118    0.21 4  245 195 
 CHI  HN ES        739 48.10                             118    0.98 8  245 195 
 CHI  HZ I         739 53.10         0.5 0.30            119            245 195 
                                                                                
