 2015  3 5 0213 17.1 L   6.790 -73.129154.0  RSN  7 0.3 1.4LRSN                1
 GAP=139        0.77       4.0     4.5  6.6 -0.4746E+01  0.1728E+01  0.1073E+02E
 Epicentro: LOS SANTOS - SANTANDER                                             3
 ACTION:UPD 15-04-30 16:23 OP:nd   STATUS:               ID:20150305021317 L   I
 OLDACT:DUP 15-03-05 15:07 OP:spq  STATUS:               ID:20150305020752d    3
 2015-03-05-0207-49M.COL___281                                                 6
 STAT SP IPHASW D HRMM SECON CODA AMPLIT PERI AZIMU VELO AIN AR TRES W  DIS CAZ7
 BRR  HZ EP        213 39.55                             153    0.2410 73.4 299 
 BRR  HE ES        213 56.94                             153    0.3410 73.4 299 
 BRR  HZ I         214  1.27         4.2 0.30            153           73.4 299 
 PAM  SZ EP   1    213 40.40                             152    0.18 7 77.0  38 
 PAM  SE ES        213 58.12                             152   -0.1010 77.0  38 
 PAM  SZ I         213 59.75         3.1 0.46            160           77.0  38 
 RUS  HZ EP        213 41.36                             146   -0.2710 99.4 177 
 RUS  HE ES   1    214  0.44                             146   -0.29 7 99.4 177 
 RUS  HZ I         214  2.35         1.3 0.24            147           99.4 177 
 PTB  HZ EP        213 44.36                             134   -0.58 9  149 259 
 PTB  HE ES   1    214  6.10                             134   -0.52 7  149 259 
 PTB  HZ I         214 12.94         4.1 0.46            134            149 259 
 SPBC HZ EP        213 46.49                             131    0.17 9  164 220 
 SPBC HE ES   1    214  9.57                             131    0.49 7  164 220 
 SPBC HZ I         214 15.61         5.9 0.36            132            164 220 
 NOR  HE ES   1    214 21.69                             120   -0.10 6  236 235 
 NOR  HZ I         214 25.74         3.2 0.22            122            236 235 
 CHI  HZ EP   1    213 55.77                             119    0.51 6  248 196 
 CHI  HN ES   1    214 25.29                             119    0.31 6  248 196 
 CHI  HZ I         214 30.65         0.9 0.52            122            248 196 
                                                                                
