 2013  9 5 0548 44.1 L   6.730 -73.189145.9  RSN  4 0.4 1.1LRSN                1
 GAP=227        0.91       6.3     8.0 10.0  0.1043E+02 -0.3877E+01  0.7539E+01E
 Epicentro: VILLANUEVA - SANTANDER                                             3
 ACTION:UPD 13-10-22 09:20 OP:ep   STATUS:               ID:20130905054844 L   I
 OLDACT:REG 13-09-05 08:58 OP:cam  STATUS:               ID:20130905054000     3
 2013-09-05-0540-00M.COL___268                                                 6
 STAT SP IPHASW D HRMM SECON CODA AMPLIT PERI AZIMU VELO AIN AR TRES W  DIS CAZ7
 BRR  HZ EP        549  4.90                             153   -0.3410 71.3 306 
 BRR  HN ES        549 22.15                             153    0.4110 71.3 306 
 BRR  HZ I         549 26.25         3.2 0.46            153           71.3 306 
 RUS  HZ EP   2    549  7.20                             146   -0.12 5 93.3 173 
 RUS  HN ES   1    549 25.16                             146   -0.29 7 93.3 173 
 RUS  HZ I         549 26.13         1.3 0.46            150           93.3 173 
 PTB  HZ EP   1    549 10.91                             133    0.41 7  142 262 
 PTB  HN ES        549 30.55                             133   -0.57 9  142 262 
 PTB  HZ I         549 33.50         1.6 0.40            136            142 262 
 SPBC HZ EP   1    549 12.03                             131    0.30 7  154 219 
 SPBC HN ES   1    549 33.90                             131    0.60 7  154 219 
 SPBC HZ I         549 35.08         1.9 0.18            134            154 219 
                                                                                
