 2012  6 5 0455 10.7 L   6.868 -73.072140.0  RSN  5 0.5 1.3LRSN                1
 GAP=251        0.91       9.5     9.5 19.2  0.5227E+02  0.6466E+02 -0.1128E+02E
 Epicentro: LOS SANTOS - SANTANDER                                             3
 ACTION:UPD 12-08-06 17:47 OP:ep   STATUS:               ID:20120605045522 L   I
 OLDACT:UPD 12-07-16 17:00 OP:ep   STATUS:               ID:20120605045522 L   3
 2012-06-05-0450-00M.COL___201                                                 6
 STAT SP IPHASW D HRMM SECON CODA AMPLIT PERI AZIMU VELO AIN AR TRES W  DIS CAZ7
 RUS  HZ EP   1    455 35.13                             140    0.6610  108 181 
 RUS  HN ES   1    455 52.87                             140   -0.1210  108 181 
 RUS  HZ I         455 54.67         2.7 0.31            143            108 181 
 PTB  HZ EP   1    455 37.46                             128   -0.67 9  157 257 
 PTB  HZ I         456  1.08         2.6 0.22            123            157 257 
 ZAR  HN ES   1    456  8.53                             120   -0.22 9  209 289 
 CHI  HN ES   1    456 18.63                             115   -0.51 8  258 196 
 HEL  HN ES        456 24.27                             112    0.5110  282 255 
                                                                                
