 2011 11 5 0318 41.4 L   6.813 -73.080150.0  RSN 16 0.4 3.4LRSN                1
 GAP=120        0.62       2.6     3.6  5.2  0.8348E+00  0.6486E+01  0.2671E+01E
 Epicentro: LOS SANTOS - SANTANDER                                             3
 ACTION:UPD 12-07-13 16:08 OP:ep   STATUS:               ID:20111105031841 L   I
 2011-11-05-0317-08S.COL___175                                                 6
 STAT SP IPHASW D HRMM SECON CODA AMPLIT PERI AZIMU VELO AIN AR TRES W  DIS CAZ7
 BTL  SZ EP        319  1.97                             171    0.3810 23.8 299 
 BAR2 SZ IP        319  1.62                             170   -0.0310 26.9 205 
 BAR2 SZ ES   2    319 17.25                             170   -0.17 5 26.9 205 
 BAR2 SZ I         319 18.44       595.3 0.25                          26.9 205 
 PAM  SZ EP   2    319  4.35                             153    0.55 5 71.8  36 
 PAM  SN ES   2    319 21.11                             153   -0.12 5 71.8  36 
 BRR  HZ IP     C  319  3.50                             151    0.1210 77.0 295 
 BRR  HE ES   2    319 20.82                             151    0.33 5 77.0 295 
 BRR  HZ I         319 24.87       543.0 0.33                          77.0 295 
 RUS  HZ IP     D  319  5.41                             144   -0.2810  102 180 
 RUS  HZ I         319  6.35       131.4 0.28                           102 180 
 RUS  HN ES   2    319 24.03                             144   -0.58 5  102 180 
 OCA  SZ EP   1    319 10.17                             131    0.12 7  160 351 
 OCA  SZ ES   2    319 31.87                             131   -0.49 5  160 351 
 OCA  SZ I         319 36.96       261.2 0.21                           160 351 
 YOP  SZ EP   1    319 11.95                             128    0.34 7  177 156 
 YOP  SN ES   1    319 35.27                             128    0.13 7  177 156 
 ZAR  HZ EP   1    319 14.28                             122   -0.52 6  210 291 
 ZAR  HN ES   2    319 39.94                             122   -0.88 4  210 291 
 ZAR  HZ I         319 50.45       246.0 0.43                           210 291 
 NOR  SZ EP   2    319 18.12                             119   -0.02 4  241 235 
 NOR  SN ES   2    319 47.19                             119    0.43 4  241 235 
 HEL  HZ EP   1    319 23.52                             115    0.83 6  279 256 
 HEL  HN ES   2    319 55.58                             115    0.73 4  279 256 
 HEL  HZ I         320  1.20        83.2 0.37                           279 256 
 VIL  SZ EP   1    319 25.11                             113   -0.27 5  306 193 
 VIL  SE ES   2    319 59.08                             113   -0.57 4  306 193 
 VIL  SZ I         320  4.69        86.7 0.37                           306 193 
 GUY  SN ES   2    320  1.83                             112    0.59 4  310 236 
 GUY  SZ I         320  8.05       238.7 0.45                           310 236 
 RREF HZ EP        319 28.04                             111   -0.46 7  328 230 
 RREF HN ES   1    320  5.07                             111   -0.14 5  328 230 
 RREF HZ I         320 14.15       221.4 0.29                           328 230 
 COD  HZ EP   2    319 30.18                             110    0.26 3  348 353 
 COD  HN ES   2    320  7.37                             110   -0.35 3  348 353 
 COD  HZ I         320 14.58       134.4 0.40                           348 353 
 TOL  SZ EP   1    319 30.50                             110   -0.07 5  350 225 
 PRA  HZ EP   1    319 35.35                             107   -0.33 4  397 210 
                                                                                
