 2010  4 5 0518  7.9 L   6.782 -72.911143.4  RSN  6 0.3 2.0LRSN                1
 GAP=217        0.92       3.7     8.7  6.3 -0.7756E+01  0.3076E-02  0.5813E+01E
 Epicentro: CEPITA - SANTANDER                                                 3
 ACTION:UPD 10-08-24 09:57 OP:vdl  STATUS:               ID:20100405051807 L   I
 2010-04-05-0513-40S.COL___098                                                 6
 STAT SP IPHASW D HRMM SECON CODA AMPLIT PERI AZIMU VELO AIN AR TRES W  DIS CAZ7
 BAR2 SZ EP        518 28.03                             165     0.410   37 235 
 BAR2 SZ ES        518 42.47                             165    -0.510   37 235 
 BRR  HZ EP        518 30.12                             144    -0.210   96 292 
 BRR  HN ES        518 48.22                             144     0.310   96 292 
 BRR  HZ I         518 50.51        13.6 0.20                            96 292 
 OCA  SZ EP        518 36.80                             128     0.1 9  167 344 
 OCA  SZ ES        518 59.16                             128     0.0 9  167 344 
 OCA  SZ I         519  9.63        15.5 0.23                           167 344 
 CHI  HZ EP        518 46.11                             116     0.0 8  255 201 
 CHI  HN ES        519 16.19                             116     0.2 8  255 201 
 CHI  HZ I         519 21.53         4.8 0.43                           255 201 
 HEL  HZ EP        518 50.14                             112    -0.6 7  297 257 
 HEL  HZ I         519 26.73         4.6 0.38                           297 257 
 RREF BZ EP        518 56.09                             109     0.0 7  341 232 
 RREF BE ES        519 33.89                             109     0.2 7  341 232 
 RREF BZ I         519 39.68         6.9 0.24                           341 232 
                                                                                
