 2017 10 5 0922 15.1 L   6.837 -73.118142.5  RSN 11 0.5 1.8LRSN                1
 GAP=138        1.02       3.7     4.6  6.0 -0.3140E+01  0.8877E+01  0.3412E+01E
 Epicentro: LOS SANTOS - SANTANDER                                             3
 ACTION:UPD 17-11-07 19:28 OP:rebc STATUS:               ID:20171005092215 L   I
 OLDACT:UP  17-10-05 18:23 OP:osc  STATUS:               ID:20171005091739d    3
 OLDACT:DUP 17-10-05 18:17 OP:osc  STATUS:               ID:20171005091739d    3
 OLDACT:UP  17-10-05 18:16 OP:osc  STATUS:               ID:20171005091738     3
 OLDACT:UP  17-10-05 18:13 OP:osc  STATUS:               ID:20171005091738     3
 OLDACT:REG 17-10-05 14:09 OP:osc  STATUS:               ID:20171005091738     3
 2017-10-05-0918-00M.COL___441                                                 6
 STAT SP IPHASW D HRMM SECON CODA AMPLIT PERI AZIMU VELO AIN AR TRES W  DIS CAZ7
 BAR2 EZ EP        922 34.34                             168   -0.0810 28.0 195 
 BAR2 EZ ES        922 48.71                             168   -0.8010 28.0 195 
 BAR2 EZ I         922 51.98         6.4 0.10            165           28.0 195 
 PAM  EZ EP        922 37.16                             152    0.5210 72.3  40 
 PAM  EN ES        922 53.85                             152    0.3810 72.3  40 
 PAM  EZ I         922 54.65         7.0 0.22            157           72.3  40 
 RUS  HZ EP        922 38.53                             142   -0.2710  105 178 
 RUS  HN ES        922 57.48                             142    0.1710  105 178 
 RUS  HZ I         922 59.31         4.8 0.26            143            105 178 
 SPBC HZ EP        922 43.42                             127   -0.40 9  168 219 
 SPBC HE ES        923  6.91                             127    0.67 9  168 219 
 SPBC HZ I         923 13.41        10.5 0.22            127            168 219 
 ZAR  HZ EP        922 47.18                             121   -0.27 8  205 291 
 ZAR  HE ES        923 12.98                             121    0.28 8  205 291 
 ZAR  HZ I         923 18.16        10.4 0.34            121            205 291 
 NOR  HZ EP        922 51.08                             117   -0.07 8  240 234 
 NOR  HE ES        923 18.79                             117   -0.49 8  240 234 
 NOR  HZ I         923 22.30         4.8 0.28            117            240 234 
 CHI  HZ EP        922 52.85                             116   -0.27 8  253 196 
 CHI  HE ES        923 23.02                             116    0.23 8  253 196 
 CHI  HZ I         923 30.33         2.5 0.34            117            253 196 
 URE  HZ EP   9    922 54.32                             113   -1.82 0  285 291 
 URE  HN ES        923 26.16                             113   -0.19 7  285 291 
 URE  HZ I         923 39.22         4.2 0.20            113            285 291 
 GUY2CHZ EP   9    923  0.15                             111    1.06 0  306 234 
 GUY2CHE ES        923 35.21                             111    0.73 7  306 234 
 GUY2CHZ I         923 42.88         4.2 0.40                           306 234 
 PRA  HZ EP        923  8.64                             106   -0.44 6  397 210 
 PRA  HE ES        923 52.25                             106    1.04 6  397 210 
 PRA  HZ I         923 57.19         2.3 0.24            107            397 210 
 ORTC HZ EP        923  9.53                             106    0.04 6  401 216 
 ORTC HN ES   3    923 53.28                             106    1.35 1  401 216 
 ORTC HZ I         923 57.11         1.5 0.18            106            401 216 
                                                                                
