 2013  3 5 0742 36.5 L   6.799 -73.112145.6  RSN  7 0.4 1.7LRSN                1
 GAP=186        1.03       5.7     6.7  7.7  0.9474E+01  0.5558E+01 -0.7782E+01E
 Epicentro: LOS SANTOS - SANTANDER                                             3
 ACTION:UPD 13-04-09 13:59 OP:ep   STATUS:               ID:20130305074236 L   I
 2013-03-05-0740-00M.COL___228                                                 6
 STAT SP IPHASW D HRMM SECON CODA AMPLIT PERI AZIMU VELO AIN AR TRES W  DIS CAZ7
 BAR2 SZ IP        742 56.49                             170    0.3510 24.1 199 
 BAR2 SZ I         742 56.64        16.7 0.16            169           24.1 199 
 BAR2 SZ ES        743 11.01                             170   -0.4410 24.1 199 
 BRR  HZ IP     C  742 58.38                             151    0.5410 74.5 297 
 BRR  HE ES        743 15.04                             151    0.5710 74.5 297 
 BRR  HE I         743 21.11        12.1 0.12            149           74.5 297 
 RUS  HZ EP   1    743  0.26                             144    0.03 7  100 178 
 RUS  HE ES   1    743 18.75                             144    0.03 7  100 178 
 RUS  HE I         743 20.45         6.3 0.53            148            100 178 
 PTB  HZ EP        743  3.21                             131   -0.59 9  151 259 
 PTB  HE ES        743 24.64                             131   -0.44 9  151 259 
 PTB  HZ I         743 28.30         5.1 0.33            132            151 259 
 OCA  HN ES   1    743 26.43                             129   -0.56 7  161 352 
 ZAR  HZ EP   1    743  9.82                             122    0.51 6  208 292 
 ZAR  HE ES   1    743 35.09                             122    0.20 6  208 292 
 ZAR  HZ I         743 41.56         5.9 0.38            123            208 292 
 SML  HZ EP   1    743 12.81                             117   -0.51 6  245 335 
                                                                                
