 2015  1 5 0821  1.0 L   6.561 -73.393  0.4  RSN  6 0.3 1.6LRSN                1
 GAP= 98        0.90       2.0     1.8  5.2  0.4488E+00  0.5059E+00  0.9358E+00E
 Epicentro: HATO - SANTANDER                                                   3
 ACTION:UPD 15-03-02 15:36 OP:nd   STATUS:               ID:20150105082101 L   I
 OLDACT:REG 15-01-05 14:25 OP:cam  STATUS:               ID:20150105081812     3
 2015-01-05-0818-12M.COL___274                                                 6
 STAT SP IPHASW D HRMM SECON CODA AMPLIT PERI AZIMU VELO AIN AR TRES W  DIS CAZ7
 BAR2 EZ EP     D  821  6.35                              47    0.3910 23.6  82 
 BAR2 EZ ES        821  9.98                              47    0.1810 23.6  82 
 BAR2 EZ I         821 11.24        69.8 0.10             47           23.6  82 
 BRR  HZ EP        821 12.22                              47   -0.5210 69.9 330 
 BRR  HN ES        821 21.82                              47   -0.0510 69.9 330 
 BRR  HZ I         821 22.46        17.5 0.12             47           69.9 330 
 RUS  HZ EP        821 14.81                              47   -0.1810 81.5 155 
 RUS  HE ES        821 25.31                              47   -0.5810 81.5 155 
 RUS  HZ I         821 26.05        11.6 0.28             47           81.5 155 
 PTB  HZ EP        821 19.89                              47   -0.0910  118 269 
 PTB  HN ES        821 34.70                              47   -0.0610  118 269 
 PTB  HZ I         821 35.75        20.9 0.34             47            118 269 
 SPBC HZ EP        821 21.47                              47    0.2210  125 217 
 SPBC HE ES        821 37.54                              47    0.5210  125 217 
 SPBC HZ I         821 41.75        14.6 0.20             47            125 217 
 SML  HZ EP        821 39.60                              37    0.37 8  259 343 
 SML  HZ I         822 11.18         4.7 0.30             37            259 343 
                                                                                
