 2016  4 5 0454 43.6 L   6.866 -73.371121.1  RSN  9 0.3 2.1LRSN                1
 GAP= 91        0.71       2.3     2.6  5.0 -0.8748E+00  0.5863E+01 -0.1731E+01E
 Epicentro: SAN VICENTE DE CHUCURI - SANTANDER                                 3
 ACTION:UPD 16-05-05 14:18 OP:rebc STATUS:               ID:20160405045443 L   I
 OLDACT:DUP 16-04-05 15:54 OP:cara STATUS:               ID:20160405044749d    3
 2016-04-05-0447-48M.COL___295                                                 6
 STAT SP IPHASW D HRMM SECON CODA AMPLIT PERI AZIMU VELO AIN AR TRES W  DIS CAZ7
 BAR2 EZ EP     D  455  1.01                             162    0.2910 36.7 145 
 BAR2 EZ ES        455 14.01                             162   -0.0310 36.7 145 
 BAR2 EZ I         455 15.16       118.4 0.42            167           36.7 145 
 PAM  EZ IP        455  4.55                             141    0.2810 90.8  55 
 PAM  EN ES        455 20.57                             141    0.2110 90.8  55 
 PAM  EZ I         455 24.50        23.9 0.38            146           90.8  55 
 RUS  HZ IP     C  455  6.04                             135    0.0110  112 164 
 RUS  HZ I         455  7.68         6.6 0.14            140            112 164 
 RUS  HN ES        455 23.29                             135   -0.2010  112 164 
 PTB  HZ IP     D  455  6.27                             131   -0.2910  125 253 
 PTB  HE ES        455 24.07                             131   -0.3610  125 253 
 PTB  HZ I         455 27.94        11.9 0.28            133            125 253 
 OCA  HZ EP        455  9.06                             125   -0.25 9  152   2 
 OCA  HN ES        455 29.05                             125   -0.29 9  152   2 
 OCA  HZ I         455 34.11        49.7 0.16            128            152   2 
 SPBC HZ EP        455  9.52                             124   -0.01 9  155 210 
 SPBC HN ES   4    455 31.09                             124    1.36 0  155 210 
 SPBC HZ I         455 36.40        15.3 0.10            128            155 210 
 ZAR  HZ EP        455 11.73                             120   -0.10 9  178 293 
 ZAR  HN ES        455 34.39                             120    0.57 9  178 293 
 ZAR  HZ I         455 40.47        18.8 0.26            123            178 293 
 URE  HZ EP        455 20.48                             110   -0.18 8  258 292 
 URE  HN ES   4    455 47.87                             110   -1.67 0  258 292 
 URE  HZ I         455 50.88         9.2 0.12            113            258 292 
 GUY2CHZ EP   4 D  455 25.92                             108    1.49 0  286 231 
 GUY2CHN ES        455 56.70                             108    0.45 7  286 231 
 GUY2CHZ I         456  1.65         2.8 0.42                           286 231 
                                                                                
