 2011 11 5 0129  3.8 L   6.780 -73.104135.5  RSN  8 0.3 2.1LRSN                1
 GAP=143        0.56       2.6     3.7  4.1  0.2554E+00  0.8389E+00 -0.4968E+00E
 Epicentro: LOS SANTOS - SANTANDER                                             3
 ACTION:UPD 12-07-13 16:08 OP:ep   STATUS:               ID:20111105012903 L   I
 2011-11-05-0125-00M.COL___176                                                 6
 STAT SP IPHASW D HRMM SECON CODA AMPLIT PERI AZIMU VELO AIN AR TRES W  DIS CAZ7
 BAR2 SZ EP        129 22.21                             170   -0.0110 22.5 203 
 BAR2 SZ ES        129 36.56                             170    0.0110 22.5 203 
 BAR2 SZ I         129 38.22        20.5 0.37                          22.5 203 
 GIR2 SZ EP   2    129 22.36                             165   -0.03 5 34.5 343 
 PAM  SZ EP        129 25.21                             149    0.3010 76.3  36 
 PAM  SN ES        129 41.39                             149    0.0610 76.3  36 
 BRR  HZ EP        129 24.36                             149    0.1610 76.3 298 
 BRR  HE ES        129 40.32                             149    0.2410 76.3 298 
 BRR  HZ I         129 45.29        27.8 0.15                          76.3 298 
 RUS  HZ EP        129 26.26                             142   -0.1510 98.1 179 
 RUS  HE ES   1    129 43.61                             142   -0.40 7 98.1 179 
 OCA  SZ EP   1    129 31.47                             127   -0.18 7  163 352 
 OCA  SZ ES   1    129 52.75                             127   -0.59 7  163 352 
 OCA  SZ I         129 56.56        18.5 0.46                           163 352 
 ZAR  HE ES   2    130  1.04                             119   -0.37 4  209 292 
 ZAR  HZ I         130  7.31        16.4 0.30                           209 292 
 HEL  HZ EP   2    129 44.35                             112    0.35 4  276 256 
 HEL  HZ I         130 22.15         5.4 0.31                           276 256 
                                                                                
