 2012  4 5 0544 23.9 L   6.741 -73.172147.4  RSN  5 0.4 0.9LRSN                1
 GAP=230        0.85       8.8     8.0  9.1  0.4392E+02  0.1047E+02  0.2582E+00E
 Epicentro: VILLANUEVA - SANTANDER                                             3
 ACTION:UPD 12-07-05 11:50 OP:tino STATUS:               ID:20120405054423 L   I
 2012-04-05-0540-00M.COL___196                                                 6
 STAT SP IPHASW D HRMM SECON CODA AMPLIT PERI AZIMU VELO AIN AR TRES W  DIS CAZ7
 BAR2 SZ EP   1    544 43.28                             173    -0.3 7   16 184 
 BAR2 SZ ES   1    544 58.35                             173    -0.6 7   16 184 
 BRR  HZ EP   1    544 45.23                             152     0.0 7   72 304 
 BRR  HZ I         544 45.62         3.1 0.17                            72 304 
 BRR  HN ES   1    545  2.54                             152     0.6 7   72 304 
 RUS  HZ EP   1    544 47.77                             146     0.4 7   94 174 
 RUS  HN ES   1    545  5.93                             146     0.3 7   94 174 
 RUS  HZ I         545  7.06         0.9 0.33                            94 174 
 PTB  HZ EP   1    544 50.32                             133    -0.3 7  144 261 
 PTB  HN ES   1    545 11.31                             133    -0.2 7  144 261 
 PTB  HZ I         545 16.63         0.7 0.25                           144 261 
 ZAR  HE ES   1    545 21.81                             123     0.0 6  204 294 
                                                                                
