 2014 12 5 0637 35.5 L   6.765 -73.183152.0  RSN  7 0.3 1.6LRSN                1
 GAP=231        0.88       4.2     5.1  5.9  0.8082E+01  0.4458E+01  0.5315E+01E
 Epicentro: LOS SANTOS - SANTANDER                                             3
 ACTION:UPD 15-02-10 17:00 OP:nd   STATUS:               ID:20141205063735 L   I
 OLDACT:UP  14-12-05 15:06 OP:cam  STATUS:               ID:20141205062745d    3
 OLDACT:DUP 14-12-05 14:59 OP:cam  STATUS:               ID:20141205062745d    3
 OLDACT:REG 14-12-05 12:47 OP:fm   STATUS:               ID:20141205062744     3
 2014-12-05-0627-44M.COL___297                                                 6
 STAT SP IPHASW D HRMM SECON CODA AMPLIT PERI AZIMU VELO AIN AR TRES W  DIS CAZ7
 BAR2 SZ EP        637 55.48                             173   -0.3210 19.1 180 
 BAR2 SZ ES        638 11.88                             173    0.2410 19.1 180 
 BAR2 SZ I         638 12.15         7.6 0.22            169           19.1 180 
 BRR  HZ EP     D  637 57.27                             154    0.0310 69.6 303 
 BRR  HN ES        638 14.74                             154    0.5410 69.6 303 
 BRR  HZ I         638 17.31         5.6 0.40            154           69.6 303 
 RUS  HZ EP        637 59.30                             146   -0.3310 97.1 173 
 RUS  HN ES        638 18.08                             146   -0.3710 97.1 173 
 RUS  HZ I         638 19.05         4.4 0.28            145           97.1 173 
 PTB  HZ EP        638  2.25                             134   -0.31 9  143 260 
 PTB  HN ES        638 23.37                             134   -0.30 9  143 260 
 PTB  HZ I         638 25.50         6.5 0.14            134            143 260 
 SPBC HZ EP        638  4.45                             132    0.48 9  158 219 
 SPBC HN ES        638 26.13                             132   -0.04 9  158 219 
 SPBC HZ I         638 29.35         7.6 0.10            131            158 219 
 ZAR  HN ES        638 33.37                             124   -0.21 9  202 294 
 CHI  HZ EP        638 13.59                             119    0.55 8  244 194 
 CHI  HN ES        638 42.60                             119    0.29 8  244 194 
 CHI  HZ I         638 48.71         1.8 0.28            119            244 194 
                                                                                
