 2017  4 5 0536 15.2 L   6.244 -73.755 40.1  RSN  5 0.4 0.5LRSN                1
 GAP=175        0.77       5.2     3.5  7.2  0.8924E+01  0.4535E+01 -0.2440E+01E
 Epicentro: LANDAZURI - SANTANDER                                              3
 ACTION:UPD 17-05-30 21:08 OP:jn   STATUS:               ID:20170405053615 L   I
 OLDACT:UP  17-04-05 15:46 OP:and  STATUS:               ID:20170405052746d    3
 OLDACT:UP  17-04-05 15:46 OP:and  STATUS:               ID:20170405052746d    3
 OLDACT:DUP 17-04-05 15:44 OP:and  STATUS:               ID:20170405052746d    3
 2017-04-05-0528-00M.COL___365                                                 6
 STAT SP IPHASW D HRMM SECON CODA AMPLIT PERI AZIMU VELO AIN AR TRES W  DIS CAZ7
 BAR2 EZ EP        536 31.89                             139    0.3010 74.1  59 
 BAR2 EZ ES        536 44.00                             139   -0.3510 74.1  59 
 BAR2 EZ I         536 46.42         2.5 0.36            139           74.1  59 
 RUS  HZ EP        536 32.38                             135   -0.4010 84.0 118 
 RUS  HN ES        536 46.86                             135    0.3910 84.0 118 
 PTB  HZ EP   3    536 31.06                             134   -1.08 2 84.1 293 
 PTB  HN ES        536 45.37                             134    0.0310 84.1 293 
 PTB  HZ I         536 45.72         0.8 0.09            137           84.1 293 
 BRR  HZ EP        536 33.08                             131   -0.0910 95.5   3 
 BRR  HE ES   2    536 47.92                             131    0.75 5 95.5   3 
 ZAR  HZ EP        536 42.66                             112   -0.07 9  184 319 
 ZAR  HN ES   3    537  5.11                             112    0.92 2  184 319 
                                                                                
