 2013  8 5 0751 27.7 L   6.028 -73.942  7.9  RSN  5 0.5 1.3LRSN                1
 GAP=177        0.95       5.3     3.5  8.2  0.8626E+00  0.1044E+02  0.5411E+01E
 Epicentro: EL PEON - SANTANDER                                                3
 ACTION:UPD 14-01-14 08:59 OP:ep   STATUS:               ID:20130805075127 L   I
 OLDACT:DUP 13-08-05 11:12 OP:jn   STATUS:               ID:20130805074901d    3
 2013-08-05-0749-59M.COL___269                                                 6
 STAT SP IPHASW D HRMM SECON CODA AMPLIT PERI AZIMU VELO AIN AR TRES W  DIS CAZ7
 PTB  HZ EP   1    751 40.34                              93   -0.15 7 80.3 315 
 PTB  HZ I         751 52.82         6.5 0.26             97           80.3 315 
 RUS  HN ES   1    751 55.43                              93   -0.20 7 96.2  99 
 BRR  HZ EP   4    751 48.03                              92    1.24 0  122  12 
 BRR  HN ES   1    752  1.66                              92   -0.01 7  122  12 
 HEL  HZ EP   1    751 56.21                              56    1.07 7  177 276 
 HEL  HN ES   1    752 15.83                              56   -0.72 7  177 276 
 HEL  HZ I         752 18.60         2.6 0.34             91            177 276 
 PAM  SN ES   1    752 22.06                              56    0.11 6  200  43 
 PAM  SZ I         752 24.72         4.5 0.30             91            200  43 
                                                                                
