 2011  2 5 0517  1.6 L   6.804 -73.095142.5  RSN 11 0.3 2.1LRSN                1
 GAP=140        0.54       2.7     4.9  4.9 -0.6189E+01  0.7695E+01 -0.5387E+00E
 Epicentro: LOS SANTOS - SANTANDER                                             3
 ACTION:UP  11-03-28 15:06 OP:jfem STATUS:               ID:20110205051701 L   I
 2011-02-05-0514-58S.COL___138                                                 6
 STAT SP IPHASW D HRMM SECON CODA AMPLIT PERI AZIMU VELO SNR AR TRES W  DIS CAZ7
 BAR2 SZ EP   1    517 20.72                             169    -0.1 7   25 203 
 BAR2 SZ ES   1    517 36.17                             169     0.3 7   25 203 
 BAR2 SZ I         517 37.52        28.8 0.21                            25 203 
 GIR2 SZ EP        517 20.89                             167     0.010   32 340 
 RUS  HZ EP   1    517 25.09                             143     0.1 7  101 179 
 RUS  HN ES   2    517 43.12                             143    -0.2 5  101 179 
 RUS  HZ I         517 44.74        10.9 0.41                           101 179 
 GRA  SZ IP        517 26.58                             137     0.210  124  15 
 GRA  SZ ES   1    517 45.43                             137    -0.2 7  124  15 
 GRA  SZ I         517 49.09        33.5 0.29                           124  15 
 OCA  SZ EP   1    517 29.35                             129    -0.3 7  161 351 
 OCA  SZ ES   2    517 51.44                             129    -0.1 5  161 351 
 OCA  SZ I         517 56.14        26.1 0.25                           161 351 
 YOP  SZ EP   2    517 30.76                             126    -0.4 4  177 155 
 YOP  SZ I         517 56.04         5.4 0.33                           177 155 
 NOR  SZ EP   2    517 37.40                             117    -0.2 4  240 235 
 NOR  SE ES   2    518  4.97                             117    -0.8 4  240 235 
 CHI  HZ EP   2    517 39.04                             116    -0.2 4  251 196 
 CHI  HZ I         517 41.79         6.3 0.24                           251 196 
 CHI  HN ES   2    518  8.76                             116     0.0 4  251 196 
 HEL  HZ EP   2    517 42.82                             114     0.6 4  278 256 
 HEL  HE ES   2    518 13.86                             114    -0.1 4  278 256 
 HEL  HZ I         518 20.09         9.1 0.23                           278 256 
 RREF HZ EP   1    517 48.57                             110     0.5 5  326 230 
 RREF HN ES   2    518 24.53                             110     0.2 3  326 230 
 RREF HZ I         518 30.51         8.6 0.21                           326 230 
 TOL  SZ EP   2    517 50.01                             108    -0.2 3  348 225 
                                                                                
