 2014  2 5 0232 41.9 L   6.803 -73.140144.3  RSN  9 0.4 1.6LRSN                1
 GAP=137        0.99       4.6     6.3  6.6 -0.5274E+01  0.1474E+02  0.5690E+01E
 Epicentro: LOS SANTOS - SANTANDER                                             3
 ACTION:UPD 14-03-10 08:07 OP:ep   STATUS:               ID:20140205023241 L   I
 OLDACT:REG 14-02-05 07:45 OP:mh   STATUS:               ID:20140205023000     3
 2014-02-05-0230-00M.COL___288                                                 6
 STAT SP IPHASW D HRMM SECON CODA AMPLIT PERI AZIMU VELO AIN AR TRES W  DIS CAZ7
 BAR2 SZ EP   1    233  1.51                             170    0.17 7 23.8 191 
 BAR2 SZ ES        233 16.14                             170   -0.3810 23.8 191 
 BAR2 SZ I         233 17.55        11.2 0.19            171           23.8 191 
 BRR  HZ IP     C  233  3.33                             152    0.4410 71.6 298 
 BRR  HN ES        233 19.76                             152    0.4810 71.6 298 
 BRR  HZ I         233 24.36        12.2 0.10            136           71.6 298 
 PAM  SZ EP   1    233  4.45                             151    0.56 7 76.7  39 
 PAM  SN ES        233 20.81                             151   -0.2610 76.7  39 
 PAM  SZ I         233 23.70         6.3 0.19            131           76.7  39 
 RUS  HZ EP   1    233  5.59                             143    0.08 7  101 176 
 RUS  HZ I         233 25.69         3.3 0.26            130            101 176 
 PTB  HZ EP        233  8.03                             131   -0.76 9  148 259 
 PTB  HZ I         233 31.65         6.3 0.14            117            148 259 
 ZAR  HZ EP        233 13.92                             122   -0.35 9  205 292 
 NOR  HZ EP   1    233 18.16                             118    0.56 6  235 234 
 NOR  HN ES   1    233 45.83                             118    0.37 6  235 234 
 NOR  HZ I         233 48.24         3.1 0.19            106            235 234 
 SML  HZ EP   1    233 17.89                             117   -0.52 6  244 335 
 SML  HZ I         233 53.01        10.5 0.10            104            244 335 
 CHI  HZ EP   1    233 20.11                             117    0.56 6  249 195 
 CHI  HN ES        233 48.66                             117   -0.28 8  249 195 
 CHI  HZ I         233 55.54         1.1 0.19            105            249 195 
 SJC  HZ EP   4    233 35.80                             105   -1.59 0  409 327 
 SJC  HN ES   4    234 16.34                             105   -4.36 0  409 327 
                                                                                
