 2013  4 5 0742 23.0 L   6.810 -73.144152.1  RSN 18 0.5 3.1LRSN 3.4WRSN        1
 SPEC AVERAGE  MO 14.1 ST 18.9 OM  2.6 f0 4.03 R0.3749 AL 2.30 WI 27.5 MW  3.4 3
 SPEC SD       MO  0.3 ST 19.4 OM  0.4 f00.630 R0.0631 AL      WI      MW  0.2 3
 GAP= 71        1.16       3.0     3.6  5.0  0.1166E+01  0.2580E+01 -0.4705E+00E
 Epicentro: LOS SANTOS - SANTANDER                                             3
 SPEC TAM HH N MO 13.7 ST  3.5 OM  2.0 f0 3.62 R0.4061 AL 2.41 WI 12.9 MW  3.1 3
 SPEC TAM HH N T 74311 K 0.000 GD  217 VS 4.20 DE 3.20 Q0300.0 QA 0.60 VS 4.20 3
 SPEC PTB HH N MO 14.3 ST 35.0 OM  2.6 f0 4.94 R0.2976 AL 2.40 WI 15.3 MW  3.5 3
 SPEC PTB HH N T 74311 K 0.000 GD  212 VS 4.20 DE 3.20 Q0300.0 QA 0.60 VS 4.20 3
 SPEC RUS HH N MO 14.1 ST 14.2 OM  2.4 f0 4.48 R0.3281 AL 2.23 WI 18.4 MW  3.3 3
 SPEC RUS HH N T 743 4 K 0.000 GD  183 VS 4.20 DE 3.20 Q0300.0 QA 0.60 VS 4.20 3
 SPEC PRA HH N MO 13.9 ST  5.5 OM  1.9 f0 3.62 R0.4061 AL 2.25 WI 39.1 MW  3.2 3
 SPEC PRA HH N T 74354 K 0.000 GD  421 VS 4.20 DE 3.20 Q0300.0 QA 0.60 VS 4.20 3
 SPEC HEL HH N MO 14.3 ST  6.9 OM  2.4 f0 2.94 R0.5000 AL 2.31 WI 45.6 MW  3.5 3
 SPEC HEL HH N T 74333 K 0.000 GD  312 VS 4.20 DE 3.20 Q0300.0 QA 0.60 VS 4.20 3
 SPEC OCA HH Z MO 14.0 ST 10.3 OM  2.3 f0 4.08 R0.3603 AL 1.81 WI 29.0 MW  3.3 3
 SPEC OCA HH Z T 74312 K 0.000 GD  220 VS 4.20 DE 3.20 Q0300.0 QA 0.60 VS 4.20 3
 SPEC OCA HH N MO 14.7 ST 68.0 OM  3.0 f0 4.48 R0.3281 AL 2.43 WI 20.2 MW  3.8 3
 SPEC OCA HH N T 74313 K 0.000 GD  220 VS 4.20 DE 3.20 Q0300.0 QA 0.60 VS 4.20 3
 SPEC COD HH N MO 14.0 ST  9.2 OM  2.0 f0 4.13 R0.3559 AL 2.23 WI 39.9 MW  3.3 3
 SPEC COD HH N T 74347 K 0.000 GD  378 VS 4.20 DE 3.20 Q0300.0 QA 0.60 VS 4.20 3
 SPEC CHI HH N MO 14.1 ST  5.3 OM  2.2 f0 3.21 R0.4579 AL 2.08 WI 38.6 MW  3.3 3
 SPEC CHI HH N T 74328 K 0.000 GD  292 VS 4.20 DE 3.20 Q0300.0 QA 0.60 VS 4.20 3
 SPEC BRR HH N MO 14.3 ST 31.2 OM  2.7 f0 4.76 R0.3088 AL 2.85 WI 16.5 MW  3.5 3
 SPEC BRR HH N T 743 0 K 0.000 GD  167 VS 4.20 DE 3.20 Q0300.0 QA 0.60 VS 4.20 3
 ACTION:UPD 13-05-22 14:36 OP:EP   STATUS:               ID:20130405074223 L   I
 2013-04-05-0740-00M.COL___245                                                 6
 STAT SP IPHASW D HRMM SECON CODA AMPLIT PERI AZIMU VELO AIN AR TRES W  DIS CAZ7
 BAR2 SZ EP        742 43.42                             170    0.0510 24.5 190 
 BAR2 SZ ES        742 59.27                             170   -0.0110 24.5 190 
 BAR2 SZ I         743  0.22       513.6 0.38            170           24.5 190 
 GIR2 SZ EP        742 43.50                             168    0.1510 30.2 349 
 GIR2 SZ ES        742 59.87                             168    0.6210 30.2 349 
 GIR2 SZ I         743  0.78       136.2 0.13            166           30.2 349 
 BRR  HZ IP     C  742 45.31                             154    0.5410 70.9 298 
 BRR  HN ES        743  2.36                             154    0.5810 70.9 298 
 BRR  HZ I         743  3.77       196.8 0.12            150           70.9 298 
 RUS  HZ EP        742 47.35                             145   -0.0610  102 176 
 RUS  HN ES        743  5.62                             145   -0.8610  102 176 
 RUS  HZ I         743  7.31       127.6 0.22            142            102 176 
 PTB  HZ EP        742 49.99                             133   -0.49 9  148 258 
 PTB  HN ES   1    743 11.37                             133   -0.59 7  148 258 
 PTB  HZ I         743 18.74       324.7 0.46            129            148 258 
 TAM  HZ EP        742 51.58                             132    0.44 9  155 105 
 TAM  HN ES        743 12.86                             132   -0.27 9  155 105 
 TAM  HZ I         743 13.32        38.6 0.20            129            155 105 
 OCA  HZ EP        742 51.52                             131   -0.14 9  159 353 
 OCA  HN ES        743 13.43                             131   -0.62 9  159 353 
 OCA  HZ I         743 19.41       178.9 0.32            127            159 353 
 ZAR  HZ EP        742 55.79                             124   -0.01 9  204 292 
 ZAR  HN ES        743 21.25                             124   -0.16 9  204 292 
 ZAR  HZ I         743 28.54       208.1 0.30            120            204 292 
 CTAB SZ EP   4    743  0.78                             120    1.58 0  231 211 
 SML  HZ EP        742 59.51                             119   -0.33 8  243 335 
 SML  HE ES        743 29.10                             119    0.49 8  243 335 
 CHI  HZ EP        743  1.32                             118    0.18 8  250 195 
 CHI  HN ES        743 30.79                             118   -0.13 8  250 195 
 CHI  HZ I         743 38.84        40.9 0.36            115            250 195 
 ROSC BZ EP   4    743  3.03                             118    1.48 0  254 211 
 ROSC BN ES   1    743 31.92                             118    0.27 6  254 211 
 ROSC BZ I         743 41.18        64.8 0.40            114            254 211 
 HEL  HZ EP        743  5.00                             116    1.45 8  273 256 
 HEL  HE ES   1    743 35.20                             116   -0.02 6  273 256 
 HEL  HZ I         743 41.92       111.0 0.40            112            273 256 
 URE  HZ EP   1    743  3.17                             115   -1.14 6  284 292 
 URE  HN ES   4    743 34.71                             115   -1.86 0  284 292 
 URE  HZ I         743 44.73        99.6 0.20            111            284 292 
 VIL  SZ EP   1    743  7.01                             113    0.21 5  305 192 
 DBB  SZ EP        743 11.48                             111    0.77 7  340 274 
 DBB  SZ ES   1    743 46.60                             111   -1.36 5  340 274 
 DBB  SZ I         743 50.00        65.1 0.44            107            340 274 
 COD  HZ EP        743 11.23                             110   -0.23 6  347 355 
 COD  HN ES   1    743 48.53                             110   -0.76 5  347 355 
 COD  HZ I         743 58.29        23.1 0.46            107            347 355 
 SDV  BZ EP        743 12.75                             109   -0.39 6  359  50 
 SDV  BZ I         743 52.16        19.2 0.35            106            359  50 
 PRA  HZ EP        743 16.79                             107   -0.04 6  393 210 
 PRA  HN ES   4    743 56.70                             107   -2.15 0  393 210 
 PRA  HZ I         744  4.31        43.8 0.22            105            393 210 
 SJC  HZ EP   4    743 17.45                             107   -1.18 0  408 327 
 SJC  HE ES   4    743 58.83                             107   -3.23 0  408 327 
 YOT  HZ EP   4    743 25.77                             104   -0.52 0  473 229 
 SMAR HN ES   4    744 16.28                             103   -4.00 0  496 346 
                                                                                
