 2011  9 5 0706 19.3 L   6.796 -73.126143.6  RSN  9 0.2 2.0LRSN                1
 GAP=185        0.36       2.4     3.1  3.9 -0.1031E+01  0.4218E+01 -0.1209E+01E
 Epicentro: LOS SANTOS - SANTANDER                                             3
 ACTION:UPD 12-07-13 15:55 OP:ep   STATUS:               ID:20110905070619 L   I
 2011-09-05-0702-49S.COL___170                                                 6
 STAT SP IPHASW D HRMM SECON CODA AMPLIT PERI AZIMU VELO AIN AR TRES W  DIS CAZ7
 BAR2 SZ EP   1    7 6 38.52                             170   -0.13 7 23.4 195 
 BAR2 SZ ES   2    7 6 53.42                             170   -0.33 5 23.4 195 
 BAR2 SZ I         7 6 55.63        30.7 0.31                          23.4 195 
 GIR2 SZ EP   1    7 6 38.70                             167   -0.01 7 32.1 347 
 GIR2 SZ ES   2    7 6 54.19                             167    0.32 5 32.1 347 
 BRR  HZ IP     C  7 6 40.45                             151    0.1410 73.3 298 
 BRR  HE ES   2    7 6 56.99                             151    0.28 5 73.3 298 
 BRR  HZ I         7 6 58.86        29.3 0.17                          73.3 298 
 RUS  HZ EP   2    7 6 42.77                             143    0.00 5  100 177 
 RUS  HZ I         7 6 59.84        11.1 0.71                           100 177 
 RUS  HN ES   2    7 7  0.97                             143   -0.13 5  100 177 
 OCA  SZ EP   1    7 6 47.43                             129   -0.05 7  161 352 
 OCA  SZ ES   2    7 7  9.22                             129   -0.26 5  161 352 
 OCA  SZ I         7 7 12.31        14.2 0.39                           161 352 
 ZAR  HZ EP   1    7 6 51.95                             122    0.15 6  206 292 
 ZAR  HN ES   2    7 7 16.80                             122   -0.37 4  206 292 
 ZAR  HZ I         7 7 23.40        10.0 0.23                           206 292 
 NOR  SN ES   2    7 7 23.17                             118    0.23 4  236 235 
 HEL  HZ EP   2    7 6 59.62                             114    0.02 4  274 256 
 HEL  HN ES   2    7 7 30.49                             114   -0.56 4  274 256 
 HEL  HZ I         7 7 39.63         3.5 0.73                           274 256 
 RREF HN ES   2    7 7 41.74                             110    0.22 3  323 230 
 RREF HZ I         7 7 48.99         3.0 0.32                           323 230 
                                                                                
