 2012  2 5 0535 23.1 L   6.813 -73.170146.6  RSN  6 0.4 1.3LRSN                1
 GAP=133        0.83       5.4     5.7  9.6 -0.1108E+01  0.1061E+02  0.2332E+02E
 ACTION:UP  12-03-07 16:27 OP:epov STATUS:               ID:20120205053523 L   I
 2012-02-05-0530-00M.COL___188                                                 6
 STAT SP IPHASW D HRMM SECON CODA AMPLIT PERI AZIMU VELO SNR AR TRES W  DIS CAZ7
 BRR  HZ EP   1    535 44.36                             154    0.24 7 68.2 299 
 BRR  HZ I         535 59.66         3.7 0.12                          68.2 299 
 BRR  HN ES   1    536  1.23                             154    0.68 7 68.2 299 
 PAM  SN ES   1    536  2.36                             151   -0.45 7 78.0  42 
 RUS  HZ EP   1    535 47.19                             143    0.19 7  102 175 
 RUS  HN ES   1    536  5.80                             143    0.12 7  102 175 
 RUS  HZ I         536  7.35         3.6 0.32                           102 175 
 PTB  HZ EP   1    535 49.51                             133   -0.36 7  145 258 
 PTB  HN ES   1    536 10.06                             133   -0.74 7  145 258 
 PTB  HZ I         536 13.25         0.0 0.16                           145 258 
 NOR  SE ES   1    536 26.86                             119    0.38 6  233 234 
 CHI  HZ EP   1    536  1.23                             117    0.36 6  249 194 
 CHI  HN ES   1    536 29.94                             117   -0.43 6  249 194 
 CHI  HZ I         536 34.99         1.3 0.31                           249 194 
                                                                                
