 2014  6 5 0859 43.4 L   6.787 -73.174147.6  RSN  8 0.4 1.4LRSN                1
 GAP=134        1.03       3.7     4.5  7.5 -0.2216E+01  0.1268E+02 -0.4364E+01E
 Epicentro: LOS SANTOS - SANTANDER                                             3
 ACTION:UPD 14-07-01 22:51 OP:nd   STATUS:               ID:20140605085943 L   I
 OLDACT:REG 14-06-05 13:18 OP:fm   STATUS:               ID:20140605085805     3
 2014-06-05-0858-05M.COL___262                                                 6
 STAT SP IPHASW D HRMM SECON CODA AMPLIT PERI AZIMU VELO AIN AR TRES W  DIS CAZ7
 BAR2 SZ EP        9 0  3.63                             171    0.3610 21.5 182 
 BAR2 SZ ES        9 0 18.66                             171   -0.0710 21.5 182 
 BAR2 SZ I         9 0 19.78        12.4 0.16            171           21.5 182 
 PAM  SZ EP        9 0  6.39                             150    0.3410 80.6  41 
 PAM  SN ES        9 0 23.60                             150   -0.0910 80.6  41 
 PAM  SZ I         9 0 25.09         2.6 0.18            153           80.6  41 
 RUS  HZ EP        9 0  7.62                             144    0.3210 99.4 174 
 RUS  HE ES        9 0 25.55                             144   -0.3510 99.4 174 
 RUS  HZ I         9 0 27.88         1.6 0.26            149           99.4 174 
 PTB  HZ EP        9 0  9.93                             133   -0.33 9  144 259 
 PTB  HN ES        9 0 31.42                             133    0.24 9  144 259 
 PTB  HZ I         9 0 36.72         2.5 0.30            132            144 259 
 ZAR  HZ EP   4    9 0 17.74                             123    1.97 0  202 293 
 ZAR  HN ES        9 0 41.79                             123    0.80 9  202 293 
 ZAR  HZ I         9 0 50.50         2.4 0.30            123            202 293 
 NOR  HE ES        9 0 45.74                             119   -0.85 8  231 234 
 NOR  HZ I         9 0 52.53         2.5 0.20            120            231 234 
 SML  HZ EP        9 0 19.80                             118   -0.38 8  244 336 
 SML  HN ES        9 0 48.31                             118   -0.53 8  244 336 
 SML  HZ I         9 0 56.26         2.8 0.10            118            244 336 
 PRA  HE ES        9 1 18.60                             107    0.36 6  389 209 
                                                                                
