 2011  2 5 0132 47.1 L   6.783 -73.164142.9  RSN  7 0.1 1.3LRSN                1
 GAP=157        0.34       2.7     5.7  9.4 -0.6321E+01  0.1700E+02 -0.3364E+01E
 Epicentro: LOS SANTOS - SANTANDER                                             3
 ACTION:UP  11-03-28 15:05 OP:jfem STATUS:               ID:20110205013247 L   I
 2011-02-05-0131-10S.COL___137                                                 6
 STAT SP IPHASW D HRMM SECON CODA AMPLIT PERI AZIMU VELO SNR AR TRES W  DIS CAZ7
 BTL  SZ EP   1    133  6.53                             172     0.2 7   19 323 
 BAR2 SZ EP   1    133  6.40                             171     0.1 7   21 186 
 BAR2 SZ I         133 24.75         3.3 0.05                            21 186 
 GIR2 SZ EP   2    133  6.53                             166     0.1 5   33 354 
 RUS  HZ EP   2    133 10.33                             144    -0.1 5   99 175 
 RUS  HN ES   2    133 28.51                             144    -0.1 5   99 175 
 RUS  HZ I         133 30.83         1.8 0.34                            99 175 
 GRA  SZ EP   2    133 12.11                             136    -0.2 5  128  18 
 GRA  SZ ES   2    133 31.91                             136     0.0 5  128  18 
 GRA  SZ I         133 34.58         3.2 0.25                           128  18 
 OCA  SZ ES   2    133 37.22                             129    -0.2 5  162 354 
 OCA  SZ I         133 41.74         5.2 0.22                           162 354 
 NOR  SN ES   2    133 49.81                             118    -0.1 4  232 235 
                                                                                
