 2016  6 5 0650  5.4 L   6.820 -73.155142.9  RSN 19 0.5 2.7LRSN                1
 GAP= 70        1.15       3.2     3.3  5.4 -0.2594E+01  0.4450E+01  0.3977E+01E
 Epicentro: LOS SANTOS - SANTANDER                                             3
 ACTION:UPD 16-07-21 22:15 OP:rebc STATUS:               ID:20160605065005 L   I
 OLDACT:UP  16-06-05 19:15 OP:edw  STATUS:               ID:20160605064744     3
 OLDACT:REG 16-06-05 13:11 OP:edw  STATUS:               ID:20160605064744     3
 2016-06-05-0647-44M.COL___322                                                 6
 STAT SP IPHASW D HRMM SECON CODA AMPLIT PERI AZIMU VELO AIN AR TRES W  DIS CAZ7
 BAR2 EZ IP     D  650 24.68                             169   -0.0810 25.3 187 
 BAR2 EZ ES        650 39.00                             169   -0.8410 25.3 187 
 BAR2 EZ I         650 41.43       103.9 0.20                          25.3 187 
 BRR  HZ EP     C  650 26.48                             153    0.3210 69.3 297 
 BRR  HN ES        650 43.05                             153    0.7210 69.3 297 
 BRR  HZ I         650 46.71        77.0 0.30                          69.3 297 
 PAM  EZ EP     C  650 27.51                             151    0.2310 76.4  41 
 PAM  EN ES        650 44.56                             151    0.2310 76.4  41 
 PAM  EZ I         650 46.89       107.3 0.50                          76.4  41 
 RUS  HZ EP        650 28.65                             143   -0.4210  103 176 
 RUS  HN ES        650 47.75                             143    0.2510  103 176 
 RUS  HZ I         650 48.49        49.1 0.26                           103 176 
 PTB  HZ EP        650 31.31                             131   -0.81 9  147 258 
 PTB  HN ES        650 52.59                             131   -0.34 9  147 258 
 PTB  HZ I         650 59.32        35.5 0.26                           147 258 
 TAM  HZ EP     D  650 33.10                             130    0.07 9  157 106 
 TAM  HN ES        650 54.98                             130    0.42 9  157 106 
 OCA  HZ EP     C  650 32.74                             129   -0.57 9  158 353 
 OCA  HN ES        650 54.89                             129   -0.15 9  158 353 
 OCA  HZ I         650 58.12        68.7 0.20                           158 353 
 SPBC HZ EP        650 33.58                             128   -0.24 9  164 218 
 SPBC HN ES        650 55.85                             128   -0.10 9  164 218 
 SPBC HZ I         651  0.13        71.9 0.18                           164 218 
 NOR  HZ EP        650 40.85                             118   -0.20 8  235 234 
 NOR  HN ES        651  9.60                             118    0.78 8  235 234 
 NOR  HZ I         651 14.16        26.8 0.18                           235 234 
 CHI  HZ EP        650 42.95                             116   -0.23 8  250 195 
 CHI  HN ES        651 12.15                             116   -0.46 8  250 195 
 CHI  HZ I         651 15.69        29.3 0.54                           250 195 
 ROSC BZ EP   2    650 44.33                             116    0.78 4  254 211 
 ROSC BE ES        651 13.41                             116    0.14 8  254 211 
 ROSC BZ I         651 19.21        59.9 0.40                           254 211 
 HEL  HZ EP        650 46.79                             114    1.34 8  272 255 
 HEL  HN ES        651 17.13                             114    0.47 8  272 255 
 HEL  HZ I         651 22.81        21.9 0.30                           272 255 
 URE  HZ EP   4    650 47.89                             113    1.72 0  282 292 
 PTGC HZ EP   4 D  650 47.84                             111   -1.60 0  311 159 
 PTGC HN ES   4    651 21.48                             111   -2.28 0  311 159 
 PTGC HZ I         651 23.94        26.7 0.42                           311 159 
 CBOC HZ EP        650 52.53                             109    0.33 7  333 252 
 CBOC HN ES        651 27.31                             109   -1.36 7  333 252 
 ANIL HZ EP        650 55.49                             108    0.26 6  358 224 
 ANIL HN ES        651 34.14                             108    0.08 6  358 224 
 ANIL HZ I         651 44.78        60.8 0.36                           358 224 
 PRA  HZ EP        650 58.69                             106   -0.33 6  393 209 
 PRA  HN ES        651 41.13                             106    0.31 6  393 209 
 PRA  HZ I         651 46.67        20.7 0.32                           393 209 
 ORTC HZ EP        650 59.08                             106   -0.31 6  397 216 
 ORTC HN ES        651 42.31                             106    0.83 6  397 216 
 ORTC HZ I         651 46.12        16.7 0.26                           397 216 
 PAL  HZ EP        651  0.30                             105   -0.23 6  406 239 
 PAL  HN ES        651 43.80                             105    0.30 6  406 239 
 CRJC HZ EP   4    651  5.14                             103   -2.46 0  466   4 
 CRJC HE ES   4    651 53.30                             103   -2.79 0  466   4 
 CRJC HZ I         651 59.85        13.4 0.36                           466   4 
                                                                                
