 2013  4 5 0600 14.4 L   6.764 -73.166145.8  RSN  5 0.3 1.1LRSN                1
 GAP=232        0.71       6.8     6.1  6.8  0.2505E+02  0.3567E+01 -0.3392E+00E
 Epicentro: LOS SANTOS - SANTANDER                                             3
 ACTION:UPD 13-05-22 14:36 OP:EP   STATUS:               ID:20130405060014 L   I
 2013-04-05-0600-00M.COL___245                                                 6
 STAT SP IPHASW D HRMM SECON CODA AMPLIT PERI AZIMU VELO AIN AR TRES W  DIS CAZ7
 BAR2 SZ EP        6 0 33.82                             172   -0.1310 19.1 185 
 BAR2 SZ ES   1    6 0 48.63                             172   -0.58 7 19.1 185 
 BAR2 SZ I         6 0 51.36         4.4 0.33            167           19.1 185 
 BRR  HZ EP        6 0 35.55                             153    0.0010 71.3 302 
 BRR  HN ES   1    6 0 52.52                             153    0.47 7 71.3 302 
 BRR  HZ I         6 0 54.30         5.9 0.66            151           71.3 302 
 RUS  HZ EP        6 0 38.14                             145    0.2610 96.8 175 
 RUS  HE ES   1    6 0 56.52                             145    0.32 7 96.8 175 
 RUS  HZ I         6 0 57.86         1.0 0.32            145           96.8 175 
 PTB  HZ EP        6 0 40.76                             133   -0.34 9  145 260 
 PTB  HE ES   1    6 1  1.77                             133   -0.16 7  145 260 
 PTB  HZ I         6 1  7.15         0.9 0.50            132            145 260 
 ZAR  HN ES   1    6 1 12.33                             122    0.28 6  204 293 
                                                                                
