 2011 12 5 0751 48.8 L   6.757 -73.059148.6  RSN  4 0.2 1.5LRSN                1
 GAP=150        0.50       3.8     5.4  6.8 -0.8070E+00 -0.1067E+01  0.1161E+01E
 Epicentro: LOS SANTOS - SANTANDER                                             3
 ACTION:UPD 12-07-13 16:14 OP:ep   STATUS:               ID:20111205075148 L   I
 2011-12-05-0750-00M.COL___183                                                 6
 STAT SP IPHASW D HRMM SECON CODA AMPLIT PERI AZIMU VELO AIN AR TRES W  DIS CAZ7
 BAR2 SZ EP   1    752  8.45                             171   -0.31 7 22.7 217 
 BAR2 SZ I         752 25.69        11.8 0.65                          22.7 217 
 PAM  SZ EP   1    752 11.50                             152    0.28 7 75.7  32 
 PAM  SN ES   1    752 28.60                             152   -0.11 7 75.7  32 
 BRR  HZ EP   1    752 10.65                             150   -0.23 7 81.8 298 
 BRR  HN ES   1    752 28.29                             150    0.19 7 81.8 298 
 BRR  HZ I         752 30.27         3.6 0.17                          81.8 298 
 RUS  HZ EP   2    752 12.86                             146    0.38 5 95.6 182 
 RUS  HE ES   1    752 30.97                             146    0.01 7 95.6 182 
                                                                                
