 2017  8 5 0755 10.2 L   6.777 -73.449110.0  RSN  5 0.6 0.9LRSN                1
 GAP=163        1.48       8.9     7.9 10.9  0.4400E+02  0.2901E+02  0.1453E+02E
 Epicentro: EL CARMEN - SANTANDER                                              3
 ACTION:UPD 17-09-04 20:16 OP:rebc STATUS:               ID:20170805075510 L   I
 OLDACT:REG 17-08-05 13:20 OP:osc  STATUS:               ID:20170805074742     3
 2017-08-05-0748-00M.COL___390                                                 6
 STAT SP IPHASW D HRMM SECON CODA AMPLIT PERI AZIMU VELO AIN AR TRES W  DIS CAZ7
 BAR2 EZ EP        755 25.66                             161   -0.2810 35.8 125 
 BAR2 EZ ES        755 38.16                             161   -0.0810 35.8 125 
 BRR  HZ EP        755 25.40                             155   -0.6910 46.7 321 
 BRR  HE ES        755 38.58                             155    0.0810 46.7 321 
 BRR  HN ES        755 38.76                             155           46.7 321 
 BRR  HZ I         755 40.23         2.6 0.20            157           46.7 321 
 RUS  HZ EP        755 31.03                             133   -0.0410  106 158 
 RUS  HN ES        755 48.19                             133    0.8310  106 158 
 RUS  HZ I         755 52.14         1.2 0.34            134            106 158 
 PTB  HZ EP        755 30.46                             130   -0.7510  114 257 
 PTB  HN ES        755 47.17                             130   -0.4510  114 257 
 PTB  HZ I         755 51.98         1.2 0.26            129            114 257 
 ZAR  HZ EP        755 38.04                             117    0.71 9  175 297 
 ZAR  HN ES        755 59.47                             117    0.96 9  175 297 
 ZAR  HZ I         756  2.48         1.7 0.28            119            175 297 
                                                                                
