 2015  6 5 0908 17.4 L   6.872 -73.037144.3  RSN  8 0.3 1.6LRSN                1
 GAP=194        0.80       2.7     4.9  4.9  0.2756E+01  0.5144E+01 -0.8460E+00E
 Epicentro: PIEDECUESTA - SANTANDER                                            3
 ACTION:UPD 15-09-10 22:09 OP:cam  STATUS:               ID:20150605090817 L   I
 OLDACT:REG 15-06-05 14:00 OP:ak   STATUS:               ID:20150605085749     3
 2015-06-05-0857-49M.COL___294                                                 6
 STAT SP IPHASW D HRMM SECON CODA AMPLIT PERI AZIMU VELO AIN AR TRES W  DIS CAZ7
 BAR2 EZ EP        9 8 37.36                             166    0.2410 34.9 207 
 BAR2 EZ ES        9 8 52.37                             166   -0.1510 34.9 207 
 BAR2 EZ I         9 8 54.02         5.9 0.24            166           34.9 207 
 BRR  HZ EP        9 8 39.09                             150    0.2710 79.0 289 
 BRR  HE ES        9 8 56.05                             150    0.5010 79.0 289 
 BRR  HZ I         9 9  1.50         6.7 0.16            148           79.0 289 
 RUS  HZ EP        9 8 41.28                             141   -0.2810  108 183 
 RUS  HN ES        9 9  0.21                             141   -0.2210  108 183 
 RUS  HZ I         9 9  1.54         2.3 0.32            145            108 183 
 OCA  HZ EP   1    9 8 45.03                             130    0.02 7  154 348 
 OCA  HN ES        9 9  6.56                             130   -0.01 9  154 348 
 OCA  HZ I         9 9 13.64         6.0 0.38            131            154 348 
 ZAR  HZ EP        9 8 50.30                             121   -0.30 8  213 289 
 ZAR  HE ES        9 9 15.82                             121   -0.70 8  213 289 
 ZAR  HZ I         9 9 21.83         4.0 0.16            121            213 289 
 SML  HZ EP        9 8 54.01                             117    0.29 8  242 332 
 SML  HN ES        9 9 21.88                             117   -0.19 8  242 332 
 SML  HZ I         9 9 25.98         5.1 0.10            118            242 332 
 GUY2CHZ EP        9 9  3.05                             111    0.50 7  316 235 
 GUY2CHE ES        9 9 38.17                             111    0.39 7  316 235 
 GUY2CHZ I         9 9 44.04         2.2 0.34                           316 235 
 PRA  HZ EP        9 9 11.90                             106   -0.46 6  405 211 
 PRA  HN ES   4    9 9 52.55                             106   -2.69 0  405 211 
 PRA  HZ I         910  1.82         1.7 0.50            107            405 211 
                                                                                
