 2015  3 5 0445 12.2 L   6.747 -73.123150.4  RSN  6 0.4 1.0LRSN                1
 GAP=142        0.92       5.1     5.6  8.0 -0.1061E+02  0.3354E+01  0.2744E+01E
 Epicentro: LOS SANTOS - SANTANDER                                             3
 ACTION:UPD 15-04-30 16:23 OP:nd   STATUS:               ID:20150305044512 L   I
 OLDACT:REG 15-03-05 13:36 OP:spq  STATUS:               ID:20150305043747     3
 2015-03-05-0437-47M.COL___284                                                 6
 STAT SP IPHASW D HRMM SECON CODA AMPLIT PERI AZIMU VELO AIN AR TRES W  DIS CAZ7
 BAR2 EZ ES   1    445 47.61                             173   -0.39 7 18.4 201 
 BAR2 EZ I         445 51.28         1.9 0.44            170           18.4 201 
 BRR  HZ EP        445 34.25                             151    0.0810 76.3 301 
 BRR  HN ES        445 51.91                             151    0.6310 76.3 301 
 BRR  HZ I         445 52.77         2.3 0.16            152           76.3 301 
 PAM  SZ EP        445 35.15                             151    0.0310 80.5  35 
 PAM  SN ES        445 52.69                             151   -0.2810 80.5  35 
 PAM  SZ I         445 53.44         1.9 0.22            155           80.5  35 
 RUS  HZ EP   1    445 36.46                             146    0.43 7 94.6 177 
 RUS  HE ES   1    445 54.49                             146   -0.10 7 94.6 177 
 RUS  HZ I         445 57.16         0.8 0.28            147           94.6 177 
 PTB  HZ EP   1    445 39.11                             133   -0.60 7  149 261 
 PTB  HN ES   1    446  0.45                             133   -0.70 7  149 261 
 PTB  HZ I         446  6.05         1.9 0.54            134            149 261 
 SPBC HN ES        446  3.37                             131    0.24 9  160 221 
 SPBC HZ I         446  5.43         1.7 0.46            132            160 221 
                                                                                
