 2013 10 5 0154  2.7 L   6.830 -73.147149.1  RSN  5 0.5 1.7LRSN                1
 GAP=213        1.33       6.1    10.2  9.6 -0.5234E+01  0.6651E+01 -0.1061E+02E
 Epicentro: LOS SANTOS - SANTANDER                                             3
 ACTION:UPD 13-11-25 09:19 OP:ep   STATUS:               ID:20131005015402 L   I
 OLDACT:DUP 13-10-05 09:38 OP:nd   STATUS:               ID:20131005014960d    3
 2013-10-05-0149-59M.COL___273                                                 6
 STAT SP IPHASW D HRMM SECON CODA AMPLIT PERI AZIMU VELO AIN AR TRES W  DIS CAZ7
 BAR2 SZ EP        154 22.71                             169   -0.1010 26.6 188 
 BAR2 SZ ES        154 37.86                             169   -0.6310 26.6 188 
 BAR2 SZ I         154 40.70         9.6 0.36            168           26.6 188 
 BRR  HZ EP        154 24.57                             154    0.4410 69.5 296 
 BRR  HN ES        154 41.74                             154    0.9010 69.5 296 
 BRR  HZ I         154 44.62         7.9 0.38            150           69.5 296 
 PTB  HZ EP        154 29.79                             133   -0.21 9  148 258 
 PTB  HN ES        154 50.43                             133   -0.85 9  148 258 
 PTB  HZ I         154 56.63         6.6 0.26            132            148 258 
 SPBC HZ EP        154 31.69                             129   -0.01 9  166 218 
 SPBC HN ES        154 54.94                             129    0.62 9  166 218 
 SPBC HZ I         154 58.74         5.9 0.24            130            166 218 
 SML  HZ EP        154 39.28                             118    0.08 8  241 335 
 SML  HN ES        155  7.28                             118   -0.37 8  241 335 
 SML  HZ I         155 11.55         6.1 0.10            120            241 335 
                                                                                
