 2011  3 5 0908 45.1 L   6.826 -73.098134.9  RSN 11 0.5 2.3LRSN                1
 GAP=140        0.93       3.3     7.6  7.4 -0.6723E+01  0.1498E+02 -0.1061E+01E
 Epicentro: LOS SANTOS - SANTANDER                                             3
 ACTION:UP  11-06-16 14:31 OP:jfem STATUS:               ID:20110305090845 L   I
 2011-03-05-0906-37S.COL___135                                                 6
 STAT SP IPHASW D HRMM SECON CODA AMPLIT PERI AZIMU VELO SNR AR TRES W  DIS CAZ7
 BAR2 SZ IP        9 9  3.87                             168     0.410   28 200 
 BAR2 SZ I         9 9  4.45        43.3 0.12                            28 200 
 BAR2 SZ ES   1    9 9 17.13                             168    -0.7 7   28 200 
 RUS  HZ EP        9 9  7.91                             141     0.010  103 179 
 RUS  HN ES   1    9 9 26.23                             141     0.4 7  103 179 
 GUE  SZ EP        9 9  8.98                             138     0.510  113  10 
 GRA  SZ EP        9 9  8.67                             135    -0.310  122  16 
 GRA  SZ ES   2    9 9 27.44                             135    -0.2 5  122  16 
 GRA  SZ I         9 9 32.72        18.8 0.31                           122  16 
 OCA  SZ EP        9 9 11.96                             127    -0.4 9  158 351 
 OCA  SZ ES   1    9 9 33.77                             127     0.2 7  158 351 
 OCA  SZ I         9 9 38.56        38.5 0.23                           158 351 
 YOP  SZ EP   1    9 9 14.62                             124     0.2 7  179 155 
 YOP  SN ES   3    9 9 37.79                             124     0.5 2  179 155 
 YOP  SZ I         9 9 40.99        18.5 0.45                           179 155 
 CHI  HZ EP        9 9 22.24                             114    -0.4 8  253 196 
 CHI  HE ES   2    9 9 52.00                             114     0.0 4  253 196 
 CHI  HZ I         9 9 54.75        14.9 0.31                           253 196 
 HEL  HZ EP   1    9 9 26.21                             112     0.8 6  278 255 
 HEL  HE ES   2    9 9 56.92                             112     0.1 4  278 255 
 HEL  HZ I         910  4.25        15.4 0.33                           278 255 
 RREF HZ EP   2    9 9 31.55                             108     0.1 3  328 230 
 RREF HN ES   2    910  8.12                             108     0.5 3  328 230 
 DBB  SZ EP   3    9 9 32.29                             107    -0.4 2  344 274 
 PRA  HZ EP   1    9 9 37.60                             104    -1.2 4  397 210 
 PRA  HE ES   2    910 19.99                             104    -0.8 3  397 210 
                                                                                
