 2017 10 5 0335 38.2 L   6.735 -72.975142.2  RSN  5 0.5 1.3LRSN                1
 GAP=163        0.99       7.1    16.1  7.3 -0.8554E+02  0.1501E+02  0.6582E+01E
 Epicentro: CEPITA - SANTANDER                                                 3
 ACTION:UPD 17-11-07 19:28 OP:rebc STATUS:               ID:20171005033538 L   I
 OLDACT:REG 17-10-05 12:36 OP:osc  STATUS:               ID:20171005032740     3
 2017-10-05-0328-00M.COL___438                                                 6
 STAT SP IPHASW D HRMM SECON CODA AMPLIT PERI AZIMU VELO AIN AR TRES W  DIS CAZ7
 BAR2 EZ EP        335 56.97                             168   -0.4910 27.9 236 
 BAR2 EZ ES        336 12.37                             168   -0.1410 27.9 236 
 PAM  EZ EP        335 59.79                             152    0.0310 73.4  24 
 PAM  EN ES        336 16.86                             152    0.2610 73.4  24 
 PAM  EZ I         336 19.22         5.8 0.58            153           73.4  24 
 RUS  HZ EP        336  0.83                             145   -0.2510 93.9 187 
 RUS  HN ES        336 19.05                             145    0.1010 93.9 187 
 RUS  HZ I         336 21.24         2.4 0.20            144           93.9 187 
 SPBC HZ EP        336  7.87                             127    0.77 9  171 225 
 SPBC HE ES   3    336 28.50                             127   -1.17 2  171 225 
 SPBC HZ I         336 29.79         3.7 0.18            128            171 225 
 CHI  HZ EP        336 14.89                             117   -0.64 8  247 200 
 CHI  HN ES        336 45.19                             117    0.51 8  247 200 
 CHI  HZ I         336 50.15         1.2 0.28            117            247 200 
                                                                                
