 2017  1 5 0623  1.6 L   6.797 -73.169146.0  RSN  4 0.5 1.0LRSN                1
 GAP=235        1.21       7.4     9.9 10.8  0.3386E+02 -0.2862E+01  0.1758E+02E
 Epicentro: LOS SANTOS - SANTANDER                                             3
 ACTION:UPD 17-05-22 15:55 OP:jn   STATUS:               ID:20170105062301 L   I
 OLDACT:DUP 17-01-05 15:46 OP:lv   STATUS:               ID:20170105061742d    3
 2017-01-05-0618-00M.COL___368                                                 6
 STAT SP IPHASW D HRMM SECON CODA AMPLIT PERI AZIMU VELO AIN AR TRES W  DIS CAZ7
 BRR  HZ EP        623 22.15                             153   -0.5310 69.1 300 
 BRR  HE ES        623 39.85                             153    0.7410 69.1 300 
 RUS  HZ EP        623 25.66                             144    0.2710  100 175 
 RUS  HE ES        623 43.41                             144   -0.5210  100 175 
 RUS  HZ I         623 45.65         1.5 0.32            144            100 175 
 PTB  HZ EP        623 27.95                             133   -0.43 9  145 259 
 PTB  HE ES        623 49.03                             133   -0.22 9  145 259 
 PTB  HZ I         623 51.51         1.2 0.17            133            145 259 
 CHI  HZ EP        623 39.86                             117    0.63 8  248 195 
 CHI  HN ES        624  8.90                             117    0.34 8  248 195 
                                                                                
