 2014 10 5 0104 18.1 L   6.779 -73.162141.9  RSN  7 0.4 1.8LRSN                1
 GAP= 73        1.18       4.5     5.3  7.4 -0.8257E+00 -0.2579E+01 -0.2012E+01E
 Epicentro: LOS SANTOS - SANTANDER                                             3
 ACTION:UPD 14-11-29 23:46 OP:nd   STATUS:               ID:20141005010418 L   I
 OLDACT:REG 14-10-05 14:26 OP:stll STATUS:               ID:20141005005748     3
 2014-10-05-0057-48M.COL___286                                                 6
 STAT SP IPHASW D HRMM SECON CODA AMPLIT PERI AZIMU VELO AIN AR TRES W  DIS CAZ7
 BAR2 SZ EP        1 4 37.37                             171    0.1310 20.8 186 
 BAR2 SZ ES        1 4 51.93                             171   -0.2210 20.8 186 
 BAR2 SZ I         1 4 53.53        13.3 0.18            174           20.8 186 
 BRR  HZ EP        1 4 39.25                             152    0.4210 70.8 301 
 BRR  HZ I         1 4 39.54        17.9 0.26            151           70.8 301 
 BRR  HN ES        1 4 55.92                             152    0.9310 70.8 301 
 PAM  SZ EP        1 4 40.33                             149    0.2210 80.3  39 
 PAM  SN ES        1 4 57.28                             149    0.0210 80.3  39 
 PAM  SZ I         1 4 59.45        11.8 0.66            149           80.3  39 
 RUS  HZ EP        1 4 41.80                             144    0.4710 98.4 175 
 RUS  HN ES        1 4 58.85                             144   -0.5910 98.4 175 
 RUS  HZ I         1 5  0.59         4.9 0.22            147           98.4 175 
 PTB  HZ EP        1 4 44.41                             132   -0.16 9  146 260 
 PTB  HN ES        1 5  4.76                             132   -0.45 9  146 260 
 PTB  HZ I         1 5  7.85         6.8 0.10            133            146 260 
 TAM  HZ EP        1 4 45.70                             129    0.10 9  156 104 
 TAM  HZ I         1 4 45.83        12.9 0.20            132            156 104 
 OCA  HZ EP        1 4 45.88                             128   -0.45 9  162 354 
 OCA  HN ES        1 5  7.68                             128   -0.66 9  162 354 
 OCA  HZ I         1 5 15.24         6.0 0.30            128            162 354 
                                                                                
