 2012  5 5 0715 32.1 L   6.856 -73.267123.3  RSN  8 0.3 1.7LRSN                1
 GAP=113        0.70       3.7     3.4  5.6  0.5700E-01  0.6223E+01 -0.2297E+01E
 Epicentro: ZAPATOCA - SANTANDER                                               3
 ACTION:UP  12-07-05 12:02 OP:pat  STATUS:               ID:20120505071532 L   I
 2012-05-05-0710-00M.COL___192                                                 6
 STAT SP IPHASW D HRMM SECON CODA AMPLIT PERI AZIMU VELO SNR AR TRES W  DIS CAZ7
 BAR2 SZ EP   1    715 49.29                             165     0.0 7   31 162 
 BAR2 SZ I         715 49.54        39.3 0.13                            31 162 
 BAR2 SZ ES   1    716  2.97                             165     0.4 7   31 162 
 BRR  HZ EP   1    715 49.77                             154    -0.2 7   56 300 
 BRR  HE ES   1    716  3.79                             154    -0.2 7   56 300 
 BRR  HZ I         716  4.84        17.4 0.19                            56 300 
 PAM  SZ EP   1    715 52.84                             144     0.5 7   82  50 
 PAM  SE ES   1    716  7.98                             144    -0.1 7   82  50 
 RUS  HZ EP   1    715 54.09                             136    -0.3 7  108 169 
 RUS  HE ES   1    716 11.63                             136    -0.1 7  108 169 
 RUS  HZ I         716 13.81         2.8 0.64                           108 169 
 PTB  HZ EP   1    715 56.04                             129    -0.2 7  136 255 
 PTB  HZ I         715 57.32         4.9 0.10                           136 255 
 PTB  HN ES   1    716 14.92                             129    -0.1 7  136 255 
 ZAR  HZ EP   1    716  1.02                             119    -0.6 7  189 292 
 ZAR  HN ES   1    716 24.86                             119     0.2 7  189 292 
 ZAR  HZ I         716 27.71         7.3 0.20                           189 292 
 HEL  HZ EP   1    716 10.71                             111     0.7 6  261 254 
 HEL  HE ES   2    716 40.04                             111     0.5 4  261 254 
 HEL  HZ I         716 43.82         3.5 0.30                           261 254 
 COD  HZ EP   2    716 18.90                             105     0.0 3  341 357 
 COD  HN ES   2    716 55.35                             105     0.0 3  341 357 
                                                                                
