 2014 11 5 0852 21.0 L   6.824 -73.160142.2  RSN  7 0.3 1.8LRSN                1
 GAP=134        0.82       3.0     4.1  6.4 -0.6025E+01  0.9992E+01 -0.9794E+00E
 Epicentro: LOS SANTOS - SANTANDER                                             3
 ACTION:UPD 14-12-19 15:39 OP:nd   STATUS:               ID:20141105085221 L   I
 OLDACT:REG 14-11-05 13:29 OP:cam  STATUS:               ID:20141105084812     3
 2014-11-05-0848-12M.COL___265                                                 6
 STAT SP IPHASW D HRMM SECON CODA AMPLIT PERI AZIMU VELO AIN AR TRES W  DIS CAZ7
 PAM  SZ EP        852 43.19                             150    0.3910 76.4  42 
 PAM  SN ES        852 59.87                             150    0.0910 76.4  42 
 PAM  SZ I         853  2.78        10.9 0.44            156           76.4  42 
 RUS  HZ EP        852 44.39                             142   -0.2410  103 175 
 RUS  HN ES        853  3.16                             142    0.1210  103 175 
 RUS  HZ I         853  6.01         3.7 0.24            150            103 175 
 PTB  HZ EP        852 47.32                             131   -0.29 9  147 258 
 PTB  HN ES        853  8.09                             131   -0.26 9  147 258 
 PTB  HZ I         853 15.60        15.2 0.38            134            147 258 
 OCA  HZ EP        852 48.52                             129   -0.27 9  157 354 
 OCA  HN ES        853 10.52                             129    0.07 9  157 354 
 OCA  HZ I         853 18.42         6.5 0.16            133            157 354 
 SPBC HZ EP        852 49.31                             128   -0.05 9  164 218 
 SPBC HN ES        853 10.87                             128   -0.59 9  164 218 
 SPBC HZ I         853 16.02        10.4 0.16            133            164 218 
 NOR  HZ EP        852 56.53                             118   -0.05 8  235 234 
 NOR  HE ES        853 25.10                             118    0.79 8  235 234 
 NOR  HZ I         853 30.51         6.5 0.16            122            235 234 
 HEL  HZ EP   4    853  2.67                             114    1.71 0  271 255 
 GUY2CHZ EP        853  4.69                             112    0.19 7  301 234 
 GUY2CHE ES        853 38.87                             112    0.46 7  301 234 
 GUY2CHZ I         853 49.22         4.4 0.50                           301 234 
                                                                                
