 2017 10 5 0233  9.5 L   6.838 -73.142145.5  RSN  4 0.2 1.4LRSN                1
 GAP=302        0.59       6.6     5.6  5.7 -0.1756E+02  0.1383E+02 -0.5821E+01E
 Epicentro: LOS SANTOS - SANTANDER                                             3
 ACTION:UPD 17-11-07 19:28 OP:rebc STATUS:               ID:20171005023309 L   I
 OLDACT:DUP 17-10-05 14:47 OP:osc  STATUS:               ID:20171005022738d    3
 2017-10-05-0228-00M.COL___438                                                 6
 STAT SP IPHASW D HRMM SECON CODA AMPLIT PERI AZIMU VELO AIN AR TRES W  DIS CAZ7
 BAR2 EZ EP        233 29.50                             169    0.2710 27.6 189 
 BAR2 EZ ES        233 44.41                             169   -0.1810 27.6 189 
 RUS  HZ EP        233 33.40                             143   -0.1710  105 176 
 RUS  HN ES        233 52.25                             143   -0.0610  105 176 
 SPBC HZ EP        233 38.38                             128    0.02 9  167 218 
 SPBC HE ES        234  1.19                             128    0.36 9  167 218 
 SPBC HZ I         234  7.07         2.5 0.11            127            167 218 
 GUY2CHE ES        234 27.36                             112   -0.34 7  304 234 
                                                                                
