 2015  4 5 0020 26.2 L   6.756 -73.130151.5  RSN  7 0.5 1.8LRSN                1
 GAP=236        1.22       6.2     6.8  8.0  0.1257E+02  0.1130E+02  0.2901E+00E
 Epicentro: LOS SANTOS - SANTANDER                                             3
 ACTION:UPD 15-06-03 16:52 OP:cam  STATUS:               ID:20150405002026 L   I
 OLDACT:UP  15-04-05 14:43 OP:mh   STATUS:               ID:20150405001748     3
 OLDACT:UP  15-04-05 14:42 OP:mh   STATUS:               ID:20150405001748     3
 OLDACT:UP  15-04-05 14:42 OP:mh   STATUS:               ID:20150405001748     3
 OLDACT:REG 15-04-05 12:08 OP:mh   STATUS:               ID:20150405001748     3
 2015-04-05-0017-48M.COL___282                                                 6
 STAT SP IPHASW D HRMM SECON CODA AMPLIT PERI AZIMU VELO AIN AR TRES W  DIS CAZ7
 BAR2 EZ EP        020 46.89                             173    0.4610 19.0 198 
 BAR2 EZ ES        021  2.10                             173   -0.1110 19.0 198 
 BAR2 EZ I         021  3.65         4.8 0.36            157           19.0 198 
 BRR  HZ EP        020 47.70                             152   -0.4710 75.1 301 
 BRR  HN ES        021  5.95                             152    0.6310 75.1 301 
 BRR  HZ I         021 10.12         4.3 0.30            146           75.1 301 
 RUS  HZ EP        020 50.44                             146    0.2810 95.6 177 
 RUS  HE ES        021  8.59                             146   -0.2710 95.6 177 
 RUS  HZ I         021 11.51        29.7 0.04            140           95.6 177 
 PTB  HZ EP        020 53.84                             133    0.14 9  149 261 
 PTB  HN ES        021 14.59                             133   -0.57 9  149 261 
 SPBC HZ EP        020 53.89                             131   -0.99 9  161 221 
 SPBC HN ES        021 17.46                             131    0.19 9  161 221 
 SPBC HZ I         021 40.43        22.4 0.22            126            161 221 
 ZAR  HZ EP        020 59.72                             123    0.36 8  207 293 
 ZAR  HN ES        021 24.79                             123   -0.45 8  207 293 
 ZAR  HZ I         021 31.45         4.9 0.31            122            207 293 
 NOR  HZ EP   1    021  2.81                             120    0.70 6  233 236 
 NOR  HN ES   1    021 30.99                             120    0.87 6  233 236 
 NOR  HZ I         021 36.41         3.1 0.34            117            233 236 
                                                                                
