 2017 10 5 0350 10.9 L   5.816 -73.697123.3  RSN  6 0.3 1.1LRSN                1
 GAP=136        0.77       3.7     3.2  7.2 -0.4970E+01  0.6121E+01  0.1170E+01E
 Epicentro: PUENTE NACIONAL - SANTANDER                                        3
 ACTION:UPD 17-11-07 19:28 OP:rebc STATUS:               ID:20171005035010 L   I
 OLDACT:REG 17-10-05 12:44 OP:osc  STATUS:               ID:20171005034741     3
 2017-10-05-0348-00M.COL___438                                                 6
 STAT SP IPHASW D HRMM SECON CODA AMPLIT PERI AZIMU VELO AIN AR TRES W  DIS CAZ7
 SPBC HE ES   2    350 41.95                             159   -0.07 5 45.4 247 
 RUS  HZ EP        350 29.79                             149   -0.4210 68.4  83 
 RUS  HN ES        350 45.37                             149    0.1010 68.4  83 
 BAR2 EZ EP        350 32.91                             138    0.5410  103  34 
 BAR2 EZ ES        350 48.99                             138   -0.1210  103  34 
 CHI  HZ EP        350 35.19                             130    0.1010  131 182 
 CHI  HE ES        350 54.00                             130    0.0410  131 182 
 CHI  HZ I         350 57.99         1.6 0.28            130            131 182 
 NOR  HZ EP        350 34.30                             130   -0.4610  133 258 
 NOR  HE ES        350 53.32                             130   -0.0510  133 258 
 NOR  HZ I         350 54.61         2.2 0.16            131            133 258 
 GUY2CHE ES        351  6.14                             118    0.35 9  196 251 
                                                                                
