 2012 11 5 0607 31.6 L   6.787 -73.132140.1  RSN  5 0.1 1.7LRSN 2.6WRSN        1
 SPEC AVERAGE  MO 13.0 ST  2.4 OM  1.9 f0 5.67 R0.2595 AL 2.64 WI 19.2 MW  2.6 3
 SPEC SD       MO  0.2 ST0.909 OM  1.1 f00.180 R0.0082 AL      WI      MW  0.1 3
 GAP=139        0.33       2.2     4.1  3.1 -0.3684E+01  0.3968E+01 -0.9262E+00E
 Epicentro: LOS SANTOS - SANTANDER                                             3
 SPEC PAM SH Z MO 12.7 ST  1.5 OM  0.4 f0 5.85 R0.2513 AL 1.54 WI 14.4 MW  2.4 3
 SPEC PAM SH Z T 6 753 K 0.000 GD  160 VP 7.60 DE 3.00 Q0230.0 QA 0.60 VS 4.20 3
 SPEC BRR HH N MO 13.2 ST  3.4 OM  1.6 f0 5.49 R0.2678 AL 3.75 WI 24.0 MW  2.7 3
 SPEC BRR HH N T 6 8 8 K 0.000 GD  158 VS 4.20 DE 3.00 Q0230.0 QA 0.60 VS 4.20 3
 ACTION:UPD 12-12-05 15:31 OP:}ep  STATUS:               ID:20121105060731 L   I
 2012-11-05-0600-00M.COL___230                                                 6
 STAT SP IPHASW D HRMM SECON CODA AMPLIT PERI AZIMU VELO AIN AR TRES W  DIS CAZ7
 BAR2 SZ EP        6 7 50.38                             171   -0.1710 22.2 195 
 BAR2 SZ ES        6 8  5.32                             171    0.0010 22.2 195 
 BAR2 SZ I         6 8  6.15         9.6 0.30                          22.2 195 
 GIR2 SZ EP   2    6 7 50.54                             166   -0.14 5 33.0 348 
 BRR  HZ EP        6 7 52.37                             151    0.0810 73.2 299 
 BRR  HN I         6 8 13.28        26.3 0.22                          73.2 299 
 PAM  SZ EP        6 7 53.33                             150    0.0810 77.6  38 
 PAM  SE ES        6 8 10.11                             150   -0.0110 77.6  38 
 PAM  SE I         6 8 11.40         7.7 0.32                          77.6  38 
 RUS  HZ EP        6 7 54.73                             143    0.0210 99.0 177 
 RUS  HN ES   1    6 8 12.80                             143    0.08 7 99.0 177 
 RUS  HN I         6 8 14.39         7.3 0.26                          99.0 177 
                                                                                
