 2015  1 5 0435 20.7 L   6.762 -73.210149.3  RSN  4 0.3 1.5LRSN                1
 GAP=273        0.85       5.1     8.5  8.2  0.3359E+01 -0.1585E+02  0.3468E+01E
 Epicentro: ZAPATOCA - SANTANDER                                               3
 ACTION:UPD 15-03-02 15:36 OP:nd   STATUS:               ID:20150105043520 L   I
 OLDACT:REG 15-01-05 14:16 OP:cam  STATUS:               ID:20150105042815     3
 2015-01-05-0428-15M.COL___277                                                 6
 STAT SP IPHASW D HRMM SECON CODA AMPLIT PERI AZIMU VELO AIN AR TRES W  DIS CAZ7
 BRR  HZ EP        435 41.52                             154   -0.5210 67.3 305 
 BRR  HN ES        435 58.97                             154    0.3010 67.3 305 
 BRR  HZ I         435 60.00         4.3 0.32            147           67.3 305 
 PTB  HZ EP        435 47.05                             134   -0.23 9  140 260 
 PTB  HN ES        436  7.66                             134   -0.35 9  140 260 
 PTB  HZ I         436 13.97         2.9 0.32            129            140 260 
 SPBC HZ EP        435 48.97                             131    0.20 9  155 218 
 SPBC HN ES        436 10.82                             131    0.17 9  155 218 
 SPBC HZ I         436 16.95         3.7 0.40            127            155 218 
 ZAR  HZ EP        435 53.45                             124    0.56 9  199 294 
 ZAR  HN ES        436 18.02                             124    0.03 9  199 294 
 ZAR  HZ I         436 24.57         3.6 0.40            121            199 294 
                                                                                
