 2015  8 5 0501 23.1 L   6.796 -73.148146.7  RSN  6 0.4 1.6LRSN                1
 GAP=200        1.05       4.5     7.9  8.7  0.1293E+02  0.1983E+02  0.3492E+01E
 Epicentro: LOS SANTOS - SANTANDER                                             3
 ACTION:UPD 15-09-15 23:00 OP:cam  STATUS:               ID:20150805050123 L   I
 OLDACT:REG 15-08-05 14:20 OP:mh   STATUS:               ID:20150805045749     3
 2015-08-05-0457-49M.COL___346                                                 6
 STAT SP IPHASW D HRMM SECON CODA AMPLIT PERI AZIMU VELO AIN AR TRES W  DIS CAZ7
 BAR2 EZ EP   1    5 1 42.60                             171   -0.27 7 22.9 189 
 BAR2 EZ ES        5 1 57.78                             171   -0.4810 22.9 189 
 BAR2 EZ I         5 1 58.98         8.0 0.12            163           22.9 189 
 BRR  HZ EP        5 1 44.26                             153   -0.1210 71.1 299 
 BRR  HN ES        5 2  1.66                             153    0.7110 71.1 299 
 BRR  HZ I         5 2 21.46         7.0 0.32            146           71.1 299 
 RUS  HZ EP        5 1 47.62                             144    0.6710  100 176 
 RUS  HN ES        5 2  5.36                             144   -0.1710  100 176 
 RUS  HZ I         5 2  6.94         6.1 0.38            149            100 176 
 SML  HE ES        5 2 28.07                             117   -0.40 8  244 335 
 SML  HZ I         5 2 30.86         5.1 0.30            121            244 335 
 CHI  HN ES        5 2 30.11                             117   -0.13 8  248 195 
 CHI  HZ I         5 2 33.78         1.7 0.52            122            248 195 
 HEL  HZ EP   4    5 2  5.30                             115    1.94 0  272 256 
 HEL  HN ES        5 2 34.52                             115   -0.21 8  272 256 
 HEL  HZ I         5 2 42.11         1.8 0.30            117            272 256 
                                                                                
