 2015  5 5 0945 54.0 L   6.786 -73.112141.1  RSN 12 0.4 1.8LRSN                1
 GAP=142        0.97       2.5     4.5  5.4 -0.5662E+00  0.4251E+01 -0.9460E+00E
 Epicentro: LOS SANTOS - SANTANDER                                             3
 ACTION:UPD 15-09-10 22:01 OP:cam  STATUS:               ID:20150505094554 L   I
 OLDACT:UP  15-05-05 17:09 OP:mh   STATUS:               ID:20150505093747     3
 OLDACT:REG 15-05-05 13:38 OP:drio STATUS:               ID:20150505093747     3
 2015-05-05-0937-47M.COL___271                                                 6
 STAT SP IPHASW D HRMM SECON CODA AMPLIT PERI AZIMU VELO AIN AR TRES W  DIS CAZ7
 BAR2 EZ IP     C  946 13.02                             171   -0.0410 22.8 200 
 BAR2 EZ ES        946 27.59                             171   -0.3310 22.8 200 
 BAR2 EZ I         946 30.84        11.3 0.22            164           22.8 200 
 BRR  HZ EP        946 14.27                             151   -0.6210 75.2 298 
 BRR  HE ES        946 32.07                             151    0.9010 75.2 298 
 PAM  SZ EP        946 15.84                             150    0.1810 76.3  37 
 RUS  HZ EP        946 17.26                             143    0.0910 98.8 178 
 RUS  HN ES        946 35.55                             143    0.3110 98.8 178 
 RUS  HZ I         946 37.19         5.8 0.36            138           98.8 178 
 OCA  HZ EP        946 22.17                             128    0.02 9  162 352 
 OCA  HN ES        946 44.29                             128    0.19 9  162 352 
 OCA  HZ I         946 47.86        10.9 0.36            123            162 352 
 SPBC HZ EP        946 22.18                             128   -0.08 9  164 220 
 SPBC HN ES        946 43.84                             128   -0.46 9  164 220 
 SPBC HZ I         946 46.46        13.0 0.14            121            164 220 
 ZAR  HZ EP        946 26.19                             121   -0.38 8  208 292 
 ZAR  HN ES        946 51.48                             121   -0.49 8  208 292 
 ZAR  HZ I         946 56.87         9.1 0.50            115            208 292 
 NOR  HN ES        946 57.42                             117   -0.12 8  237 235 
 SML  HZ EP        946 30.70                             116    0.00 8  247 335 
 SML  HN ES        946 59.14                             116   -0.18 8  247 335 
 SML  HZ I         947  2.00         7.0 0.10            111            247 335 
 CHI  HZ EP        946 31.42                             116    0.03 8  248 196 
 CHI  HN ES        947  0.29                             116   -0.27 8  248 196 
 CHI  HZ I         947  8.41         2.3 0.50            111            248 196 
 HEL  HZ EP   1    946 35.05                             114    0.70 6  275 256 
 HEL  HZ I         947 11.87         3.7 0.48            108            275 256 
 GUY2CHZ EP   1    946 38.66                             111    1.01 5  303 235 
 GUY2CHE ES   1    947 12.44                             111    0.75 5  303 235 
 GUY2CHZ I         947 20.74         3.0 0.66                           303 235 
                                                                                
