 2010  9 5 0115 38.7 L   6.804 -73.056139.9  RSN  7 0.2 1.7LRSN                1
 GAP=169        0.61       2.9     7.6  7.9 -0.3468E+01 -0.9943E+01 -0.1145E+01E
 Epicentro: LOS SANTOS - SANTANDER                                             3
 ACTION:UP  11-02-18 11:00 OP:tino STATUS:               ID:20100905011538 L   I
 2010-09-05-0112-22S.COL___120                                                 6
 STAT SP IPHASW D HRMM SECON CODA AMPLIT PERI AZIMU VELO SNR AR TRES W  DIS CAZ7
 BAR2 SZ EP   1    115 57.78                             168     0.0 7   27 211 
 BAR2 SZ I         116 14.49        12.4 0.45                            27 211 
 BRR  HZ EP        115 59.65                             148    -0.110   80 295 
 BRR  HZ I         115 59.97        21.6 0.18                            80 295 
 BRR  HN ES   2    116 16.54                             148     0.3 5   80 295 
 RUS  HZ EP   1    116  1.77                             142    -0.2 7  101 182 
 RUS  HN ES   1    116 20.08                             142     0.0 7  101 182 
 RUS  HZ I         116 21.24         5.1 0.26                           101 182 
 GUE  SZ EP        116  2.82                             138     0.110  114   7 
 GUE  SZ I         116  4.18         3.8 0.05                           114   7 
 GRA  SZ IP        116  3.56                             136     0.410  123  13 
 GRA  SZ ES   1    116 21.93                             136    -0.4 7  123  13 
 GRA  SZ I         116 26.07         9.5 0.38                           123  13 
 OCA  SZ ES   1    116 28.40                             128    -0.1 7  161 350 
 OCA  SZ I         116 33.00         8.8 0.18                           161 350 
 CHI  HZ EP   2    116 16.16                             115    -0.3 4  252 197 
 CHI  HZ I         116 54.49         2.1 0.18                           252 197 
                                                                                
