 2014 10 5 0231  0.0 L   6.609 -74.026 67.7  RSN  5 0.5 1.1LRSN                1
 GAP=131        1.22       4.7     4.5 12.6 -0.6527E+01 -0.2596E+02  0.2762E+02E
 Epicentro: PUERTO PARRA - SANTANDER                                           3
 ACTION:UPD 14-11-29 23:46 OP:nd   STATUS:               ID:20141005023100 L   I
 OLDACT:REG 14-10-05 14:32 OP:stll STATUS:               ID:20141005022743     3
 2014-10-05-0227-43M.COL___286                                                 6
 STAT SP IPHASW D HRMM SECON CODA AMPLIT PERI AZIMU VELO AIN AR TRES W  DIS CAZ7
 PTB  HZ EP        231 11.13                             141   -0.5010 48.2 261 
 PTB  HN ES        231 20.27                             141   -0.3910 48.2 261 
 PTB  HZ I         231 20.98         6.4 0.32            148           48.2 261 
 BRR  HZ EP        231 13.09                             131    0.0310 65.1  32 
 BRR  HN ES        231 23.99                             131    0.7810 65.1  32 
 BRR  HZ I         231 25.41         8.6 0.48            137           65.1  32 
 BAR2 SZ EP        231 16.37                             120    0.1510 93.3  91 
 BAR2 SZ ES        231 28.24                             120   -0.6010 93.3  91 
 BAR2 SZ I         231 30.19         3.9 0.22            124           93.3  91 
 SPBC HZ EP        231 17.73                             116    0.3210  106 183 
 SPBC HE ES        231 31.65                             116    0.7010  106 183 
 SPBC HZ I         231 33.41         5.1 0.20            121            106 183 
 RUS  HZ EP        231 20.47                             111   -0.2910  131 127 
 RUS  HE ES        231 36.71                             111   -0.2110  131 127 
 RUS  HZ I         231 39.29         0.8 0.38            115            131 127 
                                                                                
