 2015 12 5 0159 55.0 L   6.820 -73.149148.9  RSN 16 0.4 2.3LRSN                1
 GAP=135        0.94       2.6     3.5  4.6 -0.1280E+01  0.5206E+01  0.1078E+01E
 Epicentro: LOS SANTOS - SANTANDER                                             3
 ACTION:UPD 16-02-04 15:02 OP:cam  STATUS:               ID:20151205015955 L   I
 OLDACT:UP  15-12-05 14:35 OP:mh   STATUS:               ID:20151205015750     3
 OLDACT:UP  15-12-05 14:35 OP:mh   STATUS:               ID:20151205015750     3
 OLDACT:REG 15-12-05 13:03 OP:mh   STATUS:               ID:20151205015750     3
 2015-12-05-0157-50M.COL___316                                                 6
 STAT SP IPHASW D HRMM SECON CODA AMPLIT PERI AZIMU VELO AIN AR TRES W  DIS CAZ7
 BAR2 EZ EP        2 0 14.98                             170   -0.1010 25.4 188 
 BAR2 EZ ES        2 0 30.46                             170   -0.2610 25.4 188 
 BAR2 EZ I         2 0 31.80        28.6 0.18            169           25.4 188 
 BRR  HZ EP        2 0 16.85                             153    0.4010 69.9 297 
 BRR  HN ES        2 0 33.93                             153    0.7710 69.9 297 
 BRR  HZ I         2 0 39.72        17.8 0.18            151           69.9 297 
 PAM  EZ EP        2 0 17.76                             152    0.2610 75.9  41 
 PAM  EN ES        2 0 35.08                             152    0.0610 75.9  41 
 PAM  EZ I         2 0 37.00        31.4 0.54            155           75.9  41 
 RUS  HZ EP        2 0 18.87                             144   -0.3810  103 176 
 RUS  HN ES        2 0 37.88                             144   -0.2610  103 176 
 RUS  HZ I         2 0 38.97        21.3 0.46            146            103 176 
 PTB  HZ EP   1    2 0 21.53                             133   -0.74 7  148 258 
 PTB  HN ES        2 0 43.06                             133   -0.45 9  148 258 
 PTB  HZ I         2 0 44.76        32.5 0.36            132            148 258 
 OCA  HZ EP        2 0 23.30                             131   -0.08 9  158 353 
 OCA  HN ES        2 0 45.44                             131   -0.06 9  158 353 
 OCA  HZ I         2 0 50.56        46.8 0.22            132            158 353 
 ZAR  HZ EP        2 0 27.54                             123   -0.03 9  203 292 
 ZAR  HN ES        2 0 53.12                             123    0.17 9  203 292 
 ZAR  HZ I         2 0 59.52        22.0 0.50            123            203 292 
 NOR  HZ EP   1    2 0 30.78                             119   -0.27 6  236 234 
 NOR  HN ES        2 0 59.51                             119    0.36 8  236 234 
 NOR  HZ I         2 1  2.37        19.5 0.18            120            236 234 
 SML  HZ EP        2 0 31.34                             118   -0.27 8  242 335 
 SML  HN ES        2 0 59.80                             118   -0.34 8  242 335 
 SML  HZ I         2 1  5.07        27.5 0.10            119            242 335 
 ROSC BZ EP        2 0 34.47                             117    0.96 8  254 211 
 ROSC BN ES   4    2 1  6.33                             117    2.81 0  254 211 
 ROSC BZ I         2 1 10.27        14.1 0.55            118            254 211 
 HEL  HZ EP   1    2 0 35.96                             115    0.53 6  272 255 
 HEL  HN ES        2 1  6.26                             115   -0.68 8  272 255 
 HEL  HZ I         2 1 12.85        12.9 0.32            116            272 255 
 URE  HZ EP   4    2 0 34.75                             114   -1.38 0  283 292 
 URE  HN ES   4    2 1  5.68                             114   -2.51 0  283 292 
 SOCV BZ EP   4    2 0 36.24                             113   -1.88 0  300  57 
 SOCV BN ES   4    2 1  8.12                             113   -3.61 0  300  57 
 GUY2CHZ EP   1    2 0 39.79                             113    0.89 5  302 234 
 GUY2CHN ES   4    2 1 16.62                             113    3.51 0  302 234 
 GUY2CHZ I         2 1 21.56        11.1 0.30                           302 234 
 ELA  HZ EP   4    2 0 43.91                             111    1.76 0  330 229 
 ELA  HN ES   4    2 1 20.34                             111    1.44 0  330 229 
 DBB  SZ EP        2 0 42.31                             110   -0.27 7  339 274 
 ANIL HZ EP   4    2 0 46.07                             109    0.96 0  359 224 
 ANIL HE ES   4    2 1 26.69                             109    2.52 0  359 224 
 PRA  HZ EP        2 0 48.55                             107   -0.31 6  394 209 
 PRA  HN ES        2 1 30.85                             107   -0.00 6  394 209 
 PRA  HZ I         2 1 35.70         7.6 0.44            108            394 209 
 ORTC HZ EP        2 0 49.16                             107   -0.08 6  397 216 
 ORTC HN ES        2 1 31.98                             107    0.45 6  397 216 
 ORTC HZ I         2 1 38.37         5.6 0.38            108            397 216 
 SJC  HZ EP   4    2 0 48.83                             106   -1.63 0  407 327 
 SJC  HN ES   4    2 1 29.07                             106   -4.63 0  407 327 
 SJC  HZ I         2 1 34.54         3.9 0.32            107            407 327 
                                                                                
