 2011 10 5 0924 44.8 L   7.361 -73.837 16.4  RSN  4 0.4 1.2LRSN                1
 GAP=320        0.82       8.3     6.8  5.9  0.1249E+01  0.8749E+01  0.7864E+01E
 Epicentro: PUERTO WILCHES - SANTANDER                                         3
 ACTION:UPD 12-07-13 16:02 OP:ep   STATUS:               ID:20111005092444 L   I
 2011-10-05-0920-00M.COL___172                                                 6
 STAT SP IPHASW D HRMM SECON CODA AMPLIT PERI AZIMU VELO AIN AR TRES W  DIS CAZ7
 BRR  HZ IP        924 50.11                             113   -0.3810 31.3 154 
 BRR  HZ I         924 50.30        43.9 0.13                          31.3 154 
 BRR  HE ES   2    924 55.92                             113    0.95 5 31.3 154 
 GIR2 SZ EP   1    924 58.00                              99    0.59 7 77.6 114 
 GIR2 SZ ES   1    925  7.12                              99   -0.17 7 77.6 114 
 BAR2 SZ ES   1    925 16.23                              96   -0.32 7  112 140 
 BAR2 SZ I         925 17.66         3.7 0.14                           112 140 
 RUS  HZ EP   1    925 12.34                              56   -0.01 7  183 153 
 RUS  HN ES   1    925 34.09                              56    0.21 7  183 153 
 RUS  HZ I         925 37.22         1.8 0.39                           183 153 
                                                                                
