 2011  6 5 0056 35.7 L   6.816 -73.106144.0  RSN  5 0.2 1.8LRSN                1
 GAP=141        0.50       3.3     6.4  5.2 -0.7479E+01 -0.3171E+01 -0.1379E+01E
 Epicentro: LOS SANTOS - SANTANDER                                             3
 ACTION:UP  11-07-14 19:03 OP:ep   STATUS:               ID:20110605005635 L   I
 2011-06-05-0051-05S.COL___132                                                 6
 STAT SP IPHASW D HRMM SECON CODA AMPLIT PERI AZIMU VELO SNR AR TRES W  DIS CAZ7
 BAR2 SZ EP   1    056 55.12                             169     0.0 8   26 199 
 BAR2 SZ ES   1    057  9.96                             169    -0.4 8   26 199 
 BAR2 SZ I         057 12.21        16.4 0.12                            26 199 
 PAM  SZ EP   1    056 57.57                             152     0.1 8   73  38 
 PAM  SN ES   2    057 14.79                             152     0.3 5   73  38 
 BRR  HZ EP   1    056 56.75                             151    -0.1 8   74 296 
 BRR  HE ES   2    057 13.74                             151     0.4 5   74 296 
 BRR  HZ I         057 14.65        17.8 0.12                            74 296 
 RUS  HZ EP   1    056 59.48                             143     0.1 8  102 179 
 RUS  HN ES   2    057 18.11                             143     0.3 5  102 179 
 RUS  HZ I         057 19.91         6.2 0.35                           102 179 
 GRA  SZ IP        057  0.52                             137     0.010  123  16 
 GRA  SZ I         057  1.80        11.8 0.23                           123  16 
 GRA  SZ ES   1    057 19.80                             137    -0.1 7  123  16 
                                                                                
