 2017 11 5 0846  2.6 L   6.742 -73.208140.3  RSN  4 0.3 0.8LRSN                1
 GAP=224        0.85       6.5     6.2  6.8  0.1983E+02  0.5723E+01  0.2693E+01E
 Epicentro: VILLANUEVA - SANTANDER                                             3
 ACTION:UPD 17-12-12 19:52 OP:rebc STATUS:               ID:20171105084602 L   I
 OLDACT:DUP 17-11-05 17:25 OP:dhb  STATUS:               ID:20171105083742d    3
 2017-11-05-0838-00M.COL___420                                                 6
 STAT SP IPHASW D HRMM SECON CODA AMPLIT PERI AZIMU VELO AIN AR TRES W  DIS CAZ7
 BAR2 EZ EP        846 21.10                             173   -0.3510 16.8 170 
 BAR2 EZ ES        846 35.76                             173   -0.3910 16.8 170 
 BAR2 EZ I         846 39.36         1.8 0.16            172           16.8 170 
 BRR  HZ EP        846 23.06                             152    0.0410 68.8 306 
 BRR  HN ES        846 39.39                             152    0.4510 68.8 306 
 BRR  HZ I         846 43.54         3.0 0.50            152           68.8 306 
 RUS  HZ EP        846 25.40                             144   -0.0110 95.0 172 
 RUS  HN ES        846 43.59                             144    0.4010 95.0 172 
 RUS  HZ I         846 44.71         0.9 0.30            148           95.0 172 
 PTB  HZ EP        846 28.62                             132    0.21 9  140 261 
 PTB  HE ES        846 48.17                             132   -0.36 9  140 261 
 PTB  HZ I         846 53.66         0.4 0.28            134            140 261 
                                                                                
