 2014  8 5 0646 28.7 L   6.744 -73.110146.2  RSN  6 0.5 1.3LRSN                1
 GAP=237        1.25       6.9     7.1  9.1  0.3331E+01  0.1207E+02  0.7263E+01E
 Epicentro: LOS SANTOS - SANTANDER                                             3
 ACTION:UPD 14-09-15 21:47 OP:nd   STATUS:               ID:20140805064628 L   I
 OLDACT:REG 14-08-05 13:17 OP:spq  STATUS:               ID:20140805063815     3
 2014-08-05-0638-15M.COL___245                                                 6
 STAT SP IPHASW D HRMM SECON CODA AMPLIT PERI AZIMU VELO AIN AR TRES W  DIS CAZ7
 BAR2 SZ EP        646 48.44                             173    0.0910 18.6 205 
 BAR2 SZ ES        647  3.51                             173   -0.1210 18.6 205 
 BAR2 SZ I         647  4.49         3.6 0.28            167           18.6 205 
 BRR  HZ EP        646 50.47                             150    0.1510 77.7 301 
 BRR  HN ES        647  7.75                             150    0.6010 77.7 301 
 RUS  HZ EP        646 52.31                             146    0.2210 94.2 178 
 RUS  HE ES        647  9.77                             146   -0.5410 94.2 178 
 RUS  HZ I         647 12.65         1.1 0.42            144           94.2 178 
 PTB  HZ EP        646 55.39                             132   -0.61 9  151 261 
 PTB  HE ES        647 16.35                             132   -0.92 9  151 261 
 PTB  HZ I         647 21.00         3.6 0.16            131            151 261 
 SPBC HZ EP        646 57.15                             130    0.08 9  161 221 
 SPBC HN ES        647 19.98                             130    0.81 9  161 221 
 SPBC HZ I         647 25.03         4.0 0.12            129            161 221 
 NOR  HE ES        647 32.60                             119    0.27 8  234 236 
                                                                                
