 2017 12 5 0124 17.9 L   6.766 -73.143146.5  RSN  8 0.4 1.6LRSN                1
 GAP=110        1.12       4.0     4.4  7.5  0.4882E+01 -0.2494E+01 -0.6292E+01E
 Epicentro: LOS SANTOS - SANTANDER                                             3
 ACTION:UPD 18-01-04 13:17 OP:rebc STATUS:               ID:20171205012417 L   I
 OLDACT:DUP 17-12-05 15:19 OP:e    STATUS:               ID:20171205011736d    3
 OLDACT:UP  17-12-05 15:11 OP:e    STATUS:               ID:20171205011735     3
 OLDACT:UP  17-12-05 15:07 OP:e    STATUS:               ID:20171205011735     3
 OLDACT:REG 17-12-05 13:09 OP:y    STATUS:               ID:20171205011735     3
 2017-12-05-0118-00M.COL___494                                                 6
 STAT SP IPHASW D HRMM SECON CODA AMPLIT PERI AZIMU VELO AIN AR TRES W  DIS CAZ7
 BAR2 EZ EP        124 36.89                             172   -0.6710 19.7 193 
 BAR2 EZ ES        124 52.54                             172   -0.3410 19.7 193 
 BAR2 EZ I         124 53.06        10.6 0.22            172           19.7 193 
 RUS  HZ EP        124 41.15                             145   -0.3110 96.8 176 
 RUS  HN ES        124 59.65                             145   -0.1810 96.8 176 
 RUS  HZ I         125  0.70         5.6 0.26            146           96.8 176 
 PTB  HZ EP        124 44.32                             132   -0.58 9  147 260 
 PTB  HE ES        125  6.34                             132    0.39 9  147 260 
 PTB  HZ I         125  7.38         2.5 0.16            131            147 260 
 TAM  HZ EP        124 45.31                             131   -0.22 9  154 104 
 SPBC HZ EP        124 46.20                             130    0.00 9  160 220 
 SPBC HE ES        125  8.42                             130    0.15 9  160 220 
 OCA  HZ EP        124 46.72                             129    0.09 9  164 353 
 OCA  HN ES        125  9.53                             129    0.50 9  164 353 
 YPLC HZ EP        124 47.43                             127    0.01 9  173 151 
 YPLC HE ES        125 11.57                             127    1.13 9  173 151 
 ZAR  HZ EP        124 51.01                             122    0.43 8  206 293 
 ZAR  HE ES        125 16.07                             122    0.01 8  206 293 
 ZAR  HZ I         125 21.79         9.1 0.56            122            206 293 
                                                                                
