 2016  7 5 0509 37.8 L   6.764 -73.130140.1  RSN 10 0.5 1.6LRSN                1
 GAP=140        1.18       5.4     5.5  8.7 -0.1826E+01  0.3767E+01 -0.5252E+01E
 Epicentro: LOS SANTOS - SANTANDER                                             3
 ACTION:UPD 17-03-29 16:47 OP:lp   STATUS:               ID:20160705050937 L   I
 OLDACT:UP  16-07-05 16:44 OP:dani STATUS:               ID:20160705050741     3
 OLDACT:UP  16-07-05 16:40 OP:dani STATUS:               ID:20160705050741     3
 OLDACT:UP  16-07-05 16:39 OP:dani STATUS:               ID:20160705050741     3
 OLDACT:REG 16-07-05 12:53 OP:dani STATUS:               ID:20160705050741     3
 2016-07-05-0507-41M.COL___322                                                 6
 STAT SP IPHASW D HRMM SECON CODA AMPLIT PERI AZIMU VELO AIN AR TRES W  DIS CAZ7
 BAR2 EZ EP     D  5 9 56.62                             172   -0.0210 19.8 197 
 BAR2 EZ I         510 13.21        19.6 0.36            175           19.8 197 
 BRR  HZ EP     C  5 9 58.30                             151   -0.2010 74.7 301 
 BRR  HN ES        510 15.50                             151    0.8210 74.7 301 
 BRR  HZ I         510 20.19         7.6 0.14            151           74.7 301 
 PAM  EZ EP        5 9 59.48                             149   -0.0210 79.5  37 
 RUS  HZ EP        510  0.92                             144    0.2710 96.5 177 
 RUS  HN ES        510 18.62                             144    0.1110 96.5 177 
 RUS  HZ I         510 20.58         5.1 0.24            149           96.5 177 
 PTB  HZ EP        510  3.86                             131   -0.50 9  149 260 
 PTB  HE ES        510 24.07                             131   -1.03 9  149 260 
 PTB  HZ I         510 30.32         3.9 0.18            134            149 260 
 SPBC HZ EP        510  5.71                             128    0.08 9  161 220 
 SPBC HN ES        510 26.94                             128   -0.44 9  161 220 
 SPBC HZ I         510 32.34         9.1 0.22            132            161 220 
 ZAR  HZ EP        510 10.05                             121   -0.11 8  207 293 
 ZAR  HE ES   4    510 32.57                             121   -2.87 0  207 293 
 ZAR  HZ I         510 41.18         6.0 0.18            123            207 293 
 CHI  HN ES   2    510 43.94                             116    0.30 4  245 196 
 GUY2CHZ EP   9    510 22.97                             111    1.96 0  300 236 
 GUY2CHN ES        510 56.90                             110    0.20 7  300 236 
 GUY2CHZ I         511  3.91         1.6 0.56                           300 236 
 CBOC HZ EP        510 24.88                             109    0.39 7  334 253 
 CBOC HE ES        511  2.15                             109    1.21 7  334 253 
 CBOC HZ I         511  4.73         0.5 0.20            112            334 253 
                                                                                
