 2011 12 5 0214 33.0 L   6.785 -73.099137.9  RSN  6 0.3 1.4LRSN                1
 GAP=143        0.53       3.6     5.2  6.2 -0.1617E+01  0.2196E+01  0.6270E+01E
 Epicentro: LOS SANTOS - SANTANDER                                             3
 ACTION:UPD 12-07-13 16:14 OP:ep   STATUS:               ID:20111205021433dL   I
 2011-12-05-0210-00M.COL___183                                                 6
 STAT SP IPHASW D HRMM SECON CODA AMPLIT PERI AZIMU VELO AIN AR TRES W  DIS CAZ7
 BAR2 SZ EP   1    214 51.49                             170   -0.17 7 23.2 204 
 BAR2 SZ I         215  5.15         7.6 0.73                          23.2 204 
 GIR2 SZ EP   1    214 51.59                             165   -0.21 7 34.2 342 
 PAM  SZ EP   1    214 54.13                             150   -0.12 7 75.6  36 
 PAM  SN ES   1    215 11.14                             150    0.30 7 75.6  36 
 BRR  HZ EP   1    214 53.33                             149   -0.28 7 76.6 298 
 BRR  HN ES   1    215  9.85                             149    0.15 7 76.6 298 
 BRR  HZ I         215 12.51         5.4 0.17                          76.6 298 
 RUS  HZ EP   1    214 56.02                             143    0.20 7 98.6 179 
 RUS  HN ES   1    215 13.42                             143   -0.21 7 98.6 179 
 RUS  HZ I         215 16.26         2.5 0.37                          98.6 179 
 CTAU SZ EP   1    215  6.04                             121    0.48 6  204 211 
                                                                                
