 2013  1 5 0542 32.4 L   6.811 -73.183147.9  RSN  8 0.6 2.0LRSN 2.7WRSN        1
 SPEC AVERAGE  MO 13.1 ST  1.5 OM  2.0 f0 4.14 R0.3667 AL 2.29 WI 14.8 MW  2.7 3
 SPEC SD       MO  0.3 ST0.890 OM  0.6 f00.733 R0.0661 AL      WI      MW  0.2 3
 GAP=131        1.42       4.6     6.7  8.5  0.1624E+01  0.1550E+02  0.3426E+01E
 Epicentro: ZAPATOCA - SANTANDER                                               3
 SPEC RUS HH N MO 12.7 ST0.906 OM  1.1 f0 4.99 R0.2946 AL 2.37 WI  8.4 MW  2.4 3
 SPEC RUS HH N T 54314 K 0.000 GD  179 VS 4.20 DE 3.00 Q0230.0 QA 0.60 VS 4.20 3
 SPEC OCA HH N MO 13.6 ST  2.6 OM  1.9 f0 3.61 R0.4072 AL 2.15 WI 22.4 MW  3.0 3
 SPEC OCA HH N T 54321 K 0.000 GD  217 VS 4.20 DE 3.00 Q0230.0 QA 0.60 VS 4.20 3
 SPEC PTB HH N MO 13.0 ST0.452 OM  1.3 f0 3.24 R0.4537 AL 1.15 WI 15.3 MW  2.6 3
 SPEC PTB HH N T 54319 K 0.000 GD  206 VS 4.20 DE 3.00 Q0230.0 QA 0.60 VS 4.20 3
 SPEC BRR HH N MO 13.2 ST  2.2 OM  1.6 f0 4.72 R0.3114 AL 3.47 WI 13.3 MW  2.7 3
 SPEC BRR HH N T 54310 K 0.000 GD  162 VS 4.20 DE 3.00 Q0230.0 QA 0.60 VS 4.20 3
 ACTION:UPD 13-02-15 09:12 OP:ep   STATUS:               ID:20130105054232 L   I
 2013-01-05-0539-49M.COL___196                                                 6
 STAT SP IPHASW D HRMM SECON CODA AMPLIT PERI AZIMU VELO AIN AR TRES W  DIS CAZ7
 BAR2 SZ EP        542 52.29                             170   -0.0210 24.2 180 
 BAR2 SZ ES        543  7.21                             170   -0.6210 24.2 180 
 BAR2 SZ I         543  8.74        23.8 0.20            169           24.2 180 
 BRR  HZ EP        542 54.30                             154    0.7410 67.0 299 
 BRR  HN ES        543 11.11                             154    1.0610 67.0 299 
 BRR  HN I         543 11.59        26.0 0.22            153           67.0 299 
 PAM  SZ EP        542 55.32                             151    0.3610 79.2  42 
 PAM  SZ        C  542 55.46                                           79.2  42 
 PAM  SZ I         542 55.57        12.7 0.20            154           79.2  42 
 PAM  SN ES        543 12.32                             151   -0.2210 79.2  42 
 RUS  HZ EP        542 56.42                             144   -0.0610  102 174 
 RUS  HN ES        543 14.58                             144   -0.6710  102 174 
 RUS  HN I         543 16.89         8.9 0.30            144            102 174 
 PTB  HZ EP        542 59.26                             133    0.05 9  144 258 
 PTB  HN ES        543 20.06                             133   -0.05 9  144 258 
 PTB  HN I         543 25.53        12.5 0.30            132            144 258 
 OCA  HN ES        543 22.67                             130   -0.15 9  159 355 
 OCA  HN I         543 25.26        29.5 0.22            131            159 355 
 CHI  HZ EP        543 10.81                             117    0.57 8  249 194 
 CHI  HN ES        543 40.02                             117    0.28 8  249 194 
 CHI  HN I         543 46.09         5.6 0.40            117            249 194 
 MON  HZ EP        543 20.06                             109   -0.98 6  350 309 
 MON  HN ES        543 57.60                             109   -1.36 6  350 309 
 MON  HN I         544  0.75         2.1 0.32            109            350 309 
                                                                                
