 2011  3 5 0843 28.1 L   6.805 -72.984148.6  RSN  7 0.4 1.6LRSN                1
 GAP=177        0.59       3.6    11.0  6.3 -0.1813E+02  0.1225E+02 -0.6515E+01E
 Epicentro: CEPITA - SANTANDER                                                 3
 ACTION:UP  11-06-16 14:31 OP:jfem STATUS:               ID:20110305084328 L   I
 2011-03-05-0841-19S.COL___135                                                 6
 STAT SP IPHASW D HRMM SECON CODA AMPLIT PERI AZIMU VELO SNR AR TRES W  DIS CAZ7
 BAR2 SZ EP        843 48.42                             167     0.110   32 223 
 BAR2 SZ ES   1    844  3.59                             167    -0.4 7   32 223 
 BAR2 SZ I         844  5.05        11.8 0.21                            32 223 
 RUS  HZ EP        843 52.47                             143     0.310  101 186 
 RUS  HN ES   2    844 10.97                             143     0.0 5  101 186 
 RUS  HZ I         844 11.79         4.2 0.26                           101 186 
 GRA  SZ IP        843 53.11                             138    -0.110  121   9 
 GRA  SZ I         843 54.38         5.8 0.32                           121   9 
 GRA  SZ ES   2    844 12.99                             138     0.2 5  121   9 
 OCA  SZ EP        843 56.69                             130    -0.2 9  163 347 
 OCA  SZ ES   3    844 21.04                             130     1.7 2  163 347 
 OCA  SZ I         844 23.50         6.5 0.26                           163 347 
 CHI  HZ EP   3    844  6.79                             117     0.2 2  254 199 
 CHI  HE ES   2    844 36.52                             117    -0.1 4  254 199 
 HEL  HZ EP   2    844 10.44                             113     0.0 4  290 257 
 HEL  HZ I         844 46.48         2.6 0.31                           290 257 
 RREF HZ EP   3    844 16.43                             110     0.4 2  336 231 
 RREF HE ES   3    844 53.24                             110    -0.1 2  336 231 
                                                                                
