 2014  5 5 0507 52.6 L   6.800 -73.167148.0  RSN  9 0.3 1.9LRSN                1
 GAP=134        0.73       2.6     3.2  6.2 -0.2038E+01  0.5370E+01  0.1811E+01E
 Epicentro: LOS SANTOS - SANTANDER                                             3
 ACTION:UPD 15-03-16 16:55 OP:nd   STATUS:               ID:20140505050752 L   I
 OLDACT:DUP 14-05-05 17:43 OP:mh   STATUS:               ID:20140505050002d    3
 2014-05-05-0500-00M.COL___273                                                 6
 STAT SP IPHASW D HRMM SECON CODA AMPLIT PERI AZIMU VELO AIN AR TRES W  DIS CAZ7
 PAM  SZ EP        5 8 15.36                             151    0.2410 78.9  41 
 PAM  SN ES        5 8 32.58                             151   -0.1210 78.9  41 
 PAM  SZ I         5 8 34.70        13.0 0.58            154           78.9  41 
 RUS  HZ EP        5 8 16.32                             144   -0.2410  101 175 
 RUS  HN ES   1    5 8 35.37                             144    0.10 7  101 175 
 PTB  HZ EP        5 8 19.72                             133    0.20 9  145 259 
 PTB  HN ES        5 8 40.37                             133   -0.17 9  145 259 
 SPBC HZ EP        5 8 21.54                             130    0.43 9  162 218 
 SPBC HN ES        5 8 43.39                             130    0.03 9  162 218 
 SPBC HZ I         5 8 49.80         8.2 0.25            132            162 218 
 NOR  HN ES        5 8 55.56                             119   -0.49 8  233 234 
 SML  HN ES        5 8 57.71                             118   -0.10 8  243 336 
 CHI  HZ EP        5 8 30.17                             117   -0.16 8  248 195 
 CHI  HN ES        5 8 59.85                             117    0.07 8  248 195 
 ROSC BZ EP   4    5 8 32.79                             117    2.10 0  252 211 
 HEL  HZ EP   1    5 8 31.85                             115   -0.80 6  270 256 
 HEL  HE ES        5 9  4.53                             115    0.62 8  270 256 
 GUY2CHZ EP   4    5 8 37.64                             113    1.57 0  299 235 
 GUY2CHE ES   4    5 9 12.99                             113    2.99 0  299 235 
 GUY2CHZ I         5 9 19.68         3.4 0.26                           299 235 
                                                                                
