 2017  4 5 0659 30.3 L   6.820 -73.118141.8  RSN  7 0.4 1.3LRSN                1
 GAP=139        0.83       4.8     6.0  6.1 -0.4451E+00  0.6415E+01 -0.7641E+01E
 Epicentro: LOS SANTOS - SANTANDER                                             3
 ACTION:UPD 17-05-30 21:08 OP:jn   STATUS:               ID:20170405065930 L   I
 OLDACT:UP  17-04-05 16:36 OP:and  STATUS:               ID:20170405065741     3
 OLDACT:UP  17-04-05 16:35 OP:and  STATUS:               ID:20170405065741     3
 OLDACT:UP  17-04-05 16:35 OP:and  STATUS:               ID:20170405065741     3
 OLDACT:UP  17-04-05 16:35 OP:and  STATUS:               ID:20170405065741     3
 OLDACT:UP  17-04-05 16:34 OP:and  STATUS:               ID:20170405065741     3
 OLDACT:REG 17-04-05 12:50 OP:and  STATUS:               ID:20170405065741     3
 2017-04-05-0658-00M.COL___365                                                 6
 STAT SP IPHASW D HRMM SECON CODA AMPLIT PERI AZIMU VELO AIN AR TRES W  DIS CAZ7
 BAR2 EZ EP        659 49.33                             169   -0.2110 26.1 196 
 BAR2 EZ ES        7 0  4.38                             169   -0.1510 26.1 196 
 BAR2 EZ I         7 0  6.25         6.9 0.40            166           26.1 196 
 BRR  HZ EP        659 51.22                             151    0.0710 72.9 296 
 BRR  HN ES   3    7 0  8.32                             151    0.94 2 72.9 296 
 BRR  HZ I         7 0 10.71         4.2 0.24            146           72.9 296 
 PAM  EZ IP     C  659 52.32                             150    0.4110 73.8  39 
 PAM  EN ES   2    7 0  7.68                             150   -1.06 5 73.8  39 
 PAM  EZ I         7 0 12.04         2.1 0.22            155           73.8  39 
 RUS  HZ EP        659 53.67                             142   -0.1710  103 178 
 RUS  HN ES        7 0 12.55                             142    0.3710  103 178 
 RUS  HZ I         7 0 13.14         3.0 0.26            146            103 178 
 PTB  HZ EP   9    659 56.29                             130   -1.00 0  151 258 
 PTB  HN ES        7 0 16.73                             129   -0.59 9  151 258 
 PTB  HZ I         7 0 24.14         2.7 0.60            129            151 258 
 SPBC HZ EP        659 58.58                             127   -0.30 9  167 219 
 SPBC HN ES   3    7 0 20.64                             127   -0.50 2  167 219 
 SPBC HZ I         7 0 26.26         4.0 0.12            128            167 219 
 ZAR  HZ EP        7 0  2.99                             121    0.26 8  206 291 
 ZAR  HN ES   3    7 0 27.25                             121   -0.74 2  206 291 
 ZAR  HZ I         7 0 36.20         2.6 0.26            120            206 291 
                                                                                
