 2014  5 5 0016 54.5 L   6.806 -73.151142.6  RSN  9 0.5 2.0LRSN                1
 GAP=136        1.05       3.5     4.4  6.6 -0.2554E+01  0.8330E+01  0.3132E+00E
 Epicentro: LOS SANTOS - SANTANDER                                             3
 OLDACT:DUP 14-05-05 14:57 OP:mh   STATUS:               ID:20140505001001d    3
 ACTION:UPD 15-03-16 16:55 OP:nd   STATUS:               ID:20140505001654 L   I
 OLDACT:UP  14-05-05 15:02 OP:mh   STATUS:               ID:20140505001001d    3
 OLDACT:UP  14-05-05 15:02 OP:mh   STATUS:               ID:20140505001001d    3
 OLDACT:UP  14-05-05 15:02 OP:mh   STATUS:               ID:20140505001001d    3
 2014-05-05-0010-00M.COL___273                                                 6
 STAT SP IPHASW D HRMM SECON CODA AMPLIT PERI AZIMU VELO AIN AR TRES W  DIS CAZ7
 BRR  HZ EP     C  017 15.72                             152    0.4610 70.4 298 
 BRR  HN ES        017 32.13                             152    0.6810 70.4 298 
 BRR  HZ I         017 34.10        19.3 0.14            151           70.4 298 
 PAM  SZ EP        017 16.70                             150    0.3310 77.3  40 
 PAM  SN ES        017 33.09                             150   -0.3410 77.3  40 
 PAM  HZ I         017 35.46        27.3 0.46            154           77.3  40 
 RUS  HZ EP        017 17.78                             143   -0.2110  101 176 
 RUS  HN ES        017 36.42                             143    0.1110  101 176 
 RUS  HZ I         017 38.79         6.9 0.82            146            101 176 
 PTB  HZ EP        017 20.66                             131   -0.51 9  147 259 
 PTB  HN ES        017 41.19                             131   -0.78 9  147 259 
 PTB  HZ I         017 44.64        12.6 0.28            132            147 259 
 SPBC HZ EP        017 22.68                             128   -0.09 9  163 219 
 SPBC HN ES   1    017 44.40                             128   -0.42 7  163 219 
 SPBC HZ I         017 49.03         7.7 0.34            130            163 219 
 ZAR  HZ EP        017 26.64                             122   -0.02 9  203 292 
 ZAR  HN ES   1    017 51.81                             122    0.07 6  203 292 
 ZAR  HZ I         017 58.46        11.6 0.24            123            203 292 
 NOR  HZ EP        017 30.55                             118    0.51 8  235 234 
 NOR  HN ES        017 57.41                             118   -0.34 8  235 234 
 NOR  HZ I         018  0.59         5.0 0.20            120            235 234 
 SML  HZ EP        017 30.32                             117   -0.54 8  243 335 
 SML  HN ES        017 59.30                             117    0.08 8  243 335 
 SML  HZ I         018  3.43        14.7 0.08            119            243 335 
 GUY2CHZ EP        017 38.40                             112    0.45 7  301 235 
 GUY2CHE ES   1    018 12.85                             112    1.01 5  301 235 
 GUY2CHZ I         018 13.91         3.4 3.48                           301 235 
                                                                                
