 2013 10 5 0151 37.1 L   6.810 -73.159140.2  RSN  7 0.4 1.7LRSN                1
 GAP=200        0.88       4.2     4.9  6.6  0.5450E+01  0.3465E+01 -0.8389E+01E
 Epicentro: LOS SANTOS - SANTANDER                                             3
 ACTION:UPD 13-11-25 09:19 OP:ep   STATUS:               ID:20131005015137 L   I
 OLDACT:REG 13-10-05 08:34 OP:nd   STATUS:               ID:20131005014959     3
 2013-10-05-0149-59M.COL___273                                                 6
 STAT SP IPHASW D HRMM SECON CODA AMPLIT PERI AZIMU VELO AIN AR TRES W  DIS CAZ7
 BAR2 SZ EP        151 56.23                             170    0.1310 24.3 186 
 BAR2 SZ ES        152 10.60                             170   -0.3010 24.3 186 
 BAR2 SZ I         152 13.84        14.9 0.26            169           24.3 186 
 BRR  HZ IP     D  151 58.09                             152    0.5310 69.3 298 
 BRR  HN ES   2    152 14.05                             152    0.55 5 69.3 298 
 BRR  HZ I         152 15.64         9.2 0.32            150           69.3 298 
 RUS  HZ EP        152  0.67                             142    0.2610  102 175 
 RUS  HN ES        152 18.57                             142   -0.0210  102 175 
 RUS  HZ I         152 21.38         3.4 0.32            145            102 175 
 PTB  HZ EP        152  3.17                             131   -0.35 9  147 258 
 PTB  HN ES        152 23.60                             131   -0.52 9  147 258 
 PTB  HZ I         152 27.77         6.5 0.22            131            147 258 
 SPBC HZ EP        152  5.25                             128    0.06 9  163 218 
 SPBC HN ES        152 27.06                             128   -0.03 9  163 218 
 SPBC HZ I         152 33.63         8.1 0.20            129            163 218 
 ZAR  HZ EP   2    152  9.30                             121    0.29 4  202 292 
 ZAR  HN ES        152 34.46                             121    0.57 9  202 292 
 ZAR  HZ I         152 40.16         6.5 0.50            122            202 292 
 SML  HZ EP        152 12.57                             116   -0.68 8  242 335 
 SML  HN ES   2    152 41.12                             116   -0.32 4  242 335 
 SML  HZ I         152 46.15         6.2 0.07            118            242 335 
                                                                                
