 2013  8 5 0258 59.5 L   6.808 -73.167140.2  RSN 10 0.5 1.6LRSN                1
 GAP=133        1.21       4.5     6.4  8.6 -0.5486E+01  0.2401E+02 -0.7139E+01E
 Epicentro: LOS SANTOS - SANTANDER                                             3
 ACTION:UPD 14-01-14 08:59 OP:ep   STATUS:               ID:20130805025859 L   I
 OLDACT:UP  13-08-05 08:47 OP:jn   STATUS:               ID:20130805025743     3
 OLDACT:REG 13-08-05 08:12 OP:jn   STATUS:               ID:20130805025743     3
 2013-08-05-0257-43M.COL___226                                                 6
 STAT SP IPHASW D HRMM SECON CODA AMPLIT PERI AZIMU VELO AIN AR TRES W  DIS CAZ7
 BAR2 SZ EP        259 18.56                             170    0.1010 23.9 184 
 BAR2 SZ ES        259 33.08                             170   -0.1810 23.9 184 
 BAR2 SZ I         259 34.32        13.8 0.26            169           23.9 184 
 GIR2 SZ EP        259 18.65                             167    0.1810 30.1 354 
 GIR2 SZ ES        259 33.66                             167    0.3910 30.1 354 
 BRR  HZ EP        259 20.50                             153    0.6110 68.7 299 
 BRR  HE ES   4    259 37.40                             153    1.59 0 68.7 299 
 BRR  HZ I         259 41.60         7.8 0.12            150           68.7 299 
 PAM  SN ES        259 38.08                             149    0.0110 78.2  41 
 PAM  SZ I         259 40.76        13.6 0.62            155           78.2  41 
 RUS  HZ EP   1    259 22.74                             142   -0.04 7  102 175 
 RUS  HN ES   1    259 40.81                             142   -0.13 7  102 175 
 RUS  HZ I         259 42.62         3.5 0.40            147            102 175 
 PTB  HZ EP        259 25.92                             131    0.11 9  146 258 
 PTB  HN ES        259 45.46                             131   -0.88 9  146 258 
 PTB  HZ I         259 51.95         5.1 0.36            132            146 258 
 OCA  HN ES        259 47.98                             128   -0.94 9  159 354 
 SPBC HE ES   1    259 49.74                             128    0.41 7  162 218 
 ZAR  HN ES   1    259 56.72                             121    0.59 6  201 292 
 ZAR  HZ I         3 0  3.31         4.7 0.28            123            201 292 
 SML  HZ EP        259 34.97                             116   -0.64 8  242 336 
 SML  HE ES   1    3 0  4.93                             116    1.15 6  242 336 
                                                                                
