 2017  7 5 0643 45.8 L   6.631 -73.058168.4  RSN 22 0.5 2.3LRSN                1
 GAP= 72        1.50       4.8     4.5  7.5  0.3289E+01  0.7816E+01  0.3708E+01E
 Epicentro: CURITI - SANTANDER                                                 3
 ACTION:UPD 17-08-30 15:29 OP:rebc STATUS:               ID:20170705064345 L   I
 OLDACT:UP  17-07-05 18:16 OP:edw  STATUS:               ID:20170705063742     3
 OLDACT:REG 17-07-05 13:38 OP:edw  STATUS:               ID:20170705063742     3
 2017-07-05-0638-00M.COL___371                                                 6
 STAT SP IPHASW D HRMM SECON CODA AMPLIT PERI AZIMU VELO AIN AR TRES W  DIS CAZ7
 BAR2 EZ IP     D  644  7.81                             175   -0.2310 14.4 253 
 BAR2 EZ ES        644 25.22                             175   -0.1710 14.4 253 
 BAR2 EZ I         644 26.22        49.1 0.26            173           14.4 253 
 PAM  EZ EP        644 11.37                             151    0.3110 87.8  27 
 PAM  EN ES        644 30.62                             151   -0.1310 87.8  27 
 PAM  EZ I         644 32.90         9.5 0.54            154           87.8  27 
 BRR  HZ EP     C  644 11.32                             150    0.8710 89.4 306 
 BRR  HN ES        644 30.42                             150    0.7610 89.4 306 
 BRR  HZ I         644 31.94        27.5 0.14            151           89.4 306 
 TAM  HZ IP     C  644 14.31                             137    0.05 9  142  99 
 TAM  HN ES        644 35.86                             137   -0.58 9  142  99 
 TAM  HZ I         644 37.22        20.7 0.42            140            142  99 
 PTB  HZ EP   9    644 14.38                             135   -0.94 0  155 266 
 PTB  HN ES        644 36.64                             135   -0.76 9  155 266 
 PTB  HZ I         644 38.01        18.6 0.18            135            155 266 
 SPBC HZ EP        644 15.94                             135    0.43 9  156 226 
 SPBC HN ES   4    644 37.56                             135   -1.11 0  156 226 
 SPBC HZ I         644 44.73        20.0 0.20            135            156 226 
 YPLC HZ IP     D  644 15.34                             135   -0.13 9  156 151 
 YPLC HN ES        644 38.42                             135   -0.19 9  156 151 
 YPLC HZ I         644 40.26        30.2 0.36            136            156 151 
 TABC EZ EP   2    644 22.49                             125    0.53 4  219 215 
 TABC EZ ES   4    644 51.98                             125    1.83 0  219 215 
 ZAR  HZ EP        644 21.59                             124    0.14 8  220 296 
 ZAR  HN ES        644 49.48                             124    0.23 8  220 296 
 ZAR  HZ I         644 51.81        17.0 0.16            125            220 296 
 NOR  HZ EP        644 22.37                             123   -0.37 8  233 240 
 NOR  HN ES   4    644 50.16                             123   -1.38 0  233 240 
 NOR  HZ I         644 53.32        12.4 0.34            123            233 240 
 ROSC BZ EP   4    644 25.56                             122    1.37 0  242 215 
 ROSC BN ES   4    644 55.66                             122    1.54 0  242 215 
 ROSC BZ I         645  2.36         8.9 0.60            122            242 215 
 HEL  HZ EP   4 C  644 28.88                             118    1.01 0  278 260 
 HEL  HN ES        644 59.67                             118   -1.00 7  278 260 
 HEL  HZ I         645  2.93        10.6 0.26            119            278 260 
 VIL  EE ES        645  2.36                             117    0.38 7  287 194 
 PTGC HZ IP   9 D  644 26.97                             117   -1.52 0  288 159 
 PTGC HN ES        644 59.02                             117   -1.24 7  288 159 
 PTGC HZ I         645  1.04        15.3 0.26            118            288 159 
 GUY2CHZ EP        644 30.60                             116    0.28 7  299 239 
 GUY2CHN ES   4    645  3.61                             116   -1.43 0  299 239 
 GUY2CHZ I         645 13.76         7.9 0.32                           299 239 
 URE  HZ EP   4    644 30.77                             116    0.93 0  300 295 
 URE  HN ES   4    645  2.01                             116   -2.18 0  300 295 
 URE  HZ I         645  2.95        14.1 0.34            117            300 295 
 CBOC HZ IP   4 C  644 34.96                             113    0.75 0  338 256 
 CBOC HN ES        645 10.96                             113   -1.00 7  338 256 
 CBOC HZ I         645 14.38         5.0 0.70            114            338 256 
 LL6C HZ EP        644 34.67                             113   -0.04 7  344 356 
 LL6C HN ES   4    645 10.94                             113   -1.91 0  344 356 
 DBB  EZ EP   4    644 41.95                             112    6.37 0  351 277 
 DBB  EN ES   2    645 14.40                             112   -0.01 3  351 277 
 DBB  EZ I         645 18.19         9.1 0.32            113            351 277 
 ARGC HZ EP        644 39.13                             110    0.34 6  380 340 
 ARGC HN ES        645 18.47                             110   -1.64 6  380 340 
 SJC  HZ EP   9    644 42.91                             108   -1.71 0  430 327 
 SJC  HN ES        645 25.86                             108   -2.92 5  430 327 
 SJC  HZ I         645 34.90         2.7 0.56            109            430 327 
 CRJC HZ EP   9    644 48.51                             105   -2.64 0  486   2 
 CRJC HN ES        645 40.13                             106    0.65 4  486   2 
                                                                                
