 2013  2 5 0142 10.2 L   6.517 -73.568113.7  RSN  9 0.5 1.8LRSN                1
 GAP=119        0.96       4.6     3.5  6.5  0.2947E+01  0.1604E+01 -0.1239E+00E
 Epicentro: EL CARMEN DE CHUCURI - SANTANDER                                   3
 ACTION:UPD 13-03-12 09:30 OP:ep   STATUS:               ID:20130205014210 L   I
 2013-02-05-0140-00M.COL___240                                                 6
 STAT SP IPHASW D HRMM SECON CODA AMPLIT PERI AZIMU VELO AIN AR TRES W  DIS CAZ7
 BAR2 SZ EP        142 27.16                             158    0.4410 43.4  79 
 BAR2 SZ ES        142 39.54                             158   -0.0710 43.4  79 
 BAR2 SZ I         142 40.60        51.9 0.50            161           43.4  79 
 BRR  HZ EP     D  142 28.03                             147    0.3110 67.1 346 
 BRR  HN ES        142 41.80                             147    0.4210 67.1 346 
 BRR  HN I         142 47.55        17.1 0.16            147           67.1 346 
 RUS  HZ EP     D  142 30.10                             140    0.2110 87.5 142 
 RUS  HN ES   2    142 45.32                             140    0.08 5 87.5 142 
 RUS  HN I         142 48.90         3.4 0.46            144           87.5 142 
 PTB  HZ EP        142 29.53                             136   -0.5810 98.3 271 
 PTB  HN ES   1    142 45.30                             136   -0.34 7 98.3 271 
 PTB  HN I         142 45.80        16.7 0.18            136           98.3 271 
 PAM  SZ EP        142 33.60                             127   -0.2510  132  46 
 PAM  SN ES   1    142 51.63                             127   -0.66 7  132  46 
 PAM  SN I         142 52.39         6.9 0.22            130            132  46 
 ZAR  HZ EP   2    142 38.47                             118    0.46 4  179 307 
 ZAR  HN ES   1    142 59.04                             118   -0.66 7  179 307 
 ZAR  HN I         143  5.03         6.5 0.14            119            179 307 
 TAM  HZ EP   1    142 39.52                             115   -0.50 6  197  93 
 TAM  HN ES   2    143  3.30                             115    0.03 4  197  93 
 TAM  HN I         143  4.10         7.1 0.44            118            197  93 
 HEL  HN ES   2    143  9.37                             113    0.75 4  220 261 
 HEL  HN I         143 14.05         3.1 0.58            114            220 261 
 SML  HZ EP   1    142 48.08                             109    1.11 6  259 348 
 SML  HN ES   1    143 15.35                             109   -0.30 6  259 348 
 SML  HN I         143 21.28        11.6 0.10            110            259 348 
                                                                                
