 2011  1 5 0128 54.8 L   6.815 -73.153141.3  RSN  6 0.3 1.5LRSN                1
 GAP=182        0.54       2.8     8.4  6.1 -0.3063E+01  0.1786E+02 -0.2395E+01E
 Epicentro: LOS SANTOS - SANTANDER                                             3
 ACTION:UP  11-02-08 08:38 OP:pat  STATUS:               ID:20110105012854 L   I
 2011-01-05-0124-41S.COL___135                                                 6
 STAT SP IPHASW D HRMM SECON CODA AMPLIT PERI AZIMU VELO SNR AR TRES W  DIS CAZ7
 BAR2 SZ EP   1    129 13.91                             170     0.0 7   25 188 
 BAR2 SZ ES   1    129 28.88                             170     0.0 7   25 188 
 BAR2 SZ I         129 29.78        15.7 0.25                            25 188 
 RUS  HZ EP   1    129 17.91                             143    -0.3 7  102 176 
 RUS  HN ES   1    129 36.54                             143     0.0 7  102 176 
 RUS  HZ I         129 37.43         4.1 0.21                           102 176 
 OCA  SZ EP   1    129 22.75                             129     0.1 7  159 353 
 OCA  SZ ES   1    129 44.40                             129     0.1 7  159 353 
 OCA  SZ I         129 47.51         7.3 0.27                           159 353 
 NOR  SE ES   2    129 57.80                             118    -0.2 4  235 234 
 CHI  HZ EP   2    129 32.53                             116     0.1 4  250 195 
 CHI  HE ES   2    130  2.65                             116     0.9 4  250 195 
 CHI  HZ I         130  7.52         1.5 0.55                           250 195 
 RREF HZ EP   2    129 40.46                             110    -0.4 3  322 229 
 RREF HZ I         129 56.98         1.0 0.68                           322 229 
                                                                                
