 2010  7 5 0038 44.3 L   6.558 -73.502110.2  RSN  8 0.4 1.7LRSN                1
 GAP=111        0.77       4.0     6.9  8.0 -0.9716E+01  0.1761E+02 -0.7036E+01E
 Epicentro: EL CARMEN DE CHUCURI - SANTANDER                                   3
 ACTION:UPD 10-12-01 15:15 OP:pat  STATUS:               ID:20100705003844 L   I
 2010-07-05-0033-45S.COL___118                                                 6
 STAT SP IPHASW D HRMM SECON CODA AMPLIT PERI AZIMU VELO AIN AR TRES W  DIS CAZ7
 BAR2 SZ IP     C  039  0.01                             161    -0.110   35  84 
 BAR2 SZ ES   2    039 12.80                             161     0.4 5   35  84 
 BRR  HZ EP   1    039  0.84                             147    -0.5 7   65 339 
 BRR  HN ES   2    039 14.82                             147     0.2 5   65 339 
 BRR  HZ I         039 23.91        13.7 0.44                            65 339 
 RUS  HZ EP   1    039  3.09                             139    -0.5 7   87 148 
 RUS  HN ES   2    039 18.74                             139     0.0 5   87 148 
 BRI  SZ EP   1    039  9.34                             122     0.3 7  150  31 
 BRI  SZ ES   2    039 28.46                             122     0.1 5  150  31 
 GUE  SZ EP   1    039  9.89                             121     0.2 7  154  24 
 GRA  SZ EP   1    039 10.91                             119     0.2 7  166  28 
 GRA  SZ ES   2    039 32.19                             119     0.9 5  166  28 
 OCA  SZ EP   1    039 12.71                             116    -0.3 7  187   6 
 OCA  SZ ES   2    039 34.51                             116    -0.9 4  187   6 
 OCA  SZ I         039 39.92         7.7 0.48                           187   6 
 RREF HZ EP   1    039 24.38                             106     0.8 6  275 228 
 RREF HN ES   2    039 54.31                             106     0.1 4  275 228 
 RREF HZ I         039 58.43         2.9 0.28                           275 228 
                                                                                
