 2017 11 5 0217 39.4 L   6.828 -73.146142.5  RSN 11 0.3 1.8LRSN                1
 GAP=111        0.83       3.2     3.6  5.4 -0.1554E+01 -0.1158E+01  0.6000E+01E
 Epicentro: LOS SANTOS - SANTANDER                                             3
 ACTION:UPD 17-12-12 19:52 OP:rebc STATUS:               ID:20171105021739 L   I
 OLDACT:UP  17-11-05 16:47 OP:dnl  STATUS:               ID:20171105020741     3
 OLDACT:REG 17-11-05 15:03 OP:dnl  STATUS:               ID:20171105020741     3
 2017-11-05-0208-00M.COL___435                                                 6
 STAT SP IPHASW D HRMM SECON CODA AMPLIT PERI AZIMU VELO AIN AR TRES W  DIS CAZ7
 BAR2 EZ EP        217 58.39                             169   -0.3410 26.4 189 
 BAR2 EZ ES        218 13.35                             169   -0.4410 26.4 189 
 BAR2 EZ I         218 16.94        13.3 0.58            166           26.4 189 
 BRR  HZ EP        218  0.04                             152   -0.1010 69.7 296 
 BRR  HE ES        218 17.02                             152    0.7210 69.7 296 
 BRR  HZ I         218 20.17         9.8 0.12            147           69.7 296 
 PAM  EZ EP        218  1.09                             151   -0.0610 75.0  41 
 PAM  EE ES        218 18.04                             151   -0.0610 75.0  41 
 PAM  EZ I         218 20.02        13.7 0.50            154           75.0  41 
 RUS  HZ EP        218  3.17                             142    0.0810  104 176 
 RUS  HE ES        218 21.54                             142   -0.0010  104 176 
 RUS  HZ I         218 23.18         5.0 0.30            142            104 176 
 SPBC HZ EP   2    218  8.22                             128    0.32 5  166 218 
 SPBC HN ES        218 29.52                             128   -0.60 9  166 218 
 SPBC HE ES        218 29.70                             128            166 218 
 SPBC HZ I         218 35.80         9.7 0.26            125            166 218 
 YPLC HZ EP        218  9.16                             125   -0.10 9  180 152 
 YPLC HN ES        218 33.14                             125    0.61 9  180 152 
 YPLC HZ I         218 35.94         7.7 0.32            126            180 152 
 ZAR  HZ EP   9    218 12.65                             122    1.12 0  203 291 
 ZAR  HE ES        218 37.79                             122    0.09 9  203 291 
 ZAR  HZ I         218 41.67         9.4 0.46            119            203 291 
 NOR  HZ EP   2    218 15.21                             118    0.05 4  236 234 
 NOR  HE ES        218 43.10                             118    0.07 8  236 234 
 NOR  HZ I         218 52.13         4.1 0.18            116            236 234 
 CHI  HZ EP   2    218 17.21                             116   -0.06 4  252 195 
 CHI  HE ES        218 47.07                             116    0.28 8  252 195 
 CHI  HZ I         218 52.25         3.8 0.26            115            252 195 
 URE  HZ EP   4    218 22.25                             113    2.05 0  283 291 
 URE  HE ES   4    218 48.94                             113   -3.07 0  283 291 
 URE  HZ I         219  3.10         3.5 0.20            111            283 291 
 GUY2CHZ EP   4    218 24.39                             112    1.31 0  303 234 
 GUY2CHE ES   4    218 55.21                             112   -1.92 0  303 234 
 GUY2CHZ I         219  7.04         3.6 0.32                           303 234 
                                                                                
