 2017  3 5 0330 29.8 L   6.774 -73.154146.4  RSN  8 0.4 1.5LRSN                1
 GAP= 98        0.99       4.1     3.7  5.9 -0.1854E+00  0.1965E+01  0.5749E+00E
 Epicentro: LOS SANTOS - SANTANDER                                             3
 ACTION:UPD 17-05-25 18:36 OP:jn   STATUS:               ID:20170305033029 L   I
 OLDACT:REG 17-03-05 12:01 OP:ar   STATUS:               ID:20170305032742     3
 2017-03-05-0328-00M.COL___387                                                 6
 STAT SP IPHASW D HRMM SECON CODA AMPLIT PERI AZIMU VELO AIN AR TRES W  DIS CAZ7
 BAR2 EZ EP        330 49.29                             172   -0.1910 20.4 189 
 BAR2 EZ ES        331  4.52                             172   -0.2910 20.4 189 
 BAR2 EZ I         331  6.95        10.4 0.30            171           20.4 189 
 BRR  HZ EP        330 51.11                             152    0.0210 71.9 301 
 BRR  HN ES        331  7.84                             152    0.1810 71.9 301 
 BRR  HZ I         331 10.48         6.8 0.26            152           71.9 301 
 PAM  EZ IP     C  330 52.16                             150   -0.1210 80.2  39 
 PAM  EN ES        331  9.90                             150    0.1110 80.2  39 
 PAM  EZ I         331 11.30         5.8 0.42            153           80.2  39 
 RUS  HZ EP        330 53.26                             145   -0.1910 97.8 175 
 RUS  HN ES        331 12.33                             145    0.4710 97.8 175 
 RUS  HZ I         331 12.85         5.2 0.36            146           97.8 175 
 PTB  HZ EP        330 55.92                             132   -0.80 9  146 260 
 PTB  HN ES        331 17.03                             132   -0.67 9  146 260 
 PTB  HZ I         331 18.65         2.7 0.12            133            146 260 
 TAM  HZ EP        330 57.59                             131    0.02 9  155 104 
 SPBC HZ EP        330 58.41                             130    0.29 9  160 219 
 SPBC HN ES        331 20.49                             130    0.31 9  160 219 
 SPBC HZ I         331 26.34         6.4 0.24            131            160 219 
 ZAR  HZ EP        331  2.93                             122    0.58 9  204 293 
 ZAR  HE ES        331 28.20                             122    0.49 9  204 293 
 ZAR  HZ I         331 34.20         3.0 0.22            123            204 293 
                                                                                
