 2017  3 5 0351  0.2 L   6.045 -74.096 87.3  RSN  7 0.4 1.5LRSN                1
 GAP= 86        1.02       3.1     2.9  7.3 -0.5040E+00 -0.1131E+01 -0.7188E+01E
 Epicentro: LA BELLEZA - SANTANDER                                             3
 ACTION:UPD 17-05-25 18:36 OP:jn   STATUS:               ID:20170305035100 L   I
 OLDACT:REG 17-03-05 12:02 OP:ar   STATUS:               ID:20170305034740     3
 2017-03-05-0348-00M.COL___387                                                 6
 STAT SP IPHASW D HRMM SECON CODA AMPLIT PERI AZIMU VELO AIN AR TRES W  DIS CAZ7
 SPBC HZ IP     C  351 13.75                             151    0.1610 43.5 177 
 SPBC HN IP     D  351 13.75                             151    0.1610 43.5 177 
 SPBC HE ES        351 24.30                             151    0.2810 43.5 177 
 SPBC HZ I         351 25.72        15.1 0.10            153           43.5 177 
 PTB  HZ EP        351 14.64                             139   -0.5610 67.7 324 
 PTB  HZ I         351 26.13         4.6 0.40            137           67.7 324 
 PTB  HN ES        351 26.29                             139   -0.6010 67.7 324 
 NOR  HZ EP        351 18.39                             127    0.1410  101 238 
 NOR  HN ES        351 32.47                             127    0.1410  101 238 
 NOR  HZ I         351 35.28        14.2 0.12            126            101 238 
 RUS  HZ EP        351 20.18                             124    0.0810  113  98 
 RUS  HN ES        351 34.95                             124   -0.6610  113  98 
 RUS  HZ I         351 36.67         4.3 0.46            125            113  98 
 BAR2 EZ IP     D  351 20.41                             122    0.1810  118  59 
 BAR2 EZ ES        351 36.07                             122    0.2310  118  59 
 BAR2 EZ I         351 36.60        17.4 0.42            123            118  59 
 BRR  HZ IP     D  351 20.52                             120   -0.1510  125  20 
 BRR  HE ES        351 37.20                             120    0.5810  125  20 
 ZAR  HZ EP        351 26.43                             111   -0.50 9  181 332 
 ZAR  HN ES        351 48.32                             111    0.55 9  181 332 
 ZAR  HZ I         351 52.42         5.2 0.34            110            181 332 
                                                                                
