 2017  2 5 0651 14.4 L   6.788 -73.132140.7  RSN  9 0.5 1.8LRSN                1
 GAP=139        0.99       3.9     4.0  6.6 -0.1094E+01  0.9740E+01  0.4553E+01E
 Epicentro: LOS SANTOS - SANTANDER                                             3
 ACTION:UPD 17-05-24 15:32 OP:jn   STATUS:               ID:20170205065114 L   I
 OLDACT:REG 17-02-05 13:33 OP:dnl  STATUS:               ID:20170205064741     3
 2017-02-05-0648-00M.COL___316                                                 6
 STAT SP IPHASW D HRMM SECON CODA AMPLIT PERI AZIMU VELO AIN AR TRES W  DIS CAZ7
 BAR2 EZ IP     D  651 33.27                             171   -0.1510 22.4 194 
 BAR2 EZ ES        651 47.95                             171   -0.2910 22.4 194 
 BAR2 EZ I         651 49.31        27.5 0.22            168           22.4 194 
 BRR  HZ IP     C  651 35.19                             151    0.0510 73.1 299 
 BRR  HN ES        651 51.96                             151    0.6610 73.1 299 
 BRR  HZ I         651 55.86        12.8 0.36            149           73.1 299 
 PAM  EZ EP        651 36.28                             150    0.1710 77.5  38 
 PAM  EN ES        651 53.08                             150    0.0610 77.5  38 
 PAM  EZ I         651 55.42        10.8 0.40            153           77.5  38 
 RUS  HZ EP   2    651 37.38                             143   -0.20 5 99.2 177 
 RUS  HN ES        651 55.80                             143    0.1610 99.2 177 
 RUS  HZ I         651 56.26         4.3 0.14            143           99.2 177 
 PTB  HZ EP   2    651 40.05                             131   -1.04 5  149 259 
 PTB  HN ES        652  0.88                             131   -1.02 9  149 259 
 PTB  HZ I         652  4.18        12.1 0.14            129            149 259 
 ZAR  HZ EP   2    651 46.46                             121   -0.28 4  206 292 
 ZAR  HN ES        652 11.74                             121   -0.20 8  206 292 
 ZAR  HZ I         652 20.00         8.2 0.42            120            206 292 
 NOR  HZ EP        651 49.85                             117   -0.06 8  235 235 
 NOR  HE ES        652 18.15                             117    0.56 8  235 235 
 NOR  HZ I         652 24.52         4.7 0.20            117            235 235 
 CHI  HZ EP   2    651 51.64                             116   -0.11 4  248 196 
 CHI  HN ES        652 20.79                             116   -0.08 8  248 196 
 CHI  HZ I         652 30.87         2.8 0.46            116            248 196 
 CBOC HZ EP   2    652  1.87                             109    0.62 3  335 252 
 CBOC HE ES        652 38.59                             109    0.82 7  335 252 
 CBOC HZ I         652 41.66         1.2 0.18            109            335 252 
                                                                                
