 2010  1 5 0127 16.4 L   6.820 -73.081139.0  RSN 10 0.3 2.1LRSN                1
 GAP=130        0.67       2.9     5.5  4.4 -0.4892E+01  0.4462E+01  0.1180E+01E
 Epicentro: LOS SANTOS - SANTANDER                                             3
 ACTION:UP  10-08-24 09:42 OP:vdl  STATUS:               ID:20100105012716 L   I
 2010-01-05-0125-41S.COL___097                                                 6
 STAT SP IPHASW D HRMM SECON CODA AMPLIT PERI AZIMU VELO SNR AR TRES W  DIS CAZ7
 BAR2 SZ EP        127 35.41                             168     0.110   28 204 
 BAR2 SZ ES   1    127 49.50                             168    -0.5 7   28 204 
 GIR2 SZ EP        127 35.64                             167     0.410   31 337 
 GIR2 SZ ES   1    127 50.43                             167     0.5 7   31 337 
 RUS  BZ EP        127 39.44                             142    -0.210  103 180 
 RUS  BN ES   2    127 57.86                             142     0.1 5  103 180 
 RUS  BZ I         127 59.77        18.0 0.27                           103 180 
 OCA  SZ IP        127 44.03                             128     0.0 9  159 351 
 OCA  SZ ES   1    128  5.35                             128    -0.3 7  159 351 
 CHI  HZ EP        127 53.88                             115    -0.3 8  253 197 
 CHI  HE ES   2    128 23.44                             115    -0.2 4  253 197 
 CHI  HZ I         128 26.42         4.6 0.46                           253 197 
 GUY  HZ EP   1    128  0.63                             111     0.1 5  308 235 
 GUY  HN ES   2    128 34.63                             111    -0.3 4  308 235 
 RREF BZ EP   2    128  3.94                             109     0.9 3  329 230 
 RREF BE ES   2    128 39.76                             109     0.4 3  329 230 
 RREF BZ I         128 47.31         6.2 0.22                           329 230 
 DBB  SZ EP        128  3.87                             108    -0.5 6  346 274 
 SDV  BZ IP        128  5.32                             107     0.0 6  354  50 
 PRA  HZ EP        128 10.09                             105    -0.2 6  397 210 
 PRA  HN ES   2    128 52.49                             105     0.1 3  397 210 
 PRA  HZ I         128 56.20         7.4 0.45                           397 210 
                                                                                
