 2017  4 5 0148 29.2 L   6.787 -73.137143.5  RSN 33 0.6 3.3LRSN                1
 GAP=113        1.06       2.3     3.1  4.3  0.3284E+00  0.3795E+01  0.3934E+00E
 Epicentro: LOS SANTOS - SANTANDER                                             3
 ACTION:UPD 17-05-30 21:08 OP:jn   STATUS:               ID:20170405014829 L   I
 OLDACT:UP  17-04-05 13:56 OP:and  STATUS:               ID:20170405014742     3
 OLDACT:UP  17-04-05 13:53 OP:and  STATUS:               ID:20170405014742     3
 OLDACT:REG 17-04-05 12:38 OP:and  STATUS:               ID:20170405014742     3
 2017-04-05-0148-00M.COL___365                                                 6
 STAT SP IPHASW D HRMM SECON CODA AMPLIT PERI AZIMU VELO AIN AR TRES W  DIS CAZ7
 BAR2 EZ IP     C  148 48.51                             171    0.0010 22.2 193 
 BAR2 EZ ES        149  3.24                             171   -0.3510 22.2 193 
 BAR2 EZ I         149  4.53       598.3 0.26            167           22.2 193 
 BRR  HZ EP     C  148 50.39                             151    0.2210 72.7 299 
 BRR  HN ES        149  7.46                             151    0.9210 72.7 299 
 BRR  HZ I         149  8.38       584.6 0.20            149           72.7 299 
 PAM  EZ IP     C  148 51.35                             150    0.1710 77.8  38 
 PAM  EN ES        149  8.20                             150   -0.1310 77.8  38 
 PAM  EZ I         149 10.53       309.8 0.50            154           77.8  38 
 RUS  HZ IP     C  148 52.34                             144   -0.2610 99.1 177 
 RUS  HN ES        149 10.72                             144   -0.1510 99.1 177 
 RUS  HZ I         149 12.13       264.8 0.32            143           99.1 177 
 PTB  HZ EP        148 55.15                             131   -0.88 9  148 259 
 PTB  HN ES        149 16.17                             131   -0.80 9  148 259 
 PTB  HZ I         149 18.55       455.5 0.14            129            148 259 
 SPBC HZ EP        148 57.43                             129   -0.03 9  163 220 
 SPBC HN ES        149 19.60                             129    0.08 9  163 220 
 SPBC HZ I         149 20.95       459.2 0.14            127            163 220 
 YPLC HZ IP     C  148 58.88                             126    0.24 9  175 151 
 YPLC HN ES        149 21.16                             126   -0.46 9  175 151 
 YPLC HZ I         149 25.14       176.2 0.38            127            175 151 
 ZAR  HZ EP        149  1.17                             122   -0.46 8  206 292 
 ZAR  HN ES        149 27.21                             122    0.28 8  206 292 
 ZAR  HZ I         149 32.87       323.6 0.26            121            206 292 
 TABC EZ EP        149  6.20                             119    1.48 8  229 211 
 TABC EZ ES        149 33.42                             119    0.98 8  229 211 
 TABC EZ I         149 41.10       189.4 0.36            118            229 211 
 NOR  HZ EP        149  4.41                             118   -0.37 8  235 235 
 NOR  HN ES        149 32.41                             118   -0.13 8  235 235 
 NOR  HZ I         149 34.28       236.2 0.22            117            235 235 
 CHI  HZ EP        149  6.72                             117    0.09 8  248 195 
 CHI  HN ES        149 35.85                             117    0.00 8  248 195 
 CHI  HZ I         149 42.01        63.3 0.28            116            248 195 
 ROSC BZ EP   3    149  8.33                             116    1.23 2  252 211 
 ROSC BN ES   4    149 38.96                             116    2.28 0  252 211 
 ROSC BZ I         149 46.34       245.7 0.35            116            252 211 
 HEL  HZ EP        149  8.67                             114   -0.68 8  273 256 
 HEL  HN ES   4    149 43.56                             114    2.88 0  273 256 
 HEL  HZ I         149 47.72       201.3 0.46            113            273 256 
 URE  HZ EP   9    149  8.80                             113   -1.50 0  285 292 
 URE  HN ES        149 40.71                             113   -0.16 7  285 292 
 URE  HZ I         149 48.91       165.8 0.18            112            285 292 
 VIL  EZ EP        149 12.22                             112   -0.14 7  302 192 
 VIL  EN ES        149 46.40                             112    0.36 7  302 192 
 VIL  EZ I         149 52.37        88.7 0.42            111            302 192 
 PTGC HZ EP   9    149 11.55                             111   -1.19 0  307 159 
 PTGC HN ES        149 44.73                             111   -0.80 7  307 159 
 PTGC HZ I         149 47.51        85.5 0.26            112            307 159 
 LL1C HZ EP   4    149 15.28                             111    2.44 0  308 351 
 LL1C HN ES   4    149 52.10                             111    5.20 0  308 351 
 LL6C HN EP   9    148 54.37                             110   -20.6 0  326 357 
 LL6C HE ES        149 29.69                                   -0.38 7  326 357 
 LL6C HN I         149 45.31        38.6 0.36            110            326 357 
 ELA  HZ EP   3    149 17.36                             110    1.44 2  329 230 
 ELA  HE ES   4    149 55.95                             110    3.58 0  329 230 
 ELA  HZ I         150  5.60       103.1 0.52            109            329 230 
 CBOC HZ IP     D  149 16.44                             109    0.38 7  334 252 
 CBOC HN ES        149 53.06                             109    0.43 7  334 252 
 CBOC HZ I         149 57.98        44.3 0.42            109            334 252 
 DBB  EZ EP        149 16.23                             109   -0.46 7  341 274 
 DBB  EN ES   3    149 52.29                             109   -1.46 2  341 274 
 DBB  EZ I         149 59.55        61.3 0.20            108            341 274 
 ANIL HZ IP   3 C  149 20.02                             108    1.16 2  357 225 
 ANIL HN ES   4    150  0.39                             108    2.78 0  357 225 
 ARGC HZ EP        149 19.29                             108    0.35 6  361 340 
 ARGC HN ES        149 58.31                             108    0.56 6  361 340 
 ARGC HZ I         150 12.74        25.4 0.58            108            361 340 
 PRA  HZ EP        149 21.99                             106   -0.55 6  391 210 
 PRA  HN ES        150  3.73                             106   -0.43 6  391 210 
 PRA  HZ I         150 10.94        88.0 0.24            106            391 210 
 ORTC HZ EP   9    149 23.68                             106    0.72 0  395 216 
 ORTC HN ES        150  6.69                             107    1.06 6  395 216 
 ORTC HZ I         150  9.01        29.0 0.26            106            395 216 
 APAC HZ IP     D  149 22.85                             106   -0.60 6  400 288 
 APAC HN ES   3    150  4.51                             106   -1.28 1  400 288 
 APAC HZ I         150 14.84        53.6 0.32            105            400 288 
 PAL  HZ IP     C  149 24.45                             105    0.17 6  406 239 
 PAL  HN ES        150  7.58                             105    0.32 6  406 239 
 PAL  HZ I         150  9.33        28.2 0.44            105            406 239 
 SJC  HZ EP   4    149 22.65                             105   -2.22 0  411 327 
 SJC  HN ES   4    150  4.34                             105   -3.96 0  411 327 
 SJC  HZ I         150  7.89        30.6 0.46            105            411 327 
 VALLCHZ EP   3    149 26.10                             105    1.19 1  412 358 
 VALLCHE ES        150  8.83                             105    0.44 6  412 358 
 LCBC HZ EP        149 25.49                             105   -0.77 5  424 303 
 LCBC HN ES        150 11.18                             105    0.40 5  424 303 
 SMAR HZ EP        149 35.26                             102    0.08 4  499 346 
 SMAR HN ES   4    150 22.21                             102   -4.45 0  499 346 
 SMAR HZ I         150 26.87        12.5 0.32            102            499 346 
 PTA  HZ EP        149 36.47                             101   -0.99 4  518 275 
 MACC HZ EP   4    149 35.94                             101   -1.75 0  519 189 
 MACC HN ES   4    150 27.61                             101   -3.51 0  519 189 
 MACC HZ I         150 31.74        14.3 0.31            101            519 189 
 MARO HZ EP        149 39.98                             101   -0.10 4  537 216 
 MARO HN ES        150 36.00                             101    0.61 4  537 216 
 MARO HZ I         150 40.96        10.8 0.54            101            537 216 
 MAL  EZ EP   4    149 44.00                             100    1.80 0  557 237 
                                                                                
