 2012  3 5 0956  0.7 L   6.884 -73.066137.6  RSN  7 0.4 1.8LRSN                1
 GAP=252        0.85       7.2     6.4  9.3  0.2397E+02  0.2354E+02  0.1329E+02E
 ACTION:UP  12-03-31 23:17 OP:EP   STATUS:               ID:20120305095600 L   I
 2012-03-05-0950-00M.COL___191                                                 6
 STAT SP IPHASW D HRMM SECON CODA AMPLIT PERI AZIMU VELO SNR AR TRES W  DIS CAZ7
 BAR2 SZ EP   1    956 19.59                             165    -0.1 9   35 202 
 BAR2 SZ ES   1    956 34.42                             165     0.0 9   35 202 
 BAR2 SZ I         956 37.27        18.2 0.27                            35 202 
 BRR  HZ I         956 24.84        20.9 0.10                            76 289 
 BRR  HN ES   1    956 37.72                             150     0.5 9   76 289 
 RUS  HZ EP   1    956 24.75                             140     0.4 9  110 181 
 RUS  HN ES   1    956 42.54                             140    -0.3 9  110 181 
 RUS  HZ I         956 45.52         4.8 0.28                           110 181 
 PTB  HZ EP   1    956 27.65                             128    -0.4 8  158 256 
 PTB  HN ES   1    956 48.72                             128    -0.6 8  158 256 
 ZAR  HN ES        956 58.41                             120    -0.110  209 289 
 ZAR  HZ I         957  4.90         5.6 0.13                           209 289 
 NOR  SN ES   1    957  6.60                             115     0.7 7  247 234 
 HEL  HE ES   1    957 13.85                             112     0.1 7  283 254 
 HEL  HZ I         957 21.62         3.3 0.30                           283 254 
                                                                                
