 2011  9 5 0918  5.6 L   6.790 -73.118153.2  RSN  4 0.2 1.3LRSN                1
 GAP=240        0.38       8.6     8.7  6.5  0.5840E+02 -0.7012E+01 -0.2020E+02E
 Epicentro: LOS SANTOS - SANTANDER                                             3
 ACTION:UPD 12-07-13 15:55 OP:ep   STATUS:               ID:20110905091805 L   I
 2011-09-05-0916-14S.COL___171                                                 6
 STAT SP IPHASW D HRMM SECON CODA AMPLIT PERI AZIMU VELO AIN AR TRES W  DIS CAZ7
 BAR2 SZ EP   1    918 25.97                             171   -0.12 7 22.9 198 
 BAR2 SZ I         918 26.61         3.2 0.09                          22.9 198 
 BAR2 SZ ES   2    918 41.81                             171   -0.29 5 22.9 198 
 BRR  HZ EP   1    918 27.89                             153    0.18 7 74.4 298 
 BRR  HN ES   2    918 45.21                             153    0.23 5 74.4 298 
 BRR  HZ I         918 48.55         5.7 0.05                          74.4 298 
 RUS  HN ES   2    918 49.17                             146    0.16 5 99.3 178 
 RUS  HZ I         918 50.69         1.4 0.32                          99.3 178 
 ZAR  HZ EP   2    918 38.75                             123   -0.10 4  207 292 
 ZAR  HN ES   2    919  4.57                             123   -0.23 4  207 292 
 ZAR  HZ I         919  9.10         2.3 0.34                           207 292 
                                                                                
