 2015 10 5 0715 48.1 L   6.817 -73.177134.2  RSN 12 0.5 1.7LRSN                1
 GAP=132        1.12       2.8     4.4  5.9 -0.3458E+01  0.1071E+02  0.5825E-01E
 Epicentro: ZAPATOCA - SANTANDER                                               3
 ACTION:UPD 15-12-22 20:37 OP:cam  STATUS:               ID:20151005071548 L   I
 OLDACT:REG 15-10-05 13:27 OP:ak   STATUS:               ID:20151005070749     3
 2015-10-05-0707-49M.COL___346                                                 6
 STAT SP IPHASW D HRMM SECON CODA AMPLIT PERI AZIMU VELO AIN AR TRES W  DIS CAZ7
 BAR2 EZ EP        716  6.70                             169    0.3110 24.8 181 
 BAR2 EZ ES        716 19.73                             169   -0.9110 24.8 181 
 BAR2 EZ I         716 22.31        15.3 0.34            167           24.8 181 
 BRR  HZ EP        716  8.44                             152    0.6510 67.3 299 
 BRR  HN ES        716 23.85                             152    0.7110 67.3 299 
 BRR  HZ I         716 29.20         8.2 0.14            147           67.3 299 
 PAM  EZ EP        716  9.56                             148    0.3910 78.2  42 
 PAM  EN ES        716 25.82                             148    0.2310 78.2  42 
 PAM  EZ I         716 28.37        13.0 0.50            155           78.2  42 
 RUS  HZ EP        716 10.87                             141   -0.0410  103 174 
 RUS  HN ES        716 28.53                             141   -0.1610  103 174 
 RUS  HZ I         716 30.99         8.8 0.28            145            103 174 
 OCA  HZ EP        716 14.81                             127   -0.52 9  158 354 
 OCA  HN ES        716 36.19                             127   -0.38 9  158 354 
 OCA  HZ I         716 41.71        11.1 0.26            130            158 354 
 SPBC HZ EP        716 15.70                             126    0.01 9  163 218 
 SPBC HN ES        716 37.57                             126    0.38 9  163 218 
 SPBC HZ I         716 42.85         8.3 0.11            128            163 218 
 NOR  HZ EP        716 22.72                             116   -0.29 8  233 234 
 NOR  HN ES        716 49.64                             116   -0.60 8  233 234 
 NOR  HZ I         717  5.78         2.4 0.26            118            233 234 
 SML  HZ EP        716 23.22                             115   -0.55 8  241 336 
 SML  HE ES        716 51.65                             115    0.06 8  241 336 
 SML  HZ I         716 56.58         5.8 0.10            117            241 336 
 CHI  HZ EP        716 25.11                             114   -0.19 8  250 194 
 CHI  HN ES        716 54.26                             114   -0.05 8  250 194 
 CHI  HZ I         716 56.82         1.6 0.36            117            250 194 
 HEL  HZ EP   1    716 27.39                             113   -0.05 6  269 255 
 HEL  HN ES        716 57.34                             113   -0.78 8  269 255 
 HEL  HZ I         717  5.72         3.5 0.30            114            269 255 
 GUY2CHZ EP        716 31.60                             110    0.58 7  299 234 
 GUY2CHN ES        717  5.31                             110    0.83 7  299 234 
 GUY2CHZ I         717 13.06         1.8 0.08                           299 234 
 CBOC HZ EP        716 34.50                             108    0.24 7  331 252 
 CBOC HN ES        717 10.13                             108   -0.13 7  331 252 
 CBOC HZ I         717 22.42         1.0 0.25            109            331 252 
                                                                                
