 2012  7 5 0248 10.3 L   6.760 -73.201146.4  RSN  4 0.2 1.0LRSN                1
 GAP=228        0.55       6.3     4.4  6.4  0.1295E+02 -0.8127E+00 -0.1363E+02E
 Epicentro: VILLANUEVA - SANTANDER                                             3
 ACTION:UPD 12-08-14 11:42 OP:ep   STATUS:               ID:20120705024810 L   I
 2012-07-05-0246-59S.COL___215                                                 6
 STAT SP IPHASW D HRMM SECON CODA AMPLIT PERI AZIMU VELO AIN AR TRES W  DIS CAZ7
 BAR2 SZ EP   1    248 29.68                             172    -0.2 7   19 174 
 BAR2 SZ ES   1    248 45.27                             172     0.0 7   19 174 
 BAR2 SZ I         248 46.10         4.6 0.18            173             19 174 
 BRR  HZ EP   1    248 31.45                             154     0.1 7   68 304 
 RUS  HZ EP        248 34.11                             145     0.310   97 172 
 RUS  HN ES        248 52.09                             145    -0.110   97 172 
 RUS  HZ I         248 52.19         1.8 0.63            147             97 172 
 PTB  HZ EP   1    248 36.40                             133    -0.3 7  141 260 
 PTB  HN ES        248 57.39                             133     0.1 9  141 260 
 PTB  HZ I         248 59.68         0.7 0.15            133            141 260 
