 2015  6 5 0035 38.9 L   6.778 -73.107141.1  RSN 12 0.3 1.8LRSN                1
 GAP=143        0.78       2.4     3.3  4.4 -0.9183E+00  0.6197E+01 -0.3846E+00E
 Epicentro: LOS SANTOS - SANTANDER                                             3
 ACTION:UPD 15-09-10 22:09 OP:cam  STATUS:               ID:20150605003538 L   I
 OLDACT:REG 15-06-05 12:24 OP:ak   STATUS:               ID:20150605002750     3
 2015-06-05-0027-50M.COL___303                                                 6
 STAT SP IPHASW D HRMM SECON CODA AMPLIT PERI AZIMU VELO AIN AR TRES W  DIS CAZ7
 BAR2 EZ EP        035 57.97                             171    0.0210 22.1 202 
 BAR2 EZ ES        036 12.72                             171   -0.0810 22.1 202 
 BAR2 EZ I         036 14.45        17.3 0.18            169           22.1 202 
 BRR  HZ EP        036  0.02                             150    0.1810 76.1 299 
 BRR  HN ES        036 16.24                             150    0.0710 76.1 299 
 BRR  HZ I         036 20.22        12.8 0.23            148           76.1 299 
 PAM  SZ EP        036  1.05                             150    0.4610 76.7  36 
 PAM  SN ES        036 17.75                             150    0.2610 76.7  36 
 PAM  SZ I         036 20.00        15.1 0.50            154           76.7  36 
 RUS  HZ EP        036  2.30                             144    0.3010 97.9 178 
 RUS  HN ES        036 19.48                             144   -0.5410 97.9 178 
 RUS  HZ I         036 21.96         3.2 0.12            146           97.9 178 
 SPBC HZ EP   1    036  7.10                             128   -0.03 7  164 221 
 SPBC HN ES        036 28.73                             128   -0.41 9  164 221 
 SPBC HZ I         036 33.82        14.7 0.05            129            164 221 
 ZAR  HZ EP        036 11.48                             121   -0.08 8  209 292 
 ZAR  HE ES        036 37.22                             121    0.19 8  209 292 
 ZAR  HZ I         036 42.67        10.3 0.30            122            209 292 
 SML  HZ EP        036 14.93                             116   -0.79 8  248 335 
 SML  HN ES        036 43.94                             116   -0.49 8  248 335 
 SML  HZ I         036 47.08         8.4 0.04            118            248 335 
 HEL  HZ EP        036 19.38                             113    0.10 7  276 257 
 HEL  HN ES        036 51.25                             113    0.48 7  276 257 
 HEL  HZ I         036 57.35         4.1 0.48            115            276 257 
 URE  HZ EP   1    036 19.94                             112   -0.37 5  289 292 
 URE  HN ES   4    036 48.48                             112   -4.11 0  289 292 
 URE  HZ I         036 58.75         4.0 0.12            114            289 292 
 GUY2CHZ EP   1    036 22.46                             111   -0.08 5  303 236 
 GUY2CHN ES        036 56.95                             111    0.38 7  303 236 
 GUY2CHZ I         037  3.46         2.4 0.30                           303 236 
 MON  HZ EP   4    036 25.80                             107   -2.50 0  359 308 
 MON  HN ES   4    037  4.49                             107   -2.34 0  359 308 
 MON  HZ I         037  5.27         1.2 0.40            109            359 308 
 PRA  HZ EP   1    036 32.42                             106    0.15 4  392 210 
 PRA  HN ES        037 13.91                             106    0.02 6  392 210 
 PRA  HZ I         037 17.00         2.1 0.30            108            392 210 
                                                                                
