 2012  8 5 0620 13.3 L   6.778 -73.142149.3  RSN  7 0.4 1.8LRSN                1
 GAP=138        0.77       4.2     4.6  7.4  0.6269E+00  0.6245E+01 -0.3064E+00E
 Epicentro: LOS SANTOS - SANTANDER                                             3
 ACTION:UPD 12-09-10 11:54 OP:ep   STATUS:               ID:20120805062013 L   I
 2012-08-05-0620-00M.COL___216                                                 6
 STAT SP IPHASW D HRMM SECON CODA AMPLIT PERI AZIMU VELO AIN AR TRES W  DIS CAZ7
 BAR2 SZ EP   1    620 33.28                             172    0.01 7 21.0 192 
 BAR2 SZ ES   1    620 48.66                             172   -0.22 7 21.0 192 
 BAR2 SZ I         620 51.39        21.5 0.37                          21.0 192 
 BRR  HZ EP   1    620 35.20                             153    0.32 7 72.8 300 
 BRR  HN ES   1    620 52.54                             153    0.80 7 72.8 300 
 BRR  HZ I         620 54.55        12.8 0.18                          72.8 300 
 PAM  SZ EP   1    620 36.18                             151    0.23 7 79.0  38 
 PAM  SE ES   1    620 53.40                             151   -0.24 7 79.0  38 
 RUS  HZ EP   1    620 37.32                             145    0.13 7 98.1 176 
 RUS  HN ES   1    620 55.89                             145    0.04 7 98.1 176 
 RUS  HZ I         620 57.26         7.2 0.35                          98.1 176 
 PTB  HZ EP   1    620 40.19                             133   -0.33 7  148 260 
 PTB  HN ES   1    621  1.12                             133   -0.66 7  148 260 
 PTB  HZ I         621  7.31         6.9 0.17                           148 260 
 OCA  HN ES   1    621  4.06                             130   -0.49 7  163 353 
 ZAR  HN ES   1    621 11.94                             123    0.27 6  205 293 
                                                                                
