 2011  9 5 0648 49.0 L   6.761 -73.150147.7  RSN  4 0.2 1.5LRSN                1
 GAP=182        0.40       3.8    11.5  6.3  0.2578E+02 -0.3361E+02 -0.1065E+02E
 Epicentro: LOS SANTOS - SANTANDER                                             3
 ACTION:UPD 12-07-13 15:55 OP:ep   STATUS:               ID:20110905064849 L   I
 2011-09-05-0642-54S.COL___171                                                 6
 STAT SP IPHASW D HRMM SECON CODA AMPLIT PERI AZIMU VELO AIN AR TRES W  DIS CAZ7
 BAR2 SZ EP   1    649  8.56                             172   -0.19 7 19.0 191 
 BAR2 SZ I         649  8.74         4.9 0.09                          19.0 191 
 BAR2 SZ ES   2    649 23.94                             172   -0.24 5 19.0 191 
 BRR  HZ EP   2    649 10.66                             152    0.24 5 72.9 302 
 BRR  HZ I         649 11.89         5.8 0.11                          72.9 302 
 BRR  HN ES   2    649 27.05                             152   -0.10 5 72.9 302 
 RUS  HZ EP   1    649 12.59                             145   -0.01 7 96.3 176 
 RUS  HZ I         649 13.39         7.5 0.73                          96.3 176 
 RUS  HN ES   2    649 31.45                             145    0.41 5 96.3 176 
 OCA  SZ EP   1    649 17.77                             129   -0.05 7  165 354 
 OCA  SZ ES   2    649 40.64                             129    0.31 5  165 354 
 OCA  SZ I         649 44.79         2.7 0.16                           165 354 
                                                                                
