 2011  4 5 0911 38.4 L   6.785 -73.126143.5  RSN 10 0.3 2.1LRSN                1
 GAP=158        0.65       4.1     5.5  5.5 -0.8520E+01  0.4143E+01  0.3183E+01E
 Epicentro: LOS SANTOS - SANTANDER                                             3
 ACTION:UP  11-06-22 15:28 OP:REBC STATUS:               ID:20110405091138 L   I
 2011-04-05-0900-00M.COL___136                                                 6
 STAT SP IPHASW D HRMM SECON CODA AMPLIT PERI AZIMU VELO SNR AR TRES W  DIS CAZ7
 BTL  SZ EP        911 58.32                             171     0.610   22 313 
 BAR2 SZ EP        911 57.60                             171    -0.210   22 196 
 BAR2 SZ ES   1    912 12.88                             171     0.0 7   22 196 
 BAR2 SZ I         912 14.23        19.1 0.15                            22 196 
 BRR  HZ EP        911 59.43                             151    -0.110   74 299 
 BRR  HZ I         912  1.41        24.3 0.16                            74 299 
 BRR  HE ES   1    912 16.03                             151     0.1 7   74 299 
 PAM  SZ EP   2    912  0.27                             151    -0.1 5   77  38 
 PAM  SE ES   2    912 17.29                             151    -0.2 5   77  38 
 OCA  SZ EP        912  6.41                             129    -0.3 9  162 352 
 OCA  SZ I         912 32.51        31.3 0.16                           162 352 
 NOR  SE ES   2    912 42.21                             118     0.2 4  236 235 
 CHI  HZ EP   1    912 15.95                             117     0.0 6  248 196 
 CHI  HE ES   2    912 44.92                             117    -0.2 4  248 196 
 CHI  HZ I         912 53.64         4.2 0.38                           248 196 
 HEL  HZ EP   2    912 19.17                             114     0.4 4  274 256 
 HEL  HN ES   2    912 49.60                             114    -0.6 4  274 256 
 HEL  HZ I         912 56.91         6.3 0.38                           274 256 
 RREF HZ EP   2    912 25.35                             110     0.8 3  322 230 
 RREF HN ES   2    913  0.15                             110    -0.4 3  322 230 
 RREF HZ I         913  9.45         6.0 0.38                           322 230 
 PRA  HZ EP   2    912 31.60                             106    -0.2 3  392 210 
 PRA  HN ES   2    913 12.94                             106    -0.6 3  392 210 
                                                                                
