 2017  1 5 0845 37.2 L   6.763 -73.146143.7  RSN  8 0.4 1.4LRSN                1
 GAP=138        0.96       3.7     4.0  6.4  0.1253E-02  0.8253E+01  0.2437E+01E
 Epicentro: LOS SANTOS - SANTANDER                                             3
 ACTION:UPD 17-05-22 15:55 OP:jn   STATUS:               ID:20170105084537 L   I
 OLDACT:DUP 17-01-05 16:34 OP:lv   STATUS:               ID:20170105083746d    3
 2017-01-05-0838-00M.COL___368                                                 6
 STAT SP IPHASW D HRMM SECON CODA AMPLIT PERI AZIMU VELO AIN AR TRES W  DIS CAZ7
 BAR2 EZ EP        845 56.47                             172   -0.0510 19.3 192 
 BAR2 EZ ES        846 11.39                             172   -0.1910 19.3 192 
 BAR2 EZ I         846 14.34         5.7 0.23            172           19.3 192 
 BRR  HZ EP        845 58.40                             151    0.1410 73.2 301 
 BRR  HN ES        846 15.31                             151    0.6410 73.2 301 
 PAM  EZ EP        845 59.49                             149    0.0910 80.6  38 
 PAM  EN ES        846 16.69                             149   -0.0310 80.6  38 
 PAM  EZ I         846 17.45         2.4 0.16            152           80.6  38 
 RUS  HZ EP        846  0.55                             145    0.0810 96.5 176 
 RUS  HN ES        846 18.40                             145   -0.2110 96.5 176 
 RUS  HZ I         846 20.10         2.9 0.32            147           96.5 176 
 PTB  HZ EP        846  3.36                             132   -0.59 9  147 260 
 PTB  HN ES        846 24.03                             132   -0.77 9  147 260 
 PTB  HZ I         846 26.52         4.1 0.15            132            147 260 
 ZAR  HZ EP        846  9.57                             122   -0.12 8  206 293 
 ZAR  HN ES        846 35.28                             122    0.26 8  206 293 
 ZAR  HZ I         846 40.77         3.2 0.26            123            206 293 
 CHI  HZ EP   4    846 16.27                             117    1.90 0  245 195 
 CHI  HN ES        846 43.93                             117    0.58 8  245 195 
 GUY2CHZ EP   4    846 21.98                             112    1.52 0  299 235 
 GUY2CHN ES        846 54.70                             112    0.50 7  299 235 
 GUY2CHZ I         847  1.65         1.0 0.43                           299 235 
                                                                                
