 2017  5 5 0932  1.4 L   6.811 -73.179148.1  RSN  7 0.4 1.5LRSN                1
 GAP=108        1.02       4.1     4.2  6.8  0.6621E+01  0.3276E+01 -0.5226E+00E
 Epicentro: ZAPATOCA - SANTANDER                                               3
 ACTION:UPD 17-06-16 13:33 OP:jn   STATUS:               ID:20170505093201 L   I
 OLDACT:UP  17-05-05 18:31 OP:edw  STATUS:               ID:20170505092742d    3
 OLDACT:UP  17-05-05 18:30 OP:edw  STATUS:               ID:20170505092742d    3
 OLDACT:DUP 17-05-05 18:27 OP:edw  STATUS:               ID:20170505092742d    3
 OLDACT:UP  17-05-05 18:26 OP:edw  STATUS:               ID:20170505092741     3
 OLDACT:UP  17-05-05 18:25 OP:edw  STATUS:               ID:20170505092741     3
 OLDACT:UP  17-05-05 18:25 OP:edw  STATUS:               ID:20170505092741     3
 OLDACT:UP  17-05-05 18:24 OP:edw  STATUS:               ID:20170505092741     3
 OLDACT:REG 17-05-05 13:18 OP:edw  STATUS:               ID:20170505092741     3
 2017-05-05-0928-00M.COL___349                                                 6
 STAT SP IPHASW D HRMM SECON CODA AMPLIT PERI AZIMU VELO AIN AR TRES W  DIS CAZ7
 BRR  HZ EP        932 22.87                             154    0.2410 67.3 299 
 BRR  HN ES        932 39.59                             154    0.4310 67.3 299 
 BRR  HZ I         932 44.60         7.9 0.12            153           67.3 299 
 PAM  EZ EP     C  932 24.34                             150    0.3510 78.9  42 
 PAM  EN ES        932 41.26                             150   -0.3210 78.9  42 
 PAM  EZ I         932 43.39         8.6 0.44            154           78.9  42 
 RUS  HZ EP        932 25.73                             144    0.2010  102 174 
 RUS  HE ES        932 43.82                             144   -0.5010  102 174 
 RUS  HZ I         932 44.68         5.4 0.22            148            102 174 
 PTB  HZ EP        932 28.80                             133    0.51 9  144 258 
 PTB  HN ES        932 48.83                             133   -0.41 9  144 258 
 PTB  HZ I         932 52.48         2.4 0.24            134            144 258 
 YPLC HZ EP     D  932 31.92                             127    0.24 9  180 150 
 YPLC HN ES        932 55.27                             127   -0.01 9  180 150 
 ZAR  HZ EP        932 32.68                             123   -0.95 9  200 292 
 ZAR  HN ES        932 59.06                             123    0.31 9  200 292 
 ZAR  HZ I         933  6.01         3.5 0.28            125            200 292 
 CHI  HN ES   4    933 11.00                             117    2.18 0  249 194 
 SJC  HZ EP        932 56.34                             106   -0.37 6  406 327 
 SJC  HN ES        933 39.58                             106   -0.25 6  406 327 
                                                                                
