 2017  1 5 0219 47.2 L   7.294 -73.176124.4  RSN  6 0.5 1.3LRSN                1
 GAP=168        1.19       6.3     5.0  9.2  0.3771E+01  0.1310E+02  0.1814E-01E
 Epicentro: RIONEGRO - SANTANDER                                               3
 ACTION:UPD 17-05-22 15:55 OP:jn   STATUS:               ID:20170105021947 L   I
 OLDACT:REG 17-01-05 12:45 OP:lv   STATUS:               ID:20170105021744     3
 2017-01-05-0218-00M.COL___374                                                 6
 STAT SP IPHASW D HRMM SECON CODA AMPLIT PERI AZIMU VELO AIN AR TRES W  DIS CAZ7
 PAM  EZ EP        220  5.23                             156   -0.5410 52.8  85 
 PAM  EN ES        220 20.32                             156    0.0910 52.8  85 
 PAM  EZ I         220 22.10         3.1 0.19            166           52.8  85 
 BRR  HE ES        220 20.42                             151    0.5010 62.7 251 
 BAR2 EZ ES        220 22.29                             146    0.0810 77.6 181 
 BAR2 EZ I         220 24.58         5.8 0.25            142           77.6 181 
 RUS  HZ EP        220 14.55                             125    0.62 9  155 176 
 RUS  HN ES        220 34.21                             125   -0.54 9  155 176 
 PTB  HN ES        220 35.13                             123   -0.11 9  164 240 
 PTB  HZ I         220 59.01         2.8 0.15            122            164 240 
 ZAR  HZ EP        220 17.14                             120    0.59 9  187 277 
 ZAR  HE ES        220 38.70                             120   -0.72 9  187 277 
 ZAR  HZ I         220 40.12         3.0 0.08            119            187 277 
                                                                                
