 2016  1 5 0418 31.7 L   6.803 -73.116147.1  RSN  4 0.3 1.1LRSN                1
 GAP=140        0.76       4.1     4.3  7.4  0.3722E+01  0.4679E+01  0.2927E+01E
 Epicentro: LOS SANTOS - SANTANDER                                             3
 ACTION:UPD 16-03-09 23:22 OP:cam  STATUS:               ID:20160105041831 L   I
 OLDACT:REG 16-01-05 12:28 OP:drio STATUS:               ID:20160105040748     3
 2016-01-05-0407-48M.COL___335                                                 6
 STAT SP IPHASW D HRMM SECON CODA AMPLIT PERI AZIMU VELO AIN AR TRES W  DIS CAZ7
 BRR  HZ EP        418 53.25                             152    0.0510 73.9 297 
 BRR  HN ES        419 10.42                             152    0.4910 73.9 297 
 PAM  EZ EP        418 54.17                             152    0.2010 75.1  38 
 PAM  EN ES        419 11.02                             152   -0.2910 75.1  38 
 PAM  EZ I         419 13.33         3.7 0.50            152           75.1  38 
 RUS  HZ EP        418 55.69                             144    0.0510  101 178 
 RUS  HE ES        419 14.09                             144   -0.1910  101 178 
 RUS  HZ I         419 15.06         1.5 0.26            145            101 178 
 ZAR  HE ES        419 29.74                             122   -0.45 8  207 292 
                                                                                
