 2012  8 5 0300 40.7 L   6.794 -73.163148.0  RSN  5 0.3 1.3LRSN                1
 GAP=135        0.61       4.4     4.2  6.0 -0.1788E+01  0.2979E+01  0.1184E+01E
 Epicentro: LOS SANTOS - SANTANDER                                             3
 ACTION:UPD 12-09-10 11:54 OP:ep   STATUS:               ID:20120805030040 L   I
 2012-08-05-0300-00M.COL___216                                                 6
 STAT SP IPHASW D HRMM SECON CODA AMPLIT PERI AZIMU VELO AIN AR TRES W  DIS CAZ7
 BAR2 SZ EP   1    3 1  0.55                             171    0.02 7 22.4 185 
 BAR2 SZ I         3 1  0.83         3.1 0.08                          22.4 185 
 BAR2 SZ ES   1    3 1 15.86                             171   -0.17 7 22.4 185 
 BRR  HZ EP   1    3 1  2.17                             153    0.20 7 69.8 300 
 BRR  HZ I         3 1  2.58         6.0 0.31                          69.8 300 
 BRR  HN ES   1    3 1 19.15                             153    0.56 7 69.8 300 
 PAM  SZ EP   1    3 1  3.39                             151    0.18 7 79.1  40 
 PAM  SE ES   1    3 1 20.36                             151   -0.44 7 79.1  40 
 RUS  HZ EP   1    3 1  4.67                             144    0.08 7  100 175 
 RUS  HN ES   1    3 1 23.40                             144    0.15 7  100 175 
 RUS  HZ I         3 1 25.05         3.3 0.34                           100 175 
 PTB  HZ EP   1    3 1  7.32                             133   -0.30 7  146 259 
 PTB  HN ES   1    3 1 28.29                             133   -0.37 7  146 259 
 PTB  HZ I         3 1 30.74         2.4 0.15                           146 259 
                                                                                
