 2016  1 5 0923  0.4 L   6.788 -73.168145.8  RSN  7 0.5 1.4LRSN                1
 GAP=134        1.29       4.5     5.6  8.8 -0.6710E+00  0.9661E+01 -0.4606E+01E
 Epicentro: LOS SANTOS - SANTANDER                                             3
 ACTION:UPD 16-03-09 23:23 OP:cam  STATUS:               ID:20160105092300 L   I
 OLDACT:REG 16-01-05 12:41 OP:drio STATUS:               ID:20160105091748     3
 2016-01-05-0917-48M.COL___329                                                 6
 STAT SP IPHASW D HRMM SECON CODA AMPLIT PERI AZIMU VELO AIN AR TRES W  DIS CAZ7
 BRR  HZ EP        923 21.84                             153    0.3510 69.7 300 
 BRR  HN ES        923 38.59                             153    0.6610 69.7 300 
 PAM  EZ EP        923 23.48                             150    0.6710 80.0  40 
 PAM  EN ES        923 39.81                             150   -0.4510 80.0  40 
 PAM  EZ I         923 41.72         5.0 0.54            153           80.0  40 
 RUS  HZ EP        923 24.04                             144   -0.0610 99.4 175 
 RUS  HN ES        923 42.55                             144   -0.0210 99.4 175 
 RUS  HZ I         923 43.80         2.4 0.26            147           99.4 175 
 PTB  HZ EP        923 27.02                             133   -0.13 9  145 259 
 PTB  HN ES        923 47.25                             133   -0.75 9  145 259 
 PTB  HZ I         923 50.68         2.8 0.12            132            145 259 
 SPBC HZ EP        923 28.73                             130    0.05 9  161 219 
 SPBC HN ES        923 50.34                             130   -0.38 9  161 219 
 SPBC HZ I         923 57.75         2.9 0.24            130            161 219 
 ZAR  HZ EP        923 33.19                             123    0.50 9  202 293 
 ZAR  HN ES        923 58.57                             123    0.72 9  202 293 
 ZAR  HZ I         924  6.95         2.2 0.58            123            202 293 
 SML  HZ EP        923 36.28                             117   -0.79 8  244 336 
 SML  HE ES        924  4.86                             117   -0.80 8  244 336 
 SML  HZ I         924 11.78         3.4 0.24            118            244 336 
                                                                                
