 2014  7 5 0923 34.1 L   6.780 -73.170147.8  RSN  6 0.4 1.6LRSN                1
 GAP=241        0.83       5.5     5.2  6.6  0.1110E+02  0.9063E+01 -0.4389E+01E
 Epicentro: LOS SANTOS - SANTANDER                                             3
 ACTION:UPD 15-03-16 20:41 OP:nd   STATUS:               ID:20140705092334 L   I
 OLDACT:UP  14-07-05 18:08 OP:cam  STATUS:               ID:20140705092000     3
 OLDACT:REG 14-07-05 14:40 OP:cam  STATUS:               ID:20140705092000     3
 2014-07-05-0920-00M.COL___279                                                 6
 STAT SP IPHASW D HRMM SECON CODA AMPLIT PERI AZIMU VELO AIN AR TRES W  DIS CAZ7
 BAR2 SZ EP        923 53.92                             172   -0.0110 20.8 184 
 BAR2 SZ ES        924  9.44                             172    0.0510 20.8 184 
 BAR2 SZ I         924 11.61         7.2 0.22            168           20.8 184 
 RUS  HZ EP   1    923 58.01                             145    0.10 7 98.6 174 
 RUS  HN ES        924 16.25                             145   -0.2310 98.6 174 
 RUS  HZ I         924 17.82         4.7 0.26            146           98.6 174 
 PTB  HZ EP        924  0.81                             133   -0.15 9  145 259 
 PTB  HN ES        924 21.33                             133   -0.57 9  145 259 
 PTB  HZ I         924 26.67         5.8 0.42            132            145 259 
 SPBC HZ EP        924  2.87                             130    0.44 9  160 219 
 SPBC HN ES        924 24.84                             130    0.31 9  160 219 
 SPBC HZ I         924 30.69         9.3 0.46            130            160 219 
 ZAR  HZ EP   1    924  5.95                             123   -0.56 6  202 293 
 ZAR  HN ES        924 32.39                             123    0.60 9  202 293 
 ZAR  HZ I         924 38.78         3.7 0.10            124            202 293 
 GUY2CHZ EP   1    924 17.14                             113   -0.27 5  298 235 
                                                                                
