 2011  9 5 0619 39.6 L   6.870 -72.948141.1  RSN  4 0.1 1.2LRSN                1
 GAP=203        0.28       2.7     6.4  5.0  0.1001E+02 -0.1972E+02 -0.5382E+01E
 Epicentro: GUACA - SANTANDER                                                  3
 ACTION:UPD 12-07-13 15:55 OP:ep   STATUS:               ID:20110905061939 L   I
 2011-09-05-0618-29S.COL___171                                                 6
 STAT SP IPHASW D HRMM SECON CODA AMPLIT PERI AZIMU VELO AIN AR TRES W  DIS CAZ7
 BAR2 SZ EP   1    619 59.23                             163    0.05 7 40.2 220 
 BAR2 SZ ES   2    620 14.34                             163   -0.09 5 40.2 220 
 BAR2 SZ I         620 15.67         5.2 0.14                          40.2 220 
 BRR  HZ EP   1    620  1.25                             146   -0.12 7 88.4 287 
 BRR  HE ES   1    620 18.39                             146    0.07 7 88.4 287 
 BRR  HZ I         620 21.66         3.9 0.16                          88.4 287 
 RUS  HZ EP   1    620  3.65                             140    0.07 7  109 188 
 RUS  HZ I         620  4.60         1.5 0.29                           109 188 
 RUS  HN ES   2    620 22.19                             140   -0.07 5  109 188 
 OCA  SZ EP   2    620  7.23                             129   -0.03 5  157 345 
 OCA  SZ ES   2    620 28.83                             129    0.03 5  157 345 
 OCA  SZ I         620 38.87         2.4 0.62                           157 345 
                                                                                
