 2012  5 5 0320  9.0 L   6.774 -73.114151.9  RSN 13 0.4 2.4LRSN                1
 GAP=142        0.87       3.5     4.2  5.8 -0.2421E+01  0.6959E+01  0.2618E+01E
 Epicentro: LOS SANTOS - SANTANDER                                             3
 ACTION:UP  12-07-05 12:02 OP:pat  STATUS:               ID:20120505032009 L   I
 2012-05-05-0320-00M.COL___192                                                 6
 STAT SP IPHASW D HRMM SECON CODA AMPLIT PERI AZIMU VELO SNR AR TRES W  DIS CAZ7
 BAR2 SZ EP        320 29.13                             172    -0.210   22 201 
 BAR2 SZ ES   1    320 45.41                             172     0.2 7   22 201 
 BAR2 SZ I         320 45.88        43.3 0.27                            22 201 
 BRR  HZ EP        320 31.28                             152     0.210   76 299 
 BRR  HE ES   1    320 48.82                             152     0.6 7   76 299 
 PAM  SZ IP        320 32.11                             152     0.310   77  36 
 PAM  SN ES   1    320 49.54                             152    -0.2 7   77  36 
 RUS  HZ EP   1    320 33.18                             146     0.0 7   98 178 
 RUS  HN ES   1    320 51.61                             146    -0.4 7   98 178 
 RUS  HZ I         320 53.00        23.5 0.42                            98 178 
 PTB  HZ EP        320 36.12                             133    -0.6 9  151 260 
 PTB  HN ES   1    320 57.86                             133    -0.5 7  151 260 
 PTB  HZ I         321  3.32        26.9 0.29                           151 260 
 ZAR  HZ EP   1    320 42.97                             123     0.7 6  208 292 
 ZAR  HE ES   1    321  7.62                             123    -0.6 6  208 292 
 ZAR  HZ I         321 12.82        39.7 0.31                           208 292 
 CHI  HZ EP   1    320 47.22                             119     0.4 6  247 196 
 CHI  HN ES   1    321 16.40                             119     0.0 6  247 196 
 CHI  HZ I         321 22.45        18.3 0.30                           247 196 
 HEL  HZ EP   1    320 49.81                             116     0.0 6  275 257 
 HEL  HN ES   1    321 22.49                             116     0.8 6  275 257 
 HEL  HZ I         321 27.66        11.7 0.35                           275 257 
 VIL  SE ES   2    321 26.55                             113     0.2 4  301 192 
 VIL  SZ I         321 36.78        11.3 0.43                           301 192 
 GUY  SZ EP   1    320 53.80                             113     0.5 5  305 236 
 GUY  SN ES   1    321 27.44                             113    -0.4 5  305 236 
 GUY  SZ I         321 40.54        18.7 0.53                           305 236 
 RREF HZ EP   1    320 55.12                             112    -0.4 5  323 230 
 RREF HN ES   1    321 31.93                             112     0.2 5  323 230 
 RREF HZ I         321 38.52        19.4 0.24                           323 230 
 COD  HZ EP   1    320 57.32                             110    -0.6 5  351 354 
 COD  HE ES   2    321 36.09                             110    -0.1 3  351 354 
 COD  HZ I         321 44.62         9.6 0.40                           351 354 
 PRA  HZ EP   1    321  2.77                             108     0.1 4  391 210 
 PRA  HE ES   1    321 44.28                             108    -0.2 4  391 210 
                                                                                
