 2015  1 5 0937 17.8 L   6.781 -73.164151.4  RSN  6 0.3 1.6LRSN                1
 GAP=210        0.79       3.9     5.1  6.0 -0.7365E-01  0.3841E+01 -0.7645E+01E
 Epicentro: LOS SANTOS - SANTANDER                                             3
 ACTION:UPD 15-03-02 15:36 OP:nd   STATUS:               ID:20150105093717 L   I
 OLDACT:REG 15-01-05 16:24 OP:cam  STATUS:               ID:20150105093550     3
 2015-01-05-0935-50M.COL___277                                                 6
 STAT SP IPHASW D HRMM SECON CODA AMPLIT PERI AZIMU VELO AIN AR TRES W  DIS CAZ7
 BAR2 EZ EP        937 38.30                             172    0.1910 20.9 186 
 BAR2 EZ ES        937 53.80                             172   -0.1210 20.9 186 
 BAR2 EZ I         937 55.06         5.1 0.22            169           20.9 186 
 BRR  HZ EP        937 39.91                             154    0.3410 70.5 301 
 BRR  HN ES        937 56.76                             154    0.2510 70.5 301 
 BRR  HZ I         938  1.08         7.0 0.46            150           70.5 301 
 PTB  HZ EP        937 45.06                             134   -0.00 9  145 260 
 PTB  HN ES        938  6.13                             134   -0.17 9  145 260 
 PTB  HZ I         938  8.25         4.6 0.14            132            145 260 
 SPBC HZ EP   4    937 47.75                             131    1.24 0  160 219 
 SPBC HN ES        938  8.39                             131   -0.48 9  160 219 
 SPBC HZ I         938 16.05         4.4 0.10            130            160 219 
 ZAR  HZ EP   1    937 50.89                             124    0.34 6  203 293 
 ZAR  HN ES        938 16.48                             124    0.41 9  203 293 
 ZAR  HZ I         938 24.09         4.1 0.30            123            203 293 
 SML  HZ EP        937 54.70                             118   -0.21 8  245 336 
 SML  HN ES        938 23.17                             118   -0.65 8  245 336 
 SML  HZ I         938 26.58         7.0 0.10            119            245 336 
                                                                                
