 2017 11 5 0321  2.9 L   6.811 -73.155144.7  RSN 10 0.4 1.6LRSN                1
 GAP=110        0.94       3.4     3.3  5.9  0.3433E+00  0.5059E+01  0.3922E+01E
 Epicentro: LOS SANTOS - SANTANDER                                             3
 ACTION:UPD 17-12-12 19:52 OP:rebc STATUS:               ID:20171105032102 L   I
 OLDACT:REG 17-11-05 15:07 OP:dnl  STATUS:               ID:20171105031737     3
 2017-11-05-0318-00M.COL___435                                                 6
 STAT SP IPHASW D HRMM SECON CODA AMPLIT PERI AZIMU VELO AIN AR TRES W  DIS CAZ7
 BAR2 EZ EP        321 22.26                             170   -0.1910 24.4 187 
 BAR2 EZ ES        321 37.22                             170   -0.4710 24.4 187 
 BAR2 EZ I         321 38.59        16.7 0.20            168           24.4 187 
 BRR  HZ EP        321 24.06                             153    0.1910 69.7 298 
 BRR  HN ES        321 41.09                             153    0.8710 69.7 298 
 BRR  HZ I         321 41.83         6.0 0.16            153           69.7 298 
 PAM  EZ EP        321 25.14                             151    0.1310 77.1  41 
 PAM  EN ES        321 42.05                             151   -0.1910 77.1  41 
 PAM  EZ I         321 43.65         2.9 0.40            153           77.1  41 
 RUS  HZ EP        321 26.26                             143   -0.4110  102 176 
 RUS  HN ES        321 45.38                             143    0.1910  102 176 
 RUS  HZ I         321 46.27         4.6 0.22            142            102 176 
 PTB  HZ EP        321 29.29                             132   -0.44 9  147 258 
 PTB  HN ES        321 49.93                             132   -0.72 9  147 258 
 PTB  HZ I         321 51.88         4.5 0.50            132            147 258 
 SPBC HZ EP        321 31.28                             129   -0.09 9  164 218 
 SPBC HN ES        321 53.79                             129    0.23 9  164 218 
 SPBC HZ I         321 59.12         6.7 0.26            128            164 218 
 YPLC HZ EP   2    321 32.75                             126   -0.05 4  178 151 
 YPLC HN ES        321 56.61                             126    0.50 9  178 151 
 YPLC HZ I         322  4.98         7.0 0.24            126            178 151 
 ZAR  HZ EP   2    321 35.55                             122    0.40 4  203 292 
 ZAR  HE ES        322  0.41                             122    0.12 9  203 292 
 ZAR  HZ I         322  7.21         3.2 0.52            123            203 292 
 NOR  HZ EP   2    321 38.97                             118    0.39 4  235 234 
 NOR  HE ES        322  6.68                             118    0.29 8  235 234 
 NOR  HZ I         322 11.31         4.1 0.32            118            235 234 
 GUY2CHZ EP   2    321 46.92                             112    0.45 4  301 234 
 GUY2CHN ES        322 20.29                             112   -0.14 7  301 234 
 GUY2CHZ I         322 32.80         1.7 0.52                           301 234 
                                                                                
