 2013  3 5 0529 18.7 L   6.876 -73.418114.8  RSN  6 0.4 1.9LRSN                1
 GAP=136        1.09       4.7     6.3  7.8  0.8814E+01  0.7136E+01 -0.2237E+01E
 Epicentro: SAN VICENTE DE CHUCURI - SANTANDER                                 3
 ACTION:UPD 13-04-09 13:59 OP:ep   STATUS:               ID:20130305052918 L   I
 2013-03-05-0524-49M.COL___196                                                 6
 STAT SP IPHASW D HRMM SECON CODA AMPLIT PERI AZIMU VELO AIN AR TRES W  DIS CAZ7
 BAR2 SZ IP        529 35.69                             159    0.4410 40.8 140 
 BAR2 SZ I         529 35.81        66.3 0.24            158           40.8 140 
 BAR2 SZ ES        529 47.45                             159   -0.6910 40.8 140 
 BRR  HZ IP     C  529 35.33                             159    0.4110 41.3 308 
 BRR  HN ES        529 48.20                             159    0.6410 41.3 308 
 BRR  HN I         529 49.01        27.6 0.10            140           41.3 308 
 RUS  HZ EP        529 40.95                             132    0.1210  115 161 
 RUS  HE ES        529 58.11                             132    0.0310  115 161 
 RUS  HE I         529 59.54        12.0 0.47            121            115 161 
 PTB  HZ IP     C  529 40.19                             130   -0.5410  121 252 
 PTB  HE ES   1    529 57.57                             130   -0.32 7  121 252 
 PTB  HZ I         530  1.18         7.9 0.13            114            121 252 
 OCA  HZ EP   1    529 43.89                             123    0.01 7  151   4 
 OCA  HN ES   1    530  2.85                             123   -0.66 7  151   4 
 ZAR  HZ EP   1    529 46.11                             119    0.12 7  173 293 
 ZAR  HZ I         530 11.29         4.4 0.29            107            173 293 
                                                                                
