 2017  9 5 0453 30.8 L   6.768 -73.128147.4  RSN 14 0.3 1.9LRSN                1
 GAP=115        0.81       2.8     3.0  4.5  0.1003E+01  0.2625E+01  0.3308E+01E
 Epicentro: LOS SANTOS - SANTANDER                                             3
 ACTION:UPD 17-10-05 19:09 OP:rebc STATUS:               ID:20170905045330 L   I
 OLDACT:UP  17-09-05 14:26 OP:dnl  STATUS:               ID:20170905044743     3
 OLDACT:REG 17-09-05 13:16 OP:dnl  STATUS:               ID:20170905044743     3
 2017-09-05-0448-00M.COL___426                                                 6
 STAT SP IPHASW D HRMM SECON CODA AMPLIT PERI AZIMU VELO AIN AR TRES W  DIS CAZ7
 BAR2 EZ EP        453 50.47                             172   -0.1110 20.4 197 
 BAR2 EZ ES        454  5.61                             172   -0.3910 20.4 197 
 BAR2 EZ I         454  6.42        22.7 0.22            167           20.4 197 
 BRR  HZ IP     D  453 52.40                             152    0.0710 74.7 300 
 BRR  HE ES        454  9.83                             152    0.7110 74.7 300 
 BRR  HZ I         454 12.73        13.9 0.24            153           74.7 300 
 PAM  EZ EP        453 53.27                             151   -0.0210 78.9  37 
 PAM  EE ES        454 10.66                             151   -0.1610 78.9  37 
 PAM  EZ I         454 15.08         5.2 0.72            153           78.9  37 
 RUS  HZ EP        453 54.49                             145    0.0310 96.9 177 
 RUS  HN ES        454 12.77                             145   -0.1510 96.9 177 
 RUS  HZ I         454 13.63         7.7 0.50            141           96.9 177 
 SPBC HZ EP        453 59.43                             130    0.13 9  162 220 
 SPBC HN ES        454 21.45                             130   -0.07 9  162 220 
 SPBC HZ I         454 22.69        12.4 0.18            127            162 220 
 YPLC HZ EP        454  0.74                             128    0.41 9  173 151 
 YPLC HE ES        454 23.71                             128    0.36 9  173 151 
 YPLC HZ I         454 33.59         4.9 0.66            125            173 151 
 ZAR  HZ EP        454  3.31                             122   -0.38 8  207 293 
 ZAR  HN ES        454 29.21                             122   -0.12 8  207 293 
 ZAR  HZ I         454 34.71         9.7 0.28            122            207 293 
 NOR  HZ EP        454  7.00                             119    0.41 8  234 235 
 NOR  HN ES        454 34.04                             119   -0.46 8  234 235 
 NOR  HZ I         454 42.99         7.0 0.20            117            234 235 
 CHI  HZ EP   2    454  8.56                             118    0.27 4  246 196 
 CHI  HE ES   4    454 39.20                             118    1.68 0  246 196 
 CHI  HZ I         454 43.66         3.3 0.24            116            246 196 
 HEL  HZ EP   4    454 13.73                             115    2.51 0  273 257 
 HEL  HN ES   4    454 41.57                             115   -1.18 0  273 257 
 HEL  HZ I         454 49.96         4.7 0.48            114            273 257 
 GUY2CHZ EP   4    454 16.61                             113    2.16 0  301 236 
 GUY2CHN ES   4    454 49.97                             113    1.48 0  301 236 
 GUY2CHZ I         454 55.89         2.4 0.48                           301 236 
 PTGC HZ EP        454 13.48                             112   -0.80 7  305 159 
 PTGC HE ES   4    454 46.35                             112   -1.85 0  305 159 
 PTGC HZ I         455  8.93         5.8 0.30            111            305 159 
 PRA  HZ EP   2    454 24.40                             107    0.26 3  390 210 
 PRA  HE ES        455  6.00                             107    0.25 6  390 210 
 PRA  HZ I         455 12.98         3.9 0.26            106            390 210 
 SJC  HZ EP   4    454 25.09                             106   -1.81 0  413 327 
 SJC  HN ES   4    455  5.48                             106   -5.17 0  413 327 
 SJC  HZ I         455 10.59         2.6 0.56            105            413 327 
                                                                                
