 2013 11 5 0504 48.8 L   6.679 -73.030187.0  RSN 12 0.6 2.2LRSN 2.8WRSN        1
 SPEC AVERAGE  MO 13.2 ST165.6 OM  1.5 f0 19.7 R0.2319 AL 0.00 WI 20.0 MW  2.8 3
 SPEC SD       MO  0.3 ST202.3 OM  0.5 f0 15.9 R0.1850 AL      WI      MW  0.2 3
 GAP=153        1.43       5.2     7.2  8.2 -0.1224E+02  0.7734E+01 -0.4648E+01E
 Epicentro: ARATOCA - SANTANDER                                                3
 SPEC BAR2SH Z MO 13.8 ST  2.2 OM  1.9 f0 3.72 R0.5172 AL-0.00 WI 20.0 MW  3.2 3
 SPEC BAR2SH Z T 5 530 K 0.050 GD  187 VS 5.20 DE 3.20 Q0750.0 QA 1.50 VS 5.20 3
 SPEC RUS HH Z MO 13.2 ST0.720 OM  1.2 f0 4.23 R0.4548 AL-0.00 WI 20.0 MW  2.7 3
 SPEC RUS HH Z T 5 535 K 0.050 GD  206 VS 5.20 DE 3.20 Q0750.0 QA 1.50 VS 5.20 3
 SPEC BRR HH Z MO 13.2 ST 12.0 OM  1.2 f0 10.8 R0.1781 AL-0.00 WI 20.0 MW  2.7 3
 SPEC BRR HH Z T 5 535 K 0.050 GD  207 VS 5.20 DE 3.20 Q0750.0 QA 1.50 VS 5.20 3
 SPEC PTB HH Z MO 13.1 ST456.1 OM  1.0 f0 40.0 R0.0481 AL-0.00 WI 20.0 MW  2.7 3
 SPEC PTB HH Z T 5 541 K 0.050 GD  244 VS 5.20 DE 3.20 Q0750.0 QA 1.50 VS 5.20 3
 SPEC SPBCHH Z MO 13.0 ST211.2 OM  0.9 f0 33.3 R0.0578 AL-0.00 WI 20.0 MW  2.6 3
 SPEC SPBCHH Z T 5 543 K 0.050 GD  247 VS 5.20 DE 3.20 Q0750.0 QA 1.50 VS 5.20 3
 SPEC OCA HH Z MO 13.2 ST  2.1 OM  1.1 f0 6.03 R0.3191 AL-0.00 WI 20.0 MW  2.7 3
 SPEC OCA HH Z T 5 546 K 0.050 GD  256 VS 5.20 DE 3.20 Q0750.0 QA 1.50 VS 5.20 3
 SPEC SML HH Z MO 13.1 ST475.1 OM  0.9 f0 40.0 R0.0481 AL-0.00 WI 20.0 MW  2.7 3
 SPEC SML HH Z T 5 558 K 0.050 GD  321 VS 5.20 DE 3.20 Q0750.0 QA 1.50 VS 5.20 3
 OLDACT:REG 13-11-05 08:32 OP:stll STATUS:               ID:20131105045844     3
 ACTION:UPD 14-01-09 16:25 OP:ep   STATUS:               ID:20131105050448 L   I
 OLDACT:UP  13-12-03 10:11 OP:ep   STATUS:               ID:20131105050448 L   3
 OLDACT:UP  13-11-05 13:39 OP:stll STATUS:               ID:20131105045844     3
 2013-11-05-0458-44M.COL___217                                                 6
 STAT SP IPHASW D HRMM SECON CODA AMPLIT PERI AZIMU VELO AIN AR TRES W  DIS CAZ7
 BAR2 SZ EP        5 5 13.51                             174    0.1410 19.3 240 
 BAR2 SZ ES   1    5 5 32.77                             174    0.26 7 19.3 240 
 BAR2 SZ I         5 5 33.66        80.5 0.34            167           19.3 240 
 PAM  SZ IP     C  5 5 16.39                             156    0.6310 81.7  27 
 PAM  SN ES   1    5 5 37.22                             156    0.44 7 81.7  27 
 PAM  SZ I         5 5 38.75        11.5 0.44            154           81.7  27 
 RUS  HZ IP     D  5 5 16.21                             154    0.1610 87.1 184 
 RUS  HN ES        5 5 36.63                             154   -0.6610 87.1 184 
 RUS  SZ I         5 5 38.99        23.9 0.28            152           87.1 184 
 BRR  HZ EP        5 5 16.09                             153    0.6610 89.0 302 
 BRR  HN ES        5 5 37.17                             153    0.9810 89.0 302 
 BRR  SZ I         5 5 40.96        14.4 0.14            146           89.0 302 
 CAPV BZ EP        5 5 18.91                             139   -1.23 9  153  31 
 PTB  HZ EP   1    5 5 19.78                             138   -0.49 7  158 264 
 PTB  HN ES   1    5 5 44.32                             138   -0.48 7  158 264 
 PTB  HZ I         5 5 46.47         9.2 0.16            132            158 264 
 SPBC HZ EP        5 5 20.40                             137   -0.25 9  162 226 
 SPBC HE ES        5 5 44.80                             137   -0.68 9  162 226 
 SPBC SZ I         5 5 48.69        18.1 0.20            132            162 226 
 OCA  HZ EP        5 5 21.92                             135    0.03 9  175 350 
 OCA  HN ES        5 5 47.77                             135    0.09 9  175 350 
 OCA  HZ I         5 5 54.62         5.4 0.32            130            175 350 
 SML  HZ EP        5 5 29.71                             123   -0.13 8  261 334 
 SML  HN ES        5 6  0.48                             123   -1.35 8  261 334 
 SML  SZ I         5 6  7.62        16.5 0.08            119            261 334 
 HEL  HZ EP        5 5 33.16                             121    0.73 7  282 259 
 HEL  SZ I         5 6 14.18         4.7 1.64            117            282 259 
 GUY2CHZ EP   1    5 5 35.75                             119    0.78 5  304 238 
 GUY2CHE ES        5 6 10.84                             119   -0.13 7  304 238 
 GUY2CHZ I         5 6 21.11         6.7 0.80                           304 238 
 CBOC HZ EP   1    5 5 39.30                             116    0.65 5  342 255 
 CBOC HE ES   1    5 6 17.67                             116    0.16 5  342 255 
                                                                                
