 2013  4 5 0351 32.6 L   5.847 -73.728118.4  RSN 10 0.4 1.7LRSN                1
 GAP= 94        0.92       2.8     3.2  7.5 -0.1981E+01  0.6415E+01  0.2013E+00E
 Epicentro: JESUS MARIA - SANTANDER                                            3
 ACTION:UPD 13-05-22 14:35 OP:EP   STATUS:               ID:20130405035132 L   I
 2013-04-05-0350-00M.COL___245                                                 6
 STAT SP IPHASW D HRMM SECON CODA AMPLIT PERI AZIMU VELO AIN AR TRES W  DIS CAZ7
 RUS  HZ EP        351 51.80                             147    0.1710 71.6  86 
 RUS  HN ES   1    352  6.59                             147    0.14 7 71.6  86 
 RUS  HZ I         352  8.01         5.8 0.44            151           71.6  86 
 BAR2 SZ EP        351 54.06                             136    0.4710  102  36 
 BAR2 SZ ES        352 10.00                             136    0.0710  102  36 
 PTB  HZ EP   1    351 53.77                             133   -0.29 7  111 314 
 PTB  HE ES   1    352 10.54                             133   -0.23 7  111 314 
 PTB  HZ I         352 12.87         9.4 0.10            135            111 314 
 NOR  HZ EP        351 56.22                             129    0.3610  130 256 
 NOR  HN ES        352 14.39                             129    0.4210  130 256 
 CHI  HZ EP   1    351 56.61                             128   -0.16 7  135 180 
 CHI  HN ES        352 15.04                             128   -0.5510  135 180 
 CHI  HZ I         352 19.96         6.5 0.54            129            135 180 
 GIR2 SZ EP        351 58.16                             125    0.40 9  148  23 
 GIR2 SZ ES        352 16.76                             125   -0.60 9  148  23 
 GIR2 SZ I         352 18.54         9.8 0.42            128            148  23 
 HEL  HZ EP   1    352  4.26                             116    0.47 6  203 281 
 HEL  HN ES   1    352 28.20                             116    0.10 6  203 281 
 HEL  HZ I         352 31.48         7.3 0.38            117            203 281 
 ZAR  HE ES   1    352 29.89                             113   -0.89 6  221 326 
 ZAR  HZ I         352 34.79         4.9 0.12            115            221 326 
 PRA  HZ EP        352 10.31                             109   -0.49 8  269 209 
 PRA  HN ES   4    352 39.09                             109   -1.47 0  269 209 
 PRA  HZ I         352 46.36         3.7 0.22            110            269 209 
 SML  HN ES   1    352 52.71                             104   -0.28 5  329 353 
                                                                                
