 2014 11 5 0220 51.3 L   6.877 -73.082160.0  RSN  5 0.3 1.4LRSN                1
 GAP=190        0.72       5.3     9.2 10.2 -0.1374E+00 -0.2761E+02  0.2841E+02E
 Epicentro: PIEDECUESTA - SANTANDER                                            3
 ACTION:UPD 14-12-19 15:39 OP:nd   STATUS:               ID:20141105022051 L   I
 OLDACT:REG 14-11-05 13:04 OP:cam  STATUS:               ID:20141105021816     3
 2014-11-05-0218-16M.COL___274                                                 6
 STAT SP IPHASW D HRMM SECON CODA AMPLIT PERI AZIMU VELO AIN AR TRES W  DIS CAZ7
 BAR2 SZ EP        221 12.89                             168    0.0010 33.3 199 
 BRR  HZ EP        221 14.73                             154    0.5510 74.1 290 
 BRR  HN ES        221 31.98                             154   -0.0310 74.1 290 
 BRR  HN I         221 32.85         4.2 0.28            154           74.1 290 
 RUS  HZ EP        221 16.94                             144   -0.1310  109 180 
 OCA  HN ES        221 42.41                             134   -0.18 9  153 350 
 PTB  HZ EP        221 19.96                             133   -0.29 9  156 256 
                                                                                
