 2013 10 5 0306 55.2 L   6.664 -73.598105.1  RSN  6 0.4 1.8LRSN                1
 GAP=116        1.08       4.4     4.5  7.2  0.8485E+01  0.5967E+01 -0.5546E+01E
 Epicentro: EL CARMEN DE CHUCURI - SANTANDER                                   3
 ACTION:UPD 13-11-25 09:19 OP:ep   STATUS:               ID:20131005030655 L   I
 OLDACT:REG 13-10-05 08:36 OP:nd   STATUS:               ID:20131005025959     3
 2013-10-05-0259-59M.COL___273                                                 6
 STAT SP IPHASW D HRMM SECON CODA AMPLIT PERI AZIMU VELO AIN AR TRES W  DIS CAZ7
 BAR2 SZ IP     C  3 7 11.06                             154    0.1210 46.6 100 
 BAR2 SZ ES        3 7 23.21                             154    0.0210 46.6 100 
 BAR2 SZ I         3 7 24.39        49.0 0.36            156           46.6 100 
 BRR  HZ IP     C  3 7 10.81                             152    0.0010 50.6 346 
 BRR  HN ES        3 7 23.20                             152    0.2410 50.6 346 
 BRR  HZ I         3 7 24.53        12.3 0.09            152           50.6 346 
 PTB  HZ EP        3 7 13.99                             134   -0.1910 95.9 262 
 PTB  HN ES        3 7 28.42                             134   -0.5510 95.9 262 
 PTB  HZ I         3 7 30.21        13.7 0.11            135           95.9 262 
 RUS  HZ EP        3 7 15.59                             133    0.1710  103 146 
 RUS  HN ES        3 7 31.05                             133   -0.1310  103 146 
 RUS  HZ I         3 7 33.42         6.7 0.54            135            103 146 
 ZAR  HZ EP        3 7 22.18                             117    0.95 9  167 303 
 ZAR  HN ES        3 7 41.89                             117    0.37 9  167 303 
 ZAR  HZ I         3 7 46.71         9.7 0.28            118            167 303 
 SML  HZ EP        3 7 28.79                             108   -0.95 8  242 348 
 SML  HN ES        3 7 56.40                             108   -0.26 8  242 348 
 SML  HZ I         3 7 59.83        12.9 0.10            108            242 348 
                                                                                
