 2012  8 5 0120 55.5 L   6.790 -73.143142.3  RSN  7 0.3 1.5LRSN                1
 GAP=137        0.60       3.3     3.9  6.2 -0.9124E+00  0.5900E+01 -0.1111E+01E
 Epicentro: LOS SANTOS - SANTANDER                                             3
 ACTION:UPD 12-09-10 11:54 OP:ep   STATUS:               ID:20120805012055 L   I
 2012-08-05-0120-00M.COL___216                                                 6
 STAT SP IPHASW D HRMM SECON CODA AMPLIT PERI AZIMU VELO AIN AR TRES W  DIS CAZ7
 BAR2 SZ EP   1    121 14.66                             171    0.02 7 22.3 191 
 BAR2 SZ I         121 14.83         9.8 0.20                          22.3 191 
 BAR2 SZ ES   1    121 29.23                             171   -0.37 7 22.3 191 
 BRR  HZ EP   1    121 16.64                             152    0.38 7 72.0 299 
 BRR  HZ I         121 17.11        17.0 0.12                          72.0 299 
 BRR  HN ES   2    121 33.25                             152    0.75 5 72.0 299 
 PAM  SZ EP   1    121 17.59                             150    0.26 7 78.0  39 
 PAM  SN ES   1    121 34.57                             150    0.17 7 78.0  39 
 RUS  HZ EP   1    121 18.60                             143   -0.18 7 99.5 176 
 RUS  HN ES   1    121 37.01                             143    0.04 7 99.5 176 
 RUS  HZ I         121 37.79         2.1 0.28                          99.5 176 
 PTB  HZ EP   1    121 21.94                             131   -0.20 7  148 259 
 PTB  HN ES   1    121 42.99                             131    0.03 7  148 259 
 PTB  HZ I         121 45.34         3.8 0.14                           148 259 
 OCA  HE ES   1    121 44.99                             129   -0.56 7  161 353 
 ZAR  HN ES   2    121 52.79                             121   -0.13 4  205 292 
                                                                                
