 2014  8 5 0208 37.7 L   6.817 -73.148145.4  RSN 26 0.4 2.5LRSN                1
 GAP= 70        0.84       1.8     2.2  3.9 -0.7062E+00  0.2315E+01  0.8634E+00E
 Epicentro: LOS SANTOS - SANTANDER                                             3
 ACTION:UPD 14-09-15 21:46 OP:nd   STATUS:               ID:20140805020837 L   I
 OLDACT:REG 14-08-05 12:51 OP:spq  STATUS:               ID:20140805020806     3
 2014-08-05-0208-06M.COL___254                                                 6
 STAT SP IPHASW D HRMM SECON CODA AMPLIT PERI AZIMU VELO AIN AR TRES W  DIS CAZ7
 BAR2 SZ IP     C  2 8 57.49                             170    0.2010 25.1 189 
 BAR2 SZ ES   1    2 9 12.16                             170   -0.44 7 25.1 189 
 BAR2 SZ I         2 9 14.24        33.3 0.22            168           25.1 189 
 BRR  HZ EP        2 8 59.41                             153    0.7010 70.1 297 
 BRR  HN ES        2 9 15.65                             153    0.5210 70.1 297 
 BRR  HZ I         2 9 19.78        28.6 0.38            152           70.1 297 
 PAM  SZ EP        2 9  0.19                             151    0.4210 76.1  41 
 PAM  SE ES        2 9 17.19                             151    0.1810 76.1  41 
 PAM  SZ I         2 9 19.61        72.4 0.56            156           76.1  41 
 RUS  HZ EP        2 9  1.39                             143   -0.1210  102 176 
 RUS  HE ES        2 9 19.86                             143   -0.2610  102 176 
 RUS  HZ I         2 9 21.87        26.6 0.46            144            102 176 
 PTB  HZ EP        2 9  4.54                             132   -0.07 9  148 258 
 PTB  HN ES        2 9 25.32                             132   -0.32 9  148 258 
 PTB  HZ I         2 9 33.25        34.8 0.30            132            148 258 
 TAM  HZ IP     D  2 9  5.57                             130    0.19 9  156 106 
 TAM  HN ES        2 9 26.64                             130   -0.35 9  156 106 
 TAM  HZ I         2 9 27.98        14.2 0.48            135            156 106 
 OCA  HZ EP        2 9  5.15                             130   -0.62 9  158 353 
 OCA  HE ES        2 9 26.98                             130   -0.72 9  158 353 
 OCA  HZ I         2 9 31.80        34.2 0.20            133            158 353 
 SPBC HZ EP        2 9  6.42                             129    0.16 9  164 219 
 SPBC HE ES        2 9 29.06                             129    0.50 9  164 219 
 SPBC HZ I         2 9 33.51        29.2 0.14            129            164 219 
 ZAR  HZ EP        2 9  9.72                             122   -0.27 9  203 292 
 ZAR  HE ES        2 9 35.45                             122    0.24 9  203 292 
 ZAR  HZ I         2 9 41.44        21.9 0.30            123            203 292 
 NOR  HZ EP        2 9 13.47                             118    0.00 8  236 234 
 NOR  HN ES        2 9 40.95                             118   -0.44 8  236 234 
 NOR  HZ I         2 9 48.94        20.5 0.42            119            236 234 
 SML  HZ EP        2 9 14.17                             118    0.09 8  242 335 
 SML  HE ES        2 9 42.59                             118    0.11 8  242 335 
 SML  HZ I         2 9 44.70        30.9 0.22            120            242 335 
 CHI  HZ EP        2 9 15.44                             117   -0.09 8  250 195 
 CHI  HE ES        2 9 44.68                             117   -0.38 8  250 195 
 CHI  HZ I         2 9 49.11        12.4 0.48            118            250 195 
 ROSC BZ EP   1    2 9 16.07                             116    0.15 6  254 211 
 ROSC BN ES        2 9 46.45                             116    0.69 8  254 211 
 ROSC BZ I         2 9 53.93        26.8 0.40            118            254 211 
 HEL  HZ EP   4    2 9 19.13                             115    1.25 0  272 255 
 HEL  HE ES        2 9 49.19                             115   -0.07 8  272 255 
 HEL  HZ I         2 9 56.14        14.2 0.46            116            272 255 
 URE  HE ES   4    2 9 48.38                             114   -2.18 0  283 292 
 URE  HZ I         2 9 52.42        17.7 0.20            115            283 292 
 GUY2CHZ EP        2 9 21.31                             112   -0.04 7  302 234 
 GUY2CHN ES        2 9 55.33                             112   -0.10 7  302 234 
 GUY2CHZ I         210  4.34        18.7 0.68                           302 234 
 PTGC HZ IP   4 D  2 9 20.36                             111   -1.35 0  310 159 
 PTGC HE ES   4    2 9 53.32                             111   -2.74 0  310 159 
 PTGC HZ I         2 9 59.79        20.0 0.52            113            310 159 
 RREF HZ EP   4    2 9 25.14                             111    1.23 0  323 229 
 RREF HN ES        2 9 59.58                             111   -0.40 7  323 229 
 RREF HZ I         210 10.51        16.3 0.30            112            323 229 
 CBOC HZ EP        2 9 25.25                             110    0.65 7  334 252 
 CBOC HN ES        210  0.70                             110   -0.52 7  334 252 
 CBOC HZ I         210  7.82         5.5 0.53            111            334 252 
 DBB  SZ ES   4    2 9 59.12                             109   -2.95 0  339 274 
 DBB  SZ I         210  4.34        31.8 0.52            111            339 274 
 TOL  SZ EP   1    2 9 26.52                             109    0.48 5  345 224 
 TOL  SN ES        210  3.98                             109    0.21 7  345 224 
 TOL  SZ I         210 11.66        32.8 0.38            110            345 224 
 ARGC HZ EP   1    2 9 26.57                             108   -0.53 5  357 340 
 ARGC HE ES        210  5.69                             108    0.04 6  357 340 
 ARGC HZ I         210  9.07         9.0 0.22            110            357 340 
 ANIL HE ES        210  6.02                             108   -0.51 6  358 224 
 ANIL HZ I         210 14.26        27.6 0.36            110            358 224 
 PRA  HZ EP        2 9 31.62                             106    0.28 6  393 209 
 PRA  HN ES        210 13.26                             106    0.04 6  393 209 
 PRA  HZ I         210 18.91        10.1 0.32            108            393 209 
 ORTC HZ EP        2 9 31.89                             106    0.16 6  397 216 
 ORTC HN ES        210 13.39                             106   -0.51 6  397 216 
 ORTC HZ I         210 22.35         7.5 0.38            107            397 216 
 SJC  HZ EP   4    2 9 31.24                             106   -1.78 0  408 327 
 SJC  HN ES   4    210 12.60                             106   -3.59 0  408 327 
 SJC  HZ I         210 17.12         7.5 0.50            107            408 327 
                                                                                
