 2017  5 5 0640  7.9 L   6.811 -73.147147.2  RSN 19 0.5 2.1LRSN                1
 GAP=111        1.07       3.0     3.5  5.6  0.7652E+00  0.4155E+01  0.2696E+01E
 Epicentro: LOS SANTOS - SANTANDER                                             3
 ACTION:UPD 17-06-16 13:33 OP:jn   STATUS:               ID:20170505064007 L   I
 OLDACT:UP  17-05-05 17:34 OP:edw  STATUS:               ID:20170505063740     3
 OLDACT:UP  17-05-05 17:33 OP:edw  STATUS:               ID:20170505063740     3
 OLDACT:UP  17-05-05 17:32 OP:edw  STATUS:               ID:20170505063740     3
 OLDACT:REG 17-05-05 13:05 OP:edw  STATUS:               ID:20170505063740     3
 2017-05-05-0638-00M.COL___349                                                 6
 STAT SP IPHASW D HRMM SECON CODA AMPLIT PERI AZIMU VELO AIN AR TRES W  DIS CAZ7
 BRR  HZ IP     C  640 29.15                             153   -0.0210 70.6 298 
 BRR  HE ES        640 46.44                             153    0.6910 70.6 298 
 BRR  HZ I         640 47.28        16.5 0.14            149           70.6 298 
 PAM  EZ EP     D  640 30.19                             151   -0.0310 76.5  40 
 PAM  EN ES        640 47.56                             151   -0.0610 76.5  40 
 PAM  EZ I         640 49.53        32.3 0.50            154           76.5  40 
 RUS  HZ EP        640 31.46                             144   -0.4210  102 176 
 RUS  HN ES        640 50.62                             144    0.0410  102 176 
 RUS  HZ I         640 51.23        38.7 0.34            143            102 176 
 PTB  HZ EP   9    640 33.65                             132   -1.35 0  148 258 
 PTB  HN ES        640 55.11                             132    0.33 9  148 258 
 PTB  HZ I         641  2.11        17.3 0.42            130            148 258 
 SPBC HZ EP        640 36.59                             129   -0.00 9  164 219 
 SPBC HN ES        640 58.38                             129   -0.59 9  164 219 
 SPBC HZ I         641  0.10        29.4 0.16            127            164 219 
 YPLC HZ EP     D  640 37.82                             127   -0.09 9  178 151 
 YPLC HN ES        641  1.80                             127    0.49 9  178 151 
 YPLC HZ I         641  2.71        26.5 0.28            127            178 151 
 ZAR  HZ EP        640 39.86                             123   -0.53 9  204 292 
 ZAR  HN ES        641  4.87                             123   -0.85 9  204 292 
 TABC EZ EP   4    640 44.97                             119    1.13 0  231 211 
 NOR  HZ EP        640 43.68                             119   -0.10 8  235 234 
 NOR  HN ES        641 11.24                             119   -0.52 8  235 234 
 NOR  HZ I         641 19.20        10.6 0.14            117            235 234 
 CHI  HZ EP        640 45.59                             117   -0.21 8  250 195 
 CHI  HN ES        641 14.96                             117   -0.40 8  250 195 
 CHI  HZ I         641 20.45         6.7 0.34            117            250 195 
 ROSC BZ EP        640 47.18                             117    0.97 8  254 211 
 ROSC BN ES   4    641 18.58                             117    2.50 0  254 211 
 ROSC BZ I         641 23.63         9.6 0.40            116            254 211 
 HEL  HZ EP        640 48.70                             115    0.49 8  272 256 
 HEL  HN ES        641 20.36                             115    0.71 8  272 256 
 HEL  HZ I         641 27.45         8.2 0.28            114            272 256 
 VIL  EZ EP   2    640 51.09                             112   -0.43 4  305 192 
 VIL  HN ES   2    641 25.83                             112    0.30 4  305 192 
 VIL  EZ I         641 28.49        11.5 0.38            112            305 192 
 PTGC HZ EP   9    640 50.58                             112   -1.37 0  310 159 
 PTGC HE ES        641 23.88                             112   -1.06 7  310 159 
 PTGC HZ I         641 28.79         9.0 0.30            112            310 159 
 ELA  HZ EP   4    640 56.97                             110    2.08 0  330 229 
 ELA  HN ES   4    641 37.12                             110    5.57 0  330 229 
 ELA  HZ I         641 46.78         5.1 0.46            110            330 229 
 CBOC HZ EP        640 55.60                             110    0.69 7  334 252 
 CBOC HN ES   4    641 30.27                             110   -1.30 0  334 252 
 CBOC HZ I         641 36.90         2.1 0.44            109            334 252 
 ARGC HZ EP   4    640 59.20                             108    1.72 0  358 340 
 ARGC HN ES        641 36.11                             108   -0.04 6  358 340 
 ARGC HZ I         641 47.63         3.0 0.26            108            358 340 
 ORTC HZ EP        641  2.19                             106    0.21 6  396 216 
 ORTC HN ES        641 44.54                             106    0.39 6  396 216 
 PAL  HZ EP   9    641  3.09                             106   -0.08 0  406 239 
 PAL  HN ES        641 45.64                             106   -0.56 6  406 239 
 PAL  HZ I         641 48.95         2.7 0.20            105            406 239 
 SJC  HZ EP   4    641  1.55                             106   -1.84 0  408 327 
 SJC  HN ES   4    641 42.86                             106   -3.81 0  408 327 
 SJC  HZ I         641 49.14         1.7 0.34            106            408 327 
                                                                                
