 2016 10 5 0030 40.3 L   6.786 -73.178148.0  RSN  7 0.4 1.5LRSN                1
 GAP=233        1.03       4.6     7.9  8.2  0.1673E+02  0.1350E+02  0.6141E+01E
 Epicentro: LOS SANTOS - SANTANDER                                             3
 ACTION:UPD 16-11-09 19:16 OP:rebc STATUS:               ID:20161005003040 L   I
 OLDACT:UP  16-10-05 13:53 OP:dani STATUS:               ID:20161005002743     3
 OLDACT:REG 16-10-05 12:27 OP:dani STATUS:               ID:20161005002743     3
 2016-10-05-0028-00M.COL___366                                                 6
 STAT SP IPHASW D HRMM SECON CODA AMPLIT PERI AZIMU VELO AIN AR TRES W  DIS CAZ7
 BRR  HZ EP        031  1.52                             154   -0.0810 68.8 301 
 BRR  HN ES        031 18.87                             154    0.6810 68.8 301 
 BRR  HZ I         031 22.49         6.1 0.24            151           68.8 301 
 RUS  HZ EP        031  4.25                             145    0.0310 99.4 174 
 RUS  HN ES        031 22.58                             145   -0.2710 99.4 174 
 RUS  HZ I         031 23.92         2.2 0.37            145           99.4 174 
 PTB  HZ EP        031  6.36                             133   -0.79 9  144 259 
 SPBC HN ES        031 30.54                             130   -0.26 9  160 218 
 SPBC HZ I         031 35.68         5.8 0.16            130            160 218 
 ZAR  HZ EP        031 12.76                             123    0.11 9  201 293 
 ZAR  HE ES        031 37.64                             123   -0.22 9  201 293 
 ZAR  HZ I         031 42.63         2.8 0.16            124            201 293 
 CHI  HE ES        031 47.42                             118    0.22 8  246 194 
 CHI  HZ I         031 49.96         1.5 0.30            119            246 194 
 PRA  HZ EP        031 34.32                             107    0.74 6  389 209 
 PRA  HN ES        032 15.82                             107    0.72 6  389 209 
 PRA  HZ I         032 20.90         1.7 0.24            108            389 209 
                                                                                
