 2017 12 5 0618 33.1 L   6.853 -73.099136.5  RSN  5 0.5 1.4LRSN                1
 GAP=249        1.12       7.4     6.9  9.1  0.2149E+02  0.1121E+02 -0.1533E+02E
 Epicentro: LOS SANTOS - SANTANDER                                             3
 ACTION:UPD 18-01-04 13:17 OP:rebc STATUS:               ID:20171205061833 L   I
 OLDACT:REG 17-12-05 13:59 OP:y    STATUS:               ID:20171205061741     3
 2017-12-05-0618-00M.COL___470                                                 6
 STAT SP IPHASW D HRMM SECON CODA AMPLIT PERI AZIMU VELO AIN AR TRES W  DIS CAZ7
 BAR2 EZ EP        618 51.99                             167    0.2310 30.3 198 
 BAR2 EZ ES        619  5.85                             167   -0.4810 30.3 198 
 BAR2 EZ I         619  9.77         5.3 0.50            171           30.3 198 
 RUS  HZ EP        618 56.48                             140    0.1310  106 179 
 RUS  HN ES        619 14.96                             140    0.4510  106 179 
 RUS  HZ I         619 15.42         2.2 0.20            147            106 179 
 PTB  HZ EP        618 59.14                             129   -0.75 9  154 257 
 PTB  HE ES        619 20.88                             129    0.07 9  154 257 
 PTB  HZ I         619 22.15         3.0 0.44            132            154 257 
 SPBC HZ EP        619  0.99                             125   -0.65 9  171 219 
 SPBC HN ES        619 24.14                             125    0.22 9  171 219 
 ZAR  HZ EP        619  5.93                             120    0.72 8  207 290 
 ZAR  HN ES        619 30.41                             120    0.13 8  207 290 
 ZAR  HZ I         619 36.77         4.8 0.44            122            207 290 
                                                                                
