 2014  6 5 0820 25.0 L   6.785 -73.146140.2  RSN 18 0.4 2.1LRSN                1
 GAP=137        0.95       2.3     3.3  4.9 -0.1893E+01  0.6840E+01  0.4867E+00E
 Epicentro: LOS SANTOS - SANTANDER                                             3
 ACTION:UPD 14-07-01 22:51 OP:nd   STATUS:               ID:20140605082025 L   I
 OLDACT:REG 14-06-05 13:13 OP:fm   STATUS:               ID:20140605081814     3
 2014-06-05-0818-14M.COL___262                                                 6
 STAT SP IPHASW D HRMM SECON CODA AMPLIT PERI AZIMU VELO AIN AR TRES W  DIS CAZ7
 BAR2 SZ IP     C  820 44.27                             171    0.3010 21.7 191 
 BAR2 SZ ES        820 59.12                             171    0.3910 21.7 191 
 BAR2 SZ I         821  1.98        32.2 0.18            169           21.7 191 
 PAM  SZ EP        820 47.14                             149    0.4010 78.7  39 
 PAM  SN ES        821  4.09                             149    0.4110 78.7  39 
 PAM  SZ I         821  6.37        22.6 0.54            145           78.7  39 
 RUS  HZ EP        820 48.13                             143    0.0010 99.0 176 
 RUS  HN ES        821  5.37                             143   -0.7610 99.0 176 
 PTB  HZ EP        820 51.05                             131   -0.47 9  147 259 
 PTB  HN ES        821 12.17                             131   -0.01 9  147 259 
 PTB  HZ I         821 19.46        23.2 0.40            126            147 259 
 OCA  HZ EP   1    820 52.50                             128   -0.57 7  162 353 
 OCA  HN ES        821 14.85                             128   -0.09 9  162 353 
 OCA  HZ I         821 19.27        12.8 0.17            123            162 353 
 SPBC HZ EP        820 53.07                             128    0.08 9  162 219 
 SPBC HN ES        821 14.58                             128   -0.21 9  162 219 
 SPBC HZ I         821 22.87        15.1 0.17            123            162 219 
 ZAR  HZ EP        820 56.91                             121   -0.27 9  205 293 
 ZAR  HN ES        821 22.79                             121    0.53 9  205 293 
 ZAR  HZ I         821 28.50        12.2 0.24            117            205 293 
 NOR  HZ EP        821  0.27                             117   -0.07 8  234 235 
 NOR  HN ES        821 28.16                             117    0.28 8  234 235 
 NOR  HZ I         821 33.86        10.6 0.33            113            234 235 
 SML  HZ EP        821  1.25                             116   -0.26 8  245 335 
 SML  HN ES        821 29.02                             116   -0.95 8  245 335 
 SML  HZ I         821 31.40        13.1 0.07            112            245 335 
 CHI  HZ EP   1    821  1.92                             116   -0.34 6  247 195 
 CHI  HN ES        821 30.86                             116   -0.43 8  247 195 
 CHI  HZ I         821 41.42         3.8 0.30            112            247 195 
 ROSC BZ EP   1    821  2.73                             116    0.03 6  251 211 
 ROSC BE ES   1    821 31.34                             116   -0.74 6  251 211 
 ROSC BZ I         821 42.16        11.0 0.40            111            251 211 
 HEL  HZ EP        821  5.69                             114    0.77 8  272 256 
 HEL  HN ES        821 35.51                             114   -0.52 8  272 256 
 HEL  HZ I         821 43.27         8.7 0.32            110            272 256 
 GUY2CHZ EP   1    821  8.35                             111    0.07 5  300 235 
 GUY2CHE ES        821 42.41                             111    0.40 7  300 235 
 GUY2CHZ I         821 50.93         7.0 0.52                           300 235 
 RREF HZ EP        821 11.73                             110    0.91 7  321 230 
 RREF HE ES        821 46.72                             110    0.20 7  321 230 
 RREF HZ I         821 56.31         6.6 0.22            106            321 230 
 CBOC HZ EP   1    821 12.07                             109    0.41 5  333 252 
 CBOC HN ES        821 47.70                             109   -0.33 7  333 252 
 CBOC HZ I         821 56.40         2.4 0.36            105            333 252 
 TOL  SZ EP        821 13.10                             108    0.17 7  342 225 
 TOL  SN ES        821 50.92                             108    0.63 7  342 225 
 TOL  SZ I         821 56.44        10.7 0.38            105            342 225 
 PRA  HZ EP   1    821 17.70                             106   -0.50 4  391 210 
 PRA  HN ES        821 59.48                             106   -0.19 6  391 210 
 PRA  HZ I         822  8.70         3.9 0.48            102            391 210 
 ORTC HZ EP   1    821 19.28                             105    0.67 4  394 216 
 ORTC HN ES   1    822  0.58                             105    0.18 4  394 216 
 ORTC HZ I         822  7.31         2.9 0.44            102            394 216 
                                                                                
