 2011 10 5 0421 55.0 L   6.819 -73.090147.9  RSN  4 0.2 1.1LRSN                1
 GAP=201        0.33       4.9     8.3  4.6  0.2926E+02 -0.8393E+01 -0.4233E+00E
 Epicentro: LOS SANTOS - SANTANDER                                             3
 ACTION:UPD 12-07-13 16:02 OP:ep   STATUS:               ID:20111005042155 L   I
 2011-10-05-0420-00M.COL___172                                                 6
 STAT SP IPHASW D HRMM SECON CODA AMPLIT PERI AZIMU VELO AIN AR TRES W  DIS CAZ7
 BAR2 SZ ES   3    422 29.96                             169   -0.59 2 27.0 202 
 BAR2 SZ I         422 30.90         3.8 0.35                          27.0 202 
 GIR2 SZ EP   2    422 14.89                             168   -0.04 5 31.0 338 
 GIR2 SZ ES   2    422 30.65                             168    0.18 5 31.0 338 
 BRR  HZ EP        422 16.60                             152   -0.0510 75.8 295 
 BRR  HZ I         422 16.85         3.8 0.15                          75.8 295 
 BRR  HE ES   1    422 33.56                             152    0.03 7 75.8 295 
 RUS  HZ EP   1    422 19.13                             144    0.03 7  102 180 
 RUS  HN ES   2    422 37.95                             144    0.06 5  102 180 
 RUS  HZ I         422 38.37         1.1 0.54                           102 180 
                                                                                
