 2010 11 5 0812 33.2 L   6.836 -73.124152.3  RSN  5 0.2 1.6LRSN                1
 GAP=161        0.46       5.4     8.7  9.2 -0.2063E+02 -0.4327E+02  0.1736E+02E
 Epicentro: LOS SANTOS - SANTANDER                                             3
 ACTION:UP  10-12-17 16:50 OP:REBC STATUS:               ID:20101105081233 L   I
 2010-11-05-0812-06S.COL___128                                                 6
 STAT SP IPHASW D HRMM SECON CODA AMPLIT PERI AZIMU VELO SNR AR TRES W  DIS CAZ7
 BRR  HZ EP   1    812 55.04                             154    -0.1 8   72 295 
 BRR  HE ES   2    813 12.19                             154     0.0 5   72 295 
 BRR  HZ I         813 14.16         8.6 0.20                            72 295 
 RUS  HZ EP   2    812 57.97                             144     0.1 5  104 178 
 RUS  HZ I         813 16.86         2.5 0.33                           104 178 
 GUE  SZ EP        812 58.41                             142     0.210  112  11 
 GRA  SZ EP        812 58.71                             140     0.010  121  17 
 GRA  SZ ES   2    813 18.28                             140    -0.3 5  121  17 
 GRA  SZ I         813 19.31         5.0 0.19                           121  17 
 OCA  SZ EP   1    813  1.41                             132    -0.3 7  157 352 
 OCA  SZ ES   2    813 24.19                             132     0.2 5  157 352 
 OCA  SZ I         813 28.90         8.0 0.27                           157 352 
                                                                                
