 2010  7 5 0308  2.8 L   6.793 -73.096142.4  RSN  7 0.4 1.7LRSN                1
 GAP=161        0.74       4.9     9.5  7.8 -0.2111E+02  0.7427E+01  0.5524E+01E
 Epicentro: LOS SANTOS - SANTANDER                                             3
 ACTION:UPD 10-12-01 15:15 OP:pat  STATUS:               ID:20100705030802 L   I
 2010-07-05-0305-08S.COL___118                                                 6
 STAT SP IPHASW D HRMM SECON CODA AMPLIT PERI AZIMU VELO AIN AR TRES W  DIS CAZ7
 BAR2 SZ EP   1    3 8 21.73                             170    -0.3 7   24 203 
 BAR2 SZ ES   2    3 8 36.75                             170    -0.3 5   24 203 
 BRR  HZ EP   1    3 8 23.51                             150    -0.4 7   76 297 
 BRR  HN ES   2    3 8 40.51                             150     0.2 5   76 297 
 BRR  HZ I         3 8 41.43        12.5 0.18                            76 297 
 RUS  HZ EP   1    3 8 25.84                             143    -0.3 7  100 179 
 RUS  HZ I         3 8 26.98         5.0 0.15                           100 179 
 RUS  HN ES   2    3 8 44.84                             143     0.5 5  100 179 
 BRI  SZ EP   1    3 8 26.41                             141     0.1 7  107  18 
 BRI  SZ ES   2    3 8 45.60                             141     1.0 5  107  18 
 GRA  SZ EP   1    3 8 27.76                             136     0.1 7  125  15 
 GRA  SZ ES   2    3 8 46.59                             136    -0.5 5  125  15 
 RREF HZ EP   1    3 8 49.61                             110     0.4 5  325 230 
 RREF HZ I         3 9 38.10         1.9 0.94                           325 230 
 PRA  HZ EP   1    3 8 56.48                             106     0.0 4  394 210 
 PRA  HE ES   2    3 9 39.32                             106     1.0 3  394 210 
 PRA  HZ I         3 9 44.54         1.9 0.26                           394 210 
                                                                                
