 2013  1 5 0428 54.3 L   5.934 -73.625119.2  RSN  8 0.4 2.2LRSN 2.8WRSN        1
 SPEC AVERAGE  MO 13.3 ST  4.1 OM  2.0 f0 4.03 R0.4086 AL 2.38 WI 17.5 MW  2.8 3
 SPEC SD       MO  0.4 ST  4.1 OM  0.5 f0 1.32 R0.1376 AL      WI      MW  0.3 3
 GAP= 93        1.01       3.0     4.5  7.2  0.1537E+01  0.1341E+02 -0.4144E+00E
 Epicentro: BARBOSA - SANTANDER                                                3
 SPEC ZAR HH N MO 13.6 ST 10.9 OM  1.8 f0 5.99 R0.2454 AL 2.46 WI 24.4 MW  3.0 3
 SPEC ZAR HH N T 42951 K 0.000 GD  250 VS 4.20 DE 3.00 Q0230.0 QA 0.60 VS 4.20 3
 SPEC RUS HH N MO 12.6 ST0.277 OM  1.1 f0 3.71 R0.3962 AL 2.25 WI  9.8 MW  2.3 3
 SPEC RUS HH N T 42926 K 0.000 GD  133 VS 4.20 DE 3.00 Q0230.0 QA 0.60 VS 4.20 3
 SPEC OCA HH N MO 13.8 ST  5.5 OM  2.0 f0 3.92 R0.3750 AL 2.22 WI 21.1 MW  3.2 3
 SPEC OCA HH N T 42957 K 0.000 GD  283 VS 4.20 DE 3.00 Q0230.0 QA 0.60 VS 4.20 3
 SPEC HEL HH N MO 13.2 ST0.434 OM  1.4 f0 2.80 R0.5250 AL 1.84 WI 15.1 MW  2.7 3
 SPEC HEL HH N T 42951 K 0.000 GD  244 VS 4.20 DE 3.00 Q0230.0 QA 0.60 VS 4.20 3
 SPEC CHI HH N MO 13.2 ST0.293 OM  1.6 f0 2.30 R0.6391 AL 2.14 WI 14.0 MW  2.8 3
 SPEC CHI HH N T 42937 K 0.000 GD  187 VS 4.20 DE 3.00 Q0230.0 QA 0.60 VS 4.20 3
 SPEC BRR HH N MO 13.5 ST  7.2 OM  1.9 f0 5.43 R0.2707 AL 3.34 WI 20.7 MW  3.0 3
 SPEC BRR HH N T 42935 K 0.000 GD  176 VS 4.20 DE 3.00 Q0230.0 QA 0.60 VS 4.20 3
 ACTION:UPD 13-02-15 09:12 OP:ep   STATUS:               ID:20130105042854 L   I
 2013-01-05-0419-49M.COL___196                                                 6
 STAT SP IPHASW D HRMM SECON CODA AMPLIT PERI AZIMU VELO AIN AR TRES W  DIS CAZ7
 RUS  HZ IP        429 12.56                             152   -0.1010 60.1  94 
 RUS  HZ I         429 12.92        15.5 0.30            157           60.1  94 
 RUS  HN ES        429 27.19                             152    0.2110 60.1  94 
 BAR2 SZ EP        429 14.24                             141    0.0810 87.7  34 
 BAR2 SZ ES        429 29.55                             141   -0.1010 87.7  34 
 BAR2 SZ I         429 31.65        71.6 0.36            139           87.7  34 
 PTB  HZ EP        429 15.48                             133   -0.5410  114 306 
 PTB  HN ES        429 32.80                             133   -0.1710  114 306 
 PTB  HN I         429 39.10        28.7 0.10            123            114 306 
 BRR  HZ EP        429 17.51                             129    0.0110  130 356 
 BRR  HN ES        429 36.28                             129    0.6910  130 356 
 BRR  HN I         429 37.51        32.7 0.30            123            130 356 
 CHI  HZ EP        429 19.41                             126   -0.06 9  145 185 
 CHI  HN ES        429 38.88                             126   -0.22 9  145 185 
 CHI  HN I         429 41.29        26.2 0.52            120            145 185 
 HEL  HZ EP        429 27.69                             115    1.11 8  213 278 
 HEL  HN I         430  0.08         6.4 0.20            109            213 278 
 ZAR  HZ EP        429 27.00                             114    0.10 8  220 322 
 ZAR  HN ES        429 51.82                             114   -0.51 8  220 322 
 ZAR  HN I         429 58.45        18.7 0.58            109            220 322 
 OCA  HZ EP        429 31.31                             110    0.00 8  257   8 
 OCA  HN ES        429 59.68                             110   -0.50 8  257   8 
 OCA  HN I         430  8.75        33.6 0.28            107            257   8 
                                                                                
