 2016  5 5 0911 34.1 L   6.769 -73.168145.9  RSN  7 0.4 1.3LRSN                1
 GAP=135        1.01       4.2     4.5  7.1  0.1512E+01  0.6652E+01  0.5232E+01E
 Epicentro: LOS SANTOS - SANTANDER                                             3
 ACTION:UPD 16-08-18 17:42 OP:cam  STATUS:               ID:20160505091134 L   I
 OLDACT:REG 16-05-05 13:15 OP:ak   STATUS:               ID:20160505090747     3
 2016-05-05-0907-47M.COL___300                                                 6
 STAT SP IPHASW D HRMM SECON CODA AMPLIT PERI AZIMU VELO AIN AR TRES W  DIS CAZ7
 BAR2 EZ EP        911 53.64                             172   -0.0810 19.7 185 
 BAR2 EZ ES        912  8.83                             172   -0.1610 19.7 185 
 BAR2 EZ I         912 10.21         5.0 0.35            171           19.7 185 
 BRR  HZ EP   2    911 55.41                             153    0.12 5 70.8 302 
 BRR  HN ES        912 12.56                             153    0.7810 70.8 302 
 BRR  HZ I         912 20.26         7.0 0.26            150           70.8 302 
 PAM  EZ EP        911 56.53                             150   -0.1010 81.5  39 
 PAM  EN ES        912 13.90                             150   -0.2610 81.5  39 
 PAM  EZ I         912 15.20         2.1 0.40            154           81.5  39 
 RUS  HZ EP        911 57.96                             145    0.2810 97.4 174 
 RUS  HN ES        912 16.12                             145    0.0810 97.4 174 
 RUS  HZ I         912 17.77         1.7 0.42            149           97.4 174 
 PTB  HZ EP        912  0.44                             133   -0.41 9  145 260 
 PTB  HN ES        912 20.78                             133   -0.90 9  145 260 
 PTB  HZ I         912 28.80         2.2 0.20            133            145 260 
 ZAR  HZ EP   2    912  6.96                             123    0.46 4  203 293 
 ZAR  HN ES        912 32.08                             123    0.34 9  203 293 
 ZAR  HZ I         912 36.94         1.7 0.15            124            203 293 
 CHI  HZ EP   2    912 11.28                             118   -0.15 4  245 195 
 CHI  HE ES        912 40.96                             118    0.45 8  245 195 
                                                                                
