 2017  8 5 0457 26.3 L   6.738 -73.124140.7  RSN  8 0.5 1.5LRSN                1
 GAP=142        1.21       4.6     5.8  7.3 -0.6513E+01  0.4782E+01  0.1080E+02E
 Epicentro: JORDAN - SANTANDER                                                 3
 ACTION:UPD 17-09-04 20:16 OP:rebc STATUS:               ID:20170805045726 L   I
 OLDACT:REG 17-08-05 13:07 OP:osc  STATUS:               ID:20170805044742     3
 2017-08-05-0448-00M.COL___393                                                 6
 STAT SP IPHASW D HRMM SECON CODA AMPLIT PERI AZIMU VELO AIN AR TRES W  DIS CAZ7
 BAR2 EZ EP        457 45.29                             173    0.0610 17.4 202 
 BAR2 EZ ES        458  0.06                             173    0.0810 17.4 202 
 BAR2 EZ I         458  1.79        13.4 0.18            170           17.4 202 
 BRR  HZ IP     C  457 46.93                             150   -0.3110 76.7 302 
 BRR  HE ES        458  4.25                             150    0.6810 76.7 302 
 BRR  HZ I         458  7.98         7.1 0.36            149           76.7 302 
 PAM  EZ EP        457 48.16                             148   -0.0810 81.4  35 
 PAM  EN ES        458  5.45                             148    0.1110 81.4  35 
 PAM  EZ I         458  7.34         6.5 0.54            153           81.4  35 
 RUS  HZ EP        457 49.37                             145    0.3010 93.6 177 
 RUS  HN ES        458  5.90                             145   -0.9210 93.6 177 
 RUS  HZ I         458  9.33         1.8 0.12            148           93.6 177 
 PTB  HZ EP        457 52.68                             131   -0.30 9  149 262 
 PTB  HN ES        458 12.83                             131   -0.95 9  149 262 
 PTB  HZ I         458 20.27         3.3 0.22            131            149 262 
 SPBC HZ EP        457 54.37                             128    0.30 9  159 221 
 SPBC HE ES        458 16.61                             128    0.88 9  159 221 
 SPBC HZ I         458 21.09         4.1 0.26            130            159 221 
 CHI  HZ EP        458  3.16                             117    0.07 8  243 196 
 CHI  HN ES        458 31.96                             117    0.19 8  243 196 
 PRA  HZ EP        458 18.97                             106   -0.14 6  387 210 
 PRA  HE ES        459  0.46                             106    0.17 6  387 210 
                                                                                
