 2012  7 5 0147 33.3 L   6.750 -73.171143.6  RSN  6 0.4 1.6LRSN                1
 GAP=180        1.01       6.1     8.0 11.0  0.1500E+02  0.1819E+02 -0.3752E+01E
 Epicentro: VILLANUEVA - SANTANDER                                             3
 ACTION:UPD 12-08-14 11:42 OP:ep   STATUS:               ID:20120705014733 L   I
 2012-07-05-0140-00M.COL___201                                                 6
 STAT SP IPHASW D HRMM SECON CODA AMPLIT PERI AZIMU VELO AIN AR TRES W  DIS CAZ7
 BAR2 SZ ES   1    148  7.32                             173    -0.3 7   18 184 
 BAR2 SZ I         148  8.78        13.4 0.28            170             18 184 
 BRR  HZ EP   1    147 54.44                             152     0.2 7   72 303 
 BRR  HZ I         147 54.62        11.9 0.15            152             72 303 
 BRR  HN ES   1    148 11.33                             152     0.8 7   72 303 
 RUS  HZ EP   1    147 57.08                             145     0.6 7   95 174 
 RUS  HN ES   1    148 14.17                             145    -0.4 7   95 174 
 RUS  HZ I         148 16.77         5.8 0.65            144             95 174 
 PTB  HZ EP   1    147 59.34                             132    -0.4 7  144 261 
 PTB  HN ES   1    148 20.13                             132    -0.2 7  144 261 
 PTB  HZ I         148 23.50         1.9 0.11            132            144 261 
 OCA  HN ES   1    148 23.82                             128    -0.4 7  165 354 
 ZAR  HN ES   1    148 30.68                             122     0.0 6  204 294 
