 2012 11 5 0917 45.1 L   6.555 -73.516113.9  RSN  5 0.1 1.9LRSN                1
 GAP=194        0.37       2.5     4.8  3.3  0.7572E+01  0.1947E+01  0.1018E+01E
 Epicentro: EL CARMEN DE CHUCURI - SANTANDER                                   3
 ACTION:UPD 12-12-05 15:31 OP:}ep  STATUS:               ID:20121105091745 L   I
 2012-11-05-0910-00M.COL___230                                                 6
 STAT SP IPHASW D HRMM SECON CODA AMPLIT PERI AZIMU VELO AIN AR TRES W  DIS CAZ7
 BAR2 SZ EP        918  1.51                             161    0.1710 37.1  84 
 BAR2 SZ ES        918 13.92                             161   -0.1110 37.1  84 
 BAR2 SZ I         918 15.32        50.4 0.40                          37.1  84 
 BRR  HZ EP        918  2.31                             148   -0.1410 64.8 340 
 BRR  HN ES        918 16.08                             148    0.0710 64.8 340 
 BRR  HN I         918 17.63        11.4 0.20                          64.8 340 
 GIR2 SZ EP        918  2.95                             147    0.0910 68.0  32 
 RUS  HZ EP        918  4.70                             140   -0.0710 87.5 147 
 RUS  HN ES   2    918 20.24                             140    0.09 5 87.5 147 
 OCA  HN ES   1    918 36.55                             117   -0.06 7  187   7 
                                                                                
