 2016  5 5 0917 60.0 L   6.790 -73.148153.7  RSN 11 0.4 1.7LRSN                1
 GAP=137        1.06       3.3     4.6  6.1 -0.1385E+01  0.4652E+01  0.4815E+01E
 Epicentro: LOS SANTOS - SANTANDER                                             3
 ACTION:UPD 16-08-18 17:42 OP:cam  STATUS:               ID:20160505091760 L   I
 OLDACT:DUP 16-05-05 19:45 OP:ak   STATUS:               ID:20160505090748d    3
 OLDACT:REG 16-05-05 13:15 OP:ak   STATUS:               ID:20160505090747     3
 2016-05-05-0907-47M.COL___300                                                 6
 STAT SP IPHASW D HRMM SECON CODA AMPLIT PERI AZIMU VELO AIN AR TRES W  DIS CAZ7
 BAR2 EZ EP        918 20.33                             171   -0.2010 22.2 190 
 BAR2 EZ ES        918 36.33                             171   -0.2310 22.2 190 
 BAR2 EZ I         918 37.38         9.7 0.44            168           22.2 190 
 BRR  HZ IP     C  918 22.39                             154    0.4010 71.5 299 
 BRR  HN ES        918 40.02                             154    0.8510 71.5 299 
 BRR  HZ I         918 43.98         9.3 0.26            144           71.5 299 
 PAM  EZ EP        918 23.44                             152    0.3610 78.3  39 
 PAM  EN ES        918 40.93                             152   -0.1810 78.3  39 
 PAM  EZ I         918 44.63         3.4 0.28            149           78.3  39 
 RUS  HZ EP        918 24.62                             146    0.1910 99.5 176 
 RUS  HN ES        918 43.56                             146    0.0510 99.5 176 
 RUS  HZ I         918 44.85         4.4 0.38            141           99.5 176 
 PTB  HZ EP        918 27.20                             134   -0.35 9  147 259 
 PTB  HN ES        918 48.24                             134   -0.83 9  147 259 
 OCA  HZ EP   2    918 29.72                             131    0.72 5  161 353 
 OCA  HE ES        918 50.90                             131   -0.74 9  161 353 
 OCA  HZ I         918 56.49        17.6 0.22            124            161 353 
 SPBC HZ EP        918 29.01                             131    0.02 9  162 219 
 SPBC HN ES        918 51.72                             131    0.09 9  162 219 
 SPBC HZ I         918 58.67         9.0 0.14            124            162 219 
 ZAR  HZ EP   2    918 33.35                             124    0.39 4  204 292 
 ZAR  HN ES        918 59.03                             124    0.34 9  204 292 
 ZAR  HZ I         919  4.36         8.5 0.42            116            204 292 
 CHI  HZ EP        918 37.26                             119   -0.74 8  248 195 
 CHI  HN ES        919  7.92                             119    0.26 8  248 195 
 CHI  HZ I         919 13.94         2.4 0.23            113            248 195 
 URE  HN ES   4    919 12.26                             115   -1.55 0  284 292 
 CBOC HZ EP   4    918 48.66                             111    1.50 0  333 252 
 CBOC HZ I         919 35.43         1.0 0.29            106            333 252 
 PRA  HZ EP        918 53.89                             108    0.24 6  391 210 
 PRA  HN ES        919 35.77                             108    0.25 6  391 210 
 PRA  HZ I         919 41.16         1.8 0.44            103            391 210 
                                                                                
