 2015  4 5 0643  0.5 L   6.832 -73.207137.8  RSN  8 0.4 1.8LRSN                1
 GAP=128        0.84       3.2     3.9  5.5 -0.1528E+01  0.5491E+01 -0.3985E+00E
 Epicentro: ZAPATOCA - SANTANDER                                               3
 ACTION:UPD 15-06-03 16:52 OP:cam  STATUS:               ID:20150405064300 L   I
 OLDACT:UP  15-04-05 17:17 OP:mh   STATUS:               ID:20150405063740     3
 OLDACT:UP  15-04-05 17:17 OP:mh   STATUS:               ID:20150405063740     3
 OLDACT:REG 15-04-05 12:33 OP:mh   STATUS:               ID:20150405063740     3
 2015-04-05-0637-40M.COL___276                                                 6
 STAT SP IPHASW D HRMM SECON CODA AMPLIT PERI AZIMU VELO AIN AR TRES W  DIS CAZ7
 BAR2 EZ EP        643 19.24                             168    0.0110 26.7 174 
 BAR2 EZ ES        643 33.87                             168    0.0110 26.7 174 
 BAR2 EZ I         643 35.77        12.1 0.42            171           26.7 174 
 BRR  HZ EP        643 21.02                             154    0.6810 63.5 299 
 BRR  HN ES        643 36.04                             154    0.2010 63.5 299 
 BRR  HZ I         643 41.08        10.2 0.10            151           63.5 299 
 PAM  SZ EP        643 22.23                             149    0.2510 79.3  45 
 PAM  SN ES   1    643 38.78                             149    0.04 7 79.3  45 
 PAM  SZ I         643 40.94        13.8 0.48            153           79.3  45 
 RUS  HZ EP        643 23.70                             141   -0.0810  105 172 
 RUS  HN ES        643 41.68                             141   -0.2810  105 172 
 RUS  HZ I         643 43.58        12.6 0.40            145            105 172 
 PTB  HZ EP   1    643 25.75                             131   -0.52 7  142 257 
 PTB  HN ES   1    643 46.57                             131    0.18 7  142 257 
 PTB  HZ I         643 50.50         9.6 0.12            132            142 257 
 OCA  HZ EP   1    643 27.44                             129   -0.34 7  156 355 
 OCA  HN ES        643 48.54                             129   -0.53 9  156 355 
 OCA  HZ I         643 53.94        12.4 0.15            130            156 355 
 HEL  HZ EP   1    643 40.41                             114    0.74 6  266 255 
 HEL  HN ES        644  9.79                             114   -0.45 8  266 255 
 HEL  HZ I         644 17.80         3.7 0.40            115            266 255 
 GUY2CHZ EP   1    643 43.32                             111   -0.03 5  298 233 
 GUY2CHN ES   4    644 18.31                             111    1.52 0  298 233 
 GUY2CHZ I         644 23.51         2.9 0.46                           298 233 
                                                                                
