 2013  8 5 0156 15.0 L   6.771 -73.133142.8  RSN  8 0.5 1.5LRSN                1
 GAP=184        1.16       4.2     6.9  7.7  0.1744E+01  0.9028E+01  0.9845E+00E
 Epicentro: LOS SANTOS - SANTANDER                                             3
 ACTION:UPD 14-01-14 08:59 OP:ep   STATUS:               ID:20130805015615 L   I
 OLDACT:REG 13-08-05 07:46 OP:jn   STATUS:               ID:20130805014959     3
 2013-08-05-0149-59M.COL___270                                                 6
 STAT SP IPHASW D HRMM SECON CODA AMPLIT PERI AZIMU VELO AIN AR TRES W  DIS CAZ7
 BAR2 SZ EP        156 34.52                             171    0.3210 20.5 195 
 BAR2 SZ ES        156 49.49                             171    0.3010 20.5 195 
 BAR2 SZ I         156 50.94         7.7 0.46            167           20.5 195 
 GIR2 SZ EP        156 34.64                             166    0.2410 34.7 349 
 GIR2 SZ ES        156 48.96                             166   -0.5810 34.7 349 
 BRR  HZ EP        156 36.32                             151    0.3510 74.0 300 
 BRR  HN ES        156 53.08                             151    0.7310 74.0 300 
 BRR  HZ I         156 56.20         7.0 0.30            151           74.0 300 
 RUS  HZ EP        156 38.23                             144    0.0310 97.2 177 
 RUS  HN ES        156 55.90                             144   -0.4110 97.2 177 
 RUS  HZ I         156 59.46         2.5 0.36            144           97.2 177 
 PTB  HZ EP        156 41.39                             131   -0.39 9  149 260 
 PTB  HN ES        157  1.97                             131   -0.71 9  149 260 
 PTB  HZ I         157  4.12         4.5 0.26            131            149 260 
 SPBC HZ EP   1    156 42.89                             129   -0.21 7  162 220 
 SPBC HN ES   1    157  5.76                             129    0.73 7  162 220 
 SPBC HZ I         157 12.57         5.7 0.22            128            162 220 
 OCA  HN ES        157  4.99                             128   -0.55 9  164 353 
 SML  HN ES   1    157 21.02                             116    0.45 6  247 335 
                                                                                
