 2014 10 5 0608 20.9 L   6.665 -73.600103.1  RSN  4 0.3 0.9LRSN                1
 GAP=116        0.90       5.6     4.6  8.7  0.1208E+02  0.1368E+02  0.1949E+02E
 Epicentro: EL CARMEN - SANTANDER                                              3
 ACTION:UPD 14-11-29 23:46 OP:nd   STATUS:               ID:20141005060820 L   I
 OLDACT:REG 14-10-05 14:41 OP:stll STATUS:               ID:20141005055749     3
 2014-10-05-0557-49M.COL___286                                                 6
 STAT SP IPHASW D HRMM SECON CODA AMPLIT PERI AZIMU VELO AIN AR TRES W  DIS CAZ7
 BAR2 SZ ES        6 8 48.09                             154   -0.4210 46.9 100 
 BAR2 SZ I         6 8 48.86         5.0 0.10            154           46.9 100 
 BRR  HZ EP        6 8 35.82                             152   -0.4410 50.4 346 
 BRR  HN ES        6 8 48.79                             152    0.5510 50.4 346 
 PTB  HZ EP        6 8 39.76                             133    0.0910 95.7 262 
 PTB  HE ES        6 8 54.13                             133   -0.1810 95.7 262 
 RUS  HZ EP        6 8 41.19                             132    0.2310  103 146 
 RUS  HE ES        6 8 56.77                             132    0.1710  103 146 
 RUS  HZ I         6 8 58.14         1.0 0.30            131            103 146 
                                                                                
