 2010  9 5 0554 41.5 L   6.790 -73.088138.0  RSN  8 0.2 1.8LRSN                1
 GAP=165        0.44       2.3     6.1  4.0 -0.6235E+01 -0.2155E+00 -0.7651E+00E
 Epicentro: LOS SANTOS - SANTANDER                                             3
 ACTION:UP  11-02-18 11:00 OP:tino STATUS:               ID:20100905055441 L   I
 2010-09-05-0552-00S.COL___120                                                 6
 STAT SP IPHASW D HRMM SECON CODA AMPLIT PERI AZIMU VELO SNR AR TRES W  DIS CAZ7
 BAR2 SZ EP        555  0.16                             170    -0.110   24 206 
 BAR2 SZ ES   1    555 14.95                             170     0.1 7   24 206 
 BAR2 SZ I         555 16.19        13.6 0.29                            24 206 
 BRR  HN ES   2    555 18.12                             149    -0.2 5   77 297 
 BRR  HZ I         555 20.97        17.6 0.29                            77 297 
 RUS  HZ EP   1    555  4.27                             143    -0.2 7   99 180 
 RUS  HN ES   1    555 22.45                             143     0.2 7   99 180 
 RUS  HZ I         555 24.77         7.0 0.47                            99 180 
 GUE  SZ EP   1    555  5.77                             138     0.2 7  116   9 
 GRA  SZ EP        555  5.87                             135    -0.210  125  15 
 GRA  SZ ES   1    555 25.25                             135     0.1 7  125  15 
 GRA  SZ I         555 26.46         8.2 0.14                           125  15 
 CHI  HZ EP   2    555 18.82                             115    -0.1 4  249 197 
 CHI  HE ES   2    555 47.94                             115    -0.1 4  249 197 
 CHI  HZ I         555 59.01         3.1 0.71                           249 197 
 HEL  HZ EP   2    555 22.53                             113     0.5 4  278 256 
 HEL  HZ I         555 59.73         3.2 0.44                           278 256 
 PRA  HZ EP   2    555 35.01                             105     0.0 3  394 210 
 PRA  HZ I         556 21.72         3.2 0.30                           394 210 
                                                                                
