 2016  2 5 0841 34.1 L   6.792 -73.139140.6  RSN 10 0.4 1.8LRSN                1
 GAP=138        0.86       2.3     3.5  5.0 -0.1305E+01  0.6919E+01 -0.5167E+00E
 Epicentro: LOS SANTOS - SANTANDER                                             3
 ACTION:UPD 16-03-04 21:23 OP:rebc STATUS:               ID:20160205084134 L   I
 OLDACT:REG 16-02-05 14:06 OP:cara STATUS:               ID:20160205083747     3
 2016-02-05-0837-47M.COL___328                                                 6
 STAT SP IPHASW D HRMM SECON CODA AMPLIT PERI AZIMU VELO AIN AR TRES W  DIS CAZ7
 BAR2 EZ IP        841 53.10                             170    0.0210 22.6 192 
 BAR2 EZ ES        842  7.61                             170   -0.2810 22.6 192 
 BAR2 EZ I         842  8.95        15.9 0.28            171           22.6 192 
 PAM  EZ EP        841 56.00                             150    0.2310 77.6  39 
 PAM  EN ES        842 13.18                             150    0.5110 77.6  39 
 PAM  EZ I         842 15.24         8.7 0.44            152           77.6  39 
 RUS  HZ EP        841 56.97                             143   -0.2910 99.7 176 
 RUS  HN ES        842 15.53                             143    0.1910 99.7 176 
 RUS  HZ I         842 16.33         8.8 0.34            146           99.7 176 
 PTB  HZ EP        842  0.30                             131   -0.39 9  148 259 
 PTB  HN ES        842 21.02                             131   -0.42 9  148 259 
 PTB  HZ I         842 23.34         4.7 0.28            131            148 259 
 OCA  HZ EP        842  1.84                             128   -0.25 9  161 353 
 OCA  HN ES        842 23.48                             128   -0.45 9  161 353 
 OCA  HZ I         842 28.54        11.9 0.52            129            161 353 
 ZAR  HZ EP        842  5.77                             121   -0.54 9  205 292 
 ZAR  HN ES        842 31.87                             121    0.43 9  205 292 
 ZAR  HZ I         842 37.08         6.3 0.32            121            205 292 
 NOR  HZ EP        842  9.56                             117    0.03 8  235 235 
 NOR  HN ES        842 37.42                             117    0.24 8  235 235 
 NOR  HZ I         842 43.87         5.6 0.14            118            235 235 
 SML  HZ EP        842 10.84                             116    0.29 8  245 335 
 SML  HE ES        842 39.26                             116    0.27 8  245 335 
 SML  HZ I         842 43.98         8.7 0.10            117            245 335 
 CHI  HZ EP        842 11.42                             116   -0.01 8  248 195 
 CHI  HN ES        842 40.31                             116   -0.25 8  248 195 
 CHI  HZ I         842 43.34         2.1 0.36            118            248 195 
 GUY2CHZ EP        842 18.15                             111    0.68 7  301 235 
 GUY2CHN ES        842 51.87                             111    0.56 7  301 235 
 GUY2CHZ I         843  0.36         2.4 0.34                           301 235 
                                                                                
