 2011 11 5 0429  1.6 L   6.802 -73.122134.2  RSN  5 0.3 1.4LRSN                1
 GAP=139        0.63       3.9     5.2  6.0  0.6220E+00 -0.5017E+01 -0.4620E+01E
 Epicentro: LOS SANTOS - SANTANDER                                             3
 ACTION:UPD 12-07-13 16:08 OP:ep   STATUS:               ID:20111105042901 L   I
 2011-11-05-0425-36S.COL___175                                                 6
 STAT SP IPHASW D HRMM SECON CODA AMPLIT PERI AZIMU VELO AIN AR TRES W  DIS CAZ7
 BAR2 SZ EP   2    429 19.21                             169   -0.62 5 24.2 196 
 BAR2 SZ ES   1    429 33.51                             169   -0.56 7 24.2 196 
 BAR2 SZ I         429 35.34         6.5 0.26                          24.2 196 
 BRR  HZ EP        429 21.54                             150   -0.0710 73.4 297 
 BRR  HZ I         429 22.02         9.2 0.07                          73.4 297 
 BRR  HE ES        429 37.51                             150    0.2710 73.4 297 
 PAM  SZ EP        429 22.58                             149    0.1310 75.6  38 
 PAM  SE ES   1    429 39.03                             149    0.29 7 75.6  38 
 RUS  HZ EP   2    429 24.57                             141    0.36 5  101 178 
 RUS  HE ES   2    429 42.12                             141    0.25 5  101 178 
 RUS  HZ I         429 43.94         1.7 0.30                           101 178 
 OCA  SZ EP   1    429 28.85                             127   -0.16 7  160 352 
 OCA  SZ ES   1    429 50.19                             127   -0.23 7  160 352 
 OCA  SZ I         429 54.55         6.0 0.50                           160 352 
                                                                                
