 2014  2 5 0612 20.8 L   6.601 -73.314126.8  RSN 18 0.5 2.4LRSN                1
 GAP= 58        0.94       2.7     2.9  5.6 -0.4870E-01  0.2847E+01  0.3724E+01E
 Epicentro: GALAN - SANTANDER                                                  3
 ACTION:UPD 14-03-10 08:07 OP:ep   STATUS:               ID:20140205061220 L   I
 OLDACT:UP  14-02-05 13:15 OP:mh   STATUS:               ID:20140205061000     3
 OLDACT:UP  14-02-05 13:11 OP:mh   STATUS:               ID:20140205061000     3
 OLDACT:UP  14-02-05 13:09 OP:mh   STATUS:               ID:20140205061000     3
 OLDACT:UP  14-02-05 13:07 OP:mh   STATUS:               ID:20140205061000     3
 OLDACT:REG 14-02-05 08:47 OP:mh   STATUS:               ID:20140205061000     3
 2014-02-05-0610-00M.COL___288                                                 6
 STAT SP IPHASW D HRMM SECON CODA AMPLIT PERI AZIMU VELO AIN AR TRES W  DIS CAZ7
 BAR2 SZ IP     C  612 38.07                             173    0.1210 14.6  94 
 BAR2 SZ ES   1    612 51.30                             173   -0.05 7 14.6  94 
 BAR2 SZ I         612 54.79        77.9 0.12            176           14.6  94 
 RUS  HZ EP        612 41.45                             145    0.1110 82.4 162 
 RUS  HN ES   1    612 57.39                             145    0.00 7 82.4 162 
 RUS  HZ I         612 59.58        64.8 0.22            139           82.4 162 
 PAM  SZ EP        612 43.51                             138    0.3610  106  40 
 PAM  SN ES        613  0.88                             138    0.2710  106  40 
 PAM  SZ I         613  3.87        35.5 0.28            129            106  40 
 PTB  HZ EP   4    612 42.92                             132   -1.33 0  126 267 
 PTB  HE ES        613  2.45                             132   -0.1210  126 267 
 PTB  HZ I         613  3.64        29.0 0.11            120            126 267 
 SPBC HZ EP     C  612 45.09                             130    0.0210  134 219 
 SPBC HZ I         613 10.22        60.2 0.17            120            134 219 
 TAM  HZ IP     D  612 49.05                             123    0.60 9  169  96 
 OCA  HZ EP   1    612 49.30                             121   -0.51 7  181 360 
 OCA  HN ES   1    613 11.61                             121   -0.85 7  181 360 
 OCA  HZ I         613 15.74        72.8 0.49            112            181 360 
 ZAR  HZ EP   1    612 51.21                             119   -0.08 6  197 300 
 ZAR  HN ES        613 15.01                             119   -0.09 9  197 300 
 ZAR  HZ I         613 18.89        64.4 0.37            110            197 300 
 NOR  HZ EP        612 52.02                             117   -0.39 8  207 236 
 NOR  HN ES   1    613 17.01                             117   -0.07 6  207 236 
 NOR  HZ I         613 22.56        20.2 0.33            109            207 236 
 CHI  HZ EP        612 54.89                             116    0.28 8  223 192 
 CHI  HN ES   1    613 21.12                             116    0.11 6  223 192 
 CHI  HZ I         613 30.17        13.8 0.41            109            223 192 
 ROSC BZ EP   4    612 56.54                             115    1.79 0  224 210 
 ROSC BN ES   4    613 23.71                             115    2.45 0  224 210 
 HEL  HZ EP   1    612 58.35                             113    0.87 6  249 260 
 HEL  HZ I         613 33.81        10.0 0.15            106            249 260 
 SML  HZ EP   1    612 57.24                             112   -0.69 6  257 341 
 SML  HZ I         613 33.63        61.4 0.05            105            257 341 
 GUY2CHZ EP   1    613  1.03                             111    0.67 6  273 236 
 GUY2CHZ I         613 39.92        12.2 0.31                           273 236 
 URE  HZ EP   4    612 58.59                             110   -1.51 0  276 298 
 URE  HN ES   4    613 27.48                             110   -3.29 0  276 298 
 VIL  SZ EP   2    613  0.07                             110   -0.44 4  278 189 
 VIL  SN ES   2    613 31.17                             110   -0.33 4  278 189 
 PTGC HZ EP     C  613  1.73                             109   -0.65 7  296 154 
 PTGC HN ES        613 33.69                             109   -1.15 7  296 154 
 PTGC HZ I         613 34.53        15.3 0.40            104            296 154 
 CBOC HZ EP        613  4.46                             108    0.32 7  309 255 
 CBOC HN ES   2    613 36.90                             108   -1.08 4  309 255 
 CBOC HZ I         613 42.38         3.6 0.17            102            309 255 
 PRA  HZ EP   4    613  8.93                             104   -1.41 0  364 209 
 PRA  HN ES   4    613 50.32                             104    1.32 0  364 209 
 PRA  HZ I         613 56.86        16.0 0.30            101            364 209 
 ORTC HZ EP   1    613 11.31                             104    0.62 5  367 216 
 ORTC HN ES   2    613 51.48                             104    1.86 3  367 216 
                                                                                
