 2014  7 5 0946 18.7 L   6.395 -73.086  4.0  RSN  7 0.5 1.9LRSN                1
 GAP=206        1.09       3.5     5.7  7.8  0.1103E+02  0.2625E+02  0.1165E+02E
 Epicentro: OCAMONTE - SANTANDER                                               3
 ACTION:UPD 15-03-16 20:41 OP:nd   STATUS:               ID:20140705094618 L   I
 OLDACT:UP  14-07-09 08:59 OP:SPQ  STATUS:               ID:20140705094618 L   3
 OLDACT:UP  14-07-05 18:11 OP:cam  STATUS:               ID:20140705094000     3
 OLDACT:REG 14-07-05 14:40 OP:cam  STATUS:               ID:20140705094000     3
 2014-07-05-0940-00M.COL___279                                                 6
 STAT SP IPHASW D HRMM SECON CODA AMPLIT PERI AZIMU VELO AIN AR TRES W  DIS CAZ7
 BAR2 SZ EP        946 22.47                              47   -0.7710 24.3 334 
 BAR2 SZ I         946 25.78       132.0 0.54             47           24.3 334 
 RUS  HZ EP        946 28.61                              47    0.3810 55.5 180 
 RUS  HN ES        946 35.26                              47   -0.3910 55.5 180 
 RUS  HZ I         946 36.10        37.0 0.14             47           55.5 180 
 SPBC HZ EP        946 40.44                              47    0.34 9  137 233 
 SPBC HN ES        946 56.51                              47   -0.27 9  137 233 
 SPBC HZ I         946 58.12        11.4 0.22             47            137 233 
 PTB  HZ IP     D  946 42.93                              47    0.51 9  152 276 
 PTB  HN ES        947  0.75                              47   -0.16 9  152 276 
 PTB  HZ I         947  2.60        36.7 0.18             47            152 276 
 ZAR  HZ EP   1    946 53.67                              37    0.89 6  230 302 
 ZAR  HE ES        947 19.59                              37    0.24 8  230 302 
 ZAR  HZ I         947 22.67        15.4 0.26             37            230 302 
 HEL  HZ EP   1    946 58.71                              37    0.39 6  271 265 
 HEL  HN ES   1    947 28.61                              37   -0.61 6  271 265 
 HEL  HZ I         947 31.29         6.8 0.32             37            271 265 
 GUY2CHZ EP   4    947  2.46                              37    2.46 0  284 243 
 GUY2CHN ES   4    947 33.84                              37    1.64 0  284 243 
 GUY2CHZ I         947 38.64         3.3 0.34                           284 243 
                                                                                
