 2016 11 5 0629 56.6 L   7.521 -73.083155.9  RSN  5 0.2 1.6LRSN                1
 GAP=206        0.54       5.7     3.1  5.8  0.3375E+01 -0.1789E+01 -0.1729E+02E
 Epicentro: EL PLAYON - SANTANDER                                              3
 ACTION:UPD 17-10-26 21:04 OP:lp   STATUS:               ID:20161105062956 L   I
 OLDACT:REG 16-11-05 14:09 OP:dani STATUS:               ID:20161105062744     3
 2016-11-05-0628-00M.COL___352                                                 6
 STAT SP IPHASW D HRMM SECON CODA AMPLIT PERI AZIMU VELO AIN AR TRES W  DIS CAZ7
 PAM  EZ EP        630 18.61                             163    0.0910 46.9 115 
 PAM  EZ I         630 35.91         8.8 0.22            158           46.9 115 
 BRR  HZ EP        630 19.56                             150   -0.0110 83.1 237 
 BRR  HN ES        630 37.50                             150    0.0410 83.1 237 
 BRR  HZ I         630 41.69         5.5 0.58            163           83.1 237 
 BAR2 EZ EP        630 21.10                             145   -0.1310  103 186 
 BAR2 EZ ES        630 40.35                             145   -0.0510  103 186 
 BAR2 EZ I         630 43.36         7.3 0.12            156            103 186 
 PTB  HZ EP        630 27.78                             127   -0.26 9  187 235 
 PTB  HE ES        630 52.83                             127    0.29 9  187 235 
 PTB  HZ I         630 56.76         2.8 0.14            137            187 235 
 ZAR  HZ EP        630 29.30                             126    0.35 9  196 269 
 ZAR  HN ES        630 53.85                             126   -0.31 9  196 269 
 ZAR  HZ I         630 57.24         2.6 0.21            132            196 269 
                                                                                
