 2011  9 5 0556 18.9 L   6.780 -73.071139.4  RSN  6 0.3 1.6LRSN                1
 GAP=190        0.45       3.9     5.8  5.7  0.9823E+01 -0.7594E+01 -0.8087E+01E
 Epicentro: LOS SANTOS - SANTANDER                                             3
 ACTION:UPD 12-07-13 15:55 OP:ep   STATUS:               ID:20110905055618 L   I
 2011-09-05-0553-28S.COL___171                                                 6
 STAT SP IPHASW D HRMM SECON CODA AMPLIT PERI AZIMU VELO AIN AR TRES W  DIS CAZ7
 BAR2 SZ EP   1    556 37.78                             170    0.04 7 24.1 211 
 BAR2 SZ ES   2    556 52.47                             170    0.00 5 24.1 211 
 BAR2 SZ I         556 53.59        13.8 0.30                          24.1 211 
 GIR2 SZ EP   2    556 38.04                             165    0.13 5 35.7 338 
 BRR  HZ IP     C  556 39.83                             149    0.0010 79.5 297 
 BRR  HZ I         556 40.20        15.3 0.16                          79.5 297 
 BRR  HE ES   1    556 56.45                             149    0.26 7 79.5 297 
 RUS  HZ EP   2    556 42.27                             143    0.46 5 98.2 181 
 RUS  HN ES   2    556 59.12                             143   -0.59 5 98.2 181 
 RUS  HZ I         557  1.36         3.1 0.30                          98.2 181 
 OCA  SZ EP   1    556 47.05                             127    0.04 7  164 350 
 OCA  SZ ES   2    557  8.52                             127   -0.44 5  164 350 
 OCA  SZ I         557 12.41         4.4 0.23                           164 350 
 ZAR  HZ EP   2    556 51.57                             120   -0.22 4  213 292 
 ZAR  HN ES   2    557 17.19                             120   -0.29 4  213 292 
 ZAR  HZ I         557 18.85         3.4 0.15                           213 292 
                                                                                
