 2011  6 5 0903 27.7 L   6.733 -73.107141.7  RSN  6 0.3 1.9LRSN                1
 GAP=174        0.63       4.6     5.7  6.0 -0.1123E+02  0.1916E+01 -0.3496E+01E
 Epicentro: JORDAN - SANTANDER                                                 3
 ACTION:UP  11-07-14 19:03 OP:ep   STATUS:               ID:20110605090327 L   I
 2011-06-05-0902-30S.COL___132                                                 6
 STAT SP IPHASW D HRMM SECON CODA AMPLIT PERI AZIMU VELO SNR AR TRES W  DIS CAZ7
 BAR2 SZ EP   1    9 3 46.96                             173     0.3 7   18 208 
 BAR2 SZ ES   1    9 4  1.24                             173    -0.3 7   18 208 
 BAR2 SZ I         9 4  3.31        21.2 0.16                            18 208 
 BRR  HZ EP   1    9 3 48.85                             149     0.0 7   79 302 
 BRR  HZ I         9 3 49.29        25.9 0.11                            79 302 
 BRR  HN ES   1    9 4  5.37                             149     0.0 7   79 302 
 PAM  SZ EP   1    9 3 49.94                             149     0.3 7   81  34 
 PAM  SN ES   1    9 4  7.05                             149     0.2 7   81  34 
 GRA  SZ EP   1    9 3 52.90                             135    -0.2 7  132  15 
 GRA  SZ I         9 3 54.30         7.1 0.26                           132  15 
 GRA  SZ ES   1    9 4 12.51                             135    -0.4 7  132  15 
 OCA  SZ EP   1    9 3 55.98                             127    -0.4 7  168 352 
 OCA  SZ ES   1    9 4 19.22                             127     0.4 7  168 352 
 OCA  SZ I         9 4 21.81         7.0 0.13                           168 352 
 NOR  SN ES   2    9 4 30.74                             118     0.0 4  234 237 
                                                                                
