 2017 11 5 0256 41.4 L   6.775 -73.147143.7  RSN  9 0.4 1.7LRSN                1
 GAP=112        1.10       4.0     3.8  6.8  0.1643E+01  0.3730E+01  0.5005E+01E
 Epicentro: LOS SANTOS - SANTANDER                                             3
 ACTION:UPD 17-12-12 19:52 OP:rebc STATUS:               ID:20171105025641 L   I
 OLDACT:UP  17-11-05 16:58 OP:dnl  STATUS:               ID:20171105024736     3
 OLDACT:REG 17-11-05 15:06 OP:dnl  STATUS:               ID:20171105024736     3
 2017-11-05-0248-00M.COL___435                                                 6
 STAT SP IPHASW D HRMM SECON CODA AMPLIT PERI AZIMU VELO AIN AR TRES W  DIS CAZ7
 BAR2 EZ EP        257  0.55                             171   -0.1510 20.6 191 
 BAR2 EZ ES        257 15.53                             171   -0.2410 20.6 191 
 BAR2 EZ I         257 16.52        20.4 0.22            171           20.6 191 
 BRR  HZ IP     C  257  2.47                             152    0.1110 72.4 301 
 BRR  HE ES        257 19.62                             152    0.8810 72.4 301 
 BRR  HZ I         257 21.03        12.3 0.14            153           72.4 301 
 PAM  EZ IP     C  257  3.56                             150    0.0610 79.7  38 
 PAM  EE ES        257 20.21                             150   -0.5510 79.7  38 
 PAM  EZ I         257 22.85        10.9 0.50            152           79.7  38 
 RUS  HZ EP        257  4.70                             144   -0.0210 97.8 176 
 RUS  HN ES        257 23.15                             144    0.2210 97.8 176 
 RUS  HZ I         257 24.00         5.5 0.38            145           97.8 176 
 PTB  HZ EP        257  7.41                             132   -0.70 9  147 260 
 PTB  HN ES        257 28.18                             132   -0.78 9  147 260 
 PTB  HZ I         257 30.01         4.6 0.32            133            147 260 
 SPBC HZ EP        257  9.35                             129   -0.14 9  161 220 
 SPBC HE ES        257 31.45                             129    0.02 9  161 220 
 SPBC HZ I         257 35.05         9.8 0.20            130            161 220 
 YPLC HZ EP        257 10.93                             127    0.15 9  174 151 
 YPLC HN ES        257 34.23                             127    0.51 9  174 151 
 YPLC HZ I         257 35.58         3.9 0.26            128            174 151 
 ZAR  HZ EP   2    257 14.82                             122    1.05 4  205 293 
 ZAR  HE ES        257 39.46                             122    0.41 9  205 293 
 ZAR  HZ I         257 40.69         5.8 0.32            123            205 293 
 NOR  HE ES        257 44.50                             118    0.08 8  233 235 
 NOR  HZ I         257 46.26         3.7 0.28            119            233 235 
                                                                                
