 2011  2 5 0029 31.8 L   6.814 -73.231139.3  RSN  7 0.3 1.7LRSN                1
 GAP=146        0.73       3.3     9.4  7.5 -0.1220E+02  0.2745E+02 -0.3875E+01E
 Epicentro: ZAPATOCA - SANTANDER                                               3
 ACTION:UP  11-03-28 15:05 OP:jfem STATUS:               ID:20110205002931 L   I
 2011-02-05-0025-40S.COL___137                                                 6
 STAT SP IPHASW D HRMM SECON CODA AMPLIT PERI AZIMU VELO SNR AR TRES W  DIS CAZ7
 BTL  SZ EP        029 50.67                             175     0.210   12 341 
 BAR2 SZ EP        029 50.31                             169    -0.410   25 168 
 BAR2 SZ ES   1    030  5.29                             169    -0.2 7   25 168 
 BAR2 SZ I         030  6.64        11.0 0.25                            25 168 
 RUS  HZ EP   1    029 54.88                             142    -0.3 7  103 171 
 RUS  HN ES   1    030 13.62                             142     0.3 7  103 171 
 RUS  HZ I         030 14.51         5.9 0.20                           103 171 
 GRA  SZ EP   1    029 57.19                             135     0.5 7  127  22 
 GRA  SZ ES   1    030 16.29                             135     0.3 7  127  22 
 GRA  SZ I         030 17.97         9.6 0.21                           127  22 
 OCA  SZ EP   1    029 59.01                             128    -0.4 7  158 356 
 OCA  SZ ES   1    030 20.85                             128    -0.1 7  158 356 
 OCA  SZ I         030 26.94         9.9 0.49                           158 356 
 NOR  SZ EP   2    030  7.03                             118     0.5 4  228 233 
 NOR  SN ES   2    030 33.77                             118     0.3 4  228 233 
 CHI  HZ EP   1    030  9.07                             116     0.0 6  248 193 
 CHI  HN ES   2    030 38.51                             116     0.4 4  248 193 
 CHI  HZ I         030 43.48         2.8 0.31                           248 193 
                                                                                
