 2010  7 5 0533 14.8 L   6.772 -73.116143.4  RSN  6 0.4 1.4LRSN                1
 GAP=159        0.77       6.6    13.6 12.8  0.1502E+02 -0.8699E+02 -0.3907E+02E
 Epicentro: LOS SANTOS - SANTANDER                                             3
 ACTION:UPD 10-12-01 15:15 OP:pat  STATUS:               ID:20100705053314 L   I
 2010-07-05-0529-34S.COL___118                                                 6
 STAT SP IPHASW D HRMM SECON CODA AMPLIT PERI AZIMU VELO AIN AR TRES W  DIS CAZ7
 BAR2 SZ EP   1    533 33.85                             171    -0.2 7   21 201 
 BAR2 SZ ES   2    533 48.61                             171    -0.5 5   21 201 
 BRR  HZ EP   1    533 35.73                             151    -0.2 7   76 299 
 BRR  HE ES   2    533 52.76                             151     0.4 5   76 299 
 BRR  HZ I         533 54.05         8.2 0.16                            76 299 
 RUS  HZ EP   1    533 38.07                             144     0.0 7   97 178 
 RUS  HN ES   2    533 56.52                             144     0.3 5   97 178 
 RUS  HZ I         533 57.89         2.5 0.32                            97 178 
 BRI  SZ EP   1    533 39.34                             140     0.8 7  110  19 
 GUE  SZ EP   1    533 39.26                             138    -0.2 7  119  10 
 GRA  SZ EP   1    533 39.62                             136    -0.3 7  128  16 
                                                                                
