 2017  8 5 0911 44.8 L   6.786 -73.182142.3  RSN  4 0.4 1.0LRSN                1
 GAP=241        0.73       6.7     5.9  9.9  0.2654E+02 -0.1787E+02 -0.3448E+02E
 Epicentro: LOS SANTOS - SANTANDER                                             3
 ACTION:UPD 17-09-04 20:16 OP:rebc STATUS:               ID:20170805091144 L   I
 OLDACT:UP  17-08-05 18:11 OP:dani STATUS:               ID:20170805090739d    3
 OLDACT:UP  17-08-05 18:11 OP:dani STATUS:               ID:20170805090739d    3
 OLDACT:DUP 17-08-05 18:07 OP:dani STATUS:               ID:20170805090739d    3
 OLDACT:UP  17-08-05 18:06 OP:dani STATUS:               ID:20170805090738     3
 OLDACT:REG 17-08-05 13:37 OP:osc  STATUS:               ID:20170805090738     3
 2017-08-05-0908-00M.COL___384                                                 6
 STAT SP IPHASW D HRMM SECON CODA AMPLIT PERI AZIMU VELO AIN AR TRES W  DIS CAZ7
 RUS  HZ EP        912  7.82                             143   -0.3110 99.4 174 
 RUS  HN ES        912 26.49                             143    0.1710 99.4 174 
 RUS  HZ I         912 27.24         1.2 0.16            144           99.4 174 
 PTB  HZ EP   2    912 10.42                             132   -0.68 5  144 259 
 PTB  HN ES        912 31.41                             132   -0.20 9  144 259 
 PTB  HZ I         912 38.43         0.7 0.10            131            144 259 
 SPBC HZ EP        912 12.71                             129    0.03 9  159 218 
 SPBC HN ES        912 34.58                             129    0.15 9  159 218 
 SPBC HZ I         912 37.45         2.3 0.09            129            159 218 
 ZAR  HZ EP   1    912 17.52                             122    0.83 6  201 293 
 ZAR  HN ES        912 41.52                             122   -0.05 9  201 293 
 ZAR  HZ I         912 42.95         1.5 0.24            123            201 293 
                                                                                
