 2017  9 5 0641  9.8 L   6.782 -73.139144.0  RSN  9 0.4 1.7LRSN                1
 GAP=138        0.81       2.9     4.0  5.1 -0.7633E+00  0.5168E+01  0.4017E+01E
 Epicentro: LOS SANTOS - SANTANDER                                             3
 ACTION:UPD 17-10-05 19:09 OP:rebc STATUS:               ID:20170905064109 L   I
 OLDACT:REG 17-09-05 13:26 OP:dnl  STATUS:               ID:20170905063744     3
 2017-09-05-0638-00M.COL___423                                                 6
 STAT SP IPHASW D HRMM SECON CODA AMPLIT PERI AZIMU VELO AIN AR TRES W  DIS CAZ7
 BAR2 EZ EP        641 28.99                             171   -0.1610 21.5 193 
 BAR2 EZ ES        641 44.21                             171   -0.0610 21.5 193 
 BAR2 EZ I         641 46.75        14.2 0.28            169           21.5 193 
 BRR  HZ EP        641 30.79                             152   -0.0310 72.9 300 
 BRR  HN ES        641 47.85                             152    0.6110 72.9 300 
 BRR  HZ I         641 49.11         8.1 0.18            151           72.9 300 
 PAM  EZ EP        641 31.79                             150   -0.0710 78.5  38 
 PAM  EN ES        641 49.05                             150   -0.0410 78.5  38 
 PAM  EZ I         641 52.20         3.9 0.44            154           78.5  38 
 RUS  HZ EP        641 33.11                             144   -0.0910 98.5 176 
 RUS  HN ES        641 51.69                             144    0.2210 98.5 176 
 RUS  HZ I         641 52.98         4.3 0.30            144           98.5 176 
 SPBC HZ EP        641 37.87                             129   -0.16 9  162 220 
 SPBC HE ES        642  0.22                             129    0.15 9  162 220 
 SPBC HZ I         642  4.75         7.3 0.20            129            162 220 
 ZAR  HZ EP   2    641 43.26                             122    1.01 4  206 293 
 ZAR  HN ES        642  6.87                             122   -0.72 8  206 293 
 ZAR  HZ I         642 12.30         5.9 0.42            123            206 293 
 CHI  HZ EP   2    641 47.29                             117    0.11 4  247 195 
 CHI  HE ES        642 15.78                             117   -0.58 8  247 195 
 CHI  HZ I         642 22.58         2.4 0.38            118            247 195 
 GUY2CHZ EP   2    641 54.25                             112    1.02 4  301 235 
 GUY2CHE ES   4    642 30.22                             112    3.08 0  301 235 
 GUY2CHZ I         642 35.11         2.2 0.34                           301 235 
 PRA  HZ EP        642  3.23                             106    0.16 6  391 210 
 PRA  HN ES        642 44.98                             106    0.34 6  391 210 
 PRA  HZ I         642 51.15         2.8 0.38            107            391 210 
                                                                                
