 2017 11 5 0156 32.2 L   6.772 -73.109142.5  RSN  7 0.2 1.5LRSN                1
 GAP=116        0.65       3.0     3.5  5.3  0.3822E+01  0.1572E+01  0.1802E+01E
 Epicentro: LOS SANTOS - SANTANDER                                             3
 ACTION:UPD 17-12-12 19:52 OP:rebc STATUS:               ID:20171105015632 L   I
 OLDACT:UP  17-11-05 16:41 OP:dnl  STATUS:               ID:20171105014746     3
 OLDACT:REG 17-11-05 14:47 OP:dnl  STATUS:               ID:20171105014746     3
 2017-11-05-0148-00M.COL___435                                                 6
 STAT SP IPHASW D HRMM SECON CODA AMPLIT PERI AZIMU VELO AIN AR TRES W  DIS CAZ7
 BAR2 EZ EP        156 51.28                             171   -0.1010 21.4 202 
 BAR2 EZ ES        157  6.17                             171   -0.1910 21.4 202 
 BAR2 EZ I         157  7.06         6.1 0.16            170           21.4 202 
 BRR  HZ EP   4    156 54.39                             150    1.11 0 76.3 299 
 BRR  HE ES        157 10.11                             150    0.3810 76.3 299 
 BRR  HZ I         157 14.27         5.9 0.38            149           76.3 299 
 PAM  EZ EP        156 54.25                             150    0.2010 77.4  36 
 PAM  EN ES        157 10.91                             150   -0.2010 77.4  36 
 PAM  EZ I         157 13.38         9.5 0.72            151           77.4  36 
 RUS  HZ EP        156 55.67                             144    0.3010 97.3 178 
 RUS  HE ES        157 13.60                             144    0.1410 97.3 178 
 RUS  HZ I         157 14.94         4.1 0.24            145           97.3 178 
 PTB  HZ EP   2    156 59.05                             130   -0.15 5  151 260 
 PTB  HN ES   4    157 17.98                             130   -2.30 0  151 260 
 PTB  HZ I         157 21.65         2.1 0.38            130            151 260 
 YPLC HN ES        157 23.70                             127   -0.28 9  172 152 
 YPLC HZ I         157 27.88         4.6 0.52            128            172 152 
 ZAR  HZ EP   4    157  6.00                             121    1.07 0  209 293 
 ZAR  HN ES        157 30.10                             121   -0.38 8  209 293 
 ZAR  HZ I         157 35.53         3.8 0.38            121            209 293 
                                                                                
