 2013  5 5 0400 36.7 L   6.820 -73.165141.4  RSN  8 0.5 2.6LRSN                1
 GAP=133        1.41       5.1     6.5  7.9 -0.9233E+01  0.1150E+02  0.1390E+01E
 Epicentro: LOS SANTOS - SANTANDER                                             3
 ACTION:UPD 13-06-20 09:47 OP:ep   STATUS:               ID:20130505040036 L   I
 2013-05-05-0358-38M.COL___220                                                 6
 STAT SP IPHASW D HRMM SECON CODA AMPLIT PERI AZIMU VELO AIN AR TRES W  DIS CAZ7
 BAR2 SZ EP        4 0 56.08                             169    0.2110 25.3 184 
 BAR2 SZ ES        4 1 10.10                             169   -0.7010 25.3 184 
 BAR2 SZ I         4 1 11.87        50.8 0.30            168           25.3 184 
 GIR2 SZ EP        4 0 56.04                             168    0.2310 28.8 354 
 GIR2 SZ ES        4 1 10.34                             168   -0.3610 28.8 354 
 BRR  HZ IP     C  4 0 57.83                             153    0.5910 68.3 298 
 BRR  HZ I         4 0 58.11        64.1 0.26            149           68.3 298 
 BRR  HN ES        4 1 14.60                             153    1.3610 68.3 298 
 PAM  SZ EP        4 0 58.79                             150    0.3310 77.1  42 
 PAM  SZ I         4 0 59.20        67.0 0.18            153           77.1  42 
 PAM  SN ES        4 1 15.59                             150    0.1810 77.1  42 
 RUS  HZ EP        4 1  0.24                             142    0.0110  103 175 
 RUS  HN ES        4 1 18.49                             142   -0.0610  103 175 
 RUS  HN I         4 1 19.84        43.4 0.20            142            103 175 
 PTB  HZ EP        4 1  2.79                             131   -0.40 9  146 258 
 PTB  HN ES        4 1 23.15                             131   -0.69 9  146 258 
 PTB  HN I         4 1 28.90        39.9 0.64            129            146 258 
 OCA  HZ EP        4 1  4.14                             129   -0.33 9  158 354 
 OCA  HN ES        4 1 25.31                             129   -0.79 9  158 354 
 OCA  HN I         4 1 28.76       156.0 0.20            129            158 354 
 NOR  HZ EP        4 1 12.01                             118   -0.15 8  234 234 
 NOR  HN ES        4 1 40.11                             118    0.31 8  234 234 
 NOR  HN I         4 1 47.98        29.6 0.18            117            234 234 
                                                                                
