 2014  1 5 0628  8.4 L   6.874 -73.161138.5  RSN  5 0.4 1.3LRSN                1
 GAP=280        0.73       6.3     5.3  7.8  0.1345E+02 -0.5163E+01 -0.1288E+02E
 Epicentro: ZAPATOCA - SANTANDER                                               3
 ACTION:UPD 14-03-13 09:51 OP:ep   STATUS:               ID:20140105062808 L   I
 OLDACT:DUP 14-01-06 00:53 OP:nd   STATUS:               ID:20140105061816d    3
 2014-01-05-0618-13M.COL___237                                                 6
 STAT SP IPHASW D HRMM SECON CODA AMPLIT PERI AZIMU VELO AIN AR TRES W  DIS CAZ7
 RUS  HZ EP        628 32.55                             140    0.4510  109 175 
 RUS  HN ES        628 50.52                             140   -0.0510  109 175 
 RUS  HZ I         628 53.65         2.5 0.38            138            109 175 
 PTB  HZ EP        628 34.47                             130   -0.36 9  148 256 
 PTB  HN ES        628 55.44                             130    0.02 9  148 256 
 PTB  HZ I         628 58.48         3.1 0.12            130            148 256 
 SPBC HZ EP        628 37.09                             127    0.18 9  169 217 
 SPBC HN ES        628 58.91                             127   -0.21 9  169 217 
 SPBC HZ I         629  4.19         4.6 0.22            126            169 217 
 CHI  HZ EP        628 46.43                             115   -0.13 8  256 194 
 CHI  HN ES        629 15.99                             115   -0.31 8  256 194 
 CHI  HZ I         629 21.11         0.9 0.26            115            256 194 
 GUY2CHZ EP   2    628 52.24                             111    0.14 4  305 233 
 GUY2CHN ES   2    629 27.57                             111    1.40 4  305 233 
 GUY2CHZ I         629 34.29         1.2 0.26                           305 233 
                                                                                
