 2017  4 5 0404 44.1 L   6.792 -73.123142.4  RSN 14 0.6 1.9LRSN                1
 GAP=121        1.22       4.2     4.2  6.2  0.1131E+00  0.5111E+01  0.6920E+01E
 Epicentro: LOS SANTOS - SANTANDER                                             3
 ACTION:UPD 17-05-30 21:08 OP:jn   STATUS:               ID:20170405040444 L   I
 OLDACT:UP  17-04-05 14:50 OP:and  STATUS:               ID:20170405035742     3
 OLDACT:UP  17-04-05 14:50 OP:and  STATUS:               ID:20170405035742     3
 OLDACT:UP  17-04-05 14:49 OP:and  STATUS:               ID:20170405035742     3
 OLDACT:UP  17-04-05 14:49 OP:and  STATUS:               ID:20170405035742     3
 OLDACT:UP  17-04-05 14:47 OP:and  STATUS:               ID:20170405035742     3
 OLDACT:UP  17-04-05 14:47 OP:and  STATUS:               ID:20170405035742     3
 OLDACT:REG 17-04-05 12:43 OP:and  STATUS:               ID:20170405035742     3
 2017-04-05-0358-00M.COL___365                                                 6
 STAT SP IPHASW D HRMM SECON CODA AMPLIT PERI AZIMU VELO AIN AR TRES W  DIS CAZ7
 BAR2 EZ IP     D  4 5  3.35                             170    0.0610 23.0 197 
 BAR2 EZ ES        4 5 18.03                             170   -0.2410 23.0 197 
 BAR2 EZ I         4 5 23.73        12.0 0.26            166           23.0 197 
 BRR  HZ IP     D  4 5  5.05                             151    0.0410 73.9 298 
 BRR  HN ES        4 5 22.39                             151    1.0510 73.9 298 
 BRR  HZ I         4 5 24.08        13.8 0.12            149           73.9 298 
 PAM  EZ EP        4 5  6.04                             151    0.1610 76.5  38 
 PAM  EN ES        4 5 22.83                             151   -0.0510 76.5  38 
 PAM  EZ I         4 5 25.10        17.9 0.50            156           76.5  38 
 RUS  HZ EP        4 5  7.41                             143   -0.0010 99.5 177 
 RUS  HN ES        4 5 25.79                             143    0.1710 99.5 177 
 RUS  HZ I         4 5 27.59        13.8 0.32            144           99.5 177 
 PTB  HZ EP        4 5  9.99                             131   -0.99 9  150 259 
 PTB  HN ES        4 5 30.73                             131   -1.24 9  150 259 
 PTB  HZ I         4 5 34.02        10.1 0.10            130            150 259 
 SPBC HZ EP        4 5 12.45                             128    0.05 9  164 220 
 SPBC HN ES        4 5 34.56                             128    0.07 9  164 220 
 SPBC HZ I         4 5 40.89        15.9 0.30            128            164 220 
 ZAR  HZ EP        4 5 16.13                             121   -0.45 8  207 292 
 ZAR  HN ES        4 5 41.58                             121   -0.36 8  207 292 
 ZAR  HZ I         4 5 47.06        15.8 0.58            122            207 292 
 NOR  HZ EP        4 5 20.27                             118    0.50 8  236 235 
 NOR  HN ES        4 5 47.69                             118    0.07 8  236 235 
 NOR  HZ I         4 5 53.09         4.5 0.23            118            236 235 
 CHI  HZ EP        4 5 22.24                             116    0.68 8  248 196 
 CHI  HN ES        4 5 51.05                             116    0.25 8  248 196 
 CHI  HZ I         4 5 58.92         2.8 0.38            118            248 196 
 HEL  HZ EP   3    4 5 25.68                             114    1.31 2  274 256 
 HEL  HN ES        4 5 56.24                             114    0.45 8  274 256 
 HEL  HZ I         4 6  3.11         4.6 0.38            114            274 256 
 URE  HZ EP   9    4 5 23.90                             113   -1.38 0  287 292 
 URE  HN ES        4 5 55.89                             113   -0.15 7  287 292 
 URE  HZ I         4 6  8.36         6.9 0.30            114            287 292 
 PTGC HZ EP        4 5 26.59                             111   -0.99 7  307 159 
 PTGC HN ES   3    4 6  0.16                             111   -1.35 2  307 159 
 CBOC HZ EP        4 5 31.53                             109    0.43 7  336 252 
 CBOC HN ES   3    4 6  9.98                             109    2.21 2  336 252 
 CBOC HZ I         4 6 17.79         1.4 0.54            110            336 252 
 PRA  HZ EP        4 5 38.14                             106    0.61 6  392 210 
 PRA  HN ES   3    4 6 21.52                             106    2.29 1  392 210 
 PRA  HZ I         4 6 24.49         2.8 0.26            107            392 210 
 SJC  HZ EP   4    4 5 37.49                             105   -2.29 0  411 327 
 SJC  HN ES   4    4 6 18.62                             105   -4.61 0  411 327 
                                                                                
