 2013  7 5 0342 28.4 L   6.935 -72.790136.9  RSN  5 0.6 1.3LRSN                1
 GAP=169        1.45       7.2    10.4 14.1 -0.2422E+02 -0.1713E+02  0.7374E+01E
 Epicentro: GUACA - SANTANDER                                                  3
 ACTION:UPD 13-08-12 10:35 OP:ep   STATUS:               ID:20130705034228 L   I
 OLDACT:DUP 13-07-05 12:04 OP:stll STATUS:               ID:20130705033839d    3
 2013-07-05-0338-38M.COL___236                                                 6
 STAT SP IPHASW D HRMM SECON CODA AMPLIT PERI AZIMU VELO AIN AR TRES W  DIS CAZ7
 GIR2 SZ EP        342 48.53                             160    0.9010 47.3 290 
 BAR2 SZ EP        342 48.78                             156    0.5310 57.6 229 
 BAR2 SZ ES        343  4.34                             156    0.6510 57.6 229 
 BAR2 SZ I         343  5.43         2.7 0.28            157           57.6 229 
 BRR  HZ EP        342 50.57                             141   -0.3010  104 281 
 BRR  HN ES        343  7.85                             141   -0.5210  104 281 
 BRR  HN I         343  8.49         6.6 0.20            142            104 281 
 CAPV BZ ES        343 10.24                             138   -0.3810  115  27 
 RUS  HZ EP        342 52.49                             137   -0.3710  120 196 
 RUS  HE ES        343 11.33                             137   -0.5810  120 196 
                                                                                
