 2012  7 5 0651 19.9 L   6.770 -73.146143.5  RSN  8 0.4 1.7LRSN                1
 GAP=138        0.95       5.2     5.9  8.8  0.3915E+01  0.6389E+01 -0.6858E+01E
 Epicentro: LOS SANTOS - SANTANDER                                             3
 ACTION:UPD 12-08-14 11:42 OP:ep   STATUS:               ID:20120705065119 L   I
 2012-07-05-0650-00M.COL___201                                                 6
 STAT SP IPHASW D HRMM SECON CODA AMPLIT PERI AZIMU VELO AIN AR TRES W  DIS CAZ7
 BAR2 SZ EP   1    651 39.40                             172     0.2 7   20 192 
 BAR2 SZ ES   1    651 54.16                             172    -0.1 7   20 192 
 BAR2 SZ I         651 55.70        22.7 0.15            170             20 192 
 BRR  HZ EP        651 41.27                             152     0.310   73 301 
 BRR  HZ I         651 41.69        16.1 0.11            152             73 301 
 BRR  HN ES   1    651 58.08                             152     0.8 7   73 301 
 PAM  SZ EP   1    651 42.33                             149     0.3 7   80  38 
 PAM  SZ I         651 42.57         7.5 0.25            152             80  38 
 RUS  HZ EP   1    651 43.26                             144     0.0 7   97 176 
 RUS  HN ES   1    652  1.09                             144    -0.3 7   97 176 
 RUS  HZ I         652  2.79         6.9 0.24            145             97 176 
 PTB  HZ EP   1    651 46.26                             132    -0.4 7  147 260 
 PTB  HN ES   1    652  6.87                             132    -0.6 7  147 260 
 PTB  HZ I         652 11.11         4.1 0.15            132            147 260 
 OCA  HN ES   1    652  9.89                             128    -0.7 7  164 353 
 ZAR  HZ EP   1    651 52.22                             122    -0.1 6  205 293 
 ZAR  HN ES   1    652 17.67                             122     0.0 6  205 293 
 NOR  SE ES   2    652 23.59                             118     0.7 4  233 235 
