 2017  8 5 0523 41.7 L   6.769 -73.136139.4  RSN 13 0.5 1.7LRSN                1
 GAP=114        0.94       3.2     3.1  5.3 -0.3819E-01  0.2373E+01  0.4844E+01E
 Epicentro: LOS SANTOS - SANTANDER                                             3
 ACTION:UPD 17-09-04 20:16 OP:rebc STATUS:               ID:20170805052341 L   I
 OLDACT:UP  17-08-05 18:32 OP:osc  STATUS:               ID:20170805051737d    3
 OLDACT:DUP 17-08-05 18:09 OP:osc  STATUS:               ID:20170805051737d    3
 2017-08-05-0518-00M.COL___393                                                 6
 STAT SP IPHASW D HRMM SECON CODA AMPLIT PERI AZIMU VELO AIN AR TRES W  DIS CAZ7
 BAR2 EZ EP        524  0.60                             171    0.1310 20.2 195 
 BAR2 EZ ES        524 14.54                             171   -0.5910 20.2 195 
 BAR2 EZ I         524 16.40        13.9 0.20            171           20.2 195 
 BRR  HZ EP        524  2.17                             150   -0.1110 73.8 301 
 BRR  HE ES        524 19.10                             150    0.7410 73.8 301 
 BRR  HZ I         524 24.51        11.8 0.26            152           73.8 301 
 PAM  EZ EP        524  3.16                             149   -0.1710 79.4  37 
 PAM  EN ES        524 20.10                             149   -0.1310 79.4  37 
 PAM  EZ I         524 22.18        13.7 0.46            152           79.4  37 
 RUS  HZ EP        524  4.51                             143   -0.0310 97.1 177 
 RUS  HN ES        524 22.61                             143    0.2410 97.1 177 
 RUS  HZ I         524 23.60         5.0 0.32            145           97.1 177 
 PTB  HZ EP        524  7.99                             130   -0.17 9  148 260 
 PTB  HE ES        524 28.90                             130    0.08 9  148 260 
 PTB  HZ I         524 31.13         4.4 0.13            132            148 260 
 SPBC HZ EP        524  9.38                             128   -0.11 9  161 220 
 SPBC HE ES        524 31.06                             128   -0.13 9  161 220 
 YPLC HZ EP        524 10.61                             126   -0.04 9  173 151 
 YPLC HN ES   2    524 34.46                             126    1.20 4  173 151 
 YPLC HZ I         524 37.09         9.8 0.28            128            173 151 
 ZAR  HN ES        524 39.08                             121   -0.04 8  206 293 
 NOR  HZ EP        524 17.00                             117    0.09 8  234 235 
 NOR  HE ES        524 44.29                             117   -0.11 8  234 235 
 NOR  HZ I         524 51.44         3.1 0.16            119            234 235 
 CHI  HZ EP        524 19.59                             116    0.91 8  246 196 
 CHI  HN ES        524 47.55                             116   -0.00 8  246 196 
 HEL  HN ES        524 52.22                             113   -0.50 8  272 257 
 GUY2CHZ EP   9    524 26.85                             111    1.99 0  300 235 
 GUY2CHN ES        525  0.57                                    0.03 7  300 235 
 GUY2CHZ I         525  3.57         1.6 0.62                           300 235 
 PTGC HN ES   2    524 56.49                             111   -2.01 4  305 159 
                                                                                
