 2017  1 5 0441 13.3 L   6.845 -73.192119.8  RSN  4 0.5 0.9LRSN                1
 GAP=129        1.37       6.6     6.2 16.4 -0.1011E+01  0.4378E+02  0.3559E+01E
 Epicentro: ZAPATOCA - SANTANDER                                               3
 ACTION:UPD 17-05-22 15:55 OP:jn   STATUS:               ID:20170105044113 L   I
 OLDACT:REG 17-01-05 12:56 OP:lv   STATUS:               ID:20170105043212     3
 2017-01-05-0438-00M.COL___374                                                 6
 STAT SP IPHASW D HRMM SECON CODA AMPLIT PERI AZIMU VELO AIN AR TRES W  DIS CAZ7
 PAM  EZ EP        441 32.09                             145   -0.7110 77.2  45 
 PAM  EE ES        441 48.35                             145    0.3410 77.2  45 
 PAM  EZ I         441 49.60         2.3 0.29            147           77.2  45 
 RUS  HZ EP        441 36.02                             136    0.9910  106 173 
 RUS  HN ES        441 51.58                             136   -0.4210  106 173 
 RUS  HZ I         441 53.20         1.2 0.32            138            106 173 
 PTB  HZ EP        441 37.47                             126   -0.41 9  144 256 
 PTB  HN ES        441 57.00                             126   -0.06 9  144 256 
 ZAR  HN ES        442  7.29                             117    0.29 9  197 291 
                                                                                
