 2011  5 5 0729 40.0 L   6.779 -73.105140.3  RSN  5 0.1 1.4LRSN                1
 GAP=143        0.36       3.3     4.8  5.0 -0.1869E+00 -0.1365E+01  0.9244E-01E
 Epicentro: LOS SANTOS - SANTANDER                                             3
 ACTION:UP  11-06-29 08:50 OP:tino STATUS:               ID:20110505072940 L   I
 2011-05-05-0727-36S.COL___133                                                 6
 STAT SP IPHASW D HRMM SECON CODA AMPLIT PERI AZIMU VELO SNR AR TRES W  DIS CAZ7
 BAR2 SZ ES   2    730 13.44                             171    -0.3 5   22 203 
 BAR2 SZ I         730 15.00         8.5 0.53                            22 203 
 BTL  SZ EP   1    729 58.98                             170     0.0 7   24 311 
 BRR  HZ EP   1    730  0.77                             150    -0.1 7   76 298 
 BRR  HN ES   2    730 17.32                             150     0.2 5   76 298 
 BRR  HZ I         730 21.68         7.1 0.10                            76 298 
 PAM  SZ EP   1    730  1.67                             150     0.1 7   76  36 
 PAM  SN ES   2    730 18.42                             150     0.0 5   76  36 
 RUS  HZ EP   1    730  2.97                             143    -0.1 7   98 179 
 RUS  HN ES   2    730 21.22                             143     0.2 5   98 179 
 RUS  HZ I         730 22.90         2.1 0.36                            98 179 
                                                                                
