 2017 12 5 0235 15.8 L   6.802 -73.184142.0  RSN  5 0.3 1.4LRSN                1
 GAP=241        0.69       4.8     4.1  5.9  0.8357E+01  0.5204E+01 -0.1908E+01E
 Epicentro: ZAPATOCA - SANTANDER                                               3
 ACTION:UPD 18-01-04 13:17 OP:rebc STATUS:               ID:20171205023515 L   I
 OLDACT:UP  17-12-05 16:00 OP:e    STATUS:               ID:20171205022651     3
 OLDACT:REG 17-12-05 13:26 OP:y    STATUS:               ID:20171205022651     3
 2017-12-05-0228-00M.COL___488                                                 6
 STAT SP IPHASW D HRMM SECON CODA AMPLIT PERI AZIMU VELO AIN AR TRES W  DIS CAZ7
 BAR2 EZ EP        235 34.83                             170   -0.1410 23.2 180 
 BAR2 EZ ES        235 50.06                             170    0.1410 23.2 180 
 BAR2 EZ I         235 51.47        16.5 0.30            171           23.2 180 
 RUS  HZ EP        235 39.06                             143   -0.1610  101 174 
 RUS  HN ES        235 57.50                             143    0.0110  101 174 
 RUS  HZ I         235 58.68         3.0 0.20            144            101 174 
 PTB  HZ EP        235 42.09                             132    0.01 9  144 258 
 PTB  HE ES        236  2.00                             132   -0.58 9  144 258 
 PTB  HZ I         236  4.00         1.6 0.16            133            144 258 
 SPBC HZ EP        235 43.94                             129    0.17 9  161 218 
 SPBC HN ES        236  5.89                             129    0.30 9  161 218 
 ZAR  HE ES        236 12.74                             122    0.37 9  200 293 
                                                                                
