 2012  8 5 0724 38.0 L   6.774 -73.161134.6  RSN  4 0.3 1.1LRSN                1
 GAP=139        0.51       3.9     3.9  6.5 -0.4747E+01  0.7730E+01 -0.1986E+01E
 Epicentro: LOS SANTOS - SANTANDER                                             3
 ACTION:UPD 12-09-10 11:54 OP:ep   STATUS:               ID:20120805072438 L   I
 2012-08-05-0720-00M.COL___216                                                 6
 STAT SP IPHASW D HRMM SECON CODA AMPLIT PERI AZIMU VELO AIN AR TRES W  DIS CAZ7
 BAR2 SZ EP   1    724 55.90                             171   -0.28 7 20.2 187 
 BAR2 SZ ES   2    725 10.94                             171    0.55 5 20.2 187 
 BAR2 SZ I         725 13.29         3.3 0.21                          20.2 187 
 PAM  SZ EP   1    724 59.15                             147   -0.06 7 80.7  39 
 PAM  SN ES   1    725 15.76                             147   -0.02 7 80.7  39 
 RUS  HZ EP   1    725  0.69                             142    0.28 7 97.8 175 
 RUS  HN ES   1    725 17.70                             142   -0.23 7 97.8 175 
 RUS  HZ I         725 19.99         2.1 0.25                          97.8 175 
 PTB  HZ EP   1    725  4.07                             130    0.24 7  146 260 
 PTB  HN ES   1    725 23.84                             130   -0.17 7  146 260 
 PTB  HZ I         725 26.24         1.5 0.20                           146 260 
                                                                                
