 2017  4 5 0355  0.9 L   6.161 -73.460128.0  RSN  7 0.4 1.4LRSN                1
 GAP=105        0.85       4.3     4.9  6.0  0.3354E+01  0.1491E+02  0.1071E+01E
 Epicentro: SAN BENITO - SANTANDER                                             3
 ACTION:UPD 17-05-30 21:08 OP:jn   STATUS:               ID:20170405035500 L   I
 OLDACT:UP  17-04-05 14:39 OP:and  STATUS:               ID:20170405034744d    3
 OLDACT:UP  17-04-05 14:39 OP:and  STATUS:               ID:20170405034744d    3
 OLDACT:DUP 17-04-05 14:36 OP:and  STATUS:               ID:20170405034744d    3
 2017-04-05-0348-00M.COL___365                                                 6
 STAT SP IPHASW D HRMM SECON CODA AMPLIT PERI AZIMU VELO AIN AR TRES W  DIS CAZ7
 RUS  HZ IP     D  355 19.99                             158    0.1910 51.1 125 
 RUS  HN ES        355 34.26                             158   -0.2510 51.1 125 
 RUS  HZ I         355 35.60         2.8 0.22            161           51.1 125 
 BAR2 EZ ES        355 34.60                             156    0.2610 56.7  33 
 BAR2 EZ I         355 37.27         6.6 0.62            161           56.7  33 
 SPBC HZ EP        355 21.53                             144    0.0610 88.1 230 
 SPBC HE ES        355 37.68                             144    0.1910 88.1 230 
 SPBC HZ I         355 42.57         5.6 0.10            144           88.1 230 
 BRR  HZ EP   9    355 25.36                             138    2.44 0  108 345 
 BRR  HN ES        355 43.03                                    0.5210  108 345 
 PTB  HZ EP        355 23.19                             135   -0.5810  118 291 
 PTB  HN ES   3    355 40.12                             135   -1.46 2  118 291 
 PTB  HZ I         355 42.96         3.6 0.08            137            118 291 
 NOR  HZ EP        355 29.06                             124    0.34 9  170 247 
 NOR  HE ES   3    355 51.51                             124    1.11 2  170 247 
 NOR  HZ I         355 54.16         3.7 0.32            126            170 247 
 ZAR  HZ EP        355 32.97                             117   -0.34 8  213 314 
 ZAR  HN ES        355 58.70                             117    0.14 8  213 314 
 ZAR  HZ I         355 59.61         3.3 0.14            120            213 314 
                                                                                
