 2013  9 5 0530 51.4 L   6.793 -73.152153.4  RSN  6 0.4 1.6LRSN                1
 GAP=136        0.82       3.3     4.8  6.9  0.1991E+00  0.2760E+01 -0.2205E+00E
 Epicentro: LOS SANTOS - SANTANDER                                             3
 ACTION:UPD 13-10-22 09:20 OP:ep   STATUS:               ID:20130905053051 L   I
 OLDACT:UP  13-09-05 10:13 OP:cam  STATUS:               ID:20130905052959     3
 OLDACT:REG 13-09-05 08:58 OP:cam  STATUS:               ID:20130905052959     3
 2013-09-05-0529-59M.COL___269                                                 6
 STAT SP IPHASW D HRMM SECON CODA AMPLIT PERI AZIMU VELO AIN AR TRES W  DIS CAZ7
 BRR  HZ EP   1    531 13.79                             154    0.39 7 71.0 299 
 BRR  HN ES        531 31.18                             154    0.6510 71.0 299 
 BRR  HZ I         531 36.36         4.5 0.14            152           71.0 299 
 PAM  SZ EP   2    531 14.80                             152    0.27 5 78.4  40 
 PAM  SN ES   1    531 32.20                             152   -0.33 7 78.4  40 
 PAM  SZ I         531 33.93         4.5 0.60            157           78.4  40 
 RUS  HZ EP        531 15.78                             146   -0.1110 99.8 176 
 RUS  HN ES        531 34.78                             146   -0.1810 99.8 176 
 RUS  HZ I         531 36.78         3.6 0.46            149           99.8 176 
 PTB  HZ EP   1    531 18.87                             134   -0.09 7  147 259 
 PTB  HN ES        531 39.96                             134   -0.47 9  147 259 
 PTB  HZ I         531 47.16         5.3 0.38            135            147 259 
 SPBC HZ EP        531 20.81                             131    0.38 9  162 219 
 SPBC HN ES        531 42.97                             131   -0.07 9  162 219 
 SPBC HZ I         531 47.70         7.4 0.20            133            162 219 
 SML  HZ EP   2    531 28.69                             119    0.14 4  244 336 
 SML  HN ES        531 57.04                             119   -0.45 8  244 336 
 SML  HZ I         531 59.49         6.9 0.10            122            244 336 
                                                                                
