 2016 12 5 0329 39.8 L   6.768 -73.119152.7  RSN  4 0.3 1.5LRSN                1
 GAP=164        0.72       7.2     4.2  5.7  0.2199E+01  0.6370E+01 -0.3316E+01E
 Epicentro: LOS SANTOS - SANTANDER                                             3
 ACTION:UPD 17-01-11 20:12 OP:rebc STATUS:               ID:20161205032939 L   I
 OLDACT:REG 16-12-05 15:00 OP:ar   STATUS:               ID:20161205032741     3
 2016-12-05-0328-00M.COL___351                                                 6
 STAT SP IPHASW D HRMM SECON CODA AMPLIT PERI AZIMU VELO AIN AR TRES W  DIS CAZ7
 BAR2 EZ EP        330  0.52                             172    0.2710 20.7 200 
 BAR2 EZ ES        330 15.83                             172   -0.3410 20.7 200 
 BAR2 EZ I         330 16.60         8.5 0.24            170           20.7 200 
 BRR  HZ IP     C  330  2.28                             152    0.3110 75.5 300 
 BRR  HN ES        330 19.61                             152    0.3610 75.5 300 
 BRR  HZ I         330 26.96         4.7 0.42            147           75.5 300 
 PAM  EZ EP        330  2.68                             152   -0.1610 78.3  36 
 PAM  EN ES        330 20.75                             152   -0.0410 78.3  36 
 PAM  EZ I         330 21.08         4.4 0.30            153           78.3  36 
 ZAR  HZ EP        330 12.90                             123   -0.26 8  208 293 
 ZAR  HE ES        330 38.86                             123   -0.29 8  208 293 
 ZAR  HZ I         330 45.38         4.1 0.40            123            208 293 
                                                                                
