 2010  5 5 0143 37.7 L   6.745 -73.001139.5  RSN  7 0.5 1.9LRSN                1
 GAP=200        1.13       9.3    13.6 10.7 -0.7548E+02 -0.4192E+02  0.1920E+02E
 Epicentro: CEPITA - SANTANDER                                                 3
 ACTION:UP  10-08-24 10:02 OP:vdl  STATUS:               ID:20100505014337 L   I
 2010-05-05-0142-05S.COL___105                                                 6
 STAT SP IPHASW D HRMM SECON CODA AMPLIT PERI AZIMU VELO SNR AR TRES W  DIS CAZ7
 BAR2 SZ EP   1    143 56.23                             169    -0.4 8   26 230 
 BAR2 SZ ES   1    144 11.27                             169    -0.1 8   26 230 
 BRR  HZ EP   1    143 58.93                             146    -0.3 8   88 297 
 BRR  HN ES   1    144 16.42                             146     0.4 8   88 297 
 BRR  HZ I         144 19.32        13.5 0.22                            88 297 
 BRI  SZ EP        144  2.02                             140     1.010  110  12 
 GUE  SZ EP   2    144  1.43                             137    -0.7 5  120   4 
 GRA  SZ EP        144  2.22                             135    -0.310  128  10 
 GRA  SZ ES   1    144 21.41                             135    -0.5 7  128  10 
 HEL  HZ EP   2    144 18.53                             112    -0.6 4  286 258 
 HEL  HZ I         144 56.11         3.2 0.31                           286 258 
 PRA  HZ EP   1    144 31.23                             105    -0.1 4  395 212 
 PRA  HN ES   2    145 13.77                             105     0.6 3  395 212 
 PRA  HZ I         145 18.16         3.4 0.26                           395 212 
                                                                                
