 2016 11 5 0230 42.3 L   6.824 -73.210154.0  RSN  4 0.4 1.3LRSN                1
 GAP=234        0.98       7.9    11.5  9.9 -0.2575E+02 -0.2343E+02  0.2449E+02E
 Epicentro: ZAPATOCA - SANTANDER                                               3
 ACTION:UPD 17-10-26 21:04 OP:lp   STATUS:               ID:20161105023042 L   I
 OLDACT:REG 16-11-05 13:27 OP:dani STATUS:               ID:20161105022722     3
 2016-11-05-0228-00M.COL___352                                                 6
 STAT SP IPHASW D HRMM SECON CODA AMPLIT PERI AZIMU VELO AIN AR TRES W  DIS CAZ7
 BAR2 EZ ES   2    231 18.17                             170   -0.91 5 25.8 173 
 BRR  HZ EP        231  3.82                             157   -0.1310 63.7 299 
 BRR  HN ES        231 21.40                             157    0.5610 63.7 299 
 BRR  HZ I         231 24.19         4.0 0.24            152           63.7 299 
 PTB  HZ EP        231  9.30                             136   -0.08 9  141 257 
 PTB  HN ES        231 30.02                             136   -0.50 9  141 257 
 PTB  HZ I         231 37.50         2.5 0.37            133            141 257 
 SPBC HZ EP        231 11.11                             132   -0.11 9  161 216 
 SPBC HN ES        231 34.27                             132    0.48 9  161 216 
 SPBC HZ I         231 39.31         2.3 0.23            130            161 216 
                                                                                
