 2013  6 5 0906 14.7 L   6.733 -73.129145.4  RSN  5 0.4 1.8LRSN                1
 GAP=142        0.99       6.4     5.6  9.0 -0.6131E+01  0.5006E+01  0.9317E+01E
 Epicentro: JORDAN - SANTANDER                                                 3
 ACTION:UPD 14-01-08 09:52 OP:ep   STATUS:               ID:20130605090614 L   I
 OLDACT:UP  13-06-05 12:12 OP:mh   STATUS:               ID:20130605090000     3
 OLDACT:UP  13-06-05 12:11 OP:mh   STATUS:               ID:20130605090000     3
 OLDACT:REG 13-06-05 07:41 OP:mh   STATUS:               ID:20130605090000     3
 2013-06-05-0900-00M.COL___257                                                 6
 STAT SP IPHASW D HRMM SECON CODA AMPLIT PERI AZIMU VELO AIN AR TRES W  DIS CAZ7
 BAR2 SZ EP   1    9 6 34.54                             173    0.36 7 16.6 201 
 BAR2 SZ ES        9 6 49.13                             173   -0.2310 16.6 201 
 BAR2 SZ I         9 6 51.40         7.0 0.18            170           16.6 201 
 BRR  HE ES        9 6 53.58                             151    0.7510 76.5 303 
 BRR  HE I         9 6 53.82        20.8 0.22            151           76.5 303 
 PAM  SZ EP   1    9 6 37.41                             149    0.23 7 82.2  35 
 PAM  SN ES        9 6 54.20                             149   -0.5010 82.2  35 
 PAM  SN I         9 6 55.62        11.9 0.44            153           82.2  35 
 RUS  HZ EP   1    9 6 38.03                             146    0.13 7 93.1 177 
 RUS  HN ES   1    9 6 56.19                             146    0.21 7 93.1 177 
 RUS  HN I         9 6 58.61         5.4 0.34            146           93.1 177 
 PTB  HZ EP   1    9 6 41.26                             132   -0.43 7  148 262 
 PTB  HN ES        9 7  2.35                             132   -0.39 9  148 262 
 PTB  HN I         9 7  7.40        11.3 0.22            132            148 262 
                                                                                
