 2012 12 5 0511 13.5 L   6.814 -73.167140.1  RSN 15 0.4 2.2LRSN                1
 GAP= 69        0.77       2.4     2.7  4.7 -0.6638E+00  0.3556E+01  0.1640E+01E
 Epicentro: LOS SANTOS - SANTANDER                                             3
 ACTION:UPD 13-01-04 14:25 OP:ep   STATUS:               ID:20121205051113 L   I
 2012-12-05-0510-00M.COL___237                                                 6
 STAT SP IPHASW D HRMM SECON CODA AMPLIT PERI AZIMU VELO AIN AR TRES W  DIS CAZ7
 BAR2 SZ EP        511 32.58                             170    0.0710 24.6 184 
 BAR2 SZ ES   1    511 47.40                             170    0.09 7 24.6 184 
 BAR2 SZ I         511 49.02        74.4 0.18                          24.6 184 
 GIR2 SZ EP   1    511 32.61                             168    0.13 7 29.4 354 
 GIR2 SZ ES   1    511 47.47                             168    0.21 7 29.4 354 
 GIR2 SZ I         511 49.34        20.1 0.60                          29.4 354 
 PAM  SZ EP        511 35.43                             150    0.2610 77.7  42 
 PAM  SN ES   1    511 52.35                             150    0.31 7 77.7  42 
 PAM  SZ I         511 54.75        19.6 0.30                          77.7  42 
 RUS  HZ EP     C  511 36.59                             142   -0.2810  102 175 
 RUS  HN ES   1    511 54.60                             142   -0.46 7  102 175 
 RUS  HZ I         511 56.17        10.3 0.22                           102 175 
 PTB  HZ EP        511 39.25                             131   -0.62 9  146 258 
 PTB  HN ES   1    511 59.73                             131   -0.67 7  146 258 
 PTB  HZ I         512  3.66        20.2 0.32                           146 258 
 TAM  HZ EP     C  511 40.91                             129   -0.11 9  158 105 
 OCA  HZ I         512  5.68        23.9 0.22                           158 354 
 TAM  HN ES   1    512  2.50                             129    0.04 7  158 105 
 OCA  HZ EP   1    511 41.28                             129    0.04 7  158 354 
 OCA  HN ES   1    512  2.39                             129   -0.45 7  158 354 
 TAM  HZ I         512  1.70        12.0 0.38                           158 105 
 ZAR  HZ EP   1    511 46.01                             121    0.68 6  201 292 
 ZAR  HN ES   1    512 10.48                             121    0.35 6  201 292 
 ZAR  HZ I         512 16.60        16.7 0.24                           201 292 
 NOR  HN ES   1    512 16.40                             117    0.02 6  234 234 
 NOR  HZ I         512 21.73        14.6 0.48                           234 234 
 SML  HZ EP   1    511 48.93                             116   -0.66 6  241 336 
 SML  HE ES   1    512 18.10                             116    0.40 6  241 336 
 SML  HZ I         512 20.68        35.2 0.10                           241 336 
 CHI  HZ EP   1    511 50.86                             116   -0.17 6  250 195 
 CHI  HN ES   1    512 20.51                             116    0.24 6  250 195 
 CHI  HZ I         512 27.29         8.8 0.48                           250 195 
 ROSC BZ EP   1    511 52.21                             115    0.84 6  253 210 
 ROSC BN ES   1    512 21.60                             115    0.72 6  253 210 
 ROSC BZ I         512 29.29        14.4 0.35                           253 210 
 HEL  HZ EP   1    511 53.43                             114    0.17 6  270 255 
 HEL  HN ES   1    512 23.82                             114   -0.42 6  270 255 
 HEL  HZ I         512 30.91         7.8 0.28                           270 255 
 RREF HZ EP   1    511 59.72                             110    0.36 5  321 229 
 RREF HN ES   1    512 35.56                             110    0.46 5  321 229 
 RREF HZ I         512 46.76         9.4 0.32                           321 229 
 PRA  HZ EP   1    512  6.04                             105   -0.86 4  392 209 
 PRA  HN ES   1    512 48.89                             105    0.37 4  392 209 
 PRA  HZ I         512 53.17         9.5 0.28                           392 209 
                                                                                
