 2011  6 5 0423 59.9 L   6.759 -73.106142.8  RSN  5 0.3 1.8LRSN                1
 GAP=143        0.59       4.1     7.5  7.7  0.7732E+01 -0.8423E+01 -0.1229E+01E
 Epicentro: LOS SANTOS - SANTANDER                                             3
 ACTION:UP  11-07-14 19:03 OP:ep   STATUS:               ID:20110605042359 L   I
 2011-06-05-0419-26S.COL___132                                                 6
 STAT SP IPHASW D HRMM SECON CODA AMPLIT PERI AZIMU VELO SNR AR TRES W  DIS CAZ7
 BAR2 SZ EP   1    424 19.18                             171     0.1 7   20 204 
 BAR2 SZ ES   2    424 33.89                             171    -0.2 5   20 204 
 BAR2 SZ I         424 35.21        15.6 0.33                            20 204 
 BRR  HZ EP   1    424 20.92                             150    -0.1 7   77 300 
 BRR  HN ES   1    424 37.80                             150     0.2 7   77 300 
 BRR  HZ I         424 38.59        18.2 0.11                            77 300 
 PAM  SZ EP   2    424 21.72                             150    -0.1 5   78  35 
 PAM  SN ES   2    424 39.33                             150     0.4 5   78  35 
 RUS  HZ EP   1    424 23.22                             144     0.2 7   96 178 
 RUS  HZ I         424 24.32         4.6 0.16                            96 178 
 RUS  HE ES   1    424 40.72                             144    -0.3 7   96 178 
 OCA  SZ ES   2    424 50.02                             128    -0.7 5  165 352 
 OCA  SZ I         424 53.36         7.3 0.22                           165 352 
                                                                                
