 2015  9 5 0302 46.8 L   6.722 -73.245144.5  RSN  4 0.2 1.0LRSN                1
 GAP=205        0.50       5.2     7.5  5.1  0.2969E+02  0.4388E+01  0.2616E+01E
 Epicentro: VILLANUEVA - SANTANDER                                             3
 ACTION:UPD 15-10-28 16:24 OP:cam  STATUS:               ID:20150905030247 L   I
 OLDACT:UP  15-09-09 08:43 OP:AK   STATUS:               ID:20150905030247 L   3
 OLDACT:REG 15-09-05 12:33 OP:stll STATUS:               ID:20150905025749     3
 2015-09-05-0257-49M.COL___355                                                 6
 STAT SP IPHASW D HRMM SECON CODA AMPLIT PERI AZIMU VELO AIN AR TRES W  DIS CAZ7
 BAR2 EZ EP        3 3  5.92                             173   -0.2310 15.9 154 
 BAR2 EZ I         3 3  6.04         3.6 0.10             47           15.9 154 
 BAR2 EZ ES   4    3 3 19.32                             173   -1.93 0 15.9 154 
 BRR  HZ EP        3 3  7.58                             154    0.0010 66.9 310 
 BRR  HZ I         3 3  7.63         3.7 0.40             47           66.9 310 
 BRR  HN ES        3 3 23.88                             154    0.1010 66.9 310 
 RUS  HZ EP        3 3 10.21                             146    0.2910 93.4 169 
 RUS  HZ I         3 3 10.38         1.0 0.20             47           93.4 169 
 RUS  HN ES        3 3 27.88                             146   -0.0810 93.4 169 
 PTB  HZ EP        3 3 12.48                             134   -0.09 9  135 262 
 PTB  HZ I         3 3 40.50         1.2 0.30             37            135 262 
                                                                                
