 2017  2 5 0114 34.4 L   6.763 -73.104144.9  RSN  5 0.3 1.4LRSN                1
 GAP=144        0.68       3.9     4.0  5.6 -0.1214E+01  0.6528E+01  0.1869E+00E
 Epicentro: LOS SANTOS - SANTANDER                                             3
 ACTION:UPD 17-05-24 15:32 OP:jn   STATUS:               ID:20170205011434 L   I
 OLDACT:REG 17-02-05 13:01 OP:dnl  STATUS:               ID:20170205010740     3
 2017-02-05-0108-00M.COL___328                                                 6
 STAT SP IPHASW D HRMM SECON CODA AMPLIT PERI AZIMU VELO AIN AR TRES W  DIS CAZ7
 BAR2 EZ EP        114 54.10                             171    0.1710 20.8 205 
 BAR2 EZ ES        115  9.00                             171   -0.1210 20.8 205 
 BAR2 EZ I         115 10.13         6.8 0.50            171           20.8 205 
 BRR  HZ EP        114 55.94                             150    0.0910 77.2 300 
 BRR  HN ES        115 12.61                             150    0.0610 77.2 300 
 BRR  HZ I         115 14.81         6.6 0.62            152           77.2 300 
 PAM  EZ EP   2    114 57.03                             151    0.43 5 77.9  35 
 PAM  EN ES        115 13.76                             151   -0.1210 77.9  35 
 PAM  EZ I         115 15.28         6.0 0.22            153           77.9  35 
 RUS  HZ EP   2    114 58.23                             145    0.42 5 96.3 179 
 RUS  HN ES        115 15.94                             145   -0.0910 96.3 179 
 RUS  HZ I         115 18.80         2.1 0.30            146           96.3 179 
 PTB  HZ EP        115  1.09                             131   -0.60 9  152 261 
 PTB  HN ES        115 23.32                             131    0.38 9  152 261 
 PTB  HZ I         115 24.02         3.0 0.14            133            152 261 
                                                                                
