 2017  9 5 0655 56.2 L   6.745 -73.119143.6  RSN  6 0.3 1.3LRSN                1
 GAP=236        0.65       3.9     5.6  6.2  0.9639E+01  0.1253E+02  0.5784E+00E
 Epicentro: LOS SANTOS - SANTANDER                                             3
 ACTION:UPD 17-10-05 19:09 OP:rebc STATUS:               ID:20170905065556 L   I
 OLDACT:UP  17-09-05 16:10 OP:ndl  STATUS:               ID:20170905064738     3
 OLDACT:REG 17-09-05 13:27 OP:dnl  STATUS:               ID:20170905064738     3
 2017-09-05-0648-00M.COL___423                                                 6
 STAT SP IPHASW D HRMM SECON CODA AMPLIT PERI AZIMU VELO AIN AR TRES W  DIS CAZ7
 BAR2 EZ EP   2    656 15.45                             172   -0.06 5 18.3 203 
 BAR2 EZ ES        656 30.18                             172   -0.3610 18.3 203 
 BRR  HZ EP        656 17.38                             150   -0.1010 76.8 301 
 BRR  HN ES        656 34.47                             150    0.4210 76.8 301 
 BRR  HZ I         656 39.32         4.7 0.36            146           76.8 301 
 RUS  HZ EP   2    656 19.22                             145   -0.10 5 94.3 178 
 RUS  HN ES        656 37.54                             145    0.2110 94.3 178 
 RUS  HZ I         656 38.38         2.8 0.22            146           94.3 178 
 SPBC HZ EP   2    656 24.33                             129    0.02 5  160 221 
 SPBC HN ES        656 46.15                             129   -0.05 9  160 221 
 SPBC HZ I         656 50.84         1.8 0.22            128            160 221 
 ZAR  HZ EP   2    656 29.84                             121    0.77 4  209 293 
 ZAR  HN ES        656 54.37                             121   -0.31 8  209 293 
 ZAR  HZ I         657  1.42         2.7 0.30            121            209 293 
 GUY2CHZ EP   4    656 41.49                             112    1.86 0  300 236 
 GUY2CHN ES   4    657 15.52                             112    2.04 0  300 236 
 GUY2CHZ I         657 22.67         0.8 0.68                           300 236 
                                                                                
