 2015  6 5 0728 34.5 L   6.826 -73.124139.6  RSN 10 0.5 1.7LRSN                1
 GAP=138        1.22       3.6     5.1  6.8 -0.2518E+01  0.1522E+02 -0.8813E+00E
 Epicentro: LOS SANTOS - SANTANDER                                             3
 ACTION:UPD 15-09-10 22:09 OP:cam  STATUS:               ID:20150605072834 L   I
 OLDACT:DUP 15-06-05 15:31 OP:ak   STATUS:               ID:20150605072749d    3
 OLDACT:REG 15-06-05 13:23 OP:ak   STATUS:               ID:20150605072748     3
 2015-06-05-0727-48M.COL___294                                                 6
 STAT SP IPHASW D HRMM SECON CODA AMPLIT PERI AZIMU VELO AIN AR TRES W  DIS CAZ7
 BAR2 EZ EP        728 53.39                             169   -0.1010 26.6 194 
 BAR2 EZ ES        729  7.37                             169   -0.9110 26.6 194 
 BAR2 EZ I         729  9.79        12.4 0.16            167           26.6 194 
 BRR  HZ EP        728 55.15                             151    0.0910 72.0 296 
 BRR  HN ES        729 11.75                             151    0.6810 72.0 296 
 BRR  HZ I         729 15.01         6.4 0.16            149           72.0 296 
 PAM  SZ EP        728 56.24                             151    0.3710 73.7  40 
 PAM  SN ES        729 13.27                             151    0.7610 73.7  40 
 PAM  SZ I         729 16.15         4.8 0.48            155           73.7  40 
 RUS  HZ EP        728 57.48                             142   -0.4110  103 177 
 RUS  HN EP        728 57.68                             142            103 177 
 RUS  HE ES        729 16.00                             142   -0.1010  103 177 
 RUS  HN I         729 17.02         6.6 0.24            144            103 177 
 RUS  HZ I         729 17.25         3.7 0.29                           103 177 
 OCA  HZ EP        729  1.89                             129   -0.24 9  158 352 
 OCA  HN ES        729 23.62                             129   -0.03 9  158 352 
 OCA  HZ I         729 26.70        13.3 0.21            131            158 352 
 ZAR  HZ EP        729  7.26                             121    0.56 9  205 291 
 ZAR  HN ES        729 31.43                             121   -0.36 9  205 291 
 ZAR  HZ I         729 38.14         5.9 0.15            121            205 291 
 SML  HZ EP        729  9.77                             116   -0.88 8  242 335 
 SML  HN ES        729 38.10                             116   -0.71 8  242 335 
 HEL  HZ EP        729 15.71                             113    0.93 8  275 255 
 HEL  HN ES        729 46.24                             113    0.08 8  275 255 
 HEL  HZ I         729 51.83         1.8 0.19            114            275 255 
 GUY2CHZ EP        729 18.57                             111    0.30 7  305 235 
 GUY2CHN ES        729 52.13                             111   -0.25 7  305 235 
 GUY2CHZ I         729 59.93         3.9 0.34                           305 235 
 TOL  SZ EP   1    729 22.90                             108   -0.08 5  347 225 
 TOL  SE ES        730  1.11                             108    0.35 6  347 225 
 TOL  SZ I         730 12.84         4.8 0.12            109            347 225 
                                                                                
