 2016  2 5 0659 51.0 L   6.580 -73.586109.0  RSN  5 0.3 0.9LRSN                1
 GAP=100        0.75       3.5     3.2  5.8 -0.2278E+00  0.4117E+01 -0.8668E+01E
 Epicentro: EL CARMEN - SANTANDER                                              3
 ACTION:UPD 16-03-04 21:23 OP:rebc STATUS:               ID:20160205065951 L   I
 OLDACT:REG 16-02-05 13:56 OP:cara STATUS:               ID:20160205065746     3
 2016-02-05-0657-46M.COL___331                                                 6
 STAT SP IPHASW D HRMM SECON CODA AMPLIT PERI AZIMU VELO AIN AR TRES W  DIS CAZ7
 BAR2 EZ IP        7 0  7.29                             156    0.2110 44.7  88 
 BAR2 EZ ES        7 0 19.79                             156    0.1910 44.7  88 
 BAR2 EZ I         7 0 21.00         3.4 0.38            158           44.7  88 
 RUS  HZ EP        7 0 10.56                             136   -0.2710 94.2 144 
 RUS  HE ES        7 0 25.92                             136   -0.3510 94.2 144 
 RUS  HZ I         7 0 27.10         0.7 0.28            138           94.2 144 
 PTB  HZ EP        7 0  9.97                             135   -0.3810 96.3 267 
 PTB  HN ES        7 0 25.23                             135   -0.2010 96.3 267 
 PTB  HZ I         7 0 26.34         2.5 0.22            136           96.3 267 
 SPBC HZ EP        7 0 12.47                             130    0.2610  116 208 
 SPBC HN ES        7 0 29.16                             130    0.4210  116 208 
 SPBC HZ I         7 0 31.51         1.5 0.20            130            116 208 
 SML  HZ EP        7 0 26.76                             108   -0.02 8  251 348 
 SML  HZ EPg       7 0 27.02                             108    0.24 8  251 348 
                                                                                
