 2013  8 5 0740 12.7 L   6.189 -73.943  5.4  RSN 12 0.7 2.1LRSN                1
 GAP= 63        1.61       3.8     3.2 10.2 -0.7705E+00 -0.4705E+01 -0.1740E+02E
 Epicentro: CIMITARRA - SANTANDER                                              3
 ACTION:UPD 14-01-14 08:59 OP:ep   STATUS:               ID:20130805074012 L   I
 OLDACT:UP  13-08-06 08:41 OP:ep   STATUS:               ID:20130805074012 L   3
 OLDACT:UP  13-08-06 01:07 OP:cam  STATUS:               ID:20130805074012 L   3
 OLDACT:DUP 13-08-05 10:20 OP:jn   STATUS:               ID:20130805073901d    3
 2013-08-05-0739-59M.COL___270                                                 6
 STAT SP IPHASW D HRMM SECON CODA AMPLIT PERI AZIMU VELO AIN AR TRES W  DIS CAZ7
 SPBC HZ EPg  1    740 21.91                              90   -0.70 7 61.0 194 
 SPBC HZ I         740 38.30        69.9 0.20            106           61.0 194 
 PTB  HZ IP     D  740 23.79                              90    0.0810 68.7 304 
 PTB  HN ESg       740 32.84                              90    0.5310 68.7 304 
 PTB  HZ I         740 36.66        78.3 0.16            104           68.7 304 
 BAR2 SZ EP   1    740 27.60                              90   -0.35 7 95.3  62 
 BAR2 SZ ES   1    740 39.04                              90   -0.82 7 95.3  62 
 BAR2 SZ I         740 44.21        38.0 0.76             61           95.3  62 
 RUS  HZ EP        740 28.16                              90   -0.8710  101 109 
 RUS  HZ EPg  1    740 28.50                              90   -0.53 7  101 109 
 RUS  HZ I         740 40.36        21.5 0.64             61            101 109 
 BRR  HZ EPg  1    740 29.87                              90    0.73 7  105  14 
 BRR  HZ I         740 48.05        20.7 0.12             61            105  14 
 NOR  HZ IP     D  740 31.87                              90   -0.1910  124 236 
 NOR  HE ES        740 46.41                              90   -0.7810  124 236 
 NOR  HZ I         740 48.25        33.7 0.52             61            124 236 
 GIR2 SZ EP   1    740 33.53                              90    0.62 7  129  40 
 ROSC BZ EP   1    740 38.65                              90    1.51 7  155 196 
 ROSC BN ES   1    740 56.99                              90    0.76 7  155 196 
 CHI  HZ EP   1    740 41.60                              90    1.54 7  174 172 
 CHI  HN ES   1    741  1.49                              90    0.07 7  174 172 
 HEL  HZ IP     D  740 39.72                              90   -0.48 9  175 270 
 HEL  HN ES   4    740 59.88                              90   -1.78 0  175 270 
 HEL  HZ I         741  2.04        59.6 0.26             61            175 270 
 ZAR  HZ EP        740 39.26                              56   -0.58 9  176 325 
 ZAR  HE ES   1    741  0.38                              56   -0.64 7  176 325 
 ZAR  HZ I         741  4.61        17.9 0.30             61            176 325 
 PAM  SZ EP        740 42.83                              56    1.01 9  187  47 
 PAM  SN ES        741  5.00                              56    0.45 9  187  47 
 PAM  SZ I         741  8.35        47.5 0.28             61            187  47 
 VIL  SN ES   4    741 18.69                              56    5.12 0  231 173 
                                                                                
