 2012 10 5 0550 14.0 L   6.798 -73.138138.8  RSN  4 0.1 1.1LRSN                1
 GAP=138        0.36       2.9     4.1  5.4 -0.2691E+01  0.5806E+01 -0.4763E+01E
 Epicentro: LOS SANTOS - SANTANDER                                             3
 ACTION:UPD 12-11-22 17:02 OP:ep   STATUS:               ID:20121005055014 L   I
 2012-10-05-0550-00M.COL___222                                                 6
 STAT SP IPHASW D HRMM SECON CODA AMPLIT PERI AZIMU VELO AIN AR TRES W  DIS CAZ7
 BAR2 SZ EP   1    550 32.58                             170   -0.20 7 23.3 192 
 BAR2 SZ I         550 33.00         4.3 0.09                          23.3 192 
 BAR2 SZ ES   1    550 47.34                             170   -0.09 7 23.3 192 
 PAM  SZ EP   1    550 35.54                             150    0.10 7 77.0  39 
 PAM  SZ I         550 35.76         4.4 0.22                          77.0  39 
 PAM  SN ES   1    550 52.19                             150    0.02 7 77.0  39 
 RUS  HN ES   1    550 55.15                             142    0.14 7  100 177 
 RUS  HZ I         550 56.72         0.8 0.26                           100 177 
 ZAR  HN ES   2    551 11.22                             121    0.11 4  205 292 
                                                                                
