 2014  5 5 0454 37.1 L   6.644 -73.989 26.4  RSN  5 0.5 1.2LRSN                1
 GAP=124        1.19       4.7     3.0  7.0  0.2575E+01 -0.1091E+02 -0.9858E+01E
 Epicentro: PUERTO PARRA - SANTANDER                                           3
 ACTION:UPD 15-03-16 16:55 OP:nd   STATUS:               ID:20140505045437 L   I
 OLDACT:UP  14-05-05 17:37 OP:mh   STATUS:               ID:20140505045000     3
 OLDACT:REG 14-05-05 13:56 OP:mh   STATUS:               ID:20140505045000     3
 2014-05-05-0450-00M.COL___273                                                 6
 STAT SP IPHASW D HRMM SECON CODA AMPLIT PERI AZIMU VELO AIN AR TRES W  DIS CAZ7
 PTB  HZ EP        454 45.53                             106   -0.8710 53.0 257 
 PTB  HE ES        454 54.26                             106    0.5810 53.0 257 
 PTB  HZ I         454 55.41        13.1 0.08            113           53.0 257 
 RUS  HZ EP        454 57.41                              61    0.1310  130 130 
 RUS  HN ES        455 12.60                              61   -0.4510  130 130 
 RUS  HZ I         455 16.54         2.7 0.31             56            130 130 
 ZAR  HZ EP   1    454 56.88                              61   -0.33 7  134 314 
 ZAR  HN ES        455 12.56                              61   -0.3710  134 314 
 ZAR  HZ I         455 15.14         4.1 0.06             56            134 314 
 PAM  SZ EP        455  1.88                              61    0.63 9  162  62 
 PAM  SN ES        455 20.32                              61    0.21 9  162  62 
 PAM  SZ I         455 22.50         2.7 0.14             56            162  62 
 HEL  HZ EP        455  3.12                              61    0.06 9  178 254 
 HEL  HN ES        455 23.77                              61    0.43 9  178 254 
 GUY2CHZ EP   4    455  7.23                              61   -1.10 0  219 224 
 GUY2CHN ES   4    455 34.86                              61    2.13 0  219 224 
                                                                                
