 2010  5 5 0612 37.8 L   6.708 -73.059142.0  RSN  8 0.4 1.9LRSN                1
 GAP=183        0.87       6.4    10.2  7.8 -0.3938E+02 -0.1849E+02  0.1391E+02E
 Epicentro: ARATOCA - SANTANDER                                                3
 ACTION:UP  10-08-24 10:02 OP:vdl  STATUS:               ID:20100505061237 L   I
 2010-05-05-0610-09S.COL___105                                                 6
 STAT SP IPHASW D HRMM SECON CODA AMPLIT PERI AZIMU VELO SNR AR TRES W  DIS CAZ7
 BAR2 SZ EP   1    612 57.06                             172     0.1 7   19 227 
 BAR2 SZ ES   1    613 11.71                             172    -0.1 7   19 227 
 BRR  HZ IP     C  612 59.42                             147     0.010   85 301 
 BRR  HE ES   1    613 16.23                             147     0.0 7   85 301 
 BRR  HZ I         613 18.87        12.9 0.19                            85 301 
 BRI  SZ EP   1    613  1.50                             139    -0.4 7  115  15 
 GUE  SZ EP   1    613  1.94                             136    -1.0 7  125   7 
 GRA  SZ IP        613  3.76                             134     0.410  133  12 
 GRA  SZ ES   1    613 23.69                             134     0.4 7  133  12 
 CHI  HZ EP   2    613 15.08                             117     0.5 4  242 198 
 CHI  HZ I         613 48.21         4.5 0.59                           242 198 
 HEL  HZ EP   2    613 18.92                             113     0.3 4  279 258 
 HEL  HZ I         613 55.49         2.9 0.38                           279 258 
 PRA  HZ EP   1    613 31.22                             106     0.4 4  388 212 
 PRA  HN ES   1    614 11.64                             106    -0.4 4  388 212 
 PRA  HZ I         614 17.20         4.4 0.39                           388 212 
                                                                                
