 2016 12 5 0012 23.1 L   6.777 -73.139146.9  RSN  6 0.4 1.8LRSN                1
 GAP=155        0.99       6.7     4.7  7.2 -0.1113E+02  0.1028E+02 -0.3255E-01E
 Epicentro: LOS SANTOS - SANTANDER                                             3
 ACTION:UPD 17-01-11 20:12 OP:rebc STATUS:               ID:20161205001223 L   I
 OLDACT:REG 16-12-05 13:57 OP:ar   STATUS:               ID:20161205000744     3
 2016-12-05-0008-00M.COL___349                                                 6
 STAT SP IPHASW D HRMM SECON CODA AMPLIT PERI AZIMU VELO AIN AR TRES W  DIS CAZ7
 BAR2 EZ EP        012 42.91                             171    0.0810 21.0 193 
 BAR2 EZ ES        012 58.15                             171   -0.0710 21.0 193 
 BAR2 EZ I         012 59.01        21.3 0.26            169           21.0 193 
 BRR  HZ EP        012 44.67                             152    0.1810 73.1 300 
 BRR  HN ES        013  1.83                             152    0.6710 73.1 300 
 BRR  HZ I         013  2.41        14.2 0.10            149           73.1 300 
 PAM  EZ EP        012 45.69                             151    0.1610 78.9  38 
 PAM  EE ES        013  2.67                             151   -0.3610 78.9  38 
 PAM  EZ I         013  5.05        16.9 0.52            154           78.9  38 
 PTB  HZ EP        012 49.88                             132   -0.31 9  148 260 
 PTB  HN ES        013 10.51                             132   -0.81 9  148 260 
 PTB  HZ I         013 17.87         4.3 0.18            131            148 260 
 ZAR  HZ EP        012 55.77                             122   -0.03 8  206 293 
 ZAR  HE ES        013 21.27                             122   -0.03 8  206 293 
 ZAR  HZ I         013 27.57         4.8 0.26            122            206 293 
 NOR  HN ES        013 27.21                             119    0.54 8  234 235 
 NOR  HZ I         013 32.89         3.5 0.20            119            234 235 
                                                                                
