 2011  5 5 0629 43.9 L   6.774 -73.051145.7  RSN 13 0.4 2.7LRSN                1
 GAP=150        0.78       2.9     5.5  5.3 -0.5920E+01  0.6849E+01  0.2229E+01E
 Epicentro: LOS SANTOS - SANTANDER                                             3
 ACTION:UP  11-06-29 08:50 OP:tino STATUS:               ID:20110505062943 L   I
 2011-05-05-0625-56S.COL___133                                                 6
 STAT SP IPHASW D HRMM SECON CODA AMPLIT PERI AZIMU VELO SNR AR TRES W  DIS CAZ7
 BAR2 SZ IP        630  3.56                             170     0.010   25 216 
 BAR2 SZ I         630  4.14        89.8 0.36                            25 216 
 BAR2 SZ ES   1    630 18.51                             170    -0.4 7   25 216 
 BTL  SZ EP   1    630  3.68                             169     0.0 7   29 304 
 BTL  SZ ES   2    630 19.64                             169     0.6 5   29 304 
 PAM  SZ IP        630  6.31                             152     0.410   74  32 
 PAM  SE ES   2    630 23.22                             152     0.2 5   74  32 
 BRR  HZ IP     C  630  5.40                             149    -0.310   82 297 
 BRR  HZ I         630  5.77       125.7 0.33                            82 297 
 BRR  HN ES   2    630 22.47                             149    -0.2 5   82 297 
 RUS  HZ EP   1    630  7.52                             144     0.1 7   98 182 
 RUS  HN ES   1    630 26.07                             144     0.3 7   98 182 
 RUS  HZ I         630 27.04        43.6 0.26                            98 182 
 BRI  SZ EP   1    630  8.06                             141     0.3 7  108  15 
 BRI  SZ ES   2    630 26.01                             141    -0.3 5  108  15 
 BRI  SZ I         630 29.71        55.7 0.29                           108  15 
 GRA  SZ EP   1    630  9.33                             137     0.2 7  126  12 
 GRA  SZ ES   2    630 28.81                             137     0.0 5  126  12 
 GRA  SZ I         630 31.84       108.0 0.41                           126  12 
 OCA  SZ EP   1    630 12.11                             129    -0.5 7  165 350 
 OCA  SZ ES   1    630 34.29                             129    -0.7 7  165 350 
 OCA  SZ I         630 39.55        77.5 0.24                           165 350 
 NOR  SZ EP   1    630 20.15                             117    -0.2 6  242 236 
 NOR  SE ES   2    630 48.71                             117    -0.1 4  242 236 
 HEL  HZ EP   1    630 25.94                             114     0.8 6  282 257 
 HEL  HN ES   2    630 58.04                             114     0.7 4  282 257 
 HEL  HZ I         631  2.90        21.5 0.23                           282 257 
 VIL  SZ EP        630 27.00                             112    -0.2 7  303 194 
 VIL  SN ES        631  0.62                             112    -0.4 7  303 194 
 VIL  SZ I         631 11.07        12.6 0.43                           303 194 
 RREF HZ EP   1    630 31.46                             110     0.7 5  328 231 
 RREF HN ES   2    631  7.45                             110     0.2 3  328 231 
 RREF HZ I         631 13.26        33.0 0.24                           328 231 
 PRA  HZ EP   1    630 37.47                             106    -0.3 4  395 211 
 PRA  HN ES   2    631 19.62                             106    -0.1 3  395 211 
                                                                                
