 2017 11 5 0701 29.2 L   6.816 -73.124138.8  RSN  5 0.3 0.9LRSN                1
 GAP=139        0.89       4.6     4.5  6.5 -0.1974E+01  0.3999E+01  0.1698E+01E
 Epicentro: LOS SANTOS - SANTANDER                                             3
 ACTION:UPD 17-12-12 19:52 OP:rebc STATUS:               ID:20171105070129 L   I
 OLDACT:DUP 17-11-05 18:27 OP:dhb  STATUS:               ID:20171105065740d    3
 OLDACT:DUP 17-11-05 16:26 OP:dhb  STATUS:               ID:20171105065739d    3
 2017-11-05-0658-00M.COL___421                                                 6
 STAT SP IPHASW D HRMM SECON CODA AMPLIT PERI AZIMU VELO AIN AR TRES W  DIS CAZ7
 BAR2 EZ EP        7 1 47.92                             169   -0.1510 25.5 195 
 BAR2 EZ ES        7 2  2.26                             169   -0.5010 25.5 195 
 BAR2 EZ I         7 2  6.64         2.2 0.68            176           25.5 195 
 BRR  HZ EP        7 1 50.04                             151    0.3410 72.6 296 
 BRR  HN ES        7 2  6.05                             151    0.3710 72.6 296 
 BRR  HZ I         7 2  9.97         2.0 0.54            153           72.6 296 
 PAM  EZ EP        7 1 50.78                             150    0.2510 74.5  39 
 PAM  EN ES        7 2  6.95                             150   -0.2010 74.5  39 
 PAM  EZ I         7 2 18.10         2.3 0.38            151           74.5  39 
 RUS  HZ EP        7 1 52.37                             142   -0.0510  102 177 
 RUS  HN ES        7 2 10.94                             142    0.4410  102 177 
 RUS  HZ I         7 2 11.93         1.0 0.32            151            102 177 
 PTB  HZ EP        7 1 55.35                             130   -0.54 9  150 258 
 PTB  HN ES        7 2 16.64                             130   -0.04 9  150 258 
 PTB  HZ I         7 2 21.26         0.5 0.26            136            150 258 
                                                                                
