 2012  5 5 0046 35.8 L   6.764 -73.160151.4  RSN  6 0.4 1.8LRSN                1
 GAP=136        0.93       6.4     5.6  9.0  0.3308E+01  0.9030E+01  0.6256E+00E
 Epicentro: LOS SANTOS - SANTANDER                                             3
 ACTION:UP  12-07-05 12:02 OP:pat  STATUS:               ID:20120505004635 L   I
 2012-05-05-0040-00M.COL___192                                                 6
 STAT SP IPHASW D HRMM SECON CODA AMPLIT PERI AZIMU VELO SNR AR TRES W  DIS CAZ7
 BAR2 SZ EP   1    046 55.87                             172    -0.1 7   19 187 
 BAR2 SZ ES   1    047 11.41                             172    -0.4 7   19 187 
 BAR2 SZ I         047 12.22        10.2 0.52                            19 187 
 BRR  HZ EP   1    046 57.83                             153     0.3 7   72 302 
 BRR  HZ I         046 58.08        17.1 0.21                            72 302 
 BRR  HE ES   1    047 15.49                             153     0.9 7   72 302 
 PAM  SZ EP   1    046 58.89                             150     0.1 7   81  39 
 PAM  SN ES   1    047 16.44                             150    -0.4 7   81  39 
 RUS  HZ EP   1    047  0.07                             146     0.3 7   97 175 
 RUS  HN ES   1    047 18.58                             146     0.0 7   97 175 
 RUS  HZ I         047 19.37         6.3 0.44                            97 175 
 PTB  HZ EP   1    047  2.92                             134    -0.1 7  145 260 
 PTB  HN ES   1    047 24.00                             134    -0.2 7  145 260 
 PTB  HZ I         047 25.90         4.1 0.13                           145 260 
 ZAR  HN ES   1    047 33.63                             124    -0.6 6  204 293 
 ZAR  HZ I         047 41.05         9.1 0.34                           204 293 
                                                                                
