 2017  8 5 0821 50.5 L   6.788 -73.200158.0  RSN  4 0.5 1.2LRSN                1
 GAP=231        1.01       7.2     9.0  9.5  0.2624E+02 -0.2025E+01  0.1746E+01E
 Epicentro: ZAPATOCA - SANTANDER                                               3
 ACTION:UPD 17-09-04 20:16 OP:rebc STATUS:               ID:20170805082150 L   I
 OLDACT:UP  17-08-05 18:28 OP:dani STATUS:               ID:20170805081742     3
 OLDACT:REG 17-08-05 13:34 OP:osc  STATUS:               ID:20170805081742     3
 2017-08-05-0818-00M.COL___384                                                 6
 STAT SP IPHASW D HRMM SECON CODA AMPLIT PERI AZIMU VELO AIN AR TRES W  DIS CAZ7
 BRR  HZ EP        822 12.98                             156    0.1810 66.7 302 
 BRR  HN ES        822 30.43                             156    0.2710 66.7 302 
 BRR  HZ I         822 33.92         2.0 0.15            151           66.7 302 
 RUS  HZ EP        822 15.42                             146   -0.0610 99.9 173 
 RUS  HN ES        822 34.61                             146   -0.3110 99.9 173 
 RUS  HZ I         822 35.04         2.3 0.35            147           99.9 173 
 PTB  HZ EP        822 17.55                             136   -0.47 9  142 259 
 PTB  HN ES   1    822 38.71                             136   -0.73 7  142 259 
 PTB  HZ I         822 44.89         1.3 0.16            133            142 259 
 SPBC HZ EP   1    822 20.34                             133    0.75 7  158 218 
 SPBC HE ES   1    822 42.95                             133    0.71 7  158 218 
 SPBC HZ I         822 47.09         3.2 0.08            131            158 218 
                                                                                
