 2010 10 5 0711 47.0 L   6.789 -73.092147.3  RSN 14 0.3 2.7LRSN                1
 GAP=165        0.73       2.6     4.5  4.9 -0.4422E+01  0.5150E+01  0.1820E+01E
 Epicentro: LOS SANTOS - SANTANDER                                             3
 ACTION:UP  11-02-18 11:07 OP:tino STATUS:               ID:20101005071147 L   I
 2010-10-05-0708-45S.COL___122                                                 6
 STAT SP IPHASW D HRMM SECON CODA AMPLIT PERI AZIMU VELO SNR AR TRES W  DIS CAZ7
 BAR2 SZ IP        712  6.82                             170     0.010   24 205 
 BAR2 SZ ES   1    712 22.27                             170    -0.1 7   24 205 
 BAR2 SZ I         712 24.86       140.2 0.42                            24 205 
 BRR  HZ IP     C  712  8.68                             151     0.010   77 297 
 BRR  HE ES   1    712 25.85                             151     0.3 7   77 297 
 BRR  HZ I         712 29.67        77.2 0.26                            77 297 
 RUS  HZ IP     D  712 10.72                             144    -0.110   99 179 
 RUS  HE ES   1    712 29.25                             144    -0.1 7   99 179 
 RUS  HZ I         712 32.23        64.7 0.29                            99 179 
 GUE  SZ EP   1    712 11.78                             140    -0.1 7  117   9 
 GRA  SZ IP        712 12.61                             137     0.210  125  15 
 GRA  SZ ES   1    712 31.78                             137    -0.3 7  125  15 
 GRA  SZ I         712 35.20        71.9 0.29                           125  15 
 OCA  SZ EP   1    712 15.24                             130    -0.4 7  162 351 
 OCA  SZ ES   1    712 38.21                             130     0.3 7  162 351 
 OCA  SZ I         712 42.19       102.4 0.32                           162 351 
 NOR  SZ EP   1    712 22.74                             118    -0.6 6  239 236 
 NOR  SN ES   2    712 50.92                             118    -0.7 4  239 236 
 CHI  HZ EP   1    712 24.79                             117    -0.1 6  249 197 
 CHI  HN ES   1    712 54.28                             117    -0.1 6  249 197 
 CHI  HZ I         713  3.93        27.9 0.61                           249 197 
 ROSC BZ IP     D  712 26.26                             117     0.8 8  255 212 
 ROSC BE ES   1    712 55.87                             117     0.4 6  255 212 
 ROSC BZ I         713  2.51        43.8 0.62                           255 212 
 HEL  HZ EP   1    712 28.01                             114     0.1 6  278 256 
 HEL  HN ES   1    712 59.67                             114    -0.2 6  278 256 
 HEL  HZ I         713  6.12        38.2 0.35                           278 256 
 RREF HZ EP   1    712 33.82                             111     0.2 5  326 230 
 RREF HE ES   1    713 10.33                             111     0.3 5  326 230 
 RREF HZ I         713 19.11        35.6 0.59                           326 230 
 DBB  SZ EP   1    712 34.75                             109    -0.5 5  346 274 
 DBB  SZ I         713 30.45         6.6 0.57                           346 274 
 TOL  SZ EP   1    712 36.38                             109     0.6 5  347 225 
 PRA  HZ EP        712 40.50                             107    -0.3 6  394 210 
 PRA  HN ES   1    713 22.24                             107    -0.6 4  394 210 
                                                                                
