 2013  5 5 0558 37.9 L   6.794 -73.158143.2  RSN  6 0.5 1.7LRSN                1
 GAP=135        1.26       6.5     6.5  8.7 -0.4383E+01  0.9148E+01  0.7804E+01E
 Epicentro: LOS SANTOS - SANTANDER                                             3
 ACTION:UPD 13-06-20 09:47 OP:ep   STATUS:               ID:20130505055837 L   I
 2013-05-05-0548-50M.COL___220                                                 6
 STAT SP IPHASW D HRMM SECON CODA AMPLIT PERI AZIMU VELO AIN AR TRES W  DIS CAZ7
 BAR2 SZ ES        559 12.68                             171    0.4510 22.5 187 
 GIR2 SZ ES        559 11.87                             167   -0.4910 31.7 353 
 BRR  HZ EP        558 59.11                             152    0.4310 70.3 299 
 BRR  HN ES        559 15.72                             152    0.8010 70.3 299 
 BRR  HN I         559 16.46        22.8 0.16            150           70.3 299 
 PAM  SZ EP        559  0.17                             150    0.2810 78.7  40 
 PAM  SN ES        559 16.44                             150   -0.6310 78.7  40 
 RUS  HZ EP        559  1.48                             143    0.1610  100 175 
 RUS  HN ES        559 19.52                             143   -0.1110  100 175 
 RUS  HN I         559 20.64         2.6 0.30            143            100 175 
 PTB  HZ EP        559  4.08                             132   -0.41 9  146 259 
 PTB  HN ES        559 24.64                             132   -0.61 9  146 259 
 PTB  HN I         559 30.38         9.9 0.30            130            146 259 
                                                                                
