 2014  8 5 0526  3.0 L   6.831 -73.167137.5  RSN  7 0.4 1.2LRSN                1
 GAP=181        1.00       3.9     5.4  8.7  0.2505E+01  0.1984E+01  0.2849E+01E
 Epicentro: LOS SANTOS - SANTANDER                                             3
 ACTION:UPD 14-09-15 21:47 OP:nd   STATUS:               ID:20140805052603 L   I
 OLDACT:DUP 14-08-05 19:41 OP:spq  STATUS:               ID:20140805051818d    3
 OLDACT:REG 14-08-05 13:11 OP:spq  STATUS:               ID:20140805051817     3
 2014-08-05-0518-17M.COL___245                                                 6
 STAT SP IPHASW D HRMM SECON CODA AMPLIT PERI AZIMU VELO AIN AR TRES W  DIS CAZ7
 BAR2 SZ EP        526 21.27                             169   -0.4710 26.4 184 
 BAR2 SZ ES   1    526 36.27                             169   -0.06 7 26.4 184 
 BAR2 SZ I         526 37.97         3.5 0.28            171           26.4 184 
 BRR  HZ EP        526 23.81                             152    0.7310 67.6 297 
 BRR  HN ES        526 39.21                             152    0.4910 67.6 297 
 BRR  HZ I         526 45.00         3.8 0.12            152           67.6 297 
 RUS  HZ EP        526 26.64                             141    0.3910  104 175 
 RUS  HE ES   1    526 44.10                             141   -0.26 7  104 175 
 RUS  HZ I         526 46.73         1.5 0.22            146            104 175 
 PTB  HZ EP   1    526 28.91                             130   -0.28 7  146 257 
 PTB  HN ES        526 49.65                             130    0.05 9  146 257 
 PTB  HZ I         526 52.31         3.0 0.23            133            146 257 
 OCA  HN ES        526 51.19                             128   -0.49 9  157 354 
 OCA  HZ I         526 55.98         3.1 0.30            131            157 354 
 SPBC HZ EP   1    526 31.21                             127    0.19 7  164 218 
 SPBC HE ES        526 52.45                             127   -0.41 9  164 218 
 SPBC HZ I         526 54.93         1.8 0.16            130            164 218 
 ZAR  HE ES        526 58.93                             121   -0.28 9  201 291 
 ZAR  HZ I         527  5.63         2.2 0.24            123            201 291 
                                                                                
