 2010  5 5 0052 21.6 L   6.719 -73.083134.4  RSN  4 0.1 1.6LRSN                1
 GAP=205        0.30       4.3     8.1  4.4 -0.2478E+02  0.1152E+02 -0.8818E+01E
 Epicentro: JORDAN - SANTANDER                                                 3
 ACTION:UP  10-08-24 10:02 OP:vdl  STATUS:               ID:20100505005221 L   I
 2010-05-05-0049-32S.COL___105                                                 6
 STAT SP IPHASW D HRMM SECON CODA AMPLIT PERI AZIMU VELO SNR AR TRES W  DIS CAZ7
 BAR2 SZ EP   1    052 39.75                             172     0.0 7   18 218 
 BAR2 SZ ES   1    052 53.97                             172     0.0 7   18 218 
 BRR  HZ EP   1    052 42.24                             147     0.0 7   82 302 
 BRR  HZ I         053 11.16         7.9 0.54                            82 302 
 GUE  SZ EP   3    052 45.81                             135    -0.2 2  124   8 
 GRA  SZ EP   1    052 46.57                             133     0.1 7  133  13 
 GRA  SZ ES   1    053  5.85                             133     0.0 7  133  13 
                                                                                
