 2016  9 5 0035 30.5 L   6.825 -73.142149.9  RSN 10 0.5 1.9LRSN                1
 GAP=136        1.14       3.7     5.1  7.5 -0.1956E+01  0.2004E+01  0.1427E+01E
 Epicentro: LOS SANTOS - SANTANDER                                             3
 ACTION:UPD 17-08-17 21:06 OP:lp   STATUS:               ID:20160905003530 L   I
 OLDACT:UP  16-09-05 13:26 OP:dani STATUS:               ID:20160905002735     3
 OLDACT:REG 16-09-05 12:11 OP:dani STATUS:               ID:20160905002735     3
 2016-09-05-0028-00M.COL___357                                                 6
 STAT SP IPHASW D HRMM SECON CODA AMPLIT PERI AZIMU VELO AIN AR TRES W  DIS CAZ7
 BRR  HZ EP     D  035 52.36                             153    0.3510 70.2 296 
 BRR  HN ES        036  9.44                             153    0.6310 70.2 296 
 BRR  HZ I         036 11.85        10.3 0.26            145           70.2 296 
 PAM  EZ EP        035 53.34                             152    0.3610 75.0  41 
 PAM  EE ES        036 10.77                             152    0.2210 75.0  41 
 PAM  EZ I         036 12.53        14.2 0.48            139           75.0  41 
 RUS  HZ EP        035 54.81                             144   -0.0110  103 176 
 RUS  HE ES        036 13.30                             144   -0.5210  103 176 
 RUS  HZ I         036 14.53        11.1 0.24            124            103 176 
 PTB  HE ES        036 19.07                             133   -0.15 9  149 258 
 OCA  HZ EP        035 58.82                             131   -0.03 9  158 353 
 OCA  HE ES        036 20.04                             131   -0.94 9  158 353 
 OCA  HZ I         036 25.19        11.9 0.24            118            158 353 
 SPBC HZ EP        035 59.45                             130   -0.06 9  166 218 
 SPBC HN ES        036 21.62                             130   -0.55 9  166 218 
 SPBC HZ I         036 24.17        14.4 0.24            113            166 218 
 ZAR  HN ES        036 29.12                             123    0.54 9  203 291 
 NOR  HE ES   4    036 35.79                             119    0.93 0  237 234 
 CHI  HZ EP        036  9.26                             118    0.56 8  251 195 
 CHI  HZ I         036 43.64         2.2 0.34            105            251 195 
 ROSC BZ EP   4    036 10.83                             117    1.74 0  255 211 
 ROSC BZ I         036 45.51         5.4 0.43            105            255 211 
 SJC  HZ EP        036 25.07                             106   -0.84 6  407 327 
 SJC  HN ES   2    037  8.39                             106   -0.77 3  407 327 
 SJC  HZ I         037  9.46         1.8 0.29             99            407 327 
                                                                                
