 2015  2 5 0326 34.1 L   6.797 -73.165145.4  RSN  6 0.4 1.5LRSN                1
 GAP=134        1.07       5.3     5.6  7.8 -0.3414E+01  0.1056E+02  0.8533E+01E
 Epicentro: LOS SANTOS - SANTANDER                                             3
 ACTION:UPD 15-04-30 21:21 OP:nd   STATUS:               ID:20150205032634 L   I
 OLDACT:REG 15-02-05 14:46 OP:cam  STATUS:               ID:20150205031817     3
 2015-02-05-0318-17M.COL___281                                                 6
 STAT SP IPHASW D HRMM SECON CODA AMPLIT PERI AZIMU VELO AIN AR TRES W  DIS CAZ7
 BAR2 EZ EP        326 53.70                             171    0.0510 22.7 185 
 BAR2 EZ ES        327  8.70                             171   -0.2110 22.7 185 
 BAR2 EZ I         327  9.51         9.9 0.32            168           22.7 185 
 BRR  HZ IP     C  326 55.37                             153    0.2810 69.5 300 
 BRR  HZ I         326 55.55         8.8 0.20            152           69.5 300 
 BRR  HN ES        327 12.23                             153    0.7510 69.5 300 
 PAM  SN ES        327 13.41                             150   -0.3110 79.0  41 
 RUS  HZ EP        326 57.91                             144    0.1410  100 175 
 RUS  HN ES        327 16.19                             144   -0.0710  100 175 
 RUS  HZ I         327 18.15         3.2 0.16            144            100 175 
 PTB  HZ EP        327  0.12                             132   -0.70 9  146 259 
 PTB  HN ES        327 21.08                             132   -0.60 9  146 259 
 PTB  HZ I         327 26.35         4.2 0.18            131            146 259 
 SPBC HZ EP        327  2.82                             129    0.43 9  162 218 
 SPBC HN ES        327 24.67                             129    0.19 9  162 218 
 SPBC HZ I         327 28.53         4.3 0.22            129            162 218 
                                                                                
