 2014 11 5 0558 30.7 L   6.833 -73.153147.7  RSN 19 0.5 2.3LRSN                1
 GAP= 70        1.19       3.4     3.3  6.3 -0.1886E+01  0.4916E+01  0.4016E+01E
 Epicentro: LOS SANTOS - SANTANDER                                             3
 ACTION:UPD 14-12-19 15:39 OP:nd   STATUS:               ID:20141105055830 L   I
 OLDACT:UP  14-11-05 17:41 OP:cam  STATUS:               ID:20141105055806     3
 OLDACT:UP  14-11-05 17:40 OP:cam  STATUS:               ID:20141105055806     3
 OLDACT:UP  14-11-05 17:34 OP:cam  STATUS:               ID:20141105055806     3
 OLDACT:REG 14-11-05 13:24 OP:cam  STATUS:               ID:20141105055806     3
 2014-11-05-0558-06M.COL___268                                                 6
 STAT SP IPHASW D HRMM SECON CODA AMPLIT PERI AZIMU VELO AIN AR TRES W  DIS CAZ7
 BRR  HZ EP     D  558 52.48                             154    0.5310 68.8 296 
 BRR  HN ES        559  9.21                             154    0.7110 68.8 296 
 BRR  HN I         559 10.06        82.7 0.26            151           68.8 296 
 PAM  SZ EP     C  558 53.28                             152    0.2710 75.1  42 
 PAM  SN ES        559 10.66                             152    0.2610 75.1  42 
 PAM  SZ I         559 12.65        32.7 0.48            154           75.1  42 
 RUS  HZ EP     D  558 54.38                             143   -0.5510  104 176 
 RUS  HN ES        559 13.04                             143   -0.7810  104 176 
 RUS  HZ I         559 14.56        13.0 0.38            145            104 176 
 PTB  HZ EP        558 57.47                             132   -0.37 9  148 257 
 PTB  HN ES        559 18.26                             132   -0.73 9  148 257 
 PTB  HZ I         559 24.37        27.4 0.18            131            148 257 
 OCA  HZ EP        558 58.72                             131   -0.12 9  157 353 
 OCA  HN ES        559 20.79                             131    0.03 9  157 353 
 OCA  HZ I         559 29.10        18.4 0.20            131            157 353 
 TAM  HZ EP        558 58.68                             131   -0.04 9  157 106 
 TAM  HN ES        559 20.50                             131   -0.05 9  157 106 
 TAM  HN I         559 21.23        59.6 0.50            134            157 106 
 SPBC HZ EP        558 59.39                             129   -0.20 9  166 218 
 SPBC HN ES        559 22.17                             129    0.06 9  166 218 
 SPBC HZ I         559 26.58        34.3 0.40            129            166 218 
 NOR  HZ EP        559  6.55                             119   -0.18 8  236 234 
 NOR  HN ES        559 34.68                             119   -0.12 8  236 234 
 NOR  HZ I         559 38.20        15.5 0.36            119            236 234 
 CHI  HZ EP        559  8.58                             117   -0.31 8  252 195 
 CHI  HE ES   4    559 37.59                             117   -1.07 0  252 195 
 CHI  HZ I         559 46.58         7.3 0.62            118            252 195 
 ROSC BZ EP        559 10.15                             117    0.90 8  255 210 
 ROSC BN ES        559 40.34                             117    1.05 8  255 210 
 ROSC BZ I         559 48.32        21.5 0.45            117            255 210 
 HEL  HZ EP        559 11.69                             115    0.64 8  272 255 
 HEL  HN ES        559 43.03                             115    0.53 8  272 255 
 HEL  HZ I         559 49.15        10.5 0.36            115            272 255 
 URE  HN ES        559 42.73                             114   -0.84 7  282 291 
 GUY2CHZ EP        559 14.79                             113    0.20 7  303 234 
 GUY2CHE ES   4    559 51.24                             113    2.44 0  303 234 
 GUY2CHZ I         559 57.39        18.9 0.76                           303 234 
 CBOC HZ EP        559 18.33                             110    0.57 7  334 251 
 CBOC HE ES        559 54.00                             110   -0.45 7  334 251 
 CBOC HZ I         6 0  8.55         2.9 0.62            110            334 251 
 TOL  SZ EP   4    559 20.64                             109    1.35 0  346 224 
 TOL  SN ES        559 56.81                             109   -0.37 6  346 224 
 MON  HZ EP   4    559 17.91                             109   -1.55 0  351 308 
 MON  HN ES   4    559 56.27                             109   -1.21 0  351 308 
 MON  HZ I         559 58.92         4.3 0.40            109            351 308 
 ANIL HZ EP   4    559 22.08                             109    1.24 0  359 224 
 ANIL HN ES   4    6 0  1.76                             109    1.83 0  359 224 
 ANIL HZ I         6 0  4.65         2.8 0.34            109            359 224 
 PRA  HZ EP        559 25.04                             107    0.40 6  395 209 
 ORTC HZ EP   4    559 23.51                             106   -1.49 0  398 216 
 SJC  HZ EP        559 24.79                             106   -1.15 6  406 327 
 SJC  HN ES   4    6 0  6.83                             106   -2.17 0  406 327 
 SJC  HZ I         6 0 24.84         3.2 0.56            106            406 327 
                                                                                
