 2017 10 5 0104 59.3 L   6.416 -73.753 99.0  RSN  8 0.5 1.4LRSN                1
 GAP= 94        0.99       3.5     3.1  7.8  0.8809E+00  0.8485E+01 -0.6120E+00E
 Epicentro: SANTA HELENA DEL OPON - SANTANDER                                  3
 ACTION:UPD 17-11-07 19:28 OP:rebc STATUS:               ID:20171005010459 L   I
 OLDACT:DUP 17-10-05 14:18 OP:osc  STATUS:               ID:20171005005740d    3
 2017-10-05-0058-00M.COL___438                                                 6
 STAT SP IPHASW D HRMM SECON CODA AMPLIT PERI AZIMU VELO AIN AR TRES W  DIS CAZ7
 BAR2 EZ EP        1 5 15.64                             144    0.0110 66.0  73 
 BAR2 EZ ES        1 5 28.64                             144    0.2910 66.0  73 
 BAR2 EZ I         1 5 32.24         7.0 0.36            145           66.0  73 
 SPBC HZ EP        1 5 17.11                             134   -0.3910 91.5 203 
 SPBC HE ES        1 5 31.53                             134   -0.1310 91.5 203 
 SPBC HZ I         1 5 32.59         8.8 0.30            138           91.5 203 
 RUS  HZ EP        1 5 17.76                             134   -0.5010 94.0 128 
 RUS  HN ES        1 5 33.01                             134   -0.0110 94.0 128 
 RUS  HZ I         1 5 34.11         2.3 0.16            137           94.0 128 
 NOR  HE ES   3    1 5 42.66                             118   -0.31 2  155 233 
 PAM  EN ES   2    1 5 41.98                             119   -1.88 5  155  49 
 ZAR  HZ EP        1 5 25.50                             116    0.05 9  171 314 
 ZAR  HE ES        1 5 46.18                             116    0.36 9  171 314 
 ZAR  HZ I         1 5 49.34         3.6 0.25            117            171 314 
 YPLC HZ EP        1 5 28.21                             113    0.58 9  189 126 
 YPLC HE ES        1 5 50.19                             113    0.49 9  189 126 
 YPLC HZ I         1 5 51.76         5.6 0.22            115            189 126 
 GUY2CHZ EP        1 5 32.04                             110    0.16 8  222 234 
 GUY2CHN ES        1 5 57.13                             110   -0.15 8  222 234 
 GUY2CHZ I         1 6  3.77         2.4 0.40                           222 234 
                                                                                
