 2016 11 5 0311 12.6 L   6.814 -73.144149.5  RSN 13 0.5 2.0LRSN                1
 GAP=119        1.20       4.3     4.9  6.4 -0.3229E+01  0.2929E+01  0.9172E+01E
 Epicentro: LOS SANTOS - SANTANDER                                             3
 ACTION:UPD 17-10-26 21:04 OP:lp   STATUS:               ID:20161105031112 L   I
 OLDACT:UP  16-11-05 15:14 OP:dani STATUS:               ID:20161105030743     3
 OLDACT:UP  16-11-05 15:13 OP:dani STATUS:               ID:20161105030743     3
 OLDACT:REG 16-11-05 13:30 OP:dani STATUS:               ID:20161105030743     3
 2016-11-05-0308-00M.COL___352                                                 6
 STAT SP IPHASW D HRMM SECON CODA AMPLIT PERI AZIMU VELO AIN AR TRES W  DIS CAZ7
 BAR2 EZ EP     D  311 32.65                             170   -0.1110 24.9 190 
 BAR2 EZ ES        311 47.99                             170   -0.4510 24.9 190 
 BAR2 EZ I         311 50.46        29.8 0.30            166           24.9 190 
 BRR  HZ EP        311 34.49                             153    0.3210 70.6 297 
 BRR  HN ES        311 51.63                             153    0.6810 70.6 297 
 BRR  HZ I         311 55.47        21.4 0.28            149           70.6 297 
 PAM  EZ EP        311 35.59                             152    0.4110 76.1  40 
 PAM  EN ES        311 52.92                             152    0.1510 76.1  40 
 PAM  EZ I         311 55.72        12.5 0.28            154           76.1  40 
 PTB  HZ EP        311 39.45                             133   -0.51 9  148 258 
 PTB  HN ES        312  0.97                             133   -0.29 9  148 258 
 PTB  HZ I         312  3.36         9.0 0.26            128            148 258 
 SPBC HZ EP        311 41.59                             130    0.04 9  164 219 
 SPBC HN ES        312  3.49                             130   -0.61 9  164 219 
 SPBC HZ I         312 10.54        18.0 0.26            125            164 219 
 ZAR  HZ EP        311 45.78                             123    0.49 9  204 292 
 ZAR  HE ES        312 10.02                             123   -0.73 9  204 292 
 ZAR  HZ I         312 21.08         8.1 0.18            120            204 292 
 NOR  HZ EP        311 49.17                             119    0.47 8  236 234 
 NOR  HN ES        312 17.11                             119    0.29 8  236 234 
 NOR  HZ I         312 22.38         6.1 0.20            116            236 234 
 CHI  HZ EP        311 50.96                             118    0.25 8  250 195 
 CHI  HN ES        312 20.41                             118    0.00 8  250 195 
 CHI  HZ I         312 26.21         3.8 0.31            115            250 195 
 ROSC BZ EP        311 51.60                             117    0.48 8  254 211 
 ROSC BZ I         312 30.84        10.1 0.38            114            254 211 
 HEL  HZ EP   4    311 51.99                             115   -1.11 0  273 255 
 HEL  HN ES   4    312 26.54                             115    1.87 0  273 255 
 HEL  HZ I         312 32.79         5.9 0.25            112            273 255 
 PTGC HZ EP        311 55.74                             112   -1.08 7  310 159 
 PTGC HN ES   4    312 29.04                             112   -2.24 0  310 159 
 PTGC HZ I         312 30.11         6.7 0.27            110            310 159 
 PRA  HZ EP        312  6.38                             107   -0.08 6  393 209 
 PRA  HN ES        312 49.52                             107    1.09 6  393 209 
 PRA  HZ I         312 55.05         5.0 0.42            105            393 209 
 SJC  HZ EP        312  6.90                             106   -1.29 6  408 327 
 SJC  HN ES   4    312 48.29                             106   -3.22 0  408 327 
 SJC  HZ I         312 51.86         1.3 0.29            105            408 327 
                                                                                
