 2014 11 5 0640 28.6 L   6.917 -73.270133.0  RSN  6 0.5 1.4LRSN                1
 GAP=116        1.16       4.3     5.8  9.7 -0.6195E+01  0.4960E+01  0.9301E+01E
 Epicentro: BETULIA - SANTANDER                                                3
 ACTION:UPD 14-12-19 15:39 OP:nd   STATUS:               ID:20141105064028 L   I
 OLDACT:UP  14-11-05 17:43 OP:cam  STATUS:               ID:20141105063815     3
 OLDACT:REG 14-11-05 13:24 OP:cam  STATUS:               ID:20141105063815     3
 2014-11-05-0638-15M.COL___268                                                 6
 STAT SP IPHASW D HRMM SECON CODA AMPLIT PERI AZIMU VELO AIN AR TRES W  DIS CAZ7
 BRR  HZ EP        640 47.85                             157    0.4110 53.1 293 
 BRR  HE ES        641  2.49                             157    0.3810 53.1 293 
 BRR  HZ I         641  4.34         5.2 0.16            157           53.1 293 
 PAM  SZ EP        640 49.97                             148    0.3910 78.5  53 
 PAM  SN ES        641  6.27                             148    0.3510 78.5  53 
 PAM  SZ I         641  7.52         4.3 0.22            152           78.5  53 
 RUS  HZ EP        640 51.98                             137   -0.3510  115 170 
 RUS  HE ES        641 10.24                             137   -0.5610  115 170 
 RUS  HZ I         641 11.50         2.8 0.24            139            115 170 
 PTB  HZ EP        640 53.92                             131    0.27 9  138 252 
 PTB  HN ES   1    641 12.56                             131   -0.60 7  138 252 
 PTB  HZ I         641 16.20         1.9 0.16            132            138 252 
 OCA  HN ES        641 14.02                             129   -0.91 9  146 358 
 SPBC HZ EP   1    640 56.34                             126   -0.09 7  166 212 
 SPBC HN ES        641 18.41                             126    0.29 9  166 212 
 SPBC HN I         641 21.15         7.1 0.24            127            166 212 
                                                                                
