 2015  8 5 0529 36.1 L   6.822 -73.076143.2  RSN 14 0.5 2.1LRSN                1
 GAP=190        1.08       2.9     5.2  5.9  0.4866E+00  0.8713E+01  0.7712E+00E
 Epicentro: LOS SANTOS - SANTANDER                                             3
 ACTION:UPD 15-09-15 23:00 OP:cam  STATUS:               ID:20150805052936 L   I
 OLDACT:UP  15-08-05 16:37 OP:mh   STATUS:               ID:20150805052749     3
 OLDACT:UP  15-08-05 16:37 OP:mh   STATUS:               ID:20150805052749     3
 OLDACT:UP  15-08-05 16:37 OP:mh   STATUS:               ID:20150805052749     3
 OLDACT:UP  15-08-05 16:36 OP:mh   STATUS:               ID:20150805052749     3
 OLDACT:UP  15-08-05 16:36 OP:mh   STATUS:               ID:20150805052749     3
 OLDACT:UP  15-08-05 16:34 OP:mh   STATUS:               ID:20150805052749     3
 OLDACT:UP  15-08-05 16:33 OP:mh   STATUS:               ID:20150805052749     3
 OLDACT:REG 15-08-05 14:22 OP:mh   STATUS:               ID:20150805052749     3
 2015-08-05-0527-49M.COL___346                                                 6
 STAT SP IPHASW D HRMM SECON CODA AMPLIT PERI AZIMU VELO AIN AR TRES W  DIS CAZ7
 BAR2 EZ EP        529 55.66                             168    0.1610 28.0 205 
 BAR2 EZ ES        530 10.48                             168   -0.1710 28.0 205 
 BAR2 EZ I         530 11.56        21.2 0.22            164           28.0 205 
 BRR  HZ IP     D  529 57.58                             150    0.3010 77.0 294 
 BRR  HN ES        530 14.56                             150    0.7310 77.0 294 
 BRR  HZ I         530 16.40        17.8 0.24            144           77.0 294 
 RUS  HZ EP        529 59.63                             143   -0.1110  103 180 
 RUS  HN ES        530 17.61                             143   -0.5810  103 180 
 RUS  HZ I         530 18.40        10.6 0.38            143            103 180 
 OCA  HZ EP        530  4.49                             129    0.43 9  159 350 
 OCA  HN ES        530 25.80                             129   -0.08 9  159 350 
 OCA  HZ I         530 30.87        23.4 0.14            129            159 350 
 ZAR  HZ EP        530  8.70                             121   -0.30 8  210 291 
 ZAR  HN ES        530 34.60                             121   -0.08 8  210 291 
 ZAR  HZ I         530 39.40        15.4 0.42            119            210 291 
 NOR  HZ EP        530 12.10                             117   -0.39 8  242 235 
 NOR  HN ES        530 40.34                             117   -0.55 8  242 235 
 NOR  HZ I         530 45.89        10.8 0.16            116            242 235 
 SML  HZ EP        530 12.41                             117   -0.26 8  245 333 
 SML  HE ES        530 40.80                             117   -0.42 8  245 333 
 SML  HZ I         530 41.48        15.8 0.10            116            245 333 
 CHI  HZ EP        530 13.57                             116   -0.55 8  253 197 
 CHI  HN ES        530 44.65                             116    0.86 8  253 197 
 CHI  HZ I         530 48.37         6.0 0.24            116            253 197 
 HEL  HZ EP        530 17.58                             113    0.53 7  280 256 
 HEL  HN ES        530 48.26                             113   -0.75 7  280 256 
 HEL  HZ I         530 54.71         3.6 0.36            112            280 256 
 URE  HZ EP   4    530 16.65                             113   -1.07 0  290 291 
 URE  HN ES   4    530 54.71                             113    4.51 0  290 291 
 URE  HZ I         530 59.34        14.7 0.20            112            290 291 
 GUY2CHZ EP   1    530 20.52                             111    0.08 5  309 235 
 GUY2CHN ES   4 C  530 56.94                             111    1.90 0  309 235 
 GUY2CHZ I         531  0.34         5.4 0.36                           309 235 
 TOL  SZ EP        530 25.48                             108    0.43 6  351 225 
 TOL  SN ES        531  4.23                             108    0.97 6  351 225 
 TOL  SZ I         531  8.30         4.3 0.28            108            351 225 
 MON  HZ EP   4    530 23.18                             108   -2.32 0  358 307 
 MON  HN ES   4    531  1.61                             108   -2.44 0  358 307 
 MON  HZ I         531 16.11         3.4 0.60            107            358 307 
 SJC  HZ EP   4    530 29.84                             105   -1.97 0  411 326 
 SJC  HN ES   4    531 11.03                             105   -4.25 0  411 326 
 SJC  HZ I         531 15.41         2.2 0.48            105            411 326 
                                                                                
