 2011  7 5 0950 16.7 L   6.777 -73.040148.6  RSN  8 0.5 1.5LRSN                1
 GAP=152        1.05       4.7     9.5  8.7 -0.7704E+01  0.1003E+02 -0.2057E+01E
 Epicentro: CEPITA - SANTANDER                                                 3
 ACTION:UPD 12-07-25 13:58 OP:epov STATUS:               ID:20110705095016 L   I
 2011-07-05-0945-47S.COL___139                                                 6
 STAT SP IPHASW D HRMM SECON CODA AMPLIT PERI AZIMU VELO AIN AR TRES W  DIS CAZ7
 BAR2 SZ EP   1    950 35.69                             170   -1.00 7 25.8 218 
 BAR2 SZ ES   1    950 51.59                             170   -0.72 7 25.8 218 
 BAR2 SZ I         950 54.59         7.4 0.30                          25.8 218 
 GIR2 SZ EP   1    950 36.78                             165   -0.07 7 37.4 333 
 PAM  SZ EP   1    950 39.46                             153    0.55 7 72.7  31 
 PAM  SN ES        950 56.54                             153    0.2710 72.7  31 
 BRR  HZ EP   1    950 38.59                             149   -0.21 7 82.7 296 
 BRR  HN ES   1    950 56.36                             149    0.29 7 82.7 296 
 BRR  HZ I         951  1.43         9.8 0.23                          82.7 296 
 RUS  HZ EP   1    950 41.08                             145    0.57 7 97.9 183 
 RUS  HN ES   1    950 59.60                             145    0.49 7 97.9 183 
 RUS  HZ I         951  1.47         4.4 0.41                          97.9 183 
 GRA  SZ EP   1    950 41.77                             138   -0.35 7  125  12 
 GRA  SZ ES   1    951  1.22                             138   -0.75 7  125  12 
 GRA  SZ I         951  3.01         2.3 0.14                           125  12 
 OCA  SZ EP   1    950 45.40                             129   -0.20 7  165 349 
 OCA  SZ ES        951  8.70                             129    0.53 9  165 349 
 OCA  SZ I         951 11.63         4.7 0.16                           165 349 
 NOR  SZ EP   2    950 53.52                             118    0.08 4  243 237 
                                                                                
