 2013  1 5 0525 41.7 L   6.634 -73.226148.2  RSN  4 0.3 1.5LRSN                1
 GAP=179        0.90       7.0     6.6  7.3  0.2182E+02  0.7489E+01  0.3060E+01E
 Epicentro: BARICHARA - SANTANDER                                              3
 ACTION:UPD 13-02-15 09:12 OP:ep   STATUS:               ID:20130105052541 L   I
 2013-01-05-0519-42M.COL___193                                                 6
 STAT SP IPHASW D HRMM SECON CODA AMPLIT PERI AZIMU VELO AIN AR TRES W  DIS CAZ7
 BAR2 SZ EP        526  1.09                             177   -0.3010 6.66 133 
 BAR2 SZ I         526  2.19         7.3 0.50            172           6.66 133 
 BAR2 SZ ES        526 16.32                             177   -0.4410 6.66 133 
 BRR  HZ EP        526  3.13                             152   -0.1810 75.0 314 
 BRR  HZ I         526  3.38         6.1 0.26            150           75.0 314 
 BRR  HE ES        526 20.76                             152    0.5810 75.0 314 
 RUS  HZ EP        526  4.96                             149    0.4310 83.4 169 
 RUS  HN ES        526 22.48                             149    0.1410 83.4 169 
 RUS  HN I         526 24.10         5.4 0.34            147           83.4 169 
 PTB  HZ EP        526  7.78                             135   -0.07 9  136 266 
 PTB  HN ES        526 28.07                             135   -0.19 9  136 266 
 PTB  HN I         526 34.55         6.1 0.46            131            136 266 
                                                                                
