 2016 10 5 0927 41.2 L   6.651 -73.117136.0  RSN  4 0.2 1.1LRSN                1
 GAP=146        0.46       4.0     2.6  6.6 -0.3993E+01  0.7011E+01 -0.4494E+01E
 Epicentro: VILLANUEVA - SANTANDER                                             3
 ACTION:UPD 16-11-09 19:16 OP:rebc STATUS:               ID:20161005092741 L   I
 OLDACT:REG 16-10-05 13:36 OP:dani STATUS:               ID:20161005091739     3
 2016-10-05-0918-00M.COL___351                                                 6
 STAT SP IPHASW D HRMM SECON CODA AMPLIT PERI AZIMU VELO AIN AR TRES W  DIS CAZ7
 RUS  HZ EP   4    928  5.16                             146    2.31 0 83.9 177 
 RUS  HN ES   2    928 19.92                             146    0.21 5 83.9 177 
 RUS  HZ I         928 23.85         0.9 0.20            150           83.9 177 
 PAM  EZ EP        928  3.32                             145    0.1210 89.0  31 
 PAM  EN ES        928 20.20                             145   -0.1210 89.0  31 
 PAM  EZ I         928 23.30         2.1 0.34            150           89.0  31 
 PTB  HZ EP   2    928  7.60                             129    0.09 5  149 265 
 PTB  HN ES        928 27.82                             129   -0.18 9  149 265 
 PTB  HZ I         928 30.41         2.4 0.26            133            149 265 
 ZAR  HZ EP   2    928 13.63                             118   -0.46 4  214 296 
 ZAR  HE ES        928 39.95                             118    0.24 8  214 296 
 ZAR  HZ I         928 45.49         1.7 0.26            122            214 296 
                                                                                
