 2016 10 5 0650 51.9 L   6.807 -73.149149.1  RSN 11 0.4 1.8LRSN                1
 GAP=136        0.97       3.2     4.7  6.7 -0.3823E+01  0.2185E+01  0.5124E+01E
 Epicentro: LOS SANTOS - SANTANDER                                             3
 ACTION:UPD 16-11-09 19:16 OP:rebc STATUS:               ID:20161005065051 L   I
 OLDACT:UP  16-10-05 18:03 OP:dani STATUS:               ID:20161005064746     3
 OLDACT:UP  16-10-05 18:01 OP:dani STATUS:               ID:20161005064746     3
 OLDACT:UP  16-10-05 18:01 OP:dani STATUS:               ID:20161005064746     3
 OLDACT:REG 16-10-05 13:24 OP:dani STATUS:               ID:20161005064746     3
 2016-10-05-0648-00M.COL___351                                                 6
 STAT SP IPHASW D HRMM SECON CODA AMPLIT PERI AZIMU VELO AIN AR TRES W  DIS CAZ7
 BRR  HZ EP        651 13.58                             153    0.2510 70.5 298 
 BRR  HN ES        651 30.63                             153    0.5410 70.5 298 
 BRR  HZ I         651 34.57        13.6 0.28            125           70.5 298 
 PAM  EZ EP        651 14.68                             151    0.2710 77.0  40 
 PAM  EN ES        651 31.82                             151   -0.1810 77.0  40 
 PAM  EZ I         651 35.20         4.2 0.18            130           77.0  40 
 RUS  HZ EP        651 15.96                             144   -0.0410  101 176 
 RUS  HN ES        651 34.61                             144   -0.2210  101 176 
 RUS  HZ I         651 35.78         6.7 0.26            125            101 176 
 PTB  HZ EP        651 18.85                             133   -0.24 9  148 259 
 PTB  HN ES        651 39.45                             133   -0.87 9  148 259 
 PTB  HZ I         651 46.12         8.8 0.32            109            148 259 
 OCA  HZ EP        651 19.84                             130   -0.52 9  159 353 
 OCA  HN ES        651 42.76                             130    0.18 9  159 353 
 OCA  HZ I         651 45.31        15.4 0.16            108            159 353 
 SPBC HZ EP        651 20.94                             130    0.29 9  164 219 
 SPBC HZ I         651 47.55        14.5 0.20            109            164 219 
 ZAR  HN ES   4    651 47.64                             123   -2.25 0  203 292 
 NOR  HZ EP   4    651 26.19                             119   -1.61 0  235 234 
 NOR  HN ES        651 56.42                             119    0.58 8  235 234 
 NOR  HZ I         652  2.57         5.8 0.16            102            235 234 
 CHI  HZ EP        651 29.84                             118    0.02 8  249 195 
 CHI  HN ES        651 59.41                             118   -0.01 8  249 195 
 CHI  HZ I         652  4.53         4.0 0.26            102            249 195 
 ROSC BE ES   4    652  2.35                             117    2.21 0  253 211 
 HEL  HZ EP   4    651 33.07                             115    0.84 0  272 256 
 HEL  HZ I         652  8.10         2.6 0.31            100            272 256 
 URE  HE ES   4    652  2.37                             114   -2.77 0  283 292 
 GUY2CHZ EP   4    651 37.09                             113    1.45 0  301 235 
 GUY2CHZ I         652 17.95         4.7 0.34                           301 235 
 SJC  HZ EP   4    651 45.86                             106   -1.57 0  408 327 
 SJC  HZ I         652 36.76         1.3 0.41             96            408 327 
                                                                                
