 2010  8 5 0117 45.6 L   6.786 -73.110139.8  RSN  5 0.6 1.5LRSN                1
 GAP=163        1.07       8.3    18.2 17.0 -0.3115E+02 -0.1059E+03 -0.1698E+02E
 Epicentro: LOS SANTOS - SANTANDER                                             3
 ACTION:UP  10-09-07 10:52 OP:vdl  STATUS:               ID:20100805011745 L   I
 2010-08-05-0115-43S.COL___126                                                 6
 STAT SP IPHASW D HRMM SECON CODA AMPLIT PERI AZIMU VELO SNR AR TRES W  DIS CAZ7
 BRR  HZ EP   2    118  6.50                             150     0.1 5   75 298 
 BRR  HN ES   2    118 22.87                             150     0.3 5   75 298 
 RUS  HZ EP   2    118  8.37                             143    -0.3 5   99 178 
 RUS  HE ES   2    118 26.60                             143    -0.1 5   99 178 
 RUS  HZ I         118 28.72         3.3 0.40                            99 178 
 GUE  SZ EP        118  9.54                             138    -0.310  117  10 
 GUE  SZ ES   2    118 27.74                             138    -1.0 5  117  10 
 GRA  SZ EP        118 11.10                             135     0.710  126  16 
 GRA  SZ ES   2    118 30.15                             135     0.5 5  126  16 
 GRA  SZ I         118 33.12         5.8 0.29                           126  16 
 OCA  SZ EP   2    118 12.77                             128    -0.9 5  162 352 
 OCA  SZ I         118 39.51         5.9 0.28                           162 352 
                                                                                
