 2016  5 5 0801 44.8 L   6.789 -73.337126.5  RSN 10 0.5 1.6LRSN                1
 GAP= 93        1.22       3.8     4.0  7.4 -0.9131E+00  0.1177E+02 -0.2989E+01E
 Epicentro: ZAPATOCA - SANTANDER                                               3
 ACTION:UPD 16-08-18 17:42 OP:cam  STATUS:               ID:20160505080144 L   I
 OLDACT:REG 16-05-05 13:11 OP:ak   STATUS:               ID:20160505075745     3
 2016-05-05-0757-45M.COL___294                                                 6
 STAT SP IPHASW D HRMM SECON CODA AMPLIT PERI AZIMU VELO AIN AR TRES W  DIS CAZ7
 BAR2 EZ EP        8 2  2.54                             167    0.2810 27.7 142 
 BAR2 EZ ES        8 2 15.88                             167    0.0210 27.7 142 
 BAR2 EZ I         8 2 16.68        30.3 0.18            169           27.7 142 
 BRR  HZ IP     D  8 2  3.32                             155    0.3610 54.3 310 
 BRR  HN ES        8 2 17.60                             155    0.4910 54.3 310 
 BRR  HZ I         8 2 18.28         8.1 0.14            154           54.3 310 
 PAM  EZ EP        8 2  6.64                             142    0.4910 93.1  49 
 PAM  EN ES        8 2 22.73                             142   -0.0510 93.1  49 
 PAM  EZ I         8 2 24.90        10.2 0.36            144           93.1  49 
 RUS  HZ EP        8 2  7.25                             139    0.3210  103 164 
 RUS  HN ES        8 2 23.77                             139   -0.4110  103 164 
 RUS  HZ I         8 2 26.41         2.7 0.12            141            103 164 
 PTB  HZ EP        8 2  7.42                             132   -0.9010  127 257 
 PTB  HN ES        8 2 26.11                             132   -0.5410  127 257 
 PTB  HZ I         8 2 28.74         6.9 0.26            132            127 257 
 SPBC HZ EP   2    8 2 10.41                             127   -0.18 5  150 213 
 SPBC HN ES        8 2 30.66                             127   -0.03 9  150 213 
 SPBC HZ I         8 2 32.55         4.6 0.22            128            150 213 
 OCA  HZ EP   2    8 2 11.06                             125   -0.66 5  160   1 
 OCA  HN ES        8 2 31.78                             125   -0.92 9  160   1 
 OCA  HZ I         8 2 34.51        14.2 0.48            126            160   1 
 ZAR  HZ EP        8 2 14.57                             121    0.49 9  185 295 
 ZAR  HN ES        8 2 37.87                             121    0.98 9  185 295 
 ZAR  HZ I         8 2 44.99         5.6 0.44            121            185 295 
 URE  HZ EP        8 2 22.69                             111   -0.16 8  265 294 
 URE  HN ES        8 2 51.94                             111   -0.58 8  265 294 
 URE  HZ I         8 2 53.00         2.9 0.22            112            265 294 
 CBOC HZ EP   2    8 2 29.26                             107    0.64 3  313 251 
 CBOC HE ES        8 3  2.81                             107    0.02 7  313 251 
 CBOC HZ I         8 3  6.80         0.8 0.18            108            313 251 
                                                                                
