 2016 11 5 0758 33.2 L   6.789 -73.137146.5  RSN 12 0.5 1.9LRSN                1
 GAP=155        1.02       4.2     4.3  6.2 -0.4248E+01  0.7251E+01  0.5370E+01E
 Epicentro: LOS SANTOS - SANTANDER                                             3
 ACTION:UPD 17-10-26 21:04 OP:lp   STATUS:               ID:20161105075833 L   I
 OLDACT:UP  16-11-05 15:00 OP:dnl  STATUS:               ID:20161105075745     3
 OLDACT:REG 16-11-05 14:17 OP:dani STATUS:               ID:20161105075745     3
 2016-11-05-0758-00M.COL___352                                                 6
 STAT SP IPHASW D HRMM SECON CODA AMPLIT PERI AZIMU VELO AIN AR TRES W  DIS CAZ7
 BAR2 EZ EP        758 52.98                             171    0.0310 22.3 193 
 BAR2 EZ ES        759  7.83                             171   -0.4910 22.3 193 
 BAR2 EZ I         759  9.12        20.4 0.24            169           22.3 193 
 BRR  HZ EP        758 54.72                             152    0.1610 72.7 299 
 BRR  HN ES        759 11.90                             152    0.7110 72.7 299 
 BRR  HZ I         759 14.64         8.1 0.12            152           72.7 299 
 PAM  EZ EP        758 55.74                             151    0.1810 77.7  38 
 PAM  EN ES        759 12.98                             151    0.0110 77.7  38 
 PAM  EZ I         759 15.05        14.8 0.54            155           77.7  38 
 PTB  HZ EP        758 59.60                             132   -0.75 9  149 259 
 PTB  HE ES        759 21.37                             132   -0.11 9  149 259 
 PTB  HZ I         759 23.58         9.0 0.16            132            149 259 
 SPBC HZ EP        759  1.81                             129    0.03 9  163 220 
 SPBC HE ES        759 24.52                             129    0.49 9  163 220 
 SPBC HZ I         759 30.27        12.9 0.22            129            163 220 
 ZAR  HZ EP        759  5.39                             122   -0.50 8  205 292 
 ZAR  HN ES        759 30.94                             122   -0.40 8  205 292 
 ZAR  HZ I         759 36.25         9.4 0.36            123            205 292 
 NOR  HZ EP   2    759  8.83                             119   -0.21 4  235 235 
 NOR  HN ES        759 36.38                             119   -0.57 8  235 235 
 NOR  HZ I         759 39.45         4.9 0.14            119            235 235 
 CHI  HZ EP   2    759 10.71                             117   -0.18 4  248 195 
 CHI  HN ES        759 40.29                             117    0.04 8  248 195 
 CHI  HZ I         759 44.16         5.6 0.52            118            248 195 
 CBOC HZ EP        759 21.39                             110    1.13 7  334 252 
 CBOC HN ES        759 57.52                             110    0.59 7  334 252 
 CBOC HZ I         8 0  1.03         1.4 0.18            110            334 252 
 PRA  HZ EP   2    759 26.94                             107    0.21 3  391 210 
 PRA  HE ES   4    8 0 10.08                             107    1.63 0  391 210 
 PRA  HZ I         8 0 15.15         3.1 0.30            107            391 210 
 ORTC HZ EP   2    759 27.21                             106    0.06 3  395 216 
 ORTC HN ES   4    8 0 10.68                             106    1.49 0  395 216 
 ORTC HZ I         8 0 14.19         2.4 0.34            107            395 216 
 SJC  HZ EP   4    759 26.81                             106   -2.21 0  411 327 
 SJC  HN ES   4    8 0  8.26                             106   -4.26 0  411 327 
 SJC  HZ I         8 0 14.52         1.2 0.28            107            411 327 
                                                                                
