 2017  7 5 0131 29.7 L   6.710 -73.183146.3  RSN  5 0.3 1.2LRSN                1
 GAP=202        0.70       8.2     5.7  6.4  0.1309E+02  0.9010E+01  0.1047E+02E
 Epicentro: VILLANUEVA - SANTANDER                                             3
 ACTION:UPD 17-08-30 15:29 OP:rebc STATUS:               ID:20170705013129 L   I
 OLDACT:REG 17-07-05 12:30 OP:edw  STATUS:               ID:20170705012740     3
 2017-07-05-0128-00M.COL___377                                                 6
 STAT SP IPHASW D HRMM SECON CODA AMPLIT PERI AZIMU VELO AIN AR TRES W  DIS CAZ7
 BAR2 EZ ES        132  4.16                             175   -0.3310 13.0 180 
 BRR  HZ EP        131 50.96                             152   -0.0710 73.1 307 
 BRR  HZ I         132  7.91         6.2 0.42            138           73.1 307 
 BRR  HN ES        132  8.02                             152    0.3610 73.1 307 
 PTB  HZ EP        131 56.06                             133   -0.16 9  142 262 
 PTB  HE ES        132 16.95                             133    0.06 9  142 262 
 PTB  HZ I         132 20.51         1.0 0.12            126            142 262 
 YPLC HZ EP   2    131 59.82                             128    0.91 4  170 149 
 ZAR  HN ES   2    132 27.25                             122   -0.32 4  204 295 
                                                                                
