 2013  8 5 0750  3.7 L   6.072 -73.912 16.9  RSN  9 0.5 1.6LRSN                1
 GAP= 99        1.00       3.2     2.4  5.3 -0.1951E+01  0.2150E+01 -0.6463E+01E
 Epicentro: EL PEON - SANTANDER                                                3
 ACTION:UPD 14-01-14 08:59 OP:ep   STATUS:               ID:20130805075003 L   I
 OLDACT:REG 13-08-05 08:02 OP:jn   STATUS:               ID:20130805074959     3
 2013-08-05-0749-59M.COL___269                                                 6
 STAT SP IPHASW D HRMM SECON CODA AMPLIT PERI AZIMU VELO AIN AR TRES W  DIS CAZ7
 SPBC HZ EP   1    750 12.62                             106    0.47 8 49.7 201 
 PTB  HN ES   1    750 26.42                             100   -0.03 8 79.4 311 
 PTB  HZ I         750 27.44        23.2 0.10            103           79.4 311 
 RUS  HZ EP   1    750 19.01                              99   -0.13 8 93.9 102 
 RUS  HN ES   1    750 30.66                              99   -0.55 8 93.9 102 
 RUS  HZ I         750 31.17         5.0 0.56            101           93.9 102 
 BAR2 SZ EP   1    750 18.89                              98   -0.77 8 99.2  54 
 BAR2 SZ I         750 35.33         8.7 0.38            100           99.2  54 
 BRR  HN ES   1    750 36.81                              97    0.44 8  117  11 
 NOR  HZ IP     D  750 22.77                              96    0.1710  120 242 
 NOR  HE ES        750 37.40                              96    0.0310  120 242 
 NOR  HZ I         750 38.96         9.3 0.32             56            120 242 
 HEL  HZ EP     D  750 30.64                              56   -0.05 9  179 274 
 HEL  HN ES   1    750 51.46                              56   -0.30 7  179 274 
 HEL  HZ I         750 52.88        13.7 0.26             56            179 274 
 ZAR  HZ EP   2    750 31.14                              56   -0.27 4  189 326 
 ZAR  HN ES   1    750 52.15                              56   -0.90 7  189 326 
 ZAR  HZ I         750 53.02         6.2 0.26             56            189 326 
 PAM  SZ EP   1    750 33.70                              56    1.05 7  194  44 
 PAM  SN ES   1    750 55.99                              56    0.73 7  194  44 
 PAM  SZ I         750 59.66        12.3 0.30             56            194  44 
                                                                                
