 2017 12 5 0310 10.0 L   6.753 -73.172145.8  RSN  9 0.5 1.7LRSN                1
 GAP=109        1.27       4.5     4.7  8.8  0.6098E+01  0.1328E+01 -0.1071E+02E
 Epicentro: LOS SANTOS - SANTANDER                                             3
 ACTION:UPD 18-01-04 13:17 OP:rebc STATUS:               ID:20171205031010 L   I
 OLDACT:REG 17-12-05 13:30 OP:y    STATUS:               ID:20171205030737     3
 2017-12-05-0308-00M.COL___479                                                 6
 STAT SP IPHASW D HRMM SECON CODA AMPLIT PERI AZIMU VELO AIN AR TRES W  DIS CAZ7
 BAR2 EZ EP        310 29.61                             173    0.0510 17.8 184 
 BAR2 EZ ES        310 44.31                             173   -0.4910 17.8 184 
 BAR2 EZ I         310 45.66        11.5 0.18            173           17.8 184 
 RUS  HZ EP        310 32.89                             145   -0.5410 95.7 174 
 RUS  HN ES        310 52.21                             145    0.5210 95.7 174 
 RUS  HZ I         310 53.61         4.1 0.36            147           95.7 174 
 PTB  HZ EP        310 36.82                             133    0.17 9  144 261 
 PTB  HN ES        310 57.28                             133   -0.14 9  144 261 
 PTB  HZ I         310 59.58         5.0 0.30            133            144 261 
 TAM  HZ EP        310 37.77                             130   -0.08 9  157 103 
 SPBC HZ EP        310 38.75                             130    0.77 9  157 219 
 SPBC HN ES        310 59.33                             130   -0.45 9  157 219 
 OCA  HZ EP        310 37.99                             129   -0.81 9  165 354 
 OCA  HN ES        311  1.87                             129    0.64 9  165 354 
 YPLC HZ ES        311  2.72                             127    0.19 9  174 150 
 ZAR  HZ EP        310 42.65                             122    0.25 9  203 294 
 ZAR  HN ES        311  8.38                             122    0.72 9  203 294 
 ZAR  HZ I         311 16.28         7.3 0.46            123            203 294 
 URE  HN ES        311 22.09                             114   -0.90 7  283 293 
                                                                                
