 2014  7 5 0118 39.6 L   6.825 -73.192133.3  RSN  5 0.3 1.7LRSN                1
 GAP=235        0.84       5.8     5.9  6.9  0.6323E+00  0.4841E+01  0.9747E+01E
 Epicentro: ZAPATOCA - SANTANDER                                               3
 ACTION:UPD 15-03-16 20:41 OP:nd   STATUS:               ID:20140705011839 L   I
 OLDACT:UP  14-07-05 15:16 OP:cam  STATUS:               ID:20140705011001d    3
 OLDACT:DUP 14-07-05 15:14 OP:cam  STATUS:               ID:20140705011001d    3
 2014-07-05-0110-00M.COL___279                                                 6
 STAT SP IPHASW D HRMM SECON CODA AMPLIT PERI AZIMU VELO AIN AR TRES W  DIS CAZ7
 BAR2 SZ EP   1    118 58.12                             168    0.33 7 25.8 178 
 BAR2 SZ ES        119 12.10                             168    0.1210 25.8 178 
 BAR2 SZ I         119 14.56        13.0 0.34            168           25.8 178 
 BRR  HZ IP     C  118 59.52                             152    0.4410 65.4 298 
 BRR  HN ES        119 13.77                             152   -0.5010 65.4 298 
 BRR  HZ I         119 18.10         8.5 0.46            153           65.4 298 
 RUS  HZ EP   1    119  2.10                             140   -0.30 7  104 173 
 PTB  HZ EP        119  4.79                             130   -0.38 9  143 257 
 PTB  HE ES        119 25.54                             130    0.43 9  143 257 
 PTB  HZ I         119 27.31         5.2 0.16            132            143 257 
 SPBC HZ EP   1    119  6.94                             126   -0.15 7  162 217 
 SPBC HN ES        119 28.45                             126   -0.07 9  162 217 
 SPBC HN I         119 32.27        11.1 0.12            128            162 217 
                                                                                
