 2015  9 5 0703  1.7 L   6.831 -73.161143.3  RSN 16 0.6 2.2LRSN                1
 GAP= 69        1.33       3.3     3.8  6.1 -0.1929E+01  0.4610E+01  0.1740E+01E
 Epicentro: LOS SANTOS - SANTANDER                                             3
 ACTION:UPD 15-10-28 16:24 OP:cam  STATUS:               ID:20150905070301 L   I
 OLDACT:UP  15-09-05 17:05 OP:stll STATUS:               ID:20150905065747     3
 OLDACT:REG 15-09-05 12:40 OP:stll STATUS:               ID:20150905065747     3
 2015-09-05-0657-47M.COL___355                                                 6
 STAT SP IPHASW D HRMM SECON CODA AMPLIT PERI AZIMU VELO AIN AR TRES W  DIS CAZ7
 BAR2 EZ IP     C  7 3 21.27                             169    0.2010 26.5 185 
 BAR2 EZ I         7 3 21.58        35.2 0.32            170           26.5 185 
 BAR2 EZ ES        7 3 35.92                             169   -0.2810 26.5 185 
 BRR  HZ IP     C  7 3 23.08                             153    0.7110 68.1 297 
 BRR  HN ES        7 3 39.91                             153    1.3810 68.1 297 
 BRR  HZ I         7 3 43.29        29.4 0.36            147           68.1 297 
 PAM  EZ EP     C  7 3 23.88                             151    0.3510 75.9  42 
 PAM  EN ES        7 3 40.96                             151    0.3810 75.9  42 
 PAM  EZ I         7 3 43.12        30.6 0.50            149           75.9  42 
 RUS  HZ EP        7 3 25.21                             142   -0.2210  104 175 
 RUS  HN ES        7 3 43.64                             142   -0.3410  104 175 
 RUS  HZ I         7 3 45.71        18.5 0.30            142            104 175 
 CPBEREZ EP        7 3 28.24                             132   -0.11 9  147 257 
 PTB  HZ EP        7 3 27.91                             132   -0.43 9  147 257 
 PTB  HE ES        7 3 49.05                             132   -0.11 9  147 257 
 CPBEREE ES        7 3 48.21                             132   -0.95 9  147 257 
 PTB  HZ I         7 3 51.68        16.5 0.54            128            147 257 
 OCA  HZ EP        7 3 29.32                             130   -0.12 9  157 354 
 OCA  HN ES        7 3 50.82                             130   -0.29 9  157 354 
 OCA  HZ I         7 3 54.30        35.1 0.26            126            157 354 
 TAM  HZ IP     C  7 3 29.69                             129    0.31 9  158 106 
 TAM  HZ I         7 3 30.11        18.1 0.44            130            158 106 
 TAM  HN ES        7 3 50.47                             129   -0.54 9  158 106 
 SPBC HZ EP        7 3 30.22                             128    0.09 9  165 218 
 SPBC HN ES        7 3 52.47                             128    0.13 9  165 218 
 SPBC HZ I         7 3 55.67        22.6 0.60            126            165 218 
 ZAR  HZ EP        7 3 34.05                             122    0.40 9  201 291 
 ZAR  HZ I         7 4  5.31        21.0 0.40            118            201 291 
 NOR  HZ EP        7 3 37.16                             118   -0.16 8  235 234 
 NOR  HE ES        7 4  5.22                             118    0.09 8  235 234 
 NOR  HZ I         7 4 11.36        11.4 0.58            115            235 234 
 SML  HZ EP        7 3 37.49                             117   -0.24 8  240 335 
 SML  HE ES        7 4  4.29                             117   -1.58 8  240 335 
 SML  HZ I         7 4 13.17        10.8 0.24            114            240 335 
 CHI  HZ EP        7 3 39.75                             116    0.21 8  252 195 
 CHI  HN ES        7 4  8.54                             116   -0.54 8  252 195 
 CHI  HZ I         7 4 12.32         8.1 0.74            115            252 195 
 GUY2CHZ EP        7 3 45.70                             112    0.47 7  302 234 
 GUY2CHE ES        7 4 19.62                             112    0.41 7  302 234 
 GUY2CHZ I         7 4 27.71         6.8 0.72                           302 234 
 CBOC HZ EP        7 3 49.33                             109    0.92 7  333 251 
 CBOC HZ I         7 3 52.21         2.9 0.20            107            333 251 
 PRA  HZ EP        7 3 55.46                             106    0.11 6  394 209 
 PRA  HN ES        7 4 36.65                             106   -0.58 6  394 209 
 PRA  HZ I         7 4 43.42         9.0 0.28            104            394 209 
                                                                                
