 2016  9 5 0516  9.0 L   6.816 -73.133150.8  RSN 25 0.5 2.6LRSN                1
 GAP= 66        1.06       2.5     3.2  4.8 -0.5128E+00  0.2373E+01  0.2303E+01E
 Epicentro: LOS SANTOS - SANTANDER                                             3
 ACTION:UPD 17-08-17 21:07 OP:lp   STATUS:               ID:20160905051609 L   I
 OLDACT:UP  16-09-05 14:38 OP:dani STATUS:               ID:20160905050733     3
 OLDACT:UP  16-09-05 14:37 OP:dani STATUS:               ID:20160905050733     3
 OLDACT:UP  16-09-05 14:37 OP:dani STATUS:               ID:20160905050733     3
 OLDACT:UP  16-09-05 14:32 OP:dani STATUS:               ID:20160905050733     3
 OLDACT:REG 16-09-05 12:36 OP:dani STATUS:               ID:20160905050733     3
 2016-09-05-0508-00M.COL___351                                                 6
 STAT SP IPHASW D HRMM SECON CODA AMPLIT PERI AZIMU VELO AIN AR TRES W  DIS CAZ7
 BAR2 EZ EP     D  516 29.21                             170   -0.0310 25.3 192 
 BAR2 EZ ES        516 44.76                             170   -0.2910 25.3 192 
 BAR2 EZ I         516 45.51       123.5 0.22            168           25.3 192 
 BRR  HZ EP     C  516 31.05                             153    0.3710 71.6 297 
 BRR  HN ES        516 48.24                             153    0.6210 71.6 297 
 BRR  HZ I         516 52.23        64.2 0.14            149           71.6 297 
 PAM  EZ EP        516 32.05                             152    0.4610 75.2  40 
 PAM  EE ES        516 49.44                             152    0.2010 75.2  40 
 PAM  EZ I         516 51.43       133.0 0.52            155           75.2  40 
 RUS  HZ EP        516 33.18                             144   -0.1510  102 177 
 RUS  HN ES        516 52.29                             144   -0.0410  102 177 
 RUS  HZ I         516 53.15        45.8 0.28            145            102 177 
 PTB  HZ EP        516 36.14                             133   -0.35 9  149 258 
 PTB  HE ES        516 57.18                             133   -0.79 9  149 258 
 PTB  HZ I         517  2.16        28.5 0.16            131            149 258 
 TAM  HZ EP     D  516 37.62                             132    0.66 9  154 106 
 OCA  HZ EP        516 36.81                             131   -0.71 9  159 353 
 OCA  HE ES        516 59.33                             131   -0.47 9  159 353 
 OCA  HZ I         517  8.96        79.3 0.18            131            159 353 
 SPBC HZ EP        516 38.09                             130    0.04 9  165 219 
 SPBC HE ES   4    516 59.36                             130   -1.39 0  165 219 
 SPBC HZ I         517  5.06        76.8 0.24            129            165 219 
 ZAR  HZ EP        516 41.69                             123   -0.11 9  205 292 
 ZAR  HE ES        517  7.69                             123    0.27 9  205 292 
 ZAR  HZ I         517 14.24        31.3 0.12            122            205 292 
 NOR  HZ EP     D  516 45.37                             119    0.16 8  237 234 
 NOR  HE ES        517 13.62                             119    0.13 8  237 234 
 NOR  HZ I         517 21.12        29.8 0.14            119            237 234 
 CHI  HZ EP        516 47.50                             118    0.34 8  251 195 
 CHI  HE ES        517 16.63                             118   -0.33 8  251 195 
 CHI  HZ I         517 20.23        24.5 0.56            118            251 195 
 ROSC BZ EP   4 D  516 49.10                             117    1.51 0  255 211 
 ROSC BE ES        517 17.73                             117   -0.00 8  255 211 
 ROSC BZ I         517 23.08        43.1 0.40            117            255 211 
 HEL  HZ EP   4    516 50.91                             116    1.29 0  274 256 
 HEL  HE ES        517 20.53                             116   -0.81 8  274 256 
 HEL  HZ I         517 28.28        15.4 0.34            115            274 256 
 URE  HZ EP        516 49.59                             114   -0.75 7  284 291 
 URE  HE ES   4    517 20.93                             114   -1.70 0  284 291 
 URE  HZ I         517 32.01        23.1 0.24            114            284 291 
 GUY2CHZ EP   4    516 54.93                             113    1.89 0  303 235 
 GUY2CHN ES   4    517 31.60                             113    4.17 0  303 235 
 GUY2CHZ I         517 35.56        19.0 0.30                           303 235 
 VIL  EZ EP        516 52.92                             113    0.09 7  305 192 
 VIL  EE ES        517 27.39                             113    0.34 7  305 192 
 VIL  EZ I         517 29.89        37.5 0.38            113            305 192 
 PTGC HZ EP        516 52.32                             112   -0.85 7  310 159 
 PTGC HE ES   4    517 25.73                             112   -1.93 0  310 159 
 PTGC HZ I         517 30.67        28.7 0.30            113            310 159 
 ELA  HZ EP   4    516 58.83                             111    2.56 0  331 229 
 ELA  HE ES        517 34.00                             111    0.82 7  331 229 
 ELA  HZ I         517 42.32        13.9 0.34            111            331 229 
 CBOC HZ EP   4    516 58.04                             111    1.75 0  335 252 
 CBOC HE ES        517 34.09                             111    0.87 7  335 252 
 CBOC HZ I         517 42.56         5.4 0.34            110            335 252 
 ARGC HZ EP   4    517  0.18                             109    1.51 0  358 340 
 ARGC HN ES        517 37.96                             109    0.51 6  358 340 
 ARGC HZ I         517 43.27         7.9 0.22            109            358 340 
 ANIL HE ES   4    517 41.57                             109    3.16 0  360 224 
 PAL  HZ EP        517  4.96                             107    0.43 6  408 239 
 PAL  HN ES   4    517 49.16                             107    1.29 0  408 239 
 PAL  HZ I         517 51.67         7.1 0.22            106            408 239 
 SJC  HZ EP   4    517  3.39                             107   -1.21 0  409 327 
 SJC  HN ES   4    517 44.60                             107   -3.41 0  409 327 
 SJC  HZ I         517 52.37         7.9 0.44            106            409 327 
 CRJC HZ EP   9    517  9.66                             104   -1.72 0  466   3 
 CRJC HE ES        517 57.99                             104   -0.36 5  466   3 
 CRJC HZ I         518  1.63        13.1 0.18            104            466   3 
 GUA  EZ EP   4    517 10.44                             104   -2.00 0  476 173 
 GUA  EE ES        518  1.20                             104   -0.75 5  476 173 
 GUA  EZ I         518  7.93        11.4 0.18            104            476 173 
 SMAR HZ EP        517 15.11                             103    0.31 4  496 346 
 SMAR HE ES   4    518  2.89                             103   -3.27 0  496 346 
                                                                                
