 2010  3 5 0650 31.2 L   6.814 -73.016150.0  RSN  9 0.4 2.0LRSN                1
 GAP=135        0.97       3.7     7.4  6.5 -0.2113E+01 -0.1042E+02  0.7874E+00E
 Epicentro: CEPITA - SANTANDER                                                 3
 ACTION:UP  10-08-24 09:52 OP:vdl  STATUS:               ID:20100305065031 L   I
 2010-03-05-0647-51S.COL___101                                                 6
 STAT SP IPHASW D HRMM SECON CODA AMPLIT PERI AZIMU VELO SNR AR TRES W  DIS CAZ7
 BAR2 SZ EP        650 51.81                             168     0.310   31 217 
 BAR2 SZ ES   1    651  6.84                             168    -0.5 7   31 217 
 BRR  HZ IP        650 53.66                             149     0.110   83 293 
 BRR  HZ I         650 54.00        30.9 0.08                            83 293 
 BRR  HN ES        651 10.98                             149     0.010   83 293 
 RUS  BZ EP   1    650 55.83                             144     0.3 7  102 184 
 RUS  BE ES        651 14.64                             144     0.210  102 184 
 RUS  BZ I         651 15.26        10.4 0.71                           102 184 
 OCA  SZ EP        651  0.19                             130     0.3 9  161 348 
 OCA  SZ ES   1    651 21.55                             130    -0.8 7  161 348 
 OCA  SZ I         651 28.54        17.9 0.32                           161 348 
 CHI  HZ EP        651  9.69                             117    -0.1 8  254 198 
 CHI  HZ I         651 10.82         4.4 0.56                           254 198 
 CHI  HE ES   1    651 39.15                             117    -0.7 6  254 198 
 HEL  HE ES   2    651 46.33                             114     0.4 4  286 256 
 HEL  HZ I         651 49.34         3.4 1.00                           286 256 
 SDV  BZ EP        651 19.74                             110    -0.3 6  348  49 
 SDV  BZ I         651 21.47         3.5 0.13                           348  49 
 TOL  SZ EP   1    651 21.60                             109     0.7 5  355 226 
 PRA  HZ EP   1    651 25.05                             107    -0.8 4  401 211 
 PRA  HN ES   1    652  7.62                             107    -0.9 4  401 211 
 PRA  HZ I         652 13.04         3.3 0.05                           401 211 
                                                                                
