 2013  9 5 0643 29.6 L   6.813 -73.153148.6  RSN  7 0.3 1.5LRSN                1
 GAP=135        0.74       2.9     4.2  5.1 -0.1152E+01  0.5141E+01 -0.2122E+01E
 Epicentro: LOS SANTOS - SANTANDER                                             3
 ACTION:UPD 13-10-22 09:20 OP:ep   STATUS:               ID:20130905064329 L   I
 OLDACT:UP  13-09-05 10:32 OP:cam  STATUS:               ID:20130905063959     3
 OLDACT:REG 13-09-05 09:01 OP:cam  STATUS:               ID:20130905063959     3
 2013-09-05-0639-59M.COL___269                                                 6
 STAT SP IPHASW D HRMM SECON CODA AMPLIT PERI AZIMU VELO AIN AR TRES W  DIS CAZ7
 BAR2 SZ ES   1    644  5.13                             170   -0.07 7 24.6 187 
 BRR  HZ EP        643 51.19                             153    0.2110 69.8 298 
 BRR  HN ES        644  8.18                             153    0.5210 69.8 298 
 BRR  HZ I         644 11.81         5.8 0.46            153           69.8 298 
 PAM  SZ EP        643 52.33                             151    0.2410 76.8  41 
 PAM  SN ES        644  9.29                             151   -0.3410 76.8  41 
 PAM  SZ I         644 12.32         2.4 0.40            154           76.8  41 
 RUS  HZ EP   1    643 53.94                             144    0.20 7  102 176 
 RUS  HE ES        644 12.35                             144   -0.2210  102 176 
 RUS  HZ I         644 12.73         2.8 0.24            147            102 176 
 PTB  HZ EP   1    643 56.41                             133   -0.34 7  147 258 
 PTB  HN ES   1    644 17.28                             133   -0.65 7  147 258 
 PTB  HZ I         644 19.40         4.1 0.12            133            147 258 
 SPBC HZ EP        643 58.63                             129    0.26 9  164 218 
 SPBC HN ES   1    644 20.84                             129    0.02 7  164 218 
 SPBC HZ I         644 26.20         4.7 0.20            131            164 218 
 SML  HZ EP        644  5.92                             118   -0.29 8  242 335 
 SML  HN ES        644 34.70                             118   -0.06 8  242 335 
 SML  HZ I         644 37.52         6.6 0.10            120            242 335 
 PRA  HZ EP   4    644 24.10                             107    0.79 0  393 209 
 SJC  HZ EP   4    644 23.98                             106   -1.08 0  408 327 
                                                                                
