 2017  4 5 0004 26.8 L   6.779 -73.123148.8  RSN  8 0.3 1.5LRSN                1
 GAP=122        0.71       3.3     3.2  5.6  0.2030E+00  0.2492E+01  0.5014E+01E
 Epicentro: LOS SANTOS - SANTANDER                                             3
 ACTION:UPD 17-05-30 21:08 OP:jn   STATUS:               ID:20170405000426 L   I
 OLDACT:UP  17-04-05 13:01 OP:and  STATUS:               ID:20170405000000     3
 OLDACT:UP  17-04-05 13:01 OP:and  STATUS:               ID:20170405000000     3
 OLDACT:UP  17-04-05 13:00 OP:and  STATUS:               ID:20170405000000     3
 OLDACT:REG 17-04-05 12:20 OP:and  STATUS:               ID:20170405000000     3
 2017-04-05-0000-15M.COL___365                                                 6
 STAT SP IPHASW D HRMM SECON CODA AMPLIT PERI AZIMU VELO AIN AR TRES W  DIS CAZ7
 BRR  HZ EP        0 4 48.58                             152    0.1310 74.5 299 
 BRR  HN ES        0 5  5.61                             152    0.2610 74.5 299 
 PAM  EZ IP     D  0 4 49.70                             151    0.3510 77.7  37 
 PAM  EN ES        0 5  6.51                             151   -0.4310 77.7  37 
 PAM  EZ I         0 5  9.80         4.1 0.36            155           77.7  37 
 RUS  HZ EP        0 4 50.92                             145    0.2510 98.1 177 
 RUS  HN ES        0 5  9.36                             145    0.0710 98.1 177 
 RUS  HZ I         0 5 10.60         4.0 0.44            148           98.1 177 
 PTB  HZ EP        0 4 54.13                             132   -0.06 9  150 260 
 PTB  HN ES   3    0 5 14.47                             132   -1.08 2  150 260 
 PTB  HZ I         0 5 21.13         3.6 0.32            133            150 260 
 SPBC HN ES   2    0 5 17.63                             130   -0.27 5  163 220 
 SPBC HZ I         0 5 20.66         4.1 0.06            131            163 220 
 ZAR  HN ES        0 5 25.13                             123   -0.35 8  207 292 
 ZAR  HZ I         0 5 29.87         3.8 0.40            124            207 292 
 NOR  HN ES        0 5 30.93                             119    0.09 8  235 235 
 PTGC HZ EP        0 5  9.88                             112   -0.56 7  306 159 
                                                                                
