 2012  5 5 0935 13.8 L   6.753 -73.146139.3  RSN  9 0.4 1.9LRSN                1
 GAP=139        0.76       4.0     4.2  5.9 -0.9063E+00  0.5462E+01  0.4218E+01E
 Epicentro: LOS SANTOS - SANTANDER                                             3
 ACTION:UP  12-07-05 12:02 OP:pat  STATUS:               ID:20120505093513 L   I
 2012-05-05-0930-00M.COL___192                                                 6
 STAT SP IPHASW D HRMM SECON CODA AMPLIT PERI AZIMU VELO SNR AR TRES W  DIS CAZ7
 BAR2 SZ EP   1    935 32.61                             172     0.1 7   18 193 
 BAR2 SZ ES   1    935 46.67                             172    -0.5 7   18 193 
 BAR2 SZ I         935 48.58        38.8 0.29                            18 193 
 BRR  HZ EP   1    935 34.56                             150     0.2 7   74 302 
 BRR  HZ I         935 34.92        31.4 0.13                            74 302 
 BRR  HE ES   1    935 51.25                             150     0.8 7   74 302 
 PAM  SZ EP        935 35.49                             148    -0.110   81  37 
 PAM  SN ES   1    935 52.51                             148     0.0 7   81  37 
 RUS  HZ EP   1    935 36.44                             144    -0.1 7   95 176 
 RUS  HN ES   1    935 54.53                             144     0.3 7   95 176 
 RUS  HZ I         935 55.77        10.8 0.24                            95 176 
 PTB  HZ EP   1    935 39.71                             131    -0.4 7  147 261 
 PTB  HN ES   1    936  0.04                             131    -0.7 7  147 261 
 PTB  HZ I         936  4.35         5.0 0.14                           147 261 
 ZAR  HZ EP   1    935 45.84                             121    -0.2 6  206 293 
 ZAR  HE ES   2    936 11.53                             121     0.4 4  206 293 
 ZAR  HZ I         936 16.86         7.7 0.50                           206 293 
 CHI  HZ EP   1    935 50.75                             116     0.2 6  244 195 
 CHI  HN ES   2    936 19.32                             116     0.0 4  244 195 
 HEL  HN ES   2    936 24.83                             114     0.3 4  271 257 
 PRA  HZ EP   1    936  6.84                             106     0.3 4  388 210 
 PRA  HN ES   2    936 48.52                             106     0.8 3  388 210 
                                                                                
