 2017 10 5 0654  9.6 L   6.811 -73.144143.2  RSN 12 0.3 2.0LRSN                1
 GAP=136        0.76       2.8     3.4  4.6 -0.2271E+01  0.7142E+01  0.1731E+01E
 Epicentro: LOS SANTOS - SANTANDER                                             3
 ACTION:UPD 17-11-07 19:28 OP:rebc STATUS:               ID:20171005065409 L   I
 OLDACT:UP  17-10-05 17:25 OP:osc  STATUS:               ID:20171005064736     3
 OLDACT:REG 17-10-05 13:39 OP:osc  STATUS:               ID:20171005064736     3
 2017-10-05-0648-00M.COL___444                                                 6
 STAT SP IPHASW D HRMM SECON CODA AMPLIT PERI AZIMU VELO AIN AR TRES W  DIS CAZ7
 BAR2 EZ EP        654 28.74                             170   -0.1810 24.6 190 
 BAR2 EZ ES        654 43.96                             170   -0.0610 24.6 190 
 BAR2 EZ I         654 44.98        22.7 0.30            168           24.6 190 
 PAM  EZ EP        654 31.68                             151    0.2210 76.3  40 
 PAM  EN ES        654 48.73                             151    0.2110 76.3  40 
 PAM  EZ I         654 50.88        13.2 0.54            156           76.3  40 
 RUS  HZ EP        654 32.80                             143   -0.3710  102 176 
 RUS  HN ES        654 51.73                             143    0.1610  102 176 
 RUS  HZ I         654 52.44         5.8 0.18            144            102 176 
 SPBC HZ EP        654 37.86                             128   -0.12 9  164 219 
 SPBC HE ES        654 59.99                             128   -0.15 9  164 219 
 SPBC HZ I         655  4.15        14.0 0.20            129            164 219 
 ZAR  HZ EP        654 41.49                             122   -0.33 9  204 292 
 ZAR  HE ES        655  6.80                             122   -0.17 9  204 292 
 ZAR  HZ I         655 11.96        11.0 0.24            122            204 292 
 NOR  HZ EP        654 44.93                             118   -0.32 8  236 234 
 NOR  HN ES        655 13.08                             118    0.01 8  236 234 
 NOR  HZ I         655 22.32         5.7 0.40            119            236 234 
 CHI  HZ EP        654 47.10                             116   -0.17 8  250 195 
 CHI  HE ES        655 16.25                             116   -0.42 8  250 195 
 CHI  HZ I         655 19.79         6.3 0.62            118            250 195 
 ROSC BZ EP        654 48.56                             116    0.88 8  254 211 
 ROSC BE ES   4    655 19.77                             116    2.36 0  254 211 
 ROSC BZ I         655 23.49        15.0 0.40            117            254 211 
 URE  HE ES   4    655 19.70                             113   -2.69 0  283 292 
 GUY2CHZ EP        654 53.84                             112    0.68 7  302 235 
 GUY2CHE ES        655 27.47                             112    0.31 7  302 235 
 GUY2CHZ I         655 35.01         4.6 0.32                           302 235 
 ELA  HE ES        655 33.46                             110    0.49 7  330 229 
 PRA  HZ EP        655  2.66                             106   -0.49 6  393 209 
 PRA  HE ES        655 45.20                             106    0.27 6  393 209 
 PRA  HZ I         655 51.25         4.3 0.38            107            393 209 
 ORTC HE ES   2    655 45.42                             106   -0.21 3  397 216 
                                                                                
