 2013  6 5 0325 43.1 L   6.814 -73.134144.9  RSN 20 0.5 2.9LRSN 3.2WRSN        1
 SPEC AVERAGE  MO 13.9 ST  2.6 OM  2.0 f0 3.78 R0.6345 AL 2.38 WI 28.0 MW  3.2 3
 SPEC SD       MO  0.3 ST  4.3 OM  0.5 f00.776 R0.2546 AL      WI      MW  0.2 3
 GAP= 55        0.91       2.6     3.0  4.7 -0.1307E+01  0.2470E+01  0.1349E+01E
 Epicentro: LOS SANTOS - SANTANDER                                             3
 SPEC PTB HH N MO 13.8 ST  5.0 OM  2.1 f0 4.03 R0.3856 AL 1.85 WI 34.1 MW  3.2 3
 SPEC PTB HH N T 32628 K 0.000 GD  207 VS 4.20 DE 3.20 Q0300.0 QA 0.60 VS 4.20 3
 SPEC RUS HH N MO 13.8 ST  4.0 OM  2.2 f0 3.66 R0.4246 AL 3.08 WI 13.3 MW  3.2 3
 SPEC RUS HH N T 32624 K 0.000 GD  177 VS 4.20 DE 3.20 Q0300.0 QA 0.60 VS 4.20 3
 SPEC PRA HH N MO 13.9 ST  2.1 OM  1.1 f0 5.13 R0.5481 AL 2.55 WI 39.0 MW  3.2 3
 SPEC PRA HH N T 32634 K 0.000 GD  419 VP 7.60 DE 3.20 Q0300.0 QA 0.60 VS 4.20 3
 SPECGUY2CHH N MO 14.0 ST  1.2 OM  1.3 f0 3.84 R0.7314 AL 3.03 WI 33.9 MW  3.3 3
 SPECGUY2CHH N T 32626 K 0.000 GD  336 VP 7.60 DE 3.20 Q0300.0 QA 0.60 VS 4.20 3
 SPEC HEL HH N MO 13.8 ST0.539 OM  1.1 f0 3.62 R0.7768 AL 2.34 WI 31.4 MW  3.1 3
 SPEC HEL HH N T 32622 K 0.000 GD  309 VP 7.60 DE 3.20 Q0300.0 QA 0.60 VS 4.20 3
 SPEC OCA HH N MO 14.2 ST  1.2 OM  1.7 f0 3.33 R0.8444 AL 1.68 WI 22.6 MW  3.4 3
 SPEC OCA HH N T 326 9 K 0.000 GD  215 VP 7.60 DE 3.20 Q0300.0 QA 0.60 VS 4.20 3
 SPEC PAM SH N MO 14.2 ST  1.5 OM  1.8 f0 3.66 R0.7683 AL 3.01 WI 16.2 MW  3.4 3
 SPEC PAM SH N T 326 4 K 0.000 GD  163 VP 7.60 DE 3.20 Q0300.0 QA 0.60 VS 4.20 3
 SPEC CHI HH N MO 14.2 ST0.469 OM  1.6 f0 2.41 R1.1668 AL 1.59 WI 28.1 MW  3.4 3
 SPEC CHI HH N T 32619 K 0.000 GD  288 VP 7.60 DE 3.20 Q0300.0 QA 0.60 VS 4.20 3
 SPEC BRR HH N MO 13.7 ST  6.9 OM  2.1 f0 4.89 R0.3178 AL 2.58 WI 35.5 MW  3.1 3
 SPEC BRR HH N T 32620 K 0.000 GD  161 VS 4.20 DE 3.20 Q0300.0 QA 0.60 VS 4.20 3
 SPEC BAR2SH Z MO 13.6 ST  1.5 OM  2.0 f0 3.25 R0.4782 AL 2.76 WI 31.4 MW  3.0 3
 SPEC BAR2SH Z T 32612 K 0.000 GD  147 VS 4.20 DE 3.20 Q0300.0 QA 0.60 VS 4.20 3
 ACTION:UPD 14-01-08 09:52 OP:ep   STATUS:               ID:20130605032543 L   I
 OLDACT:UP  13-06-05 09:29 OP:mh   STATUS:               ID:20130605032000     3
 2013-06-05-0320-00M.COL___257                                                 6
 STAT SP IPHASW D HRMM SECON CODA AMPLIT PERI AZIMU VELO AIN AR TRES W  DIS CAZ7
 BAR2 SZ IP     D  326  2.74                             170    0.0910 25.1 192 
 BAR2 SZ ES   1    326 17.54                             170   -0.37 7 25.1 192 
 BAR2 SZ I         326 19.12        96.6 0.20            169           25.1 192 
 BRR  HZ IP     C  326  4.61                             152    0.4410 71.6 297 
 BRR  HN ES   1    326 20.94                             152    0.33 7 71.6 297 
 BRR  HN I         326 22.37       175.7 0.36            148           71.6 297 
 PAM  SZ EP     C  326  5.54                             151    0.4510 75.3  40 
 PAM  SN ES        326 22.97                             151    0.7210 75.3  40 
 PAM  SN I         326 23.79        93.9 0.40            153           75.3  40 
 RUS  HZ EP   1    326  6.67                             143   -0.19 7  102 177 
 RUS  HN ES        326 24.91                             143   -0.4910  102 177 
 RUS  HZ I         326 26.29        58.2 0.36            144            102 177 
 PTB  HZ EP        326  9.27                             132   -0.86 9  149 258 
 PTB  HN ES        326 30.73                             132   -0.49 9  149 258 
 PTB  HZ I         326 36.50        78.1 0.40            129            149 258 
 TAM  HZ IP     C  326 10.94                             130    0.33 9  154 106 
 TAM  HN ES   2    326 31.64                             130   -0.45 5  154 106 
 OCA  HZ EP   1    326 11.08                             130   -0.12 7  159 353 
 OCA  HN ES   1    326 32.55                             130   -0.58 7  159 353 
 OCA  HZ I         326 38.24        88.9 0.30            129            159 353 
 YOP  SZ EP   1    326 13.26                             126    0.12 7  180 154 
 YOP  SN ES   2    326 37.14                             126    0.55 4  180 154 
 YOP  SZ I         326 37.54        47.5 0.28            127            180 154 
 NOR  HZ EP   1    326 18.79                             118   -0.18 6  237 234 
 NOR  HE ES   1    326 46.79                             118   -0.18 6  237 234 
 NOR  HN I         326 52.29       122.9 0.18            117            237 234 
 SML  HZ EP   4    326 18.03                             117   -1.54 0  243 335 
 SML  HN ES   4    326 46.15                             117   -1.88 0  243 335 
 SML  HN I         326 55.62       123.1 0.10            116            243 335 
 CHI  HZ EP   1    326 20.88                             117   -0.05 6  250 195 
 CHI  HN ES        326 50.37                             117   -0.09 8  250 195 
 CHI  HN I         326 52.42        41.6 0.30            117            250 195 
 HEL  HZ EP        326 24.14                             114    0.70 8  274 256 
 HEL  HN ES        326 55.16                             114    0.25 8  274 256 
 HEL  HN I         327  2.09        36.9 0.32            113            274 256 
 URE  HZ EP   4    326 23.46                             113   -0.72 0  284 292 
 URE  HN ES   4    326 59.33                             113    3.09 0  284 292 
 GUY2CHZ EP   1    326 27.23                             112    0.35 5  303 235 
 GUY2CHN ES   4    327  2.11                             112    1.08 0  303 235 
 GUY2CHN I         327 12.81        37.8 0.52                           303 235 
 VIL  SZ EP   1    326 26.09                             112   -0.57 5  305 192 
 VIL  SN ES        327  0.54                             112   -0.12 7  305 192 
 VIL  SN I         327  7.34       102.9 0.56            112            305 192 
 RREF HZ EP   1    326 29.76                             111    0.34 5  324 229 
 RREF HN ES   1    327  6.33                             111    0.77 5  324 229 
 RREF HZ I         327 13.98        35.8 0.34            110            324 229 
 COD  HZ EP   1    326 30.82                             109   -0.44 5  347 354 
 COD  HN ES   4    327  7.03                             109   -1.81 0  347 354 
 COD  HN I         327 13.73        23.6 0.32            108            347 354 
 SDV  BZ EP   1    326 31.74                             108   -1.12 5  358  50 
 ARGC HZ EP   1    326 32.69                             108    0.10 5  358 340 
 ARGC HN ES   1    327 11.06                             108   -0.14 5  358 340 
 ARGC HN I         327 19.32        19.0 0.48            108            358 340 
 PRA  HZ EP   1    326 36.25                             106   -0.56 4  394 210 
 PRA  HN ES   1    327 18.86                             106    0.15 4  394 210 
 PRA  HN I         327 23.05        17.7 0.72            106            394 210 
 SMAR HZ EP   4    326 47.32                             102   -1.47 0  496 346 
 SMAR HN ES   4    327 35.57                             102   -4.47 0  496 346 
 SMAR HN I         327 36.47        24.1 0.20            102            496 346 
                                                                                
