 2014  8 5 0227 10.8 L   6.855 -73.127142.6  RSN  6 0.4 1.2LRSN                1
 GAP=244        0.87       5.0     5.3  7.0  0.1146E+02  0.2421E+01  0.6209E+00E
 Epicentro: LOS SANTOS - SANTANDER                                             3
 ACTION:UPD 14-09-15 21:46 OP:nd   STATUS:               ID:20140805022710 L   I
 OLDACT:REG 14-08-05 12:52 OP:spq  STATUS:               ID:20140805021813     3
 2014-08-05-0218-13M.COL___254                                                 6
 STAT SP IPHASW D HRMM SECON CODA AMPLIT PERI AZIMU VELO AIN AR TRES W  DIS CAZ7
 BAR2 SZ EP        227 30.09                             168   -0.0810 29.6 192 
 BAR2 SZ ES   1    227 45.41                             168    0.11 7 29.6 192 
 BAR2 SZ I         227 47.40         2.4 0.10            164           29.6 192 
 BRR  HZ EP        227 31.88                             152    0.3510 70.4 293 
 BRR  HE ES        227 47.39                             152   -0.3410 70.4 293 
 BRR  HZ I         227 52.06         3.5 0.20            150           70.4 293 
 RUS  HZ EP        227 34.93                             141    0.2810  107 177 
 RUS  HN ES        227 53.08                             141   -0.2010  107 177 
 RUS  HZ I         227 55.11         0.9 0.20            142            107 177 
 PTB  HZ EP   1    227 37.25                             130   -0.53 7  151 257 
 PTB  HN ES        227 58.50                             130   -0.35 9  151 257 
 PTB  HZ I         227 59.88         2.3 0.16            130            151 257 
 SPBC HZ EP        227 39.32                             127   -0.29 9  169 218 
 SPBC HN ES        228  2.62                             127    0.52 9  169 218 
 SPBC HZ I         228  9.95         2.4 0.16            127            169 218 
 ZAR  HZ EP   2    227 42.28                             121   -0.70 4  204 290 
 ZAR  HE ES        228  8.69                             121    0.58 9  204 290 
 ZAR  HZ I         228 13.77         2.8 0.28            123            204 290 
                                                                                
