 2015 10 5 0544 10.4 L   6.816 -73.157143.3  RSN 19 0.4 2.2LRSN                1
 GAP=134        0.96       2.2     3.6  4.7 -0.1682E+01  0.6624E+01  0.7628E-01E
 Epicentro: LOS SANTOS - SANTANDER                                             3
 ACTION:UPD 15-12-22 20:37 OP:cam  STATUS:               ID:20151005054410 L   I
 OLDACT:REG 15-10-05 13:22 OP:ak   STATUS:               ID:20151005053749     3
 2015-10-05-0537-49M.COL___346                                                 6
 STAT SP IPHASW D HRMM SECON CODA AMPLIT PERI AZIMU VELO AIN AR TRES W  DIS CAZ7
 BAR2 EZ EP        544 29.82                             170    0.0510 24.9 187 
 BAR2 EZ ES        544 44.45                             170   -0.4310 24.9 187 
 BAR2 EZ I         544 46.06        33.4 0.24            168           24.9 187 
 BRR  HZ EP     C  544 31.69                             153    0.5110 69.3 298 
 BRR  HN ES        544 48.01                             153    0.6310 69.3 298 
 BRR  HZ I         544 54.37        17.3 0.14            146           69.3 298 
 PAM  EZ EP        544 32.86                             151    0.5410 76.8  41 
 PAM  EN ES        544 49.74                             151    0.3210 76.8  41 
 PAM  EZ I         544 50.62        20.5 0.22            151           76.8  41 
 RUS  HZ EP        544 33.84                             143   -0.2110  102 175 
 RUS  HN ES        544 52.25                             143   -0.2410  102 175 
 RUS  HZ I         544 54.11        13.9 0.44            144            102 175 
 OCA  HZ EP        544 37.81                             129   -0.53 9  158 353 
 OCA  HN ES        544 59.83                             129   -0.30 9  158 353 
 OCA  HZ I         545  8.33        41.5 0.22            127            158 353 
 SPBC HZ EP        544 38.78                             128    0.01 9  164 218 
 SPBC HN ES        545  1.05                             128    0.15 9  164 218 
 SPBC HZ I         545  6.34        23.4 0.16            126            164 218 
 ZAR  HZ EP   1    544 42.97                             122    0.47 6  202 292 
 ZAR  HN ES        545  7.21                             122   -0.33 9  202 292 
 ZAR  HZ I         545 12.98        19.5 0.40            119            202 292 
 NOR  HZ EP        544 45.80                             118   -0.19 8  235 234 
 NOR  HE ES        545 13.04                             118   -0.72 8  235 234 
 NOR  HZ I         545 19.35        11.6 0.24            116            235 234 
 SML  HZ EP        544 46.05                             117   -0.61 8  242 335 
 SML  HN ES        545 14.50                             117   -0.44 8  242 335 
 SML  HZ I         545 23.45        15.3 0.06            115            242 335 
 CHI  HZ EP        544 47.79                             116   -0.33 8  250 195 
 CHI  HN ES        545 17.43                             116   -0.11 8  250 195 
 CHI  HZ I         545 22.69        12.2 0.32            116            250 195 
 ROSC BZ EP   4    544 50.12                             116    1.63 0  254 211 
 ROSC BN ES   4    545 19.85                             116    1.65 0  254 211 
 ROSC BZ I         545 24.41        32.1 0.45            115            254 211 
 HEL  HZ EP        544 50.81                             114    0.40 8  271 255 
 HEL  HN ES        545 21.45                             114   -0.16 8  271 255 
 HEL  HZ I         545 28.29         9.6 0.38            112            271 255 
 URE  HZ EP   4    544 49.83                             113   -1.32 0  282 292 
 URE  HZ I         545 28.98        10.2 0.14            111            282 292 
 GUY2CHZ EP        544 54.85                             112    0.95 7  301 234 
 GUY2CHE ES        545 27.91                             112    0.08 7  301 234 
 GUY2CHZ I         545 36.26        10.5 0.60                           301 234 
 PTGC HZ EP   4    544 53.13                             111   -1.26 0  311 159 
 PTGC HN ES   4    545 26.31                             111   -2.39 0  311 159 
 CBOC HZ EP        544 57.60                             109    0.46 7  333 252 
 ARGC HZ EP   1    544 59.86                             108    0.14 5  357 340 
 ARGC HE ES        545 38.25                             108    0.06 6  357 340 
 ANIL HN ES        545 39.66                             108    0.69 6  358 224 
 ORTC HZ EP   1    545  3.66                             106   -0.66 4  396 216 
 ORTC HE ES        545 46.07                             106   -0.31 6  396 216 
 ORTC HZ I         545 51.29         5.7 0.22            105            396 216 
 SJC  HZ EP   4    545  3.42                             105   -2.21 0  407 327 
 SJC  HN ES   4    545 44.69                             105   -4.01 0  407 327 
 SJC  HZ I         545 53.81         2.3 0.44            104            407 327 
                                                                                
