 2016  7 5 0859 33.6 L   6.731 -73.401124.5  RSN  5 0.4 1.1LRSN                1
 GAP=162        0.89       7.1     5.4  6.9  0.2337E+02  0.1286E+02  0.1130E+02E
 Epicentro: EL CARMEN - SANTANDER                                              3
 ACTION:UPD 17-03-29 16:47 OP:lp   STATUS:               ID:20160705085933 L   I
 OLDACT:REG 16-07-05 13:15 OP:dani STATUS:               ID:20160705085744     3
 2016-07-05-0857-44M.COL___322                                                 6
 STAT SP IPHASW D HRMM SECON CODA AMPLIT PERI AZIMU VELO AIN AR TRES W  DIS CAZ7
 BAR2 EZ EP        859 50.80                             166   -0.0310 28.6 122 
 BAR2 EZ ES        9 0  4.07                             166   -0.1910 28.6 122 
 BAR2 EZ I         9 0  5.15        14.5 0.46            164           28.6 122 
 BRR  HE ES        9 0  5.43                             155   -0.0310 54.0 320 
 RUS  HZ EP        859 55.52                             139    0.3010 99.2 159 
 RUS  HE ES   2    9 0 12.68                             139    0.60 5 99.2 159 
 RUS  HZ I         9 0 17.86         0.6 0.10            137           99.2 159 
 PTB  HZ EP        859 56.08                             133   -0.1310  119 260 
 PTB  HN ES        9 0 13.54                             133   -0.2910  119 260 
 PTB  HZ I         9 0 18.33         1.6 0.40            131            119 260 
 ZAR  HZ EP        9 0  1.86                             120   -0.52 9  182 298 
 ZAR  HN ES        9 0 25.58                             120    0.77 9  182 298 
 ZAR  HZ I         9 0 29.82         2.0 0.34            121            182 298 
                                                                                
