 2010  3 5 0607 10.4 L   6.844 -73.017140.8  RSN  9 0.4 1.7LRSN                1
 GAP=196        0.72       3.1     6.9  5.5 -0.1495E+01 -0.1523E+01  0.3364E+01E
 Epicentro: CEPITA - SANTANDER                                                 3
 ACTION:UP  10-08-24 09:52 OP:vdl  STATUS:               ID:20100305060710 L   I
 2010-03-05-0605-08S.COL___101                                                 6
 STAT SP IPHASW D HRMM SECON CODA AMPLIT PERI AZIMU VELO SNR AR TRES W  DIS CAZ7
 BAR2 SZ EP        6 7 29.82                             166     0.110   33 213 
 BAR2 SZ ES   1    6 7 44.54                             166    -0.2 7   33 213 
 BRR  HZ IP        6 7 31.57                             148    -0.110   82 291 
 BRR  HZ I         6 7 31.77        10.1 0.24                            82 291 
 BRR  HE ES        6 7 48.41                             148     0.110   82 291 
 RUS  BZ EP   1    6 7 33.86                             141    -0.2 7  105 184 
 RUS  BE ES   2    6 7 52.73                             141     0.3 5  105 184 
 RUS  BZ I         6 7 54.45         4.0 0.36                           105 184 
 OCA  SZ EP        6 7 38.09                             129     0.0 9  158 348 
 OCA  SZ ES   1    6 7 59.66                             129     0.0 7  158 348 
 OCA  SZ I         6 8  3.72        12.6 0.16                           158 348 
 CHI  HN ES   1    6 8 18.64                             115    -0.1 6  257 198 
 CHI  HZ I         6 8 20.86         2.0 0.19                           257 198 
 ROSC BZ EP   1    6 7 50.28                             114     0.7 6  264 213 
 HEL  HZ EP   1    6 7 51.59                             112    -0.5 5  287 256 
 HEL  HN ES   3    6 8 23.91                             112    -0.6 2  287 256 
 HEL  HZ I         6 8 29.24         2.6 0.34                           287 256 
 RREF BE ES   2    6 8 36.12                             109     1.1 3  336 230 
 RREF BZ I         6 8 40.21         2.6 0.19                           336 230 
 PRA  HZ EP   1    6 8  5.40                             105     0.3 4  403 211 
 PRA  HN ES   1    6 8 46.77                             105    -1.0 4  403 211 
 PRA  HZ I         6 8 52.97         2.5 0.56                           403 211 
                                                                                
