 2017  5 5 0454 18.8 L   6.705 -73.214153.0  RSN  5 0.3 1.2LRSN                1
 GAP=132        0.82       5.6     5.1  9.5  0.1368E+02 -0.1692E+02 -0.1824E+02E
 Epicentro: VILLANUEVA - SANTANDER                                             3
 ACTION:UPD 17-06-16 13:33 OP:jn   STATUS:               ID:20170505045418 L   I
 OLDACT:UP  17-05-05 15:31 OP:ed   STATUS:               ID:20170505044743d    3
 OLDACT:UP  17-05-05 15:31 OP:ed   STATUS:               ID:20170505044743d    3
 OLDACT:DUP 17-05-05 15:28 OP:ed   STATUS:               ID:20170505044743d    3
 OLDACT:UP  17-05-05 15:27 OP:ed   STATUS:               ID:20170505044742     3
 OLDACT:REG 17-05-05 12:13 OP:edw  STATUS:               ID:20170505044742     3
 2017-05-05-0448-00M.COL___364                                                 6
 STAT SP IPHASW D HRMM SECON CODA AMPLIT PERI AZIMU VELO AIN AR TRES W  DIS CAZ7
 BRR  HZ EP     D  454 40.98                             154    0.2710 70.8 309 
 BRR  HN ES        454 57.89                             154    0.1010 70.8 309 
 BRR  HZ I         454 59.83         6.8 0.40            148           70.8 309 
 PAM  EZ EP        454 42.15                             148   -0.4210 90.3  39 
 PAM  EZ I         455  1.78         1.8 0.46            134           90.3  39 
 RUS  HZ EP        454 42.78                             148    0.1610 91.0 171 
 RUS  HN ES        455  1.32                             148    0.1210 91.0 171 
 RUS  HZ I         455  2.38         3.6 0.32            146           91.0 171 
 PTB  HZ EP   4    454 42.89                             136   -2.68 0  139 262 
 PTB  HN ES        455  5.90                             136   -0.54 9  139 262 
 PTB  HZ I         455  8.79         1.2 0.50            135            139 262 
 ZAR  HN ES        455 17.28                             124    0.35 9  201 296 
                                                                                
