 2012  7 5 0235 37.0 L   6.704 -73.175142.7  RSN  5 0.4 1.3LRSN                1
 GAP=227        0.96      10.0     9.8 10.6  0.6358E+02  0.2785E+02  0.9171E+01E
 Epicentro: VILLANUEVA - SANTANDER                                             3
 ACTION:UPD 12-08-14 11:42 OP:ep   STATUS:               ID:20120705023537 L   I
 2012-07-05-0230-00M.COL___201                                                 6
 STAT SP IPHASW D HRMM SECON CODA AMPLIT PERI AZIMU VELO AIN AR TRES W  DIS CAZ7
 BAR2 SZ ES   1    236 10.30                             175    -0.6 7   12 184 
 BAR2 SZ I         236 12.55         6.3 0.23            171             12 184 
 BRR  HZ EP   1    235 57.66                             151    -0.3 7   74 307 
 BRR  HZ I         235 58.14         6.0 0.09            152             74 307 
 BRR  HN ES   1    236 14.95                             151     0.6 7   74 307 
 RUS  HZ EP   1    236  0.04                             146     0.4 7   90 174 
 RUS  HN ES   1    236 17.70                             146     0.3 7   90 174 
 RUS  HZ I         236 19.66         2.8 0.24            145             90 174 
 PTB  HZ EP   1    236  2.94                             132    -0.3 7  143 263 
 PTB  HN ES   1    236 23.52                             132    -0.2 7  143 263 
 PTB  HZ I         236 25.91         1.8 0.20            133            143 263 
 ZAR  HN ES   1    236 34.80                             121     0.2 6  205 295 
