 2014  2 5 0524 50.3 L   6.788 -73.149147.3  RSN  9 0.4 1.6LRSN                1
 GAP=137        0.85       3.3     4.6  6.4 -0.3773E+01  0.1208E+02 -0.5440E+00E
 Epicentro: LOS SANTOS - SANTANDER                                             3
 ACTION:UPD 14-03-10 08:07 OP:ep   STATUS:               ID:20140205052450 L   I
 OLDACT:UP  14-02-05 12:41 OP:mh   STATUS:               ID:20140205052000     3
 OLDACT:UP  14-02-05 12:41 OP:mh   STATUS:               ID:20140205052000     3
 OLDACT:UP  14-02-05 12:34 OP:mh   STATUS:               ID:20140205052000     3
 OLDACT:REG 14-02-05 08:28 OP:mh   STATUS:               ID:20140205052000     3
 2014-02-05-0520-00M.COL___288                                                 6
 STAT SP IPHASW D HRMM SECON CODA AMPLIT PERI AZIMU VELO AIN AR TRES W  DIS CAZ7
 BAR2 SZ EP   1    525 10.47                             171    0.40 7 22.0 190 
 BAR2 SZ ES   1    525 25.82                             171    0.32 7 22.0 190 
 BAR2 SZ I         525 27.24        14.7 0.16            170           22.0 190 
 PAM  SZ EP   1    525 13.35                             150    0.62 7 78.6  39 
 PAM  SN ES        525 30.24                             150   -0.0010 78.6  39 
 PAM  SZ I         525 32.76         7.3 0.55            154           78.6  39 
 RUS  HZ EP   1    525 13.83                             144   -0.26 7 99.3 176 
 RUS  HN ES        525 32.06                             144   -0.6010 99.3 176 
 RUS  HZ I         525 34.27         2.3 0.26            147           99.3 176 
 PTB  HZ EP   1    525 17.34                             132    0.02 7  147 259 
 PTB  HN ES   1    525 38.39                             132   -0.02 7  147 259 
 PTB  HZ I         525 41.43         3.7 0.08            132            147 259 
 SPBC HZ EP   1    525 19.43                             129    0.65 7  162 219 
 SPBC HN ES   1    525 41.39                             129    0.38 7  162 219 
 SPBC HZ I         525 46.53         5.4 0.11            130            162 219 
 ZAR  HZ EP   4    525 24.91                             123    2.07 0  204 293 
 ZAR  HN ES   2    525 48.97                             123    0.73 4  204 293 
 ZAR  HZ I         525 51.26         3.8 0.10            123            204 293 
 NOR  HZ EP   1    525 25.26                             119   -0.73 6  234 235 
 NOR  HN ES        525 53.64                             119   -0.20 8  234 235 
 NOR  HZ I         525 59.94         2.6 0.11            120            234 235 
 SML  HZ EP   1    525 26.79                             117   -0.32 6  245 335 
 SML  HN ES   1    525 55.09                             117   -0.73 6  245 335 
 SML  HZ I         526  1.05         4.8 0.21            119            245 335 
 CHI  HZ EP        525 28.20                             117    0.28 8  247 195 
 CHI  HN ES   1    525 57.25                             117   -0.03 6  247 195 
 CHI  HZ I         526  1.21         1.4 0.57            119            247 195 
 GUY2CHZ EP   4    525 35.82                             113    1.97 0  300 235 
 GUY2CHN ES   4    526 12.53                             113    4.71 0  300 235 
 PRA  HZ EP   4    525 45.07                             107    1.36 0  391 210 
 PRA  HN ES   4    526 25.51                             107    0.14 0  391 210 
 SJC  HZ EP   4    525 44.17                             106   -1.83 0  410 327 
 SJC  HN ES   4    526 26.41                             106   -3.05 0  410 327 
                                                                                
