 2017  5 5 0330 26.5 L   6.787 -73.132150.8  RSN  5 0.1 1.0LRSN                1
 GAP=238        0.64       5.6     8.1  7.7  0.3033E+02 -0.3655E+02 -0.1812E+02E
 Epicentro: LOS SANTOS - SANTANDER                                             3
 ACTION:UPD 17-06-16 13:33 OP:jn   STATUS:               ID:20170505033026 L   I
 OLDACT:DUP 17-05-05 15:01 OP:edw  STATUS:               ID:20170505032741d    3
 OLDACT:UP  17-05-05 15:01 OP:edw  STATUS:               ID:20170505032740     3
 OLDACT:REG 17-05-05 12:08 OP:edw  STATUS:               ID:20170505032740     3
 2017-05-05-0328-00M.COL___370                                                 6
 STAT SP IPHASW D HRMM SECON CODA AMPLIT PERI AZIMU VELO AIN AR TRES W  DIS CAZ7
 BRR  HZ EP        330 48.30                             153   -0.0110 73.2 299 
 BRR  HN ES        331  5.37                             153    0.0610 73.2 299 
 RUS  HZ EP        330 50.54                             145   -0.1110 99.1 177 
 RUS  HN ES        331  9.53                             145    0.0510 99.1 177 
 RUS  HZ I         331 11.01         1.4 0.26            140           99.1 177 
 PTB  HZ EP   9    330 53.41                             133   -0.59 0  149 259 
 PTB  HN ES        331 14.22                             133   -0.63 9  149 259 
 PTB  HZ I         331 19.57         1.6 0.52            127            149 259 
 SPBC HN ES   2    331 17.81                             130   -0.09 5  163 220 
 ZAR  HN ES   2    331 25.41                             123    0.21 4  206 292 
                                                                                
