 2014  1 5 0418 35.5 L   6.764 -73.077141.6  RSN  4 0.2 1.5LRSN                1
 GAP=147        0.62       3.2     4.8  5.0 -0.4093E+00 -0.1731E+01  0.5348E+00E
 Epicentro: LOS SANTOS - SANTANDER                                             3
 ACTION:UPD 14-03-13 09:51 OP:ep   STATUS:               ID:20140105041835 L   I
 OLDACT:REG 14-01-05 08:14 OP:stll STATUS:               ID:20140105041818     3
 2014-01-05-0418-18M.COL___240                                                 6
 STAT SP IPHASW D HRMM SECON CODA AMPLIT PERI AZIMU VELO AIN AR TRES W  DIS CAZ7
 BAR2 SZ EP        418 54.53                             171   -0.1010 22.3 211 
 BAR2 SZ ES        419  9.17                             171   -0.3610 22.3 211 
 BAR2 SZ I         419 10.80        13.2 0.20            169           22.3 211 
 PAM  SZ EP        418 57.39                             150    0.1710 76.1  33 
 PAM  SZ I         418 57.69         9.3 0.26            153           76.1  33 
 PAM  SN ES        419 14.16                             150    0.0210 76.1  33 
 BRR  HZ EP        418 56.47                             149   -0.2710 79.7 298 
 BRR  HN ES        419 13.58                             149    0.3010 79.7 298 
 BRR  HZ I         419 17.06         3.9 0.28            147           79.7 298 
 RUS  HZ EP        418 58.60                             144    0.0410 96.4 180 
 RUS  HN ES        419 16.75                             144    0.2210 96.4 180 
 RUS  HZ I         419 18.28         3.2 0.32            145           96.4 180 
                                                                                
