 2015  1 5 0706 38.0 L   6.746 -73.134146.3  RSN  5 0.6 1.3LRSN                1
 GAP=222        1.54      10.6    10.3 13.1  0.1778E+02  0.6602E+01 -0.5739E+02E
 Epicentro: LOS SANTOS - SANTANDER                                             3
 ACTION:UPD 15-03-02 15:36 OP:nd   STATUS:               ID:20150105070638 L   I
 OLDACT:UP  15-01-05 15:39 OP:cam  STATUS:               ID:20150105065806     3
 OLDACT:REG 15-01-05 14:23 OP:cam  STATUS:               ID:20150105065806     3
 2015-01-05-0658-06M.COL___277                                                 6
 STAT SP IPHASW D HRMM SECON CODA AMPLIT PERI AZIMU VELO AIN AR TRES W  DIS CAZ7
 BAR2 EZ EP        7 6 58.16                             173    0.6110 17.9 198 
 BAR2 EZ ES        7 7 12.12                             173   -0.7110 17.9 198 
 BAR2 EZ I         7 7 13.75         5.2 0.22            170           17.9 198 
 BRR  HZ EP        7 6 59.89                             151    0.5010 75.3 302 
 BRR  HN ES        7 7 16.79                             151    0.6710 75.3 302 
 BRR  HZ I         7 7 19.64         3.1 0.28            147           75.3 302 
 PTB  HZ EP   1    7 7  4.92                             132   -0.07 7  148 261 
 PTB  HN ES        7 7 25.19                             132   -0.88 9  148 261 
 PTB  HZ I         7 7 28.50         1.9 0.60            131            148 261 
 ZAR  HN ES        7 7 37.10                             122    0.69 8  208 294 
 ZAR  HZ I         7 7 44.44         1.8 0.32            121            208 294 
 SML  HZ EP        7 7 14.51                             117   -0.74 8  250 336 
 SML  HN ES        7 7 43.85                             117   -0.50 8  250 336 
 SML  HZ I         7 7 45.56         2.2 0.10            117            250 336 
                                                                                
