 2014  6 5 0935  1.3 L   7.435 -73.250130.2  RSN  5 0.4 1.3LRSN                1
 GAP=131        1.03       4.5     4.8 10.4  0.8277E+00  0.2142E+02 -0.1127E+02E
 Epicentro: EL PLAYON - SANTANDER                                              3
 ACTION:UPD 14-07-01 22:51 OP:nd   STATUS:               ID:20140605093501 L   I
 OLDACT:DUP 14-06-05 17:17 OP:carl STATUS:               ID:20140605092817d    3
 2014-06-05-0928-16M.COL___259                                                 6
 STAT SP IPHASW D HRMM SECON CODA AMPLIT PERI AZIMU VELO AIN AR TRES W  DIS CAZ7
 PAM  SZ EP        935 20.68                             153   -0.2510 61.7 100 
 PAM  SN ES        935 36.61                             153    0.3510 61.7 100 
 PAM  SZ I         935 38.43         3.9 0.42            158           61.7 100 
 BAR2 SZ EP        935 22.89                             142    0.2410 93.5 175 
 BAR2 SZ ES        935 39.04                             142   -0.2710 93.5 175 
 BAR2 SZ I         935 42.63         4.0 0.16            145           93.5 175 
 PTB  HZ EP        935 29.35                             125    0.52 9  166 233 
 PTB  HN ES        935 49.65                             125   -0.66 9  166 233 
 PTB  HZ I         935 52.55         2.0 0.18            127            166 233 
 SML  HZ EP        935 29.46                             123   -0.36 9  176 329 
 SML  HE ES        935 51.87                             123   -0.20 9  176 329 
 SML  HZ I         935 52.74         2.9 0.22            127            176 329 
 ZAR  HN ES        935 53.00                             123    0.62 9  178 272 
 ZAR  HZ I         935 55.39         3.5 0.20            126            178 272 
                                                                                
