 2011 12 5 0610 21.2 L   6.837 -73.268118.0  RSN  4 0.3 1.1LRSN                1
 GAP=144        0.54       8.3    15.1 12.7  0.9310E+02 -0.1240E+03 -0.3682E+02E
 Epicentro: ZAPATOCA - SANTANDER                                               3
 ACTION:UPD 12-07-13 16:14 OP:ep   STATUS:               ID:20111205061021 L   I
 2011-12-05-0610-00M.COL___183                                                 6
 STAT SP IPHASW D HRMM SECON CODA AMPLIT PERI AZIMU VELO AIN AR TRES W  DIS CAZ7
 GIR2 SZ EP   1    610 37.48                             166   -0.05 7 28.0  17 
 BAR2 SZ EP   1    610 37.85                             166    0.16 7 28.6 161 
 BAR2 SZ I         610 52.31         6.6 0.30                          28.6 161 
 BRR  HZ EP   1    610 38.24                             153   -0.37 7 57.5 301 
 BRR  HE ES   1    610 52.37                             153    0.21 7 57.5 301 
 BRR  HZ I         610 57.37         3.5 0.44                          57.5 301 
 RUS  HZ EP   2    610 43.32                             136    0.45 5  106 169 
 RUS  HZ I         610 55.12         1.2 0.42                           106 169 
 RUS  HN ES   2    610 59.39                             136   -0.34 5  106 169 
                                                                                
