 2010  9 5 0120 55.1 L   6.813 -73.058138.0  RSN 11 0.4 2.3LRSN                1
 GAP=168        0.91       3.3     6.6  6.6 -0.8774E+01  0.5027E+01  0.7514E+00E
 Epicentro: LOS SANTOS - SANTANDER                                             3
 ACTION:UP  11-02-18 11:00 OP:tino STATUS:               ID:20100905012055 L   I
 2010-09-05-0118-02S.COL___120                                                 6
 STAT SP IPHASW D HRMM SECON CODA AMPLIT PERI AZIMU VELO SNR AR TRES W  DIS CAZ7
 BAR2 SZ IP        121 14.03                             168     0.110   28 210 
 BAR2 SZ I         121 14.55        43.2 0.14                            28 210 
 BAR2 SZ ES   1    121 28.27                             168    -0.3 7   28 210 
 BRR  HZ IP     C  121 15.80                             148    -0.110   79 294 
 BRR  HE ES   1    121 32.50                             148     0.3 7   79 294 
 BRR  HZ I         121 36.51        82.3 0.11                            79 294 
 RUS  HZ EP        121 18.09                             142    -0.110  102 182 
 RUS  HN ES   1    121 36.44                             142     0.2 7  102 182 
 RUS  HZ I         121 38.31        25.8 0.51                           102 182 
 GUE  SZ EP        121 19.04                             138     0.210  113   7 
 GUE  SZ I         121 37.64        11.8 0.03                           113   7 
 GRA  SZ EP        121 19.77                             136     0.410  122  13 
 GRA  SZ ES   1    121 38.45                             136     0.2 7  122  13 
 GRA  SZ I         121 40.42        42.1 0.27                           122  13 
 OCA  SZ EP        121 22.36                             128    -0.5 9  160 350 
 OCA  SZ ES   1    121 43.93                             128    -0.5 7  160 350 
 OCA  SZ I         121 48.91        28.2 0.12                           160 350 
 CHI  HZ EP   2    121 32.41                             115    -0.5 4  253 197 
 CHI  HE ES   1    122  2.18                             115    -0.1 6  253 197 
 CHI  HZ I         122  9.42         8.4 0.52                           253 197 
 HEL  HZ EP   2    121 36.43                             112     0.4 4  282 256 
 HEL  HZ I         122 13.64        11.4 0.49                           282 256 
 GUY  SN ES   1    122 13.57                             110    -0.4 5  310 236 
 GUY  SZ I         122 18.22        29.3 0.62                           310 236 
 RREF HZ EP   1    121 42.84                             109     0.9 5  330 230 
 RREF HN ES   1    122 19.02                             109     0.6 5  330 230 
 RREF HZ I         122 24.21        10.6 0.27                           330 230 
 PRA  HZ EP   1    121 48.22                             105    -0.9 4  398 211 
 PRA  HE ES   2    122 30.85                             105    -0.4 3  398 211 
 PRA  HZ I         122 39.22         8.2 0.49                           398 211 
                                                                                
