 2012 11 5 0154 57.7 L   6.785 -73.121146.2  RSN 15 0.4 2.4LRSN 3.1WRSN        1
 SPEC AVERAGE  MO 13.7 ST 21.1 OM  2.6 f0 6.57 R0.2426 AL 3.31 WI 23.7 MW  3.1 3
 SPEC SD       MO  0.2 ST 10.5 OM  1.0 f0 1.83 R0.0672 AL      WI      MW  0.1 3
 GAP= 73        0.97       3.1     3.7  4.6 -0.3956E+00  0.4256E+01  0.3296E+01E
 Epicentro: LOS SANTOS - SANTANDER                                             3
 SPEC ZAR HH N MO 13.7 ST 33.9 OM  1.9 f0 8.05 R0.1826 AL 2.95 WI 22.8 MW  3.1 3
 SPEC ZAR HH N T 15555 K 0.000 GD  253 VS 4.20 DE 3.00 Q0230.0 QA 0.60 VS 4.20 3
 SPEC NOR HH Z MO 13.5 ST 27.8 OM  0.9 f0 8.71 R0.1688 AL 2.92 WI 23.8 MW  2.9 3
 SPEC NOR HH Z T 15533 K 0.000 GD  277 VP 7.60 DE 3.00 Q0230.0 QA 0.60 VS 4.20 3
 SPEC OCA HH N MO 14.0 ST 15.7 OM  2.3 f0 4.82 R0.3050 AL 3.31 WI 23.1 MW  3.3 3
 SPEC OCA HH N T 15547 K 0.000 GD  218 VS 4.20 DE 3.00 Q0230.0 QA 0.60 VS 4.20 3
 SPEC BRR HH E MO 13.7 ST  6.8 OM  2.1 f0 4.68 R0.3141 AL 4.04 WI 25.0 MW  3.1 3
 SPEC BRR HH E T 15536 K 0.000 GD  163 VS 4.20 DE 3.00 Q0230.0 QA 0.60 VS 4.20 3
 ACTION:UPD 12-12-05 15:31 OP:}ep  STATUS:               ID:20121105015457 L   I
 2012-11-05-0150-00M.COL___230                                                 6
 STAT SP IPHASW D HRMM SECON CODA AMPLIT PERI AZIMU VELO AIN AR TRES W  DIS CAZ7
 BAR2 SZ IP        155 17.15                             171   -0.2610 22.4 197 
 BAR2 SZ ES        155 32.53                             171   -0.2210 22.4 197 
 BAR2 SZ I         155 33.59        61.2 0.18                          22.4 197 
 GIR2 SZ EP        155 17.55                             166    0.0210 33.4 346 
 GIR2 SZ ES        155 33.31                             166    0.3510 33.4 346 
 BRR  HZ IP     C  155 19.04                             152   -0.0810 74.3 299 
 BRR  HE ES        155 36.46                             152    0.6710 74.3 299 
 BRR  HN I         155 40.72        53.4 0.18                          74.3 299 
 PAM  SZ EP        155 20.00                             151    0.0210 77.0  37 
 PAM  SE ES   1    155 37.23                             151   -0.10 7 77.0  37 
 PAM  SN I         155 38.33        27.0 0.22                          77.0  37 
 RUS  HZ IP        155 21.06                             144   -0.3510 98.8 178 
 RUS  HN ES        155 39.58                             144   -0.2910 98.8 178 
 RUS  HN I         155 41.62        23.1 0.26                          98.8 178 
 TAM  HZ EP        155 25.44                             131    0.26 9  152 105 
 TAM  HN ES   2    155 46.26                             131   -0.32 5  152 105 
 OCA  HZ EP   1    155 25.91                             129   -0.36 7  162 352 
 OCA  HN I         155 51.31        55.0 0.20                           162 352 
 ZAR  HZ EP        155 30.76                             122    0.22 8  207 292 
 ZAR  HN ES        155 55.62                             122   -0.49 8  207 292 
 NOR  HZ EP        155 33.54                             118   -0.09 8  236 235 
 NOR  HN ES   1    156  0.86                             118   -0.77 6  236 235 
 NOR  HN I         156  7.84        35.8 0.14                           236 235 
 CHI  HZ EP        155 35.28                             117   -0.09 8  248 196 
 CHI  HN ES        156  5.19                             117    0.46 8  248 196 
 CHI  HN I         156 10.40        16.2 0.44                           248 196 
 ROSC BZ EP        155 37.26                             117    1.37 8  253 212 
 ROSC BE ES        156  5.16                             117   -0.48 8  253 212 
 ROSC BZ I         156 14.97        16.4 0.35                           253 212 
 HEL  HZ EP        155 38.52                             115    0.30 8  274 256 
 HEL  HN I         156 16.00         6.9 0.26                           274 256 
 DBB  SZ EP        155 45.22                             109   -0.34 7  342 274 
 COD  HZ EP   2    155 46.12                             109   -0.23 3  350 354 
 PRA  HZ EP        155 50.63                             107   -0.64 6  392 210 
 PRA  HE ES        156 33.52                             107    0.50 6  392 210 
 PRA  HN I         156 38.34         7.6 0.58                           392 210 
                                                                                
