 2017  6 5 0753  2.3 L   6.868 -73.095151.9  RSN 20 0.5 2.1LRSN                1
 GAP=151        1.13       3.6     4.1  6.0  0.4366E+01 -0.1580E+01 -0.2501E+01E
 Epicentro: LOS SANTOS - SANTANDER                                             3
 ACTION:UPD 17-09-14 16:49 OP:jn   STATUS:               ID:20170605075302 L   I
 OLDACT:UP  17-06-05 17:07 OP:edw  STATUS:               ID:20170605074740     3
 OLDACT:UP  17-06-05 17:06 OP:edw  STATUS:               ID:20170605074740     3
 OLDACT:REG 17-06-05 12:07 OP:edw  STATUS:               ID:20170605074740     3
 2017-06-05-0748-00M.COL___344                                                 6
 STAT SP IPHASW D HRMM SECON CODA AMPLIT PERI AZIMU VELO AIN AR TRES W  DIS CAZ7
 BRR  HZ IP     C  753 24.82                             153    0.5510 73.1 291 
 BRR  HN ES        753 41.27                             153   -0.0910 73.1 291 
 BRR  HZ I         753 45.13        26.1 0.16            149           73.1 291 
 RUS  HZ EP        753 27.24                             143    0.0110  108 179 
 RUS  HN ES        753 45.68                             143   -0.9510  108 179 
 RUS  HZ I         753 47.69        21.6 0.38            141            108 179 
 PTB  HZ EP   9    753 29.77                             132   -0.68 0  155 257 
 PTB  HN ES        753 50.92                             131   -0.77 9  155 257 
 PTB  HZ I         753 58.01        17.6 0.36            129            155 257 
 SPBC HZ EP        753 32.00                             128   -0.20 9  173 219 
 SPBC HN ES        753 55.38                             128   -0.11 9  173 219 
 SPBC HZ I         753 56.78        18.8 0.10            126            173 219 
 YPLC HZ EP     D  753 33.34                             127    0.35 9  181 154 
 YPLC HN ES        753 57.62                             127    0.73 9  181 154 
 YPLC HZ I         753 58.40        20.3 0.26            127            181 154 
 ZAR  HZ EP        753 35.26                             123   -0.19 8  207 290 
 ZAR  HN ES        754  2.05                             123    0.77 8  207 290 
 ZAR  HZ I         754  5.86        13.4 0.50            122            207 290 
 NOR  HZ EP   9    753 39.12                             118   -0.27 0  244 234 
 NOR  HN ES        754  7.17                             118   -0.84 8  244 234 
 NOR  HZ I         754  9.56         8.8 0.16            117            244 234 
 CHI  HZ EP        753 41.01                             117   -0.32 8  257 196 
 CHI  HN ES        754 11.40                             117   -0.34 8  257 196 
 CHI  HZ I         754 17.41         6.6 0.42            116            257 196 
 ROSC BZ EP        753 42.16                             117    0.35 8  262 211 
 ROSC BN ES        754 13.23                             117    0.63 8  262 211 
 ROSC BZ I         754 19.71        12.6 0.35            116            262 211 
 HEL  HZ EP        753 44.24                             115    0.56 7  279 255 
 HEL  HN ES        754 15.44                             115   -0.48 7  279 255 
 HEL  HZ I         754 21.76         8.6 0.40            114            279 255 
 VIL  EZ EP   4    753 48.32                             112    1.32 0  312 192 
 VIL  EE ES   2    754 21.29                             112   -0.55 3  312 192 
 VIL  EZ I         754 30.51         9.3 0.44            112            312 192 
 PTGC HZ EP     D  753 46.21                             112   -0.84 7  314 160 
 PTGC HN ES   4    754 19.73                             112   -2.20 0  314 160 
 PTGC HZ I         754 20.92         9.1 0.24            112            314 160 
 ELA  HZ EP   4    753 53.93                             110    3.43 0  338 229 
 ELA  HN ES   4    754 29.72                             110    1.66 0  338 229 
 ELA  HZ I         754 42.51         5.3 0.46            110            338 229 
 CBOC HZ EP        753 51.03                             110    0.64 7  341 251 
 CBOC HN ES   4    754 26.41                             110   -1.46 0  341 251 
 CBOC HZ I         754 31.01         2.4 0.42            109            341 251 
 DBB  EZ EP   4    753 48.48                             110   -2.18 0  345 273 
 DBB  EN ES        754 27.64                             110   -0.70 7  345 273 
 ARGC HZ EP        753 51.57                             109   -0.08 6  354 339 
 ARGC HN ES   4    754 31.37                             109    1.26 0  354 339 
 ARGC HZ I         754 31.41         2.1 0.36            110            354 339 
 ORTC HZ EP        753 57.33                             107   -0.24 6  405 216 
 ORTC HN ES        754 40.61                             107   -0.03 6  405 216 
 ORTC HZ I         754 48.02         2.9 0.36            106            405 216 
 SJC  HZ EP        753 57.15                             106   -0.59 6  406 326 
 SJC  HN ES   4    754 37.31                             106   -3.65 0  406 326 
 SJC  HZ I         754 45.79         2.8 0.30            107            406 326 
 PAL  HZ EP        753 59.34                             106    0.62 6  414 239 
 PAL  HN ES        754 42.49                             106   -0.21 6  414 239 
 PAL  HZ I         754 47.04         2.7 0.70            106            414 239 
 CRJC HZ EP   2    754  3.57                             104   -0.53 2  460   3 
 CRJC HN ES   2    754 51.14                             104   -1.13 2  460   3 
                                                                                
