 2017  7 5 0539 37.4 L   6.715 -73.145147.3  RSN  6 0.3 1.5LRSN                1
 GAP=162        0.82       6.5     4.0  6.6 -0.7114E+01  0.5397E+01  0.2611E+01E
 Epicentro: JORDAN - SANTANDER                                                 3
 ACTION:UPD 17-08-30 15:29 OP:rebc STATUS:               ID:20170705053937 L   I
 OLDACT:UP  17-07-05 17:07 OP:edw  STATUS:               ID:20170705053739     3
 OLDACT:REG 17-07-05 13:21 OP:edw  STATUS:               ID:20170705053739     3
 2017-07-05-0538-00M.COL___371                                                 6
 STAT SP IPHASW D HRMM SECON CODA AMPLIT PERI AZIMU VELO AIN AR TRES W  DIS CAZ7
 BAR2 EZ EP     C  539 57.28                             174    0.1710 14.2 197 
 BAR2 EZ ES        540 12.75                             174    0.3010 14.2 197 
 BAR2 EZ I         540 13.55         9.3 0.44            175           14.2 197 
 BRR  HZ EP        539 59.22                             151    0.1810 76.2 305 
 BRR  HE ES        540 16.26                             151    0.3710 76.2 305 
 BRR  HZ I         540 19.26         6.2 0.20            151           76.2 305 
 PAM  EZ IP     D  540  0.27                             149   -0.0010 84.8  35 
 PAM  EN ES        540 17.57                             149   -0.5110 84.8  35 
 PAM  EZ I         540 19.41         6.2 0.78            150           84.8  35 
 PTB  HZ EP        540  4.44                             133    0.04 9  146 262 
 PTB  HN ES        540 24.82                             133   -0.62 9  146 262 
 PTB  HZ I         540 27.74         2.7 0.30            134            146 262 
 ZAR  HN ES        540 36.17                             122    0.10 8  208 295 
 NOR  HN ES   2    540 39.80                             119   -0.40 4  229 236 
                                                                                
