 2016  8 5 0728  8.2 L   6.770 -73.103142.4  RSN 10 0.2 1.8LRSN                1
 GAP=143        0.52       1.9     2.2  2.9 -0.2831E+00  0.2897E+01  0.5508E+00E
 Epicentro: LOS SANTOS - SANTANDER                                             3
 ACTION:UPD 16-10-29 15:32 OP:rebc STATUS:               ID:20160805072808 L   I
 OLDACT:UP  16-08-05 18:07 OP:edw  STATUS:               ID:20160805072734     3
 OLDACT:REG 16-08-05 13:15 OP:edw  STATUS:               ID:20160805072734     3
 2016-08-05-0728-00M.COL___338                                                 6
 STAT SP IPHASW D HRMM SECON CODA AMPLIT PERI AZIMU VELO AIN AR TRES W  DIS CAZ7
 BAR2 EZ EP        728 27.29                             171   -0.1410 21.5 204 
 BAR2 EZ ES        728 42.05                             171   -0.3510 21.5 204 
 BAR2 EZ I         728 42.99        13.0 0.24                          21.5 204 
 BRR  HZ EP        728 29.20                             150   -0.1710 76.9 299 
 BRR  HN ES        728 46.18                             150    0.3410 76.9 299 
 BRR  HZ I         728 50.25        14.5 0.12                          76.9 299 
 PAM  EZ EP        728 30.21                             150    0.1210 77.2  35 
 PAM  EN ES        728 47.22                             150    0.1010 77.2  35 
 PAM  EZ I         728 48.67         8.0 0.22                          77.2  35 
 RUS  HZ EP        728 31.44                             144    0.0310 97.1 179 
 RUS  HN ES        728 49.46                             144   -0.0210 97.1 179 
 RUS  HZ I         728 50.53         4.8 0.24                          97.1 179 
 SPBC HZ EP        728 36.68                             128    0.15 9  164 221 
 SPBC HN ES        728 58.64                             128    0.04 9  164 221 
 SPBC HZ I         729  1.95        10.4 0.22                           164 221 
 ZAR  HZ EP        728 40.94                             121   -0.12 8  210 292 
 ZAR  HN ES        729  6.68                             121    0.03 8  210 292 
 ZAR  HZ I         729 14.06         5.7 0.48                           210 292 
 HEL  HZ EP        728 48.68                             114   -0.03 7  276 257 
 HEL  HN ES        729 20.55                             114    0.28 7  276 257 
 HEL  HZ I         729 26.15         3.0 0.56                           276 257 
 URE  HZ EP        728 49.71                             112   -0.07 7  289 292 
 URE  HN ES   4    729 19.83                             112   -2.35 0  289 292 
 URE  HZ I         729 21.19         4.6 0.36                           289 292 
 GUY2CHZ EP   4    728 50.19                             111   -1.73 0  303 236 
 GUY2CHN ES   4    729 27.58                             111    1.59 0  303 236 
 CBOC HZ EP        728 55.17                             109   -0.25 7  337 253 
 CBOC HE ES        729 31.69                             109   -0.53 7  337 253 
 PRA  HZ EP        729  1.81                             106    0.22 6  391 210 
 PRA  HE ES        729 43.66                             106    0.46 6  391 210 
 PRA  HZ I         729 51.78         1.9 0.52                           391 210 
 SJC  HZ EP   4    729  2.43                             105   -1.90 0  415 327 
 SJC  HN ES   4    729 43.36                             105   -4.71 0  415 327 
                                                                                
