 2016  8 5 0135 48.8 L   6.965 -73.085159.4  RSN  7 0.2 1.5LRSN                1
 GAP=134        0.55       2.5     2.7  3.5 -0.3830E+00  0.3087E+01  0.9265E+00E
 Epicentro: PIEDECUESTA - SANTANDER                                            3
 ACTION:UPD 16-10-29 15:32 OP:rebc STATUS:               ID:20160805013548 L   I
 OLDACT:UP  16-08-05 14:17 OP:edw  STATUS:               ID:20160805012733d    3
 OLDACT:DUP 16-08-05 13:51 OP:edw  STATUS:               ID:20160805012733d    3
 2016-08-05-0128-00M.COL___350                                                 6
 STAT SP IPHASW D HRMM SECON CODA AMPLIT PERI AZIMU VELO AIN AR TRES W  DIS CAZ7
 BAR2 EZ EP        136 10.53                             164   -0.0410 42.6 195 
 BAR2 EZ ES        136 27.63                             164    0.0910 42.6 195 
 PAM  EZ EP        136 11.95                             159    0.3710 59.4  46 
 PAM  EN ES        136 29.09                             159   -0.2710 59.4  46 
 PAM  EZ I         136 30.01         4.9 0.32                          59.4  46 
 BRR  HZ EP        136 11.57                             155    0.1410 71.0 283 
 BRR  HN ES        136 29.35                             155    0.2710 71.0 283 
 RUS  HZ EP        136 15.06                             142   -0.1410  119 180 
 RUS  HN ES        136 35.54                             142   -0.2610  119 180 
 RUS  HZ I         136 36.85         1.5 0.30                           119 180 
 SPBC HZ EP        136 20.13                             129    0.03 9  182 217 
 SPBC HN ES        136 44.67                             129    0.16 9  182 217 
 SPBC HZ I         136 47.86         2.9 0.22                           182 217 
 ZAR  HZ EP        136 21.94                             125   -0.26 9  204 287 
 ZAR  HN ES        136 47.99                             125   -0.25 9  204 287 
 ZAR  HZ I         136 55.24         3.9 0.28                           204 287 
 GUY2CHZ EP        136 35.00                             114    0.13 7  317 233 
 GUY2CHE ES        137 10.77                             114   -0.04 7  317 233 
 GUY2CHZ I         137 20.20         1.9 0.80                           317 233 
 SJC  HZ EP   4    136 42.24                             108   -1.29 0  398 325 
 SJC  HN ES   4 C  137 24.25                             108   -1.96 0  398 325 
                                                                                
