 2010  6 5 0356 35.9 L   6.826 -73.111142.0  RSN 10 0.4 2.3LRSN                1
 GAP=147        0.91       5.0     8.1  6.7 -0.2799E+02  0.3354E+01  0.4828E+01E
 Epicentro: LOS SANTOS - SANTANDER                                             3
 ACTION:UP  10-08-24 10:08 OP:vdl  STATUS:               ID:20100605035635 L   I
 2010-06-05-0353-33S.COL___109                                                 6
 STAT SP IPHASW D HRMM SECON CODA AMPLIT PERI AZIMU VELO SNR AR TRES W  DIS CAZ7
 BAR2 SZ EP   1    356 54.85                             169    -0.3 8   27 197 
 BAR2 SZ ES   1    357  9.77                             169    -0.4 8   27 197 
 GIR2 SZ EP   2    356 55.02                             168    -0.1 5   29 342 
 GIR2 SZ ES   2    357 10.72                             168     0.7 5   29 342 
 GUE  SZ EP        356 59.95                             139     0.010  113  10 
 GUE  SZ ES   1    357 19.35                             139     0.6 7  113  10 
 GRA  SZ IP        357  0.87                             137     0.410  122  16 
 GRA  SZ ES   1    357 19.13                             137    -0.5 7  122  16 
 OCA  SZ EP   1    357  3.72                             129     0.0 7  158 352 
 OCA  SZ ES   1    357 25.25                             129    -0.1 7  158 352 
 OCA  SZ I         357 36.05        23.0 0.23                           158 352 
 ROSC BZ IP     C  357 15.24                             115     0.9 8  257 211 
 ROSC BE ES   1    357 44.00                             115    -0.3 6  257 211 
 ROSC BZ I         357 53.75        14.5 0.39                           257 211 
 HEL  HZ EP   2    357 15.96                             113    -0.5 4  276 255 
 HEL  HE ES   2    357 47.34                             113    -0.7 4  276 255 
 HEL  HZ I         357 53.42        17.1 0.37                           276 255 
 RREF BZ EP   1    357 22.15                             110    -0.3 5  327 229 
 RREF BE ES   1    357 58.71                             110     0.0 5  327 229 
 RREF BZ I         358  7.29         8.4 0.32                           327 229 
 DBB  SZ EP   2    357 23.56                             108    -0.1 3  343 274 
 SDV  BZ IP     D  357 24.70                             108    -0.6 6  356  50 
 SDV  BZ I         358  7.22         5.7 0.54                           356  50 
                                                                                
