 2016 11 5 0659 53.5 L   6.781 -73.164150.1  RSN  5 0.5 1.2LRSN                1
 GAP=245        1.18       7.3     7.9  8.7  0.9477E+01  0.1285E+02  0.1757E+01E
 Epicentro: LOS SANTOS - SANTANDER                                             3
 ACTION:UPD 17-10-26 21:04 OP:lp   STATUS:               ID:20161105065953 L   I
 OLDACT:REG 16-11-05 14:12 OP:dani STATUS:               ID:20161105065744     3
 2016-11-05-0658-00M.COL___351                                                 6
 STAT SP IPHASW D HRMM SECON CODA AMPLIT PERI AZIMU VELO AIN AR TRES W  DIS CAZ7
 BAR2 EZ EP        7 0 13.36                             172   -0.2010 21.0 185 
 BAR2 EZ ES        7 0 28.75                             172   -0.4910 21.0 185 
 BRR  HZ EP        7 0 15.41                             153    0.3810 70.4 301 
 BRR  HN ES        7 0 32.50                             153    0.6510 70.4 301 
 BRR  HZ I         7 0 36.36         3.2 0.18            150           70.4 301 
 PTB  HZ EP        7 0 20.07                             133   -0.49 9  145 259 
 PTB  HN ES        7 0 40.94                             133   -0.76 9  145 259 
 PTB  HZ I         7 0 44.22         1.6 0.18            132            145 259 
 SPBC HZ EP        7 0 22.26                             131    0.25 9  160 219 
 SPBC HN ES        7 0 44.94                             131    0.65 9  160 219 
 SPBC HZ I         7 0 50.53         2.7 0.22            130            160 219 
 ZAR  HZ EP        7 0 26.01                             123   -0.06 9  203 293 
 ZAR  HN ES        7 0 51.56                             123    0.05 9  203 293 
 ZAR  HZ I         7 0 58.61         1.3 0.24            123            203 293 
                                                                                
