 2011 12 5 0256 26.0 L   6.775 -73.098145.2  RSN  5 0.2 1.6LRSN                1
 GAP=144        0.41       2.5     4.3  4.0 -0.1137E+01  0.1346E+01  0.3475E+01E
 Epicentro: LOS SANTOS - SANTANDER                                             3
 ACTION:UPD 12-07-13 16:14 OP:ep   STATUS:               ID:20111205025626 L   I
 2011-12-05-0250-00M.COL___183                                                 6
 STAT SP IPHASW D HRMM SECON CODA AMPLIT PERI AZIMU VELO AIN AR TRES W  DIS CAZ7
 BAR2 SZ EP   1    256 45.61                             171    0.06 7 22.3 205 
 BAR2 SZ ES   1    257  1.05                             171    0.25 7 22.3 205 
 BAR2 SZ I         257  2.25         6.1 0.12                          22.3 205 
 PAM  SZ EP   2    256 48.38                             151    0.28 5 76.4  35 
 PAM  SE ES   1    257  5.09                             151   -0.25 7 76.4  35 
 BRR  HZ EP   1    256 47.65                             150    0.21 7 77.2 298 
 BRR  HN ES   1    257  3.98                             150   -0.19 7 77.2 298 
 BRR  HZ I         257  8.12         7.3 0.12                          77.2 298 
 RUS  HZ EP   1    256 49.35                             145   -0.14 7 97.6 179 
 RUS  HN ES   1    257  7.88                             145    0.07 7 97.6 179 
 RUS  HZ I         257 10.39         4.3 0.33                          97.6 179 
 CHI  HZ EP   1    257  3.50                             117   -0.04 6  247 197 
 CHI  HE ES   1    257 32.64                             117   -0.18 6  247 197 
 CHI  HZ I         257 36.92         3.9 0.40                           247 197 
                                                                                
