 2010  9 5 0853 18.9 L   6.788 -73.098140.3  RSN  8 0.4 1.8LRSN                1
 GAP=164        0.92       4.7     8.0  7.8 -0.8125E+01 -0.3657E+01 -0.7568E+01E
 Epicentro: LOS SANTOS - SANTANDER                                             3
 ACTION:UP  11-02-18 11:00 OP:tino STATUS:               ID:20100905085318 L   I
 2010-09-05-0851-47S.COL___120                                                 6
 STAT SP IPHASW D HRMM SECON CODA AMPLIT PERI AZIMU VELO SNR AR TRES W  DIS CAZ7
 BAR2 SZ IP        853 37.91                             170     0.010   24 204 
 BAR2 SZ I         853 38.29        18.5 0.10                            24 204 
 BAR2 SZ ES   1    853 52.60                             170    -0.1 7   24 204 
 BRR  HZ EP        853 39.84                             150     0.010   77 298 
 BRR  HZ I         853 40.30        30.4 0.07                            77 298 
 BRR  HN ES   1    853 56.59                             150     0.5 7   77 298 
 RUS  HZ EP   1    853 41.80                             143    -0.2 7   99 179 
 RUS  HE ES   1    854  0.09                             143     0.0 7   99 179 
 RUS  HZ I         854  1.78         8.5 0.33                            99 179 
 GUE  SZ IP        853 43.53                             138     0.410  117   9 
 GUE  SZ I         854 10.30         3.8 0.18                           117   9 
 GRA  SZ EP        853 43.89                             136     0.210  126  15 
 GRA  SZ ES   1    854  2.47                             136    -0.5 7  126  15 
 GRA  SZ I         854  4.50        14.7 0.22                           126  15 
 OCA  SZ EP   1    853 46.37                             128    -0.7 7  162 351 
 OCA  SZ I         854 10.00         9.8 0.38                           162 351 
 HEL  HN ES   2    854 30.08                             113    -0.9 4  277 256 
 HEL  HZ I         854 37.03         3.1 0.56                           277 256 
 PRA  HZ EP   1    854 12.87                             105     0.4 4  393 210 
 PRA  HZ I         854 59.80         2.0 0.14                           393 210 
                                                                                
