 2011  3 5 0437 42.0 L   6.788 -73.149146.4  RSN 10 0.5 2.0LRSN 1.5BRSN        1
 GAP=158        0.66       3.7     8.4  7.0 -0.1299E+02  0.3093E+02 -0.8487E+01E
 Epicentro: LOS SANTOS - SANTANDER                                             3
 ACTION:UP  11-06-16 14:31 OP:jfem STATUS:               ID:20110305043742 L   I
 2011-03-05-0434-06S.COL___135                                                 6
 STAT SP IPHASW D HRMM SECON CODA AMPLIT PERI AZIMU VELO SNR AR TRES W  DIS CAZ7
 BAR2 SZ EP   1    438  1.69                             171     0.0 7   22 190 
 BAR2 SZ ES   1    438 16.90                             171    -0.1 7   22 190 
 BAR2 SZ I         438 17.97        25.2 0.36                            22 190 
 RUS  HZ EP        438  5.57                             145    -0.110   99 176 
 RUS  HN ES   2    438 24.22                             145     0.0 5   99 176 
 GRA  SZ IP        438  7.49                             137     0.110  127  17 
 GRA  SZ ES   1    438 27.70                             137     0.5 7  127  17 
 GRA  SZ I         438 29.44        17.2 0.28                           127  17 
 OCA  SZ EP        438  9.97                             130    -0.5 9  161 353 
 OCA  SZ I         438 37.82        17.3 0.25                           161 353 
 CHI  HZ EP   3    438 19.24                             118    -0.3 2  247 195 
 CHI  HZ I         438 22.38         3.7 0.35                           247 195 
 CHI  HN ES   2    438 48.48                             118    -0.4 4  247 195 
 HEL  HZ EP   3    438 22.64                             115     0.5 2  271 256 
 HEL  HZ I         439  0.37         6.6 0.32                           271 256 
 RREF HZ EP   3    438 28.80                             111     0.8 2  321 230 
 RREF HN ES   3    439  4.99                             111     1.1 2  321 230 
 RREF HZ I         439 13.91         5.4 0.28                           321 230 
 DBB  SZ EP        438 29.90         1.2 0.42            110     0.5 7  339 274 
 MON  HN ES   3    439  7.35                             109    -1.9 2  353 309 
 PRA  HZ EP   3    438 35.34                             107     0.0 1  391 210 
 PRA  HE ES   3    439 18.01                             107     1.0 1  391 210 
                                                                                
