 2016  6 5 0846 22.2 L   6.793 -73.152141.8  RSN 11 0.3 2.0LRSN                1
 GAP=136        0.74       2.1     2.7  4.0 -0.1081E+01  0.3174E+01  0.7976E+00E
 Epicentro: LOS SANTOS - SANTANDER                                             3
 ACTION:UPD 16-07-21 22:15 OP:rebc STATUS:               ID:20160605084622 L   I
 OLDACT:REG 16-06-05 13:16 OP:edw  STATUS:               ID:20160605083742     3
 2016-06-05-0837-42M.COL___316                                                 6
 STAT SP IPHASW D HRMM SECON CODA AMPLIT PERI AZIMU VELO AIN AR TRES W  DIS CAZ7
 BAR2 EZ IP        846 41.33                             171    0.0210 22.5 188 
 BAR2 EZ ES        846 56.10                             171   -0.1310 22.5 188 
 BAR2 EZ I         846 57.37        23.1 0.18                          22.5 188 
 BRR  HZ EP        846 43.33                             152    0.4610 70.9 299 
 BRR  HN ES        846 59.37                             152    0.3510 70.9 299 
 BRR  HZ I         847  3.26        20.4 0.28                          70.9 299 
 PAM  EZ EP        846 44.35                             150    0.3210 78.4  40 
 PAM  EN ES        847  0.99                             150   -0.0810 78.4  40 
 PAM  EZ I         847  3.25        31.3 0.44                          78.4  40 
 RUS  HZ EP        846 45.35                             143   -0.1310 99.9 176 
 RUS  HN ES        847  3.77                             143    0.1110 99.9 176 
 RUS  HZ I         847  4.89         9.9 0.32                          99.9 176 
 PTB  HZ EP        846 48.25                             131   -0.49 9  147 259 
 PTB  HN ES        847  8.91                             131   -0.55 9  147 259 
 PTB  HZ I         847 11.40         9.8 0.30                           147 259 
 OCA  HZ EP        846 49.71                             129   -0.53 9  161 353 
 OCA  HN ES        847 11.96                             129   -0.17 9  161 353 
 OCA  HZ I         847 18.80        24.1 0.32                           161 353 
 SPBC HZ EP        846 50.23                             128   -0.04 9  162 219 
 SPBC HZ I         847 11.40        21.9 0.10                           162 219 
 SPBC HN ES        847 12.41                             128    0.23 9  162 219 
 NOR  HZ EP        846 57.94                             118    0.38 8  234 235 
 NOR  HN ES        847 25.05                             118   -0.12 8  234 235 
 NOR  HZ I         847 32.23         8.0 0.20                           234 235 
 CHI  HZ EP        846 59.61                             116    0.05 8  248 195 
 CHI  HN ES        847 28.54                             116   -0.17 8  248 195 
 CHI  HZ I         847 35.45         4.2 0.32                           248 195 
 HEL  HZ EP        847  2.30                             114    0.21 8  271 256 
 HEL  HN ES        847 33.21                             114   -0.01 8  271 256 
 HEL  HZ I         847 40.33         5.0 0.30                           271 256 
 URE  HN ES        847 35.21                             113    0.36 7  283 292 
 URE  HZ I         847 45.88         6.7 0.18                           283 292 
 PTGC HZ EP   4    847  4.68                             111   -1.13 0  308 158 
 PTGC HE ES   4    847 37.83                             111   -2.01 0  308 158 
                                                                                
