 2012  5 5 0534 23.4 L   5.818 -73.842106.7  RSN  4 0.3 1.2LRSN                1
 GAP=235        0.58       6.7     4.2  9.9  0.1356E+02  0.1316E+02  0.1774E+02E
 Epicentro: JESUS MARIA - SANTANDER                                            3
 ACTION:UP  12-07-05 12:02 OP:pat  STATUS:               ID:20120505053423 L   I
 2012-05-05-0530-00M.COL___192                                                 6
 STAT SP IPHASW D HRMM SECON CODA AMPLIT PERI AZIMU VELO SNR AR TRES W  DIS CAZ7
 RUS  HZ EP   1    534 42.15                             139     0.0 7   84  84 
 RUS  HN ES   1    534 57.06                             139     0.2 7   84  84 
 PTB  HZ EP   1    534 43.43                             132     0.2 7  105 320 
 PTB  HN ES   1    534 58.67                             132    -0.1 7  105 320 
 PTB  HZ I         534 59.77         1.2 0.14                           105 320 
 BAR2 SZ EP   1    534 44.14                             130    -0.2 7  113  40 
 BAR2 SZ ES   1    535  0.26                             130    -0.3 7  113  40 
 BAR2 SZ I         535  2.00         7.4 0.42                           113  40 
 BRR  HN ES   2    535  6.11                             122     0.7 5  143   6 
                                                                                
