 2010 12 5 0853 45.1 L   6.566 -73.521117.5  RSN 15 0.4 2.9LRSN                1
 GAP= 96        0.99       3.7     5.3  7.1 -0.1160E+02  0.1429E+02  0.9025E+00E
 Epicentro: EL CARMEN DE CHUCURI - SANTANDER                                   3
 ACTION:UP  11-01-14 15:22 OP:pat  STATUS:               ID:20101205085345 L   I
 2010-12-05-0851-38S.COL___133                                                 6
 STAT SP IPHASW D HRMM SECON CODA AMPLIT PERI AZIMU VELO SNR AR TRES W  DIS CAZ7
 BAR2 SZ IP        854  1.68                             161    -0.110   37  86 
 BAR2 SZ ES   1    854 13.96                             161    -0.9 7   37  86 
 GIR2 SZ IP        854  4.10                             148     0.910   67  33 
 GIR2 SZ ES   1    854 18.20                             148     0.8 7   67  33 
 GUE  SZ EP        854 10.60                             123    -0.4 9  155  25 
 GRA  SZ EP        854 11.92                             121    -0.1 9  166  28 
 GRA  SZ ES   1    854 33.13                             121     0.2 7  166  28 
 GRA  SZ I         854 37.04        88.2 0.25                           166  28 
 OCA  SZ IP        854 13.90                             118    -0.3 9  186   7 
 OCA  SZ ES   1    854 36.43                             118    -0.4 7  186   7 
 OCA  SZ I         854 45.47       115.6 0.39                           186   7 
 NOR  SZ EP   1    854 13.47                             118    -0.5 7  186 234 
 NOR  SE ES   1    854 36.09                             118    -0.4 7  186 234 
 CHI  HZ EP   1    854 17.66                             114     0.0 6  215 186 
 CHI  HE ES   1    854 42.78                             114    -0.3 6  215 186 
 CHI  HZ I         854 52.86        31.0 0.36                           215 186 
 HEL  HZ EP        854 18.88                             113     0.1 8  226 260 
 HEL  HN ES   1    854 45.12                             113     0.1 6  226 260 
 HEL  HZ I         854 50.98        41.1 0.18                           226 260 
 VIL  SZ EP   2    854 24.44                             108     0.7 4  272 182 
 VIL  SZ I         855  2.68        35.5 0.44                           272 182 
 RREF HZ EP        854 24.68                             108     0.1 8  274 228 
 RREF HE ES   1    854 55.85                             108     0.5 6  274 228 
 RREF HZ I         855  0.91        61.9 0.28                           274 228 
 TOL  SZ EP   1    854 26.90                             107     0.1 5  296 222 
 DBB  SZ EP   1    854 26.88                             106    -0.2 5  301 280 
 ANIL HZ EP   1    854 28.94                             106     0.5 5  310 222 
 ANIL HE ES   1    855  2.52                             106     0.4 5  310 222 
 PRA  HZ EP        854 32.54                             103    -0.2 6  350 206 
 PRA  HN ES   1    855 10.00                             103     0.0 5  350 206 
 PRA  HZ I         855 16.33       119.9 0.20                           350 206 
 SJA  SZ EP        854 34.96                             102     0.0 6  367 187 
 SJA  SZ I         855 18.66        61.5 0.55                           367 187 
                                                                                
