 2014  6 5 0430 58.3 L   6.844 -73.178144.6  RSN 14 0.5 2.0LRSN                1
 GAP=130        0.94       3.3     4.1  6.0 -0.3735E+01  0.7205E+01  0.4059E+01E
 Epicentro: ZAPATOCA - SANTANDER                                               3
 OLDACT:REG 14-06-05 12:56 OP:fm   STATUS:               ID:20140605042806     3
 ACTION:UPD 14-07-01 22:51 OP:nd   STATUS:               ID:20140605043058 L   I
 OLDACT:UP  14-06-05 18:17 OP:fm   STATUS:               ID:20140605042806     3
 2014-06-05-0428-06M.COL___262                                                 6
 STAT SP IPHASW D HRMM SECON CODA AMPLIT PERI AZIMU VELO AIN AR TRES W  DIS CAZ7
 BAR2 SZ EP        431 17.97                             169    0.0610 27.9 181 
 BAR2 SZ ES   1    431 33.28                             169    0.09 7 27.9 181 
 BAR2 SZ I         431 33.96        19.8 0.32            167           27.9 181 
 PAM  SZ EP        431 20.64                             151    0.3110 76.1  44 
 PAM  SN ES        431 37.74                             151    0.2310 76.1  44 
 PAM  SZ I         431 39.71        19.0 0.58            154           76.1  44 
 RUS  HZ EP        431 22.22                             142   -0.1210  106 174 
 RUS  HN ES        431 41.05                             142   -0.0210  106 174 
 RUS  SZ I         431 41.71         7.9 0.68            142            106 174 
 PTB  HZ EP        431 24.90                             132   -0.07 9  145 257 
 PTB  HN ES        431 45.84                             132    0.08 9  145 257 
 PTB  SZ I         431 51.76        10.1 0.26            131            145 257 
 OCA  HZ EP   2    431 25.59                             130   -0.46 5  155 354 
 OCA  HE ES   1    431 47.50                             130   -0.18 7  155 354 
 OCA  SZ I         431 52.86         9.2 0.50            131            155 354 
 SPBC HZ EP        431 26.96                             128    0.07 9  165 217 
 SPBC HE ES        431 49.09                             128   -0.08 9  165 217 
 SPBC SZ I         431 50.78        14.6 0.22            128            165 217 
 ZAR  HE ES   1    431 53.94                             123   -1.07 6  199 291 
 NOR  HZ EP        431 34.10                             118    0.11 8  235 233 
 NOR  HN ES        432  1.98                             118    0.17 8  235 233 
 NOR  SZ I         432  4.47         6.5 0.24            118            235 233 
 CHI  HZ EP        431 35.96                             116   -0.41 8  252 194 
 CHI  HN ES        432  5.14                             116   -0.91 8  252 194 
 CHI  SZ I         432 22.42         4.1 1.18            117            252 194 
 HEL  HZ EP   4    431 39.41                             115    1.18 0  270 255 
 HEL  HN ES   4    432  7.35                             115   -2.01 0  270 255 
 HEL  SZ I         432 15.75         4.1 0.48            114            270 255 
 GUY2CHZ EP   4    431 43.27                             112    1.40 0  301 234 
 GUY2CHE ES   4    432 19.23                             112    3.38 0  301 234 
 GUY2CSZ I         432 24.20         5.9 0.60                           301 234 
 RREF HZ EP   4    431 46.95                             111    2.48 0  322 228 
 RREF HN ES   4    432 23.25                             111    2.77 0  322 228 
 RREF SZ I         432 28.91         6.1 0.30            111            322 228 
 TOL  SZ EP        431 47.33                             109    0.68 7  345 224 
 TOL  SN ES        432 25.76                             109    1.41 7  345 224 
 PRA  HZ EP        431 52.02                             106   -0.08 6  395 209 
 PRA  HN ES        432 33.68                             106   -0.36 6  395 209 
 PRA  SZ I         432 39.94         4.5 1.74            106            395 209 
                                                                                
