 2014  4 5 0211 26.4 L   6.779 -73.172140.0  RSN  5 0.4 1.5LRSN                1
 GAP=134        0.82       4.7     3.9  9.0 -0.3595E+01  0.1396E+02 -0.5323E+00E
 Epicentro: LOS SANTOS - SANTANDER                                             3
 ACTION:UPD 14-05-13 23:06 OP:nd   STATUS:               ID:20140405021126 L   I
 OLDACT:UP  14-04-05 13:51 OP:cam  STATUS:               ID:20140405020813     3
 OLDACT:REG 14-04-05 12:58 OP:cam  STATUS:               ID:20140405020813     3
 2014-04-05-0208-13M.COL___250                                                 6
 STAT SP IPHASW D HRMM SECON CODA AMPLIT PERI AZIMU VELO AIN AR TRES W  DIS CAZ7
 PAM  SZ EP        211 48.09                             149   -0.1410 81.0  40 
 PAM  SN ES        212  5.51                             149    0.2510 81.0  40 
 PAM  SZ I         212  7.40         5.2 0.64            154           81.0  40 
 RUS  HZ EP   1    211 49.15                             143   -0.29 7 98.5 174 
 RUS  HN ES   1    212  7.38                             143   -0.03 7 98.5 174 
 RUS  HZ I         212  8.59         4.4 0.30            146           98.5 174 
 PTB  HZ EP        211 52.25                             132   -0.35 9  144 259 
 PTB  HN ES        212 12.97                             132   -0.07 9  144 259 
 PTB  HZ I         212 17.57         4.3 0.26            133            144 259 
 ZAR  HZ EP   1    211 59.07                             122    0.78 6  202 293 
 ZAR  HN ES        212 22.91                             122   -0.25 9  202 293 
 ZAR  HZ I         212 25.27         3.6 0.30            124            202 293 
 NOR  HN ES   1    212 29.56                             118    0.85 6  231 235 
 NOR  HZ I         212 33.18         3.2 0.20            120            231 235 
                                                                                
