 2015  9 5 0932 22.6 L   6.836 -73.085142.5  RSN  9 0.5 2.1LRSN                1
 GAP=189        1.26       4.8     7.2  8.5  0.5098E+01  0.2182E+02  0.6053E+01E
 Epicentro: LOS SANTOS - SANTANDER                                             3
 ACTION:UPD 15-10-28 16:24 OP:cam  STATUS:               ID:20150905093222 L   I
 OLDACT:UP  15-09-09 08:43 OP:AK   STATUS:               ID:20150905093222 L   3
 OLDACT:REG 15-09-05 12:44 OP:stll STATUS:               ID:20150905092749     3
 2015-09-05-0927-49M.COL___349                                                 6
 STAT SP IPHASW D HRMM SECON CODA AMPLIT PERI AZIMU VELO AIN AR TRES W  DIS CAZ7
 BAR2 EZ IP     C  932 42.34                             168    0.4210 29.1 202 
 BAR2 EZ I         932 42.76        20.7 0.16            152           29.1 202 
 BAR2 EZ ES        932 56.71                             168   -0.3210 29.1 202 
 BRR  HZ IP     C  932 44.14                             150    0.5410 75.5 293 
 BRR  HZ I         932 44.35        19.7 0.28            131           75.5 293 
 BRR  HN ES        933  0.93                             150    0.9210 75.5 293 
 RUS  HZ EP        932 46.38                             142    0.1210  104 180 
 RUS  HZ I         932 46.96         6.2 0.32            117            104 180 
 RUS  HN ES        933  4.42                             142   -0.3410  104 180 
 OCA  HN ES        933 11.06                             129   -0.92 9  157 351 
 OCA  HZ I         933 15.44        13.6 0.22            109            157 351 
 ZAR  HZ EP        932 55.35                             121    0.07 8  209 290 
 ZAR  HN ES        933 20.61                             121   -0.20 8  209 290 
 ZAR  HZ I         933 26.90        11.7 0.34            103            209 290 
 NOR  HE ES        933 26.48                             117   -0.84 8  242 235 
 NOR  HZ I         933 30.18         9.5 0.30            100            242 235 
 GUY2CHZ EP        933  6.54                             111   -0.35 7  309 235 
 GUY2CHN ES        933 41.74                             111    0.26 7  309 235 
 GUY2CHZ I         933 48.55         4.6 0.42                           309 235 
 TOL  SZ EP   4    933  9.86                             108   -1.69 0  351 225 
 TOL  SZ I         933 56.88        14.3 0.96             97            351 225 
 PRA  HZ EP        933 17.06                             106    0.30 6  399 210 
 PRA  HZ I         934  4.80         4.4 0.30             96            399 210 
                                                                                
