 2016  1 5 0544 27.9 L   6.756 -73.154152.2  RSN  9 0.5 1.8LRSN                1
 GAP=137        1.24       4.2     5.1  7.4 -0.4294E+01  0.9390E+01 -0.1859E+01E
 Epicentro: LOS SANTOS - SANTANDER                                             3
 ACTION:UPD 16-03-09 23:22 OP:cam  STATUS:               ID:20160105054427 L   I
 OLDACT:REG 16-01-05 12:31 OP:drio STATUS:               ID:20160105053745     3
 2016-01-05-0537-45M.COL___332                                                 6
 STAT SP IPHASW D HRMM SECON CODA AMPLIT PERI AZIMU VELO AIN AR TRES W  DIS CAZ7
 BAR2 EZ EP        544 48.43                             173    0.2010 18.4 190 
 BAR2 EZ ES        545  4.35                             173    0.2810 18.4 190 
 BAR2 EZ I         545  5.27        10.9 0.40            174           18.4 190 
 BRR  HZ EP        544 50.36                             153    0.5110 72.9 302 
 BRR  HN ES        545  7.88                             153    0.9210 72.9 302 
 BRR  HZ I         545 13.98         6.8 0.28            152           72.9 302 
 PAM  EZ EP        544 51.36                             151    0.2910 81.8  38 
 PAM  EN ES        545  8.74                             151   -0.3910 81.8  38 
 PAM  EZ I         545 13.00         6.2 0.80            153           81.8  38 
 RUS  HZ EP        544 52.56                             146    0.5910 95.8 175 
 RUS  HN ES        545 10.23                             146   -0.5010 95.8 175 
 RUS  HZ I         545 12.25         4.7 0.30            152           95.8 175 
 PTB  HZ EP        544 54.96                             134   -0.29 9  146 261 
 PTB  HN ES        545 16.37                             134   -0.21 9  146 261 
 PTB  HZ I         545 18.06         6.7 0.18            135            146 261 
 SPBC HZ EP        544 56.31                             131   -0.20 9  159 220 
 SPBC HN ES        545 18.23                             131   -0.58 9  159 220 
 SPBC HZ I         545 22.28        11.3 0.28            135            159 220 
 OCA  HZ EP        544 56.53                             130   -0.64 9  165 354 
 OCA  HE ES        545 19.33                             130   -0.65 9  165 354 
 OCA  HZ I         545 24.38        17.8 0.20            132            165 354 
 ZAR  HZ EP        545  1.51                             124    0.62 9  205 293 
 ZAR  HN ES        545 26.32                             124   -0.29 9  205 293 
 ZAR  HZ I         545 33.57         8.9 0.32            125            205 293 
 GUY2CHZ EP   4    545 14.19                             114    2.76 0  298 235 
 GUY2CHN ES        545 45.38                             114    0.01 7  298 235 
 GUY2CHZ I         545 55.65         2.3 0.36                           298 235 
                                                                                
