 2012  5 5 0027  1.0 L   6.790 -73.144145.6  RSN 13 0.3 2.3LRSN                1
 GAP=137        0.74       3.2     3.7  5.3 -0.1326E+01  0.7219E+01  0.3363E+01E
 Epicentro: LOS SANTOS - SANTANDER                                             3
 ACTION:UP  12-07-05 12:02 OP:pat  STATUS:               ID:20120505002701 L   I
 2012-05-05-0020-00M.COL___192                                                 6
 STAT SP IPHASW D HRMM SECON CODA AMPLIT PERI AZIMU VELO SNR AR TRES W  DIS CAZ7
 BAR2 SZ IP        027 20.57                             171     0.010   22 191 
 BAR2 SZ ES   1    027 35.89                             171     0.0 7   22 191 
 BAR2 SZ I         027 37.37        80.3 0.29                            22 191 
 BRR  HZ IP     C  027 22.48                             152     0.310   72 299 
 BRR  HZ I         027 22.74       105.6 0.17                            72 299 
 BRR  HE ES   2    027 39.14                             152     0.4 5   72 299 
 PAM  SZ EP   1    027 23.43                             150     0.2 7   78  39 
 PAM  SN ES   1    027 40.85                             150     0.2 7   78  39 
 PAM  SZ I         027 42.80        18.5 0.58                            78  39 
 RUS  HZ EP   1    027 24.40                             144    -0.3 7   99 176 
 RUS  HN ES   1    027 42.73                             144    -0.4 7   99 176 
 RUS  HZ I         027 44.46        15.0 0.33                            99 176 
 PTB  HZ EP   1    027 27.25                             132    -0.7 7  148 259 
 PTB  HN ES   1    027 48.33                             132    -0.6 7  148 259 
 PTB  HZ I         027 55.84        24.4 0.49                           148 259 
 ZAR  HZ EP   1    027 32.96                             122    -0.5 6  205 292 
 ZAR  HN ES   1    027 58.84                             122     0.0 6  205 292 
 ZAR  HZ I         028  4.96        20.7 0.28                           205 292 
 CHI  HZ EP   1    027 38.44                             117    -0.1 6  248 195 
 CHI  HE ES   1    028  8.09                             117     0.2 6  248 195 
 CHI  HZ I         028 16.18         7.4 0.48                           248 195 
 ROSC BZ EP   1    027 39.49                             117     0.5 6  252 211 
 ROSC BN ES   1    028  8.78                             117     0.1 6  252 211 
 ROSC BZ I         028 17.02        12.8 0.35                           252 211 
 HEL  HZ EP   1    027 41.48                             115     0.3 6  272 256 
 HEL  HN ES   1    028 13.12                             115     0.6 6  272 256 
 HEL  HZ I         028 20.19        13.4 0.43                           272 256 
 GUY  SZ EP   1    027 44.91                             112     0.1 5  303 235 
 GUY  SN ES   1    028 19.26                             112     0.3 5  303 235 
 GUY  SZ I         028 27.98        13.8 0.39                           303 235 
 RREF HZ EP   1    027 46.63                             111    -0.4 5  321 230 
 RREF HN ES   1    028 23.16                             111     0.2 5  321 230 
 RREF HZ I         028 32.46         9.1 0.32                           321 230 
 COD  HZ EP   2    027 49.31                             109    -0.2 3  349 355 
 PRA  HZ EP   1    027 54.58                             106     0.2 4  391 210 
 PRA  HN ES   1    028 36.39                             106     0.3 4  391 210 
                                                                                
