 2011 10 5 0305 52.7 L   6.789 -73.122146.5  RSN  5 0.3 1.4LRSN                1
 GAP=140        0.62       5.1     6.6  6.3 -0.2299E+01 -0.3739E+01  0.5016E+01E
 Epicentro: LOS SANTOS - SANTANDER                                             3
 ACTION:UPD 12-07-13 16:02 OP:ep   STATUS:               ID:20111005030552 L   I
 2011-10-05-0300-00M.COL___172                                                 6
 STAT SP IPHASW D HRMM SECON CODA AMPLIT PERI AZIMU VELO AIN AR TRES W  DIS CAZ7
 BAR2 SZ EP   1    3 6 12.27                             171   -0.12 7 22.8 197 
 BAR2 SZ ES   1    3 6 27.22                             171   -0.55 7 22.8 197 
 BAR2 SZ I         3 6 28.86         4.8 0.36                          22.8 197 
 GIR2 SZ EP   1    3 6 12.62                             167    0.13 7 33.0 346 
 GIR2 SZ ES   2    3 6 28.48                             167    0.54 5 33.0 346 
 BRR  HZ EP   1    3 6 13.85                             151   -0.23 7 74.1 298 
 BRR  HZ I         3 6 14.20         6.4 0.18                          74.1 298 
 BRR  HE ES   1    3 6 30.93                             151    0.17 7 74.1 298 
 PAM  SZ EP   1    3 6 15.21                             151    0.27 7 76.7  37 
 PAM  SN ES   1    3 6 32.13                             151   -0.17 7 76.7  37 
 RUS  HZ EP   1    3 6 16.37                             144   -0.04 7 99.2 178 
 RUS  HE ES   2    3 6 35.61                             144    0.69 5 99.2 178 
 RUS  HZ I         3 6 36.38         2.5 0.26                          99.2 178 
                                                                                
