 2010  7 5 0658 19.0 L   6.771 -73.102143.3  RSN 12 0.5 2.2LRSN                1
 GAP=161        1.05       4.9    10.3  9.2 -0.2586E+02  0.1619E+02  0.6523E+01E
 Epicentro: LOS SANTOS - SANTANDER                                             3
 ACTION:UPD 10-12-01 15:15 OP:pat  STATUS:               ID:20100705065819 L   I
 2010-07-05-0653-25S.COL___118                                                 6
 STAT SP IPHASW D HRMM SECON CODA AMPLIT PERI AZIMU VELO AIN AR TRES W  DIS CAZ7
 BAR2 SZ EP   1    658 38.17                             171    -0.1 7   22 204 
 BAR2 SZ ES   2    658 52.45                             171    -0.9 5   22 204 
 BRR  HZ IP     C  658 40.07                             150    -0.110   77 299 
 BRR  HE ES   2    658 57.55                             150     0.8 5   77 299 
 BRR  HZ I         658 59.78        40.9 0.30                            77 299 
 RUS  HZ EP   1    658 42.04                             144    -0.2 7   97 179 
 RUS  HN ES   2    659  0.45                             144     0.1 5   97 179 
 RUS  HZ I         659  2.04        14.9 0.24                            97 179 
 BRI  SZ IP     C  658 43.72                             140     1.010  110  18 
 BRI  SZ ES   2    659  1.42                             140     0.2 5  110  18 
 GUE  SZ EP   1    658 43.21                             138    -0.4 7  119  10 
 GUE  SZ ES   2    659  2.73                             138    -0.1 5  119  10 
 GRA  SZ IP     C  658 44.00                             136    -0.110  128  15 
 GRA  SZ ES   2    659  3.78                             136     0.0 5  128  15 
 OCA  SZ EP   1    658 46.43                             128    -1.0 7  164 352 
 OCA  SZ ES   2    659  9.41                             128    -0.3 5  164 352 
 OCA  SZ I         659 15.67        17.9 0.34                           164 352 
 CHI  HZ EP   1    658 56.20                             117    -0.1 6  247 196 
 CHI  HE ES   2    659 25.60                             117     0.1 4  247 196 
 CHI  HZ I         659 35.02         8.8 0.71                           247 196 
 ROSC BZ EP   1    658 57.66                             116     0.7 6  253 212 
 ROSC BE ES   2    659 25.97                             116    -0.6 4  253 212 
 ROSC BZ I         659 34.19        14.8 0.52                           253 212 
 HEL  HZ EP   1    658 59.81                             114     0.3 6  276 257 
 HEL  HZ I         659 36.51         6.0 0.32                           276 257 
 RREF HZ EP   1    659  5.21                             110     0.0 5  323 230 
 RREF HZ I         659 50.70        11.0 0.37                           323 230 
 PRA  HZ EP   1    659 11.59                             106    -0.8 4  392 210 
 PRA  HE ES   2    659 54.37                             106     0.4 3  392 210 
 PRA  HZ I         659 59.85        11.0 0.31                           392 210 
                                                                                
