 2013  1 5 0238 34.7 L   6.422 -73.717  4.0  RSN  4 0.2 0.8LRSN                1
 GAP=149        0.51       1.6     1.6  4.0  0.1152E+01  0.2356E+01  0.8100E+00E
 Epicentro: SANTA HELENA DEL OPON - SANTANDER                                  3
 ACTION:UPD 13-02-15 09:12 OP:ep   STATUS:               ID:20130105023834 L   I
 2013-01-05-0229-49M.COL___198                                                 6
 STAT SP IPHASW D HRMM SECON CODA AMPLIT PERI AZIMU VELO AIN AR TRES W  DIS CAZ7
 BAR2 SZ EP        238 45.05                              47    0.0810 62.1  72 
 BRR  HZ EP        238 46.75                              47   -0.0410 75.7   0 
 BRR  HN ES        238 56.16                              47   -0.0410 75.7   0 
 BRR  HN I         238 57.82         4.7 0.34             47           75.7   0 
 PTB  HN ES        238 58.10                              47   -0.0310 82.7 279 
 PTB  HN I         238 58.92         4.6 0.26             47           82.7 279 
 RUS  HZ EP        238 49.98                              47    0.3010 91.4 130 
 RUS  HZ I         238 50.05         1.5 0.40             47           91.4 130 
 RUS  HE ES        239  1.09                              47   -0.2610 91.4 130 
                                                                                
