 2014  6 5 0933 57.7 L   6.799 -73.197144.2  RSN  5 0.5 1.3LRSN                1
 GAP=196        1.12       6.1     6.9 10.1  0.1751E+02  0.1797E+01 -0.2722E+02E
 Epicentro: ZAPATOCA - SANTANDER                                               3
 ACTION:UPD 14-07-01 22:51 OP:nd   STATUS:               ID:20140605093357 L   I
 OLDACT:REG 14-06-05 13:20 OP:fm   STATUS:               ID:20140605092816     3
 2014-06-05-0928-16M.COL___259                                                 6
 STAT SP IPHASW D HRMM SECON CODA AMPLIT PERI AZIMU VELO AIN AR TRES W  DIS CAZ7
 BAR2 SZ EP        934 17.42                             170    0.3010 22.9 176 
 BAR2 SZ ES        934 32.04                             170   -0.2410 22.9 176 
 BAR2 SZ I         934 33.25         9.1 0.38            170           22.9 176 
 RUS  HZ EP        934 21.40                             143    0.0810  101 173 
 RUS  HN ES        934 39.60                             143   -0.1410  101 173 
 PTB  HZ EP        934 24.33                             133    0.30 9  142 258 
 PTB  HN ES        934 44.91                             133    0.35 9  142 258 
 PTB  HZ I         934 52.50         0.9 0.38            131            142 258 
 ZAR  HE ES        934 53.61                             123   -0.70 9  199 293 
 SML  HZ EP        934 33.11                             117   -0.88 8  242 337 
 SML  HE ES        935  3.09                             117    0.79 8  242 337 
 SML  HZ I         935  6.47         2.1 0.10            118            242 337 
                                                                                
