 2011 10 5 0514 26.9 L   6.721 -73.181150.3  RSN  4 0.3 1.4LRSN                1
 GAP=175        0.68       8.0    15.1  7.7  0.8508E+02  0.1535E+02  0.1393E+02E
 Epicentro: VILLANUEVA - SANTANDER                                             3
 ACTION:UPD 12-07-13 16:02 OP:ep   STATUS:               ID:20111005051426 L   I
 2011-10-05-0500-00M.COL___172                                                 6
 STAT SP IPHASW D HRMM SECON CODA AMPLIT PERI AZIMU VELO AIN AR TRES W  DIS CAZ7
 BAR2 SZ EP   1    514 46.72                             174   -0.20 7 14.2 181 
 BAR2 SZ ES   1    515  1.90                             174   -0.64 7 14.2 181 
 BAR2 SZ I         515  3.23         8.6 0.16                          14.2 181 
 GIR2 SZ ES   1    515  3.70                             165    0.41 7 39.6 358 
 BRR  HZ EP   1    514 48.61                             153    0.01 7 72.6 306 
 BRR  HN ES   1    515  5.59                             153    0.05 7 72.6 306 
 BRR  HZ I         515  9.39         4.2 0.11                          72.6 306 
 RUS  HZ EP   1    514 50.53                             147    0.02 7 92.2 173 
 RUS  HN ES   1    515  9.30                             147    0.36 7 92.2 173 
 RUS  HZ I         515 10.47         2.5 0.17                          92.2 173 
                                                                                
