 2017  9 5 0809 47.7 L   6.768 -73.121151.6  RSN  6 0.4 1.5LRSN                1
 GAP=141        0.88       4.1     4.7  7.0 -0.1462E+01  0.7445E+01 -0.2621E+01E
 Epicentro: LOS SANTOS - SANTANDER                                             3
 ACTION:UPD 17-10-05 19:09 OP:rebc STATUS:               ID:20170905080947 L   I
 OLDACT:UP  17-09-05 16:26 OP:ndl  STATUS:               ID:20170905080743     3
 OLDACT:REG 17-09-05 13:30 OP:dnl  STATUS:               ID:20170905080743     3
 2017-09-05-0808-00M.COL___423                                                 6
 STAT SP IPHASW D HRMM SECON CODA AMPLIT PERI AZIMU VELO AIN AR TRES W  DIS CAZ7
 BAR2 EZ EP        810  7.90                             172   -0.0510 20.6 199 
 BAR2 EZ ES        810 23.46                             172   -0.3110 20.6 199 
 BAR2 EZ I         810 24.60         8.2 0.28            171           20.6 199 
 BRR  HZ EP        810  9.71                             152    0.0310 75.3 300 
 BRR  HN ES        810 27.68                             152    0.8310 75.3 300 
 BRR  HZ I         810 30.59         4.1 0.30            150           75.3 300 
 PAM  EZ EP        810 10.62                             152    0.0510 78.5  36 
 PAM  EN ES        810 28.26                             152   -0.1810 78.5  36 
 PAM  EZ I         810 30.12         4.6 0.50            154           78.5  36 
 RUS  HZ EP   2    810 12.08                             146    0.34 5 96.9 178 
 RUS  HN ES        810 30.46                             146   -0.0610 96.9 178 
 RUS  HZ I         810 32.34         2.6 0.58            148           96.9 178 
 SPBC HZ EP   2    810 16.44                             131   -0.08 5  162 221 
 SPBC HN ES        810 39.06                             131    0.02 9  162 221 
 SPBC HZ I         810 41.65         5.8 0.30            131            162 221 
 ZAR  HZ EP   2    810 21.35                             123    0.46 4  208 293 
 ZAR  HN ES        810 46.12                             123   -0.69 8  208 293 
 ZAR  HZ I         810 52.90         4.8 0.30            123            208 293 
                                                                                
