 2012 12 5 0928 47.2 L   6.829 -73.204152.2  RSN  5 0.4 1.5LRSN                1
 GAP=128        0.72       5.6     5.7  6.9 -0.8998E+01  0.7989E+01  0.1386E+01E
 Epicentro: ZAPATOCA - SANTANDER                                               3
 ACTION:UPD 13-01-04 14:25 OP:ep   STATUS:               ID:20121205092847 L   I
 2012-12-05-0920-00M.COL___237                                                 6
 STAT SP IPHASW D HRMM SECON CODA AMPLIT PERI AZIMU VELO AIN AR TRES W  DIS CAZ7
 BAR2 SZ EP   1    929  7.39                             170   -0.26 7 26.3 175 
 BAR2 SZ ES   1    929 23.55                             170   -0.06 7 26.3 175 
 BAR2 SZ I         929 24.90        14.5 0.18                          26.3 175 
 GIR2 SZ EP   1    929  6.97                             169   -0.56 7 27.6   2 
 GIR2 SZ ES   1    929 23.40                             169    0.00 7 27.6   2 
 PAM  SZ EP   1    929 11.01                             151    0.81 7 79.3  45 
 PAM  SE ES   1    929 28.04                             151   -0.11 7 79.3  45 
 PAM  SZ I         929 29.45         4.7 0.46                          79.3  45 
 RUS  HZ EP   1    929 11.60                             144   -0.25 7  104 173 
 RUS  HN ES   1    929 31.34                             144    0.26 7  104 173 
 RUS  HZ I         929 32.22         3.0 0.44                           104 173 
 PTB  HZ EP   1    929 14.22                             135    0.03 7  142 257 
 PTB  HN ES   1    929 35.42                             135    0.17 7  142 257 
 PTB  HZ I         929 41.33         3.5 0.32                           142 257 
                                                                                
