 2017  2 5 0806 30.7 L   6.744 -73.174153.1  RSN  7 0.3 1.3LRSN                1
 GAP=214        0.75       5.5     5.2  5.3  0.1820E+02  0.1260E+01  0.1371E+01E
 Epicentro: VILLANUEVA - SANTANDER                                             3
 ACTION:UPD 17-05-24 15:32 OP:jn   STATUS:               ID:20170205080630 L   I
 OLDACT:UP  17-02-05 16:42 OP:dnl  STATUS:               ID:20170205075746d    3
 OLDACT:UP  17-02-05 16:42 OP:dnl  STATUS:               ID:20170205075746d    3
 OLDACT:UP  17-02-05 16:41 OP:dnl  STATUS:               ID:20170205075746d    3
 OLDACT:UP  17-02-05 16:40 OP:dnl  STATUS:               ID:20170205075746d    3
 OLDACT:UP  17-02-05 16:40 OP:dnl  STATUS:               ID:20170205075746d    3
 OLDACT:DUP 17-02-05 16:38 OP:dnl  STATUS:               ID:20170205075746d    3
 2017-02-05-0758-00M.COL___316                                                 6
 STAT SP IPHASW D HRMM SECON CODA AMPLIT PERI AZIMU VELO AIN AR TRES W  DIS CAZ7
 BAR2 EZ EP        8 6 51.03                             173   -0.0810 16.8 183 
 BAR2 EZ ES        8 7  6.46                             173   -0.5610 16.8 183 
 BAR2 EZ I         8 7  7.24         4.9 0.21            170           16.8 183 
 BRR  HZ EP        8 6 52.95                             153    0.2710 71.8 304 
 BRR  HN ES        8 7 10.02                             153    0.2010 71.8 304 
 BRR  HZ I         8 7 14.08         3.0 0.11            152           71.8 304 
 RUS  HN ES        8 7 14.01                             147    0.4610 94.6 174 
 RUS  HZ I         8 7 15.27         3.9 0.31            145           94.6 174 
 PTB  HZ EP        8 6 58.09                             134    0.18 9  144 261 
 PTB  HN ES        8 7 18.99                             134   -0.14 9  144 261 
 PTB  HZ I         8 7 20.09         1.9 0.16            132            144 261 
 ZAR  HZ EP   4    8 7  6.56                             124    2.96 0  204 294 
 ZAR  HE ES        8 7 29.05                             124   -0.20 9  204 294 
 ZAR  HZ I         8 7 34.42         1.5 0.21            123            204 294 
 CHI  HZ EP   9    8 7  9.60                             119    1.51 0  242 195 
 CHI  HN ES   2    8 7 38.64                             119   -0.12 4  242 195 
 CHI  HZ I         8 7 42.53         1.3 0.36            119            242 195 
 PTGC HZ EP        8 7 14.20                             113   -0.18 7  304 158 
 PTGC HE ES   2    8 7 47.69                             113   -0.76 4  304 158 
                                                                                
