 2010  9 5 0913  8.8 L   6.788 -73.092143.0  RSN  4 0.2 1.5LRSN                1
 GAP=170        0.52       5.5    11.7 11.2  0.4349E+02 -0.9464E+02 -0.3761E+02E
 Epicentro: LOS SANTOS - SANTANDER                                             3
 ACTION:UP  11-02-18 11:00 OP:tino STATUS:               ID:20100905091308 L   I
 2010-09-05-0911-44S.COL___120                                                 6
 STAT SP IPHASW D HRMM SECON CODA AMPLIT PERI AZIMU VELO SNR AR TRES W  DIS CAZ7
 BAR2 SZ EP   1    913 27.89                             170    -0.2 7   24 205 
 BAR2 SZ I         913 43.86        11.5 0.40                            24 205 
 BRR  HZ EP   1    913 29.76                             150    -0.2 7   77 297 
 BRR  HN ES   1    913 46.66                             150     0.1 7   77 297 
 BRR  HZ I         913 47.43         7.5 0.05                            77 297 
 RUS  HZ EP   1    913 32.44                             144     0.3 7   99 179 
 RUS  HE ES   1    913 50.28                             144    -0.1 7   99 179 
 RUS  HZ I         913 51.67         2.4 0.25                            99 179 
 GUE  SZ EP   1    913 33.31                             139     0.1 7  117   9 
                                                                                
