 2011  5 5 0120 33.7 L   6.791 -73.121144.4  RSN  4 0.1 1.7LRSN                1
 GAP=140        0.38       3.3     4.4  4.9  0.1314E+00 -0.6826E+01  0.8907E+00E
 Epicentro: LOS SANTOS - SANTANDER                                             3
 ACTION:UP  11-06-29 08:50 OP:tino STATUS:               ID:20110505012033 L   I
 2011-05-05-0120-00M.COL___140                                                 6
 STAT SP IPHASW D HRMM SECON CODA AMPLIT PERI AZIMU VELO SNR AR TRES W  DIS CAZ7
 BAR2 SZ EP   1    120 53.06                             171    -0.1 7   23 197 
 BAR2 SZ ES   2    121  8.35                             171     0.0 5   23 197 
 BAR2 SZ I         121  9.39         8.8 0.28                            23 197 
 BRR  HZ EP   1    120 54.77                             151    -0.1 7   74 298 
 BRR  HN ES   1    121 11.43                             151     0.0 7   74 298 
 BRR  HZ I         121 14.20        15.9 0.21                            74 298 
 PAM  SZ EP        120 55.90                             151     0.210   76  38 
 PAM  SN ES   2    121 12.62                             151    -0.3 5   76  38 
 RUS  HZ EP   1    120 57.20                             144     0.0 7   99 178 
 RUS  HZ I         120 58.35         5.1 0.16                            99 178 
 RUS  HN ES   2    121 15.71                             144     0.1 5   99 178 
                                                                                
