 2011  2 5 0102 40.6 L   6.765 -73.151142.5  RSN 10 0.3 1.9LRSN                1
 GAP=158        0.47       2.5     4.9  6.9 -0.5115E+01  0.1439E+02  0.1181E+01E
 Epicentro: LOS SANTOS - SANTANDER                                             3
 ACTION:UP  11-03-28 15:05 OP:jfem STATUS:               ID:20110205010240 L   I
 2011-02-05-0059-19S.COL___137                                                 6
 STAT SP IPHASW D HRMM SECON CODA AMPLIT PERI AZIMU VELO SNR AR TRES W  DIS CAZ7
 BAR2 SZ EP   2    1 2 59.42                             172    -0.4 5   20 191 
 BTL  SZ EP        1 2 59.83                             171     0.010   21 323 
 GIR2 SZ EP   2    1 2 60.00                             165     0.0 5   35 352 
 RUS  HZ EP   1    1 3  3.63                             144    -0.2 7   97 176 
 RUS  HN ES   2    1 3 21.93                             144     0.1 5   97 176 
 RUS  HZ I         1 3 23.48         7.6 0.41                            97 176 
 GRA  SZ EP   1    1 3  6.31                             135     0.4 7  130  17 
 GRA  SZ ES   1    1 3 25.75                             135     0.1 7  130  17 
 GRA  SZ I         1 3 27.08        10.4 0.29                           130  17 
 OCA  SZ EP   1    1 3  8.81                             128    -0.2 7  164 353 
 OCA  SZ ES   2    1 3 30.99                             128    -0.2 5  164 353 
 OCA  SZ I         1 3 35.98        14.1 0.08                           164 353 
 NOR  SZ EP   1    1 3 15.63                             118    -0.3 6  232 235 
 NOR  SE ES   2    1 3 43.36                             118    -0.1 4  232 235 
 CHI  HZ EP   1    1 3 17.74                             117     0.0 6  245 195 
 CHI  HN ES   2    1 3 47.03                             117     0.4 4  245 195 
 CHI  HZ I         1 3 56.77         3.8 0.41                           245 195 
 HEL  HZ EP   2    1 3 20.51                             114     0.0 4  271 257 
 HEL  HN ES   2    1 3 52.03                             114     0.4 4  271 257 
 HEL  HZ I         1 3 59.63         3.9 0.32                           271 257 
 RREF HZ EP   2    1 3 26.97                             110     0.7 3  319 230 
 RREF HZ I         1 4  9.68         4.8 0.42                           319 230 
                                                                                
