 2013  3 5 0244 12.0 L   6.782 -73.143151.4  RSN  9 0.5 2.2LRSN                1
 GAP=138        1.15       5.0     5.4  8.1 -0.3684E+00  0.5610E+01 -0.7309E+01E
 Epicentro: LOS SANTOS - SANTANDER                                             3
 ACTION:UPD 13-04-09 13:59 OP:ep   STATUS:               ID:20130305024412 L   I
 2013-03-05-0240-00M.COL___228                                                 6
 STAT SP IPHASW D HRMM SECON CODA AMPLIT PERI AZIMU VELO AIN AR TRES W  DIS CAZ7
 BAR2 SZ IP     D  244 32.29                             172    0.0310 21.5 192 
 BAR2 SZ I         244 49.09        49.7 0.28            162           21.5 192 
 BRR  HZ IP        244 34.21                             153    0.3910 72.4 300 
 BRR  HN ES        244 51.59                             153    0.7510 72.4 300 
 BRR  HZ I         244 55.66        22.4 0.12            142           72.4 300 
 PAM  SZ IP     C  244 35.11                             151    0.2310 78.7  38 
 PAM  SN ES        244 52.47                             151   -0.2710 78.7  38 
 PAM  SZ I         244 53.60        10.7 0.16            149           78.7  38 
 RUS  HZ EP        244 36.46                             145    0.3010 98.6 176 
 RUS  HN ES        244 54.53                             145   -0.4810 98.6 176 
 RUS  HZ I         244 56.20        14.6 0.22            134           98.6 176 
 PTB  HZ EP        244 38.91                             133   -0.51 9  148 260 
 PTB  HN ES        245  0.79                             133   -0.02 9  148 260 
 PTB  HZ I         245  5.50        14.7 0.17            121            148 260 
 OCA  HZ EP        244 40.79                             130   -0.13 9  162 353 
 OCA  HN ES   2    245  2.53                             130   -0.96 5  162 353 
 OCA  HZ I         245  8.29        21.0 0.26            122            162 353 
 ZAR  HZ EP   1    244 46.09                             123    1.18 6  205 293 
 ZAR  HN ES   1    245  9.57                             123   -1.02 6  205 293 
 ZAR  HZ I         245 17.44        28.1 0.44            113            205 293 
 SML  HZ EP     C  244 48.76                             118   -0.38 8  246 335 
 SML  HN ES   2    245 18.10                             118   -0.02 4  246 335 
 SML  HZ I         245 20.42        20.6 0.09            110            246 335 
 HEL  HZ EP   4    244 54.04                             116    1.56 0  272 256 
 HEL  HZ I         245 32.50         6.4 0.48            106            272 256 
                                                                                
