 2014 12 5 0403 20.6 L   6.826 -73.087153.8  RSN 12 0.4 1.8LRSN                1
 GAP=143        1.07       2.8     4.4  5.4 -0.1751E+01  0.6095E+01  0.8946E+00E
 Epicentro: LOS SANTOS - SANTANDER                                             3
 ACTION:UPD 15-02-10 17:00 OP:nd   STATUS:               ID:20141205040320 L   I
 OLDACT:UP  14-12-05 16:05 OP:fm   STATUS:               ID:20141205035743     3
 OLDACT:REG 14-12-05 12:41 OP:fm   STATUS:               ID:20141205035743     3
 2014-12-05-0357-43M.COL___297                                                 6
 STAT SP IPHASW D HRMM SECON CODA AMPLIT PERI AZIMU VELO AIN AR TRES W  DIS CAZ7
 BAR2 SZ EP        4 3 41.71                             169    0.3810 27.9 202 
 BAR2 SZ ES        4 3 57.07                             169   -0.4010 27.9 202 
 BAR2 SZ I         4 3 57.85        11.1 0.24            167           27.9 202 
 PAM  SZ EP        4 3 44.12                             154    0.7610 71.1  37 
 PAM  SN ES        4 4  1.11                             154    0.0210 71.1  37 
 PAM  SZ I         4 4  3.97        12.4 0.42            159           71.1  37 
 BRR  HZ EP        4 3 43.35                             152    0.4410 75.8 294 
 BRR  HE ES        4 4  0.68                             152    0.3910 75.8 294 
 BRR  HZ I         4 4  5.79         9.4 0.20            151           75.8 294 
 RUS  HZ EP        4 3 45.11                             145   -0.2610  103 180 
 RUS  HE ES        4 4  4.33                             145   -0.3310  103 180 
 RUS  HZ I         4 4  7.66         2.8 0.30            147            103 180 
 PTB  HZ EP        4 3 48.41                             132   -0.48 9  155 258 
 PTB  HE ES        4 4 10.30                             132   -0.63 9  155 258 
 PTB  HZ I         4 4 16.99        10.9 0.42            133            155 258 
 OCA  HZ EP        4 3 48.78                             132   -0.63 9  158 351 
 OCA  HN ES        4 4 11.91                             132    0.06 9  158 351 
 OCA  HZ I         4 4 16.62         6.5 0.48            134            158 351 
 SPBC HZ EP        4 3 50.64                             130    0.28 9  170 220 
 SPBC HN ES        4 4 14.31                             130    0.77 9  170 220 
 SPBC HZ I         4 4 20.31         7.0 0.22            131            170 220 
 ZAR  HZ EP        4 3 54.49                             123    0.36 8  209 291 
 ZAR  HN ES        4 4 19.78                             123   -0.47 8  209 291 
 ZAR  HZ I         4 4 25.58         8.3 0.52            125            209 291 
 SML  HZ EP        4 3 57.49                             119   -0.26 8  244 334 
 SML  HE ES        4 4 26.59                             119   -0.10 8  244 334 
 SML  HZ I         4 4 29.65        10.0 0.10            121            244 334 
 CHI  HZ EP        4 3 58.87                             118   -0.41 8  253 196 
 CHI  HN ES        4 4 29.02                             118   -0.40 8  253 196 
 CHI  HZ I         4 4 37.23         2.3 0.54            120            253 196 
 GUY2CHZ EP        4 4  5.37                             113   -0.04 7  308 235 
 GUY2CHN ES        4 4 41.13                             113    0.79 7  308 235 
 GUY2CHZ I         4 4 47.19         2.7 0.30                           308 235 
 TOL  SZ EP        4 4  9.92                             110   -0.07 6  350 225 
 TOL  SN ES        4 4 48.56                             110    0.08 6  350 225 
 TOL  SZ I         4 4 54.04         7.6 0.80            112            350 225 
                                                                                
