 2017 11 5 0424  7.0 L   6.724 -73.276140.0  RSN  4 0.3 0.8LRSN                1
 GAP=193        0.57       6.7     4.4  6.0  0.1426E+02  0.4250E+01 -0.3026E+00E
 Epicentro: GALAN - SANTANDER                                                  3
 ACTION:UPD 17-12-12 19:52 OP:rebc STATUS:               ID:20171105042407 L   I
 OLDACT:REG 17-11-05 15:14 OP:dnl  STATUS:               ID:20171105041740     3
 2017-11-05-0418-00M.COL___426                                                 6
 STAT SP IPHASW D HRMM SECON CODA AMPLIT PERI AZIMU VELO AIN AR TRES W  DIS CAZ7
 BAR2 EZ EP   2    424 25.42                             172   -0.37 5 17.9 144 
 BAR2 EZ ES        424 40.58                             172    0.1010 17.9 144 
 BAR2 EZ I         424 41.66         2.9 0.22            168           17.9 144 
 BRR  HZ EP   2    424 27.26                             154    0.17 5 64.2 311 
 RUS  HZ EP        424 29.43                             145   -0.2610 94.4 167 
 RUS  HN ES        424 47.58                             145    0.1510 94.4 167 
 RUS  HZ I         424 48.99         0.6 0.18            144           94.4 167 
 PTB  HZ EP   2    424 32.75                             134    0.70 5  132 261 
 PTB  HN ES        424 51.51                             134   -0.1010  132 261 
 PTB  HZ I         425  0.45         0.8 0.30            130            132 261 
                                                                                
