 2016  4 5 0951 49.3 L   6.823 -73.160143.7  RSN 24 0.4 2.5LRSN                1
 GAP= 70        0.91       2.3     2.5  4.4 -0.4079E+00  0.3335E+01  0.4358E+00E
 Epicentro: LOS SANTOS - SANTANDER                                             3
 ACTION:UPD 16-05-05 14:18 OP:rebc STATUS:               ID:20160405095149 L   I
 OLDACT:UP  16-04-05 20:18 OP:hmer STATUS:               ID:20160405094742     3
 OLDACT:UP  16-04-05 20:17 OP:mh   STATUS:               ID:20160405094742     3
 OLDACT:REG 16-04-05 13:52 OP:mh   STATUS:               ID:20160405094742     3
 2016-04-05-0947-42M.COL___294                                                 6
 STAT SP IPHASW D HRMM SECON CODA AMPLIT PERI AZIMU VELO AIN AR TRES W  DIS CAZ7
 BAR2 EZ EP        952  8.90                             169    0.1810 25.7 185 
 BAR2 EZ ES        952 23.65                             169   -0.2310 25.7 185 
 BAR2 EZ I         952 34.76        36.1 0.26            168           25.7 185 
 PAM  EZ IP        952 11.71                             151    0.4810 76.5  42 
 PAM  EE ES        952 28.78                             151    0.4310 76.5  42 
 PAM  EZ I         952 30.86        33.1 0.22            154           76.5  42 
 RUS  HZ EP        952 12.78                             143   -0.2510  103 175 
 RUS  HE ES        952 31.45                             143   -0.1110  103 175 
 RUS  HZ I         952 32.26        30.0 0.26            143            103 175 
 PTB  HZ EP        952 15.76                             132   -0.23 9  147 258 
 PTB  HN ES        952 36.58                             132   -0.24 9  147 258 
 PTB  HZ I         952 43.70        37.1 0.14            131            147 258 
 TAM  HZ EP     C  952 17.12                             130    0.11 9  157 106 
 TAM  HN ES        952 38.34                             130   -0.30 9  157 106 
 TAM  HZ I         952 41.40        16.2 0.52            133            157 106 
 OCA  HZ EP        952 17.20                             130    0.02 9  158 354 
 OCA  HN ES        952 38.78                             130   -0.16 9  158 354 
 OCA  HZ I         952 46.02        80.2 0.30            131            158 354 
 SPBC HZ EP        952 17.80                             128    0.07 9  164 218 
 SPBC HN ES        952 39.78                             128   -0.13 9  164 218 
 SPBC HZ I         952 44.39        51.4 0.26            128            164 218 
 ZAR  HZ EP        952 21.74                             122    0.39 9  202 292 
 ZAR  HE ES        952 47.15                             122    0.80 9  202 292 
 ZAR  HZ I         952 53.56        41.6 0.24            122            202 292 
 NOR  HZ EP        952 25.35                             118    0.43 8  235 234 
 NOR  HE ES        952 52.87                             118    0.16 8  235 234 
 NOR  HZ I         952 55.82        29.2 0.34            118            235 234 
 CHI  HZ EP        952 27.11                             116    0.01 8  251 195 
 CHI  HN ES        952 56.08                             116   -0.51 8  251 195 
 CHI  HZ I         953  2.22        15.0 0.32            117            251 195 
 ROSC BZ EP        952 28.09                             116    0.64 8  254 210 
 ROSC BN ES   4    952 59.67                             116    2.46 0  254 210 
 ROSC BZ I         953  3.20        29.0 0.35            116            254 210 
 HEL  HZ EP   4    952 30.78                             114    1.49 0  271 255 
 HEL  HN ES   4    952 58.16                             114   -2.34 0  271 255 
 HEL  HZ I         953  7.64        26.9 0.36            114            271 255 
 URE  HZ EP        952 28.97                             113   -1.01 7  281 292 
 URE  HE ES        953  1.27                             113   -0.46 7  281 292 
 URE  HZ I         953 13.86        20.2 0.20            113            281 292 
 GUY2CHZ EP        952 33.20                             112    0.38 7  301 234 
 GUY2CHN ES   4    953  9.70                             112    2.92 0  301 234 
 GUY2CHZ I         953 16.42        17.7 0.38                           301 234 
 PTGC HZ EP   4    952 31.81                             111   -1.58 0  312 159 
 PTGC HZ I         952 57.12        13.6 0.46            112            312 159 
 PTGC HE ES   4    953  5.17                             111   -2.62 0  312 159 
 ELA  HZ EP   4    952 38.99                             110    2.89 0  330 229 
 ELA  HN ES   4    953 17.18                             110    4.56 0  330 229 
 ELA  HZ I         953 21.35         9.8 0.68            110            330 229 
 CBOC HZ EP   4    952 37.25                             109    1.22 0  333 252 
 CBOC HE ES   4    953 11.18                             109   -1.32 0  333 252 
 CBOC HZ I         953 16.96         7.3 0.42            110            333 252 
 MON  HZ EP   4    952 36.35                             108   -1.53 0  351 308 
 MON  HN ES        953 14.94                             108   -0.84 6  351 308 
 MON  HZ I         953 32.36         7.1 0.56            109            351 308 
 ANIL HZ EP   4    952 40.25                             108    1.15 0  358 224 
 ANIL HE ES   4    953 20.93                             108    2.98 0  358 224 
 ANIL HZ I         953 30.67        31.8 0.30            108            358 224 
 SDV  BZ EP        952 38.46                             108   -0.74 6  360  51 
 SDV  BN ES   4    953 15.89                             108   -2.25 0  360  51 
 ORTC HZ EP        952 43.32                             106    0.05 6  397 216 
 ORTC HN ES        953 25.59                             106    0.21 6  397 216 
 ORTC HZ I         953 33.07        10.8 0.32            106            397 216 
 SJC  HZ EP   4    952 42.86                             105   -1.57 0  406 327 
 SJC  HN ES   4    953 24.72                             105   -2.71 0  406 327 
 SJC  HZ I         953 28.99        10.2 0.46            106            406 327 
 PAL  HZ EP        952 44.76                             105    0.39 6  406 239 
 PAL  HE ES        953 27.15                             105   -0.19 6  406 239 
 PAL  HZ I         953 31.56         8.7 0.20            106            406 239 
 MACC HZ EP   4    952 55.89                             101   -2.33 0  523 188 
 MACC HN ES   4    953 47.40                             101   -4.59 0  523 188 
 MACC HZ I         953 54.53         3.8 0.48            102            523 188 
                                                                                
