 2017  1 5 0727 51.7 L   6.786 -73.165145.7  RSN  8 0.4 1.3LRSN                1
 GAP=135        0.97       4.6     4.3  6.5  0.2343E+01  0.4986E+01  0.5186E+01E
 Epicentro: LOS SANTOS - SANTANDER                                             3
 ACTION:UPD 17-05-22 15:55 OP:jn   STATUS:               ID:20170105072751 L   I
 OLDACT:REG 17-01-05 13:03 OP:lv   STATUS:               ID:20170105071744     3
 2017-01-05-0718-00M.COL___368                                                 6
 STAT SP IPHASW D HRMM SECON CODA AMPLIT PERI AZIMU VELO AIN AR TRES W  DIS CAZ7
 BAR2 EZ EP        728 11.13                             171   -0.1710 21.5 185 
 BAR2 EZ ES        728 26.18                             171   -0.3910 21.5 185 
 BAR2 EZ I         728 27.67         3.6 0.21            168           21.5 185 
 BRR  HZ EP        728 12.98                             153    0.1810 70.1 300 
 BRR  HN ES        728 30.17                             153    0.9410 70.1 300 
 PAM  EZ EP        728 14.08                             150    0.0010 79.9  40 
 PAM  EN ES        728 31.28                             150   -0.2310 79.9  40 
 PAM  EZ I         728 33.24         5.5 0.54            153           79.9  40 
 RUS  HZ EP        728 15.54                             144    0.1810 99.2 175 
 RUS  HE ES        728 33.84                             144    0.0410 99.2 175 
 RUS  HZ I         728 35.74         2.4 0.47            143           99.2 175 
 PTB  HZ EP        728 18.15                             132   -0.31 9  145 259 
 PTB  HE ES        728 39.02                             132   -0.30 9  145 259 
 PTB  HZ I         728 41.54         2.6 0.21            131            145 259 
 ZAR  HZ EP   4    728 25.58                             123    1.56 0  203 293 
 ZAR  HN ES        728 48.86                             123   -0.35 9  203 293 
 ZAR  HZ I         728 54.30         2.4 0.11            122            203 293 
 CHI  HZ EP        728 29.58                             117    0.39 8  247 195 
 CHI  HN ES   4    729  0.59                             117    2.18 0  247 195 
 CHI  HZ I         729  6.40         0.5 0.10            117            247 195 
 GUY2CHZ EP   4    728 37.48                             112    2.45 0  299 235 
 GUY2CHE ES   4    729 10.44                             112    1.64 0  299 235 
 GUY2CHZ I         729 17.26         1.1 0.42                           299 235 
                                                                                
