 2014  7 5 0001 48.0 L   6.744 -73.173155.2  RSN  5 0.4 1.5LRSN                1
 GAP=197        1.06       5.8     8.0  8.3  0.2071E+02 -0.4610E+01 -0.1450E+02E
 Epicentro: LOS SANTOS - SANTANDER                                             3
 ACTION:UPD 15-03-16 20:41 OP:nd   STATUS:               ID:20140705000148 L   I
 OLDACT:UP  14-07-05 14:46 OP:cam  STATUS:               ID:20140705000000     3
 OLDACT:REG 14-07-05 14:01 OP:cam  STATUS:               ID:20140705000000     3
 2014-07-05-0000-00M.COL___279                                                 6
 STAT SP IPHASW D HRMM SECON CODA AMPLIT PERI AZIMU VELO AIN AR TRES W  DIS CAZ7
 BAR2 SZ EP        0 2  8.70                             174    0.0010 16.8 184 
 BAR2 SZ ES        0 2 24.71                             174   -0.1010 16.8 184 
 BAR2 SZ I         0 2 27.24         4.6 0.14            178           16.8 184 
 BRR  HZ EP        0 2 10.77                             154    0.5210 71.9 304 
 BRR  HN ES        0 2 28.18                             154    0.6110 71.9 304 
 BRR  HZ I         0 2 29.00         7.5 0.24            153           71.9 304 
 RUS  HZ EP        0 2 12.64                             147    0.3110 94.7 174 
 RUS  HE ES        0 2 30.75                             147   -0.5310 94.7 174 
 RUS  HZ I         0 2 32.28         3.2 0.32            152           94.7 174 
 PTB  HZ EP   1    0 2 15.71                             135    0.27 7  144 261 
 PTB  HN ES        0 2 36.36                             135   -0.45 9  144 261 
 PTB  HZ I         0 2 37.86         3.4 0.24            137            144 261 
 SML  HZ EP   1    0 2 25.13                             119   -0.55 6  248 337 
 SML  HN ES        0 2 54.46                             119   -0.58 8  248 337 
 SML  HZ I         0 3  3.40         3.6 0.10            119            248 337 
                                                                                
