 2013 11 5 0621 28.0 L   6.777 -73.138142.0  RSN  5 0.3 1.3LRSN                1
 GAP=183        0.80       3.2     5.4  7.4  0.4496E+00 -0.1927E+01  0.1899E+01E
 Epicentro: LOS SANTOS - SANTANDER                                             3
 ACTION:UPD 14-01-09 16:25 OP:ep   STATUS:               ID:20131105062128 L   I
 OLDACT:DUP 13-11-05 14:29 OP:stll STATUS:               ID:20131105061839d    3
 2013-11-05-0618-38M.COL___217                                                 6
 STAT SP IPHASW D HRMM SECON CODA AMPLIT PERI AZIMU VELO AIN AR TRES W  DIS CAZ7
 BRR  HZ EP        621 49.26                             151    0.4210 73.2 300 
 BRR  HE ES        622  5.58                             151    0.4710 73.2 300 
 RUS  HZ EP        621 51.24                             144    0.0710 98.0 176 
 RUS  HN ES        622  9.09                             144   -0.1710 98.0 176 
 RUS  HZ I         622 11.31         1.6 0.44            146           98.0 176 
 PTB  HZ EP        621 54.75                             131    0.08 9  148 260 
 PTB  HN ES        622 15.18                             131   -0.31 9  148 260 
 PTB  HZ I         622 17.28         3.0 0.10            133            148 260 
 SPBC HZ EP        621 56.03                             128   -0.02 9  162 220 
 SPBC HE ES        622 17.79                             128   -0.16 9  162 220 
 SPBC HZ I         622 20.78         2.9 0.14            130            162 220 
 OCA  HN ES        622 17.78                             128   -0.53 9  163 353 
 OCA  HZ I         622 22.13         3.6 0.32            130            163 353 
                                                                                
