 2012  5 5 0535 17.8 L   6.761 -73.170152.1  RSN  7 0.4 1.4LRSN                1
 GAP=135        0.82       5.1     4.9  7.9  0.1950E+01  0.7055E+01  0.2917E+01E
 Epicentro: LOS SANTOS - SANTANDER                                             3
 ACTION:UP  12-07-05 12:02 OP:pat  STATUS:               ID:20120505053517 L   I
 2012-05-05-0530-00M.COL___192                                                 6
 STAT SP IPHASW D HRMM SECON CODA AMPLIT PERI AZIMU VELO SNR AR TRES W  DIS CAZ7
 BAR2 SZ EP   1    535 38.18                             173     0.1 7   19 184 
 BAR2 SZ ES   1    535 54.00                             173     0.1 7   19 184 
 BAR2 SZ I         535 54.68         9.5 0.22                            19 184 
 BRR  HZ EP   1    535 39.89                             154     0.3 7   71 303 
 BRR  HE ES   1    535 57.25                             154     0.6 7   71 303 
 BRR  HZ I         535 59.83         7.7 0.33                            71 303 
 PAM  SZ EP   1    535 41.20                             150     0.2 7   82  39 
 PAM  SN ES   1    535 58.32                             150    -0.7 7   82  39 
 RUS  HZ EP   1    535 42.08                             146     0.2 7   97 174 
 RUS  HN ES   1    536  0.82                             146     0.1 7   97 174 
 RUS  HZ I         536  1.44         2.8 0.45                            97 174 
 PTB  HZ EP   1    535 44.78                             134    -0.2 7  144 260 
 PTB  HN ES   1    536  5.67                             134    -0.5 7  144 260 
 PTB  HZ I         536 11.82         2.1 0.22                           144 260 
 ZAR  HN ES   1    536 16.07                             124    -0.1 6  203 294 
 CHI  HN ES   2    536 24.24                             119    -0.4 4  244 195 
                                                                                
