 2017 11 5 0415 10.2 L   6.796 -73.124152.2  RSN 10 0.4 1.7LRSN                1
 GAP=114        0.97       3.9     3.6  6.0  0.2192E+01  0.2538E+01  0.4730E+01E
 Epicentro: LOS SANTOS - SANTANDER                                             3
 ACTION:UPD 17-12-12 19:52 OP:rebc STATUS:               ID:20171105041510 L   I
 OLDACT:UP  17-11-05 17:30 OP:dnl  STATUS:               ID:20171105040744     3
 OLDACT:REG 17-11-05 15:13 OP:dnl  STATUS:               ID:20171105040744     3
 2017-11-05-0408-00M.COL___432                                                 6
 STAT SP IPHASW D HRMM SECON CODA AMPLIT PERI AZIMU VELO AIN AR TRES W  DIS CAZ7
 BAR2 EZ IP     C  415 30.51                             171   -0.0910 23.5 196 
 BAR2 EZ ES        415 46.44                             171   -0.0810 23.5 196 
 BAR2 EZ I         415 49.32         5.8 0.12            169           23.5 196 
 BRR  HZ EP        415 32.38                             153    0.2110 73.5 298 
 BRR  HE ES        415 49.69                             153    0.3710 73.5 298 
 BRR  HZ I         415 54.77         7.3 0.16            153           73.5 298 
 PAM  EZ IP     C  415 33.28                             153    0.2510 76.2  38 
 PAM  EN ES        415 50.55                             153   -0.2910 76.2  38 
 PAM  EZ I         415 52.70        11.2 0.54            158           76.2  38 
 RUS  HZ EP        415 34.38                             145   -0.1610  100 177 
 RUS  HN ES        415 53.90                             145    0.3610  100 177 
 RUS  HZ I         415 54.81         2.6 0.22            147            100 177 
 PTB  HZ EP        415 37.28                             133   -0.62 9  150 259 
 PTB  HN ES        415 58.77                             133   -0.74 9  150 259 
 PTB  HZ I         416  4.50         6.3 0.58            134            150 259 
 SPBC HZ EP        415 39.43                             130    0.12 9  164 220 
 SPBC HN ES   4    416  1.09                             130   -0.93 0  164 220 
 SPBC HZ I         416  8.47        11.5 0.26            131            164 220 
 YPLC HZ EP        415 40.70                             128    0.39 9  175 152 
 YPLC HN ES        416  3.51                             128   -0.30 9  175 152 
 YPLC HZ I         416  7.93         3.8 0.36            131            175 152 
 ZAR  HZ EP   4    415 42.18                             124   -1.13 0  206 292 
 ZAR  HE ES        416  9.39                             124    0.25 8  206 292 
 ZAR  HZ I         416 15.00         9.5 0.56            125            206 292 
 NOR  HZ EP   2    415 46.08                             120   -0.41 4  236 235 
 NOR  HE ES        416 15.30                             120    0.50 8  236 235 
 NOR  HZ I         416 18.21         3.7 0.16            121            236 235 
 GUY2CHZ EP   9    415 56.87                             113    2.57 0  303 235 
 GUY2CHN ES        416 32.14                             113    0.86 7  303 235 
 GUY2CHZ I         416 37.32         3.8 0.78                           303 235 
                                                                                
