 2014  2 5 0720 23.5 L   6.554 -73.594103.6  RSN  7 0.4 2.0LRSN                1
 GAP= 66        0.88       3.7     3.4  8.5 -0.3168E+01  0.6506E+01 -0.1750E+02E
 Epicentro: EL CARMEN DE CHUCURI - SANTANDER                                   3
 ACTION:UPD 14-03-10 08:07 OP:ep   STATUS:               ID:20140205072023 L   I
 OLDACT:REG 14-02-05 08:50 OP:mh   STATUS:               ID:20140205072000     3
 2014-02-05-0720-00M.COL___288                                                 6
 STAT SP IPHASW D HRMM SECON CODA AMPLIT PERI AZIMU VELO AIN AR TRES W  DIS CAZ7
 BAR2 SZ IP     C  720 39.21                             154    0.2210 45.8  85 
 BAR2 SZ ES   1    720 51.63                             154    0.55 7 45.8  85 
 BAR2 SZ I         720 53.22        29.0 0.47            158           45.8  85 
 RUS  HZ EP   1    720 42.28                             135   -0.38 7 92.4 142 
 RUS  HN ES   1    720 57.79                             135    0.17 7 92.4 142 
 PTB  HZ EP   1    720 41.97                             134   -0.29 7 95.3 269 
 PTB  HN ES        720 56.41                             134   -0.5010 95.3 269 
 PTB  HZ I         720 58.15       953.6 0.03            135           95.3 269 
 SPBC HN ES        721  0.21                             128    0.2510  113 208 
 PAM  SZ EP   1    720 45.96                             124   -0.39 7  132  49 
 PAM  SN ES        721  3.86                             124   -0.3310  132  49 
 PAM  SZ I         721  4.72         2.3 0.21            127            132  49 
 ZAR  HZ EP   1    720 51.12                             115    0.90 7  174 307 
 ZAR  HN ES   4    721 13.74                             115    2.67 0  174 307 
 ZAR  HZ I         721 15.89         4.4 0.56            117            174 307 
 GUY2CHZ EP   4    721  0.43                             107    1.53 0  245 233 
 GUY2CHE ES   4    721 28.50                             107    1.98 0  245 233 
 SML  HZ EP        720 59.32                             106   -0.03 8  254 348 
 SML  HN ES        721 27.53                             106    0.20 8  254 348 
 SML  HZ I         721 31.98         3.9 0.11            108            254 348 
                                                                                
