 2013  3 5 0804 42.1 L   6.872 -73.315122.0  RSN 12 0.4 1.9LRSN                1
 GAP=106        0.88       3.0     3.4  5.6  0.2018E+01  0.2546E+01 -0.1972E+01E
 Epicentro: BETULIA - SANTANDER                                                3
 ACTION:UPD 13-04-09 13:59 OP:ep   STATUS:               ID:20130305080442 L   I
 2013-03-05-0800-00M.COL___228                                                 6
 STAT SP IPHASW D HRMM SECON CODA AMPLIT PERI AZIMU VELO AIN AR TRES W  DIS CAZ7
 BAR2 SZ EP        8 4 59.52                             164    0.3710 34.2 155 
 BAR2 SZ ES   1    8 5 12.00                             164   -0.49 7 34.2 155 
 BRR  HZ IP     C  8 4 59.83                             156    0.3210 51.0 301 
 BRR  HE ES   1    8 5 14.01                             156    0.88 7 51.0 301 
 BRR  HZ I         8 5 15.81        22.6 0.14            154           51.0 301 
 RUS  HZ EP        8 5  4.45                             135    0.0110  111 167 
 RUS  HN ES   1    8 5 21.95                             135    0.04 7  111 167 
 RUS  HZ I         8 5 23.04         9.3 0.24            137            111 167 
 PTB  HZ IP     C  8 5  4.75                             130   -0.8610  131 254 
 PTB  HE ES   2    8 5 23.19                             130   -0.80 5  131 254 
 OCA  HN ES   2    8 5 27.46                             126   -0.28 5  151 360 
 OCA  HZ I         8 5 33.80        25.9 0.14            127            151 360 
 TAM  HZ EP   1    8 5  9.92                             121   -0.12 7  175 106 
 TAM  HE ES   1    8 5 31.65                             121   -0.21 7  175 106 
 TAM  HZ I         8 5 33.02         4.7 0.18            124            175 106 
 ZAR  HZ EP        8 5 11.21                             120    0.34 9  184 292 
 ZAR  HN ES   1    8 5 33.71                             120    0.35 7  184 292 
 ZAR  HZ I         8 5 41.63        12.3 0.10            120            184 292 
 SML  HZ EP        8 5 15.36                             114   -0.46 8  229 339 
 SML  HN ES   1    8 5 41.70                             114   -0.45 6  229 339 
 CHI  HZ EP   1    8 5 19.26                             112    0.31 6  252 191 
 CHI  HE ES   2    8 5 47.12                             112   -0.61 4  252 191 
 CHI  HZ I         8 5 52.82         2.1 0.42            113            252 191 
 HEL  HZ EP   1    8 5 19.76                             111    0.42 6  256 253 
 HEL  HE ES   1    8 5 48.08                             111   -0.35 6  256 253 
 HEL  HZ I         8 5 52.11         6.3 0.50            112            256 253 
 COD  HZ EP        8 5 28.85                             105    0.34 7  339 358 
 COD  HN ES   1    8 6  4.67                             105   -0.08 5  339 358 
 PRA  HZ EP   1    8 5 35.07                             102    0.44 4  390 207 
 PRA  HN ES   1    8 6 15.96                             102    0.31 4  390 207 
 PRA  HZ I         8 6 22.47         2.6 0.24            103            390 207 
                                                                                
