 2012  2 5 0623 38.1 L   6.772 -73.140157.5  RSN  8 0.5 1.7LRSN                1
 GAP=139        0.86       5.4     5.7  8.6 -0.7237E+01  0.1478E+02  0.6051E+01E
 ACTION:UP  12-03-07 16:27 OP:epov STATUS:               ID:20120205062338 L   I
 2012-02-05-0620-00M.COL___188                                                 6
 STAT SP IPHASW D HRMM SECON CODA AMPLIT PERI AZIMU VELO SNR AR TRES W  DIS CAZ7
 GIR2 SZ EP   1    623 59.76                             167    0.50 7 34.4 350 
 BRR  HZ EP   1    624  0.76                             154    0.12 7 73.3 300 
 BRR  HZ I         624  2.12        22.1 0.14                          73.3 300 
 BRR  HE ES   1    624 19.11                             154    0.88 7 73.3 300 
 PAM  SZ EP   1    624  1.49                             152   -0.20 7 79.4  38 
 PAM  SE ES   1    624 19.67                             152   -0.42 7 79.4  38 
 PAM  SZ I         624 24.13         5.2 0.30                          79.4  38 
 RUS  HN ES   1    624 21.78                             147   -0.32 7 97.5 176 
 RUS  HZ I         624 23.85         7.5 0.43                          97.5 176 
 PTB  HZ EP   1    624  5.85                             135   -0.21 7  148 260 
 PTB  HN ES   1    624 27.15                             135   -0.72 7  148 260 
 PTB  HZ I         624 29.98                                            148 260 
 NOR  SZ EP   1    624 14.32                             121   -0.09 6  233 235 
 CHI  HN ES   1    624 46.49                             120    0.60 6  246 195 
 HEL  HZ EP   1    624 19.05                             117    0.12 6  272 256 
 HEL  HZ I         624 44.10         2.3 0.25                           272 256 
 HEL  HN ES   1    624 50.52                             117   -0.25 6  272 256 
                                                                                
