 2016  4 5 0149 43.5 L   6.795 -73.154144.2  RSN 16 0.5 2.2LRSN                1
 GAP=119        1.02       2.9     3.6  5.3 -0.2643E+01  0.4996E+01  0.1668E+01E
 Epicentro: LOS SANTOS - SANTANDER                                             3
 ACTION:UPD 16-05-05 14:18 OP:rebc STATUS:               ID:20160405014943 L   I
 OLDACT:UP  16-04-05 18:24 OP:mh   STATUS:               ID:20160405014748     3
 OLDACT:UP  16-04-05 18:23 OP:mh   STATUS:               ID:20160405014748     3
 OLDACT:UP  16-04-05 18:17 OP:mh   STATUS:               ID:20160405014748     3
 OLDACT:REG 16-04-05 12:56 OP:mh   STATUS:               ID:20160405014748     3
 2016-04-05-0147-48M.COL___307                                                 6
 STAT SP IPHASW D HRMM SECON CODA AMPLIT PERI AZIMU VELO AIN AR TRES W  DIS CAZ7
 BAR2 EZ EP        150  3.03                             171    0.0710 22.7 188 
 BAR2 EZ ES        150 18.16                             171    0.0510 22.7 188 
 BAR2 EZ I         150 19.74        52.3 0.35            169           22.7 188 
 PAM  EZ EP     C  150  5.75                             150    0.1110 78.4  40 
 PAM  EN ES        150 22.94                             150    0.0610 78.4  40 
 PAM  EZ I         150 25.87        11.7 0.46            155           78.4  40 
 RUS  HZ IP     D  150  6.95                             144   -0.1510  100 175 
 RUS  HN ES        150 25.62                             144    0.1410  100 175 
 RUS  HZ I         150 26.70        20.4 0.26            145            100 175 
 PTB  HZ EP        150  9.78                             132   -0.50 9  147 259 
 PTB  HN ES        150 30.69                             132   -0.45 9  147 259 
 PTB  HZ I         150 37.23        12.6 0.45            131            147 259 
 OCA  HE ES        150 34.15                             129    0.38 9  161 353 
 SPBC HZ EP        150 11.82                             129    0.00 9  162 219 
 SPBC HN ES        150 34.27                             129    0.39 9  162 219 
 SPBC HZ I         150 38.56        29.9 0.20            129            162 219 
 ZAR  HZ EP        150 15.50                             122   -0.31 9  203 292 
 ZAR  HN ES        150 40.99                             122    0.01 9  203 292 
 ZAR  HZ I         150 45.90        18.6 0.30            122            203 292 
 NOR  HZ EP        150 19.09                             118    0.03 8  234 234 
 NOR  HN ES        150 46.73                             118   -0.03 8  234 234 
 NOR  HZ I         150 54.51        10.4 0.14            119            234 234 
 CHI  HZ EP        150 20.98                             117   -0.09 8  248 195 
 CHI  HN ES        150 49.70                             117   -0.64 8  248 195 
 CHI  HZ I         150 56.56         8.5 0.28            118            248 195 
 ROSC BZ EP        150 22.97                             116    1.50 8  252 211 
 ROSC BN ES        150 50.48                             116   -0.57 8  252 211 
 ROSC BZ I         150 57.45        27.6 0.40            117            252 211 
 HEL  HZ EP        150 23.93                             115    0.38 8  271 256 
 HEL  HN ES        150 54.47                             115   -0.29 8  271 256 
 HEL  HZ I         151  0.97         5.3 0.40            115            271 256 
 URE  HZ EP   4    150 21.95                             113   -2.50 0  283 292 
 URE  HN ES   4    150 54.82                             113   -1.54 0  283 292 
 URE  HZ I         151  3.00         9.6 0.28            114            283 292 
 GUY2CHZ EP   1    150 27.98                             112    1.03 5  300 235 
 GUY2CHN ES   4    151  5.31                             112    4.50 0  300 235 
 GUY2CHZ I         151  9.03         8.5 0.36                           300 235 
 SOCV BZ EP        150 25.79                             112   -0.84 7  302  57 
 ORTC HZ EP        150 37.17                             106   -0.12 6  394 216 
 ORTC HN ES        151 19.57                             106    0.36 6  394 216 
 ORTC HZ I         151 26.55         4.4 0.28            107            394 216 
 CRJC HZ EP   4    150 43.29                             103   -2.77 0  468   4 
 CRJC HN ES   4    151 31.22                             103   -3.60 0  468   4 
 CRJC HZ I         151 38.21         5.7 0.50            104            468   4 
                                                                                
