 2013  9 5 0338 47.4 L   6.802 -73.148148.1  RSN 10 0.4 2.4LRSN                1
 GAP=136        1.00       3.4     4.3  5.9 -0.2337E+01  0.8155E+01 -0.1753E+01E
 Epicentro: LOS SANTOS - SANTANDER                                             3
 ACTION:UPD 13-10-22 09:20 OP:ep   STATUS:               ID:20130905033847 L   I
 OLDACT:UP  13-09-05 11:48 OP:cam  STATUS:               ID:20130905033737     3
 OLDACT:REG 13-09-05 11:39 OP:cam  STATUS:               ID:20130905033737     3
 2013-09-05-0337-37M.COL___241                                                 6
 STAT SP IPHASW D HRMM SECON CODA AMPLIT PERI AZIMU VELO AIN AR TRES W  DIS CAZ7
 BAR2 SZ EP        339  7.22                             171   -0.0910 23.5 189 
 BAR2 SZ ES        339 22.45                             171   -0.3910 23.5 189 
 BAR2 SZ I         339 23.42        57.9 0.22            171           23.5 189 
 BRR  HZ EP        339  9.03                             153    0.2510 70.9 298 
 BRR  HN ES        339 26.20                             153    0.7510 70.9 298 
 BRR  HZ I         339 30.19        34.7 0.66            151           70.9 298 
 PAM  SZ EP        339 10.18                             151    0.3210 77.4  40 
 PAM  SN ES        339 27.38                             151    0.0010 77.4  40 
 PAM  SZ I         339 29.32        65.7 0.48            154           77.4  40 
 RUS  HZ EP        339 11.21                             144   -0.1910  101 176 
 RUS  HE ES        339 30.27                             144    0.1610  101 176 
 RUS  HZ I         339 30.93        29.2 0.26            147            101 176 
 PTB  HZ EP   1    339 13.73                             133   -0.81 7  148 259 
 PTB  HN ES   1    339 34.84                             133   -0.86 7  148 259 
 PTB  HZ I         339 38.22        17.6 0.12            133            148 259 
 SPBC HZ EP        339 16.13                             130    0.05 9  163 219 
 SPBC HN ES        339 38.22                             130   -0.23 9  163 219 
 SPBC HZ I         339 40.64        36.8 0.28            131            163 219 
 ZAR  HZ EP   1    339 20.93                             123    0.97 6  204 292 
 ZAR  HN ES   1    339 45.29                             123   -0.07 6  204 292 
 ZAR  HZ I         339 46.74        15.6 0.50            123            204 292 
 NOR  HZ EP        339 23.40                             119    0.15 8  235 234 
 NOR  HN ES        339 51.27                             119    0.05 8  235 234 
 NOR  HZ I         339 53.74        17.5 0.16            120            235 234 
 SML  HZ EP        339 23.71                             118   -0.41 8  243 335 
 SML  HN ES        339 52.24                             118   -0.52 8  243 335 
 SML  HZ I         339 55.56        28.4 0.24            119            243 335 
 HEL  HN ES   1    339 59.89                             115    0.74 6  272 256 
 HEL  HZ I         340  6.15        12.3 0.48            116            272 256 
                                                                                
