 2012  7 5 0000  1.4 L   6.767 -73.130145.8  RSN 10 0.4 1.9LRSN                1
 GAP=140        0.75       4.2     4.7  6.3 -0.1650E+00  0.9276E+01  0.7893E+01E
 Epicentro: LOS SANTOS - SANTANDER                                             3
 ACTION:UPD 12-08-14 11:42 OP:ep   STATUS:               ID:20120705000001 L   I
 2012-07-05-0000-00M.COL___201                                                 6
 STAT SP IPHASW D HRMM SECON CODA AMPLIT PERI AZIMU VELO AIN AR TRES W  DIS CAZ7
 BAR2 SZ EP   1    0 0 20.95                             172     0.0 7   20 197 
 BAR2 SZ ES   1    0 0 36.43                             172     0.2 7   20 197 
 BAR2 SZ I         0 0 37.10        35.0 0.20            148             20 197 
 BRR  HZ EP   1    0 0 22.76                             151     0.1 7   75 300 
 BRR  HN ES   1    0 0 39.75                             151     0.4 7   75 300 
 BRR  HZ I         0 0 44.00        24.5 0.16            116             75 300 
 PAM  SZ EP   1    0 0 23.88                             150     0.2 7   79  37 
 PAM  SN ES   1    0 0 40.79                             150    -0.3 7   79  37 
 RUS  HZ EP   1    0 0 24.82                             145     0.0 7   97 177 
 RUS  HN ES   1    0 0 42.91                             145    -0.2 7   97 177 
 RUS  HZ I         0 0 44.63        11.9 0.30            112             97 177 
 PTB  HZ EP   1    0 0 27.83                             132    -0.6 7  149 260 
 PTB  HZ I         0 0 49.76         5.8 0.13            101            149 260 
 ZAR  HE ES   1    0 0 59.60                             122    -0.1 6  207 293 
 NOR  SE ES   1    0 1  4.29                             119    -0.5 6  234 235 
 CHI  HZ EP   1    0 0 38.58                             117    -0.1 6  246 196 
 CHI  HZ I         0 1 14.35         4.6 0.27             96            246 196 
 HEL  HZ EP   2    0 0 41.89                             115     0.2 4  273 257 
 HEL  HZ I         0 1 22.28         4.3 0.36             95            273 257 
 PRA  HZ EP   1    0 0 55.39                             107     0.8 4  390 210 
 PRA  HN ES   1    0 1 36.97                             107     0.8 4  390 210 
