 2012  2 5 0320 44.6 L   6.756 -73.166139.9  RSN 16 0.4 2.7LRSN                1
 GAP=113        0.67       2.8     2.8  4.5  0.4013E+00  0.3738E+01  0.3817E+01E
 ACTION:UP  12-03-07 16:27 OP:epov STATUS:               ID:20120205032044 L   I
 2012-02-05-0320-00M.COL___188                                                 6
 STAT SP IPHASW D HRMM SECON CODA AMPLIT PERI AZIMU VELO SNR AR TRES W  DIS CAZ7
 BAR2 SZ EP   1    321  3.46                             172    0.06 7 18.2 186 
 BAR2 SZ ES   1    321 17.74                             172   -0.35 7 18.2 186 
 BAR2 SZ I         321 21.55       188.3 0.32                          18.2 186 
 GIR2 SZ EP        321  3.61                             165   -0.0710 35.8 355 
 BRR  HZ EP        321  5.41                             151    0.2910 71.7 303 
 BRR  HN ES   1    321 21.70                             151    0.55 7 71.7 303 
 BRR  HZ I         321 25.39        98.1 0.11                          71.7 303 
 PAM  SZ EP   1    321  6.33                             148   -0.17 7 82.6  39 
 PAM  SZ I         321  6.60        81.8 0.20                          82.6  39 
 PAM  SN ES   1    321 23.44                             148   -0.16 7 82.6  39 
 RUS  HZ EP   1    321  7.35                             144   -0.06 7 95.9 175 
 RUS  HN ES   1    321 25.39                             144    0.17 7 95.9 175 
 RUS  HZ I         321 27.42        62.0 0.20                          95.9 175 
 PTB  HZ EP   1    321 10.24                             131   -0.54 7  145 261 
 PTB  HN ES   1    321 31.32                             131    0.10 7  145 261 
 YOP  SZ EP   1    321 13.94                             125    0.07 7  176 152 
 ZAR  HZ EP   1    321 16.01                             121   -0.61 6  204 294 
 ZAR  HN ES        321 41.56                             121   -0.06 9  204 294 
 ZAR  HZ I         321 49.33        54.0 0.15                           204 294 
 NOR  SZ EP   1    321 19.31                             118   -0.15 6  230 235 
 NOR  SN ES   1    321 46.49                             118   -0.19 6  230 235 
 CHI  HZ EP   1    321 21.39                             116    0.02 6  243 195 
 CHI  HN ES   1    321 49.90                             116   -0.17 6  243 195 
 CHI  HZ I         321 58.66        27.4 0.40                           243 195 
 ROSC BZ EP   1    321 22.80                             116    1.01 6  247 211 
 ROSC BZ I         321 59.55        76.2 0.57                           247 211 
 HEL  HZ EP   1    321 24.64                             114    0.52 6  269 257 
 HEL  HN ES   1    321 55.09                             114    0.13 6  269 257 
 HEL  HZ I         322  1.91        25.5 0.20                           269 257 
 RREF HN ES   1    322  4.49                             110   -0.78 5  317 230 
 TOL  SZ EP   1    321 32.58                             108    0.57 5  338 225 
 DBB  SZ EP   1    321 31.53                             108   -0.07 5  338 275 
 PRA  HZ EP   1    321 36.98                             106   -0.29 4  387 210 
                                                                                
