 2014  1 5 0434 55.8 L   5.839 -73.765115.3  RSN  5 0.2 1.5LRSN                1
 GAP=153        0.66       3.4     2.9  5.3 -0.1814E+00  0.1323E+00 -0.5030E+01E
 Epicentro: JESUS MARIA - SANTANDER                                            3
 ACTION:UPD 14-03-13 09:51 OP:ep   STATUS:               ID:20140105043455 L   I
 OLDACT:DUP 14-01-05 16:57 OP:stll STATUS:               ID:20140105042817d    3
 2014-01-05-0428-08M.COL___240                                                 6
 STAT SP IPHASW D HRMM SECON CODA AMPLIT PERI AZIMU VELO AIN AR TRES W  DIS CAZ7
 SPBC HZ EP        435 12.29                             160    0.2010 39.8 239 
 SPBC HN ES        435 24.81                             160   -0.0110 39.8 239 
 SPBC HZ I         435 26.55         7.7 0.18            162           39.8 239 
 RUS  HZ EP        435 14.49                             145   -0.2410 75.7  85 
 RUS  HN ES        435 29.42                             145   -0.1010 75.7  85 
 RUS  HZ I         435 33.93         1.9 0.52            146           75.7  85 
 BAR2 SZ EP        435 17.29                             135    0.5710  105  38 
 BAR2 SZ ES        435 33.07                             135    0.0010  105  38 
 BAR2 SZ I         435 34.24        52.6 0.36            137            105  38 
 PTB  HZ EP        435 16.44                             133   -0.2910  109 315 
 PTB  HN ES        435 33.17                             133    0.0910  109 315 
 PTB  HZ I         435 34.30         4.3 0.12            137            109 315 
 BRR  HZ EP        435 19.46                             125   -0.22 9  140   2 
 BRR  HZ I         435 20.87         3.1 0.28            128            140   2 
 BRR  HN ES        435 38.30                             125   -0.03 9  140   2 
                                                                                
