 2017  9 5 0741 13.3 L   6.800 -73.096147.8  RSN  5 0.4 1.5LRSN                1
 GAP=243        1.00       5.9     7.5  7.7  0.2092E+02  0.9326E+01  0.2610E+01E
 Epicentro: LOS SANTOS - SANTANDER                                             3
 ACTION:UPD 17-10-05 19:09 OP:rebc STATUS:               ID:20170905074113 L   I
 OLDACT:REG 17-09-05 13:28 OP:dnl  STATUS:               ID:20170905073740     3
 2017-09-05-0738-00M.COL___423                                                 6
 STAT SP IPHASW D HRMM SECON CODA AMPLIT PERI AZIMU VELO AIN AR TRES W  DIS CAZ7
 BAR2 EZ EP        741 33.16                             170   -0.0010 24.9 203 
 BAR2 EZ ES        741 47.87                             170   -0.8210 24.9 203 
 BAR2 EZ I         741 50.89         4.5 0.32            168           24.9 203 
 BRR  HZ EP        741 35.21                             151    0.3110 76.1 297 
 BRR  HZ I         741 44.30        10.2 0.38            148           76.1 297 
 BRR  HN ES        741 52.33                             151    0.5410 76.1 297 
 RUS  HZ EP        741 37.52                             144    0.3310  100 179 
 RUS  HN ES        741 55.81                             144   -0.0510  100 179 
 RUS  HZ I         741 58.84         1.9 0.20            143            100 179 
 SPBC HZ EP        741 42.14                             128   -0.10 9  167 220 
 SPBC HN ES        742  5.00                             128    0.14 9  167 220 
 SPBC HZ I         742 10.63         4.9 0.22            126            167 220 
 ZAR  HZ EP   2    741 45.43                             122   -0.93 4  209 292 
 ZAR  HE ES        742 11.95                             122   -0.23 8  209 292 
 ZAR  HZ I         742 17.24         4.7 0.30            120            209 292 
                                                                                
