 2017  8 5 0908 13.3 L   6.814 -73.131150.4  RSN  4 0.4 1.2LRSN                1
 GAP=245        0.87       8.2     7.4 11.5  0.4112E+02 -0.3049E+02 -0.5620E+02E
 Epicentro: LOS SANTOS - SANTANDER                                             3
 ACTION:UPD 17-09-04 20:16 OP:rebc STATUS:               ID:20170805090813 L   I
 OLDACT:UP  17-08-05 18:07 OP:dani STATUS:               ID:20170805090738     3
 OLDACT:UP  17-08-05 18:06 OP:dani STATUS:               ID:20170805090738     3
 OLDACT:REG 17-08-05 13:37 OP:osc  STATUS:               ID:20170805090738     3
 2017-08-05-0908-00M.COL___384                                                 6
 STAT SP IPHASW D HRMM SECON CODA AMPLIT PERI AZIMU VELO AIN AR TRES W  DIS CAZ7
 RUS  HZ EP        9 8 37.69                             144    0.0410  102 177 
 RUS  HN ES        9 8 56.60                             144   -0.0110  102 177 
 RUS  HZ I         9 8 58.28         1.5 0.25            150            102 177 
 PTB  HZ EP        9 8 40.14                             133   -0.72 9  150 258 
 PTB  HE ES        9 9  1.95                             133   -0.37 9  150 258 
 PTB  HZ I         9 9  6.22         1.3 0.24            134            150 258 
 SPBC HZ EP        9 8 42.64                             130    0.24 9  165 219 
 SPBC HN ES        9 9  5.38                             130    0.30 9  165 219 
 SPBC HZ I         9 9 10.25         2.4 0.28            133            165 219 
 ZAR  HZ EP        9 8 46.44                             123    0.26 9  205 292 
 ZAR  HN ES        9 9 12.18                             123    0.38 9  205 292 
 ZAR  HZ I         9 9 21.72         2.7 0.37            125            205 292 
                                                                                
