 2010  5 5 0350 35.8 L   6.807 -73.091140.0  RSN 13 0.4 2.4LRSN                1
 GAP=179        0.90       4.5     7.3  5.6 -0.1981E+02  0.5499E+01  0.2821E+01E
 Epicentro: LOS SANTOS - SANTANDER                                             3
 ACTION:UP  10-08-24 10:02 OP:vdl  STATUS:               ID:20100505035035 L   I
 2010-05-05-0349-02S.COL___105                                                 6
 STAT SP IPHASW D HRMM SECON CODA AMPLIT PERI AZIMU VELO SNR AR TRES W  DIS CAZ7
 BAR2 SZ IP        350 54.72                             169    -0.110   26 203 
 BAR2 SZ ES   1    351  9.33                             169    -0.3 7   26 203 
 GIR2 SZ IP        350 54.76                             167    -0.110   32 339 
 GIR2 SZ ES   1    351  9.40                             167    -0.3 7   32 339 
 BRR  HZ IP     C  350 57.20                             150     0.510   76 296 
 BRR  HN ES   1    351 13.47                             150     0.5 7   76 296 
 BRR  HZ I         351 18.48        50.4 0.09                            76 296 
 BRI  SZ EP        350 59.31                             141     0.310  106  18 
 BRI  SZ ES   1    351 17.36                             141     0.3 7  106  18 
 GUE  SZ EP        350 59.79                             139    -0.110  115   9 
 GRA  SZ IP        351  0.62                             136     0.310  123  15 
 GRA  SZ ES   1    351 19.10                             136    -0.4 7  123  15 
 OCA  SZ IP        351  3.28                             128    -0.4 9  160 351 
 OCA  SZ ES   2    351 24.53                             128    -0.9 5  160 351 
 OCA  SZ I         351 28.16        31.5 0.29                           160 351 
 CHI  HZ EP   2    351 13.10                             116    -0.4 4  251 196 
 CHI  HE ES   2    351 42.82                             116     0.0 4  251 196 
 CHI  HZ I         351 50.23         6.7 0.25                           251 196 
 ROSC BZ EP   2    351 14.69                             115     0.6 4  257 212 
 ROSC BE ES   2    351 43.15                             115    -0.7 4  257 212 
 ROSC BZ I         351 49.71        10.8 0.44                           257 212 
 HEL  HZ EP   1    351 16.27                             113    -0.2 6  278 256 
 HEL  HZ I         351 54.48        18.2 0.24                           278 256 
 RREF BZ EP   1    351 22.98                             109     0.7 5  327 230 
 RREF BN ES   2    351 59.37                             109     0.8 3  327 230 
 RREF BZ I         352  5.33        14.7 0.56                           327 230 
 DBB  SZ EP        351 23.04                             108    -0.7 6  346 274 
 PRA  HZ EP   1    351 29.51                             105    -0.1 4  396 210 
 PRA  HN ES   2    352 10.74                             105    -0.8 3  396 210 
 PRA  HZ I         352 17.30         7.3 0.17                           396 210 
                                                                                
