 2016 11 5 0834 38.6 L   6.751 -73.148148.0  RSN  6 0.4 1.8LRSN                1
 GAP=155        0.84       4.9     4.1  6.4 -0.6096E+01  0.5467E+01  0.5292E+00E
 Epicentro: LOS SANTOS - SANTANDER                                             3
 ACTION:UPD 17-10-26 21:04 OP:lp   STATUS:               ID:20161105083438 L   I
 OLDACT:DUP 16-11-05 15:16 OP:dnl  STATUS:               ID:20161105082745d    3
 OLDACT:UP  16-11-05 15:14 OP:dnl  STATUS:               ID:20161105082744     3
 OLDACT:UP  16-11-05 15:14 OP:dnl  STATUS:               ID:20161105082744     3
 OLDACT:REG 16-11-05 14:19 OP:dani STATUS:               ID:20161105082744     3
 2016-11-05-0828-00M.COL___346                                                 6
 STAT SP IPHASW D HRMM SECON CODA AMPLIT PERI AZIMU VELO AIN AR TRES W  DIS CAZ7
 BAR2 EZ EP        834 58.36                             173    0.0110 18.0 192 
 BAR2 EZ ES        835 13.54                             173   -0.2610 18.0 192 
 BAR2 EZ I         835 14.75        25.2 0.36            172           18.0 192 
 BRR  HZ IP     C  835  0.27                             152    0.1910 73.7 302 
 BRR  HN ES        835 17.65                             152    0.7810 73.7 302 
 BRR  HZ I         835 20.82         7.0 0.32            150           73.7 302 
 PAM  EZ EP        835  1.32                             150    0.0510 81.8  37 
 PAM  EN ES        835 18.67                             150   -0.3110 81.8  37 
 PAM  EZ I         835 20.72         8.8 0.36            153           81.8  37 
 PTB  HZ EP        835  5.32                             133   -0.27 9  147 261 
 PTB  HN ES        835 26.45                             133   -0.23 9  147 261 
 PTB  HZ I         835 28.23         4.8 0.16            133            147 261 
 SPBC HZ EP   2    835  7.60                             130    0.78 5  159 220 
 SPBC HN ES        835 28.94                             130    0.08 9  159 220 
 SPBC HZ I         835 34.04         7.1 0.44            131            159 220 
 ZAR  HZ EP   2    835 11.29                             123   -0.04 4  206 294 
 ZAR  HN ES        835 36.56                             123   -0.34 8  206 294 
 ZAR  HZ I         835 43.22         5.2 0.28            123            206 294 
                                                                                
