 2017 12 5 0441  1.4 L   6.736 -73.193145.8  RSN  4 0.2 1.3LRSN                1
 GAP=238        0.49       4.8     3.7  4.7  0.1172E+02  0.1369E+00 -0.7407E+01E
 Epicentro: VILLANUEVA - SANTANDER                                             3
 ACTION:UPD 18-01-04 13:17 OP:rebc STATUS:               ID:20171205044101 L   I
 OLDACT:REG 17-12-05 13:39 OP:y    STATUS:               ID:20171205043740     3
 2017-12-05-0438-00M.COL___479                                                 6
 STAT SP IPHASW D HRMM SECON CODA AMPLIT PERI AZIMU VELO AIN AR TRES W  DIS CAZ7
 BAR2 EZ EP        441 21.00                             173    0.0710 15.9 176 
 BAR2 EZ ES        441 36.00                             173   -0.1510 15.9 176 
 BAR2 EZ I         441 37.67         4.3 0.52            137           15.9 176 
 RUS  HZ EP        441 24.59                             146   -0.1210 94.0 173 
 RUS  HZ I         441 37.85         3.0 0.58            119           94.0 173 
 RUS  HN ES        441 43.11                             146    0.2310 94.0 173 
 PTB  HZ EP   4    441 25.86                             133   -1.96 0  141 261 
 PTB  HE ES        441 48.24                             133   -0.18 9  141 261 
 PTB  HZ I         442  5.45         3.3 0.30            112            141 261 
 ZAR  HZ EP        441 33.58                             123   -0.09 9  202 295 
 ZAR  HE ES        441 59.09                             123    0.27 9  202 295 
                                                                                
