 2017  5 5 0034 51.5 L   6.773 -73.153145.0  RSN  6 0.2 1.3LRSN                1
 GAP=137        0.66       2.9     2.9  5.8 -0.5947E+00  0.2593E+01  0.9157E+00E
 Epicentro: LOS SANTOS - SANTANDER                                             3
 ACTION:UPD 17-06-16 13:33 OP:jn   STATUS:               ID:20170505003451 L   I
 OLDACT:DUP 17-05-05 13:26 OP:edw  STATUS:               ID:20170505002740d    3
 OLDACT:UP  17-05-05 13:26 OP:edw  STATUS:               ID:20170505002739     3
 OLDACT:REG 17-05-05 11:49 OP:edw  STATUS:               ID:20170505002739     3
 2017-05-05-0028-00M.COL___367                                                 6
 STAT SP IPHASW D HRMM SECON CODA AMPLIT PERI AZIMU VELO AIN AR TRES W  DIS CAZ7
 BRR  HZ EP        035 12.77                             152    0.2110 72.0 301 
 BRR  HN ES        035 28.83                             152   -0.2010 72.0 301 
 PAM  EZ EP     D  035 13.72                             150   -0.0410 80.2  39 
 PAM  EN ES        035 31.14                             150   -0.0110 80.2  39 
 RUS  HZ EP        035 15.20                             144    0.2910 97.6 175 
 RUS  HN ES        035 33.21                             144   -0.0010 97.6 175 
 RUS  HZ I         035 34.70         3.8 0.30            145           97.6 175 
 PTB  HZ EP        035 17.64                             132   -0.59 9  146 260 
 PTB  HN ES        035 39.31                             132    0.19 9  146 260 
 PTB  HZ I         035 44.37         2.6 0.42            132            146 260 
 SPBC HN ES        035 41.50                             129   -0.09 9  160 219 
 ZAR  HN ES        035 49.44                             122    0.25 9  204 293 
                                                                                
