 2015 12 5 0629 28.4 L   7.454 -73.156139.2  RSN  9 0.4 1.6LRSN                1
 GAP=116        1.03       3.3     5.1  7.3 -0.7593E+00  0.3848E+01 -0.2512E+01E
 Epicentro: EL PLAYON - SANTANDER                                              3
 ACTION:UPD 16-02-04 15:02 OP:cam  STATUS:               ID:20151205062928 L   I
 OLDACT:UP  15-12-05 16:48 OP:mh   STATUS:               ID:20151205062748     3
 OLDACT:REG 15-12-05 13:17 OP:mh   STATUS:               ID:20151205062748     3
 2015-12-05-0627-48M.COL___316                                                 6
 STAT SP IPHASW D HRMM SECON CODA AMPLIT PERI AZIMU VELO AIN AR TRES W  DIS CAZ7
 PAM  EZ EP        629 48.80                             159    0.2710 52.0 104 
 BRR  HZ EP   1    629 49.18                             151    0.30 7 72.4 238 
 BRR  HN ES        630  5.20                             151    0.3210 72.4 238 
 BRR  HZ I         630 11.50         5.0 0.16            152           72.4 238 
 OCA  HZ EP        629 50.34                             146    0.1910 88.7 348 
 OCA  HN ES        630  7.23                             146    0.0910 88.7 348 
 OCA  HZ I         630 15.17         8.5 0.38            148           88.7 348 
 BAR2 EZ EP        629 50.32                             144   -0.4210 95.3 182 
 BAR2 EZ ES        630  7.83                             144   -0.3510 95.3 182 
 BAR2 EZ I         630  9.29         4.3 0.20            149           95.3 182 
 PTB  HZ EP        629 56.90                             125   -0.60 9  176 235 
 PTB  HN ES        630 20.08                             125   -0.15 9  176 235 
 PTB  HZ I         630 22.91         3.7 0.18            129            176 235 
 SML  HZ EP        629 58.24                             124    0.34 9  180 326 
 SML  HN ES        630 20.07                             124   -0.87 9  180 326 
 SML  HZ I         630 26.41         7.3 0.10            128            180 326 
 ZAR  HZ EP        629 59.50                             123    0.78 9  188 271 
 ZAR  HN ES        630 22.58                             123    0.18 9  188 271 
 ZAR  HZ I         630 26.15         3.9 0.22            126            188 271 
 SPBC HN ES        630 29.45                             118    0.21 8  224 207 
 SPBC HZ I         630 35.39         3.0 0.26            123            224 207 
 SJC  HZ EP   1    630 16.24                             108   -0.55 5  350 321 
 SJC  HZ I         630 20.27         1.7 0.48            111            350 321 
 SJC  HN ES   4    630 50.12                             108   -4.44 0  350 321 
                                                                                
