 2015  3 5 0304 28.3 L   6.769 -73.118144.2  RSN  7 0.3 1.3LRSN                1
 GAP=142        0.69       3.1     3.2  5.1  0.2556E+00  0.3755E+01  0.7387E+00E
 Epicentro: LOS SANTOS - SANTANDER                                             3
 ACTION:UPD 15-04-30 16:23 OP:nd   STATUS:               ID:20150305030428 L   I
 OLDACT:DUP 15-03-05 15:38 OP:spq  STATUS:               ID:20150305025739d    3
 2015-03-05-0257-37M.COL___284                                                 6
 STAT SP IPHASW D HRMM SECON CODA AMPLIT PERI AZIMU VELO AIN AR TRES W  DIS CAZ7
 BAR2 EZ EP        3 4 47.55                             171   -0.1410 20.8 200 
 BAR2 EZ ES   1    3 5  2.80                             171   -0.01 7 20.8 200 
 BAR2 EZ I         3 5  3.32         4.5 0.14            171           20.8 200 
 BRR  HZ EP        3 4 49.60                             151    0.0710 75.6 300 
 BRR  HN ES        3 5  6.15                             151    0.0610 75.6 300 
 BRR  HZ I         3 5  9.29         3.4 0.34            150           75.6 300 
 PAM  SZ EP     D  3 4 50.53                             150    0.1310 78.2  36 
 PAM  SN ES        3 5  7.37                             150   -0.2610 78.2  36 
 PAM  SZ I         3 5  9.42         7.0 0.46            153           78.2  36 
 RUS  HZ EP        3 4 51.59                             144   -0.0410 96.9 178 
 RUS  HN ES        3 5 10.18                             144    0.3410 96.9 178 
 RUS  HZ I         3 5 11.65         2.7 0.38            146           96.9 178 
 PTB  HZ EP   1    3 4 55.63                             131    0.27 7  150 260 
 PTB  HN ES   1    3 5 16.31                             131   -0.15 7  150 260 
 PTB  HZ I         3 5 18.43         2.2 0.38            132            150 260 
 SPBC HZ EP   1    3 4 56.94                             129    0.33 7  162 221 
 SPBC HE ES   1    3 5 17.97                             129   -0.72 7  162 221 
 SPBC HZ I         3 5 21.17         2.8 0.19            130            162 221 
 ZAR  HZ EP   1    3 5  0.38                             121   -0.69 6  208 293 
 ZAR  HE ES        3 5 27.00                             121    0.36 8  208 293 
 ZAR  HZ I         3 5 29.91         2.6 0.24            123            208 293 
                                                                                
