 2016  5 5 0820 36.6 L   6.804 -73.124142.3  RSN  8 0.5 1.3LRSN                1
 GAP=139        1.17       3.9     5.0  7.3 -0.2559E+01  0.6902E+01 -0.1422E+01E
 Epicentro: LOS SANTOS - SANTANDER                                             3
 ACTION:UPD 16-08-18 17:42 OP:cam  STATUS:               ID:20160505082036 L   I
 OLDACT:REG 16-05-05 13:13 OP:ak   STATUS:               ID:20160505081744     3
 2016-05-05-0817-44M.COL___294                                                 6
 STAT SP IPHASW D HRMM SECON CODA AMPLIT PERI AZIMU VELO AIN AR TRES W  DIS CAZ7
 BAR2 EZ EP        820 55.66                             170   -0.1610 24.3 195 
 BAR2 EZ ES        821 10.38                             170   -0.4410 24.3 195 
 BAR2 EZ I         821 13.09         3.1 0.48            171           24.3 195 
 BRR  HZ EP        820 57.78                             151    0.3110 73.1 297 
 BRR  HE ES        821 14.58                             151    0.8210 73.1 297 
 BRR  HZ I         821 18.70         3.4 0.12            149           73.1 297 
 PAM  EZ EP        820 58.59                             151    0.2710 75.5  38 
 PAM  EN ES        821 15.23                             151   -0.0410 75.5  38 
 PAM  EZ I         821 17.50         4.3 0.52            153           75.5  38 
 RUS  HZ EP        821  0.10                             143    0.0810  101 177 
 RUS  HN ES        821 18.54                             143    0.2410  101 177 
 RUS  HZ I         821 18.85         1.8 0.28            148            101 177 
 PTB  HZ EP        821  3.20                             131   -0.29 9  150 259 
 PTB  HN ES        821 23.66                             131   -0.82 9  150 259 
 PTB  HZ I         821 26.90         1.9 0.18            131            150 259 
 OCA  HZ EP        821  4.04                             129   -0.57 9  160 352 
 OCA  HE ES        821 26.12                             129   -0.35 9  160 352 
 OCA  HZ I         821 33.15         5.7 0.40            130            160 352 
 SPBC HZ EP        821  5.68                             128    0.68 9  165 220 
 SPBC HN ES        821 26.75                             128   -0.41 9  165 220 
 SPBC HZ I         821 29.72         2.2 0.18            130            165 220 
 ZAR  HZ EP   2    821  8.79                             121   -0.23 4  206 292 
 ZAR  HN ES        821 34.94                             121    0.63 8  206 292 
 ZAR  HZ I         821 42.75         1.5 0.18            122            206 292 
                                                                                
