 2012  7 5 0217 47.8 L   6.716 -73.263139.3  RSN  7 0.4 1.5LRSN                1
 GAP=149        0.85       4.5     5.4  8.9  0.3194E+01  0.1265E+02  0.4900E+00E
 Epicentro: BARICHARA - SANTANDER                                              3
 ACTION:UPD 12-08-14 11:42 OP:ep   STATUS:               ID:20120705021747 L   I
 2012-07-05-0210-00M.COL___201                                                 6
 STAT SP IPHASW D HRMM SECON CODA AMPLIT PERI AZIMU VELO AIN AR TRES W  DIS CAZ7
 BAR2 SZ EP   1    218  6.68                             173     0.1 7   16 147 
 BAR2 SZ ES   1    218 20.96                             173    -0.2 7   16 147 
 BAR2 SZ I         218 21.91        12.0 0.26            173             16 147 
 BRR  HZ EP   1    218  8.44                             153     0.5 7   66 311 
 BRR  HN ES   1    218 24.26                             153     0.6 7   66 311 
 BRR  HZ I         218 26.36        17.5 0.20            154             66 311 
 RUS  HZ EP   1    218 10.60                             145     0.2 7   93 168 
 RUS  HN ES   1    218 27.95                             145    -0.1 7   93 168 
 RUS  HZ I         218 30.36         2.7 0.25            147             93 168 
 PTB  HZ EP   1    218 12.70                             134    -0.3 7  133 262 
 PTB  HN ES   1    218 32.11                             134    -0.5 7  133 262 
 PTB  HZ I         218 36.61         3.1 0.25            135            133 262 
 OCA  HN ES   1    218 38.08                             127    -0.7 7  168 358 
 ZAR  HN ES   1    218 43.67                             122     0.3 6  196 296 
 NOR  SE ES   1    218 47.60                             119    -0.1 6  219 234 
