 2016  2 5 0949 12.7 L   6.777 -73.168145.3  RSN 12 0.4 1.9LRSN                1
 GAP=135        0.93       2.9     3.7  5.5 -0.2535E+01  0.8458E+01 -0.1308E+01E
 Epicentro: LOS SANTOS - SANTANDER                                             3
 ACTION:UPD 16-03-04 21:23 OP:rebc STATUS:               ID:20160205094912 L   I
 OLDACT:REG 16-02-05 14:12 OP:cara STATUS:               ID:20160205094740     3
 2016-02-05-0947-40M.COL___325                                                 6
 STAT SP IPHASW D HRMM SECON CODA AMPLIT PERI AZIMU VELO AIN AR TRES W  DIS CAZ7
 BAR2 EZ EP        949 32.31                             172    0.1110 20.5 185 
 BAR2 EZ ES        949 47.58                             172    0.1510 20.5 185 
 BAR2 EZ I         949 48.55        18.0 0.28            170           20.5 185 
 PAM  EZ EP        949 35.28                             150    0.2310 80.9  40 
 PAM  EN ES        949 52.57                             150    0.0610 80.9  40 
 PAM  EZ I         949 54.84        10.4 0.78            153           80.9  40 
 RUS  HZ EP        949 36.00                             144   -0.2210 98.3 175 
 RUS  HN ES        949 54.69                             144    0.1110 98.3 175 
 RUS  HZ I         949 55.92         7.0 0.24            148           98.3 175 
 PTB  HZ EP   1    949 38.62                             132   -0.73 7  145 260 
 PTB  HN ES        949 59.73                             132   -0.42 9  145 260 
 PTB  HZ I         950  5.95         9.4 0.32            131            145 260 
 OCA  HZ EP        949 40.58                             129   -0.58 9  163 354 
 OCA  HN ES        950  3.25                             129   -0.13 9  163 354 
 OCA  HZ I         950  7.04        11.9 0.28            130            163 354 
 ZAR  HZ EP   1    949 45.50                             122    0.54 6  203 293 
 ZAR  HN ES        950 10.49                             122    0.35 9  203 293 
 ZAR  HZ I         950 15.48         9.4 0.50            122            203 293 
 NOR  HZ EP        949 47.87                             119   -0.14 8  231 235 
 NOR  HN ES        950 15.27                             119   -0.30 8  231 235 
 NOR  HZ I         950 22.83         7.1 0.14            119            231 235 
 SML  HZ EP        949 49.51                             117    0.09 8  245 336 
 SML  HN ES   1    950 17.80                             117   -0.27 6  245 336 
 SML  HZ I         950 23.20         9.1 0.22            118            245 336 
 HEL  HZ EP        949 53.27                             115    0.74 8  269 256 
 HEL  HN ES        950 23.73                             115    0.10 8  269 256 
 HEL  HZ I         950 31.33         4.1 0.32            115            269 256 
 URE  HZ EP   4    949 51.14                             114   -2.44 0  283 293 
 URE  HN ES   4    950 27.73                             114    2.25 0  283 293 
 GUY2CHZ EP        949 57.02                             112    1.15 7  298 235 
 GUY2CHN ES   4    950 32.00                             112    2.43 0  298 235 
 GUY2CHZ I         950 37.83         3.2 0.30                           298 235 
 ORTC HZ EP        950  5.39                             106   -0.78 6  392 216 
 ORTC HN ES   1    950 47.44                             106   -0.46 4  392 216 
 ORTC HZ I         950 54.84         2.0 0.54            108            392 216 
 SJC  HZ EP   4    950  6.57                             106   -1.75 0  410 327 
 SJC  HN ES   4    950 46.44                             106   -5.28 0  410 327 
 SJC  HZ I         951  2.92         4.6 0.88            106            410 327 
 MACC HZ EP   4    950  5.56                             102   -15.5 0  518 188 
 MACC HN ES   4    951  7.31                             102   -7.04 0  518 188 
                                                                                
