 2016 10 5 0410 29.8 L   6.786 -73.112146.0  RSN  8 0.2 1.5LRSN                1
 GAP=141        0.57       2.8     4.0  4.2 -0.4894E+01 -0.1266E+01  0.4994E+01E
 Epicentro: LOS SANTOS - SANTANDER                                             3
 ACTION:UPD 16-11-09 19:16 OP:rebc STATUS:               ID:20161005041029 L   I
 OLDACT:UP  16-10-05 15:52 OP:dani STATUS:               ID:20161005040741     3
 OLDACT:UP  16-10-05 15:51 OP:dani STATUS:               ID:20161005040741     3
 OLDACT:UP  16-10-05 15:51 OP:dani STATUS:               ID:20161005040741     3
 OLDACT:UP  16-10-05 15:50 OP:dani STATUS:               ID:20161005040741     3
 OLDACT:REG 16-10-05 12:45 OP:dani STATUS:               ID:20161005040741     3
 2016-10-05-0408-00M.COL___357                                                 6
 STAT SP IPHASW D HRMM SECON CODA AMPLIT PERI AZIMU VELO AIN AR TRES W  DIS CAZ7
 BAR2 HE ES        411  4.80                             171    0.0510 22.7 200 
 BRR  HZ EP        410 50.97                             151   -0.2110 75.2 298 
 BRR  HN ES        411  8.09                             151    0.2110 75.2 298 
 BRR  HZ I         411 12.13         4.9 0.15            125           75.2 298 
 PAM  EE EP        410 52.20                             151    0.2410 76.4  37 
 PAM  EN ES        411  8.99                             151   -0.2710 76.4  37 
 PAM  EE I         411 11.17        10.0 0.41            138           76.4  37 
 RUS  HZ EP        410 53.33                             144   -0.1010 98.8 178 
 RUS  HN ES   2    411 12.41                             144    0.54 5 98.8 178 
 RUS  HZ I         411 12.91         3.9 0.28            135           98.8 178 
 SPBC HZ EP        410 58.63                             129    0.23 9  164 220 
 SPBC HN ES        411 20.40                             129   -0.33 9  164 220 
 SPBC HZ I         411 24.77         5.2 0.11            113            164 220 
 CHI  HZ EP        411  7.43                             117   -0.00 8  248 196 
 CHI  HN ES        411 36.83                             117    0.03 8  248 196 
 CHI  HZ I         411 40.54         1.1 0.18            107            248 196 
 ROSC HZ EP   4    411  9.60                             117    1.63 0  253 212 
 HEL  HZ EP   4    411  8.18                             114   -2.18 0  275 256 
 HEL  HZ I         411 49.44         1.8 0.47            103            275 256 
 GUY2CHZ EP   4    411 15.33                             112    1.69 0  303 235 
 GUY2CHZ I         411 55.45         1.6 0.31                           303 235 
                                                                                
