 2017  9 5 0504 25.9 L   6.808 -73.141148.0  RSN 27 0.5 2.5LRSN                1
 GAP= 66        0.96       2.4     2.8  4.2  0.3249E+00  0.2925E+01  0.1460E+01E
 Epicentro: LOS SANTOS - SANTANDER                                             3
 ACTION:UPD 17-10-05 19:09 OP:rebc STATUS:               ID:20170905050425 L   I
 OLDACT:UP  17-09-05 14:37 OP:dnl  STATUS:               ID:20170905045645     3
 OLDACT:UP  17-09-05 14:36 OP:dnl  STATUS:               ID:20170905045645     3
 OLDACT:UP  17-09-05 14:35 OP:dnl  STATUS:               ID:20170905045645     3
 OLDACT:REG 17-09-05 13:17 OP:dnl  STATUS:               ID:20170905045645     3
 2017-09-05-0457-00M.COL___426                                                 6
 STAT SP IPHASW D HRMM SECON CODA AMPLIT PERI AZIMU VELO AIN AR TRES W  DIS CAZ7
 BAR2 EZ IP     C  5 4 45.58                             170   -0.1910 24.3 191 
 BAR2 EZ ES        5 5  0.73                             170   -0.5810 24.3 191 
 BAR2 EZ I         5 5  2.07       106.4 0.20            166           24.3 191 
 BRR  HE EP        5 4 47.62                             153    0.3710 71.2 298 
 BRR  HN ES        5 5  4.52                             153    0.5910 71.2 298 
 BRR  HE I         5 5  7.70       153.8 0.18            150           71.2 298 
 PAM  EZ IP     D  5 4 48.40                             151    0.1610 76.3  40 
 PAM  EN ES        5 5  5.73                             151    0.0210 76.3  40 
 PAM  EZ I         5 5  8.01        46.8 0.52            157           76.3  40 
 RUS  HZ IP     C  5 4 49.54                             144   -0.3510  101 176 
 RUS  HN ES        5 5  8.36                             144   -0.2810  101 176 
 RUS  HZ I         5 5  9.62        47.8 0.34            143            101 176 
 TAM  HZ EP        5 4 53.95                             131    0.27 9  155 105 
 TAM  HN ES        5 5 15.47                             131    0.08 9  155 105 
 TAM  HZ I         5 5 16.25        17.7 0.24            135            155 105 
 SPBC HZ EP        5 4 54.53                             129   -0.10 9  164 219 
 SPBC HE ES        5 5 16.80                             129   -0.27 9  164 219 
 SPBC HZ I         5 5 23.53        57.8 0.22            128            164 219 
 YPLC HZ IP     C  5 4 55.97                             127    0.10 9  177 152 
 YPLC HN ES        5 5 19.95                             127    0.68 9  177 152 
 YPLC HZ I         5 5 20.89        45.7 0.24            128            177 152 
 ZAR  HZ EP        5 4 58.21                             123   -0.25 9  204 292 
 ZAR  HE ES        5 5 23.86                             123   -0.04 9  204 292 
 ZAR  HZ I         5 5 28.83        30.0 0.28            122            204 292 
 NOR  HZ EP        5 5  1.71                             119   -0.11 8  236 234 
 NOR  HN ES        5 5 29.15                             119   -0.72 8  236 234 
 NOR  HZ I         5 5 32.47        29.7 0.22            118            236 234 
 CHI  HZ EP        5 5  3.76                             117   -0.03 8  250 195 
 CHI  HN ES        5 5 33.37                             117   -0.01 8  250 195 
 CHI  HZ I         5 5 42.99        18.0 0.40            117            250 195 
 ROSC BZ EP   4    5 5  5.30                             117    1.09 0  254 211 
 ROSC BN ES   2    5 5 35.14                             117    1.01 4  254 211 
 ROSC BZ I         5 5 40.25        43.0 0.45            117            254 211 
 HEL  HZ EP        5 5  6.74                             115    0.47 8  273 256 
 HEL  HN ES   4    5 5 40.06                             115    2.27 0  273 256 
 HEL  HZ I         5 5 44.43        13.3 0.44            115            273 256 
 URE  HZ EP   4    5 4 58.99                             114   -8.06 0  284 292 
 URE  HN ES   4    5 5 36.07                             114   -3.11 0  284 292 
 URE  HZ I         5 5 46.19        18.9 0.34            114            284 292 
 GUY2CHZ EP   4    5 5 10.53                             113    0.85 0  302 235 
 GUY2CHN ES   4    5 5 48.00                             113    4.14 0  302 235 
 GUY2CHZ I         5 5 51.80        21.4 0.28                           302 235 
 VIL  EZ EP        5 5  9.29                             112   -0.20 7  304 192 
 VIL  HN ES        5 5 43.44                             112   -0.09 7  304 192 
 VIL  EZ I         5 5 49.13        20.3 0.34            113            304 192 
 PTGC HZ IP     C  5 5  8.66                             112   -1.23 7  309 159 
 PTGC HN ES   4    5 5 42.08                             112   -2.15 0  309 159 
 PTGC HZ I         5 5 46.96        15.4 0.32            113            309 159 
 CBOC HZ EP   4    5 5 13.83                             110    0.87 0  334 252 
 CBOC HN ES   4    5 5 48.39                             110   -1.30 0  334 252 
 CBOC HZ I         5 6  3.22         5.0 0.20            110            334 252 
 DBB  EZ EP        5 5 13.87                             110    0.39 7  340 274 
 DBB  EE ES   4    5 5 49.28                             110   -1.34 0  340 274 
 DBB  EZ I         5 5 52.26         5.9 0.26            110            340 274 
 ANIL HZ EP   4    5 5 17.79                             109    1.92 0  358 224 
 ANIL HE ES   4    5 5 58.33                             109    3.45 0  358 224 
 ANIL HZ I         5 6  3.46        36.6 0.22            109            358 224 
 ARGC HZ EP        5 5 15.42                             109   -0.10 6  359 340 
 ARGC HN ES        5 5 54.47                             109    0.22 6  359 340 
 ARGC HZ I         5 6  1.37         6.1 0.58            109            359 340 
 PRA  HZ EP        5 5 19.30                             107   -0.28 6  393 210 
 PRA  HE ES        5 6  2.05                             107    0.57 6  393 210 
 PRA  HZ I         5 6  7.79        24.5 0.40            107            393 210 
 ORTC HZ EP        5 5 20.22                             107    0.24 6  397 216 
 ORTC HN ES        5 6  3.64                             107    1.45 6  397 216 
 ORTC HZ I         5 6  9.42        11.6 0.44            107            397 216 
 PAL  HZ EP   2    5 5 21.18                             106   -0.02 3  407 239 
 PAL  HE ES   4    5 6  3.33                             106   -1.04 0  407 239 
 PAL  HZ I         5 6  7.22         4.5 0.20            106            407 239 
 SJC  HZ EP   4    5 5 19.79                             106   -1.64 0  409 327 
 SJC  HE ES   4    5 6  0.85                             106   -3.93 0  409 327 
 SJC  HZ I         5 6  5.08         5.9 0.66            107            409 327 
 SMAR HZ EP        5 5 30.96                             103   -0.73 4  496 346 
 SMAR HN ES   4    5 6 17.94                             103   -5.10 0  496 346 
 SMAR HZ I         5 6 21.97         4.8 0.16            103            496 346 
 MACC HZ EP   4    5 5 32.60                             102   -2.14 0  522 189 
 MACC HN ES   4    5 6 23.21                             102   -5.26 0  522 189 
 MACC HZ I         5 6 31.46         3.2 0.38            102            522 189 
 URI  HZ EP   4    5 5 36.20                             101   -2.58 0  556  13 
 URI  HE ES   4    5 6 26.12                             101   -9.55 0  556  13 
 URI  HZ I         5 6 31.15         7.1 0.96            102            556  13 
                                                                                
