 2017 11 5 0331  3.3 L   6.648 -73.625106.6  RSN  4 0.2 1.1LRSN                1
 GAP=118        0.54       3.3     2.6  4.9  0.3453E+01  0.2924E+01  0.5371E+01E
 Epicentro: EL CARMEN - SANTANDER                                              3
 ACTION:UPD 17-12-12 19:52 OP:rebc STATUS:               ID:20171105033103 L   I
 OLDACT:REG 17-11-05 15:12 OP:dnl  STATUS:               ID:20171105032737     3
 2017-11-05-0328-00M.COL___435                                                 6
 STAT SP IPHASW D HRMM SECON CODA AMPLIT PERI AZIMU VELO AIN AR TRES W  DIS CAZ7
 BAR2 EZ EP        331 19.18                             153   -0.1710 49.4  97 
 BAR2 EZ ES        331 31.63                             153   -0.2210 49.4  97 
 BAR2 EZ I         331 33.25         5.8 0.26            156           49.4  97 
 BRR  HZ EP        331 18.98                             152   -0.1510 51.7 349 
 BRR  HN ES        331 31.78                             152    0.3110 51.7 349 
 BRR  HZ I         331 33.45         3.5 0.52            155           51.7 349 
 PTB  HZ EP        331 22.22                             136    0.0910 92.7 263 
 PTB  HN ES        331 36.65                             136   -0.1510 92.7 263 
 PTB  HZ I         331 38.06         2.5 0.16            138           92.7 263 
 RUS  HZ EP        331 23.81                             133    0.1410  103 144 
 RUS  HN ES        331 39.68                             133    0.1410  103 144 
 RUS  HZ I         331 41.38         2.2 0.42            136            103 144 
                                                                                
