 2016  6 5 0120 29.9 L   6.802 -73.114150.1  RSN 14 0.4 2.2LRSN                1
 GAP=122        0.91       2.1     3.6  4.2 -0.1373E+01  0.1434E+01  0.1203E+01E
 Epicentro: LOS SANTOS - SANTANDER                                             3
 ACTION:UPD 16-07-21 22:15 OP:rebc STATUS:               ID:20160605012029 L   I
 OLDACT:DUP 16-06-05 15:15 OP:edw  STATUS:               ID:20160605011741d    3
 2016-06-05-0117-40M.COL___328                                                 6
 STAT SP IPHASW D HRMM SECON CODA AMPLIT PERI AZIMU VELO AIN AR TRES W  DIS CAZ7
 BAR2 EZ EP        120 50.17                             170    0.1210 24.4 198 
 BAR2 EZ ES        121  5.12                             170   -0.6710 24.4 198 
 BAR2 EZ I         121  6.77        51.2 0.26                          24.4 198 
 BRR  HZ EP     C  120 51.99                             152    0.3310 74.1 297 
 BRR  HN ES        121  9.13                             152    0.4710 74.1 297 
 BRR  HZ I         121 13.04        27.5 0.28                          74.1 297 
 PAM  EZ EP        120 52.99                             152    0.5710 75.0  38 
 PAM  EE ES        121 10.38                             152    0.3710 75.0  38 
 PAM  EZ I         121 13.04        10.7 0.21                          75.0  38 
 RUS  HZ EP     D  120 54.13                             145    0.0710  101 178 
 RUS  HN ES        121 12.84                             145   -0.0910  101 178 
 RUS  HZ I         121 14.25        16.6 0.26                           101 178 
 PTB  HZ EP        120 57.13                             132   -0.38 9  151 259 
 PTB  HN ES        121 18.79                             132   -0.28 9  151 259 
 PTB  HZ I         121 24.62        14.8 0.32                           151 259 
 OCA  HZ EP        120 58.48                             131   -0.07 9  160 352 
 OCA  HN ES        121 20.77                             131   -0.14 9  160 352 
 OCA  HZ I         121 23.79        34.9 0.18                           160 352 
 SPBC HZ EP        120 59.11                             130    0.17 9  166 220 
 SPBC HE ES        121 21.57                             130   -0.04 9  166 220 
 SPBC HZ I         121 26.04        29.2 0.20                           166 220 
 NOR  HZ EP        121  6.23                             119    0.05 8  238 235 
 NOR  HN ES        121 34.31                             119   -0.19 8  238 235 
 NOR  HZ I         121 39.72         8.7 0.24                           238 235 
 CHI  HZ EP        121  8.56                             118    0.61 8  250 196 
 CHI  HN ES        121 37.94                             118    0.30 8  250 196 
 CHI  HZ I         121 41.15         8.2 0.62                           250 196 
 URE  HZ EP   4    120 56.76                             114   -14.7 0  287 292 
 URE  HN ES   4    121 40.99                             114   -2.99 0  287 292 
 PTGC HZ EP        121 13.33                             112   -0.49 7  308 159 
 PTGC HE ES        121 47.07                             112   -1.02 7  308 159 
 LL6C HZ EP        121 15.77                             111    0.02 7  325 357 
 LL6C HE ES        121 50.84                             111   -0.70 7  325 357 
 PRA  HZ EP        121 24.03                             107    0.25 6  394 210 
 PRA  HN ES        122  5.87                             107    0.05 6  394 210 
 PRA  HZ I         122 12.41        10.7 0.36                           394 210 
 ORTC HZ EP        121 24.53                             107    0.32 6  398 217 
 ORTC HN ES        122  6.84                             107    0.25 6  398 217 
 PAL  HZ EP   4    121 43.95                             106   18.40 0  409 239 
 SJC  HZ EP   4    121 24.35                             106   -1.43 0  411 327 
 SJC  HE ES        122  8.59                             106   -0.79 6  411 327 
                                                                                
