 2012  2 5 0408  7.4 L   7.164 -73.152124.3  RSN  4 0.2 1.0LRSN                1
 GAP=164        0.44      18.8     7.1  7.0 -0.1163E+03 -0.1474E+02  0.7092E+02E
 ACTION:UP  12-03-07 16:27 OP:epov STATUS:               ID:20120205040807 L   I
 2012-02-05-0406-45S.COL___158                                                 6
 STAT SP IPHASW D HRMM SECON CODA AMPLIT PERI AZIMU VELO SNR AR TRES W  DIS CAZ7
 GIR2 SZ EP   1    4 8 24.44                             175    0.30 7 10.5 206 
 PAM  SE ES   1    4 8 40.35                             155   -0.15 7 53.6  69 
 PAM  SZ I         4 8 42.21         1.2 0.22                          53.6  69 
 BRR  HZ EP   1    4 8 25.58                             152   -0.19 7 62.2 264 
 BRR  HZ I         4 8 25.88         5.1 0.16                          62.2 264 
 BRR  HN ES   1    4 8 40.20                             152    0.14 7 62.2 264 
 PTB  HZ EP   1    4 8 33.98                             124    0.02 7  160 244 
 PTB  HN ES   1    4 8 54.51                             124   -0.13 7  160 244 
 PTB  HZ I         4 8 59.30                                            160 244 
                                                                                
