 2012  5 5 0809 59.3 L   6.770 -73.137143.2  RSN  5 0.2 1.4LRSN                1
 GAP=139        0.37       2.9     2.6  5.2  0.4211E+00  0.1332E+01 -0.1718E+01E
 Epicentro: LOS SANTOS - SANTANDER                                             3
 ACTION:UP  12-07-05 12:02 OP:pat  STATUS:               ID:20120505080959 L   I
 2012-05-05-0810-00M.COL___192                                                 6
 STAT SP IPHASW D HRMM SECON CODA AMPLIT PERI AZIMU VELO SNR AR TRES W  DIS CAZ7
 BRR  HZ EP   1    810 20.37                             151     0.1 7   74 300 
 BRR  HZ I         810 20.73         7.0 0.12                            74 300 
 BRR  HN ES   2    810 36.92                             151     0.2 5   74 300 
 PAM  SZ EP   1    810 21.51                             150     0.2 7   79  38 
 PAM  SN ES   2    810 38.19                             150    -0.4 5   79  38 
 RUS  HZ EP   1    810 22.51                             144     0.0 7   97 176 
 RUS  HZ I         810 23.59         1.9 0.23                            97 176 
 RUS  HN ES   1    810 40.70                             144     0.0 7   97 176 
 PTB  HZ EP   1    810 25.94                             131    -0.1 7  148 260 
 PTB  HN ES   1    810 46.85                             131    -0.1 7  148 260 
 PTB  HZ I         810 48.41         4.4 0.21                           148 260 
 ZAR  HN ES   2    810 57.14                             121     0.0 4  206 293 
                                                                                
