 2017 10 5 0808  2.0 L   6.845 -73.302120.0  RSN  5 0.4 1.3LRSN                1
 GAP=118        0.84       3.5     4.1  7.4 -0.1630E+01  0.1444E+02 -0.4431E+01E
 Epicentro: ZAPATOCA - SANTANDER                                               3
 ACTION:UPD 17-11-07 19:28 OP:rebc STATUS:               ID:20171005080802 L   I
 OLDACT:REG 17-10-05 13:44 OP:osc  STATUS:               ID:20171005080741     3
 2017-10-05-0808-00M.COL___444                                                 6
 STAT SP IPHASW D HRMM SECON CODA AMPLIT PERI AZIMU VELO AIN AR TRES W  DIS CAZ7
 BAR2 EZ EP        8 8 18.81                             165    0.0410 30.9 155 
 BAR2 EZ ES        8 8 31.75                             165   -0.0910 30.9 155 
 BAR2 EZ I         8 8 33.05        17.3 0.40            169           30.9 155 
 PAM  EZ EP        8 8 21.92                             143   -0.2710 86.1  51 
 PAM  EN ES        8 8 38.06                             143    0.1410 86.1  51 
 PAM  EZ I         8 8 42.30         3.5 0.32            146           86.1  51 
 RUS  HZ EP        8 8 23.89                             136   -0.0710  108 167 
 RUS  HE ES        8 8 41.40                             136    0.3310  108 167 
 RUS  HZ I         8 8 42.31         1.8 0.26            140            108 167 
 SPBC HZ EP   2    8 8 29.27                             124    1.22 5  157 213 
 SPBC HN ES        8 8 47.96                             124   -0.40 9  157 213 
 SPBC HZ I         8 8 51.32         2.2 0.09            127            157 213 
 ZAR  HZ EP        8 8 30.54                             119   -0.44 9  186 293 
 ZAR  HN ES        8 8 54.02                             119    0.44 9  186 293 
 ZAR  HZ I         8 8 57.42         2.2 0.11            121            186 293 
                                                                                
