 2016  9 5 0650 24.9 L   6.899 -73.340118.4  RSN 10 0.5 1.8LRSN                1
 GAP=152        1.36       4.0     5.5  8.2  0.2592E+00  0.1145E+02 -0.1167E+01E
 Epicentro: BETULIA - SANTANDER                                                3
 ACTION:UPD 17-08-17 21:07 OP:lp   STATUS:               ID:20160905065024 L   I
 OLDACT:UP  16-09-05 15:01 OP:dani STATUS:               ID:20160905064737     3
 OLDACT:UP  16-09-05 15:00 OP:dani STATUS:               ID:20160905064737     3
 OLDACT:REG 16-09-05 12:46 OP:dani STATUS:               ID:20160905064737     3
 2016-09-05-0648-00M.COL___339                                                 6
 STAT SP IPHASW D HRMM SECON CODA AMPLIT PERI AZIMU VELO AIN AR TRES W  DIS CAZ7
 BAR2 EZ EP     D  650 41.79                             161    0.1110 38.2 153 
 BAR2 EZ ES        650 54.78                             161   -0.0210 38.2 153 
 BAR2 EZ I         650 55.86        39.0 0.32            164           38.2 153 
 BRR  HZ EP     D  650 41.61                             157   -0.1110 47.1 299 
 BRR  HE ES        650 55.29                             157    0.4210 47.1 299 
 BRR  HZ I         650 59.56         5.5 0.13            155           47.1 299 
 RUS  HZ EP        650 46.98                             133   -0.2710  115 166 
 RUS  HN ES        651  4.94                             133    0.2210  115 166 
 RUS  HZ I         651  5.56         7.6 0.20            137            115 166 
 PTB  HZ EP     D  650 46.56                             129   -1.4210  130 252 
 PTB  HE ES        651  5.35                             129   -0.6610  130 252 
 PTB  HZ I         651  8.75         6.9 0.20            130            130 252 
 OCA  HZ EP        650 50.16                             125    0.20 9  148   1 
 OCA  HE ES        651  9.51                             125   -0.03 9  148   1 
 OCA  HZ I         651 11.45        23.7 0.50            128            148   1 
 SPBC HZ EP        650 51.09                             123    0.01 9  160 210 
 SPBC HN ES        651 11.53                             123   -0.00 9  160 210 
 SPBC HZ I         651 16.79         8.8 0.26            125            160 210 
 ZAR  HZ EP        650 52.92                             119   -0.15 9  180 291 
 ZAR  HN ES        651 15.43                             119    0.34 9  180 291 
 ZAR  HZ I         651 18.38        10.0 0.30            121            180 291 
 NOR  HE ES        651 24.63                             113    0.74 8  225 229 
 HEL  HZ EP        651  3.05                             110    1.25 8  254 252 
 HEL  HN ES   4    651 32.68                             110    2.06 0  254 252 
 HEL  HZ I         651 34.94         3.4 0.59            112            254 252 
 GUY2CHZ EP   4    651  8.32                             107    2.19 0  291 231 
 GUY2CHZ I         651 48.93         3.0 0.47                           291 231 
                                                                                
