 2015  1 5 0538 50.9 L   6.803 -73.170148.7  RSN 10 0.5 1.8LRSN                1
 GAP=199        1.13       4.4     5.9  7.4  0.6801E+01  0.7701E+01 -0.8442E+01E
 Epicentro: LOS SANTOS - SANTANDER                                             3
 ACTION:UPD 15-03-02 15:36 OP:nd   STATUS:               ID:20150105053850 L   I
 OLDACT:UP  15-01-05 15:28 OP:cam  STATUS:               ID:20150105053814     3
 OLDACT:REG 15-01-05 14:19 OP:cam  STATUS:               ID:20150105053814     3
 2015-01-05-0538-14M.COL___277                                                 6
 STAT SP IPHASW D HRMM SECON CODA AMPLIT PERI AZIMU VELO AIN AR TRES W  DIS CAZ7
 BAR2 EZ EP        539 10.80                             171   -0.0410 23.4 183 
 BAR2 EZ ES        539 25.82                             171   -0.6010 23.4 183 
 BAR2 EZ I         539 26.99         8.1 0.22            170           23.4 183 
 BRR  HZ EP        539 12.70                             154    0.5210 68.6 299 
 BRR  HN ES        539 29.68                             154    0.8710 68.6 299 
 BRR  HZ I         539 35.86         5.9 0.18            151           68.6 299 
 RUS  HZ EP   1    539 14.92                             144   -0.01 7  101 175 
 RUS  HN ES        539 33.69                             144   -0.0310  101 175 
 RUS  HZ I         539 35.28         6.3 0.42            147            101 175 
 PTB  HZ EP        539 17.89                             133    0.06 9  145 258 
 PTB  HN ES        539 38.45                             133   -0.42 9  145 258 
 PTB  HZ I         539 40.59         6.7 0.12            133            145 258 
 SPBC HZ EP        539 19.91                             130    0.46 9  162 218 
 SPBC HN ES        539 41.40                             130   -0.35 9  162 218 
 SPBC HZ I         539 47.83         8.3 0.24            131            162 218 
 ZAR  HZ EP        539 23.33                             123    0.11 9  201 292 
 ZAR  HN ES        539 49.05                             123    0.58 9  201 292 
 ZAR  HZ I         539 55.04         5.6 0.46            124            201 292 
 SML  HZ EP        539 27.39                             118   -0.10 8  242 336 
 SML  HN ES        539 55.26                             118   -0.80 8  242 336 
 SML  HZ I         540  2.94         8.6 0.26            120            242 336 
 HEL  HE ES   1    540  1.79                             116   -0.41 6  270 256 
 HEL  HE I         540 10.00         4.9 0.54            116            270 256 
 MON  HZ EP   4    539 38.41                             109   -1.29 0  351 309 
 MON  HN ES        540 17.08                             109   -0.72 6  351 309 
 CVALLEE E         540 50.39                                            410 359 
                                                                                
