 2017  4 5 0506 12.2 L   6.780 -73.127142.0  RSN 16 0.5 1.7LRSN                1
 GAP=122        0.96       3.4     3.9  5.4  0.6802E+00  0.5021E+01 -0.8220E-01E
 Epicentro: LOS SANTOS - SANTANDER                                             3
 ACTION:UPD 17-05-30 21:08 OP:jn   STATUS:               ID:20170405050612 L   I
 OLDACT:UP  17-04-05 15:36 OP:and  STATUS:               ID:20170405045641d    3
 OLDACT:UP  17-04-05 15:35 OP:and  STATUS:               ID:20170405045641d    3
 OLDACT:UP  17-04-05 15:35 OP:and  STATUS:               ID:20170405045641d    3
 OLDACT:UP  17-04-05 15:33 OP:and  STATUS:               ID:20170405045641d    3
 OLDACT:UP  17-04-05 15:33 OP:and  STATUS:               ID:20170405045641d    3
 OLDACT:UP  17-04-05 15:28 OP:and  STATUS:               ID:20170405045641d    3
 OLDACT:UP  17-04-05 15:28 OP:and  STATUS:               ID:20170405045641d    3
 OLDACT:DUP 17-04-05 15:26 OP:and  STATUS:               ID:20170405045641d    3
 2017-04-05-0457-00M.COL___365                                                 6
 STAT SP IPHASW D HRMM SECON CODA AMPLIT PERI AZIMU VELO AIN AR TRES W  DIS CAZ7
 BAR2 EZ IP     C  5 6 31.43                             171    0.0710 21.7 196 
 BAR2 EZ ES        5 6 46.46                             171    0.1710 21.7 196 
 BAR2 EZ I         5 6 47.31        10.8 0.22            169           21.7 196 
 BRR  HZ IP     C  5 6 33.34                             151    0.2110 74.0 299 
 BRR  HN ES   3    5 6 50.24                             151    0.80 2 74.0 299 
 BRR  HZ I         5 6 53.41        10.5 0.24            147           74.0 299 
 PAM  EZ EP        5 6 34.33                             150    0.2710 77.8  37 
 PAM  EN ES   3    5 6 49.66                             150   -1.44 2 77.8  37 
 PAM  EZ I         5 6 53.59         6.2 0.18            153           77.8  37 
 RUS  HZ IP     C  5 6 35.41                             144   -0.0210 98.3 177 
 RUS  HN ES        5 6 53.85                             144    0.3110 98.3 177 
 RUS  HZ I         5 6 55.02         9.4 0.30            146           98.3 177 
 PTB  HZ EP        5 6 38.31                             131   -0.72 9  149 260 
 PTB  HN ES   3    5 6 58.60                             131   -1.34 2  149 260 
 PTB  HZ I         5 7  1.65         8.0 0.30            129            149 260 
 SPBC HZ EP        5 6 40.53                             128    0.13 9  163 220 
 SPBC HN ES        5 7  2.17                             128   -0.20 9  163 220 
 SPBC HZ I         5 7  4.69         7.6 0.06            128            163 220 
 ZAR  HZ EP        5 6 44.54                             121   -0.17 8  207 292 
 ZAR  HE ES        5 7 10.39                             121    0.35 8  207 292 
 ZAR  HZ I         5 7 14.18         4.4 0.16            121            207 292 
 NOR  HN ES        5 7 14.71                             118   -0.80 8  235 235 
 NOR  HZ I         5 7 18.34         4.0 0.16            118            235 235 
 CHI  HZ EP        5 6 49.64                             117    0.10 8  247 196 
 CHI  HN ES        5 7 18.31                             117   -0.34 8  247 196 
 HEL  HZ EP   9    5 6 53.73                             114    1.32 0  274 256 
 HEL  HN ES        5 7 25.72                             114    0.64 8  274 256 
 HEL  HZ I         5 7 30.87         3.3 0.28            114            274 256 
 URE  HZ EP        5 6 52.62                             113   -0.79 7  287 292 
 URE  HN ES   3    5 7 24.01                             113   -1.54 2  287 292 
 URE  HZ I         5 7 35.51         4.2 0.25            113            287 292 
 PTGC HZ EP        5 6 54.88                             111   -0.71 7  306 159 
 CBOC HZ EP        5 6 59.83                             109    0.70 7  335 253 
 CBOC HN ES        5 7 36.36                             109    0.64 7  335 253 
 CBOC HZ I         5 7 47.43         0.8 0.52            110            335 253 
 PRA  HZ EP        5 7  5.98                             106    0.47 6  391 210 
 PRA  HN ES        5 7 47.85                             106    0.77 6  391 210 
 PRA  HZ I         5 7 53.91         1.5 0.48            107            391 210 
 PAL  HZ EP        5 7  7.82                             105    0.49 6  406 239 
 SJC  HZ EP   9    5 7  6.51                             105   -1.50 0  412 327 
 SJC  HN ES        5 7 49.76                             105   -0.26 6  412 327 
                                                                                
