 2017  5 5 0610 58.2 L   6.782 -73.137150.2  RSN  4 0.3 1.3LRSN                1
 GAP=139        0.67       3.7     3.8  5.8  0.3309E+01  0.5660E+01  0.9296E+00E
 Epicentro: LOS SANTOS - SANTANDER                                             3
 ACTION:UPD 17-06-16 13:33 OP:jn   STATUS:               ID:20170505061058 L   I
 OLDACT:DUP 17-05-05 16:20 OP:edw  STATUS:               ID:20170505060742d    3
 2017-05-05-0608-00M.COL___349                                                 6
 STAT SP IPHASW D HRMM SECON CODA AMPLIT PERI AZIMU VELO AIN AR TRES W  DIS CAZ7
 BRR  HZ EP     C  611 20.07                             153    0.1410 73.0 300 
 BRR  HN ES        611 37.28                             153    0.4110 73.0 300 
 PAM  EZ EP     D  611 21.13                             151    0.1910 78.3  38 
 PAM  EN ES        611 38.37                             151   -0.3010 78.3  38 
 PAM  EZ I         611 43.18         3.3 0.40            151           78.3  38 
 RUS  HZ EP        611 22.37                             145    0.1310 98.5 177 
 RUS  HN ES        611 40.80                             145   -0.1910 98.5 177 
 RUS  HZ I         611 43.10         3.0 0.48            148           98.5 177 
 ZAR  HZ EP        611 30.90                             123   -0.21 8  206 293 
 ZAR  HN ES        611 56.46                             123   -0.31 8  206 293 
                                                                                
