 2017 11 5 0441 49.0 L   6.769 -73.504119.9  RSN  6 0.2 1.2LRSN                1
 GAP=150        0.57       3.8     3.1  4.4  0.5001E+01  0.4746E+01  0.6245E+01E
 Epicentro: EL CARMEN - SANTANDER                                              3
 ACTION:UPD 17-12-12 19:52 OP:rebc STATUS:               ID:20171105044149 L   I
 OLDACT:UP  17-11-05 17:37 OP:dnl  STATUS:               ID:20171105043740     3
 OLDACT:UP  17-11-05 17:37 OP:dnl  STATUS:               ID:20171105043740     3
 OLDACT:UP  17-11-05 17:37 OP:dnl  STATUS:               ID:20171105043740     3
 OLDACT:REG 17-11-05 15:52 OP:dnl  STATUS:               ID:20171105043740     3
 2017-11-05-0438-00M.COL___426                                                 6
 STAT SP IPHASW D HRMM SECON CODA AMPLIT PERI AZIMU VELO AIN AR TRES W  DIS CAZ7
 BAR2 EZ EP        442  5.87                             160   -0.2410 40.6 119 
 BAR2 EZ ES        442 19.16                             160   -0.2910 40.6 119 
 BRR  HZ EP        442  5.84                             159   -0.0610 43.9 328 
 BRR  HE ES        442 19.37                             159    0.3010 43.9 328 
 BRR  HZ I         442 28.21         5.2 0.46            159           43.9 328 
 RUS  HZ EP        442 11.05                             136    0.1510  108 154 
 RUS  HE ES        442 28.19                             136    0.2210  108 154 
 RUS  HZ I         442 29.13         1.3 0.10            141            108 154 
 PTB  HZ EP        442 10.45                             135    0.1410  108 257 
 PTB  HN ES        442 26.76                             135   -0.1610  108 257 
 PTB  HZ I         442 32.53         3.4 0.42            135            108 257 
 SPBC HZ EP   4    442 16.77                             127    3.57 0  139 207 
 SPBC HN ES   4    442 37.41                             127    5.35 0  139 207 
 SPBC HZ I         442 41.94         2.8 0.18            130            139 207 
 GUY2CHZ EP        442 27.56                             109   -0.10 8  268 230 
 GUY2CHE ES   4    443  5.66                             109    7.85 0  268 230 
 GUY2CHZ I         443  8.73         1.1 0.38                           268 230 
                                                                                
