 2015 10 5 0327 27.4 L   6.522 -73.501111.5  RSN 11 0.4 1.9LRSN                1
 GAP= 72        0.99       2.6     3.6  5.8 -0.1820E+01  0.1134E+02 -0.2421E+01E
 Epicentro: EL CARMEN - SANTANDER                                              3
 ACTION:UPD 15-12-22 20:37 OP:cam  STATUS:               ID:20151005032727 L   I
 OLDACT:REG 15-10-05 13:10 OP:ak   STATUS:               ID:20151005031749     3
 2015-10-05-0317-49M.COL___349                                                 6
 STAT SP IPHASW D HRMM SECON CODA AMPLIT PERI AZIMU VELO AIN AR TRES W  DIS CAZ7
 BAR2 EZ EP        327 43.79                             161    0.3910 36.1  78 
 BAR2 EZ ES        327 55.86                             161    0.0110 36.1  78 
 BRR  HZ EP     C  327 44.62                             146   -0.2310 68.8 340 
 BRR  HE IPn       327 58.44                                           68.8 340 
 BRR  HE ES        327 58.44                             146    0.0110 68.8 340 
 BRR  HZ I         328  4.47        16.7 0.10            145           68.8 340 
 RUS  HZ EP        327 46.74                             141    0.1210 83.6 146 
 RUS  HN ES        328  1.88                             141    0.3010 83.6 146 
 RUS  HZ I         328  2.76         8.0 0.26            149           83.6 146 
 SPBC HZ EP        327 48.73                             131   -0.0410  115 213 
 SPBC HE ES        328  4.88                             131   -0.5110  115 213 
 SPBC HZ I         328  6.39        22.8 0.10            135            115 213 
 ZAR  HZ EP        327 56.04                             116    0.30 9  184 306 
 ZAR  HN ES        328 18.50                             116    0.68 9  184 306 
 ZAR  HZ I         328 20.80        17.0 0.26            119            184 306 
 NOR  HZ EP        327 54.91                             116   -0.94 9  185 235 
 NOR  HN ES   4    328 15.20                             116   -2.81 0  185 235 
 NOR  HZ I         328 21.99         7.3 0.11            120            185 235 
 OCA  HZ EP        327 56.15                             116   -0.50 9  191   6 
 OCA  HN ES        328 19.22                             116   -0.21 9  191   6 
 OCA  HZ I         328 26.23        16.5 0.23            119            191   6 
 HEL  HZ EP        328  1.23                             111    0.23 8  227 261 
 HEL  HN ES        328 26.69                             111   -0.48 8  227 261 
 HEL  HZ I         328 34.79         4.8 0.26            114            227 261 
 GUY2CHZ EP        328  4.50                             109    0.61 8  251 235 
 GUY2CHN ES        328 32.37                             109    0.05 8  251 235 
 GUY2CHZ I         328 37.27         4.1 0.30                           251 235 
 SML  HZ EP        328  4.06                             108   -0.21 8  260 346 
 SML  HE ES        328 32.83                             108   -0.15 8  260 346 
 SML  HZ I         328 38.38        14.3 0.07            111            260 346 
 CBOC HZ EP        328  8.52                             106    0.82 7  287 255 
 CBOC HE ES        328 39.05                             106   -0.04 7  287 255 
 CBOC HZ I         328 42.73         2.2 0.38            109            287 255 
 SJC  HZ EP   4    328 21.60                              99   -1.38 0  417 334 
 SJC  HN ES   4    329  3.37                              99   -2.92 0  417 334 
                                                                                
