 2012 11 5 0805 46.3 L   6.813 -73.121137.7  RSN  5 0.5 2.0LRSN 2.7WRSN        1
 SPEC AVERAGE  MO 13.1 ST  6.3 OM  2.3 f0 7.06 R0.2087 AL 4.18 WI 23.4 MW  2.7 3
 SPEC SD       MO  0.1 ST  2.4 OM  0.9 f00.330 R0.0098 AL      WI      MW  0.1 3
 GAP=157        1.26       7.7     9.5  9.8 -0.6508E+01 -0.3325E+01 -0.6422E+01E
 Epicentro: LOS SANTOS - SANTANDER                                             3
 SPEC OCA HH N MO 13.2 ST  8.7 OM  1.5 f0 7.39 R0.1989 AL 3.84 WI 22.1 MW  2.7 3
 SPEC OCA HH N T 8 633 K 0.000 GD  210 VS 4.20 DE 3.00 Q0230.0 QA 0.60 VS 4.20 3
 SPEC BRR HH N MO 13.0 ST  3.8 OM  1.4 f0 6.73 R0.2184 AL 4.53 WI 24.7 MW  2.6 3
 SPEC BRR HH N T 8 622 K 0.000 GD  155 VS 4.20 DE 3.00 Q0230.0 QA 0.60 VS 4.20 3
 ACTION:UPD 12-12-05 15:31 OP:}ep  STATUS:               ID:20121105080546 L   I
 2012-11-05-0800-00M.COL___230                                                 6
 STAT SP IPHASW D HRMM SECON CODA AMPLIT PERI AZIMU VELO AIN AR TRES W  DIS CAZ7
 BAR2 SZ EP        8 6  4.98                             169   -0.0110 25.3 195 
 BAR2 SZ ES        8 6 18.72                             169   -0.8610 25.3 195 
 BAR2 SZ I         8 6 20.58        13.0 0.20                          25.3 195 
 GIR2 SZ EP        8 6  4.92                             167   -0.0610 30.5 345 
 GIR2 SZ ES        8 6 19.81                             167    0.2510 30.5 345 
 BRR  HZ EP        8 6  6.83                             150    0.1610 72.9 297 
 BRR  HN ES        8 6 23.14                             150    0.5710 72.9 297 
 BRR  HN I         8 6 28.09        14.1 0.16                          72.9 297 
 PAM  SZ EP        8 6  7.70                             150    0.2210 74.6  39 
 PAM  SE ES        8 6 24.45                             150    0.4410 74.6  39 
 OCA  HN ES        8 6 34.54                             128   -0.86 9  159 352 
 OCA  HN I         8 6 38.36        27.3 0.28                           159 352 
                                                                                
