 2012  5 5 0956 26.0 L   6.559 -73.573108.6  RSN  6 0.4 1.6LRSN                1
 GAP=125        0.79       5.4     4.2  8.7  0.5557E+01  0.7587E+01 -0.3858E+01E
 Epicentro: EL CARMEN DE CHUCURI - SANTANDER                                   3
 ACTION:UP  12-07-05 12:02 OP:pat  STATUS:               ID:20120505095626 L   I
 2012-05-05-0950-00M.COL___192                                                 6
 STAT SP IPHASW D HRMM SECON CODA AMPLIT PERI AZIMU VELO SNR AR TRES W  DIS CAZ7
 BAR2 SZ EP   1    956 42.31                             157     0.4 7   43  85 
 BAR2 SZ ES   1    956 54.51                             157     0.1 7   43  85 
 BAR2 SZ I         956 55.92        26.0 0.39                            43  85 
 BRR  HZ EP   1    956 43.18                             148     0.5 7   62 346 
 BRR  HZ I         956 43.48        11.3 0.15                            62 346 
 BRR  HN ES   2    956 55.41                             148    -0.3 5   62 346 
 RUS  HZ EP   1    956 45.27                             137    -0.3 7   92 144 
 RUS  HN ES   1    957  0.92                             137     0.2 7   92 144 
 RUS  HZ I         957  1.47         3.4 0.25                            92 144 
 PTB  HZ EP   1    956 45.19                             135    -0.2 7   98 269 
 PTB  HN ES   1    957  0.16                             135    -0.4 7   98 269 
 PTB  HZ I         957  1.58         6.9 0.09                            98 269 
 PAM  SZ EP   2    956 48.41                             126    -0.6 5  129  48 
 PAM  SE ES   2    957  6.26                             126    -0.7 5  129  48 
 ZAR  HZ EP   2    956 53.23                             117     0.1 4  176 306 
 ZAR  HN ES   2    957 15.03                             117     0.7 4  176 306 
 ZAR  HZ I         957 19.13         6.4 0.32                           176 306 
                                                                                
