 2016  5 5 0814 40.8 L   6.781 -73.146141.1  RSN  6 0.4 1.3LRSN                1
 GAP=137        0.93       3.9     4.0  7.0 -0.6465E+00  0.6250E+01  0.1812E+01E
 Epicentro: LOS SANTOS - SANTANDER                                             3
 ACTION:UPD 16-08-18 17:42 OP:cam  STATUS:               ID:20160505081440 L   I
 OLDACT:REG 16-05-05 13:12 OP:ak   STATUS:               ID:20160505080747     3
 2016-05-05-0807-47M.COL___294                                                 6
 STAT SP IPHASW D HRMM SECON CODA AMPLIT PERI AZIMU VELO AIN AR TRES W  DIS CAZ7
 BRR  HZ IP     C  815  1.45                             151   -0.0310 72.2 300 
 BRR  HN ES        815 17.55                             151   -0.0810 72.2 300 
 BRR  HZ I         815 22.20         4.3 0.18            151           72.2 300 
 PAM  EZ EP        815  2.61                             149    0.0110 79.1  39 
 PAM  EN ES        815 19.51                             149   -0.1210 79.1  39 
 PAM  EZ I         815 21.51         3.3 0.65            154           79.1  39 
 RUS  HZ EP        815  3.88                             143   -0.0410 98.4 176 
 RUS  HE ES        815 22.32                             143    0.3610 98.4 176 
 RUS  HZ I         815 23.82         2.6 0.26            147           98.4 176 
 PTB  HZ EP        815  6.47                             131   -0.86 9  147 260 
 PTB  HN ES        815 27.70                             131   -0.34 9  147 260 
 PTB  HZ I         815 30.44         1.0 0.10            133            147 260 
 SPBC HZ EP        815  8.78                             128    0.02 9  161 219 
 SPBC HN ES        815 30.66                             128    0.07 9  161 219 
 SPBC HZ I         815 36.01         2.6 0.10            131            161 219 
 ZAR  HZ EP        815 13.70                             121    0.70 9  205 293 
 ZAR  HE ES        815 38.63                             121    0.49 9  205 293 
 ZAR  HZ I         815 44.09         3.2 0.34            123            205 293 
                                                                                
