 2014  6 5 0913 16.0 L   6.825 -73.184136.0  RSN  6 0.4 1.3LRSN                1
 GAP=131        0.97       4.4     4.3 10.3 -0.2187E+01  0.1747E+02  0.7959E+01E
 Epicentro: ZAPATOCA - SANTANDER                                               3
 ACTION:UPD 14-07-01 22:51 OP:nd   STATUS:               ID:20140605091316 L   I
 OLDACT:REG 14-06-05 13:19 OP:fm   STATUS:               ID:20140605090809     3
 2014-06-05-0908-09M.COL___262                                                 6
 STAT SP IPHASW D HRMM SECON CODA AMPLIT PERI AZIMU VELO AIN AR TRES W  DIS CAZ7
 PAM  SZ EP        913 37.59                             149    0.3710 78.2  43 
 PAM  SE ES        913 53.48                             149   -0.3110 78.2  43 
 PAM  SZ I         913 57.35         2.2 0.66            151           78.2  43 
 RUS  HZ EP        913 38.75                             141   -0.2810  104 174 
 RUS  HN ES        913 57.39                             141    0.3910  104 174 
 RUS  HZ I         913 58.83         2.4 0.38            143            104 174 
 PTB  HZ EP        913 41.38                             131   -0.46 9  144 257 
 PTB  HN ES        914  2.02                             131    0.02 9  144 257 
 PTB  HZ I         914  4.53         3.7 0.40            133            144 257 
 ZAR  HN ES        914 12.23                             121    0.52 9  199 292 
 NOR  HN ES        914 17.68                             117   -0.57 8  233 233 
 PRA  HN ES        914 51.34                             105    0.60 6  392 209 
 PRA  HZ I         914 55.13         1.4 0.42            107            392 209 
                                                                                
