 2017 12 5 0707 52.0 L   6.836 -73.145149.1  RSN 18 0.8 2.1LRSN                1
 GAP= 65        1.63       3.5     4.1  7.6  0.7324E+00  0.8427E+01  0.2668E+01E
 Epicentro: LOS SANTOS - SANTANDER                                             3
 ACTION:UPD 18-01-04 13:17 OP:rebc STATUS:               ID:20171205070752 L   I
 OLDACT:UP  17-12-05 18:05 OP:leo  STATUS:               ID:20171205065739     3
 OLDACT:UP  17-12-05 18:02 OP:leo  STATUS:               ID:20171205065739     3
 OLDACT:UP  17-12-05 17:59 OP:leo  STATUS:               ID:20171205065739     3
 OLDACT:REG 17-12-05 14:05 OP:y    STATUS:               ID:20171205065739     3
 2017-12-05-0658-00M.COL___479                                                 6
 STAT SP IPHASW D HRMM SECON CODA AMPLIT PERI AZIMU VELO AIN AR TRES W  DIS CAZ7
 BAR2 EZ EP        7 8 12.07                             169   -0.0410 27.3 189 
 BAR2 EZ ES        7 8 27.04                             169   -0.7610 27.3 189 
 BAR2 EZ I         7 8 28.15        21.9 0.36            170           27.3 189 
 PAM  EZ EP        7 8 15.07                             152    0.6810 74.3  41 
 PAM  EN ES        7 8 32.27                             152    0.4110 74.3  41 
 PAM  EZ I         7 8 34.25        27.8 0.56            154           74.3  41 
 RUS  HZ EP        7 8 16.37                             143    0.0110  105 176 
 RUS  HN ES        7 8 35.06                             143   -0.3110  105 176 
 RUS  HZ I         7 8 35.84        19.9 0.24            145            105 176 
 PTB  HZ EP        7 8 18.84                             133   -0.48 9  149 257 
 PTB  HN ES        7 8 39.92                             133   -0.70 9  149 257 
 PTB  HZ I         7 8 44.53         6.1 0.12            133            149 257 
 OCA  HZ EP        7 8 20.12                             131   -0.08 9  156 353 
 OCA  HN ES        7 8 42.52                             131    0.32 9  156 353 
 OCA  HZ I         7 8 48.54        25.0 0.40            132            156 353 
 TAM  HZ EP        7 8 20.50                             131    0.46 9  156 106 
 TAM  HN ES        7 8 42.47                             131    0.56 9  156 106 
 SPBC HZ EP        7 8 21.21                             129    0.16 9  166 218 
 SPBC HN ES        7 8 43.32                             129   -0.39 9  166 218 
 SPBC HZ I         7 8 45.63        20.4 0.38            130            166 218 
 YPLC HZ EP        7 8 22.46                             127    0.08 9  180 152 
 YPLC HE ES        7 8 47.15                             127    1.08 9  180 152 
 YPLC HZ I         7 8 47.41        11.4 0.28            129            180 152 
 ZAR  HZ EP        7 8 24.47                             123   -0.04 9  203 291 
 ZAR  HE ES        7 8 50.04                             123    0.16 9  203 291 
 ZAR  HZ I         7 8 56.71         8.2 0.24            124            203 291 
 CHI  HZ EP        7 8 30.28                             117   -0.02 8  253 195 
 CHI  HN ES        7 8 59.84                             117   -0.34 8  253 195 
 CHI  HZ I         7 9  3.04         7.1 0.46            118            253 195 
 ROSC BZ EP   4    7 8 32.77                             117    2.09 0  256 211 
 ROSC BE ES   4    7 8 54.91                             117   -5.93 0  256 211 
 URE  HZ EP        7 8 32.21                             114   -0.86 7  282 291 
 URE  HN ES        7 9  4.34                             114   -0.77 7  282 291 
 GUY2CHZ EP        7 8 37.14                             113    1.11 7  304 234 
 GUY2CHE ES        7 9 11.48                             113    1.11 7  304 234 
 GUY2CHZ I         7 9 18.30         4.7 0.34                           304 234 
 VIL  EE ES        7 9 10.23                             112   -0.11 7  307 191 
 PTGC HZ EP        7 8 35.30                             112   -1.13 7  312 159 
 PTGC HE ES        7 9  8.60                             112   -2.48 7  312 159 
 PTGC HZ I         7 9 13.47         7.5 0.30            113            312 159 
 LL6C HZ EP        7 8 36.00                             111   -1.39 7  321 358 
 LL6C HN ES        7 9 12.82                             111    0.03 7  321 358 
 CBOC HZ EP        7 8 40.38                             110    1.18 7  335 251 
 CBOC HE ES     C  7 9 17.47                             110    1.45 7  335 251 
 CBOC HZ I         7 9 23.78         1.6 0.20            111            335 251 
 PRA  HZ EP        7 8 46.48                             107    0.44 6  396 209 
 PRA  HN ES     D  7 9 27.76                             107   -0.44 6  396 209 
 PRA  HZ I         7 9 33.98         4.4 0.30            108            396 209 
 ORTC HZ EP        7 8 46.47                             107    0.06 6  399 216 
 ORTC HN ES        7 9 30.07                             107    1.21 6  399 216 
                                                                                
