 2012 10 5 0347 36.2 L   7.356 -73.115  2.8  RSN  4 0.1 1.0LRSN                1
 GAP=205        0.36       2.1     1.2  3.3 -0.1100E+01 -0.6005E+00  0.2756E+01E
 Epicentro: RIONEGRO - SANTANDER                                               3
 ACTION:UPD 12-11-22 17:02 OP:ep   STATUS:               ID:20121005034736 L   I
 2012-10-05-0340-00M.COL___222                                                 6
 STAT SP IPHASW D HRMM SECON CODA AMPLIT PERI AZIMU VELO AIN AR TRES W  DIS CAZ7
 GIR2 SZ EP   1    347 41.77                              47   -0.22 7 31.9 196 
 GIR2 SZ ES   1    347 46.39                              47   -0.09 7 31.9 196 
 PAM  SZ EP   1    347 44.58                              47    0.10 7 45.9  92 
 PAM  SN ES   1    347 50.82                              47   -0.08 7 45.9  92 
 PAM  SN I         347 51.12        10.8 0.12                          45.9  92 
 BRR  HZ EP   1    347 47.79                              47   -0.06 7 71.5 247 
 BRR  HZ I         347 49.17         6.1 0.40                          71.5 247 
 BRR  HE ES   1    347 56.97                              47    0.08 7 71.5 247 
 RUS  HZ EP   1    348  2.27                              47    0.21 7  162 179 
 RUS  HN ES   1    348 22.29                              47    0.10 7  162 179 
                                                                                
