 2012  8 5 0438 28.1 L   6.762 -73.145141.0  RSN 10 0.4 1.9LRSN                1
 GAP=138        0.77       3.7     4.1  6.1 -0.1255E+01  0.7796E+01  0.3290E+01E
 Epicentro: LOS SANTOS - SANTANDER                                             3
 ACTION:UPD 12-09-10 11:54 OP:ep   STATUS:               ID:20120805043828 L   I
 2012-08-05-0437-36M.COL___211                                                 6
 STAT SP IPHASW D HRMM SECON CODA AMPLIT PERI AZIMU VELO AIN AR TRES W  DIS CAZ7
 BAR2 SZ EP        438 47.10                             172    0.0410 19.2 193 
 BAR2 SZ ES   1    439  2.05                             172    0.19 7 19.2 193 
 BAR2 SZ I         439  3.64        21.9 0.17                          19.2 193 
 BRR  HZ EP        438 48.89                             151    0.0410 73.4 301 
 BRR  HZ I         438 49.16        25.4 0.18                          73.4 301 
 BRR  HN ES   1    439  5.86                             151    0.82 7 73.4 301 
 PAM  SZ EP   1    438 50.06                             149    0.07 7 80.6  38 
 PAM  SN ES   1    439  6.94                             149   -0.14 7 80.6  38 
 RUS  HZ EP   1    438 51.21                             144    0.15 7 96.4 176 
 RUS  HZ I         438 52.33         9.2 0.11                          96.4 176 
 RUS  HN ES   1    439  8.50                             144   -0.49 7 96.4 176 
 PTB  HZ EP   1    438 53.96                             131   -0.65 7  147 260 
 PTB  HN ES   1    439 14.82                             131   -0.47 7  147 260 
 PTB  HZ I         439 18.39         8.4 0.14                           147 260 
 OCA  HE ES   1    439 18.25                             128   -0.28 7  164 353 
 ZAR  HN ES   1    439 25.17                             121   -0.44 6  206 293 
 NOR  SZ EP   1    439  3.80                             118    0.51 6  232 235 
 NOR  SN ES   1    439 30.95                             118    0.20 6  232 235 
 HEL  HZ EP   1    439  8.59                             114    0.63 6  271 257 
 HEL  HZ I         439 45.40         5.2 0.34                           271 257 
 PRA  HZ EP   1    439 20.90                             106   -0.12 4  388 210 
                                                                                
