 2013  3 5 0509 46.3 L   6.745 -73.163154.3  RSN  6 0.3 1.8LRSN                1
 GAP=198        0.60       4.5     5.1  5.0  0.1335E+02 -0.3881E+01 -0.7497E+01E
 Epicentro: VILLANUEVA - SANTANDER                                             3
 ACTION:UPD 13-04-09 13:59 OP:ep   STATUS:               ID:20130305050946 L   I
 2013-03-05-0510-00M.COL___228                                                 6
 STAT SP IPHASW D HRMM SECON CODA AMPLIT PERI AZIMU VELO AIN AR TRES W  DIS CAZ7
 BAR2 SZ EP   1    510  6.72                             173   -0.13 7 17.0 187 
 BAR2 SZ ES   1    510 22.50                             173   -0.38 7 17.0 187 
 BAR2 SZ I         510 23.37        14.1 0.23            172           17.0 187 
 BRR  HZ EP        510  8.60                             153    0.1410 72.7 303 
 BRR  HZ I         510 23.29         6.4 0.34            146           72.7 303 
 BRR  HN ES        510 26.04                             153    0.3010 72.7 303 
 RUS  HZ EP        510 10.83                             147    0.3310 94.7 175 
 RUS  HN ES        510 29.27                             147   -0.1110 94.7 175 
 PTB  HZ EP   1    510 13.60                             134   -0.12 7  145 261 
 PTB  HE ES   1    510 34.84                             134   -0.26 7  145 261 
 PTB  HZ I         510 42.19         6.6 0.38            129            145 261 
 ZAR  HN ES   1    510 45.25                             124    0.08 6  205 294 
 ZAR  HN I         510 51.04        12.1 0.22            119            205 294 
 SML  HZ EP        510 23.56                             119   -0.36 8  248 336 
                                                                                
