 2012 12 5 0813 17.8 L   6.812 -73.165145.6  RSN 10 0.5 1.6LRSN                1
 GAP=134        0.85       3.6     5.1  7.7 -0.1389E+00  0.1350E+02  0.1082E+01E
 Epicentro: LOS SANTOS - SANTANDER                                             3
 ACTION:UPD 13-01-04 14:25 OP:ep   STATUS:               ID:20121205081317 L   I
 2012-12-05-0810-00M.COL___237                                                 6
 STAT SP IPHASW D HRMM SECON CODA AMPLIT PERI AZIMU VELO AIN AR TRES W  DIS CAZ7
 BAR2 SZ EP   1    813 37.60                             170    0.15 7 24.3 184 
 BAR2 SZ ES   2    813 52.53                             170   -0.22 5 24.3 184 
 BAR2 SZ I         813 55.18        13.2 0.48                          24.3 184 
 GIR2 SZ EP   1    813 37.29                             168   -0.14 7 29.7 354 
 GIR2 SZ ES   2    813 53.80                             168    1.08 5 29.7 354 
 GIR2 SZ I         813 53.92         4.1 0.12                          29.7 354 
 PAM  SZ EP   1    813 40.30                             151    0.26 7 77.8  41 
 PAM  SN ES   1    813 57.44                             151    0.07 7 77.8  41 
 PAM  SZ I         813 59.67         5.7 0.46                          77.8  41 
 RUS  HZ EP   1    813 41.36                             143   -0.30 7  102 175 
 RUS  HN ES   1    813 59.69                             143   -0.56 7  102 175 
 RUS  HZ I         814  1.31         4.0 0.42                           102 175 
 PTB  HZ EP   1    813 44.34                             132   -0.26 7  146 258 
 PTB  HN ES   1    814  4.94                             132   -0.55 7  146 258 
 PTB  HZ I         814 11.33         6.4 0.46                           146 258 
 OCA  HE ES   2    814  8.45                             130    0.52 5  159 354 
 ZAR  HE ES   1    814 15.57                             123    0.48 6  202 292 
 ZAR  HZ I         814 25.54         3.5 0.22                           202 292 
 SML  HZ EP   1    813 53.42                             118   -0.79 6  242 336 
 SML  HE ES   1    814 22.48                             118   -0.11 6  242 336 
 CHI  HE ES   2    814 26.01                             117    0.98 4  249 195 
 CHI  HE I         814 31.47         4.4 0.54                           249 195 
 PRA  HZ EP   1    814 11.99                             106    0.65 4  392 209 
 PRA  HN ES   1    814 54.15                             106    1.07 4  392 209 
 PRA  HZ I         814 56.39         2.2 0.46                           392 209 
                                                                                
