 2017 12 5 0115 52.2 L   6.830 -73.130140.3  RSN  6 0.4 1.6LRSN                1
 GAP=221        0.96       6.3     5.3  7.1  0.1663E+02 -0.2389E+00 -0.9756E+01E
 Epicentro: LOS SANTOS - SANTANDER                                             3
 ACTION:UPD 18-01-04 13:17 OP:rebc STATUS:               ID:20171205011552 L   I
 OLDACT:REG 17-12-05 13:09 OP:y    STATUS:               ID:20171205010745     3
 2017-12-05-0108-00M.COL___494                                                 6
 STAT SP IPHASW D HRMM SECON CODA AMPLIT PERI AZIMU VELO AIN AR TRES W  DIS CAZ7
 BAR2 EZ EP        116 11.44                             169    0.1610 26.9 192 
 BAR2 EZ ES        116 25.83                             169   -0.3110 26.9 192 
 BAR2 EZ I         116 28.19        18.6 0.16            163           26.9 192 
 RUS  HZ EP        116 15.60                             142   -0.0810  104 177 
 RUS  HN ES        116 34.44                             142    0.4710  104 177 
 RUS  HZ I         116 36.22         3.3 0.22            141            104 177 
 PTB  HZ EP        116 18.24                             130   -0.72 9  150 258 
 PTB  HE ES        116 39.61                             130   -0.21 9  150 258 
 PTB  HZ I         116 46.51         4.9 0.46            129            150 258 
 SPBC HZ EP        116 20.51                             127   -0.15 9  167 219 
 SPBC HE ES        116 43.04                             127    0.20 9  167 219 
 SPBC HZ I         116 47.37         7.2 0.20            126            167 219 
 YPLC HZ EP        116 21.64                             125   -0.19 9  179 152 
 ZAR  HZ EP        116 25.16                             121    0.81 9  204 291 
 ZAR  HE ES        116 49.54                             121    0.12 9  204 291 
                                                                                
