 2014  5 5 0939 14.5 L   6.819 -73.187133.8  RSN 12 0.6 1.8LRSN                1
 GAP= 68        1.50       3.7     4.2 10.1 -0.1707E+01  0.1285E+02  0.9779E+00E
 Epicentro: ZAPATOCA - SANTANDER                                               3
 ACTION:UPD 15-03-16 16:55 OP:nd   STATUS:               ID:20140505093914 L   I
 OLDACT:REG 14-05-05 14:55 OP:mh   STATUS:               ID:20140505093744     3
 2014-05-05-0937-44M.COL___239                                                 6
 STAT SP IPHASW D HRMM SECON CODA AMPLIT PERI AZIMU VELO AIN AR TRES W  DIS CAZ7
 PAM  SZ EP        939 36.03                             148    0.4910 78.9  43 
 PAM  SN ES        939 52.77                             148    0.8010 78.9  43 
 PAM  SZ I         939 54.98        17.3 0.58            152           78.9  43 
 RUS  HZ EP        939 37.13                             140   -0.1510  103 174 
 RUS  HN ES        939 54.72                             140   -0.3410  103 174 
 RUS  HZ I         939 56.61         7.3 0.36            145            103 174 
 PTB  HZ EP        939 40.88                             130    0.75 9  144 258 
 PTB  HN ES        939 59.93                             130   -0.19 9  144 258 
 PTB  HZ I         940  3.99         6.1 0.18            133            144 258 
 OCA  HZ EP        939 41.58                             127   -0.07 9  158 355 
 OCA  HN ES        940  2.47                             127   -0.37 9  158 355 
 OCA  HZ I         940  7.27         9.3 0.36            131            158 355 
 TAM  HZ EP        939 41.46                             127   -0.28 9  160 105 
 TAM  HZ I         939 41.64        15.5 0.20            132            160 105 
 TAM  HN ES        940  2.05                             127   -0.94 9  160 105 
 SPBC HZ EP        939 42.19                             126    0.21 9  162 217 
 SPBC HN ES        940  4.20                             126    0.77 9  162 217 
 SPBC HZ I         940  7.47         6.7 0.12            130            162 217 
 ZAR  HZ EP        939 46.18                             120    0.53 9  199 292 
 ZAR  HN ES        940 10.38                             120    0.42 9  199 292 
 ZAR  HZ I         940 19.05         6.9 0.18            123            199 292 
 SML  HZ EP        939 49.48                             115   -0.58 8  240 336 
 SML  HN ES        940 17.12                             115   -0.68 8  240 336 
 CHI  HZ EP        939 52.43                             114    0.78 8  249 194 
 CHI  HN ES        940 20.11                             114   -0.52 8  249 194 
 CHI  HZ I         940 23.88         2.9 0.28            118            249 194 
 HEL  HN ES        940 22.55                             113   -1.69 8  268 255 
 GUY2CHZ EP        939 58.19                             110    0.91 7  299 234 
 GUY2CHN ES        940 30.14                             110   -0.52 7  299 234 
 GUY2CHZ I         940 38.20         2.9 0.32                           299 234 
 RREF HN ES        940 35.31                             109   -0.01 7  320 229 
                                                                                
