 2017 11 5 0816 14.8 L   6.808 -73.131145.4  RSN 26 0.7 2.2LRSN                1
 GAP= 66        1.20       3.2     2.9  5.1 -0.3968E+00  0.2916E+01  0.2973E+01E
 Epicentro: LOS SANTOS - SANTANDER                                             3
 ACTION:UPD 17-12-12 19:52 OP:rebc STATUS:               ID:20171105081614 L   I
 OLDACT:UP  17-11-05 17:07 OP:dhb  STATUS:               ID:20171105080748d    3
 OLDACT:UP  17-11-05 17:04 OP:dhb  STATUS:               ID:20171105080748d    3
 OLDACT:UP  17-11-05 17:04 OP:dhb  STATUS:               ID:20171105080748d    3
 OLDACT:UP  17-11-05 17:03 OP:dhb  STATUS:               ID:20171105080748d    3
 OLDACT:DUP 17-11-05 16:54 OP:dhb  STATUS:               ID:20171105080748d    3
 2017-11-05-0808-00M.COL___420                                                 6
 STAT SP IPHASW D HRMM SECON CODA AMPLIT PERI AZIMU VELO AIN AR TRES W  DIS CAZ7
 BAR2 EZ IP     D  816 34.40                             170    0.0110 24.6 193 
 BAR2 EZ ES        816 49.00                             170   -0.6810 24.6 193 
 BAR2 EZ I         816 51.47        36.6 0.38            170           24.6 193 
 BRR  HZ IP     C  816 36.42                             152    0.4810 72.2 297 
 BRR  HE ES        816 53.44                             152    0.9910 72.2 297 
 BRR  HZ I         816 57.00        37.7 0.10            148           72.2 297 
 PAM  EZ IP     D  816 37.12                             151    0.2710 75.6  39 
 PAM  EN ES        816 54.32                             151    0.2610 75.6  39 
 PAM  EZ I         816 56.52        57.3 0.56            149           75.6  39 
 RUS  HZ EP        816 38.28                             144   -0.2710  101 177 
 RUS  HN ES        816 56.96                             144   -0.1410  101 177 
 RUS  HZ I         816 58.73        15.4 0.28            143            101 177 
 PTB  HZ EP        816 40.95                             131   -0.93 9  150 259 
 PTB  HN ES        817  2.41                             131   -0.60 9  150 259 
 PTB  HZ I         817  3.72        12.6 0.18            128            150 259 
 TAM  HZ IP     D  816 42.47                             130    0.17 9  154 105 
 TAM  HN ES        817  3.66                             130   -0.11 9  154 105 
 SPBC HZ EP   1    816 43.06                             129   -0.36 7  165 219 
 SPBC HE ES        817  5.69                             129   -0.06 9  165 219 
 SPBC HZ I         817 11.56        21.4 0.38            126            165 219 
 YPLC HZ EP        816 44.66                             126    0.11 9  177 152 
 YPLC HN ES        817  8.31                             126    0.54 9  177 152 
 YPLC HZ I         817  9.53        19.4 0.28            126            177 152 
 ZAR  HZ EP        816 47.30                             122   -0.02 8  205 292 
 ZAR  HE ES        817 12.46                             122   -0.24 8  205 292 
 ZAR  HZ I         817 19.25        23.4 0.38            119            205 292 
 TABC EZ EP   3    816 52.50                             119    1.82 2  232 211 
 TABC EZ ES        817 19.25                             119    0.57 8  232 211 
 TABC EZ I         817 24.64        15.8 0.78            117            232 211 
 NOR  HZ EP        816 51.48                             118    0.79 8  237 235 
 NOR  HN ES        817 17.96                             118   -0.73 8  237 235 
 NOR  HZ I         817 23.08        10.9 0.20            116            237 235 
 CHI  HZ EP        816 52.64                             117    0.04 8  250 195 
 CHI  HE ES        817 21.44                             117   -0.66 8  250 195 
 CHI  HZ I         817 27.51         5.8 0.32            115            250 195 
 ROSC BZ EP   9    816 54.54                             116    1.48 0  254 211 
 ROSC BE ES        817 24.15                             117   -0.25 8  254 211 
 ROSC BZ I         817 30.42        14.7 0.45            115            254 211 
 URE  HZ EP   9    816 54.46                             113   -1.50 0  285 292 
 URE  HE ES        817 26.01                             114   -0.57 7  285 292 
 URE  HZ I         817 38.73        13.5 0.16            111            285 292 
 GUY2CHZ EP        816 60.00                             112    1.42 7  303 235 
 GUY2CHE ES        817 32.31                             112   -0.44 7  303 235 
 GUY2CHZ I         817 42.46         8.4 0.66                           303 235 
 PTGC HZ EP        816 57.27                             111   -1.38 7  309 159 
 PTGC HE ES   3    817 30.35                             111   -2.52 2  309 159 
 PTGC HZ I         817 35.74        10.3 0.30            110            309 159 
 CBOC HZ EP        817  2.50                             110    0.61 7  335 252 
 CBOC HE ES        817 38.35                             110   -0.28 7  335 252 
 CBOC HZ I         817 51.51         2.3 0.52            108            335 252 
 ARGC HZ EP        817  4.58                             108    0.20 6  359 340 
 ARGC HE ES   3    817 44.99                             108    1.92 2  359 340 
 ARGC HZ I         817 51.07         4.4 0.46            106            359 340 
 PRA  HZ EP        817  8.13                             106   -0.35 6  394 210 
 PRA  HE ES        817 50.73                             106    0.37 6  394 210 
 PRA  HZ I         817 53.97         8.1 0.60            105            394 210 
 ORTC HZ EP        817  9.50                             106    0.61 6  397 216 
 ORTC HE ES        817 51.76                             106    0.67 6  397 216 
 ORTC HZ I         817 57.46         4.1 0.24            105            397 216 
 PAL  HZ EP        817 10.09                             106   -0.06 6  408 239 
 PAL  HE ES        817 53.01                             106   -0.32 6  408 239 
 PAL  HZ I         817 59.21         2.2 0.28            104            408 239 
 SJC  HZ EP   3    817  8.24                             105   -2.10 1  409 327 
 SJC  HE ES   4    817 49.82                             105   -3.86 0  409 327 
 SJC  HZ I         817 54.29         4.1 0.52            104            409 327 
 CRJC HZ EP   3    817 14.33                             103   -2.82 1  467   3 
 CRJC HN ES   4    818  1.98                             103   -3.81 0  467   3 
 CRJC HZ I         818 11.08         5.1 0.22            102            467   3 
 SMAR HZ EP   2    817 19.09                             102   -1.49 2  496 346 
 SMAR HE ES   4    818  8.17                             102   -3.73 0  496 346 
 CAP2 HE ES   4    818  9.33                             102   -5.22 0  509 294 
 CAP2 HZ I         818 13.37         3.8 0.68            100            509 294 
 URI  HZ EP   3    817 25.05                             100   -2.57 1  555  13 
 URI  HZ I         818 37.34         1.9 0.64             99            555  13 
                                                                                
