 2010  4 5 0809 53.1 L   6.530 -73.512109.5  RSN  4 0.4 1.9LRSN                1
 GAP=181        1.01       6.0     6.1  8.2 -0.1363E+02  0.2442E+02 -0.7853E+01E
 Epicentro: EL CARMEN DE CHUCURI - SANTANDER                                   3
 ACTION:UPD 10-08-24 09:57 OP:vdl  STATUS:               ID:20100405080953 L   I
 2010-04-05-0808-16S.COL___098                                                 6
 STAT SP IPHASW D HRMM SECON CODA AMPLIT PERI AZIMU VELO AIN AR TRES W  DIS CAZ7
 BAR2 SZ EP        810  8.95                             160     0.110   37  79 
 BAR2 SZ ES        810 21.26                             160     0.110   37  79 
 BRR  HZ EP        810 10.02                             146    -0.210   68 341 
 BRR  HZ I         810 18.11        15.5 0.06                            68 341 
 BRR  HE ES        810 23.30                             146    -0.310   68 341 
 OCA  SZ EP        810 21.46                             115    -0.7 9  190   6 
 OCA  SZ ES        810 45.39                             115     0.7 9  190   6 
 OCA  SZ I         810 49.21        18.1 0.16                           190   6 
 HEL  HZ EP        810 26.78                             111     0.3 8  226 261 
 HEL  HN ES        810 52.47                             111     0.0 8  226 261 
 HEL  HZ I         810 57.15         3.9 0.22                           226 261 
                                                                                
