 2011  9 5 0330 59.0 L   6.809 -73.157148.4  RSN  5 0.3 1.4LRSN                1
 GAP=182        0.45       4.5     6.5  7.4  0.1114E+02 -0.8535E+01 -0.1606E+02E
 Epicentro: LOS SANTOS - SANTANDER                                             3
 ACTION:UPD 12-07-13 15:55 OP:ep   STATUS:               ID:20110905033059 L   I
 2011-09-05-0328-58S.COL___171                                                 6
 STAT SP IPHASW D HRMM SECON CODA AMPLIT PERI AZIMU VELO AIN AR TRES W  DIS CAZ7
 BAR2 SZ EP   1    331 18.79                             170   -0.16 7 24.1 187 
 BAR2 SZ ES   2    331 34.11                             170   -0.41 5 24.1 187 
 BAR2 SZ I         331 36.70         4.8 0.41                          24.1 187 
 BRR  HZ EP   1    331 20.57                             153    0.23 7 69.6 298 
 BRR  HZ I         331 20.85         8.8 0.16                          69.6 298 
 BRR  HN ES   2    331 37.35                             153    0.36 5 69.6 298 
 RUS  HN ES   2    331 42.09                             144    0.23 5  102 175 
 RUS  HZ I         331 44.01         1.9 0.59                           102 175 
 OCA  SZ EP   1    331 27.37                             130   -0.03 7  159 354 
 OCA  SZ ES   2    331 49.58                             130    0.02 5  159 354 
 OCA  SZ I         331 58.35         2.3 0.59                           159 354 
 ZAR  HE ES   2    331 56.36                             123   -0.41 4  203 292 
 ZAR  HZ I         332  3.30         3.7 0.50                           203 292 
                                                                                
