 2011 11 5 0633 29.2 L   6.749 -73.074138.9  RSN  4 0.2 1.5LRSN                1
 GAP=148        0.55       3.6     4.9  5.0  0.2248E+01 -0.2441E+01 -0.2942E+00E
 Epicentro: LOS SANTOS - SANTANDER                                             3
 ACTION:UPD 12-07-13 16:08 OP:ep   STATUS:               ID:20111105063329 L   I
 2011-11-05-0631-15S.COL___175                                                 6
 STAT SP IPHASW D HRMM SECON CODA AMPLIT PERI AZIMU VELO AIN AR TRES W  DIS CAZ7
 BAR2 SZ EP        633 47.77                             171   -0.1610 21.1 215 
 BAR2 SZ ES        634  2.30                             171   -0.2610 21.1 215 
 BAR2 SZ I         634  3.85         7.5 0.20                          21.1 215 
 PAM  SZ EP   1    633 50.85                             150    0.19 7 77.3  32 
 PAM  SE ES   1    634  7.48                             150    0.07 7 77.3  32 
 BRR  HZ EP        633 49.96                             148   -0.2210 80.8 299 
 BRR  HN ES        634  6.81                             148    0.2510 80.8 299 
 BRR  HZ I         634  8.59         8.2 0.14                          80.8 299 
 RUS  HZ EP   1    633 52.04                             144    0.21 7 94.7 181 
 RUS  HE ES   1    634  9.74                             144    0.25 7 94.7 181 
 RUS  HZ I         634 11.28         3.6 0.33                          94.7 181 
                                                                                
