 2017 10 5 0316 57.8 L   6.796 -73.134148.9  RSN  7 0.4 1.5LRSN                1
 GAP=164        1.00       5.8     7.4  6.8 -0.2787E+02  0.1354E+02  0.3605E+00E
 Epicentro: LOS SANTOS - SANTANDER                                             3
 ACTION:UPD 17-11-07 19:28 OP:rebc STATUS:               ID:20171005031657 L   I
 OLDACT:DUP 17-10-05 15:36 OP:osc  STATUS:               ID:20171005030745d    3
 OLDACT:REG 17-10-05 12:31 OP:osc  STATUS:               ID:20171005030744     3
 2017-10-05-0308-00M.COL___438                                                 6
 STAT SP IPHASW D HRMM SECON CODA AMPLIT PERI AZIMU VELO AIN AR TRES W  DIS CAZ7
 BAR2 EZ EP        317 17.79                             171   -0.0410 23.1 193 
 BAR2 EZ ES        317 33.14                             171   -0.3010 23.1 193 
 BAR2 EZ I         317 35.59         8.6 0.36            169           23.1 193 
 PAM  EZ EP        317 20.71                             151    0.3610 76.9  39 
 PAM  EE ES        317 38.02                             151    0.1010 76.9  39 
 PAM  EZ I         317 39.94         6.7 0.54            155           76.9  39 
 RUS  HZ EP        317 22.01                             144    0.1610  100 177 
 RUS  HN ES        317 40.23                             144   -0.3510  100 177 
 RUS  HZ I         317 41.68         5.2 0.30            145            100 177 
 SPBC HZ EP        317 27.07                             129    0.46 9  164 219 
 SPBC HE ES        317 49.29                             129    0.23 9  164 219 
 SPBC HZ I         317 54.61         3.9 0.09            130            164 219 
 NOR  HZ EP        317 32.61                             119   -1.21 8  235 235 
 NOR  HE ES        318  2.21                             119    0.31 8  235 235 
 NOR  HZ I         318  3.16         2.2 0.14            120            235 235 
 CHI  HZ EP        317 35.51                             118   -0.18 8  249 195 
 CHI  HN ES        318  5.53                             118    0.31 8  249 195 
 CHI  HZ I         318 11.03         1.4 0.28            119            249 195 
 GUY2CHZ EP   9    317 43.99                             113    2.32 0  302 235 
 GUY2CHE ES        318 17.85                             112   -0.34 7  302 235 
 GUY2CHZ I         318 28.23         1.5 0.50                           302 235 
                                                                                
