 2017 10 5 0606 51.2 L   6.790 -73.195145.3  RSN  4 0.3 1.1LRSN                1
 GAP=184        0.89       6.9    10.5  7.7 -0.5476E+02  0.2802E+02 -0.1023E+02E
 Epicentro: ZAPATOCA - SANTANDER                                               3
 ACTION:UPD 17-11-07 19:28 OP:rebc STATUS:               ID:20171005060651 L   I
 OLDACT:DUP 17-10-05 16:25 OP:osc  STATUS:               ID:20171005055741d    3
 2017-10-05-0558-00M.COL___444                                                 6
 STAT SP IPHASW D HRMM SECON CODA AMPLIT PERI AZIMU VELO AIN AR TRES W  DIS CAZ7
 BAR2 EZ EP        6 7 10.71                             171   -0.0510 21.9 176 
 BAR2 EZ ES        6 7 25.64                             171   -0.3610 21.9 176 
 BAR2 EZ I         6 7 28.54         3.6 0.28            171           21.9 176 
 PAM  EZ EP        6 7 13.66                             149    0.0210 81.8  42 
 PAM  EN ES        6 7 31.38                             149    0.2410 81.8  42 
 RUS  HZ EP        6 7 14.27                             144   -0.6010  100 173 
 RUS  HN ES        6 7 33.74                             144    0.4110  100 173 
 RUS  HZ I         6 7 34.67         1.9 0.30            146            100 173 
 SPBC HZ EP        6 7 19.71                             130    0.44 9  159 218 
 SPBC HN ES        6 7 41.13                             130   -0.03 9  159 218 
 SPBC HZ I         6 7 43.57         1.2 0.05            131            159 218 
                                                                                
