 2012  2 5 0721  8.5 L   6.771 -73.167137.3  RSN 13 0.5 1.9LRSN                1
 GAP=179        0.90       3.5     5.1  7.8 -0.7501E-01  0.5032E+01  0.5527E+01E
 ACTION:UP  12-03-07 16:27 OP:epov STATUS:               ID:20120205072108 L   I
 2012-02-05-0720-00M.COL___188                                                 6
 STAT SP IPHASW D HRMM SECON CODA AMPLIT PERI AZIMU VELO SNR AR TRES W  DIS CAZ7
 BAR2 SZ EP   1    721 26.63                             171   -0.45 7 19.9 185 
 BAR2 SZ I         721 43.53        19.2 0.27                          19.9 185 
 GIR2 SZ EP        721 27.50                             165    0.2110 34.1 355 
 BRR  HZ EP        721 29.15                             151    0.4010 70.8 302 
 BRR  HZ I         721 29.37        29.7 0.12                          70.8 302 
 BRR  HN ES   1    721 45.36                             151    0.85 7 70.8 302 
 RUS  HZ EP   1    721 31.40                             143    0.16 7 97.6 175 
 RUS  HZ I         721 32.62         5.4 0.15                          97.6 175 
 RUS  HN ES   1    721 48.16                             143   -0.79 7 97.6 175 
 PTB  HZ EP   1    721 34.07                             131   -0.49 7  145 260 
 PTB  HN ES   1    721 54.43                             131   -0.42 7  145 260 
 PTB  HZ I         721 58.84         0.0 0.10                           145 260 
 OCA  SZ EP   1    721 35.87                             127   -0.61 7  163 354 
 OCA  SZ ES   1    721 58.13                             127   -0.15 7  163 354 
 ZAR  HZ EP   1    721 40.26                             121   -0.08 6  203 293 
 ZAR  HE ES   1    722  4.92                             121   -0.23 6  203 293 
 ZAR  HZ I         722 10.30         5.3 0.16                           203 293 
 NOR  SN ES   1    722 10.35                             117   -0.20 6  231 235 
 CHI  HZ EP   1    721 45.45                             116    0.08 6  245 195 
 CHI  HN ES   1    722 14.90                             116    0.79 6  245 195 
 CHI  HZ I         722 19.67         4.4 0.46                           245 195 
 ROSC BZ EP   1    721 46.74                             115    0.97 6  249 211 
 ROSC BZ I         722 21.80         6.7 0.32                           249 211 
 HEL  HZ EP   1    721 47.85                             113   -0.14 6  269 256 
 HEL  HN ES   2    722 19.00                             113    0.24 4  269 256 
 HEL  HZ I         722 26.06         4.6 0.53                           269 256 
 RREF HZ EP   1    721 53.87                             109   -0.01 5  318 230 
 PRA  HN ES   1    722 41.88                             105   -0.60 4  388 209 
                                                                                
