 2010  3 5 0321 53.4 L   6.853 -73.009141.6  RSN  9 0.4 2.0LRSN                1
 GAP=197        0.66       2.9     6.2  5.0  0.2893E+01 -0.1696E+01  0.1635E+01E
 Epicentro: CEPITA - SANTANDER                                                 3
 ACTION:UP  10-08-24 09:52 OP:vdl  STATUS:               ID:20100305032153 L   I
 2010-03-05-0316-45S.COL___101                                                 6
 STAT SP IPHASW D HRMM SECON CODA AMPLIT PERI AZIMU VELO SNR AR TRES W  DIS CAZ7
 BAR2 SZ EP        322 12.99                             166     0.110   35 214 
 BAR2 SZ ES   3    322 27.22                             166    -0.8 2   35 214 
 BRR  HZ EP        322 14.74                             148    -0.110   83 290 
 BRR  HN ES        322 31.72                             148     0.210   83 290 
 BRR  HZ I         322 36.45        24.2 0.17                            83 290 
 RUS  BZ EP        322 17.12                             141    -0.110  106 184 
 RUS  BN ES        322 35.59                             141    -0.210  106 184 
 RUS  BZ I         322 37.24        10.8 0.30                           106 184 
 OCA  SZ EP        322 21.31                             129     0.2 9  157 347 
 OCA  SZ I         322 23.02        20.0 0.03                           157 347 
 OCA  SZ ES   2    322 42.44                             129    -0.3 5  157 347 
 CHI  HZ EP        322 32.00                             115     0.0 8  259 198 
 CHI  HZ I         322 34.06         2.9 0.29                           259 198 
 CHI  HN ES   2    323  2.04                             115     0.0 4  259 198 
 ROSC BZ EP   1    322 33.33                             115     0.6 6  266 213 
 ROSC BE ES   2    323  4.01                             115     0.6 4  266 213 
 ROSC BZ I         323 11.37         5.8 0.46                           266 213 
 HEL  HZ EP   1    322 35.14                             112    -0.1 5  288 255 
 HEL  HZ I         322 36.54         3.1 0.63                           288 255 
 RREF BN ES   2    323 17.27                             109    -1.1 3  337 230 
 RREF BZ I         323 21.78         5.6 0.08                           337 230 
 PRA  HZ EP        322 47.75                             105    -0.5 6  405 211 
 PRA  HN ES   3    323 31.75                             105     0.7 1  405 211 
 PRA  HZ I         323 37.01         6.0 0.30                           405 211 
                                                                                
