 2017  1 5 0525 40.9 L   6.925 -73.136149.7  RSN  5 0.4 1.1LRSN                1
 GAP=131        1.05       5.8     4.9  9.1  0.1939E+01  0.7712E+01  0.8562E+01E
 Epicentro: PIEDECUESTA - SANTANDER                                            3
 ACTION:UPD 17-05-22 15:55 OP:jn   STATUS:               ID:20170105052540 L   I
 OLDACT:REG 17-01-05 12:57 OP:lv   STATUS:               ID:20170105051748     3
 2017-01-05-0518-00M.COL___374                                                 6
 STAT SP IPHASW D HRMM SECON CODA AMPLIT PERI AZIMU VELO AIN AR TRES W  DIS CAZ7
 PAM  EZ EP        526  2.89                             155   -0.0610 66.5  46 
 PAM  EN ES        526 19.74                             155   -0.4010 66.5  46 
 PAM  EZ I         526 21.89         2.7 0.31            158           66.5  46 
 BRR  HZ EP        526  2.43                             155    0.1810 66.7 288 
 BRR  HE ES        526 19.65                             155    0.7610 66.7 288 
 BRR  HZ I         526 21.49         3.2 0.14            156           66.7 288 
 RUS  HZ EP        526  6.65                             141    0.5810  114 177 
 RUS  HN ES        526 25.39                             141   -0.3010  114 177 
 RUS  HZ I         526 27.41         0.9 0.32            143            114 177 
 PTB  HZ EP        526  8.32                             132   -0.27 9  152 254 
 PTB  HN ES        526 29.86                             132   -0.32 9  152 254 
 PTB  HZ I         526 32.56         1.9 0.11            134            152 254 
 ZAR  HN ES        526 38.13                             124   -0.31 9  200 288 
                                                                                
