 2013  1 5 0001 31.4 L   6.792 -73.186139.2  RSN  6 0.4 1.7LRSN                1
 GAP=233        1.05       5.8     6.7  7.5  0.2155E+02  0.1228E+02  0.1228E+02E
 Epicentro: LOS SANTOS - SANTANDER                                             3
 ACTION:UPD 13-02-15 09:12 OP:ep   STATUS:               ID:20130105000131 L   I
 2013-01-04-2359-07M.COL___205                                                 6
 STAT SP IPHASW D HRMM SECON CODA AMPLIT PERI AZIMU VELO AIN AR TRES W  DIS CAZ7
 BAR2 SZ EP        0 1 49.92                             171   -0.3110 22.1 179 
 BAR2 SZ I         0 1 50.14        11.7 0.38            170           22.1 179 
 BAR2 SZ ES        0 2  4.61                             171   -0.2910 22.1 179 
 BRR  HZ EP        0 1 51.51                             152   -0.1510 67.7 301 
 BRR  HN ES        0 2  8.09                             152    0.6510 67.7 301 
 BRR  HN I         0 2  9.12        28.4 0.22            150           67.7 301 
 RUS  HZ EP        0 1 54.30                             142   -0.1910  100 173 
 RUS  HN ES        0 2 12.73                             142    0.2410  100 173 
 RUS  HN I         0 2 14.31         7.0 0.54            143            100 173 
 PTB  HZ EP        0 1 57.83                             131    0.40 9  143 259 
 PTB  HN ES        0 2 16.87                             131   -0.86 9  143 259 
 PTB  HN I         0 2 18.76         4.3 0.24            129            143 259 
 ZAR  HN ES        0 2 27.94                             121    0.23 9  200 293 
 ZAR  HN I         0 2 35.25         5.4 0.42            120            200 293 
 CHI  HZ EP        0 2  8.53                             116   -0.01 8  247 194 
 CHI  HZ I         0 2 10.67         1.1 0.24            116            247 194 
 CHI  HN ES        0 2 37.97                             116    0.47 8  247 194 
                                                                                
