 2014 12 5 0311 25.4 L   6.829 -73.155140.9  RSN 28 0.5 2.7LRSN                1
 GAP=125        1.13       2.4     3.3  4.7 -0.1614E+01  0.4928E+01  0.8374E+00E
 Epicentro: LOS SANTOS - SANTANDER                                             3
 ACTION:UPD 15-02-10 17:00 OP:nd   STATUS:               ID:20141205031125 L   I
 OLDACT:REG 14-12-05 12:40 OP:fm   STATUS:               ID:20141205030750     3
 2014-12-05-0307-50M.COL___297                                                 6
 STAT SP IPHASW D HRMM SECON CODA AMPLIT PERI AZIMU VELO AIN AR TRES W  DIS CAZ7
 BAR2 SZ IP     D  311 44.78                             169    0.2410 26.3 187 
 BAR2 SZ ES        311 59.39                             169   -0.0610 26.3 187 
 BAR2 SZ I         312  0.75       188.7 0.34            169           26.3 187 
 BRR  HZ EP        311 46.39                             152    0.4710 68.9 297 
 BRR  HE ES        312  2.22                             152    0.3210 68.9 297 
 BRR  HZ I         312  6.85       118.6 0.30            150           68.9 297 
 PAM  SZ IP     C  311 47.54                             150    0.5210 75.6  42 
 PAM  SN ES        312  4.12                             150    0.2610 75.6  42 
 PAM  SZ I         312  6.71       187.9 0.54            154           75.6  42 
 RUS  HZ EP     C  311 48.73                             142   -0.2210  104 176 
 RUS  HN ES        312  6.81                             142   -0.4810  104 176 
 RUS  HZ I         312  8.47        57.6 0.34            144            104 176 
 PTB  HZ EP        311 51.25                             131   -0.72 9  147 258 
 PTB  HE ES        312 12.80                             131    0.12 9  147 258 
 PTB  HZ I         312 14.86        74.4 0.14            130            147 258 
 OCA  HZ EP        311 52.71                             129   -0.34 9  157 353 
 OCA  HE ES        312 14.19                             129   -0.41 9  157 353 
 OCA  HZ I         312 19.26        60.4 0.22            130            157 353 
 SPBC HZ EP        311 53.69                             127   -0.05 9  165 218 
 SPBC HE ES        312 14.94                             127   -0.88 9  165 218 
 SPBC HZ I         312 17.40        70.4 0.12            128            165 218 
 ZAR  HZ EP        311 58.15                             121    0.81 9  202 291 
 ZAR  HN ES        312 22.52                             121    0.28 9  202 291 
 ZAR  HZ I         312 29.27        94.5 0.36            122            202 291 
 NOR  HZ EP        312  1.18                             117    0.19 8  236 234 
 NOR  HE ES        312 28.30                             117   -0.44 8  236 234 
 NOR  HZ I         312 36.53        28.2 0.18            118            236 234 
 SML  HZ EP        312  1.09                             117   -0.33 8  240 335 
 SML  HE ES        312 29.56                             117    0.06 8  240 335 
 SML  HZ I         312 38.92       112.3 0.10            118            240 335 
 CHI  HZ EP        312  3.03                             116   -0.14 8  251 195 
 CHI  HN ES        312 32.30                             116   -0.31 8  251 195 
 CHI  HZ I         312 39.72        23.0 0.44            117            251 195 
 ROSC BZ EP        312  3.17                             115   -0.36 8  255 210 
 ROSC BN ES        312 34.05                             115    0.80 8  255 210 
 ROSC BZ I         312 36.92        41.4 0.45            117            255 210 
 HEL  HZ EP        312  5.48                             114    0.10 8  272 255 
 HEL  HE ES        312 36.68                             114    0.14 8  272 255 
 HEL  HZ I         312 42.95        20.4 0.32            114            272 255 
 URE  HZ EP   4    312  4.65                             113   -1.38 0  282 291 
 URE  HN ES   4    312 36.30                             113   -1.40 0  282 291 
 URE  HZ I         312 50.64        39.5 0.24            113            282 291 
 GUY2CHZ EP        312  9.03                             111    0.10 7  302 234 
 GUY2CHN ES        312 42.88                             111    0.01 7  302 234 
 GUY2CHZ I         312 51.25        23.2 0.60                           302 234 
 PTGC HZ EP   4    312  7.93                             110   -1.52 0  312 159 
 PTGC HE ES   4    312 40.47                             110   -3.32 0  312 159 
 PTGC HZ I         312 43.86        38.2 0.36            112            312 159 
 RREF HZ EP        312 13.06                             110    1.54 7  323 229 
 RREF HN ES        312 47.51                             110    0.04 7  323 229 
 RREF HZ I         312 55.86        21.8 0.30            111            323 229 
 CBOC HZ EP        312 12.64                             109    0.49 7  334 252 
 CBOC HE ES        312 47.75                             109   -0.84 7  334 252 
 CBOC HZ I         312 54.32         6.7 0.42            110            334 252 
 DBB  SZ EP        312 13.37                             109    0.80 7  338 274 
 DBB  SZ ES        312 49.43                             109    0.09 7  338 274 
 DBB  SZ I         312 52.89        65.2 0.46            109            338 274 
 TOL  SZ EP        312 14.26                             108    0.59 7  345 224 
 TOL  SN ES        312 51.84                             108    0.53 7  345 224 
 TOL  SZ I         312 57.03        57.9 0.42            109            345 224 
 MON  HZ EP        312 12.29                             108   -1.63 6  351 308 
 MON  HE ES        312 51.17                             108   -0.58 6  351 308 
 MON  HZ I         312 51.49        12.7 0.20            109            351 308 
 SDV  BZ EP        312 14.84                             107   -0.30 6  359  51 
 SDV  BE ES   4    312 50.54                             107   -3.37 0  359  51 
 SDV  BZ I         312 55.88        10.1 0.60            109            359  51 
 ANIL HN EP        312 14.51                             107   -0.72 6  359 224 
 ANIL HE EP        312 15.13                                            359 224 
 ANIL HZ EP        312 15.50                             107            359 224 
 ORTC HZ EP        312 19.53                             105    0.11 6  397 216 
 ORTC HE ES        313  1.90                             105    0.37 6  397 216 
 ORTC HZ I         313  7.03        16.0 0.38            106            397 216 
 SJC  HZ EP   4    312 18.64                             105   -1.81 0  406 327 
 SJC  HN ES   4    312 59.91                             105   -3.47 0  406 327 
 SJC  HZ I         313  4.64        15.9 0.50            106            406 327 
 PAL  HZ EP        312 20.25                             105   -0.27 6  406 239 
 PAL  HE ES        313  3.59                             105    0.09 6  406 239 
 PAL  HZ I         313  9.30         6.4 0.36            106            406 239 
 MACC HZ EP   4    312 31.12                             101   -3.26 0  524 188 
 MACC HE ES   4    313 23.42                             101   -4.74 0  524 188 
 MACC HZ I         313 29.75         4.6 0.56            102            524 188 
 GARC HZ EP   4    312 38.41                              99   -2.45 0  575 207 
 GARC HN ES   4    313 34.17                              99   -5.54 0  575 207 
 GARC HZ I         313 41.48         7.0 0.30            101            575 207 
                                                                                
