 2010  4 5 0121  4.7 L   6.410 -73.261156.4  RSN  8 0.6 2.2LRSN                1
 GAP=148        1.52       6.1     8.9 10.2 -0.2746E+02  0.1060E+02  0.9903E+01E
 Epicentro: PALMAS SOCORRO - SANTANDER                                         3
 ACTION:UPD 10-08-24 09:57 OP:vdl  STATUS:               ID:20100405012105 L   I
 2010-04-05-0118-51S.COL___098                                                 6
 STAT SP IPHASW D HRMM SECON CODA AMPLIT PERI AZIMU VELO AIN AR TRES W  DIS CAZ7
 BAR2 SZ EP        121 25.05                             172    -0.610   22  23 
 BAR2 SZ ES        121 41.49                             172    -0.410   22  23 
 BRR  HZ EP        121 28.40                             149     0.110   92 327 
 BRR  HE ES        121 47.52                             149     0.910   92 327 
 BRR  HZ I         121 49.13        34.1 0.16                            92 327 
 OCA  SZ EP        121 37.94                             126     0.0 9  202 358 
 OCA  SZ ES        122  3.73                             126    -0.1 9  202 358 
 OCA  SZ I         122  7.06        51.3 0.08                           202 358 
 CHI  HN ES        122  4.83                             125     0.2 9  204 195 
 CHI  HZ I         122  8.08         3.8 0.42                           204 195 
 HEL  HZ EP   2    121 43.10                             119    -0.3 4  252 265 
 HEL  HN ES        122 12.15                             119    -1.3 8  252 265 
 HEL  HZ I         122 17.88         5.7 0.34                           252 265 
 RREF BZ EP        121 47.65                             116     0.4 7  285 234 
 RREF BN ES        122 21.24                             116     0.8 7  285 234 
 RREF BZ I         122 27.24         7.4 0.34                           285 234 
 TOL  SZ EP        121 49.74                             114     0.7 7  305 229 
 TOL  SZ ES        122 23.09                             114    -0.5 7  305 229 
 SDV  BZ EP        121 59.28                             108    -0.3 6  399  47 
                                                                                
