 2011  9 5 0617 11.8 L   6.768 -73.104137.9  RSN  7 0.3 1.6LRSN                1
 GAP=187        0.44       2.9     4.8  5.6  0.2144E+00  0.2977E+01 -0.1476E+01E
 Epicentro: LOS SANTOS - SANTANDER                                             3
 ACTION:UPD 12-07-13 15:55 OP:ep   STATUS:               ID:20110905061711 L   I
 2011-09-05-0600-00M.COL___172                                                 6
 STAT SP IPHASW D HRMM SECON CODA AMPLIT PERI AZIMU VELO AIN AR TRES W  DIS CAZ7
 BAR2 SZ EP   1    617 30.27                             171   -0.14 7 21.3 204 
 BAR2 SZ I         617 30.46         9.8 0.22                          21.3 204 
 BAR2 SZ ES   2    617 44.66                             171   -0.30 5 21.3 204 
 BRR  HZ EP   1    617 32.18                             149   -0.24 7 76.9 299 
 BRR  HZ I         617 32.65         9.3 0.16                          76.9 299 
 BRR  HE ES   2    617 49.02                             149    0.49 5 76.9 299 
 RUS  HZ EP   2    617 34.27                             143   -0.21 5 96.9 179 
 RUS  HN ES   2    617 52.55                             143    0.36 5 96.9 179 
 RUS  HZ I         617 56.37         2.5 0.59                          96.9 179 
 OCA  SZ EP   1    617 40.23                             127    0.36 7  164 352 
 OCA  SZ ES   2    618  1.66                             127   -0.13 5  164 352 
 OCA  SZ I         618  5.62         5.6 0.17                           164 352 
 ZAR  HN ES   2    618  9.38                             120   -0.29 4  210 293 
 ZAR  HZ I         618 14.44         5.3 0.40                           210 293 
 NOR  SN ES   2    618 14.97                             117    0.05 4  236 236 
 PRA  HZ EP   2    618  4.95                             105    0.01 3  391 210 
 PRA  HN ES   2    618 46.74                             105    0.33 3  391 210 
                                                                                
