 2014  2 5 0954 55.2 L   6.804 -73.225148.9  RSN  4 0.1 1.3LRSN                1
 GAP=194        0.34       2.9     2.8  6.1  0.5665E+01 -0.8962E+01 -0.1326E+02E
 Epicentro: ZAPATOCA - SANTANDER                                               3
 ACTION:UPD 14-03-10 08:07 OP:ep   STATUS:               ID:20140205095455 L   I
 OLDACT:REG 14-02-05 08:58 OP:mh   STATUS:               ID:20140205095000     3
 2014-02-05-0950-00M.COL___288                                                 6
 STAT SP IPHASW D HRMM SECON CODA AMPLIT PERI AZIMU VELO AIN AR TRES W  DIS CAZ7
 RUS  HZ EP        955 19.44                             144    0.0510  102 171 
 RUS  HN ES        955 38.20                             144   -0.0410  102 171 
 RUS  HZ I         955 39.68         1.5 0.48            150            102 171 
 PTB  HZ EP   2    955 21.95                             134    0.25 5  139 258 
 PTB  HN ES        955 42.38                             134    0.02 9  139 258 
 ZAR  HN ES        955 51.77                             124   -0.08 9  196 293 
 SML  HZ EP        955 31.46                             118   -0.14 8  240 337 
 SML  HN ES   1    956  0.16                             118    0.18 6  240 337 
 SML  HZ I         956  3.88         3.3 0.06            121            240 337 
                                                                                
