 2014 11 5 0513 30.8 L   7.431 -73.183131.2  RSN 10 0.3 2.0LRSN                1
 GAP=112        0.77       2.7     2.8  4.2 -0.5095E+00 -0.1944E+00  0.1556E+01E
 Epicentro: EL PLAYON - SANTANDER                                              3
 ACTION:UPD 14-12-19 15:39 OP:nd   STATUS:               ID:20141105051330 L   I
 OLDACT:UP  14-11-05 16:05 OP:cam  STATUS:               ID:20141105050812d    3
 OLDACT:DUP 14-11-05 14:40 OP:cam  STATUS:               ID:20141105050812d    3
 OLDACT:UP  14-11-05 14:40 OP:cam  STATUS:               ID:20141105050811     3
 OLDACT:UP  14-11-05 14:39 OP:cam  STATUS:               ID:20141105050811     3
 OLDACT:REG 14-11-05 13:21 OP:cam  STATUS:               ID:20141105050811     3
 2014-11-05-0508-11M.COL___271                                                 6
 STAT SP IPHASW D HRMM SECON CODA AMPLIT PERI AZIMU VELO AIN AR TRES W  DIS CAZ7
 PAM  SZ EP     C  513 50.41                             156    0.2110 54.4 101 
 PAM  SN ES        514  5.52                             156    0.2110 54.4 101 
 PAM  SZ I         514  8.84        20.3 0.38            154           54.4 101 
 BRR  HZ IP     C  513 50.22                             151   -0.0410 68.5 238 
 BRR  HN ES        514  5.43                             151    0.0210 68.5 238 
 BRR  HZ I         514  7.39        37.4 0.16            149           68.5 238 
 OCA  HZ EP        513 51.86                             143   -0.0810 90.5 350 
 OCA  HN ES        514  8.50                             143    0.0810 90.5 350 
 OCA  HZ I         514 10.52        42.0 0.78            142           90.5 350 
 BAR2 SZ EP        513 51.97                             143   -0.2610 92.8 180 
 BAR2 SZ ES        514  8.35                             143   -0.5710 92.8 180 
 BAR2 SZ I         514  9.71        35.1 0.14            139           92.8 180 
 RUS  HZ EP        513 59.02                             124   -0.49 9  171 176 
 RUS  HZ I         514 21.83         3.3 0.58            121            171 176 
 RUS  HN ES        514 21.87                             124   -0.02 9  171 176 
 PTB  HZ EP        513 59.03                             124    0.01 9  172 235 
 PTB  HN ES        514 21.14                             124    0.14 9  172 235 
 PTB  HZ I         514 22.41        10.4 0.44            121            172 235 
 TAM  HZ EP        514  1.13                             121    0.29 9  189 126 
 TAM  HN ES        514 24.63                             121    0.38 9  189 126 
 TAM  HZ I         514 25.08        12.5 0.16            118            189 126 
 SPBC HZ EP        514  4.47                             117    0.28 8  220 207 
 NOR  HZ EP        514 11.20                             111    0.56 7  278 222 
 HEL  HZ EP   4    514 14.26                             110    1.50 0  293 242 
 MON  HZ EP   4    514 12.34                             108   -2.04 0  311 299 
 SDV  BZ EP        514 15.41                             108   -0.66 7  324  60 
 GUY2CHZ EP   4    514 21.10                             107    2.42 0  343 225 
 SJC  HZ EP   4    514 17.50                             106   -1.47 0  350 321 
                                                                                
