 2016  7 5 0456 14.1 L   6.753 -73.125150.5  RSN  4 0.5 1.2LRSN                1
 GAP=258        1.25       9.3    11.7 10.5 -0.1297E+02  0.2196E+02  0.1880E+02E
 Epicentro: LOS SANTOS - SANTANDER                                             3
 *CBOC-PAL-GUY2C                                                               3
 ACTION:UPD 17-03-29 16:47 OP:lp   STATUS:               ID:20160705045614 L   I
 OLDACT:UP  16-07-05 16:21 OP:dani STATUS:               ID:20160705044745d    3
 OLDACT:UP  16-07-05 16:21 OP:dani STATUS:               ID:20160705044745d    3
 OLDACT:UP  16-07-05 16:20 OP:dani STATUS:               ID:20160705044745d    3
 OLDACT:UP  16-07-05 16:19 OP:dani STATUS:               ID:20160705044745d    3
 OLDACT:DUP 16-07-05 16:16 OP:dani STATUS:               ID:20160705044745d    3
 OLDACT:REG 16-07-05 12:51 OP:dani STATUS:               ID:20160705044744     3
 2016-07-05-0447-44M.COL___322                                                 6
 STAT SP IPHASW D HRMM SECON CODA AMPLIT PERI AZIMU VELO AIN AR TRES W  DIS CAZ7
 BAR2 EZ ES        456 49.51                             173   -0.4410 18.8 200 
 BRR  HZ EP        456 36.54                             152    0.4810 75.8 301 
 BRR  HN ES        456 53.54                             152    0.3910 75.8 301 
 BRR  HZ I         456 55.14         3.0 0.18            151           75.8 301 
 PTB  HZ EP        456 41.37                             133   -0.25 9  149 261 
 PTB  HE ES        457  2.41                             133   -0.63 9  149 261 
 PTB  HZ I         457  5.08         1.5 0.34            132            149 261 
 SPBC HZ EP        456 42.40                             131   -0.37 9  161 221 
 SPBC HN ES        457  5.88                             131    0.78 9  161 221 
 SPBC HZ I         457  9.10         2.5 0.14            130            161 221 
                                                                                
