 2012  6 5 0857 41.8 L   6.800 -73.136145.6  RSN  8 0.4 2.2LRSN                1
 GAP=138        0.80       3.3     4.2  6.4 -0.1147E+01  0.1115E+02  0.1857E+01E
 Epicentro: LOS SANTOS - SANTANDER                                             3
 ACTION:UPD 12-08-06 17:47 OP:ep   STATUS:               ID:20120605085741 L   I
 2012-06-05-0850-00M.COL___201                                                 6
 STAT SP IPHASW D HRMM SECON CODA AMPLIT PERI AZIMU VELO AIN AR TRES W  DIS CAZ7
 BAR2 SZ EP        858  1.83                             170    0.4210 23.5 193 
 BAR2 SZ I         858  2.47        46.9 0.20            167           23.5 193 
 BAR2 SZ ES   1    858 16.77                             170    0.07 7 23.5 193 
 PAM  SZ EP   1    858  4.55                             151    0.60 7 76.7  39 
 PAM  SN ES        858 21.02                             151   -0.2110 76.7  39 
 PAM  SZ I         858 24.23        24.2 0.29            157           76.7  39 
 RUS  HZ EP        858  5.69                             144    0.1710  101 177 
 RUS  HN ES   1    858 23.82                             144   -0.21 7  101 177 
 RUS  HZ I         858 25.12        11.4 0.30            146            101 177 
 PTB  HZ EP   1    858  8.32                             132   -0.53 7  149 259 
 PTB  HN ES   1    858 29.52                             132   -0.43 7  149 259 
 PTB  HZ I         858 37.10        24.7 0.31            131            149 259 
 OCA  HZ EP   1    858 10.14                             129    0.03 7  160 353 
 OCA  HN ES   1    858 31.53                             129   -0.66 7  160 353 
 OCA  HZ I         858 38.77        35.8 0.22            132            160 353 
 ZAR  HZ EP   1    858 14.45                             122    0.11 6  205 292 
 ZAR  HN ES   1    858 40.38                             122    0.66 6  205 292 
 ZAR  HZ I         858 46.09        32.6 0.26            123            205 292 
 CHI  HZ EP   1    858 19.02                             117   -0.50 6  249 195 
 CHI  HN ES   1    858 48.81                             117   -0.13 6  249 195 
 CHI  HZ I         858 59.35         6.0 0.35            119            249 195 
 HEL  HZ EP   1    858 21.68                             114   -0.44 6  273 256 
 HEL  HN ES   1    858 54.09                             114    0.52 6  273 256 
 HEL  HZ I         859  1.06        12.4 0.35            116            273 256 
                                                                                
