 2017 12 5 0049  1.2 L   6.744 -73.166147.3  RSN  6 0.4 1.1LRSN                1
 GAP=136        0.90       6.1     5.0  7.5  0.8895E+01  0.4323E+01 -0.8856E+01E
 Epicentro: LOS SANTOS - SANTANDER                                             3
 ACTION:UPD 18-01-04 13:17 OP:rebc STATUS:               ID:20171205004901 L   I
 OLDACT:DUP 17-12-05 14:41 OP:e    STATUS:               ID:20171205003744d    3
 2017-12-05-0038-00M.COL___494                                                 6
 STAT SP IPHASW D HRMM SECON CODA AMPLIT PERI AZIMU VELO AIN AR TRES W  DIS CAZ7
 BAR2 EZ ES        049 36.24                             173   -0.0610 16.9 186 
 PAM  EZ EP        049 23.99                             149    0.0010 83.6  38 
 PAM  EN EP        049 24.06                                           83.6  38 
 RUS  HZ EP        049 24.16                             146   -0.5610 94.6 174 
 RUS  HN ES        049 43.45                             146    0.4110 94.6 174 
 RUS  HZ I         049 43.97         2.6 0.30            146           94.6 174 
 PTB  HZ EP        049 28.18                             133    0.15 9  144 261 
 PTB  HN ES        049 48.42                             133   -0.51 9  144 261 
 PTB  HZ I         049 51.63         1.5 0.30            133            144 261 
 SPBC HE EP        049 29.57                             131    0.30 9  157 220 
 ZAR  HN ES        049 59.59                             123    0.37 9  204 294 
                                                                                
