 2012  3 5 0145 53.7 L   7.009 -73.237119.9  RSN  4 0.1 1.4LRSN                1
 GAP=250        0.42       4.3     4.2  6.2  0.7901E+01 -0.6123E-01  0.2413E+01E
 ACTION:UP  12-03-31 23:17 OP:EP   STATUS:               ID:20120305014553 L   I
 2012-03-05-0140-00M.COL___191                                                 6
 STAT SP IPHASW D HRMM SECON CODA AMPLIT PERI AZIMU VELO SNR AR TRES W  DIS CAZ7
 BAR2 SZ EP   1    146 11.24                             158     0.2 7   47 173 
 BAR2 SZ I         146 27.81        16.0 0.25                            47 173 
 BRR  HZ EP   1    146 10.94                             154    -0.1 7   54 282 
 BRR  HZ I         146 11.99         9.1 0.15                            54 282 
 BRR  HN ES   1    146 24.53                             154     0.0 7   54 282 
 RUS  HN ES   1    146 35.23                             131    -0.1 7  125 172 
 RUS  HZ I         146 39.00         1.7 0.35                           125 172 
 PTB  HZ EP   1    146 18.21                             126    -0.1 7  145 249 
 PTB  HN ES   1    146 37.69                             126     0.1 7  145 249 
 PTB  HZ I         146 40.92         0.0 0.14                           145 249 
                                                                                
