 2013  4 5 0048 33.8 L   6.765 -73.160145.5  RSN  7 0.4 1.5LRSN                1
 GAP=181        0.97       5.2     6.7  7.7  0.4879E+01  0.9257E+01  0.3770E+01E
 Epicentro: LOS SANTOS - SANTANDER                                             3
 ACTION:UPD 13-05-22 14:35 OP:EP   STATUS:               ID:20130405004833 L   I
 2013-04-05-0047-48M.COL___218                                                 6
 STAT SP IPHASW D HRMM SECON CODA AMPLIT PERI AZIMU VELO AIN AR TRES W  DIS CAZ7
 BAR2 SZ ES   1    049  8.20                             172   -0.37 7 19.3 187 
 BAR2 SZ I         049  9.39        23.1 0.28            170           19.3 187 
 GIR2 SZ EP        048 53.47                             166   -0.0910 34.9 354 
 GIR2 SZ ES   1    049  8.26                             166   -0.70 7 34.9 354 
 GIR2 SZ I         049 10.40         6.1 0.34            168           34.9 354 
 BRR  HZ EP        048 55.24                             152    0.2710 71.7 302 
 BRR  HE ES        049 12.23                             152    0.7610 71.7 302 
 RUS  HZ EP        048 57.61                             145    0.3310 96.9 175 
 RUS  HE ES   1    049 15.54                             145   -0.04 7 96.9 175 
 RUS  HZ I         049 17.70         2.7 0.66            145           96.9 175 
 PTB  HZ EP        049  0.10                             132   -0.46 9  145 260 
 PTB  HN ES   1    049 20.96                             132   -0.46 7  145 260 
 PTB  HZ I         049 26.03         3.7 0.15            132            145 260 
 NOR  HN ES   1    049 36.85                             119    0.13 6  231 235 
 SML  HN ES   1    049 39.38                             117   -0.16 6  247 336 
                                                                                
