 2011  9 5 0821  3.6 L   6.800 -73.063149.2  RSN 21 0.3 3.5LRSN                1
 GAP=122        0.48       1.9     2.8  3.3 -0.6159E+00  0.2044E+01  0.1905E+01E
 Epicentro: LOS SANTOS - SANTANDER                                             3
 ACTION:UPD 12-07-13 15:55 OP:ep   STATUS:               ID:20110905082103 L   I
 2011-09-05-0818-12S.COL___171                                                 6
 STAT SP IPHASW D HRMM SECON CODA AMPLIT PERI AZIMU VELO AIN AR TRES W  DIS CAZ7
 SAN  SZ EP   2    821 24.00                             178    0.60 5 4.04 196 
 SAN  SZ ES   2    821 39.06                             178    0.25 5 4.04 196 
 BAR2 SZ IP        821 23.60                             170   -0.1410 26.5 210 
 BAR2 SZ ES   2    821 39.19                             170   -0.23 5 26.5 210 
 BAR2 SZ I         821 42.17       733.3 0.72                          26.5 210 
 GIR2 SZ IP        821 23.67                             167   -0.1210 34.0 335 
 GIR2 SZ ES   2    821 39.14                             167   -0.36 5 34.0 335 
 PAM  SZ IP        821 26.39                             153    0.4910 71.9  34 
 PAM  SN ES   2    821 42.88                             153   -0.39 5 71.9  34 
 BRR  HZ IP        821 25.48                             150   -0.1410 79.3 295 
 BRR  HE ES   1    821 43.04                             150    0.27 7 79.3 295 
 BRR  HZ I         821 45.64       489.0 0.27                          79.3 295 
 RUS  HZ EP   1    821 27.50                             145   -0.21 7  100 181 
 RUS  HE ES   2    821 46.31                             145   -0.17 5  100 181 
 RUS  HZ I         821 47.99       378.8 0.37                           100 181 
 OCA  SZ EP   1    821 32.00                             130   -0.34 7  162 350 
 OCA  SZ ES   2    821 54.96                             130    0.24 5  162 350 
 YOP  SZ EP   2    821 33.39                             128   -0.16 4  175 156 
 YOP  SE ES   2    821 57.42                             128    0.54 4  175 156 
 ZAR  HZ EP   2    821 37.18                             122    0.01 4  213 291 
 ZAR  HN ES   2    822  2.79                             122   -0.54 4  213 291 
 ZAR  HZ I         822  8.03       459.3 0.47                           213 291 
 NOR  SE ES   2    822  9.09                             118    0.09 4  242 236 
 CHI  HZ EP   1    821 41.49                             117   -0.31 6  251 197 
 CHI  HE ES   2    822 11.64                             117    0.08 4  251 197 
 CHI  HZ I         822 19.11       148.0 0.40                           251 197 
 ROSC BZ EP   1    821 42.78                             117    0.32 6  258 213 
 ROSC BN ES   2    822 12.27                             117   -0.48 4  258 213 
 ROSC BZ I         822 17.30       271.0 0.32                           258 213 
 HEL  HZ EP   2    821 45.38                             115    0.38 4  281 256 
 HEL  HE ES   2    822 17.81                             115    0.55 4  281 256 
 HEL  HZ I         822 21.76       159.7 0.52                           281 256 
 VIL  SZ EP   2    821 47.13                             112   -0.30 4  305 193 
 VIL  SN ES   2    822 21.47                             112   -0.12 4  305 193 
 VIL  SZ I         822 29.20        87.7 0.83                           305 193 
 RREF HZ EP   1    821 50.28                             111   -0.44 5  329 230 
 RREF HN ES   2    822 27.86                             111    0.42 3  329 230 
 RREF HZ I         822 35.17       156.8 0.28                           329 230 
 DBB  SZ EP   2    821 52.25                             109   -0.04 3  349 274 
 COD  HZ EP   2    821 52.12                             109   -0.14 3  349 353 
 TOL  SZ EP   1    821 52.92                             109    0.15 5  350 226 
 ANIL HZ EP   1    821 54.75                             109    0.44 5  364 226 
 ANIL HN ES   2    822 33.84                             109    0.00 3  364 226 
 ANIL HZ I         822 40.20       324.9 0.49                           364 226 
 PRA  HZ EP   2    821 57.90                             107    0.09 3  397 211 
 PRA  HN ES   2    822 40.16                             107    0.10 3  397 211 
 SJA  SZ ES   2    822 41.08                             107   -0.31 3  402 194 
                                                                                
