 2014 12 5 0541  9.6 L   6.798 -73.139146.6  RSN  7 0.4 1.7LRSN                1
 GAP=153        1.03       4.3     4.8  6.8 -0.4437E+01  0.7491E+01 -0.3209E+01E
 Epicentro: LOS SANTOS - SANTANDER                                             3
 ACTION:UPD 15-02-10 17:00 OP:nd   STATUS:               ID:20141205054109 L   I
 OLDACT:REG 14-12-05 12:45 OP:fm   STATUS:               ID:20141205053746     3
 2014-12-05-0537-46M.COL___294                                                 6
 STAT SP IPHASW D HRMM SECON CODA AMPLIT PERI AZIMU VELO AIN AR TRES W  DIS CAZ7
 BAR2 SZ EP        541 29.28                             171   -0.0510 23.2 192 
 BAR2 SZ ES        541 44.83                             171    0.1110 23.2 192 
 BAR2 SZ I         541 46.58         7.4 0.28            173           23.2 192 
 BRR  HZ EP        541 31.27                             152    0.3810 72.0 298 
 BRR  HN ES        541 48.16                             152    0.6710 72.0 298 
 BRR  HZ I         541 51.11         9.3 0.32            152           72.0 298 
 PAM  SZ EP        541 32.23                             151    0.3410 77.1  39 
 PAM  SN ES        541 48.61                             151   -0.6710 77.1  39 
 PAM  SZ I         541 51.27         9.9 0.68            152           77.1  39 
 PTB  HZ EP        541 36.39                             132   -0.31 9  148 259 
 PTB  HN ES        541 57.29                             132   -0.55 9  148 259 
 PTB  HZ I         541 58.73         3.2 0.14            134            148 259 
 SPBC HZ EP        541 38.67                             129    0.48 9  163 219 
 SPBC HE ES        542  0.25                             129   -0.24 9  163 219 
 SPBC HZ I         542  1.07         5.3 0.20            132            163 219 
 ZAR  HN ES        542  7.58                             122   -0.02 9  205 292 
 SML  HZ EP        541 45.90                             117   -0.43 8  244 335 
 SML  HN ES        542 15.09                             117    0.10 8  244 335 
 SML  HZ I         542 18.65         7.7 0.10            119            244 335 
                                                                                
