 2011 11 5 0143  6.6 L   6.525 -73.497113.3  RSN  4 0.2 1.2LRSN                1
 GAP=193        0.51       4.8     6.1  5.8  0.1785E+02  0.1067E+02  0.7170E+01E
 Epicentro: EL CARMEN DE CHUCURI - SANTANDER                                   3
 ACTION:UPD 12-07-13 16:08 OP:ep   STATUS:               ID:20111105014306 L   I
 2011-11-05-0141-40S.COL___175                                                 6
 STAT SP IPHASW D HRMM SECON CODA AMPLIT PERI AZIMU VELO AIN AR TRES W  DIS CAZ7
 BAR2 SZ EP        143 22.99                             161    0.2810 35.6  78 
 BAR2 SZ ES        143 35.34                             161    0.0410 35.6  78 
 BAR2 SZ I         143 36.87         9.6 0.38                          35.6  78 
 BRR  HZ EP        143 23.94                             147   -0.2010 68.6 340 
 BRR  HZ I         143 32.13         5.0 0.12                          68.6 340 
 BRR  HN ES        143 37.85                             147    0.0110 68.6 340 
 RUS  HZ EP   2    143 26.11                             141    0.19 5 83.6 147 
 RUS  HE ES   2    143 40.55                             141   -0.46 5 83.6 147 
 RUS  HZ I         143 42.81         2.0 0.39                          83.6 147 
 PAM  SN ES   2    143 47.25                             129   -0.29 5  126  44 
                                                                                
