 2015 11 5 0429 29.6 L   7.503 -73.041154.9  RSN  5 0.3 1.3LRSN                1
 GAP=136        0.80       4.5     4.4  6.5  0.2171E+01  0.7387E+01 -0.2919E+01E
 Epicentro: SURATA - SANTANDER                                                 3
 ACTION:UPD 15-12-28 16:08 OP:cam  STATUS:               ID:20151105042929 L   I
 OLDACT:UP  15-11-05 18:13 OP:ak   STATUS:               ID:20151105042638     3
 OLDACT:UP  15-11-05 18:06 OP:ak   STATUS:               ID:20151105042638     3
 OLDACT:REG 15-11-05 18:01 OP:ak   STATUS:               ID:20151105042638     3
 2015-11-05-0426-38M.COL___310                                                 6
 STAT SP IPHASW D HRMM SECON CODA AMPLIT PERI AZIMU VELO AIN AR TRES W  DIS CAZ7
 PAM  EZ EP        429 51.09                             164   -0.0610 41.8 116 
 PAM  EE ES        430  7.78                             164   -0.2110 41.8 116 
 PAM  EZ I         430  8.30         2.3 0.22            166           41.8 116 
 BRR  HZ EP        429 52.79                             149    0.2210 86.1 239 
 BRR  HN ES        430 10.34                             149   -0.1810 86.1 239 
 BRR  HZ I         430 12.94         4.0 0.18            148           86.1 239 
 OCA  HZ EP        429 53.32                             149    0.4710 86.9 339 
 OCA  HN ES        430 11.33                             149    0.3210 86.9 339 
 SML  HZ EP   1    429 59.99                             127   -0.53 7  183 322 
 SML  HE ES        430 24.17                             127   -0.50 9  183 322 
 ZAR  HZ EP   1    430  2.01                             125   -0.26 6  201 270 
 ZAR  HN ES        430 28.02                             125    0.24 9  201 270 
 ZAR  HZ I         430 30.65         2.7 0.17            125            201 270 
                                                                                
