 2013  1 5 0311 15.4 L   6.863 -73.262131.8  RSN  6 0.4 2.1LRSN                1
 GAP=166        1.03       4.3     5.3  7.5  0.7395E+01  0.8221E+01 -0.1587E+01E
 Epicentro: ZAPATOCA - SANTANDER                                               3
 ACTION:UPD 13-02-15 09:12 OP:ep   STATUS:               ID:20130105031115 L   I
 2013-01-05-0309-38M.COL___202                                                 6
 STAT SP IPHASW D HRMM SECON CODA AMPLIT PERI AZIMU VELO AIN AR TRES W  DIS CAZ7
 BAR2 SZ EP        311 34.15                             166    0.5710 31.2 164 
 BAR2 SZ ES        311 47.73                             166   -0.0210 31.2 164 
 BAR2 SZ I         311 48.54        28.0 0.30            167           31.2 164 
 BRR  HZ EP        311 34.67                             155    0.4110 56.6 299 
 BRR  HN ES        311 49.08                             155    0.1210 56.6 299 
 BRR  HN I         311 49.60        39.9 0.30            153           56.6 299 
 RUS  HZ EP        311 38.72                             138    0.2110  109 170 
 RUS  HN ES        311 55.98                             138   -0.5210  109 170 
 RUS  HN I         311 57.89         6.2 0.22            139            109 170 
 PTB  HZ EP        311 39.49                             131   -0.78 9  137 255 
 PTB  HN ES        311 59.91                             131    0.27 9  137 255 
 PTB  HN I         312  1.65        19.0 0.18            130            137 255 
 OCA  HN ES        312  2.19                             128   -0.39 9  152 358 
 OCA  HN I         312  3.31        50.1 0.22            128            152 358 
 ZAR  HZ EP        311 45.65                             121    0.18 9  190 292 
 ZAR  HN ES        312  8.75                             121   -0.16 9  190 292 
 ZAR  HN I         312 15.02         7.7 0.12            121            190 292 
                                                                                
