 2015  1 5 0519 59.2 L   6.783 -73.153148.5  RSN 10 0.4 2.0LRSN                1
 GAP=136        1.07       3.3     4.3  6.1 -0.3314E+00  0.6712E+01  0.2058E+01E
 Epicentro: LOS SANTOS - SANTANDER                                             3
 ACTION:UPD 15-03-02 15:36 OP:nd   STATUS:               ID:20150105051959 L   I
 OLDACT:UP  15-01-05 15:22 OP:cam  STATUS:               ID:20150105051811     3
 OLDACT:REG 15-01-05 14:19 OP:cam  STATUS:               ID:20150105051811     3
 2015-01-05-0518-11M.COL___277                                                 6
 STAT SP IPHASW D HRMM SECON CODA AMPLIT PERI AZIMU VELO AIN AR TRES W  DIS CAZ7
 BAR2 EZ EP        520 19.05                             171   -0.1010 21.3 189 
 BAR2 EZ ES        520 34.53                             171   -0.1610 21.3 189 
 BAR2 EZ I         520 36.73        20.4 0.26            168           21.3 189 
 BRR  HZ EP     C  520 20.93                             153    0.2410 71.4 300 
 BRR  HN ES        520 38.28                             153    0.8610 71.4 300 
 BRR  HZ I         520 41.13         8.5 0.16            150           71.4 300 
 PAM  SZ IP     D  520 21.95                             151    0.1010 79.3  39 
 PAM  SN ES        520 39.23                             151   -0.2610 79.3  39 
 PAM  SZ I         520 41.19        12.9 0.46            156           79.3  39 
 RUS  HZ EP        520 22.98                             145   -0.1410 98.8 176 
 RUS  HN ES        520 41.31                             145   -0.4510 98.8 176 
 RUS  HZ I         520 42.84         7.3 0.42            146           98.8 176 
 PTB  HZ EP        520 26.02                             133   -0.30 9  147 259 
 PTB  HN ES        520 46.74                             133   -0.71 9  147 259 
 PTB  HZ I         520 54.57        12.5 0.42            132            147 259 
 SPBC HZ EP        520 27.95                             130    0.19 9  161 219 
 SPBC HN ES        520 50.77                             130    0.76 9  161 219 
 SPBC HZ I         520 56.88        19.5 0.44            130            161 219 
 ZAR  HZ EP        520 31.71                             123   -0.14 9  204 293 
 ZAR  HE ES        520 57.40                             123    0.10 9  204 293 
 ZAR  HZ I         521  7.97        10.1 0.36            123            204 293 
 NOR  HZ EP   1    520 34.82                             119   -0.11 6  233 235 
 NOR  HN ES        521  2.01                             119   -0.77 8  233 235 
 NOR  HZ I         521  6.69         8.0 0.34            120            233 235 
 SML  HN ES        521  4.95                             118   -0.01 8  245 336 
 SML  HZ I         521  7.57        17.3 0.24            120            245 336 
 CHI  HZ EP        520 37.13                             118    0.27 8  247 195 
 CHI  HE ES        521  6.86                             118    0.64 8  247 195 
 CHI  HZ I         521 15.07         3.4 0.66            119            247 195 
 ROSC BZ EP   4    520 39.04                             117    1.76 0  251 211 
 HEL  HZ EP   4    520 41.26                             115    1.81 0  271 256 
 MON  HZ EP   4    520 46.21                             109   -2.19 0  354 309 
 PAL  HZ EP   4    520 53.62                             106   -0.67 0  404 239 
                                                                                
