 2010 11 5 0431 53.4 L   6.731 -73.141138.4  RSN  5 0.3 2.0LRSN                1
 GAP=181        0.68       7.6     9.9  8.5 -0.1877E+02 -0.9667E+01 -0.2615E+02E
 Epicentro: JORDAN - SANTANDER                                                 3
 ACTION:UP  10-12-17 16:50 OP:REBC STATUS:               ID:20101105043153 L   I
 2010-11-05-0430-09S.COL___129                                                 6
 STAT SP IPHASW D HRMM SECON CODA AMPLIT PERI AZIMU VELO SNR AR TRES W  DIS CAZ7
 BAR2 SZ IP        432 12.10                             173     0.110   16 197 
 BAR2 SZ ES   1    432 26.35                             173    -0.1 7   16 197 
 BAR2 SZ I         432 28.28        14.2 0.25                            16 197 
 GIR2 SZ EP   1    432 12.08                             163    -0.3 7   39 351 
 BRR  HZ EP        432 13.90                             150    -0.110   76 303 
 BRR  HE ES   2    432 30.30                             150     0.2 5   76 303 
 BRR  HZ I         432 34.98        28.3 0.14                            76 303 
 GUE  SZ EP   2    432 17.27                             136    -0.7 5  124  11 
 GRA  SZ EP        432 18.93                             133     0.410  133  16 
 GRA  SZ ES   2    432 38.24                             133     0.0 5  133  16 
 GRA  SZ I         432 39.47        13.2 0.37                           133  16 
                                                                                
