 2014 11 5 0036 22.2 L   6.802 -73.147148.7  RSN 18 0.4 2.5LRSN                1
 GAP= 71        0.99       2.9     2.7  4.8 -0.1433E+01  0.3670E+01  0.2071E+01E
 Epicentro: LOS SANTOS - SANTANDER                                             3
 ACTION:UPD 14-12-19 15:39 OP:nd   STATUS:               ID:20141105003622 L   I
 OLDACT:UP  14-11-05 13:43 OP:cam  STATUS:               ID:20141105002815     3
 OLDACT:UP  14-11-05 13:42 OP:cam  STATUS:               ID:20141105002815     3
 OLDACT:UP  14-11-05 13:42 OP:cam  STATUS:               ID:20141105002815     3
 OLDACT:REG 14-11-05 12:46 OP:cam  STATUS:               ID:20141105002815     3
 2014-11-05-0028-15M.COL___273                                                 6
 STAT SP IPHASW D HRMM SECON CODA AMPLIT PERI AZIMU VELO AIN AR TRES W  DIS CAZ7
 BAR2 SZ EP     D  036 42.15                             171   -0.0410 23.5 189 
 BAR2 SZ ES        036 57.12                             171   -0.6610 23.5 189 
 BAR2 SZ I         036 58.67       104.2 0.20            169           23.5 189 
 BRR  HZ IP     D  036 43.99                             153    0.3410 70.9 298 
 BRR  HN ES        037  1.09                             153    0.7010 70.9 298 
 BRR  HZ I         037  3.66        32.9 0.30            150           70.9 298 
 PAM  SZ IP     D  036 44.90                             151    0.1710 77.4  40 
 PAM  SN ES        037  2.22                             151   -0.0810 77.4  40 
 PAM  SZ I         037  4.62        38.0 0.60            154           77.4  40 
 RUS  HZ EP     C  036 46.03                             144   -0.2210  101 176 
 RUS  HN ES        037  4.99                             144   -0.0310  101 176 
 RUS  HZ I         037  5.98        40.2 0.26            145            101 176 
 PTB  HZ EP        036 48.71                             133   -0.68 9  148 259 
 PTB  HN ES        037 10.12                             133   -0.49 9  148 259 
 PTB  HZ I         037 17.27        32.6 0.40            131            148 259 
 TAM  HZ EP     D  036 50.37                             131    0.24 9  155 105 
 TAM  HN ES        037 12.34                             131    0.42 9  155 105 
 TAM  HN I         037 13.01        60.1 0.32            135            155 105 
 OCA  HZ EP        036 49.86                             130   -0.86 9  160 353 
 OCA  HN ES        037 13.18                             130    0.21 9  160 353 
 OCA  HZ I         037 16.92        24.9 0.34            131            160 353 
 SPBC HZ IP     D  036 51.17                             130    0.24 9  163 219 
 SPBC HN ES        037 13.36                             130    0.03 9  163 219 
 SPBC HZ I         037 15.84        61.8 0.22            129            163 219 
 NOR  HZ EP        036 58.37                             119    0.28 8  235 234 
 NOR  HN ES        037 26.44                             119    0.35 8  235 234 
 NOR  HZ I         037 29.63        23.9 0.30            119            235 234 
 CHI  HZ EP        037  0.11                             118    0.04 8  249 195 
 CHI  HN ES        037 29.22                             118   -0.40 8  249 195 
 CHI  HZ I         037 35.43        11.0 0.64            118            249 195 
 ROSC BZ EP   4    037  1.94                             117    1.45 0  253 211 
 ROSC BN ES   4    037 32.90                             117    2.55 0  253 211 
 ROSC BZ I         037 37.04        33.5 0.45            118            253 211 
 HEL  HZ EP        037  2.76                             115    0.21 8  272 256 
 HEL  HN ES        037 34.58                             115    0.56 8  272 256 
 HEL  HZ I         037 41.12        14.9 0.34            115            272 256 
 URE  HZ EP   4    037  2.05                             114   -1.34 0  284 292 
 URE  HN ES   4    037 32.97                             114   -2.54 0  284 292 
 URE  HN I         037 48.60        28.0 0.26            114            284 292 
 GUY2CHZ EP   4    037  7.69                             113    1.75 0  301 235 
 GUY2CHN ES        037 40.70                             113    0.65 7  301 235 
 GUY2CHZ I         037 46.42        15.4 0.24                           301 235 
 CBOC HZ EP        037  9.88                             110    0.66 7  333 252 
 CBOC HN ES        037 45.73                             110   -0.17 7  333 252 
 CBOC HZ I         037 55.84         5.1 0.46            110            333 252 
 DBB  SZ EP        037  9.54                             110   -0.23 7  339 274 
 DBB  SZ ES        037 46.34                             110   -0.54 7  339 274 
 DBB  SZ I         037 49.93        31.6 0.64            110            339 274 
 TOL  SZ EP   4    037 11.82                             110    1.25 0  343 225 
 TOL  SE ES   4    037 46.56                             110   -1.74 0  343 225 
 TOL  SZ I         037 54.35        26.1 0.24            110            343 225 
 SDV  BZ EP   4    037 11.18                             109   -1.18 0  360  50 
 PRA  HZ EP        037 15.28                             107   -0.55 6  392 210 
 PRA  HN ES        037 57.50                             107   -0.16 6  392 210 
 PRA  HZ I         038  4.25        14.2 0.38            107            392 210 
                                                                                
