 2011  3 5 0509  2.7 L   6.782 -73.380140.0  RSN  4 0.3 1.6LRSN                1
 GAP=173        0.45       3.9    25.7  9.0  0.3448E+02  0.1448E+03  0.1060E+02E
 Epicentro: ZAPATOCA - SANTANDER                                               3
 ACTION:UP  11-06-16 14:31 OP:jfem STATUS:               ID:20110305050905 L   I
 2011-03-05-0506-00S.COL___132                                                 6
 STAT SP IPHASW D HRMM SECON CODA AMPLIT PERI AZIMU VELO SNR AR TRES W  DIS CAZ7
 BAR2 SZ EP        5 9 21.79                             168     0.010   30 134 
 BAR2 SZ I         5 9 22.11        10.0 0.10                            30 134 
 BAR2 SZ ES   2    5 9 36.79                             168     0.1 5   30 134 
 RUS  HZ EP        5 9 26.02                             142    -0.110  104 162 
 RUS  HN ES   2    5 9 44.51                             142     0.1 5  104 162 
 RUS  HZ I         5 9 45.95         4.5 0.37                           104 162 
 OCA  SZ EP   3    5 9 30.06                             128    -0.6 2  161   2 
 OCA  SZ ES   2    5 9 52.55                             128     0.1 5  161   2 
 CHI  HZ EP   2    5 9 39.78                             117     0.5 4  241 189 
 CHI  HN ES   3    510  6.76                             117    -1.0 2  241 189 
 CHI  HZ I         510 17.47         3.3 0.45                           241 189 
                                                                                
