 2010  6 5 0635 51.2 L   6.772 -73.017144.1  RSN  6 0.4 1.6LRSN                1
 GAP=212        0.70       8.0    16.0  9.8 -0.7259E+02  0.2693E+02 -0.1018E+02E
 Epicentro: CEPITA - SANTANDER                                                 3
 ACTION:UP  10-08-24 10:08 OP:vdl  STATUS:               ID:20100605063551 L   I
 2010-06-05-0632-02S.COL___109                                                 6
 STAT SP IPHASW D HRMM SECON CODA AMPLIT PERI AZIMU VELO SNR AR TRES W  DIS CAZ7
 BAR2 SZ EP   2    636 10.58                             169    -0.2 5   27 223 
 BAR2 SZ ES   2    636 26.02                             169     0.1 5   27 223 
 GIR2 SZ EP   2    636 10.57                             164    -0.4 5   39 330 
 GUE  SZ EP   1    636 16.48                             139     0.6 8  117   5 
 GRA  SZ IP        636 16.32                             136     0.010  125  11 
 GRA  SZ ES   1    636 35.52                             136    -0.3 7  125  11 
 OCA  SZ EP   2    636 19.01                             128    -0.9 5  166 348 
 OCA  SZ I         636 36.89         4.1 0.38                           166 348 
 OCA  SZ ES   2    636 42.54                             128     0.3 5  166 348 
 HEL  HZ EP   2    636 32.89                             113     0.1 4  285 257 
 HEL  HZ I         637  8.97         1.9 0.19                           285 257 
                                                                                
