 2013  3 5 0817 27.3 L   6.835 -73.114151.0  RSN  9 0.5 1.7LRSN                1
 GAP=139        1.08       4.5     6.0  8.4  0.3903E+01  0.3992E+01 -0.5423E+01E
 Epicentro: LOS SANTOS - SANTANDER                                             3
 ACTION:UPD 13-04-09 13:59 OP:ep   STATUS:               ID:20130305081727 L   I
 2013-03-05-0810-00M.COL___228                                                 6
 STAT SP IPHASW D HRMM SECON CODA AMPLIT PERI AZIMU VELO AIN AR TRES W  DIS CAZ7
 BAR2 SZ EP        817 47.72                             169    0.0310 27.9 196 
 BAR2 SZ ES   1    818  2.75                             169   -0.82 7 27.9 196 
 BAR2 SZ I         818  4.22        17.0 0.32            166           27.9 196 
 PAM  SZ EP        817 50.32                             153    0.5110 72.1  39 
 BRR  HZ EP        817 49.44                             153    0.3110 72.6 294 
 BRR  HE ES   1    818  6.81                             153    0.68 7 72.6 294 
 BRR  HZ I         818  9.86         7.6 0.28            150           72.6 294 
 RUS  HN EP   1    817 52.33                             144    0.47 7  104 178 
 RUS  HE ES   1    818 10.49                             144   -0.51 7  104 178 
 RUS  HN I         818 12.32         8.4 0.30            144            104 178 
 PTB  HZ EP        817 54.58                             132   -0.53 9  152 258 
 PTB  HE ES   1    818 17.04                             132    0.26 7  152 258 
 ZAR  HN ES   1    818 26.79                             123    0.75 6  206 291 
 SML  HN EP        818  3.21                             119   -0.83 8  242 334 
 SML  HE ES        818 32.35                             119   -0.32 8  242 334 
 CHI  HZ EP   1    818  6.08                             118    0.25 6  253 196 
 CHI  HN ES   1    818 36.04                             118    0.18 6  253 196 
 HEL  HZ EP   1    818  8.65                             115    0.35 6  276 255 
 HEL  HN ES   1    818 39.49                             115   -0.77 6  276 255 
 HEL  HZ I         818 48.69         2.3 0.36            115            276 255 
                                                                                
