 2017  5 5 0031  9.8 L   6.691 -73.170146.0  RSN  5 0.4 1.1LRSN                1
 GAP=138        0.95       6.0     5.4  9.4  0.1304E+02 -0.8666E+01 -0.1358E+02E
 Epicentro: VILLANUEVA - SANTANDER                                             3
 ACTION:UPD 17-06-16 13:33 OP:jn   STATUS:               ID:20170505003109 L   I
 OLDACT:UP  17-05-05 13:26 OP:edw  STATUS:               ID:20170505002739     3
 OLDACT:REG 17-05-05 11:49 OP:edw  STATUS:               ID:20170505002739     3
 2017-05-05-0028-00M.COL___367                                                 6
 STAT SP IPHASW D HRMM SECON CODA AMPLIT PERI AZIMU VELO AIN AR TRES W  DIS CAZ7
 BRR  HZ EP        031 31.17                             151   -0.0110 75.5 308 
 BRR  HN ES        031 48.37                             151    0.4810 75.5 308 
 PAM  EZ IP     C  031 32.27                             147   -0.4310 88.6  36 
 RUS  HZ EP        031 32.90                             147    0.1910 88.8 174 
 RUS  HN ES        031 50.53                             147   -0.0910 88.8 174 
 RUS  HZ I         031 52.83         1.9 0.42            145           88.8 174 
 PTB  HZ EP        031 36.87                             133    0.54 9  143 263 
 PTB  HN ES        031 56.51                             133   -0.55 9  143 263 
 PTB  HZ I         032  3.62         1.5 0.38            131            143 263 
 ZAR  HN ES        032  7.80                             122   -0.18 8  206 296 
                                                                                
