 2014  4 5 0520 27.0 L   6.316 -73.504117.2  RSN 14 0.5 1.9LRSN                1
 GAP= 97        1.00       3.0     3.9  7.8 -0.6305E+01  0.1436E+02 -0.9148E+01E
 Epicentro: CONTRATACION - SANTANDER                                           3
 ACTION:UPD 14-05-13 23:06 OP:nd   STATUS:               ID:20140405052027 L   I
 OLDACT:UP  14-04-05 14:49 OP:cam  STATUS:               ID:20140405051813     3
 OLDACT:REG 14-04-05 13:12 OP:cam  STATUS:               ID:20140405051813     3
 2014-04-05-0518-13M.COL___244                                                 6
 STAT SP IPHASW D HRMM SECON CODA AMPLIT PERI AZIMU VELO AIN AR TRES W  DIS CAZ7
 RUS  HZ EP        520 45.45                             149   -0.0410 66.1 135 
 RUS  HE ES        520 59.21                             149   -0.7210 66.1 135 
 SPBC HZ EP        520 46.64                             137   -0.5210 96.6 221 
 SPBC HN ES        521  3.44                             137    0.5310 96.6 221 
 SPBC HZ I         521 10.28        11.1 0.26            140           96.6 221 
 PTB  HZ EP   4    520 46.56                             134   -1.48 0  108 283 
 PTB  HN ES   4    521  2.21                             134   -2.26 0  108 283 
 PTB  HZ I         521  4.50        19.5 0.14            135            108 283 
 PAM  SZ EP        520 52.46                             126    0.43 9  144  38 
 PAM  SN ES        521 11.97                             126    0.40 9  144  38 
 PAM  SZ I         521 13.73        10.3 0.26            128            144  38 
 NOR  HZ EP   4    520 52.46                             120   -1.93 0  173 241 
 NOR  HN ES        521 15.60                             120   -0.17 9  173 241 
 NOR  HZ I         521 18.66         7.9 0.14            122            173 241 
 CHI  HZ EP   1    520 56.49                             118   -0.04 7  188 188 
 CHI  HN ES        521 19.80                             118    0.23 9  188 188 
 CHI  HZ I         521 25.27         6.0 0.38            121            188 188 
 ZAR  HZ EP   1    520 56.22                             116   -0.88 6  198 311 
 ZAR  HE ES   4    521 18.59                             116   -2.01 0  198 311 
 OCA  HZ EP   1    520 59.81                             114    0.82 6  214   5 
 OCA  HN ES        521 23.91                             114   -0.05 8  214   5 
 OCA  HZ I         521 32.46         8.6 0.34            116            214   5 
 HEL  HZ EP   1    521  0.45                             113   -0.02 6  224 267 
 HEL  HN ES        521 26.73                             113    0.13 8  224 267 
 HEL  HZ I         521 29.62         4.9 0.26            115            224 267 
 GUY2CHZ EP   1    521  1.81                             111   -0.42 6  239 240 
 GUY2CHN ES   4    521 31.08                             111    1.36 0  239 240 
 GUY2CHZ I         521 35.37         4.3 0.24                           239 240 
 RREF HZ EP   1    521  4.19                             110   -0.34 6  257 233 
 RREF HN ES        521 34.46                             110    0.64 8  257 233 
 RREF HZ I         521 38.26         7.3 0.32            112            257 233 
 SML  HZ EP   1    521  6.34                             107   -0.24 6  282 347 
 SML  HE ES   1    521 36.96                             107   -0.50 6  282 347 
 SML  HZ I         521 47.99        12.5 0.24            109            282 347 
 PRA  HN ES   1    521 46.09                             104   -0.68 5  326 208 
 ORTC HN ES        521 48.01                             104    0.64 7  329 216 
                                                                                
