 2013  4 5 0804 26.2 L   6.793 -73.163144.8  RSN  9 0.5 1.6LRSN                1
 GAP=181        1.17       4.6     6.7  7.3  0.5509E+01  0.7214E+01 -0.7090E+00E
 Epicentro: LOS SANTOS - SANTANDER                                             3
 ACTION:UPD 13-05-22 14:36 OP:EP   STATUS:               ID:20130405080426 L   I
 2013-04-05-0800-00M.COL___245                                                 6
 STAT SP IPHASW D HRMM SECON CODA AMPLIT PERI AZIMU VELO AIN AR TRES W  DIS CAZ7
 BAR2 SZ EP        8 4 45.87                             171    0.1510 22.3 186 
 BAR2 SZ ES        8 5  0.46                             171   -0.4610 22.3 186 
 BAR2 SZ I         8 5  2.20        17.8 0.20            169           22.3 186 
 GIR2 SZ EP        8 4 45.84                             167    0.0410 31.8 354 
 GIR2 SZ ES        8 5  0.71                             167   -0.3510 31.8 354 
 GIR2 SZ I         8 5  2.64         8.4 0.50            166           31.8 354 
 BRR  HZ EP        8 4 47.73                             153    0.5310 69.9 300 
 BRR  HE ES        8 5  4.56                             153    1.0010 69.9 300 
 BRR  HZ I         8 5  7.82         8.9 0.14            150           69.9 300 
 RUS  HZ EP        8 4 50.39                             144    0.5510 99.9 175 
 RUS  HN ES   1    8 5  8.23                             144   -0.02 7 99.9 175 
 RUS  HZ I         8 5  9.93         2.7 0.22            145           99.9 175 
 PTB  HZ EP        8 4 52.77                             132   -0.17 9  146 259 
 PTB  HN ES        8 5 13.19                             132   -0.58 9  146 259 
 PTB  HZ I         8 5 15.67         6.0 0.22            131            146 259 
 OCA  HN ES   1    8 5 15.87                             129   -0.71 7  161 354 
 OCA  HZ I         8 5 19.32         4.7 0.38            130            161 354 
 ZAR  HN ES   1    8 5 23.81                             122    0.21 6  203 293 
 ZAR  HZ I         8 5 30.63         7.3 0.42            122            203 293 
 SML  HZ EP        8 5  2.45                             117   -0.34 8  244 336 
 SML  HE ES   1    8 5 31.11                             117   -0.20 6  244 336 
 CHI  HN ES   1    8 5 32.27                             117   -0.72 6  247 195 
 CHI  HZ I         8 5 37.60         1.3 0.26            118            247 195 
                                                                                
