 2012 11 5 0958 59.9 L   6.802 -73.145144.9  RSN 11 0.4 2.4LRSN 3.2WRSN        1
 SPEC AVERAGE  MO 13.8 ST 19.2 OM  2.4 f0 5.16 R0.3006 AL 3.09 WI 26.0 MW  3.2 3
 SPEC SD       MO  0.3 ST 14.9 OM  0.5 f0 1.15 R0.0722 AL      WI      MW  0.2 3
 GAP=137        1.09       3.3     4.2  5.6 -0.1060E+01  0.6081E+01  0.4176E+01E
 Epicentro: LOS SANTOS - SANTANDER                                             3
 SPEC ZAR HH E MO 14.1 ST 41.4 OM  2.3 f0 6.36 R0.2311 AL 3.83 WI 21.0 MW  3.3 3
 SPEC ZAR HH E T 95957 K 0.000 GD  250 VS 4.20 DE 3.00 Q0230.0 QA 0.60 VS 4.20 3
 SPEC PRA HH N MO 13.5 ST  4.4 OM  1.5 f0 4.68 R0.3141 AL 2.20 WI 26.8 MW  2.9 3
 SPEC PRA HH N T10 034 K 0.000 GD  417 VS 4.20 DE 3.00 Q0230.0 QA 0.60 VS 4.20 3
 SPEC HEL HH N MO 13.6 ST  2.1 OM  1.7 f0 3.47 R0.4236 AL 2.03 WI 38.2 MW  3.0 3
 SPEC HEL HH N T10 010 K 0.000 GD  308 VS 4.20 DE 3.00 Q0230.0 QA 0.60 VS 4.20 3
 SPEC OCA HH N MO 14.1 ST 18.6 OM  2.4 f0 4.74 R0.3101 AL 2.87 WI 20.1 MW  3.3 3
 SPEC OCA HH N T 95949 K 0.000 GD  215 VS 4.20 DE 3.00 Q0230.0 QA 0.60 VS 4.20 3
 SPEC BRR HH N MO 13.9 ST 29.3 OM  2.3 f0 6.56 R0.2241 AL 4.53 WI 24.1 MW  3.2 3
 SPEC BRR HH N T 95937 K 0.000 GD  161 VS 4.20 DE 3.00 Q0230.0 QA 0.60 VS 4.20 3
 ACTION:UPD 12-12-05 15:31 OP:}ep  STATUS:               ID:20121105095859 L   I
 2012-11-05-0958-20M.COL___191                                                 6
 STAT SP IPHASW D HRMM SECON CODA AMPLIT PERI AZIMU VELO AIN AR TRES W  DIS CAZ7
 BAR2 SZ IP     D  959 19.58                             170    0.1110 23.6 190 
 BAR2 SZ I         959 20.06        73.9 0.14                          23.6 190 
 BAR2 SZ ES        959 34.06                             170   -0.6410 23.6 190 
 GIR2 SZ EP        959 19.54                             167    0.0410 31.1 350 
 GIR2 SZ ES        959 35.15                             167    0.3910 31.1 350 
 BRR  HZ IP     C  959 21.32                             152    0.3310 71.2 298 
 BRR  HZ I         959 21.56        36.4 0.28                          71.2 298 
 BRR  HN ES        959 38.26                             152    0.8410 71.2 298 
 PAM  SZ EP        959 22.41                             151    0.3610 77.1  40 
 PAM  SZ I         959 22.65        45.6 0.22                          77.1  40 
 PAM  SN ES        959 39.37                             151    0.0810 77.1  40 
 RUS  HZ EP        959 23.56                             144   -0.0610  101 176 
 RUS  HN ES        959 42.07                             144   -0.0210  101 176 
 PTB  HZ EP        959 26.24                             132   -0.61 9  148 259 
 PTB  HN ES        959 47.19                             132   -0.65 9  148 259 
 OCA  HZ EP        959 27.72                             129   -0.44 9  160 353 
 OCA  HN ES        959 49.39                             129   -0.78 9  160 353 
 ZAR  HE ES        959 57.91                             122    0.32 9  204 292 
 ZAR  HN I        10 0  4.91        51.4 0.36                           204 292 
 CHI  HZ EP        959 38.07                             117    0.45 8  249 195 
 CHI  HN ES       10 0  6.65                             117   -0.36 8  249 195 
 HEL  HZ EP        959 40.44                             115    0.31 8  272 256 
 HEL  HN ES       10 0 11.56                             115    0.09 8  272 256 
 HEL  HN I        10 0 24.07        11.1 0.34                           272 256 
 PRA  HZ EP        959 53.75                             106    0.29 6  392 210 
 PRA  HN ES       10 0 35.43                             106    0.22 6  392 210 
                                                                                
