 2016  2 5 0632 48.3 L   6.836 -73.199137.9  RSN  6 0.2 1.3LRSN                1
 GAP=128        0.63       2.9     3.7  5.0  0.8243E+00  0.3681E+01 -0.5679E+01E
 Epicentro: ZAPATOCA - SANTANDER                                               3
 ACTION:UPD 16-03-04 21:23 OP:rebc STATUS:               ID:20160205063248 L   I
 OLDACT:REG 16-02-05 13:53 OP:cara STATUS:               ID:20160205062739     3
 2016-02-05-0627-39M.COL___331                                                 6
 STAT SP IPHASW D HRMM SECON CODA AMPLIT PERI AZIMU VELO AIN AR TRES W  DIS CAZ7
 BAR2 EZ IP     C  633  7.09                             168    0.0510 27.0 176 
 BAR2 EZ ES        633 21.52                             168   -0.1610 27.0 176 
 BAR2 EZ I         633 22.81         5.5 0.12            171           27.0 176 
 PAM  EZ IP     C  633 10.11                             149    0.3910 78.4  45 
 RUS  HZ EP        633 11.48                             141   -0.1210  105 173 
 RUS  HN ES        633 29.76                             141   -0.0410  105 173 
 RUS  HZ I         633 31.16         1.9 0.28            144            105 173 
 PTB  HZ EP        633 13.72                             131   -0.44 9  143 257 
 PTB  HN ES        633 34.69                             131    0.34 9  143 257 
 PTB  HZ I         633 37.09         2.1 0.18            132            143 257 
 SML  HZ EP        633 23.78                             116   -0.03 8  238 336 
 SML  HN ES        633 51.37                             116   -0.16 8  238 336 
 SML  HZ I         633 55.73         2.2 0.10            117            238 336 
 GUY2CHZ EP        633 31.45                             111    0.20 7  299 233 
 GUY2CHN ES   4    634  7.50                             111    2.72 0  299 233 
 GUY2CHZ I         634 12.44         1.0 0.24                           299 233 
                                                                                
