 2013  3 5 0837 54.8 L   6.707 -73.160157.8  RSN  6 0.5 1.5LRSN                1
 GAP=197        0.89       6.0     7.2  8.4  0.1648E+01  0.6762E+01 -0.1019E+02E
 Epicentro: VILLANUEVA - SANTANDER                                             3
 ACTION:UPD 13-04-09 13:59 OP:ep   STATUS:               ID:20130305083754 L   I
 2013-03-05-0830-00M.COL___228                                                 6
 STAT SP IPHASW D HRMM SECON CODA AMPLIT PERI AZIMU VELO AIN AR TRES W  DIS CAZ7
 BAR2 SZ EP        838 15.77                             175    0.0910 12.9 191 
 BAR2 SZ ES   1    838 31.65                             175   -0.36 7 12.9 191 
 BAR2 SZ I         838 31.96         8.4 0.30            174           12.9 191 
 BRR  HZ IP     C  838 17.65                             153    0.2110 75.3 306 
 BRR  HN ES   1    838 35.39                             153    0.26 7 75.3 306 
 BRR  HZ I         838 39.63         3.8 0.12            152           75.3 306 
 PTB  HZ EP   1    838 22.78                             135    0.33 7  145 263 
 PTB  HN ES   1    838 43.33                             135   -0.72 7  145 263 
 PTB  HZ I         838 46.32         3.7 0.18            136            145 263 
 OCA  HN ES   1    838 48.92                             130    0.43 7  170 354 
 ZAR  HZ EP   1    838 28.41                             124    0.13 6  207 295 
 ZAR  HN ES   1    838 55.05                             124    0.63 6  207 295 
 SML  HZ EP   1    838 32.10                             119   -0.91 6  252 337 
 SML  HN ES   1    839  2.17                             119   -0.68 6  252 337 
                                                                                
