 2017  4 5 0648 22.7 L   6.782 -73.134143.4  RSN 15 0.6 1.8LRSN                1
 GAP=114        1.21       4.4     4.2  6.1  0.1552E+01  0.5363E+01  0.3625E+01E
 Epicentro: LOS SANTOS - SANTANDER                                             3
 ACTION:UPD 17-05-30 21:08 OP:jn   STATUS:               ID:20170405064822 L   I
 OLDACT:UP  17-04-05 16:31 OP:and  STATUS:               ID:20170405064744     3
 OLDACT:UP  17-04-05 16:31 OP:and  STATUS:               ID:20170405064744     3
 OLDACT:UP  17-04-05 16:29 OP:and  STATUS:               ID:20170405064744     3
 OLDACT:UP  17-04-05 16:29 OP:and  STATUS:               ID:20170405064744     3
 OLDACT:REG 17-04-05 12:49 OP:and  STATUS:               ID:20170405064744     3
 2017-04-05-0648-00M.COL___365                                                 6
 STAT SP IPHASW D HRMM SECON CODA AMPLIT PERI AZIMU VELO AIN AR TRES W  DIS CAZ7
 BAR2 EZ EP        648 42.00                             171   -0.0510 21.7 194 
 BAR2 EZ ES        648 57.39                             171    0.2810 21.7 194 
 BAR2 EZ I         648 57.99        10.0 0.08            171           21.7 194 
 BRR  HZ IP     D  648 43.92                             151    0.1710 73.3 299 
 BRR  HE ES        649  0.61                             151    0.4710 73.3 299 
 BRR  HZ I         649  3.80        12.8 0.24            142           73.3 299 
 PAM  EZ IP     D  648 44.90                             150    0.1610 78.1  38 
 PAM  EN ES        649  1.63                             150   -0.2810 78.1  38 
 PAM  EZ I         649  3.41         8.6 0.18            144           78.1  38 
 RUS  HZ EP        648 45.98                             144   -0.1310 98.5 177 
 RUS  HN ES        649  4.04                             144   -0.3010 98.5 177 
 RUS  HZ I         649  5.54        11.1 0.34            141           98.5 177 
 PTB  HZ EP        648 48.79                             131   -0.81 9  149 260 
 PTB  HN ES        649  9.41                             131   -1.14 9  149 260 
 PTB  HZ I         649 11.96        12.4 0.14            124            149 260 
 SPBC HZ EP        648 51.03                             129    0.04 9  162 220 
 SPBC HN ES        649 13.16                             129    0.13 9  162 220 
 SPBC HZ I         649 16.31        11.0 0.28            123            162 220 
 YPLC HZ IP     D  648 52.50                             126    0.37 9  174 151 
 YPLC HN ES   2    649 16.23                             126    1.18 4  174 151 
 YPLC HZ I         649 18.65         6.3 0.30            123            174 151 
 ZAR  HZ EP        648 55.20                             122   -0.03 8  206 293 
 ZAR  HN ES        649 21.02                             122    0.44 8  206 293 
 ZAR  HZ I         649 28.87         8.9 0.24            114            206 293 
 NOR  HN ES        649 26.35                             118    0.27 8  235 235 
 NOR  HZ I         649 31.23         4.4 0.26            112            235 235 
 CHI  HN ES   3    649 30.86                             117    1.55 2  247 196 
 ROSC BZ EP   3    649  2.27                             116    1.65 2  252 212 
 ROSC BN ES   4    649 33.22                             116    3.05 0  252 212 
 ROSC BZ I         649 36.73         4.8 0.30            111            252 212 
 HEL  HZ EP        649  3.96                             114    1.04 8  273 256 
 HEL  HN ES   4    649 37.28                             114    3.02 0  273 256 
 HEL  HZ I         649 41.10         5.4 0.48            109            273 256 
 URE  HZ EP        649  3.26                             113   -0.65 7  286 292 
 URE  HZ I         649 47.78         5.1 0.18            107            286 292 
 PTGC HZ EP        649  5.33                             111   -0.90 7  306 159 
 PTGC HN ES   4    649 36.93                             111   -3.22 0  306 159 
 PTGC HZ I         649 39.40         3.5 0.28            107            306 159 
 CBOC HZ EP        649 10.32                             109    0.69 7  334 252 
 CBOC HN ES   4    649 44.29                             109   -1.91 0  334 252 
 CBOC HZ I         649 46.83         1.1 0.36            104            334 252 
                                                                                
