 2014  1 5 0805 17.9 L   6.793 -73.153138.0  RSN  4 0.2 1.2LRSN                1
 GAP=136        0.61       3.1     3.9  7.1  0.1315E+01  0.1477E+02 -0.9414E+00E
 Epicentro: LOS SANTOS - SANTANDER                                             3
 ACTION:UPD 14-03-13 09:51 OP:ep   STATUS:               ID:20140105080517 L   I
 OLDACT:REG 14-01-05 08:45 OP:stll STATUS:               ID:20140105075810     3
 2014-01-05-0758-10M.COL___237                                                 6
 STAT SP IPHASW D HRMM SECON CODA AMPLIT PERI AZIMU VELO AIN AR TRES W  DIS CAZ7
 BAR2 SZ EP        8 5 36.44                             170   -0.1510 22.4 188 
 BAR2 SZ I         8 5 52.78         6.1 0.18            170           22.4 188 
 PAM  SZ EP        8 5 39.36                             149   -0.0210 78.6  40 
 PAM  SN ES        8 5 56.17                             149    0.0510 78.6  40 
 PAM  SZ I         8 5 58.81         2.6 0.38            149           78.6  40 
 RUS  HZ EP        8 5 40.62                             142   -0.2310 99.8 176 
 RUS  HN ES        8 5 58.93                             142    0.1910 99.8 176 
 RUS  HZ I         8 6  0.13         1.6 0.30            142           99.8 176 
 ZAR  HZ EP        8 5 50.29                             121    0.47 9  204 292 
 ZAR  HN ES        8 6 14.46                             121   -0.24 9  204 292 
 ZAR  HZ I         8 6 20.83         1.6 0.30            119            204 292 
                                                                                
