 2016  6 5 0944 53.5 L   6.773 -73.170147.3  RSN  5 0.2 1.2LRSN                1
 GAP=233        0.55       3.3     3.5  4.4  0.2178E+01  0.6737E+00  0.1970E+01E
 Epicentro: LOS SANTOS - SANTANDER                                             3
 ACTION:UPD 16-07-21 22:15 OP:rebc STATUS:               ID:20160605094453 L   I
 OLDACT:REG 16-06-05 13:19 OP:edw  STATUS:               ID:20160605093741     3
 2016-06-05-0937-41M.COL___316                                                 6
 STAT SP IPHASW D HRMM SECON CODA AMPLIT PERI AZIMU VELO AIN AR TRES W  DIS CAZ7
 BAR2 EZ EP        945 13.20                             172   -0.0210 20.0 184 
 BAR2 EZ ES        945 28.43                             172   -0.2010 20.0 184 
 BAR2 EZ I         945 29.32         5.5 0.18                          20.0 184 
 BRR  HZ EP        945 14.78                             153    0.0410 70.4 302 
 BRR  HN ES        945 31.61                             153    0.2810 70.4 302 
 BRR  HZ I         945 33.20         3.3 0.56                          70.4 302 
 RUS  HZ EP        945 17.00                             145   -0.1710 97.8 174 
 RUS  HE ES        945 35.76                             145    0.1010 97.8 174 
 RUS  HZ I         945 36.78         1.6 0.30                          97.8 174 
 PTB  HN ES        945 40.83                             133   -0.36 9  145 260 
 PTB  HZ I         945 46.34         1.5 0.38                           145 260 
 SPBC HZ EP        945 21.85                             130    0.14 9  159 219 
 SPBC HE ES        945 43.93                             130    0.20 9  159 219 
 SPBC HZ I         945 48.39         2.8 0.10                           159 219 
                                                                                
