 2017  6 5 0225  4.7 L   6.798 -73.228159.2  RSN  5 0.2 1.4LRSN                1
 GAP=274        0.42       2.7     4.2  5.7 -0.2180E+01  0.7445E+00  0.2783E+01E
 Epicentro: ZAPATOCA - SANTANDER                                               3
 ACTION:UPD 17-09-14 16:49 OP:jn   STATUS:               ID:20170605022504 L   I
 OLDACT:UP  17-06-05 15:41 OP:edw  STATUS:               ID:20170605021744d    3
 OLDACT:DUP 17-06-05 15:34 OP:edw  STATUS:               ID:20170605021744d    3
 OLDACT:UP  17-06-05 15:32 OP:edw  STATUS:               ID:20170605021743     3
 OLDACT:REG 17-06-05 11:43 OP:edw  STATUS:               ID:20170605021743     3
 2017-06-05-0218-00M.COL___350                                                 6
 STAT SP IPHASW D HRMM SECON CODA AMPLIT PERI AZIMU VELO AIN AR TRES W  DIS CAZ7
 BRR  HZ IP     D  225 27.00                             157    0.0610 63.5 303 
 BRR  HN ES        225 44.35                             157    0.0710 63.5 303 
 BRR  HZ I         225 46.57         3.9 0.28            159           63.5 303 
 PTB  HZ EP   2    225 31.67                             137   -0.37 5  139 258 
 PTB  HN ES        225 53.18                             137   -0.18 9  139 258 
 SPBC HZ EP   4    225 27.33                             133   -6.42 0  157 216 
 SPBC HN ES        225 56.32                             133   -0.09 9  157 216 
 ZAR  HN ES        226  2.63                             126    0.01 9  196 293 
 NOR  HN ES        226  8.62                             122    0.25 8  227 233 
                                                                                
