 2017  4 5 0847 45.5 L   6.781 -73.118143.1  RSN 17 0.5 2.0LRSN                1
 GAP=122        0.92       3.1     3.3  4.5 -0.8793E+00  0.3642E+01  0.3136E+01E
 Epicentro: LOS SANTOS - SANTANDER                                             3
 ACTION:UPD 17-05-30 21:08 OP:jn   STATUS:               ID:20170405084745 L   I
 OLDACT:UP  17-04-05 17:45 OP:and  STATUS:               ID:20170405083743d    3
 OLDACT:UP  17-04-05 17:43 OP:and  STATUS:               ID:20170405083743d    3
 OLDACT:UP  17-04-05 17:43 OP:and  STATUS:               ID:20170405083743d    3
 OLDACT:UP  17-04-05 17:41 OP:and  STATUS:               ID:20170405083743d    3
 OLDACT:DUP 17-04-05 17:38 OP:and  STATUS:               ID:20170405083743d    3
 2017-04-05-0838-00M.COL___359                                                 6
 STAT SP IPHASW D HRMM SECON CODA AMPLIT PERI AZIMU VELO AIN AR TRES W  DIS CAZ7
 BAR2 EZ IP     C  848  4.86                             171    0.0610 22.0 199 
 BAR2 EZ ES        848 19.08                             171   -0.7510 22.0 199 
 BAR2 EZ I         848 20.78        27.5 0.16            167           22.0 199 
 BRR  HZ IP     C  848  6.68                             151    0.0910 74.9 299 
 BRR  HN ES        848 23.50                             151    0.4710 74.9 299 
 BRR  HZ I         848 24.29        17.3 0.12            150           74.9 299 
 PAM  EZ IP     C  848  7.79                             150    0.3610 77.2  37 
 PAM  EN ES        848 24.59                             150    0.0610 77.2  37 
 PAM  EZ I         848 27.28        20.9 0.48            155           77.2  37 
 RUS  HZ IP     C  848  8.89                             144    0.0510 98.3 178 
 RUS  HN ES        848 27.11                             144    0.0910 98.3 178 
 RUS  HZ I         848 29.26        19.1 0.18            143           98.3 178 
 PTB  HZ EP   9    848 11.47                             131   -1.04 0  150 260 
 PTB  HN ES        848 32.51                             131   -0.01 9  150 260 
 PTB  HZ I         848 34.53        11.1 0.12            130            150 260 
 SPBC HZ IP     C  848 13.93                             128    0.09 9  163 220 
 SPBC HN ES        848 35.65                             128   -0.28 9  163 220 
 SPBC HZ I         848 42.64        17.9 0.10            128            163 220 
 ZAR  HZ EP   2    848 18.78                             121    0.61 4  208 292 
 ZAR  HN ES        848 43.29                             121   -0.34 8  208 292 
 ZAR  HZ I         848 49.62        18.1 0.30            122            208 292 
 NOR  HZ EP        848 21.37                             118    0.14 8  236 235 
 NOR  HN ES        848 49.23                             118    0.15 8  236 235 
 NOR  HZ I         848 52.92        10.3 0.32            118            236 235 
 CHI  HZ EP   2    848 22.16                             117   -0.77 4  247 196 
 CHI  HN ES        848 52.47                             117    0.36 8  247 196 
 CHI  HZ I         848 56.79         3.3 0.26            117            247 196 
 ROSC BZ EP   4    848 25.18                             116    1.72 0  253 212 
 ROSC BN ES   4    848 55.55                             116    2.49 0  253 212 
 ROSC BZ I         849  0.11         7.0 0.60            116            253 212 
 HEL  HZ EP   3    848 27.07                             114    1.20 2  275 256 
 HEL  HN ES        848 57.94                             114    0.60 8  275 256 
 HEL  HZ I         849  3.38         7.9 0.48            114            275 256 
 URE  HZ EP        848 25.95                             113   -0.92 7  287 292 
 URE  HN ES   4    848 56.40                             113   -2.72 0  287 292 
 URE  HZ I         848 58.70         5.9 0.12            113            287 292 
 PTGC HZ EP        848 28.32                             111   -0.58 7  306 159 
 PTGC HN ES   3    849  1.37                             111   -1.37 2  306 159 
 PTGC HZ I         849  3.29         3.7 0.42            112            306 159 
 CBOC HZ EP        848 32.72                             109    0.14 7  336 253 
 CBOC HE ES   3    849  7.67                             109   -1.62 2  336 253 
 CBOC HZ I         849 15.43         1.7 0.47            110            336 253 
 PRA  HZ EP        848 39.48                             106    0.57 6  392 210 
 PRA  HN ES        849 21.18                             106    0.63 6  392 210 
 PRA  HZ I         849 25.76         3.1 0.30            107            392 210 
 PAL  HZ EP        848 40.84                             105    0.07 6  407 240 
 PAL  HN ES        849 22.58                             105   -1.28 6  407 240 
 PAL  HZ I         849 28.92         2.4 0.24            106            407 240 
 SJC  HZ EP   3    848 39.58                             105   -1.82 1  413 327 
 SJC  HE ES   4    849 21.28                             105   -3.71 0  413 327 
                                                                                
