 2017  2 5 0204 17.2 L   6.742 -73.112144.8  RSN  8 0.4 1.8LRSN                1
 GAP=143        0.90       4.7     4.9  6.3  0.3135E+01  0.1092E+02 -0.1257E+01E
 Epicentro: LOS SANTOS - SANTANDER                                             3
 ACTION:UPD 17-05-24 15:32 OP:jn   STATUS:               ID:20170205020417 L   I
 OLDACT:UP  17-02-05 14:43 OP:dnl  STATUS:               ID:20170205015744     3
 OLDACT:UP  17-02-05 14:42 OP:dnl  STATUS:               ID:20170205015744     3
 OLDACT:REG 17-02-05 13:16 OP:dnl  STATUS:               ID:20170205015744     3
 2017-02-05-0158-00M.COL___328                                                 6
 STAT SP IPHASW D HRMM SECON CODA AMPLIT PERI AZIMU VELO AIN AR TRES W  DIS CAZ7
 BAR2 EZ IP     D  2 4 36.58                             172   -0.0510 18.3 205 
 BAR2 EZ ES        2 4 51.45                             172   -0.3310 18.3 205 
 BAR2 EZ I         2 4 52.37        13.3 0.28            164           18.3 205 
 BRR  HZ IP     D  2 4 38.60                             150   -0.0310 77.6 301 
 BRR  HN ES        2 4 55.91                             150    0.5710 77.6 301 
 BRR  HZ I         2 4 57.35         9.1 0.26            136           77.6 301 
 PAM  EZ EP        2 4 39.70                             150    0.2010 80.3  35 
 PAM  EN ES        2 4 56.59                             150   -0.3010 80.3  35 
 PAM  EZ I         2 4 57.49        17.5 0.20            137           80.3  35 
 RUS  HZ EP   2    2 4 40.94                             146    0.54 5 94.0 178 
 RUS  HE ES        2 4 58.71                             146    0.2210 94.0 178 
 RUS  HZ I         2 4 59.95        10.4 0.20            128           94.0 178 
 PTB  HZ EP        2 4 43.68                             131   -0.65 9  150 262 
 PTB  HN ES   4    2 5  3.81                             131   -1.68 0  150 262 
 PTB  HZ I         2 5  6.49         7.5 0.22            116            150 262 
 ZAR  HZ EP        2 4 50.72                             121    0.52 8  210 293 
 ZAR  HE ES        2 5 15.68                             121   -0.26 8  210 293 
 ZAR  HZ I         2 5 21.06         8.1 0.30            108            210 293 
 CHI  HZ EP   2    2 4 54.05                             117   -0.24 4  243 196 
 CHI  HZ I         2 5 13.09         3.4 0.20            105            243 196 
 URE  HZ EP   4    2 4 55.73                             113   -3.16 0  290 293 
 URE  HZ I         2 5 32.43         2.6 0.14            103            290 293 
                                                                                
