 2012  1 5 0534 59.2 L   6.829 -73.356128.0  RSN  5 0.4 1.5LRSN                1
 GAP=111        0.76       6.9     6.3  8.9  0.1775E+02  0.1104E+01  0.6214E+01E
 Epicentro: ZAPATOCA - SANTANDER                                               3
 ACTION:UP  12-02-03 08:14 OP:REBC STATUS:               ID:20120105053459 L   I
 2012-01-05-0530-00M.COL___189                                                 6
 STAT SP IPHASW D HRMM SECON CODA AMPLIT PERI AZIMU VELO SNR AR TRES W  DIS CAZ7
 BAR2 SZ EP   1    535 17.06                             165     0.1 7   33 144 
 GIR2 SZ EP   2    535 16.72                             165    -0.1 5   33  33 
 BAR2 SZ ES   2    535 30.00                             165    -0.8 5   33 144 
 BAR2 SZ I         535 31.30        11.0 0.27                            33 144 
 BRR  HZ EP   1    535 17.37                             158     0.1 7   50 308 
 BRR  HZ I         535 30.69         6.7 0.60                            50 308 
 BRR  HE ES   1    535 31.68                             158     0.3 7   50 308 
 RUS  HZ EP   1    535 22.19                             138     0.3 7  108 164 
 RUS  HN ES   1    535 39.58                             138     0.1 7  108 164 
 PTB  HZ EP   1    535 22.05                             133    -0.7 7  126 255 
 PTB  HN ES   1    535 41.33                             133     0.2 7  126 255 
                                                                                
