 2013 11 5 0216 43.2 L   7.184 -73.414104.0  RSN  8 0.6 1.5LRSN                1
 GAP= 82        1.45       4.3     6.8 10.4  0.2813E+01  0.6531E+01  0.6082E+01E
 Epicentro: LEBRIJA - SANTANDER                                                3
 ACTION:UPD 14-01-09 16:25 OP:ep   STATUS:               ID:20131105021643 L   I
 OLDACT:UP  13-12-03 10:10 OP:ep   STATUS:               ID:20131105021643 L   3
 OLDACT:REG 13-11-05 08:15 OP:stll STATUS:               ID:20131105020840     3
 2013-11-05-0208-40M.COL___220                                                 6
 STAT SP IPHASW D HRMM SECON CODA AMPLIT PERI AZIMU VELO AIN AR TRES W  DIS CAZ7
 BRR  HZ EP        216 58.23                             160    0.3510 34.0 256 
 BRR  HN ES        217  9.22                             160   -0.0810 34.0 256 
 BRR  HZ I         217 21.49         9.1 0.26            158           34.0 256 
 BAR2 SZ IP     D  217  0.56                             143    0.2410 70.3 159 
 BAR2 SZ ES   1    217 14.20                             143    0.54 7 70.3 159 
 BAR2 SZ I         217 15.84        21.7 0.36            152           70.3 159 
 PAM  SZ EP   1    217  1.34                             139   -0.13 7 80.8  78 
 PAM  SN ES   1    217 16.23                             139    0.52 7 80.8  78 
 OCA  HN ES        217 20.71                             127    0.0710  117   5 
 OCA  HZ I         217 22.46         9.8 0.31            138            117   5 
 PTB  HZ EP   1    217  5.82                             123   -0.07 7  135 238 
 PTB  HN ES   1    217 23.54                             123   -0.02 7  135 238 
 PTB  HZ I         217 28.52         2.0 0.18            129            135 238 
 RUS  HZ EP        217  7.68                             121   -0.07 9  147 166 
 RUS  HN ES        217 25.44                             121   -1.44 9  147 166 
 SPBC HZ EP        217 12.35                             114    1.11 9  184 203 
 SML  HN ES        217 33.78                             113   -0.80 9  193 338 
                                                                                
