 2016 11 5 0151 47.2 L   6.824 -73.154148.7  RSN  8 0.5 1.7LRSN                1
 GAP=153        1.16       4.9     5.4  8.4 -0.7607E+01  0.3581E+00  0.1491E+02E
 Epicentro: LOS SANTOS - SANTANDER                                             3
 ACTION:UPD 17-10-26 21:04 OP:lp   STATUS:               ID:20161105015147 L   I
 OLDACT:UP  16-11-05 14:54 OP:dani STATUS:               ID:20161105014740     3
 OLDACT:UP  16-11-05 14:53 OP:dani STATUS:               ID:20161105014740     3
 OLDACT:REG 16-11-05 13:21 OP:dani STATUS:               ID:20161105014740     3
 2016-11-05-0148-00M.COL___352                                                 6
 STAT SP IPHASW D HRMM SECON CODA AMPLIT PERI AZIMU VELO AIN AR TRES W  DIS CAZ7
 BRR  HZ EP        152  8.92                             154    0.3610 69.1 297 
 BRR  HN ES        152 25.68                             154    0.4610 69.1 297 
 BRR  HZ I         152 31.91         8.3 0.15            156           69.1 297 
 PAM  EZ EP        152  9.87                             152    0.2210 76.0  41 
 PAM  EN ES        152 26.91                             152   -0.2610 76.0  41 
 PAM  EZ I         152 28.89        11.8 0.50            156           76.0  41 
 PTB  HZ EP        152 13.86                             133   -0.52 9  147 258 
 PTB  HN ES        152 34.67                             133   -0.90 9  147 258 
 PTB  HZ I         152 37.18         5.4 0.12            135            147 258 
 SPBC HZ EP        152 16.13                             129    0.06 9  165 218 
 SPBC HE ES        152 38.19                             129   -0.39 9  165 218 
 SPBC HZ I         152 40.47         9.3 0.20            132            165 218 
 ZAR  HN ES        152 45.39                             123    0.42 9  202 292 
 NOR  HZ EP        152 23.39                             119    0.20 8  235 234 
 NOR  HN ES        152 51.87                             119    0.62 8  235 234 
 NOR  HZ I         152 54.99         4.5 0.19            122            235 234 
 CHI  HZ EP        152 25.90                             117    0.59 8  251 195 
 CHI  HN ES        152 54.82                             117   -0.22 8  251 195 
 CHI  HZ I         153  1.73         1.8 0.24            120            251 195 
 SJC  HZ EP        152 41.45                             106   -1.10 6  407 327 
 SJC  HN ES   4    153 22.97                             106   -2.75 0  407 327 
 SJC  HZ I         153 27.59         1.2 0.43            109            407 327 
                                                                                
