 2012 11 5 0333  6.4 L   6.812 -73.143144.4  RSN 16 0.5 2.8LRSN 3.3WRSN        1
 SPEC AVERAGE  MO 14.0 ST 35.0 OM  2.2 f0 5.25 R0.3101 AL 2.75 WI 30.8 MW  3.3 3
 SPEC SD       MO  0.2 ST 42.5 OM  0.4 f0 1.69 R0.0986 AL      WI      MW  0.1 3
 GAP= 71        1.16       4.1     4.0  5.5  0.7905E+00  0.6301E+01  0.6916E+01E
 Epicentro: LOS SANTOS - SANTANDER                                             3
 SPEC PRA HH N MO 13.9 ST 19.3 OM  1.9 f0 5.65 R0.2602 AL 2.94 WI 39.5 MW  3.2 3
 SPEC PRA HH N T 33440 K 0.000 GD  418 VS 4.20 DE 3.00 Q0230.0 QA 0.60 VS 4.20 3
 SPEC MON HH N MO 13.9 ST 16.7 OM  2.0 f0 5.14 R0.2860 AL 2.42 WI 32.3 MW  3.2 3
 SPEC MON HH N T 33430 K 0.000 GD  381 VS 4.20 DE 3.00 Q0230.0 QA 0.60 VS 4.20 3
 SPEC HEL HH N MO 14.0 ST  4.6 OM  2.1 f0 3.33 R0.4414 AL 2.00 WI 38.5 MW  3.2 3
 SPEC HEL HH N T 33416 K 0.000 GD  308 VS 4.20 DE 3.00 Q0230.0 QA 0.60 VS 4.20 3
 SPEC ROSCBH Z MO 14.3 ST  9.3 OM  1.7 f0 3.22 R0.4565 AL 2.79 WI 28.9 MW  3.5 3
 SPEC ROSCBH Z T 33344 K 0.000 GD  292 VP 7.60 DE 3.00 Q0230.0 QA 0.60 VS 4.20 3
 SPEC CHI HH N MO 14.0 ST  4.8 OM  2.2 f0 3.19 R0.4608 AL 2.33 WI 35.2 MW  3.3 3
 SPEC CHI HH N T 33412 K 0.000 GD  288 VS 4.20 DE 3.00 Q0230.0 QA 0.60 VS 4.20 3
 SPEC NOR HH N MO 14.3 ST108.4 OM  2.5 f0 7.27 R0.2022 AL 3.46 WI 28.1 MW  3.5 3
 SPEC NOR HH N T 334 8 K 0.000 GD  276 VS 4.20 DE 3.00 Q0230.0 QA 0.60 VS 4.20 3
 SPEC ZAR HH N MO 14.2 ST134.2 OM  2.4 f0 8.72 R0.1686 AL 3.51 WI 38.7 MW  3.4 3
 SPEC ZAR HH N T 334 2 K 0.000 GD  249 VS 4.20 DE 3.00 Q0230.0 QA 0.60 VS 4.20 3
 SPEC TAM HH Z MO 14.2 ST 20.7 OM  1.7 f0 4.67 R0.3148 AL 1.99 WI 20.5 MW  3.4 3
 SPEC TAM HH Z T 33333 K 0.000 GD  211 VP 7.60 DE 3.00 Q0230.0 QA 0.60 VS 4.20 3
 SPEC RUS HH Z MO 13.5 ST  7.8 OM  1.1 f0 5.69 R0.2583 AL 2.13 WI 17.6 MW  2.9 3
 SPEC RUS HH Z T 33328 K 0.000 GD  176 VP 7.60 DE 3.00 Q0230.0 QA 0.60 VS 4.20 3
 SPEC PAM SH Z MO 14.1 ST 12.9 OM  1.7 f0 4.35 R0.3379 AL 2.72 WI 16.4 MW  3.3 3
 SPEC PAM SH Z T 33328 K 0.000 GD  163 VP 7.60 DE 3.00 Q0230.0 QA 0.60 VS 4.20 3
 SPEC BRR HH N MO 14.1 ST 46.3 OM  2.5 f0 6.56 R0.2241 AL 3.95 WI 43.4 MW  3.3 3
 SPEC BRR HH N T 33344 K 0.000 GD  160 VS 4.20 DE 3.00 Q0230.0 QA 0.60 VS 4.20 3
 ACTION:UPD 12-12-05 15:31 OP:}ep  STATUS:               ID:20121105033306 L   I
 2012-11-05-0330-00M.COL___230                                                 6
 STAT SP IPHASW D HRMM SECON CODA AMPLIT PERI AZIMU VELO AIN AR TRES W  DIS CAZ7
 BAR2 SZ I         333 25.73        96.7 0.20                          24.6 190 
 BAR2 SZ IP     C  333 25.80                             170   -0.0510 24.6 190 
 BAR2 SZ ES        333 41.02                             170   -0.0310 24.6 190 
 GIR2 SZ IP     D  333 25.83                             168    0.0010 30.1 349 
 GIR2 SZ ES        333 40.16                             168   -0.8610 30.1 349 
 BRR  HZ IP     D  333 27.66                             152    0.3210 70.9 297 
 BRR  HZ I         333 27.92        58.0 0.30                          70.9 297 
 BRR  HN ES        333 44.73                             152    1.0310 70.9 297 
 PAM  SZ IP     C  333 28.54                             151    0.1910 76.2  40 
 PAM  SZ I         333 28.67        83.6 0.20                          76.2  40 
 PAM  SN ES        333 45.78                             151    0.2710 76.2  40 
 RUS  HZ EP        333 29.63                             143   -0.4310  102 176 
 RUS  HN ES        333 48.30                             143   -0.2510  102 176 
 RUS  HN I         333 50.09       127.8 0.42                           102 176 
 TAM  HZ IP     D  333 33.95                             130    0.02 9  155 105 
 TAM  HZ I         333 34.10       100.1 0.32                           155 105 
 TAM  HN ES        333 55.72                             130    0.29 9  155 105 
 OCA  HZ EP        333 34.20                             129   -0.24 9  159 353 
 ZAR  HN ES        334  3.11                             122   -0.80 9  204 292 
 NOR  HZ EP        333 41.93                             118   -0.18 8  236 234 
 NOR  HN ES   4    334  8.78                             118   -1.22 0  236 234 
 NOR  HN I         334 18.65       101.5 0.16                           236 234 
 CHI  HZ EP        333 43.79                             117   -0.33 8  250 195 
 CHI  HZ I         333 45.42        17.0 0.16                           250 195 
 CHI  HN ES   1    334 13.06                             117   -0.52 6  250 195 
 ROSC BZ EP        333 45.22                             116    0.68 8  254 211 
 ROSC BN ES   4    334 16.37                             116    2.05 0  254 211 
 ROSC BZ I         334 20.68        30.9 0.60                           254 211 
 HEL  HZ EP        333 46.82                             114    0.25 8  273 256 
 HEL  HN I         334 25.64        17.9 0.26                           273 256 
 DBB  SZ EP        333 53.47                             109   -0.33 7  340 274 
 MON  HZ EP   4    333 52.88                             108   -2.36 0  353 308 
 MON  HN I         334 47.63        20.2 0.32                           353 308 
 ANIL HZ EP        333 56.86                             108    0.62 6  358 224 
 ANIL HN ES        334 36.14                             108    0.99 6  358 224 
 ANIL HZ I         334 39.54        58.7 0.36                           358 224 
 PRA  HZ EP        333 59.34                             106   -0.64 6  393 210 
 PRA  HN ES   4    334 40.79                             106   -1.01 0  393 210 
                                                                                
