 2016  1 5 0515 47.2 L   6.787 -73.163145.5  RSN  9 0.4 1.5LRSN                1
 GAP=135        0.90       3.2     3.6  5.3 -0.5137E+00  0.4892E+01  0.3010E+01E
 Epicentro: LOS SANTOS - SANTANDER                                             3
 ACTION:UPD 16-03-09 23:22 OP:cam  STATUS:               ID:20160105051547 L   I
 OLDACT:REG 16-01-05 12:30 OP:drio STATUS:               ID:20160105050738     3
 2016-01-05-0507-38M.COL___332                                                 6
 STAT SP IPHASW D HRMM SECON CODA AMPLIT PERI AZIMU VELO AIN AR TRES W  DIS CAZ7
 BAR2 EZ EP        516  6.66                             171   -0.0810 21.6 186 
 BAR2 EZ ES        516 21.50                             171   -0.5010 21.6 186 
 BAR2 EZ I         516 22.86         6.6 0.22            168           21.6 186 
 BRR  HZ EP        516  8.65                             153    0.4110 70.3 300 
 BRR  HN ES        516 25.33                             153    0.6610 70.3 300 
 PAM  EZ EP        516  9.60                             150    0.1010 79.7  40 
 PAM  EE ES        516 26.98                             150    0.0710 79.7  40 
 PAM  EZ I         516 28.80         4.1 0.58            156           79.7  40 
 RUS  HZ EP        516 10.58                             144   -0.2310 99.3 175 
 RUS  HN ES        516 29.23                             144   -0.0110 99.3 175 
 RUS  HZ I         516 32.37         2.3 0.22            146           99.3 175 
 PTB  HZ EP        516 13.36                             132   -0.57 9  146 259 
 PTB  HN ES        516 34.48                             132   -0.31 9  146 259 
 PTB  HZ I         516 42.09         5.4 0.52            132            146 259 
 SPBC HZ EP        516 15.52                             129    0.09 9  161 219 
 SPBC HN ES        516 37.26                             129   -0.22 9  161 219 
 SPBC HZ I         516 44.93         8.6 0.14            130            161 219 
 ZAR  HZ EP        516 19.02                             122   -0.46 9  203 293 
 ZAR  HE ES        516 44.71                             122    0.04 9  203 293 
 ZAR  HZ I         516 55.57         3.4 0.18            123            203 293 
 CHI  HZ EP        516 25.08                             117    0.43 8  247 195 
 CHI  HN ES        516 54.35                             117    0.46 8  247 195 
 CHI  HZ I         516 58.70         1.1 0.20            119            247 195 
 GUY2CHZ EP   4    516 31.73                             112    1.23 0  299 235 
 GUY2CHE ES        517  4.70                             112    0.40 7  299 235 
 GUY2CHZ I         517 14.01         2.6 0.30                           299 235 
                                                                                
