 2017  4 5 0035 36.0 L   6.817 -73.151146.5  RSN 24 0.5 2.6LRSN                1
 GAP=111        0.90       2.4     2.7  4.1  0.5142E+00  0.3519E+01  0.2223E+01E
 Epicentro: LOS SANTOS - SANTANDER                                             3
 ACTION:UPD 17-05-30 21:08 OP:jn   STATUS:               ID:20170405003536 L   I
 OLDACT:UP  17-04-05 13:20 OP:and  STATUS:               ID:20170405002742     3
 OLDACT:UP  17-04-05 13:18 OP:and  STATUS:               ID:20170405002742     3
 OLDACT:UP  17-04-05 13:18 OP:and  STATUS:               ID:20170405002742     3
 OLDACT:UP  17-04-05 13:15 OP:and  STATUS:               ID:20170405002742     3
 OLDACT:UP  17-04-05 13:15 OP:and  STATUS:               ID:20170405002742     3
 OLDACT:UP  17-04-05 13:13 OP:and  STATUS:               ID:20170405002742     3
 OLDACT:REG 17-04-05 12:35 OP:and  STATUS:               ID:20170405002742     3
 2017-04-05-0028-00M.COL___365                                                 6
 STAT SP IPHASW D HRMM SECON CODA AMPLIT PERI AZIMU VELO AIN AR TRES W  DIS CAZ7
 BAR2 EZ EP        035 55.65                             170   -0.0610 25.1 188 
 BAR2 EZ ES        036 10.80                             170   -0.3210 25.1 188 
 BAR2 EZ I         036 11.77       151.9 0.34            164           25.1 188 
 BRR  HZ IP     C  035 57.47                             153    0.3610 69.8 297 
 BRR  HN ES        036 14.29                             153    0.6910 69.8 297 
 BRR  HZ I         036 18.53        75.4 0.38            151           69.8 297 
 PAM  EZ IP     C  035 58.43                             151    0.2410 76.3  41 
 PAM  EN ES        036 15.54                             151    0.0110 76.3  41 
 PAM  EZ I         036 17.87       110.6 0.52            162           76.3  41 
 RUS  HZ IP     D  035 59.54                             143   -0.3810  103 176 
 RUS  HN ES        036 18.46                             143   -0.1510  103 176 
 RUS  HZ I         036 19.30        32.2 0.26            143            103 176 
 PTB  HZ EP        036  2.53                             132   -0.43 9  148 258 
 PTB  HN ES        036 23.31                             132   -0.72 9  148 258 
 PTB  HZ I         036 30.09        24.7 0.18            132            148 258 
 SPBC HZ EP        036  4.69                             129    0.08 9  164 218 
 SPBC HN ES        036 27.25                             129    0.29 9  164 218 
 SPBC HZ I         036 31.50        61.9 0.22            129            164 218 
 YPLC HZ IP     D  036  6.10                             126    0.10 9  179 151 
 YPLC HN ES        036 29.92                             126    0.50 9  179 151 
 YPLC HZ I         036 32.80        28.2 0.30            130            179 151 
 ZAR  HZ EP        036  8.20                             123   -0.12 9  203 292 
 ZAR  HN ES        036 33.53                             123   -0.03 9  203 292 
 ZAR  HZ I         036 40.47        54.4 0.38            124            203 292 
 TABC EZ EP   3    036 13.47                             119    1.58 2  231 210 
 TABC EZ ES        036 40.32                             119    0.41 8  231 210 
 TABC EZ I         036 47.90        42.1 0.42            120            231 210 
 NOR  HZ IP     D  036 11.81                             119    0.02 8  235 234 
 NOR  HN ES        036 39.27                             119   -0.47 8  235 234 
 NOR  HZ I         036 49.00        16.9 0.58            119            235 234 
 CHI  HZ EP        036 13.76                             117   -0.12 8  250 195 
 CHI  HN ES        036 43.07                             117   -0.38 8  250 195 
 CHI  HZ I         036 45.19        14.8 0.26            119            250 195 
 ROSC BZ EP   3    036 15.60                             117    1.34 2  254 211 
 ROSC BN ES        036 43.65                             117   -0.48 8  254 211 
 ROSC BZ I         036 50.11        50.9 0.45            118            254 211 
 HEL  HZ EP   4    036 18.35                             115    2.16 0  272 255 
 HEL  HN ES        036 48.01                             115    0.43 8  272 255 
 HEL  HZ I         036 54.73        13.9 0.30            116            272 255 
 URE  HZ EP        036 16.00                             114   -0.92 7  283 292 
 URE  HN ES   4    036 47.17                             114   -1.70 0  283 292 
 URE  HZ I         036 59.58        25.4 0.22            116            283 292 
 VIL  EZ EP        036 19.86                             112    0.26 7  305 191 
 VIL  EN ES        036 53.49                             112   -0.15 7  305 191 
 VIL  EZ I         037  3.29        45.3 0.44            114            305 191 
 PTGC HZ EP   9    036 18.75                             111   -1.32 0  311 159 
 PTGC HN ES        036 52.45                             112   -0.71 7  311 159 
 PTGC HZ I         036 54.04        20.0 0.26            114            311 159 
 LL6C HN EP   9    036  1.78                             111   -19.7 0  323 358 
 LL6C HE ES        036 36.77                                   -0.51 7  323 358 
 LL6C HN I         036 38.23        18.7 0.40            115            323 358 
 ELA  HN ES   3    037  1.03                             110    1.47 2  330 229 
 ELA  HZ I         037  8.38        15.3 0.54            112            330 229 
 CBOC HZ EP        036 23.50                             110    0.60 7  334 252 
 CBOC HN ES        037  0.23                             110    0.71 7  334 252 
 CBOC HZ I         037  5.86         5.2 0.46            112            334 252 
 DBB  EZ EP        036 23.85                             110    0.47 7  339 274 
 DBB  EN ES   3    036 59.44                             110   -0.92 2  339 274 
 DBB  EZ I         037  0.38         9.1 0.36            111            339 274 
 ANIL HZ EP   3    036 27.43                             108    1.53 2  358 224 
 ANIL HN ES   4    037  7.98                             108    3.13 0  358 224 
 PRA  HZ EP        036 29.41                             106   -0.25 6  393 209 
 PRA  HN ES        037 11.33                             106   -0.21 6  393 209 
 PRA  HZ I         037 17.63        20.1 0.26            108            393 209 
 PAL  HZ EP        036 30.72                             106   -0.47 6  406 239 
 PAL  HN ES        037 14.70                             106    0.42 6  406 239 
 PAL  HZ I         037 17.25         4.7 0.28            108            406 239 
 SJC  HZ EP   3    036 29.88                             106   -1.44 1  407 327 
 SJC  HN ES   4    037 11.85                             106   -2.65 0  407 327 
 SJC  HZ I         037 18.84         9.8 0.44            109            407 327 
                                                                                
