 2013  2 5 0420 54.2 L   6.311 -73.718 87.6  RSN  5 0.3 1.3LRSN                1
 GAP=107        0.67       4.1     3.1  8.3  0.4480E+01  0.4863E+01  0.1764E+02E
 Epicentro: SANTA HELENA DEL OPON - SANTANDER                                  3
 ACTION:UPD 13-03-12 09:30 OP:ep   STATUS:               ID:20130205042054 L   I
 2013-02-05-0420-00M.COL___241                                                 6
 STAT SP IPHASW D HRMM SECON CODA AMPLIT PERI AZIMU VELO AIN AR TRES W  DIS CAZ7
 BAR2 SZ EP        421  9.09                             140   -0.3410 66.8  62 
 BAR2 SZ ES   1    421 21.82                             140    0.50 7 66.8  62 
 BAR2 SZ I         421 22.89         9.3 0.14             47           66.8  62 
 RUS  HZ EP   1    421 11.08                             133   -0.17 7 84.1 123 
 RUS  HN ES        421 24.44                             133   -0.1210 84.1 123 
 RUS  HN I         421 27.65         5.2 0.38             47           84.1 123 
 PTB  HN ES        421 23.55                             132   -0.0910 85.5 287 
 PTB  HN I         421 26.69         4.8 0.26             47           85.5 287 
 BRR  HN ES   1    421 24.11                             131    0.11 7 88.0   0 
 BRR  HN I         421 25.21         9.8 0.16             47           88.0   0 
 CHI  HZ EP        421 22.39                             110    0.39 9  186 180 
 CHI  HN I         421 55.74         1.4 0.72             37            186 180 
                                                                                
