 2012  4 5 0412 32.6 L   6.677 -73.218151.5  RSN  5 0.3 1.3LRSN                1
 GAP=206        0.64       6.8     6.3  8.5  0.2706E+02 -0.3157E+01 -0.6006E+01E
 Epicentro: BARICHARA - SANTANDER                                              3
 ACTION:UPD 12-07-05 11:50 OP:tino STATUS:               ID:20120405041232 L   I
 2012-04-05-0410-00M.COL___196                                                 6
 STAT SP IPHASW D HRMM SECON CODA AMPLIT PERI AZIMU VELO AIN AR TRES W  DIS CAZ7
 BAR2 SZ EP   1    412 52.63                             176    -0.1 7   10 157 
 BAR2 SZ I         413  9.74         5.2 0.29                            10 157 
 BRR  HZ EP   1    412 54.56                             153     0.1 7   72 311 
 BRR  HZ I         412 54.92         8.4 0.12                            72 311 
 BRR  HE ES   1    413 11.38                             153    -0.1 7   72 311 
 RUS  HZ EP   1    412 55.75                             149    -0.3 7   88 170 
 RUS  HN ES   1    413 14.75                             149     0.3 7   88 170 
 RUS  HZ I         413 15.87         1.8 0.23                            88 170 
 PTB  HZ EP   1    412 59.44                             135     0.3 7  138 264 
 PTB  HN ES   1    413 19.57                             135    -0.3 7  138 264 
 PTB  HZ I         413 20.51         2.3 0.59                           138 264 
 ZAR  HN ES   1    413 31.04                             124     0.3 6  202 297 
                                                                                
