 2016  7 5 0443 10.2 L   6.840 -73.177137.6  RSN 11 0.3 1.9LRSN                1
 GAP=131        0.81       4.1     3.7  5.7 -0.4657E+01  0.7653E+01 -0.2883E+01E
 Epicentro: ZAPATOCA - SANTANDER                                               3
 ACTION:UPD 17-03-29 16:47 OP:lp   STATUS:               ID:20160705044310 L   I
 OLDACT:UP  16-07-05 15:45 OP:dani STATUS:               ID:20160705043748     3
 OLDACT:UP  16-07-05 15:44 OP:dani STATUS:               ID:20160705043748     3
 OLDACT:UP  16-07-05 15:42 OP:dani STATUS:               ID:20160705043748     3
 OLDACT:UP  16-07-05 15:42 OP:dani STATUS:               ID:20160705043748     3
 OLDACT:UP  16-07-05 15:42 OP:dani STATUS:               ID:20160705043748     3
 OLDACT:UP  16-07-05 15:42 OP:dani STATUS:               ID:20160705043748     3
 OLDACT:UP  16-07-05 15:41 OP:dani STATUS:               ID:20160705043748     3
 OLDACT:UP  16-07-05 15:41 OP:dani STATUS:               ID:20160705043748     3
 OLDACT:REG 16-07-05 12:48 OP:dani STATUS:               ID:20160705043748     3
 2016-07-05-0437-48M.COL___322                                                 6
 STAT SP IPHASW D HRMM SECON CODA AMPLIT PERI AZIMU VELO AIN AR TRES W  DIS CAZ7
 BAR2 EZ EP        443 28.77                             168   -0.1310 27.4 181 
 BAR2 EZ ES        443 43.43                             168   -0.0910 27.4 181 
 BAR2 EZ I         443 44.82        27.4 0.18            166           27.4 181 
 BRR  HZ EP        443 30.45                             153    0.3110 66.1 297 
 BRR  HE ES   4    443 47.33                             153    1.61 0 66.1 297 
 BRR  HZ I         443 51.93        19.2 0.12            152           66.1 297 
 PAM  EZ EP        443 31.64                             150    0.1910 76.3  44 
 PAM  EN ES   4    443 44.70                             150   -3.35 0 76.3  44 
 PAM  EZ I         443 50.65        16.5 0.32            148           76.3  44 
 RUS  HZ EP        443 33.16                             141   -0.3110  105 174 
 RUS  HN ES        443 52.05                             141    0.3910  105 174 
 RUS  HZ I         443 53.40         5.1 0.36            138            105 174 
 PTB  HZ EP        443 35.80                             131   -0.45 9  145 257 
 PTB  HN ES        443 56.60                             131    0.00 9  145 257 
 PTB  HZ I         443 59.17        12.9 0.16            129            145 257 
 SPBC HZ EP        443 37.78                             127   -0.40 9  165 217 
 SPBC HN ES        443 59.81                             127   -0.22 9  165 217 
 SPBC HZ I         444  6.43        12.4 0.34            125            165 217 
 ZAR  HE ES   4    444  8.00                             121    1.91 0  199 291 
 NOR  HE ES        444 12.68                             117   -0.23 8  235 233 
 NOR  HZ I         444 18.62         8.2 0.20            115            235 233 
 ROSC BE ES   4    444 20.93                             115    3.28 0  255 210 
 HEL  HZ EP        443 50.17                             113    0.45 8  270 255 
 HEL  HE ES        444 20.43                             113   -0.15 8  270 255 
 HEL  HZ I         444 27.43         3.9 0.32            111            270 255 
 GUY2CHZ EP   4    443 54.78                             111    1.40 0  301 234 
 GUY2CHN ES        444 28.02                             111    0.93 7  301 234 
 GUY2CHZ I         444 34.17         3.3 0.28                           301 234 
 PTGC HZ EP   4    443 52.06                             110   -2.22 0  314 158 
 PTGC HZ I         444 14.04         7.5 0.40            108            314 158 
 PTGC HN ES   4    444 25.69                             110   -3.00 0  314 158 
 PRA  HZ EP        444  3.94                             105    0.27 6  394 209 
 PRA  HE ES     D  444 45.31                             105   -0.09 6  394 209 
 PRA  HZ I         444 50.41         3.5 0.30            103            394 209 
 SJC  HZ EP   4    444  3.51                             105   -1.30 0  404 327 
                                                                                
