 2013 10 5 0513  3.7 L   6.744 -73.175148.8  RSN  6 0.5 1.5LRSN                1
 GAP=206        1.20       5.4     8.1  8.6 -0.1091E+01  0.5943E+01 -0.8011E+01E
 Epicentro: VILLANUEVA - SANTANDER                                             3
 ACTION:UPD 13-11-25 09:19 OP:ep   STATUS:               ID:20131005051303 L   I
 OLDACT:UP  13-10-05 10:37 OP:nd   STATUS:               ID:20131005050959     3
 OLDACT:REG 13-10-05 08:40 OP:nd   STATUS:               ID:20131005050959     3
 2013-10-05-0509-59M.COL___273                                                 6
 STAT SP IPHASW D HRMM SECON CODA AMPLIT PERI AZIMU VELO AIN AR TRES W  DIS CAZ7
 BAR2 SZ EP        513 23.38                             173   -0.1610 16.8 183 
 BAR2 SZ ES        513 38.45                             173   -0.6010 16.8 183 
 BAR2 SZ I         513 40.30         8.0 0.28            173           16.8 183 
 BRR  HZ EP        513 25.64                             153    0.4810 71.7 304 
 BRR  HN ES        513 42.76                             153    0.8210 71.7 304 
 BRR  HZ I         513 47.45         4.5 0.44            151           71.7 304 
 PTB  HZ EP        513 30.25                             134   -0.24 9  144 261 
 PTB  HN ES        513 50.75                             134   -0.68 9  144 261 
 PTB  HZ I         513 53.51         3.5 0.16            133            144 261 
 SPBC HZ EP        513 32.22                             131    0.47 9  156 220 
 SPBC HN ES        513 53.95                             131    0.28 9  156 220 
 SPBC HZ I         514  0.74         3.0 0.28            132            156 220 
 ZAR  HN ES   1    514  1.41                             123   -0.26 6  204 294 
 SML  HZ EP        513 40.40                             118   -0.52 8  248 337 
 SML  HN ES        514 10.09                             118    0.10 8  248 337 
 SML  HZ I         514 17.51         4.1 0.10            119            248 337 
                                                                                
