 2015  3 5 0222 22.7 L   6.775 -73.138142.9  RSN  8 0.4 1.4LRSN                1
 GAP=139        0.88       3.8     4.5  6.4 -0.4701E+01  0.3221E+01  0.4715E+01E
 Epicentro: LOS SANTOS - SANTANDER                                             3
 ACTION:UPD 15-04-30 16:23 OP:nd   STATUS:               ID:20150305022222 L   I
 OLDACT:REG 15-03-05 13:25 OP:spq  STATUS:               ID:20150305021748     3
 2015-03-05-0217-48M.COL___284                                                 6
 STAT SP IPHASW D HRMM SECON CODA AMPLIT PERI AZIMU VELO AIN AR TRES W  DIS CAZ7
 BAR2 EZ EP        222 41.74                             171   -0.2010 20.8 194 
 BAR2 EZ ES   1    222 56.56                             171   -0.39 7 20.8 194 
 BAR2 EZ I         222 58.06         9.6 0.24            170           20.8 194 
 BRR  HZ EP        222 43.86                             151    0.2010 73.3 300 
 BRR  HN ES        223  0.59                             151    0.5710 73.3 300 
 BRR  HZ I         223  6.02         6.7 0.30            151           73.3 300 
 PAM  SZ EP     D  222 44.93                             150    0.2210 79.0  38 
 PAM  SN ES        223  1.61                             150   -0.2710 79.0  38 
 PAM  SZ I         223  4.03         4.4 0.22            154           79.0  38 
 RUS  HZ EP        222 45.93                             144   -0.0410 97.8 176 
 RUS  HE ES        223  4.16                             144    0.0410 97.8 176 
 RUS  HZ I         223  5.29         2.5 0.42            146           97.8 176 
 PTB  HZ EP        222 48.86                             131   -0.61 9  148 260 
 PTB  HE ES   1    223  9.84                             131   -0.51 7  148 260 
 PTB  HZ I         223 12.11         3.8 0.68            132            148 260 
 SPBC HZ EP   4    222 51.00                             129    0.17 0  162 220 
 SPBC HN ES        223 13.27                             129    0.50 9  162 220 
 SPBC HZ I         223 17.01         3.8 0.44            130            162 220 
 NOR  HE ES   1    223 25.37                             118   -0.46 6  234 235 
 NOR  HZ I         223 27.88         2.1 0.16            120            234 235 
 CHI  HZ EP   1    223  0.43                             117    0.46 6  246 196 
 CHI  HN ES   1    223 29.20                             117    0.15 6  246 196 
 CHI  HZ I         223 32.61         1.1 0.43            119            246 196 
                                                                                
