 2013  8 5 0932 59.8 L   6.872 -73.277124.0  RSN 12 0.5 2.2LRSN                1
 GAP=139        1.09       2.9     4.7  6.2 -0.7238E+00  0.1331E+02 -0.3310E+00E
 Epicentro: BETULIA - SANTANDER                                                3
 ACTION:UPD 14-01-14 08:59 OP:ep   STATUS:               ID:20130805093259 L   I
 OLDACT:REG 13-08-05 08:07 OP:jn   STATUS:               ID:20130805092959     3
 2013-08-05-0929-59M.COL___270                                                 6
 STAT SP IPHASW D HRMM SECON CODA AMPLIT PERI AZIMU VELO AIN AR TRES W  DIS CAZ7
 GIR2 SZ EP        933 17.07                             168    0.4010 24.7  22 
 GIR2 SZ ES        933 29.99                             168    0.1410 24.7  22 
 BAR2 SZ EP        933 17.48                             164    0.4410 32.6 161 
 BAR2 SZ ES        933 30.44                             164   -0.0810 32.6 161 
 BAR2 SZ I         933 31.87       176.1 0.46            166           32.6 161 
 BRR  HZ EP        933 17.85                             155    0.2210 54.7 298 
 BRR  HN ES   1    933 31.52                             155   -0.05 7 54.7 298 
 BRR  HZ I         933 33.52        49.4 0.14            152           54.7 298 
 RUS  HZ EP        933 22.22                             136   -0.0310  110 169 
 RUS  HN ES        933 39.28                             136   -0.5110  110 169 
 RUS  HZ I         933 41.27         7.3 0.22            137            110 169 
 PTB  HZ EP        933 22.80                             129   -1.06 9  135 254 
 PTB  HN ES   4    933 40.14                             129   -2.52 0  135 254 
 PTB  HZ I         933 45.05        22.4 0.62            128            135 254 
 OCA  HZ EP        933 25.52                             126   -0.06 9  151 358 
 OCA  HN ES        933 45.19                             126   -0.52 9  151 358 
 OCA  HZ I         933 53.23        24.3 0.20            127            151 358 
 SPBC HZ EP        933 26.36                             124   -0.11 9  161 213 
 SPBC HE ES        933 48.00                             124    0.70 9  161 213 
 SPBC HZ I         933 51.44        20.3 0.36            124            161 213 
 ZAR  HZ EP        933 29.56                             119    0.44 9  188 292 
 ZAR  HE ES        933 52.19                             119    0.17 9  188 292 
 ZAR  HZ I         933 55.03        22.2 0.32            119            188 292 
 NOR  HZ EP   1    933 33.64                             114    0.06 6  228 231 
 NOR  HE ES        933 59.87                             114   -0.08 8  228 231 
 NOR  HZ I         934  7.29         8.6 0.48            114            228 231 
 SML  HZ EP   1    933 33.19                             114   -0.61 6  231 338 
 SML  HN ES   1    934  0.78                             114    0.43 6  231 338 
 SML  HZ I         934  4.36        42.8 0.30            114            231 338 
 CHI  HN ES   1    934  5.60                             112   -0.17 6  253 192 
 CHI  HZ I         934 11.61         8.8 0.52            112            253 192 
 HEL  HZ EP        933 38.45                             111    0.84 8  260 253 
 HEL  HN ES        934  6.43                             111   -0.69 8  260 253 
 HEL  HZ I         934 12.34         4.6 0.44            111            260 253 
                                                                                
