 2011  9 5 0342 17.1 L   6.896 -72.972142.7  RSN  4 0.1 1.5LRSN                1
 GAP=259        0.35       7.2     8.0  5.4  0.4632E+02 -0.1379E+02 -0.1658E+02E
 Epicentro: PIEDECUESTA - SANTANDER                                            3
 ACTION:UPD 12-07-13 15:55 OP:ep   STATUS:               ID:20110905034217 L   I
 2011-09-05-0338-26S.COL___170                                                 6
 STAT SP IPHASW D HRMM SECON CODA AMPLIT PERI AZIMU VELO AIN AR TRES W  DIS CAZ7
 BAR2 SZ EP   1    342 37.03                             163    0.15 7 40.9 215 
 BAR2 SZ ES   1    342 52.21                             163   -0.08 7 40.9 215 
 BAR2 SZ I         342 53.59         4.5 0.31                          40.9 215 
 BRR  HZ EP   1    342 38.61                             147   -0.18 7 85.0 286 
 BRR  HZ I         342 48.40         4.3 0.59                          85.0 286 
 BRR  HE ES   2    342 55.91                             147    0.21 5 85.0 286 
 RUS  HZ EP   2    342 41.50                             140    0.08 5  112 186 
 RUS  HZ I         342 41.79         7.4 0.48                           112 186 
 RUS  HN ES   2    343  0.31                             140   -0.05 5  112 186 
 ZAR  HN ES   2    343 17.22                             120    0.00 4  218 288 
 ZAR  HZ I         343 22.85         3.6 0.29                           218 288 
                                                                                
