 2014  8 5 0302 55.0 L   6.803 -73.145145.4  RSN 19 0.4 2.0LRSN                1
 GAP= 71        0.91       2.1     2.5  4.4 -0.7781E+00  0.2614E+01  0.1294E+01E
 Epicentro: LOS SANTOS - SANTANDER                                             3
 ACTION:UPD 14-09-15 21:47 OP:nd   STATUS:               ID:20140805030255 L   I
 OLDACT:REG 14-08-05 12:56 OP:spq  STATUS:               ID:20140805025807     3
 2014-08-05-0258-07M.COL___254                                                 6
 STAT SP IPHASW D HRMM SECON CODA AMPLIT PERI AZIMU VELO AIN AR TRES W  DIS CAZ7
 BAR2 SZ EP        3 3 14.75                             170    0.1410 23.7 190 
 BAR2 SZ ES   1    3 3 29.79                             170   -0.10 7 23.7 190 
 BAR2 SZ I         3 3 32.09        15.1 0.20            170           23.7 190 
 BRR  HZ IP     C  3 3 16.61                             152    0.4910 71.1 298 
 BRR  HE ES        3 3 33.12                             152    0.5410 71.1 298 
 BRR  HZ I         3 3 34.97        16.9 0.24            155           71.1 298 
 PAM  SZ EP        3 3 17.54                             151    0.3710 77.1  40 
 PAM  SN ES        3 3 34.33                             151   -0.1310 77.1  40 
 PAM  SZ I         3 3 37.27        24.9 0.66            152           77.1  40 
 RUS  HZ EP        3 3 18.88                             144    0.1310  101 176 
 RUS  HE ES        3 3 37.42                             144    0.1510  101 176 
 RUS  HZ I         3 3 39.74         8.0 0.19            144            101 176 
 PTB  HZ EP        3 3 21.31                             132   -0.65 9  148 259 
 PTB  HN ES        3 3 42.41                             132   -0.57 9  148 259 
 PTB  HZ I         3 3 48.39        15.0 0.44            134            148 259 
 TAM  HZ IP     D  3 3 22.81                             130    0.15 9  155 105 
 TAM  HN ES        3 3 43.64                             130   -0.59 9  155 105 
 TAM  HZ I         3 4  2.70         9.3 0.30            131            155 105 
 OCA  HZ EP        3 3 22.86                             130   -0.40 9  160 353 
 OCA  HN ES        3 3 45.11                             130   -0.19 9  160 353 
 OCA  HZ I         3 3 50.45         8.5 0.26            132            160 353 
 SPBC HZ EP        3 3 23.74                             129    0.23 9  163 219 
 SPBC HN ES        3 3 45.58                             129   -0.16 9  163 219 
 SPBC HZ I         3 3 48.41        12.0 0.32            130            163 219 
 ZAR  HZ EP        3 3 27.77                             122    0.34 9  204 292 
 ZAR  HN ES        3 3 52.61                             122   -0.10 9  204 292 
 ZAR  HZ I         3 3 58.49         8.4 0.40            124            204 292 
 NOR  HZ IP     C  3 3 30.83                             118    0.08 8  235 234 
 NOR  HN ES        3 3 58.04                             118   -0.58 8  235 234 
 NOR  HZ I         3 4  2.87         6.8 0.22            120            235 234 
 SML  HZ EP        3 3 31.07                             117   -0.52 8  243 335 
 SML  HN ES        3 4  0.68                             117    0.56 8  243 335 
 SML  HZ I         3 4  7.43        10.2 0.06            119            243 335 
 CHI  HZ EP        3 3 32.21                             117   -0.52 8  249 195 
 CHI  HN ES   1    3 4  2.54                             117    0.39 6  249 195 
 CHI  HZ I         3 4  7.63         3.9 0.44            118            249 195 
 ROSC BE ES        3 4  3.42                             117    0.53 8  253 211 
 ROSC BZ I         3 4  7.84         7.2 0.40            118            253 211 
 HEL  HZ EP        3 3 35.04                             115   -0.18 8  272 256 
 HEL  HN ES        3 4  6.34                             115   -0.25 8  272 256 
 HEL  HZ I         3 4 13.10         5.1 0.42            116            272 256 
 GUY2CHZ EP        3 3 39.08                             112    0.45 7  301 235 
 GUY2CHE ES        3 4 12.60                             112   -0.06 7  301 235 
 GUY2CHZ I         3 4 24.71         4.6 0.60                           301 235 
 RREF HN ES   1    3 4 17.24                             111    0.07 5  322 229 
 RREF HZ I         3 4 26.09         4.6 0.28            112            322 229 
 TOL  SZ EP        3 3 44.03                             109    0.75 7  344 225 
 TOL  SN ES   1    3 4 20.41                             109   -0.53 5  344 225 
 TOL  SZ I         3 4 31.42         5.5 0.46            110            344 225 
 PRA  HZ EP        3 3 48.22                             106   -0.34 6  392 210 
 PRA  HE ES        3 4 30.86                             106    0.54 6  392 210 
 PRA  HZ I         3 4 34.23         4.1 0.46            107            392 210 
 SJC  HZ EP   4    3 3 48.96                             106   -1.57 0  409 327 
 SJC  HN ES   4    3 4 29.81                             106   -4.03 0  409 327 
 SJC  HZ I         3 4 34.58         2.5 0.41            107            409 327 
                                                                                
