 2010  1 5 0501 29.6 L   6.777 -73.076148.6  RSN  7 0.5 2.2LRSN                1
 GAP=190        1.12       6.7    22.8 11.4 -0.3332E+02  0.1151E+03  0.1342E+02E
 Epicentro: LOS SANTOS - SANTANDER                                             3
 ACTION:UP  10-08-24 09:42 OP:vdl  STATUS:               ID:20100105050129 L   I
 2010-01-05-0500-52S.COL___097                                                 6
 STAT SP IPHASW D HRMM SECON CODA AMPLIT PERI AZIMU VELO SNR AR TRES W  DIS CAZ7
 BAR2 SZ IP        5 1 49.29                             170    -0.310   24 210 
 GIR2 SZ EP        5 1 50.40                             166     0.710   36 339 
 GIR2 SZ ES   1    5 2  5.58                             166     0.2 7   36 339 
 RUS  BZ EP        5 1 53.44                             145     0.010   98 180 
 RUS  BN ES   2    5 2 11.68                             145    -0.3 5   98 180 
 RUS  BZ I         5 2 14.21        15.5 0.28                            98 180 
 OCA  SZ EP        5 1 57.82                             130    -0.6 9  164 351 
 OCA  SZ I         5 2 24.46        22.6 0.09                           164 351 
 CHI  HZ EP        5 2  7.78                             118     0.4 8  248 197 
 CHI  HN ES   2    5 2 35.93                             118    -1.0 4  248 197 
 RREF BZ EP        5 2 16.81                             111     0.5 7  326 231 
 PRA  HZ EP        5 2 22.86                             107    -0.5 6  394 211 
 PRA  HZ I         5 3 10.11         4.8 0.27                           394 211 
                                                                                
