 2013  8 5 0830 49.4 L   6.793 -73.069149.9  RSN  9 0.5 1.6LRSN                1
 GAP=175        1.03       4.8     7.0  7.3 -0.5251E+01  0.2226E+02 -0.6907E+00E
 Epicentro: LOS SANTOS - SANTANDER                                             3
 ACTION:UPD 14-01-14 08:59 OP:ep   STATUS:               ID:20130805083049 L   I
 OLDACT:DUP 13-08-05 11:39 OP:jn   STATUS:               ID:20130805082901d    3
 2013-08-05-0829-59M.COL___269                                                 6
 STAT SP IPHASW D HRMM SECON CODA AMPLIT PERI AZIMU VELO AIN AR TRES W  DIS CAZ7
 BAR2 SZ EP        831  9.76                             170    0.2010 25.5 209 
 BAR2 SZ ES        831 24.74                             170   -0.5510 25.5 209 
 BAR2 SZ I         831 25.94         8.0 0.26            167           25.5 209 
 GIR2 SZ EP   1    831 10.00                             166    0.36 7 34.5 336 
 GIR2 SZ ES        831 25.78                             166    0.3410 34.5 336 
 PAM  SN ES   1    831 29.68                             153    0.41 7 72.9  34 
 PAM  SZ I         831 31.88        10.1 0.50            158           72.9  34 
 BRR  HZ EP   1    831 11.78                             151    0.34 7 79.1 296 
 BRR  HN ES   1    831 28.23                             151   -0.41 7 79.1 296 
 BRR  HZ I         831 33.36         4.9 0.12            151           79.1 296 
 OCA  HN ES   1    831 40.61                             130   -0.08 7  162 350 
 SPBC HZ EP        831 18.66                             129   -0.01 9  168 221 
 SPBC HE ES   1    831 41.00                             129   -0.50 7  168 221 
 SPBC HZ I         831 48.26         5.5 0.22            130            168 221 
 ZAR  HZ EP   1    831 22.44                             122   -0.50 6  212 291 
 ZAR  HE ES   1    831 48.90                             122   -0.22 6  212 291 
 SML  HZ EP   1    831 25.86                             118   -0.86 6  248 334 
 SML  HN ES   1    831 55.70                             118   -0.14 6  248 334 
 HEL  HE ES   1    832  4.58                             115    1.65 6  280 256 
                                                                                
