 2015  3 5 0536 33.3 L   6.801 -73.152144.0  RSN  9 0.4 1.3LRSN                1
 GAP=136        0.88       3.5     4.4  6.3 -0.1165E+01  0.6498E+01 -0.1567E+01E
 Epicentro: LOS SANTOS - SANTANDER                                             3
 ACTION:UPD 15-04-30 16:23 OP:nd   STATUS:               ID:20150305053633 L   I
 OLDACT:REG 15-03-05 13:40 OP:spq  STATUS:               ID:20150305052750     3
 2015-03-05-0527-50M.COL___284                                                 6
 STAT SP IPHASW D HRMM SECON CODA AMPLIT PERI AZIMU VELO AIN AR TRES W  DIS CAZ7
 BAR2 EZ ES   1    537  7.48                             170   -0.34 7 23.3 188 
 BAR2 EZ I         537  8.39         4.4 0.34            170           23.3 188 
 BRR  HZ EP        536 54.30                             153    0.1210 70.5 299 
 BRR  HE ES        537 11.35                             153    0.8610 70.5 299 
 BRR  HZ I         537 14.12         5.1 0.28            151           70.5 299 
 PAM  SZ EP        536 55.41                             151    0.1010 77.7  40 
 PAM  SN ES        537 12.35                             151   -0.1510 77.7  40 
 PAM  SZ I         537 14.37         5.7 0.48            154           77.7  40 
 RUS  HZ EP        536 56.97                             144    0.1210  101 176 
 RUS  HE ES   1    537 15.07                             144   -0.17 7  101 176 
 RUS  HZ I         537 17.09         1.3 0.16            146            101 176 
 PTB  HZ EP        536 59.56                             132   -0.46 9  147 259 
 PTB  HN ES   1    537 20.29                             132   -0.61 7  147 259 
 PTB  HZ I         537 25.37         2.1 0.00            132            147 259 
 OCA  HN ES   1    537 23.05                             129   -0.32 7  160 353 
 OCA  HZ I         537 26.55         2.5 0.24            131            160 353 
 SPBC HN ES   1    537 23.97                             129    0.29 7  163 219 
 SPBC HZ I         537 28.87         2.0 0.18            130            163 219 
 ZAR  HZ EP   1    537  5.62                             122    0.10 6  203 292 
 ZAR  HE ES   1    537 30.51                             122   -0.17 6  203 292 
 ZAR  HZ I         537 35.22         2.2 0.36            123            203 292 
 SML  HZ EP   1    537 10.26                             117    0.52 6  243 335 
 SML  HE ES   1    537 37.63                             117   -0.57 6  243 335 
 SML  HZ I         537 40.81         3.9 0.24            119            243 335 
                                                                                
