 2014  7 5 0550 36.2 L   6.770 -73.401124.6  RSN  4 0.1 1.6LRSN                1
 GAP=147        0.37       2.2     3.1  4.4  0.2563E+01  0.2231E+01 -0.3942E+01E
 Epicentro: SAN VICENTE DE CHUCURI - SANTANDER                                 3
 ACTION:UPD 15-03-16 20:41 OP:nd   STATUS:               ID:20140705055036 L   I
 OLDACT:UP  14-07-09 08:59 OP:SPQ  STATUS:               ID:20140705055036 L   3
 OLDACT:REG 14-07-05 14:24 OP:cam  STATUS:               ID:20140705055000     3
 2014-07-05-0550-00M.COL___279                                                 6
 STAT SP IPHASW D HRMM SECON CODA AMPLIT PERI AZIMU VELO AIN AR TRES W  DIS CAZ7
 BAR2 SZ ES        551  6.94                             165   -0.0610 31.2 129 
 BAR2 SZ I         551  7.86        14.5 0.28            165           31.2 129 
 RUS  HZ EP   1    550 58.15                             138    0.01 7  103 160 
 RUS  HN ES        551 15.31                             138    0.0510  103 160 
 RUS  HN I         551 16.01         6.4 0.46            139            103 160 
 PTB  HE ES   1    551 16.52                             133   -0.03 7  119 258 
 SML  HZ EP   2    551 10.46                             113   -0.45 4  236 342 
 SML  HE ES        551 38.12                             113    0.13 8  236 342 
                                                                                
