 2011  4 5 0100  2.1 L   6.804 -73.122141.3  RSN 12 0.3 2.3LRSN                1
 GAP=104        0.56       2.3     3.4  4.4 -0.4928E+00  0.2948E+01  0.1785E+01E
 Epicentro: LOS SANTOS - SANTANDER                                             3
 ACTION:UP  11-06-22 15:28 OP:REBC STATUS:               ID:20110405010002 L   I
 2011-04-05-0058-28S.COL___122                                                 6
 STAT SP IPHASW D HRMM SECON CODA AMPLIT PERI AZIMU VELO SNR AR TRES W  DIS CAZ7
 BAR2 SZ IP        1 0 21.28                             170     0.010   24 196 
 BAR2 SZ ES   1    1 0 35.84                             170    -0.3 7   24 196 
 BAR2 SZ I         1 0 37.64        56.0 0.20                            24 196 
 GIR2 SZ EP   1    1 0 21.36                             167     0.1 7   31 346 
 BRR  HZ IP     C  1 0 23.10                             151     0.210   73 297 
 BRR  HZ I         1 0 23.37        46.8 0.18                            73 297 
 BRR  HN ES   2    1 0 39.20                             151     0.1 5   73 297 
 OCA  SZ EP   1    1 0 30.27                             128     0.2 7  160 352 
 OCA  SZ ES   1    1 0 51.70                             128    -0.2 7  160 352 
 OCA  SZ I         1 0 54.87        31.2 0.25                           160 352 
 YOP  SZ EP   1    1 0 31.94                             125     0.2 7  178 154 
 YOP  SN ES   1    1 0 55.28                             125     0.4 7  178 154 
 YOP  SZ I         1 0 56.79        17.6 0.33                           178 154 
 NOR  SZ EP   1    1 0 37.71                             117    -0.1 6  237 235 
 NOR  SN ES   1    1 1  5.21                             117    -0.5 6  237 235 
 CHI  HZ EP   1    1 0 39.47                             116    -0.2 6  250 196 
 CHI  HE ES   1    1 1  8.94                             116    -0.1 6  250 196 
 CHI  HZ I         1 1 16.15        11.2 0.51                           250 196 
 HEL  HZ EP   1    1 0 42.65                             114     0.2 6  275 256 
 HEL  HZ I         1 1 21.98        11.9 0.26                           275 256 
 RREF HZ EP   1    1 0 48.46                             110     0.1 5  324 230 
 RREF HN ES   2    1 1 24.81                             110     0.4 3  324 230 
 RREF HZ I         1 1 35.40        14.4 0.25                           324 230 
 DBB  SZ EP   1    1 0 49.95                             108     0.2 5  342 274 
 SDV  BZ EP   1    1 0 50.94                             107    -0.8 5  358  50 
 SDV  BZ I         1 0 51.62         6.7 0.17                           358  50 
 PRA  HZ EP   1    1 0 55.37                             106    -0.3 4  394 210 
 PRA  HN ES   1    1 1 37.23                             106    -0.2 4  394 210 
                                                                                
