 2017  1 5 0943 52.9 L   6.812 -73.172144.6  RSN 16 0.4 2.1LRSN                1
 GAP=133        0.86       3.3     3.5  4.5 -0.2817E+01  0.5040E+01  0.2799E+01E
 Epicentro: LOS SANTOS - SANTANDER                                             3
 ACTION:UPD 17-05-22 15:55 OP:jn   STATUS:               ID:20170105094352 L   I
 OLDACT:REG 17-01-05 13:09 OP:lv   STATUS:               ID:20170105093738     3
 2017-01-05-0938-00M.COL___365                                                 6
 STAT SP IPHASW D HRMM SECON CODA AMPLIT PERI AZIMU VELO AIN AR TRES W  DIS CAZ7
 BAR2 EZ EP        944 12.27                             170   -0.1110 24.3 183 
 BAR2 EZ ES        944 27.32                             170   -0.2810 24.3 183 
 BAR2 EZ I         944 28.64        32.9 0.21            169           24.3 183 
 BRR  HZ EP        944 14.20                             153    0.4910 68.0 299 
 BRR  HE ES        944 30.49                             153    0.5210 68.0 299 
 BRR  HZ I         944 32.23        17.0 0.14            150           68.0 299 
 PAM  EZ EP        944 15.25                             151    0.2410 78.3  42 
 PAM  EN ES        944 32.13                             151   -0.1610 78.3  42 
 PAM  EZ I         944 34.48        37.8 0.50            153           78.3  42 
 RUS  HZ EP        944 16.50                             143   -0.1210  102 174 
 RUS  HE ES        944 35.14                             143   -0.0010  102 174 
 RUS  HZ I         944 36.19        19.4 0.30            144            102 174 
 PTB  HZ EP        944 18.94                             132   -0.57 9  145 258 
 PTB  HN ES        944 40.18                             132   -0.11 9  145 258 
 PTB  HZ I         944 43.07        11.1 0.15            131            145 258 
 NOR  HZ EP        944 28.19                             118   -0.17 8  233 234 
 NOR  HE ES        944 56.36                             118    0.32 8  233 234 
 NOR  HZ I         944 58.92         9.8 0.17            118            233 234 
 CHI  HZ EP        944 30.51                             117   -0.05 8  249 194 
 CHI  HN ES        944 59.71                             117   -0.25 8  249 194 
 CHI  HZ I         945  3.32         7.6 0.45            117            249 194 
 ROSC BZ EP   9    944 32.77                             117    1.88 0  252 210 
 ROSC BN ES        945  3.08                                    0.66 8  252 210 
 ROSC BZ I         945  5.97        10.4 0.30            116            252 210 
 URE  HZ EP        944 33.00                             114   -0.52 7  281 292 
 URE  HE ES   4    945  3.50                             114   -1.74 0  281 292 
 URE  HZ I         945 15.01         8.1 0.24            113            281 292 
 GUY2CHZ EP        944 36.74                             112    0.50 7  300 234 
 GUY2CHN ES        945 10.26                             112    0.18 7  300 234 
 GUY2CHZ I         945 18.46         6.7 0.26                           300 234 
 PTGC HZ EP   4    944 35.59                             111   -1.34 0  311 158 
 PTGC HE ES   4    945  8.75                             111   -2.55 0  311 158 
 PTGC HZ I         945 11.53        10.1 0.40            112            311 158 
 CBOC HZ EP   4    944 41.07                             110    1.61 0  331 252 
 CBOC HN ES        945 15.05                             110   -0.76 7  331 252 
 CBOC HZ I         945 20.54         1.9 0.12            110            331 252 
 ORTC HZ EP        944 47.33                             106    0.66 6  395 216 
 ORTC HN ES        945 29.15                             106    0.51 6  395 216 
 ORTC HZ I         945 33.79         4.0 0.30            106            395 216 
 PAL  HZ EP        944 47.77                             106   -0.01 6  404 239 
 PAL  HN ES   4    945 27.96                             106   -2.65 0  404 239 
 PAL  HZ I         945 34.71         2.6 0.24            106            404 239 
 SJC  HZ EP   4    944 46.57                             106   -1.51 0  407 327 
 SJC  HN ES   4    945 27.92                             106   -3.22 0  407 327 
 SJC  HZ I         945 34.12         2.0 0.31            106            407 327 
 CRJC HZ EP   4    944 52.56                             103   -2.64 0  466   4 
 CRJC HE ES   4    945 40.57                             103   -3.25 0  466   4 
 MACC HZ EP   4    944 59.36                             101   -2.29 0  521 188 
 MACC HE ES   4    945 52.00                             101   -3.31 0  521 188 
 MACC HZ I         945 57.71         1.3 0.17            102            521 188 
                                                                                
