 2017  5 5 0242 22.8 L   6.769 -73.157145.8  RSN  7 0.4 1.5LRSN                1
 GAP=112        0.87       3.8     4.1  7.3  0.4785E+01 -0.1119E+01  0.1676E+01E
 Epicentro: LOS SANTOS - SANTANDER                                             3
 ACTION:UPD 17-06-16 13:33 OP:jn   STATUS:               ID:20170505024222 L   I
 OLDACT:UP  17-05-05 14:34 OP:edw  STATUS:               ID:20170505023740     3
 OLDACT:UP  17-05-05 14:34 OP:edw  STATUS:               ID:20170505023740     3
 OLDACT:REG 17-05-05 12:04 OP:edw  STATUS:               ID:20170505023740     3
 2017-05-05-0238-00M.COL___362                                                 6
 STAT SP IPHASW D HRMM SECON CODA AMPLIT PERI AZIMU VELO AIN AR TRES W  DIS CAZ7
 BRR  HZ IP     D  242 44.16                             152    0.1210 71.8 301 
 BRR  HN ES        243  1.17                             152    0.6010 71.8 301 
 BRR  HZ I         243  3.77         6.4 0.32            150           71.8 301 
 PAM  EZ EP     C  242 45.28                             149    0.0010 80.8  39 
 PAM  EN ES        243  2.60                             149   -0.1710 80.8  39 
 PAM  EZ I         243  5.37         4.4 0.26            153           80.8  39 
 RUS  HZ EP        242 46.34                             145   -0.0310 97.3 175 
 RUS  HN ES        243  4.17                             145   -0.5510 97.3 175 
 RUS  HZ I         243  6.19         6.8 0.32            147           97.3 175 
 PTB  HZ EP   9    242 49.28                             132   -0.37 0  146 260 
 PTB  HN ES        243 10.00                             133   -0.19 9  146 260 
 PTB  HZ I         243 17.10         3.3 0.46            132            146 260 
 YPLC HN ES        243 15.87                             127    0.39 9  174 150 
 ZAR  HZ EP   4    242 53.01                             122   -2.30 0  204 293 
 ZAR  HN ES        243 20.18                             122   -0.46 9  204 293 
 ZAR  HZ I         243 25.51         4.0 0.26            122            204 293 
 NOR  HN ES   2    243 26.15                             119    0.27 4  232 235 
                                                                                
