 2012 12 5 0430 10.8 L   6.791 -73.169151.3  RSN  7 0.4 1.7LRSN                1
 GAP=134        0.79       4.3     5.3  6.8  0.1931E+01  0.1586E+02 -0.3477E+01E
 Epicentro: LOS SANTOS - SANTANDER                                             3
 ACTION:UPD 13-01-04 14:25 OP:ep   STATUS:               ID:20121205043010 L   I
 2012-12-05-0430-00M.COL___237                                                 6
 STAT SP IPHASW D HRMM SECON CODA AMPLIT PERI AZIMU VELO AIN AR TRES W  DIS CAZ7
 BAR2 SZ EP   1    430 31.42                             171    0.31 8 22.1 184 
 BAR2 SZ ES   1    430 46.50                             171   -0.42 8 22.1 184 
 BAR2 SZ I         430 48.00        22.9 0.20                          22.1 184 
 GIR2 SZ EP   1    430 31.47                             167    0.28 8 31.9 355 
 GIR2 SZ ES   1    430 47.27                             167    0.21 8 31.9 355 
 PAM  SN ES   1    430 51.64                             151   -0.04 8 79.7  41 
 RUS  HZ EP   1    430 35.35                             145    0.26 8 99.8 175 
 RUS  HN ES   1    430 53.61                             145   -0.39 8 99.8 175 
 RUS  HZ I         430 55.34         1.8 0.22                          99.8 175 
 PTB  HZ EP        430 38.30                             134    0.2710  145 259 
 PTB  HN ES   1    430 59.39                             134    0.16 7  145 259 
 PTB  HZ I         431  6.51         5.7 0.38                           145 259 
 ZAR  HZ EP   1    430 42.23                             124   -1.22 7  202 293 
 ZAR  HE ES   1    431  9.15                             124    0.26 7  202 293 
 SML  HZ EP   1    430 47.78                             118    0.01 6  244 336 
 SML  HE ES   1    431 16.44                             118   -0.12 6  244 336 
 SML  HZ I         431 19.65         5.8 0.10                           244 336 
                                                                                
