 2016 10 5 0637 32.5 L   6.784 -73.148151.0  RSN 15 0.4 2.2LRSN                1
 GAP=120        1.03       3.1     4.2  6.2 -0.1231E+01  0.1048E+01  0.4973E+01E
 Epicentro: LOS SANTOS - SANTANDER                                             3
 ACTION:UPD 16-11-09 19:16 OP:rebc STATUS:               ID:20161005063732 L   I
 OLDACT:UP  16-10-05 17:48 OP:dani STATUS:               ID:20161005062742     3
 OLDACT:UP  16-10-05 17:48 OP:dani STATUS:               ID:20161005062742     3
 OLDACT:UP  16-10-05 17:48 OP:dani STATUS:               ID:20161005062742     3
 OLDACT:UP  16-10-05 17:48 OP:dani STATUS:               ID:20161005062742     3
 OLDACT:REG 16-10-05 13:23 OP:dani STATUS:               ID:20161005062742     3
 2016-10-05-0628-00M.COL___351                                                 6
 STAT SP IPHASW D HRMM SECON CODA AMPLIT PERI AZIMU VELO AIN AR TRES W  DIS CAZ7
 BAR2 EZ EP        637 52.72                             171   -0.0210 21.6 190 
 BAR2 EZ I         638  9.45        41.0 0.42            164           21.6 190 
 BRR  HZ IP     D  637 54.58                             153    0.3110 71.9 300 
 BRR  HN ES        638 12.08                             153    0.8510 71.9 300 
 BRR  HZ I         638 15.81        65.9 0.05            135           71.9 300 
 PAM  EZ EP        637 55.50                             151    0.1210 78.9  39 
 PAM  EE ES        638 12.86                             151   -0.3410 78.9  39 
 PAM  EZ I         638 15.24        15.5 0.56            139           78.9  39 
 RUS  HZ EP        637 57.10                             145    0.4310 98.9 176 
 RUS  HN ES        638 15.26                             145   -0.2410 98.9 176 
 RUS  HZ I         638 16.54        18.1 0.28            131           98.9 176 
 PTB  HZ EP        637 59.55                             133   -0.32 9  147 259 
 PTB  HN ES        638 20.62                             133   -0.58 9  147 259 
 PTB  HZ I         638 23.70        17.1 0.12            116            147 259 
 OCA  HZ EP        638  1.49                             130    0.09 9  162 353 
 OCA  HN ES        638 23.72                             130   -0.20 9  162 353 
 OCA  HZ I         638 29.66        23.6 0.38            115            162 353 
 SPBC HZ EP        638  1.59                             130    0.30 9  162 219 
 SPBC HN ES        638 23.99                             130    0.27 9  162 219 
 SPBC HZ I         638 25.93        45.7 0.10            114            162 219 
 ZAR  HN ES        638 30.30                             123   -0.67 9  205 293 
 ZAR  HZ I         638 36.05        11.4 0.24            109            205 293 
 NOR  HZ EP        638  8.55                             120    0.12 8  234 235 
 NOR  HZ I         638 40.83        17.0 0.19            106            234 235 
 CHI  HZ EP        638 10.53                             118    0.20 8  247 195 
 CHI  HE ES        638 39.55                             118   -0.26 8  247 195 
 CHI  HZ I         638 46.02         6.1 0.13            106            247 195 
 ROSC BZ EP   4    638 12.35                             118    1.59 0  251 211 
 ROSC BN ES   4    638 44.71                             118    4.13 0  251 211 
 ROSC BZ I         638 50.30        19.1 0.45            106            251 211 
 HEL  HZ EP   4    638 14.33                             116    1.40 0  271 256 
 HEL  HZ I         638 51.03         7.4 0.32            104            271 256 
 URE  HN ES   4    638 44.25                             115   -1.92 0  284 292 
 GUY2CHZ EP   4    638 17.48                             113    1.24 0  300 235 
 GUY2CHZ I         639  1.78         8.2 0.50                           300 235 
 PTGC HZ EP        638 15.54                             113   -0.90 7  307 158 
 PTGC HN ES   4    638 48.02                             113   -2.68 0  307 158 
 PTGC HZ I         638 53.94         5.1 0.19            103            307 158 
 PAL  HZ EP        638 28.29                             107    0.56 6  405 239 
 PAL  HZ I         639 17.42         1.9 0.18             99            405 239 
 SJC  HZ EP   4    638 26.85                             106   -1.57 0  411 327 
 SJC  HE ES   4    639  8.13                             106   -3.88 0  411 327 
                                                                                
