 2010  2 5 1927 13.0 L   6.771 -72.975150.2  RSN  7 0.4 1.6LRSN                1
 GAP=178        0.68       5.0    12.5  6.8 -0.3788E+02  0.3554E+02 -0.4772E+01E
 Epicentro: CEPITA - SANTANDER                                                 3
 ACTION:UP  10-08-24 09:47 OP:vdl  STATUS:               ID:20100205192713 L   I
 2010-02-05-1919-52S.COL___089                                                 6
 STAT SP IPHASW D HRMM SECON CODA AMPLIT PERI AZIMU VELO SNR AR TRES W  DIS CAZ7
 BAR2 SZ ES   2   1927 48.43                             168    -0.8 5   30 229 
 GIR2 SZ EP   2   1927 34.00                             164     0.5 5   42 325 
 RUS  HZ EP       1927 37.22                             145     0.210   98 187 
 RUS  HE ES       1927 55.68                             145    -0.110   98 187 
 RUS  HZ I        1927 57.02         5.2 0.34                            98 187 
 GRA  SZ EP   2   1927 38.49                             138    -0.1 5  125   9 
 GRA  SZ ES   2   1927 58.68                             138     0.2 5  125   9 
 CHI  HZ EP       1927 51.08                             118    -0.2 8  251 200 
 CHI  HE ES   1   1928 21.55                             118     0.5 6  251 200 
 CHI  HZ I        1928 26.50         3.2 0.64                           251 200 
 RREF HN ES   2   1928 38.52                             111     0.5 3  334 232 
 PRA  HZ EP       1928  6.78                             107    -0.7 6  399 212 
 PRA  HE ES   1   1928 50.09                             107     0.1 4  399 212 
                                                                                
