 2015 10 5 1210 31.9 L   6.765 -73.088149.2  RSN  8 0.4 1.7LRSN                1
 GAP=189        0.75       3.1     5.2  6.0  0.1534E+01  0.5543E+01  0.4529E+00E
 Epicentro: LOS SANTOS - SANTANDER                                             3
 ACTION:UPD 15-12-22 20:37 OP:cam  STATUS:               ID:20151005121031 L   I
 OLDACT:REG 15-10-05 21:18 OP:spq  STATUS:               ID:20151005120747     3
 2015-10-05-1207-47M.COL___349                                                 6
 STAT SP IPHASW D HRMM SECON CODA AMPLIT PERI AZIMU VELO AIN AR TRES W  DIS CAZ7
 BAR2 EZ EP       1210 52.15                             171    0.2210 21.8 209 
 BAR2 EZ ES   1   1211  7.43                             171   -0.10 7 21.8 209 
 BAR2 EZ I        1211  7.90        10.6 0.16            169           21.8 209 
 BRR  HZ EP       1210 54.16                             151    0.3010 78.7 299 
 BRR  HN ES       1211 11.16                             151    0.1810 78.7 299 
 BRR  HZ I        1211 11.85        11.9 0.20            148           78.7 299 
 RUS  HE ES   2   1211 14.32                             146    0.04 5 96.5 180 
 RUS  HZ I        1211 14.92         5.1 0.44            145           96.5 180 
 OCA  HN ES   1   1211 22.83                             129   -0.73 7  165 351 
 ZAR  HZ EP       1211  5.55                             122    0.20 8  211 292 
 ZAR  HN ES       1211 31.74                             122    0.32 8  211 292 
 ZAR  HZ I        1211 37.01         5.5 0.26            120            211 292 
 NOR  HN ES       1211 35.94                             119   -0.51 8  238 236 
 NOR  HZ I        1211 38.22         3.2 0.23            117            238 236 
 CHI  HZ EP   1   1211  9.92                             118    0.33 6  247 197 
 CHI  HN ES   1   1211 38.43                             118   -0.56 6  247 197 
 CHI  HZ I        1211 42.25         1.9 0.36            117            247 197 
 SML  HZ EP   1   1211  9.16                             117   -0.24 6  250 334 
 SML  HN ES   1   1211 38.13                             117   -0.52 6  250 334 
 SML  HZ I        1211 43.27        11.0 0.10            116            250 334 
                                                                                
