 2017  1 5 1856 17.9 L   6.736 -73.129142.0  RSN  6 0.4 1.4LRSN                1
 GAP=234        0.88       5.7     6.4  8.8  0.1567E+02  0.2156E+02  0.8286E+01E
 Epicentro: JORDAN - SANTANDER                                                 3
 ACTION:UPD 17-05-22 15:55 OP:jn   STATUS:               ID:20170105185617 L   I
 OLDACT:REG 17-01-05 20:46 OP:dnl  STATUS:               ID:20170105184743     3
 2017-01-05-1848-00M.COL___369                                                 6
 STAT SP IPHASW D HRMM SECON CODA AMPLIT PERI AZIMU VELO AIN AR TRES W  DIS CAZ7
 BAR2 EZ EP     D 1856 37.13                             173    0.2010 17.0 200 
 BAR2 EZ ES   2   1856 51.30                             173   -0.50 5 17.0 200 
 BAR2 EZ I        1856 57.71         4.8 0.66            170           17.0 200 
 BRR  HZ EP   2   1856 38.84                             150   -0.07 5 76.4 303 
 BRR  HN ES       1856 55.79                             150    0.4610 76.4 303 
 BRR  HZ I        1856 58.82        12.7 0.36            151           76.4 303 
 RUS  HZ EP   2   1856 41.20                             145    0.47 5 93.4 177 
 RUS  HN ES       1856 58.40                             145   -0.1710 93.4 177 
 RUS  HZ I        1857  0.62         1.4 0.34            149           93.4 177 
 PTB  HZ EP       1856 43.88                             131   -0.71 9  148 262 
 PTB  HN ES   2   1857  4.83                             131   -0.60 5  148 262 
 PTB  HZ I        1857  8.62         2.5 0.12            134            148 262 
 ZAR  HE ES       1857 15.81                             121   -0.20 8  209 294 
 ZAR  HZ I        1857 21.63         4.1 0.32            125            209 294 
 NOR  HZ EP   2   1856 53.79                             118    0.68 4  232 236 
 NOR  HN ES       1857 21.07                             118    0.47 8  232 236 
 NOR  HZ I        1857 25.58         2.5 0.44            122            232 236 
                                                                                
