 2010  8 5 1147  2.4 L   6.792 -73.016146.5  RSN 12 0.5 2.3LRSN                1
 GAP=173        1.15       4.6     8.0  7.6 -0.1424E+02 -0.1877E+01  0.8470E+01E
 Epicentro: CEPITA - SANTANDER                                                 3
 ACTION:UP  10-09-07 10:52 OP:vdl  STATUS:               ID:20100805114702 L   I
 2010-08-05-1143-26S.COL___125                                                 6
 STAT SP IPHASW D HRMM SECON CODA AMPLIT PERI AZIMU VELO SNR AR TRES W  DIS CAZ7
 BAR2 SZ IP       1147 22.40                             168     0.110   29 220 
 BAR2 SZ ES   2   1147 37.03                             168    -0.7 5   29 220 
 BAR2 SZ I        1147 40.52        60.1 0.73                            29 220 
 BTL  SZ EP       1147 22.57                             167     0.210   31 297 
 BTL  SZ ES   2   1147 38.55                             167     0.7 5   31 297 
 GIR2 SZ EP   1   1147 22.46                             165     0.1 7   37 328 
 GIR2 SZ ES   2   1147 37.23                             165    -0.7 5   37 328 
 BRR  HZ EP       1147 24.32                             148    -0.110   85 294 
 BRR  HN ES       1147 41.54                             148    -0.110   85 294 
 BRR  HZ I        1147 43.46        53.0 0.43                            85 294 
 RUS  HZ EP       1147 26.20                             144     0.010  100 184 
 RUS  HN ES   1   1147 44.66                             144    -0.1 7  100 184 
 RUS  HZ I        1147 46.10        16.2 0.33                           100 184 
 GUE  SZ EP       1147 26.41                             140    -0.710  115   5 
 GRA  SZ EP       1147 28.12                             138     0.610  123  11 
 GRA  SZ ES   1   1147 48.04                                     0.9 7  123  11 
 GRA  SZ I        1147 50.15        20.4 0.28                           123  11 
 OCA  SZ EP   1   1147 30.13                             130    -1.0 7  164 348 
 CHI  HZ EP   1   1147 40.29                             117    -0.2 6  252 198 
 CHI  HN ES   1   1148  9.85                             117    -0.4 6  252 198 
 CHI  HZ I        1148 19.21        11.0 0.77                           252 198 
 HEL  HZ EP   1   1147 43.97                                    -0.2 6  286 257 
 HEL  HN ES   2   1148 16.42                             114    -0.4 4  286 257 
 HEL  HZ I        1148 21.02         9.6 0.72                           286 257 
 RREF HZ EP   1   1147 50.62                             110     0.8 5  332 231 
 RREF HN ES   1   1148 27.64                             110     0.9 5  332 231 
 RREF HZ I        1148 35.03        16.2 1.74                           332 231 
 PRA  HZ EP       1147 56.36                             106    -0.4 6  398 211 
 PRA  HN ES       1148 39.73                             106     0.6 6  398 211 
 PRA  HZ I        1148 44.12         7.5 0.30                           398 211 
                                                                                
