 2010  9 5 1407 49.8 L   6.770 -73.108150.9  RSN  5 0.3 1.6LRSN                1
 GAP=163        0.57       6.1    12.7 10.8  0.2379E+02 -0.7785E+02 -0.3824E+02E
 Epicentro: LOS SANTOS - SANTANDER                                             3
 ACTION:UP  11-02-18 11:00 OP:tino STATUS:               ID:20100905140749 L   I
 2010-09-05-1404-23S.COL___120                                                 6
 STAT SP IPHASW D HRMM SECON CODA AMPLIT PERI AZIMU VELO SNR AR TRES W  DIS CAZ7
 BAR2 SZ IP       14 8 10.05                             172     0.010   21 203 
 BAR2 SZ ES   2   14 8 25.26                             172    -0.5 5   21 203 
 BAR2 SZ I        14 8 33.14         7.6 0.73                            21 203 
 BRR  HZ EP   2   14 8 11.39                             152    -0.4 5   77 299 
 BRR  HZ I        14 8 12.13        12.2 0.16                            77 299 
 BRR  HN ES   2   14 8 29.38                             152     0.4 5   77 299 
 RUS  HZ EP   2   14 8 13.83                             146     0.0 5   97 178 
 RUS  HN ES   2   14 8 32.83                             146     0.3 5   97 178 
 RUS  HZ I        14 8 33.85         2.3 0.29                            97 178 
 GRA  SZ IP       14 8 15.78                             138     0.110  128  15 
 GRA  SZ I        14 8 16.92         3.9 0.23                           128  15 
 OCA  SZ EP   2   14 8 18.68                             130    -0.2 5  164 352 
 OCA  SZ I        14 8 21.18         7.6 0.41                           164 352 
                                                                                
