 2011 11 5 1232 18.3 L   6.775 -73.133145.8  RSN  5 0.1 1.4LRSN                1
 GAP=139        0.39       2.5     3.0  4.1  0.5971E+00  0.3064E+01 -0.1050E+01E
 Epicentro: LOS SANTOS - SANTANDER                                             3
 ACTION:UPD 12-07-13 16:08 OP:ep   STATUS:               ID:20111105123218 L   I
 2011-11-05-1228-39S.COL___175                                                 6
 STAT SP IPHASW D HRMM SECON CODA AMPLIT PERI AZIMU VELO AIN AR TRES W  DIS CAZ7
 BAR2 SZ EP       1232 37.75                             171   -0.1710 20.9 195 
 BAR2 SZ ES   1   1232 53.03                             171   -0.17 7 20.9 195 
 BAR2 SZ I        1232 55.70         5.5 0.64                          20.9 195 
 BRR  HZ EP       1232 39.80                             152    0.1710 73.8 300 
 BRR  HZ I        1232 42.71         7.5 0.44                          73.8 300 
 PAM  SZ EP       1232 40.59                             150   -0.0410 78.7  37 
 PAM  SN ES   1   1232 58.12                             150    0.10 7 78.7  37 
 RUS  HZ EP       1232 41.87                             145   -0.0110 97.7 177 
 RUS  HN ES   1   1233  0.44                             145    0.19 7 97.7 177 
 RUS  HZ I        1233  1.82         3.1 0.34                          97.7 177 
 ZAR  HE ES   1   1233 16.50                             122   -0.02 6  206 293 
                                                                                
