 2016 12 5 1041 35.3 L   6.766 -73.146146.0  RSN  6 0.5 1.6LRSN                1
 GAP=154        1.12       7.2     5.3  7.8 -0.1223E+02  0.1129E+02  0.8112E+01E
 Epicentro: LOS SANTOS - SANTANDER                                             3
 ACTION:UPD 17-01-11 20:12 OP:rebc STATUS:               ID:20161205104135 L   I
 OLDACT:DUP 16-12-05 20:56 OP:dnl  STATUS:               ID:20161205103605d    3
 OLDACT:UP  16-12-05 20:55 OP:dnl  STATUS:               ID:20161205103604     3
 OLDACT:REG 16-12-05 20:27 OP:dnl  STATUS:               ID:20161205103604     3
 2016-12-05-1038-00M.COL___340                                                 6
 STAT SP IPHASW D HRMM SECON CODA AMPLIT PERI AZIMU VELO AIN AR TRES W  DIS CAZ7
 BAR2 EZ EP       1041 54.99                             172    0.0710 19.7 192 
 BAR2 EZ ES       1042 10.57                             172    0.3710 19.7 192 
 BAR2 EZ I        1042 11.32        11.1 0.52            170           19.7 192 
 BRR  HN ES       1042 13.55                             152    0.3410 73.0 301 
 BRR  HZ I        1042 18.97         5.7 0.34            148           73.0 301 
 PAM  EZ EP       1041 57.75                             150    0.0010 80.3  38 
 PAM  EN ES       1042 14.84                             150   -0.3910 80.3  38 
 PAM  EZ I        1042 15.28         4.6 0.22            153           80.3  38 
 PTB  HZ EP       1042  1.73                             132   -0.53 9  147 260 
 PTB  HN ES       1042 22.55                             132   -0.71 9  147 260 
 PTB  HZ I        1042 30.75         4.3 0.28            132            147 260 
 ZAR  HZ EP       1042  8.88                             122    0.94 8  205 293 
 ZAR  HE ES       1042 33.28                             122   -0.09 8  205 293 
 ZAR  HZ I        1042 38.69         5.4 0.30            122            205 293 
 NOR  HZ EP       1042 10.54                             119   -0.31 8  233 235 
 NOR  HN ES       1042 38.98                             119    0.43 8  233 235 
 NOR  HZ I        1042 40.99         2.5 0.16            120            233 235 
                                                                                
