 2016 11 5 1301 56.1 L   6.799 -73.170143.5  RSN  7 0.4 2.1LRSN                1
 GAP=142        0.97       4.8     5.0  6.5 -0.1069E+02  0.7927E+00  0.1189E+02E
 Epicentro: LOS SANTOS - SANTANDER                                             3
 ACTION:UPD 17-10-26 21:04 OP:lp   STATUS:               ID:20161105130156 L   I
 OLDACT:REG 16-11-05 20:01 OP:cog  STATUS:               ID:20161105125744     3
 2016-11-05-1258-00M.COL___337                                                 6
 STAT SP IPHASW D HRMM SECON CODA AMPLIT PERI AZIMU VELO AIN AR TRES W  DIS CAZ7
 BAR2 EZ IP     C 13 2 15.34                             170   -0.0810 22.9 183 
 BAR2 EZ ES       13 2 30.28                             170   -0.2310 22.9 183 
 BAR2 EZ I        13 2 33.09        35.3 0.20            169           22.9 183 
 BRR  HZ EP       13 2 17.41                             153    0.5610 68.9 300 
 BRR  HN ES       13 2 33.73                             153    0.6810 68.9 300 
 PAM  EZ EP       13 2 18.11                             150   -0.0510 79.2  41 
 PAM  EN ES       13 2 35.12                             150   -0.2710 79.2  41 
 PAM  EZ I        13 2 38.13        10.5 0.58            154           79.2  41 
 PTB  HZ EP       13 2 22.29                             132   -0.32 9  145 259 
 PTB  HN ES       13 2 42.47                             132   -0.84 9  145 259 
 PTB  HZ I        13 2 46.29        12.6 0.10            134            145 259 
 SPBC HZ EP       13 2 24.31                             129    0.08 9  161 218 
 SPBC HN ES       13 2 46.52                             129    0.33 9  161 218 
 SPBC HZ I        13 2 52.10        29.7 0.10            130            161 218 
 NOR  HZ EP       13 2 31.45                             118    0.02 8  232 234 
 NOR  HN ES       13 2 58.96                             118   -0.04 8  232 234 
 NOR  HZ I        13 3  2.91         7.8 0.22            120            232 234 
 CHI  HZ EP       13 2 33.42                             117   -0.14 8  248 195 
 CHI  HN ES       13 3  3.07                             117    0.27 8  248 195 
                                                                                
