 2011 12 5 1344 54.9 L   6.775 -73.078151.2  RSN  4 0.2 1.8LRSN                1
 GAP=147        0.53       4.1     5.8  7.0 -0.8902E+00 -0.1396E+01  0.2191E+01E
 Epicentro: LOS SANTOS - SANTANDER                                             3
 ACTION:UPD 12-07-13 16:14 OP:ep   STATUS:               ID:20111205134454 L   I
 2011-12-05-1340-00M.COL___183                                                 6
 STAT SP IPHASW D HRMM SECON CODA AMPLIT PERI AZIMU VELO AIN AR TRES W  DIS CAZ7
 BAR2 SZ EP       1345 14.89                             171   -0.3410 23.3 210 
 PAM  SZ EP   1   1345 17.93                             153    0.32 7 75.1  34 
 PAM  SE ES   1   1345 35.20                             153   -0.09 7 75.1  34 
 BRR  HZ EP   1   1345 17.10                             151   -0.04 7 79.1 298 
 BRR  HN ES   1   1345 34.57                             151    0.13 7 79.1 298 
 BRR  HN I        1345 37.45        27.1 0.15                          79.1 298 
 RUS  HZ EP   2   1345 19.39                             146    0.37 5 97.6 180 
 RUS  HN ES   1   1345 37.92                             146    0.11 7 97.6 180 
 RUS  HZ I        1345 40.66         4.8 0.64                          97.6 180 
                                                                                
