 2014  4 5 1650 40.4 L   6.868 -73.288124.0  RSN 15 0.5 2.5LRSN                1
 GAP= 62        1.22       2.6     3.1  6.2 -0.1285E+01  0.3438E+01  0.1062E+01E
 Epicentro: BETULIA - SANTANDER                                                3
 ACTION:UPD 14-05-13 23:06 OP:nd   STATUS:               ID:20140405165040 L   I
 OLDACT:REG 14-04-05 20:45 OP:carl STATUS:               ID:20140405164817     3
 2014-04-05-1648-17M.COL___259                                                 6
 STAT SP IPHASW D HRMM SECON CODA AMPLIT PERI AZIMU VELO AIN AR TRES W  DIS CAZ7
 BRR  HZ EP       1650 58.15                             155   -0.0410 53.8 299 
 BRR  HN ES       1651 12.25                             155    0.1610 53.8 299 
 BRR  HZ I        1651 13.89        89.3 0.58            154           53.8 299 
 PAM  SZ EP       1651  1.20                             144    0.4810 83.3  51 
 PAM  SN ES       1651 17.46                             144    0.8610 83.3  51 
 PAM  SZ I        1651 19.42        92.6 0.30            146           83.3  51 
 RUS  HZ EP       1651  2.59                             136   -0.2410  110 168 
 RUS  HE ES       1651 20.37                             136    0.0010  110 168 
 RUS  HZ I        1651 22.73        12.4 0.12            138            110 168 
 PTB  HZ EP   4   1651  3.02                             130   -1.32 0  134 254 
 PTB  HN ES       1651 23.30                             130    0.2510  134 254 
 PTB  HZ I        1651 24.90        71.9 0.40            130            134 254 
 OCA  HZ EP       1651  5.40                             126   -0.81 9  152 359 
 OCA  HN ES       1651 25.66                             126   -0.71 9  152 359 
 OCA  HZ I        1651 27.42        59.7 0.26            127            152 359 
 SPBC HZ EP       1651  7.12                             124    0.15 9  160 213 
 SPBC HN ES       1651 26.90                             124   -0.82 9  160 213 
 SPBC HZ I        1651 28.89        54.3 0.22            125            160 213 
 TAM  HZ EP       1651  8.61                             122    0.46 9  172 106 
 TAM  HN ES       1651 29.30                             122   -0.53 9  172 106 
 TAM  HZ I        1651 29.47        37.7 0.54            124            172 106 
 ZAR  HZ EP       1651  9.48                             120   -0.14 9  187 292 
 ZAR  HN ES       1651 32.73                             120    0.28 9  187 292 
 ZAR  HZ I        1651 35.31        55.0 0.28            120            187 292 
 NOR  HZ EP       1651 14.11                             114    0.06 8  227 231 
 NOR  HN ES       1651 40.38                             114    0.06 8  227 231 
 NOR  HZ I        1651 44.69        27.1 0.22            115            227 231 
 SML  HZ EP       1651 13.40                             114   -0.99 8  231 338 
 SML  HE ES       1651 40.65                             114   -0.28 8  231 338 
 SML  HZ I        1651 45.27        86.0 0.10            115            231 338 
 CHI  HZ EP       1651 17.73                             112    0.36 8  252 191 
 CHI  HN ES       1651 45.88                             112   -0.36 8  252 191 
 CHI  HZ I        1651 50.23         6.8 0.26            113            252 191 
 HEL  HZ EP       1651 19.00                             111    0.94 8  259 253 
 HEL  HN ES       1651 48.19                             111    0.72 8  259 253 
 HEL  HZ I        1651 51.92        26.5 0.48            112            259 253 
 GUY2CHZ EP       1651 22.07                             109   -0.05 7  293 232 
 GUY2CHN ES       1651 54.44                             109   -0.25 7  293 232 
 GUY2CHZ I        1652  1.66        19.4 0.38                           293 232 
 RREF HZ EP       1651 25.70                             107    0.82 7  315 226 
 RREF HN ES       1651 58.75                             107   -0.86 7  315 226 
 RREF HZ I        1652  4.17        12.1 0.28            108            315 226 
 COD  HZ EP       1651 27.40                             105    0.45 7  340 357 
 COD  HE ES       1652  3.52                             105    0.24 7  340 357 
 COD  HZ I        1652 11.04         5.1 0.18            106            340 357 
                                                                                
