 2010  9 5 1524 10.2 L   6.779 -73.102145.3  RSN  9 0.4 1.7LRSN                1
 GAP=164        1.01       4.7    10.3  8.6 -0.8291E+01 -0.4637E+01 -0.1969E+01E
 Epicentro: LOS SANTOS - SANTANDER                                             3
 ACTION:UP  11-02-18 11:00 OP:tino STATUS:               ID:20100905152410 L   I
 2010-09-05-1519-23S.COL___120                                                 6
 STAT SP IPHASW D HRMM SECON CODA AMPLIT PERI AZIMU VELO SNR AR TRES W  DIS CAZ7
 BAR2 SZ IP       1524 29.58                             171    -0.210   23 204 
 BAR2 SZ ES   1   1524 44.53                             171    -0.5 7   23 204 
 BAR2 SZ I        1524 47.59        16.1 0.32                            23 204 
 BRR  HZ IP     C 1524 31.48                             151    -0.210   77 298 
 BRR  HZ I        1524 31.74        19.6 0.15                            77 298 
 BRR  HE ES   1   1524 48.73                             151     0.4 7   77 298 
 RUS  HZ EP   1   1524 33.49                             144    -0.3 7   98 179 
 RUS  HE ES   1   1524 52.42                             144     0.3 7   98 179 
 RUS  HZ I        1524 53.20         4.8 0.31                            98 179 
 GUE  SZ EP   2   1524 34.58                             139    -0.4 5  118  10 
 GUE  SZ I        1524 38.24         3.4 0.07                           118  10 
 GRA  SZ EP       1524 36.34                             136     0.810  127  15 
 GRA  SZ ES   1   1524 55.17                             136    -0.1 7  127  15 
 GRA  SZ I        1524 58.28         6.6 0.27                           127  15 
 OCA  SZ EP   2   1524 38.19                             129    -0.6 5  163 352 
 OCA  SZ ES   2   1525  0.49                             129    -0.6 5  163 352 
 OCA  SZ I        1525  5.83         6.8 0.28                           163 352 
 CHI  HZ EP   2   1524 47.78                             117     0.0 4  248 196 
 CHI  HN ES   2   1525 17.69                             117     0.6 4  248 196 
 CHI  HZ I        1525 24.77         3.4 0.53                           248 196 
 HEL  HZ EP   2   1524 51.06                             114     0.2 4  276 257 
 HEL  HZ I        1525 28.22         3.8 0.25                           276 257 
 PRA  HZ EP   2   1525  3.58                             106    -0.2 3  392 210 
 PRA  HZ I        1525  5.34         1.6 0.22                           392 210 
                                                                                
