 2014 10 5 1011 50.6 L   6.763 -73.150148.0  RSN  8 0.5 1.2LRSN                1
 GAP=138        0.96       4.2     4.6  7.6 -0.7508E+00  0.6753E+01 -0.3903E+00E
 Epicentro: LOS SANTOS - SANTANDER                                             3
 ACTION:UPD 14-11-29 23:47 OP:nd   STATUS:               ID:20141005101150 L   I
 OLDACT:REG 14-10-05 20:17 OP:fm   STATUS:               ID:20141005100742     3
 2014-10-05-1007-42M.COL___289                                                 6
 STAT SP IPHASW D HRMM SECON CODA AMPLIT PERI AZIMU VELO AIN AR TRES W  DIS CAZ7
 BAR2 SZ EP   1   1012 10.59                             172    0.18 7 19.3 191 
 BRR  HZ EP       1012 12.62                             152    0.5510 72.9 301 
 BRR  HN ES       1012 29.04                             152    0.2110 72.9 301 
 BRR  HZ I        1012 34.59         2.4 0.26            151           72.9 301 
 PAM  SZ EP       1012 13.56                             150    0.3110 80.8  38 
 PAM  SE ES       1012 30.74                             150   -0.1810 80.8  38 
 PAM  SZ I        1012 33.12         3.7 0.68            154           80.8  38 
 RUS  HZ EP   1   1012 14.19                             145   -0.09 7 96.6 176 
 RUS  HN ES   1   1012 32.05                             145   -0.71 7 96.6 176 
 RUS  HZ I        1012 34.48         1.3 0.44            150           96.6 176 
 PTB  HZ EP   1   1012 17.38                             133   -0.26 7  147 260 
 PTB  HN ES   1   1012 37.79                             133   -0.94 7  147 260 
 PTB  HZ I        1012 43.14         1.8 0.10            134            147 260 
 SPBC HZ EP   1   1012 19.26                             130    0.32 7  160 220 
 SPBC HE ES   1   1012 41.65                             130    0.60 7  160 220 
 SPBC HZ I        1012 44.62         2.4 0.32            133            160 220 
 ZAR  HZ EP   1   1012 22.91                             123   -0.39 6  205 293 
 ZAR  HN ES       1012 49.10                             123    0.28 9  205 293 
 ZAR  HZ I        1012 54.60         2.0 0.42            124            205 293 
 SML  HZ EP   1   1012 26.92                             117   -0.80 6  247 336 
 SML  HN ES   1   1012 56.27                             117   -0.41 6  247 336 
 SML  HZ I        1013  1.85         2.4 0.26            120            247 336 
                                                                                
