 2010  2 5 1239 18.3 L   6.777 -73.579116.0  RSN  8 0.4 2.3LRSN                1
 GAP= 98        0.64       3.3     5.5  9.3  0.1886E+01  0.3751E+02  0.5498E+01E
 Epicentro: EL CARMEN DE CHUCURI - SANTANDER                                   3
 ACTION:UP  10-08-24 09:47 OP:vdl  STATUS:               ID:20100205123919 L   I
 2010-02-05-1235-05S.COL___094                                                 6
 STAT SP IPHASW D HRMM SECON CODA AMPLIT PERI AZIMU VELO SNR AR TRES W  DIS CAZ7
 BAR2 SZ IP       1239 35.27                             156     0.010   48 115 
 BAR2 SZ ES   2   1239 48.14                             156    -0.4 5   48 115 
 GIR2 SZ ES   2   1239 49.31                             153     0.5 5   54  52 
 RUS  BZ EP   2   1239 39.92                             133    -0.3 5  112 151 
 RUS  BZ I        1239 57.57        60.7 0.38                           112 151 
 HEL  HZ EP   2   1239 51.82                             113     0.0 4  225 253 
 HEL  HN ES   2   1240 17.94                             113     0.0 4  225 253 
 HEL  HZ I        1240 21.45        19.3 0.63                           225 253 
 CHI  HZ EP   2   1239 54.12                             111     0.8 4  238 184 
 CHI  HE ES   2   1240 20.62                             111     0.0 4  238 184 
 CHI  HZ I        1240 25.25        10.0 0.92                           238 184 
 RREF BZ EP   2   1240  0.14                             107     1.1 4  285 223 
 RREF BE ES   1   1240 30.87                             107     0.1 6  285 223 
 RREF BZ I        1240 39.47        14.5 0.46                           285 223 
 MON  HZ IP       1240  1.86                             105    -0.3 7  318 314 
 MON  HZ I        1240  2.07         5.5 0.22                           318 314 
 MON  HE ES   1   1240 36.46                             105     0.1 5  318 314 
 PRA  HZ EP   2   1240  8.15                             102     0.1 3  368 203 
 PRA  HE ES       1240 46.59                             102    -0.4 6  368 203 
 PRA  HZ I        1240 54.34         8.2 0.20                           368 203 
                                                                                
