 2010  3 5 1842 38.0 L   6.794 -73.108150.0  RSN 11 0.3 2.9LRSN                1
 GAP=129        0.62       2.2     4.4  4.2 -0.2549E+01  0.1867E+01  0.2394E+00E
 Epicentro: LOS SANTOS - SANTANDER                                             3
 ACTION:UP  10-08-24 09:52 OP:vdl  STATUS:               ID:20100305184237 L   I
 2010-03-05-1841-05S.COL___101                                                 6
 STAT SP IPHASW D HRMM SECON CODA AMPLIT PERI AZIMU VELO SNR AR TRES W  DIS CAZ7
 BAR2 SZ EP       1842 58.09                             171    -0.110   24 200 
 BAR2 SZ ES   2   1843 13.22                             171    -0.6 5   24 200 
 BRR  HZ EP       1842 59.94                             152     0.110   75 297 
 BRR  HZ I        1843  0.15       189.5 0.15                            75 297 
 BRR  HE ES   1   1843 17.09                             152     0.2 7   75 297 
 RUS  BZ EP       1843  2.07                             145     0.010  100 178 
 RUS  BE ES       1843 21.29                             145     0.410  100 178 
 RUS  BZ I        1843 22.69        77.0 0.33                           100 178 
 OCA  SZ EP       1843  6.48                             131    -0.3 9  161 352 
 OCA  SZ ES   1   1843 29.40                             131     0.2 7  161 352 
 OCA  SZ I        1843 33.24       126.4 0.30                           161 352 
 CHI  HZ EP       1843 16.15                             118     0.2 8  249 196 
 CHI  HE ES       1843 45.39                             118    -0.2 8  249 196 
 CHI  HZ I        1843 48.87        42.3 0.50                           249 196 
 ROSC BZ EP   2   1843 16.71                             118     0.2 4  254 212 
 ROSC BN ES   1   1843 46.36                             118    -0.2 6  254 212 
 ROSC BZ I        1843 55.71        51.8 0.44                           254 212 
 RREF BZ EP   1   1843 25.12                             112     0.5 5  324 230 
 RREF BE ES   3   1844  0.90                             112    -0.1 2  324 230 
 RREF BZ I        1844  9.79        48.3 0.75                           324 230 
 DBB  SZ EP   1   1843 26.06                             110    -0.1 5  344 274 
 TOL  SZ EP       1843 26.85                             110     0.1 6  346 225 
 TOL  SZ ES   1   1844  4.05                             110    -0.6 5  346 225 
 SDV  BZ EP       1843 27.57                             109    -0.3 6  358  50 
 SDV  BZ I        1843 27.85        15.8 0.10                           358  50 
 PRA  HZ EP   2   1843 32.12                             107     0.3 3  393 210 
 PRA  HE ES   1   1844 13.49                             107    -0.3 4  393 210 
 PRA  HZ I        1844 16.89        31.1 0.29                           393 210 
                                                                                
