 2010  7 5 1314 40.0 L   6.773 -73.065150.0  RSN  8 0.3 2.2LRSN                1
 GAP=168        0.71       3.1     6.9  6.6 -0.6413E+01 -0.4271E+01  0.9948E+00E
 Epicentro: LOS SANTOS - SANTANDER                                             3
 ACTION:UPD 10-12-01 15:15 OP:pat  STATUS:               ID:20100705131440 L   I
 2010-07-05-1312-54S.COL___118                                                 6
 STAT SP IPHASW D HRMM SECON CODA AMPLIT PERI AZIMU VELO AIN AR TRES W  DIS CAZ7
 BAR2 SZ EP       1314 59.96                             171    -0.210   24 213 
 BAR2 SZ ES   2   1315 15.56                             171    -0.3 5   24 213 
 BRR  HZ IP     C 1315  1.97                             151    -0.210   81 297 
 BRR  HZ I        1315  2.18        73.2 0.16                            81 297 
 BRR  HN ES   1   1315 19.65                             151     0.2 7   81 297 
 RUS  HZ EP       1315  3.92                             146    -0.110   97 181 
 RUS  HN ES   1   1315 22.78                             146     0.1 7   97 181 
 RUS  HZ I        1315 23.81         9.0 0.31                            97 181 
 GUE  SZ EP   1   1315  5.10                             140    -0.2 7  118   8 
 GRA  SZ IP       1315  5.86                             138     0.210  126  13 
 GRA  SZ ES       1315 26.16                             138     0.410  126  13 
 OCA  SZ EP   1   1315  8.56                             130    -0.5 7  165 350 
 OCA  SZ ES   2   1315 31.60                             130    -0.1 5  165 350 
 OCA  SZ I        1315 36.69        21.8 0.55                           165 350 
 CHI  HZ EP   2   1315 17.85                             118    -0.1 4  248 197 
 CHI  HN ES   2   1315 48.36                             118     0.9 4  248 197 
 CHI  HZ I        1315 55.04         6.2 0.42                           248 197 
 GUY  HN ES   2   1316  0.06                             113     0.9 4  307 236 
                                                                                
