 2017  8 5 1756 51.2 L   6.572 -73.511108.5  RSN  6 0.3 1.4LRSN                1
 GAP=107        0.79       3.7     4.2  7.4  0.6904E+01  0.2023E+02  0.1181E+02E
 Epicentro: EL CARMEN - SANTANDER                                              3
 ACTION:UPD 17-09-04 20:16 OP:rebc STATUS:               ID:20170805175651 L   I
 OLDACT:REG 17-08-05 21:04 OP:dhb  STATUS:               ID:20170805174742     3
 2017-08-05-1748-00M.COL___402                                                 6
 STAT SP IPHASW D HRMM SECON CODA AMPLIT PERI AZIMU VELO AIN AR TRES W  DIS CAZ7
 BAR2 EZ IP     C 1757  6.82                             160    0.0110 36.4  86 
 BAR2 EZ ES       1757 19.29                             160    0.2910 36.4  86 
 BRR  HZ EP       1757  7.59                             147   -0.3210 63.2 339 
 BRR  HN ES       1757 20.55                             147   -0.4110 63.2 339 
 BRR  HZ I        1757 27.23         8.3 0.32            147           63.2 339 
 RUS  HZ EP       1757 10.25                             138   -0.2510 88.8 148 
 RUS  HE ES       1757 25.73                             138    0.1610 88.8 148 
 PTB  HZ EP       1757 11.58                             132    0.3710  105 268 
 PTB  HN ES   4   1757 24.33                             132   -2.49 0  105 268 
 PTB  HZ I        1757 26.06         3.2 0.30            134            105 268 
 ZAR  HE ES       1757 40.92                             116    0.44 9  180 304 
 ZAR  HZ I        1757 43.98         4.6 0.21            118            180 304 
 NOR  HZ EP       1757 19.78                             115    0.08 9  187 234 
 NOR  HN ES       1757 41.61                             115   -0.33 9  187 234 
 NOR  HZ I        1757 45.05         2.6 0.14            118            187 234 
                                                                                
