 2010 11 5 1338 18.1 L   6.770 -73.125144.9  RSN 15 0.4 3.4LRSN                1
 GAP=137        1.03       3.2     4.8  5.6 -0.3591E+01  0.4991E+01  0.4598E+01E
 Epicentro: LOS SANTOS - SANTANDER                                             3
 ACTION:UP  10-12-17 16:50 OP:REBC STATUS:               ID:20101105133818 L   I
 2010-11-05-1335-10S.COL___129                                                 6
 STAT SP IPHASW D HRMM SECON CODA AMPLIT PERI AZIMU VELO SNR AR TRES W  DIS CAZ7
 BAR2 SZ EP       1338 37.50                             171    -0.110   21 198 
 BAR2 SZ ES   1   1338 52.75                             171     0.0 7   21 198 
 BAR2 SZ I        1338 54.28       818.2 0.24                            21 198 
 GIR2 SZ EP       1338 37.58                             166    -0.210   35 347 
 BRR  HZ EP       1338 39.32                             151    -0.110   75 300 
 BRR  HN ES       1338 56.44                             151     0.510   75 300 
 BRR  HZ I        1338 59.87       401.6 0.10                            75 300 
 RUS  HZ EP       1338 41.29                             145    -0.310   97 177 
 RUS  HN ES       1338 59.61                             145    -0.210   97 177 
 RUS  HZ I        1339  1.38       203.5 0.30                            97 177 
 GRA  SZ EP       1338 44.30                             136     0.810  128  16 
 GRA  SZ ES   1   1339  3.87                             136     0.6 7  128  16 
 GRA  SZ I        1339  6.07       144.5 0.29                           128  16 
 OCA  SZ EP       1338 46.07                             129    -0.6 9  164 352 
 OCA  SZ ES       1339  8.43                             129    -0.6 9  164 352 
 YOP  SZ EP       1338 47.93                             127     0.2 9  175 154 
 NOR  SZ EP       1338 53.42                             118    -0.4 8  235 236 
 NOR  SN ES       1339 21.39                             118    -0.3 8  235 236 
 NOR  SZ I        1339 25.58        31.7 1.16                           235 236 
 HEL  HZ EP       1338 58.64                             114     0.2 8  274 257 
 HEL  HN ES   1   1339 30.06                             114     0.2 6  274 257 
 HEL  HZ I        1339 37.00       113.8 0.25                           274 257 
 VIL  SZ EP       1339  0.99                             112     0.0 7  299 190 
 GUY  SZ EP       1339  1.66                             112     0.0 7  301 236 
 GUY  SN ES   2   1339 35.66                             112     0.0 4  301 236 
 RREF HZ EP       1339  4.34                             111     0.2 7  321 230 
 TOL  SZ EP       1339  6.79                             109     0.5 7  343 225 
 ANIL HZ EP       1339  8.39                             108     0.6 6  357 225 
 ANIL HN ES   2   1339 46.34                             108    -0.2 3  357 225 
 ANIL HZ I        1339 54.06       273.8 0.37                           357 225 
 PRA  HZ EP       1339 10.68                             106    -0.7 6  390 210 
 PRA  HN ES   1   1339 54.08                             106     1.1 4  390 210 
 PRA  HZ I        1339 59.32       297.2 0.78                           390 210 
                                                                                
