 2013 10 5 1745 15.4 L   6.748 -73.175133.5  RSN 10 0.5 2.0LRSN 2.6WRSN        1
 SPEC AVERAGE  MO 13.0 ST113.0 OM  1.4 f0 18.5 R0.1624 AL 0.00 WI 20.0 MW  2.6 3
 SPEC SD       MO  0.1 ST167.0 OM  0.3 f0 12.7 R0.0977 AL      WI      MW  0.1 3
 GAP=135        1.30       4.5     5.0  7.5 -0.1790E+01  0.9576E+01  0.8841E+01E
 Epicentro: VILLANUEVA - SANTANDER                                             3
 SPEC BAR2SH Z MO 13.2 ST 33.2 OM  1.4 f0 15.0 R0.1283 AL-0.00 WI 20.0 MW  2.7 3
 SPEC BAR2SH Z T174545 K 0.050 GD  134 VS 5.20 DE 3.20 Q0750.0 QA 1.50 VS 5.20 3
 SPEC BRR HH Z MO 13.2 ST  8.6 OM  1.3 f0 9.93 R0.1938 AL-0.00 WI 20.0 MW  2.7 3
 SPEC BRR HH Z T174550 K 0.050 GD  151 VS 5.20 DE 3.20 Q0750.0 QA 1.50 VS 5.20 3
 SPEC PAM SH Z MO 13.0 ST  1.1 OM  1.1 f0 5.79 R0.3323 AL-0.00 WI 20.0 MW  2.6 3
 SPEC PAM SH Z T174551 K 0.050 GD  157 VS 5.20 DE 3.20 Q0750.0 QA 1.50 VS 5.20 3
 SPEC RUS HH Z MO 12.8 ST  1.5 OM  0.9 f0 7.42 R0.2593 AL-0.00 WI 20.0 MW  2.5 3
 SPEC RUS HH Z T174554 K 0.050 GD  163 VS 5.20 DE 3.20 Q0750.0 QA 1.50 VS 5.20 3
 SPEC PTB HH Z MO 13.1 ST460.5 OM  1.1 f0 40.0 R0.0481 AL-0.00 WI 20.0 MW  2.7 3
 SPEC PTB HH Z T174558 K 0.050 GD  196 VS 5.20 DE 3.20 Q0750.0 QA 1.50 VS 5.20 3
 SPEC SPBCHH Z MO 13.0 ST266.1 OM  1.0 f0 35.4 R0.0544 AL-0.00 WI 20.0 MW  2.6 3
 SPEC SPBCHH Z T1746 2 K 0.050 GD  206 VS 5.20 DE 3.20 Q0750.0 QA 1.50 VS 5.20 3
 SPEC NOR HH Z MO 12.9 ST 19.6 OM  0.8 f0 15.9 R0.1210 AL-0.00 WI 20.0 MW  2.5 3
 SPEC NOR HH Z T174614 K 0.050 GD  265 VS 5.20 DE 3.20 Q0750.0 QA 1.50 VS 5.20 3
 SPECGUY2CHH Z MO 15.3 ST  0.0 OM  3.1 f00.168 R  11.4 AL-0.00 WI 20.0 MW  4.1 3
 SPECGUY2CHH Z T174631 K 0.050 GD323.8 VS 5.20 DE 3.20 Q0750.0 QA 1.50 VS 5.20 3
 OLDACT:REG 13-10-05 16:16 OP:stll STATUS:               ID:20131005173839     3
 ACTION:UPD 13-11-25 09:19 OP:ep   STATUS:               ID:20131005174515 L   I
 OLDACT:UP  13-10-05 21:14 OP:stll STATUS:               ID:20131005173839     3
 2013-10-05-1738-39M.COL___231                                                 6
 STAT SP IPHASW D HRMM SECON CODA AMPLIT PERI AZIMU VELO AIN AR TRES W  DIS CAZ7
 BAR2 SZ EP       1745 33.45                             172   -0.0210 17.3 183 
 BAR2 SZ ES       1745 47.30                             172   -0.2410 17.3 183 
 BAR2 SZ I        1745 49.52        32.4 0.20            169           17.3 183 
 BRR  HZ EP       1745 35.36                             150    0.0810 71.3 304 
 BRR  HN ES       1745 51.64                             150    0.8910 71.3 304 
 BRR  SZ I        1745 55.19        17.4 0.18            151           71.3 304 
 PAM  SZ IP     C 1745 36.54                             146   -0.2410 83.9  39 
 PAM  SN ES       1745 52.93                             146   -0.5110 83.9  39 
 PAM  SZ I        1745 54.88        19.1 0.54            153           83.9  39 
 RUS  HZ EP       1745 37.49                             143   -0.1010 95.2 174 
 RUS  HN ES       1745 55.55                             143    0.6810 95.2 174 
 RUS  SZ I        1745 57.15        15.3 0.36            144           95.2 174 
 PTB  HZ EP       1745 40.49                             130   -0.54 9  144 261 
 PTB  HN ES       1746  0.07                             130   -0.92 9  144 261 
 PTB  SZ I        1746  3.32        17.9 0.16            131            144 261 
 SPBC HZ EP       1745 42.71                             127    0.33 9  157 219 
 SPBC HN ES       1746  3.63                             127    0.23 9  157 219 
 SPBC SZ I        1746  9.92        13.8 0.30            129            157 219 
 ZAR  HN ES       1746 12.00                             120    0.34 9  203 294 
 NOR  HZ EP       1745 49.88                             116    0.06 8  229 235 
 NOR  HN ES       1746 16.10                             116   -0.55 8  229 235 
 NOR  SZ I        1746 24.26         9.4 0.24            118            229 235 
 CHI  HZ EP       1745 52.17                             115    0.40 8  242 195 
 CHI  HN ES       1746 19.39                             115   -0.73 8  242 195 
 CHI  HZ I        1746 24.07         4.8 0.34            117            242 195 
 GUY2CHZ EP       1745 58.89                             110    1.07 7  295 235 
 GUY2CSZ I        1746 38.31         3.7 0.28                           295 235 
                                                                                
