 2016  9 5 1306 27.6 L   6.802 -73.155133.9  RSN  9 0.3 1.7LRSN                1
 GAP=135        0.82       3.2     3.2  5.0 -0.1650E+01  0.5026E+01  0.2947E+01E
 Epicentro: LOS SANTOS - SANTANDER                                             3
 ACTION:UPD 17-08-17 21:07 OP:lp   STATUS:               ID:20160905130627 L   I
 OLDACT:REG 16-09-05 20:07 OP:lv   STATUS:               ID:20160905125733     3
 2016-09-05-1258-00M.COL___351                                                 6
 STAT SP IPHASW D HRMM SECON CODA AMPLIT PERI AZIMU VELO AIN AR TRES W  DIS CAZ7
 BAR2 EZ EP       13 6 45.67                             170   -0.1010 23.4 187 
 BAR2 EZ ES       13 6 59.66                             170   -0.3110 23.4 187 
 BAR2 EZ I        13 7  1.40         7.7 0.14            169           23.4 187 
 BRR  HZ EP       13 6 47.60                             151    0.2210 70.2 299 
 BRR  HE ES       13 7  2.51                             151   -0.3210 70.2 299 
 BRR  HZ I        13 7  4.94         8.2 0.12            150           70.2 299 
 PAM  EZ EP       13 6 48.63                             148    0.0710 77.9  40 
 PAM  EN ES       13 7  5.41                             148    0.4710 77.9  40 
 PAM  EZ I        13 7  6.02        10.7 0.20            152           77.9  40 
 RUS  HZ EP       13 6 49.56                             141   -0.6310  101 175 
 RUS  HN ES       13 7  8.03                             141    0.2010  101 175 
 RUS  HZ I        13 7 10.06         4.7 0.32            143            101 175 
 PTB  HZ EP       13 6 53.11                             129   -0.38 9  147 259 
 PTB  HE ES       13 7 13.89                             129    0.17 9  147 259 
 PTB  HZ I        13 7 17.39         6.2 0.13            130            147 259 
 SPBC HZ EP       13 6 55.40                             126    0.27 9  163 219 
 SPBC HE ES       13 7 16.95                             126    0.32 9  163 219 
 SPBC HZ I        13 7 19.92         8.2 0.09            128            163 219 
 ZAR  HZ EP   4   13 7  1.02                             120    1.87 0  203 292 
 ZAR  HN ES       13 7 23.77                             120   -0.02 9  203 292 
 ZAR  HZ I        13 7 29.30         7.5 0.25            121            203 292 
 NOR  HZ EP       13 7  2.21                             116   -0.34 8  234 234 
 NOR  HN ES       13 7 29.67                             116   -0.17 8  234 234 
 NOR  HZ I        13 7 32.65         5.1 0.26            117            234 234 
 GUY2CHZ EP       13 7 10.92                             110    0.36 7  300 235 
 GUY2CHN ES       13 7 44.59                             110    0.49 7  300 235 
 GUY2CHZ I        13 7 51.77         2.1 0.49                           300 235 
                                                                                
