 2014  6 5 1746 11.5 L   6.753 -73.029137.2  RSN  4 0.4 1.5LRSN                1
 GAP=154        0.94       4.8     7.2  7.8 -0.1323E+01 -0.4260E+01  0.1175E+01E
 Epicentro: CEPITA - SANTANDER                                                 3
 ACTION:UPD 14-07-01 22:51 OP:nd   STATUS:               ID:20140605174611 L   I
 OLDACT:REG 14-06-05 21:02 OP:stll STATUS:               ID:20140605173816     3
 2014-06-05-1738-16M.COL___262                                                 6
 STAT SP IPHASW D HRMM SECON CODA AMPLIT PERI AZIMU VELO AIN AR TRES W  DIS CAZ7
 BAR2 SZ EP       1746 30.53                             169    0.4010 24.5 224 
 BAR2 SZ ES       1746 45.16                             169    0.5010 24.5 224 
 BAR2 SZ I        1746 46.26         6.8 0.18            167           24.5 224 
 PAM  SZ EP       1746 33.05                             150    0.4210 74.4  29 
 PAM  SN ES       1746 48.67                             150   -0.4310 74.4  29 
 BRR  HZ EP       1746 32.39                             146   -0.2210 85.0 297 
 BRR  HZ I        1746 32.70         9.7 0.48            149           85.0 297 
 BRR  HN ES       1746 48.94                             146   -0.1310 85.0 297 
 RUS  HZ EP       1746 33.74                             143   -0.2910 95.3 184 
 RUS  HN ES       1746 51.35                             143   -0.2510 95.3 184 
 RUS  HZ I        1746 55.76         2.9 0.62            142           95.3 184 
                                                                                
