 2016  3 5 1549 50.2 L   6.780 -73.339126.3  RSN 13 0.5 2.1LRSN                1
 GAP= 66        1.14       3.3     2.9  6.9 -0.8278E+00  0.5391E+01 -0.1640E+01E
 Epicentro: ZAPATOCA - SANTANDER                                               3
 ACTION:UPD 16-05-13 21:21 OP:cam  STATUS:               ID:20160305154950 L   I
 OLDACT:UP  16-03-05 23:32 OP:mh   STATUS:               ID:20160305154750     3
 OLDACT:UP  16-03-05 23:27 OP:mh   STATUS:               ID:20160305154750     3
 OLDACT:REG 16-03-05 20:58 OP:mh   STATUS:               ID:20160305154750     3
 2016-03-05-1547-50M.COL___328                                                 6
 STAT SP IPHASW D HRMM SECON CODA AMPLIT PERI AZIMU VELO AIN AR TRES W  DIS CAZ7
 BAR2 EZ EP       1550  7.76                             167    0.1610 27.1 140 
 BAR2 EZ ES       1550 20.96                             167   -0.2010 27.1 140 
 BAR2 EZ I        1550 21.79        61.9 0.15            162           27.1 140 
 PAM  EZ EP     D 1550 11.96                             141    0.3810 93.9  49 
 PAM  EN ES       1550 29.09                             141    0.8410 93.9  49 
 PAM  EZ I        1550 30.07        11.5 0.16            135           93.9  49 
 RUS  HZ EP       1550 12.08                             139   -0.1510  102 164 
 RUS  HN ES       1550 28.75                             139   -0.6510  102 164 
 RUS  HZ I        1550 30.33        13.3 0.24            130            102 164 
 PTB  HZ EP       1550 13.28                             132   -0.3710  126 258 
 PTB  HN ES       1550 31.92                             132   -0.0110  126 258 
 PTB  HZ I        1550 33.75        25.3 0.18            125            126 258 
 SPBC HZ EP       1550 16.05                             127    0.19 9  149 213 
 SPBC HN ES       1550 36.58                             127    0.70 9  149 213 
 SPBC HZ I        1550 40.89        18.1 0.20            119            149 213 
 OCA  HZ EP       1550 17.10                             125   -0.09 9  161   1 
 OCA  HN ES       1550 37.75                             125   -0.49 9  161   1 
 OCA  HZ I        1550 39.07        52.0 0.52            118            161   1 
 TAM  HZ EP       1550 18.40                             122   -0.07 9  175 102 
 TAM  HZ I        1550 39.43        20.2 0.28            114            175 102 
 TAM  HN ES       1550 40.02                             122   -0.50 9  175 102 
 ZAR  HZ EP   1   1550 19.97                             120    0.50 7  185 295 
 ZAR  HN ES       1550 42.68                             120    0.39 9  185 295 
 ZAR  HZ I        1550 46.76        15.4 0.16            114            185 295 
 NOR  HZ EP   1   1550 23.20                             116    0.35 6  216 232 
 NOR  HN ES   1   1550 48.96                             116    0.65 6  216 232 
 NOR  HZ I        1550 55.91         7.6 0.29            109            216 232 
 CHI  HZ EP   1   1550 26.16                             113    0.03 6  242 190 
 CHI  HN ES   4   1550 57.89                             113    3.74 0  242 190 
 HEL  HZ EP   1   1550 27.75                             113    0.66 6  251 255 
 HEL  HN ES       1550 55.11                             113   -0.75 8  251 255 
 HEL  HZ I        1551  4.92         6.5 0.60            106            251 255 
 URE  HN ES       1550 56.97                             111   -0.95 8  265 294 
 URE  HZ I        1551  4.33        10.1 0.22            105            265 294 
 GUY2CHZ EP   4   1550 32.28                             110    1.43 0  283 233 
 GUY2CHN ES   4   1551  4.91                             110    2.35 0  283 233 
 GUY2CHZ I        1551 12.30         4.1 0.28                           283 233 
                                                                                
