 2010  4 5 1557  6.2 L   6.778 -73.027148.3  RSN 11 0.5 3.2LRSN                1
 GAP=150        0.93       4.5     6.0  6.4 -0.1310E+02 -0.3862E+01  0.6621E+01E
 Epicentro: CEPITA - SANTANDER                                                 3
 ACTION:UPD 10-08-24 09:57 OP:vdl  STATUS:               ID:20100405155706 L   I
 2010-04-05-1555-04S.COL___098                                                 6
 STAT SP IPHASW D HRMM SECON CODA AMPLIT PERI AZIMU VELO AIN AR TRES W  DIS CAZ7
 BAR2 SZ IP       1557 26.42                             169     0.210   27 220 
 BAR2 SZ ES   1   1557 41.23                             169    -0.6 7   27 220 
 BRR  HZ IP       1557 28.51                             149     0.210   84 296 
 BRR  HZ I        1557 28.80       642.0 0.17                            84 296 
 BRR  HN ES   1   1557 45.99                             149     0.3 7   84 296 
 OCA  SZ IP       1557 34.79                             129    -0.3 9  165 349 
 OCA  SZ ES   2   1557 58.23                             129     0.6 5  165 349 
 OCA  SZ I        1558  3.22       286.8 0.31                           165 349 
 CHI  HZ EP       1557 44.22                             118     0.1 8  250 198 
 CHI  HN ES   1   1558 13.75                             118     0.0 6  250 198 
 HEL  HZ EP   1   1557 47.98                             114     0.1 6  284 257 
 HEL  HN ES   2   1558 19.64                             114    -0.7 4  284 257 
 HEL  HZ I        1558 25.07        60.3 0.25                           284 257 
 RREF BZ EP       1557 53.09                             111    -0.3 7  330 231 
 RREF BE ES   2   1558 31.13                             111     0.9 3  330 231 
 RREF BZ I        1558 34.87        53.7 0.32                           330 231 
 TOL  SZ EP   1   1557 56.38                             109     1.0 5  351 226 
 TOL  SZ ES   2   1558 35.33                             109     1.5 3  351 226 
 SDV  BZ IP       1557 55.81                             109     0.5 6  352  49 
 SDV  BZ I        1557 56.77        33.0 0.10                           352  49 
 SDV  BZ ES   1   1558 33.36                             109    -0.3 5  352  49 
 DBB  SZ EP       1557 54.32                             109    -0.9 6  353 275 
 ANIL BZ EP   1   1557 57.39                             108     0.4 5  365 226 
 ANIL BN ES   2   1558 36.37                             108    -0.2 3  365 226 
 ANIL BZ I        1558 42.23        74.4 0.39                           365 226 
 PRA  HZ EP       1557 59.57                             107    -0.7 6  396 211 
 PRA  HN ES   1   1558 42.30                             107    -0.2 4  396 211 
                                                                                
