 2010  2 5 1100 13.5 L   6.778 -73.060143.2  RSN  6 0.4 2.3LRSN                1
 GAP=205        0.69       6.2    15.4  7.9 -0.2682E+02  0.5473E+02  0.4439E+01E
 Epicentro: LOS SANTOS - SANTANDER                                             3
 ACTION:UP  10-08-24 09:47 OP:vdl  STATUS:               ID:20100205110013 L   I
 2010-02-05-1059-19S.COL___094                                                 6
 STAT SP IPHASW D HRMM SECON CODA AMPLIT PERI AZIMU VELO SNR AR TRES W  DIS CAZ7
 BAR2 SZ EP   2   11 0 32.63                             170    -0.2 6   25 214 
 BAR2 SZ ES   1   11 0 47.51                             170    -0.410   25 214 
 GIR2 SZ EP   2   11 0 33.71                             165     0.7 6   36 336 
 RUS  BZ EP   1   11 0 36.67                             144    -0.110   98 182 
 RUS  BN ES   1   11 0 55.27                             144     0.310   98 182 
 RUS  BZ I        11 0 56.50        14.7 0.22                            98 182 
 CHI  HZ EP   1   11 0 50.83                             116    -0.2 7  249 197 
 CHI  HE ES       11 1 20.52                             116     0.110  249 197 
 CHI  HZ I        11 1 27.15         9.1 0.73                           249 197 
 HEL  HZ EP   2   11 0 55.13                             113     0.6 5  281 257 
 HEL  HZ I        11 1 32.27        10.8 0.57                           281 257 
 PRA  HZ EP   2   11 1  6.38                             106    -0.8 4  395 211 
 PRA  HE ES   2   11 1 48.84                             106    -0.3 4  395 211 
 PRA  HZ I        11 1 55.43        15.5 0.47                           395 211 
                                                                                
