 2012  5 5 1601 17.2 L   6.773 -73.167141.3  RSN  8 0.4 2.1LRSN                1
 GAP=135        0.91       4.4     4.9  7.0  0.1749E+01  0.6563E+01  0.5815E+01E
 Epicentro: LOS SANTOS - SANTANDER                                             3
 ACTION:UP  12-07-05 12:02 OP:pat  STATUS:               ID:20120505160117 L   I
 2012-05-05-1600-00M.COL___192                                                 6
 STAT SP IPHASW D HRMM SECON CODA AMPLIT PERI AZIMU VELO SNR AR TRES W  DIS CAZ7
 BAR2 SZ EP       16 1 36.18                             172     0.010   20 185 
 BAR2 SZ ES   1   16 1 51.08                             172     0.1 7   20 185 
 BAR2 SZ I        16 1 52.24        62.2 0.29                            20 185 
 BRR  HZ EP       16 1 37.90                             152     0.110   71 302 
 BRR  HN ES   1   16 1 54.67                             152     0.8 7   71 302 
 BRR  HZ I        16 1 55.60        44.7 0.11                            71 302 
 PAM  SZ EP       16 1 39.01                             149    -0.110   81  39 
 PAM  SN ES   1   16 1 56.02                             149    -0.3 7   81  39 
 RUS  HZ EP       16 1 40.18                             144    -0.110   98 175 
 RUS  HN ES   1   16 1 58.25                             144     0.0 7   98 175 
 RUS  HZ I        16 1 59.79        15.8 0.16                            98 175 
 PTB  HZ EP   1   16 1 42.81                             132    -0.7 7  145 260 
 PTB  HN ES   1   16 2  3.31                             132    -0.7 7  145 260 
 PTB  HZ I        16 2 10.90        13.8 0.24                           145 260 
 ZAR  HZ EP   1   16 1 49.87                             121     0.7 6  203 293 
 ZAR  HN ES   1   16 2 14.04                             121    -0.2 6  203 293 
 ZAR  HZ I        16 2 19.97        15.3 0.16                           203 293 
 CHI  HZ EP   1   16 1 54.51                             117     0.3 6  245 195 
 CHI  HN ES   1   16 2 23.42                             117     0.3 6  245 195 
 CHI  HZ I        16 2 28.23         4.3 0.26                           245 195 
 PRA  HZ EP   1   16 2 10.45                             106     0.4 4  388 209 
                                                                                
