 2013  1 5 1535 39.0 L   6.694 -73.490108.8  RSN  5 0.4 1.6LRSN                1
 GAP=136        0.79       6.1     5.3  9.1  0.1888E+02  0.8936E+01  0.5809E+01E
 Epicentro: EL CARMEN DE CHUCURI - SANTANDER                                   3
 ACTION:UPD 13-02-15 09:12 OP:ep   STATUS:               ID:20130105153539 L   I
 2013-01-05-1530-00M.COL___242                                                 6
 STAT SP IPHASW D HRMM SECON CODA AMPLIT PERI AZIMU VELO AIN AR TRES W  DIS CAZ7
 BAR2 SZ EP       1535 54.52                             161   -0.0710 35.8 108 
 BAR2 SZ ES   1   1536  6.68                             161   -0.10 7 35.8 108 
 BAR2 SZ I        1536  8.04        32.6 0.44            160           35.8 108 
 BRR  HZ EP       1535 54.61                             153   -0.4110 51.9 332 
 BRR  HN ES   1   1536  7.80                             153    0.25 7 51.9 332 
 BRR  HZ I        1536  8.78         6.5 0.22            155           51.9 332 
 RUS  HZ EP   1   1535 59.36                             135    0.17 7 99.4 153 
 RUS  HE ES   1   1536 15.34                             135    0.38 7 99.4 153 
 RUS  HZ I        1536 23.60         5.3 0.90            131           99.4 153 
 PTB  HN ES   1   1536 14.75                             132   -0.46 7  108 261 
 ZAR  HN ES   1   1536 28.00                             117    0.75 7  175 300 
 ZAR  HZ I        1536 33.48         4.0 0.26            117            175 300 
                                                                                
