 2017  6 5 1140  5.3 L   6.720 -73.147148.2  RSN  4 0.2 1.8LRSN                1
 GAP=231        0.45       5.8     5.7  5.0  0.2193E+02  0.3327E+00 -0.1584E+01E
 Epicentro: JORDAN - SANTANDER                                                 3
 ACTION:UPD 17-09-14 16:49 OP:jn   STATUS:               ID:20170605114005 L   I
 OLDACT:REG 17-06-05 20:39 OP:osc  STATUS:               ID:20170605113738     3
 2017-06-05-1138-00M.COL___350                                                 6
 STAT SP IPHASW D HRMM SECON CODA AMPLIT PERI AZIMU VELO AIN AR TRES W  DIS CAZ7
 BRR  HZ EP       1140 26.89                             151   -0.0510 75.7 305 
 BRR  HN ES       1140 43.78                             151   -0.0710 75.7 305 
 BRR  HZ I        1140 47.89        10.7 0.14            153           75.7 305 
 RUS  HZ EP   2   1140 28.60                             147   -0.05 5 91.7 176 
 RUS  HN ES   2   1140 47.25                             147    0.36 5 91.7 176 
 PTB  HZ EP   4   1140 30.35                             133   -1.94 0  146 262 
 PTB  HN ES   2   1140 52.85                             133   -0.52 5  146 262 
 ZAR  HZ EP       1140 38.21                             122   -0.01 8  207 294 
 ZAR  HE ES       1141  4.16                             122    0.23 8  207 294 
                                                                                
