 2011  7 5 1336 18.5 L   6.825 -73.134136.3  RSN  4 0.1 1.5LRSN                1
 GAP=160        0.35       2.7     4.9  4.4  0.5687E+01 -0.1090E+02 -0.6102E+01E
 Epicentro: LOS SANTOS - SANTANDER                                             3
 ACTION:UPD 12-07-25 13:58 OP:epov STATUS:               ID:20110705133618 L   I
 2011-07-05-1333-31S.COL___140                                                 6
 STAT SP IPHASW D HRMM SECON CODA AMPLIT PERI AZIMU VELO AIN AR TRES W  DIS CAZ7
 BAR2 SZ EP   1   1336 37.04                             168   -0.06 7 26.3 192 
 BAR2 SZ ES   1   1336 51.67                             168    0.09 7 26.3 192 
 BAR2 SZ I        1336 53.15        11.1 0.30                          26.3 192 
 BRR  HZ EP       1336 38.82                             151    0.1610 71.0 296 
 BRR  HE ES   1   1336 54.20                             151   -0.16 7 71.0 296 
 BRR  HZ I        1336 56.48         9.6 0.14                          71.0 296 
 RUS  HZ EP   1   1336 41.46                             141   -0.12 7  103 177 
 RUS  HE ES   1   1336 59.57                             141    0.02 7  103 177 
 RUS  HZ I        1337  1.24         2.9 0.46                           103 177 
 GRA  SZ EP       1336 42.67                             135   -0.0210  123  17 
 GRA  SZ I        1337  6.66         5.3 0.19                           123  17 
                                                                                
