 2013  4 5 1520 16.1 L   6.815 -73.107150.3  RSN 16 0.5 2.6LRSN 2.9WRSN        1
 SPEC AVERAGE  MO 13.5 ST  5.1 OM  2.0 f0 4.72 R0.3323 AL 1.56 WI 30.4 MW  2.9 3
 SPEC SD       MO  0.2 ST  3.4 OM  0.4 f0 1.21 R0.0851 AL      WI      MW  0.1 3
 GAP=112        1.06       3.2     4.9  6.5 -0.7621E+00  0.6347E+01  0.2374E+00E
 Epicentro: LOS SANTOS - SANTANDER                                             3
 SPEC ZAR HH Z MO 13.6 ST  4.7 OM  1.8 f0 4.39 R0.3349 AL 1.32 WI 28.2 MW  3.0 3
 SPEC ZAR HH Z T152112 K 0.000 GD  255 VS 4.20 DE 3.20 Q0300.0 QA 0.60 VS 4.20 3
 SPEC PTB HH Z MO 13.4 ST  6.2 OM  1.7 f0 5.51 R0.2668 AL 1.78 WI 31.1 MW  2.9 3
 SPEC PTB HH Z T1521 3 K 0.000 GD  213 VS 4.20 DE 3.20 Q0300.0 QA 0.60 VS 4.20 3
 SPEC RUS HH Z MO 13.1 ST0.539 OM  1.4 f0 3.25 R0.4523 AL 1.56 WI 22.4 MW  2.6 3
 SPEC RUS HH Z T152057 K 0.000 GD  181 VS 4.20 DE 3.20 Q0300.0 QA 0.60 VS 4.20 3
 SPEC HEL HH Z MO 13.5 ST  4.5 OM  1.6 f0 4.72 R0.3114 AL 2.29 WI 31.7 MW  2.9 3
 SPEC HEL HH Z T152126 K 0.000 GD  315 VS 4.20 DE 3.20 Q0300.0 QA 0.60 VS 4.20 3
 SPEC NOR HH Z MO 13.5 ST 11.7 OM  1.7 f0 6.21 R0.2367 AL 1.50 WI 34.0 MW  3.0 3
 SPEC NOR HH Z T152115 K 0.000 GD  282 VS 4.20 DE 3.20 Q0300.0 QA 0.60 VS 4.20 3
 SPEC OCA HH Z MO 13.6 ST  4.9 OM  1.9 f0 4.34 R0.3387 AL 1.15 WI 30.5 MW  3.0 3
 SPEC OCA HH Z T1521 8 K 0.000 GD  218 VS 4.20 DE 3.20 Q0300.0 QA 0.60 VS 4.20 3
 SPEC CHI HH Z MO 13.3 ST  1.8 OM  1.4 f0 4.12 R0.3568 AL 1.81 WI 44.6 MW  2.8 3
 SPEC CHI HH Z T152118 K 0.000 GD  292 VS 4.20 DE 3.20 Q0300.0 QA 0.60 VS 4.20 3
 SPEC BRR HH Z MO 13.3 ST  9.6 OM  1.7 f0 6.92 R0.2124 AL 1.71 WI 22.0 MW  2.8 3
 SPEC BRR HH Z T152052 K 0.000 GD  167 VS 4.20 DE 3.20 Q0300.0 QA 0.60 VS 4.20 3
 SPEC BAR2SH Z MO 13.8 ST  2.4 OM  2.2 f0 3.06 R0.4804 AL 0.95 WI 29.0 MW  3.1 3
 SPEC BAR2SH Z T152049 K 0.000 GD  152 VS 4.20 DE 3.20 Q0300.0 QA 0.60 VS 4.20 3
 ACTION:UPD 13-05-22 14:36 OP:EP   STATUS:               ID:20130405152016 L   I
 2013-04-05-1520-00M.COL___245                                                 6
 STAT SP IPHASW D HRMM SECON CODA AMPLIT PERI AZIMU VELO AIN AR TRES W  DIS CAZ7
 BAR2 SZ EP       1520 36.34                             170    0.0010 26.0 199 
 BAR2 SZ ES   1   1520 52.10                             170   -0.02 7 26.0 199 
 BAR2 SZ I        1520 52.90        87.8 0.38            167           26.0 199 
 BRR  HZ IP     C 1520 38.22                             152    0.3010 74.2 296 
 BRR  HN ES   1   1520 55.85                             152    0.92 7 74.2 296 
 BRR  HZ I        1520 59.52        38.8 0.22            149           74.2 296 
 RUS  HZ EP       1520 40.20                             144   -0.2110  102 178 
 RUS  HN ES   1   1520 58.69                             144   -0.68 7  102 178 
 RUS  HZ I        1521  0.14        27.1 0.38            145            102 178 
 TAM  HN ES   2   1521  5.57                             132    0.14 5  151 106 
 PTB  HZ EP       1520 42.92                             132   -0.93 9  152 259 
 PTB  HN ES   1   1521  4.56                             132   -0.93 7  152 259 
 PTB  HZ I        1521 10.14        47.1 0.22            130            152 259 
 OCA  HZ EP   1   1520 44.97                             131    0.29 7  159 352 
 OCA  HN ES   1   1521  7.13                             131    0.17 7  159 352 
 OCA  HZ I        1521 11.25        70.9 0.32            132            159 352 
 ZAR  HZ EP       1520 48.79                             123   -0.40 8  207 291 
 ZAR  HE ES   1   1521 14.68                             123   -0.32 6  207 291 
 ZAR  HZ I        1521 19.87        50.5 0.58            122            207 291 
 CTAB SZ EP       1520 53.60                             120    1.09 8  234 211 
 CTAB SZ ES       1521 21.49                             120    0.59 8  234 211 
 NOR  HZ EP       1520 52.26                             119   -0.31 8  239 235 
 NOR  HN ES       1521 21.01                             119   -0.01 8  239 235 
 NOR  HZ I        1521 26.10        34.9 0.52            119            239 235 
 SML  HZ EP       1520 52.78                             118   -0.25 8  244 334 
 SML  HE ES   2   1521 21.46                             118   -0.36 4  244 334 
 SML  HZ I        1521 29.98        66.4 0.10            119            244 334 
 CHI  HZ EP       1520 54.28                             118   -0.07 8  251 196 
 CHI  HN ES   1   1521 24.20                             118    0.01 6  251 196 
 CHI  HZ I        1521 31.34        12.5 0.24            119            251 196 
 ROSC BZ EP   2   1520 55.31                             117    0.44 4  256 212 
 ROSC BN ES   2   1521 25.26                             117    0.16 4  256 212 
 ROSC BZ I        1521 39.37        17.3 0.60            118            256 212 
 HEL  HZ EP   1   1520 58.11                             115    1.06 6  277 256 
 HEL  HN ES   1   1521 30.03                             115    1.04 6  277 256 
 HEL  HZ I        1521 35.39        24.3 0.26            115            277 256 
 DBB  SZ EP       1521  3.87                             110   -0.37 7  344 274 
 COD  HN ES   1   1521 42.81                             110    0.51 5  347 354 
 COD  HZ I        1521 45.75         5.7 0.32            111            347 354 
 PRA  HZ EP   1   1521  9.73                             107   -0.47 4  396 210 
 PRA  HN ES   1   1521 52.06                             107   -0.33 4  396 210 
 PRA  HZ I        1521 57.67        18.1 0.66            108            396 210 
                                                                                
