 2010  8 5 1711 16.2 L   6.764 -73.058148.0  RSN  5 0.2 1.6LRSN                1
 GAP=169        0.48       3.8     7.0  7.2  0.8351E+01 -0.3573E+02 -0.1102E+02E
 Epicentro: LOS SANTOS - SANTANDER                                             3
 ACTION:UP  10-09-07 10:52 OP:vdl  STATUS:               ID:20100805171116 L   I
 2010-08-05-1705-13S.COL___125                                                 6
 STAT SP IPHASW D HRMM SECON CODA AMPLIT PERI AZIMU VELO SNR AR TRES W  DIS CAZ7
 BAR2 SZ EP       1711 36.09                             171     0.010   24 216 
 BAR2 SZ ES   2   1711 51.66                             171     0.1 5   24 216 
 BAR2 SZ I        1711 52.89        12.5 0.19                            24 216 
 BRR  HZ EP       1711 38.05                             150    -0.110   82 298 
 BRR  HN ES       1711 55.41                             150     0.110   82 298 
 BRR  HZ I        1711 56.64        12.8 0.46                            82 298 
 RUS  HZ EP   1   1711 40.03                             146     0.2 7   96 182 
 RUS  HN ES   2   1711 58.00                             146    -0.3 5   96 182 
 RUS  HZ I        1712  0.27         4.6 0.36                            96 182 
 GUE  SZ EP       1711 41.07                             139    -0.210  119   7 
 GUE  SZ I        1712  2.62         2.4 0.02                           119   7 
 GRA  SZ EP       1711 41.89                             137     0.210  127  13 
                                                                                
