 2017  6 5 1736 13.7 L   6.768 -73.193149.7  RSN  7 0.5 2.0LRSN                1
 GAP=206        1.23       6.9     6.7  9.2  0.2898E+02 -0.6673E+01 -0.7288E+01E
 Epicentro: ZAPATOCA - SANTANDER                                               3
 ACTION:UPD 17-09-14 16:49 OP:jn   STATUS:               ID:20170605173613 L   I
 OLDACT:UP  17-06-05 21:59 OP:cog  STATUS:               ID:20170605172731d    3
 OLDACT:UP  17-06-05 21:58 OP:cog  STATUS:               ID:20170605172731d    3
 OLDACT:DUP 17-06-05 21:55 OP:cog  STATUS:               ID:20170605172731d    3
 2017-06-05-1728-00M.COL___353                                                 6
 STAT SP IPHASW D HRMM SECON CODA AMPLIT PERI AZIMU VELO AIN AR TRES W  DIS CAZ7
 BRR  HZ IP       1736 34.95                             154   -0.1510 68.5 303 
 BRR  HZ EP       1736 34.95                             148           68.5 303 
 BRR  HN ES       1736 51.98                             154    0.1610 68.5 303 
 BRR  HZ I        1736 56.29        23.6 0.38            153           68.5 303 
 RUS  HZ EP       1736 37.07                             146   -0.5410 97.6 173 
 RUS  HE ES       1736 56.01                             146   -0.2610 97.6 173 
 RUS  HZ I        1736 57.11        14.0 0.20            146           97.6 173 
 PTB  HZ EP       1736 39.93                             134   -0.52 9  142 260 
 PTB  HN ES       1737  1.03                             134   -0.30 9  142 260 
 PTB  HZ I        1737  3.57        10.6 0.18            134            142 260 
 SPBC HE ES       1737  3.83                             131   -0.12 9  157 218 
 YPLC HZ EP       1736 43.59                             128   -0.13 9  176 149 
 YPLC HN ES       1737  8.07                             128    0.92 9  176 149 
 ZAR  HZ EP       1736 45.76                             124   -0.27 9  201 294 
 ZAR  HE ES       1737 12.10                             124    0.84 9  201 294 
 NOR  HZ EP       1736 49.83                             120    0.86 8  228 234 
 NOR  HN ES   4   1737 18.11                             120    1.62 0  228 234 
 NOR  HZ I        1737 23.09         7.0 0.20            121            228 234 
                                                                                
