 2013  5 5 1035 29.4 L   6.826 -73.183146.0  RSN  6 0.4 1.9LRSN                1
 GAP=131        0.80       4.5     5.4  7.3 -0.4156E+01 -0.1148E+01  0.3175E+01E
 Epicentro: ZAPATOCA - SANTANDER                                               3
 ACTION:UPD 13-06-20 09:48 OP:ep   STATUS:               ID:20130505103529 L   I
 2013-05-05-1030-00M.COL___253                                                 6
 STAT SP IPHASW D HRMM SECON CODA AMPLIT PERI AZIMU VELO AIN AR TRES W  DIS CAZ7
 BRR  HZ EP   1   1035 50.80                             155    0.49 7 66.2 298 
 BRR  HN ES       1036  7.15                             155    0.5310 66.2 298 
 BRR  HN I        1036  8.41        20.5 0.24            151           66.2 298 
 PAM  SZ EP   1   1035 51.64                             151   -0.05 7 78.0  43 
 PAM  SN ES   2   1036  8.87                             151   -0.19 5 78.0  43 
 PAM  SN I        1036 10.13         6.9 0.32            156           78.0  43 
 RUS  HZ EP   1   1035 53.27                             143   -0.15 7  104 174 
 RUS  HN ES   2   1036 11.64                             143   -0.50 5  104 174 
 RUS  HN I        1036 13.18         8.6 0.38            143            104 174 
 PTB  HZ EP   1   1035 55.91                             133   -0.18 7  144 257 
 PTB  HN ES   1   1036 16.43                             133   -0.46 7  144 257 
 PTB  HN I        1036 21.89         8.1 0.58            130            144 257 
 NOR  HZ EP   1   1036  5.44                             119    0.46 6  233 233 
 NOR  HE ES   1   1036 32.52                             119   -0.20 6  233 233 
 NOR  HN I        1036 42.90         6.4 0.16            118            233 233 
 SML  HZ EP   1   1036  5.63                             118    0.04 6  239 336 
 SML  HN ES   1   1036 32.91                             118   -0.89 6  239 336 
 SML  HN I        1036 36.06         7.7 0.28            119            239 336 
                                                                                
