 2015 12 5 1835 15.8 L   6.726 -73.209150.6  RSN  7 0.2 1.8LRSN                1
 GAP=221        0.58       3.3     3.4  4.7  0.4218E+01  0.2284E+01 -0.3721E+00E
 Epicentro: VILLANUEVA - SANTANDER                                             3
 ACTION:UPD 16-02-04 15:02 OP:cam  STATUS:               ID:20151205183515 L   I
 OLDACT:REG 15-12-05 19:59 OP:drio STATUS:               ID:20151205182746     3
 2015-12-05-1827-46M.COL___314                                                 6
 STAT SP IPHASW D HRMM SECON CODA AMPLIT PERI AZIMU VELO AIN AR TRES W  DIS CAZ7
 BAR2 EZ EP       1835 35.67                             174   -0.2010 15.1 169 
 BAR2 EZ ES       1835 51.35                             174   -0.1910 15.1 169 
 BAR2 EZ I        1835 51.85        13.0 0.20            171           15.1 169 
 BRR  HZ EP       1835 37.50                             154    0.1110 69.7 307 
 BRR  HN ES       1835 54.61                             154    0.3810 69.7 307 
 RUS  HZ EP       1835 39.70                             147    0.1810 93.2 171 
 RUS  HN ES       1835 57.92                             147   -0.1110 93.2 171 
 RUS  HZ I        1836  0.92         3.9 0.34            146           93.2 171 
 PTB  HZ EP       1835 42.37                             135   -0.06 9  139 262 
 PTB  HN ES       1836  2.94                             135   -0.26 9  139 262 
 PTB  HZ I        1836  8.54         8.0 0.44            132            139 262 
 SPBC HZ EP   4   1835 41.62                             132   -2.06 0  152 219 
 SPBC HN ES       1836  5.69                             132    0.26 9  152 219 
 SPBC HZ I        1836  8.54        10.9 0.28            130            152 219 
 ZAR  HZ EP   4   1835 49.59                             124    1.35 0  201 295 
 ZAR  HN ES       1836 13.39                             124   -0.15 9  201 295 
 ZAR  HZ I        1836 19.85         8.6 0.30            123            201 295 
 GUY2CHZ EP   4   1836  0.64                             114    2.18 0  291 235 
 GUY2CHN ES   4   1836 35.76                             114    4.02 0  291 235 
 GUY2CHZ I        1836 43.92         3.4 0.44                           291 235 
                                                                                
