 2015  7 5 1623 22.7 L   6.832 -73.158142.3  RSN 12 0.4 2.3LRSN                1
 GAP=133        0.83       2.3     3.7  5.0 -0.1199E+01  0.9540E+01  0.2605E+00E
 Epicentro: LOS SANTOS - SANTANDER                                             3
 ACTION:UPD 15-09-08 21:47 OP:cam  STATUS:               ID:20150705162322 L   I
 OLDACT:UP  15-07-05 22:14 OP:mh   STATUS:               ID:20150705161747     3
 OLDACT:UP  15-07-05 22:12 OP:mh   STATUS:               ID:20150705161747     3
 OLDACT:UP  15-07-05 22:12 OP:mh   STATUS:               ID:20150705161747     3
 OLDACT:REG 15-07-05 20:37 OP:mh   STATUS:               ID:20150705161747     3
 2015-07-05-1617-47M.COL___337                                                 6
 STAT SP IPHASW D HRMM SECON CODA AMPLIT PERI AZIMU VELO AIN AR TRES W  DIS CAZ7
 BAR2 EZ EP       1623 42.04                             169    0.0110 26.7 186 
 BAR2 EZ ES       1623 56.74                             169   -0.3310 26.7 186 
 BAR2 EZ I        1623 58.27        33.3 0.30            167           26.7 186 
 PAM  EZ EP       1623 45.00                             151    0.5210 75.6  42 
 PAM  EN ES       1624  1.89                             151    0.4610 75.6  42 
 PAM  EZ I        1624  2.75        23.1 0.20            155           75.6  42 
 RUS  HZ EP       1623 46.11                             142   -0.3110  104 175 
 RUS  HN ES       1624  4.83                             142   -0.0610  104 175 
 RUS  HZ I        1624  5.19        15.2 0.26            145            104 175 
 OCA  HZ EP       1623 50.11                             129   -0.32 9  157 353 
 OCA  HN ES       1624 11.78                             129   -0.25 9  157 353 
 OCA  HZ I        1624 20.26        40.9 0.22            130            157 353 
 ZAR  HZ EP       1623 55.17                             122    0.48 9  201 291 
 ZAR  HN ES       1624 19.54                             122   -0.07 9  201 291 
 ZAR  HZ I        1624 25.03        18.4 0.40            121            201 291 
 NOR  HZ EP       1623 58.14                             118   -0.24 8  236 234 
 NOR  HN ES       1624 26.44                             118    0.27 8  236 234 
 NOR  HZ I        1624 33.68         9.0 0.34            118            236 234 
 SML  HZ EP       1623 58.23                             117   -0.53 8  240 335 
 SML  HN ES       1624 26.61                             117   -0.24 8  240 335 
 SML  HZ I        1624 35.21        23.9 0.10            118            240 335 
 HEL  HZ EP       1624  3.58                             114    0.85 8  272 255 
 HEL  HN ES       1624 33.89                             114   -0.03 8  272 255 
 HEL  HZ I        1624 39.94         9.3 0.28            114            272 255 
 GUY2CHZ EP       1624  6.75                             112    0.45 7  302 234 
 GUY2CHN ES   4   1624 42.88                             112    2.61 0  302 234 
 GUY2CHZ I        1624 48.05         8.5 0.56                           302 234 
 TOL  SZ EP       1624 11.14                             109    0.10 7  345 224 
 TOL  SN ES   4   1624 49.72                             109    1.00 0  345 224 
 TOL  SZ I        1624 57.84         7.2 0.54            109            345 224 
 MON  HZ EP   4   1624  8.92                             108   -2.31 0  350 308 
 MON  HN ES   4   1624 47.52                             108   -1.53 0  350 308 
 PRA  HZ EP       1624 16.19                             106   -0.24 6  394 209 
 PRA  HN ES       1624 57.72                             106   -0.58 6  394 209 
 PRA  HZ I        1625  4.22         9.6 0.26            107            394 209 
 ORTC HZ EP       1624 16.48                             106   -0.31 6  398 216 
 ORTC HN ES   2   1624 59.17                             106    0.23 3  398 216 
 ORTC HZ I        1625  8.14         4.8 0.48            107            398 216 
 SJC  HZ EP   4   1624 16.23                             105   -1.52 0  405 327 
 SJC  HN ES   4   1624 59.36                             105   -1.30 0  405 327 
                                                                                
