 2011 10 5 1542 44.4 L   6.810 -73.144136.2  RSN  6 0.1 2.1LRSN                1
 GAP=136        0.33       2.1     2.2  3.3  0.6535E+00  0.2734E+00 -0.7037E+00E
 Epicentro: LOS SANTOS - SANTANDER                                             3
 ACTION:UPD 12-07-13 16:02 OP:ep   STATUS:               ID:20111005154244 L   I
 2011-10-05-1534-37S.COL___165                                                 6
 STAT SP IPHASW D HRMM SECON CODA AMPLIT PERI AZIMU VELO AIN AR TRES W  DIS CAZ7
 BAR2 SZ EP   1   1543  2.66                             169   -0.21 7 24.4 190 
 BAR2 SZ ES   1   1543 17.15                             169   -0.15 7 24.4 190 
 BAR2 SZ I        1543 21.41        27.7 0.53                          24.4 190 
 GIR2 SZ EP       1543  2.80                             167   -0.0710 30.2 350 
 BRR  HZ EP   1   1543  4.58                             151    0.12 7 70.9 298 
 BRR  HZ I        1543  9.53        31.2 0.13                          70.9 298 
 BRR  HN ES   1   1543 20.25                             151    0.10 7 70.9 298 
 PAM  SZ EP       1543  5.48                             149   -0.0310 76.4  40 
 PAM  SZ I        1543  5.92        42.2 0.18                          76.4  40 
 PAM  SN ES   1   1543 22.12                             149    0.12 7 76.4  40 
 RUS  HZ EP   1   1543  7.41                             141    0.15 7  102 176 
 RUS  HN ES   1   1543 25.21                             141    0.08 7  102 176 
 RUS  HZ I        1543 27.82         9.7 0.31                           102 176 
 ZAR  HN ES   1   1543 40.95                             120   -0.04 6  204 292 
 ZAR  HZ I        1543 46.26        10.3 0.14                           204 292 
                                                                                
