 2013  9 5 1608 52.9 L   6.378 -73.667104.4  RSN 17 0.5 2.5LRSN                1
 GAP= 64        1.07       2.4     3.1  5.7 -0.1616E+01  0.4137E+01 -0.2735E+00E
 Epicentro: SANTA HELENA DEL OPON - SANTANDER                                  3
 ACTION:UPD 13-10-22 09:20 OP:ep   STATUS:               ID:20130905160852 L   I
 OLDACT:REG 13-09-05 15:47 OP:jn   STATUS:               ID:20130905160636     3
 2013-09-05-1606-36M.COL___247                                                 6
 STAT SP IPHASW D HRMM SECON CODA AMPLIT PERI AZIMU VELO AIN AR TRES W  DIS CAZ7
 BAR2 SZ IP     C 16 9  9.60                             148    0.3710 58.6  66 
 BAR2 SZ ES       16 9 22.45                             148    0.4710 58.6  66 
 BAR2 SZ I        16 9 23.51       357.7 0.12            144           58.6  66 
 BRR  HZ IP     C 16 9 10.60                             139    0.1010 80.8 356 
 BRR  HN ES       16 9 24.96                             139    0.7310 80.8 356 
 BRR  HZ I        16 9 25.62        67.9 0.12            131           80.8 356 
 RUS  HZ EP     D 16 9 11.36                             138   -0.0810 84.0 130 
 RUS  HN ES       16 9 25.37                             138   -0.5310 84.0 130 
 RUS  HZ I        16 9 29.03        24.1 0.64            132           84.0 130 
 PTB  HZ EP       16 9 10.63                             136   -0.5810 89.2 282 
 PTB  HN ES       16 9 24.52                             136   -0.9810 89.2 282 
 PTB  HZ I        16 9 27.90        81.5 0.12            126           89.2 282 
 SPBC HZ IP     D 16 9 11.74                             135    0.1910 91.9 209 
 SPBC HN ES       16 9 26.68                             135    0.5810 91.9 209 
 SPBC HZ I        16 9 28.20        82.4 0.22            126           91.9 209 
 PAM  SZ EP       16 9 17.86                             120    0.07 9  151  45 
 PAM  SN ES   1   16 9 36.59                             120   -0.62 7  151  45 
 PAM  SZ I        16 9 43.22        25.6 0.32            114            151  45 
 NOR  HZ EP   2   16 9 17.69                             118   -0.60 5  161 236 
 NOR  HN ES       16 9 37.75                             118   -0.35 9  161 236 
 NOR  HZ I        16 9 46.44        38.6 0.12            111            161 236 
 ZAR  HZ EP       16 9 20.65                             115    0.28 9  180 313 
 ZAR  HN ES   1   16 9 42.32                             115    0.51 7  180 313 
 ZAR  HZ I        16 9 47.27        60.5 0.18            108            180 313 
 CHI  HZ EP   1   16 9 22.59                             113    0.24 7  193 182 
 CHI  HN ES   1   16 9 45.04                             113   -0.29 7  193 182 
 CHI  HZ I        16 9 49.39        31.9 0.26            107            193 182 
 HEL  HZ EP   1   16 9 24.03                             111    0.20 6  207 264 
 HEL  HZ I        16 9 52.24        27.7 0.26            106            207 264 
 OCA  HZ EP   1   16 9 23.25                             111   -0.57 6  209  11 
 OCA  HN ES       16 9 47.20                             111   -0.74 8  209  11 
 OCA  HZ I        16 9 54.54        56.9 0.26            106            209  11 
 GUY2CHZ EP   1   16 9 26.75                             109    0.47 6  227 236 
 GUY2CHZ I        16 9 58.29        14.3 0.42                           227 236 
 RREF HZ EP   1   16 9 29.36                             107    0.52 6  248 229 
 RREF HN ES   1   16 9 56.75                             107   -0.13 6  248 229 
 RREF HZ I        1610  5.66        16.0 0.24            103            248 229 
 VIL  SN ES   1   16 9 56.49                             107    0.12 6  251 181 
 VIL  SZ I        1610  3.06        41.7 0.54            103            251 181 
 SML  HZ EP   1   16 9 30.93                             105    0.07 6  272 351 
 SML  HE ES   1   1610  1.19                             105    0.71 6  272 351 
 SML  HZ I        1610  5.36        64.5 0.10            102            272 351 
 PRA  HZ EP   1   16 9 37.10                             101   -0.05 5  324 205 
 PRA  HN ES   1   1610 11.86                             101    0.19 5  324 205 
 PRA  HZ I        1610 22.53        14.1 0.30             99            324 205 
 COD  HN ES   4   1610 26.18                              98   -0.39 0  394   4 
 COD  HZ I        1610 33.08         6.7 0.42             98            394   4 
                                                                                
