 2016  7 5 1121 15.9 L   6.767 -73.162153.4  RSN  6 0.4 1.7LRSN                1
 GAP=233        0.82       6.6     6.5  6.9  0.2463E+02  0.1352E+02  0.5879E+00E
 Epicentro: LOS SANTOS - SANTANDER                                             3
 ACTION:UPD 17-03-29 16:47 OP:lp   STATUS:               ID:20160705112115 L   I
 OLDACT:REG 16-07-05 22:08 OP:dnl  STATUS:               ID:20160705111746     3
 2016-07-05-1117-46M.COL___310                                                 6
 STAT SP IPHASW D HRMM SECON CODA AMPLIT PERI AZIMU VELO AIN AR TRES W  DIS CAZ7
 BAR2 EZ EP   2   1121 36.28                             173   -0.14 5 19.5 187 
 BAR2 EZ ES       1121 51.92                             173   -0.4710 19.5 187 
 BAR2 EZ I        1121 53.42         9.5 0.38            171           19.5 187 
 BRR  HZ EP       1121 38.24                             154    0.3010 71.5 302 
 BRR  HE ES       1121 55.63                             154    0.5410 71.5 302 
 BRR  HZ I        1122  0.64         6.0 0.12            154           71.5 302 
 RUS  HZ EP   2   1121 40.33                             147    0.12 5 97.1 175 
 RUS  HN ES       1121 59.27                             147    0.1310 97.1 175 
 RUS  HZ I        1122  1.69         5.9 0.50            149           97.1 175 
 PTB  HZ EP       1121 43.12                             134   -0.21 9  145 260 
 PTB  HN ES       1122  4.48                             134   -0.21 9  145 260 
 PTB  HZ I        1122  9.07         8.3 0.26            135            145 260 
 ZAR  HZ EP   2   1121 48.02                             124   -0.85 4  204 293 
 ZAR  HE ES       1122 14.40                             124   -0.15 9  204 293 
 ZAR  HZ I    4   1122 21.38         8.3 0.34            126            204 293 
 GUY2CHZ EP   2   1122  0.55                             114    1.03 4  298 235 
 GUY2CHN ES   4   1122 36.68                             114    3.18 0  298 235 
 GUY2CHZ I        1122 42.28         3.2 0.54                           298 235 
                                                                                
