 2012  4 5 1848 28.2 L   6.781 -73.158144.8  RSN 11 0.4 2.8LRSN                1
 GAP=113        0.87       3.7     4.2  6.2 -0.1393E+01  0.2371E+01  0.4764E+01E
 Epicentro: LOS SANTOS - SANTANDER                                             3
 ACTION:UPD 12-07-05 11:50 OP:tino STATUS:               ID:20120405184828 L   I
 2012-04-05-1840-00M.COL___196                                                 6
 STAT SP IPHASW D HRMM SECON CODA AMPLIT PERI AZIMU VELO AIN AR TRES W  DIS CAZ7
 BAR2 SZ IP       1848 47.55                             171    -0.110   21 187 
 BAR2 SZ ES   2   1849  2.76                             171     0.0 5   21 187 
 BAR2 SZ I        1849  4.34       173.8 0.30                            21 187 
 BRR  HZ IP     C 1848 49.43                             152     0.210   71 301 
 BRR  HZ I        1848 49.66       233.2 0.16                            71 301 
 BRR  HE ES   1   1849  6.02                             152     0.4 7   71 301 
 PAM  SZ IP       1848 50.34                             150    -0.110   80  39 
 PAM  SN ES   1   1849  7.63                             150    -0.2 7   80  39 
 RUS  HZ IP     D 1848 51.44                             144    -0.210   99 175 
 RUS  HN ES   1   1849 10.00                             144     0.0 7   99 175 
 RUS  HZ I        1849 11.58        83.0 0.68                            99 175 
 PTB  HZ EP       1848 54.15                             132    -0.7 9  146 260 
 PTB  HN ES   1   1849 15.38                             132    -0.4 7  146 260 
 PTB  HZ I        1849 18.94        64.3 0.40                           146 260 
 OCA  SZ EP       1848 56.95                             129     0.4 9  162 354 
 YOP  SZ EP       1848 57.92                             126    -0.1 9  178 153 
 ZAR  HE ES   2   1849 25.56                             122    -0.2 4  204 293 
 NOR  SZ EP       1849  3.63                             118     0.1 8  232 235 
 NOR  SE ES   1   1849 31.05                             118    -0.2 6  232 235 
 CHI  HZ EP       1849  5.53                             117     0.0 8  246 195 
 CHI  HN ES   1   1849 35.74                             117     1.1 6  246 195 
 HEL  HZ EP   1   1849  8.84                             115     0.7 6  270 256 
                                                                                
