 2014  5 5 1731 46.6 L   6.777 -73.170148.8  RSN  7 0.3 1.9LRSN                1
 GAP=135        0.73       2.7     3.2  5.1  0.5032E-01  0.2500E+01  0.2663E+01E
 Epicentro: LOS SANTOS - SANTANDER                                             3
 ACTION:UPD 15-03-16 16:55 OP:nd   STATUS:               ID:20140505173146 L   I
 OLDACT:DUP 14-05-05 23:52 OP:carl STATUS:               ID:20140505172815d    3
 2014-05-05-1728-14M.COL___220                                                 6
 STAT SP IPHASW D HRMM SECON CODA AMPLIT PERI AZIMU VELO AIN AR TRES W  DIS CAZ7
 BRR  HZ EP       1732  8.41                             153    0.4310 70.1 301 
 BRR  HN ES       1732 24.81                             153    0.1310 70.1 301 
 PAM  SZ EP       1732  9.19                             150   -0.1310 81.0  40 
 PAM  SN ES       1732 27.01                             150   -0.0510 81.0  40 
 PAM  SZ I        1732 28.51        11.7 0.56            153           81.0  40 
 RUS  HZ EP       1732 10.42                             145   -0.0310 98.3 174 
 RUS  HN ES       1732 28.97                             145   -0.1110 98.3 174 
 RUS  HZ I        1732 30.64         9.9 0.22            146           98.3 174 
 PTB  HZ EP       1732 13.09                             133   -0.41 9  145 260 
 PTB  HN ES       1732 34.12                             133   -0.39 9  145 260 
 PTB  HZ I        1732 36.29        11.5 0.14            133            145 260 
 SPBC HZ EP       1732 15.25                             130    0.30 9  160 219 
 SPBC HN ES       1732 37.39                             130    0.29 9  160 219 
 SPBC HZ I        1732 40.06        18.1 0.22            130            160 219 
 ZAR  HZ EP       1732 18.63                             123   -0.42 9  203 293 
 ZAR  HN ES       1732 44.67                             123    0.28 9  203 293 
 ZAR  HZ I        1732 51.26         5.5 0.30            124            203 293 
 CHI  HZ EP       1732 24.46                             118    0.37 8  246 195 
 CHI  HE ES       1732 53.09                             118   -0.27 8  246 195 
 CHI  HZ I        1732 59.22         2.9 0.22            119            246 195 
                                                                                
