 2014  5 5 1043  7.3 L   6.815 -73.184150.4  RSN  5 0.4 1.6LRSN                1
 GAP=198        0.89       3.7     6.6  9.0  0.7051E+01 -0.1092E+02 -0.1200E+02E
 Epicentro: ZAPATOCA - SANTANDER                                               3
 ACTION:UPD 15-03-16 16:55 OP:nd   STATUS:               ID:20140505104307 L   I
 OLDACT:DUP 14-05-05 21:18 OP:carl STATUS:               ID:20140505103815d    3
 2014-05-05-1038-14M.COL___214                                                 6
 STAT SP IPHASW D HRMM SECON CODA AMPLIT PERI AZIMU VELO AIN AR TRES W  DIS CAZ7
 RUS  HZ EP       1043 32.18                             144    0.4910  103 174 
 RUS  HN ES       1043 50.44                             144   -0.2410  103 174 
 RUS  HZ I        1043 51.34         4.5 0.24            144            103 174 
 PTB  HZ EP       1043 34.38                             134    0.03 9  144 258 
 PTB  HN ES       1043 55.62                             134    0.19 9  144 258 
 PTB  HZ I        1044  3.15         3.5 0.34            130            144 258 
 SPBC HZ EP       1043 35.17                             130   -0.90 9  162 217 
 SPBC HN ES       1043 58.56                             130    0.07 9  162 217 
 SPBC HZ I        1044  6.00         7.5 0.18            128            162 217 
 SML  HZ EP       1043 44.06                             119    0.18 8  241 336 
 SML  HN ES       1044 12.27                             119   -0.12 8  241 336 
 SML  HZ I        1044 19.58         5.3 0.10            119            241 336 
 CHI  HZ EP       1043 45.47                             118    0.12 8  249 194 
 CHI  HN ES       1044 15.23                             118    0.23 8  249 194 
 CHI  HZ I        1044 25.34         1.7 0.30            118            249 194 
                                                                                
