 2017  3 5 1022  6.7 L   6.770 -73.173146.0  RSN  7 0.2 1.5LRSN                1
 GAP=232        0.49       3.5     3.4  3.5  0.7713E+01  0.2374E+01  0.2336E+01E
 Epicentro: LOS SANTOS - SANTANDER                                             3
 ACTION:UPD 17-05-25 18:36 OP:jn   STATUS:               ID:20170305102206 L   I
 OLDACT:UP  17-03-05 20:50 OP:dani STATUS:               ID:20170305101744     3
 OLDACT:UP  17-03-05 20:49 OP:dani STATUS:               ID:20170305101744     3
 OLDACT:UP  17-03-05 20:49 OP:dani STATUS:               ID:20170305101744     3
 OLDACT:REG 17-03-05 20:18 OP:dani STATUS:               ID:20170305101744     3
 2017-03-05-1018-00M.COL___387                                                 6
 STAT SP IPHASW D HRMM SECON CODA AMPLIT PERI AZIMU VELO AIN AR TRES W  DIS CAZ7
 BAR2 EZ EP     D 1022 26.25                             172   -0.0410 19.7 183 
 BAR2 EZ ES       1022 41.56                             172   -0.0110 19.7 183 
 BAR2 EZ I        1022 42.80         7.4 0.40            156           19.7 183 
 BRR  HZ EP       1022 27.92                             153    0.1010 70.2 302 
 BRR  HN ES       1022 44.42                             153    0.1310 70.2 302 
 BRR  HZ I        1022 50.58         5.0 0.42            145           70.2 302 
 RUS  HZ EP       1022 30.20                             145   -0.0610 97.6 174 
 RUS  HN ES       1022 48.55                             145   -0.0810 97.6 174 
 RUS  HZ I        1022 50.13         2.8 0.13            139           97.6 174 
 PTB  HZ EP       1022 32.98                             133   -0.38 9  144 260 
 PTB  HN ES       1022 54.24                             133    0.08 9  144 260 
 PTB  HZ I        1023  1.46         2.5 0.22            126            144 260 
 ZAR  HN ES       1023  4.14                             123   -0.05 9  203 293 
 ZAR  HZ I        1023 10.51         3.0 0.35            120            203 293 
 CHI  HZ EP       1022 44.37                             118    0.39 8  245 195 
 ROSC BZ EP   9   1022 45.82                             117    1.47 0  248 211 
 ROSC BE ES   4   1023 23.36                             114    8.17 0  248 211 
 ROSC BZ I        1023 25.09         4.0 0.16            114            248 211 
                                                                                
