 2012 10 5 1750 33.3 L   6.776 -73.122138.6  RSN  6 0.3 2.2LRSN                1
 GAP=141        0.66       4.0     5.2  6.8  0.1853E+01  0.1685E+00  0.1476E+01E
 Epicentro: LOS SANTOS - SANTANDER                                             3
 ACTION:UPD 12-11-22 17:02 OP:ep   STATUS:               ID:20121005175033 L   I
 2012-10-05-1750-00M.COL___222                                                 6
 STAT SP IPHASW D HRMM SECON CODA AMPLIT PERI AZIMU VELO AIN AR TRES W  DIS CAZ7
 BAR2 SZ EP       1750 51.89                             171   -0.1410 21.4 198 
 BAR2 SZ ES   2   1751  6.33                             171   -0.31 5 21.4 198 
 BAR2 SZ I        1751  7.88        25.7 0.16                          21.4 198 
 GIR2 SZ EP       1750 52.16                             165   -0.0610 34.4 347 
 GIR2 SZ ES   3   1751  6.93                             165   -0.03 2 34.4 347 
 BRR  HZ EP       1750 53.90                             150    0.0010 74.8 299 
 BRR  HZ I        1750 56.98        26.6 0.12                          74.8 299 
 BRR  HN ES   1   1751 10.54                             150    0.59 7 74.8 299 
 PAM  SZ EP       1750 54.74                             149   -0.0510 77.8  37 
 PAM  SZ I        1750 55.04        41.2 0.24                          77.8  37 
 PAM  SN ES   1   1751 11.52                             149   -0.02 7 77.8  37 
 RUS  HZ EP       1750 56.51                             143    0.3610 97.8 177 
 RUS  HN ES   1   1751 13.66                             143   -0.31 7 97.8 177 
 ZAR  HN ES   2   1751 29.87                             120   -1.01 4  207 293 
                                                                                
