 2016  6 5 1503 46.3 L   6.794 -73.142143.8  RSN 19 0.5 2.5LRSN                1
 GAP= 71        1.12       3.2     3.5  5.2 -0.2245E+01  0.4063E+01  0.3420E+01E
 Epicentro: LOS SANTOS - SANTANDER                                             3
 ACTION:UPD 16-07-21 22:15 OP:rebc STATUS:               ID:20160605150346 L   I
 OLDACT:UP  16-06-05 23:42 OP:ar   STATUS:               ID:20160605145742     3
 OLDACT:UP  16-06-05 23:40 OP:ar   STATUS:               ID:20160605145742     3
 OLDACT:REG 16-06-05 21:02 OP:ar   STATUS:               ID:20160605145742     3
 2016-06-05-1457-42M.COL___316                                                 6
 STAT SP IPHASW D HRMM SECON CODA AMPLIT PERI AZIMU VELO AIN AR TRES W  DIS CAZ7
 BAR2 EZ EP       15 4  5.51                             171   -0.2210 22.8 191 
 BAR2 EZ ES       15 4 20.55                             171   -0.3010 22.8 191 
 BAR2 EZ I        15 4 24.47        43.3 0.36                          22.8 191 
 BRR  HZ EP       15 4  7.36                             152    0.0410 71.8 299 
 BRR  HN ES       15 4 24.38                             152    0.7010 71.8 299 
 BRR  HZ I        15 4 28.35        45.5 0.14                          71.8 299 
 PAM  EZ EP       15 4  8.42                             150    0.0510 77.7  39 
 PAM  EN ES       15 4 26.12                             150    0.5710 77.7  39 
 PAM  EZ I        15 4 27.82        47.1 0.66                          77.7  39 
 RUS  HZ EP       15 4  9.58                             144   -0.2710 99.9 176 
 RUS  HN ES       15 4 28.26                             144    0.0710 99.9 176 
 RUS  HZ I        15 4 29.26        41.8 0.34                          99.9 176 
 PTB  HZ EP       15 4 12.36                             131   -0.81 9  148 259 
 PTB  HN ES       15 4 33.31                             131   -0.79 9  148 259 
 PTB  HZ I        15 4 34.92        28.3 0.26                           148 259 
 TAM  HZ EP       15 4 13.84                             130    0.02 9  155 105 
 TAM  HN ES       15 4 35.06                             130   -0.19 9  155 105 
 TAM  HZ I        15 4 41.71        14.5 0.50                           155 105 
 OCA  HZ EP       15 4 14.49                             129   -0.08 9  161 353 
 OCA  HN ES       15 4 36.24                             129   -0.34 9  161 353 
 OCA  HZ I        15 4 38.61        91.6 0.22                           161 353 
 SPBC HZ EP       15 4 14.45                             129   -0.22 9  163 219 
 SPBC HN ES       15 4 37.16                             129    0.40 9  163 219 
 SPBC HZ I        15 4 42.21        55.0 0.44                           163 219 
 NOR  HZ EP       15 4 21.73                             118   -0.22 8  235 235 
 NOR  HN ES       15 4 49.62                             118   -0.11 8  235 235 
 NOR  HZ I        15 4 56.24        29.2 0.16                           235 235 
 CHI  HZ EP       15 4 23.77                             117   -0.11 8  248 195 
 CHI  HN ES       15 4 52.70                             117   -0.45 8  248 195 
 CHI  HZ I        15 4 60.00        13.3 0.46                           248 195 
 ROSC BZ EP       15 4 25.35                             116    1.03 8  252 211 
 ROSC BN ES   4   15 4 57.97                             116    4.03 0  252 211 
 ROSC BZ I        15 5  1.44        32.5 0.40                           252 211 
 HEL  HZ EP       15 4 27.55                             114    1.07 8  272 256 
 HEL  HN ES   4   15 4 59.85                             114    2.07 0  272 256 
 HEL  HZ I        15 5  5.13        13.8 0.50                           272 256 
 PTGC HZ EP   4   15 4 28.59                             111   -1.44 0  308 159 
 PTGC HN ES   4   15 5  2.02                             111   -2.08 0  308 159 
 PTGC HZ I        15 5 10.47        30.0 0.38                           308 159 
 ELA  HZ EP   4   15 4 39.72                             110    6.62 0  329 230 
 ELA  HN ES   4   15 5 11.96                             110    2.40 0  329 230 
 ELA  HZ I        15 5 16.90        14.6 0.34                           329 230 
 CBOC HZ EP       15 4 33.94                             109    0.74 7  334 252 
 CBOC HE ES   4   15 5  7.13                             109   -2.61 0  334 252 
 CBOC HZ I        15 5 18.97         5.4 0.46                           334 252 
 DBB  SZ EP       15 4 33.28                             109   -0.51 7  340 274 
 DBB  SZ ES   4   15 5  9.92                             109   -0.88 0  340 274 
 DBB  SZ I        15 5 13.38        23.6 0.52                           340 274 
 ANIL HZ EP   4   15 4 37.52                             108    1.47 0  357 225 
 ANIL HN ES   4   15 5 16.42                             108    1.60 0  357 225 
 ANIL HZ I        15 5 23.43        28.5 0.24                           357 225 
 PRA  HZ EP       15 4 39.27                             106   -0.48 6  392 210 
 PRA  HN ES       15 5 21.98                             106    0.57 6  392 210 
 PRA  HZ I        15 5 27.76        15.6 0.38                           392 210 
 ORTC HZ EP       15 4 40.53                             106    0.37 6  395 216 
 ORTC HN ES       15 5 22.56                             106    0.42 6  395 216 
 ORTC HZ I        15 5 29.49        11.3 0.40                           395 216 
                                                                                
