 2014  9 5 1607 43.7 L   6.730 -73.132140.9  RSN 13 0.5 1.9LRSN                1
 GAP=141        1.10       4.7     4.9  7.7  0.4088E+00  0.7226E+01 -0.1996E+01E
 Epicentro: JORDAN - SANTANDER                                                 3
 ACTION:UPD 14-10-03 23:02 OP:nd   STATUS:               ID:20140905160743 L   I
 OLDACT:REG 14-09-05 20:48 OP:fm   STATUS:               ID:20140905155814     3
 2014-09-05-1558-14M.COL___275                                                 6
 STAT SP IPHASW D HRMM SECON CODA AMPLIT PERI AZIMU VELO AIN AR TRES W  DIS CAZ7
 BAR2 SZ EP       16 8  2.76                             173    0.1610 16.2 200 
 BAR2 SZ ES   1   16 8 17.93                             173    0.58 7 16.2 200 
 BAR2 SZ I        16 8 18.90        18.8 0.38            172           16.2 200 
 BRR  HZ EP   1   16 8  4.14                             150   -0.47 7 76.4 303 
 BRR  HE ES       16 8 21.20                             150    0.2610 76.4 303 
 BRR  HZ I        16 8 22.75        17.1 0.14            147           76.4 303 
 PAM  SZ EP       16 8  5.61                             148   -0.1010 82.7  35 
 PAM  SZ I        16 8 27.74         8.8 0.66            138           82.7  35 
 RUS  HZ EP       16 8  6.86                             145    0.4710 92.7 177 
 RUS  HE ES       16 8 23.82                             145   -0.2810 92.7 177 
 RUS  HZ I        16 8 27.51         5.9 0.36            139           92.7 177 
 PTB  HZ EP       16 8  9.52                             131   -0.75 9  148 262 
 PTB  HN ES       16 8 30.39                             131   -0.61 9  148 262 
 PTB  HZ I        16 8 35.10        13.9 0.14            127            148 262 
 SPBC HN ES       16 8 32.63                             129   -0.27 9  158 221 
 SPBC HZ I        16 8 38.65        13.4 0.22            124            158 221 
 ZAR  HZ EP       16 8 16.62                             121    0.35 8  208 294 
 ZAR  HE ES       16 8 42.13                             121    0.44 8  208 294 
 ZAR  HZ I        16 8 46.98        13.0 0.28            115            208 294 
 CHI  HE ES   4   16 8 48.56                             117   -0.37 0  242 196 
 CHI  HZ I        16 8 56.46         2.0 0.30            111            242 196 
 SML  HZ EP   4   16 8 18.94                             116   -1.94 0  251 336 
 SML  HN ES   4   16 8 47.43                             116   -2.46 0  251 336 
 SML  HZ I        16 8 52.91        13.1 0.10            109            251 336 
 HEL  HN ES   4   16 8 58.64                             114    3.89 0  272 257 
 HEL  HZ I        16 9  1.50         9.1 0.42            109            272 257 
 GUY2CHZ EP   1   16 8 26.45                             112   -0.26 5  298 236 
 GUY2CHN ES       16 9  0.18                             112   -0.08 7  298 236 
 GUY2CHZ I        16 9 10.97         4.1 0.60                           298 236 
 TOL  SN ES   1   16 9  9.91                             109    1.59 5  339 226 
 TOL  SZ I        16 9 16.37         8.6 0.38            104            339 226 
 MON  HZ EP   4   16 8 30.17                             107   -3.03 0  360 309 
 MON  HN ES   4   16 9  9.06                             107   -2.76 0  360 309 
 MON  HZ I        16 9 16.36         2.3 0.24            102            360 309 
                                                                                
