 2015 12 5 1450 56.2 L   6.801 -73.176146.8  RSN  8 0.4 2.2LRSN                1
 GAP=133        0.92       3.2     3.9  5.7 -0.1403E+00  0.4592E+01 -0.2253E+01E
 Epicentro: LOS SANTOS - SANTANDER                                             3
 ACTION:UPD 16-02-04 15:02 OP:cam  STATUS:               ID:20151205145056 L   I
 OLDACT:DUP 15-12-05 21:12 OP:drio STATUS:               ID:20151205144749d    3
 2015-12-05-1447-48M.COL___323                                                 6
 STAT SP IPHASW D HRMM SECON CODA AMPLIT PERI AZIMU VELO AIN AR TRES W  DIS CAZ7
 BAR2 EZ EP       1451 16.01                             171    0.0710 23.1 182 
 BAR2 EZ ES       1451 30.82                             171   -0.5210 23.1 182 
 BAR2 EZ I        1451 32.63        37.6 0.32            170           23.1 182 
 BRR  HZ EP       1451 17.74                             154    0.4610 68.2 300 
 BRR  HN ES       1451 34.51                             154    0.7810 68.2 300 
 PAM  EZ IP     D 1451 18.91                             150    0.2710 79.5  41 
 PAM  EN ES       1451 36.05                             150   -0.1010 79.5  41 
 PAM  EZ I        1451 38.00        27.6 0.54            154           79.5  41 
 RUS  HZ EP       1451 20.17                             144    0.1010  101 174 
 RUS  HN ES       1451 38.36                             144   -0.3410  101 174 
 RUS  HZ I        1451 39.53         8.6 0.30            146            101 174 
 PTB  HZ EP       1451 23.10                             133    0.16 9  144 259 
 PTB  HE ES       1451 43.79                             133   -0.02 9  144 259 
 PTB  HZ I        1451 49.32        13.8 0.40            132            144 259 
 SPBC HZ EP       1451 24.65                             130    0.07 9  161 218 
 SPBC HE ES       1451 46.64                             130   -0.08 9  161 218 
 SPBC HZ I        1451 51.40        16.8 0.66            130            161 218 
 ZAR  HZ EP   4   1451 31.14                             123    2.77 0  201 292 
 ZAR  HE ES       1451 53.06                             123   -0.42 9  201 292 
 ZAR  HZ I        1452  0.68        16.0 0.36            123            201 292 
 SML  HZ EP       1451 32.24                             118   -0.47 8  242 336 
 SML  HE ES       1452  0.79                             118   -0.40 8  242 336 
 SML  HZ I        1452  3.10        20.6 0.10            119            242 336 
 SJC  HZ EP   4   1451 50.09                             106   -1.47 0  407 327 
 SJC  HE ES   4   1452 33.77                             106   -0.97 0  407 327 
                                                                                
