 2015  7 5 1432 37.3 L   6.818 -73.118139.4  RSN 12 0.5 2.1LRSN                1
 GAP=139        1.07       3.0     4.9  6.5 -0.2371E+01  0.1650E+02 -0.3558E+00E
 Epicentro: LOS SANTOS - SANTANDER                                             3
 ACTION:UPD 15-09-08 21:47 OP:cam  STATUS:               ID:20150705143237 L   I
 OLDACT:UP  15-07-05 21:57 OP:mh   STATUS:               ID:20150705142750     3
 OLDACT:UP  15-07-05 21:57 OP:mh   STATUS:               ID:20150705142750     3
 OLDACT:UP  15-07-05 21:53 OP:mh   STATUS:               ID:20150705142750     3
 OLDACT:UP  15-07-05 21:53 OP:mh   STATUS:               ID:20150705142750     3
 OLDACT:REG 15-07-05 20:35 OP:mh   STATUS:               ID:20150705142750     3
 2015-07-05-1427-50M.COL___334                                                 6
 STAT SP IPHASW D HRMM SECON CODA AMPLIT PERI AZIMU VELO AIN AR TRES W  DIS CAZ7
 BAR2 EZ IP     C 1432 56.22                             169    0.0410 25.9 196 
 BAR2 EZ ES       1433 10.92                             169   -0.0210 25.9 196 
 BAR2 EZ I        1433 12.51        28.3 0.18            168           25.9 196 
 PAM  EZ EP       1432 59.01                             151    0.4210 73.9  39 
 PAM  EN ES       1433 15.52                             151    0.2910 73.9  39 
 PAM  EZ I        1433 16.26        15.7 0.18            154           73.9  39 
 RUS  HZ EP       1433  0.17                             142   -0.3510  102 178 
 RUS  HN ES       1433 18.31                             142   -0.3610  102 178 
 RUS  HZ I        1433 22.26         6.6 0.48            144            102 178 
 OCA  HZ EP       1433  5.45                             128    0.52 9  159 352 
 OCA  HN ES       1433 26.75                             128    0.23 9  159 352 
 OCA  HZ I        1433 29.96        21.1 0.22            130            159 352 
 ZAR  HZ EP   1   1433  9.00                             121   -0.51 6  206 291 
 ZAR  HN ES       1433 34.26                             121   -0.42 8  206 291 
 ZAR  HZ I        1433 39.41        17.3 0.40            121            206 291 
 NOR  HZ EP       1433 12.50                             117   -0.52 8  238 235 
 NOR  HN ES       1433 40.80                             117   -0.11 8  238 235 
 NOR  HZ I        1433 41.67        14.1 0.22            118            238 235 
 SML  HZ EP       1433 12.84                             116   -0.64 8  243 334 
 SML  HN ES       1433 40.97                             116   -0.77 8  243 334 
 SML  HZ I        1433 46.95        17.7 0.10            118            243 334 
 HEL  HZ EP       1433 17.99                             113    0.45 7  276 256 
 HEL  HN ES       1433 49.90                             113    0.94 7  276 256 
 HEL  HZ I        1433 54.03         6.4 0.44            114            276 256 
 GUY2CHZ EP       1433 21.72                             111    0.73 7  305 235 
 GUY2CHN ES   4   1433 57.84                             111    2.74 0  305 235 
 GUY2CHZ I        1434  2.19         5.3 0.44                           305 235 
 TOL  SZ EP       1433 26.27                             108    0.60 6  347 225 
 TOL  SN ES   4   1434  5.46                             108    2.02 0  347 225 
 TOL  SZ I        1434 10.43         5.4 0.32            109            347 225 
 MON  HZ EP   4   1433 23.44                             107   -2.72 0  355 308 
 MON  HN ES   4   1434  1.56                             107   -2.74 0  355 308 
 MON  HZ I        1434  4.26         1.6 0.20            108            355 308 
 PRA  HZ EP       1433 30.17                             105   -0.77 6  395 210 
 PRA  HN ES       1434 12.81                             105   -0.00 6  395 210 
 PRA  HZ I        1434 18.39         7.3 0.28            107            395 210 
                                                                                
