 2014 12 5 1454 14.3 L   6.778 -73.110140.1  RSN  5 0.3 1.3LRSN                1
 GAP=142        0.64       4.1     4.0  5.7 -0.1179E+01  0.1590E+00  0.9152E+00E
 Epicentro: LOS SANTOS - SANTANDER                                             3
 ACTION:UPD 15-02-10 17:00 OP:nd   STATUS:               ID:20141205145414 L   I
 OLDACT:REG 14-12-05 20:49 OP:spq  STATUS:               ID:20141205144747     3
 2014-12-05-1447-47M.COL___300                                                 6
 STAT SP IPHASW D HRMM SECON CODA AMPLIT PERI AZIMU VELO AIN AR TRES W  DIS CAZ7
 BAR2 SZ EP   1   1454 33.35                             171    0.14 7 22.0 201 
 BAR2 SZ ES   1   1454 48.22                             171    0.25 7 22.0 201 
 BAR2 SZ I        1454 49.32         4.7 0.20            168           22.0 201 
 BRR  HZ EP       1454 35.02                             150   -0.0910 75.9 299 
 BRR  HN ES       1454 51.65                             150    0.3010 75.9 299 
 BRR  HZ I        1454 52.59         8.6 0.48            154           75.9 299 
 PAM  SZ EP       1454 35.93                             150    0.0510 76.9  36 
 PAM  SE ES   1   1454 52.28                             150   -0.43 7 76.9  36 
 PAM  SZ I        1454 55.74         4.0 0.25            154           76.9  36 
 RUS  HZ EP   1   1454 37.72                             143    0.43 7 97.9 178 
 RUS  HN ES   1   1454 54.88                             143   -0.35 7 97.9 178 
 RUS  HZ I        1455  0.58         1.2 0.36            143           97.9 178 
 PTB  HZ EP   1   1454 40.89                             130   -0.23 7  151 260 
 PTB  HN ES   1   1455  1.68                             130   -0.37 7  151 260 
 PTB  HZ I        1455  5.14         2.7 0.42            133            151 260 
                                                                                
