 2017  3 5 1356 59.4 L   6.781 -73.173137.4  RSN  8 0.3 1.4LRSN                1
 GAP=134        0.83       3.3     3.4  5.1  0.1093E+00  0.4039E+01  0.1035E+01E
 Epicentro: LOS SANTOS - SANTANDER                                             3
 ACTION:UPD 17-05-25 18:36 OP:jn   STATUS:               ID:20170305135659 L   I
 OLDACT:DUP 17-03-05 23:04 OP:dani STATUS:               ID:20170305134742d    3
 OLDACT:UP  17-03-05 22:59 OP:dani STATUS:               ID:20170305134741     3
 OLDACT:REG 17-03-05 20:29 OP:dani STATUS:               ID:20170305134741     3
 2017-03-05-1348-00M.COL___390                                                 6
 STAT SP IPHASW D HRMM SECON CODA AMPLIT PERI AZIMU VELO AIN AR TRES W  DIS CAZ7
 BAR2 HZ EP       1357 17.75                             171   -0.1810 20.9 183 
 BAR2 HZ ES       1357 32.18                             171   -0.2310 20.9 183 
 BAR2 HZ I        1357 34.61         7.0 0.30            173           20.9 183 
 BRR  HZ EP       1357 19.88                             151    0.3710 69.7 301 
 BRR  HN ES       1357 34.73                             151   -0.5010 69.7 301 
 BRR  HZ I        1357 40.45         5.3 0.12            150           69.7 301 
 PAM  EZ EP       1357 21.01                             148    0.1010 80.9  40 
 PAM  EN ES       1357 38.07                             148    0.3510 80.9  40 
 PAM  EZ I        1357 40.38         6.3 0.41            150           80.9  40 
 RUS  HZ EP       1357 21.78                             142   -0.3710 98.7 174 
 RUS  HN ES       1357 40.11                             142    0.1810 98.7 174 
 RUS  HZ I        1357 40.95         3.5 0.24            147           98.7 174 
 PTB  HZ EP       1357 24.93                             131   -0.41 9  144 259 
 PTB  HN ES       1357 45.59                             131   -0.02 9  144 259 
 PTB  HZ I        1357 48.39         3.2 0.28            132            144 259 
 SPBC HE ES       1357 48.83                             128    0.48 9  160 219 
 ZAR  HZ EP       1357 30.91                             121   -0.15 9  202 293 
 ZAR  HE ES       1357 56.24                             121    0.44 9  202 293 
 ZAR  HZ I        1358  2.94         3.5 0.15            122            202 293 
 CHI  HZ EP       1357 36.36                             116    0.07 8  246 195 
                                                                                
