 2014  6 5 1033 41.5 L   6.098 -73.714108.5  RSN  7 0.3 1.5LRSN                1
 GAP= 86        0.69       2.3     2.3  5.1 -0.5314E-01  0.3396E+01 -0.1704E+01E
 Epicentro: BOLIVAR - SANTANDER                                                3
 ACTION:UPD 14-07-01 22:51 OP:nd   STATUS:               ID:20140605103341 L   I
 OLDACT:REG 14-06-05 20:40 OP:stll STATUS:               ID:20140605102816     3
 2014-06-05-1028-16M.COL___262                                                 6
 STAT SP IPHASW D HRMM SECON CODA AMPLIT PERI AZIMU VELO AIN AR TRES W  DIS CAZ7
 SPBC HZ EP       1033 58.56                             147    0.1610 63.3 219 
 SPBC HN ES       1034 11.86                             147    0.3210 63.3 219 
 SPBC HZ I        1034 14.74         4.9 0.42            149           63.3 219 
 RUS  HZ EP       1033 59.55                             144   -0.1210 73.5 108 
 RUS  HZ I        1033 59.81         5.9 0.20            148           73.5 108 
 RUS  HN ES       1034 13.61                             144   -0.2010 73.5 108 
 BAR2 SZ EP       1034  0.16                             141    0.3410 80.3  47 
 BAR2 SZ ES       1034 14.16                             141    0.0910 80.3  47 
 BAR2 SZ I        1034 15.47        20.4 0.14            145           80.3  47 
 PTB  HZ EP       1034  0.88                             135    0.1310 95.5 301 
 PTB  HN ES       1034 15.37                             135   -0.3710 95.5 301 
 PTB  HZ I        1034 17.71         4.0 0.50            137           95.5 301 
 NOR  HZ EP       1034  5.42                             123    0.31 9  141 245 
 NOR  HN ES       1034 23.52                             123    0.03 9  141 245 
 NOR  HZ I        1034 26.37         5.1 0.14            126            141 245 
 CHI  HN ES       1034 27.88                             119   -0.44 9  162 181 
 ZAR  HZ EP       1034 11.01                             113   -0.33 9  199 321 
 ZAR  HN ES       1034 34.52                             113   -0.07 9  199 321 
 ZAR  HZ I        1034 37.29         6.0 0.22            116            199 321 
                                                                                
