 2016  4 5 1132 28.0 L   6.720 -73.220141.9  RSN  5 0.3 1.3LRSN                1
 GAP=228        0.87       8.6     6.4  8.2  0.3574E+02  0.9060E+01 -0.7655E+01E
 Epicentro: VILLANUEVA - SANTANDER                                             3
 ACTION:UPD 16-05-05 14:18 OP:rebc STATUS:               ID:20160405113228 L   I
 OLDACT:REG 16-04-05 21:32 OP:drio STATUS:               ID:20160405112743     3
 2016-04-05-1127-43M.COL___300                                                 6
 STAT SP IPHASW D HRMM SECON CODA AMPLIT PERI AZIMU VELO AIN AR TRES W  DIS CAZ7
 BAR2 EZ EP       1132 46.58                             174   -0.4110 14.7 164 
 BAR2 EZ ES       1133  1.76                             174   -0.0610 14.7 164 
 BAR2 EZ I        1133  4.04         4.3 0.30            173           14.7 164 
 RUS  HZ EP       1132 51.10                             145    0.3210 92.7 171 
 RUS  HE ES       1133  8.83                             145    0.2610 92.7 171 
 RUS  HZ I        1133  9.96         3.0 0.22            146           92.7 171 
 PTB  HZ EP       1132 53.52                             133   -0.24 9  138 262 
 PTB  HE ES       1133 13.52                             133   -0.35 9  138 262 
 PTB  HZ I        1133 17.03         3.5 0.16            134            138 262 
 ZAR  HN ES       1133 25.12                             122    0.57 9  200 295 
 GUY2CHZ EP   4   1133 12.75                             112    2.68 0  289 235 
 GUY2CHN ES   4   1133 47.03                             112    4.12 0  289 235 
 GUY2CHZ I        1133 52.77         1.4 0.48                           289 235 
                                                                                
