 2017  9 5 1021 14.7 L   6.897 -73.017170.1  RSN  5 0.2 1.1LRSN                1
 GAP=148        0.50       3.0     3.1  4.2  0.1794E+01  0.4073E+00  0.7630E+00E
 Epicentro: PIEDECUESTA - SANTANDER                                            3
 ACTION:UPD 17-10-05 19:09 OP:rebc STATUS:               ID:20170905102114 L   I
 OLDACT:REG 17-09-05 20:04 OP:lv   STATUS:               ID:20170905101025     3
 2017-09-05-1018-00M.COL___423                                                 6
 STAT SP IPHASW D HRMM SECON CODA AMPLIT PERI AZIMU VELO AIN AR TRES W  DIS CAZ7
 BAR2 EZ EP       1021 37.59                             167   -0.0510 38.4 208 
 BAR2 EZ ES       1021 55.86                             167    0.3610 38.4 208 
 BAR2 EZ I        1021 56.92         3.7 0.23            169           38.4 208 
 PAM  EZ EP       1021 38.92                             160    0.1510 60.2  36 
 PAM  EN ES       1021 57.37                             160   -0.1610 60.2  36 
 PAM  EZ I        1022  2.91         2.5 0.48            159           60.2  36 
 BRR  HZ EP   4   1021 41.85                             154    2.82 0 80.2 287 
 BRR  HE ES       1021 57.85                             154   -0.1310 80.2 287 
 RUS  HZ EP       1021 41.64                             145   -0.0210  111 184 
 RUS  HN ES       1022  2.50                             145   -0.1710  111 184 
 RUS  HZ I        1022  6.20         0.6 0.18            148            111 184 
 ZAR  HE ES       1022 17.21                             126    0.02 8  214 288 
                                                                                
