 2010  4 5 1649 21.1 L   6.805 -73.063139.5  RSN  7 0.4 1.9LRSN                1
 GAP=148        0.52       5.2     7.2  6.7 -0.1810E+02 -0.6468E-01  0.1244E-01E
 Epicentro: LOS SANTOS - SANTANDER                                             3
 ACTION:UPD 10-08-24 09:57 OP:vdl  STATUS:               ID:20100405164921 L   I
 2010-04-05-1646-42S.COL___098                                                 6
 STAT SP IPHASW D HRMM SECON CODA AMPLIT PERI AZIMU VELO AIN AR TRES W  DIS CAZ7
 BAR2 SZ EP       1649 40.27                             169     0.210   27 210 
 BAR2 SZ ES   2   1649 54.31                             169    -0.5 5   27 210 
 BRR  HZ EP       1649 42.21                             149     0.110   79 295 
 BRR  HZ I        1650  3.34        23.1 0.19                            79 295 
 OCA  SZ EP   2   1649 48.90                             128    -0.1 5  161 350 
 OCA  SZ ES   3   1650 10.65                             128    -0.1 2  161 350 
 CHI  HZ EP   3   1649 58.74                             115    -0.1 2  252 197 
 CHI  HE ES   3   1650 29.60                             115     1.4 2  252 197 
 CHI  HZ I        1650 32.22         2.9 0.48                           252 197 
 RREF BZ EP   2   1650  7.34                             109    -0.5 3  329 230 
 RREF BN ES   2   1650 43.84                             109    -0.4 3  329 230 
 RREF BZ I        1650 54.00         3.1 0.41                           329 230 
 SDV  BZ EP   1   1650  9.79                             108    -0.3 5  353  49 
 PRA  HZ EP   1   1650 14.81                             105    -0.2 4  397 211 
 PRA  HE ES   3   1650 56.59                             105    -0.5 1  397 211 
 PRA  HZ I        1651  1.32         3.9 0.29                           397 211 
                                                                                
