 2010  5 5 1417 13.4 L   6.692 -72.906141.5  RSN  5 0.6 2.2LRSN                1
 GAP=209        1.01      10.5    18.7 13.7 -0.1205E+03 -0.9461E+02  0.6492E+02E
 Epicentro: CEPITA - SANTANDER                                                 3
 ACTION:UP  10-08-24 10:03 OP:vdl  STATUS:               ID:20100505141713 L   I
 2010-05-05-1414-49S.COL___105                                                 6
 STAT SP IPHASW D HRMM SECON CODA AMPLIT PERI AZIMU VELO SNR AR TRES W  DIS CAZ7
 BAR2 SZ EP   1   1417 31.72                             166    -1.013   33 250 
 BAR2 SZ ES   2   1417 48.64                             166     0.8 9   33 250 
 BRR  HZ EP   1   1417 36.03                             142     0.013  100 297 
 BRR  HZ I        1417 36.32        28.1 0.19                           100 297 
 BRR  HN ES   2   1417 53.63                             142     0.0 9  100 297 
 GUE  SZ EP   1   1417 38.41                             136    -0.112  126 359 
 GUE  SZ ES   2   1417 57.37                             136    -0.7 8  126 359 
 GRA  SZ EP   1   1417 39.37                             134     0.512  132   5 
 GRA  SZ ES   2   1417 59.20                             134     0.5 8  132   5 
 PRA  HZ EP       1418  7.70                             105     0.510  396 214 
                                                                                
