 2010 10 5 1845  8.3 L   6.790 -73.089138.7  RSN 11 0.5 2.9LRSN                1
 GAP=140        1.13       4.1     6.8  7.2 -0.6474E+01 -0.2543E+01  0.4860E+01E
 Epicentro: LOS SANTOS - SANTANDER                                             3
 ACTION:UP  11-02-18 11:07 OP:tino STATUS:               ID:20101005184508 L   I
 2010-10-05-1843-12S.COL___122                                                 6
 STAT SP IPHASW D HRMM SECON CODA AMPLIT PERI AZIMU VELO SNR AR TRES W  DIS CAZ7
 BAR2 SZ EP       1845 27.11                             170     0.010   24 206 
 BAR2 SZ ES   1   1845 41.64                             170    -0.2 7   24 206 
 BAR2 SZ I        1845 42.82       337.2 0.09                            24 206 
 BRR  HZ IP     C 1845 29.03                             149    -0.110   77 297 
 BRR  HZ I        1845 29.43       303.2 0.07                            77 297 
 BRR  HN ES       1845 45.71                             149     0.410   77 297 
 RUS  HZ EP       1845 31.15                             143    -0.110   99 180 
 RUS  HN ES   1   1845 49.25                             143     0.0 7   99 180 
 RUS  HZ I        1845 50.55        73.7 0.20                            99 180 
 GUE  SZ EP       1845 32.21                             138    -0.210  116   9 
 GUE  SZ I        1845 33.17        56.3 0.15                           116   9 
 GRA  SZ IP       1845 33.14                             136     0.210  125  15 
 GRA  SZ ES   1   1845 52.42                             136     0.4 7  125  15 
 GRA  SZ I        1845 53.75       162.6 0.77                           125  15 
 OCA  SZ EP       1845 35.69                             128    -0.6 9  162 351 
 OCA  SZ ES   2   1845 57.33                             128    -0.8 5  162 351 
 OCA  SZ I        1846  2.57       142.3 0.30                           162 351 
 YOP  SZ EP       1845 37.84                             125     0.3 9  175 155 
 NOR  SZ EP   1   1845 43.71                             117    -0.5 6  239 236 
 NOR  SN ES   1   1846 11.55                             117    -0.6 6  239 236 
 HEL  HZ EP   1   1845 49.56                             113     0.7 6  278 256 
 RREF HZ EP   1   1845 56.41                             109     1.8 5  326 230 
 PRA  HZ EP       1846  1.86                             105     0.0 6  394 210 
 PRA  HN ES   1   1846 42.45                             105    -1.2 4  394 210 
                                                                                
