 2013  9 5 1355  7.4 L   6.773 -73.173144.1  RSN  5 0.4 1.5LRSN                1
 GAP=232        0.92       8.3     7.9  8.3  0.4058E+02  0.1438E+02 -0.1217E+01E
 Epicentro: LOS SANTOS - SANTANDER                                             3
 ACTION:UPD 13-10-22 09:20 OP:ep   STATUS:               ID:20130905135507 L   I
 OLDACT:REG 13-09-05 14:52 OP:jn   STATUS:               ID:20130905134959     3
 2013-09-05-1349-59M.COL___269                                                 6
 STAT SP IPHASW D HRMM SECON CODA AMPLIT PERI AZIMU VELO AIN AR TRES W  DIS CAZ7
 BAR2 SZ EP       1355 26.72                             172   -0.0610 20.0 183 
 BAR2 SZ ES       1355 41.32                             172   -0.5710 20.0 183 
 BAR2 SZ I        1355 43.49         6.2 0.34            171           20.0 183 
 BRR  HZ EP   1   1355 28.73                             153    0.41 7 70.0 302 
 BRR  HN ES   1   1355 45.26                             153    0.63 7 70.0 302 
 RUS  HZ EP   1   1355 31.18                             144    0.37 7 97.9 174 
 RUS  HN ES       1355 49.31                             144    0.2510 97.9 174 
 RUS  HZ I        1355 50.29         2.9 0.32            146           97.9 174 
 PTB  HZ EP       1355 33.41                             132   -0.52 9  144 260 
 PTB  HN ES   1   1355 54.79                             132    0.18 7  144 260 
 PTB  HZ I        1355 56.76         5.8 0.14            131            144 260 
 ZAR  HN ES   1   1356  4.56                             122   -0.11 6  202 293 
 ZAR  HZ I        1356 10.35         5.7 0.32            122            202 293 
                                                                                
