 2010  5 5 1424 43.7 L   6.550 -73.480119.3  RSN 10 0.4 2.2LRSN                1
 GAP=105        0.75       3.8     5.7  6.8 -0.1208E+02  0.9250E+01  0.3049E+01E
 Epicentro: EL CARMEN DE CHUCURI - SANTANDER                                   3
 ACTION:UP  10-08-24 10:03 OP:vdl  STATUS:               ID:20100505142443 L   I
 2010-05-05-1421-39S.COL___105                                                 6
 STAT SP IPHASW D HRMM SECON CODA AMPLIT PERI AZIMU VELO SNR AR TRES W  DIS CAZ7
 BAR2 SZ IP     C 1425  0.26                             164    -0.210   33  82 
 BAR2 SZ ES   2   1425 13.05                             164    -0.4 5   33  82 
 GIR2 SZ IP     C 1425  1.88                             149    -0.110   66  28 
 GIR2 SZ ES   2   1425 16.21                             149     0.0 5   66  28 
 BRR  HZ EP   1   1425  1.76                             149     0.0 7   67 337 
 BRR  HZ I        1425  2.04        46.9 0.10                            67 337 
 BRR  HN ES   2   1425 16.11                             149     0.3 5   67 337 
 GUE  SZ IP     D 1425  9.39                             124    -0.3 9  154  23 
 GUE  SZ ES   2   1425 29.38                             124    -0.6 5  154  23 
 GRA  SZ IP     D 1425 10.86                             122     0.3 9  165  27 
 GRA  SZ ES   2   1425 33.07                             122     1.5 5  165  27 
 OCA  SZ EP   1   1425 12.97                             118     0.0 7  188   5 
 OCA  SZ ES   2   1425 35.83                             118     0.1 4  188   5 
 CHI  HZ EP   1   1425 16.30                             115     0.1 6  214 188 
 CHI  HE ES   2   1425 42.35                             115     0.8 4  214 188 
 CHI  HZ I        1425 46.24         8.2 0.38                           214 188 
 HEL  HZ EP   1   1425 18.21                             113     0.3 6  230 260 
 HEL  HE ES   2   1425 43.99                             113    -0.6 4  230 260 
 HEL  HZ I        1425 46.84        12.3 0.18                           230 260 
 RREF BZ EP   1   1425 23.08                             109    -0.4 6  276 229 
 RREF BN ES   2   1425 55.43                             109     1.0 4  276 229 
 RREF BZ I        1425 59.14        15.1 0.20                           276 229 
 PRA  HZ EP   1   1425 31.06                             104    -0.4 5  350 207 
 PRA  HE ES   2   1426  8.59                             104    -0.1 3  350 207 
 PRA  HZ I        1426 10.79         8.0 0.17                           350 207 
                                                                                
