 2012  3 5 1017 15.7 L   6.721 -73.184144.5  RSN  4 0.1 1.6LRSN                1
 GAP=233        0.40       6.1     3.8  4.6  0.4972E+01  0.3273E+01  0.4009E-01E
 ACTION:UP  12-03-31 23:17 OP:EP   STATUS:               ID:20120305101715 L   I
 2012-03-05-1010-00M.COL___191                                                 6
 STAT SP IPHASW D HRMM SECON CODA AMPLIT PERI AZIMU VELO SNR AR TRES W  DIS CAZ7
 BAR2 SZ EP   1   1017 35.00                             174    -0.1 7   14 179 
 BAR2 SZ ES   1   1017 49.98                             174    -0.2 7   14 179 
 BAR2 SZ I        1017 51.44         8.3 0.34                            14 179 
 BRR  HZ EP       1017 36.95                             152     0.110   72 306 
 BRR  HZ I        1017 37.54         9.2 0.09                            72 306 
 BRR  HE ES   1   1017 53.26                             152     0.0 7   72 306 
 PTB  HZ EP   1   1017 42.01                             133    -0.1 7  142 262 
 PTB  HN ES   1   1018  2.74                             133     0.1 7  142 262 
 ZAR  HN ES   2   1018 12.93                             122    -0.3 4  204 295 
 ZAR  HZ I        1018 19.22         2.9 0.17                           204 295 
                                                                                
