 2012  9 5 1722 41.8 L   6.765 -73.116142.0  RSN  6 0.3 2.2LRSN                1
 GAP=142        0.43       2.9     4.3  5.2  0.1352E+01 -0.5212E+01 -0.4908E+00E
 Epicentro: LOS SANTOS - SANTANDER                                             3
 ACTION:UPD 12-10-22 14:17 OP:ep   STATUS:               ID:20120905172241 L   I
 2012-09-05-1720-00M.COL___218                                                 6
 STAT SP IPHASW D HRMM SECON CODA AMPLIT PERI AZIMU VELO AIN AR TRES W  DIS CAZ7
 BAR2 SZ EP       1723  0.93                             171    0.0110 20.4 201 
 BAR2 SZ I        1723  1.25        77.5 0.34                          20.4 201 
 BAR2 SZ ES   3   1723 15.61                             171   -0.23 2 20.4 201 
 GIR2 SZ EP       1723  1.01                             165   -0.1510 35.8 346 
 GIR2 SZ ES   3   1723 15.44                             165   -0.82 2 35.8 346 
 BRR  HZ EP       1723  2.84                             150    0.0110 76.0 300 
 BRR  HZ I        1723  3.94        36.1 0.12                          76.0 300 
 BRR  HN ES   1   1723 19.51                             150    0.28 7 76.0 300 
 PAM  SZ EP       1723  3.76                             150    0.0810 78.5  36 
 PAM  SN ES   2   1723 20.71                             150   -0.04 5 78.5  36 
 PAM  SZ I        1723 21.31        26.7 0.34                          78.5  36 
 RUS  HZ EP       1723  4.87                             144   -0.0210 96.5 178 
 RUS  HN ES   1   1723 23.01                             144    0.11 7 96.5 178 
 RUS  HZ I        1723 24.80        12.1 0.40                          96.5 178 
 PTB  HN ES   3   1723 28.40                             131   -1.28 2  150 261 
                                                                                
