 2013 12 5 1731 15.0 L   6.802 -73.144147.5  RSN  8 0.4 1.9LRSN                1
 GAP=137        1.07       4.2     4.4  6.7 -0.1865E+00  0.6965E+01  0.7765E+01E
 Epicentro: LOS SANTOS - SANTANDER                                             3
 ACTION:UPD 14-01-13 10:16 OP:ep   STATUS:               ID:20131205173115 L   I
 OLDACT:UP  13-12-05 17:01 OP:cam  STATUS:               ID:20131205173000     3
 OLDACT:REG 13-12-05 15:09 OP:cam  STATUS:               ID:20131205173000     3
 2013-12-05-1730-00M.COL___285                                                 6
 STAT SP IPHASW D HRMM SECON CODA AMPLIT PERI AZIMU VELO AIN AR TRES W  DIS CAZ7
 BAR2 SZ EP       1731 34.79                             170   -0.0910 23.6 190 
 BAR2 SZ ES       1731 50.07                             170   -0.2810 23.6 190 
 BAR2 SZ I        1731 50.99        31.5 0.24            169           23.6 190 
 BRR  HZ EP       1731 36.67                             153    0.3010 71.2 298 
 BRR  HE ES       1731 53.78                             153    0.7710 71.2 298 
 BRR  HZ I        1731 54.80        15.9 0.38            152           71.2 298 
 PAM  SZ EP       1731 37.82                             151    0.4010 77.1  40 
 PAM  SN ES       1731 54.61                             151   -0.2710 77.1  40 
 PAM  SZ I        1731 56.91        13.1 0.48            153           77.1  40 
 RUS  HZ EP       1731 38.44                             144   -0.5310  101 176 
 RUS  HE ES       1731 57.77                             144    0.1310  101 176 
 RUS  HZ I        1731 58.53        10.1 0.24            144            101 176 
 PTB  HZ EP       1731 41.53                             132   -0.63 9  148 259 
 PTB  HN ES       1732  2.70                             132   -0.61 9  148 259 
 PTB  HZ I        1732  4.43        12.3 0.16            131            148 259 
 ZAR  HN ES       1732 12.81                             123   -0.18 9  204 292 
 ZAR  HZ I        1732 18.03         9.6 0.56            122            204 292 
 NOR  HZ EP       1731 50.98                             119    0.09 8  235 234 
 NOR  HN ES       1732 19.37                             119    0.52 8  235 234 
 NOR  HZ I        1732 24.72         5.8 0.22            119            235 234 
 CHI  HZ EP       1731 53.28                             117    0.43 8  249 195 
 CHI  HN ES       1732 22.53                             117    0.18 8  249 195 
 CHI  HZ I        1732 27.64         5.3 0.32            118            249 195 
                                                                                
