 2017  1 5 1112 29.8 L   6.762 -73.153145.7  RSN  8 0.3 1.6LRSN                1
 GAP=137        0.69       3.3     3.0  4.6  0.4504E+00  0.3663E+01  0.4883E+00E
 Epicentro: LOS SANTOS - SANTANDER                                             3
 ACTION:UPD 17-05-22 15:55 OP:jn   STATUS:               ID:20170105111229 L   I
 OLDACT:UP  17-03-24 22:19 OP:nlst STATUS:               ID:20170105111229 L   3
 OLDACT:UP  17-01-05 21:16 OP:dnl  STATUS:               ID:20170105110744     3
 OLDACT:REG 17-01-05 20:22 OP:dnl  STATUS:               ID:20170105110744     3
 2017-01-05-1108-00M.COL___374                                                 6
 STAT SP IPHASW D HRMM SECON CODA AMPLIT PERI AZIMU VELO AIN AR TRES W  DIS CAZ7
 BAR2 EZ EP       1112 49.34                             172   -0.0210 19.1 190 
 BAR2 EZ ES       1113  4.60                             172   -0.0110 19.1 190 
 BAR2 EZ I        1113  7.15        10.9 0.28            168           19.1 190 
 BRR  HZ EP       1112 51.14                             152    0.1110 72.5 302 
 BRR  HE ES       1113  8.21                             152    0.6210 72.5 302 
 BRR  HZ I        1113 13.97        13.2 0.28            150           72.5 302 
 PAM  EZ IP     D 1112 52.40                             150    0.1510 81.2  38 
 PAM  EN ES       1113  9.32                             150   -0.4410 81.2  38 
 PAM  EZ I        1113 10.14         6.4 0.22            157           81.2  38 
 RUS  HZ EP       1112 53.35                             145    0.0810 96.5 175 
 RUS  HN ES       1113 11.59                             145    0.0210 96.5 175 
 RUS  HZ I        1113 13.43         2.9 0.32            146           96.5 175 
 PTB  HZ EP       1112 56.35                             132   -0.28 9  146 260 
 PTB  HE ES       1113 17.39                             132   -0.16 9  146 260 
 PTB  HZ I        1113 23.50         5.1 0.44            131            146 260 
 ZAR  HZ EP   1   1113  2.53                             122    0.19 6  205 293 
 ZAR  HE ES       1113 27.44                             122   -0.27 9  205 293 
 ZAR  HZ I        1113 32.48         6.1 0.38            123            205 293 
 NOR  HZ EP   2   1113  4.94                             119   -0.27 4  232 235 
 NOR  HE ES   2   1113 32.43                             119   -0.39 4  232 235 
 NOR  HZ I        1113 42.87         3.1 0.38            120            232 235 
 GUY2CHZ EP   2   1113 13.91                             113    0.84 4  298 235 
 GUY2CHN ES   4   1113 49.77                             113    2.96 0  298 235 
 GUY2CHZ  IAML    1113 55.71         2.6 0.60                           298 235 
                                                                                
