 2010  9 5 1758 28.0 L   6.762 -73.156144.0  RSN  4 0.4 1.6LRSN                1
 GAP=182        0.70       7.8    16.3 10.5  0.7810E+02 -0.4344E+02 -0.1742E+02E
 Epicentro: LOS SANTOS - SANTANDER                                             3
 ACTION:UP  11-02-18 11:00 OP:tino STATUS:               ID:20100905175828 L   I
 2010-09-05-1753-48S.COL___120                                                 6
 STAT SP IPHASW D HRMM SECON CODA AMPLIT PERI AZIMU VELO SNR AR TRES W  DIS CAZ7
 BAR2 SZ EP   2   1758 47.59                             172     0.3 5   19 189 
 BAR2 SZ ES   2   1759  1.79                             172    -0.6 5   19 189 
 BAR2 SZ I        1759  2.81        11.7 0.44                            19 189 
 BRR  HZ IP     C 1758 48.74                             152    -0.310   72 302 
 BRR  HZ I        1758 49.08        11.1 0.10                            72 302 
 BRR  HE ES   1   1759  5.68                             152     0.3 7   72 302 
 RUS  HZ EP   2   1758 51.22                             145     0.0 5   96 175 
 RUS  HN ES   2   1759  9.94                             145     0.5 5   96 175 
 RUS  HZ I        1759 10.69         2.6 0.28                            96 175 
 OCA  SZ ES   2   1759 19.16                             129     0.3 5  164 354 
                                                                                
