 2016  3 5 1744 45.3 L   6.783 -73.142143.3  RSN  6 0.4 1.9LRSN                1
 GAP=138        1.01       4.2     6.2  7.7 -0.1124E+02  0.2112E+02 -0.7325E+01E
 Epicentro: LOS SANTOS - SANTANDER                                             3
 ACTION:UPD 16-05-13 21:21 OP:cam  STATUS:               ID:20160305174445 L   I
 OLDACT:UP  16-03-06 00:38 OP:mh   STATUS:               ID:20160305173749     3
 OLDACT:REG 16-03-05 21:26 OP:mh   STATUS:               ID:20160305173749     3
 2016-03-05-1737-49M.COL___328                                                 6
 STAT SP IPHASW D HRMM SECON CODA AMPLIT PERI AZIMU VELO AIN AR TRES W  DIS CAZ7
 BAR2 EZ EP       1745  4.82                             171    0.2410 21.6 192 
 BAR2 EZ ES       1745 19.59                             171   -0.0410 21.6 192 
 BAR2 EZ I        1745 21.31        13.1 0.20            171           21.6 192 
 PAM  EZ EP       1745  7.60                             150    0.3010 78.5  38 
 PAM  EN ES       1745 24.58                             150    0.1010 78.5  38 
 PAM  EZ I        1745 26.21         8.1 0.16            153           78.5  38 
 RUS  HZ EP   1   1745  8.93                             144    0.28 7 98.7 176 
 RUS  HN ES       1745 26.43                             144   -0.4510 98.7 176 
 RUS  HZ I        1745 28.01         5.2 0.28            148           98.7 176 
 PTB  HZ EP   1   1745 11.64                             131   -0.41 7  148 260 
 PTB  HN ES   1   1745 32.42                             131   -0.52 7  148 260 
 PTB  HZ I        1745 37.64         8.7 0.48            132            148 260 
 OCA  HZ EP       1745 12.82                             129   -0.75 9  162 353 
 OCA  HN ES       1745 35.96                             129    0.31 9  162 353 
 OCA  HZ I        1745 39.49        18.8 0.18            130            162 353 
 NOR  HZ EP       1745 20.71                             118   -0.08 8  234 235 
 NOR  HN ES       1745 49.34                             118    0.85 8  234 235 
 NOR  HZ I        1745 50.93        20.3 0.95            120            234 235 
                                                                                
