 2013  3 5 1212 24.7 L   6.772 -73.174145.8  RSN  5 0.3 1.7LRSN                1
 GAP=134        0.51       6.8     5.3  7.7 -0.3432E+01  0.1787E+01 -0.1487E+02E
 Epicentro: LOS SANTOS - SANTANDER                                             3
 ACTION:UPD 13-04-09 14:00 OP:ep   STATUS:               ID:20130305121224 L   I
 2013-03-05-1208-49M.COL___202                                                 6
 STAT SP IPHASW D HRMM SECON CODA AMPLIT PERI AZIMU VELO AIN AR TRES W  DIS CAZ7
 BAR2 SZ EP   2   1212 44.28                             172   -0.02 5 19.8 183 
 BAR2 SZ ES   2   1212 59.03                             172   -0.54 5 19.8 183 
 BRR  HN ES   2   1213  2.79                             153    0.52 5 70.0 302 
 PAM  SZ EP   1   1212 47.17                             149   -0.05 7 81.8  40 
 RUS  HN ES   2   1213  7.03                             145    0.38 5 97.7 174 
 RUS  HN I        1213  8.58         7.1 0.28            142           97.7 174 
 PTB  HZ EP   1   1212 51.41                             133    0.04 7  144 260 
 PTB  HN ES   2   1213 11.78                             133   -0.36 5  144 260 
 PTB  HN I        1213 13.52         7.1 0.26            132            144 260 
                                                                                
