 2013  3 5 1747 15.7 L   6.533 -73.554110.5  RSN  4 0.2 2.0LRSN                1
 GAP=153        0.58       4.4     3.8  5.1 -0.1163E+02  0.4676E+01  0.1295E+01E
 Epicentro: EL CARMEN DE CHUCURI - SANTANDER                                   3
 ACTION:UPD 13-04-09 14:00 OP:ep   STATUS:               ID:20130305174715 L   I
 2013-03-05-1738-49M.COL___199                                                 6
 STAT SP IPHASW D HRMM SECON CODA AMPLIT PERI AZIMU VELO AIN AR TRES W  DIS CAZ7
 BAR2 SZ IP       1747 32.15                             158    0.3310 41.7  81 
 BAR2 SZ ES       1747 44.34                             158   -0.0210 41.7  81 
 BAR2 SZ I        1747 46.08        63.2 0.50            160           41.7  81 
 BRR  HZ IP     C 1747 33.11                             147    0.2610 65.8 345 
 BRR  HE ES   1   1747 46.12                             147   -0.06 7 65.8 345 
 PAM  SZ EP       1747 38.67                             127   -0.2610  130  47 
 PAM  SE ES       1747 56.85                             127   -0.1710  130  47 
 PAM  SN I        1747 57.44        11.7 0.24            130            130  47 
 NOR  HZ EP       1747 43.72                             117    0.07 9  181 234 
 NOR  HN ES       1748  5.17                             117   -0.25 9  181 234 
 NOR  HE I        1748  9.56        10.4 0.20            118            181 234 
                                                                                
