 2015 12 5 1532 27.0 L   6.807 -73.127149.2  RSN 15 0.4 2.7LRSN                1
 GAP=139        0.98       3.0     3.6  5.0 -0.2075E+01  0.6424E+01  0.4967E+00E
 Epicentro: LOS SANTOS - SANTANDER                                             3
 ACTION:UPD 16-02-04 15:02 OP:cam  STATUS:               ID:20151205153227 L   I
 OLDACT:REG 15-12-05 19:49 OP:drio STATUS:               ID:20151205152748     3
 2015-12-05-1527-48M.COL___320                                                 6
 STAT SP IPHASW D HRMM SECON CODA AMPLIT PERI AZIMU VELO AIN AR TRES W  DIS CAZ7
 BAR2 EZ EP     C 1532 46.99                             170   -0.0610 24.5 194 
 BAR2 EZ ES       1533  2.33                             170   -0.3810 24.5 194 
 BAR2 EZ I        1533  4.60        70.0 0.20            165           24.5 194 
 BRR  HZ EP       1532 48.97                             153    0.3910 72.6 297 
 BRR  HN ES       1533  6.18                             153    0.7410 72.6 297 
 BRR  HZ I        1533  9.85        55.8 0.38            149           72.6 297 
 PAM  EZ EP       1532 49.88                             152    0.4310 75.5  39 
 PAM  EN ES       1533  7.12                             152    0.1410 75.5  39 
 PAM  EZ I        1533  9.91        25.8 0.50            153           75.5  39 
 RUS  HZ EP       1532 50.85                             144   -0.2710  101 177 
 RUS  HN ES       1533  9.98                             144    0.0310  101 177 
 RUS  HZ I        1533 11.52        26.0 0.28            139            101 177 
 PTB  HZ EP       1532 53.88                             132   -0.55 9  150 259 
 PTB  HN ES       1533 14.87                             132   -0.96 9  150 259 
 PTB  HZ I        1533 19.49        50.8 0.12            127            150 259 
 SPBC HZ EP       1532 55.92                             129   -0.01 9  165 219 
 SPBC HE ES       1533 18.41                             129   -0.10 9  165 219 
 SPBC HZ I        1533 23.58        74.6 0.40            124            165 219 
 ZAR  HZ EP       1532 59.73                             123   -0.09 8  206 292 
 ZAR  HE ES       1533 25.58                             123    0.15 8  206 292 
 ZAR  HZ I        1533 30.92        39.6 0.28            119            206 292 
 NOR  HZ EP       1533  3.07                             119   -0.07 8  237 235 
 NOR  HN ES       1533 31.41                             119    0.07 8  237 235 
 NOR  HZ I        1533 36.37        37.4 0.38            115            237 235 
 SML  HZ EP       1533  3.72                             118   -0.10 8  244 335 
 SML  HE ES       1533 31.94                             118   -0.61 8  244 335 
 SML  HZ I        1533 36.33        57.8 0.10            115            244 335 
 HEL  HZ EP   4   1533  8.78                             115    1.17 0  274 256 
 HEL  HN ES       1533 39.37                             115    0.07 8  274 256 
 HEL  HZ I        1533 45.85        26.2 0.26            111            274 256 
 SOCV BZ EP   4   1533  8.67                             113   -1.27 0  299  57 
 SOCV BN ES   4   1533 40.54                             113   -2.92 0  299  57 
 GUY2CHZ EP   4   1533 12.13                             113    1.14 0  303 235 
 GUY2CHE ES       1533 46.08                             113    0.76 7  303 235 
 GUY2CHZ  AMP     1533 53.04       508.5 0.42                           303 235 
 ELA  HZ EP   4   1533 15.89                             111    1.67 0  331 230 
 ELA  HN ES   4   1533 50.09                             111   -0.97 0  331 230 
 ELA  HZ I        1534  6.66        18.1 0.48            107            331 230 
 CBOC HZ EP       1533 14.96                             110    0.67 7  336 252 
 CBOC HN ES       1533 51.19                             110   -0.00 7  336 252 
 CBOC HZ I        1534  4.77         7.4 0.42            107            336 252 
 ANIL HZ EP       1533 17.33                             109    0.18 6  359 225 
 ANIL HN ES       1533 56.76                             109    0.48 6  359 225 
 ANIL HZ I        1534  4.85        43.1 0.38            106            359 225 
 PRA  HZ EP       1533 20.25                             107   -0.57 6  394 210 
 PRA  HZ I        1534  9.38        14.4 0.24            104            394 210 
 SJC  HZ EP   4   1533 21.05                             106   -1.66 0  410 327 
 SJC  HN ES   4   1534  2.37                             106   -3.81 0  410 327 
                                                                                
