 2010  7 5 1613 12.2 L   6.777 -73.167154.0  RSN  4 0.2 1.3LRSN                1
 GAP=156        0.43       4.4     8.7  7.7  0.1529E+02 -0.3802E+02 -0.8326E+01E
 Epicentro: LOS SANTOS - SANTANDER                                             3
 ACTION:UPD 10-12-01 15:15 OP:pat  STATUS:               ID:20100705161312 L   I
 2010-07-05-1611-36S.COL___118                                                 6
 STAT SP IPHASW D HRMM SECON CODA AMPLIT PERI AZIMU VELO AIN AR TRES W  DIS CAZ7
 BRR  HZ EP       1613 34.16                             155    -0.110   71 301 
 BRR  HZ I        1613 35.73         6.2 0.11                            71 301 
 BRR  HE ES   1   1613 51.51                             155     0.1 7   71 301 
 RUS  HZ EP   1   1613 36.51                             146    -0.1 7   98 175 
 RUS  HN ES   2   1613 55.91                             146     0.2 5   98 175 
 RUS  HZ I        1613 55.94         1.9 0.23                            98 175 
 GUE  SZ EP   2   1613 38.33                             141     0.4 5  120  13 
 GUE  SZ ES   3   1613 57.36                             141    -0.7 2  120  13 
 GRA  SZ EP   2   1613 38.49                             138     0.0 5  129  18 
                                                                                
