 2013 10 5 1941 37.2 L   6.790 -73.100144.8  RSN  4 0.2 1.7LRSN                1
 GAP=143        0.54       2.9     4.2  5.3 -0.2918E+00 -0.1198E+01  0.2464E+01E
 Epicentro: LOS SANTOS - SANTANDER                                             3
 ACTION:UPD 13-11-25 09:19 OP:ep   STATUS:               ID:20131005194137 L   I
 OLDACT:UP  13-10-05 21:26 OP:stll STATUS:               ID:20131005193839     3
 OLDACT:REG 13-10-05 16:20 OP:stll STATUS:               ID:20131005193839     3
 2013-10-05-1938-39M.COL___231                                                 6
 STAT SP IPHASW D HRMM SECON CODA AMPLIT PERI AZIMU VELO AIN AR TRES W  DIS CAZ7
 BAR2 SZ EP       1941 56.47                             170   -0.2810 23.7 202 
 BAR2 SZ I        1942 12.88        16.9 0.20            167           23.7 202 
 PAM  SZ EP       1941 59.33                             151    0.1210 75.2  36 
 PAM  SZ I        1941 59.64         9.0 0.22            150           75.2  36 
 PAM  SN ES       1942 16.33                             151   -0.0310 75.2  36 
 BRR  HZ EP       1941 58.38                             151   -0.1810 76.1 297 
 BRR  HZ I        1941 58.57        13.7 0.28            149           76.1 297 
 BRR  HN ES       1942 15.35                             151    0.1510 76.1 297 
 RUS  HZ EP       1942  1.07                             144    0.2810 99.3 179 
 RUS  HN ES       1942 19.10                             144   -0.0710 99.3 179 
 RUS  HZ I        1942 20.03         3.0 0.24            139           99.3 179 
                                                                                
