 2012  4 5 1038 38.1 L   6.677 -73.190143.3  RSN  4 0.4 1.3LRSN                1
 GAP=223        1.14      10.6    10.2 10.8  0.5248E+02  0.1374E+02  0.4119E+01E
 Epicentro: VILLANUEVA - SANTANDER                                             3
 ACTION:UPD 12-07-05 11:50 OP:tino STATUS:               ID:20120405103838 L   I
 2012-04-05-1030-00M.COL___196                                                 6
 STAT SP IPHASW D HRMM SECON CODA AMPLIT PERI AZIMU VELO AIN AR TRES W  DIS CAZ7
 BAR2 SZ EP       1038 57.02                             176    -0.210    9 175 
 BAR2 SZ ES   1   1039 11.41                             176    -0.8 7    9 175 
 BAR2 SZ I        1039 14.27         5.1 0.26                             9 175 
 BRR  HZ EP       1038 59.64                             151     0.410   75 310 
 BRR  HZ I        1039  9.24         6.1 0.50                            75 310 
 BRR  HN ES   1   1039 16.04                             151     0.4 7   75 310 
 RUS  HZ EP       1039  0.65                             147    -0.110   88 172 
 RUS  HN ES   1   1039 19.04                             147     0.7 7   88 172 
 RUS  HZ I        1039 20.54         3.0 0.58                            88 172 
 PTB  HZ EP       1039  4.02                             133    -0.2 9  141 264 
 PTB  HN ES   1   1039 24.48                             133    -0.2 7  141 264 
 PTB  HZ I        1039 25.79         2.0 0.52                           141 264 
                                                                                
