 2010  1 5 1838 32.0 L   6.790 -73.178140.4  RSN  5 0.1 2.5LRSN                1
 GAP=173        0.33       3.3    13.6  4.2 -0.6253E+01 -0.2707E+02 -0.3065E+01E
 Epicentro: LOS SANTOS - SANTANDER                                             3
 ACTION:UP  10-08-24 09:42 OP:vdl  STATUS:               ID:20100105183832 L   I
 2010-01-05-1836-01S.COL___097                                                 6
 STAT SP IPHASW D HRMM SECON CODA AMPLIT PERI AZIMU VELO SNR AR TRES W  DIS CAZ7
 BAR2 SZ EP       1838 50.98                             171     0.010   22 182 
 BAR2 SZ ES   2   1839  5.67                             171    -0.1 5   22 182 
 GIR2 SZ IP       1838 51.15                             167     0.110   32 357 
 GIR2 SZ ES   1   1839  6.00                             167     0.0 7   32 357 
 GUE  SZ EP   1   1838 56.17                             138    -0.2 7  118  14 
 GRA  SZ IP       1838 57.08                             135     0.110  128  19 
 OCA  SZ EP   2   1839  0.02                             128     0.0 5  161 354 
 OCA  SZ ES   2   1839 21.76                             128    -0.1 5  161 354 
 OCA  SZ I        1839 26.39        38.3 0.22                           161 354 
                                                                                
