 2013  5 5 1622  0.2 L   6.812 -73.146141.0  RSN 11 0.4 2.2LRSN                1
 GAP=136        0.73       3.0     3.7  5.1 -0.1742E+01  0.7302E+01  0.2255E+01E
 Epicentro: LOS SANTOS - SANTANDER                                             3
 ACTION:UPD 13-06-20 09:48 OP:ep   STATUS:               ID:20130505162200 L   I
 2013-05-05-1620-00M.COL___253                                                 6
 STAT SP IPHASW D HRMM SECON CODA AMPLIT PERI AZIMU VELO AIN AR TRES W  DIS CAZ7
 BAR2 SZ EP   1   1622 19.21                             170   -0.08 7 24.7 189 
 BAR2 SZ ES   1   1622 33.90                             170   -0.27 7 24.7 189 
 BAR2 SZ I        1622 35.27        22.8 0.20            167           24.7 189 
 GIR2 SZ EP   1   1622 18.99                             167   -0.28 7 29.9 350 
 BRR  HZ EP   1   1622 20.92                             152    0.12 7 70.6 298 
 BRR  HN ES   1   1622 37.84                             152    0.98 7 70.6 298 
 BRR  HN I        1622 41.03        54.5 0.26            149           70.6 298 
 PAM  SZ EP   1   1622 21.89                             150    0.04 7 76.3  40 
 PAM  SN ES       1622 38.73                             150   -0.0010 76.3  40 
 PAM  SZ I        1622 40.82        19.6 0.42            156           76.3  40 
 RUS  HZ EP       1622 23.55                             142   -0.0410  102 176 
 RUS  HN ES   1   1622 41.80                             142   -0.03 7  102 176 
 RUS  HZ I        1622 43.50         7.8 0.28            144            102 176 
 PTB  HZ EP   1   1622 26.14                             131   -0.67 7  148 258 
 PTB  HN ES   1   1622 46.83                             131   -0.73 7  148 258 
 PTB  HN I        1622 52.51        33.1 0.36            130            148 258 
 ZAR  HN ES   2   1622 56.90                             121   -0.41 4  204 292 
 NOR  HZ EP       1622 35.78                             117    0.04 8  235 234 
 NOR  HE ES   1   1623  3.90                             117    0.43 6  235 234 
 NOR  HE I        1623  8.98        22.6 0.32            118            235 234 
 SML  HZ EP   1   1622 36.45                             117    0.02 6  242 335 
 SML  HN ES   1   1623  4.76                             117    0.07 6  242 335 
 SML  HN I        1623  6.59        39.3 0.10            118            242 335 
 HEL  HZ EP   1   1622 40.50                             114    0.29 6  272 256 
 HEL  HN ES   2   1623 11.19                             114   -0.23 4  272 256 
 HEL  HN I        1623 18.05         5.7 0.42            115            272 256 
 PRA  HZ EP   1   1622 54.23                             106    0.53 4  393 209 
 PRA  HN ES       1623 35.86                             106    0.43 6  393 209 
 PRA  HN I        1623 41.42         6.7 0.72            107            393 209 
                                                                                
