 2017  4 5 1051 52.9 L   6.828 -73.294121.5  RSN  7 0.4 1.8LRSN                1
 GAP=105        0.90       3.6     4.0  6.6  0.2370E+01  0.1160E+02  0.2624E+01E
 Epicentro: ZAPATOCA - SANTANDER                                               3
 ACTION:UPD 17-05-30 21:08 OP:jn   STATUS:               ID:20170405105152 L   I
 OLDACT:REG 17-04-05 20:37 OP:ar   STATUS:               ID:20170405104742     3
 2017-04-05-1048-00M.COL___365                                                 6
 STAT SP IPHASW D HRMM SECON CODA AMPLIT PERI AZIMU VELO AIN AR TRES W  DIS CAZ7
 BAR2 EZ EP       1052  9.60                             166   -0.1510 28.8 155 
 BAR2 EZ ES       1052 22.73                             166   -0.1710 28.8 155 
 BRR  HZ EP       1052  9.94                             154   -0.5910 55.6 304 
 BRR  HN ES       1052 24.01                             154   -0.2810 55.6 304 
 BRR  HZ I        1052 24.96        26.2 0.12            153           55.6 304 
 PAM  EN ES       1052 29.75                             142    0.6310 86.7  49 
 PAM  HZ I        1052 31.25        14.8 0.20            145           86.7  49 
 RUS  HZ EP       1052 14.67                             136   -0.1110  106 167 
 RUS  HN ES       1052 31.90                             136    0.0410  106 167 
 RUS  HZ I        1052 32.97         6.7 0.26            137            106 167 
 PTB  HZ EP       1052 16.67                             129    0.1710  132 256 
 PTB  HE ES   2   1052 36.04                             129    1.11 5  132 256 
 PTB  HZ I        1052 36.78         9.4 0.28            129            132 256 
 SPBC HZ EP   2   1052 19.89                             124    0.98 5  156 214 
 SPBC HE ES       1052 39.15                             124   -0.05 9  156 214 
 SPBC HZ I        1052 44.33         5.3 0.10            124            156 214 
 ZAR  HZ EP       1052 22.16                             119    0.05 9  188 293 
 ZAR  HN ES       1052 44.94                             119    0.03 9  188 293 
 ZAR  HZ I        1052 49.62         9.5 0.38            119            188 293 
                                                                                
