 2015  4 5 1904 49.6 L   6.833 -73.129147.2  RSN 23 0.5 2.7LRSN                1
 GAP= 71        1.11       2.4     2.7  4.5 -0.1301E+01  0.2735E+01  0.5837E+00E
 Epicentro: LOS SANTOS - SANTANDER                                             3
 ACTION:UPD 15-06-03 16:52 OP:cam  STATUS:               ID:20150405190449 L   I
 OLDACT:REG 15-04-05 21:18 OP:fm   STATUS:               ID:20150405185750     3
 2015-04-05-1857-50M.COL___276                                                 6
 STAT SP IPHASW D HRMM SECON CODA AMPLIT PERI AZIMU VELO AIN AR TRES W  DIS CAZ7
 BAR2 EZ IP     D 19 5  9.75                             169    0.2810 27.3 193 
 BAR2 EZ ES       19 5 25.59                             169    0.6210 27.3 193 
 BAR2 EZ I        19 5 26.65        74.9 0.44            168           27.3 193 
 BRR  HZ EP       19 5 11.57                             153    0.6810 71.2 295 
 BRR  HE ES       19 5 28.17                             153    0.6710 71.2 295 
 BRR  HZ I        19 5 33.89        55.0 0.14            150           71.2 295 
 PAM  SZ EP       19 5 12.51                             152    0.7910 73.4  40 
 PAM  SN ES       19 5 28.99                             152    0.0110 73.4  40 
 PAM  SZ I        19 5 31.93        48.8 0.44            156           73.4  40 
 RUS  HZ EP     D 19 5 13.57                             143   -0.1510  104 177 
 RUS  HE ES       19 5 31.83                             143   -0.7310  104 177 
 RUS  HZ I        19 5 35.07        46.5 0.48            146            104 177 
 PTB  HZ EP       19 5 16.63                             132   -0.27 9  150 258 
 PTB  HE ES       19 5 37.25                             132   -0.96 9  150 258 
 PTB  HZ I        19 5 43.76        83.0 0.38            132            150 258 
 TAM  HZ EP     D 19 5 17.89                             131    0.60 9  154 106 
 TAM  HE ES       19 5 38.03                             131   -0.88 9  154 106 
 TAM  HZ I        19 5 38.72        32.8 0.30            136            154 106 
 OCA  HZ EP       19 5 18.16                             131    0.47 9  157 352 
 OCA  HE ES       19 5 39.02                             131   -0.59 9  157 352 
 OCA  HZ I        19 5 45.72       116.8 0.22            132            157 352 
 SPBC HZ EP       19 5 18.66                             129    0.09 9  167 219 
 SPBC HE ES       19 5 41.18                             129    0.00 9  167 219 
 SPBC HZ I        19 5 47.89        92.6 0.26            130            167 219 
 ZAR  HZ EP       19 5 22.20                             123    0.04 9  204 291 
 ZAR  HN ES       19 5 47.15                             123   -0.43 9  204 291 
 ZAR  HZ I        19 5 54.30        77.0 0.48            123            204 291 
 NOR  HZ IP     C 19 5 25.78                             118   -0.00 8  238 234 
 NOR  HE ES       19 5 53.68                             118   -0.34 8  238 234 
 NOR  HZ I        19 6  0.86        41.1 0.22            119            238 234 
 SML  HZ EP       19 5 26.43                             118    0.41 8  241 335 
 SML  HN ES       19 5 54.25                             118   -0.19 8  241 335 
 SML  HZ I        19 6  2.35        53.8 0.28            119            241 335 
 ROSC BZ EP       19 5 28.24                             116    0.02 8  257 211 
 ROSC BE ES       19 5 58.18                             116   -0.18 8  257 211 
 ROSC BZ I        19 6  3.05        56.7 0.45            118            257 211 
 HEL  HZ EP       19 5 30.24                             115    0.07 8  275 255 
 HEL  HE ES       19 6  1.39                             115   -0.44 8  275 255 
 HEL  HZ I        19 6  8.50        26.2 0.30            116            275 255 
 URE  HZ EP       19 5 30.41                             114   -0.36 7  284 291 
 URE  HE ES   4   19 6  1.03                             114   -1.86 0  284 291 
 URE  HZ I        19 6 10.57        39.5 0.30            115            284 291 
 GUY2CHZ EP       19 5 34.63                             112    0.96 7  305 234 
 GUY2CHE ES       19 6  8.40                             112    0.35 7  305 234 
 GUY2CHZ I        19 6 16.40        32.8 0.74                           305 234 
 VIL  SZ EP       19 5 33.04                             112   -0.47 7  307 192 
 VIL  SE ES       19 6  7.92                             112    0.15 7  307 192 
 VIL  SZ I        19 6 21.24        27.4 0.44            114            307 192 
 RREF HN EP       19 5 36.44                             111    0.22 7  326 229 
 RREF HE ES       19 6 12.85                             111    0.26 7  326 229 
 RREF HN I        19 6 19.06        63.4 0.34            112            326 229 
 CBOC HZ EP       19 5 37.23                             110    0.34 7  337 252 
 CBOC HN ES       19 6 13.77                             110   -0.02 7  337 252 
 CBOC HZ I        19 6 17.95        10.6 0.16            111            337 252 
 MON  HZ EP   4   19 5 36.90                             109   -1.65 0  353 308 
 MON  HN ES       19 6 16.41                             109   -0.34 6  353 308 
 MON  HZ I        19 6 31.16        13.1 0.46            110            353 308 
 SDV  BZ EP       19 5 39.02                             109   -0.22 6  357  50 
 SDV  BE ES       19 6 17.03                             109   -0.94 6  357  50 
 SDV  BZ I        19 6 18.39         7.1 0.35            111            357  50 
 ANIL HZ EP       19 5 39.97                             108    0.08 6  361 224 
 ANIL HN ES       19 6 19.16                             108    0.03 6  361 224 
 ANIL HZ I        19 6 26.52         8.1 0.36            110            361 224 
 ORTC HZ EP       19 5 43.57                             106   -0.45 6  399 216 
 ORTC HE ES       19 6 26.89                             106    0.41 6  399 216 
 ORTC HZ I        19 6 31.34        13.7 0.36            108            399 216 
 SJC  HZ EP     C 19 5 44.01                             106   -0.95 6  407 326 
 SJC  HN ES   4   19 6 24.16                             106   -3.99 0  407 326 
 SJC  HZ I        19 6 29.47         5.2 0.34            107            407 326 
                                                                                
