 2011 12 5 1202 31.6 L   6.755 -73.118144.2  RSN 14 0.4 2.8LRSN                1
 GAP=118        0.79       2.6     3.7  4.5 -0.2415E+01  0.3328E+01  0.2361E+01E
 Epicentro: LOS SANTOS - SANTANDER                                             3
 ACTION:UPD 12-07-13 16:14 OP:ep   STATUS:               ID:20111205120231 L   I
 2011-12-05-1200-00M.COL___183                                                 6
 STAT SP IPHASW D HRMM SECON CODA AMPLIT PERI AZIMU VELO AIN AR TRES W  DIS CAZ7
 BAR2 SZ IP       12 2 50.82                             172   -0.1210 19.4 202 
 BAR2 SZ ES   1   12 3  6.39                             172    0.34 7 19.4 202 
 BAR2 SZ I        12 3  7.60       131.2 0.28                          19.4 202 
 GIR2 SZ EP       12 2 50.88                             165   -0.3410 36.8 347 
 BRR  HZ IP     C 12 2 52.71                             151   -0.1410 76.4 301 
 BRR  HE ES       12 3  9.81                             151    0.3610 76.4 301 
 PAM  SZ EP       12 2 53.62                             150   -0.1310 79.4  36 
 PAM  SN ES       12 3 10.64                             150   -0.4010 79.4  36 
 RUS  HZ EP       12 2 54.69                             145   -0.1110 95.4 178 
 RUS  HE ES       12 3 13.18                             145    0.2610 95.4 178 
 RUS  HZ I        12 3 14.74        75.4 0.41                          95.4 178 
 BRI  SZ EP       12 2 55.38                             140   -0.2210  112  18 
 OCA  SZ EP       12 3  0.65                             128    0.38 9  166 352 
 OCA  SZ ES   1   12 3 23.28                             128    0.63 7  166 352 
 OCA  SZ I        12 3 27.10        87.4 0.27                           166 352 
 YOP  SZ EP       12 3  1.24                             127    0.31 9  173 153 
 YOP  SZ I        12 3 28.02        33.2 0.17                           173 153 
 NOR  SZ EP       12 3  6.44                             118   -0.74 8  234 236 
 NOR  SN ES   1   12 3 34.68                             118   -0.27 6  234 236 
 CHI  HZ EP   1   12 3  8.74                             117   -0.01 6  245 196 
 CHI  HN ES   1   12 3 37.72                             117   -0.03 6  245 196 
 CHI  HZ I        12 3 47.97        33.1 0.38                           245 196 
 HEL  HZ EP   1   12 3 12.53                             114    0.62 6  274 257 
 HEL  HE ES   1   12 3 42.59                             114   -0.78 6  274 257 
 HEL  HZ I        12 3 48.23        35.9 0.40                           274 257 
 GUY  SZ EP   1   12 3 15.60                             112    0.26 5  303 236 
 GUY  SE ES   2   12 3 50.01                             112    0.53 4  303 236 
 GUY  SZ I        12 3 57.10        73.9 0.36                           303 236 
 RREF HZ EP   1   12 3 18.06                             111    0.51 5  321 230 
 RREF HZ I        12 4  3.25        59.7 0.36                           321 230 
 PRA  HZ EP       12 3 25.29                             106    0.58 6  389 210 
 PRA  HN ES   1   12 4  6.03                             106   -0.13 4  389 210 
                                                                                
