 2013 11 5 1655  1.6 L   6.793 -73.163143.6  RSN  6 0.2 1.4LRSN                1
 GAP=135        0.67       3.4     3.2  5.3  0.1609E+01  0.1916E+01 -0.2647E+00E
 Epicentro: LOS SANTOS - SANTANDER                                             3
 ACTION:UPD 14-01-09 16:26 OP:ep   STATUS:               ID:20131105165501 L   I
 OLDACT:REG 13-11-05 18:23 OP:jn   STATUS:               ID:20131105165000     3
 2013-11-05-1650-00M.COL___273                                                 6
 STAT SP IPHASW D HRMM SECON CODA AMPLIT PERI AZIMU VELO AIN AR TRES W  DIS CAZ7
 BAR2 SZ EP       1655 20.98                             171    0.0610 22.2 185 
 BAR2 SZ ES       1655 36.30                             171    0.3010 22.2 185 
 BAR2 SZ I        1655 37.81         9.9 0.44            173           22.2 185 
 BRR  HZ EP       1655 22.83                             153    0.4210 69.9 300 
 BRR  HN ES       1655 38.73                             153    0.0710 69.9 300 
 BRR  HZ I        1655 44.93        11.3 0.42            151           69.9 300 
 PAM  SZ EP       1655 23.82                             150    0.1510 79.2  40 
 PAM  SN ES       1655 40.56                             150   -0.3410 79.2  40 
 PAM  SZ I        1655 45.10         1.7 0.44            152           79.2  40 
 RUS  HZ EP       1655 24.83                             144   -0.2310 99.9 175 
 RUS  HN ES       1655 43.23                             144   -0.1510 99.9 175 
 RUS  HZ I        1655 45.24         2.3 0.38            149           99.9 175 
 PTB  HN ES   1   1655 48.86                             132   -0.06 7  146 259 
 PTB  HZ I        1655 52.20         3.2 0.38            133            146 259 
 ZAR  HE ES       1655 58.45                             122   -0.35 9  203 293 
 ZAR  HZ I        1656  6.00         3.6 0.32            123            203 293 
                                                                                
