 2017  1 5 1758 28.2 L   6.764 -73.147147.5  RSN  8 0.4 1.5LRSN                1
 GAP=138        0.93       4.7     4.5  6.5  0.4621E+01  0.7821E+01  0.7659E+01E
 Epicentro: LOS SANTOS - SANTANDER                                             3
 ACTION:UPD 17-05-22 15:55 OP:jn   STATUS:               ID:20170105175828 L   I
 OLDACT:REG 17-01-05 20:45 OP:dnl  STATUS:               ID:20170105175743     3
 2017-01-05-1758-00M.COL___369                                                 6
 STAT SP IPHASW D HRMM SECON CODA AMPLIT PERI AZIMU VELO AIN AR TRES W  DIS CAZ7
 BAR2 EZ EP       1758 47.79                             172   -0.1610 19.3 192 
 BAR2 EZ ES       1759  2.93                             172   -0.4410 19.3 192 
 BAR2 EZ I        1759  4.58         9.4 0.40            170           19.3 192 
 BRR  HZ EP       1758 49.83                             152    0.2010 73.1 301 
 BRR  HE ES       1759  7.11                             152    0.7510 73.1 301 
 BRR  HZ I        1759  8.18         8.4 0.68            151           73.1 301 
 PAM  EZ EP   2   1758 50.75                             150   -0.03 5 80.6  38 
 PAM  EN ES       1759  8.20                             150   -0.2110 80.6  38 
 PAM  EZ I        1759 10.19         6.8 0.56            153           80.6  38 
 RUS  HZ EP       1758 51.89                             145    0.0710 96.6 176 
 RUS  HN ES       1759 10.57                             145    0.3010 96.6 176 
 RUS  HZ I        1759 11.41         2.7 0.24            145           96.6 176 
 PTB  HZ EP       1758 54.83                             133   -0.38 9  147 260 
 PTB  HN ES       1759 15.80                             133   -0.50 9  147 260 
 PTB  HZ I        1759 20.52         3.7 0.14            131            147 260 
 ZAR  HZ EP   4   1758 59.68                             123   -1.21 0  205 293 
 ZAR  HE ES       1759 26.48                             123    0.08 8  205 293 
 ZAR  HZ I        1759 32.18         4.3 0.28            122            205 293 
 CHI  HZ EP       1759  5.88                             118    0.33 8  245 195 
 CHI  HE ES   4   1759 32.78                             118   -1.92 0  245 195 
 CHI  HZ I        1759 39.68         1.1 0.46            118            245 195 
 GUY2CHZ EP   4   1759 12.27                             113    0.67 0  299 235 
 GUY2CHE ES   4   1759 46.95                             113    1.49 0  299 235 
 GUY2CHZ  IAML    1759 54.70         3.3 0.74                           299 235 
                                                                                
