 2012  5 5 1806  2.6 L   6.813 -73.171149.2  RSN  5 0.5 1.5LRSN                1
 GAP=133        1.16       8.3     8.7 12.7  0.1607E+02  0.1412E+02 -0.2266E+01E
 Epicentro: LOS SANTOS - SANTANDER                                             3
 ACTION:UP  12-07-05 12:02 OP:pat  STATUS:               ID:20120505180602 L   I
 2012-05-05-1800-00M.COL___192                                                 6
 STAT SP IPHASW D HRMM SECON CODA AMPLIT PERI AZIMU VELO SNR AR TRES W  DIS CAZ7
 BAR2 SZ ES   1   18 6 38.18                             170    -0.1 7   25 183 
 BAR2 SZ I        18 6 40.99        14.8 0.58                            25 183 
 BRR  HZ EP   1   18 6 24.37                             154     0.4 7   68 299 
 BRR  HN ES   1   18 6 41.50                             154     0.9 7   68 299 
 PAM  SZ EP   1   18 6 25.49                             151     0.3 7   78  42 
 PAM  SN ES   1   18 6 42.37                             151    -0.5 7   78  42 
 RUS  HZ EP   1   18 6 26.81                             144     0.0 7  102 175 
 RUS  HN ES   1   18 6 45.52                             144    -0.2 7  102 175 
 RUS  HZ I        18 6 46.95         3.0 0.23                           102 175 
 ZAR  HN ES   1   18 6 59.23                             124    -1.0 6  201 292 
 ZAR  HZ I        18 7  6.78         2.8 0.10                           201 292 
                                                                                
