 2015  8 5 1717 16.8 L   6.814 -73.123147.3  RSN  8 0.4 2.1LRSN                1
 GAP=185        1.10       3.5     5.8  6.9 -0.6505E-01  0.1083E+02 -0.3694E+01E
 Epicentro: LOS SANTOS - SANTANDER                                             3
 ACTION:UPD 15-09-15 23:00 OP:cam  STATUS:               ID:20150805171716 L   I
 OLDACT:REG 15-08-05 21:15 OP:drio STATUS:               ID:20150805170749     3
 2015-08-05-1707-49M.COL___358                                                 6
 STAT SP IPHASW D HRMM SECON CODA AMPLIT PERI AZIMU VELO AIN AR TRES W  DIS CAZ7
 BAR2 EZ EP       1717 36.49                             170   -0.1610 25.4 195 
 BAR2 EZ ES       1717 51.94                             170   -0.2010 25.4 195 
 BAR2 EZ I        1717 54.46        14.2 0.24            171           25.4 195 
 BRR  HZ IP     D 1717 38.51                             152    0.3210 72.7 296 
 BRR  HE ES       1717 55.85                             152    0.9710 72.7 296 
 RUS  HZ EP       1717 40.95                             144    0.1510  102 178 
 RUS  HE ES       1717 59.05                             144   -0.4710  102 178 
 OCA  HZ EP       1717 45.67                             130    0.57 9  159 352 
 OCA  HE ES       1718  6.86                             130   -0.33 9  159 352 
 OCA  HZ I        1718 12.08        23.7 0.66            130            159 352 
 ZAR  HZ EP       1717 49.22                             122   -0.30 8  206 291 
 ZAR  HE ES       1718 14.50                             122   -0.54 8  206 291 
 ZAR  HZ I        1718 19.85        11.7 0.28            123            206 291 
 NOR  HE ES       1718 20.81                             119   -0.30 8  238 235 
 NOR  HZ I        1718 24.03         7.8 0.14            120            238 235 
 SML  HZ EP       1717 52.93                             118   -0.53 8  243 335 
 SML  HE ES       1718 21.94                             118   -0.12 8  243 335 
 SML  HZ I        1718 27.77        17.8 0.26            118            243 335 
 GUY2CHZ EP       1718  1.42                             112    0.61 7  304 235 
 GUY2CHN ES       1718 35.29                             112    0.16 7  304 235 
 GUY2CHZ I        1718 41.41         5.2 0.34                           304 235 
                                                                                
