 2014  7 5 1910 26.1 L   6.788 -73.126143.6  RSN 25 0.5 2.8LRSN                1
 GAP= 67        1.10       2.4     2.8  4.8 -0.7260E+00  0.3431E+01  0.2688E+01E
 Epicentro: LOS SANTOS - SANTANDER                                             3
 ACTION:UPD 15-03-16 20:41 OP:nd   STATUS:               ID:20140705191026 L   I
 OLDACT:REG 14-07-05 22:00 OP:spq  STATUS:               ID:20140705190816     3
 2014-07-05-1908-16M.COL___259                                                 6
 STAT SP IPHASW D HRMM SECON CODA AMPLIT PERI AZIMU VELO AIN AR TRES W  DIS CAZ7
 BAR2 SZ IP     C 1910 45.91                             171    0.4510 22.5 196 
 BAR2 SZ ES   1   1911  0.22                             171   -0.34 7 22.5 196 
 BAR2 SZ I        1911  2.75        70.4 0.33            167           22.5 196 
 BRR  HZ IP     C 1910 47.76                             151    0.5910 73.8 299 
 BRR  HE ES       1911  4.44                             151    0.8410 73.8 299 
 BRR  HZ I        1911  7.53        69.6 0.20            151           73.8 299 
 PAM  SZ EP       1910 48.61                             151    0.5310 77.1  38 
 PAM  SN ES       1911  4.47                             151   -0.7410 77.1  38 
 RUS  HZ EP       1910 49.70                             144    0.1610 99.1 177 
 RUS  HE ES       1911  7.97                             144    0.1510 99.1 177 
 RUS  HZ I        1911 11.99        37.3 0.24            144           99.1 177 
 PTB  HZ EP       1910 52.28                             131   -0.80 9  150 260 
 PTB  HN ES       1911 13.61                             131   -0.50 9  150 260 
 PTB  HZ I        1911 21.34        94.8 0.44            131            150 260 
 TAM  HZ IP     D 1910 54.05                             131    0.66 9  153 105 
 TAM  HN ES       1911 14.14                             131   -0.53 9  153 105 
 TAM  HZ I        1911 14.85        30.8 0.40            135            153 105 
 OCA  HZ EP       1910 54.38                             129   -0.03 9  162 352 
 OCA  HN ES       1911 15.98                             129   -0.50 9  162 352 
 OCA  HZ I        1911 20.88        86.8 0.26            133            162 352 
 SPBC HZ IP     D 1910 54.88                             128    0.40 9  164 220 
 SPBC HN ES       1911 16.98                             128    0.38 9  164 220 
 SPBC HZ I        1911 24.03       114.8 0.28            129            164 220 
 ZAR  HZ EP       1910 58.43                             122   -0.25 8  207 292 
 ZAR  HN ES       1911 24.14                             122    0.06 8  207 292 
 ZAR  HZ I        1911 30.36        64.5 0.18            123            207 292 
 SML  HZ IP     C 1911  2.38                             117   -0.47 8  246 335 
 SML  HN ES       1911 32.08                             117    0.57 8  246 335 
 SML  HZ I        1911 35.73        93.8 0.10            120            246 335 
 CHI  HZ EP       1911  3.52                             117   -0.09 8  248 196 
 CHI  HN ES   1   1911 32.55                             117   -0.31 6  248 196 
 CHI  HZ I        1911 41.05        18.3 0.24            118            248 196 
 ROSC BZ EP   4   1911  5.79                             116    1.68 0  253 212 
 ROSC BN ES       1911 33.59                             116   -0.16 8  253 212 
 ROSC BZ I        1911 41.06        48.5 0.35            118            253 212 
 HEL  HZ EP       1911  6.28                             114   -0.13 8  274 256 
 HEL  HN ES       1911 37.50                             114   -0.35 8  274 256 
 HEL  HZ I        1911 45.59        30.6 0.26            115            274 256 
 URE  HZ EP   4   1911  5.74                             113   -1.62 0  286 292 
 URE  HN ES   4   1911 37.04                             113   -2.49 0  286 292 
 URE  HZ I        1911 44.42        41.1 0.18            115            286 292 
 GUY2CHZ EP       1911  9.55                             112   -0.18 7  302 235 
 GUY2CHE ES       1911 42.98                             112   -0.78 7  302 235 
 GUY2CHZ I        1911 53.14        32.6 0.30                           302 235 
 VIL  SZ EP       1911  9.77                             112    0.44 7  302 192 
 VIL  SN ES       1911 42.82                             112   -0.22 7  302 192 
 VIL  SZ I        1911 53.48        30.0 0.48            113            302 192 
 PTGC HZ IP     D 1911  8.78                             111   -0.86 7  307 159 
 PTGC HN ES   4   1911 35.94                             111   -7.65 0  307 159 
 PTGC HZ I        1911 50.72        35.9 0.44            114            307 159 
 RREF HZ EP       1911 13.17                             110    0.92 7  323 230 
 RREF HE ES       1911 48.22                             110   -0.02 7  323 230 
 RREF HZ I        1911 54.51        36.1 0.26            112            323 230 
 CBOC HZ EP       1911 13.49                             109    0.36 7  335 252 
 CBOC HN ES       1911 49.99                             109    0.19 7  335 252 
 CBOC HZ I        1912  1.42        12.6 0.64            111            335 252 
 DBB  SZ EP       1911 13.09                             109   -0.67 7  342 274 
 DBB  SZ ES   4   1911 46.84                             109   -4.09 0  342 274 
 DBB  SZ I        1911 51.82        51.6 0.43            110            342 274 
 TOL  SZ EP       1911 14.62                             109    0.27 7  344 225 
 TOL  SN ES       1911 52.25                             109    0.28 7  344 225 
 TOL  SZ I        1911 59.55        68.3 0.42            110            344 225 
 ANIL HZ EP       1911 15.02                             108   -0.88 6  358 225 
 ANIL HN ES       1911 54.26                             108   -0.47 6  358 225 
 ANIL HZ I        1912  2.67        65.3 0.30            109            358 225 
 PRA  HZ EP       1911 19.29                             106   -0.26 6  392 210 
 PRA  HN ES       1912  1.64                             106    0.42 6  392 210 
 PRA  HZ I        1912  6.55        19.5 0.54            108            392 210 
 ORTC HZ EP       1911 20.73                             106    0.75 6  396 217 
 ORTC HN ES       1912  2.15                             106    0.15 6  396 217 
 ORTC HZ I        1912  7.24        14.9 0.18            107            396 217 
 SJC  HZ EP   4   1911 19.91                             105   -1.97 0  412 327 
 SJC  HN ES   4   1912  0.48                             105   -4.89 0  412 327 
 SJC  HZ I        1912  6.60        12.7 0.26            107            412 327 
                                                                                
