 2014 12 5 1257 26.7 L   6.813 -73.178142.0  RSN 15 0.4 2.0LRSN                1
 GAP= 69        0.85       3.0     3.3  4.5 -0.1699E+01  0.3765E+01  0.3277E+00E
 Epicentro: ZAPATOCA - SANTANDER                                               3
 ACTION:UPD 15-02-10 17:00 OP:nd   STATUS:               ID:20141205125726 L   I
 OLDACT:REG 14-12-05 20:39 OP:spq  STATUS:               ID:20141205124750     3
 2014-12-05-1247-50M.COL___303                                                 6
 STAT SP IPHASW D HRMM SECON CODA AMPLIT PERI AZIMU VELO AIN AR TRES W  DIS CAZ7
 BAR2 SZ EP   1   1257 45.34                             170   -0.59 7 24.4 181 
 BAR2 SZ ES   1   1258  1.12                             170    0.22 7 24.4 181 
 BAR2 SZ IS       1258  1.12                             170    0.2210 24.4 181 
 BAR2 SZ I        1258  2.04        19.4 0.24            170           24.4 181 
 BRR  HZ EP       1257 47.73                             153    0.4810 67.4 299 
 BRR  HN ES   4   1258  4.78                             153    1.52 0 67.4 299 
 BRR  HZ I        1258  7.96        17.5 0.44            149           67.4 299 
 PAM  SZ EP       1257 48.72                             150    0.1010 78.6  42 
 PAM  SN ES       1258  5.67                             150   -0.0210 78.6  42 
 PAM  SZ I        1258  8.00        26.7 0.46            152           78.6  42 
 RUS  HZ EP       1257 49.97                             143   -0.2710  102 174 
 RUS  HN ES       1258  8.89                             143    0.3110  102 174 
 RUS  HZ I        1258  9.70        12.0 0.32            145            102 174 
 PTB  HZ EP       1257 52.62                             132   -0.48 9  145 258 
 PTB  HN ES       1258 13.69                             132    0.03 9  145 258 
 PTB  HZ I        1258 15.63         8.6 0.14            130            145 258 
 TAM  HZ EP     D 1257 54.26                             129   -0.21 9  159 105 
 SPBC HZ EP   1   1257 54.94                             128    0.11 7  162 218 
 SPBC HN ES       1258 16.30                             128   -0.46 9  162 218 
 SPBC HZ I        1258 19.58        18.4 0.38            128            162 218 
 ZAR  HN ES   1   1258 23.55                             122    0.22 6  200 292 
 ZAR  HZ I        1258 32.65         8.0 0.24            121            200 292 
 NOR  HZ EP       1258  2.08                             118    0.06 8  233 234 
 NOR  HE ES   1   1258 28.97                             118   -0.58 6  233 234 
 NOR  HZ I        1258 32.42         8.7 0.04            118            233 234 
 SML  HZ EP   1   1258  2.16                             117   -0.68 6  241 336 
 SML  HN ES   1   1258 30.82                             117   -0.18 6  241 336 
 CHI  HZ EP       1258  4.09                             116   -0.18 8  249 194 
 CHI  HN ES   1   1258 33.36                             116   -0.20 6  249 194 
 CHI  HZ I        1258 36.87         6.8 0.46            117            249 194 
 GUY2CHZ EP   1   1258 10.87                             112    0.94 5  299 234 
 GUY2CHN ES   4   1258 45.83                             112    2.20 0  299 234 
 GUY2CHZ I        1258 50.04         4.2 0.34                           299 234 
 RREF HZ EP   1   1258 13.42                             110    0.91 5  320 229 
 RREF HN ES   4   1258 51.61                             110    3.39 0  320 229 
 RREF HZ I        1258 54.82         5.5 0.28            111            320 229 
 TOL  SZ EP       1258 15.46                             109    0.80 7  342 224 
 TOL  SN ES   4   1258 54.27                             109    2.21 0  342 224 
 TOL  SZ I        1258 59.45        12.1 0.46            109            342 224 
 SJC  HZ EP   4   1258 19.81                             105   -1.98 0  406 327 
 SJC  HN ES   4   1259  1.30                             105   -3.45 0  406 327 
 SJC  HZ I        1259 13.27         1.9 0.30            105            406 327 
                                                                                
