 2013  2 5 1344 30.3 L   6.593 -73.474117.9  RSN  7 0.5 1.6LRSN                1
 GAP= 83        0.96       4.2     5.5  7.8 -0.2329E+01  0.1515E+02 -0.8724E+00E
 Epicentro: EL CARMEN DE CHUCURI - SANTANDER                                   3
 ACTION:UPD 13-03-12 09:30 OP:ep   STATUS:               ID:20130205134430 L   I
 2013-02-05-1340-00M.COL___240                                                 6
 STAT SP IPHASW D HRMM SECON CODA AMPLIT PERI AZIMU VELO AIN AR TRES W  DIS CAZ7
 BAR2 SZ ES   1   1344 59.68                             164   -0.09 7 32.3  90 
 BRR  HZ IP     C 1344 48.56                             150    0.6010 62.6 335 
 BRR  HE ES       1345  1.91                             150    0.1710 62.6 335 
 BRR  HZ I        1345  7.72        14.5 0.07            146           62.6 335 
 RUS  HZ EP   1   1344 50.86                             141    0.38 7 88.8 151 
 RUS  HE ES   1   1345  5.88                             141   -0.34 7 88.8 151 
 RUS  HE I        1345  9.05         7.0 0.48            142           88.8 151 
 PTB  HZ EP   1   1344 50.52                             134   -0.95 7  109 267 
 PTB  HZ I        1345  8.92        10.5 0.12            131            109 267 
 PAM  SZ EP   1   1344 52.45                             132   -0.57 7  119  46 
 PAM  SE ES   1   1345 10.75                             132    0.01 7  119  46 
 PAM  SZ I        1345 16.33         5.6 0.38            132            119  46 
 NOR  HZ EP   1   1345  0.44                             117    0.62 7  192 234 
 NOR  HN ES   1   1345 22.67                             117   -0.18 7  192 234 
 NOR  HZ I        1345 24.51         4.1 0.18            115            192 234 
 SML  HZ EP   1   1345  6.77                             110    0.20 6  253 345 
 SML  HE ES   1   1345 34.34                             110   -0.53 6  253 345 
                                                                                
