 2014  7 5 1201 32.3 L   6.813 -73.174133.0  RSN 15 0.4 2.1LRSN                1
 GAP=132        0.81       2.2     3.0  4.8 -0.1229E+01  0.6567E+01  0.3878E+00E
 Epicentro: LOS SANTOS - SANTANDER                                             3
 ACTION:UPD 15-03-16 20:41 OP:nd   STATUS:               ID:20140705120132 L   I
 OLDACT:REG 14-07-05 20:27 OP:spq  STATUS:               ID:20140705115820     3
 2014-07-05-1158-20M.COL___256                                                 6
 STAT SP IPHASW D HRMM SECON CODA AMPLIT PERI AZIMU VELO AIN AR TRES W  DIS CAZ7
 BAR2 SZ IP     D 12 1 50.78                             169    0.3210 24.4 182 
 BAR2 SZ ES   1   12 2  4.29                             169   -0.31 7 24.4 182 
 BAR2 SZ I        12 2  8.31        15.1 0.32            169           24.4 182 
 PAM  SZ EP       12 1 53.47                             148    0.1910 78.3  42 
 PAM  SN ES       12 2  9.64                             148    0.0410 78.3  42 
 PAM  SZ I        12 2 12.75        29.5 0.32            153           78.3  42 
 RUS  HZ EP       12 1 54.93                             140   -0.0610  102 174 
 RUS  HE ES       12 2 12.95                             140    0.3010  102 174 
 RUS  HZ I        12 2 14.74        14.1 0.26            144            102 174 
 PTB  HZ EP       12 1 57.32                             129   -0.72 9  145 258 
 PTB  HN ES       12 2 17.47                             129   -0.61 9  145 258 
 PTB  HZ I        12 2 22.21        19.7 0.18            130            145 258 
 SPBC HZ EP       12 1 59.87                             126    0.06 9  162 218 
 SPBC HN ES       12 2 20.97                             126   -0.27 9  162 218 
 SPBC HZ I        12 2 24.34        18.1 0.18            128            162 218 
 ZAR  HZ EP       12 2  3.71                             120    0.08 9  201 292 
 ZAR  HN ES       12 2 28.76                             120    0.73 9  201 292 
 ZAR  HZ I        12 2 35.68        20.6 0.36            121            201 292 
 SML  HZ EP       12 2  7.95                             115   -0.05 8  241 336 
 SML  HN ES       12 2 35.63                             115   -0.19 8  241 336 
 SML  HZ I        12 2 41.23        13.7 0.10            117            241 336 
 CHI  HN ES   1   12 2 37.95                             114   -0.41 6  249 194 
 CHI  HZ I        12 2 42.44         6.0 0.16            117            249 194 
 HEL  HZ EP       12 2 11.52                             112   -0.12 8  269 255 
 HEL  HN ES       12 2 42.62                             112    0.33 8  269 255 
 HEL  HZ I        12 2 48.38         5.8 0.54            114            269 255 
 GUY2CHZ EP       12 2 14.62                             110   -0.58 7  299 234 
 GUY2CHE ES       12 2 49.00                             110    0.38 7  299 234 
 GUY2CHZ I        12 2 59.04         6.3 0.64                           299 234 
 RREF HZ EP   4   12 2 19.11                             108    1.31 0  320 229 
 RREF HN ES       12 2 53.45                             108    0.19 7  320 229 
 RREF HZ I        12 2 58.85         5.5 0.32            110            320 229 
 TOL  SZ EP       12 2 20.11                             107    0.13 7  342 224 
 TOL  SN ES       12 2 57.45                             107    0.31 7  342 224 
 TOL  SZ I        12 3  5.07         7.7 0.25            109            342 224 
 PRA  HZ EP       12 2 25.27                             104   -0.15 6  392 209 
 PRA  HN ES       12 3  7.44                             104    0.62 6  392 209 
 PRA  HZ I        12 3 13.65         5.5 0.24            106            392 209 
 ORTC HZ EP       12 2 26.05                             104    0.28 6  395 216 
 ORTC HN ES       12 3  7.11                             104   -0.34 6  395 216 
 ORTC HZ I        12 3 15.69         4.3 0.56            106            395 216 
 SJC  HZ EP   4   12 2 24.55                             104   -2.62 0  406 327 
 SJC  HN ES   4   12 3  7.31                             104   -2.63 0  406 327 
 SJC  HZ I        12 3 11.44         2.0 0.50            106            406 327 
                                                                                
