 2012  8 5 1515 43.8 L   6.743 -73.161139.7  RSN  5 0.3 1.3LRSN                1
 GAP=137        0.53       5.5     4.6  4.9  0.9973E-01  0.5975E+01  0.1187E+01E
 Epicentro: VILLANUEVA - SANTANDER                                             3
 ACTION:UP  12-09-10 11:54 OP:ep   STATUS:               ID:20120805151543 L   I
 2012-08-05-1510-00M.COL___216                                                 6
 STAT SP IPHASW D HRMM SECON CODA AMPLIT PERI AZIMU VELO AIN AR TRES W  DIS CAZ7
 BAR2 SZ EP       1516  2.75                             173    0.1510 16.8 188 
 BAR2 SZ ES       1516 17.09                             173   -0.1510 16.8 188 
 BAR2 SZ I        1516 18.30         5.7 0.36                          16.8 188 
 BRR  HZ EP       1516  4.65                             151    0.2310 73.0 304 
 BRR  HZ I        1516  4.93        16.9 0.28                          73.0 304 
 BRR  HN ES   1   1516 20.70                             151    0.22 7 73.0 304 
 PAM  SZ EP   2   1516  5.47                             148   -0.30 5 83.4  38 
 PAM  SN ES   2   1516 22.56                             148   -0.33 5 83.4  38 
 PAM  SZ I        1516 23.93         2.3 0.56                          83.4  38 
 RUS  HZ EP   2   1516  6.98                             144    0.46 5 94.4 175 
 RUS  HE ES   3   1516 24.35                             144    0.12 2 94.4 175 
 RUS  HZ I        1516 28.39         1.7 0.36                          94.4 175 
 PTB  HZ EP       1516  9.69                             131   -0.35 9  145 261 
 PTB  HN ES   2   1516 30.43                             131   -0.06 5  145 261 
 PTB  HZ I        1516 32.80         3.1 0.32                           145 261 
                                                                                
