 2014  7 5 1939 34.5 L   6.787 -73.181148.2  RSN  7 0.4 1.8LRSN                1
 GAP=133        0.92       3.8     4.0  5.8  0.1876E+01  0.5190E+01 -0.4632E+01E
 Epicentro: LOS SANTOS - SANTANDER                                             3
 ACTION:UPD 15-03-16 20:41 OP:nd   STATUS:               ID:20140705193934 L   I
 OLDACT:REG 14-07-05 22:02 OP:spq  STATUS:               ID:20140705193818     3
 2014-07-05-1938-18M.COL___259                                                 6
 STAT SP IPHASW D HRMM SECON CODA AMPLIT PERI AZIMU VELO AIN AR TRES W  DIS CAZ7
 BAR2 SZ EP       1939 54.55                             171    0.1410 21.5 180 
 BAR2 SZ ES       1940  9.88                             171   -0.0410 21.5 180 
 BAR2 SZ I        1940 12.32        12.7 0.24            173           21.5 180 
 BRR  HZ EP       1939 56.42                             154    0.6310 68.5 301 
 BRR  HN ES       1940 13.01                             154    0.6310 68.5 301 
 PAM  SZ EP       1939 57.50                             150    0.2810 81.1  41 
 PAM  SN ES       1940 14.38                             150   -0.5410 81.1  41 
 PAM  SZ I        1940 16.95         8.6 0.64            153           81.1  41 
 RUS  HZ EP       1939 58.44                             145    0.0010 99.4 174 
 RUS  HN ES       1940 16.89                             145   -0.1910 99.4 174 
 RUS  HZ I        1940 18.40         6.7 0.36            148           99.4 174 
 PTB  HZ EP       1940  1.25                             133   -0.07 9  144 259 
 PTB  HN ES       1940 21.83                             133   -0.39 9  144 259 
 PTB  HZ I        1940 24.83         6.3 0.14            134            144 259 
 ZAR  HZ EP       1940  6.39                             123   -0.43 9  201 293 
 ZAR  HE ES       1940 31.97                             123   -0.03 9  201 293 
 ZAR  HZ I        1940 42.65         4.4 0.32            124            201 293 
 SML  HZ EP       1940 11.34                             118    0.08 8  243 336 
 SML  HN ES       1940 39.57                             118   -0.34 8  243 336 
 SML  HZ I        1940 44.01         9.2 0.10            119            243 336 
                                                                                
