 2016 10 5 1811 19.4 L   6.791 -73.060143.5  RSN  6 0.3 1.5LRSN                1
 GAP=148        0.84       3.7     5.2  5.6 -0.4376E+01  0.5788E+01  0.6175E+01E
 Epicentro: LOS SANTOS - SANTANDER                                             3
 ACTION:UPD 16-11-09 19:16 OP:rebc STATUS:               ID:20161005181119 L   I
 OLDACT:REG 16-10-05 20:15 OP:lv   STATUS:               ID:20161005180744     3
 2016-10-05-1808-00M.COL___344                                                 6
 STAT SP IPHASW D HRMM SECON CODA AMPLIT PERI AZIMU VELO AIN AR TRES W  DIS CAZ7
 BAR2 EZ EP       1811 38.36                             169   -0.4210 25.9 212 
 BAR2 EZ ES       1811 53.67                             169   -0.2610 25.9 212 
 PAM  EZ EP       1811 41.34                             152    0.2810 72.5  33 
 PAM  EN ES       1811 58.38                             152    0.4010 72.5  33 
 PAM  EZ I        1812  0.74         3.9 0.47            152           72.5  33 
 BRR  HZ EP       1811 40.42                             149   -0.3910 80.1 296 
 BRR  HN ES       1811 57.43                             149   -0.1010 80.1 296 
 RUS  HZ EP       1811 42.81                             144   -0.0110 99.4 181 
 RUS  HE ES       1812  1.27                             144    0.1610 99.4 181 
 RUS  HZ I        1812  2.14         2.8 0.17            144           99.4 181 
 CHI  HZ EP       1811 57.05                             116   -0.08 8  250 197 
 CHI  HN ES       1812 26.42                             116   -0.17 8  250 197 
 CHI  HZ I        1812 29.74         3.4 0.41            117            250 197 
 GUY2CHZ EP       1812  3.74                             111    0.04 7  308 236 
 GUY2CHN ES       1812 39.21                             111    0.93 7  308 236 
 GUY2CHZ I        1812 44.78         2.1 0.64                           308 236 
                                                                                
