 2013  3 5 1433 55.4 L   6.791 -73.172145.5  RSN  8 0.4 2.3LRSN                1
 GAP=134        1.01       3.9     5.0  5.9 -0.1799E+01  0.7584E+01  0.8708E+00E
 Epicentro: LOS SANTOS - SANTANDER                                             3
 ACTION:UPD 13-04-09 14:00 OP:ep   STATUS:               ID:20130305143355 L   I
 2013-03-05-1428-49M.COL___199                                                 6
 STAT SP IPHASW D HRMM SECON CODA AMPLIT PERI AZIMU VELO AIN AR TRES W  DIS CAZ7
 BAR2 SZ EP       1434 15.05                             171    0.1110 22.0 183 
 BAR2 SZ ES       1434 29.86                             171   -0.3510 22.0 183 
 BAR2 SZ I        1434 30.95        44.8 0.30            163           22.0 183 
 BRR  HZ EP       1434 16.89                             153    0.5110 69.2 300 
 BRR  HN ES       1434 33.57                             153    0.8010 69.2 300 
 BRR  HN I        1434 34.46       111.2 0.18            145           69.2 300 
 PAM  SZ EP       1434 17.97                             150    0.2510 80.1  41 
 PAM  SE ES       1434 35.05                             150   -0.1110 80.1  41 
 PAM  SN I        1434 36.26        35.9 0.28            149           80.1  41 
 RUS  HZ EP       1434 19.09                             144    0.0510 99.8 174 
 RUS  HN ES       1434 37.16                             144   -0.3410 99.8 174 
 RUS  HE I        1434 39.72        10.4 0.24            135           99.8 174 
 PTB  HZ EP       1434 21.80                             133   -0.24 9  145 259 
 PTB  HN ES       1434 42.51                             133   -0.33 9  145 259 
 PTB  HE I        1434 48.38        35.2 0.28            123            145 259 
 NOR  HZ EP   1   1434 30.86                             119    0.10 6  232 234 
 NOR  HE I        1435  6.27        14.6 0.16            111            232 234 
 SML  HZ EP       1434 31.48                             117   -0.47 8  243 336 
 SML  HN ES   1   1434 59.51                             117   -0.98 6  243 336 
 PRA  HZ EP       1434 49.34                             107    0.73 6  390 209 
 PRA  HN ES       1435 29.98                             107   -0.15 6  390 209 
 PRA  HE I        1435 37.86         6.1 0.56            101            390 209 
                                                                                
