 2014  8 5 1027 11.4 L   6.070 -73.707113.4  RSN 16 0.4 2.2LRSN                1
 GAP= 75        1.07       2.2     2.7  5.3 -0.2233E+01  0.3864E+01 -0.6891E+00E
 Epicentro: VELEZ - SANTANDER                                                  3
 ACTION:UPD 14-09-15 21:47 OP:nd   STATUS:               ID:20140805102711 L   I
 OLDACT:REG 14-08-05 20:40 OP:carl STATUS:               ID:20140805101815     3
 2014-08-05-1018-15M.COL___245                                                 6
 STAT SP IPHASW D HRMM SECON CODA AMPLIT PERI AZIMU VELO AIN AR TRES W  DIS CAZ7
 SPBC HZ EP       1027 28.68                             150    0.0110 61.4 221 
 SPBC HE ES       1027 41.88                             150   -0.2410 61.4 221 
 SPBC HZ I        1027 43.80        40.5 0.18            149           61.4 221 
 RUS  HZ EP       1027 29.94                             146    0.0210 71.8 106 
 RUS  HE ES       1027 44.05                             146   -0.3010 71.8 106 
 RUS  HZ I        1027 46.01        20.5 0.26            147           71.8 106 
 BAR2 SZ EP       1027 30.77                             142    0.4810 81.8  45 
 BAR2 SZ ES       1027 45.50                             142    0.5010 81.8  45 
 PTB  HZ EP       1027 30.50                             136   -0.7610 97.8 302 
 PTB  HE ES       1027 46.76                             136    0.0310 97.8 302 
 PTB  HZ I        1027 48.22        36.5 0.30            135           97.8 302 
 BRR  HZ EP       1027 32.93                             131    0.2110  115 360 
 BRR  HN ES       1027 49.88                             131    0.5410  115 360 
 BRR  HZ I        1027 52.45        15.3 0.64            130            115 360 
 NOR  HZ EP       1027 35.40                             125    0.13 9  140 247 
 NOR  HN ES       1027 54.41                             125    0.53 9  140 247 
 NOR  HZ I        1027 56.15        49.0 0.18            124            140 247 
 CHI  HZ EP       1027 37.34                             121   -0.34 9  159 181 
 CHI  HN ES       1027 57.42                             121   -0.74 9  159 181 
 PAM  SZ EP       1027 40.42                             118    0.54 9  179  38 
 PAM  SN ES       1028  1.60                             118   -0.47 9  179  38 
 PAM  SZ I        1028  4.11        14.8 0.16            118            179  38 
 HEL  HZ EP       1027 42.56                             115    0.33 9  202 274 
 HEL  HN ES       1028  5.52                             115   -0.74 9  202 274 
 HEL  HZ I        1028 12.22         9.3 0.22            114            202 274 
 ZAR  HZ EP       1027 41.62                             114   -0.17 9  202 321 
 ZAR  HN ES       1028  5.16                             114   -0.32 9  202 321 
 GUY2CHZ EP       1027 43.16                             114    0.35 8  206 243 
 GUY2CHN ES       1028  7.53                             114    0.23 8  206 243 
 GUY2CHZ I        1028 12.01         9.8 0.44                           206 243 
 TOL  SZ EP       1027 46.87                             110    0.09 8  243 228 
 TOL  SN ES       1028 14.21                             110   -0.15 8  243 228 
 TOL  SZ I        1028 16.99        20.2 0.56            110            243 228 
 OCA  HN ES       1028 14.22                             110    0.10 8  244  10 
 OCA  HZ I        1028 22.07        12.9 0.24            110            244  10 
 ANIL HN ES       1028 18.01                             109    0.91 8  257 227 
 ANIL HZ I        1028 21.00        19.9 0.36            109            257 227 
 URE  HZ EP   4   1027 49.32                             107   -0.71 0  274 313 
 URE  HE ES   4   1028 16.86                             107   -3.28 0  274 313 
 ORTC HZ EP       1027 52.54                             106    0.22 7  294 216 
 ORTC HN ES       1028 24.14                             106   -0.09 7  294 216 
 ORTC HZ I        1028 30.20        10.9 0.50            106            294 216 
 SML  HZ EP       1027 53.30                             105   -0.26 7  305 352 
 SML  HE ES       1028 25.49                             105   -0.93 7  305 352 
 SML  HZ I        1028 33.09        10.2 0.46            105            305 352 
                                                                                
