 2017 10 5 1920 47.5 L   6.799 -73.147145.6  RSN  7 0.1 1.7LRSN                1
 GAP=136        0.36       1.5     1.9  2.6 -0.3593E+00  0.2086E+01  0.7734E+00E
 Epicentro: LOS SANTOS - SANTANDER                                             3
 ACTION:UPD 17-11-07 19:28 OP:rebc STATUS:               ID:20171005192047 L   I
 OLDACT:REG 17-10-05 20:20 OP:dhb  STATUS:               ID:20171005191738     3
 2017-10-05-1918-00M.COL___444                                                 6
 STAT SP IPHASW D HRMM SECON CODA AMPLIT PERI AZIMU VELO AIN AR TRES W  DIS CAZ7
 BAR2 EZ IP     C 1921  6.94                             170   -0.1410 23.2 190 
 BAR2 EZ ES       1921 22.38                             170    0.0110 23.2 190 
 BAR2 EZ I        1921 23.63        10.9 0.22            168           23.2 190 
 PAM  EZ IP     D 1921  9.84                             151    0.1710 77.5  40 
 PAM  EN ES       1921 27.00                             151    0.0110 77.5  40 
 PAM  EZ I        1921 29.11        11.5 0.54            156           77.5  40 
 RUS  HZ EP       1921 11.07                             144   -0.1310  101 176 
 RUS  HN ES       1921 29.73                             144    0.0310  101 176 
 RUS  HZ I        1921 33.14         4.5 0.31            144            101 176 
 ZAR  HE ES       1921 45.10                             122   -0.09 9  204 292 
 ZAR  HZ I        1921 51.58         7.0 0.21            123            204 292 
 NOR  HZ EP       1921 23.10                             118   -0.07 8  235 234 
 NOR  HE ES       1921 51.13                             118    0.11 8  235 234 
 NOR  HZ I        1921 54.64         4.4 0.19            119            235 234 
 CHI  HZ EP       1921 25.02                             117   -0.13 8  249 195 
 CHI  HE ES       1921 54.60                             117    0.07 8  249 195 
 CHI  HZ I        1922  3.45         1.5 0.27            118            249 195 
 GUY2CHZ EP   1   1921 31.48                             112    0.43 5  301 235 
 GUY2CHE ES   4   1922  9.99                             112    4.94 0  301 235 
 GUY2CHZ I        1922 13.82         5.2 0.74                           301 235 
                                                                                
