 2016  8 5 1443 26.8 L   6.753 -73.137144.0  RSN  5 0.3 1.6LRSN                1
 GAP=159        0.71       5.9     3.4  5.7 -0.4548E+01  0.4326E+01  0.6756E+00E
 Epicentro: LOS SANTOS - SANTANDER                                             3
 ACTION:UPD 16-10-29 15:32 OP:rebc STATUS:               ID:20160805144326 L   I
 OLDACT:UP  16-08-05 23:17 OP:dani STATUS:               ID:20160805143759     3
 OLDACT:REG 16-08-05 20:21 OP:dani STATUS:               ID:20160805143759     3
 2016-08-05-1437-59S.COL___340                                                 6
 STAT SP IPHASW D HRMM SECON CODA AMPLIT PERI AZIMU VELO AIN AR TRES W  DIS CAZ7
 BAR2 EZ EP       1443 46.20                             172    0.0710 18.5 196 
 BAR2 EZ ES       1444  1.23                             172    0.0310 18.5 196 
 BAR2 EZ I        1444  2.06         6.3 0.30                          18.5 196 
 BRR  HZ EP       1443 48.28                             151    0.3210 74.7 302 
 BRR  HE ES       1444  4.76                             151    0.3010 74.7 302 
 BRR  HZ I        1444 11.92        10.2 0.32                          74.7 302 
 PAM  EZ EP       1443 49.28                             149    0.2410 80.8  37 
 PAM  HE ES       1444  5.95                             149   -0.4410 80.8  37 
 PAM  EZ I        1444  8.71         5.9 0.55                          80.8  37 
 PTB  HZ EP       1443 53.24                             132   -0.39 9  148 261 
 PTB  HE ES       1444 14.45                             132   -0.11 9  148 261 
 PTB  HZ I        1444 15.88         4.3 0.58                           148 261 
 ZAR  HZ EP   4   1444  0.96                             121    1.52 0  207 293 
 ZAR  HE ES       1444 24.78                             121   -0.11 8  207 293 
 ZAR  HZ I        1444 28.88         4.9 0.32                           207 293 
                                                                                
