 2017 12 5 1928 14.4 L   6.801 -73.198140.1  RSN  7 0.2 1.9LRSN                1
 GAP=130        0.52       2.3     2.6  3.9 -0.1408E+01  0.1913E+01  0.5084E+00E
 Epicentro: ZAPATOCA - SANTANDER                                               3
 ACTION:UPD 18-01-04 13:17 OP:rebc STATUS:               ID:20171205192814 L   I
 OLDACT:UP  17-12-05 23:21 OP:mg   STATUS:               ID:20171205192738     3
 OLDACT:UP  17-12-05 23:21 OP:mg   STATUS:               ID:20171205192738     3
 OLDACT:REG 17-12-05 21:27 OP:mg   STATUS:               ID:20171205192738     3
 2017-12-05-1928-00M.COL___492                                                 6
 STAT SP IPHASW D HRMM SECON CODA AMPLIT PERI AZIMU VELO AIN AR TRES W  DIS CAZ7
 BAR2 EZ EP       1928 33.59                             170    0.2110 23.2 176 
 BAR2 EZ ES       1928 48.22                             170    0.0710 23.2 176 
 BAR2 EZ I        1928 49.84        21.6 0.22            172           23.2 176 
 PAM  EZ EP   1   1928 36.19                             149   -0.09 7 81.1  43 
 PAM  EN ES       1928 53.40                             149    0.0910 81.1  43 
 PAM  EZ I        1928 56.46        12.6 0.28            151           81.1  43 
 RUS  HZ EP       1928 37.70                             142    0.0210  101 173 
 RUS  HN ES       1928 55.45                             142   -0.3610  101 173 
 RUS  HZ I        1928 56.96        12.1 0.27            145            101 173 
 PTB  HZ EP       1928 40.33                             132   -0.10 9  142 258 
 PTB  HN ES       1929  0.78                             132    0.08 9  142 258 
 PTB  HZ I        1929  3.58         9.9 0.20            132            142 258 
 SPBC HZ EP   1   1928 42.60                             128    0.43 7  160 217 
 SPBC HN ES   1   1929  3.73                             128   -0.07 7  160 217 
 SPBC HZ I        1929  6.59         9.3 0.15            130            160 217 
 OCA  HN ES   1   1929  3.64                             128   -0.28 7  160 355 
 OCA  HZ I        1929  4.78        26.0 0.13            130            160 355 
 ZAR  HZ EP   9   1928 47.66                             122    1.71 0  199 293 
 ZAR  HN ES       1929 12.49                             121    0.25 9  199 293 
 ZAR  HZ I        1929 14.74         6.0 0.10            123            199 293 
                                                                                
