 2013  9 5 1839 54.2 L   6.789 -73.130143.4  RSN  7 0.4 1.8LRSN                1
 GAP=157        0.88       5.1     4.9  7.4 -0.8955E+01  0.1083E+02 -0.2665E+01E
 Epicentro: LOS SANTOS - SANTANDER                                             3
 ACTION:UPD 13-10-22 09:20 OP:ep   STATUS:               ID:20130905183954 L   I
 OLDACT:REG 13-09-05 15:30 OP:jn   STATUS:               ID:20130905183959     3
 2013-09-05-1839-59M.COL___269                                                 6
 STAT SP IPHASW D HRMM SECON CODA AMPLIT PERI AZIMU VELO AIN AR TRES W  DIS CAZ7
 BAR2 SZ EP       1840 13.61                             171    0.1010 22.5 195 
 BAR2 SZ ES       1840 28.20                             171   -0.3810 22.5 195 
 BAR2 SZ I        1840 30.12        10.0 0.60            171           22.5 195 
 BRR  HZ EP       1840 15.33                             151    0.1310 73.3 299 
 BRR  HE ES   1   1840 32.07                             151    0.49 7 73.3 299 
 BRR  HZ I        1840 34.51        23.2 0.40            148           73.3 299 
 PAM  SZ EP       1840 16.56                             150    0.4210 77.2  38 
 PAM  SN ES       1840 33.06                             150   -0.2010 77.2  38 
 PAM  SZ I        1840 35.56         8.7 0.44            152           77.2  38 
 PTB  HZ EP       1840 20.46                             131   -0.63 9  149 259 
 PTB  HN ES   1   1840 41.78                             131   -0.30 7  149 259 
 PTB  HZ I        1840 46.89         6.9 0.24            131            149 259 
 OCA  HN ES   1   1840 44.43                             129   -0.05 7  162 353 
 SPBC HN ES   1   1840 45.30                             128    0.68 7  163 220 
 ZAR  HE ES   1   1840 52.16                             121    0.12 6  206 292 
 ZAR  HZ I        1840 58.00         5.4 0.44            122            206 292 
                                                                                
