 2016 10 5 1933 54.0 L   6.839 -73.165144.5  RSN  6 0.2 1.5LRSN                1
 GAP=278        0.55       3.8     3.1  4.2  0.8345E+00  0.4279E+01  0.2419E+01E
 Epicentro: LOS SANTOS - SANTANDER                                             3
 ACTION:UPD 16-11-09 19:16 OP:rebc STATUS:               ID:20161005193354 L   I
 OLDACT:REG 16-10-05 20:20 OP:lv   STATUS:               ID:20161005192742     3
 2016-10-05-1928-00M.COL___320                                                 6
 STAT SP IPHASW D HRMM SECON CODA AMPLIT PERI AZIMU VELO AIN AR TRES W  DIS CAZ7
 BAR2 EZ EP       1934 13.55                             169    0.0310 27.3 184 
 BAR2 EZ ES       1934 28.84                             169    0.0610 27.3 184 
 BAR2 EZ I        1934 29.67        12.0 0.26            167           27.3 184 
 RUS  HZ EP       1934 17.95                             142    0.0410  105 175 
 RUS  HN ES       1934 36.64                             142    0.0510  105 175 
 RUS  HZ I        1934 37.32         4.5 0.28            142            105 175 
 PTB  HZ EP       1934 20.33                             132   -0.38 9  147 257 
 PTB  HN ES       1934 41.49                             132   -0.09 9  147 257 
 PTB  HZ I        1934 43.43         2.2 0.08            131            147 257 
 NOR  HZ EP       1934 29.89                             118    0.19 8  235 233 
 NOR  HN ES       1934 57.68                             118    0.11 8  235 233 
 NOR  HZ I        1935  2.98         2.2 0.24            118            235 233 
 CHI  HZ EP       1934 32.24                             116    0.27 8  252 194 
 CHI  HN ES       1935  1.15                             116   -0.48 8  252 194 
 GUY2CHZ EP   4   1934 40.38                             112    2.79 0  302 234 
 GUY2CHN ES       1935 11.93                             112    0.30 7  302 234 
 GUY2CHZ I        1935 18.23         1.4 0.39                           302 234 
                                                                                
