 2015  6 5 1128 46.2 L   6.817 -73.228135.1  RSN 12 0.4 1.9LRSN                1
 GAP=172        0.91       2.4     4.5  6.1 -0.1465E+00  0.1280E+02  0.6018E+00E
 Epicentro: ZAPATOCA - SANTANDER                                               3
 ACTION:UPD 15-09-10 22:10 OP:cam  STATUS:               ID:20150605112846 L   I
 OLDACT:UP  15-06-05 22:22 OP:ar   STATUS:               ID:20150605112746     3
 OLDACT:REG 15-06-05 20:46 OP:ar   STATUS:               ID:20150605112746     3
 2015-06-05-1127-46M.COL___303                                                 6
 STAT SP IPHASW D HRMM SECON CODA AMPLIT PERI AZIMU VELO AIN AR TRES W  DIS CAZ7
 BAR2 EZ EP       1129  4.81                             169    0.1810 25.4 168 
 BAR2 EZ ES       1129 18.91                             169   -0.0710 25.4 168 
 BAR2 EZ I        1129 22.37        18.9 0.24            162           25.4 168 
 RUS  HZ EP       1129  9.32                             141    0.1410  104 171 
 RUS  HN ES       1129 26.94                             141   -0.1410  104 171 
 RUS  HZ I        1129 28.66         8.3 0.28            142            104 171 
 OCA  HN ES       1129 34.34                             128   -0.38 9  158 356 
 SPBC HZ EP       1129 13.41                             127   -0.14 9  159 216 
 SPBC HN ES       1129 35.32                             127    0.47 9  159 216 
 SPBC HZ I        1129 38.84        14.9 0.22            126            159 216 
 ZAR  HN ES       1129 41.47                             121    0.39 9  195 293 
 ZAR  HZ I        1129 51.01         6.3 0.44            120            195 293 
 NOR  HZ EP   4   1129 48.86                             117   28.17 0  228 233 
 NOR  HE ES   4   1130  6.24                             117   18.67 0  228 233 
 NOR  HZ I        1130 11.01         6.3 0.48            117            228 233 
 SML  HZ EP       1129 21.41                             116   -0.28 8  238 337 
 SML  HE ES       1129 49.59                             116    0.25 8  238 337 
 SML  HZ I        1129 53.35         8.1 0.30            118            238 337 
 CHI  HN ES       1129 52.26                             115    0.00 8  248 193 
 CHI  HZ I        1129 56.39         4.6 0.64            117            248 193 
 HEL  HN ES       1129 54.47                             113   -0.75 8  264 255 
 HEL  HZ I        1130  4.30         3.8 0.38            113            264 255 
 GUY2CHZ EP       1129 29.48                             111    0.82 7  295 233 
 GUY2CHE ES       1130  2.06                             111    0.32 7  295 233 
 GUY2CHZ I        1130 11.26         4.9 0.30                           295 233 
 TOL  SZ EP       1129 34.04                             108    0.53 7  339 223 
 TOL  SE ES       1130  9.55                             108   -0.83 7  339 223 
 TOL  SZ I        1130 21.27         3.7 0.34            109            339 223 
 PRA  HZ EP       1129 38.69                             105   -0.40 6  389 208 
 PRA  HN ES       1130 19.65                             105   -0.66 6  389 208 
 PRA  HZ I        1130 27.06         3.0 0.42            106            389 208 
                                                                                
