 2014 12 5 1430 23.4 L   6.792 -73.145146.0  RSN 26 0.4 2.7LRSN                1
 GAP= 71        0.89       2.4     2.4  4.0 -0.3094E+00  0.2840E+01  0.1600E+01E
 Epicentro: LOS SANTOS - SANTANDER                                             3
 ACTION:UPD 15-02-10 17:00 OP:nd   STATUS:               ID:20141205143023 L   I
 OLDACT:REG 14-12-05 20:47 OP:spq  STATUS:               ID:20141205142749     3
 2014-12-05-1427-49M.COL___300                                                 6
 STAT SP IPHASW D HRMM SECON CODA AMPLIT PERI AZIMU VELO AIN AR TRES W  DIS CAZ7
 BAR2 SZ EP       1430 42.88                             171   -0.1310 22.5 191 
 BAR2 SZ ES   1   1430 58.03                             171   -0.30 7 22.5 191 
 BAR2 SZ I        1430 59.55       125.8 0.20            167           22.5 191 
 BRR  HZ EP       1430 44.71                             152    0.1410 71.7 299 
 BRR  HE ES       1431  2.14                             152    1.0310 71.7 299 
 BRR  HZ I        1431  7.64        54.8 0.16            152           71.7 299 
 PAM  SZ EP       1430 45.74                             151    0.0910 78.0  39 
 PAM  SE ES       1431  2.72                             151   -0.3010 78.0  39 
 PAM  SZ I        1431  4.96        62.1 0.52            157           78.0  39 
 RUS  HZ EP       1430 46.83                             144   -0.2510 99.7 176 
 RUS  HN ES       1431  5.55                             144   -0.0310 99.7 176 
 RUS  HZ I        1431  6.35        38.7 0.42            144           99.7 176 
 PTB  HZ EP       1430 49.57                             132   -0.78 9  148 259 
 PTB  HN ES       1431 10.78                             132   -0.61 9  148 259 
 PTB  HZ I        1431 14.22        51.7 0.16            132            148 259 
 TAM  HZ IP     D 1430 51.11                             131    0.07 9  155 105 
 TAM  HN ES       1431 12.69                             131    0.07 9  155 105 
 TAM  HZ I        1431 13.32        23.6 0.32            135            155 105 
 OCA  HZ EP   1   1430 52.55                             130    0.77 7  161 353 
 OCA  HE ES       1431 14.12                             130    0.18 9  161 353 
 OCA  HZ I        1431 18.60        82.8 0.40            133            161 353 
 SPBC HZ EP       1430 51.84                             129    0.01 9  163 219 
 SPBC HE ES       1431 13.89                             129   -0.14 9  163 219 
 SPBC HZ I        1431 19.26        81.3 0.10            129            163 219 
 ZAR  HZ EP       1430 55.38                             122   -0.49 9  204 292 
 ZAR  HE ES       1431 21.26                             122    0.04 9  204 292 
 ZAR  HZ I        1431 26.44        75.9 0.34            124            204 292 
 NOR  HZ EP       1430 59.08                             119    0.01 8  234 235 
 NOR  HE ES       1431 27.01                             119    0.10 8  234 235 
 NOR  HZ I        1431 32.47        52.0 0.33            119            234 235 
 SML  HZ EP       1430 59.74                             117   -0.36 8  245 335 
 SML  HE ES   1   1431 28.32                             117   -0.42 6  245 335 
 SML  HZ I        1431 30.76        91.6 0.10            120            245 335 
 CHI  HZ EP     C 1431  1.00                             117    0.01 8  248 195 
 CHI  HN ES   1   1431 30.50                             117    0.16 6  248 195 
 CHI  HZ I        1431 36.06        15.5 0.48            118            248 195 
 ROSC BZ EP   1   1431  2.25                             117    0.82 6  252 211 
 ROSC BN ES   4   1431 34.03                             117    2.92 0  252 211 
 ROSC BZ I        1431 40.82        76.3 0.35            118            252 211 
 HEL  HZ EP       1431  3.62                             115    0.04 8  272 256 
 HEL  HN ES       1431 35.60                             115    0.66 8  272 256 
 HEL  HZ I        1431 42.40        36.3 0.38            116            272 256 
 GUY2CHZ EP       1431  7.08                             112    0.14 7  301 235 
 GUY2CHE ES   4   1431 44.89                             112    3.96 0  301 235 
 GUY2CHZ I        1431 49.40        37.1 0.46                           301 235 
 PTGC HZ EP   4   1431  5.84                             112   -1.30 0  308 159 
 PTGC HN ES   4   1431 39.57                             112   -1.71 0  308 159 
 PTGC HZ I        1431 45.41        27.5 0.56            114            308 159 
 RREF HZ EP       1431  9.75                             111    0.28 7  321 230 
 RREF HN ES   4   1431 48.42                             111    3.00 0  321 230 
 RREF HZ I        1431 52.68        28.2 0.26            112            321 230 
 CBOC HZ EP       1431 10.52                             110    0.25 7  333 252 
 CBOC HN ES   1   1431 46.92                             110    0.06 5  333 252 
 CBOC HZ I        1432  1.98        10.6 0.54            111            333 252 
 DBB  SZ EP       1431 10.47                             110   -0.40 7  340 274 
 DBB  SZ ES   1   1431 47.38                             110   -0.54 5  340 274 
 DBB  SZ I        1431 49.63        57.6 0.50            111            340 274 
 TOL  SZ EP       1431 12.19                             109    0.62 7  343 225 
 TOL  SE ES   4   1431 51.13                             109    1.96 0  343 225 
 TOL  SZ I        1431 55.08        58.5 0.32            110            343 225 
 MON  HZ EP   4   1431 10.19                             109   -2.26 0  354 308 
 MON  HE ES   4   1431 48.72                             109   -2.01 0  354 308 
 MON  HZ I        1431 51.12        18.8 0.66            110            354 308 
 ANIL HZ EP   1   1431 13.64                             109    0.52 5  357 225 
 ANIL HE ES   4   1431 53.19                             109    1.27 0  357 225 
 ANIL HZ I        1431 57.14         6.9 0.44            110            357 225 
 ORTC HZ EP       1431 17.09                             106   -0.13 6  395 216 
 ORTC HN ES   4   1432  0.31                             106    1.08 0  395 216 
 ORTC HZ I        1432  6.87        15.4 0.30            108            395 216 
 PAL  HZ EP       1431 18.45                             106   -0.04 6  405 239 
 PAL  HE ES   4   1431 55.51                             106   -5.98 0  405 239 
 PAL  HZ I        1432  8.62        10.2 0.24            107            405 239 
 SJC  HZ EP   4   1431 16.58                             106   -2.45 0  410 327 
 SJC  HN ES   4   1431 58.36                             106   -4.08 0  410 327 
 SJC  HZ I        1432  2.27         8.0 0.42            107            410 327 
 YOT  HZ EP       1431 25.60                             103   -0.76 5  471 229 
 YOT  HE ES   4   1432 19.33                             103    3.84 0  471 229 
                                                                                
