 2014 12 5 1203 44.0 L   6.808 -73.123147.8  RSN 14 0.4 1.9LRSN                1
 GAP=121        0.94       3.2     3.9  5.4 -0.8119E+00  0.3881E+01  0.3939E+01E
 Epicentro: LOS SANTOS - SANTANDER                                             3
 ACTION:UPD 15-02-10 17:00 OP:nd   STATUS:               ID:20141205120344 L   I
 OLDACT:REG 14-12-05 20:29 OP:spq  STATUS:               ID:20141205115747     3
 2014-12-05-1157-47M.COL___306                                                 6
 STAT SP IPHASW D HRMM SECON CODA AMPLIT PERI AZIMU VELO AIN AR TRES W  DIS CAZ7
 BAR2 SZ EP       12 4  4.02                             170    0.0710 24.7 196 
 BAR2 SZ ES   1   12 4 19.21                             170   -0.27 7 24.7 196 
 BAR2 SZ I        12 4 20.15        15.4 0.28            168           24.7 196 
 BRR  HZ EP       12 4  5.87                             152    0.3410 73.1 297 
 BRR  HN ES       12 4 22.93                             152    0.6510 73.1 297 
 BRR  HZ I        12 4 26.08        18.6 0.42            150           73.1 297 
 PAM  SZ EP       12 4  6.73                             152    0.3810 75.1  38 
 PAM  SE ES       12 4 23.53                             152   -0.2210 75.1  38 
 PAM  SZ I        12 4 26.07        12.7 0.50            157           75.1  38 
 RUS  HZ EP   1   12 4  7.97                             144   -0.08 7  101 178 
 RUS  HE ES   1   12 4 26.74                             144   -0.04 7  101 178 
 RUS  HZ I        12 4 28.22         6.9 0.44            145            101 178 
 PTB  HZ EP       12 4 10.68                             132   -0.74 9  150 259 
 PTB  HE ES       12 4 32.33                             132   -0.45 9  150 259 
 PTB  HZ I        12 4 38.64         7.7 0.31            131            150 259 
 SPBC HZ EP       12 4 13.11                             129    0.19 9  165 219 
 SPBC HN ES   1   12 4 35.18                             129   -0.26 7  165 219 
 SPBC HZ I        12 4 39.46        12.1 0.64            129            165 219 
 ZAR  HZ EP   1   12 4 16.19                             123   -0.65 6  206 292 
 ZAR  HN ES       12 4 41.92                             123   -0.50 8  206 292 
 ZAR  HZ I        12 4 47.09         6.9 0.36            123            206 292 
 NOR  HZ EP       12 4 20.72                             119    0.55 8  237 235 
 NOR  HN ES       12 4 48.96                             119    0.61 8  237 235 
 NOR  HZ I        12 4 54.51         5.2 0.18            119            237 235 
 SML  HZ EP   1   12 4 20.63                             118   -0.19 6  244 335 
 SML  HN ES   1   12 4 49.52                             118    0.01 6  244 335 
 SML  HZ I        12 4 53.00         8.6 0.10            119            244 335 
 CHI  HZ EP   1   12 4 21.97                             117   -0.05 6  250 196 
 CHI  HN ES       12 4 51.39                             117   -0.25 8  250 196 
 CHI  HZ I        12 4 54.98         4.9 0.62            119            250 196 
 GUY2CHZ EP   1   12 4 28.17                             112    0.13 5  304 235 
 GUY2CHN ES   4   12 5  3.82                             112    1.46 0  304 235 
 GUY2CHZ I        12 5 10.22         3.8 0.34                           304 235 
 PTGC HZ EP   1   12 4 27.20                             112   -0.78 5  309 159 
 PTGC HN ES   4   12 4 58.31                             112   -3.94 0  309 159 
 TOL  SZ EP       12 4 33.32                             109    0.66 6  346 225 
 TOL  SN ES   4   12 5 11.87                             109    1.29 0  346 225 
 TOL  SZ I        12 5 17.69         7.5 0.30            110            346 225 
 SJC  HZ EP   4   12 4 38.10                             106   -1.66 0  410 327 
 SJC  HE ES   4   12 5 18.67                             106   -4.54 0  410 327 
 SJC  HZ I        12 5 24.19         1.8 0.27            107            410 327 
                                                                                
