 2015 11 5 1648 52.0 L   6.779 -73.147148.9  RSN  9 0.4 1.9LRSN                1
 GAP=137        0.85       4.6     8.9  7.3  0.1064E+02  0.1028E+02 -0.9369E+01E
 Epicentro: LOS SANTOS - SANTANDER                                             3
 ACTION:UPD 15-12-28 16:08 OP:cam  STATUS:               ID:20151105164852 L   I
 OLDACT:REG 15-11-05 20:41 OP:ar   STATUS:               ID:20151105164750     3
 2015-11-05-1647-50M.COL___301                                                 6
 STAT SP IPHASW D HRMM SECON CODA AMPLIT PERI AZIMU VELO AIN AR TRES W  DIS CAZ7
 BAR2 EZ EP       1649 11.97                             171   -0.0310 21.0 191 
 BAR2 EZ ES       1649 27.02                             171   -0.5610 21.0 191 
 BAR2 EZ I        1649 27.89        14.3 0.30            167           21.0 191 
 BRR  HZ EP       1649 14.09                             153    0.5110 72.2 300 
 BRR  HN ES   2   1649 31.28                             153    0.89 5 72.2 300 
 BRR  HZ I        1649 33.20        27.6 0.60            148           72.2 300 
 PAM  EZ EP     C 1649 14.95                             151    0.2510 79.3  39 
 PAM  EN ES   2   1649 32.62                             151    0.24 5 79.3  39 
 PAM  EZ I        1649 34.70         6.3 0.44            155           79.3  39 
 RUS  HZ EP   2   1649 16.15                             145    0.22 5 98.2 176 
 RUS  HN ES   2   1649 34.64                             145    0.07 5 98.2 176 
 RUS  HZ I        1649 35.42        10.6 0.34            145           98.2 176 
 ZAR  HN ES   4   1649 53.55                             123    3.25 0  205 293 
 ZAR  HZ I        1649 56.34        11.8 0.30            121            205 293 
 CHI  HZ EP   2   1649 29.99                             118    0.33 4  246 195 
 CHI  HN ES   2   1649 58.76                             118   -0.25 4  246 195 
 CHI  HZ I        1650  4.73         2.0 0.36            118            246 195 
 SML  HZ EP       1649 28.42                             118   -0.64 8  246 336 
 SML  HN ES       1649 57.73                             118   -0.22 8  246 336 
 SML  HZ I        1650  1.93        14.7 0.24            117            246 336 
 URE  HN ES   4   1650  9.23                             114    3.67 0  285 292 
 URE  HZ I        1650 10.22         4.8 0.24            113            285 292 
 GUY2CHE ES   4   1650 13.59                             113    3.96 0  300 235 
 GUY2CHZ I        1650 15.23         2.8 0.36                           300 235 
                                                                                
