 2013  7 5 1456  0.2 L   6.775 -73.169142.5  RSN  4 0.5 1.2LRSN                1
 GAP=145        1.10      11.0     7.2  9.3 -0.3362E+02  0.5130E+01  0.5130E+01E
 Epicentro: LOS SANTOS - SANTANDER                                             3
 ACTION:UPD 13-08-12 10:35 OP:ep   STATUS:               ID:20130705145600 L   I
 OLDACT:REG 13-07-05 16:19 OP:jn   STATUS:               ID:20130705144959     3
 2013-07-05-1449-59M.COL___267                                                 6
 STAT SP IPHASW D HRMM SECON CODA AMPLIT PERI AZIMU VELO AIN AR TRES W  DIS CAZ7
 BAR2 SZ EP       1456 19.66                             172    0.2810 20.3 184 
 BAR2 SZ ES       1456 34.32                             172   -0.0310 20.3 184 
 BAR2 SZ I        1456 35.92         2.8 0.17            172           20.3 184 
 BRR  HZ EP       1456 21.30                             152    0.3510 70.3 301 
 BRR  HN ES       1456 37.70                             152    0.5610 70.3 301 
 PAM  SZ EP     D 1456 22.44                             149    0.1410 81.1  40 
 PAM  SN ES       1456 38.94                             149   -0.6010 81.1  40 
 PAM  SZ I        1456 41.42         3.9 0.48            151           81.1  40 
 PTB  HZ EP   1   1456 25.97                             132   -0.66 7  145 260 
 PTB  HN ES   1   1456 46.50                             132   -0.75 7  145 260 
 PTB  HZ I        1456 50.27         2.5 0.26            133            145 260 
                                                                                
