 2013  2 5 1448 56.5 L   6.816 -73.163145.3  RSN  5 0.3 1.5LRSN                1
 GAP=134        0.57       3.7     3.6  4.8 -0.3415E+01  0.2603E+01  0.2193E-02E
 Epicentro: LOS SANTOS - SANTANDER                                             3
 ACTION:UPD 13-03-12 09:30 OP:ep   STATUS:               ID:20130205144856 L   I
 2013-02-05-1440-00M.COL___240                                                 6
 STAT SP IPHASW D HRMM SECON CODA AMPLIT PERI AZIMU VELO AIN AR TRES W  DIS CAZ7
 BAR2 SZ EP   1   1449 15.66                             170   -0.45 7 24.8 185 
 BAR2 SZ ES       1449 31.39                             170    0.0010 24.8 185 
 BAR2 SZ I        1449 32.74         9.6 0.48            168           24.8 185 
 BRR  HZ EP   1   1449 17.96                             153    0.50 7 68.6 298 
 BRR  HE ES   1   1449 33.68                             153   -0.12 7 68.6 298 
 BRR  HZ I        1449 35.87         9.8 0.45            153           68.6 298 
 PAM  SZ EP       1449 18.83                             151    0.1710 77.3  41 
 PAM  SZ I        1449 19.21         5.6 0.20            154           77.3  41 
 PAM  SN ES       1449 35.85                             151   -0.0910 77.3  41 
 RUS  HZ EP   1   1449 20.33                             143   -0.02 7  103 175 
 RUS  HE ES   1   1449 39.11                             143    0.17 7  103 175 
 RUS  HE I        1449 41.24         3.2 0.32            143            103 175 
 PTB  HZ EP   1   1449 22.92                             132   -0.37 7  146 258 
 PTB  HN ES   1   1449 44.30                             132    0.12 7  146 258 
 PTB  HZ I        1449 47.07         2.5 0.39            132            146 258 
                                                                                
