 2013 12 5 1330 19.7 L   6.781 -73.150151.1  RSN  6 0.4 1.6LRSN                1
 GAP=137        0.92       4.9     4.4  6.8  0.4069E+00  0.4425E+01  0.1435E+01E
 Epicentro: LOS SANTOS - SANTANDER                                             3
 ACTION:UPD 14-01-13 10:16 OP:ep   STATUS:               ID:20131205133019 L   I
 OLDACT:UP  13-12-05 17:14 OP:cam  STATUS:               ID:20131205132847     3
 OLDACT:REG 13-12-05 17:12 OP:cam  STATUS:               ID:20131205132847     3
 2013-12-05-1328-47M.COL___250                                                 6
 STAT SP IPHASW D HRMM SECON CODA AMPLIT PERI AZIMU VELO AIN AR TRES W  DIS CAZ7
 BAR2 SZ EP       1330 39.76                             172   -0.1410 21.2 190 
 BAR2 SZ ES       1330 55.59                             172   -0.1010 21.2 190 
 BAR2 SZ I        1330 55.90        13.8 0.26            171           21.2 190 
 BRR  HZ EP   1   1330 41.86                             153    0.43 7 71.8 300 
 BRR  HN ES       1330 59.04                             153    0.6410 71.8 300 
 PAM  SZ EP       1330 42.57                             151    0.0110 79.3  39 
 PAM  SE ES       1331  0.01                             151   -0.4210 79.3  39 
 PAM  SZ I        1331  1.89         8.0 0.20            153           79.3  39 
 RUS  HZ EP       1330 44.14                             145    0.3310 98.6 176 
 RUS  HN ES       1331  2.77                             145    0.1310 98.6 176 
 RUS  HZ I        1331  3.74         2.9 0.40            146           98.6 176 
 PTB  HZ EP       1330 46.75                             133   -0.25 9  147 260 
 PTB  HN ES       1331  7.69                             133   -0.63 9  147 260 
 PTB  HZ I        1331 13.54         6.1 0.26            133            147 260 
 ZAR  HN ES   1   1331 18.30                             123    0.19 6  204 293 
                                                                                
