 2012 11 5 1411 36.7 L   6.801 -73.133145.8  RSN 12 0.5 2.5LRSN                1
 GAP=138        0.90       3.4     4.7  6.1 -0.1549E+01  0.9481E+01  0.6710E+01E
 Epicentro: LOS SANTOS - SANTANDER                                             3
 ACTION:UPD 12-12-05 15:31 OP:}ep  STATUS:               ID:20121105141136 L   I
 2012-11-05-1410-00M.COL___230                                                 6
 STAT SP IPHASW D HRMM SECON CODA AMPLIT PERI AZIMU VELO AIN AR TRES W  DIS CAZ7
 BAR2 SZ IP     C 1411 56.35                             170   -0.0210 23.7 193 
 BAR2 SZ ES   1   1412 11.43                             170   -0.27 7 23.7 193 
 BAR2 SZ I        1412 12.95       103.9 0.22                          23.7 193 
 GIR2 SZ EP       1411 56.42                             167    0.0110 31.5 348 
 GIR2 SZ ES   1   1412 11.63                             167   -0.14 7 31.5 348 
 BRR  HZ EP   1   1411 58.17                             152    0.22 7 72.4 298 
 BRR  HN ES   1   1412 15.55                             152    1.04 7 72.4 298 
 BRR  HN I        1412 16.03        93.0 0.30                          72.4 298 
 PAM  SZ EP       1411 59.23                             151    0.3410 76.4  39 
 PAM  SN ES   1   1412 16.00                             151   -0.18 7 76.4  39 
 PAM  SN I        1412 18.66        36.0 0.50                          76.4  39 
 RUS  HZ EP       1412  0.20                             144   -0.2810  101 177 
 RUS  HN ES   1   1412 18.81                             144   -0.20 7  101 177 
 RUS  HN I        1412 21.21        18.9 0.16                           101 177 
 OCA  HE ES   1   1412 26.76                             130   -0.39 7  160 353 
 OCA  HE I        1412 32.73        56.8 0.46                           160 353 
 ZAR  HZ EP   1   1412  8.64                             122   -0.67 6  205 292 
 ZAR  HE ES   1   1412 34.40                             122   -0.33 6  205 292 
 ZAR  HE I        1412 36.58        55.9 0.18                           205 292 
 CHI  HZ EP   1   1412 14.39                             117   -0.09 6  249 195 
 CHI  HN ES   1   1412 43.52                             117   -0.40 6  249 195 
 CHI  HN I        1412 46.14        20.0 0.40                           249 195 
 ROSC BZ EP   1   1412 15.87                             117    0.93 6  254 211 
 ROSC BN ES   1   1412 45.91                             117    1.17 6  254 211 
 ROSC BZ I        1412 51.17        13.3 0.40                           254 211 
 HEL  HZ EP   1   1412 17.60                             115    0.50 6  273 256 
 HEL  HE ES   1   1412 47.97                             115   -0.62 6  273 256 
 HEL  HE I        1412 55.60         8.2 0.24                           273 256 
 RREF HZ EP   1   1412 23.37                             111    0.37 5  323 230 
 RREF HN ES   1   1412 58.47                             111   -0.62 5  323 230 
 RREF HZ I        1413  7.01         9.1 0.26                           323 230 
 PRA  HZ EP   1   1412 29.96                             106   -0.38 4  393 210 
 PRA  HE ES   1   1413 11.73                             106   -0.43 4  393 210 
 PRA  HE I        1413 17.02        12.9 0.38                           393 210 
                                                                                
