 2012  1 5 1633 42.2 L   6.796 -73.127150.5  RSN  5 0.2 1.5LRSN                1
 GAP=139        0.64       6.0     8.6  6.0  0.1706E+02  0.4957E+01  0.6663E+01E
 Epicentro: LOS SANTOS - SANTANDER                                             3
 ACTION:UP  12-02-03 08:14 OP:REBC STATUS:               ID:20120105163342 L   I
 2012-01-05-1630-00M.COL___189                                                 6
 STAT SP IPHASW D HRMM SECON CODA AMPLIT PERI AZIMU VELO SNR AR TRES W  DIS CAZ7
 BAR2 SZ EP       1634  2.61                             171     0.210   23 195 
 BAR2 SZ ES       1634 18.01                             171    -0.110   23 195 
 BAR2 SZ I        1634 19.08         7.2 0.24                            23 195 
 GIR2 SZ ES   1   1634 18.06                             168    -0.2 7   32 347 
 BRR  HZ EP       1634  3.61                             153    -0.410   73 298 
 BRR  HN ES   1   1634 21.40                             153     0.4 7   73 298 
 BRR  HZ I        1634 24.15         8.7 0.42                            73 298 
 PAM  SZ EP   3   1634  5.00                             152     0.1 2   76  38 
 PAM  SN ES   2   1634 22.67                             152     0.1 5   76  38 
 RUS  HZ EP   1   1634  6.52                             145     0.2 7  100 177 
 RUS  HE ES   2   1634 25.21                             145     0.0 5  100 177 
 RUS  HZ I        1634 27.02         2.6 0.30                           100 177 
                                                                                
