 2011  7 5 1853  3.3 L   6.770 -73.093147.0  RSN  9 0.4 1.9LRSN                1
 GAP=145        0.78       3.7     6.1  5.7 -0.9040E+01  0.5662E+01  0.6941E+00E
 Epicentro: LOS SANTOS - SANTANDER                                             3
 ACTION:UPD 12-07-25 13:58 OP:epov STATUS:               ID:20110705185303 L   I
 2011-07-05-1852-10S.COL___140                                                 6
 STAT SP IPHASW D HRMM SECON CODA AMPLIT PERI AZIMU VELO AIN AR TRES W  DIS CAZ7
 BAR2 SZ EP       1853 23.11                             171    0.0710 22.0 207 
 BAR2 SZ I        1853 23.43        21.3 0.20                          22.0 207 
 BAR2 SZ ES   1   1853 37.87                             171   -0.58 7 22.0 207 
 PAM  SZ EP       1853 25.88                             151    0.3010 76.5  35 
 PAM  SE ES       1853 43.08                             151    0.1010 76.5  35 
 PAM  SZ I        1853 45.32         6.6 0.15                          76.5  35 
 BRR  HZ EP       1853 25.03                             150    0.0710 78.0 299 
 BRR  HN ES   1   1853 42.43                             150    0.56 7 78.0 299 
 BRR  HZ I        1853 47.02        24.2 0.13                          78.0 299 
 RUS  HZ EP       1853 26.92                             145    0.0210 97.0 179 
 RUS  HE ES   1   1853 45.72                             145    0.39 7 97.0 179 
 RUS  HZ I        1853 47.53        10.5 0.41                          97.0 179 
 BRI  SZ EP   1   1853 27.54                             141    0.15 7  110  17 
 GRA  SZ EP   1   1853 28.16                             137   -0.61 7  127  14 
 GRA  SZ ES   1   1853 47.85                             137   -0.81 7  127  14 
 GRA  SZ I        1853 51.83        16.3 0.64                           127  14 
 OCA  SZ EP   1   1853 32.40                             129    0.32 7  164 351 
 OCA  SZ I        1853 59.59        11.4 0.96                           164 351 
 NOR  SZ EP   1   1853 39.16                             118   -0.24 6  238 236 
 NOR  SE ES   2   1854  7.13                             118   -0.44 4  238 236 
 CHI  HZ EP   2   1853 40.94                             117    0.06 4  247 197 
 CHI  HE ES   2   1854  9.51                             117   -0.69 4  247 197 
 CHI  HZ I        1854 16.47         5.8 0.26                           247 197 
                                                                                
