 2012 12 5 1049 17.0 L   7.131 -73.011167.4  RSN 13 0.6 3.0LRSN 3.4WRSN        1
 SPEC AVERAGE  MO 14.1 ST 46.2 OM  2.9 f0 6.06 R0.2693 AL 4.56 WI 12.6 MW  3.4 3
 SPEC SD       MO  0.2 ST 31.4 OM  0.6 f0 1.64 R0.1003 AL      WI      MW  0.1 3
 GAP= 65        1.29       3.9     4.4  6.3  0.3758E+01  0.6823E+01 -0.6941E+00E
 Epicentro: TONA - SANTANDER                                                   3
 SPEC URE HH N MO 14.0 ST 54.6 OM  2.1 f0 7.24 R0.2030 AL 6.76 WI 13.4 MW  3.3 3
 SPEC URE HH N T105030 K 0.000 GD  332 VS 4.20 DE 3.20 Q0300.0 QA 0.60 VS 4.20 3
 SPEC ZAR HH N MO 14.2 ST 93.8 OM  2.4 f0 7.41 R0.1984 AL 2.74 WI 14.0 MW  3.4 3
 SPEC ZAR HH N T105018 K 0.000 GD  266 VS 4.20 DE 3.20 Q0300.0 QA 0.60 VS 4.20 3
 SPEC PAM SH N MO 13.8 ST 23.2 OM  2.2 f0 6.27 R0.2344 AL 6.65 WI  8.5 MW  3.2 3
 SPEC PAM SH N T104956 K 0.000 GD  172 VS 4.20 DE 3.20 Q0300.0 QA 0.60 VS 4.20 3
 SPEC OCA HH N MO 14.4 ST 13.4 OM  2.7 f0 3.33 R0.4414 AL 2.10 WI 14.3 MW  3.6 3
 SPEC OCA HH N T1050 5 K 0.000 GD  210 VS 4.20 DE 3.20 Q0300.0 QA 0.60 VS 4.20 3
 ACTION:UPD 13-01-04 14:25 OP:ep   STATUS:               ID:20121205104917 L   I
 2012-12-05-1047-47M.COL___187                                                 6
 STAT SP IPHASW D HRMM SECON CODA AMPLIT PERI AZIMU VELO AIN AR TRES W  DIS CAZ7
 GIR2 SZ IP       1049 39.72                             173    0.6710 20.9 254 
 GIR2 SZ ES       1049 56.65                             173    0.4010 20.9 254 
 GIR2 SZ I        1049 58.05       251.9 0.64                          20.9 254 
 PAM  SZ IP     C 1049 40.32                             166    0.2710 41.4  56 
 PAM  SN ES       1049 57.77                             166   -0.2510 41.4  56 
 PAM  SN I        1049 58.72       208.6 0.18                          41.4  56 
 BAR2 SZ EP     D 1049 40.96                             159    0.5010 62.5 198 
 BAR2 SZ ES       1049 57.93                             159   -0.8310 62.5 198 
 BAR2 SZ I        1050  0.31       178.0 0.20                          62.5 198 
 OCA  HZ EP       1049 44.57                             141    0.2210  127 345 
 OCA  HN ES       1050  5.89                             141    0.2110  127 345 
 OCA  HN I        1050  8.20       409.9 0.34                           127 345 
 RUS  HZ EP       1049 46.11                             139    0.51 9  137 183 
 RUS  HN ES       1050  7.61                             139   -0.29 9  137 183 
 RUS  HN I        1050  9.02        98.6 0.40                           137 183 
 TAM  HZ IP     D 1049 46.84                             135    0.36 9  155 120 
 TAM  HN ES       1050  9.11                             135   -0.37 9  155 120 
 TAM  HN I        1050 10.34        38.2 0.48                           155 120 
 PTB  HZ EP     C 1049 48.09                             132    0.10 9  173 248 
 PTB  HN ES       1050 12.40                             132    0.25 9  173 248 
 PTB  HN I        1050 14.65        90.4 0.50                           173 248 
 ZAR  HZ EP       1049 51.91                             126    0.59 8  208 281 
 ZAR  HN ES       1050 18.48                             126    0.40 8  208 281 
 ZAR  HN I        1050 21.80       270.0 0.22                           208 281 
 SML  HZ EP       1049 51.94                             125   -0.43 8  219 328 
 SML  HN ES       1050 19.47                             125   -0.48 8  219 328 
 SML  HN I        1050 26.10       196.4 0.30                           219 328 
 URE  HZ EP       1049 58.85                             117   -0.67 7  287 284 
 URE  HN ES       1050 31.95                             117   -0.73 7  287 284 
 URE  HN I        1050 34.13       126.2 0.20                           287 284 
 CHI  HZ EP       1050  0.13                             117   -0.03 7  288 196 
 CHI  HN ES       1050 32.85                             117   -0.97 7  288 196 
 CHI  HN I        1050 36.45        12.3 0.32                           288 196 
 COD  HZ EP       1050  0.98                             115   -1.48 7  314 351 
 COD  HN ES   4   1050 35.33                             115   -2.59 0  314 351 
 COD  HN I        1050 41.77        14.3 0.46                           314 351 
 DBB  SZ EP       1050  7.75                             112    0.72 6  354 268 
 SJC  HN ES   4   1050 50.60                             110   -2.37 0  388 322 
                                                                                
