 2013  2 5 1317 38.4 L   7.261 -73.048154.9  RSN  6 0.4 1.7LRSN                1
 GAP=160        0.76       5.9     4.6  7.2  0.3797E+00  0.4815E+01 -0.7755E+00E
 Epicentro: CHARTA - SANTANDER                                                 3
 ACTION:UPD 13-03-12 09:30 OP:ep   STATUS:               ID:20130205131738 L   I
 2013-02-05-1314-52M.COL___167                                                 6
 STAT SP IPHASW D HRMM SECON CODA AMPLIT PERI AZIMU VELO AIN AR TRES W  DIS CAZ7
 PAM  SZ EP       1318  0.14                             165    0.2410 39.5  77 
 PAM  SZ I        1318  0.46         8.0 0.14            171           39.5  77 
 PAM  SN ES   1   1318 16.14                             165   -0.54 7 39.5  77 
 BRR  HZ EP       1318  0.93                             153    0.1810 75.2 257 
 BRR  HZ I        1318  1.24        11.0 0.19            149           75.2 257 
 BRR  HE ES   1   1318 18.91                             153    0.71 7 75.2 257 
 BAR2 SZ EP   1   1318  1.03                             153   -0.08 7 75.4 191 
 BAR2 SZ ES   1   1318 18.86                             153    0.03 7 75.4 191 
 BAR2 SZ I        1318 20.07        12.4 0.21            152           75.4 191 
 RUS  HZ EP   1   1318  7.16                             134    0.07 7  151 181 
 RUS  HE ES   1   1318 29.16                             134   -0.31 7  151 181 
 RUS  HE I        1318 30.89         4.1 0.33            134            151 181 
 PTB  HZ EP   1   1318  8.33                             129   -0.27 7  175 243 
 PTB  HE ES   1   1318 32.23                             129    0.07 7  175 243 
 PTB  HZ I        1318 36.46         2.7 0.33            127            175 243 
 ZAR  HN ES   1   1318 36.06                             125   -0.70 6  201 277 
 ZAR  HN I        1318 43.37        12.1 0.39            123            201 277 
                                                                                
