 2012 12 5 1400 50.3 L   6.822 -73.146145.3  RSN 16 0.5 2.8LRSN 3.1WRSN        1
 SPEC AVERAGE  MO 13.8 ST 11.1 OM  2.6 f0 4.58 R0.3535 AL 3.41 WI 19.7 MW  3.1 3
 SPEC SD       MO  0.2 ST  9.8 OM  0.6 f0 1.26 R0.1239 AL      WI      MW  0.2 3
 GAP= 70        1.12       2.8     3.3  5.8 -0.3776E+00  0.5666E+01  0.2003E+01E
 Epicentro: LOS SANTOS - SANTANDER                                             3
 SPEC PTB HH N MO 13.6 ST  9.5 OM  1.9 f0 5.51 R0.2668 AL 5.46 WI 21.6 MW  3.0 3
 SPEC PTB HH N T14 136 K 0.000 GD  207 VS 4.20 DE 3.20 Q0300.0 QA 0.60 VS 4.20 3
 SPEC HEL HH N MO 13.4 ST  2.5 OM  1.5 f0 4.23 R0.3475 AL 2.38 WI 22.9 MW  2.9 3
 SPEC HEL HH N T14 2 1 K 0.000 GD  309 VS 4.20 DE 3.20 Q0300.0 QA 0.60 VS 4.20 3
 SPEC NOR HH N MO 13.9 ST 28.6 OM  2.1 f0 6.20 R0.2371 AL 3.70 WI 20.5 MW  3.2 3
 SPEC NOR HH N T14 153 K 0.000 GD  277 VS 4.20 DE 3.20 Q0300.0 QA 0.60 VS 4.20 3
 SPEC OCA HH N MO 14.0 ST 13.2 OM  2.3 f0 4.48 R0.3281 AL 2.86 WI 16.2 MW  3.3 3
 SPEC OCA HH N T14 139 K 0.000 GD  214 VS 4.20 DE 3.20 Q0300.0 QA 0.60 VS 4.20 3
 SPEC PAM SH N MO 13.8 ST  1.4 OM  2.2 f0 2.50 R0.5880 AL 2.67 WI 17.5 MW  3.2 3
 SPEC PAM SH N T14 128 K 0.000 GD  163 VS 4.20 DE 3.20 Q0300.0 QA 0.60 VS 4.20 3
 ACTION:UPD 13-01-04 14:25 OP:ep   STATUS:               ID:20121205140050 L   I
 2012-12-05-1400-00M.COL___237                                                 6
 STAT SP IPHASW D HRMM SECON CODA AMPLIT PERI AZIMU VELO AIN AR TRES W  DIS CAZ7
 BAR2 SZ EP     D 14 1 10.06                             169    0.1010 25.7 189 
 GIR2 SZ EP       14 1 10.07                             168    0.1810 28.9 349 
 GIR2 SZ ES       14 1 25.32                             168    0.1810 28.9 349 
 PAM  SZ EP     C 14 1 12.84                             151    0.4510 75.5  41 
 PAM  SN ES       14 1 29.66                             151    0.0710 75.5  41 
 PAM  SN I        14 1 30.98        73.8 0.28                          75.5  41 
 RUS  HZ EP     C 14 1 14.05                             143   -0.1610  103 176 
 RUS  HN ES       14 1 32.32                             143   -0.5210  103 176 
 RUS  HN I        14 1 33.32        63.8 0.26                           103 176 
 PTB  HZ EP       14 1 16.66                             132   -0.65 9  148 258 
 PTB  HN ES       14 1 37.67                             132   -0.67 9  148 258 
 PTB  HN I        14 1 42.90        55.1 0.60                           148 258 
 TAM  HZ EP     C 14 1 18.37                             130    0.34 9  156 106 
 TAM  HE ES       14 1 39.71                             130    0.07 9  156 106 
 OCA  HZ EP       14 1 18.20                             130   -0.18 9  158 353 
 OCA  HE ES       14 1 39.97                             130   -0.28 9  158 353 
 OCA  HN I        14 1 43.00       226.3 0.20                           158 353 
 ZAR  HZ EP       14 1 23.23                             122    0.58 9  203 292 
 ZAR  HN ES       14 1 47.67                             122   -0.19 9  203 292 
 ZAR  HN I        14 1 55.55        81.6 0.28                           203 292 
 NOR  HZ EP       14 1 26.25                             118    0.06 8  236 234 
 NOR  HN ES       14 1 54.48                             118    0.33 8  236 234 
 NOR  HN I        14 2  1.41        87.1 0.18                           236 234 
 SML  HZ EP       14 1 25.96                             117   -0.73 8  241 335 
 SML  HN ES       14 1 55.85                             117    0.80 8  241 335 
 CHI  HZ EP       14 1 27.40                             117   -0.86 8  251 195 
 CHI  HN ES       14 1 57.87                             117    0.03 8  251 195 
 CHI  HN I        14 2  3.57        42.9 0.44                           251 195 
 ROSC BZ EP       14 1 29.68                             116    1.03 8  255 211 
 HEL  HN ES       14 2  2.70                             114    0.71 8  273 255 
 HEL  HN I        14 2  8.08        19.6 0.34                           273 255 
 DBB  SZ EP       14 1 37.59                             109   -0.18 7  339 274 
 COD  HZ EP       14 1 37.63                             109   -0.78 6  346 355 
 COD  HN I        14 2 20.76         9.2 0.54                           346 355 
 PRA  HZ EP       14 1 43.91                             106   -0.17 6  394 209 
 PRA  HE ES       14 2 26.74                             106    0.73 6  394 209 
 PRA  HN I        14 2 31.33        26.8 0.72                           394 209 
                                                                                
