 2011  4 5 1145 47.0 L   6.782 -73.045145.1  RSN  6 0.5 1.9LRSN                1
 GAP=208        0.97       7.7    16.5 10.9  0.8126E+01 -0.6373E+02 -0.3397E+01E
 Epicentro: LOS SANTOS - SANTANDER                                             3
 ACTION:UP  11-06-22 15:29 OP:REBC STATUS:               ID:20110405114547 L   I
 2011-04-05-1140-37S.COL___122                                                 6
 STAT SP IPHASW D HRMM SECON CODA AMPLIT PERI AZIMU VELO SNR AR TRES W  DIS CAZ7
 BAR2 SZ EP       1146  6.55                             170    -0.110   26 216 
 BAR2 SZ I        1146  6.89        16.2 0.13                            26 216 
 BAR2 SZ ES   2   1146 21.91                             170     0.0 5   26 216 
 BTL  SZ EP       1146  7.18                             169     0.510   29 302 
 GIR2 SZ EP   2   1146  7.77                             165     1.0 5   37 333 
 GIR2 SZ ES   2   1146 21.19                             165    -1.0 5   37 333 
 BRR  HZ EP       1146  8.51                             149    -0.210   82 296 
 BRR  HZ I        1146  8.70        17.3 0.21                            82 296 
 BRR  HN ES   1   1146 25.91                             149     0.2 7   82 296 
 OCA  SZ EP       1146 15.34                             129    -0.3 9  164 349 
 OCA  SZ I        1146 43.03        12.0 0.30                           164 349 
 CHI  HZ EP   2   1146 24.47                             117    -0.3 4  250 198 
 CHI  HZ I        1146 26.20         2.7 0.13                           250 198 
 CHI  HN ES   2   1146 53.84                             117    -0.4 4  250 198 
                                                                                
