 2016  8 5 1058 56.8 L   6.696 -73.177152.0  RSN  5 0.5 1.3LRSN                1
 GAP=137        1.04       6.8     6.1 10.0  0.1706E+02 -0.1057E+02 -0.1731E+02E
 Epicentro: VILLANUEVA - SANTANDER                                             3
 ACTION:UPD 16-10-29 15:32 OP:rebc STATUS:               ID:20160805105856 L   I
 OLDACT:UP  16-08-05 21:33 OP:dani STATUS:               ID:20160805105760d    3
 OLDACT:UP  16-08-05 21:33 OP:dani STATUS:               ID:20160805105760d    3
 OLDACT:DUP 16-08-05 21:27 OP:dani STATUS:               ID:20160805105760d    3
 OLDACT:UP  16-08-05 21:23 OP:dani STATUS:               ID:20160805105759     3
 OLDACT:UP  16-08-05 21:19 OP:dani STATUS:               ID:20160805105759     3
 OLDACT:UP  16-08-05 21:19 OP:dani STATUS:               ID:20160805105759     3
 OLDACT:UP  16-08-05 21:16 OP:dani STATUS:               ID:20160805105759     3
 OLDACT:REG 16-08-05 19:57 OP:dani STATUS:               ID:20160805105759     3
 2016-08-05-1057-59S.COL___331                                                 6
 STAT SP IPHASW D HRMM SECON CODA AMPLIT PERI AZIMU VELO AIN AR TRES W  DIS CAZ7
 BRR  HZ EP       1059 19.13                             153    0.3010 74.6 308 
 BRR  HN ES       1059 36.35                             153    0.3510 74.6 308 
 BRR  HZ I        1059 37.31         6.6 0.35                          74.6 308 
 PAM  EZ EP       1059 19.74                             149   -0.6410 88.6  37 
 RUS  HZ EP       1059 20.72                             148    0.2810 89.4 173 
 RUS  HE ES       1059 38.95                             148    0.0910 89.4 173 
 RUS  HZ I        1059 40.65         1.8 0.34                          89.4 173 
 PTB  HZ EP       1059 23.72                             135   -0.12 9  142 263 
 PTB  HN ES       1059 44.26                             135   -0.66 9  142 263 
 PTB  HZ I        1059 45.67         2.5 0.10                           142 263 
 ZAR  HZ EP   2   1059 31.02                             124    1.19 4  206 295 
 ZAR  HN ES       1059 55.71                             124    0.14 8  206 295 
 ZAR  HZ I        11 0  0.24         2.1 0.28                           206 295 
                                                                                
