 2011  9 5 1631 49.5 L   6.747 -73.173152.3  RSN  5 0.2 1.6LRSN                1
 GAP=177        0.44       7.6     6.9  5.7  0.4029E+02  0.1107E+01 -0.8293E+01E
 Epicentro: VILLANUEVA - SANTANDER                                             3
 ACTION:UPD 12-07-13 15:55 OP:ep   STATUS:               ID:20110905163149 L   I
 2011-09-05-1627-23S.COL___170                                                 6
 STAT SP IPHASW D HRMM SECON CODA AMPLIT PERI AZIMU VELO AIN AR TRES W  DIS CAZ7
 BAR2 SZ EP   1   1632  9.75                             173   -0.08 7 17.2 183 
 BAR2 SZ I        1632 10.61         8.5 0.18                          17.2 183 
 BAR2 SZ ES   1   1632 25.61                             173   -0.07 7 17.2 183 
 GIR2 SZ EP   2   1632 10.06                             166   -0.06 5 36.7 357 
 BRR  HZ EP   1   1632 11.71                             153    0.31 7 71.6 304 
 BRR  HE ES   2   1632 28.42                             153   -0.05 5 71.6 304 
 BRR  HZ I        1632 33.08        16.0 0.29                          71.6 304 
 RUS  HZ EP   2   1632 13.04                             147   -0.50 5 95.0 174 
 RUS  HZ I        1632 15.03         2.6 0.08                          95.0 174 
 RUS  HE ES   2   1632 32.60                             147    0.33 5 95.0 174 
 ZAR  HZ EP   2   1632 22.62                             124    0.28 4  204 294 
 ZAR  HE ES   1   1632 47.77                             124   -0.18 6  204 294 
                                                                                
