 2010  6 5 1153 19.3 L   6.394 -73.519120.5  RSN  5 0.7 1.6LRSN                1
 GAP=151        1.23      15.3    26.6 16.0 -0.3239E+03  0.2849E+03 -0.1392E+03E
 Epicentro: CONTRATACION - SANTANDER                                           3
 ACTION:UP  10-08-24 10:08 OP:vdl  STATUS:               ID:20100605115319 L   I
 2010-06-05-1150-27S.COL___109                                                 6
 STAT SP IPHASW D HRMM SECON CODA AMPLIT PERI AZIMU VELO SNR AR TRES W  DIS CAZ7
 BAR2 SZ EP       1153 36.92                             159     0.310   43  59 
 BAR2 SZ ES       1153 49.80                             159    -0.310   43  59 
 GUE  SZ EP       1153 47.68                             121     0.5 9  172  22 
 GRA  SZ EP   2   1153 46.31                             119    -1.9 4  183  26 
 CHI  HN ES   2   1154 13.64                             117    -0.2 4  196 187 
 CHI  HZ I        1154 16.91         4.0 0.39                           196 187 
 RREF BN ES   2   1154 27.24                             110     0.0 4  261 231 
 RREF BZ I        1154 31.48         2.8 0.11                           261 231 
                                                                                
