 2017 11 5 1732 54.2 L   6.724 -73.148146.0  RSN  9 0.4 1.6LRSN                1
 GAP= 92        0.99       4.3     3.7  6.6 -0.2340E+01  0.2127E+01  0.1806E+01E
 Epicentro: JORDAN - SANTANDER                                                 3
 ACTION:UPD 17-12-12 19:52 OP:rebc STATUS:               ID:20171105173254 L   I
 OLDACT:UP  17-11-05 23:45 OP:mg   STATUS:               ID:20171105172740d    3
 OLDACT:DUP 17-11-05 23:39 OP:mg   STATUS:               ID:20171105172740d    3
 OLDACT:UP  17-11-05 23:39 OP:mg   STATUS:               ID:20171105172739d    3
 OLDACT:UP  17-11-05 23:38 OP:mg   STATUS:               ID:20171105172739d    3
 OLDACT:DUP 17-11-05 23:34 OP:mg   STATUS:               ID:20171105172739d    3
 2017-11-05-1728-00M.COL___437                                                 6
 STAT SP IPHASW D HRMM SECON CODA AMPLIT PERI AZIMU VELO AIN AR TRES W  DIS CAZ7
 BAR2 EZ EP   1   1733 13.54                             174   -0.21 7 15.1 195 
 BAR2 EZ ES   2   1733 28.68                             174   -0.29 5 15.1 195 
 BAR2 EZ I        1733 29.85         9.0 0.18            172           15.1 195 
 BRR  HZ EP       1733 15.86                             151    0.2210 75.4 304 
 BRR  HN ES       1733 33.17                             151    0.8310 75.4 304 
 BRR  HZ I        1733 37.37         5.9 0.12            151           75.4 304 
 PAM  EZ EP       1733 16.84                             149   -0.0410 84.2  36 
 PAM  EN ES       1733 34.01                             149   -0.5410 84.2  36 
 PAM  EZ I        1733 36.34         8.1 0.44            152           84.2  36 
 RUS  HZ EP       1733 17.55                             146    0.1310 92.2 176 
 RUS  HN ES       1733 35.83                             146    0.3310 92.2 176 
 RUS  HZ I        1733 36.89        10.5 0.30            148           92.2 176 
 PTB  HZ EP       1733 20.56                             132   -0.51 9  146 262 
 PTB  HN ES       1733 41.30                             132   -0.70 9  146 262 
 PTB  HZ I        1733 43.58         3.5 0.10            133            146 262 
 TAM  HZ EP       1733 21.92                             131    0.16 9  153 102 
 SPBC HN ES   1   1733 43.35                             130   -0.53 7  157 221 
 SPBC HZ I        1733 47.46         5.5 0.07            131            157 221 
 ZAR  HZ EP       1733 27.11                             122    0.10 8  207 294 
 ZAR  HN ES   1   1733 52.77                             122    0.20 6  207 294 
 ZAR  HZ I        1733 55.40         5.1 0.12            123            207 294 
 NOR  HZ EP   1   1733 29.52                             119    0.08 6  230 236 
 NOR  HN ES       1733 57.26                             119    0.36 8  230 236 
 NOR  HZ I        1734  4.57         3.6 0.22            120            230 236 
                                                                                
