 2013  2 5 1132 37.4 L   6.525 -73.856 86.6  RSN  4 0.1 1.7LRSN                1
 GAP=142        0.42       2.7     2.1  5.5  0.1417E+01  0.1529E+01  0.5717E+01E
 Epicentro: PUERTO PARRA - SANTANDER                                           3
 ACTION:UPD 13-03-12 09:30 OP:ep   STATUS:               ID:20130205113237 L   I
 2013-02-05-1130-00M.COL___241                                                 6
 STAT SP IPHASW D HRMM SECON CODA AMPLIT PERI AZIMU VELO AIN AR TRES W  DIS CAZ7
 BRR  HZ EP       1132 52.10                             139   -0.0810 66.3  14 
 BRR  HE ES       1133  3.90                             139    0.1910 66.3  14 
 BRR  HE I        1133  4.67        20.3 0.15            144           66.3  14 
 PTB  HZ EP   1   1132 52.15                             139   -0.06 7 66.4 271 
 PTB  HE ES   1   1133  3.72                             139   -0.05 7 66.4 271 
 PTB  HZ I        1133  5.96                             142           66.4 271 
 BAR2 SZ ES       1133  5.37                             136   -0.2110 74.9  84 
 BAR2 SZ I        1133  6.29        15.2 0.13            141           74.9  84 
 RUS  HZ EP   1   1132 57.07                             124    0.12 7  111 129 
 RUS  HE ES   1   1133 12.38                             124    0.18 7  111 129 
                                                                                
