 2012 10 5 1353 43.5 L   5.860 -73.712118.2  RSN  6 0.5 2.2LRSN                1
 GAP=169        0.98       7.2     6.3 11.8 -0.1590E+02 -0.5068E+00 -0.1067E+02E
 Epicentro: PUENTE NACIONAL - SANTANDER                                        3
 ACTION:UPD 12-11-22 17:02 OP:ep   STATUS:               ID:20121005135343 L   I
 2012-10-05-1350-00M.COL___222                                                 6
 STAT SP IPHASW D HRMM SECON CODA AMPLIT PERI AZIMU VELO AIN AR TRES W  DIS CAZ7
 RUS  HZ EP       1354  2.77                             147    0.4410 69.7  87 
 RUS  HN ES   2   1354 16.65                             147   -0.39 5 69.7  87 
 BAR2 SZ EP       1354  4.63                             137    0.4010100.0  36 
 BAR2 SZ ES   1   1354 20.12                             137   -0.30 7100.0  36 
 NOR  SN ES   1   1354 24.72                             128   -0.43 7  132 256 
 NOR  SN I        1354 26.13        26.4 0.14                           132 256 
 BRR  HZ EP       1354  7.09                             127   -0.27 9  138   0 
 BRR  HE ES   1   1354 26.74                             127    0.75 7  138   0 
 GIR2 SZ EP   3   1354  8.42                             125    0.03 2  147  23 
 PAM  SZ EP       1354 13.99                             117   -0.29 9  198  34 
 PAM  SN ES   2   1354 36.85                             117   -1.45 4  198  34 
                                                                                
