 2011  7 5 1502  2.1 L   6.809 -73.106146.2  RSN  7 0.2 1.9LRSN                1
 GAP=141        0.45       2.3     3.8  4.0 -0.1826E+01 -0.3461E+01  0.7613E+00E
 Epicentro: LOS SANTOS - SANTANDER                                             3
 ACTION:UPD 12-07-25 13:58 OP:epov STATUS:               ID:20110705150202 L   I
 2011-07-05-1458-25S.COL___140                                                 6
 STAT SP IPHASW D HRMM SECON CODA AMPLIT PERI AZIMU VELO AIN AR TRES W  DIS CAZ7
 BAR2 SZ EP       15 2 21.84                             170    0.0010 25.4 199 
 BAR2 SZ I        15 2 22.38        15.0 0.15                          25.4 199 
 BAR2 SZ ES   2   15 2 37.73                             170    0.50 5 25.4 199 
 PAM  SZ EP   1   15 2 24.63                             152    0.46 7 73.9  37 
 PAM  SE ES   1   15 2 41.08                             152   -0.30 7 73.9  37 
 BRR  HZ IP     C 15 2 23.60                             151    0.0910 74.7 296 
 BRR  HZ I        15 2 23.85        30.9 0.09                          74.7 296 
 BRR  HE ES       15 2 40.08                             151   -0.1110 74.7 296 
 RUS  HZ EP   1   15 2 25.82                             144   -0.14 7  101 179 
 RUS  HN ES   1   15 2 44.48                             144   -0.08 7  101 179 
 RUS  HZ I        15 2 46.13         9.0 0.30                           101 179 
 BRI  SZ EP       15 2 25.79                             142   -0.0710  106  19 
 GRA  SZ EP   1   15 2 27.20                             137   -0.01 7  124  16 
 GRA  SZ ES   2   15 2 46.86                             137    0.07 5  124  16 
 GRA  SZ I        15 2 49.99         9.7 0.26                           124  16 
 CHI  HZ EP   2   15 2 39.81                             117   -0.25 4  251 196 
 CHI  HN ES   2   15 3  9.81                             117    0.15 4  251 196 
 CHI  HZ I        15 3 15.97         3.2 0.36                           251 196 
                                                                                
