 2010  5 5 1753  1.3 L   6.765 -73.063143.7  RSN  9 0.5 2.2LRSN                1
 GAP=182        0.86       5.8     9.7  9.0 -0.3366E+02 -0.1605E+01  0.2163E+02E
 Epicentro: LOS SANTOS - SANTANDER                                             3
 ACTION:UP  10-08-24 10:03 OP:vdl  STATUS:               ID:20100505175301 L   I
 2010-05-05-1751-23S.COL___105                                                 6
 STAT SP IPHASW D HRMM SECON CODA AMPLIT PERI AZIMU VELO SNR AR TRES W  DIS CAZ7
 BAR2 SZ EP   1   1753 20.26                             170    -0.4 7   23 215 
 BAR2 SZ ES   2   1753 35.51                             170    -0.3 5   23 215 
 BRR  HZ IP     D 1753 22.89                             149     0.110   81 298 
 BRR  HZ I        1753 23.10        38.3 0.14                            81 298 
 BRR  HE ES   2   1753 40.06                             149     0.5 5   81 298 
 BRI  SZ EP   1   1753 24.97                             141    -0.1 7  109  16 
 BRI  SZ ES   2   1753 43.96                             141     0.4 5  109  16 
 GUE  SZ EP   1   1753 25.61                             138    -0.4 7  119   7 
 GUE  SZ ES   2   1753 43.95                             138    -1.3 5  119   7 
 GRA  SZ EP   1   1753 27.22                             136     0.8 7  127  13 
 GRA  SZ ES   2   1753 46.82                             136     0.7 5  127  13 
 CHI  HZ EP       1753 38.80                             117     0.1 8  247 197 
 CHI  HN ES   2   1754  8.39                             117     0.4 4  247 197 
 CHI  HZ I        1754 16.06         6.8 0.47                           247 197 
 HEL  HZ EP   1   1753 42.06                             114    -0.2 6  280 257 
 HEL  HZ I        1754 21.45         7.8 0.46                           280 257 
 RREF BZ EP   1   1753 48.01                             110     0.2 5  326 231 
 RREF BE ES   2   1754 23.91                             110    -0.3 3  326 231 
 RREF BZ I        1754 32.38         8.7 0.30                           326 231 
 PRA  HZ EP   1   1753 54.29                             106    -0.6 4  393 211 
 PRA  HN ES   2   1754 37.27                             106     0.6 3  393 211 
 PRA  HZ I        1754 42.28         6.6 0.41                           393 211 
                                                                                
