 2011 11 5 1548 52.6 L   6.739 -73.128144.0  RSN  5 0.3 1.8LRSN                1
 GAP=141        0.50       4.1     4.6  5.2 -0.1130E+01 -0.7894E+00 -0.8715E+00E
 Epicentro: JORDAN - SANTANDER                                                 3
 ACTION:UPD 12-07-13 16:08 OP:ep   STATUS:               ID:20111105154852 L   I
 2011-11-05-1548-21S.COL___175                                                 6
 STAT SP IPHASW D HRMM SECON CODA AMPLIT PERI AZIMU VELO AIN AR TRES W  DIS CAZ7
 BAR2 SZ EP       1549 11.87                             173   -0.0210 17.2 200 
 BAR2 SZ ES   1   1549 26.69                             173   -0.26 7 17.2 200 
 BAR2 SZ I        1549 29.39        11.9 0.52                          17.2 200 
 BRR  HZ EP       1549 13.95                             150    0.1210 76.3 302 
 BRR  HZ I        1549 14.31        17.7 0.10                          76.3 302 
 BRR  HN ES   1   1549 30.53                             150    0.12 7 76.3 302 
 PAM  SZ EP       1549 15.02                             149    0.1610 81.6  35 
 PAM  SN ES   1   1549 32.04                             149   -0.20 7 81.6  35 
 RUS  HZ EP   2   1549 15.42                             145   -0.24 5 93.7 177 
 RUS  HE ES   2   1549 33.93                             145    0.26 5 93.7 177 
 ZAR  HN ES   3   1549 49.35                             121   -1.59 2  208 294 
                                                                                
