 2013 12 5 1828 33.2 L   6.855 -73.220163.9  RSN  4 0.3 1.6LRSN                1
 GAP=235        0.77       6.9     6.6  7.7  0.3015E+02 -0.4734E+01 -0.4024E+01E
 Epicentro: ZAPATOCA - SANTANDER                                               3
 ACTION:UPD 14-01-13 10:16 OP:ep   STATUS:               ID:20131205182833 L   I
 OLDACT:UP  13-12-05 17:17 OP:cam  STATUS:               ID:20131205182647     3
 OLDACT:UP  13-12-05 17:17 OP:cam  STATUS:               ID:20131205182647     3
 OLDACT:REG 13-12-05 17:15 OP:cam  STATUS:               ID:20131205182647     3
 2013-12-05-1826-47M.COL___250                                                 6
 STAT SP IPHASW D HRMM SECON CODA AMPLIT PERI AZIMU VELO AIN AR TRES W  DIS CAZ7
 BRR  HZ EP       1828 55.77                             159   -0.1010 61.1 297 
 BRR  HN ES       1829 13.81                             159    0.2710 61.1 297 
 BRR  HZ I        1829 14.26        22.4 0.14            155           61.1 297 
 RUS  HZ EP       1828 59.55                             145    0.2910  108 172 
 RUS  HN ES       1829 19.20                             145   -0.3810  108 172 
 RUS  HZ I        1829 20.55         2.4 0.34            143            108 172 
 PTB  HZ EP       1829  1.20                             137    0.04 9  141 256 
 PTB  HN ES       1829 23.26                             137    0.30 9  141 256 
 PTB  HZ I        1829 28.52         3.8 0.26            134            141 256 
 ZAR  HN ES       1829 30.98                             128   -0.49 9  194 291 
                                                                                
