 2017  8 5 1958 50.4 L   6.675 -73.280119.8  RSN  6 0.3 1.4LRSN                1
 GAP=193        0.73       4.0     3.6  6.4  0.3558E+01  0.1066E+02  0.2351E+01E
 Epicentro: GALAN - SANTANDER                                                  3
 ACTION:UPD 17-09-04 20:16 OP:rebc STATUS:               ID:20170805195850 L   I
 OLDACT:REG 17-08-05 21:14 OP:dhb  STATUS:               ID:20170805194742     3
 2017-08-05-1948-00M.COL___399                                                 6
 STAT SP IPHASW D HRMM SECON CODA AMPLIT PERI AZIMU VELO AIN AR TRES W  DIS CAZ7
 BAR2 EZ EP       1959  7.24                             173    0.4710 14.1 130 
 BAR2 EZ ES       1959 19.44                             173   -0.0610 14.1 130 
 BAR2 EZ I        1959 21.35         7.1 0.22            173           14.1 130 
 RUS  HZ EP       1959 10.39                             141   -0.4310 89.2 166 
 RUS  HN ES       1959 26.59                             141   -0.1410 89.2 166 
 RUS  HZ I        1959 27.78         4.4 0.16            143           89.2 166 
 PTB  HZ EP   3   1959 13.49                             129   -0.29 2  131 264 
 PTB  HN ES       1959 32.13                             129    0.1410  131 264 
 PTB  HZ I        1959 37.97         4.5 0.18            128            131 264 
 SPBC HZ EP   4   1959 13.24                             126   -1.82 0  143 218 
 SPBC HN ES       1959 34.49                             126    0.23 9  143 218 
 SPBC HZ I        1959 39.66         3.4 0.16            126            143 218 
 ZAR  HE ES       1959 43.68                             117   -0.26 9  196 298 
 ZAR  HZ I        1959 49.06         3.2 0.28            118            196 298 
 NOR  HZ EP       1959 22.90                             115    0.35 8  215 235 
 NOR  HN ES       1959 47.30                             115   -0.30 8  215 235 
 NOR  HZ I        1959 54.49         2.3 0.26            115            215 235 
                                                                                
