 2016  2 5 1018  7.0 L   6.791 -73.205141.2  RSN 13 0.5 1.8LRSN                1
 GAP=130        0.90       2.7     3.8  6.5 -0.1240E+01  0.7603E+01 -0.1423E+01E
 Epicentro: ZAPATOCA - SANTANDER                                               3
 ACTION:UPD 16-03-04 21:23 OP:rebc STATUS:               ID:20160205101807 L   I
 OLDACT:REG 16-02-05 20:35 OP:dnl  STATUS:               ID:20160205100742     3
 2016-02-05-1007-42M.COL___325                                                 6
 STAT SP IPHASW D HRMM SECON CODA AMPLIT PERI AZIMU VELO AIN AR TRES W  DIS CAZ7
 BAR2 EZ EP       1018 26.35                             171    0.3110 22.1 173 
 BAR2 EZ ES       1018 40.83                             171   -0.0710 22.1 173 
 BAR2 EZ I        1018 42.63        15.8 0.23            169           22.1 173 
 PAM  EZ EP       1018 29.27                             148    0.2410 82.5  43 
 PAM  EN ES       1018 45.74                             148   -0.4910 82.5  43 
 PAM  EZ I        1018 48.63        11.3 0.38            140           82.5  43 
 RUS  HZ EP     D 1018 30.27                             143    0.0110  100 172 
 RUS  HN ES       1018 48.88                             143    0.4710  100 172 
 RUS  HZ I        1018 50.39         4.3 0.31            134            100 172 
 PTB  HZ EP   2   1018 33.23                             132    0.26 5  141 259 
 PTB  HN ES       1018 53.17                             132   -0.08 9  141 259 
 PTB  HZ I        1019  1.79         5.7 0.44            119            141 259 
 SPBC HN ES       1018 56.42                             129    0.16 9  158 217 
 SPBC HZ I        1018 59.45        19.6 0.10            117            158 217 
 OCA  HZ EP   2   1018 35.10                             128    0.12 5  161 356 
 OCA  HE ES   2   1018 56.88                             128    0.07 5  161 356 
 OCA  HZ I        1019  1.42        10.3 0.23            116            161 356 
 ZAR  HZ EP   2   1018 39.24                             122    0.69 4  198 293 
 ZAR  HE ES       1019  3.83                             122    0.66 9  198 293 
 ZAR  HZ I        1019 10.32         7.1 0.25            110            198 293 
 NOR  HZ EP   3   1018 40.91                             118   -0.90 2  229 234 
 NOR  HN ES   1   1019  7.80                             118   -1.18 6  229 234 
 NOR  HZ I        1019 14.88         3.1 0.20            108            229 234 
 SML  HZ EP   2   1018 42.51                             117   -0.66 4  242 337 
 SML  HE ES       1019 10.91                             117   -0.48 8  242 337 
 SML  HZ I        1019 18.72         7.0 0.08            106            242 337 
 CHI  HZ EP   2   1018 44.53                             116    0.39 4  246 194 
 CHI  HE ES       1019 12.41                             116   -0.71 8  246 194 
 CHI  HZ I        1019 23.67         2.7 0.50            107            246 194 
 URE  HZ EP   4   1018 49.22                             113    2.03 0  278 293 
 URE  HZ I        1019 27.93         4.2 0.18            103            278 293 
 GUY2CHZ EP   4   1018 51.34                             112    1.63 0  295 234 
 GUY2CHN ES   4   1019 21.86                             112   -1.17 0  295 234 
 GUY2CHZ I        1019 32.59         2.1 0.45                           295 234 
 PRA  HZ EP   2   1019  0.62                             106    0.76 3  388 209 
 PRA  HN ES   2   1019 40.69                             106   -0.42 3  388 209 
 PRA  HZ I        1019 47.26         1.9 0.30             97            388 209 
 SJC  HZ EP   4   1019  0.51                             105   -1.57 0  407 328 
 SJC  HN ES   4   1019 39.63                             105   -5.43 0  407 328 
                                                                                
