 2014  9 5 1510 19.7 L   6.825 -73.197144.3  RSN  6 0.5 1.6LRSN                1
 GAP=197        1.00       5.4     7.0 10.3 -0.5215E+01  0.2039E+02 -0.1852E+02E
 Epicentro: ZAPATOCA - SANTANDER                                               3
 ACTION:UPD 14-10-03 23:02 OP:nd   STATUS:               ID:20140905151019 L   I
 OLDACT:REG 14-09-05 20:43 OP:fm   STATUS:               ID:20140905150819     3
 2014-09-05-1508-19M.COL___275                                                 6
 STAT SP IPHASW D HRMM SECON CODA AMPLIT PERI AZIMU VELO AIN AR TRES W  DIS CAZ7
 BAR2 SZ EP       1510 39.54                             169    0.3410 25.8 176 
 BAR2 SZ ES   1   1510 54.93                             169    0.51 7 25.8 176 
 BAR2 SZ I        1510 57.44         8.1 0.24            171           25.8 176 
 RUS  HN ES   1   1511  1.18                             142   -0.97 7  104 173 
 RUS  HZ I        1511  3.54         4.8 0.36            147            104 173 
 PTB  HZ EP   1   1510 46.15                             133    0.06 7  143 257 
 PTB  HE ES       1511  6.60                             133   -0.08 9  143 257 
 PTB  HZ I        1511 11.38         3.4 0.28            134            143 257 
 SPBC HZ EP       1510 48.53                             129    0.57 9  162 217 
 SPBC HE ES       1511  9.72                             129   -0.28 9  162 217 
 SPBC HZ I        1511 16.81         7.1 0.24            132            162 217 
 SML  HZ EP   1   1510 54.86                             117   -0.85 6  239 336 
 SML  HN ES   1   1511 23.81                             117    0.01 6  239 336 
 SML  HZ I        1511 27.97         5.3 0.26            120            239 336 
 GUY2CHN ES   1   1511 36.68                             112    0.09 5  298 234 
 GUY2CHZ I        1511 46.78         1.8 0.30                           298 234 
                                                                                
