 2012  7 5 1656 27.5 L   6.668 -73.215150.1  RSN  4 0.2 1.5LRSN                1
 GAP=205        0.63       6.6     6.3  7.6  0.2241E+02 -0.1889E+01 -0.3485E+00E
 Epicentro: BARICHARA - SANTANDER                                              3
 ACTION:UPD 12-08-14 11:42 OP:ep   STATUS:               ID:20120705165627 L   I
 2012-07-05-1650-00M.COL___200                                                 6
 STAT SP IPHASW D HRMM SECON CODA AMPLIT PERI AZIMU VELO AIN AR TRES W  DIS CAZ7
 BAR2 SZ EP   1   1656 47.16                             176    -0.3 7    9 157 
 BRR  HZ EP   1   1656 48.95                             153    -0.3 7   73 312 
 BRR  HZ I        1657  5.38        20.1 0.24            144             73 312 
 BRR  HN ES   1   1657  6.42                             153     0.3 7   73 312 
 RUS  HZ EP       1656 51.05                             149     0.310   87 170 
 RUS  HN ES   1   1657  8.65                             149    -0.2 7   87 170 
 RUS  HZ I        1657 10.97         3.0 0.28            157             87 170 
 PTB  HZ EP       1656 53.91                             135     0.0 9  138 264 
 PTB  HN ES   1   1657 14.52                             135    -0.1 7  138 264 
 PTB  HZ I        1657 19.13         2.5 0.14            135            138 264 
