 2015  8 5 1545 34.6 L   6.815 -73.107143.1  RSN  6 0.4 2.1LRSN                1
 GAP=224        1.02       4.6     6.9  7.2 -0.4147E+01  0.1680E+02 -0.3797E+01E
 Epicentro: LOS SANTOS - SANTANDER                                             3
 ACTION:UPD 15-09-15 23:00 OP:cam  STATUS:               ID:20150805154534 L   I
 OLDACT:REG 15-08-05 21:12 OP:drio STATUS:               ID:20150805153749     3
 2015-08-05-1537-49M.COL___358                                                 6
 STAT SP IPHASW D HRMM SECON CODA AMPLIT PERI AZIMU VELO AIN AR TRES W  DIS CAZ7
 BAR2 EZ EP     D 1545 53.82                             169   -0.1310 26.0 199 
 BAR2 EZ ES       1546  8.82                             169   -0.2410 26.0 199 
 BAR2 EZ I        1546  9.79        13.7 0.22            172           26.0 199 
 BRR  HZ EP       1545 55.66                             151    0.0410 74.3 296 
 BRR  HN ES       1546 12.68                             151    0.6510 74.3 296 
 ZAR  HZ EP       1546  7.94                             121    0.74 8  207 291 
 ZAR  HN ES       1546 32.23                             121   -0.42 8  207 291 
 ZAR  HZ I        1546 37.44        16.9 0.26            120            207 291 
 NOR  HN ES       1546 38.20                             117   -0.56 8  239 235 
 SML  HZ EP       1546 10.65                             117   -0.44 8  244 334 
 SML  HE ES       1546 39.26                             117   -0.32 8  244 334 
 SML  HZ I        1546 48.79        14.4 0.10            116            244 334 
 GUY2CHZ EP       1546 19.16                             111    0.59 7  306 235 
 GUY2CHE ES       1546 52.87                             111   -0.01 7  306 235 
 GUY2CHZ I        1546 59.96         3.3 0.42                           306 235 
                                                                                
