 2017  7 5 1850 15.5 L   6.722 -73.111140.0  RSN  7 0.5 1.6LRSN                1
 GAP=175        1.00       6.6     5.3  7.6 -0.7200E+01  0.1362E+02  0.1744E+02E
 Epicentro: JORDAN - SANTANDER                                                 3
 ACTION:UPD 17-08-30 15:30 OP:rebc STATUS:               ID:20170705185015 L   I
 OLDACT:REG 17-07-05 22:30 OP:ar   STATUS:               ID:20170705184743     3
 2017-07-05-1848-00M.COL___380                                                 6
 STAT SP IPHASW D HRMM SECON CODA AMPLIT PERI AZIMU VELO AIN AR TRES W  DIS CAZ7
 BAR2 EZ EP     D 1850 34.25                             173   -0.0510 16.4 209 
 BAR2 EZ ES       1850 48.86                             173   -0.1110 16.4 209 
 BAR2 EZ I        1850 50.56         8.0 0.30            170           16.4 209 
 BRR  HZ EP       1850 36.19                             149   -0.2910 78.9 303 
 BRR  HE ES       1850 53.57                             149    0.7110 78.9 303 
 PAM  EN ES       1850 54.48                             148    0.0210 82.0  34 
 PTB  HZ EP       1850 41.58                             130   -0.63 9  150 262 
 PTB  HE ES       1851  2.59                             130   -0.47 9  150 262 
 PTB  HZ I        1851  8.93         3.7 0.12            131            150 262 
 ZAR  HZ EP   3   1850 49.67                             120    1.38 2  211 294 
 ZAR  HN ES       1851 13.76                             120   -0.11 8  211 294 
 NOR  HZ EP       1850 50.87                             118    0.16 8  233 237 
 NOR  HE ES       1851 18.44                             118    0.26 8  233 237 
 GUY2CHZ EP       1850 59.46                             111    0.81 7  300 237 
 GUY2CHE ES   4   1851 33.65                             111    1.34 0  300 237 
 GUY2CHZ I        1851 39.27         3.9 0.30                           300 237 
                                                                                
