 2012  6 5 1325 38.8 L   6.752 -73.171151.0  RSN  4 0.2 1.8LRSN                1
 GAP=240        0.43       5.8     4.1  5.5  0.1479E+02  0.1135E+01 -0.6778E+01E
 Epicentro: VILLANUEVA - SANTANDER                                             3
 ACTION:UPD 12-08-06 17:47 OP:ep   STATUS:               ID:20120605132538 L   I
 2012-06-05-1320-00M.COL___201                                                 6
 STAT SP IPHASW D HRMM SECON CODA AMPLIT PERI AZIMU VELO AIN AR TRES W  DIS CAZ7
 BAR2 SZ EP       1325 59.04                             173    0.0610 17.7 184 
 BAR2 SZ ES   1   1326 14.59                             173   -0.12 7 17.7 184 
 BAR2 SZ I        1326 15.72        23.4 0.17            172           17.7 184 
 RUS  HZ EP   1   1326  2.94                             146    0.20 7 95.5 174 
 RUS  HN ES   1   1326 21.39                             146   -0.01 7 95.5 174 
 RUS  HZ I        1326 22.80         7.6 0.28            147           95.5 174 
 PTB  HZ EP   1   1326  5.49                             134   -0.40 7  144 261 
 PTB  HN ES   1   1326 27.11                             134    0.10 7  144 261 
 PTB  HZ I        1326 28.87         5.2 0.15            134            144 261 
 ZAR  HN ES   1   1326 37.22                             124    0.13 6  204 294 
 ZAR  HZ I        1326 39.76         7.5 0.11            124            204 294 
                                                                                
