 2012  2 5 1042  0.1 L   6.708 -73.166149.7  RSN  5 0.4 1.4LRSN                1
 GAP=179        0.87       7.2     6.4  7.8  0.1439E+02 -0.2414E+00 -0.5898E+00E
 ACTION:UP  12-03-07 16:27 OP:epov STATUS:               ID:20120205104200 L   I
 2012-02-05-1040-00M.COL___188                                                 6
 STAT SP IPHASW D HRMM SECON CODA AMPLIT PERI AZIMU VELO SNR AR TRES W  DIS CAZ7
 BAR2 SZ EP       1042 19.78                             175   -0.2210 12.9 188 
 BAR2 SZ ES   1   1042 34.96                             175   -0.59 7 12.9 188 
 BAR2 SZ I        1042 38.43         3.7 0.21                          12.9 188 
 GIR2 SZ EP   1   1042 20.20                             164   -0.29 7 41.1 356 
 BRR  HZ EP       1042 21.96                             152    0.1310 74.8 306 
 BRR  HZ I        1042 22.39         7.4 0.12                          74.8 306 
 BRR  HE ES       1042 39.26                             152    0.4410 74.8 306 
 RUS  HZ EP   1   1042 24.26                             147    0.75 7 90.6 174 
 RUS  HE ES   1   1042 41.99                             147    0.18 7 90.6 174 
 RUS  HZ I        1042 43.74         3.1 0.37                          90.6 174 
 PTB  HZ EP       1042 26.73                             134   -0.28 9  144 263 
 PTB  HE ES       1042 47.88                             134   -0.15 9  144 263 
                                                                                
