 2014  8 5 1010 49.8 L   6.808 -73.163132.0  RSN 12 0.5 1.8LRSN                1
 GAP=134        1.17       3.4     4.2  6.6 -0.2102E+01  0.1067E+02  0.3317E+01E
 Epicentro: LOS SANTOS - SANTANDER                                             3
 ACTION:UPD 14-09-15 21:47 OP:nd   STATUS:               ID:20140805101049 L   I
 OLDACT:REG 14-08-05 20:37 OP:carl STATUS:               ID:20140805100818     3
 2014-08-05-1008-18M.COL___245                                                 6
 STAT SP IPHASW D HRMM SECON CODA AMPLIT PERI AZIMU VELO AIN AR TRES W  DIS CAZ7
 BAR2 SZ EP     D 1011  7.69                             169   -0.0910 24.0 185 
 BAR2 SZ ES       1011 21.72                             169   -0.0910 24.0 185 
 BAR2 SZ I        1011 23.48        20.3 0.28            168           24.0 185 
 BRR  HZ EP     C 1011  9.59                             151    0.2510 69.1 299 
 BRR  HE ES       1011 24.69                             151    0.1010 69.1 299 
 BRR  HZ I        1011 30.64        20.0 0.10            150           69.1 299 
 PAM  SZ EP       1011 10.82                             148    0.2310 77.9  41 
 PAM  SN ES       1011 27.43                             148    0.6110 77.9  41 
 PAM  SZ I        1011 28.08        13.4 0.36            153           77.9  41 
 RUS  HZ EP       1011 11.60                             140   -0.7010  102 175 
 RUS  HN ES       1011 29.89                             140    0.0410  102 175 
 RUS  HZ I        1011 30.91         7.6 0.24            142            102 175 
 PTB  HZ EP   4   1011 14.49                             129   -1.02 0  146 258 
 PTB  HN ES       1011 35.48                             129   -0.10 9  146 258 
 PTB  HZ I        1011 37.51        11.9 0.32            130            146 258 
 OCA  HN ES       1011 37.59                             127   -0.55 9  159 354 
 SPBC HZ EP       1011 16.61                             126   -0.62 9  163 218 
 SPBC HN ES       1011 37.80                             126   -0.82 9  163 218 
 SPBC HZ I        1011 43.02        10.6 0.34            127            163 218 
 ZAR  HZ EP       1011 20.94                             119   -0.21 9  202 292 
 ZAR  HN ES       1011 45.75                             119    0.13 9  202 292 
 ZAR  HZ I        1011 51.14         6.1 0.54            121            202 292 
 NOR  HZ EP       1011 24.08                             116   -0.57 8  234 234 
 NOR  HN ES       1011 52.21                             116    0.37 8  234 234 
 NOR  HZ I        1011 53.57         6.8 0.18            117            234 234 
 SML  HN ES   4   1011 51.23                             115   -2.12 0  242 336 
 CHI  HN ES       1011 56.56                             114    0.88 8  249 195 
 CHI  HZ I        1012  4.08         1.9 0.50            116            249 195 
 HEL  HZ EP       1011 29.83                             112    0.67 8  270 256 
 HEL  HN ES       1011 59.65                             112   -0.21 8  270 256 
 HEL  HZ I        1012  6.67         4.9 0.34            113            270 256 
 URE  HZ EP   4   1011 32.23                             111    2.24 0  282 292 
 URE  HN ES   4   1012  0.85                             111   -0.49 0  282 292 
 GUY2CHZ EP       1011 33.27                             110    0.59 7  300 234 
 GUY2CHN ES       1012  7.06                             110    0.92 7  300 234 
 GUY2CHZ I        1012 13.10         3.9 0.24                           300 234 
 SJC  HZ EP   4   1011 42.19                             103   -2.53 0  407 327 
 SJC  HN ES   4   1012 23.68                             103   -3.88 0  407 327 
                                                                                
