 2015  1 5 1133 13.9 L   7.229 -73.332121.8  RSN  5 0.4 1.8LRSN                1
 GAP=166        0.91       3.6     5.2  9.9 -0.1986E+01  0.1460E+02 -0.4262E+01E
 Epicentro: LEBRIJA - SANTANDER                                                3
 ACTION:UPD 15-03-02 15:37 OP:nd   STATUS:               ID:20150105113313 L   I
 OLDACT:REG 15-01-05 20:42 OP:mh   STATUS:               ID:20150105112744     3
 2015-01-05-1127-44M.COL___277                                                 6
 STAT SP IPHASW D HRMM SECON CODA AMPLIT PERI AZIMU VELO AIN AR TRES W  DIS CAZ7
 BAR2 EZ EP       1133 33.17                             147    0.2810 72.3 167 
 BAR2 EZ ES   1   1133 47.66                             147   -0.07 7 72.3 167 
 OCA  HN ES       1133 53.01                             135    0.0810  112   1 
 OCA  HZ I        1133 55.30         8.8 0.31            134            112   1 
 PTB  HZ EP       1133 38.40                             126   -0.39 9  146 239 
 PTB  HN ES       1133 57.91                             126   -0.33 9  146 239 
 ZAR  HZ EP   1   1133 42.28                             122    0.94 7  171 280 
 ZAR  HN ES       1134  3.18                             122    0.41 9  171 280 
 ZAR  HZ I        1134  8.05        13.9 0.04            122            171 280 
 SML  HZ EP       1133 43.24                             118   -0.31 9  192 335 
 SML  HE ES   1   1134  6.21                             118   -0.50 7  192 335 
 SML  HZ I        1134 13.85         5.5 0.11            118            192 335 
                                                                                
