 2014  1 5 1230 36.5 L   6.812 -73.150151.8  RSN  6 0.4 1.1LRSN                1
 GAP=135        0.99       5.1     6.4 11.6 -0.8235E+00  0.2893E+02 -0.7534E+00E
 Epicentro: LOS SANTOS - SANTANDER                                             3
 ACTION:UPD 14-03-13 09:51 OP:ep   STATUS:               ID:20140105123036 L   I
 OLDACT:REG 14-01-05 14:43 OP:mh   STATUS:               ID:20140105123000     3
 2014-01-05-1230-00M.COL___285                                                 6
 STAT SP IPHASW D HRMM SECON CODA AMPLIT PERI AZIMU VELO AIN AR TRES W  DIS CAZ7
 BAR2 SZ EP       1230 56.14                             170   -0.7510 24.6 188 
 BRR  HZ EP   1   1230 58.84                             154    0.58 7 70.1 298 
 PAM  SE ES       1231 17.12                             152   -0.0210 76.7  40 
 RUS  HZ EP       1231  0.93                             145   -0.0310  102 176 
 RUS  HN ES       1231 20.42                             145    0.3910  102 176 
 RUS  HZ I        1231 23.07         1.1 0.41            147            102 176 
 PTB  HZ EP   1   1231  4.40                             133    0.44 7  148 258 
 PTB  HN ES       1231 25.08                             133   -0.28 9  148 258 
 PTB  HZ I        1231 33.02         2.6 0.37            134            148 258 
 SML  HN ES   1   1231 42.36                             119    0.32 6  242 335 
                                                                                
