 2014 11 5 1503  5.1 L   6.326 -73.575114.4  RSN 10 0.4 1.9LRSN                1
 GAP= 75        1.09       3.7     3.6  6.9  0.5123E+00  0.9793E+01  0.1003E+02E
 Epicentro: SANTA HELENA DEL OPON - SANTANDER                                  3
 ACTION:UPD 14-12-19 15:39 OP:nd   STATUS:               ID:20141105150305 L   I
 OLDACT:REG 14-11-05 23:54 OP:carl STATUS:               ID:20141105145745     3
 2014-11-05-1457-45M.COL___287                                                 6
 STAT SP IPHASW D HRMM SECON CODA AMPLIT PERI AZIMU VELO AIN AR TRES W  DIS CAZ7
 BAR2 SZ EP       15 3 22.43                             154    0.2710 52.4  56 
 BAR2 SZ ES       15 3 35.60                             154    0.1510 52.4  56 
 BAR2 SZ I        15 3 36.96        31.2 0.42            158           52.4  56 
 RUS  HZ EP       15 3 23.69                             146   -0.0710 72.5 131 
 RUS  HE ES       15 3 38.32                             146    0.0110 72.5 131 
 RUS  HZ I        15 3 39.53         8.7 0.22            146           72.5 131 
 BRR  HN ES       15 3 39.45                             140    0.3910 87.6 350 
 SPBC HZ EP       15 3 24.59                             138   -0.1310 92.7 216 
 SPBC HE ES       15 3 39.63                             138   -0.3810 92.7 216 
 SPBC HZ I        15 3 41.94        24.3 0.20            137           92.7 216 
 PTB  HZ IP     C 15 3 24.14                             136   -1.1110  100 284 
 PTB  HN ES       15 3 40.76                             136   -0.2010  100 284 
 PTB  HZ I        15 3 41.67        23.7 0.28            137            100 284 
 NOR  HZ EP       15 3 31.81                             120    0.12 9  166 240 
 NOR  HN ES       15 3 53.01                             120    0.58 9  166 240 
 NOR  HZ I        15 3 54.01        17.0 0.16            121            166 240 
 CHI  HZ EP       15 3 33.88                             117   -0.65 9  188 185 
 CHI  HN ES       15 3 57.69                             117    0.21 9  188 185 
 CHI  HZ I        15 4  4.84         3.4 0.26            117            188 185 
 HEL  HZ EP       15 3 38.03                             113    0.43 8  217 266 
 HEL  HN ES       15 4  3.07                             113    0.12 8  217 266 
 HEL  HZ I        15 4 11.02         4.9 0.52            114            217 266 
 GUY2CHZ EP       15 3 40.17                             111    0.63 8  233 239 
 GUY2CHN ES       15 4  6.03                             111   -0.37 8  233 239 
 GUY2CHZ I        15 4 12.13         4.6 0.24                           233 239 
 PRA  HZ EP       15 3 49.47                             104   -0.08 7  323 207 
 PRA  HN ES       15 4 24.90                             104    0.68 7  323 207 
 PRA  HZ I        15 4 29.07         3.7 0.18            105            323 207 
                                                                                
