 2016  5 5 1226  0.9 L   6.803 -73.127150.0  RSN 13 0.5 2.3LRSN                1
 GAP=121        1.16       3.3     4.5  6.7 -0.2078E+01  0.2287E+01  0.5748E+01E
 Epicentro: LOS SANTOS - SANTANDER                                             3
 ACTION:UPD 16-08-18 17:42 OP:cam  STATUS:               ID:20160505122600 L   I
 OLDACT:REG 16-05-05 20:19 OP:dnl  STATUS:               ID:20160505121742     3
 2016-05-05-1217-42M.COL___306                                                 6
 STAT SP IPHASW D HRMM SECON CODA AMPLIT PERI AZIMU VELO AIN AR TRES W  DIS CAZ7
 BAR2 EZ EP     D 1226 21.09                             171    0.0210 24.1 195 
 BAR2 EZ I        1226 38.86        53.2 0.26            171           24.1 195 
 BRR  HZ EP     D 1226 22.91                             153    0.2910 72.9 298 
 BRR  HN ES       1226 40.15                             153    0.6010 72.9 298 
 BRR  HZ I        1226 45.83        28.7 0.20            153           72.9 298 
 PAM  EZ IP     D 1226 23.81                             152    0.3110 75.8  38 
 PAM  EE ES       1226 41.31                             152    0.2010 75.8  38 
 PAM  EZ I        1226 42.82        16.7 0.20            154           75.8  38 
 RUS  HZ EP       1226 25.23                             145    0.1310  101 177 
 RUS  HN ES       1226 43.54                             145   -0.4210  101 177 
 RUS  HZ I        1226 44.48        23.1 0.42            147            101 177 
 PTB  HZ EP       1226 27.88                             133   -0.54 9  150 259 
 PTB  HN ES       1226 49.09                             133   -0.79 9  150 259 
 PTB  HZ I        1226 55.09        19.9 0.16            134            150 259 
 OCA  HZ EP       1226 29.56                             131    0.00 9  160 352 
 OCA  HN ES       1226 51.58                             131   -0.32 9  160 352 
 OCA  HZ I        1226 55.24        73.3 0.16            132            160 352 
 SPBC HZ EP       1226 30.11                             130    0.22 9  165 219 
 SPBC HN ES       1226 51.73                             130   -0.76 9  165 219 
 SPBC HZ I        1226 53.53        45.1 0.19            131            165 219 
 ZAR  HZ EP   4   1226 35.15                             123    1.32 0  206 292 
 ZAR  HE ES       1226 59.52                             123    0.02 8  206 292 
 ZAR  HZ I        1227  5.70        24.4 0.20            124            206 292 
 NOR  HZ EP       1226 37.74                             119    0.64 8  237 235 
 NOR  HE ES       1227  6.30                             119    0.99 8  237 235 
 NOR  HZ I        1227  9.76        15.2 0.23            121            237 235 
 CHI  HZ EP       1226 38.98                             118    0.04 8  249 196 
 CHI  HN ES       1227  8.86                             118    0.25 8  249 196 
 CHI  HZ I        1227 14.24         5.7 0.20            120            249 196 
 URE  HZ EP       1226 41.74                             114   -0.66 7  286 292 
 URE  HN ES   4   1227 12.41                             114   -2.35 0  286 292 
 PTGC HZ EP       1226 44.01                             112   -0.90 7  308 159 
 PTGC HE ES   4   1227 17.03                             112   -2.20 0  308 159 
 PRA  HZ EP       1226 54.81                             107    0.07 6  393 210 
 PRA  HE ES       1227 37.46                             107    0.74 6  393 210 
                                                                                
