 2013  7 5 1851 34.8 L   6.769 -73.160142.7  RSN  7 0.5 1.6LRSN                1
 GAP=136        1.23       6.1     5.6  8.8 -0.6538E-01  0.7497E+01 -0.4729E+00E
 Epicentro: LOS SANTOS - SANTANDER                                             3
 ACTION:UPD 13-08-12 10:35 OP:ep   STATUS:               ID:20130705185134 L   I
 OLDACT:REG 13-07-05 17:02 OP:jn   STATUS:               ID:20130705184959     3
 2013-07-05-1849-59M.COL___267                                                 6
 STAT SP IPHASW D HRMM SECON CODA AMPLIT PERI AZIMU VELO AIN AR TRES W  DIS CAZ7
 BAR2 SZ EP       1851 53.96                             172    0.0010 19.7 187 
 BAR2 SZ ES       1852  8.91                             172   -0.0210 19.7 187 
 BAR2 SZ I        1852  9.99         7.9 0.26            173           19.7 187 
 GIR2 SZ EP       1851 54.03                             166   -0.1310 34.4 354 
 BRR  HZ EP       1851 55.75                             152    0.1510 71.5 302 
 BRR  HN ES       1852 12.88                             152    1.0310 71.5 302 
 BRR  HZ I        1852 16.72        11.9 0.14            149           71.5 302 
 PAM  SZ EP       1851 56.86                             149   -0.0210 81.0  39 
 PAM  SN ES       1852 13.66                             149   -0.4710 81.0  39 
 PAM  SZ I        1852 16.09         7.1 0.64            151           81.0  39 
 RUS  HZ EP       1851 58.26                             144    0.2810 97.3 175 
 RUS  HN ES       1852 15.80                             144   -0.2910 97.3 175 
 RUS  HZ I        1852 17.32         2.5 0.52            148           97.3 175 
 PTB  HZ EP       1852  1.77                             132    0.49 9  146 260 
 PTB  HN ES       1852 21.44                             132   -0.53 9  146 260 
 PTB  HZ I        1852 24.76         4.9 0.14            132            146 260 
 ZAR  HE ES   1   1852 30.95                             122   -1.18 6  204 293 
 ZAR  HZ I        1852 39.08         6.0 0.52            122            204 293 
                                                                                
