 2016  7 5 1224 26.3 L   6.793 -73.145150.5  RSN  7 0.3 1.7LRSN                1
 GAP=137        0.67       4.0     3.6  6.2 -0.3473E+01  0.9092E+00  0.7945E+01E
 Epicentro: LOS SANTOS - SANTANDER                                             3
 ACTION:UPD 17-03-29 16:47 OP:lp   STATUS:               ID:20160705122426 L   I
 OLDACT:REG 16-07-05 22:09 OP:dnl  STATUS:               ID:20160705121743     3
 2016-07-05-1217-43M.COL___322                                                 6
 STAT SP IPHASW D HRMM SECON CODA AMPLIT PERI AZIMU VELO AIN AR TRES W  DIS CAZ7
 BAR2 EZ EP       1224 46.55                             171    0.0510 22.6 190 
 BAR2 EZ ES       1225  2.08                             171   -0.1710 22.6 190 
 BAR2 EZ I        1225  3.24        10.8 0.14            171           22.6 190 
 BRR  HZ EP   2   1224 48.37                             153    0.37 5 71.6 299 
 BRR  HN ES       1225  5.44                             153    0.5210 71.6 299 
 BRR  HZ I        1225  6.09        10.0 0.13            149           71.6 299 
 PAM  EZ EP   2   1224 49.29                             151    0.22 5 77.9  39 
 PAM  EE ES       1225  6.55                             151   -0.2710 77.9  39 
 PAM  EZ I        1225  8.76        12.3 0.52            151           77.9  39 
 RUS  HZ EP       1224 50.72                             145    0.2410 99.8 176 
 RUS  HE ES   2   1225  9.10                             145   -0.23 5 99.8 176 
 RUS  HZ I        1225 10.37         3.5 0.26            146           99.8 176 
 PTB  HZ EP   2   1224 53.27                             133   -0.39 5  148 259 
 PTB  HE ES       1225 14.83                             133   -0.17 9  148 259 
 PTB  HZ I        1225 17.32         3.4 0.12            131            148 259 
 SPBC HN ES       1225 17.53                             130   -0.07 9  163 219 
 SPBC HZ I        1225 20.94         8.0 0.12            129            163 219 
 ZAR  HN ES   2   1225 23.80                             123   -0.89 4  204 292 
 ZAR  HZ I        1225 31.36         5.0 0.42            121            204 292 
                                                                                
