 2015  9 5 1816 38.5 L   6.821 -73.153141.8  RSN 13 0.4 2.3LRSN                1
 GAP=135        0.95       3.1     4.0  4.9 -0.4095E+01  0.5611E+01  0.1794E+01E
 Epicentro: LOS SANTOS - SANTANDER                                             3
 ACTION:UPD 15-10-28 16:24 OP:cam  STATUS:               ID:20150905181638 L   I
 OLDACT:UP  15-09-09 08:43 OP:AK   STATUS:               ID:20150905181638 L   3
 OLDACT:UP  15-09-06 01:30 OP:mh   STATUS:               ID:20150905180749d    3
 OLDACT:UP  15-09-06 01:30 OP:mh   STATUS:               ID:20150905180749d    3
 OLDACT:UP  15-09-06 01:27 OP:mh   STATUS:               ID:20150905180749d    3
 OLDACT:DUP 15-09-06 01:26 OP:mh   STATUS:               ID:20150905180749d    3
 OLDACT:REG 15-09-05 20:58 OP:mh   STATUS:               ID:20150905180748     3
 2015-09-05-1807-48M.COL___352                                                 6
 STAT SP IPHASW D HRMM SECON CODA AMPLIT PERI AZIMU VELO AIN AR TRES W  DIS CAZ7
 BAR2 EZ EP       1816 57.69                             169    0.0210 25.5 187 
 BAR2 EZ ES       1817 12.45                             169   -0.2010 25.5 187 
 BAR2 EZ I        1817 13.79        42.8 0.18            168           25.5 187 
 BRR  HZ EP       1816 59.34                             152    0.2510 69.4 297 
 BRR  HN ES       1817 15.31                             152    0.1310 69.4 297 
 BRR  HZ I        1817 17.88        22.7 0.32            151           69.4 297 
 PAM  EZ EP       1817  0.54                             150    0.3510 76.1  41 
 PAM  EN ES       1817 17.65                             150    0.5110 76.1  41 
 PAM  EZ I        1817 19.66        30.8 0.46            154           76.1  41 
 RUS  HZ EP       1817  1.78                             142   -0.2310  103 176 
 RUS  HN ES       1817 20.43                             142    0.0610  103 176 
 RUS  HZ I        1817 21.84        22.2 0.40            144            103 176 
 PTB  HZ EP       1817  4.66                             131   -0.43 9  147 258 
 PTB  HN ES       1817 25.44                             131   -0.42 9  147 258 
 PTB  HZ I        1817 27.12        21.3 0.48            131            147 258 
 OCA  HZ EP       1817  5.67                             129   -0.58 9  158 353 
 OCA  HN ES       1817 27.53                             129   -0.39 9  158 353 
 OCA  HZ I        1817 32.23        41.6 0.22            131            158 353 
 SPBC HZ EP       1817  6.66                             128   -0.13 9  164 218 
 SPBC HE ES       1817 28.56                             128   -0.33 9  164 218 
 SPBC HZ I        1817 35.65        35.6 0.22            128            164 218 
 NOR  HZ EP       1817 13.53                             118   -0.52 8  235 234 
 NOR  HE ES       1817 42.10                             118    0.30 8  235 234 
 NOR  HZ I        1817 46.57        17.6 0.32            118            235 234 
 HEL  HZ EP       1817 18.90                             114    0.44 8  272 255 
 HEL  HN ES       1817 50.59                             114    0.93 8  272 255 
 HEL  HZ I        1817 57.94         8.7 0.60            115            272 255 
 URE  HZ EP   4   1817 17.92                             113   -1.25 0  282 292 
 URE  HN ES   4   1817 48.80                             113   -2.12 0  282 292 
 GUY2CHZ EP       1817 22.37                             111    0.39 7  302 234 
 GUY2CHN ES   4   1817 58.70                             111    2.79 0  302 234 
 GUY2CHZ I        1818  5.64         7.7 0.38                           302 234 
 TOL  SZ EP       1817 27.42                             108    0.72 7  345 224 
 TOL  SN ES   4   1818  6.58                             108    2.27 0  345 224 
 TOL  SZ I        1818 11.05         5.2 0.66            109            345 224 
 PRA  HZ EP       1817 32.31                             106    0.26 6  394 209 
 PRA  HN ES       1818 13.30                             106   -0.53 6  394 209 
 PRA  HZ I        1818 18.13         7.1 0.24            107            394 209 
 SJC  HZ EP   4   1817 31.30                             105   -2.33 0  407 327 
 SJC  HN ES   4   1818 12.70                             105   -3.95 0  407 327 
 SJC  HZ I        1818 16.09         3.9 0.40            106            407 327 
                                                                                
