 2016  9 5 1248 28.3 L   6.808 -73.110154.5  RSN  9 0.3 1.6LRSN                1
 GAP=141        0.76       3.1     3.2  4.4 -0.1755E+01  0.4264E+01  0.1358E+01E
 Epicentro: LOS SANTOS - SANTANDER                                             3
 ACTION:UPD 17-08-17 21:07 OP:lp   STATUS:               ID:20160905124828 L   I
 OLDACT:DUP 16-09-05 22:13 OP:lv   STATUS:               ID:20160905123735d    3
 2016-09-05-1238-00M.COL___351                                                 6
 STAT SP IPHASW D HRMM SECON CODA AMPLIT PERI AZIMU VELO AIN AR TRES W  DIS CAZ7
 BAR2 EZ EP       1248 49.00                             170   -0.0310 25.2 199 
 BAR2 EZ ES       1249  4.69                             170   -0.5010 25.2 199 
 BAR2 EZ I        1249  5.17         5.9 0.16            167           25.2 199 
 PAM  EZ EP       1248 51.04                             153   -0.2510 74.2  38 
 PAM  EN ES       1249  9.56                             153    0.3510 74.2  38 
 PAM  EZ I        1249 10.68         3.8 0.20            152           74.2  38 
 BRR  HZ EP       1248 50.55                             153   -0.0310 74.3 296 
 BRR  HN ES       1249  8.24                             153    0.2810 74.3 296 
 BRR  HZ I        1249 11.20         9.0 0.38            154           74.3 296 
 RUS  HZ EP       1248 52.94                             145   -0.0410  101 178 
 RUS  HZ I        1249 12.48         2.3 0.22            141            101 178 
 RUS  HE ES       1249 12.54                             145    0.3210  101 178 
 PTB  HZ EP       1248 56.08                             133   -0.29 9  152 259 
 PTB  HE ES       1249 17.92                             133   -0.33 9  152 259 
 PTB  HZ I        1249 20.37         5.2 0.15            131            152 259 
 SPBC HZ EP       1248 57.94                             130    0.15 9  166 220 
 SPBC HN ES       1249 20.57                             130   -0.22 9  166 220 
 SPBC HZ I        1249 25.45         7.2 0.08            128            166 220 
 ZAR  HZ EP       1249  1.51                             124   -0.17 8  207 292 
 ZAR  HN ES       1249 27.92                             124    0.21 8  207 292 
 ZAR  HZ I        1249 33.83         5.3 0.28            122            207 292 
 NOR  HZ EP       1249  4.88                             120   -0.08 8  238 235 
 NOR  HE ES       1249 34.21                             120    0.67 8  238 235 
 NOR  HZ I        1249 38.53         3.1 0.15            118            238 235 
 GUY2CHZ EP       1249 13.25                             114    0.49 7  305 235 
 GUY2CHN ES       1249 47.11                             114   -0.31 7  305 235 
 GUY2CHZ I        1249 55.76         2.9 0.65                           305 235 
                                                                                
