 2016 12 5 1523 18.3 L   6.760 -73.121144.0  RSN  6 0.5 1.8LRSN                1
 GAP=164        1.18       7.5     5.6  8.0 -0.1402E+02  0.1239E+02  0.7557E+01E
 Epicentro: LOS SANTOS - SANTANDER                                             3
 ACTION:UPD 17-01-11 20:12 OP:rebc STATUS:               ID:20161205152318 L   I
 OLDACT:REG 16-12-05 20:35 OP:dnl  STATUS:               ID:20161205151744     3
 2016-12-05-1518-00M.COL___340                                                 6
 STAT SP IPHASW D HRMM SECON CODA AMPLIT PERI AZIMU VELO AIN AR TRES W  DIS CAZ7
 BAR2 EZ EP       1523 37.59                             172   -0.0410 19.7 200 
 BAR2 EZ ES       1523 52.61                             172   -0.1110 19.7 200 
 BAR2 EZ I        1523 53.44        15.4 0.32            171           19.7 200 
 BRR  HZ EP       1523 39.56                             151    0.0510 75.8 301 
 BRR  HE ES       1523 56.53                             151    0.4610 75.8 301 
 BRR  HZ I        1524  0.39        14.8 0.16            148           75.8 301 
 PAM  EZ EP       1523 40.44                             150    0.0210 79.2  36 
 PAM  EE ES       1523 57.72                             150    0.0310 79.2  36 
 PAM  EZ I        1523 59.85         9.5 0.46            152           79.2  36 
 PTB  HZ EP       1523 44.53                             131   -0.75 9  150 261 
 PTB  HE ES       1524  5.44                             131   -0.90 9  150 261 
 PTB  HZ I        1524  8.37         4.7 0.54            131            150 261 
 ZAR  HZ EP       1523 51.47                             121    0.41 8  208 293 
 ZAR  HE ES       1524 16.64                             121    0.02 8  208 293 
 ZAR  HZ I        1524 22.32        11.1 0.40            122            208 293 
 NOR  HZ EP       1523 53.91                             118    0.03 8  234 236 
 NOR  HE ES       1524 22.72                             118    1.08 8  234 236 
 NOR  HZ I        1524 27.69         4.6 0.16            119            234 236 
                                                                                
