 2013  7 5 1253 46.7 L   6.752 -73.111149.6  RSN  8 0.4 1.6LRSN                1
 GAP=143        0.99       4.8     4.3  7.0 -0.7793E+00  0.5914E+01  0.2000E+00E
 Epicentro: LOS SANTOS - SANTANDER                                             3
 ACTION:UPD 13-08-12 10:35 OP:ep   STATUS:               ID:20130705125346 L   I
 OLDACT:REG 13-07-05 16:10 OP:jn   STATUS:               ID:20130705124959     3
 2013-07-05-1249-59M.COL___267                                                 6
 STAT SP IPHASW D HRMM SECON CODA AMPLIT PERI AZIMU VELO AIN AR TRES W  DIS CAZ7
 BAR2 SZ EP       1254  6.85                             172    0.1010 19.3 204 
 BAR2 SZ ES       1254 22.91                             172    0.5410 19.3 204 
 BAR2 SZ I        1254 23.55         7.7 0.16            172           19.3 204 
 GIR2 SZ EP       1254  7.09                             165    0.0610 37.3 346 
 BRR  HZ EP       1254  8.92                             151    0.2810 77.2 301 
 BRR  HN ES       1254 26.02                             151    0.3010 77.2 301 
 BRR  HZ I        1254 28.13         9.1 0.48            153           77.2 301 
 PAM  SZ EP       1254  9.78                             151    0.3110 79.3  35 
 PAM  SN ES       1254 26.63                             151   -0.5710 79.3  35 
 PAM  SZ I        1254 29.27         5.8 0.48            153           79.3  35 
 RUS  HZ EP       1254 10.38                             146   -0.1010 95.0 178 
 RUS  HN ES       1254 28.79                             146   -0.2110 95.0 178 
 RUS  HZ I        1254 32.15         3.7 0.54            148           95.0 178 
 PTB  HZ EP       1254 13.86                             132   -0.41 9  151 261 
 PTB  HN ES       1254 35.02                             132   -0.73 9  151 261 
 PTB  HZ I        1254 37.90         6.1 0.38            134            151 261 
 ZAR  HE ES       1254 46.00                             122    0.04 8  210 293 
 NOR  HE ES   1   1254 51.38                             119    0.63 6  235 236 
                                                                                
