 2012  1 5 1010 45.0 L   6.793 -73.161144.1  RSN 11 0.4 1.9LRSN                1
 GAP=135        0.98       4.2     6.2  6.5 -0.1969E+01  0.1140E+02  0.1860E+01E
 Epicentro: LOS SANTOS - SANTANDER                                             3
 ACTION:UP  12-02-03 08:14 OP:REBC STATUS:               ID:20120105101045 L   I
 2012-01-05-1010-00M.COL___189                                                 6
 STAT SP IPHASW D HRMM SECON CODA AMPLIT PERI AZIMU VELO SNR AR TRES W  DIS CAZ7
 BAR2 SZ IP       1011  4.45                             171     0.110   22 186 
 BAR2 SZ I        1011  4.89        15.4 0.18                            22 186 
 BAR2 SZ ES   1   1011 19.19                             171    -0.3 7   22 186 
 GIR2 SZ EP       1011  4.47                             167     0.010   32 353 
 GIR2 SZ ES   2   1011 20.14                             167     0.5 5   32 353 
 BRR  HZ IP     D 1011  6.24                             153     0.410   70 300 
 BRR  HZ I        1011  6.43        27.0 0.18                            70 300 
 BRR  HN ES   1   1011 23.09                             153     0.9 7   70 300 
 PAM  SZ EP       1011  7.32                             150     0.210   79  40 
 PAM  SN ES   1   1011 24.01                             150    -0.4 7   79  40 
 RUS  HZ EP       1011  8.41                             144    -0.110  100 175 
 RUS  HN ES   1   1011 26.44                             144    -0.4 7  100 175 
 RUS  HZ I        1011 28.55        11.5 0.30                           100 175 
 PTB  HZ EP       1011 11.01                             132    -0.6 9  146 259 
 PTB  HN ES   2   1011 32.13                             132    -0.3 5  146 259 
 PTB  HZ I        1011 40.12         6.1 0.38                           146 259 
 OCA  SZ EP       1011 12.88                             129    -0.3 9  161 354 
 OCA  SZ I        1011 41.98        11.3 0.47                           161 354 
 ZAR  HZ EP       1011 16.96                             122    -0.2 9  203 293 
 ZAR  HN ES   3   1011 41.40                             122    -0.9 2  203 293 
 ZAR  HZ I        1011 48.86        11.5 0.30                           203 293 
 CHI  HZ EP   1   1011 22.93                             117     0.5 6  247 195 
 CHI  HN ES   1   1011 52.00                             117     0.3 6  247 195 
 CHI  HZ I        1011 56.74         2.8 0.24                           247 195 
 RREF HZ EP   3   1011 31.08                             111     0.3 2  320 229 
 RREF HZ I        1012 16.41         3.7 0.26                           320 229 
 PRA  HZ EP       1011 38.80                             106     0.6 6  391 209 
                                                                                
