 2016  5 5 1152 12.9 L   6.721 -73.166166.6  RSN  4 0.4 1.1LRSN                1
 GAP=229        0.97       8.5     8.3  9.6  0.3568E+02 -0.1362E+02 -0.1064E+02E
 Epicentro: VILLANUEVA - SANTANDER                                             3
 ACTION:UPD 16-08-18 17:42 OP:cam  STATUS:               ID:20160505115212 L   I
 OLDACT:UP  16-05-15 07:30 OP:ar   STATUS:               ID:20160505115212 L   3
 OLDACT:REG 16-05-05 20:16 OP:dnl  STATUS:               ID:20160505114749     3
 2016-05-05-1147-49M.COL___303                                                 6
 STAT SP IPHASW D HRMM SECON CODA AMPLIT PERI AZIMU VELO AIN AR TRES W  DIS CAZ7
 BAR2 EZ EP       1152 34.59                             175   -0.3210 14.3 187 
 BAR2 EZ I        1152 51.31         3.5 0.48            162           14.3 187 
 BRR  HZ EP       1152 36.03                             155   -0.4410 73.9 305 
 BRR  HE ES       1152 55.24                             155    0.3910 73.9 305 
 RUS  HZ EP       1152 38.85                             150    0.6410 92.0 174 
 RUS  HZ I        1152 53.20         1.2 0.32            139           92.0 174 
 RUS  HE ES       1152 57.70                             150   -0.2510 92.0 174 
 PTB  HZ EP       1152 41.43                             137    0.10 9  144 262 
 PTB  HE ES       1153  3.37                             137   -0.13 9  144 262 
                                                                                
