 2016 12 5 1038 55.4 L   6.751 -73.124137.5  RSN  6 0.4 1.6LRSN                1
 GAP=164        0.98       6.4     4.6  7.1 -0.1060E+02  0.1051E+02 -0.8405E-01E
 Epicentro: LOS SANTOS - SANTANDER                                             3
 ACTION:UPD 17-01-11 20:12 OP:rebc STATUS:               ID:20161205103855 L   I
 OLDACT:UP  16-12-05 20:55 OP:dnl  STATUS:               ID:20161205103604     3
 OLDACT:REG 16-12-05 20:27 OP:dnl  STATUS:               ID:20161205103604     3
 2016-12-05-1038-00M.COL___340                                                 6
 STAT SP IPHASW D HRMM SECON CODA AMPLIT PERI AZIMU VELO AIN AR TRES W  DIS CAZ7
 BAR2 EZ IP     C 1039 14.07                             172    0.1710 18.7 200 
 BAR2 EZ ES       1039 28.06                             172   -0.3010 18.7 200 
 BAR2 EZ I        1039 30.24        12.0 0.18            171           18.7 200 
 BRR  HZ EP       1039 15.88                             149   -0.0210 75.9 301 
 BRR  HN ES       1039 32.27                             149    0.3410 75.9 301 
 BRR  HZ I        1039 36.62        11.8 0.22            147           75.9 301 
 PAM  EZ EP       1039 17.03                             148    0.1610 80.2  36 
 PAM  EN ES       1039 33.69                             148    0.0410 80.2  36 
 PAM  EZ I        1039 34.27         5.8 0.38            151           80.2  36 
 PTB  HZ EP       1039 21.02                             130   -0.77 9  149 261 
 PTB  HN ES       1039 41.96                             130   -0.45 9  149 261 
 PTB  HZ I        1039 44.64         5.4 0.24            130            149 261 
 ZAR  HZ EP       1039 27.79                             120    0.07 8  208 293 
 ZAR  HE ES       1039 53.03                             120    0.06 8  208 293 
 ZAR  HZ I        1039 58.13         6.1 0.48            121            208 293 
 NOR  HZ EP   4   1039 28.96                             117   -1.53 0  234 236 
 NOR  HN ES       1039 58.76                             117    0.86 8  234 236 
 NOR  HZ I        1040  1.30         2.4 0.26            118            234 236 
                                                                                
