 2016  8 5 1306 52.0 L   6.779 -73.123149.1  RSN 13 0.4 2.2LRSN                1
 GAP=121        0.89       3.5     3.6  4.9 -0.2541E+01  0.1327E+01  0.2608E+01E
 Epicentro: LOS SANTOS - SANTANDER                                             3
 ACTION:UPD 16-10-29 15:32 OP:rebc STATUS:               ID:20160805130652 L   I
 OLDACT:UP  16-08-05 22:49 OP:dani STATUS:               ID:20160805125760d    3
 OLDACT:UP  16-08-05 22:46 OP:dani STATUS:               ID:20160805125760d    3
 OLDACT:UP  16-08-05 22:41 OP:dani STATUS:               ID:20160805125760d    3
 OLDACT:UP  16-08-05 22:41 OP:dani STATUS:               ID:20160805125760d    3
 OLDACT:DUP 16-08-05 22:36 OP:dani STATUS:               ID:20160805125760d    3
 2016-08-05-1257-59S.COL___340                                                 6
 STAT SP IPHASW D HRMM SECON CODA AMPLIT PERI AZIMU VELO AIN AR TRES W  DIS CAZ7
 BAR2 EZ EP       13 7 11.98                             171    0.0210 21.7 197 
 BAR2 EZ ES       13 7 27.22                             171   -0.3410 21.7 197 
 BAR2 EZ I        13 7 28.61        72.1 0.18                          21.7 197 
 BRR  HZ EP       13 7 13.93                             152    0.2710 74.4 299 
 BRR  HN ES       13 7 31.19                             152    0.6210 74.4 299 
 BRR  HZ I        13 7 32.04        25.4 0.44                          74.4 299 
 PAM  EZ EP       13 7 14.68                             151    0.1310 77.6  37 
 PAM  EE ES       13 7 32.37                             151    0.2110 77.6  37 
 PAM  EZ I        13 7 34.48        13.9 0.38                          77.6  37 
 RUS  HZ EP       13 7 15.96                             145    0.0910 98.2 177 
 RUS  HE ES       13 7 34.32                             145   -0.2010 98.2 177 
 RUS  HZ I        13 7 35.78        15.9 0.46                          98.2 177 
 PTB  HZ EP       13 7 18.80                             132   -0.58 9  150 260 
 PTB  HE ES       13 7 40.57                             132   -0.20 9  150 260 
 PTB  HZ I        13 7 42.90        17.4 0.46                           150 260 
 SPBC HZ EP       13 7 21.01                             130    0.31 9  163 220 
 SPBC HE ES       13 7 42.82                             130   -0.30 9  163 220 
 SPBC HZ I        13 7 45.83        34.1 0.12                           163 220 
 ZAR  HZ EP   4   13 7 26.28                             123    1.33 0  207 292 
 ZAR  HE ES       13 7 50.23                             123   -0.45 8  207 292 
 ZAR  HZ I        13 7 55.34        20.4 0.44                           207 292 
 NOR  HZ EP       13 7 28.04                             119    0.08 8  235 235 
 ROSC BN ES   4   13 8  2.52                             117    2.50 0  252 212 
 HEL  HZ EP   4   13 7 34.34                             115    1.79 0  274 256 
 HEL  HZ I        13 8 10.23        10.7 0.56                           274 256 
 SOCV BZ EP       13 7 34.56                             113   -0.52 7  300  56 
 SOCV BN ES   4   13 8  7.05                             113   -1.65 0  300  56 
 GUY2CHZ EP   4   13 7 37.19                             113    1.38 0  302 235 
 GUY2CHE ES   4   13 8 13.22                             113    3.21 0  302 235 
 GUY2CHZ I        13 8 19.18         8.1 0.34                           302 235 
 PRA  HZ EP       13 7 45.70                             107    0.18 6  391 210 
 PRA  HE ES       13 8 28.29                             107    1.01 6  391 210 
 PRA  HZ I        13 8 33.72         9.6 0.24                           391 210 
 SJC  HZ EP   4   13 7 45.88                             106   -2.14 0  412 327 
 SJC  HN ES   4   13 8 27.25                             106   -4.49 0  412 327 
 SJC  HZ I        13 8 32.55         2.7 0.22                           412 327 
                                                                                
