 2016 10 5 1301 10.8 L   6.819 -73.182142.0  RSN  8 0.3 1.6LRSN                1
 GAP=131        0.84       3.7     3.4  5.5 -0.1092E+01  0.4905E+01  0.1266E+01E
 Epicentro: ZAPATOCA - SANTANDER                                               3
 ACTION:UPD 16-11-09 19:16 OP:rebc STATUS:               ID:20161005130110 L   I
 OLDACT:REG 16-10-05 20:02 OP:lv   STATUS:               ID:20161005125741     3
 2016-10-05-1258-00M.COL___354                                                 6
 STAT SP IPHASW D HRMM SECON CODA AMPLIT PERI AZIMU VELO AIN AR TRES W  DIS CAZ7
 BAR2 EZ EP       13 1 29.85                             170   -0.1910 25.0 180 
 BAR2 EZ ES       13 1 45.18                             170    0.1510 25.0 180 
 BAR2 EZ I        13 1 46.52         6.7 0.14            168           25.0 180 
 BRR  HZ EP       13 1 31.65                             153    0.3310 66.7 299 
 BRR  HN ES       13 1 47.87                             153    0.5710 66.7 299 
 PAM  EZ EP       13 1 32.71                             150    0.0010 78.5  43 
 PAM  EN ES       13 1 49.62                             150   -0.1510 78.5  43 
 PAM  EZ I        13 1 51.81        10.4 0.49            153           78.5  43 
 RUS  HZ EP       13 1 34.55                             142    0.1610  103 174 
 RUS  HE ES       13 1 52.41                             142   -0.3510  103 174 
 RUS  HZ I        13 1 54.54         5.3 0.36            142            103 174 
 PTB  HZ EP       13 1 36.74                             132   -0.43 9  144 258 
 PTB  HN ES       13 1 57.33                             132   -0.39 9  144 258 
 PTB  HZ I        13 2  0.38         6.5 0.23            131            144 258 
 ZAR  HE ES       13 2  6.88                             122   -0.44 9  200 292 
 ZAR  HZ I        13 2 13.38         3.5 0.19            122            200 292 
 NOR  HZ EP       13 1 46.51                             118    0.39 8  233 233 
 NOR  HN ES       13 2 14.03                             118    0.38 8  233 233 
 NOR  HZ I        13 2 17.99         2.6 0.24            118            233 233 
 CHI  HZ EP   9   13 1 49.71                             116    1.28 0  250 194 
 CHI  HE ES       13 2 19.18                                    0.14 8  250 194 
 CHI  HZ I        13 2 23.06         2.5 0.24            116            250 194 
                                                                                
