 2015  6 5 1219 43.9 L   6.806 -73.101134.9  RSN  8 0.4 2.3LRSN                1
 GAP=227        1.02       3.9     6.2  7.0 -0.2828E+01  0.1683E+02 -0.4673E+01E
 Epicentro: LOS SANTOS - SANTANDER                                             3
 ACTION:UPD 15-09-10 22:10 OP:cam  STATUS:               ID:20150605121943 L   I
 OLDACT:UP  15-06-05 23:13 OP:ar   STATUS:               ID:20150605121747     3
 OLDACT:REG 15-06-05 20:51 OP:ar   STATUS:               ID:20150605121747     3
 2015-06-05-1217-47M.COL___303                                                 6
 STAT SP IPHASW D HRMM SECON CODA AMPLIT PERI AZIMU VELO AIN AR TRES W  DIS CAZ7
 BAR2 EZ EP       1220  2.69                             169    0.4310 25.3 201 
 BAR2 EZ ES       1220 16.12                             169   -0.4710 25.3 201 
 BAR2 EZ I        1220 19.07         8.0 0.12            167           25.3 201 
 BRR  HZ EP       1220  3.52                             149   -0.6010 75.2 296 
 BRR  HN ES       1220 20.46                             149    0.5610 75.2 296 
 BRR  HZ I        1220 22.81        13.2 0.34            145           75.2 296 
 SPBC HN ES       1220 33.88                             126    0.07 9  167 220 
 SPBC HZ I        1220 38.60         9.4 0.40            127            167 220 
 ZAR  HN ES       1220 40.91                             119   -0.32 8  208 291 
 ZAR  HE I        1220 47.18        21.7 0.52            119            208 291 
 NOR  HN ES       1220 47.56                             116    0.29 8  239 235 
 SML  HZ EP       1220 19.64                             115   -0.45 8  245 334 
 SML  HN ES       1220 48.87                             115    0.54 8  245 334 
 SML  HZ I        1220 54.01         5.9 0.26            116            245 334 
 URE  HZ EP       1220 25.08                             111    0.14 7  288 291 
 URE  HN ES       1220 56.66                             111   -0.30 7  288 291 
 URE  HZ I        1221  5.32      2969.8 1.79            112            288 291 
 GUY2CHZ EP       1220 28.12                             110    0.60 7  306 235 
 GUY2CHN ES       1221  1.15                             110   -0.41 7  306 235 
 GUY2CHZ I        1221  9.05         3.5 0.48                           306 235 
                                                                                
