 2017 12 5 1105 39.5 L   6.898 -73.043137.2  RSN  6 0.4 1.3LRSN                1
 GAP=168        0.54       2.4     4.0  5.2  0.3098E+01  0.1446E+01  0.2673E+01E
 Epicentro: PIEDECUESTA - SANTANDER                                            3
 ACTION:UPD 18-01-04 13:17 OP:rebc STATUS:               ID:20171205110539 L   I
 OLDACT:UP  17-12-05 21:38 OP:dani STATUS:               ID:20171205105738     3
 OLDACT:UP  17-12-05 21:38 OP:dani STATUS:               ID:20171205105738     3
 OLDACT:UP  17-12-05 21:37 OP:dani STATUS:               ID:20171205105738     3
 OLDACT:REG 17-12-05 20:36 OP:mg   STATUS:               ID:20171205105738     3
 2017-12-05-1058-00M.COL___467                                                 6
 STAT SP IPHASW D HRMM SECON CODA AMPLIT PERI AZIMU VELO AIN AR TRES W  DIS CAZ7
 BAR2 EZ EP     C 11 5 58.39                             164   -0.0510 37.1 204 
 BAR2 EZ ES       11 6 13.26                             164    0.0210 37.1 204 
 BAR2 EZ I        11 6 14.43         5.2 0.28            160           37.1 204 
 OCA  HN ES       11 6 27.23                             129    0.05 9  151 348 
 PTB  HZ EP   3   11 6  5.28                             127   -1.74 2  161 256 
 PTB  HN ES   4   11 6 26.14                             127   -2.38 0  161 256 
 PTB  HZ I        11 6 32.00         1.4 0.24            125            161 256 
 YPLC HZ EP       11 6  9.07                             124   -0.05 9  182 156 
 ZAR  HZ EP   3   11 6 13.50                             119    1.41 2  211 288 
 ZAR  HN ES       11 6 37.50                             119   -0.04 8  211 288 
 ZAR  HZ I        11 6 42.10         3.3 0.46            118            211 288 
 CHI  HN ES       11 6 48.56                             114    0.15 8  262 197 
                                                                                
