 2012  2 5 1940 41.1 L   6.756 -73.200149.0  RSN  4 0.4 1.4LRSN                1
 GAP=171        0.80       7.5     7.9  9.8  0.2172E+02  0.5403E+01  0.9552E+01E
 ACTION:UP  12-03-07 16:27 OP:epov STATUS:               ID:20120205194041 L   I
 2012-02-05-1940-00M.COL___188                                                 6
 STAT SP IPHASW D HRMM SECON CODA AMPLIT PERI AZIMU VELO SNR AR TRES W  DIS CAZ7
 GIR2 SZ EP   2   1941  1.16                             166   -0.16 5 35.6   1 
 GIR2 SZ ES   2   1941 16.27                             166   -0.79 5 35.6   1 
 BRR  HZ EP   1   1941  2.94                             154    0.44 7 68.6 304 
 BRR  HZ I        1941  3.89         7.1 0.46                          68.6 304 
 BRR  HN ES   1   1941 19.47                             154    0.31 7 68.6 304 
 RUS  HZ EP   1   1941  5.32                             146    0.40 7 96.4 172 
 RUS  HE ES   1   1941 23.35                             146   -0.11 7 96.4 172 
 RUS  HZ I        1941 24.82         2.2 0.19                          96.4 172 
 PTB  HZ EP   1   1941  7.03                             134   -0.74 7  141 260 
 PTB  HN ES   1   1941 28.58                             134    0.03 7  141 260 
                                                                                
