 2013 12 5 1145 58.3 L   6.807 -73.141142.7  RSN 15 0.4 2.8LRSN 3.2WRSN        1
 SPEC AVERAGE  MO 13.8 ST 38.2 OM  2.3 f0 6.89 R0.3245 AL 0.00 WI 28.0 MW  3.2 3
 SPEC SD       MO  0.2 ST 33.0 OM  0.3 f0 3.33 R0.2172 AL      WI      MW  0.2 3
 GAP= 71        0.92       2.5     3.1  5.3 -0.7071E+00  0.5462E+01  0.1503E+00E
 Epicentro: LOS SANTOS - SANTANDER                                             3
 SPEC CHI HH N MO 13.9 ST  2.9 OM  2.0 f0 3.26 R0.4767 AL 0.00 WI 29.9 MW  3.2 3
 SPEC CHI HH N T1147 6 K 0.000 GD  287 VS 4.20 DE 3.20 Q0300.0 QA 0.60 VS 4.20 3
 SPEC SML HH E MO 13.4 ST 32.7 OM  1.6 f0 10.0 R0.1554 AL 0.00 WI 47.6 MW  2.9 3
 SPEC SML HH E T1147 2 K 0.000 GD  281 VS 4.20 DE 3.20 Q0300.0 QA 0.60 VS 4.20 3
 SPEC NOR HH E MO 13.8 ST 80.3 OM  2.0 f0 10.0 R0.1554 AL 0.00 WI 21.1 MW  3.2 3
 SPEC NOR HH E T1147 2 K 0.000 GD  275 VS 4.20 DE 3.20 Q0300.0 QA 0.60 VS 4.20 3
 SPEC ZAR HH N MO 13.9 ST 91.2 OM  2.1 f0 10.0 R0.1554 AL 0.00 WI 24.1 MW  3.2 3
 SPEC ZAR HH N T114652 K 0.000 GD  248 VS 4.20 DE 3.20 Q0300.0 QA 0.60 VS 4.20 3
 SPEC SPBCHH N MO 13.7 ST 63.3 OM  2.0 f0 10.0 R0.1554 AL 0.00 WI 18.2 MW  3.1 3
 SPEC SPBCHH N T114649 K 0.000 GD  217 VS 4.20 DE 3.20 Q0300.0 QA 0.60 VS 4.20 3
 SPEC OCA HH N MO 14.1 ST 46.7 OM  2.4 f0 6.68 R0.2326 AL 0.00 WI 48.1 MW  3.4 3
 SPEC OCA HH N T114646 K 0.000 GD  214 VS 4.20 DE 3.20 Q0300.0 QA 0.60 VS 4.20 3
 SPEC TAM HH E MO 14.1 ST  1.6 OM  2.4 f0 2.16 R0.7194 AL 0.00 WI 20.5 MW  3.4 3
 SPEC TAM HH E T114647 K 0.000 GD  210 VS 4.20 DE 3.20 Q0300.0 QA 0.60 VS 4.20 3
 SPEC RUS HH N MO 13.4 ST  3.1 OM  1.8 f0 4.58 R0.3393 AL 0.00 WI 44.6 MW  2.9 3
 SPEC RUS HH N T114640 K 0.000 GD  174 VS 4.20 DE 3.20 Q0300.0 QA 0.60 VS 4.20 3
 SPEC PAM SH E MO 14.1 ST  1.6 OM  2.5 f0 2.22 R0.7000 AL 0.00 WI 13.5 MW  3.3 3
 SPEC PAM SH E T114636 K 0.000 GD  161 VS 4.20 DE 3.20 Q0300.0 QA 0.60 VS 4.20 3
 SPEC BRR HH N MO 13.7 ST 58.5 OM  2.1 f0 10.0 R0.1554 AL 0.00 WI 12.3 MW  3.1 3
 SPEC BRR HH N T114635 K 0.000 GD  159 VS 4.20 DE 3.20 Q0300.0 QA 0.60 VS 4.20 3
 ACTION:UPD 14-01-13 10:16 OP:ep   STATUS:               ID:20131205114558 L   I
 OLDACT:UP  13-12-05 15:56 OP:cam  STATUS:               ID:20131205114000     3
 OLDACT:REG 13-12-05 14:51 OP:cam  STATUS:               ID:20131205114000     3
 2013-12-05-1140-00M.COL___285                                                 6
 STAT SP IPHASW D HRMM SECON CODA AMPLIT PERI AZIMU VELO AIN AR TRES W  DIS CAZ7
 BAR2 SZ IP     D 1146 17.65                             170    0.0610 24.2 191 
 BAR2 SZ ES       1146 32.25                             170   -0.3810 24.2 191 
 BAR2 SZ I        1146 33.57       350.9 0.16            167           24.2 191 
 BRR  HZ IP     C 1146 19.58                             152    0.4410 71.3 298 
 BRR  HN ES   4   1146 36.31                             152    0.93 0 71.3 298 
 BRR  HZ I        1146 39.26        75.0 0.46            147           71.3 298 
 PAM  SZ IP     C 1146 20.72                             150    0.5710 76.4  40 
 PAM  SE ES       1146 37.41                             150    0.2310 76.4  40 
 PAM  SZ I        1146 40.36        82.4 0.26            153           76.4  40 
 RUS  HZ EP     C 1146 21.63                             143   -0.1910  101 176 
 RUS  HN ES       1146 40.09                             143   -0.0610  101 176 
 RUS  HZ I        1146 41.98        35.9 0.22            143            101 176 
 PTB  HZ EP       1146 24.27                             131   -0.83 9  148 259 
 PTB  HZ I        1146 47.82       127.4 0.52            128            148 259 
 TAM  HZ EP       1146 26.01                             130    0.29 9  155 105 
 TAM  HE ES       1146 46.97                             130   -0.12 9  155 105 
 TAM  HZ I        1146 47.92        53.9 0.28            133            155 105 
 OCA  HZ EP       1146 26.06                             129   -0.26 9  160 353 
 OCA  HN ES       1146 47.58                             129   -0.59 9  160 353 
 OCA  HZ I        1146 50.98        48.7 0.38            128            160 353 
 SPBC HZ EP       1146 26.58                             128   -0.09 9  164 219 
 SPBC HN ES       1146 48.94                             128    0.15 9  164 219 
 SPBC HZ I        1146 57.19        53.5 0.28            126            164 219 
 ZAR  HZ EP       1146 30.97                             122    0.39 9  204 292 
 ZAR  HN ES       1146 56.56                             122    0.80 9  204 292 
 ZAR  HZ I        1147  4.03        58.7 0.32            119            204 292 
 NOR  HZ EP       1146 33.65                             118   -0.31 8  236 234 
 NOR  HE ES       1147  1.74                             118   -0.03 8  236 234 
 NOR  HZ I        1147  7.29        53.7 0.40            116            236 234 
 SML  HZ EP   2   1146 34.25                             117   -0.47 4  243 335 
 SML  HE ES   2   1147  2.32                             117   -0.79 4  243 335 
 SML  HZ I        1147 12.85        51.0 0.10            116            243 335 
 CHI  HZ EP       1146 35.89                             116   -0.05 8  250 195 
 CHI  HN ES       1147  5.45                             116    0.16 8  250 195 
 CHI  HZ I        1147 11.93       121.6 1.02            116            250 195 
 HEL  HZ EP   4   1146 39.33                             114    0.88 0  273 256 
 GUY2CHZ EP   4   1146 43.25                             112    1.37 0  302 235 
 PTGC HZ EP   4   1146 41.01                             111   -1.08 0  309 159 
 RREF HZ EP   4   1146 44.95                             110    0.52 0  323 229 
 CBOC HZ EP   4   1146 45.73                             109    0.54 0  334 252 
 DBB  SZ EP   2   1146 46.26                             109    0.54 3  340 274 
 COD  HZ EP   4   1146 46.17                             108   -0.32 0  348 355 
 PRA  HZ EP   2   1146 51.51                             106   -0.33 3  393 210 
 SJC  HZ EP   4   1146 52.20                             105   -1.53 0  409 327 
 SJC  HN ES   4   1147 33.76                             105   -3.20 0  409 327 
 SJC  HZ I        1147 38.02        15.2 0.56            105            409 327 
                                                                                
