 2017  6 5 1437  5.3 L   6.317 -73.754 87.8  RSN  5 0.3 1.5LRSN                1
 GAP=165        0.81       4.9     2.8  8.2  0.6854E+01  0.1152E+01 -0.1194E+01E
 Epicentro: LANDAZURI - SANTANDER                                              3
 ACTION:UPD 17-09-14 16:49 OP:jn   STATUS:               ID:20170605143705 L   I
 OLDACT:DUP 17-06-05 23:48 OP:osc  STATUS:               ID:20170605142742d    3
 2017-06-05-1428-00M.COL___350                                                 6
 STAT SP IPHASW D HRMM SECON CODA AMPLIT PERI AZIMU VELO AIN AR TRES W  DIS CAZ7
 PTB  HZ EP       1437 21.19                             134   -0.2910 81.5 288 
 PTB  HN ES       1437 34.27                             134    0.1610 81.5 288 
 PTB  HZ I        1437 35.60         7.9 0.30            133           81.5 288 
 RUS  HZ EP       1437 22.11                             132   -0.5910 87.8 122 
 RUS  HN ES       1437 36.42                             132    0.1310 87.8 122 
 RUS  HZ I        1437 37.42         6.4 0.24            135           87.8 122 
 NOR  HZ EP       1437 28.78                             116    0.34 9  149 236 
 NOR  HN ES       1437 46.36                             116   -0.15 9  149 236 
 NOR  HZ I        1437 49.41         3.6 0.17            117            149 236 
 ZAR  HZ EP       1437 31.92                             111    0.21 9  178 317 
 ZAR  HE ES   4   1437 54.79                             111    2.46 0  178 317 
 ZAR  HZ I        1437 58.23        10.6 0.32            111            178 317 
 YPLC HE ES       1437 53.78                             111    0.32 9  183 124 
                                                                                
