 2011  6 5 1008 31.2 L   6.777 -73.091141.6  RSN  7 0.4 1.4LRSN                1
 GAP=145        0.94       4.8     7.2  8.4 -0.1061E+02  0.8488E+01  0.6385E+00E
 Epicentro: LOS SANTOS - SANTANDER                                             3
 ACTION:UP  11-07-14 19:03 OP:ep   STATUS:               ID:20110605100831 L   I
 2011-06-05-1006-58S.COL___132                                                 6
 STAT SP IPHASW D HRMM SECON CODA AMPLIT PERI AZIMU VELO SNR AR TRES W  DIS CAZ7
 BAR2 SZ EP       10 8 50.43                             170     0.110   23 206 
 BAR2 SZ ES   1   10 9  4.31                             170    -1.0 7   23 206 
 BAR2 SZ I        10 9  6.88         7.7 0.18                            23 206 
 PAM  SZ EP   1   10 8 52.78                             150    -0.1 7   76  35 
 PAM  SN ES   1   10 9 10.16                             150     0.3 7   76  35 
 PAM  SZ I        10 9 12.90         2.4 0.37                            76  35 
 BRR  HZ EP       10 8 52.06                             150    -0.310   78 298 
 BRR  HZ I        10 8 52.62        12.5 0.19                            78 298 
 BRR  HN ES   1   10 9  9.27                             150     0.5 7   78 298 
 RUS  HZ EP       10 8 54.49                             144     0.110   98 179 
 RUS  HN ES   1   10 9 12.78                             144     0.3 7   98 179 
 RUS  HZ I        10 9 15.51         3.0 0.29                            98 179 
 GRA  SZ ES   1   10 9 15.80                             136     0.2 7  127  15 
 GRA  SZ I        10 9 16.93         4.3 0.36                           127  15 
 OCA  SZ EP   1   10 8 59.40                             128    -0.2 7  164 351 
 NOR  SN ES   1   10 9 35.24                             117     0.2 6  238 236 
                                                                                
