 2017 11 5 1607 48.0 L   6.774 -73.112145.2  RSN  7 0.4 1.4LRSN                1
 GAP=142        0.63       3.2     3.4  4.8  0.2110E+01  0.2685E+01 -0.3982E-01E
 Epicentro: LOS SANTOS - SANTANDER                                             3
 ACTION:UPD 17-12-12 19:52 OP:rebc STATUS:               ID:20171105160748 L   I
 OLDACT:UP  17-11-05 23:29 OP:mg   STATUS:               ID:20171105155739d    3
 OLDACT:UP  17-11-05 23:28 OP:mg   STATUS:               ID:20171105155739d    3
 OLDACT:DUP 17-11-05 23:24 OP:mg   STATUS:               ID:20171105155739d    3
 OLDACT:UP  17-11-05 23:23 OP:mg   STATUS:               ID:20171105155738     3
 OLDACT:REG 17-11-05 20:41 OP:mg   STATUS:               ID:20171105155738     3
 2017-11-05-1558-00M.COL___437                                                 6
 STAT SP IPHASW D HRMM SECON CODA AMPLIT PERI AZIMU VELO AIN AR TRES W  DIS CAZ7
 BAR2 EZ EP       16 8  7.46                             171   -0.0510 21.5 201 
 BAR2 EZ ES       16 8 22.63                             171   -0.1110 21.5 201 
 BAR2 EZ I    4   16 8 23.55         7.0 0.34            167           21.5 201 
 BRR  HZ EP       16 8  9.34                             151   -0.0110 75.9 299 
 BRR  HN ES       16 8 26.46                             151    0.4610 75.9 299 
 BRR  HZ I        16 8 30.34         9.7 0.30            148           75.9 299 
 PAM  EZ EP       16 8 10.30                             151    0.1610 77.4  36 
 PAM  EN ES       16 8 27.17                             151   -0.2510 77.4  36 
 PAM  EZ I        16 8 29.69         7.0 0.52            155           77.4  36 
 RUS  HZ EP       16 8 11.50                             145    0.0410 97.5 178 
 RUS  HN ES       16 8 29.83                             145    0.0610 97.5 178 
 RUS  HZ I        16 8 31.27         3.0 0.26            145           97.5 178 
 PTB  HZ EP   2   16 8 14.50                             131   -0.70 5  151 260 
 PTB  HN ES   3   16 8 35.15                             131   -1.27 2  151 260 
 PTB  HZ I        16 8 40.97         1.2 0.21            130            151 260 
 ZAR  HZ EP   3   16 8 22.01                             122    1.14 2  209 292 
 ZAR  HE ES       16 8 46.33                             122   -0.18 8  209 292 
 ZAR  HZ I        16 8 51.59         3.0 0.29            121            209 292 
 NOR  HZ EP   4   16 8 25.78                             118    1.94 0  236 236 
 NOR  HE ES   4   16 8 52.49                             118    0.69 0  236 236 
 NOR  HZ I        16 8 58.79         1.2 0.19            118            236 236 
                                                                                
