 2016  9 5 1928 22.6 L   6.780 -73.174145.4  RSN  5 0.3 1.6LRSN                1
 GAP=141        0.86       4.8     4.9  6.6 -0.1049E+02  0.9044E+01 -0.1912E+01E
 Epicentro: LOS SANTOS - SANTANDER                                             3
 ACTION:UPD 17-08-17 21:07 OP:lp   STATUS:               ID:20160905192822 L   I
 OLDACT:REG 16-09-05 20:34 OP:lv   STATUS:               ID:20160905191736     3
 2016-09-05-1918-00M.COL___357                                                 6
 STAT SP IPHASW D HRMM SECON CODA AMPLIT PERI AZIMU VELO AIN AR TRES W  DIS CAZ7
 BAR2 EZ IP       1928 41.77                             172   -0.4110 20.7 182 
 BAR2 EZ ES       1928 57.89                             172    0.4710 20.7 182 
 BAR2 EZ I        1928 58.64        13.2 0.26            171           20.7 182 
 PAM  EZ EP       1928 45.09                             150    0.0410 81.2  40 
 PAM  EE ES       1929  2.53                             150    0.0110 81.2  40 
 PAM  EZ I        1929  4.85         5.3 0.64            154           81.2  40 
 RUS  HZ EP       1928 46.15                             144   -0.0710 98.6 174 
 RUS  HN ES       1929  4.23                             144   -0.3710 98.6 174 
 RUS  HZ I        1929  6.02         5.3 0.30            148           98.6 174 
 PTB  HZ EP       1928 49.57                             133    0.31 9  144 259 
 PTB  HE ES       1929  9.52                             133   -0.50 9  144 259 
 PTB  HZ I        1929 17.15         4.1 0.14            132            144 259 
 SPBC HZ EP       1928 50.99                             130    0.23 9  159 219 
 SPBC HN ES       1929 13.05                             130    0.36 9  159 219 
 SPBC HZ I        1929 17.24         8.1 0.34            131            159 219 
                                                                                
