 2010  8 5 1429 55.3 L   6.778 -73.016149.9  RSN  5 0.4 1.4LRSN                1
 GAP=179        0.74      10.9    14.7 10.7  0.9994E+02 -0.9115E+02 -0.5574E+02E
 Epicentro: CEPITA - SANTANDER                                                 3
 ACTION:UP  10-09-07 10:52 OP:vdl  STATUS:               ID:20100805142955 L   I
 2010-08-05-1429-05S.COL___124                                                 6
 STAT SP IPHASW D HRMM SECON CODA AMPLIT PERI AZIMU VELO SNR AR TRES W  DIS CAZ7
 BAR2 SZ EP   2   1430 15.70                                     0.2 5   28 222 
 BAR2 SZ ES   2   1430 30.59                             167    -0.7 5   28 222 
 BTL  SZ EP       1430 15.92                                     0.310   32 299 
 BTL  SZ ES   2   1430 32.15                                     0.7 5   32 299 
 BRR  HZ EP       1430 17.55                             147    -0.210   85 295 
 BRR  HN ES       1430 35.14                             147    -0.110   85 295 
 BRR  HZ I        1430 37.87        12.2 0.08                            85 295 
 RUS  HN ES   2   1430 37.82                             144    -0.2 5   98 184 
 RUS  HZ I        1430 40.15         4.0 0.82                            98 184 
 GUE  SZ EP   2   1430 19.97                             140    -0.4 5  117   5 
 GUE  SZ I        1430 41.38         1.4 0.14                           117   5 
                                                                                
