 2017  7 5 1414  8.1 L   6.840 -73.283121.7  RSN  5 0.2 1.8LRSN                1
 GAP=216        0.97       6.0     5.5  6.6  0.5900E+01  0.1170E+02  0.4635E+01E
 Epicentro: ZAPATOCA - SANTANDER                                               3
 ACTION:UPD 17-08-30 15:30 OP:rebc STATUS:               ID:20170705141408 L   I
 OLDACT:UP  17-07-06 01:06 OP:ar   STATUS:               ID:20170705140739     3
 OLDACT:REG 17-07-05 21:39 OP:ar   STATUS:               ID:20170705140739     3
 2017-07-05-1408-00M.COL___374                                                 6
 STAT SP IPHASW D HRMM SECON CODA AMPLIT PERI AZIMU VELO AIN AR TRES W  DIS CAZ7
 BAR2 EZ EP       1414 24.98                             165    0.0110 29.5 158 
 BAR2 EZ ES       1414 38.23                             165    0.0710 29.5 158 
 BAR2 EZ I        1414 39.09        62.5 0.26            161           29.5 158 
 BRR  HZ EP       1414 25.37                             153   -0.3810 55.9 302 
 BRR  HN ES       1414 39.43                             153   -0.1110 55.9 302 
 BRR  HZ I        1414 40.34        17.2 0.12            152           55.9 302 
 PTB  HZ EP   9   1414 30.29                             128   -1.55 0  134 256 
 PTB  HE ES       1414 47.81                                   -1.0310  134 256 
 PTB  HZ I        1414 52.58         7.3 0.16            126            134 256 
 ZAR  HZ EP       1414 37.55                             118    0.18 9  188 293 
 ZAR  HE ES       1415  0.45                             118    0.23 9  188 293 
 ZAR  HZ I        1415  2.60         6.8 0.22            118            188 293 
 NOR  HZ EP       1414 41.60                             113    0.14 8  225 231 
 NOR  HN ES       1415  7.51                             113    0.00 8  225 231 
 NOR  HZ I        1415 14.90         3.5 0.74            112            225 231 
                                                                                
