 2011 10 5 1801 59.4 L   6.792 -73.136144.0  RSN 15 0.4 3.2LRSN                1
 GAP=138        0.79       2.8     4.0  5.2 -0.2175E+01  0.7068E+01  0.2465E+01E
 Epicentro: LOS SANTOS - SANTANDER                                             3
 ACTION:UPD 12-07-13 16:02 OP:ep   STATUS:               ID:20111005180159 L   I
 2011-10-05-1800-18S.COL___169                                                 6
 STAT SP IPHASW D HRMM SECON CODA AMPLIT PERI AZIMU VELO AIN AR TRES W  DIS CAZ7
 BTL  SZ EP       18 2 19.09                             172    0.3710 20.2 314 
 BAR2 SZ EP       18 2 18.74                             171   -0.0210 22.6 193 
 BAR2 SZ ES   1   18 2 33.36                             171   -0.54 7 22.6 193 
 BAR2 SZ I        18 2 35.06       345.7 0.42                          22.6 193 
 BRR  HZ IP     C 18 2 20.68                             152    0.2810 72.6 299 
 BRR  HZ I        18 2 20.96       607.4 0.14                          72.6 299 
 BRR  HN ES   1   18 2 37.34                             152    0.53 7 72.6 299 
 PAM  SZ EP       18 2 21.55                             151    0.1610 77.4  38 
 PAM  SN ES   1   18 2 38.58                             151    0.01 7 77.4  38 
 PAM  SZ I        18 2 40.98       225.0 0.54                          77.4  38 
 RUS  HZ IP     D 18 2 22.55                             144   -0.3210 99.6 177 
 RUS  HN ES   1   18 2 41.33                             144    0.13 7 99.6 177 
 RUS  HZ I        18 2 43.06        87.5 0.16                          99.6 177 
 OCA  SZ EP       18 2 27.20                             129   -0.43 9  161 353 
 OCA  SZ ES   1   18 2 49.95                             129    0.26 7  161 353 
 OCA  SZ I        18 2 52.70       153.9 0.26                           161 353 
 ZAR  HZ EP   1   18 2 31.23                             122   -0.60 6  205 292 
 ZAR  HN ES   1   18 2 56.56                             122   -0.60 6  205 292 
 ZAR  HZ I        18 3  7.65       163.0 0.35                           205 292 
 NOR  SZ EP   1   18 2 34.58                             118   -0.44 6  235 235 
 NOR  SN ES   1   18 3  1.99                             118   -0.85 6  235 235 
 CHI  HZ EP   1   18 2 36.63                             117   -0.26 6  248 195 
 CHI  HN ES   1   18 3  6.37                             117    0.20 6  248 195 
 CHI  HZ I        18 3 15.67        65.9 0.40                           248 195 
 ROSC BZ EP   1   18 2 36.86                             116   -0.50 6  253 211 
 ROSC BN ES   1   18 3  7.15                             116    0.15 6  253 211 
 ROSC BZ I        18 3 16.89       133.4 0.44                           253 211 
 HEL  HZ EP   1   18 2 39.87                             114    0.30 6  273 256 
 HEL  HN ES   1   18 3 11.24                             114    0.30 6  273 256 
 HEL  HZ I        18 3 17.46        76.3 0.29                           273 256 
 GUY  SZ EP   1   18 2 43.90                             112    0.71 5  304 235 
 RREF HZ EP   1   18 2 45.60                             111    0.15 5  322 230 
 TOL  SZ EP   1   18 2 47.95                             109    0.39 5  344 225 
 ANIL HZ EP   1   18 2 49.22                             108    0.11 5  357 225 
 ANIL HN ES   1   18 3 28.98                             108    1.07 5  357 225 
 ANIL HZ I        18 3 34.97       144.6 0.44                           357 225 
                                                                                
