 2011 12 5 1143 38.5 L   6.795 -73.128142.9  RSN  5 0.1 1.6LRSN                1
 GAP=139        0.31       2.3     3.7  3.8  0.1488E+01 -0.3432E+01 -0.8974E+00E
 Epicentro: LOS SANTOS - SANTANDER                                             3
 ACTION:UPD 12-07-13 16:14 OP:ep   STATUS:               ID:20111205114338 L   I
 2011-12-05-1140-00M.COL___183                                                 6
 STAT SP IPHASW D HRMM SECON CODA AMPLIT PERI AZIMU VELO AIN AR TRES W  DIS CAZ7
 BAR2 SZ EP       1143 57.72                             170   -0.1110 23.2 195 
 BAR2 SZ ES   2   1144 12.85                             170   -0.02 5 23.2 195 
 BAR2 SZ I        1144 19.75         7.7 0.80                          23.2 195 
 GIR2 SZ EP       1143 57.84                             167   -0.0610 32.2 347 
 BRR  HZ EP   1   1143 59.53                             151    0.03 7 73.1 298 
 BRR  HE ES   1   1144 15.88                             151    0.04 7 73.1 298 
 BRR  HE I        1144 17.56        17.6 0.27                          73.1 298 
 PAM  SZ EP   1   1144  0.62                             151    0.21 7 76.6  38 
 PAM  SN ES   2   1144 17.36                             151   -0.10 5 76.6  38 
 RUS  HZ EP   1   1144  1.94                             143   -0.03 7100.0 177 
 RUS  HN ES   1   1144 20.33                             143    0.09 7100.0 177 
 RUS  HZ I        1144 21.44         3.1 0.37                         100.0 177 
                                                                                
