 2013 12 5 1124  6.9 L   6.797 -73.150146.0  RSN 10 0.5 2.1LRSN                1
 GAP=136        1.05       4.2     4.5  6.8  0.4874E+00  0.6512E+01  0.2391E+01E
 Epicentro: LOS SANTOS - SANTANDER                                             3
 ACTION:UPD 14-01-13 10:16 OP:ep   STATUS:               ID:20131205112406 L   I
 OLDACT:UP  13-12-05 15:41 OP:cam  STATUS:               ID:20131205112000     3
 OLDACT:REG 13-12-05 14:50 OP:cam  STATUS:               ID:20131205112000     3
 2013-12-05-1120-00M.COL___285                                                 6
 STAT SP IPHASW D HRMM SECON CODA AMPLIT PERI AZIMU VELO AIN AR TRES W  DIS CAZ7
 BAR2 SZ EP     D 1124 26.51                             171   -0.0710 22.9 189 
 BAR2 SZ ES       1124 41.58                             171   -0.3310 22.9 189 
 BAR2 SZ I        1124 42.91        50.5 0.22            169           22.9 189 
 BRR  HZ EP       1124 28.44                             153    0.3510 70.9 299 
 BRR  HN ES       1124 45.34                             153    0.7410 70.9 299 
 BRR  HZ I        1124 47.81        17.4 0.46            153           70.9 299 
 PAM  SZ EP     C 1124 29.49                             151    0.2810 78.0  40 
 PAM  SE ES   1   1124 45.99                             151   -0.60 7 78.0  40 
 PAM  SN I        1124 47.43        28.0 0.48            155           78.0  40 
 RUS  HZ EP       1124 30.77                             144    0.0910  100 176 
 RUS  HE ES       1124 49.42                             144    0.2110  100 176 
 RUS  HZ I        1124 50.49        10.1 0.26            144            100 176 
 PTB  HZ EP       1124 33.08                             132   -0.79 9  147 259 
 PTB  HN ES       1124 54.25                             132   -0.63 9  147 259 
 SPBC HZ EP       1124 35.52                             129    0.13 9  163 219 
 SPBC HE ES   2   1124 57.29                             129   -0.30 5  163 219 
 SPBC HZ I        1125  4.52        16.8 0.40            130            163 219 
 ZAR  HN ES       1125  5.15                             122    0.50 9  204 292 
 NOR  HZ EP   1   1124 43.02                             119    0.41 6  234 234 
 NOR  HE ES       1125 10.45                             119    0.01 8  234 234 
 NOR  HZ I        1125 12.65         8.1 0.16            120            234 234 
 SML  HE ES   1   1125 11.38                             117   -0.79 6  244 335 
 CHI  HZ EP   2   1124 44.79                             117    0.20 4  248 195 
                                                                                
