 2013 11 5 1841 57.6 L   6.789 -73.156138.4  RSN  4 0.5 1.2LRSN                1
 GAP=136        0.95       6.5     6.0 10.8 -0.1111E+02  0.3939E+01  0.1582E+02E
 Epicentro: LOS SANTOS - SANTANDER                                             3
 ACTION:UPD 14-01-09 16:26 OP:ep   STATUS:               ID:20131105184157 L   I
 OLDACT:REG 13-11-05 18:27 OP:jn   STATUS:               ID:20131105184000     3
 2013-11-05-1840-00M.COL___273                                                 6
 STAT SP IPHASW D HRMM SECON CODA AMPLIT PERI AZIMU VELO AIN AR TRES W  DIS CAZ7
 BRR  HN ES   1   1842 34.51                             151    0.68 7 70.8 300 
 PAM  SZ EP       1842 19.35                             149    0.1710 79.1  40 
 PAM  SN ES       1842 35.65                             149   -0.3310 79.1  40 
 PAM  SZ I        1842 38.49         3.3 0.46            152           79.1  40 
 RUS  HZ EP   1   1842 20.32                             142   -0.26 7 99.4 175 
 RUS  HE ES   1   1842 38.75                             142    0.27 7 99.4 175 
 RUS  HZ I        1842 39.99         1.7 0.28            145           99.4 175 
 PTB  HZ EP   1   1842 24.25                             130    0.37 7  146 259 
 PTB  HN ES   1   1842 43.51                             130   -0.84 7  146 259 
 PTB  HZ I        1842 47.42         2.3 0.16            132            146 259 
                                                                                
