 2017  5 5 1239  2.9 L   6.776 -73.138143.0  RSN 21 0.5 2.7LRSN                1
 GAP=113        0.94       3.0     3.3  5.3  0.1293E+01  0.9631E+00 -0.2858E+00E
 Epicentro: LOS SANTOS - SANTANDER                                             3
 ACTION:UPD 17-06-16 13:33 OP:jn   STATUS:               ID:20170505123902 L   I
 OLDACT:UP  17-05-05 22:07 OP:and  STATUS:               ID:20170505123740     3
 OLDACT:UP  17-05-05 22:06 OP:and  STATUS:               ID:20170505123740     3
 OLDACT:UP  17-05-05 22:06 OP:and  STATUS:               ID:20170505123740     3
 OLDACT:UP  17-05-05 22:05 OP:and  STATUS:               ID:20170505123740     3
 OLDACT:UP  17-05-05 22:05 OP:and  STATUS:               ID:20170505123740     3
 OLDACT:UP  17-05-05 22:03 OP:and  STATUS:               ID:20170505123740     3
 OLDACT:UP  17-05-05 22:02 OP:and  STATUS:               ID:20170505123740     3
 OLDACT:UP  17-05-05 22:01 OP:and  STATUS:               ID:20170505123740     3
 OLDACT:UP  17-05-05 21:58 OP:and  STATUS:               ID:20170505123740     3
 OLDACT:UP  17-05-05 21:57 OP:and  STATUS:               ID:20170505123740     3
 OLDACT:UP  17-05-05 21:57 OP:and  STATUS:               ID:20170505123740     3
 OLDACT:UP  17-05-05 21:57 OP:and  STATUS:               ID:20170505123740     3
 OLDACT:UP  17-05-05 21:57 OP:and  STATUS:               ID:20170505123740     3
 OLDACT:REG 17-05-05 21:55 OP:and  STATUS:               ID:20170505123740     3
 2017-05-05-1238-00M.COL___382                                                 6
 STAT SP IPHASW D HRMM SECON CODA AMPLIT PERI AZIMU VELO AIN AR TRES W  DIS CAZ7
 BRR  HZ IP     C 1239 23.85                             151    0.0010 73.2 300 
 BRR  HE ES       1239 40.74                             151    0.5410 73.2 300 
 BRR  HZ I        1239 45.41       140.9 0.14            150           73.2 300 
 PAM  EZ IP     C 1239 24.80                             150   -0.0910 78.9  38 
 PAM  EN ES   2   1239 41.73                             150   -0.34 5 78.9  38 
 PAM  EZ I        1239 42.32       107.1 0.36            155           78.9  38 
 RUS  HZ IP     C 1239 25.85                             144   -0.3210 97.9 176 
 RUS  HN ES       1239 44.12                             144   -0.2110 97.9 176 
 RUS  HZ I        1239 45.21        66.5 0.24            142           97.9 176 
 PTB  HZ IP   9 C 1239 28.47                             131   -1.18 0  148 260 
 PTB  HN ES       1239 48.84                             132   -0.51 9  148 260 
 PTB  HZ I        1239 51.98        92.9 0.24            130            148 260 
 SPBC HZ EP       1239 30.86                             129   -0.16 9  162 220 
 SPBC HN ES       1239 53.20                             129    0.22 9  162 220 
 SPBC HZ I        1239 53.94        74.2 0.31            127            162 220 
 YPLC HZ EP       1239 32.34                             126    0.13 9  174 151 
 YPLC HN ES   2   1239 55.21                             126    0.12 4  174 151 
 YPLC HZ I        1239 58.70        83.4 0.22            127            174 151 
 ZAR  HZ EP       1239 34.89                             121   -0.44 8  206 293 
 ZAR  HE ES       1240  1.03                             121    0.39 8  206 293 
 ZAR  HZ I        1240  8.99        99.1 0.26            121            206 293 
 TABC EZ EP   9   1239 40.07                             119    1.80 0  228 211 
 TABC EZ ES       1240  8.22                             118    0.54 8  228 211 
 TABC EZ I        1240 12.04        51.7 0.44            118            228 211 
 NOR  HZ EP       1239 37.89                             118   -0.47 8  234 235 
 NOR  HN ES       1240  5.87                             118   -0.16 8  234 235 
 NOR  HZ I        1240  7.87        41.4 0.19            117            234 235 
 CHI  HZ EP       1239 41.05                             117    0.88 8  246 196 
 CHI  HN ES       1240  9.00                             117   -0.27 8  246 196 
 CHI  HZ I        1240 13.35        12.3 0.26            116            246 196 
 ROSC BZ EP   3   1239 42.21                             116    1.56 2  251 211 
 ROSC BN ES   4   1240 14.77                             116    4.66 0  251 211 
 ROSC BZ I        1240 16.87        30.3 0.30            116            251 211 
 HEL  HZ EP   2   1239 44.13                             114    1.16 4  272 256 
 HEL  HN ES       1240 13.62                             114   -0.62 8  272 256 
 HEL  HZ I        1240 20.94        47.5 0.36            114            272 256 
 VIL  EE ES   1   1240 20.32                             112    0.86 5  301 192 
 VIL  EZ I        1240 27.98        17.0 0.27            111            301 192 
 PTGC HZ EP   9   1239 45.21                             111   -1.09 0  306 159 
 PTGC HN ES       1240 18.12                             111   -0.96 7  306 159 
 PTGC HZ I        1240 22.53        19.6 0.58            111            306 159 
 ELA  HZ EP   9   1239 51.79                             110    2.30 0  328 230 
 ELA  HN ES       1240 27.94                             109   -0.21 7  328 230 
 ELA  HZ I        1240 33.29        26.5 0.76            109            328 230 
 CBOC HZ EP       1239 50.05                             109    0.37 7  334 253 
 CBOC HE ES   2   1240 25.65                             109   -0.53 3  334 253 
 CBOC HZ I        1240 29.77        12.4 0.18            109            334 253 
 DBB  EZ EP       1239 49.98                             109   -0.38 7  340 275 
 DBB  EE ES   4   1240 25.19                             109   -2.21 0  340 275 
 DBB  EZ I        1240 28.33        20.7 0.44            109            340 275 
 ANIL HZ EP   3   1239 54.26                             108    1.83 2  356 225 
 ANIL HE ES   4   1240 34.29                             108    3.21 0  356 225 
 ANIL HZ I        1240 39.30        40.9 0.30            108            356 225 
 ORTC HN ES   4   1240 40.29                             106    1.94 0  394 216 
 ORTC HZ I        1240 46.08        11.1 0.24            106            394 216 
 APAC HE ES       1240 39.35                             106   -0.15 6  400 288 
 APAC HZ I        1240 41.35        14.9 0.42            106            400 288 
 SJC  HZ IP   4 C 1239 56.87                             105   -1.79 0  412 327 
 SJC  HN ES   4   1240 38.12                             105   -4.05 0  412 327 
 SJC  HZ I        1240 42.26        14.1 0.50            106            412 327 
                                                                                
