 2014  5 5 1030  3.0 L   6.829 -73.147148.3  RSN  9 0.4 2.0LRSN                1
 GAP=135        1.06       2.9     4.7  7.6 -0.1197E+01  0.9004E+01 -0.8097E+00E
 Epicentro: LOS SANTOS - SANTANDER                                             3
 ACTION:UPD 15-03-16 16:55 OP:nd   STATUS:               ID:20140505103003 L   I
 OLDACT:REG 14-05-05 20:40 OP:carl STATUS:               ID:20140505102812     3
 2014-05-05-1028-12M.COL___214                                                 6
 STAT SP IPHASW D HRMM SECON CODA AMPLIT PERI AZIMU VELO AIN AR TRES W  DIS CAZ7
 PAM  SZ EP       1030 25.91                             152    0.5410 75.0  41 
 PAM  SN ES       1030 43.01                             152    0.2110 75.0  41 
 PAM  SZ I        1030 45.36         8.1 0.54            158           75.0  41 
 RUS  HZ EP       1030 27.09                             143   -0.1610  104 176 
 RUS  HN ES       1030 46.27                             143    0.1210  104 176 
 RUS  HZ I        1030 47.89         7.9 0.26            146            104 176 
 PTB  HZ EP       1030 29.82                             132   -0.42 9  148 258 
 PTB  HE ES       1030 51.12                             132   -0.35 9  148 258 
 PTB  HZ I        1030 55.60        16.5 0.12            133            148 258 
 OCA  HZ EP       1030 31.17                             131   -0.06 9  157 353 
 OCA  HN ES       1030 52.62                             131   -0.61 9  157 353 
 OCA  HZ I        1030 55.65        10.9 0.34            134            157 353 
 SPBC HZ EP       1030 31.77                             129   -0.17 9  166 218 
 SPBC HE ES       1030 54.19                             129   -0.31 9  166 218 
 SPBC HZ I        1031  1.16        14.3 0.28            131            166 218 
 ZAR  HZ EP       1030 35.87                             123    0.38 9  203 291 
 ZAR  HE ES       1031  2.02                             123    1.19 9  203 291 
 ZAR  HZ I        1031 10.12        10.4 0.10            124            203 291 
 SML  HZ EP       1030 39.35                             118   -0.12 8  241 335 
 SML  HN ES       1031  7.42                             118   -0.48 8  241 335 
 SML  HZ I        1031 13.66        14.3 0.20            121            241 335 
 CHI  HZ EP       1030 41.48                             117    0.29 8  252 195 
 CHI  HE ES       1031 10.92                             117   -0.04 8  252 195 
 CHI  HZ I        1031 18.70         2.9 0.36            120            252 195 
 URE  HZ EP   4   1030 43.06                             114   -1.00 0  283 291 
 URE  HN ES   4   1031 15.52                             114   -0.56 0  283 291 
 GUY2CHZ EP   4   1030 48.41                             113    1.47 0  303 234 
 GUY2CHE ES   4   1031 24.37                             113    3.17 0  303 234 
 GUY2CHZ I        1031 29.43         4.3 0.62                           303 234 
                                                                                
