 2011 11 5 1350 16.0 L   6.801 -73.112140.4  RSN  7 0.3 1.8LRSN                1
 GAP=141        0.60       3.4     5.4  5.3  0.5012E+00 -0.1077E+01 -0.1654E+01E
 Epicentro: LOS SANTOS - SANTANDER                                             3
 ACTION:UPD 12-07-13 16:08 OP:ep   STATUS:               ID:20111105135016 L   I
 2011-11-05-1347-49S.COL___175                                                 6
 STAT SP IPHASW D HRMM SECON CODA AMPLIT PERI AZIMU VELO AIN AR TRES W  DIS CAZ7
 BTL  SZ EP       1350 35.17                             171    0.2010 21.5 307 
 BAR2 SZ IP       1350 34.84                             170   -0.1910 24.3 199 
 BAR2 SZ ES   1   1350 49.63                             170   -0.22 7 24.3 199 
 BAR2 SZ I        1350 50.80        10.3 0.40                          24.3 199 
 BRR  HZ EP       1350 36.70                             150   -0.0810 74.4 297 
 BRR  HZ I        1350 38.37        19.5 0.32                          74.4 297 
 BRR  HE ES   1   1350 53.39                             150    0.42 7 74.4 297 
 PAM  SZ EP       1350 37.75                             150    0.2310 75.0  37 
 PAM  SN ES   1   1350 54.46                             150    0.16 7 75.0  37 
 RUS  HZ EP       1350 39.22                             143   -0.0210  100 178 
 RUS  HE ES   2   1350 56.94                             143   -0.41 5  100 178 
 RUS  HZ I        1350 58.87         3.2 0.22                           100 178 
 OCA  SZ EP       1350 43.94                             128   -0.02 9  161 352 
 OCA  SZ ES   2   1351  4.71                             128   -1.04 5  161 352 
 OCA  SZ I        1351  9.54        15.4 0.43                           161 352 
 ZAR  HN ES   3   1351 13.55                             121   -0.24 2  207 292 
                                                                                
