 2016  9 5 1127 25.1 L   6.797 -73.163143.6  RSN  9 0.2 1.7LRSN                1
 GAP=134        0.60       2.2     2.5  3.8 -0.2341E-02  0.1540E+01  0.2116E+01E
 Epicentro: LOS SANTOS - SANTANDER                                             3
 ACTION:UPD 17-08-17 21:07 OP:lp   STATUS:               ID:20160905112725 L   I
 OLDACT:UP  16-09-05 22:03 OP:lv   STATUS:               ID:20160905111734     3
 OLDACT:REG 16-09-05 20:00 OP:lv   STATUS:               ID:20160905111734     3
 2016-09-05-1118-00M.COL___351                                                 6
 STAT SP IPHASW D HRMM SECON CODA AMPLIT PERI AZIMU VELO AIN AR TRES W  DIS CAZ7
 BAR2 EZ EP       1127 44.25                             170   -0.2110 22.8 185 
 BAR2 EZ ES       1127 59.49                             170   -0.0710 22.8 185 
 BAR2 EZ I        1128  1.96        11.1 0.22            169           22.8 185 
 BRR  HZ EP       1127 46.04                             153    0.1110 69.6 299 
 BRR  HN ES       1128  2.65                             153    0.4810 69.6 299 
 BRR  HZ I        1128  4.68         8.0 0.15            152           69.6 299 
 PAM  EZ EP       1127 47.04                             150   -0.1310 78.9  41 
 PAM  EN ES       1128  4.22                             150   -0.1710 78.9  41 
 PAM  EZ I        1128  6.44         9.3 0.48            154           78.9  41 
 RUS  HZ EP       1127 48.78                             143    0.1510  100 175 
 RUS  HE ES       1128  7.09                             143    0.1110  100 175 
 RUS  HZ I        1128  8.32         6.8 0.28            145            100 175 
 PTB  HZ EP       1127 51.57                             132   -0.14 9  146 259 
 PTB  HN ES       1128 12.03                             132   -0.44 9  146 259 
 PTB  HZ I        1128 17.66         3.1 0.18            132            146 259 
 SPBC HZ EP       1127 53.62                             129    0.32 9  162 219 
 SPBC HE ES       1128 15.18                             129   -0.11 9  162 219 
 SPBC HZ I        1128 17.52        10.1 0.06            129            162 219 
 ZAR  HN ES       1128 22.35                             122    0.06 9  202 292 
 ZAR  HZ I        1128 28.07         5.5 0.21            123            202 292 
 CHI  HZ EP       1128  2.62                             117    0.03 8  248 195 
 CHI  HN ES       1128 31.81                             117   -0.03 8  248 195 
 CHI  HZ I        1128 37.50         2.3 0.24            118            248 195 
 SJC  HZ EP   9   1128 18.54                             105   -1.95 0  408 327 
 SJC  HN ES       1129  1.32                                   -0.43 6  408 327 
 SJC  HZ I        1129  3.55         1.1 0.28            107            408 327 
                                                                                
