 2012 11 5 1734 33.9 L   6.799 -73.162148.5  RSN  6 0.4 2.0LRSN                1
 GAP=135        0.73       4.8     5.3  7.2  0.4450E+01  0.6692E+01  0.2393E+01E
 Epicentro: LOS SANTOS - SANTANDER                                             3
 ACTION:UPD 12-12-05 15:31 OP:}ep  STATUS:               ID:20121105173433 L   I
 2012-11-05-1730-00M.COL___230                                                 6
 STAT SP IPHASW D HRMM SECON CODA AMPLIT PERI AZIMU VELO AIN AR TRES W  DIS CAZ7
 BAR2 SZ EP       1734 53.84                             170   -0.0610 23.0 186 
 BAR2 SZ ES   1   1735  9.36                             170   -0.11 7 23.0 186 
 BAR2 SZ I        1735 12.07        12.7 0.30                          23.0 186 
 BRR  HZ IP     C 1734 55.55                             153    0.2410 69.7 299 
 BRR  HN ES   1   1735 12.50                             153    0.52 7 69.7 299 
 BRR  HN I        1735 13.09        42.5 0.24                          69.7 299 
 PAM  SZ EP   1   1734 56.69                             151    0.16 7 78.6  40 
 PAM  SN ES   1   1735 13.43                             151   -0.71 7 78.6  40 
 PAM  SN I        1735 14.79        15.2 0.24                          78.6  40 
 RUS  HZ EP   1   1734 58.01                             144    0.04 7  101 175 
 RUS  HN ES   1   1735 16.92                             144    0.21 7  101 175 
 RUS  HN I        1735 18.48        16.2 0.48                           101 175 
 ZAR  HN ES   1   1735 31.34                             123   -0.39 6  202 292 
 ZAR  HN I        1735 39.33        15.0 0.16                           202 292 
 PRA  HN ES   2   1736  8.20                             107   -0.98 3  391 209 
 PRA  HN I        1736 17.30         2.5 0.40                           391 209 
                                                                                
