 2010  7 5 1512 14.3 L   5.840 -74.106 41.8  RSN  4 0.3 1.4LRSN                1
 GAP=163        0.54       6.1     2.4 12.9 -0.4471E+01  0.2139E+01  0.2744E+02E
 Epicentro: FLORIAN - SANTANDER                                                3
 ACTION:UPD 10-12-01 15:15 OP:pat  STATUS:               ID:20100705151214 L   I
 2010-07-05-1509-57S.COL___118                                                 6
 STAT SP IPHASW D HRMM SECON CODA AMPLIT PERI AZIMU VELO AIN AR TRES W  DIS CAZ7
 RUS  HZ EP   1   1512 32.35                              61     0.2 8  113  87 
 RUS  HN ES   2   1512 45.75                              61    -0.3 5  113  87 
 RUS  HZ I        1512 46.52         3.7 0.21                           113  87 
 GUY  HZ EP   1   1512 37.62                              61     0.3 8  155 244 
 GUY  HN ES   1   1512 55.14                              61    -0.1 8  155 244 
 HEL  HZ EP       1512 37.91                              61    -0.110  162 284 
 HEL  HZ I        1512 38.21         8.6 0.21                           162 284 
 HEL  HN ES   2   1512 56.47                              61     0.0 5  162 284 
 RREF HZ EP   2   1512 38.94                              61    -0.6 5  172 233 
 RREF HN ES   2   1512 59.56                              61     0.3 5  172 233 
 RREF HZ I        1513  2.78         4.0 0.20                           172 233 
                                                                                
