 2012  7 5 1826 25.1 L   6.733 -73.155150.5  RSN  5 0.3 1.7LRSN                1
 GAP=231        0.78       7.3     7.0  6.5  0.3253E+02  0.9335E+01  0.6483E+01E
 Epicentro: VILLANUEVA - SANTANDER                                             3
 ACTION:UPD 12-08-14 11:42 OP:ep   STATUS:               ID:20120705182625 L   I
 2012-07-05-1820-00M.COL___200                                                 6
 STAT SP IPHASW D HRMM SECON CODA AMPLIT PERI AZIMU VELO AIN AR TRES W  DIS CAZ7
 BAR2 SZ EP   1   1826 45.26                             174     0.1 7   16 191 
 BAR2 SZ ES       1827  0.39                             174    -0.410   16 191 
 BAR2 SZ I        1827  3.04        12.1 0.31            165             16 191 
 BRR  HZ EP       1826 46.91                             152     0.010   74 304 
 BRR  HZ I        1826 47.56        17.4 0.32            148             74 304 
 BRR  HN ES       1827  4.37                             152     0.410   74 304 
 RUS  HZ EP       1826 48.82                             147     0.010   93 175 
 RUS  HE ES   1   1827  7.51                             147     0.2 7   93 175 
 RUS  HZ I        1827  9.31         4.5 0.36            145             93 175 
 PTB  HZ EP       1826 52.22                             134     0.0 9  145 262 
 PTB  HE ES   1   1827 13.37                             134     0.0 7  145 262 
 PTB  HZ I        1827 19.04         5.3 0.23            130            145 262 
 ZAR  HN ES   1   1827 23.33                             123    -0.4 6  206 294 
 ZAR  HZ I        1827 30.56         5.5 0.25            122            206 294 
