 2014 10 5 1937 22.6 L   6.811 -73.126152.9  RSN 13 0.5 2.2LRSN                1
 GAP=138        1.08       3.1     5.1  6.5 -0.2241E+01  0.6618E+01  0.1279E+01E
 Epicentro: LOS SANTOS - SANTANDER                                             3
 ACTION:UPD 14-11-29 23:47 OP:nd   STATUS:               ID:20141005193722 L   I
 OLDACT:REG 14-10-05 20:52 OP:fm   STATUS:               ID:20141005192750     3
 2014-10-05-1927-50M.COL___289                                                 6
 STAT SP IPHASW D HRMM SECON CODA AMPLIT PERI AZIMU VELO AIN AR TRES W  DIS CAZ7
 BAR2 SZ EP       1937 43.05                             170   -0.1010 25.0 194 
 BAR2 SZ ES   1   1937 58.67                             170   -0.49 7 25.0 194 
 BAR2 SZ I        1938  1.08        22.4 0.24            167           25.0 194 
 BRR  HZ EP       1937 45.02                             153    0.3910 72.5 297 
 BRR  HN ES       1938  2.46                             153    0.6810 72.5 297 
 BRR  HZ I        1938  6.57        20.3 0.58            150           72.5 297 
 PAM  SZ EP       1937 45.97                             153    0.4910 75.1  39 
 PAM  SN ES       1938  3.28                             153   -0.0210 75.1  39 
 PAM  SZ I        1938  5.31        25.6 0.58            158           75.1  39 
 RUS  HZ EP   1   1937 46.83                             145   -0.34 7  102 177 
 RUS  HN ES   1   1938  5.69                             145   -0.62 7  102 177 
 PTB  HZ EP       1937 49.87                             133   -0.53 9  150 259 
 PTB  HN ES   1   1938 11.17                             133   -0.88 7  150 259 
 PTB  HZ I        1938 18.54        26.7 0.40            132            150 259 
 OCA  HZ EP   1   1937 51.07                             131   -0.35 7  159 352 
 OCA  HN ES       1938 13.62                             131   -0.25 9  159 352 
 OCA  HZ I        1938 20.73        17.3 0.32            133            159 352 
 SPBC HZ EP       1937 52.03                             130    0.13 9  165 219 
 SPBC HN ES       1938 14.75                             130    0.02 9  165 219 
 SPBC HZ I        1938 21.22        23.8 0.30            130            165 219 
 ZAR  HZ EP   1   1937 54.97                             124   -0.74 6  206 292 
 ZAR  HE ES   1   1938 21.23                             124   -0.27 6  206 292 
 ZAR  HZ I        1938 29.47        14.6 0.20            124            206 292 
 SML  HZ EP       1937 59.15                             119   -0.50 8  243 335 
 SML  HN ES       1938 29.20                             119    0.69 8  243 335 
 SML  HZ I        1938 32.83        27.2 0.10            120            243 335 
 CHI  HZ EP       1938  1.20                             118    0.28 8  250 196 
 CHI  HE ES       1938 31.37                             118    0.58 8  250 196 
 CHI  HZ I        1938 38.26         4.0 0.50            120            250 196 
 URE  HZ EP   4   1938  3.62                             115   -0.61 0  285 292 
 GUY2CHZ EP   4   1938  4.76                             113   -2.09 0  304 235 
 GUY2CHE ES   1   1938 42.32                             113    0.98 5  304 235 
 GUY2CHZ I        1938 47.89         7.4 0.26                           304 235 
 TOL  SZ EP   4   1938 13.12                             110    1.67 0  346 225 
 TOL  SN ES   4   1938 51.75                             110    2.22 0  346 225 
 TOL  SZ I        1938 54.19        12.3 0.26            112            346 225 
 PRA  HN ES   4   1938 57.79                             108   -1.00 0  394 210 
 PRA  HZ I        1939  4.80         4.6 0.48            109            394 210 
                                                                                
