 2012 10 5 1629 15.5 L   6.787 -73.047146.9  RSN  8 0.4 2.5LRSN                1
 GAP=150        0.79       4.5     8.1  6.9 -0.1383E+02  0.1079E+02  0.9542E+01E
 Epicentro: LOS SANTOS - SANTANDER                                             3
 ACTION:UP  12-11-22 17:02 OP:ep   STATUS:               ID:20121005162915 L   I
 2012-10-05-1628-15M.COL___199                                                 6
 STAT SP IPHASW D HRMM SECON CODA AMPLIT PERI AZIMU VELO AIN AR TRES W  DIS CAZ7
 BAR2 SZ EP       1629 35.10                             169   -0.2610 26.2 215 
 BAR2 SZ ES   2   1629 51.07                             169    0.24 5 26.2 215 
 BAR2 SZ I        1629 51.63        71.1 0.32                          26.2 215 
 GIR2 SZ EP   3   1629 34.99                             165   -0.49 2 36.1 333 
 PAM  SZ EP       1629 37.89                             152    0.3210 72.2  32 
 PAM  SN ES   1   1629 55.16                             152    0.40 7 72.2  32 
 PAM  SN I        1629 55.79        77.3 0.40                          72.2  32 
 BRR  HZ EP       1629 37.11                             149   -0.3110 81.6 296 
 BRR  HN ES   2   1629 54.38                             149   -0.11 5 81.6 296 
 BRR  HZ I        1629 55.62        45.5 0.32                          81.6 296 
 RUS  HZ EP       1629 39.00                             144   -0.2910 99.0 182 
 RUS  HN ES   1   1629 57.58                             144   -0.23 7 99.0 182 
 GRA  SZ EP   9   1629 42.84                             137    2.07 0  124  12 
 GRA  SZ ES   1   1630  2.26                                   -0.25 7  124  12 
 CHI  HZ EP       1629 53.10                             117   -0.38 8  250 198 
 CHI  HN ES   2   1630 22.93                             117   -0.15 4  250 198 
 CHI  HZ I        1630 26.34        10.8 0.36                           250 198 
 ROSC BZ EP       1629 55.03                             116    0.81 8  257 213 
 ROSC BE ES   1   1630 25.02                             116    0.63 6  257 213 
 ROSC BZ I        1630 31.03        29.1 0.45                           257 213 
                                                                                
