 2010 10 5 1932 12.7 L   6.796 -73.095149.0  RSN 16 0.5 3.2LRSN                1
 GAP=130        1.17       3.5     6.4  6.2 -0.6899E+01  0.7216E+01  0.3040E+01E
 Epicentro: LOS SANTOS - SANTANDER                                             3
 ACTION:UP  11-02-18 11:07 OP:tino STATUS:               ID:20101005193212 L   I
 2010-10-05-1929-35S.COL___122                                                 6
 STAT SP IPHASW D HRMM SECON CODA AMPLIT PERI AZIMU VELO SNR AR TRES W  DIS CAZ7
 BAR2 SZ IP       1932 32.53                             170    -0.210   25 203 
 BAR2 SZ ES   1   1932 47.91                             170    -0.4 7   25 203 
 BAR2 SZ I        1932 49.08       569.0 0.28                            25 203 
 BRR  HZ EP       1932 34.35                             151    -0.110   76 297 
 BRR  HN ES       1932 51.99                             151     0.510   76 297 
 BRR  HZ I        1932 53.10       256.6 0.32                            76 297 
 RUS  HZ EP       1932 36.46                             145    -0.210  100 179 
 RUS  HN ES       1932 55.38                             145     0.010  100 179 
 RUS  HZ I        1932 56.39       271.8 0.42                           100 179 
 GUE  SZ EP       1932 37.58                             140    -0.110  116   9 
 GRA  SZ EP       1932 38.31                             138     0.210  125  15 
 GRA  SZ ES   1   1932 58.20                             138     0.2 7  125  15 
 GRA  SZ I        1932 59.22       198.7 0.53                           125  15 
 OCA  SZ EP       1932 40.96                             130    -0.4 9  161 351 
 OCA  SZ ES   1   1933  3.82                             130     0.1 7  161 351 
 OCA  SZ I        1933  7.62       223.7 0.45                           161 351 
 NOR  SZ EP       1932 48.08                             119    -1.0 8  239 235 
 CHI  HZ EP       1932 50.38                             118    -0.3 8  250 196 
 CHI  HN ES       1933 20.23                             118    -0.1 8  250 196 
 CHI  HZ I        1933 23.96        79.2 0.39                           250 196 
 ROSC BZ EP       1932 52.17                             117     0.9 8  255 212 
 ROSC BN ES   2   1933 22.13                             117     0.8 4  255 212 
 ROSC BZ I        1933 24.79       101.5 0.29                           255 212 
 CVER SZ EP       1932 54.32                             115     0.9 8  274 203 
 HEL  HZ EP       1932 54.17                             115     0.5 7  277 256 
 HEL  HN ES   1   1933 24.90                             115    -0.7 6  277 256 
 HEL  HZ I        1933 30.40       108.6 0.27                           277 256 
 RREF HZ EP       1932 59.50                             111     0.1 7  326 230 
 RREF HZ I        1933 44.39        94.9 0.43                           326 230 
 DBB  SZ EP       1933  0.23                             110    -0.7 7  345 274 
 TOL  SZ EP   1   1933  2.37                             110     0.9 5  347 225 
 SDV  BZ EP   1   1933  2.48                             109     0.1 5  356  50 
 SDV  BZ I        1933 41.31        33.8 0.17                           356  50 
 PRA  HZ EP       1933  6.25                             107    -0.3 6  394 210 
 PRA  HN ES       1933 48.63                             107     0.0 6  394 210 
                                                                                
