 2015  4 5 1805  5.7 L   6.780 -73.116147.4  RSN  7 0.5 1.4LRSN                1
 GAP=203        1.28       5.5     7.2  9.0  0.2999E+01  0.1970E+02  0.1601E+01E
 Epicentro: LOS SANTOS - SANTANDER                                             3
 ACTION:UPD 15-06-03 16:52 OP:cam  STATUS:               ID:20150405180505 L   I
 OLDACT:DUP 15-04-06 00:03 OP:fm   STATUS:               ID:20150405175751d    3
 2015-04-05-1757-50M.COL___276                                                 6
 STAT SP IPHASW D HRMM SECON CODA AMPLIT PERI AZIMU VELO AIN AR TRES W  DIS CAZ7
 BAR2 EZ EP       18 5 25.41                             171   -0.0510 22.0 200 
 BAR2 EZ ES       18 5 41.25                             171    0.3510 22.0 200 
 BAR2 EZ I        18 5 43.78         4.1 0.22            171           22.0 200 
 BRR  HZ EP       18 5 28.07                             151    0.8610 75.2 299 
 BRR  HN ES       18 5 44.35                             151    0.3310 75.2 299 
 BRR  HZ I        18 5 57.41         4.2 0.28            150           75.2 299 
 RUS  HZ EP       18 5 29.23                             145   -0.1710 98.2 178 
 RUS  HN ES       18 5 47.37                             145   -0.5510 98.2 178 
 RUS  HZ I        18 5 49.71         1.6 0.34            152           98.2 178 
 PTB  HZ EP       18 5 32.50                             132   -0.51 9  151 260 
 PTB  HE ES       18 5 53.92                             132   -0.43 9  151 260 
 PTB  HZ I        18 5 56.93         3.2 0.40            134            151 260 
 NOR  HE ES       18 6  9.10                             119   -0.59 8  236 235 
 NOR  HZ I        18 6 15.52         2.4 0.26            123            236 235 
 SML  HE ES       18 6 11.09                             117   -0.58 8  247 335 
 SML  HZ I        18 6 15.43         3.1 0.28            121            247 335 
 GUY2CHZ EP       18 5 50.14                             112    0.64 7  303 235 
 GUY2CHN ES       18 6 24.59                             112    0.89 7  303 235 
 GUY2CHZ I        18 6 32.44         1.6 0.32                           303 235 
                                                                                
