 2014  1 5 1032 59.8 L   6.843 -73.167138.3  RSN 10 0.4 1.7LRSN                1
 GAP=132        0.85       2.8     4.3  7.7 -0.1839E+01  0.9967E+01  0.2632E+01E
 Epicentro: LOS SANTOS - SANTANDER                                             3
 ACTION:UPD 14-03-13 09:51 OP:ep   STATUS:               ID:20140105103259 L   I
 OLDACT:REG 14-01-05 14:37 OP:mh   STATUS:               ID:20140105103000     3
 2014-01-05-1030-00M.COL___285                                                 6
 STAT SP IPHASW D HRMM SECON CODA AMPLIT PERI AZIMU VELO AIN AR TRES W  DIS CAZ7
 BAR2 SZ EP   1   1033 18.91                             168    0.25 7 27.8 183 
 BAR2 SZ I        1033 34.94        14.1 0.26            168           27.8 183 
 PAM  SZ EP       1033 21.92                             150    0.7910 75.4  43 
 PAM  SE ES   1   1033 37.55                             150   -0.19 7 75.4  43 
 PAM  SZ I        1033 40.88        15.7 0.44            151           75.4  43 
 RUS  HZ EP   1   1033 23.18                             141   -0.04 7  106 175 
 RUS  HN ES   1   1033 41.49                             141    0.02 7  106 175 
 RUS  HZ I        1033 43.71         4.1 0.19            142            106 175 
 PTB  HZ EP   1   1033 26.00                             131   -0.07 7  146 257 
 PTB  HN ES   1   1033 46.16                             131   -0.37 7  146 257 
 PTB  HZ I        1033 49.52         7.3 0.11            134            146 257 
 OCA  HZ EP   1   1033 26.32                             129   -0.77 7  155 354 
 OCA  HN ES   1   1033 48.12                             129   -0.23 7  155 354 
 OCA  HZ I        1033 52.73         6.9 0.13            132            155 354 
 ZAR  HZ EP   4   1033 34.03                             121    2.65 0  200 291 
 ZAR  HN ES   1   1033 56.78                             121    0.79 6  200 291 
 NOR  HZ EP   1   1033 35.11                             117   -0.12 6  236 233 
 NOR  HE ES       1034  2.76                             117   -0.08 8  236 233 
 NOR  HZ I        1034  4.92         3.3 0.16            119            236 233 
 SML  HZ EP   1   1033 35.17                             116   -0.29 6  238 335 
 SML  HN ES   1   1034  2.90                             116   -0.36 6  238 335 
 SML  HZ I        1034  5.53        11.3 0.22            119            238 335 
 CHI  HZ EP       1033 37.30                             115   -0.26 8  253 194 
 CHI  HN ES       1034  6.67                             115   -0.32 8  253 194 
 CHI  HZ I        1034 12.32         2.3 0.33            117            253 194 
 GUY2CHZ EP       1033 43.66                             111    0.47 7  302 234 
 GUY2CHN ES   4   1034 20.82                             111    3.80 0  302 234 
 GUY2CHZ I        1034 27.21         2.5 0.27                           302 234 
                                                                                
