 2013  1 5 1746 49.2 L   6.719 -73.202150.0  RSN  5 0.4 1.8LRSN                1
 GAP=224        0.78       7.8     6.9  7.5  0.3277E+02  0.5786E+01 -0.5206E+01E
 Epicentro: VILLANUEVA - SANTANDER                                             3
 ACTION:UPD 13-02-15 09:12 OP:ep   STATUS:               ID:20130105174649 L   I
 2013-01-05-1740-00M.COL___242                                                 6
 STAT SP IPHASW D HRMM SECON CODA AMPLIT PERI AZIMU VELO AIN AR TRES W  DIS CAZ7
 BAR2 SZ EP       1747  9.29                             174    0.1410 14.2 171 
 BAR2 SZ ES   1   1747 24.97                             174    0.22 7 14.2 171 
 BAR2 SZ I        1747 25.59        23.3 0.20            171           14.2 171 
 BRR  HZ EP   1   1747 10.84                             153    0.10 7 70.8 307 
 BRR  HN ES   1   1747 27.05                             153   -0.53 7 70.8 307 
 BRR  HZ I        1747 28.48         9.1 0.38            151           70.8 307 
 RUS  HZ EP   1   1747 11.96                             147   -0.80 7 92.4 172 
 RUS  HN ES   1   1747 31.62                             147    0.44 7 92.4 172 
 RUS  HZ I        1747 33.30         8.5 0.26            147           92.4 172 
 PTB  HZ EP   1   1747 15.83                             135    0.03 7  140 262 
 PTB  HN ES   1   1747 36.36                             135   -0.22 7  140 262 
 PTB  HZ I        1747 38.88         5.2 0.72            132            140 262 
 ZAR  HZ EP   1   1747 22.09                             124    0.43 6  202 295 
 ZAR  HE ES   1   1747 47.26                             124    0.25 6  202 295 
 ZAR  HZ I        1747 53.83         5.7 0.22            123            202 295 
                                                                                
