 2012  5 5 1919  3.6 L   6.770 -73.169139.3  RSN  6 0.4 2.1LRSN                1
 GAP=135        1.11       6.9     6.0  9.6  0.2211E+01  0.1159E+02 -0.6639E+01E
 Epicentro: LOS SANTOS - SANTANDER                                             3
 ACTION:UP  12-07-05 12:02 OP:pat  STATUS:               ID:20120505191903 L   I
 2012-05-05-1916-48M.COL___190                                                 6
 STAT SP IPHASW D HRMM SECON CODA AMPLIT PERI AZIMU VELO SNR AR TRES W  DIS CAZ7
 BAR2 SZ EP       1919 22.25                             172    -0.110   20 184 
 BAR2 SZ ES   1   1919 36.86                             172    -0.1 7   20 184 
 BAR2 SZ I        1919 37.97        48.4 0.15                            20 184 
 BRR  HZ EP       1919 24.17                             151     0.210   71 302 
 BRR  HN ES   1   1919 40.56                             151     0.6 7   71 302 
 BRR  HZ I        1919 45.59        34.8 0.16                            71 302 
 PAM  SZ EP       1919 25.36                             148     0.010   82  39 
 PAM  SN ES   1   1919 41.98                             148    -0.4 7   82  39 
 PAM  SZ I        1919 44.50        22.4 0.38                            82  39 
 RUS  HZ EP   1   1919 27.23                             143     0.8 7   97 174 
 RUS  HN ES   1   1919 44.03                             143    -0.3 7   97 174 
 RUS  HZ I        1919 45.63         9.2 0.23                            97 174 
 PTB  HZ EP   1   1919 29.82                             131     0.1 7  145 260 
 PTB  HN ES   1   1919 49.53                             131    -0.6 7  145 260 
 PTB  HZ I        1919 52.80        14.3 0.09                           145 260 
 ZAR  HZ EP   1   1919 34.56                             121    -0.9 6  203 293 
 ZAR  HN ES   1   1920  0.78                             121     0.4 6  203 293 
 ZAR  HZ I        1920  3.63        11.9 0.17                           203 293 
                                                                                
