 2013  7 5 1437 48.2 L   6.750 -73.139140.2  RSN  4 0.3 1.2LRSN                1
 GAP=234        0.79       6.5     7.5  7.3  0.2872E+02 -0.1151E+01 -0.1420E+01E
 Epicentro: LOS SANTOS - SANTANDER                                             3
 ACTION:UPD 13-08-12 10:35 OP:ep   STATUS:               ID:20130705143748 L   I
 OLDACT:REG 13-07-05 16:18 OP:jn   STATUS:               ID:20130705142959     3
 2013-07-05-1429-59M.COL___267                                                 6
 STAT SP IPHASW D HRMM SECON CODA AMPLIT PERI AZIMU VELO AIN AR TRES W  DIS CAZ7
 BAR2 SZ EP       1438  7.08                             172   -0.0310 18.1 195 
 BAR2 SZ ES   1   1438 21.42                             172   -0.40 7 18.1 195 
 BAR2 SZ I        1438 23.47         3.9 0.16            165           18.1 195 
 BRR  HZ EP       1438  8.98                             150   -0.0210 74.7 302 
 BRR  HN ES       1438 25.39                             150    0.2010 74.7 302 
 BRR  HZ I        1438 26.44         3.6 0.14            149           74.7 302 
 RUS  HZ EP       1438 11.50                             144    0.4510 95.0 176 
 RUS  HN ES       1438 28.71                             144   -0.1210 95.0 176 
 RUS  HZ I        1438 32.07         1.4 0.32            142           95.0 176 
 PTB  HZ EP   1   1438 13.97                             131   -0.78 7  148 261 
 PTB  HN ES   1   1438 35.68                             131    0.27 7  148 261 
 PTB  HZ I        1438 39.76         3.0 0.12            129            148 261 
                                                                                
