 2011 11 5 1942 23.9 L   6.792 -73.132148.0  RSN  7 0.4 1.9LRSN                1
 GAP=139        0.91       5.7     7.5  8.3  0.4302E+01 -0.1453E+00 -0.2886E+01E
 Epicentro: LOS SANTOS - SANTANDER                                             3
 ACTION:UPD 12-07-13 16:08 OP:ep   STATUS:               ID:20111105194223 L   I
 2011-11-05-1941-01S.COL___175                                                 6
 STAT SP IPHASW D HRMM SECON CODA AMPLIT PERI AZIMU VELO AIN AR TRES W  DIS CAZ7
 BTL  SZ EP       1942 42.93                             172   -0.8110 20.5 313 
 BAR2 SZ EP       1942 43.84                             171    0.0610 22.8 194 
 BAR2 SZ ES   1   1942 58.95                             171   -0.34 7 22.8 194 
 BAR2 SZ I        1943  0.33        18.3 0.16                          22.8 194 
 BRR  HZ EP       1942 45.65                             152    0.2610 73.0 299 
 BRR  HE ES   1   1943  2.73                             152    0.58 7 73.0 299 
 BRR  HZ I        1943  5.44        19.8 0.38                          73.0 299 
 PAM  SZ EP       1942 46.70                             151    0.3710 77.1  38 
 PAM  SN ES   1   1943  3.71                             151   -0.12 7 77.1  38 
 RUS  HZ EP       1942 47.94                             144    0.1510 99.6 177 
 RUS  HE ES   1   1943  6.55                             144    0.11 7 99.6 177 
 RUS  HZ I        1943  7.57         7.1 0.28                          99.6 177 
 OCA  SZ EP   2   1942 52.32                             130   -0.16 5  161 353 
 ZAR  HE ES   2   1943 21.59                             122   -0.64 4  206 292 
 ZAR  HZ I        1943 27.73         7.1 0.24                           206 292 
                                                                                
