 2013 12 5 1300 29.0 L   6.732 -73.196150.4  RSN  4 0.2 1.4LRSN                1
 GAP=226        0.47       4.1     3.5  3.8  0.6324E+01  0.1328E+01  0.1749E+01E
 Epicentro: VILLANUEVA - SANTANDER                                             3
 ACTION:UPD 14-01-13 10:16 OP:ep   STATUS:               ID:20131205130029 L   I
 OLDACT:UP  13-12-05 16:08 OP:cam  STATUS:               ID:20131205130000     3
 OLDACT:REG 13-12-05 14:57 OP:cam  STATUS:               ID:20131205130000     3
 2013-12-05-1300-00M.COL___285                                                 6
 STAT SP IPHASW D HRMM SECON CODA AMPLIT PERI AZIMU VELO AIN AR TRES W  DIS CAZ7
 BAR2 SZ EP       13 0 48.90                             174   -0.2010 15.5 174 
 BAR2 SZ ES       13 1  4.74                             174    0.0010 15.5 174 
 BRR  HZ EP       13 0 50.86                             154    0.2110 70.5 306 
 BRR  HN ES       13 1  7.47                             154   -0.0410 70.5 306 
 RUS  HZ EP       13 0 52.96                             147    0.1910 93.6 172 
 RUS  HN ES   1   13 1 11.21                             147   -0.07 7 93.6 172 
 RUS  HZ I        13 1 12.59         3.0 0.32            145           93.6 172 
 PTB  HZ EP       13 0 55.54                             134   -0.25 9  141 261 
 PTB  HN ES       13 1 16.74                             134    0.09 9  141 261 
 PTB  HZ I        13 1 19.12         3.7 0.24            133            141 261 
                                                                                
