 2012 12 5 1631 16.2 L   6.780 -73.166136.0  RSN  4 0.3 1.6LRSN                1
 GAP=275        0.77       8.0     5.2  7.5  0.1249E+02  0.1636E+02  0.4445E+01E
 Epicentro: LOS SANTOS - SANTANDER                                             3
 ACTION:UPD 13-01-04 14:25 OP:ep   STATUS:               ID:20121205163116 L   I
 2012-12-05-1630-00M.COL___237                                                 6
 STAT SP IPHASW D HRMM SECON CODA AMPLIT PERI AZIMU VELO AIN AR TRES W  DIS CAZ7
 BAR2 SZ ES       1631 49.15                             171    0.1910 20.8 185 
 BAR2 SZ I        1631 51.45         8.4 0.10                          20.8 185 
 RUS  HZ EP       1631 39.21                             142    0.3610 98.6 175 
 RUS  HE ES       1631 56.14                             142   -0.3810 98.6 175 
 RUS  HE I        1631 59.01         5.7 0.44                          98.6 175 
 PTB  HZ EP       1631 41.74                             130   -0.40 9  145 260 
 PTB  HN ES       1632  2.37                             130    0.00 9  145 260 
 PTB  HN I        1632  8.05         6.8 0.38                           145 260 
 NOR  HE ES       1632 18.46                             117    0.25 8  232 235 
 NOR  HE I        1632 24.26         4.9 0.16                           232 235 
                                                                                
