 2017 11 5 1014 26.3 L   6.784 -73.126149.1  RSN 17 0.5 2.0LRSN                1
 GAP= 71        0.85       3.1     2.4  5.5  0.3778E+00  0.2870E+01  0.6317E+01E
 Epicentro: LOS SANTOS - SANTANDER                                             3
 ACTION:UPD 17-12-12 19:52 OP:rebc STATUS:               ID:20171105101426 L   I
 OLDACT:UP  17-11-05 21:23 OP:mg   STATUS:               ID:20171105100739     3
 OLDACT:REG 17-11-05 19:57 OP:mg   STATUS:               ID:20171105100739     3
 2017-11-05-1008-00M.COL___414                                                 6
 STAT SP IPHASW D HRMM SECON CODA AMPLIT PERI AZIMU VELO AIN AR TRES W  DIS CAZ7
 BAR2 EZ IP     D 1014 46.13                             171   -0.1310 22.1 196 
 BAR2 EZ ES   2   1015  1.20                             171   -0.67 5 22.1 196 
 BAR2 EZ I        1015  2.54        30.6 0.22            168           22.1 196 
 BRR  HZ IP     D 1014 47.96                             152    0.0410 73.9 299 
 BRR  HE ES       1015  5.23                             152    0.4110 73.9 299 
 BRR  HZ I        1015  9.20        14.9 0.14            153           73.9 299 
 PAM  EZ EP     D 1014 48.83                             151    0.0010 77.4  37 
 PAM  EN ES       1015  6.06                             151   -0.3810 77.4  37 
 PAM  EZ I        1015  8.88         9.7 0.56            155           77.4  37 
 PTB  HZ EP   1   1014 52.87                             132   -0.79 7  150 260 
 PTB  HN ES   1   1015 14.40                             132   -0.63 7  150 260 
 PTB  HZ I        1015 16.30        10.8 0.14            132            150 260 
 TAM  HZ EP       1014 54.38                             132    0.41 9  153 105 
 TAM  HE ES       1015 16.02                             132    0.43 9  153 105 
 TAM  HZ I        1015 16.52         9.2 0.24            133            153 105 
 SPBC HZ EP       1014 54.74                             130   -0.27 9  163 220 
 SPBC HN ES   1   1015 17.05                             130   -0.39 7  163 220 
 SPBC HZ I        1015 18.41        11.6 0.13            129            163 220 
 YPLC HZ EP   1   1014 56.26                             128    0.22 7  174 152 
 YPLC HN ES   1   1015 19.01                             128   -0.27 7  174 152 
 YPLC HZ I        1015 22.80         7.8 0.36            128            174 152 
 ZAR  HZ EP       1014 58.94                             123   -0.25 8  207 292 
 ZAR  HN ES       1015 25.49                             123    0.61 8  207 292 
 ZAR  HZ I        1015 30.20        19.1 0.36            124            207 292 
 NOR  HZ EP     D 1015  2.64                             119    0.38 8  235 235 
 NOR  HE ES       1015 30.96                             119    0.62 8  235 235 
 NOR  HZ I        1015 35.45         7.9 0.30            119            235 235 
 CHI  HZ EP   1   1015  3.97                             118   -0.05 6  248 196 
 CHI  HN ES       1015 33.72                             118    0.25 8  248 196 
 URE  HZ EP   2   1015  6.95                             114   -0.83 4  286 292 
 URE  HN ES   2   1015 39.62                             114   -0.55 4  286 292 
 URE  HZ I        1015 40.97         5.3 0.10            115            286 292 
 GUY2CHZ EP   3   1015 11.15                             113    1.05 2  302 235 
 GUY2CHN ES   1   1015 43.71                             113   -0.59 5  302 235 
 GUY2CHZ I        1015 54.94         4.6 0.50                           302 235 
 PTGC HZ EP   2   1015  8.80                             112   -1.19 4  306 159 
 PTGC HN ES   2   1015 42.93                             112   -1.17 4  306 159 
 PTGC HZ I        1015 54.28         9.4 0.51            113            306 159 
 CBOC HZ EP   1   1015 13.78                             110    0.30 5  335 252 
 CBOC HN ES   1   1015 50.43                             110    0.11 5  335 252 
 CBOC HZ I        1016  0.57         1.5 0.16            111            335 252 
 PRA  HZ EP   2   1015 20.60                             107    0.76 3  392 210 
 PRA  HN ES   1   1016  1.70                             107    0.07 4  392 210 
 PRA  HZ I        1016  7.82         3.2 0.22            107            392 210 
 ORTC HN ES   3   1016  4.56                             107    2.15 1  395 217 
 ORTC HZ I        1016  9.60         2.7 0.31            107            395 217 
 SJC  HZ EP   3   1015 20.49                             106   -1.74 1  412 327 
 SJC  HN ES   4   1016  1.54                             106   -4.36 0  412 327 
 SJC  HZ I        1016  6.09         2.4 0.50            107            412 327 
                                                                                
