 2011  8 5 1246 43.9 L   6.759 -73.090150.3  RSN  4 0.2 2.0LRSN                1
 GAP=240        0.44       3.6     4.4  4.2  0.2256E+01  0.5399E+01  0.2093E+01E
 Epicentro: LOS SANTOS - SANTANDER                                             3
 ACTION:UPD 12-07-25 14:06 OP:epov STATUS:               ID:20110805124643 L   I
 2011-08-05-1245-09S.COL___135                                                 6
 STAT SP IPHASW D HRMM SECON CODA AMPLIT PERI AZIMU VELO AIN AR TRES W  DIS CAZ7
 BAR2 SZ IP       1247  4.03                             172   -0.0510 21.1 209 
 BAR2 SZ I        1247  4.19        27.8 0.40                          21.1 209 
 BAR2 SZ ES   1   1247 19.41                             172   -0.37 7 21.1 209 
 BRR  HZ EP       1247  6.02                             151    0.0010 78.7 299 
 BRR  HN ES   1   1247 23.48                             151    0.25 7 78.7 299 
 BRR  HZ I        1247 25.60        27.1 0.14                          78.7 299 
 RUS  HZ EP   1   1247  7.92                             146    0.10 7 95.8 180 
 RUS  HE ES   1   1247 26.67                             146    0.24 7 95.8 180 
 RUS  HZ I        1247 28.06        11.2 0.62                          95.8 180 
 NOR  SZ EP       1247 20.14                             119   -0.07 8  237 236 
 NOR  SN ES   1   1247 48.40                             119   -0.09 6  237 236 
                                                                                
