 2013  1 5 1801 23.0 L   6.791 -73.107142.4  RSN  9 0.5 2.2LRSN                1
 GAP=187        1.00       4.9     5.9  8.1 -0.3280E+00  0.1259E+02 -0.2898E+01E
 Epicentro: LOS SANTOS - SANTANDER                                             3
 ACTION:UPD 13-02-15 09:12 OP:ep   STATUS:               ID:20130105180123 L   I
 2013-01-05-1800-00M.COL___242                                                 6
 STAT SP IPHASW D HRMM SECON CODA AMPLIT PERI AZIMU VELO AIN AR TRES W  DIS CAZ7
 BAR2 SZ EP       18 1 42.54                             170    0.2710 23.5 201 
 BAR2 SZ ES   1   18 1 57.08                             170   -0.19 7 23.5 201 
 BAR2 SZ I        18 1 58.23        65.2 0.24            169           23.5 201 
 BRR  HZ IP     C 18 1 44.52                             150    0.4410 75.4 298 
 BRR  HN ES   1   18 2  1.07                             150    0.58 7 75.4 298 
 BRR  HZ I        18 2  6.40        24.2 0.10            148           75.4 298 
 RUS  HZ EP   1   18 1 46.67                             143    0.30 7 99.3 178 
 RUS  HN ES   1   18 2  4.43                             143   -0.14 7 99.3 178 
 RUS  HZ I        18 2  5.85        11.6 0.24            148           99.3 178 
 PTB  HZ EP   1   18 1 49.36                             130   -0.75 7  152 260 
 PTB  HE ES   1   18 2 10.61                             130   -0.61 7  152 260 
 PTB  HZ I        18 2 12.57        25.9 0.20            131            152 260 
 OCA  HZ EP   1   18 1 50.66                             128   -0.58 7  162 352 
 OCA  HN ES   1   18 2 12.31                             128   -0.93 7  162 352 
 OCA  HZ I        18 2 16.12        23.3 0.38            130            162 352 
 ZAR  HZ EP   1   18 1 56.33                             121    0.61 6  208 292 
 ZAR  HE ES   1   18 2 22.05                             121    0.84 6  208 292 
 ZAR  HZ I        18 2 30.45        14.5 0.10            122            208 292 
 NOR  HZ EP   1   18 1 58.78                             117   -0.11 6  238 235 
 NOR  HE ES   1   18 2 26.32                             117   -0.53 6  238 235 
 NOR  HZ I        18 2 28.42        14.0 0.22            120            238 235 
 HEL  HZ EP   1   18 2  3.84                             114    0.32 6  276 256 
 HEL  HN ES   1   18 2 34.75                             114   -0.34 6  276 256 
 HEL  HZ I        18 2 41.59         7.7 0.26            116            276 256 
 MON  HZ EP   4   18 2 10.48                             108   -1.90 0  358 308 
 MON  HN ES   4   18 2 49.51                             108   -1.35 0  358 308 
 MON  HZ I        18 2 49.91         3.5 0.16            110            358 308 
                                                                                
