 2011 10 5 1500 17.5 L   6.797 -73.146140.6  RSN 14 0.4 2.8LRSN                1
 GAP=114        0.83       2.8     3.6  5.5  0.2906E+00  0.6539E+01  0.4141E+01E
 Epicentro: LOS SANTOS - SANTANDER                                             3
 ACTION:UPD 12-07-13 16:02 OP:ep   STATUS:               ID:20111005150017 L   I
 2011-10-05-1457-54S.COL___169                                                 6
 STAT SP IPHASW D HRMM SECON CODA AMPLIT PERI AZIMU VELO AIN AR TRES W  DIS CAZ7
 BAR2 SZ IP       15 0 36.46                             170   -0.0310 23.0 190 
 BAR2 SZ ES   1   15 0 50.97                             170   -0.34 7 23.0 190 
 BAR2 SZ I        15 0 52.52       225.1 0.26                          23.0 190 
 BRR  HZ EP       15 0 38.43                             151    0.3410 71.4 299 
 BRR  HZ I        15 0 38.86        98.3 0.11                          71.4 299 
 BRR  HE ES   1   15 0 54.72                             151    0.56 7 71.4 299 
 PAM  SZ EP       15 0 39.58                             150    0.4110 77.7  39 
 PAM  SN ES   1   15 0 56.14                             150    0.06 7 77.7  39 
 RUS  HZ EP       15 0 40.47                             143   -0.2310  100 176 
 RUS  HZ I        15 0 41.63        49.2 0.16                           100 176 
 RUS  HE ES   1   15 0 58.30                             143   -0.52 7  100 176 
 OCA  SZ EP   1   15 0 45.04                             128   -0.39 7  161 353 
 OCA  SZ ES   1   15 1  6.53                             128   -0.70 7  161 353 
 OCA  SZ I        15 1 11.25        69.4 0.34                           161 353 
 YOP  SZ EP   1   15 0 47.20                             125    0.07 7  179 153 
 YOP  SE ES   1   15 1 10.97                             125    0.72 7  179 153 
 ZAR  HZ EP   1   15 0 48.99                             121   -0.62 6  204 292 
 ZAR  HN ES   1   15 1 15.14                             121    0.47 6  204 292 
 ZAR  HZ I        15 1 20.78        65.8 0.27                           204 292 
 NOR  SZ EP   1   15 0 52.47                             117   -0.43 6  234 235 
 NOR  SN ES   1   15 1 20.11                             117   -0.41 6  234 235 
 CHI  HZ EP   1   15 0 54.52                             116   -0.34 6  248 195 
 CHI  HE ES   1   15 1 23.72                             116   -0.30 6  248 195 
 CHI  HZ I        15 1 31.33        14.8 0.54                           248 195 
 ROSC BZ EP   1   15 0 55.38                             116    0.09 6  252 211 
 HEL  HZ EP   1   15 0 57.82                             114    0.39 6  272 256 
 HEL  HN ES   1   15 1 28.01                             114   -0.58 6  272 256 
 GUY  SZ EP   1   15 1  1.74                             111    0.64 5  303 235 
 GUY  SN ES   1   15 1 35.83                             111    0.71 5  303 235 
 GUY  SZ I        15 1 43.29        33.0 0.27                           303 235 
 TOL  SZ EP   1   15 1  6.03                             108    0.52 5  343 225 
 PRA  HZ EP   1   15 1 10.10                             106   -0.70 4  392 210 
 PRA  HN ES   1   15 1 52.69                             106    0.31 4  392 210 
 PRA  HZ I        15 1 55.64        47.6 0.20                           392 210 
                                                                                
