 2015  4 5 1928  2.5 L   6.842 -73.202140.6  RSN 18 0.4 2.4LRSN                1
 GAP= 67        0.87       2.1     2.3  4.1 -0.8054E+00  0.2903E+01  0.6636E+00E
 Epicentro: ZAPATOCA - SANTANDER                                               3
 ACTION:UPD 15-06-03 16:52 OP:cam  STATUS:               ID:20150405192803dL   I
 OLDACT:REG 15-04-05 21:19 OP:fm   STATUS:               ID:20150405191749     3
 2015-04-05-1917-49M.COL___276                                                 6
 STAT SP IPHASW D HRMM SECON CODA AMPLIT PERI AZIMU VELO AIN AR TRES W  DIS CAZ7
 BAR2 EZ EP       1928 21.80                             168    0.1610 27.7 176 
 BAR2 EZ ES       1928 36.69                             168    0.1510 27.7 176 
 BAR2 EZ I        1928 38.89        66.4 0.34            169           27.7 176 
 BRR  HZ IP     C 1928 23.40                             154    0.7010 63.6 298 
 BRR  HE ES       1928 39.02                             154    0.5910 63.6 298 
 BRR  HZ I        1928 43.38        49.5 0.14            154           63.6 298 
 PAM  SZ IP     D 1928 24.62                             150    0.3810 78.1  45 
 PAM  SE ES       1928 41.49                             150    0.3110 78.1  45 
 PAM  SZ I        1928 44.46        47.3 0.54            154           78.1  45 
 RUS  HZ EP       1928 25.92                             141   -0.2410  106 173 
 RUS  HE ES       1928 44.27                             141   -0.3310  106 173 
 RUS  HZ I        1928 46.53        22.7 0.36            144            106 173 
 PTB  HZ EP       1928 28.08                             132   -0.54 9  143 257 
 PTB  HE ES       1928 48.89                             132   -0.07 9  143 257 
 PTB  HZ I        1928 50.84        28.4 0.50            133            143 257 
 OCA  HZ EP   1   1928 29.50                             129   -0.45 7  155 355 
 OCA  HE ES       1928 50.99                             129   -0.34 9  155 355 
 OCA  HZ I        1928 59.72        48.5 0.32            132            155 355 
 TAM  HZ EP       1928 30.50                             128    0.02 9  162 106 
 TAM  HE ES       1928 51.67                             128   -0.62 9  162 106 
 SPBC HZ EP       1928 30.70                             128    0.08 9  163 216 
 SPBC HE ES       1928 52.55                             128    0.01 9  163 216 
 SPBC HZ I        1928 59.67        26.3 0.22            130            163 216 
 ZAR  HZ EP       1928 33.99                             122    0.12 9  197 292 
 ZAR  HN ES       1928 57.76                             122   -0.55 9  197 292 
 ZAR  HZ I        1929  1.77        29.7 0.30            124            197 292 
 NOR  HZ EP       1928 37.68                             118   -0.04 8  232 233 
 NOR  HE ES       1929  4.98                             118   -0.19 8  232 233 
 NOR  HZ I        1929  9.28        12.5 0.16            120            232 233 
 SML  HZ EP       1928 38.32                             117    0.19 8  237 336 
 SML  HN ES       1929  5.42                             117   -0.49 8  237 336 
 SML  HZ I        1929 10.20        44.9 0.10            119            237 336 
 ROSC BE ES       1929 10.06                             116    0.00 8  254 209 
 ROSC BZ I        1929 17.08        22.0 0.40            118            254 209 
 HEL  HZ EP       1928 42.16                             114    0.21 8  267 255 
 HEL  HN ES       1929 12.07                             114   -0.62 8  267 255 
 HEL  HZ I        1929 19.81         8.3 0.40            116            267 255 
 GUY2CHZ EP       1928 46.23                             112    0.59 7  299 233 
 GUY2CHE ES       1929 19.33                             112    0.06 7  299 233 
 GUY2CHZ I        1929 28.20        10.0 0.46                           299 233 
 RREF HN EP   1   1928 48.44                             110    0.17 5  320 228 
 RREF HE ES       1929 24.03                             110    0.09 7  320 228 
 RREF HN I        1929 31.97        17.1 0.34            112            320 228 
 CBOC HZ EP       1928 49.15                             109    0.43 7  329 251 
 MON  HZ EP   4   1928 54.53                             108    4.09 0  346 308 
 MON  HE ES   4   1929 26.53                             108   -1.28 0  346 308 
 MON  HZ I        1929 27.65         4.7 0.18            110            346 308 
 ORTC HN ES       1929 38.31                             105    0.08 6  396 215 
 ORTC HZ I        1929 44.65         5.7 0.40            107            396 215 
                                                                                
