 2012  9 5 1509  9.9 L   6.794 -73.140144.0  RSN  8 0.5 2.3LRSN                1
 GAP=138        0.84       5.8     6.3  8.3 -0.3499E+01  0.1390E+01 -0.6396E+01E
 Epicentro: LOS SANTOS - SANTANDER                                             3
 ACTION:UPD 12-10-22 14:17 OP:ep   STATUS:               ID:20120905150909 L   I
 2012-09-05-1508-06M.COL___207                                                 6
 STAT SP IPHASW D HRMM SECON CODA AMPLIT PERI AZIMU VELO AIN AR TRES W  DIS CAZ7
 BAR2 SZ EP       15 9 29.22                             170   -0.0710 22.8 192 
 BAR2 SZ ES   1   15 9 43.55                             170   -0.88 7 22.8 192 
 BAR2 SZ I        15 9 46.44        45.8 0.18                          22.8 192 
 GIR2 SZ EP       15 9 29.19                             167   -0.1810 32.0 349 
 BRR  HZ EP       15 9 31.18                             152    0.2910 72.1 299 
 BRR  HN ES   1   15 9 47.92                             152    0.64 7 72.1 299 
 BRR  HZ I        15 9 51.68        31.9 0.20                          72.1 299 
 PAM  SZ EP       15 9 32.06                             150    0.1410 77.5  39 
 PAM  SZ I        15 9 32.30        52.5 0.20                          77.5  39 
 PAM  SN ES   1   15 9 48.92                             150   -0.18 7 77.5  39 
 RUS  HZ EP   2   15 9 33.52                             143    0.11 5 99.9 176 
 RUS  HN ES   1   15 9 52.31                             143    0.54 7 99.9 176 
 RUS  HZ I        15 9 53.69        24.1 0.30                          99.9 176 
 PTB  HZ EP   3   15 9 36.25                             131   -0.51 2  148 259 
 PTB  HE ES   2   15 9 56.95                             131   -0.77 5  148 259 
 ZAR  HN ES   3   1510  6.41                             121   -1.18 2  205 292 
 ZAR  HZ I        1510 12.70        16.7 0.30                           205 292 
 NOR  SZ EP   3   15 9 44.82                             118   -0.71 2  235 235 
 NOR  SZ I        1510 14.94         9.0 0.18                           235 235 
                                                                                
