 2016  2 5 1122 54.2 L   7.348 -73.353128.0  RSN  4 0.3 1.5LRSN                1
 GAP=117        0.51       4.2     4.2  8.5  0.8439E+01  0.1415E+02 -0.6250E+01E
 Epicentro: SABANA DE TORRES - SANTANDER                                       3
 ACTION:UPD 16-03-04 21:23 OP:rebc STATUS:               ID:20160205112254 L   I
 OLDACT:UP  16-02-05 21:24 OP:dnl  STATUS:               ID:20160205111747     3
 OLDACT:REG 16-02-05 20:37 OP:dnl  STATUS:               ID:20160205111747     3
 2016-02-05-1117-47M.COL___325                                                 6
 STAT SP IPHASW D HRMM SECON CODA AMPLIT PERI AZIMU VELO AIN AR TRES W  DIS CAZ7
 PAM  EZ EP       1123 14.57                             148    0.3210 72.1  91 
 PAM  EE ES       1123 29.67                             148   -0.2010 72.1  91 
 PAM  EZ I        1123 32.09         2.9 0.17            167           72.1  91 
 BAR2 EZ EP   3   1123 14.02                             143   -0.79 2 85.7 167 
 BAR2 EZ ES   2   1123 30.83                             143   -0.03 5 85.7 167 
 BAR2 EZ I        1123 33.88         4.5 0.11            139           85.7 167 
 ZAR  HZ EP   4   1123 23.51                             123    1.80 0  167 276 
 ZAR  HN ES   2   1123 43.10                             123   -0.03 5  167 276 
 ZAR  HZ I        1124  9.38         8.9 0.07            121            167 276 
 SML  HZ EP   2   1123 22.61                             121   -0.33 4  179 334 
 SML  HE ES       1123 45.34                             121    0.01 9  179 334 
 SML  HZ I        1123 46.80         6.9 0.08            126            179 334 
                                                                                
