 2011  8 5 1114 49.8 L   6.805 -73.090150.2  RSN  9 0.4 2.5LRSN                1
 GAP=143        0.65       4.7     6.3  5.5  0.3930E+01  0.1014E+02  0.5207E+01E
 Epicentro: LOS SANTOS - SANTANDER                                             3
 ACTION:UPD 12-07-25 14:06 OP:epov STATUS:               ID:20110805111450 L   I
 2011-08-05-1109-04S.COL___135                                                 6
 STAT SP IPHASW D HRMM SECON CODA AMPLIT PERI AZIMU VELO AIN AR TRES W  DIS CAZ7
 BAR2 SZ EP       1115 10.21                             170    0.1610 25.6 203 
 BAR2 SZ ES   2   1115 25.04                             170   -0.77 5 25.6 203 
 BAR2 SZ I        1115 26.75        85.2 0.14                          25.6 203 
 PAM  SE ES   3   1115 29.16                             153   -0.65 2 73.2  36 
 BRR  HZ EP       1115 12.08                             152    0.3110 76.4 296 
 BRR  HE ES   1   1115 29.14                             152    0.27 7 76.4 296 
 BRR  HZ I        1115 31.87        59.6 0.14                          76.4 296 
 RUS  HZ EP       1115 14.09                             145    0.0410  101 180 
 RUS  HN ES   2   1115 33.08                             145    0.15 5  101 180 
 RUS  HZ I        1115 34.53        30.0 0.54                           101 180 
 NOR  SZ EP       1115 26.13                             119   -0.27 8  240 235 
 NOR  SN ES   2   1115 54.27                             119   -0.64 4  240 235 
 DBB  SZ EP       1115 37.79                             110   -0.41 6  346 274 
 TOL  SZ EP   1   1115 39.49                             110    0.67 5  348 225 
 COD  HZ EP   1   1115 37.95                             110   -0.47 5  348 354 
 PRA  HZ EP       1115 43.74                             107   -0.19 6  395 210 
                                                                                
