 2013  3 5 1103  1.3 L   6.801 -73.128146.8  RSN 19 0.6 2.9LRSN 3.3WRSN        1
 SPEC AVERAGE  MO 14.0 ST 11.3 OM  2.4 f0 3.51 R0.4812 AL 2.35 WI 23.4 MW  3.3 3
 SPEC SD       MO  0.3 ST 14.4 OM  0.5 f0 1.17 R0.2055 AL      WI      MW  0.2 3
 GAP= 72        1.24       2.8     3.4  5.6 -0.1525E+00  0.4201E+01  0.9402E+00E
 Epicentro: LOS SANTOS - SANTANDER                                             3
 SPEC ZAR HH E MO 14.3 ST 49.9 OM  2.5 f0 5.66 R0.2597 AL 2.86 WI 25.4 MW  3.5 3
 SPEC ZAR HH E T11 359 K 0.000 GD  252 VS 4.20 DE 3.20 Q0300.0 QA 0.60 VS 4.20 3
 SPEC TAM HH E MO 13.7 ST  2.5 OM  2.0 f0 3.23 R0.4551 AL 2.15 WI 15.8 MW  3.1 3
 SPEC TAM HH E T11 349 K 0.000 GD  212 VS 4.20 DE 3.20 Q0300.0 QA 0.60 VS 4.20 3
 SPEC RREFHH Z MO 13.7 ST  4.4 OM  1.8 f0 3.85 R0.3818 AL 2.93 WI 25.7 MW  3.1 3
 SPEC RREFHH Z T11 422 K 0.000 GD  354 VS 4.20 DE 3.20 Q0300.0 QA 0.60 VS 4.20 3
 SPEC TAM HH N MO 13.8 ST  1.4 OM  2.1 f0 2.50 R0.5880 AL 1.91 WI 16.5 MW  3.2 3
 SPEC TAM HH N T11 350 K 0.000 GD  212 VS 4.20 DE 3.20 Q0300.0 QA 0.60 VS 4.20 3
 SPEC RUS HH N MO 13.5 ST  1.4 OM  1.9 f0 3.04 R0.4836 AL 2.28 WI 19.9 MW  3.0 3
 SPEC RUS HH N T11 341 K 0.000 GD  178 VS 4.20 DE 3.20 Q0300.0 QA 0.60 VS 4.20 3
 SPEC PRA HH N MO 13.6 ST  5.6 OM  1.6 f0 4.61 R0.3189 AL 2.52 WI 20.4 MW  3.0 3
 SPEC PRA HH N T11 437 K 0.000 GD  419 VS 4.20 DE 3.20 Q0300.0 QA 0.60 VS 4.20 3
 SPEC HEL HH N MO 13.8 ST0.942 OM  1.9 f0 2.23 R0.6592 AL 1.44 WI 33.6 MW  3.1 3
 SPEC HEL HH N T11 413 K 0.000 GD  310 VS 4.20 DE 3.20 Q0300.0 QA 0.60 VS 4.20 3
 SPEC OCA HH N MO 14.5 ST 16.3 OM  2.8 f0 3.26 R0.4509 AL 2.31 WI 32.7 MW  3.6 3
 SPEC OCA HH N T11 351 K 0.000 GD  217 VS 4.20 DE 3.20 Q0300.0 QA 0.60 VS 4.20 3
 SPEC PAM SH Z MO 14.2 ST 23.8 OM  1.8 f0 4.82 R0.3050 AL 2.84 WI 15.4 MW  3.4 3
 SPEC PAM SH Z T11 324 K 0.000 GD  165 VP 7.60 DE 3.20 Q0300.0 QA 0.60 VS 4.20 3
 SPEC BRR HH N MO 14.3 ST 17.7 OM  2.7 f0 3.97 R0.3703 AL 3.28 WI 26.3 MW  3.5 3
 SPEC BRR HH N T11 340 K 0.000 GD  163 VS 4.20 DE 3.20 Q0300.0 QA 0.60 VS 4.20 3
 SPEC BAR2SH Z MO 14.1 ST0.483 OM  2.5 f0 1.44 R1.0208 AL 1.38 WI 25.3 MW  3.3 3
 SPEC BAR2SH Z T11 335 K 0.000 GD  148 VS 4.20 DE 3.20 Q0300.0 QA 0.60 VS 4.20 3
 ACTION:UPD 13-04-09 14:00 OP:ep   STATUS:               ID:20130305110301 L   I
 2013-03-05-1058-49M.COL___196                                                 6
 STAT SP IPHASW D HRMM SECON CODA AMPLIT PERI AZIMU VELO AIN AR TRES W  DIS CAZ7
 BAR2 SZ IP       11 3 21.24                             170    0.1310 23.9 195 
 BAR2 SZ ES       11 3 36.10                             170   -0.4310 23.9 195 
 BAR2 SZ I        11 3 37.12       180.3 0.20            170           23.9 195 
 BRR  HZ IP     D 11 3 23.20                             152    0.5010 72.9 298 
 BRR  HZ I        11 3 23.45       154.1 0.24            142           72.9 298 
 BRR  HN ES       11 3 40.15                             152    0.7910 72.9 298 
 PAM  SZ IP     D 11 3 24.11                             151    0.5210 76.0  38 
 PAM  SZ I        11 3 24.45       180.0 0.26            143           76.0  38 
 PAM  SN ES       11 3 41.22                             151    0.2810 76.0  38 
 RUS  HZ EP       11 3 25.28                             144    0.0810  101 177 
 RUS  HN ES       11 3 43.29                             144   -0.5210  101 177 
 RUS  HE I        11 3 44.67       124.7 0.48            138            101 177 
 PTB  HZ EP   1   11 3 27.77                             132   -0.81 7  150 259 
 PTB  HN ES   1   11 3 48.97                             132   -0.85 7  150 259 
 PTB  HE I        11 3 52.49        91.4 0.20            123            150 259 
 TAM  HZ EP       11 3 29.53                             131    0.60 9  153 105 
 TAM  HN ES       11 3 50.02                             131   -0.43 9  153 105 
 TAM  HE I        11 3 51.98       102.3 0.52            123            153 105 
 OCA  HZ EP       11 3 29.48                             130   -0.26 9  160 352 
 OCA  HN ES       11 3 51.32                             130   -0.58 9  160 352 
 ZAR  HZ EP       11 3 33.72                             122   -0.32 8  206 292 
 ZAR  HE ES       11 4  0.26                             122    0.72 8  206 292 
 ZAR  HN I        11 4  5.68       114.9 0.18            113            206 292 
 SML  HZ EP       11 3 37.57                             118   -0.53 8  244 335 
 SML  HN ES       11 4  7.22                             118    0.44 8  244 335 
 SML  HE I        11 4 13.90       150.1 0.28            109            244 335 
 CHI  HZ EP       11 3 39.46                             117    0.29 8  249 196 
 CHI  HN ES       11 4  8.44                             117   -0.24 8  249 196 
 CHI  HE I        11 4 13.19        44.2 0.62            110            249 196 
 ROSC BZ EP       11 3 40.61                             117    0.96 8  254 211 
 ROSC BN ES       11 4  9.03                             117   -0.49 8  254 211 
 ROSC BZ I        11 4 18.97        25.2 0.35            109            254 211 
 HEL  HZ EP   1   11 3 42.58                             115    0.75 6  274 256 
 HEL  HE ES       11 4 13.85                             115    0.45 8  274 256 
 HEL  HN I        11 4 20.94        24.1 0.32            107            274 256 
 URE  HZ EP       11 3 41.50                             114   -1.16 7  286 292 
 URE  HN ES       11 4 14.64                             114   -0.25 7  286 292 
 VIL  SE ES       11 4 19.59                             112    0.77 7  304 192 
 RREF HN ES       11 4 23.13                             111   -0.75 7  323 230 
 RREF HZ I        11 4 33.80        23.3 0.30            104            323 230 
 COD  HZ EP       11 3 49.38                             109   -0.39 6  348 354 
 COD  HE I        11 4 34.54         9.6 0.62            102            348 354 
 SDV  BE EP       11 3 50.85                             108   -0.39 6  359  50 
 PRA  HZ EP       11 3 54.91                             107   -0.12 6  393 210 
 PRA  HN ES       11 4 37.09                             107    0.19 6  393 210 
 PRA  HE I        11 4 42.50        25.4 0.40            100            393 210 
 SJC  HN EP   4   11 3 55.78                             106   -1.27 0  410 327 
 SJC  HN I        11 4 40.67        27.1 0.38             99            410 327 
                                                                                
