 2013  3 5 1010  9.2 L   6.695 -73.180148.0  RSN  4 0.5 1.4LRSN                1
 GAP=225        1.18      11.1    11.9 14.8  0.7317E+02  0.9765E+01  0.1671E+02E
 Epicentro: VILLANUEVA - SANTANDER                                             3
 ACTION:UPD 13-04-09 14:00 OP:ep   STATUS:               ID:20130305101009 L   I
 2013-03-05-1008-49M.COL___193                                                 6
 STAT SP IPHASW D HRMM SECON CODA AMPLIT PERI AZIMU VELO AIN AR TRES W  DIS CAZ7
 BAR2 SZ EP       1010 28.60                             175   -0.3510 11.3 181 
 BAR2 SZ ES       1010 43.74                             175   -0.5910 11.3 181 
 BAR2 SZ I        1010 44.61         5.3 0.38            175           11.3 181 
 BRR  HN ES       1010 48.26                             152    0.6310 74.4 308 
 RUS  HZ EP   2   1010 32.78                             148    0.35 5 89.3 173 
 RUS  HN ES       1010 51.01                             148    0.4810 89.3 173 
 PTB  HN ES   1   1010 56.17                             134   -0.51 7  142 263 
                                                                                
