 2016 12 5 1238  9.9 L   6.796 -73.123150.0  RSN 10 0.4 2.2LRSN                1
 GAP=158        1.00       4.7     4.5  6.7 -0.3991E+01  0.4710E+01  0.1039E+02E
 Epicentro: LOS SANTOS - SANTANDER                                             3
 ACTION:UPD 17-01-11 20:12 OP:rebc STATUS:               ID:20161205123809 L   I
 OLDACT:UP  16-12-05 21:24 OP:dnl  STATUS:               ID:20161205122742     3
 OLDACT:UP  16-12-05 21:23 OP:dnl  STATUS:               ID:20161205122742     3
 OLDACT:UP  16-12-05 21:23 OP:dnl  STATUS:               ID:20161205122742     3
 OLDACT:REG 16-12-05 20:30 OP:dnl  STATUS:               ID:20161205122742     3
 2016-12-05-1228-00M.COL___340                                                 6
 STAT SP IPHASW D HRMM SECON CODA AMPLIT PERI AZIMU VELO AIN AR TRES W  DIS CAZ7
 BAR2 EZ EP       1238 29.91                             171   -0.1510 23.5 196 
 BAR2 EZ ES       1238 45.47                             171   -0.3010 23.5 196 
 BAR2 EZ I        1238 46.83        27.2 0.40            167           23.5 196 
 BRR  HZ EP       1238 31.78                             152    0.1210 73.6 298 
 BRR  HE ES       1238 49.18                             152    0.5610 73.6 298 
 BRR  HZ I        1238 52.14        20.2 0.38            151           73.6 298 
 PAM  EZ EP       1238 32.65                             152    0.1410 76.1  38 
 PAM  EN ES       1238 49.99                             152   -0.1510 76.1  38 
 PAM  EZ I        1238 51.95        18.5 0.44            157           76.1  38 
 PTB  HZ EP       1238 36.62                             132   -0.83 9  150 259 
 PTB  HE ES       1238 58.94                             132    0.01 9  150 259 
 PTB  HZ I        1239  2.53        16.7 0.30            131            150 259 
 ZAR  HZ EP   2   1238 43.69                             123    0.79 4  207 292 
 ZAR  HN ES       1239  8.90                             123    0.27 8  207 292 
 ZAR  HZ I        1239 14.84        24.9 0.38            123            207 292 
 NOR  HZ EP       1238 45.67                             119   -0.42 8  237 235 
 NOR  HN ES       1239 13.80                             119   -0.51 8  237 235 
 NOR  HZ I        1239 21.83        12.8 0.28            119            237 235 
 CHI  HZ EP       1238 48.37                             118    0.48 8  249 196 
 CHI  HE ES       1239 18.26                             118    0.76 8  249 196 
 CHI  HZ I        1239 26.89         5.3 0.32            118            249 196 
 LL6C HZ EP   4   1238 36.04                             111   -19.8 0  325 357 
 LL6C HE ES   4   1239  9.66                             111   -22.0 0  325 357 
 ANIL HZ EP   4   1238 58.42                             109   -1.64 0  359 225 
 ANIL HE ES   4   1239 40.97                             109    1.80 0  359 225 
 ANIL HZ I        1239 46.54        15.7 0.34            109            359 225 
 PRA  HZ EP   9   1239  1.82                             107   -1.87 0  393 210 
 PRA  HE ES       1239 43.83                             107    0.07 6  393 210 
 PRA  HZ I        1239 46.74         7.1 0.46            107            393 210 
 SJC  HZ EP   4   1239  3.89                             106   -1.94 0  411 327 
 SJC  HE ES   4   1239 47.40                             106   -2.03 0  411 327 
 SJC  HZ I        1239 50.76         2.5 0.38            107            411 327 
                                                                                
