 2017  9 5 1920 41.8 L   6.788 -73.144140.8  RSN 10 0.4 1.8LRSN                1
 GAP=112        0.96       3.2     3.5  5.6  0.4617E+00  0.4576E+01  0.5829E+01E
 Epicentro: LOS SANTOS - SANTANDER                                             3
 ACTION:UPD 17-10-05 19:09 OP:rebc STATUS:               ID:20170905192041 L   I
 OLDACT:REG 17-09-05 21:27 OP:lv   STATUS:               ID:20170905191437     3
 2017-09-05-1918-00M.COL___427                                                 6
 STAT SP IPHASW D HRMM SECON CODA AMPLIT PERI AZIMU VELO AIN AR TRES W  DIS CAZ7
 BAR2 EZ EP       1921  0.57                             171   -0.2010 22.1 191 
 BAR2 EZ ES       1921 15.25                             171   -0.3510 22.1 191 
 BAR2 EZ I        1921 17.01        20.6 0.20            168           22.1 191 
 BRR  HZ EP       1921  2.41                             151   -0.0210 72.0 299 
 BRR  HN ES       1921 19.02                             151    0.4810 72.0 299 
 PAM  EZ EP       1921  3.47                             150   -0.0410 78.2  39 
 PAM  EN ES       1921 20.44                             150   -0.0310 78.2  39 
 PAM  EZ I        1921 21.09         7.7 0.28            153           78.2  39 
 RUS  HZ EP       1921  4.63                             143   -0.3010 99.3 176 
 RUS  HN ES       1921 22.66                             143   -0.3510 99.3 176 
 RUS  HZ I        1921 24.61         6.3 0.20            142           99.3 176 
 SPBC HN ES       1921 31.94                             128    0.27 9  162 219 
 YPLC HZ EP       1921 11.06                             126   -0.02 9  176 151 
 YPLC HN ES       1921 35.07                             126    1.13 9  176 151 
 YPLC HZ I        1921 35.86         6.9 0.30            126            176 151 
 ZAR  HN ES       1921 39.10                             121    0.02 9  205 292 
 NOR  HZ EP       1921 16.97                             117   -0.18 8  234 235 
 NOR  HN ES       1921 44.45                             117   -0.30 8  234 235 
 NOR  HZ I        1921 49.77         6.0 0.25            118            234 235 
 CHI  HZ EP       1921 18.79                             116   -0.27 8  247 195 
 CHI  HN ES       1921 47.64                             116   -0.51 8  247 195 
 CHI  HZ I        1921 55.25         4.5 0.48            116            247 195 
 GUY2CHZ EP       1921 25.52                             111    0.44 7  301 235 
 GUY2CHN ES       1921 59.38                             111    0.51 7  301 235 
                                                                                
