 2011 11 5 1747 34.2 L   6.709 -73.227158.2  RSN  6 0.5 1.9LRSN                1
 GAP=126        0.98       8.0     8.4 12.4  0.6040E+01 -0.3413E+01  0.2848E+02E
 Epicentro: VILLANUEVA - SANTANDER                                             3
 ACTION:UPD 12-07-13 16:08 OP:ep   STATUS:               ID:20111105174734 L   I
 2011-11-05-1745-42S.COL___175                                                 6
 STAT SP IPHASW D HRMM SECON CODA AMPLIT PERI AZIMU VELO AIN AR TRES W  DIS CAZ7
 BAR2 SZ EP       1747 54.95                             174   -0.1810 13.8 159 
 BAR2 SZ I        1748 27.05        37.9 0.52                          13.8 159 
 BTL  SZ EP   2   1747 55.19                             171   -0.09 5 23.6 349 
 BRR  HZ EP       1747 56.80                             155    0.2410 69.4 309 
 BRR  HE ES   1   1748 13.56                             155   -0.47 7 69.4 309 
 BRR  HZ I        1748 22.90        18.9 0.32                          69.4 309 
 PAM  SZ EP       1747 57.87                             149   -0.6310 90.9  40 
 PAM  SE ES   1   1748 18.19                             149    0.70 7 90.9  40 
 RUS  HZ EP       1747 59.03                             148    0.4810 91.6 170 
 RUS  HE ES   2   1748 17.17                             148   -0.41 5 91.6 170 
 RUS  HZ I        1748 18.91         3.3 0.38                          91.6 170 
 ZAR  HE ES   2   1748 33.13                             126    0.47 4  200 296 
                                                                                
