 2014  7 5 1533 13.9 L   6.810 -73.241116.8  RSN  5 0.5 1.5LRSN                1
 GAP=187        1.10       6.4     6.6  8.6  0.3454E+01  0.7780E+01 -0.1911E+02E
 Epicentro: ZAPATOCA - SANTANDER                                               3
 ACTION:UPD 15-03-16 20:41 OP:nd   STATUS:               ID:20140705153313 L   I
 OLDACT:REG 14-07-05 20:45 OP:spq  STATUS:               ID:20140705152820     3
 2014-07-05-1528-20M.COL___259                                                 6
 STAT SP IPHASW D HRMM SECON CODA AMPLIT PERI AZIMU VELO AIN AR TRES W  DIS CAZ7
 BAR2 SZ EP       1533 29.94                             167   -0.1610 24.9 165 
 BAR2 SZ ES   1   1533 42.64                             167   -0.09 7 24.9 165 
 BAR2 SZ I        1533 51.79         5.8 0.10            169           24.9 165 
 BRR  HZ EP       1533 31.91                             150    0.5310 61.6 302 
 BRR  HN ES       1533 44.84                             150   -0.1810 61.6 302 
 BRR  HZ I        1533 49.04         7.3 0.38            152           61.6 302 
 PTB  HZ EP       1533 36.96                             127   -0.71 9  138 258 
 PTB  HN ES       1533 56.89                             127    0.67 9  138 258 
 PTB  HZ I        1534  3.84         3.3 0.56            132            138 258 
 ZAR  HZ EP       1533 43.91                             117    0.39 9  194 293 
 ZAR  HN ES       1534  5.94                             117   -0.69 9  194 293 
 ZAR  HZ I        1534 14.36         2.8 0.39            123            194 293 
 SML  HZ EP       1533 48.48                             111   -0.00 8  238 337 
 SML  HN ES       1534 15.65                             111    0.19 8  238 337 
 SML  HZ I        1534 18.38         5.9 0.10            118            238 337 
                                                                                
