 2010 10 5 1943 44.4 L   6.746 -73.134144.0  RSN  4 0.4 1.6LRSN                1
 GAP=166        1.08      12.0    24.0 20.5  0.1819E+03 -0.3664E+03 -0.1052E+03E
 Epicentro: JORDAN - SANTANDER                                                 3
 ACTION:UP  11-02-18 11:07 OP:tino STATUS:               ID:20101005194344 L   I
 2010-10-05-1939-52S.COL___122                                                 6
 STAT SP IPHASW D HRMM SECON CODA AMPLIT PERI AZIMU VELO SNR AR TRES W  DIS CAZ7
 BAR2 SZ EP       1944  3.73                             173     0.010   18 198 
 BAR2 SZ I        1944  3.85         9.7 0.55                            18 198 
 BRR  HZ EP       1944  5.09                             152    -0.510   75 302 
 BRR  HZ I        1944  5.78        13.0 0.67                            75 302 
 BRR  HN ES       1944 22.43                             152     0.310   75 302 
 RUS  HZ EP   1   1944  8.17                             146     0.6 7   95 177 
 RUS  HZ I        1944  8.49         3.0 0.15                            95 177 
 RUS  HN ES   2   1944 24.89                             146    -0.7 5   95 177 
 GUE  SZ EP   1   1944  9.46                             138     0.1 7  122  11 
                                                                                
