 2011  9 5 1647 17.2 L   6.614 -73.161136.0  RSN  5 0.4 1.5LRSN                1
 GAP=178        0.67      10.6    12.0  7.6  0.9820E+02  0.2078E+02  0.4096E+01E
 Epicentro: SAN GIL - SANTANDER                                                3
 ACTION:UPD 12-07-13 15:55 OP:ep   STATUS:               ID:20110905164717 L   I
 2011-09-05-1644-16S.COL___169                                                 6
 STAT SP IPHASW D HRMM SECON CODA AMPLIT PERI AZIMU VELO AIN AR TRES W  DIS CAZ7
 BAR2 SZ EP   1   1647 35.68                             178    0.32 7 3.40 225 
 BAR2 SZ ES   1   1647 49.48                             178   -0.08 7 3.40 225 
 BAR2 SZ I        1647 53.61         6.9 0.27                          3.40 225 
 GIR2 SZ EP   2   1647 35.85                             158   -0.57 5 51.5 356 
 RUS  HZ EP   2   1647 38.54                             148    0.02 5 80.2 174 
 RUS  HN ES   2   1647 55.03                             148   -0.16 5 80.2 174 
 RUS  HZ I        1647 59.78         2.6 0.42                          80.2 174 
 BRR  HZ EP   2   1647 37.19                             147   -0.73 5 81.8 312 
 BRR  HZ I        1647 41.01         8.7 0.41                          81.8 312 
 BRR  HE ES   1   1647 54.37                             147    0.25 7 81.8 312 
 ZAR  HZ EP   1   1647 50.27                             119    0.53 6  211 297 
 ZAR  HE ES   2   1648 14.42                             119   -0.73 4  211 297 
 ZAR  HZ I        1648 19.86         3.7 0.23                           211 297 
                                                                                
