 2011  9 5 1819 42.9 L   6.507 -73.533110.3  RSN 19 0.4 3.1LRSN                1
 GAP= 60        0.83       2.3     3.1  5.7 -0.4267E+00  0.9828E+01  0.3070E+01E
 Epicentro: EL CARMEN DE CHUCURI - SANTANDER                                   3
 ACTION:UPD 12-07-13 15:55 OP:ep   STATUS:               ID:20110905181942 L   I
 2011-09-05-1816-49S.COL___171                                                 6
 STAT SP IPHASW D HRMM SECON CODA AMPLIT PERI AZIMU VELO AIN AR TRES W  DIS CAZ7
 BAR2 SZ IP     C 1819 59.06                             159    0.2010 39.9  76 
 BAR2 SZ ES   1   1820 11.06                             159   -0.26 7 39.9  76 
 SAN  SZ EP       1820  0.53                             150    0.7510 58.3  61 
 SAN  SZ ES       1820 13.60                             150    0.6510 58.3  61 
 BRR  HZ EP       1819 59.95                             145   -0.2410 69.2 343 
 BRR  HZ I        1820 15.15       307.7 0.19                          69.2 343 
 GIR2 SZ IP     C 1820  0.62                             144   -0.0810 73.5  31 
 RUS  HZ EP       1820  1.98                             140   -0.0210 84.3 144 
 RUS  HN ES   1   1820 16.71                             140   -0.20 7 84.3 144 
 RUS  HZ I        1820 18.92       260.2 0.43                          84.3 144 
 PAM  SZ EP   1   1820  5.56                             127   -0.53 7  130  45 
 PAM  SE ES   1   1820 23.67                             127   -0.52 7  130  45 
 YOP  SZ EP   2   1820 11.24                             117    0.76 4  177 136 
 YOP  SE ES   1   1820 31.50                             117   -0.50 7  177 136 
 NOR  SZ EP       1820 10.59                             117   -0.22 9  181 235 
 NOR  SN ES   1   1820 31.88                             117   -0.71 7  181 235 
 ZAR  HZ EP   1   1820 10.80                             116   -0.11 7  182 307 
 ZAR  HN ES   1   1820 32.99                             116    0.23 7  182 307 
 OCA  SZ EP   1   1820 11.47                             115   -0.78 7  193   7 
 OCA  SZ ES   1   1820 34.88                             115   -0.27 7  193   7 
 OCA  SZ I        1820 40.73       363.4 0.39                           193   7 
 CHI  HZ EP       1820 14.46                             113    0.11 8  209 186 
 CHI  HE ES   1   1820 38.61                             113   -0.28 6  209 186 
 CHI  HZ I        1820 46.14        70.5 0.32                           209 186 
 HEL  HZ EP   1   1820 16.22                             111    0.26 6  224 261 
 HEL  HN ES   1   1820 41.83                             111    0.08 6  224 261 
 HEL  HZ I        1820 45.18       102.8 0.50                           224 261 
 VIL  SZ EP   1   1820 20.99                             107    0.50 6  265 184 
 VIL  SE ES   2   1820 49.43                             107   -0.40 4  265 184 
 VIL  SZ I        1820 59.55        86.7 0.50                           265 184 
 RREF HZ EP   1   1820 22.10                             107    0.66 6  268 229 
 RREF HN ES   1   1820 50.79                             107   -0.72 6  268 229 
 RREF HZ I        1820 58.93       104.9 0.41                           268 229 
 TOL  SZ EP   1   1820 24.19                             105    0.51 5  290 223 
 DBB  SZ EP   1   1820 25.07                             104    0.44 5  301 281 
 ANIL HZ EP   1   1820 25.38                             104    0.12 5  304 223 
 PRA  HZ EP   1   1820 29.72                             102    0.13 5  343 206 
 PRA  HE ES   1   1821  6.01                             102   -0.01 5  343 206 
 SJA  SZ EP   1   1820 31.57                             101   -0.17 5  361 187 
                                                                                
