 2016  6 5 1843 36.3 L   6.845 -73.160144.9  RSN  8 0.5 1.9LRSN                1
 GAP=132        1.29       4.1     6.4  8.1 -0.6681E+01  0.6522E+01  0.1829E+01E
 Epicentro: LOS SANTOS - SANTANDER                                             3
 ACTION:UPD 16-07-21 22:15 OP:rebc STATUS:               ID:20160605184336 L   I
 OLDACT:UP  16-06-06 00:10 OP:ar   STATUS:               ID:20160605183741     3
 OLDACT:REG 16-06-05 21:12 OP:ar   STATUS:               ID:20160605183741     3
 2016-06-05-1837-41M.COL___316                                                 6
 STAT SP IPHASW D HRMM SECON CODA AMPLIT PERI AZIMU VELO AIN AR TRES W  DIS CAZ7
 BAR2 EZ EP       1843 55.87                             169   -0.0710 28.1 185 
 BAR2 EZ ES       1844 10.78                             169   -0.4810 28.1 185 
 BAR2 EZ I        1844 11.64        26.1 0.30                          28.1 185 
 BRR  HZ IP     C 1843 57.61                             154    0.4510 67.5 295 
 BRR  HN ES       1844 14.35                             154    0.9310 67.5 295 
 BRR  HZ I        1844 17.01        12.6 0.14                          67.5 295 
 PAM  EZ EP       1843 58.81                             152    0.5410 74.7  43 
 PAM  EN ES       1844 15.61                             152    0.2010 74.7  43 
 PAM  EZ I        1844 17.37        14.4 0.16                          74.7  43 
 RUS  HZ EP       1844  0.48                             142    0.1310  106 175 
 RUS  HN ES       1844 18.67                             142   -0.4410  106 175 
 RUS  HZ I        1844 19.91        11.5 0.24                           106 175 
 PTB  HZ EP       1844  2.49                             132   -0.67 9  147 257 
 PTB  HN ES       1844 24.18                             132    0.08 9  147 257 
 PTB  HZ I        1844 28.49        12.3 0.40                           147 257 
 OCA  HZ EP       1844  3.66                             130   -0.41 9  155 354 
 OCA  HN ES       1844 25.09                             130   -0.63 9  155 354 
 OCA  HZ I        1844 33.15        24.2 0.14                           155 354 
 SPBC HZ EP       1844  5.23                             128    0.21 9  166 217 
 SPBC HN ES       1844 26.80                             128   -0.62 9  166 217 
 SPBC HZ I        1844 30.79        12.0 0.22                           166 217 
 CHI  HN ES       1844 44.96                             116    0.77 8  253 195 
 CHI  HZ I        1844 50.95         2.7 0.46                           253 195 
                                                                                
