 2016  9 5 1502 55.9 L   6.849 -73.162147.5  RSN  6 0.3 1.7LRSN                1
 GAP=240        0.79       4.5     4.5  5.4  0.1511E+01  0.4753E+01  0.3498E+01E
 Epicentro: LOS SANTOS - SANTANDER                                             3
 ACTION:UPD 17-08-17 21:07 OP:lp   STATUS:               ID:20160905150255 L   I
 OLDACT:REG 16-09-05 20:13 OP:lv   STATUS:               ID:20160905145738     3
 2016-09-05-1458-00M.COL___354                                                 6
 STAT SP IPHASW D HRMM SECON CODA AMPLIT PERI AZIMU VELO AIN AR TRES W  DIS CAZ7
 BAR2 EZ EP       15 3 16.03                             169    0.1510 28.5 185 
 BAR2 EZ ES       15 3 31.01                             169   -0.4310 28.5 185 
 BAR2 EZ I        15 3 33.98         9.7 0.32            167           28.5 185 
 BRR  HZ EP       15 3 17.00                             154   -0.0410 67.1 295 
 BRR  HE ES       15 3 34.05                             154    0.5410 67.1 295 
 BRR  HZ I        15 3 36.90        14.8 0.18            153           67.1 295 
 RUS  HZ EP       15 3 20.47                             143    0.2210  106 175 
 RUS  HN ES       15 3 39.19                             143   -0.0410  106 175 
 RUS  HZ I        15 3 39.77         5.0 0.26            144            106 175 
 PTB  HZ EP       15 3 22.45                             132   -0.53 9  147 257 
 PTB  HN ES       15 3 43.72                             132   -0.36 9  147 257 
 PTB  HZ I        15 3 45.61         3.7 0.11            133            147 257 
 SPBC HZ EP       15 3 24.92                             129    0.06 9  166 217 
 SPBC HE ES       15 3 47.59                             129    0.16 9  166 217 
 SPBC HZ I        15 3 50.99         7.1 0.10            130            166 217 
 NOR  HZ EP       15 3 31.98                             119    0.03 8  236 233 
 NOR  HE ES       15 4  0.31                             119    0.27 8  236 233 
 NOR  HZ I        15 4  4.69         3.2 0.28            120            236 233 
                                                                                
