 2014  9 5 1732 11.8 L   6.747 -73.174151.8  RSN  9 0.4 1.8LRSN                1
 GAP=230        0.84       4.4     5.3  6.3  0.1068E+02  0.5509E+01  0.6711E+01E
 Epicentro: LOS SANTOS - SANTANDER                                             3
 ACTION:UPD 14-10-03 23:02 OP:nd   STATUS:               ID:20140905173211 L   I
 OLDACT:DUP 14-09-05 23:52 OP:fm   STATUS:               ID:20140905172820d    3
 2014-09-05-1728-19M.COL___278                                                 6
 STAT SP IPHASW D HRMM SECON CODA AMPLIT PERI AZIMU VELO AIN AR TRES W  DIS CAZ7
 BAR2 SZ EP       1732 32.23                             173    0.2210 17.2 183 
 BAR2 SZ ES   1   1732 47.49                             173   -0.32 7 17.2 183 
 BAR2 SZ I        1732 48.79        13.5 0.26            170           17.2 183 
 BRR  HZ EP   1   1732 33.41                             153   -0.17 7 71.5 304 
 BRR  HN ES       1732 50.72                             153    0.1210 71.5 304 
 BRR  HZ I        1732 53.63        11.0 0.16            152           71.5 304 
 RUS  HZ EP   1   1732 34.86                             147   -0.87 7 95.1 174 
 RUS  HN ES       1732 54.77                             147    0.3410 95.1 174 
 RUS  HZ I        1732 56.12         7.7 0.32            146           95.1 174 
 PTB  HZ EP       1732 39.02                             134    0.15 9  144 261 
 PTB  HE ES       1733  0.00                             134   -0.01 9  144 261 
 PTB  HZ I        1733  1.07         7.9 0.16            133            144 261 
 SPBC HZ EP   1   1732 40.71                             132    0.58 7  157 219 
 SPBC HN ES   1   1733  2.38                             132    0.12 7  157 219 
 SPBC HZ I        1733  5.07         8.4 0.22            130            157 219 
 ZAR  HE ES       1733  9.83                             124   -0.29 9  203 294 
 ZAR  HZ I        1733 15.12         4.5 0.30            124            203 294 
 CHI  HZ EP       1732 49.45                             119    0.33 8  242 195 
 CHI  HN ES       1733 17.66                             119   -0.59 8  242 195 
 CHI  HZ I        1733 26.00         2.9 0.38            119            242 195 
 GUY2CHN ES   4   1733 30.58                             114    1.86 0  295 235 
 GUY2CHZ I        1733 38.48         4.1 0.26                           295 235 
 MON  HN ES   4   1733 37.04                             110   -2.62 0  355 309 
 MON  HZ I        1733 40.48         1.2 0.42            110            355 309 
                                                                                
