 2016  1 5 1234 45.3 L   6.802 -73.139145.1  RSN 15 0.5 2.3LRSN                1
 GAP=137        1.08       2.7     3.9  5.3 -0.1864E+01  0.4475E+01  0.1054E+01E
 Epicentro: LOS SANTOS - SANTANDER                                             3
 ACTION:UPD 16-03-09 23:23 OP:cam  STATUS:               ID:20160105123445 L   I
 OLDACT:UP  16-02-01 09:16 OP:mHER STATUS:               ID:20160105123445 L   3
 OLDACT:UP  16-01-06 00:00 OP:ar   STATUS:               ID:20160105122747     3
 OLDACT:REG 16-01-05 21:15 OP:ar   STATUS:               ID:20160105122747     3
 2016-01-05-1227-47M.COL___332                                                 6
 STAT SP IPHASW D HRMM SECON CODA AMPLIT PERI AZIMU VELO AIN AR TRES W  DIS CAZ7
 BAR2 EZ EP     D 1235  4.84                             170   -0.0410 23.6 192 
 BAR2 EZ ES       1235 19.97                             170   -0.1710 23.6 192 
 BAR2 EZ I        1235 21.07        66.5 0.40            168           23.6 192 
 BRR  HZ EP       1235  6.67                             152    0.2410 71.7 298 
 BRR  HN ES       1235 23.80                             152    0.9010 71.7 298 
 BRR  HZ I        1235 27.94        28.7 0.14            148           71.7 298 
 PAM  EZ EP       1235  7.74                             151    0.3010 76.8  39 
 PAM  EN ES       1235 24.54                             151   -0.1410 76.8  39 
 PAM  EZ I        1235 26.83        38.3 0.46            152           76.8  39 
 RUS  HZ EP       1235  9.04                             144    0.0210  101 176 
 RUS  HN ES       1235 27.72                             144    0.2210  101 176 
 RUS  HZ I        1235 28.52        29.5 0.20            142            101 176 
 PTB  HZ EP       1235 11.68                             132   -0.63 9  148 259 
 PTB  HN ES       1235 32.85                             132   -0.50 9  148 259 
 PTB  HZ I        1235 39.74        28.9 0.54            128            148 259 
 OCA  HZ EP       1235 13.89                             129    0.31 9  160 353 
 OCA  HN ES       1235 34.58                             129   -1.03 9  160 353 
 OCA  HZ I        1235 38.00        39.4 0.16            127            160 353 
 SPBC HZ EP       1235 13.59                             129   -0.24 9  164 219 
 SPBC HN ES       1235 35.78                             129   -0.28 9  164 219 
 SPBC HZ I        1235 38.46        61.9 0.18            126            164 219 
 ZAR  HZ EP   4   1235 20.99                             122    3.20 0  205 292 
 ZAR  HN ES       1235 42.80                             122   -0.31 9  205 292 
 ZAR  HZ I        1235 48.98        17.9 0.30            119            205 292 
 NOR  HZ EP       1235 21.40                             118    0.31 8  235 235 
 NOR  HN ES       1235 48.78                             118   -0.20 8  235 235 
 NOR  HZ I        1235 53.74        19.2 0.20            116            235 235 
 SML  HZ EP       1235 21.54                             117   -0.39 8  244 335 
 SML  HN ES       1235 51.25                             117    0.77 8  244 335 
 SML  HZ I        1235 56.53        24.3 0.10            115            244 335 
 CHI  HZ EP       1235 22.97                             117   -0.06 8  249 195 
 CHI  HN ES       1235 52.54                             117    0.11 8  249 195 
 CHI  HZ I        1235 55.48         7.8 0.36            115            249 195 
 ROSC BZ EP   9   1235 25.02                             116    1.55 0  253 211 
 ROSC BE ES       1235 54.87                             116    0.10 8  253 211 
 ROSC BZ I        1236  0.73        21.6 0.35            114            253 211 
 HEL  HZ EP   4   1235 28.48                             115    2.89 0  273 256 
 HEL  HN ES       1235 57.51                             115    0.52 8  273 256 
 HEL  HZ I        1236  4.64         8.6 0.26            112            273 256 
 SOCV BZ EP   4   1235 26.92                             112   -1.35 0  301  57 
 SOCV BN ES   4   1235 58.48                             112   -3.28 0  301  57 
 GUY2CHZ EP       1235 29.87                             112    0.89 7  302 235 
 GUY2CHN ES   4   1236  5.42                             112    2.39 0  302 235 
 GUY2CHZ I        1236 15.39         8.7 0.48                           302 235 
 PRA  HZ EP       1235 38.81                             106   -0.07 6  393 210 
 PRA  HZ I        1236 15.00         2.4 0.36            105            393 210 
 PRA  HN ES       1236 20.20                             106   -0.46 6  393 210 
                                                                                
