 2011  5 5 1905 59.7 L   6.778 -73.129139.7  RSN  6 0.4 1.8LRSN                1
 GAP=140        0.89       5.1     8.7  7.6 -0.1659E+02 -0.7579E+01 -0.1297E+01E
 Epicentro: LOS SANTOS - SANTANDER                                             3
 ACTION:UP  11-06-29 08:51 OP:tino STATUS:               ID:20110505190559 L   I
 2011-05-05-1901-51S.COL___131                                                 6
 STAT SP IPHASW D HRMM SECON CODA AMPLIT PERI AZIMU VELO SNR AR TRES W  DIS CAZ7
 BAR2 SZ EP   1   19 6 18.51                             171    -0.1 7   21 196 
 BAR2 SZ ES       19 6 32.89                             171    -0.410   21 196 
 BAR2 SZ I        19 6 34.65        12.9 0.20                            21 196 
 BRR  HZ EP   1   19 6 20.30                             150    -0.1 7   74 300 
 BRR  HN ES   1   19 6 36.65                             150     0.2 7   74 300 
 BRR  HZ I        19 6 41.33        34.1 0.13                            74 300 
 PAM  SZ EP   1   19 6 21.40                             149     0.1 7   78  37 
 PAM  SN ES   1   19 6 37.93                             149    -0.3 7   78  37 
 RUS  HZ EP   1   19 6 22.95                             143     0.3 7   98 177 
 RUS  HE ES   2   19 6 41.29                             143     0.7 5   98 177 
 RUS  HZ I        19 6 42.73         3.6 0.34                            98 177 
 BRI  SZ EP   1   19 6 23.03                             139    -0.1 7  110  19 
 BRI  SZ ES   1   19 6 42.34                             139     0.9 7  110  19 
 BRI  SZ I        19 6 43.31        11.0 0.58                           110  19 
 GRA  SZ EP   1   19 6 24.20                             135    -0.4 7  128  16 
 GRA  SZ I        19 6 25.42        14.9 0.39                           128  16 
 GRA  SZ ES   1   19 6 43.87                             135    -0.1 7  128  16 
                                                                                
