 2017  5 5 1337 33.6 L   6.627 -73.076140.0  RSN  4 0.2 1.5LRSN                1
 GAP=153        0.50       6.7     4.7  4.2 -0.2235E+02  0.3212E+01  0.3957E+00E
 Epicentro: CURITI - SANTANDER                                                 3
 ACTION:UPD 17-06-16 13:33 OP:jn   STATUS:               ID:20170505133733 L   I
 OLDACT:UP  17-05-05 22:17 OP:and  STATUS:               ID:20170505132745     3
 OLDACT:UP  17-05-05 22:17 OP:and  STATUS:               ID:20170505132745     3
 OLDACT:UP  17-05-05 22:17 OP:and  STATUS:               ID:20170505132745     3
 OLDACT:REG 17-05-05 20:50 OP:and  STATUS:               ID:20170505132745     3
 2017-05-05-1328-00M.COL___376                                                 6
 STAT SP IPHASW D HRMM SECON CODA AMPLIT PERI AZIMU VELO AIN AR TRES W  DIS CAZ7
 RUS  HZ EP   9   1337 58.24                             149    2.79 0 81.2 181 
 RUS  HN ES       1338 15.47                             144    0.1910 81.2 181 
 RUS  HZ I        1338 17.91         2.5 0.38            147           81.2 181 
 BRR  HZ EP       1337 55.44                             146    0.2410 88.1 307 
 BRR  HN ES       1338 12.14                             146    0.0910 88.1 307 
 BRR  HZ I        1338 16.69         9.8 0.30            151           88.1 307 
 PAM  EN ES       1338 13.33                             146   -0.0810 89.1  28 
 PAM  EZ I        1338 15.48         8.8 0.52            154           89.1  28 
 PTB  HZ EP       1338  0.35                             130   -0.24 9  153 266 
 PTB  HN ES       1338 21.60                             130   -0.05 9  153 266 
 PTB  HZ I        1338 27.70         2.4 0.25            133            153 266 
                                                                                
