 2011 10 5 1538 40.9 L   6.986 -73.465 12.3  RSN  6 0.4 1.7LRSN                1
 GAP=129        0.83       3.0     2.4  5.9  0.2053E+01  0.3976E+01  0.9957E+00E
 Epicentro: SAN VICENTE DE CHUCURI - SANTANDER                                 3
 ACTION:UPD 12-07-13 16:02 OP:ep   STATUS:               ID:20111005153840 L   I
 2011-10-05-1534-37S.COL___165                                                 6
 STAT SP IPHASW D HRMM SECON CODA AMPLIT PERI AZIMU VELO AIN AR TRES W  DIS CAZ7
 BRR  HZ EP       1538 46.17                             107   -0.1810 30.4 296 
 BRR  HZ I        1538 46.32       314.9 0.12                          30.4 296 
 BRR  HN ES   1   1538 50.54                             107   -0.02 7 30.4 296 
 GIR2 SZ EP       1538 46.82                             107    0.1410 31.7  71 
 BAR2 SZ EP       1538 50.06                             100    0.0510 53.5 144 
 BAR2 SZ I        1539  0.75        36.2 0.39                          53.5 144 
 PAM  SZ EP   1   1538 56.60                              96    0.38 7 93.1  65 
 PAM  SN ES   1   1539  7.62                              96   -0.51 7 93.1  65 
 PAM  SZ I        1539  9.34        11.4 0.17                          93.1  65 
 RUS  HZ EP   1   1539  2.23                              94    0.74 7  128 161 
 RUS  HN ES   1   1539 16.84                              94   -0.68 7  128 161 
 RUS  HZ I        1539 18.22         6.1 0.24                           128 161 
 ZAR  HZ EP   1   1539  6.39                              56    0.42 7  164 290 
 ZAR  HN ES   1   1539 25.16                              56   -0.33 7  164 290 
 ZAR  HZ I        1539 27.60        19.7 0.29                           164 290 
                                                                                
