 2012  5 5 1112 29.6 L   6.785 -73.127138.2  RSN  5 0.1 1.3LRSN                1
 GAP=140        0.41       3.2     3.0  4.4  0.6268E+00 -0.1629E+01 -0.2283E+01E
 Epicentro: LOS SANTOS - SANTANDER                                             3
 ACTION:UP  12-07-05 12:02 OP:pat  STATUS:               ID:20120505111229 L   I
 2012-05-05-1110-00M.COL___192                                                 6
 STAT SP IPHASW D HRMM SECON CODA AMPLIT PERI AZIMU VELO SNR AR TRES W  DIS CAZ7
 BAR2 SZ ES   1   1113  2.69                             170    -0.2 7   22 196 
 BAR2 SZ I        1113  4.47         7.5 0.43                            22 196 
 BRR  HN ES   1   1113  6.19                             150     0.1 7   74 299 
 BRR  HZ I        1113 11.56         7.4 0.64                            74 299 
 PAM  SZ EP       1112 51.05                             149     0.010   77  38 
 RUS  HZ EP   1   1112 52.36                             143    -0.1 7   99 177 
 RUS  HN ES   1   1113 10.54                             143     0.2 7   99 177 
 RUS  HZ I        1113 12.29         2.6 0.36                            99 177 
 PTB  HZ EP   1   1112 56.16                             130     0.0 7  149 260 
 PTB  HN ES   1   1113 16.74                             130    -0.1 7  149 260 
 PTB  HZ I        1113 18.87         1.9 0.18                           149 260 
                                                                                
