 2013  8 5 1748  6.1 L   6.784 -73.150141.9  RSN 10 0.5 2.2LRSN                1
 GAP=137        1.03       3.8     4.7  6.7  0.1716E+00  0.9437E+01  0.2488E+01E
 Epicentro: LOS SANTOS - SANTANDER                                             3
 ACTION:UPD 14-01-14 08:59 OP:ep   STATUS:               ID:20130805174806 L   I
 OLDACT:REG 13-08-05 17:46 OP:carl STATUS:               ID:20130805173959     3
 2013-08-05-1739-59M.COL___269                                                 6
 STAT SP IPHASW D HRMM SECON CODA AMPLIT PERI AZIMU VELO AIN AR TRES W  DIS CAZ7
 BAR2 SZ IP     D 1748 25.31                             171    0.0910 21.5 190 
 BAR2 SZ ES   1   1748 39.75                             171   -0.39 7 21.5 190 
 BAR2 SZ I        1748 41.49        33.1 0.18            170           21.5 190 
 GIR2 SZ IP     C 1748 25.41                             166    0.0610 32.9 352 
 GIR2 SZ ES       1748 40.55                             166    0.1810 32.9 352 
 GIR2 SZ I        1748 48.13        16.5 0.34            165           32.9 352 
 BRR  HZ IP     C 1748 27.22                             152    0.3810 71.7 300 
 BRR  HE ES       1748 43.34                             152    0.3010 71.7 300 
 BRR  HN I        1748 48.14       101.3 0.14            150           71.7 300 
 PAM  SZ EP   1   1748 28.34                             150    0.35 7 79.0  39 
 PAM  SN ES   1   1748 45.16                             150    0.08 7 79.0  39 
 PAM  SZ I        1748 45.73        24.1 0.18            155           79.0  39 
 RUS  HZ EP       1748 29.36                             143    0.0310 98.9 176 
 RUS  HN ES   1   1748 47.21                             143   -0.26 7 98.9 176 
 RUS  HZ I        1748 48.29        14.1 0.48            148           98.9 176 
 PTB  HZ EP   1   1748 31.97                             131   -0.70 7  147 259 
 PTB  HN ES   1   1748 52.89                             131   -0.52 7  147 259 
 PTB  HZ I        1748 55.30        25.7 0.26            132            147 259 
 OCA  HN ES   1   1748 55.48                             128   -0.75 7  162 353 
 ZAR  HZ EP   1   1748 38.74                             121    0.43 6  204 293 
 ZAR  HE ES       1749  4.33                             121    0.89 9  204 293 
 ZAR  HZ I        1749 12.08        21.9 0.54            123            204 293 
 NOR  HZ EP   1   1748 41.81                             118    0.36 6  233 235 
 NOR  HE ES       1749  8.54                             118   -0.49 8  233 235 
 NOR  HZ I        1749 15.80        13.1 0.16            120            233 235 
 SML  HN ES       1749 10.21                             116   -0.96 8  245 336 
                                                                                
