 2016  2 5 1520 30.2 L   6.786 -73.180140.5  RSN 10 0.6 2.1LRSN                1
 GAP=133        1.28       4.1     5.8  8.5 -0.6254E+01  0.1972E+02 -0.4428E+01E
 Epicentro: LOS SANTOS - SANTANDER                                             3
 ACTION:UPD 16-03-04 21:23 OP:rebc STATUS:               ID:20160205152030 L   I
 OLDACT:REG 16-02-05 20:47 OP:dnl  STATUS:               ID:20160205151748     3
 2016-02-05-1517-48M.COL___337                                                 6
 STAT SP IPHASW D HRMM SECON CODA AMPLIT PERI AZIMU VELO AIN AR TRES W  DIS CAZ7
 BAR2 EZ IP     C 1520 49.62                             171    0.4810 21.4 181 
 BAR2 EZ ES       1521  4.06                             171    0.1410 21.4 181 
 BAR2 EZ I        1521  7.42        22.2 0.29            169           21.4 181 
 PAM  EZ EP       1520 52.37                             148    0.3110 81.0  41 
 PAM  EN ES       1521  9.33                             148    0.2010 81.0  41 
 PAM  EZ I        1521 11.99        35.8 0.70            156           81.0  41 
 RUS  HZ EP       1520 53.42                             143    0.1010 99.3 174 
 RUS  HE ES       1521 10.78                             143   -0.5910 99.3 174 
 RUS  HZ I        1521 14.09         6.7 0.30            147           99.3 174 
 PTB  HZ EP       1520 56.14                             132   -0.22 9  144 259 
 PTB  HN ES       1521 17.50                             132    0.73 9  144 259 
 PTB  HZ I        1521 23.31        13.6 0.17            132            144 259 
 SPBC HZ EP       1520 58.31                             128    0.37 9  160 218 
 SPBC HE ES       1521 18.12                             128   -1.46 9  160 218 
 SPBC HZ I        1521 26.87        19.2 0.33            130            160 218 
 ZAR  HZ EP   4   1521  3.34                             121    1.35 0  201 293 
 ZAR  HE ES   2   1521 27.38                             121    0.58 4  201 293 
 ZAR  HZ I        1521 33.73        11.2 0.19            123            201 293 
 NOR  HZ EP   2   1521  5.34                             118    0.16 4  231 234 
 NOR  HE ES   2   1521 32.72                             118    0.24 4  231 234 
 NOR  HZ I        1521 42.23        11.4 0.21            120            231 234 
 SML  HZ EP       1521  5.77                             116   -0.74 8  244 336 
 SML  HN ES       1521 34.16                             116   -0.68 8  244 336 
 SML  HZ I        1521 37.82        16.4 0.10            119            244 336 
 CHI  HZ EP   2   1521  7.88                             116    0.56 4  246 194 
 CHI  HE ES       1521 36.48                             116    0.20 8  246 194 
 CHI  HZ I        1521 39.60         5.2 0.34            120            246 194 
 GUY2CHZ EP   2   1521 13.18                             111    0.08 4  297 235 
 GUY2CHE ES       1521 47.21                             111    0.64 7  297 235 
 GUY2CHZ I        1521 56.38         5.4 0.37                           297 235 
 SOCV BZ EP   4   1521 10.92                             111   -2.53 0  305  57 
 SOCV BN ES   4   1521 42.58                             111   -4.62 0  305  57 
                                                                                
