 2011  7 5 1001 55.4 L   6.837 -73.059147.8  RSN  4 0.2 1.4LRSN                1
 GAP=193        0.37       4.4     6.2  6.4 -0.4850E+01 -0.2098E+02  0.3838E+01E
 Epicentro: LOS SANTOS - SANTANDER                                             3
 ACTION:UPD 12-07-25 13:58 OP:epov STATUS:               ID:20110705100155 L   I
 2011-07-05-1000-00M.COL___123                                                 6
 STAT SP IPHASW D HRMM SECON CODA AMPLIT PERI AZIMU VELO AIN AR TRES W  DIS CAZ7
 BAR2 SZ EP       10 2 15.45                             168   -0.0310 30.3 207 
 BAR2 SZ ES   2   10 2 31.03                             168   -0.08 5 30.3 207 
 BAR2 SZ I        10 2 32.92         3.1 0.15                          30.3 207 
 GIR2 SZ EP       10 2 15.48                             168    0.1310 30.6 331 
 BRR  HZ EP   2   10 2 17.35                             151    0.13 5 78.1 293 
 BRR  HE ES   1   10 2 34.11                             151   -0.09 7 78.1 293 
 BRR  HZ I        10 2 52.54        12.4 0.31                          78.1 293 
 GRA  SZ EP   2   10 2 19.98                             139   -0.37 5  119  14 
 GRA  SZ ES   2   10 2 39.89                             139    0.12 5  119  14 
 GRA  SZ I        10 2 43.49         1.8 0.32                           119  14 
                                                                                
