 2017  8 5 1740 57.0 L   6.958 -73.331142.2  RSN 22 0.6 2.5LRSN                1
 GAP= 90        1.20       2.9     3.0  5.2  0.5938E+00  0.4160E+01  0.6756E+00E
 Epicentro: BETULIA - SANTANDER                                                3
 ACTION:UPD 17-09-04 20:16 OP:rebc STATUS:               ID:20170805174057 L   I
 OLDACT:REG 17-08-05 21:02 OP:dhb  STATUS:               ID:20170805173741     3
 2017-08-05-1738-00M.COL___402                                                 6
 STAT SP IPHASW D HRMM SECON CODA AMPLIT PERI AZIMU VELO AIN AR TRES W  DIS CAZ7
 BAR2 EZ IP     C 1741 16.96                             162    0.1610 43.7 158 
 BAR2 HE ES       1741 32.27                             162    0.0310 43.7 158 
 BAR2 EZ I        1741 33.29       212.1 0.17            161           43.7 158 
 BRR  HZ IP     C 1741 17.15                             161    0.6510 45.2 291 
 BRR  HN ES       1741 32.77                             161    1.0510 45.2 291 
 BRR  HZ I        1741 33.31       130.8 0.16            159           45.2 291 
 PAM  EZ IP     D 1741 19.37                             149    0.2810 81.5  59 
 PAM  EN ES       1741 35.97                             149   -0.3610 81.5  59 
 PAM  EZ I        1741 37.51        77.3 0.34            152           81.5  59 
 RUS  HZ EP       1741 21.66                             138   -0.3310  121 167 
 RUS  HN ES       1741 40.96                             138   -0.5310  121 167 
 RUS  HZ I        1741 43.27        41.8 0.28            137            121 167 
 PTB  HZ IP     D 1741 22.36                             135    0.0210  133 250 
 PTB  HE ES       1741 41.82                             135   -0.2810  133 250 
 PTB  HZ I        1741 43.13        55.2 0.12            133            133 250 
 SPBC HZ EP       1741 25.89                             128    0.38 9  166 210 
 SPBC HN ES       1741 48.24                             128    0.49 9  166 210 
 SPBC HZ I        1741 54.48        58.6 0.24            126            166 210 
 ZAR  HZ EP       1741 26.81                             126    0.18 9  179 289 
 ZAR  HN ES       1741 49.66                             126   -0.09 9  179 289 
 ZAR  HZ I        1741 55.32        54.3 0.22            125            179 289 
 YPLC HZ EP       1741 29.03                             122   -0.08 9  202 149 
 YPLC HN ES       1741 53.38                             122   -0.78 9  202 149 
 YPLC HZ I        1741 58.15        39.7 0.50            122            202 149 
 NOR  HZ EP       1741 32.23                             118    0.24 8  230 228 
 NOR  HE ES       1741 58.94                             118   -0.34 8  230 228 
 NOR  HZ I        1742  8.19        23.5 0.32            117            230 228 
 HEL  HZ EP   2   1741 37.15                             116    1.74 4  257 251 
 HEL  HE ES       1742  4.82                             116   -0.56 8  257 251 
 HEL  HZ I        1742 13.32        29.7 0.30            115            257 251 
 URE  HZ EP       1741 34.22                             115   -0.85 8  258 290 
 URE  HN ES       1742  3.25                             115   -1.51 8  258 290 
 URE  HZ I        1742  6.65        30.2 0.14            115            258 290 
 CHI  HZ EP       1741 36.49                             115    0.60 8  261 190 
 CHI  HN ES       1742  6.51                             115    0.28 8  261 190 
 CHI  HZ I        1742  8.94         9.2 0.28            115            261 190 
 GUY2CHZ EP       1741 40.48                             112    0.66 7  296 230 
 GUY2CHN ES       1742 13.12                             112   -0.11 7  296 230 
 GUY2CHZ I        1742 19.76        14.3 0.62                           296 230 
 LL6C HZ EP       1741 40.36                             111   -0.16 7  307   1 
 LL6C HN ES   1   1742 14.04                             111   -0.44 5  307   1 
 LL6C HZ I        1742 18.01         7.9 0.50            111            307   1 
 DBB  EZ EP       1741 41.73                             110   -0.15 7  318 271 
 DBB  EE ES       1742 16.26                             110   -0.63 7  318 271 
 DBB  EZ I        1742 19.26        17.3 0.20            110            318 271 
 CBOC HZ EP       1741 42.91                             110    0.67 7  320 248 
 CBOC HN ES       1742 17.39                             110   -0.14 7  320 248 
 CBOC HZ I        1742 20.92         8.1 0.24            110            320 248 
 PTGC HZ EP       1741 42.95                             109   -0.50 7  333 156 
 PTGC HN ES   2   1742 18.29                             109   -1.39 3  333 156 
 PTGC HZ I        1742 20.30        11.0 0.34            109            333 156 
 ARGC HZ EP   4   1741 45.63                             109    1.78 0  336 343 
 ARGC HE ES       1742 21.32                             109    0.93 7  336 343 
 ARGC HZ I        1742 26.71         6.1 0.31            109            336 343 
 SJC  HZ EP   2   1741 48.07                             106   -1.35 3  383 328 
 SJC  HN ES   4   1742 26.78                             106   -3.53 0  383 328 
 SJC  HZ I        1742 30.40         9.9 0.26            106            383 328 
 PAL  HZ EP       1741 51.60                             106    0.47 6  398 235 
 PAL  HE ES       1742 33.07                             106   -0.28 6  398 235 
 PRA  HZ EP       1741 51.53                             106    0.43 6  398 206 
 PRA  HE ES   3   1742 35.75                             106    2.45 1  398 206 
 PRA  HZ I        1742 47.70         6.4 0.22            105            398 206 
 ORTC HZ EP   9   1741 52.48                             106    1.34 0  398 212 
 ORTC HN ES       1742 35.26                                    0.55 6  398 212 
 ORTC HZ I        1742 44.48         5.3 0.36            105            398 212 
 PAL  HZ I        1742 44.73         6.0 0.20            105            398 235 
                                                                                
