 2014  6 5 1856 33.4 L   6.690 -73.589107.1  RSN  5 0.5 1.7LRSN                1
 GAP=113        1.43       6.5     5.4 10.9 -0.1026E+01 -0.4356E+00  0.5906E+01E
 Epicentro: EL CARMEN DE CHUCURI - SANTANDER                                   3
 ACTION:UPD 14-07-01 22:51 OP:nd   STATUS:               ID:20140605185633 L   I
 OLDACT:REG 14-06-05 21:07 OP:stll STATUS:               ID:20140605184816     3
 2014-06-05-1848-16M.COL___262                                                 6
 STAT SP IPHASW D HRMM SECON CODA AMPLIT PERI AZIMU VELO AIN AR TRES W  DIS CAZ7
 BAR2 SZ EP       1856 49.43                             155    0.1510 46.2 103 
 BAR2 SZ ES       1857  1.73                             155    0.0310 46.2 103 
 BAR2 SZ I        1857  3.39        25.6 0.36            155           46.2 103 
 BRR  HZ EP       1856 49.35                             154    0.3110 48.1 344 
 BRR  HN ES       1857  2.12                             154    0.8610 48.1 344 
 PTB  HZ EP       1856 52.46                             134   -0.1710 97.4 260 
 PTB  HZ I        1856 52.59        10.7 0.18            136           97.4 260 
 PTB  HN ES       1857  6.90                             134   -0.7510 97.4 260 
 RUS  HZ EP       1856 54.31                             133    0.4110  104 148 
 RUS  HN ES       1857  9.84                             133   -0.0710  104 148 
 RUS  HZ I        1857 11.89         9.2 0.40            133            104 148 
 PAM  SZ EP       1856 55.81                             128    0.3010  122  54 
 PAM  SE ES       1857 11.64                             128   -1.1310  122  54 
 PAM  SZ I        1857 12.70         4.8 0.20            130            122  54 
                                                                                
