 2017  4 5 1349  2.7 L   6.808 -73.193142.8  RSN  5 0.4 1.4LRSN                1
 GAP=241        0.81       6.8     6.0  8.6  0.1661E+02  0.1140E+02 -0.1089E+02E
 Epicentro: ZAPATOCA - SANTANDER                                               3
 ACTION:UPD 17-05-30 21:08 OP:jn   STATUS:               ID:20170405134900 L   I
 OLDACT:UP  17-05-08 15:58 OP:jn   STATUS:               ID:20170405134900 L   3
 OLDACT:UP  17-05-08 15:32 OP:nlst STATUS:               ID:20170405134900 L   3
 OLDACT:REG 17-04-05 20:42 OP:ar   STATUS:               ID:20170405133749     3
 2017-04-05-1338-00M.COL___365                                                 6
 STAT SP IPHASW D HRMM SECON CODA AMPLIT PERI AZIMU VELO AIN AR TRES W  DIS CAZ7
 BAR2 EZ EP       1349 22.46                             170    0.4310 23.8 177 
 BAR2 EZ ES   1   1349 37.03                             170   -0.05 7 23.8 177 
 BAR2 EZ I        1349 38.00         7.2 0.09            170           23.8 177 
 RUS  HZ EP   1   1349 25.69                             143   -0.62 7  102 173 
 RUS  HN ES       1349 44.58                             143   -0.1010  102 173 
 RUS  HZ I        1349 45.71         2.6 0.46            144            102 173 
 PTB  HZ EP       1349 28.65                             132   -0.38 9  143 258 
 PTB  HN ES   1   1349 49.38                             132   -0.15 7  143 258 
 PTB  HZ I        1349 51.02         3.3 0.40            133            143 258 
 SPBC HZ EP   1   1349 31.46                             129    0.68 7  161 217 
 SPBC HE ES   1   1349 52.85                             129    0.21 7  161 217 
 ZAR  HN ES   1   1349 59.32                             122    0.10 6  199 292 
                                                                                
