 2015  2 5 1947 49.1 L   6.814 -73.178146.3  RSN  5 0.2 1.6LRSN                1
 GAP=144        0.49       3.2     2.7  4.5 -0.3457E+01  0.3516E+01 -0.1348E+01E
 Epicentro: ZAPATOCA - SANTANDER                                               3
 ACTION:UPD 15-04-30 21:22 OP:nd   STATUS:               ID:20150205194749 L   I
 OLDACT:ARG 15-02-05 20:22 OP:stll STATUS:               ID:20150205193745     3
 2015-02-05-1937-45M.COL___281                                                 6
 STAT SP IPHASW D HRMM SECON CODA AMPLIT PERI AZIMU VELO AIN AR TRES W  DIS CAZ7
 BAR2 EZ EP       1948  8.57                             170   -0.2010 24.6 181 
 BAR2 EZ ES   1   1948 23.94                             170   -0.21 7 24.6 181 
 BAR2 EZ I        1948 25.65         8.7 0.16            171           24.6 181 
 PAM  SZ EP       1948 11.40                             151    0.0110 78.5  42 
 PAM  SN ES   1   1948 29.21                             151    0.39 7 78.5  42 
 PAM  SZ I        1948 30.79         7.7 0.54            154           78.5  42 
 RUS  HZ EP       1948 12.92                             143   -0.0710  102 174 
 RUS  HE ES       1948 31.72                             143    0.0510  102 174 
 RUS  HZ I        1948 33.82         6.0 0.48            146            102 174 
 PTB  HZ EP   1   1948 15.65                             133   -0.12 7  145 258 
 PTB  HN ES       1948 36.48                             133   -0.13 9  145 258 
 PTB  HZ I        1948 39.95         6.5 0.14            134            145 258 
 NOR  HZ EP   1   1948 24.74                             119    0.14 6  233 234 
 NOR  HN ES       1948 52.68                             119    0.36 8  233 234 
 NOR  HZ I        1948 54.90         3.5 0.32            121            233 234 
                                                                                
