 2015  2 5 1612 14.7 L   6.836 -73.145147.5  RSN 12 0.4 2.1LRSN                1
 GAP=135        0.89       3.0     4.4  5.4 -0.3708E+01  0.3501E+01  0.2334E+01E
 Epicentro: LOS SANTOS - SANTANDER                                             3
 ACTION:UPD 15-04-30 21:22 OP:nd   STATUS:               ID:20150205161214 L   I
 OLDACT:ARG 15-02-05 20:22 OP:stll STATUS:               ID:20150205160750     3
 2015-02-05-1607-50M.COL___280                                                 6
 STAT SP IPHASW D HRMM SECON CODA AMPLIT PERI AZIMU VELO AIN AR TRES W  DIS CAZ7
 BAR2 EZ EP       1612 34.54                             169   -0.1110 27.3 189 
 BAR2 EZ ES   1   1612 49.62                             169   -0.58 7 27.3 189 
 BAR2 EZ I        1612 50.79        13.8 0.42            169           27.3 189 
 BRR  HZ EP   1   1612 36.48                             153    0.51 7 69.4 296 
 BRR  HE ES       1612 53.37                             153    0.8410 69.4 296 
 BRR  HZ I        1612 56.85        18.2 0.36            153           69.4 296 
 PAM  SZ EP       1612 37.40                             152    0.4510 74.3  41 
 PAM  SN ES       1612 54.12                             152   -0.1610 74.3  41 
 PAM  SZ I        1612 56.32        26.7 0.54            155           74.3  41 
 RUS  HZ EP       1612 38.90                             143   -0.0410  105 176 
 RUS  HN ES   1   1612 57.50                             143   -0.33 7  105 176 
 RUS  HZ I        1612 59.13        12.3 0.16            145            105 176 
 PTB  HZ EP   1   1612 41.47                             132   -0.45 7  149 257 
 PTB  HN ES   1   1613  2.34                             132   -0.79 7  149 257 
 PTB  HZ I        1613  4.99        20.5 0.19            133            149 257 
 OCA  HZ EP   1   1612 42.87                             131    0.07 7  156 353 
 OCA  HZ E        1612 42.87                                            156 353 
 OCA  HE ES   1   1613  4.34                             131   -0.36 7  156 353 
 OCA  HZ I        1613  8.18        17.0 0.18            133            156 353 
 SPBC HZ EP       1612 43.53                             129   -0.13 9  166 218 
 SPBC HE ES       1613  6.42                             129    0.19 9  166 218 
 SPBC HZ I        1613 10.60        16.5 0.23            130            166 218 
 NOR  HZ EP       1612 50.98                             119    0.17 8  237 234 
 NOR  HE ES       1613 18.94                             119   -0.02 8  237 234 
 NOR  HZ I        1613 20.31         7.9 0.18            120            237 234 
 SML  HZ EP   1   1612 50.52                             118   -0.54 6  240 335 
 SML  HE ES   1   1613 19.00                             118   -0.40 6  240 335 
 SML  HZ I        1613 21.11        23.9 0.26            120            240 335 
 CHI  HZ EP       1612 53.21                             117    0.26 8  253 195 
 CHI  HE ES   1   1613 22.82                             117    0.06 6  253 195 
 CHI  HZ I        1613 27.52         4.9 0.46            119            253 195 
 GUY2CHZ EP   4   1613  0.13                             112    1.45 0  304 234 
 GUY2CHN ES   4   1613 36.28                             112    3.31 0  304 234 
 GUY2CHZ I        1613 42.54         6.0 0.34                           304 234 
 MON  HN ES   4   1613 40.07                             109   -1.50 0  351 308 
 MON  HZ I        1613 42.78         2.3 0.17            110            351 308 
                                                                                
