 2017  9 5 1014 10.2 L   6.763 -73.105143.0  RSN  5 0.2 1.2LRSN                1
 GAP=143        0.52       2.7     3.0  5.1  0.1702E+01  0.2113E+01  0.1306E+01E
 Epicentro: LOS SANTOS - SANTANDER                                             3
 ACTION:UPD 17-10-05 19:09 OP:rebc STATUS:               ID:20170905101409 L   I
 OLDACT:REG 17-09-05 20:04 OP:lv   STATUS:               ID:20170905100740     3
 2017-09-05-1008-00M.COL___420                                                 6
 STAT SP IPHASW D HRMM SECON CODA AMPLIT PERI AZIMU VELO AIN AR TRES W  DIS CAZ7
 BAR2 EZ EP       1014 29.35                             171   -0.0610 20.7 204 
 BAR2 EZ ES   4   1014 44.30                             171   -0.12 0 20.7 204 
 BAR2 EZ I        1014 45.63         4.4 0.18            169           20.7 204 
 BRR  HZ EP       1014 31.24                             150   -0.1210 77.1 300 
 BRR  HN ES       1014 48.21                             150    0.3210 77.1 300 
 PAM  EZ IP     D 1014 32.29                             150    0.1810 77.9  35 
 PAM  EN ES       1014 49.06                             150   -0.1710 77.9  35 
 RUS  HZ EP       1014 33.48                             144    0.1510 96.3 179 
 RUS  HN ES       1014 51.27                             144   -0.1410 96.3 179 
 RUS  HZ I        1014 52.63         1.3 0.22            145           96.3 179 
 ZAR  HZ EP   4   1014 44.11                             121    1.09 0  210 293 
 ZAR  HN ES       1015  8.44                             121   -0.21 8  210 293 
 ZAR  HZ I        1015 13.69         1.7 0.40            120            210 293 
 NOR  HZ EP   4   1014 40.47                             118   -5.41 0  236 236 
 NOR  HE ES   4   1014 57.20                             118   -16.5 0  236 236 
                                                                                
