 2014  2 5 1410 11.2 L   6.812 -73.158145.4  RSN 13 0.5 2.1LRSN                1
 GAP=134        1.29       3.6     5.1  6.7 -0.9554E+00  0.8881E+01  0.2321E+01E
 Epicentro: LOS SANTOS - SANTANDER                                             3
 ACTION:UPD 14-03-10 08:07 OP:ep   STATUS:               ID:20140205141011 L   I
 OLDACT:REG 14-02-05 14:55 OP:nd   STATUS:               ID:20140205141000     3
 2014-02-05-1410-00M.COL___288                                                 6
 STAT SP IPHASW D HRMM SECON CODA AMPLIT PERI AZIMU VELO AIN AR TRES W  DIS CAZ7
 BAR2 SZ EP       1410 30.79                             170   -0.0110 24.5 186 
 BAR2 SZ ES       1410 45.56                             170   -0.5310 24.5 186 
 BAR2 SZ I        1410 47.50        30.9 0.20            168           24.5 186 
 BRR  HZ EP       1410 32.76                             153    0.5710 69.3 298 
 BRR  HN ES       1410 49.98                             153    1.4110 69.3 298 
 BRR  HZ I        1410 53.35        12.7 0.14            152           69.3 298 
 PAM  SZ EP       1410 33.44                             151    0.0810 77.3  41 
 PAM  SN ES       1410 50.71                             151    0.0610 77.3  41 
 PAM  SZ I        1410 52.97        13.3 0.58            154           77.3  41 
 RUS  HZ EP       1410 34.73                             143   -0.2810  102 175 
 RUS  HN ES       1410 53.08                             143   -0.5010  102 175 
 RUS  HZ I        1410 54.42        11.6 0.26            144            102 175 
 PTB  HZ EP       1410 37.70                             132   -0.33 9  147 258 
 PTB  HN ES       1410 58.53                             132   -0.43 9  147 258 
 PTB  HZ I        1411  1.01        14.6 0.14            132            147 258 
 SPBC HZ EP       1410 39.68                             129    0.00 9  163 218 
 SPBC HN ES       1411  1.51                             129   -0.38 9  163 218 
 SPBC HZ I        1411  4.36        15.5 0.40            129            163 218 
 ZAR  HZ EP       1410 42.88                             123   -0.55 9  202 292 
 ZAR  HN ES       1411  8.59                             123    0.02 9  202 292 
 ZAR  HZ I        1411 11.42        12.2 0.12            123            202 292 
 NOR  HZ EP       1410 47.15                             118    0.29 8  234 234 
 NOR  HN ES       1411 14.38                             118   -0.30 8  234 234 
 NOR  HZ I        1411 22.61         9.9 0.16            119            234 234 
 SML  HZ EP       1410 47.80                             118    0.20 8  242 335 
 SML  HN ES       1411 15.19                             118   -0.81 8  242 335 
 SML  HZ I        1411 22.15        14.2 0.10            119            242 335 
 CHI  HZ EP       1410 49.00                             117    0.03 8  250 195 
 CHI  HN ES       1411 19.46                             117    1.03 8  250 195 
 CHI  HZ I        1411 28.19         3.6 0.30            118            250 195 
 GUY2CHZ EP   4   1410 55.91                             112    1.17 0  301 234 
 GUY2CHN ES   4   1411 32.89                             112    4.18 0  301 234 
 GUY2CHZ I        1411 37.41         5.9 0.32                           301 234 
 PRA  HZ EP       1411  5.43                             106    0.68 6  392 209 
 PRA  HN ES       1411 46.70                             106    0.17 6  392 209 
 PRA  HZ I        1411 55.19         6.3 0.30            107            392 209 
 SJC  HZ EP   4   1411  5.01                             106   -1.51 0  407 327 
 SJC  HN ES   4   1411 46.06                             106   -3.62 0  407 327 
 SJC  HZ I        1411 48.42         5.6 0.88            106            407 327 
                                                                                
