 2012  4 5 1748 23.3 L   6.793 -73.152145.0  RSN  9 0.4 1.9LRSN                1
 GAP=136        1.01       5.3     4.8  8.5  0.2346E+00  0.1012E+02  0.1461E+02E
 Epicentro: LOS SANTOS - SANTANDER                                             3
 ACTION:UPD 12-07-05 11:50 OP:tino STATUS:               ID:20120405174823 L   I
 2012-04-05-1740-00M.COL___196                                                 6
 STAT SP IPHASW D HRMM SECON CODA AMPLIT PERI AZIMU VELO AIN AR TRES W  DIS CAZ7
 BAR2 SZ IP       1748 42.78                             171    -0.110   22 189 
 BAR2 SZ I        1748 59.38        24.5 0.18                            22 189 
 BRR  HZ IP     C 1748 44.55                             152     0.210   71 299 
 BRR  HZ I        1748 44.72        25.6 0.12                            71 299 
 BRR  HN ES   1   1749  1.71                             152     0.9 7   71 299 
 PAM  SZ EP       1748 45.66                             150     0.110   78  40 
 PAM  SN ES   1   1749  2.47                             150    -0.4 7   78  40 
 RUS  HZ EP       1748 46.77                             144    -0.210  100 176 
 RUS  HN ES   1   1749  5.38                             144     0.0 7  100 176 
 RUS  HZ I        1749  6.90        10.0 0.42                           100 176 
 PTB  HZ EP   1   1748 49.51                             132    -0.6 7  147 259 
 PTB  HN ES   1   1749 10.38                             132    -0.7 7  147 259 
 PTB  HZ I        1749 17.92         5.6 0.38                           147 259 
 ZAR  HZ EP   2   1748 55.23                             122    -0.4 4  204 292 
 ZAR  HE ES   1   1749 20.30                             122    -0.6 6  204 292 
 NOR  SZ EP       1748 58.85                             118     0.0 8  234 235 
 NOR  SN ES   2   1749 26.65                             118     0.0 4  234 235 
 CHI  HZ EP       1749  0.83                             117     0.0 8  248 195 
 CHI  HN ES   2   1749 30.59                             117     0.4 4  248 195 
 CHI  HZ I        1749 33.98         6.6 0.50                           248 195 
 HEL  HZ EP       1749  4.22                             115     0.8 8  271 256 
 HEL  HN ES   1   1749 35.01                             115     0.4 6  271 256 
 HEL  HZ I        1749 40.72         5.2 0.34                           271 256 
                                                                                
