 2013  6 5 1228 34.0 L   6.744 -73.208145.3  RSN  4 0.2 1.5LRSN                1
 GAP=224        0.60       4.7     4.4  4.9  0.1030E+02  0.2535E+01  0.1066E+01E
 Epicentro: VILLANUEVA - SANTANDER                                             3
 ACTION:UPD 14-01-08 09:52 OP:ep   STATUS:               ID:20130605122834 L   I
 OLDACT:REG 13-06-05 16:08 OP:nd   STATUS:               ID:20130605122000     3
 2013-06-05-1220-00M.COL___261                                                 6
 STAT SP IPHASW D HRMM SECON CODA AMPLIT PERI AZIMU VELO AIN AR TRES W  DIS CAZ7
 BAR2 SZ EP       1228 53.24                             173   -0.2210 17.0 170 
 BAR2 SZ ES       1229  8.37                             173   -0.2810 17.0 170 
 BAR2 SZ I        1229 11.22         4.3 0.64            172           17.0 170 
 BRR  HZ IP     C 1228 55.00                             153    0.0510 68.6 306 
 BRR  HN ES       1229 11.59                             153    0.2910 68.6 306 
 BRR  HZ I        1229 17.55        12.7 0.34            152           68.6 306 
 RUS  HZ EP       1228 57.63                             145    0.3110 95.2 172 
 RUS  HN ES       1229 15.60                             145    0.0910 95.2 172 
 RUS  HZ I        1229 17.78         3.2 0.30            149           95.2 172 
 PTB  HZ EP       1228 59.99                             134   -0.23 9  140 261 
 PTB  HN ES       1229 20.64                             134   -0.03 9  140 261 
 PTB  HZ I        1229 26.23         5.4 0.26            135            140 261 
                                                                                
