 2016  7 5 1240 42.4 L   6.783 -73.145143.9  RSN  4 0.2 1.4LRSN                1
 GAP=243        0.45       5.4     3.7  5.4  0.7083E+01  0.3414E+01 -0.8686E+01E
 Epicentro: LOS SANTOS - SANTANDER                                             3
 ACTION:UPD 17-03-29 16:47 OP:lp   STATUS:               ID:20160705124042 L   I
 OLDACT:UP  16-07-05 23:53 OP:dnl  STATUS:               ID:20160705123742     3
 OLDACT:REG 16-07-05 22:10 OP:dnl  STATUS:               ID:20160705123742     3
 2016-07-05-1237-42M.COL___322                                                 6
 STAT SP IPHASW D HRMM SECON CODA AMPLIT PERI AZIMU VELO AIN AR TRES W  DIS CAZ7
 BAR2 EZ EP       1241  1.79                             171    0.0110 21.5 191 
 BAR2 EZ ES       1241 16.83                             171   -0.0510 21.5 191 
 BAR2 EZ I        1241 18.38         6.5 0.20            169           21.5 191 
 RUS  HZ EP   2   1241  5.82                             144   -0.02 5 98.7 176 
 RUS  HN ES       1241 24.18                             144    0.0610 98.7 176 
 RUS  HZ I        1241 26.41         2.5 0.28            143           98.7 176 
 PTB  HZ EP   2   1241  8.58                             132   -0.61 5  147 260 
 PTB  HE ES       1241 30.11                             132    0.02 9  147 260 
 PTB  HZ I        1241 30.63         4.4 0.16            133            147 260 
 ZAR  HZ EP   2   1241 15.35                             122    0.54 4  205 293 
 ZAR  HN ES   4   1241 41.41                             122    1.33 0  205 293 
 ZAR  HZ I    4   1241 44.58         3.3 0.24            123            205 293 
                                                                                
