 2017  2 5 1034 53.5 L   6.719 -73.144144.4  RSN  7 0.3 1.8LRSN                1
 GAP=157        0.73       4.7     4.1  4.9  0.1065E+02  0.1639E+01  0.4532E+00E
 Epicentro: JORDAN - SANTANDER                                                 3
 ACTION:UPD 17-05-24 15:32 OP:jn   STATUS:               ID:20170205103453 L   I
 OLDACT:REG 17-02-05 21:08 OP:ar   STATUS:               ID:20170205102744     3
 2017-02-05-1028-00M.COL___316                                                 6
 STAT SP IPHASW D HRMM SECON CODA AMPLIT PERI AZIMU VELO AIN AR TRES W  DIS CAZ7
 BAR2 EZ IP     C 1035 12.67                             174   -0.1110 14.7 197 
 BAR2 EZ ES       1035 27.45                             174   -0.3910 14.7 197 
 BAR2 EZ I        1035 28.52        15.4 0.18            167           14.7 197 
 BRR  HZ EP       1035 14.62                             151   -0.1210 76.0 304 
 BRR  HN ES       1035 31.52                             151    0.1910 76.0 304 
 RUS  HZ EP       1035 16.57                             146    0.1210 91.7 176 
 RUS  HN ES       1035 34.85                             146    0.4810 91.7 176 
 RUS  HZ I        1035 36.13         4.0 0.36            149           91.7 176 
 PTB  HZ EP   2   1035 19.65                             132   -0.55 5  146 262 
 PTB  HE ES       1035 40.89                             132   -0.16 9  146 262 
 TAM  HZ EP   2   1035 20.90                             131    0.08 5  153 102 
 TAM  HE ES   2   1035 41.90                             131   -0.26 5  153 102 
 ZAR  HZ EP       1035 26.78                             121    0.58 8  208 294 
 ZAR  HE ES       1035 51.67                             121   -0.06 8  208 294 
 ZAR  HZ I        1036 18.64        16.7 0.46            118            208 294 
 CHI  HZ EP       1035 29.76                             118   -0.39 8  240 196 
                                                                                
