 2012  5 5 1614 57.0 L   6.760 -73.218153.8  RSN  4 0.1 1.5LRSN                1
 GAP=223        0.39       5.8     8.2  5.3  0.3600E+02  0.1926E+01  0.1093E+01E
 Epicentro: VILLANUEVA - SANTANDER                                             3
 ACTION:UP  12-07-05 12:02 OP:pat  STATUS:               ID:20120505161457 L   I
 2012-05-05-1610-00M.COL___192                                                 6
 STAT SP IPHASW D HRMM SECON CODA AMPLIT PERI AZIMU VELO SNR AR TRES W  DIS CAZ7
 BAR2 SZ EP   1   1615 17.37                             173    -0.1 7   19 168 
 BAR2 SZ I        1615 19.92        18.2 0.55                            19 168 
 BRR  HZ EP   1   1615 18.97                             155     0.2 7   67 305 
 BRR  HZ I        1615 24.82        10.9 0.47                            67 305 
 BRR  HN ES   1   1615 35.69                             155    -0.1 7   67 305 
 RUS  HZ EP   1   1615 21.24                             146     0.0 7   97 171 
 RUS  HZ I        1615 22.07         1.8 0.36                            97 171 
 RUS  HN ES   1   1615 40.32                             146     0.1 7   97 171 
 PTB  HZ EP   1   1615 23.81                             136     0.0 7  139 260 
 PTB  HZ I        1615 48.22         1.5 0.09                           139 260 
                                                                                
