 2012 12 5 1024 35.7 L   6.781 -73.152147.1  RSN  7 0.4 1.8LRSN                1
 GAP=137        1.04       3.7     4.9  8.4 -0.7149E+00  0.1263E+02  0.1469E+01E
 Epicentro: LOS SANTOS - SANTANDER                                             3
 ACTION:UPD 13-01-04 14:25 OP:ep   STATUS:               ID:20121205102435 L   I
 2012-12-05-1020-00M.COL___237                                                 6
 STAT SP IPHASW D HRMM SECON CODA AMPLIT PERI AZIMU VELO AIN AR TRES W  DIS CAZ7
 BAR2 SZ EP       1024 54.93                             171   -0.5110 21.2 189 
 BAR2 SZ ES       1025 10.65                             171   -0.1910 21.2 189 
 BAR2 SZ I        1025 13.35         7.4 0.38                          21.2 189 
 PAM  SZ EP       1024 58.58                             150    0.4110 79.4  39 
 PAM  SN ES       1025 15.92                             150    0.2210 79.4  39 
 PAM  SN I        1025 16.79         7.1 0.48                          79.4  39 
 RUS  HZ EP       1024 59.64                             145    0.2110 98.6 176 
 RUS  HN ES       1025 18.33                             145    0.3810 98.6 176 
 RUS  HN I        1025 18.82         3.6 0.32                          98.6 176 
 PTB  HZ EP       1025  2.53                             132   -0.15 9  147 260 
 PTB  HN ES       1025 23.42                             132   -0.30 9  147 260 
 PTB  HN I        1025 29.26        17.0 0.36                           147 260 
 OCA  HE ES       1025 26.00                             129   -0.60 9  162 353 
 OCA  HE I        1025 28.54        13.9 0.58                           162 353 
 ZAR  HE ES       1025 34.43                             123    0.80 9  204 293 
 ZAR  HE I        1025 40.61        13.5 0.30                           204 293 
 CHI  HE ES       1025 42.19                             118   -0.32 8  246 195 
 CHI  HE I        1025 50.04         3.8 0.54                           246 195 
                                                                                
