 2014 10 5 1809 33.3 L   6.576 -73.747 95.8  RSN 10 0.6 1.5LRSN                1
 GAP= 64        1.29       4.0     4.3  9.0 -0.1546E+01  0.2509E+01 -0.4470E+01E
 Epicentro: EL CARMEN - SANTANDER                                              3
 ACTION:UPD 14-11-29 23:47 OP:nd   STATUS:               ID:20141005180933 L   I
 OLDACT:REG 14-10-05 20:50 OP:fm   STATUS:               ID:20141005180746     3
 2014-10-05-1807-46M.COL___295                                                 6
 STAT SP IPHASW D HRMM SECON CODA AMPLIT PERI AZIMU VELO AIN AR TRES W  DIS CAZ7
 BRR  HN ES       1810  1.14                             146    0.8610 58.8   4 
 BRR  HZ I        1810  2.37        11.0 0.12            145           58.8   4 
 BAR2 SZ EP       18 9 49.54                             145    0.4710 62.4  88 
 BAR2 SZ ES   1   1810  1.85                             145    0.52 7 62.4  88 
 BAR2 SZ I        1810  3.88        11.2 0.22            145           62.4  88 
 PTB  HZ EP   1   18 9 49.38                             138   -0.63 7 78.6 267 
 PTB  HE ES       1810  2.02                             138   -0.9910 78.6 267 
 PTB  HZ I        1810  4.24        11.1 0.10            140           78.6 267 
 RUS  HZ EP   1   18 9 52.72                             129   -0.35 7  105 136 
 RUS  HE ES   1   1810  7.52                             129   -0.93 7  105 136 
 RUS  HZ I        1810  9.87         4.5 0.14            131            105 136 
 SPBC HZ EP   1   18 9 53.41                             128    0.59 7  108 199 
 SPBC HE ES   1   1810  8.15                             128    0.15 7  108 199 
 SPBC HZ I        1810  9.58        11.1 0.20            131            108 199 
 PAM  SZ EP   1   18 9 57.23                             120    0.31 7  143  54 
 PAM  SN ES   1   1810 14.85                             120   -0.45 7  143  54 
 PAM  SZ I        1810 21.05         5.0 0.34            120            143  54 
 ZAR  HZ EP   1   18 9 58.70                             117    0.67 7  159 310 
 ZAR  HN ES   1   1810 17.46                             117    0.17 7  159 310 
 ZAR  HZ I        1810 21.62         5.4 0.28            118            159 310 
 OCA  HN ES   1   1810 23.37                             112   -0.38 7  190  14 
 GUY2CHN ES   1   1810 34.10                             108    0.66 6  233 230 
 GUY2CHZ I        1810 44.40         1.8 0.44                           233 230 
 SML  HZ EP       1810  7.86                             107   -0.45 8  249 352 
 SML  HE ES   1   1810 35.28                             107   -0.30 6  249 352 
 SML  HZ I        1810 40.89         5.0 0.24            107            249 352 
                                                                                
