 2012  6 5 1712  4.2 L   6.808 -73.186138.3  RSN  4 0.2 1.5LRSN                1
 GAP=144        0.42       3.2     3.1  4.5 -0.2602E+01  0.3175E+01 -0.5727E-01E
 Epicentro: ZAPATOCA - SANTANDER                                               3
 ACTION:UPD 12-08-06 17:47 OP:ep   STATUS:               ID:20120605171203 L   I
 2012-06-05-1710-00M.COL___201                                                 6
 STAT SP IPHASW D HRMM SECON CODA AMPLIT PERI AZIMU VELO AIN AR TRES W  DIS CAZ7
 BAR2 SZ EP   1   1712 22.95                             170    0.01 8 23.9 179 
 BAR2 SZ ES   1   1712 37.47                             170   -0.09 8 23.9 179 
 BAR2 SZ I        1712 38.81         6.6 0.19            169           23.9 179 
 PAM  SZ EP   1   1712 25.93                             149    0.17 8 79.6  42 
 PAM  SN ES   1   1712 42.52                             149   -0.06 8 79.6  42 
 RUS  HZ EP       1712 27.40                             142    0.0910  102 174 
 RUS  HN ES   1   1712 45.31                             142   -0.04 7  102 174 
 RUS  HZ I        1712 47.11         6.8 0.06            143            102 174 
 PTB  HZ EP   1   1712 29.78                             131   -0.39 7  144 258 
 PTB  HN ES   1   1712 50.66                             131    0.23 7  144 258 
 PTB  HZ I        1712 53.35         3.4 0.15            131            144 258 
                                                                                
