 2010  7 5 1158 43.9 L   6.778 -73.092149.0  RSN  4 0.2 1.6LRSN                1
 GAP=170        0.45       4.5     8.3  6.6  0.2529E+02 -0.3559E+02 -0.1552E+02E
 Epicentro: LOS SANTOS - SANTANDER                                             3
 ACTION:UPD 10-12-01 15:15 OP:pat  STATUS:               ID:20100705115843 L   I
 2010-07-05-1156-20S.COL___118                                                 6
 STAT SP IPHASW D HRMM SECON CODA AMPLIT PERI AZIMU VELO AIN AR TRES W  DIS CAZ7
 BAR2 SZ EP       1159  3.96                             171     0.110   23 206 
 BAR2 SZ ES   2   1159 19.55                             171     0.0 5   23 206 
 BRR  HZ EP       1159  5.58                             151    -0.210   78 298 
 BRR  HZ I        1159  5.74        22.2 0.17                            78 298 
 BRR  HN ES       1159 22.89                             151     0.110   78 298 
 RUS  HZ EP   1   1159  8.03                             145     0.3 7   98 179 
 RUS  HE ES   1   1159 26.18                             145    -0.2 7   98 179 
 RUS  HZ I        1159 27.43         2.5 0.31                            98 179 
 GUE  SZ EP   1   1159  8.95                             140     0.0 7  118   9 
                                                                                
