 2011  5 5 1502 19.8 L   6.778 -73.114143.4  RSN  4 0.2 2.0LRSN                1
 GAP=164        0.52       5.6     4.7  5.5 -0.1517E+02  0.6975E+00  0.3779E+01E
 Epicentro: LOS SANTOS - SANTANDER                                             3
 ACTION:UP  11-06-29 08:51 OP:tino STATUS:               ID:20110505150219 L   I
 2011-05-05-1500-00M.COL___138                                                 6
 STAT SP IPHASW D HRMM SECON CODA AMPLIT PERI AZIMU VELO SNR AR TRES W  DIS CAZ7
 BAR2 SZ EP       15 2 39.06                             171     0.010   22 200 
 BAR2 SZ ES   1   15 2 54.28                             171     0.1 7   22 200 
 BAR2 SZ I        15 2 56.38        14.0 0.25                            22 200 
 BRR  HZ EP       15 2 40.78                             151    -0.110   76 299 
 BRR  HZ I        15 2 42.16        27.0 0.12                            76 299 
 BRR  HN ES   1   15 2 57.58                             151     0.2 7   76 299 
 PAM  SZ EP       15 2 41.97                             150     0.210   77  36 
 PAM  SN ES   1   15 2 58.53                             150    -0.3 7   77  36 
 NOR  SN ES   1   15 3 23.32                             118    -0.1 6  236 235 
                                                                                
