 2012  4 5 1248 14.0 L   6.459 -73.670104.7  RSN  4 0.2 1.8LRSN                1
 GAP=142        0.43       4.9     6.9  7.6  0.2096E+02  0.3042E+02  0.1417E+02E
 Epicentro: SANTA HELENA DEL OPON - SANTANDER                                  3
 ACTION:UPD 12-07-05 11:50 OP:tino STATUS:               ID:20120405124814 L   I
 2012-04-05-1240-00M.COL___196                                                 6
 STAT SP IPHASW D HRMM SECON CODA AMPLIT PERI AZIMU VELO AIN AR TRES W  DIS CAZ7
 BAR2 SZ EP       1248 30.02                             150    -0.210   56  75 
 BAR2 SZ I        1248 30.22        17.5 0.24                            56  75 
 BAR2 SZ ES   1   1248 42.97                             150     0.1 7   56  75 
 BRR  HZ EP       1248 30.95                             143     0.010   72 356 
 PTB  HN ES   3   1248 46.35                             137     0.0 2   87 276 
 RUS  HZ EP       1248 33.22                             136     0.110   90 134 
 RUS  HN ES   2   1248 47.69                             136    -0.3 5   90 134 
                                                                                
