 2017  2 5 1628 35.8 L   6.825 -73.075147.3  RSN  5 0.5 1.7LRSN                1
 GAP=247        1.08       7.5     7.8  8.9  0.2932E+02  0.2426E+02  0.1800E+02E
 Epicentro: LOS SANTOS - SANTANDER                                             3
 ACTION:UPD 17-05-24 15:32 OP:jn   STATUS:               ID:20170205162835 L   I
 OLDACT:REG 17-02-05 21:37 OP:ar   STATUS:               ID:20170205161746     3
 2017-02-05-1618-00M.COL___337                                                 6
 STAT SP IPHASW D HRMM SECON CODA AMPLIT PERI AZIMU VELO AIN AR TRES W  DIS CAZ7
 BAR2 EZ EP       1628 55.64                             169   -0.0710 28.4 205 
 BAR2 EZ ES       1629 11.12                             169   -0.1310 28.4 205 
 BAR2 EZ I        1629 12.34         9.4 0.28            163           28.4 205 
 BRR  HZ EP   2   1628 57.78                             151    0.35 5 77.0 294 
 BRR  HN ES       1629 14.91                             151    0.5910 77.0 294 
 BRR  HZ I        1629 18.09         9.9 0.20            147           77.0 294 
 RUS  HZ EP       1629  0.29                             143    0.4210  103 180 
 RUS  HN ES       1629 18.18                             143   -0.4810  103 180 
 RUS  HZ I        1629 19.06         5.1 0.52            143            103 180 
 ZAR  HN ES       1629 34.09                             122   -0.77 8  210 291 
 ZAR  HZ I        1629 39.27         7.6 0.48            121            210 291 
 NOR  HZ EP       1629 12.14                             118   -0.32 8  243 235 
 NOR  HE ES       1629 41.60                             118    0.53 8  243 235 
 NOR  HZ I        1629 47.52         4.0 0.18            117            243 235 
                                                                                
