 2010  7 5 1845 17.5 L   6.771 -73.088144.0  RSN  6 0.3 1.5LRSN                1
 GAP=163        0.62       5.1    10.3 11.1  0.1665E+02 -0.6827E+02 -0.1049E+02E
 Epicentro: LOS SANTOS - SANTANDER                                             3
 ACTION:UPD 10-12-01 15:15 OP:pat  STATUS:               ID:20100705184517 L   I
 2010-07-05-1844-33S.COL___117                                                 6
 STAT SP IPHASW D HRMM SECON CODA AMPLIT PERI AZIMU VELO AIN AR TRES W  DIS CAZ7
 BAR2 SZ EP   2   1845 36.89                             171     0.0 5   23 208 
 BRR  HZ EP       1845 38.59                             150    -0.310   78 298 
 BRR  HE ES   1   1845 55.79                             150     0.3 7   78 298 
 BRR  HZ I        1845 57.17         6.2 0.38                            78 298 
 RUS  HZ EP       1845 40.92                             145     0.110   97 180 
 RUS  HE ES   2   1845 58.78                             145    -0.2 5   97 180 
 BRI  SZ EP   2   1845 40.92                             141    -0.3 5  109  17 
 BRI  SZ ES   3   1845 59.66                             141    -0.2 2  109  17 
 BRI  SZ I        1846  3.17         5.2 0.54                           109  17 
 GUE  SZ EP   2   1845 41.83                             139    -0.3 5  118   9 
 GRA  SZ EP   2   1845 43.49                             137     0.8 5  127  14 
                                                                                
