 2016 11 5 1738  6.0 L   6.801 -73.167144.0  RSN  7 0.3 2.0LRSN                1
 GAP=245        0.78       4.2     4.4  5.1 -0.1842E+00  0.6217E+01  0.2536E+01E
 Epicentro: LOS SANTOS - SANTANDER                                             3
 ACTION:UPD 17-10-26 21:04 OP:lp   STATUS:               ID:20161105173806 L   I
 OLDACT:REG 16-11-05 20:41 OP:cog  STATUS:               ID:20161105172748     3
 2016-11-05-1728-00M.COL___343                                                 6
 STAT SP IPHASW D HRMM SECON CODA AMPLIT PERI AZIMU VELO AIN AR TRES W  DIS CAZ7
 BAR2 EZ EP       1738 25.42                             170    0.0110 23.2 184 
 BAR2 EZ ES       1738 40.18                             170   -0.3710 23.2 184 
 BAR2 EZ I        1738 41.69        24.7 0.24            166           23.2 184 
 BRR  HZ EP       1738 26.73                             153   -0.1010 69.1 299 
 BRR  HN ES       1738 43.78                             153    0.7010 69.1 299 
 PTB  HZ EP       1738 32.24                             132   -0.37 9  145 259 
 PTB  HE ES       1738 53.33                             132   -0.04 9  145 259 
 PTB  HZ I        1738 56.17         8.4 0.11            132            145 259 
 SPBC HZ EP       1738 34.43                             129    0.20 9  162 218 
 SPBC HN ES       1738 56.26                             129    0.01 9  162 218 
 SPBC HZ I        1739  0.44        22.4 0.09            128            162 218 
 ZAR  HZ EP       1738 37.90                             122   -0.19 9  202 292 
 ZAR  HN ES       1739  2.72                             122   -0.41 9  202 292 
 NOR  HZ EP       1738 41.64                             118    0.22 8  233 234 
 NOR  HE ES       1739  8.98                             118   -0.08 8  233 234 
 NOR  HZ I        1739 14.12         8.2 0.30            118            233 234 
 HEL  HZ EP       1738 46.39                             115    0.53 8  270 256 
 HEL  HN ES       1739 16.92                             115   -0.04 8  270 256 
                                                                                
