 2017  4 5 1420 37.8 L   6.510 -73.512116.2  RSN  7 0.4 2.3LRSN                1
 GAP= 95        1.08       4.1     5.7  9.6 -0.2879E+00  0.3464E+02 -0.3492E+01E
 Epicentro: SIMACOTA - SANTANDER                                               3
 ACTION:UPD 17-05-30 21:08 OP:jn   STATUS:               ID:20170405142038 L   I
 OLDACT:UP  17-05-08 15:32 OP:nlst STATUS:               ID:20170405142038 L   3
 OLDACT:REG 17-04-05 20:43 OP:ar   STATUS:               ID:20170405141745     3
 2017-04-05-1418-00M.COL___371                                                 6
 STAT SP IPHASW D HRMM SECON CODA AMPLIT PERI AZIMU VELO AIN AR TRES W  DIS CAZ7
 BAR2 EZ IP     D 1420 54.53                             161    0.1710 37.5  76 
 BAR2 EZ ES       1421  7.18                             161   -0.0810 37.5  76 
 BAR2 EZ I        1421  8.43        82.3 0.54            161           37.5  76 
 BRR  HZ EP       1420 55.44                             147   -0.3010 69.6 341 
 BRR  HN ES   1   1421  9.79                             147    0.06 7 69.6 341 
 RUS  HE ES       1421 12.84                             142    0.1610 83.2 145 
 PTB  HZ IP     C 1420 57.34                             135   -1.1210  105 272 
 PTB  HZ EP   1   1420 58.45                             135   -0.01 7  105 272 
 PTB  HZ I        1421 13.51       143.5 0.04            130            105 272 
 SPBC HZ EP       1420 59.89                             132    0.5410  113 213 
 SPBC HE ES       1421 16.07                             132   -0.0710  113 213 
 SPBC HZ I        1421 17.05        23.1 0.10            129            113 213 
 NOR  HZ EP   1   1421  6.04                             118   -0.25 7  183 235 
 NOR  HE ES       1421 28.60                             118    0.09 9  183 235 
 NOR  HZ I        1421 32.14         9.0 0.40            115            183 235 
 ZAR  HZ EP       1421  6.82                             118    0.48 9  184 306 
 ZAR  HN ES       1421 29.05                             118    0.45 9  184 306 
 ZAR  HZ I        1421 30.94        22.0 0.46            114            184 306 
                                                                                
