 2010  8 5 1047 49.5 L   6.843 -73.050143.7  RSN 12 0.5 2.1LRSN                1
 GAP=166        1.17       4.5     7.9  7.2 -0.1173E+02 -0.1663E+01  0.4836E+01E
 Epicentro: LOS SANTOS - SANTANDER                                             3
 ACTION:UP  10-09-07 10:52 OP:vdl  STATUS:               ID:20100805104749 L   I
 2010-08-05-1046-22S.COL___125                                                 6
 STAT SP IPHASW D HRMM SECON CODA AMPLIT PERI AZIMU VELO SNR AR TRES W  DIS CAZ7
 GIR2 SZ EP       1048  8.94                             167     0.010   30 329 
 GIR2 SZ ES   2   1048 24.25                             167     0.2 5   30 329 
 BAR2 SZ EP       1048  9.05                             167    -0.110   32 208 
 BAR2 SZ ES   1   1048 24.12                             167    -0.3 7   32 208 
 BAR2 SZ I        1048 25.44        31.0 0.54                            32 208 
 BRR  HZ EP       1048 10.69                             150    -0.210   79 292 
 BRR  HN ES       1048 27.66                             150     0.110   79 292 
 BRR  HZ I        1048 28.60        30.3 0.09                            79 292 
 BRI  SZ EP   1   1048 13.27                             143     0.6 7  101  16 
 RUS  HZ EP       1048 13.34                             142    -0.110  105 182 
 RUS  HZ I        1048 14.47         7.8 0.29                           105 182 
 RUS  HN ES   1   1048 32.11                             142     0.0 7  105 182 
 GUE  SZ EP       1048 12.65                             141    -0.910  110   7 
 GUE  SZ I        1048 13.68         9.8 0.42                           110   7 
 GRA  SZ EP       1048 14.45                             138     0.510  118  13 
 GRA  SZ I        1048 15.78        21.6 0.46                           118  13 
 GRA  SZ ES   1   1048 33.77                             138     0.7 7  118  13 
 OCA  SZ EP       1048 17.03                             130    -0.4 9  157 349 
 OCA  SZ ES   2   1048 39.43                             130     0.3 5  157 349 
 OCA  SZ I        1048 42.28        12.7 1.13                           157 349 
 CHI  HZ EP       1048 27.76                             116    -0.2 8  256 197 
 CHI  HN ES   2   1048 58.75                             116     0.8 4  256 197 
 CHI  HZ I        1049  3.16         4.8 0.38                           256 197 
 HEL  HZ EP   1   1048 31.54                             113     0.6 6  283 255 
 HEL  HN ES   2   1049  2.27                             113    -0.9 4  283 255 
 HEL  HZ I        1049  8.15         7.8 0.67                           283 255 
 RREF HZ EP       1048 37.95                             110     1.1 7  333 230 
 RREF HN ES   2   1049 13.52                             110    -0.3 3  333 230 
 RREF HZ I        1049 20.05         5.6 1.43                           333 230 
 PRA  HZ EP   1   1048 43.42                             106    -0.7 4  401 211 
 PRA  HN ES   2   1049 27.24                             106     0.6 3  401 211 
 PRA  HZ I        1049 33.06         8.8 0.36                           401 211 
                                                                                
