 2012 10 5 1043  2.0 L   6.760 -73.105137.7  RSN  5 0.3 1.8LRSN                1
 GAP=144        0.72       4.3     6.8  6.2 -0.3197E+00 -0.3483E+01  0.2709E+01E
 Epicentro: LOS SANTOS - SANTANDER                                             3
 ACTION:UPD 12-11-22 17:02 OP:ep   STATUS:               ID:20121005104302 L   I
 2012-10-05-1040-00M.COL___222                                                 6
 STAT SP IPHASW D HRMM SECON CODA AMPLIT PERI AZIMU VELO AIN AR TRES W  DIS CAZ7
 BAR2 SZ EP       1043 20.62                             171    0.0510 20.4 205 
 BAR2 SZ I        1043 20.96        20.3 0.30                          20.4 205 
 BAR2 SZ ES   1   1043 35.14                             171    0.06 7 20.4 205 
 GIR2 SZ EP       1043 20.67                             164   -0.1710 36.6 344 
 GIR2 SZ ES   1   1043 34.79                             164   -0.78 7 36.6 344 
 BRR  HZ EP       1043 22.44                             149   -0.1810 77.3 300 
 BRR  HZ I        1043 22.63        24.0 0.30                          77.3 300 
 BRR  HN ES   1   1043 39.31                             149    0.58 7 77.3 300 
 PAM  SZ EP       1043 23.54                             149    0.1710 78.2  35 
 PAM  SN ES   1   1043 40.38                             149    0.30 7 78.2  35 
 PAM  SN I        1043 41.44        24.6 0.48                          78.2  35 
 RUS  HZ EP       1043 24.55                             143   -0.0410 96.0 179 
 RUS  HN ES   1   1043 42.36                             143    0.13 7 96.0 179 
 RUS  HN I        1043 44.34         2.8 0.16                          96.0 179 
                                                                                
