 2011  9 5 1846  1.3 L   6.782 -73.109149.9  RSN  4 0.4 1.7LRSN                1
 GAP=240        0.66      10.6    13.7  7.6  0.1213E+03 -0.1315E+02 -0.1582E+02E
 Epicentro: LOS SANTOS - SANTANDER                                             3
 ACTION:UPD 12-07-13 15:55 OP:ep   STATUS:               ID:20110905184601 L   I
 2011-09-05-1841-44S.COL___171                                                 6
 STAT SP IPHASW D HRMM SECON CODA AMPLIT PERI AZIMU VELO AIN AR TRES W  DIS CAZ7
 BAR2 SZ EP   1   1846 20.90                             170   -0.51 7 22.5 201 
 BAR2 SZ ES   1   1846 36.76                             170   -0.33 7 22.5 201 
 BAR2 SZ I        1846 41.00         5.3 0.31                          22.5 201 
 BRR  HZ EP   1   1846 23.55                             151    0.40 7 75.8 298 
 BRR  HZ I        1846 23.97        14.8 0.17                          75.8 298 
 BRR  HE ES   1   1846 40.48                             151    0.29 7 75.8 298 
 RUS  HZ EP   1   1846 25.36                             145    0.06 7 98.4 178 
 RUS  HE ES   1   1846 44.29                             145    0.27 7 98.4 178 
 ZAR  HZ EP   2   1846 34.54                             122    0.06 4  209 292 
 ZAR  HE ES   2   1846 59.75                             122   -0.61 4  209 292 
                                                                                
