 2011  6 5 1512 47.2 L   6.786 -73.113151.3  RSN 13 0.3 1.8LRSN                1
 GAP=141        0.60       2.8     4.0  5.4 -0.4987E+01  0.5641E+01  0.1453E+01E
 Epicentro: LOS SANTOS - SANTANDER                                             3
 ACTION:UP  11-07-14 19:03 OP:ep   STATUS:               ID:20110605151247 L   I
 2011-06-05-1509-19S.COL___132                                                 6
 STAT SP IPHASW D HRMM SECON CODA AMPLIT PERI AZIMU VELO SNR AR TRES W  DIS CAZ7
 BTL  SZ EP   1   1513  7.66                             171     0.2 7   23 311 
 BAR2 SZ EP   1   1513  7.35                             171    -0.1 7   23 200 
 BAR2 SZ I        1513 24.74        13.2 0.33                            23 200 
 BRR  HZ EP       1513  9.17                             152     0.010   75 298 
 BRR  HN ES   1   1513 26.56                             152     0.3 7   75 298 
 BRR  HZ I        1513 28.88        26.0 0.21                            75 298 
 PAM  SN ES   1   1513 27.39                             152    -0.3 7   76  37 
 RUS  HZ EP   1   1513 11.29                             145    -0.1 7   99 178 
 RUS  HN ES   1   1513 30.13                             145    -0.1 7   99 178 
 RUS  HZ I        1513 31.05         5.6 0.31                            99 178 
 BRI  SZ EP   1   1513 11.96                             142     0.4 7  109  19 
 BRI  SZ I        1513 33.13        10.0 0.46                           109  19 
 GRA  SZ EP   1   1513 13.03                             138     0.1 7  126  16 
 GRA  SZ ES   1   1513 32.88                             138    -0.2 7  126  16 
 GRA  SZ I        1513 35.16        15.8 0.33                           126  16 
 OCA  SZ EP   1   1513 16.06                             130     0.0 7  162 352 
 NOR  SZ EP   1   1513 23.20                             119    -0.2 6  237 235 
 NOR  SN ES   1   1513 51.30                             119    -0.4 6  237 235 
 NOR  SZ I        1513 57.61         1.0 0.21                           237 235 
 CHI  HN ES   1   1513 54.78                             118     0.1 6  248 196 
 HEL  HN ES   1   1513 59.83                             115     0.0 6  275 256 
 HEL  HZ I        1514  5.75         5.6 0.35                           275 256 
 RREF HZ EP   1   1513 33.22                             112    -0.5 5  323 230 
 PRA  HN ES   1   1514 23.80                             107     0.9 4  392 210 
                                                                                
