 2013  2 5 1423 38.1 L   6.803 -73.182135.5  RSN  4 0.4 1.5LRSN                1
 GAP=144        0.83       5.6     6.0  8.2 -0.1320E+02  0.1180E+02  0.8122E+00E
 Epicentro: LOS SANTOS - SANTANDER                                             3
 ACTION:UPD 13-03-12 09:30 OP:ep   STATUS:               ID:20130205142338 L   I
 2013-02-05-1420-00M.COL___240                                                 6
 STAT SP IPHASW D HRMM SECON CODA AMPLIT PERI AZIMU VELO AIN AR TRES W  DIS CAZ7
 BAR2 SZ EP       1423 56.67                             170    0.2310 23.3 180 
 BAR2 SZ ES   1   1424 10.04                             170   -0.75 7 23.3 180 
 BAR2 SZ I        1424 14.85         9.2 0.38            170           23.3 180 
 PAM  SZ EP       1423 59.36                             148    0.0310 79.7  42 
 PAM  SZ I        1423 59.82         6.6 0.20            153           79.7  42 
 PAM  SN ES       1424 16.05                             148    0.1210 79.7  42 
 RUS  HZ EP       1424  0.69                             141   -0.1710  101 174 
 RUS  HE ES   1   1424 19.08                             141    0.43 7  101 174 
 RUS  HE I        1424 20.84         4.7 0.22            144            101 174 
 PTB  HZ EP   1   1424  3.31                             130   -0.52 7  144 258 
 PTB  HN ES   1   1424 24.39                             130    0.45 7  144 258 
 PTB  HZ I        1424 26.90         6.4 0.17            133            144 258 
                                                                                
