 2011  8 5 1903 59.2 L   6.561 -73.428117.6  RSN  7 0.3 2.3LRSN                1
 GAP= 97        0.64       3.0     5.0  5.3 -0.1875E+00  0.1095E+02  0.4080E+01E
 Epicentro: HATO - SANTANDER                                                   3
 ACTION:UPD 12-07-25 14:06 OP:epov STATUS:               ID:20110805190359 L   I
 2011-08-05-1902-17S.COL___135                                                 6
 STAT SP IPHASW D HRMM SECON CODA AMPLIT PERI AZIMU VELO AIN AR TRES W  DIS CAZ7
 BAR2 SZ EP       19 4 15.64                             166    0.0410 27.4  83 
 BAR2 SZ ES   1   19 4 28.32                             166   -0.05 7 27.4  83 
 BAR2 SZ I        19 4 30.13        57.2 0.18                          27.4  83 
 BRR  HZ EP       19 4 17.04                             148   -0.1810 68.1 333 
 BRR  HN ES   1   19 4 31.61                             148    0.37 7 68.1 333 
 BRR  HZ I        19 4 32.13        49.5 0.12                          68.1 333 
 RUS  HZ EP       19 4 18.84                             143   -0.1310 83.1 153 
 RUS  HN ES   2   19 4 34.18                             143   -0.17 5 83.1 153 
 RUS  HZ I        19 4 35.94        34.9 0.26                          83.1 153 
 OCA  SZ EP       19 4 28.16                             118   -0.08 9  186   4 
 OCA  SZ ES   2   19 4 51.13                             118    0.27 4  186   4 
 OCA  SZ I        19 4 55.66        30.8 0.27                           186   4 
 NOR  SZ EP       19 4 28.43                             117   -0.54 9  194 235 
 NOR  SN ES   2   19 4 52.12                             117   -0.04 4  194 235 
 CHI  HZ EP       19 4 32.32                             114    0.44 8  216 189 
 CHI  HZ I        19 4 33.11        10.7 0.12                           216 189 
 TOL  SZ EP       19 4 42.20                             106    0.49 7  303 224 
                                                                                
