 2014  3 5 1845 27.8 L   6.792 -73.155149.0  RSN  6 0.4 1.8LRSN                1
 GAP=136        1.07       4.7     5.6  7.2 -0.2817E+01  0.3958E+01  0.8748E+01E
 Epicentro: LOS SANTOS - SANTANDER                                             3
 ACTION:UPD 14-04-09 23:14 OP:nd   STATUS:               ID:20140305184527 L   I
 OLDACT:REG 14-03-05 15:38 OP:stll STATUS:               ID:20140305183819     3
 2014-03-05-1838-19M.COL___236                                                 6
 STAT SP IPHASW D HRMM SECON CODA AMPLIT PERI AZIMU VELO AIN AR TRES W  DIS CAZ7
 BAR2 SZ EP       1845 47.42                             171   -0.3610 22.3 188 
 BAR2 SZ ES       1846  2.72                             171   -0.6610 22.3 188 
 BAR2 SZ I        1846  3.88        19.4 0.26            170           22.3 188 
 BRR  HZ EP       1845 49.56                             153    0.3110 70.8 300 
 BRR  HN ES       1846  6.74                             153    0.7410 70.8 300 
 BRR  HZ I        1846 14.08         9.4 0.48            151           70.8 300 
 PAM  SZ EP       1845 50.70                             151    0.2910 78.7  40 
 PAM  SN ES       1846  7.82                             151   -0.2510 78.7  40 
 PAM  SZ I        1846 10.07        12.4 0.62            156           78.7  40 
 RUS  HZ EP       1845 51.73                             145   -0.0610 99.8 175 
 RUS  HN ES       1846 11.03                             145    0.5110 99.8 175 
 RUS  HZ I        1846 12.38         5.7 0.30            147           99.8 175 
 PTB  HZ EP       1845 54.46                             133   -0.45 9  147 259 
 PTB  HN ES       1846 15.76                             133   -0.31 9  147 259 
 PTB  HZ I        1846 20.64         7.6 0.46            133            147 259 
 CHI  HZ EP       1846  5.67                             118    0.13 8  248 195 
 CHI  HN ES       1846 35.12                             118    0.12 8  248 195 
 CHI  HZ I        1846 41.01         3.5 0.72            120            248 195 
                                                                                
