 2012  1 5 1721 51.8 L   6.769 -73.090152.7  RSN  6 0.3 1.5LRSN                1
 GAP=145        0.73       4.9     7.4  8.0 -0.1448E+01 -0.1855E+01  0.8034E+01E
 Epicentro: LOS SANTOS - SANTANDER                                             3
 ACTION:UP  12-02-03 08:14 OP:REBC STATUS:               ID:20120105172151 L   I
 2012-01-05-1720-00M.COL___189                                                 6
 STAT SP IPHASW D HRMM SECON CODA AMPLIT PERI AZIMU VELO SNR AR TRES W  DIS CAZ7
 BAR2 SZ EP       1722 12.34                             171     0.110   22 208 
 BAR2 SZ I        1722 28.62         7.4 0.66                            22 208 
 GIR2 SZ EP   2   1722 12.19                             166    -0.3 5   36 342 
 GIR2 SZ ES   3   1722 28.82                             166     0.3 2   36 342 
 PAM  SZ EP       1722 15.09                             152     0.310   76  34 
 PAM  SN ES   1   1722 32.32                             152    -0.3 7   76  34 
 BRR  HZ EP       1722 14.20                             151     0.110   78 299 
 BRR  HZ I        1722 14.44        14.8 0.14                            78 299 
 BRR  HN ES   1   1722 31.45                             151    -0.1 7   78 299 
 RUS  HZ EP       1722 15.54                             146    -0.510   97 180 
 RUS  HN ES   1   1722 35.24                             146     0.4 7   97 180 
 RUS  HZ I        1722 36.65         1.5 0.18                            97 180 
 CHI  HZ EP   2   1722 30.24                             119     0.5 4  247 197 
                                                                                
