 2010  3 5 1554 37.7 L   6.833 -72.985140.1  RSN  7 0.5 2.3LRSN                1
 GAP=255        1.18       7.9    11.4  8.8  0.2728E+02  0.1937E+02  0.2904E+02E
 Epicentro: CEPITA - SANTANDER                                                 3
 ACTION:UP  10-08-24 09:52 OP:vdl  STATUS:               ID:20100305155437 L   I
 2010-03-05-1550-46S.COL___101                                                 6
 STAT SP IPHASW D HRMM SECON CODA AMPLIT PERI AZIMU VELO SNR AR TRES W  DIS CAZ7
 BAR2 SZ EP       1554 57.35                             166     0.410   35 219 
 BAR2 SZ ES       1555 11.15                             166    -0.810   35 219 
 BRR  HZ EP       1554 59.10                             146    -0.110   86 291 
 BRR  HZ I        1554 59.29        72.0 0.15                            86 291 
 BRR  HN ES       1555 16.22                             146     0.310   86 291 
 RUS  BZ EP       1555  1.65                             141     0.410  105 186 
 RUS  BE ES   2   1555 20.09                             141     0.6 5  105 186 
 RUS  BZ I        1555 21.15        11.6 0.33                           105 186 
 CHI  HZ EP   1   1555 15.77                             115    -0.3 6  257 199 
 CHI  HN ES   1   1555 45.68                             115    -0.3 6  257 199 
 CHI  HZ I        1555 47.18         9.2 0.40                           257 199 
 RREF BZ EP   1   1555 26.09                             108     0.6 5  338 231 
 RREF BN ES   1   1556  3.14                             108     0.5 5  338 231 
 RREF BZ I        1556  7.09         7.4 0.57                           338 231 
 DBB  SZ EP   1   1555 26.01                             107    -1.0 5  357 273 
 PRA  HZ EP       1555 31.68                             105    -0.8 6  404 212 
 PRA  HN ES   2   1556 15.01                             105    -0.2 3  404 212 
 PRA  HZ I        1556 17.92         8.1 0.59                           404 212 
                                                                                
