 2014  3 5 1237  8.9 L   6.811 -73.136145.6  RSN 10 0.5 1.9LRSN                1
 GAP=120        1.17       3.3     4.6  6.8 -0.1642E+01  0.7086E+01 -0.7921E-01E
 Epicentro: LOS SANTOS - SANTANDER                                             3
 OLDACT:DUP 14-03-05 16:55 OP:stll STATUS:               ID:20140305122814d    3
 ACTION:UPD 14-04-09 23:14 OP:nd   STATUS:               ID:20140305123708 L   I
 OLDACT:UP  14-03-05 17:00 OP:stll STATUS:               ID:20140305122814d    3
 2014-03-05-1228-13M.COL___232                                                 6
 STAT SP IPHASW D HRMM SECON CODA AMPLIT PERI AZIMU VELO AIN AR TRES W  DIS CAZ7
 BAR2 SZ EP       1237 28.87                             170    0.3010 24.7 192 
 BAR2 SZ ES       1237 44.01                             170    0.1310 24.7 192 
 BAR2 SZ I        1237 46.82        18.0 0.38            170           24.7 192 
 PAM  SZ EP       1237 31.63                             151    0.6010 75.8  40 
 PAM  SN ES       1237 48.47                             151    0.2010 75.8  40 
 PAM  SZ I        1237 50.57        12.9 0.64            152           75.8  40 
 RUS  HZ EP       1237 32.82                             143    0.0710  102 177 
 RUS  HN ES       1237 50.99                             143   -0.3410  102 177 
 RUS  SZ I        1237 53.60         7.3 0.66            144            102 177 
 PTB  HZ EP       1237 35.91                             132   -0.08 9  149 258 
 PTB  HN ES       1237 56.64                             132   -0.47 9  149 258 
 PTB  SZ I        1237 58.28         9.2 0.28            132            149 258 
 OCA  HN ES       1237 59.45                             130    0.34 9  159 353 
 ZAR  HN ES       1238  6.47                             122   -0.28 9  205 292 
 SML  HZ EP       1237 45.54                             117    0.07 8  243 335 
 SML  HN ES       1238 13.18                             117   -0.79 8  243 335 
 SML  SZ I        1238 23.67        12.2 0.06            118            243 335 
 CHI  HZ EP       1237 47.20                             117    0.43 8  250 195 
 CHI  HN ES       1238 15.39                             117   -0.91 8  250 195 
 CHI  SZ I        1238 24.63         6.0 2.24            118            250 195 
 SOCV BZ EP       1237 50.78                             112   -1.01 7  300  57 
 GUY2CHZ EP       1237 52.99                             112    0.29 7  303 235 
 GUY2CHN ES       1238 27.91                             112    1.06 7  303 235 
 GUY2CSZ I        1238 34.19         4.1 0.78                           303 235 
                                                                                
