 2010  8 5 1413 40.2 L   6.785 -73.061151.1  RSN  6 0.4 1.9LRSN                1
 GAP=168        1.12       5.5    11.7 10.6  0.6447E+01 -0.4906E+02 -0.1446E+02E
 Epicentro: LOS SANTOS - SANTANDER                                             3
 ACTION:UP  10-09-07 10:52 OP:vdl  STATUS:               ID:20100805141340 L   I
 2010-08-05-1411-05S.COL___124                                                 6
 STAT SP IPHASW D HRMM SECON CODA AMPLIT PERI AZIMU VELO SNR AR TRES W  DIS CAZ7
 BAR2 SZ EP       1414  0.38                             170    -0.110   25 212 
 BAR2 SZ ES   1   1414 15.71                             170    -0.7 7   25 212 
 BAR2 SZ I        1414 18.98        17.8 0.51                            25 212 
 GIR2 SZ EP   1   1414  0.58                             166    -0.1 7   36 336 
 BRR  HZ EP       1414  2.33                             150    -0.110   80 296 
 BRR  HZ I        1414  2.62        28.2 0.22                            80 296 
 BRR  HN ES       1414 20.06                             150     0.210   80 296 
 RUS  HZ EP       1414  4.76                             145     0.410   99 181 
 RUS  HN ES       1414 23.26                             145     0.110   99 181 
 RUS  HZ I        1414 24.85         8.7 1.17                            99 181 
 GUE  SZ EP   1   1414  4.42                             141    -1.0 7  117   7 
 GRA  SZ EP       1414  6.13                             139     0.310  125  13 
 GRA  SZ ES   1   1414 26.37                             139     0.5 7  125  13 
 GRA  SZ I        1414 28.16         7.2 0.47                           125  13 
                                                                                
