 2016  7 5 1100 57.7 L   6.825 -73.155154.7  RSN  7 0.5 1.7LRSN                1
 GAP=134        0.75       4.4     4.3  7.1 -0.1298E+01  0.1036E+02  0.3281E+01E
 Epicentro: LOS SANTOS - SANTANDER                                             3
 ACTION:UPD 17-03-29 16:47 OP:lp   STATUS:               ID:20160705110057 L   I
 OLDACT:REG 16-07-05 22:06 OP:dnl  STATUS:               ID:20160705105746     3
 2016-07-05-1057-46M.COL___313                                                 6
 STAT SP IPHASW D HRMM SECON CODA AMPLIT PERI AZIMU VELO AIN AR TRES W  DIS CAZ7
 BAR2 EZ EP   2   11 1 18.41                             170   -0.00 5 25.9 187 
 BAR2 EZ ES   2   11 1 34.16                             170   -0.44 5 25.9 187 
 BAR2 EZ I        11 1 36.56         9.7 0.24            169           25.9 187 
 BRR  HZ EP   3   11 1 19.72                             155    0.06 2 69.0 297 
 BRR  HE ES   2   11 1 37.78                             155    0.96 5 69.0 297 
 BRR  HZ I        11 1 41.91        12.6 0.30            150           69.0 297 
 PAM  EZ EP   2   11 1 21.06                             153    0.31 5 75.9  41 
 PAM  EN ES       11 1 38.45                             153   -0.3110 75.9  41 
 PAM  EZ I        11 1 40.92         6.8 0.48            157           75.9  41 
 RUS  HZ EP       11 1 22.73                             144    0.2410  103 176 
 RUS  HE ES       11 1 42.04                             144    0.1810  103 176 
 RUS  HZ I        11 1 42.65         5.1 0.32            149            103 176 
 PTB  HZ EP       11 1 25.67                             134    0.34 9  147 258 
 PTB  HE ES       11 1 46.62                             134   -0.29 9  147 258 
 PTB  HZ I        11 1 51.71         3.5 0.11            134            147 258 
 SPBC HZ EP   2   11 1 26.16                             130   -0.84 5  165 218 
 SPBC HN ES   2   11 1 49.22                             130   -0.66 5  165 218 
 SPBC HZ I        11 1 55.72         8.8 0.34            132            165 218 
 ZAR  HZ EP   2   11 1 29.75                             124   -0.75 4  202 292 
 ZAR  HN ES   2   11 1 56.63                             124    0.51 4  202 292 
 ZAR  HZ I        11 2  4.76         3.2 0.10            125            202 292 
                                                                                
