 2017  8 5 1405 38.9 L   6.860 -73.140144.9  RSN  6 0.5 1.4LRSN                1
 GAP=246        0.94       7.0     5.5  7.3  0.1566E+02  0.1395E+02  0.2906E+01E
 Epicentro: LOS SANTOS - SANTANDER                                             3
 ACTION:UPD 17-09-04 20:16 OP:rebc STATUS:               ID:20170805140538 L   I
 OLDACT:REG 17-08-05 20:46 OP:dhb  STATUS:               ID:20170805135741     3
 2017-08-05-1358-00M.COL___402                                                 6
 STAT SP IPHASW D HRMM SECON CODA AMPLIT PERI AZIMU VELO AIN AR TRES W  DIS CAZ7
 BAR2 EZ IP     D 14 5 59.06                             168    0.4810 30.0 189 
 BAR2 EZ ES       14 6 13.70                             168   -0.2310 30.0 189 
 BAR2 EZ I        14 6 15.70         6.7 0.13            172           30.0 189 
 RUS  HZ EP       14 6  3.06                             142    0.0110  107 177 
 RUS  HN ES       14 6 22.04                             142    0.1510  107 177 
 RUS  HZ I        14 6 23.81         4.3 0.26            148            107 177 
 PTB  HZ EP       14 6  5.74                             132   -0.25 9  150 256 
 PTB  HN ES       14 6 26.95                             132   -0.16 9  150 256 
 PTB  HZ I        14 6 28.84         2.2 0.16            132            150 256 
 ZAR  HN ES       14 6 36.59                             122    0.36 9  202 290 
 ZAR  HZ I        14 6 47.13         3.2 0.14            123            202 290 
 NOR  HZ EP       14 6 14.16                             118   -0.90 8  239 233 
 NOR  HN ES       14 6 43.17                             118   -0.09 8  239 233 
 NOR  HZ I        14 6 45.88         2.0 0.18            120            239 233 
 GUY2CHZ EP       14 6 23.44                             112    0.47 7  306 234 
 GUY2CHE ES   3   14 6 59.97                             112    2.63 2  306 234 
 GUY2CHZ I        14 7  4.90         1.3 0.44                           306 234 
                                                                                
