 2012  6 5 1116 28.3 L   6.719 -73.425121.9  RSN  4 0.5 1.5LRSN                1
 GAP=179        1.02      10.8     7.6 12.0  0.4976E+02  0.1603E+02 -0.2643E+02E
 Epicentro: EL CARMEN DE CHUCURI - SANTANDER                                   3
 ACTION:UPD 12-08-06 17:47 OP:ep   STATUS:               ID:20120605111626 L   I
 2012-06-05-1110-00M.COL___201                                                 6
 STAT SP IPHASW D HRMM SECON CODA AMPLIT PERI AZIMU VELO AIN AR TRES W  DIS CAZ7
 BAR2 SZ EP       1116 44.84                             165   -0.4710 30.3 118 
 BAR2 SZ ES   1   1116 58.47                             165   -0.07 7 30.3 118 
 BAR2 SZ I        1116 59.36        35.4 0.21            171           30.3 118 
 RUS  HZ EP   1   1116 49.77                             139    0.07 7 98.9 158 
 RUS  HN ES   1   1117  7.13                             139    0.77 7 98.9 158 
 RUS  HZ I        1117  8.52         4.0 0.35            142           98.9 158 
 PTB  HZ EP   1   1116 50.03                             133   -0.44 7  116 260 
 PTB  HN ES   1   1117  7.22                             133   -0.51 7  116 260 
 PTB  HZ I        1117 13.57         2.5 0.19            132            116 260 
 ZAR  HZ EP   1   1116 57.25                             120    0.48 7  180 298 
 ZAR  HN ES   1   1117 19.70                             120    0.77 7  180 298 
 ZAR  HZ I        1117 25.09         3.1 0.18            122            180 298 
                                                                                
