 2012  7 5 1730  1.5 L   6.301 -73.694118.9  RSN  8 0.3 2.0LRSN                1
 GAP= 63        0.76       3.1     3.3  6.6  0.7251E+00  0.4665E+01  0.2739E+01E
 Epicentro: SANTA HELENA DEL OPON - SANTANDER                                  3
 ACTION:UPD 12-08-14 11:42 OP:ep   STATUS:               ID:20120705173001 L   I
 2012-07-05-1730-00M.COL___200                                                 6
 STAT SP IPHASW D HRMM SECON CODA AMPLIT PERI AZIMU VELO AIN AR TRES W  DIS CAZ7
 BAR2 SZ EP       1730 20.19                             149     0.510   65  60 
 BAR2 SZ ES   1   1730 33.74                             149    -0.2 7   65  60 
 BAR2 SZ I        1730 36.37        49.3 0.20            152             65  60 
 RUS  HZ EP   1   1730 21.19                             144     0.0 7   81 124 
 RUS  HN ES   1   1730 36.03                             144    -0.5 7   81 124 
 PTB  HZ EP       1730 20.86                             141    -0.210   88 287 
 PTB  HN ES   1   1730 36.54                             141     0.2 7   88 287 
 PTB  HZ I        1730 37.43        11.7 0.09            144             88 287 
 BRR  HZ EP       1730 21.36                             140     0.310   89 359 
 BRR  HE ES   1   1730 36.60                             140     0.2 7   89 359 
 BRR  HZ I        1730 38.79        24.4 0.13            144             89 359 
 NOR  SZ EP   1   1730 27.02                             124     0.0 7  154 238 
 NOR  SN ES   1   1730 46.96                             124     0.0 7  154 238 
 PAM  SZ EP   1   1730 28.07                             123    -0.1 7  159  44 
 ZAR  HZ EP   1   1730 29.44                             118    -0.7 7  184 316 
 ZAR  HE ES   1   1730 52.29                             118    -0.2 7  184 316 
 ZAR  HZ I        1730 54.11        11.7 0.28            121            184 316 
 CHI  HZ EP   1   1730 30.78                             119     0.0 7  185 181 
 CHI  HE ES   1   1730 53.82                             119     0.2 7  185 181 
 CHI  HZ I        1730 56.72         8.4 0.27            121            185 181 
