 2012  9 5 1623 33.6 L   6.806 -73.120142.2  RSN  6 0.3 1.8LRSN                1
 GAP=140        0.49       3.4     4.2  4.8 -0.1363E+01  0.1326E+01 -0.1668E+01E
 Epicentro: LOS SANTOS - SANTANDER                                             3
 ACTION:UPD 12-10-22 14:17 OP:ep   STATUS:               ID:20120905162333 L   I
 2012-09-05-1620-00M.COL___218                                                 6
 STAT SP IPHASW D HRMM SECON CODA AMPLIT PERI AZIMU VELO AIN AR TRES W  DIS CAZ7
 BAR2 SZ EP       1623 52.71                             170   -0.0910 24.6 196 
 BAR2 SZ ES   1   1624  7.80                             170    0.00 7 24.6 196 
 BAR2 SZ I        1624 11.41        14.2 0.40                          24.6 196 
 GIR2 SZ EP   3   1623 52.00                             167   -0.83 2 31.3 345 
 BRR  HZ EP       1623 54.36                             151   -0.1110 73.5 297 
 BRR  HN ES   1   1624 11.10                             151    0.33 7 73.5 297 
 BRR  HZ I        1624 14.94        15.9 0.14                          73.5 297 
 PAM  SZ EP       1623 55.37                             151    0.0910 75.1  38 
 PAM  SZ I        1623 55.61        36.7 0.18                          75.1  38 
 PAM  SN ES   1   1624 12.12                             151   -0.08 7 75.1  38 
 RUS  HZ EP   2   1623 57.30                             143    0.29 5  101 178 
 RUS  HN ES   1   1624 15.24                             143   -0.05 7  101 178 
 RUS  HZ I        1624 19.49         3.0 0.48                           101 178 
 PTB  HZ EP   2   1624  0.81                             131    0.28 5  151 259 
 PTB  HN ES   3   1624 20.07                             131   -1.48 2  151 259 
                                                                                
