 2011 12 5 1152 46.3 L   6.752 -73.115143.0  RSN 14 0.4 2.7LRSN                1
 GAP=118        0.79       2.6     3.7  4.3 -0.2188E+01  0.3549E+01  0.2322E+01E
 Epicentro: LOS SANTOS - SANTANDER                                             3
 ACTION:UPD 12-07-13 16:14 OP:ep   STATUS:               ID:20111205115246 L   I
 2011-12-05-1150-00M.COL___183                                                 6
 STAT SP IPHASW D HRMM SECON CODA AMPLIT PERI AZIMU VELO AIN AR TRES W  DIS CAZ7
 BAR2 SZ IP       1153  5.50                             172   -0.0410 19.2 203 
 BAR2 SZ ES       1153 20.58                             172    0.0510 19.2 203 
 BAR2 SZ I        1153 22.45        78.0 0.35                          19.2 203 
 GIR2 SZ EP   1   1153  5.58                             165   -0.26 7 37.2 346 
 BRR  HZ EP       1153  7.36                             150   -0.1410 76.8 301 
 BRR  HE ES       1153 24.56                             150    0.5410 76.8 301 
 BRR  HZ I        1153 29.17        66.6 0.15                          76.8 301 
 PAM  SZ EP       1153  8.34                             150   -0.0310 79.5  35 
 PAM  SN ES   1   1153 24.90                             150   -0.67 7 79.5  35 
 RUS  HZ EP       1153  9.34                             145   -0.0610 95.1 178 
 RUS  HN ES       1153 27.43                             145    0.0210 95.1 178 
 RUS  HZ I        1153 29.63        48.5 0.47                          95.1 178 
 OCA  SZ EP       1153 14.40                             128   -0.56 9  166 352 
 OCA  SZ ES       1153 37.74                             128    0.44 9  166 352 
 OCA  SZ I        1153 41.06        44.8 0.49                           166 352 
 YOP  SZ EP   1   1153 15.94                             127    0.40 7  173 154 
 YOP  SZ I        1153 40.58        28.4 0.28                           173 154 
 CTAU SZ EP       1153 19.52                             123    0.71 9  200 211 
 NOR  SZ EP   1   1153 21.54                             118   -0.33 6  234 236 
 NOR  SN ES       1153 49.06                             118   -0.53 8  234 236 
 CHI  HZ EP       1153 23.46                             117    0.05 8  244 196 
 CHI  HE ES   2   1153 52.17                             117   -0.17 4  244 196 
 CHI  HZ I        1153 59.16        22.4 0.83                           244 196 
 HEL  HZ EP   1   1153 27.10                             114    0.48 6  274 257 
 HEL  HN ES   1   1153 57.33                             114   -0.73 6  274 257 
 HEL  HZ I        1154  3.85        22.8 0.26                           274 257 
 GUY  SZ EP   2   1153 29.91                             112   -0.14 4  303 236 
 GUY  SE ES   2   1154  4.75                             112    0.60 4  303 236 
 GUY  SZ I        1154 11.68        39.8 0.45                           303 236 
 RREF HZ EP       1153 32.40                             110    0.15 7  321 230 
 RREF HN ES   1   1154  8.14                             110    0.06 5  321 230 
 RREF HZ I        1154 17.22        25.6 0.28                           321 230 
 PRA  HZ EP   1   1153 39.39                             106   -0.02 4  389 210 
 PRA  HN ES   1   1154 20.68                             106   -0.13 4  389 210 
 PRA  HZ I        1154 25.59        56.6 0.34                           389 210 
                                                                                
