 2015  5 5 1141  8.0 L   6.754 -73.113138.5  RSN  5 0.2 1.6LRSN                1
 GAP=143        0.53       3.2     5.1  5.5  0.4475E+01 -0.6971E+01 -0.8625E+00E
 Epicentro: LOS SANTOS - SANTANDER                                             3
 ACTION:UPD 15-09-10 22:01 OP:cam  STATUS:               ID:20150505114108 L   I
 OLDACT:REG 15-05-05 20:38 OP:stll STATUS:               ID:20150505113749     3
 2015-05-05-1137-49M.COL___271                                                 6
 STAT SP IPHASW D HRMM SECON CODA AMPLIT PERI AZIMU VELO AIN AR TRES W  DIS CAZ7
 BAR2 EZ EP       1141 26.69                             172   -0.0110 19.5 203 
 BAR2 EZ I        1141 42.87        13.3 0.20            172           19.5 203 
 BRR  HZ EP       1141 28.51                             149   -0.2210 76.9 301 
 BRR  HE ES       1141 45.03                             149    0.1510 76.9 301 
 PAM  SZ EP       1141 29.53                             149   -0.0510 79.2  35 
 PAM  SZ I        1141 29.79         7.5 0.24            147           79.2  35 
 RUS  HZ EP       1141 31.03                             144    0.3510 95.4 178 
 RUS  HN ES       1141 48.18                             144   -0.1710 95.4 178 
 RUS  HZ I        1141 50.76         4.5 0.34            143           95.4 178 
 SPBC HZ EP       1141 35.75                             128   -0.07 9  162 221 
                                                                                
