 2010 11 5 1041 34.6 L   6.783 -73.127140.0  RSN 12 0.4 2.3LRSN                1
 GAP=137        1.07       3.6     5.8  6.5 -0.2888E+01  0.4402E+01  0.3255E+01E
 Epicentro: LOS SANTOS - SANTANDER                                             3
 ACTION:UP  10-12-17 16:50 OP:REBC STATUS:               ID:20101105104134 L   I
 2010-11-05-1039-32S.COL___128                                                 6
 STAT SP IPHASW D HRMM SECON CODA AMPLIT PERI AZIMU VELO SNR AR TRES W  DIS CAZ7
 BTL  SZ EP       1041 53.56                             171     0.010   22 314 
 BAR2 SZ EP       1041 53.36                             171    -0.210   22 196 
 BAR2 SZ ES   1   1042  7.69                             171    -0.6 7   22 196 
 BAR2 SZ I        1042  9.45        49.1 0.15                            22 196 
 GIR2 SZ EP   1   1041 53.43                             166    -0.2 7   34 347 
 BRR  HZ EP       1041 55.13                             151    -0.210   74 299 
 BRR  HN ES       1042 11.95                             151     0.510   74 299 
 BRR  HZ I        1042 16.35        63.8 0.16                            74 299 
 RUS  HZ EP       1041 57.38                             143    -0.310   99 177 
 RUS  HN ES       1042 15.83                             143     0.210   99 177 
 RUS  HZ I        1042 17.90        22.4 0.42                            99 177 
 GRA  SZ EP       1042  0.10                             136     0.610  127  16 
 GRA  SZ ES   1   1042 19.45                             136     0.6 7  127  16 
 GRA  SZ I        1042 20.89        26.0 0.14                           127  16 
 OCA  SZ EP       1042  1.85                             128    -0.9 9  162 353 
 OCA  SZ ES   2   1042 23.95                             128    -0.7 5  162 353 
 OCA  SZ I        1042 26.89        35.6 0.14                           162 353 
 YOP  SZ EP       1042  4.13                             126     0.1 9  176 154 
 YOP  SE ES   2   1042 27.18                             126     0.3 4  176 154 
 NOR  SZ EP       1042  9.77                             117    -0.3 8  235 235 
 NOR  SN ES   1   1042 37.59                             117    -0.2 6  235 235 
 HEL  HZ EP   1   1042 15.57                             114     0.9 6  274 256 
 HEL  HZ  AML     1042 52.46        12.0 0.42                           274 256 
 RREF HZ EP   1   1042 21.01                             110     0.5 5  322 230 
 RREF HN ES   2   1042 56.01                             110    -0.4 3  322 230 
 RREF HZ I        1043  1.89        10.1 0.30                           322 230 
 PRA  HZ EP       1042 27.85                             106     0.0 6  391 210 
 PRA  HN ES       1043  9.80                             106     0.4 6  391 210 
                                                                                
