 2014  6 5 1146 59.8 L   6.776 -73.193137.8  RSN  8 0.4 2.0LRSN                1
 GAP=132        1.02       3.1     4.5  6.4 -0.8878E+00  0.1081E+02 -0.2883E+01E
 Epicentro: VILLANUEVA - SANTANDER                                             3
 ACTION:UPD 14-07-01 22:51 OP:nd   STATUS:               ID:20140605114659 L   I
 OLDACT:DUP 14-06-05 22:29 OP:stll STATUS:               ID:20140605113818d    3
 2014-06-05-1138-17M.COL___262                                                 6
 STAT SP IPHASW D HRMM SECON CODA AMPLIT PERI AZIMU VELO AIN AR TRES W  DIS CAZ7
 BAR2 SZ EP       1147 18.57                             171    0.2010 20.3 177 
 BAR2 SZ ES       1147 33.19                             171    0.3110 20.3 177 
 BAR2 SZ I        1147 34.84        16.2 0.26            172           20.3 177 
 PAM  SZ IP     C 1147 21.58                             147    0.1010 82.8  41 
 PAM  SZ I        1147 21.88        32.8 0.28            150           82.8  41 
 PAM  SN ES       1147 38.12                             147   -0.3010 82.8  41 
 RUS  HZ EP       1147 22.76                             143    0.1910 98.4 173 
 RUS  HN ES       1147 40.16                             143   -0.2010 98.4 173 
 RUS  HZ I        1147 41.77         6.7 0.30            146           98.4 173 
 PTB  HZ EP       1147 25.73                             131    0.17 9  142 259 
 PTB  HZ I        1147 26.56         8.0 0.12            131            142 259 
 PTB  HN ES       1147 44.83                             131   -0.86 9  142 259 
 OCA  HZ EP       1147 27.42                             127   -0.25 9  162 355 
 OCA  HN ES       1147 49.82                             127    0.38 9  162 355 
 OCA  HZ I        1147 56.30        15.2 0.40            128            162 355 
 ZAR  HZ EP       1147 31.67                             121    0.37 9  200 293 
 ZAR  HN ES       1147 56.49                             121    0.60 9  200 293 
 ZAR  HZ I        1148  5.28        13.9 0.14            121            200 293 
 SML  HZ EP       1147 34.94                             116   -1.04 8  244 337 
 SML  HN ES       1148  4.27                             116    0.03 8  244 337 
 SML  HZ I        1148  9.31        18.0 0.26            116            244 337 
 PRA  HZ EP       1147 52.79                             105    0.36 6  387 209 
 PRA  HN ES       1148 33.54                             105    0.02 6  387 209 
 PRA  HZ I        1148 40.06         3.1 0.26            107            387 209 
                                                                                
