 2011  9 5 1353 50.6 L   6.815 -73.084149.6  RSN  5 0.3 1.7LRSN                1
 GAP=245        0.61       8.4     9.9  6.0  0.6887E+02  0.4213E+01 -0.1529E+01E
 Epicentro: LOS SANTOS - SANTANDER                                             3
 ACTION:UPD 12-07-13 15:55 OP:ep   STATUS:               ID:20110905135350 L   I
 2011-09-05-1351-17S.COL___171                                                 6
 STAT SP IPHASW D HRMM SECON CODA AMPLIT PERI AZIMU VELO AIN AR TRES W  DIS CAZ7
 BAR2 SZ EP   1   1354 10.76                             169   -0.03 7 26.9 204 
 BAR2 SZ ES   1   1354 26.04                             169   -0.49 7 26.9 204 
 BAR2 SZ I        1354 29.11        14.3 0.45                          26.9 204 
 BRR  HZ EP   1   1354 12.84                             151    0.35 7 76.6 295 
 BRR  HZ I        1354 18.07        11.8 0.29                          76.6 295 
 BRR  HE ES   1   1354 29.97                             151    0.41 7 76.6 295 
 RUS  HZ EP   1   1354 14.86                             144    0.01 7  102 180 
 RUS  HN ES   1   1354 33.86                             144    0.11 7  102 180 
 RUS  HZ I        1354 35.32         5.8 0.16                           102 180 
 ZAR  HZ EP   1   1354 23.45                             122   -0.46 6  210 291 
 ZAR  HN ES   1   1354 49.72                             122   -0.16 6  210 291 
 CHI  HZ EP   2   1354 29.21                             118    0.30 4  252 197 
 CHI  HZ I        1354 31.14         2.8 0.16                           252 197 
                                                                                
