 2017  9 5 1358 34.6 L   6.842 -73.177144.3  RSN  5 0.3 1.5LRSN                1
 GAP=187        0.69       4.8     8.1  6.4 -0.2925E+02  0.2284E+02 -0.3191E+01E
 Epicentro: ZAPATOCA - SANTANDER                                               3
 ACTION:UPD 17-10-05 19:09 OP:rebc STATUS:               ID:20170905135834 L   I
 OLDACT:REG 17-09-05 20:57 OP:lv   STATUS:               ID:20170905135739     3
 2017-09-05-1358-00M.COL___426                                                 6
 STAT SP IPHASW D HRMM SECON CODA AMPLIT PERI AZIMU VELO AIN AR TRES W  DIS CAZ7
 PAM  EZ EP       1358 56.86                             151    0.3010 76.2  44 
 PAM  EN ES       1359 13.42                             151   -0.2910 76.2  44 
 PAM  EZ I        1359 16.32         7.1 0.48            154           76.2  44 
 RUS  HZ EP       1358 58.18                             142   -0.3610  106 174 
 RUS  HN ES       1359 17.56                             142    0.3210  106 174 
 RUS  HZ I        1359 18.59         3.8 0.46            145            106 174 
 SPBC HZ EP       1359  3.55                             128    0.45 9  165 217 
 SPBC HN ES       1359 25.22                             128   -0.14 9  165 217 
 SPBC HZ I        1359 27.80         6.0 0.20            131            165 217 
 CHI  HZ EP       1359 12.51                             116   -0.07 8  252 194 
 CHI  HN ES       1359 42.12                             116   -0.12 8  252 194 
 CHI  HZ I        1359 42.76         1.6 0.29            119            252 194 
 PRA  HZ EP       1359 28.15                             106   -0.17 6  394 209 
 PRA  HN ES       14 0 10.10                             106   -0.15 6  394 209 
                                                                                
