 2015  4 5 1652 10.3 L   6.821 -73.174136.4  RSN  8 0.5 1.7LRSN                1
 GAP=132        1.19       4.0     4.7  7.7 -0.2301E+01  0.1154E+02  0.9726E+00E
 Epicentro: ZAPATOCA - SANTANDER                                               3
 ACTION:UPD 15-06-03 16:52 OP:cam  STATUS:               ID:20150405165210 L   I
 OLDACT:REG 15-04-05 21:12 OP:fm   STATUS:               ID:20150405164749     3
 2015-04-05-1647-49M.COL___276                                                 6
 STAT SP IPHASW D HRMM SECON CODA AMPLIT PERI AZIMU VELO AIN AR TRES W  DIS CAZ7
 BRR  HZ IP     C 1652 30.79                             152    0.6210 67.3 298 
 BRR  HN ES       1652 46.24                             152    0.5410 67.3 298 
 BRR  HZ I        1652 48.18         6.8 0.32            150           67.3 298 
 PAM  SZ EP       1652 31.98                             149    0.4810 77.6  42 
 PAM  SN ES       1652 47.91                             149   -0.1510 77.6  42 
 PAM  SZ I        1652 49.34         8.6 0.22            152           77.6  42 
 RUS  HZ EP       1652 33.22                             141   -0.0810  103 174 
 RUS  HE ES       1652 50.74                             141   -0.5310  103 174 
 PTB  HZ EP       1652 36.59                             130    0.35 9  145 258 
 PTB  HN ES       1652 56.42                             130   -0.08 9  145 258 
 PTB  HZ I        1653  0.07         7.1 0.48            130            145 258 
 ZAR  HZ EP       1652 42.05                             121    0.34 9  200 292 
 ZAR  HN ES       1653  5.74                             121   -0.50 9  200 292 
 ZAR  HZ I        1653 12.81         6.9 0.54            121            200 292 
 NOR  HZ EP       1652 45.08                             117   -0.26 8  234 234 
 NOR  HE ES       1653 11.96                             117   -0.74 8  234 234 
 NOR  HZ I        1653 16.94         4.6 0.24            118            234 234 
 SML  HZ EP       1652 44.95                             116   -1.04 8  240 336 
 SML  HN ES       1653 13.55                             116   -0.32 8  240 336 
 SML  HZ I        1653 17.20         5.7 0.10            117            240 336 
 GUY2CHZ EP       1652 53.60                             111    0.28 7  300 234 
 GUY2CHN ES       1653 27.63                             111    0.73 7  300 234 
 GUY2CHZ I        1653 35.47         2.6 0.46                           300 234 
                                                                                
