 2014  6 5 1559  1.8 L   6.768 -73.129140.0  RSN  7 0.3 1.8LRSN                1
 GAP=140        0.79       3.6     3.7  5.0 -0.4014E+01  0.4341E+01  0.2690E+01E
 Epicentro: LOS SANTOS - SANTANDER                                             3
 ACTION:UPD 14-07-01 22:51 OP:nd   STATUS:               ID:20140605155901 L   I
 OLDACT:REG 14-06-05 21:00 OP:stll STATUS:               ID:20140605155814     3
 2014-06-05-1558-14M.COL___265                                                 6
 STAT SP IPHASW D HRMM SECON CODA AMPLIT PERI AZIMU VELO AIN AR TRES W  DIS CAZ7
 BAR2 SZ EP       1559 20.82                             171    0.1610 20.3 197 
 BAR2 SZ ES       1559 35.72                             171    0.3410 20.3 197 
 BAR2 SZ I        1559 38.70         9.2 0.40            172           20.3 197 
 BRR  HZ EP       1559 22.81                             150    0.3010 74.6 300 
 BRR  HN ES       1559 38.71                             150    0.0410 74.6 300 
 BRR  HZ I        1559 41.85        15.4 0.38            149           74.6 300 
 PAM  SZ EP       1559 23.70                             149    0.2110 79.0  37 
 PAM  SN ES       1559 40.08                             149   -0.3410 79.0  37 
 PAM  SZ I        1559 43.02         8.0 0.52            152           79.0  37 
 RUS  HZ EP       1559 24.35                             144   -0.3510 96.9 177 
 RUS  HN ES       1559 42.40                             144   -0.1710 96.9 177 
 PTB  HZ EP       1559 28.03                             130   -0.36 9  149 260 
 PTB  HN ES       1559 48.82                             130   -0.33 9  149 260 
 PTB  HZ I        1559 56.25        12.6 0.40            132            149 260 
 SPBC HZ EP       1559 29.59                             128   -0.10 9  162 220 
 SPBC HN ES       1559 51.85                             128    0.39 9  162 220 
 GUY2CHZ EP       1559 45.70                             111    0.63 7  301 236 
 GUY2CHN ES       16 0 18.51                             111   -0.32 7  301 236 
 GUY2CHZ I        16 0 25.68         3.0 0.38                           301 236 
                                                                                
