 2010  7 5 1645 27.8 L   6.797 -73.106139.4  RSN 17 0.4 3.0LRSN                1
 GAP=129        0.80       3.0     5.4  5.8 -0.7851E+01  0.8029E+01  0.1051E+01E
 Epicentro: LOS SANTOS - SANTANDER                                             3
 ACTION:UPD 10-12-01 15:15 OP:pat  STATUS:               ID:20100705164527 L   I
 2010-07-05-1644-19S.COL___118                                                 6
 STAT SP IPHASW D HRMM SECON CODA AMPLIT PERI AZIMU VELO AIN AR TRES W  DIS CAZ7
 BAR2 SZ IP       1645 46.70                             170     0.010   24 201 
 BAR2 SZ ES   2   1646  1.47                             170     0.0 5   24 201 
 BRR  HZ IP     C 1645 48.63                             150     0.110   75 297 
 BRR  HZ I        1645 49.05       278.6 0.10                            75 297 
 BRR  HE ES   2   1646  5.34                             150     0.6 5   75 297 
 RUS  HZ EP       1645 50.56                             143    -0.410  100 179 
 RUS  HZ I        1645 51.52        80.5 0.20                           100 179 
 RUS  HN ES   1   1646  8.75                             143    -0.2 7  100 179 
 BRI  SZ EP       1645 51.50                             140     0.510  107  19 
 BRI  SZ ES   2   1646  9.18                             140     0.0 5  107  19 
 GUE  SZ EP       1645 51.80                             138    -0.110  116  10 
 GRA  SZ EP       1645 52.74                             136     0.310  125  16 
 GRA  SZ ES   1   1646 11.37                             136    -0.3 7  125  16 
 OCA  SZ EP   1   1645 55.48                             128    -0.3 7  161 352 
 OCA  SZ ES   2   1646 16.87                             128    -0.6 5  161 352 
 OCA  SZ I        1646 21.20       106.3 0.20                           161 352 
 CHI  HZ EP   1   1646  5.00                             116    -0.3 6  250 196 
 ROSC BZ EP       1646  6.55                             115     0.7 8  255 212 
 ROSC BE ES   1   1646 35.40                             115    -0.1 6  255 212 
 ROSC BZ I        1646 43.79        73.7 0.25                           255 212 
 CVER SZ EP   1   1646  8.37                             113     0.3 6  274 203 
 HEL  HZ EP   2   1646  8.57                             113     0.4 4  276 256 
 HEL  HN ES   2   1646 38.70                             113    -1.0 4  276 256 
 HEL  HZ I        1646 45.55        94.8 0.40                           276 256 
 GUY  HZ EP   1   1646 12.28                             111     0.7 5  305 235 
 RREF HZ EP   2   1646 13.98                             109    -0.1 3  325 230 
 RREF HN ES   2   1646 50.21                             109     0.1 3  325 230 
 RREF HZ I        1646 59.63        41.8 0.22                           325 230 
 DBB  SZ EP       1646 15.02                             108    -0.6 7  344 274 
 TOL  SZ EP   1   1646 16.47                             108     0.3 5  346 225 
 SDV  BZ EP   1   1646 16.60                             107    -0.7 5  357  50 
 SDV  BZ I        1646 58.27        33.9 0.55                           357  50 
 PRA  HZ EP   1   1646 20.82                             105    -0.6 4  394 210 
 PRA  HN ES   2   1647  2.88                             105    -0.2 3  394 210 
 PRA  HZ I        1647 10.02        42.4 0.38                           394 210 
                                                                                
