 2012  3 5 1706 51.3 L   6.696 -73.261138.9  RSN  4 0.5 1.6LRSN                1
 GAP=190        1.01      10.2     9.8 12.2  0.3955E+02  0.3278E+02 -0.1459E+01E
 ACTION:UP  12-03-31 23:17 OP:EP   STATUS:               ID:20120305170651 L   I
 2012-03-05-1700-00M.COL___191                                                 6
 STAT SP IPHASW D HRMM SECON CODA AMPLIT PERI AZIMU VELO SNR AR TRES W  DIS CAZ7
 BAR2 SZ EP   1   17 7 10.40                             174     0.4 7   14 143 
 BAR2 SZ ES   1   17 7 23.89                             174    -0.7 7   14 143 
 BAR2 SZ I        17 7 25.02         5.3 0.28                            14 143 
 BRR  HZ EP   1   17 7 11.02                             153    -0.5 7   67 312 
 BRR  HE ES   1   17 7 27.95                             153     0.6 7   67 312 
 BRR  HZ I        17 7 28.28        13.0 0.39                            67 312 
 RUS  HE ES   1   17 7 31.49                             145     0.3 7   91 167 
 PTB  HZ EP   1   17 7 16.50                             134     0.0 7  133 263 
 PTB  HE ES   1   17 7 35.84                             134    -0.2 7  133 263 
                                                                                
