 2015  7 5 1447  0.7 L   6.851 -73.128138.0  RSN  6 0.3 2.0LRSN                1
 GAP=185        0.73       2.3     4.8  7.8  0.1331E+01  0.1237E+02 -0.1982E+00E
 Epicentro: LOS SANTOS - SANTANDER                                             3
 ACTION:UPD 15-09-08 21:47 OP:cam  STATUS:               ID:20150705144700 L   I
 OLDACT:REG 15-07-05 20:35 OP:mh   STATUS:               ID:20150705143747     3
 2015-07-05-1437-47M.COL___337                                                 6
 STAT SP IPHASW D HRMM SECON CODA AMPLIT PERI AZIMU VELO AIN AR TRES W  DIS CAZ7
 RUS  HZ EP       1447 24.17                             141    0.0810  106 177 
 RUS  HN ES       1447 42.34                             141   -0.0110  106 177 
 RUS  HZ I        1448 21.53         6.6 0.42            150            106 177 
 OCA  HN ES       1447 49.14                             129    0.04 9  155 352 
 OCA  HZ I        1447 55.37        21.4 0.38            153            155 352 
 ZAR  HZ EP   1   1447 32.88                             121    0.28 6  204 290 
 ZAR  HN ES       1447 57.91                             121    0.41 9  204 290 
 ZAR  HZ I        1448  2.63         9.7 0.50            146            204 290 
 SML  HZ EP       1447 36.09                             116   -0.32 8  239 334 
 SML  HN ES       1448  4.14                             116   -0.14 8  239 334 
 SML  HZ I        1448  6.69         8.0 0.48            140            239 334 
 NOR  HN ES       1448  3.74                             116   -0.69 8  240 234 
 NOR  HZ I        1448  9.89         5.3 0.14            135            240 234 
 PRA  HZ EP       1447 54.61                             105   -0.01 6  398 209 
 PRA  HN ES       1448 37.36                             105    0.66 6  398 209 
 PRA  HZ I        1448 40.23         3.6 0.40            120            398 209 
                                                                                
