 2012  8 5 1640  8.6 L   6.796 -73.152147.5  RSN 18 0.4 3.1LRSN 3.6WRSN        1
 SPEC AVERAGE  MO 14.5 ST 20.1 OM  3.1 f0 3.16 R0.4783 AL 2.64 WI 35.4 MW  3.6 3
 SPEC SD       MO  0.2 ST 15.4 OM  0.5 f00.482 R0.0900 AL      WI      MW  0.1 3
 GAP= 71        0.83       3.5     3.6  5.1 -0.2657E+00  0.5494E+01  0.5188E+01E
 Epicentro: LOS SANTOS - SANTANDER                                             3
 SPEC TAM HH N MO 14.4 ST  3.5 OM  2.7 f0 2.16 R0.6806 AL 2.22 WI 22.2 MW  3.5 3
 SPEC TAM HH N T164058 K 0.000 GD  214 VS 4.20 DE 3.00 Q0230.0 QA 0.60 VS 4.20 3
 SPEC ROSCBH Z MO 14.7 ST 27.6 OM  2.1 f0 3.40 R0.4324 AL 3.11 WI 28.4 MW  3.7 3
 SPEC ROSCBH Z T164046 K 0.000 GD  291 VP 7.60 DE 3.00 Q0230.0 QA 0.60 VS 4.20 3
 SPEC OCA HH N MO 14.9 ST 50.3 OM  3.2 f0 3.56 R0.4129 AL 2.57 WI 42.8 MW  3.9 3
 SPEC OCA HH N T164057 K 0.000 GD  218 VS 4.20 DE 3.00 Q0230.0 QA 0.60 VS 4.20 3
 SPEC PTB HH N MO 14.3 ST 12.3 OM  2.6 f0 3.58 R0.4106 AL 3.23 WI 29.4 MW  3.5 3
 SPEC PTB HH N T164055 K 0.000 GD  208 VS 4.20 DE 3.00 Q0230.0 QA 0.60 VS 4.20 3
 SPEC HEL HH N MO 14.4 ST  8.3 OM  2.5 f0 2.98 R0.4933 AL 2.72 WI 50.8 MW  3.5 3
 SPEC HEL HH N T164118 K 0.000 GD  308 VS 4.20 DE 3.00 Q0230.0 QA 0.60 VS 4.20 3
 SPEC CHI HH N MO 14.4 ST  9.2 OM  2.6 f0 2.92 R0.5034 AL 2.89 WI 40.2 MW  3.6 3
 SPEC CHI HH N T164114 K 0.000 GD  288 VS 4.20 DE 3.00 Q0230.0 QA 0.60 VS 4.20 3
 SPEC BRR HH N MO 14.7 ST 29.5 OM  3.1 f0 3.54 R0.4153 AL 1.77 WI 33.9 MW  3.7 3
 SPEC BRR HH N T164046 K 0.000 GD  163 VS 4.20 DE 3.00 Q0230.0 QA 0.60 VS 4.20 3
 ACTION:UPD 12-09-10 11:54 OP:ep   STATUS:               ID:20120805164008 L   I
 2012-08-05-1640-00M.COL___216                                                 6
 STAT SP IPHASW D HRMM SECON CODA AMPLIT PERI AZIMU VELO AIN AR TRES W  DIS CAZ7
 BAR2 SZ EP       1640 28.45                             171    0.0410 22.8 188 
 BAR2 SZ ES   2   1640 43.27                             171   -0.60 5 22.8 188 
 BAR2 SZ I        1640 46.46       202.3 0.36                          22.8 188 
 BRR  HZ IP     C 1640 30.33                             153    0.4310 70.7 299 
 BRR  HN ES   1   1640 47.46                             153    0.95 7 70.7 299 
 BRR  HZ I        1640 51.06       160.6 0.14                          70.7 299 
 PAM  SZ IP       1640 31.26                             151    0.2310 78.2  40 
 PAM  SZ I        1640 31.51       126.8 0.18                          78.2  40 
 PAM  SN ES   1   1640 48.58                             151    0.04 7 78.2  40 
 RUS  HZ EP       1640 32.24                             144   -0.2410  100 176 
 RUS  HN ES   1   1640 50.69                             144   -0.42 7  100 176 
 RUS  HZ I        1640 53.66        69.7 0.50                           100 176 
 PTB  HZ EP   1   1640 35.07                             133   -0.55 7  147 259 
 PTB  HN ES   1   1640 56.27                             133   -0.44 7  147 259 
 PTB  HZ I        1641  2.28       101.9 0.44                           147 259 
 TAM  HZ IP     C 1640 36.64                             131    0.18 9  156 105 
 TAM  HZ I        1640 36.74       101.8 0.36                           156 105 
 TAM  HE ES   2   1640 57.87                             131   -0.32 5  156 105 
 OCA  HZ EP       1640 36.60                             130   -0.46 9  161 353 
 OCA  HN ES   2   1640 58.89                             130   -0.38 5  161 353 
 OCA  HZ I        1641  3.82      5834.3 1.18                           161 353 
 ZAR  HZ EP       1640 40.75                             123   -0.34 9  204 292 
 ZAR  HZ I        1641 12.75        86.6 0.32                           204 292 
 NOR  SZ EP       1640 44.11                             119   -0.22 8  234 234 
 CHI  HZ EP       1640 46.41                             117    0.09 8  248 195 
 CHI  HZ I        1641 23.61        31.8 0.60                           248 195 
 ROSC BZ EP       1640 47.27                             117    0.55 8  252 211 
 ROSC BZ I        1641 26.19       118.0 0.45                           252 211 
 HEL  HZ EP       1640 48.63                             115   -0.17 8  271 256 
 HEL  HZ I        1641 27.40        37.7 0.36                           271 256 
 GUY  SZ EP       1640 52.91                             112    0.47 7  303 235 
 GUY  SZ I        1641 34.74        96.5 0.40                           303 235 
 VIL  SZ EP   1   1640 51.72                             112   -0.30 5  303 191 
 DBB  SZ EP       1640 55.81                             110   -0.24 7  339 274 
 TOL  SZ EP       1640 57.46                             110    0.64 7  343 225 
 ANIL HZ EP   2   1640 59.15                             109    0.79 3  357 224 
 ANIL HZ I        1641 42.62       148.2 0.30                           357 224 
 PRA  HZ EP       1641  1.84                             107   -0.24 6  391 210 
 PRA  HZ I        1641 49.88        51.9 0.64                           391 210 
                                                                                
