 2014 10 5 1848 19.7 L   6.811 -73.129147.9  RSN 14 0.5 2.3LRSN                1
 GAP= 72        1.13       3.3     4.4  6.2 -0.1524E+01  0.4818E+01  0.2548E+01E
 Epicentro: LOS SANTOS - SANTANDER                                             3
 ACTION:UPD 14-11-29 23:47 OP:nd   STATUS:               ID:20141005184819 L   I
 OLDACT:REG 14-10-05 20:51 OP:fm   STATUS:               ID:20141005183741     3
 2014-10-05-1837-41M.COL___274                                                 6
 STAT SP IPHASW D HRMM SECON CODA AMPLIT PERI AZIMU VELO AIN AR TRES W  DIS CAZ7
 BAR2 SZ EP     D 1848 39.79                             170    0.1910 24.9 194 
 BAR2 SZ ES   1   1848 54.89                             170   -0.24 7 24.9 194 
 BAR2 SZ I        1848 56.08        64.0 0.20            168           24.9 194 
 BRR  HZ EP     C 1848 41.63                             153    0.5110 72.2 297 
 BRR  HN ES       1848 58.78                             153    0.9510 72.2 297 
 BRR  HZ I        1849  3.34        30.6 0.22            148           72.2 297 
 PAM  SZ EP     C 1848 42.54                             152    0.5410 75.2  39 
 PAM  SN ES       1848 59.32                             152   -0.0810 75.2  39 
 PAM  SZ I        1849  0.51        26.1 0.22            155           75.2  39 
 RUS  HZ EP       1848 43.40                             144   -0.3310  102 177 
 RUS  HE ES       1849  2.54                             144    0.0610  102 177 
 RUS  HZ I        1849  3.38        28.6 0.22            146            102 177 
 PTB  HZ EP       1848 46.54                             132   -0.47 9  150 258 
 PTB  HN ES       1849  7.62                             132   -0.70 9  150 258 
 PTB  HZ I        1849 12.91        32.7 0.30            130            150 258 
 TAM  HZ EP   1   1848 47.61                             131    0.21 7  154 106 
 OCA  HZ EP   1   1848 47.87                             130   -0.19 7  159 352 
 OCA  HN ES       1849  9.32                             130   -0.88 9  159 352 
 OCA  HZ I        1849 16.14        22.5 0.22            130            159 352 
 SPBC HZ EP       1848 48.72                             129    0.17 9  165 219 
 SPBC HN ES       1849 10.84                             129   -0.22 9  165 219 
 SPBC HZ I        1849 13.47        52.1 0.34            129            165 219 
 ZAR  HZ EP       1848 51.96                             123   -0.43 8  205 292 
 ZAR  HN ES       1849 18.26                             123    0.36 8  205 292 
 ZAR  HZ I        1849 24.68        43.9 0.26            121            205 292 
 SML  HZ EP   1   1848 55.96                             118   -0.43 6  243 335 
 SML  HN ES   4   1849 26.75                             118    1.74 0  243 335 
 SML  HZ I        1849 30.32        20.4 0.10            118            243 335 
 CHI  HZ EP   1   1848 58.01                             117    0.33 6  250 195 
 CHI  HN ES       1849 26.67                             117   -0.65 8  250 195 
 CHI  HZ I        1849 34.89         5.9 0.28            118            250 195 
 URE  HZ EP   4   1849  3.87                             114    2.88 0  285 292 
 GUY2CHZ EP       1849  4.16                             113    0.52 7  303 235 
 GUY2CHE ES   4   1849 39.79                             113    1.87 0  303 235 
 GUY2CHZ I        1849 49.79        11.5 0.40                           303 235 
 CBOC HZ EP   1   1849  7.49                             110    0.56 5  336 252 
 CBOC HN ES   4   1849 42.57                             110   -1.21 0  336 252 
 CBOC HZ I        1849 56.24         4.2 0.64            110            336 252 
 ORTC HN ES       1849 56.69                             107    0.46 6  398 216 
 ORTC HZ I        1850  1.08         5.0 0.34            107            398 216 
                                                                                
