 2012 12 5 1004 53.9 L   6.666 -73.292135.3  RSN  7 0.3 1.9LRSN                1
 GAP= 99        0.72       3.5     3.0  5.4 -0.7727E+00  0.4890E+01 -0.6435E+01E
 Epicentro: GALAN - SANTANDER                                                  3
 ACTION:UPD 13-01-04 14:25 OP:ep   STATUS:               ID:20121205100453 L   I
 2012-12-05-1000-00M.COL___237                                                 6
 STAT SP IPHASW D HRMM SECON CODA AMPLIT PERI AZIMU VELO AIN AR TRES W  DIS CAZ7
 BAR2 SZ EP       10 5 12.14                             173    0.0510 14.6 124 
 BAR2 SZ ES       10 5 26.45                             173    0.1510 14.6 124 
 BAR2 SZ I        10 5 27.21        16.6 0.22                          14.6 124 
 GIR2 SZ EP       10 5 12.88                             160    0.0210 47.0  13 
 RUS  HZ EP       10 5 16.08                             145    0.3410 88.6 165 
 RUS  HN ES       10 5 32.82                             145    0.0310 88.6 165 
 RUS  HN I        10 5 33.99         4.9 0.14                          88.6 165 
 PAM  SZ EP       10 5 16.39                             142   -0.1110 99.2  41 
 PAM  SN ES       10 5 33.94                             142   -0.2110 99.2  41 
 PTB  HZ EP       10 5 17.88                             133   -0.4610  129 264 
 PTB  HE ES       10 5 37.04                             133   -0.3810  129 264 
 PTB  HE I        10 5 41.96         8.5 0.24                           129 264 
 OCA  HZ EP       10 5 22.80                             125    0.05 9  174 359 
 OCA  HN I        10 5 44.34        37.3 0.24                           174 359 
 ZAR  HZ EP       10 5 24.79                             121    0.01 9  196 298 
 ZAR  HN ES       10 5 49.49                             121    0.61 9  196 298 
 ZAR  HN I        10 5 54.98         7.1 0.12                           196 298 
                                                                                
