 2015  2 5 1013 37.7 L   6.738 -73.254146.2  RSN  4 0.3 1.5LRSN                1
 GAP=111        0.71       8.2     4.6  5.9 -0.2250E+02  0.4326E+01 -0.1941E+01E
 Epicentro: ZAPATOCA - SANTANDER                                               3
 ACTION:UPD 15-04-30 21:22 OP:nd   STATUS:               ID:20150205101337 L   I
 OLDACT:DUP 15-02-05 21:09 OP:fm   STATUS:               ID:20150205100747d    3
 2015-02-05-1007-46M.COL___281                                                 6
 STAT SP IPHASW D HRMM SECON CODA AMPLIT PERI AZIMU VELO AIN AR TRES W  DIS CAZ7
 BAR2 EZ ES       1014 12.65                             173    0.0410 18.0 154 
 BAR2 EZ I        1014 14.85         5.3 0.26            175           18.0 154 
 BRR  HZ EP       1013 58.93                             155    0.3310 65.0 309 
 BRR  HN ES       1014 14.79                             155   -0.0810 65.0 309 
 BRR  HZ I        1014 21.35        14.6 0.30            149           65.0 309 
 PAM  SZ EP       1014  1.05                             147    0.2210 90.4  43 
 PAM  SN ES       1014 18.63                             147   -0.2110 90.4  43 
 PAM  SZ I        1014 23.06         4.7 0.20            150           90.4  43 
 PTB  HZ EP       1014  3.09                             135   -0.5010  135 261 
 PTB  HN ES       1014 23.94                             135    0.1810  135 261 
 PTB  HZ I        1014 33.83         1.8 0.50            135            135 261 
                                                                                
