 2014 11 5 1738  4.3 L   6.815 -73.170142.9  RSN  6 0.3 1.4LRSN                1
 GAP=133        0.79       4.1     3.7  5.9 -0.3918E+01  0.3354E+01  0.4033E+01E
 Epicentro: LOS SANTOS - SANTANDER                                             3
 ACTION:UPD 14-12-19 15:39 OP:nd   STATUS:               ID:20141105173804 L   I
 OLDACT:REG 14-11-05 23:56 OP:carl STATUS:               ID:20141105173744     3
 2014-11-05-1737-44M.COL___269                                                 6
 STAT SP IPHASW D HRMM SECON CODA AMPLIT PERI AZIMU VELO AIN AR TRES W  DIS CAZ7
 BAR2 SZ EP       1738 23.53                             170   -0.0610 24.6 183 
 BAR2 SZ ES       1738 38.16                             170   -0.4910 24.6 183 
 BAR2 SZ I        1738 44.30         6.0 0.30            167           24.6 183 
 BRR  HN ES       1738 41.53                             153    0.4710 68.1 298 
 PAM  SZ EP       1738 26.34                             150    0.1210 77.9  42 
 PAM  SE ES       1738 43.33                             150    0.0010 77.9  42 
 PAM  SZ I        1738 45.19         6.0 0.50            156           77.9  42 
 RUS  HZ EP       1738 27.95                             143    0.0710  102 175 
 RUS  HE ES       1738 46.52                             143    0.2310  102 175 
 RUS  HZ I        1738 51.31         1.4 0.42            144            102 175 
 PTB  HZ EP       1738 30.44                             132   -0.36 9  145 258 
 PTB  HN ES       1738 51.20                             132   -0.30 9  145 258 
 PTB  HZ I        1738 56.70         5.3 0.34            135            145 258 
 NOR  HN ES       1739  7.72                             118    0.37 8  233 234 
 NOR  HZ I        1739  9.77         3.2 0.16            121            233 234 
                                                                                
