 2012  1 5 1643 39.3 L   6.784 -73.186141.6  RSN  6 0.3 1.3LRSN                1
 GAP=132        0.44       3.7     5.0  6.9 -0.8083E+01 -0.2150E+01  0.4492E+01E
 Epicentro: LOS SANTOS - SANTANDER                                             3
 ACTION:UP  12-02-03 08:14 OP:REBC STATUS:               ID:20120105164339 L   I
 2012-01-05-1640-00M.COL___189                                                 6
 STAT SP IPHASW D HRMM SECON CODA AMPLIT PERI AZIMU VELO SNR AR TRES W  DIS CAZ7
 BAR2 SZ EP       1643 58.44                             171     0.110   21 179 
 BAR2 SZ ES   3   1644 13.17                             171    -0.1 2   21 179 
 BAR2 SZ I        1644 15.06         5.9 0.84                            21 179 
 GIR2 SZ ES   3   1644 14.57                             166     1.1 2   33 359 
 PAM  SZ EP       1644  1.18                             149    -0.110   82  41 
 PAM  SE ES   2   1644 18.56                             149     0.1 5   82  41 
 RUS  HZ EP       1644  2.61                             143     0.110   99 173 
 RUS  HN ES   2   1644 20.26                             143    -0.4 5   99 173 
 RUS  HZ I        1644 22.15         2.6 0.28                            99 173 
 PTB  HZ EP   3   1644  5.62                             132     0.1 2  143 259 
 PTB  HN ES   2   1644 25.60                             132    -0.3 5  143 259 
 PTB  HZ I        1644 32.32         2.2 0.14                           143 259 
 CHI  HZ EP   3   1644 16.46                             116     0.0 2  246 194 
 CHI  HE ES   2   1644 45.63                             116     0.2 4  246 194 
                                                                                
