 2014  5 5 1328 46.9 L   6.844 -73.180141.8  RSN 14 0.5 2.4LRSN                1
 GAP= 68        1.02       2.5     3.0  6.4 -0.6340E+00  0.6144E+01  0.1370E+01E
 Epicentro: ZAPATOCA - SANTANDER                                               3
 ACTION:UPD 15-03-16 16:55 OP:nd   STATUS:               ID:20140505132846 L   I
 OLDACT:UP  14-05-05 21:59 OP:carl STATUS:               ID:20140505132814     3
 OLDACT:REG 14-05-05 20:46 OP:carl STATUS:               ID:20140505132814     3
 2014-05-05-1328-14M.COL___217                                                 6
 STAT SP IPHASW D HRMM SECON CODA AMPLIT PERI AZIMU VELO AIN AR TRES W  DIS CAZ7
 PAM  SZ EP     C 1329  9.00                             150    0.3910 76.3  44 
 PAM  SE ES       1329 26.09                             150    0.5310 76.3  44 
 PAM  SZ I        1329 28.12        63.2 0.50            155           76.3  44 
 RUS  HZ EP       1329 10.34                             141   -0.2910  106 174 
 RUS  HN ES       1329 29.20                             141    0.0510  106 174 
 RUS  HZ I        1329 30.75        22.2 0.20            145            106 174 
 PTB  HZ EP       1329 12.84                             132   -0.44 9  145 257 
 PTB  HN ES       1329 33.55                             132   -0.33 9  145 257 
 PTB  HZ I        1329 39.38        39.6 0.24            132            145 257 
 OCA  HZ EP       1329 14.36                             130   -0.03 9  155 354 
 OCA  HN ES       1329 36.04                             130    0.18 9  155 354 
 OCA  HZ I        1329 40.88        63.5 0.16            132            155 354 
 TAM  HZ EP       1329 14.59                             129   -0.12 9  160 106 
 TAM  HN ES       1329 36.17                             129   -0.25 9  160 106 
 SPBC HZ EP       1329 15.25                             128    0.03 9  165 217 
 SPBC HE ES       1329 37.01                             128   -0.31 9  165 217 
 SPBC HZ I        1329 39.84        27.1 0.18            130            165 217 
 ZAR  HZ EP       1329 19.26                             122    0.74 9  199 291 
 ZAR  HE ES       1329 43.63                             122    0.43 9  199 291 
 ZAR  HZ I        1329 49.54        33.0 0.30            123            199 291 
 SML  HZ EP       1329 22.22                             117   -0.42 8  238 336 
 SML  HN ES       1329 49.47                             117   -1.06 8  238 336 
 SML  HZ I        1329 56.34        40.1 0.26            119            238 336 
 CHI  HZ EP       1329 24.66                             116   -0.11 8  252 194 
 CHI  HN ES       1329 54.03                             116   -0.29 8  252 194 
 CHI  HZ I        1329 59.04        12.0 0.48            119            252 194 
 URE  HZ EP   4   1329 27.24                             113    0.07 0  279 291 
 URE  HN ES   4   1329 57.49                             113   -1.10 0  279 291 
 URE  HZ I        1330  6.33        18.5 0.20            115            279 291 
 GUY2CHZ EP       1329 30.36                             112    0.08 7  301 234 
 GUY2CHN ES       1330  4.37                             112    0.24 7  301 234 
 GUY2CHZ I        1330 15.39        11.4 0.48                           301 234 
 CBOC HZ EP       1329 34.28                             109    0.88 7  332 251 
 CBOC HN ES       1330  9.11                             109   -0.57 7  332 251 
 CBOC HZ I        1330 19.82         4.6 0.44            111            332 251 
 ORTC HZ EP       1329 41.23                             106    0.36 6  397 215 
 ORTC HE ES       1330 23.95                             106    0.98 6  397 215 
 ORTC HZ I        1330 30.09         9.3 0.28            108            397 215 
 SJC  HZ EP   4   1329 40.02                             105   -1.58 0  403 327 
 SJC  HN ES   4   1330 21.44                             105   -2.84 0  403 327 
 SJC  HZ I        1330 25.64         7.7 0.62            107            403 327 
                                                                                
