 2013  9 5 1335 15.4 L   6.904 -73.605  0.0  RSN  4 0.5 1.2LRSN                1
 GAP=228        1.18       3.6    10.4 10.9 -0.7638E+01  0.5617E+02 -0.4081E+01E
 Epicentro: SAN VICENTE DE CHUCURI - SANTANDER                                 3
 ACTION:UPD 13-10-22 09:20 OP:ep   STATUS:               ID:20130905133515 L   I
 OLDACT:REG 13-09-05 14:46 OP:jn   STATUS:               ID:20130905132959     3
 2013-09-05-1329-59M.COL___269                                                 6
 STAT SP IPHASW D HRMM SECON CODA AMPLIT PERI AZIMU VELO AIN AR TRES W  DIS CAZ7
 BRR  HZ EP       1335 20.17                              47   -0.2210 25.4 332 
 BRR  HN ES       1335 24.95                              47    0.6610 25.4 332 
 BRR  HZ I        1335 25.61        12.9 0.11            107           25.4 332 
 PTB  HZ EP       1335 31.53                              47   -0.5410  102 247 
 PTB  HE ES   1   1335 45.61                              47    0.53 7  102 247 
 PTB  HZ I        1335 47.46        11.7 0.40             95            102 247 
 SPBC HN ES   1   1335 58.13                              47    0.67 7  148 200 
 ZAR  HZ EP   1   1335 39.11                              47   -0.61 7  153 295 
 ZAR  HN ES   1   1335 58.21                              47   -0.49 7  153 295 
 ZAR  HZ I        1335 59.32         5.6 0.26             56            153 295 
                                                                                
