 2010 10 5 1011 45.3 L   6.785 -73.088147.9  RSN  7 0.3 2.1LRSN                1
 GAP=165        0.72       3.1     6.4  6.3  0.1750E+01 -0.9019E+01 -0.2300E+01E
 Epicentro: LOS SANTOS - SANTANDER                                             3
 ACTION:UP  11-02-18 11:07 OP:tino STATUS:               ID:20101005101145 L   I
 2010-10-05-1009-09S.COL___122                                                 6
 STAT SP IPHASW D HRMM SECON CODA AMPLIT PERI AZIMU VELO SNR AR TRES W  DIS CAZ7
 BAR2 SZ EP       1012  5.30                             170     0.110   24 206 
 BAR2 SZ I        1012 21.22        33.2 0.45                            24 206 
 BRR  HZ EP       1012  6.86                             151    -0.210   78 297 
 BRR  HZ I        1012  7.18        58.7 0.15                            78 297 
 BRR  HN ES       1012 23.99                             151     0.010   78 297 
 RUS  HZ EP       1012  9.14                             145     0.010   99 180 
 RUS  HN ES       1012 27.71                             145     0.010   99 180 
 RUS  HZ I        1012 28.93         6.2 0.50                            99 180 
 GRA  SZ EP       1012 10.95                             137     0.210  126  14 
 GRA  SZ I        1012 31.62         7.7 0.47                           126  14 
 OCA  SZ EP       1012 13.59                             130    -0.4 9  163 351 
 OCA  SZ ES   1   1012 36.91                             130     0.5 7  163 351 
 OCA  SZ I        1012 40.65        10.3 0.19                           163 351 
 HEL  HN ES   2   1012 58.58                             115     0.3 4  278 256 
 HEL  HZ I        1013  4.01         5.2 0.77                           278 256 
 PRA  HZ EP       1012 39.55                             107     0.4 6  394 210 
 PRA  HN ES   2   1013 20.68                             107    -0.4 3  394 210 
 PRA  HZ I        1013 24.18         7.1 0.30                           394 210 
                                                                                
