 2011  6 5 1354 17.7 L   6.795 -73.091142.9  RSN 11 0.4 1.9LRSN                1
 GAP=144        0.98       4.2     5.8  8.0 -0.1141E+02  0.1136E+02  0.3206E+01E
 Epicentro: LOS SANTOS - SANTANDER                                             3
 ACTION:UP  11-07-14 19:03 OP:ep   STATUS:               ID:20110605135417 L   I
 2011-06-05-1352-19S.COL___132                                                 6
 STAT SP IPHASW D HRMM SECON CODA AMPLIT PERI AZIMU VELO SNR AR TRES W  DIS CAZ7
 BTL  SZ EP       1354 37.98                             170     1.010   24 305 
 BAR2 SZ EP       1354 36.95                             170    -0.110   25 204 
 BAR2 SZ I        1354 37.32        25.7 0.12                            25 204 
 PAM  SZ EP       1354 39.64                             151     0.210   74  36 
 PAM  SZ I        1354 40.15         6.9 0.26                            74  36 
 PAM  SN ES   1   1354 56.47                             151     0.1 7   74  36 
 BRR  HZ EP       1354 38.76                             150    -0.110   77 297 
 BRR  HZ I        1354 38.93        43.2 0.18                            77 297 
 BRR  HN ES   1   1354 55.48                             150     0.1 7   77 297 
 RUS  HZ EP       1354 40.92                             143    -0.210  100 179 
 RUS  HN ES   1   1354 59.38                             143     0.0 7  100 179 
 RUS  HZ I        1355  0.56        10.9 0.23                           100 179 
 BRI  SZ EP       1354 41.14                             141    -0.110  107  18 
 BRI  SZ ES   1   1354 59.21                             141    -0.3 7  107  18 
 BRI  SZ I        1355  1.91         8.7 0.29                           107  18 
 GRA  SZ EP       1354 42.66                             137     0.110  125  15 
 GRA  SZ ES   1   1355  1.40                             137    -0.6 7  125  15 
 GRA  SZ I        1355  5.22         9.8 0.32                           125  15 
 OCA  SZ EP   1   1354 45.59                             129    -0.3 7  162 351 
 NOR  SZ EP       1354 53.44                             117    -0.3 8  239 235 
 NOR  SN ES   1   1355 21.60                             117    -0.3 6  239 235 
 NOR  SZ I        1355 26.06         1.6 0.18                           239 235 
 CHI  HN ES   1   1355 24.42                             116    -0.3 6  250 197 
 HEL  HZ EP   1   1354 58.90                             114     0.5 6  278 256 
 HEL  HN ES   1   1355 30.22                             114     0.1 6  278 256 
 HEL  HZ I        1355 35.54         7.6 0.47                           278 256 
                                                                                
