 2010  9 5 1437 46.7 L   6.787 -73.076147.6  RSN  6 0.2 1.6LRSN                1
 GAP=167        0.40       2.6     5.9  4.1  0.2957E+01 -0.6533E+01 -0.1417E+01E
 Epicentro: LOS SANTOS - SANTANDER                                             3
 ACTION:UP  11-02-18 11:00 OP:tino STATUS:               ID:20100905143746 L   I
 2010-09-05-1434-20S.COL___120                                                 6
 STAT SP IPHASW D HRMM SECON CODA AMPLIT PERI AZIMU VELO SNR AR TRES W  DIS CAZ7
 BAR2 SZ EP       1438  6.55                             170     0.010   25 209 
 BAR2 SZ ES   1   1438 21.88                             170    -0.2 7   25 209 
 BAR2 SZ I        1438 23.30        13.8 0.20                            25 209 
 BRR  HZ EP   1   1438  8.36                             150    -0.1 7   79 297 
 BRR  HE ES   1   1438 25.56                             150     0.1 7   79 297 
 BRR  HZ I        1438 29.38        12.0 0.33                            79 297 
 RUS  HZ EP   1   1438 10.47                             145     0.0 7   99 180 
 RUS  HE ES   2   1438 29.36                             145     0.3 5   99 180 
 RUS  HZ I        1438 30.82         3.5 0.20                            99 180 
 GRA  SZ EP   2   1438 12.37                             138     0.3 5  125  14 
 GRA  SZ I        1438 33.88         3.0 0.30                           125  14 
 OCA  SZ EP   1   1438 15.31                             130    -0.1 7  163 351 
 OCA  SZ ES   2   1438 37.82                             130     0.1 5  163 351 
 OCA  SZ I        1438 41.75         4.7 0.38                           163 351 
 PRA  HZ EP   2   1438 40.15                             107    -0.4 3  395 211 
 PRA  HE ES   2   1439 23.03                             107     0.4 3  395 211 
 PRA  HZ I        1439 28.29         1.8 0.32                           395 211 
                                                                                
