 2010  9 5 1245 10.5 L   6.808 -73.072141.5  RSN  4 0.5 1.3LRSN                1
 GAP=167        0.73       6.2    12.6 14.4  0.5807E+01 -0.9890E+02 -0.5461E+01E
 Epicentro: LOS SANTOS - SANTANDER                                             3
 ACTION:UP  11-02-18 11:00 OP:tino STATUS:               ID:20100905124510 L   I
 2010-09-05-1240-13S.COL___120                                                 6
 STAT SP IPHASW D HRMM SECON CODA AMPLIT PERI AZIMU VELO SNR AR TRES W  DIS CAZ7
 BAR2 SZ EP   2   1245 29.02                             169    -0.7 5   27 207 
 BAR2 SZ ES   2   1245 44.95                             169     0.3 5   27 207 
 BRR  HN ES   1   1245 48.09                             149     0.0 7   78 295 
 RUS  HZ EP   2   1245 34.76                             143     0.9 5  101 181 
 RUS  HN ES   2   1245 51.72                             143    -0.4 5  101 181 
 RUS  HZ I        1245 53.88         2.7 0.24                           101 181 
 GRA  SZ EP   2   1245 34.87                             137    -0.2 5  123  14 
 GRA  SZ ES   2   1245 54.48                             137     0.2 5  123  14 
 GRA  SZ I        1245 55.75         4.5 0.21                           123  14 
                                                                                
