 2011  7 5 1406 35.6 L   6.803 -73.090142.4  RSN  4 0.1 1.6LRSN                1
 GAP=165        0.37       2.2     4.4  4.1 -0.7352E-01 -0.3218E+01 -0.1299E+01E
 Epicentro: LOS SANTOS - SANTANDER                                             3
 ACTION:UPD 12-07-25 13:58 OP:epov STATUS:               ID:20110705140635 L   I
 2011-07-05-1401-36S.COL___140                                                 6
 STAT SP IPHASW D HRMM SECON CODA AMPLIT PERI AZIMU VELO AIN AR TRES W  DIS CAZ7
 BAR2 SZ EP   1   14 6 55.02                             169    0.13 7 25.4 204 
 BAR2 SZ I        14 6 55.34         7.1 0.21                          25.4 204 
 BAR2 SZ ES   1   14 7 10.15                             169    0.23 7 25.4 204 
 BRR  HZ EP       14 6 56.81                             150    0.0910 76.5 296 
 BRR  HZ I        14 6 58.54        11.7 0.11                          76.5 296 
 BRR  HE ES   1   14 7 13.01                             150   -0.17 7 76.5 296 
 RUS  HZ EP   1   14 6 58.96                             143   -0.08 7  101 180 
 RUS  HN ES   1   14 7 17.14                             143   -0.17 7  101 180 
 RUS  HZ I        14 7 18.89         4.2 0.30                           101 180 
 GRA  SZ EP   1   14 7  0.35                             137   -0.04 7  124  15 
 GRA  SZ ES   1   14 7 19.64                             137   -0.08 7  124  15 
 GRA  SZ I        14 7 24.81         5.1 0.32                           124  15 
                                                                                
