 2015  9 5 1730 30.6 L   6.794 -73.157149.4  RSN  7 0.4 1.8LRSN                1
 GAP=135        0.99       3.8     4.5  7.5 -0.1134E+01  0.1072E+02 -0.2968E+01E
 Epicentro: LOS SANTOS - SANTANDER                                             3
 ACTION:UPD 15-10-28 16:24 OP:cam  STATUS:               ID:20150905173030 L   I
 OLDACT:UP  15-09-06 01:08 OP:mh   STATUS:               ID:20150905172750     3
 OLDACT:REG 15-09-05 20:56 OP:mh   STATUS:               ID:20150905172750     3
 2015-09-05-1727-50M.COL___355                                                 6
 STAT SP IPHASW D HRMM SECON CODA AMPLIT PERI AZIMU VELO AIN AR TRES W  DIS CAZ7
 BAR2 EZ EP       1730 50.85                             171    0.1910 22.5 187 
 BAR2 EZ ES       1731  6.83                             171    0.5310 22.5 187 
 BAR2 EZ I        1731  8.59        13.1 0.35            171           22.5 187 
 PAM  EZ EP       1730 53.51                             151    0.2310 78.6  40 
 PAM  EN ES       1731 10.82                             151   -0.1510 78.6  40 
 PAM  EZ I        1731 12.85         6.7 0.64            155           78.6  40 
 RUS  HZ EP       1730 54.45                             145   -0.2310  100 175 
 RUS  HN ES       1731 12.86                             145   -0.6010  100 175 
 RUS  HZ I        1731 14.13         6.8 0.30            148            100 175 
 PTB  HZ EP       1730 57.58                             133   -0.18 9  146 259 
 PTB  HN ES       1731 18.31                             133   -0.63 9  146 259 
 PTB  HZ I        1731 25.71         6.8 0.28            134            146 259 
 SPBC HZ EP       1730 59.53                             130    0.26 9  162 219 
 SPBC HN ES       1731 22.15                             130    0.52 9  162 219 
 SPBC HZ I        1731 24.16         9.3 0.18            132            162 219 
 ZAR  HN ES       1731 28.99                             123    0.37 9  203 292 
 SML  HN ES       1731 35.89                             118   -0.29 8  244 336 
 SML  HZ I        1731 39.20        10.0 0.10            120            244 336 
                                                                                
