 2017 11 5 1934  1.4 L   6.781 -73.187147.5  RSN  4 0.2 0.9LRSN                1
 GAP=142        0.67       4.2     4.0  5.8 -0.5140E+01  0.6479E+01 -0.2517E+01E
 Epicentro: LOS SANTOS - SANTANDER                                             3
 ACTION:UPD 17-12-12 19:52 OP:rebc STATUS:               ID:20171105193401 L   I
 OLDACT:DUP 17-11-06 00:26 OP:edw  STATUS:               ID:20171105192741d    3
 OLDACT:UP  17-11-06 00:25 OP:edw  STATUS:               ID:20171105192740d    3
 OLDACT:UP  17-11-06 00:25 OP:edw  STATUS:               ID:20171105192740d    3
 OLDACT:UP  17-11-06 00:24 OP:edw  STATUS:               ID:20171105192740d    3
 OLDACT:DUP 17-11-06 00:16 OP:edw  STATUS:               ID:20171105192740d    3
 2017-11-05-1928-00M.COL___441                                                 6
 STAT SP IPHASW D HRMM SECON CODA AMPLIT PERI AZIMU VELO AIN AR TRES W  DIS CAZ7
 BAR2 EZ ES       1934 36.22                             172   -0.4110 20.9 178 
 PAM  EZ EP       1934 24.10                             150    0.0310 81.9  41 
 PAM  EN ES       1934 41.94                             150    0.1810 81.9  41 
 PAM  EZ I        1934 43.85         1.8 0.32            152           81.9  41 
 RUS  HZ EP       1934 25.25                             145    0.0510 98.9 173 
 RUS  HN ES       1934 43.95                             145    0.1810 98.9 173 
 RUS  HZ I        1934 45.00         1.2 0.30            147           98.9 173 
 PTB  HZ EP       1934 27.74                             133   -0.33 9  143 259 
 PTB  HN ES       1934 49.18                             133    0.31 9  143 259 
 PTB  HZ I        1934 52.88         1.0 0.24            134            143 259 
                                                                                
