 2016 11 5 1757 35.3 L   6.351 -73.718 73.8  RSN  4 0.4 1.3LRSN                1
 GAP=219        0.96       6.8     3.7 10.2  0.1554E+01  0.1542E+02  0.3337E+01E
 Epicentro: SANTA HELENA DEL OPON - SANTANDER                                  3
 *YOT-PAL                                                                      3
 ACTION:UPD 17-10-26 21:05 OP:lp   STATUS:               ID:20161105175735 L   I
 OLDACT:DUP 16-11-06 00:58 OP:cog  STATUS:               ID:20161105174745d    3
 2016-11-05-1748-00M.COL___343                                                 6
 STAT SP IPHASW D HRMM SECON CODA AMPLIT PERI AZIMU VELO AIN AR TRES W  DIS CAZ7
 BAR2 EZ EP       1757 48.47                             135   -0.6510 65.0  66 
 BAR2 EZ ES       1758  0.41                             135    0.4910 65.0  66 
 BAR2 EZ I        1758  1.94        11.0 0.26            142           65.0  66 
 BRR  HZ EP       1757 50.37                             126   -0.1810 83.6   0 
 BRR  HE ES       1758  2.37                             126   -0.0810 83.6   0 
 BRR  HZ I        1758 11.06        10.5 0.46            130           83.6   0 
 PTB  HZ EP       1757 50.83                             126    0.2010 84.2 284 
 PTB  HN ES       1758  2.46                             126   -0.1510 84.2 284 
 PTB  HZ I        1758  7.69         3.9 0.20            132           84.2 284 
 ZAR  HZ EP       1758  1.74                             106    0.59 9  178 315 
 ZAR  HN ES       1758 21.23                             106   -0.11 9  178 315 
 ZAR  HZ I        1758 25.42         3.4 0.12            112            178 315 
                                                                                
