 2010  8 5 1124 24.8 L   6.797 -73.019147.5  RSN 11 0.5 1.9LRSN                1
 GAP=173        1.07       4.4     8.6  8.3 -0.1060E+02 -0.5376E+01  0.1189E+01E
 Epicentro: CEPITA - SANTANDER                                                 3
 ACTION:UP  10-09-07 10:52 OP:vdl  STATUS:               ID:20100805112424 L   I
 2010-08-05-1119-26S.COL___125                                                 6
 STAT SP IPHASW D HRMM SECON CODA AMPLIT PERI AZIMU VELO SNR AR TRES W  DIS CAZ7
 BAR2 SZ EP       1124 44.73                             168    -0.110   29 219 
 BAR2 SZ ES   1   1124 59.93                             168    -0.4 7   29 219 
 BAR2 SZ I        1125  2.07        16.9 0.62                            29 219 
 BTL  SZ IP       1124 44.86                             168     0.010   31 296 
 GIR2 SZ EP   3   1124 44.75                             165    -0.1 2   37 328 
 BRR  HZ EP       1124 46.55                             149    -0.410   84 294 
 BRR  HN ES       1125  4.27                             149     0.110   84 294 
 BRR  HZ I        1125  5.16        16.7 0.73                            84 294 
 RUS  HZ EP   1   1124 49.17                             144     0.4 7  100 184 
 RUS  HN ES       1125  7.56                             144     0.210  100 184 
 RUS  HZ I        1125 10.13         8.8 0.38                           100 184 
 GUE  SZ EP   1   1124 48.65                             140    -0.9 7  115   5 
 GUE  SZ I        1124 49.34         4.1 0.17                           115   5 
 GRA  SZ EP       1124 50.49                             138     0.510  123  11 
 GRA  SZ ES   1   1125  9.80                             138     0.2 7  123  11 
 GRA  SZ I        1125 11.25        10.0 0.08                           123  11 
 OCA  SZ ES   3   1125 16.97                             129     1.1 2  163 348 
 OCA  SZ I        1125 21.35        14.3 0.83                           163 348 
 CHI  HN ES   1   1125 32.52                             117    -0.3 6  252 198 
 CHI  HZ I        1125 40.52         5.3 1.13                           252 198 
 RREF HZ EP   3   1125 12.16                             110    -0.1 2  332 231 
 RREF HN ES   1   1125 50.31                             110     1.1 5  332 231 
 RREF HZ I        1125 55.81         5.1 0.26                           332 231 
 PRA  HZ EP   1   1125 19.13                             106    -0.1 4  399 211 
 PRA  HN ES   2   1126  0.19                             106    -1.4 3  399 211 
 PRA  HZ I        1126  5.26         4.4 0.06                           399 211 
                                                                                
