 2017 11 5 1810 49.9 L   6.782 -73.146146.4  RSN  8 0.4 1.4LRSN                1
 GAP=137        0.79       3.7     3.9  6.5 -0.1043E+01  0.4147E+01  0.6683E+00E
 Epicentro: LOS SANTOS - SANTANDER                                             3
 ACTION:UPD 17-12-12 19:52 OP:rebc STATUS:               ID:20171105181049 L   I
 OLDACT:UP  17-11-06 00:16 OP:mg   STATUS:               ID:20171105180746     3
 OLDACT:UP  17-11-06 00:16 OP:mg   STATUS:               ID:20171105180746     3
 OLDACT:REG 17-11-05 20:56 OP:mg   STATUS:               ID:20171105180746     3
 2017-11-05-1808-00M.COL___440                                                 6
 STAT SP IPHASW D HRMM SECON CODA AMPLIT PERI AZIMU VELO AIN AR TRES W  DIS CAZ7
 BAR2 EZ EP       1811  9.46                             171   -0.0910 21.4 191 
 BAR2 EZ ES   2   1811 24.46                             171   -0.43 5 21.4 191 
 BAR2 EZ I        1811 26.77         9.0 0.11            169           21.4 191 
 BRR  HZ EP       1811 11.23                             152    0.0810 72.1 300 
 BRR  HE ES       1811 28.46                             152    0.7210 72.1 300 
 BRR  HZ I        1811 33.53         8.2 0.34            150           72.1 300 
 PAM  EZ EP       1811 12.27                             151    0.0210 78.9  39 
 PAM  EE ES       1811 29.17                             151   -0.5310 78.9  39 
 PAM  EZ I        1811 31.58         4.9 0.50            156           78.9  39 
 RUS  HZ EP       1811 13.61                             145    0.0610 98.6 176 
 RUS  HN ES       1811 32.25                             145    0.2310 98.6 176 
 RUS  HZ I        1811 33.07         3.0 0.22            147           98.6 176 
 PTB  HZ EP   2   1811 16.53                             132   -0.33 5  147 260 
 PTB  HN ES   1   1811 37.50                             132   -0.41 7  147 260 
 PTB  HZ I        1811 40.43         2.7 0.14            132            147 260 
 SPBC HE ES   1   1811 40.51                             129    0.07 7  162 219 
 SPBC HZ I        1811 46.34         3.4 0.21            131            162 219 
 ZAR  HZ EP   1   1811 22.67                             122    0.23 6  205 293 
 ZAR  HN ES   1   1811 47.55                             122   -0.29 6  205 293 
 ZAR  HZ I        1811 53.19         2.3 0.11            124            205 293 
 NOR  HN ES   2   1811 52.63                             119   -0.70 4  234 235 
 NOR  HZ I        1811 57.42         1.9 0.17            120            234 235 
                                                                                
