 2011 11 5 1519  3.0 L   6.552 -73.519110.8  RSN 16 0.4 2.7LRSN                1
 GAP= 54        0.62       2.7     3.1  4.5 -0.2035E+00  0.4694E+01  0.2151E+01E
 Epicentro: EL CARMEN DE CHUCURI - SANTANDER                                   3
 ACTION:UPD 12-07-13 16:08 OP:ep   STATUS:               ID:20111105151903 L   I
 2011-11-05-1517-30S.COL___175                                                 6
 STAT SP IPHASW D HRMM SECON CODA AMPLIT PERI AZIMU VELO AIN AR TRES W  DIS CAZ7
 BAR2 SZ IP       1519 19.17                             160    0.2810 37.5  83 
 BAR2 SZ ES   1   1519 31.17                             160   -0.15 7 37.5  83 
 BAR2 SZ I        1519 33.01       365.3 0.50                          37.5  83 
 BRR  HZ IP     D 1519 19.99                             147   -0.0510 65.0 341 
 BRR  HZ I        1519 27.39        74.6 0.10                          65.0 341 
 BRR  HE ES   1   1519 33.77                             147    0.41 7 65.0 341 
 RUS  HZ EP       1519 22.19                             139   -0.1910 87.4 147 
 RUS  HE ES   3   1519 37.71                             139    0.19 2 87.4 147 
 PAM  SZ EP       1519 25.46                             128   -0.2910  126  46 
 PAM  SN ES   2   1519 42.96                             128   -0.57 5  126  46 
 YOP  SZ IP       1519 31.33                             117    0.47 9  180 137 
 YOP  SZ I        1519 55.09        43.0 0.28                           180 137 
 ZAR  HZ EP       1519 30.89                             117    0.05 9  181 305 
 ZAR  HZ I        1519 55.52        64.2 0.44                           181 305 
 NOR  SZ EP   2   1519 30.83                             116   -0.54 4  185 234 
 NOR  SN ES   2   1519 52.69                             116   -0.84 4  185 234 
 OCA  SZ EP       1519 31.57                             116   -0.22 9  188   7 
 OCA  SZ I        1520  1.79        45.5 0.27                           188   7 
 HEL  HZ EP   1   1519 36.42                             111    0.09 6  226 260 
 HEL  HZ I        1520  7.87        31.1 0.40                           226 260 
 GUY  SZ EP       1519 39.99                             108    0.30 8  254 235 
 GUY  SZ I        1520 13.63        35.4 0.40                           254 235 
 VIL  SZ EP   2   1519 40.29                             107   -0.89 4  271 184 
 RREF HZ EP   2   1519 42.47                             107    0.41 4  273 228 
 RREF HZ I        1520 18.80        13.8 0.80                           273 228 
 TOL  SZ EP   3   1519 44.81                             105    0.48 2  295 223 
 ANIL HZ EP   3   1519 46.45                             104    0.54 2  309 223 
 ANIL HZ I        1520 28.70        26.5 0.36                           309 223 
 PRA  HZ EP   2   1519 49.93                             102   -0.37 3  349 206 
 COD  HZ EP       1519 53.53                             100    0.22 6  374   1 
 COD  HZ I        1520 48.77        21.9 0.68                           374   1 
                                                                                
