 2013  9 5 1159 51.7 L   6.577 -73.452118.0  RSN 14 0.5 2.4LRSN                1
 GAP= 60        1.24       3.5     3.5  6.5 -0.1975E+00  0.3418E+01  0.2911E+01E
 Epicentro: EL CARMEN DE CHUCURI - SANTANDER                                   3
 ACTION:UPD 13-10-22 09:20 OP:ep   STATUS:               ID:20130905115951 L   I
 OLDACT:REG 13-09-05 14:39 OP:jn   STATUS:               ID:20130905115959     3
 2013-09-05-1159-59M.COL___269                                                 6
 STAT SP IPHASW D HRMM SECON CODA AMPLIT PERI AZIMU VELO AIN AR TRES W  DIS CAZ7
 BAR2 SZ IP     C 12 0  8.35                             165    0.2010 29.9  87 
 BAR2 SZ ES       12 0 20.89                             165   -0.1210 29.9  87 
 BAR2 SZ I        12 0 23.51        58.4 0.24            166           29.9  87 
 BRR  HZ EP     C 12 0  9.83                             149    0.3310 65.2 334 
 BRR  HN ES       12 0 23.88                             149    0.4710 65.2 334 
 BRR  HZ I        12 0 24.92        58.8 0.12            144           65.2 334 
 RUS  HZ EP     D 12 0 11.59                             141   -0.0510 86.0 152 
 RUS  HE ES       12 0 27.30                             141    0.0710 86.0 152 
 RUS  HZ I        12 0 28.53        61.0 0.24            135           86.0 152 
 PTB  HZ EP       12 0 12.18                             133   -0.8710  111 268 
 PTB  HN ES       12 0 28.48                             133   -1.2510  111 268 
 PTB  HZ I        12 0 32.31        54.1 0.12            126            111 268 
 PAM  SZ EP       12 0 14.32                             132   -0.0310  118  45 
 PAM  SN ES       12 0 32.22                             132    0.1810  118  45 
 PAM  SZ I        12 0 35.37        41.4 0.24            129            118  45 
 SPBC HZ EP       12 0 14.33                             130    0.0810  123 214 
 SPBC HE ES   1   12 0 32.01                             130    0.15 7  123 214 
 SPBC HZ I        12 0 34.05        67.2 0.18            123            123 214 
 TAM  HZ EP       12 0 20.11                             118   -0.26 9  184  95 
 TAM  HN ES   1   12 0 41.75                             118   -1.01 7  184  95 
 TAM  HZ I        12 0 43.66        25.0 0.20            114            184  95 
 ZAR  HZ EP   1   12 0 20.15                             118   -0.28 7  185 303 
 ZAR  HE ES   1   12 0 43.73                             118    0.86 7  185 303 
 ZAR  HZ I        12 0 48.29        25.0 0.26            113            185 303 
 CHI  HZ EP       12 0 24.99                             114    0.50 8  218 188 
 CHI  HN ES       12 0 51.05                             114    0.97 8  218 188 
 CHI  HZ I        12 0 54.62        15.2 0.26            109            218 188 
 HEL  HZ EP   1   12 0 26.85                             112    0.62 6  234 260 
 HEL  HE ES   1   12 0 53.13                             112   -0.07 6  234 260 
 HEL  HZ I        12 0 59.87        19.0 0.22            108            234 260 
 SML  HZ EP   1   12 0 27.81                             110   -0.41 6  255 345 
 SML  HE ES   1   12 0 57.37                             110    0.65 6  255 345 
 URE  HE ES   4   12 0 56.96                             109   -1.59 0  264 300 
 URE  HZ I        12 0 59.97        21.7 0.38            106            264 300 
 RREF HZ EP   4   12 0 32.56                             108    0.68 0  280 229 
 RREF HZ I        12 1 14.68        13.5 0.30            105            280 229 
 PRA  HZ EP       12 0 39.75                             103   -0.12 6  354 207 
 PRA  HE ES   4   12 1 16.09                             103   -1.38 0  354 207 
 PRA  HZ I        12 1 25.47         8.7 0.38            101            354 207 
                                                                                
