 2013  7 5 1013 14.5 L   6.767 -73.155150.4  RSN  9 0.3 1.8LRSN                1
 GAP=182        0.78       3.6     4.0  5.1  0.2071E+01  0.3452E+01 -0.2715E+01E
 Epicentro: LOS SANTOS - SANTANDER                                             3
 ACTION:UPD 13-08-12 10:35 OP:ep   STATUS:               ID:20130705101314 L   I
 OLDACT:REG 13-07-05 16:02 OP:jn   STATUS:               ID:20130705100959     3
 2013-07-05-1009-59M.COL___267                                                 6
 STAT SP IPHASW D HRMM SECON CODA AMPLIT PERI AZIMU VELO AIN AR TRES W  DIS CAZ7
 BAR2 SZ EP       1013 34.49                             172   -0.1610 19.6 189 
 BAR2 SZ ES       1013 50.13                             172   -0.2210 19.6 189 
 BAR2 SZ I        1013 51.55        10.3 0.28            171           19.6 189 
 GIR2 SZ EP       1013 34.75                             166   -0.1010 34.7 353 
 BRR  HZ EP       1013 36.54                             153    0.3110 72.1 301 
 BRR  HN ES       1013 53.84                             153    0.6810 72.1 301 
 BRR  HZ I        1013 59.58         8.9 0.46            151           72.1 301 
 RUS  HZ EP       1013 38.70                             146    0.2110 97.0 175 
 RUS  HN ES       1013 57.07                             146   -0.1210 97.0 175 
 RUS  HZ I        1013 59.80         6.5 0.50            149           97.0 175 
 PTB  HZ EP       1013 41.56                             133   -0.17 9  146 260 
 PTB  HN ES       1014  2.52                             133   -0.43 9  146 260 
 PTB  HZ I        1014  4.68        10.7 0.38            134            146 260 
 ZAR  HE ES   1   1014 12.24                             123   -0.67 6  204 293 
 ZAR  HZ I        1014 19.51         9.3 0.34            124            204 293 
 NOR  HZ EP       1013 50.48                             120    0.26 8  232 235 
 NOR  HN ES   1   1014 18.06                             120    0.00 6  232 235 
 NOR  HZ I        1014 22.84         6.6 0.18            121            232 235 
 SML  HN EP       1013 51.59                             118   -0.14 8  247 336 
 SML  HE ES   1   1014 20.60                             118   -0.14 6  247 336 
 HEL  HE ES   1   1014 26.67                             116    0.50 6  270 256 
                                                                                
