 2012  8 5 1525 36.4 L   6.771 -73.157156.0  RSN  5 0.5 1.5LRSN                1
 GAP=136        0.97       7.2     6.8 10.6 -0.2825E+00 -0.4586E+01  0.5142E+00E
 Epicentro: LOS SANTOS - SANTANDER                                             3
 ACTION:UPD 12-09-10 11:54 OP:ep   STATUS:               ID:20120805152536 L   I
 2012-08-05-1520-00M.COL___216                                                 6
 STAT SP IPHASW D HRMM SECON CODA AMPLIT PERI AZIMU VELO AIN AR TRES W  DIS CAZ7
 BAR2 SZ EP       1525 57.10                             172   -0.0510 20.0 188 
 BAR2 SZ I        1526 13.95         6.2 0.28                          20.0 188 
 BRR  HZ EP       1525 59.08                             154    0.4410 71.7 301 
 BRR  HZ I        1525 59.20        11.2 0.38                          71.7 301 
 BRR  HN ES   1   1526 16.43                             154    0.40 7 71.7 301 
 PAM  SZ EP       1525 59.99                             152    0.1410 80.6  39 
 PAM  SN ES   2   1526 16.91                             152   -1.27 5 80.6  39 
 PAM  SZ I        1526 19.25         3.9 0.54                          80.6  39 
 RUS  HZ EP       1526  0.56                             147   -0.3510 97.5 175 
 RUS  HN ES   1   1526 20.64                             147    0.57 7 97.5 175 
 PTB  HZ EP       1526  3.87                             135   -0.15 9  146 260 
 PTB  HN ES   1   1526 25.04                             135   -0.55 7  146 260 
 PTB  HZ I        1526 27.06         2.7 0.16                           146 260 
                                                                                
