 2010  9 5 1544 59.0 L   6.789 -73.101143.5  RSN 19 0.6 3.7LRSN                1
 GAP=129        1.30       4.8     7.6  8.0 -0.1793E+02  0.6783E+01  0.6315E+01E
 Epicentro: LOS SANTOS - SANTANDER                                             3
 ACTION:UP  11-02-18 11:00 OP:tino STATUS:               ID:20100905154459 L   I
 2010-09-05-1542-15S.COL___120                                                 6
 STAT SP IPHASW D HRMM SECON CODA AMPLIT PERI AZIMU VELO SNR AR TRES W  DIS CAZ7
 BAR2 SZ IP       1545 18.28                             170    -0.110   24 203 
 BAR2 SZ ES   1   1545 32.98                             170    -0.5 7   24 203 
 BAR2 SZ I        1545 33.96      1222.0 0.27                            24 203 
 BRR  HZ IP     C 1545 20.15                             150     0.010   76 298 
 BRR  HN ES   1   1545 36.80                             150     0.1 7   76 298 
 BRR  HZ I        1545 41.45      1294.4 0.20                            76 298 
 RUS  HZ IP     D 1545 22.20                             144    -0.210   99 179 
 RUS  HE ES   2   1545 40.53                             144    -0.1 5   99 179 
 RUS  HZ I        1545 42.45       605.2 0.38                            99 179 
 GUE  SZ EP       1545 23.20                             139    -0.310  117  10 
 GUE  SZ I        1545 24.18       334.6 0.12                           117  10 
 GRA  SZ IP       1545 25.14                             136     1.110  126  15 
 GRA  SZ ES   1   1545 44.36                             136     0.8 7  126  15 
 GRA  SZ I        1545 46.58       774.3 0.28                           126  15 
 OCA  SZ IP       1545 26.76                             129    -0.5 9  162 351 
 OCA  SZ ES   2   1545 48.17                             129    -1.2 5  162 351 
 OCA  SZ I        1545 51.93       695.1 0.28                           162 351 
 CHI  HZ EP       1545 36.67                             117     0.1 8  249 196 
 CHI  HN ES   1   1546  5.60                             117    -0.3 6  249 196 
 CHI  HZ I        1546  9.42       208.5 0.29                           249 196 
 ROSC BZ EP       1545 38.15                             116     1.0 8  254 212 
 ROSC BE ES   2   1546  6.05                             116    -0.9 4  254 212 
 ROSC BZ I        1546 13.03       255.7 0.40                           254 212 
 HEL  HZ EP   1   1545 38.97                             114    -0.6 6  277 256 
 HEL  HN ES   2   1546 10.87                             114    -0.4 4  277 256 
 HEL  HZ I        1546 16.94       208.7 0.53                           277 256 
 GUY  SZ EP   1   1545 42.93                             111     0.0 5  305 236 
 GUY  SN ES   2   1546 17.02                             111    -0.1 4  305 236 
 GUY  SZ I        1546 22.35       565.4 0.40                           305 236 
 RREF HZ EP       1545 45.03                             110    -0.3 7  325 230 
 RREF HN ES   1   1546 23.15                             110     1.6 5  325 230 
 RREF HZ I        1546 26.35       235.0 0.34                           325 230 
 DBB  SZ IP       1545 46.77                             109    -0.2 7  345 274 
 SDV  BZ IP     C 1545 48.02                             108    -0.6 6  357  50 
 SDV  BZ I        1545 49.00       176.2 0.37                           357  50 
 ANIL HZ EP   1   1545 49.58                             108     0.6 5  360 225 
 ANIL HE ES   1   1546 28.21                             108     0.2 5  360 225 
 ANIL HZ I        1546 33.29       405.1 0.44                           360 225 
 PRA  HZ EP   1   1545 51.88                             106    -0.7 4  393 210 
 PRA  HN ES   1   1546 34.22                             106    -0.2 4  393 210 
 PRA  HZ I        1546 39.58       211.8 0.58                           393 210 
 HORQ SZ EP       1546  9.44                             101    -0.3 4  535 227 
 HORQ SZ I        1546 12.44        31.5 0.28                           535 227 
 MARA HZ EP   1   1546  9.72                             101    -0.5 3  539 216 
 MARA HZ I        1546 12.22        34.8 0.17                           539 216 
 FLO2 HZ EP   2   1546 21.43                              98    -0.8 1  642 206 
 FLO2 HZ I        1547 32.25        22.1 0.71                           642 206 
 SOTA HZ EP   1   1546 23.65                              98     0.4 2  645 217 
 SOTA HZ I        1546 28.64        32.2 0.72                           645 217 
                                                                                
