 2015 11 5 1727 48.3 L   6.812 -73.127141.7  RSN 10 0.4 1.8LRSN                1
 GAP=138        0.70       3.3     4.9  5.1 -0.2701E+01  0.9704E+01  0.9079E-01E
 Epicentro: LOS SANTOS - SANTANDER                                             3
 ACTION:UPD 15-12-28 16:09 OP:cam  STATUS:               ID:20151105172748 L   I
 OLDACT:REG 15-11-05 20:42 OP:ar   STATUS:               ID:20151105171739     3
 2015-11-05-1717-39M.COL___301                                                 6
 STAT SP IPHASW D HRMM SECON CODA AMPLIT PERI AZIMU VELO AIN AR TRES W  DIS CAZ7
 BAR2 EZ EP     C 1728  7.36                             169   -0.0910 25.1 194 
 BAR2 EZ ES       1728 21.98                             169   -0.4310 25.1 194 
 BAR2 EZ I        1728 23.43        26.3 0.18            165           25.1 194 
 BRR  HZ EP   2   1728  9.34                             151    0.29 5 72.4 297 
 BRR  HN ES   2   1728 26.02                             151    0.76 5 72.4 297 
 BRR  HZ I        1728 30.91        16.4 0.24            147           72.4 297 
 PAM  EZ EP       1728 10.32                             151    0.4110 75.0  39 
 PAM  EN ES       1728 26.93                             151    0.1410 75.0  39 
 PAM  EZ I        1728 28.60        10.0 0.40            157           75.0  39 
 RUS  HZ EP       1728 11.46                             142   -0.2510  102 177 
 RUS  HN ES   2   1728 29.89                             142   -0.11 5  102 177 
 RUS  HZ I        1728 33.32         3.7 0.30            144            102 177 
 ZAR  HN ES   2   1728 45.95                             121    0.13 4  205 292 
 ZAR  HZ I        1728 51.84         7.7 0.26            121            205 292 
 NOR  HZ EP       1728 24.09                             117    0.06 8  237 234 
 NOR  HN ES   2   1728 51.96                             117    0.03 4  237 234 
 NOR  HZ I        1728 58.89         5.4 0.38            117            237 234 
 SML  HZ EP       1728 24.32                             116   -0.31 8  243 335 
 SML  HE ES   2   1728 52.16                             116   -0.83 4  243 335 
 SML  HZ I        1729  1.52        10.6 0.24            118            243 335 
 CHI  HZ EP   2   1728 26.37                             116    0.42 4  251 196 
 CHI  HN ES   2   1728 56.44                             116    1.10 4  251 196 
 CHI  HZ I        1729  2.44         3.1 0.56            117            251 196 
 GUY2CHZ EP   4   1728 33.88                             111    1.91 0  304 235 
 GUY2CHE ES   4   1729  8.64                             111    2.58 0  304 235 
 GUY2CHZ I        1729 14.76         3.2 0.44                           304 235 
 MON  HZ EP   9   1728 35.25                             108   -1.95 0  354 308 
 MON  HN ES   2   1729 13.59                                    0.17 3  354 308 
 MON  HZ I        1729 14.38         2.1 0.44            109            354 308 
                                                                                
