 2016 11 5 1504 58.7 L   6.046 -73.949  9.1  RSN  6 0.6 1.6LRSN                1
 GAP=154        1.57       3.4     4.5  7.8 -0.5658E+01 -0.4442E+01 -0.4603E+01E
 Epicentro: EL PENON - SANTANDER                                               3
 ACTION:UPD 17-10-26 21:04 OP:lp   STATUS:               ID:20161105150458 L   I
 OLDACT:UP  16-11-05 22:47 OP:cog  STATUS:               ID:20161105145750d    3
 OLDACT:DUP 16-11-05 22:41 OP:cog  STATUS:               ID:20161105145750d    3
 2016-11-05-1458-00M.COL___343                                                 6
 STAT SP IPHASW D HRMM SECON CODA AMPLIT PERI AZIMU VELO AIN AR TRES W  DIS CAZ7
 SPBC HZ EP       15 5  5.76                              97   -0.5410 45.6 197 
 SPBC HE ES       15 5 12.23                              97   -0.0310 45.6 197 
 SPBC HZ I        15 5 14.79        19.8 0.17             47           45.6 197 
 PTB  HZ EP       15 5 10.19                              94   -0.9710 78.3 314 
 PTB  HE ES       15 5 21.77                              94    0.8610 78.3 314 
 PTB  HZ I        15 5 22.73        18.2 0.20             47           78.3 314 
 NOR  HZ EP       15 5 17.11                              93    0.3610  115 242 
 NOR  HN ES       15 5 31.61                              93    0.7510  115 242 
 NOR  HZ I        15 5 31.86        15.8 0.24             47            115 242 
 BRR  HZ EP       15 5 17.16                              93   -0.3310  120  13 
 BRR  HE ES       15 5 31.85                              93   -0.3310  120  13 
 BRR  HZ I        15 5 35.35        16.9 0.12             47            120  13 
 HEL  HZ EP       15 5 25.68                              56   -0.19 9  176 275 
 HEL  HE ES       15 5 46.28                              56   -0.82 9  176 275 
 HEL  HZ I        15 5 47.05        10.2 0.28             47            176 275 
 PAM  EZ EP       15 5 29.78                              56    0.86 9  199  44 
 PAM  EN ES       15 5 53.07                              56    0.54 9  199  44 
 PAM  EZ I        15 5 56.89         8.1 0.20             37            199  44 
                                                                                
