 2012  4 5 1814  3.7 L   6.777 -73.111142.3  RSN 14 0.5 2.8LRSN                1
 GAP=118        1.14       4.6     6.0  7.0 -0.1114E+01  0.1280E+02  0.4944E+01E
 Epicentro: LOS SANTOS - SANTANDER                                             3
 ACTION:UPD 12-07-05 11:50 OP:tino STATUS:               ID:20120405181403 L   I
 2012-04-05-1810-00M.COL___196                                                 6
 STAT SP IPHASW D HRMM SECON CODA AMPLIT PERI AZIMU VELO AIN AR TRES W  DIS CAZ7
 BAR2 SZ IP       1814 22.85                             171     0.010   22 201 
 BAR2 SZ ES   1   1814 37.92                             171     0.1 7   22 201 
 BAR2 SZ I        1814 39.08       153.4 0.38                            22 201 
 BRR  HZ IP     C 1814 24.72                             150     0.010   76 299 
 BRR  HZ I        1814 24.92       323.7 0.18                            76 299 
 BRR  HN ES   1   1814 42.00                             150     0.8 7   76 299 
 PAM  SZ IP       1814 25.62                             151     0.110   77  36 
 PAM  SN ES   1   1814 42.72                             151     0.2 7   77  36 
 RUS  HZ EP       1814 26.88                             144     0.010   98 178 
 RUS  HN ES   1   1814 44.96                             144    -0.1 7   98 178 
 RUS  HZ I        1814 46.50        63.9 0.38                            98 178 
 PTB  HN ES   2   1814 50.99                             130    -0.8 5  151 260 
 PTB  HZ I        1814 58.18        87.2 0.44                           151 260 
 OCA  SZ EP       1814 31.23                             128    -0.8 9  163 352 
 OCA  SZ ES   2   1814 53.26                             128    -0.9 5  163 352 
 YOP  SZ EP       1814 33.30                             126     0.2 9  175 154 
 ZAR  HZ EP       1814 36.14                             121    -0.3 8  209 292 
 NOR  SZ EP   3   1814 39.07                             118    -0.3 2  236 236 
 NOR  SN ES   1   1815  6.31                             118    -1.0 6  236 236 
 CHI  HZ EP       1814 40.69                             117    -0.4 8  247 196 
 CHI  HZ I        1814 42.67        16.2 0.14                           247 196 
 CHI  HN ES   2   1815  9.49                             117    -0.7 4  247 196 
 HEL  HZ EP       1814 44.91                             114     0.8 8  275 257 
 HEL  HZ I        1815 21.13        42.1 0.32                           275 257 
 GUY  SZ EP       1814 48.43                             111     0.8 7  305 236 
 DBB  SZ EP       1814 52.17                             109     0.7 7  343 275 
 ANIL HZ EP       1814 53.56                             108     0.1 6  358 225 
 ANIL HZ I        1815 38.41        55.8 0.40                           358 225 
                                                                                
