 2012  2 5 1727 41.4 L   6.718 -73.110146.1  RSN  6 0.1 1.4LRSN                1
 GAP=186        0.35       2.7     4.3  3.8  0.3204E+01 -0.2763E+01 -0.3089E+01E
 ACTION:UP  12-03-07 16:27 OP:epov STATUS:               ID:20120205172741 L   I
 2012-02-05-1720-00M.COL___188                                                 6
 STAT SP IPHASW D HRMM SECON CODA AMPLIT PERI AZIMU VELO SNR AR TRES W  DIS CAZ7
 BAR2 SZ EP       1728  0.93                             173   -0.0510 16.0 210 
 BAR2 SZ I        1728  1.47         5.1 0.19                          16.0 210 
 BAR2 SZ ES   1   1728 16.24                             173    0.02 7 16.0 210 
 GIR2 SZ EP   1   1728  1.46                             164    0.02 7 40.9 347 
 BRR  HZ EP   1   1728  3.41                             150    0.33 7 79.2 303 
 BRR  HZ I        1728  7.32         8.3 0.43                          79.2 303 
 BRR  HN ES   1   1728 19.86                             150   -0.12 7 79.2 303 
 RUS  HZ EP   1   1728  4.48                             146   -0.09 7 91.3 178 
 RUS  HZ I        1728  6.11         3.5 0.16                          91.3 178 
 RUS  HE ES   1   1728 22.67                             146    0.05 7 91.3 178 
 OCA  SZ EP   1   1728 10.55                             128   -0.12 7  170 352 
 NOR  SE ES   2   1728 44.61                             119   -0.09 4  233 237 
                                                                                
