 2012  2 5 1401 27.4 L   6.764 -73.095141.1  RSN  8 0.2 1.8LRSN                1
 GAP=145        0.53       2.5     3.9  4.3 -0.2812E+01  0.4689E+01 -0.1087E+01E
 ACTION:UP  12-03-07 16:27 OP:epov STATUS:               ID:20120205140127 L   I
 2012-02-05-1400-00M.COL___187                                                 6
 STAT SP IPHASW D HRMM SECON CODA AMPLIT PERI AZIMU VELO SNR AR TRES W  DIS CAZ7
 BAR2 SZ EP       14 1 46.63                             171    0.1710 21.3 207 
 BAR2 SZ ES   1   14 2  1.16                             171   -0.14 7 21.3 207 
 BAR2 SZ I        14 2  2.71        11.9 0.28                          21.3 207 
 GIR2 SZ EP       14 1 46.74                             165    0.0410 36.5 343 
 PAM  SZ EP   1   14 1 49.25                             150    0.11 7 77.2  34 
 PAM  SE ES   1   14 2  6.17                             150    0.10 7 77.2  34 
 BRR  HZ EP   1   14 1 48.67                             149    0.19 7 78.0 299 
 BRR  HZ I        14 1 49.01        13.7 0.13                          78.0 299 
 BRR  HE ES   1   14 2  5.29                             149    0.38 7 78.0 299 
 RUS  HZ EP   1   14 1 50.69                             144    0.28 7 96.4 179 
 RUS  HE ES   1   14 2  7.91                             144   -0.44 7 96.4 179 
 PTB  HZ EP   1   14 1 54.30                             130   -0.16 7  153 261 
 OCA  SZ EP       14 1 55.53                             128   -0.30 9  165 351 
 OCA  SZ ES   1   14 2 17.67                             128   -0.32 7  165 351 
 NOR  SZ EP   1   14 2  3.31                             117    0.17 6  237 236 
 NOR  SE ES   1   14 2 30.79                             117   -0.21 6  237 236 
                                                                                
