 2016  4 5 1713 20.8 L   6.794 -73.201142.5  RSN  5 0.3 1.7LRSN                1
 GAP=144        0.79       4.4     4.4  6.1 -0.8625E+01  0.7849E+01 -0.1718E+01E
 Epicentro: ZAPATOCA - SANTANDER                                               3
 ACTION:UPD 16-05-05 14:18 OP:rebc STATUS:               ID:20160405171320 L   I
 OLDACT:REG 16-04-05 21:15 OP:drio STATUS:               ID:20160405170744     3
 2016-04-05-1707-44M.COL___304                                                 6
 STAT SP IPHASW D HRMM SECON CODA AMPLIT PERI AZIMU VELO AIN AR TRES W  DIS CAZ7
 BAR2 EZ EP       1713 39.90                             171   -0.1010 22.4 175 
 BAR2 EZ ES       1713 55.14                             171    0.1410 22.4 175 
 BAR2 EZ I        1713 57.46        12.3 0.36            172           22.4 175 
 PAM  EZ EP       1713 42.84                             149   -0.1010 81.9  43 
 PAM  EN ES       1714  0.05                             149   -0.1710 81.9  43 
 PAM  EZ I        1714  2.13         7.6 0.54            152           81.9  43 
 RUS  HZ EP       1713 44.50                             143    0.2910  101 173 
 RUS  HE ES       1714  2.64                             143    0.1610  101 173 
 RUS  HZ I        1714  3.38         4.7 0.44            146            101 173 
 PTB  HZ EP       1713 46.80                             133   -0.13 9  142 259 
 PTB  HN ES       1714  7.70                             133    0.38 9  142 259 
 PTB  HZ I        1714  9.76         5.5 0.24            134            142 259 
 SPBC HZ EP       1713 48.85                             129    0.23 9  159 217 
 SPBC HN ES       1714  9.58                             129   -0.75 9  159 217 
 SPBC HZ I        1714 13.49        10.0 0.32            131            159 217 
                                                                                
