 2014  7 5 1931 58.5 L   6.799 -73.127146.4  RSN  6 0.5 1.6LRSN                1
 GAP=202        1.18       6.9     7.5  8.2  0.2332E+02 -0.9094E+00 -0.1666E+02E
 Epicentro: LOS SANTOS - SANTANDER                                             3
 ACTION:UPD 15-03-16 20:41 OP:nd   STATUS:               ID:20140705193158 L   I
 OLDACT:UP  14-07-09 08:59 OP:SPQ  STATUS:               ID:20140705193158 L   3
 OLDACT:REG 14-07-05 22:02 OP:spq  STATUS:               ID:20140705192820     3
 2014-07-05-1928-20M.COL___259                                                 6
 STAT SP IPHASW D HRMM SECON CODA AMPLIT PERI AZIMU VELO AIN AR TRES W  DIS CAZ7
 BAR2 SZ EP       1932 18.31                             171    0.0710 23.6 195 
 BAR2 SZ ES       1932 33.34                             171   -0.2810 23.6 195 
 BAR2 SZ I        1932 34.38         6.7 0.26            173           23.6 195 
 BRR  HZ EP       1932 20.25                             152    0.4010 73.1 298 
 BRR  HE ES       1932 37.12                             152    0.6310 73.1 298 
 BRR  HZ I        1932 42.85        11.0 0.36            153           73.1 298 
 RUS  HZ EP       1932 22.71                             144    0.3910  100 177 
 RUS  HN ES   1   1932 40.42                             144   -0.46 7  100 177 
 RUS  HZ I        1932 44.08         2.0 0.54            149            100 177 
 PTB  HZ EP       1932 25.16                             132   -0.56 9  150 259 
 PTB  HN ES       1932 46.38                             132   -0.56 9  150 259 
 PTB  HZ I        1932 47.45         3.9 0.20            135            150 259 
 ZAR  HZ EP       1932 31.91                             122    0.70 8  206 292 
 ZAR  HN ES       1932 56.93                             122    0.22 8  206 292 
 ZAR  HZ I        1933  0.03         3.4 0.30            125            206 292 
 SML  HZ EP       1932 34.80                             117   -0.50 8  245 335 
 SML  HN ES   1   1933  3.06                             117   -0.92 6  245 335 
 SML  HZ I        1933  6.69         5.9 0.30            120            245 335 
                                                                                
