 2016  2 5 1620 41.0 L   6.623 -73.233127.5  RSN  4 0.4 1.3LRSN                1
 GAP=215        0.61       7.9     8.1  8.5  0.2088E+02  0.3548E+02  0.3495E+02E
 Epicentro: BARICHARA - SANTANDER                                              3
 ACTION:UPD 16-03-04 21:23 OP:rebc STATUS:               ID:20160205162041 L   I
 OLDACT:REG 16-02-05 20:47 OP:dnl  STATUS:               ID:20160205161750     3
 2016-02-05-1617-50M.COL___334                                                 6
 STAT SP IPHASW D HRMM SECON CODA AMPLIT PERI AZIMU VELO AIN AR TRES W  DIS CAZ7
 BAR2 EZ EP   2   1620 58.13                             177   -0.11 5 6.53 121 
 BAR2 EZ ES       1621 11.52                             177   -0.1310 6.53 121 
 BAR2 EZ I        1621 15.82         5.4 0.13            167           6.53 121 
 RUS  HZ EP   2   1621  2.08                             145    0.38 5 82.4 168 
 RUS  HN ES   2   1621 18.23                             145    0.42 5 82.4 168 
 RUS  HZ I        1621 21.77         5.2 0.21            143           82.4 168 
 PTB  HZ EP   2   1621  4.92                             130   -0.51 5  136 266 
 PTB  HN ES   2   1621 24.98                             130    0.52 5  136 266 
 PTB  HZ I        1621 28.79         4.5 0.16            131            136 266 
 CHI  HZ EP   2   1621 15.92                             115    0.50 4  227 194 
 CHI  HN ES   2   1621 41.42                             115   -0.81 4  227 194 
 CHI  HZ I        1621 49.19         1.4 0.33            117            227 194 
                                                                                
