 2010 12 5 1914 55.4 L   6.834 -73.133136.2  RSN  4 0.3 1.8LRSN                1
 GAP=174        0.74       7.0    12.5  9.1 -0.6028E+02  0.7101E+02 -0.3215E+02E
 Epicentro: LOS SANTOS - SANTANDER                                             3
 ACTION:UP  11-01-14 15:22 OP:pat  STATUS:               ID:20101205191455 L   I
 2010-12-05-1912-02S.COL___134                                                 6
 STAT SP IPHASW D HRMM SECON CODA AMPLIT PERI AZIMU VELO SNR AR TRES W  DIS CAZ7
 BAR2 SZ EP   1   1915 13.61                             168    -0.4 8   27 192 
 BAR2 SZ ES   1   1915 28.48                             168     0.0 8   27 192 
 BAR2 SZ I        1915 30.07        22.2 0.19                            27 192 
 GRA  SZ EP       1915 19.60                             136     0.110  122  17 
 GRA  SZ ES   1   1915 38.59                             136     0.4 7  122  17 
 GRA  SZ I        1915 40.05         8.2 0.30                           122  17 
 OCA  SZ EP       1915 22.38                             128    -0.3 9  157 352 
 OCA  SZ ES   2   1915 43.40                             128    -0.5 5  157 352 
 OCA  SZ I        1915 47.94         7.2 0.12                           157 352 
 HEL  HZ EP       1915 35.71                             113     0.3 8  274 255 
 HEL  HZ I        1916 13.71         3.3 0.19                           274 255 
                                                                                
