 2010  2 5 1822 17.0 L   6.787 -73.228140.5  RSN  7 0.4 1.9LRSN                1
 GAP=146        0.70       3.5     6.5  6.3  0.3873E+01  0.2132E+02 -0.7615E+00E
 Epicentro: ZAPATOCA - SANTANDER                                               3
 ACTION:UP  10-08-24 09:47 OP:vdl  STATUS:               ID:20100205182217 L   I
 2010-02-05-1819-50S.COL___089                                                 6
 STAT SP IPHASW D HRMM SECON CODA AMPLIT PERI AZIMU VELO SNR AR TRES W  DIS CAZ7
 BAR2 SZ IP       1822 35.94                             171    -0.110   22 167 
 BAR2 SZ ES       1822 50.81                             171     0.010   22 167 
 RUS  HZ EP       1822 39.85                             143    -0.410  100 171 
 RUS  HE ES   1   1822 58.62                             143     0.3 7  100 171 
 RUS  HZ I        1822 59.59        13.9 0.28                           100 171 
 GRA  SZ EP   2   1822 41.89                             135    -0.3 5  130  21 
 GRA  SZ ES   2   1823  1.43                             135    -0.4 5  130  21 
 OCA  SZ EP   2   1822 45.45                             128     0.4 5  161 356 
 OCA  SZ ES   2   1823  7.77                             128     0.9 5  161 356 
 CHI  HZ EP   1   1822 54.15                             116     0.1 6  245 193 
 CHI  HE ES   2   1823 23.43                             116     0.5 4  245 193 
 CHI  HZ I        1823 29.15         5.2 0.84                           245 193 
 DBB  SZ EP       1823  3.76                             109     0.5 7  331 275 
 DBB  SZ ES   2   1823 38.95                             109    -0.4 3  331 275 
 MON  HE ES   1   1823 42.07                             108    -0.5 5  347 309 
                                                                                
