 2010  3 5 1920 52.2 L   6.813 -73.031146.7  RSN 10 0.4 2.3LRSN                1
 GAP=195        0.81       3.7     8.7  6.3  0.4122E+01  0.2859E+02  0.1719E+01E
 Epicentro: CEPITA - SANTANDER                                                 3
 ACTION:UP  10-08-24 09:52 OP:vdl  STATUS:               ID:20100305192051 L   I
 2010-03-05-1919-20S.COL___101                                                 6
 STAT SP IPHASW D HRMM SECON CODA AMPLIT PERI AZIMU VELO SNR AR TRES W  DIS CAZ7
 BAR2 SZ EP       1921 12.10                             168     0.010   30 215 
 BAR2 SZ ES   1   1921 27.21                             168    -0.4 7   30 215 
 BRR  HZ EP       1921 14.05                             149    -0.110   82 293 
 BRR  HZ I        1921 14.38        50.0 0.11                            82 293 
 BRR  HN ES   2   1921 31.29                             149     0.1 5   82 293 
 RUS  BZ EP       1921 16.09                             143    -0.110  102 183 
 RUS  BE ES       1921 35.00                             143     0.110  102 183 
 RUS  BZ I        1921 35.83        12.4 0.31                           102 183 
 OCA  SZ EP   1   1921 21.20                             130     0.5 7  161 349 
 OCA  SZ ES   1   1921 43.04                             130     0.2 7  161 349 
 OCA  SZ I        1921 48.85        46.0 0.32                           161 349 
 CHI  HZ EP   1   1921 30.58                             117     0.0 6  254 198 
 CHI  HZ I        1921 32.49         5.2 0.46                           254 198 
 CHI  HE ES   3   1922  0.52                             117     0.1 2  254 198 
 HEL  HZ EP   1   1921 33.89                             114     0.0 6  285 256 
 HEL  HZ I        1922 11.54        11.8 0.25                           285 256 
 RREF BZ EP       1921 40.36                             110     0.7 7  332 231 
 RREF BN ES   2   1922 17.77                             110     1.2 3  332 231 
 RREF BZ I        1922 24.07        10.1 0.29                           332 231 
 DBB  SZ EP       1921 40.37                             109    -0.8 6  352 274 
 TOL  SZ EP       1921 41.59                             109    -0.1 6  354 226 
 PRA  HZ EP   1   1921 46.07                             106    -0.6 4  400 211 
 PRA  HN ES   3   1922 29.79                             106     0.6 1  400 211 
 PRA  HZ I        1922 36.57         5.7 0.37                           400 211 
                                                                                
