 2015  5 5 1258 43.7 L   6.837 -73.158142.0  RSN 17 0.5 2.5LRSN                1
 GAP= 69        1.30       3.1     4.4  6.2 -0.1833E+01  0.5657E+01  0.2773E+01E
 Epicentro: LOS SANTOS - SANTANDER                                             3
 ACTION:UPD 15-09-10 22:01 OP:cam  STATUS:               ID:20150505125843 L   I
 OLDACT:REG 15-05-05 21:12 OP:stll STATUS:               ID:20150505125650     3
 2015-05-05-1256-50M.COL___271                                                 6
 STAT SP IPHASW D HRMM SECON CODA AMPLIT PERI AZIMU VELO AIN AR TRES W  DIS CAZ7
 BAR2 EZ IP     D 1259  3.09                             169    0.1010 27.2 186 
 BAR2 EZ ES       1259 17.67                             169   -0.3510 27.2 186 
 BAR2 EZ I        1259 18.91        55.7 0.26            167           27.2 186 
 BRR  HZ IP     C 1259  4.78                             153    0.4810 68.2 296 
 BRR  HN ES       1259 21.51                             153    1.1610 68.2 296 
 BRR  HZ I        1259 24.86        46.1 0.12            151           68.2 296 
 PAM  SZ EP     D 1259  5.71                             151    0.3010 75.2  42 
 PAM  SN ES       1259 22.40                             151    0.0710 75.2  42 
 PAM  SZ I        1259 24.75       122.7 0.52            155           75.2  42 
 RUS  HZ EP       1259  7.26                             142   -0.1610  105 175 
 RUS  HN ES       1259 25.82                             142   -0.0810  105 175 
 RUS  HZ I        1259 27.52        29.8 0.30            143            105 175 
 OCA  HZ EP       1259 10.51                             130   -0.84 9  156 353 
 OCA  HE ES       1259 32.49                             130   -0.41 9  156 353 
 OCA  HZ I        1259 37.67        51.7 0.30            131            156 353 
 TAM  HZ IP     D 1259 11.43                             129    0.10 9  157 106 
 SPBC HZ EP       1259 12.33                             128    0.16 9  166 218 
 SPBC HN ES       1259 33.78                             128   -0.57 9  166 218 
 SPBC HZ I        1259 41.53        28.7 0.24            128            166 218 
 ZAR  HZ EP       1259 15.73                             122    0.09 9  201 291 
 ZAR  HE ES       1259 40.73                             122    0.19 9  201 291 
 ZAR  HZ I        1259 46.78        32.7 0.16            122            201 291 
 NOR  HZ EP       1259 19.65                             117    0.27 8  236 233 
 NOR  HN ES       1259 46.69                             117   -0.50 8  236 233 
 NOR  HZ I        1259 54.86        18.9 0.24            118            236 233 
 SML  HZ EP       1259 18.99                             117   -0.69 8  239 335 
 SML  HE ES       1259 47.27                             117   -0.46 8  239 335 
 SML  HZ I        1259 49.67        26.4 0.10            118            239 335 
 CHI  HZ EP       1259 21.61                             116   -0.00 8  252 195 
 CHI  HN ES       1259 50.84                             116   -0.32 8  252 195 
 CHI  HZ I        1259 57.20         9.1 0.42            117            252 195 
 URE  HZ EP   9   1259 23.58                             113   -0.73 0  281 291 
 URE  HN ES       1259 53.41                                   -1.82 7  281 291 
 URE  HZ I        1259 56.17        22.4 0.16            114            281 291 
 GUY2CHZ EP       1259 28.64                             111    1.33 7  302 234 
 GUY2CHN ES       13 0  1.17                             111   -0.13 7  302 234 
 GUY2CHZ I        13 0  9.49        10.6 0.58                           302 234 
 MON  HZ EP   9   1259 30.27                             108   -1.90 0  350 308 
 MON  HZ I        1259 37.40         9.2 0.32            109            350 308 
 MON  HN ES       13 0  7.75                                   -0.31 6  350 308 
 ANIL HE ES       13 0 12.39                             108   -0.14 6  359 224 
 ANIL HZ I        13 0 19.57        20.9 0.38            108            359 224 
 ORTC HZ EP       1259 37.99                             106    0.18 6  398 216 
 ORTC HN ES       13 0 20.17                             106    0.17 6  398 216 
 ORTC HZ I        13 0 25.71         7.9 0.46            106            398 216 
 CRJC HZ EP   9   1259 43.22                             103   -2.43 0  464   4 
 CRJC HZ I        1259 44.11         6.5 0.58            104            464   4 
 CRJC HN ES       13 0 31.94                                    0.42 5  464   4 
                                                                                
