 2014  9 5 1105 18.0 L   6.833 -73.156141.1  RSN 14 0.4 2.1LRSN                1
 GAP=134        0.88       2.6     3.4  4.9 -0.2434E+01  0.4259E+01  0.3740E+00E
 Epicentro: LOS SANTOS - SANTANDER                                             3
 ACTION:UPD 14-10-03 23:02 OP:nd   STATUS:               ID:20140905110518 L   I
 OLDACT:REG 14-09-05 20:33 OP:fm   STATUS:               ID:20140905105818     3
 2014-09-05-1058-18M.COL___275                                                 6
 STAT SP IPHASW D HRMM SECON CODA AMPLIT PERI AZIMU VELO AIN AR TRES W  DIS CAZ7
 BAR2 SZ EP       11 5 37.21                             169    0.0710 26.8 186 
 BAR2 SZ ES   1   11 5 52.30                             169    0.22 7 26.8 186 
 BAR2 SZ I        11 5 53.06        19.2 0.34            168           26.8 186 
 BRR  HZ EP   1   11 5 38.20                             153   -0.29 7 68.5 296 
 BRR  HN ES       11 5 54.88                             153    0.4110 68.5 296 
 BRR  HZ I        11 5 56.47        26.2 0.40            148           68.5 296 
 PAM  SZ EP       11 5 40.04                             151    0.4510 75.3  42 
 PAM  SN ES       11 5 56.45                             151    0.0110 75.3  42 
 PAM  SZ I        11 5 59.85         9.8 0.20            152           75.3  42 
 RUS  HZ EP   1   11 5 41.26                             142   -0.31 7  104 176 
 RUS  HN ES       11 5 59.87                             142   -0.0910  104 176 
 PTB  HZ EP       11 5 43.88                             131   -0.67 9  147 257 
 PTB  HN ES       11 6  4.66                             131   -0.61 9  147 257 
 PTB  HZ I        11 6  7.25        23.5 0.14            129            147 257 
 OCA  HZ EP       11 5 45.59                             129    0.00 9  156 353 
 OCA  HN ES       11 6  6.95                             129   -0.16 9  156 353 
 OCA  HZ I        11 6 11.80        19.0 0.46            128            156 353 
 SPBC HZ EP       11 5 46.40                             128    0.05 9  165 218 
 SPBC HE ES       11 6  8.37                             128   -0.10 9  165 218 
 SPBC HZ I        11 6 16.21        14.8 0.26            127            165 218 
 ZAR  HZ EP       11 5 50.32                             122    0.43 9  202 291 
 ZAR  HN ES       11 6 15.22                             122    0.46 9  202 291 
 ZAR  HZ I        11 6 24.34        15.7 0.12            120            202 291 
 NOR  HN ES       11 6 20.73                             117   -0.63 8  236 234 
 NOR  HZ I        11 6 25.97         9.9 0.24            117            236 234 
 SML  HZ EP       11 5 53.54                             117   -0.40 8  240 335 
 SML  HN ES   4   11 6 20.64                             117   -1.35 0  240 335 
 SML  HZ I        11 6 31.94        16.2 0.10            116            240 335 
 CHI  HZ EP       11 5 55.87                             116    0.08 8  252 195 
 CHI  HE ES   4   11 6 22.77                             116   -2.51 0  252 195 
 CHI  HZ I        11 6 32.61         3.1 0.64            116            252 195 
 GUY2CHZ EP   4   11 6  3.72                             111    2.19 0  302 234 
 GUY2CHE ES       11 6 36.18                             111    0.70 7  302 234 
 GUY2CHZ I        11 6 44.00         5.0 0.38                           302 234 
 TOL  SZ EP   1   11 6  6.74                             108    0.46 5  345 224 
 TOL  SE ES       11 6 44.29                             108    0.35 7  345 224 
 TOL  SZ I        11 6 54.70         9.0 0.30            108            345 224 
 MON  HN ES   4   11 6 41.02                             108   -3.22 0  351 308 
 MON  HZ I        11 6 49.19         2.0 0.36            107            351 308 
                                                                                
