 2011  8 5 1013 41.9 L   6.514 -73.683 99.1  RSN 17 0.4 3.2LRSN                1
 GAP= 76        0.84       2.9     3.7  5.8 -0.3743E+01  0.7741E+01  0.3184E+01E
 Epicentro: SANTA HELENA DEL OPON - SANTANDER                                  3
 ACTION:UPD 12-07-25 14:06 OP:epov STATUS:               ID:20110805101342 L   I
 2011-08-05-1012-03S.COL___135                                                 6
 STAT SP IPHASW D HRMM SECON CODA AMPLIT PERI AZIMU VELO AIN AR TRES W  DIS CAZ7
 BAR2 SZ IP       1013 57.82                             148    0.2910 56.0  81 
 BAR2 SZ ES   1   1014 10.07                             148    0.36 7 56.0  81 
 BAR2 SZ I        1014 11.91       857.3 0.30                          56.0  81 
 BRR  HZ IP     D 1013 57.82                             144   -0.0310 65.7 357 
 BRR  HZ I        1013 57.98       454.5 0.12                          65.7 357 
 BRR  HE ES   1   1014 10.62                             144    0.34 7 65.7 357 
 RUS  HZ EP       1014  0.73                             133   -0.2410 95.5 136 
 RUS  HE ES   2   1014 15.12                             133   -0.72 5 95.5 136 
 PAM  SZ EP       1014  5.69                             121    0.15 9  142  50 
 PAM  SN ES   1   1014 23.89                             121   -0.09 7  142  50 
 NOR  SZ EP       1014  6.95                             116   -0.87 9  168 231 
 NOR  SE ES   1   1014 27.16                             116   -0.87 7  168 231 
 OCA  SZ EP       1014 10.84                             113   -0.11 9  195  12 
 OCA  SZ I        1014 40.78       169.7 0.63                           195  12 
 CHI  HZ EP       1014 12.90                             111    0.08 8  208 181 
 GUY  SZ EP   3   1014 16.26                             109    0.06 2  237 233 
 GUY  SZ I        1014 50.70       103.4 0.64                           237 233 
 RREF HZ EP       1014 19.23                             107    0.53 8  257 226 
 RREF HZ I        1014 53.22        55.0 0.50                           257 226 
 VIL  SZ EP       1014 19.67                             106    0.51 8  266 180 
 VIL  SZ I        1014 54.78        37.5 0.46                           266 180 
 TOL  SZ EP       1014 21.68                             105    0.57 7  280 220 
 DBB  SZ EP       1014 21.65                             105    0.27 7  285 281 
 ANIL HZ EP   1   1014 23.34                             105    0.62 5  294 221 
 ANIL HZ I        1015  0.40       115.2 0.50                           294 221 
 PRA  HZ EP       1014 27.57                             103   -0.03 7  337 203 
 PRA  HE ES   2   1015  3.33                             103    0.08 3  337 203 
 PRA  HZ I        1015  8.97        99.8 0.18                           337 203 
 SJA  SZ EP       1014 30.08                             102   -0.32 6  360 185 
 SJA  SZ ES   2   1015  8.33                             102    0.10 3  360 185 
 SJA  SZ I        1015 13.96       126.3 0.62                           360 185 
 COD  HZ EP       1014 32.27                             101   -0.37 6  379   4 
 COD  HN ES   3   1015 12.22                             101    0.01 2  379   4 
 COD  HZ I        1015 25.57        28.6 0.80                           379   4 
 SDV  BZ EP       1014 37.95                             100   -0.68 5  427  52 
 SDV  BZ I        1015 25.17        36.0 0.40                           427  52 
                                                                                
