 2014  9 5 1027 38.1 L   6.875 -73.338122.2  RSN 16 0.5 2.1LRSN                1
 GAP= 97        1.00       2.3     3.3  5.4 -0.8155E+00  0.5441E+01  0.6759E+00E
 Epicentro: BETULIA - SANTANDER                                                3
 ACTION:UPD 14-10-03 23:02 OP:nd   STATUS:               ID:20140905102738 L   I
 OLDACT:REG 14-09-05 20:30 OP:fm   STATUS:               ID:20140905101819     3
 2014-09-05-1018-19M.COL___275                                                 6
 STAT SP IPHASW D HRMM SECON CODA AMPLIT PERI AZIMU VELO AIN AR TRES W  DIS CAZ7
 BAR2 SZ IP     C 1027 55.44                             163    0.2110 35.7 151 
 BAR2 SZ ES   1   1028  8.33                             163   -0.30 7 35.7 151 
 BAR2 SZ I        1028  9.98        44.9 0.50            165           35.7 151 
 BRR  HZ EP       1027 55.79                             157    0.3610 48.6 302 
 BRR  HN ES       1028  9.96                             157    0.9910 48.6 302 
 BRR  HZ I        1028 10.73        45.4 0.32            153           48.6 302 
 PAM  SZ EP       1027 58.77                             143    0.2410 87.3  54 
 PAM  SN ES       1028 14.61                             143    0.1110 87.3  54 
 PAM  SZ I        1028 17.54        20.2 0.46            147           87.3  54 
 RUS  HZ EP       1028  0.44                             135   -0.1110  112 165 
 RUS  HE ES       1028 17.68                             135   -0.4110  112 165 
 RUS  HZ I        1028 18.93        21.5 0.22            137            112 165 
 PTB  HZ EP       1028  0.63                             130   -0.7910  129 253 
 PTB  HE ES       1028 19.31                             130   -0.3310  129 253 
 PTB  HZ I        1028 25.70        12.4 0.14            129            129 253 
 OCA  HZ EP       1028  3.55                             126   -0.16 9  151   1 
 OCA  HE ES       1028 23.41                             126   -0.30 9  151   1 
 OCA  HZ I        1028 27.03        29.9 0.50            127            151   1 
 SPBC HZ EP   1   1028  4.06                             124   -0.25 7  158 211 
 SPBC HE ES       1028 24.38                             124   -0.40 9  158 211 
 SPBC HZ I        1028 29.05        14.9 0.10            124            158 211 
 ZAR  HN ES   1   1028 28.85                             120   -0.07 7  181 292 
 ZAR  HZ I        1028 32.87        16.1 0.36            120            181 292 
 SML  HZ EP       1028 11.92                             114    0.22 8  228 339 
 SML  HE ES       1028 37.49                             114   -0.44 8  228 339 
 SML  HZ I        1028 44.21        26.6 0.26            114            228 339 
 CHI  HZ EP   1   1028 14.89                             112   -0.06 6  252 190 
 CHI  HE ES       1028 43.60                             112   -0.13 8  252 190 
 CHI  HZ I        1028 49.49         4.5 0.50            112            252 190 
 HEL  HZ EP   1   1028 15.74                             111    0.64 6  254 253 
 HEL  HN ES   1   1028 44.47                             111    0.48 6  254 253 
 HEL  HZ I        1028 50.46         4.9 0.36            111            254 253 
 URE  HZ EP   4   1028 14.14                             111   -1.33 0  261 292 
 URE  HE ES   4   1028 43.02                             111   -1.63 0  261 292 
 URE  HZ I        1028 53.33        12.7 0.22            111            261 292 
 GUY2CHZ EP   1   1028 20.02                             108    0.72 5  289 231 
 GUY2CHN ES       1028 51.43                             108   -0.03 7  289 231 
 GUY2CHZ I        1028 56.34         3.4 0.52                           289 231 
 MON  HZ EP   4   1028 21.11                             105   -2.58 0  332 310 
 MON  HN ES       1028 58.68                             105   -0.59 7  332 310 
 MON  HZ I        1028 59.96         3.5 0.18            106            332 310 
 TOL  SZ EP   1   1028 25.23                             105    0.75 5  335 221 
 TOL  SN ES   4   1029  3.48                             105    2.79 0  335 221 
 TOL  SZ I        1029  7.93         6.0 0.30            106            335 221 
 PRA  HZ EP   1   1028 31.21                             102    0.66 4  389 206 
 PRA  HN ES       1029 12.27                             102    0.78 6  389 206 
 PRA  HZ I        1029 17.25         2.8 0.28            103            389 206 
                                                                                
