 2014  2 5 1230 44.5 L   6.821 -73.160140.8  RSN 10 0.3 2.0LRSN                1
 GAP=134        0.72       2.1     3.0  4.3 -0.2322E+00  0.5041E+01  0.3309E+00E
 Epicentro: LOS SANTOS - SANTANDER                                             3
 ACTION:UPD 14-03-10 08:07 OP:ep   STATUS:               ID:20140205123044 L   I
 OLDACT:REG 14-02-05 14:50 OP:nd   STATUS:               ID:20140205123000     3
 2014-02-05-1230-00M.COL___288                                                 6
 STAT SP IPHASW D HRMM SECON CODA AMPLIT PERI AZIMU VELO AIN AR TRES W  DIS CAZ7
 BAR2 SZ EP       1231  3.80                             169    0.2210 25.4 185 
 BAR2 SZ ES       1231 18.60                             169    0.1410 25.4 185 
 BAR2 SZ I        1231 20.00        52.8 0.38            169           25.4 185 
 PAM  SZ EP       1231  6.66                             150    0.5110 76.7  42 
 PAM  SN ES       1231 22.90                             150   -0.1310 76.7  42 
 PAM  SZ I        1231 27.20         6.9 0.26            153           76.7  42 
 RUS  HZ EP       1231  7.83                             142   -0.1210  103 175 
 RUS  HN ES       1231 26.00                             142   -0.2410  103 175 
 RUS  HZ I        1231 27.93        13.0 0.24            144            103 175 
 PTB  HZ EP       1231 10.51                             131   -0.45 9  147 258 
 PTB  HN ES       1231 31.43                             131   -0.17 9  147 258 
 PTB  HZ I        1231 33.20        10.6 0.26            131            147 258 
 ZAR  HZ EP       1231 16.65                             121    0.27 9  202 292 
 ZAR  HN ES       1231 41.68                             121    0.44 9  202 292 
 ZAR  HZ I        1231 47.93        12.1 0.30            122            202 292 
 NOR  HZ EP       1231 20.29                             117    0.34 8  235 234 
 NOR  HN ES       1231 47.65                             117    0.05 8  235 234 
 NOR  HZ I        1231 54.07         4.4 0.36            118            235 234 
 SML  HZ EP       1231 20.25                             117   -0.30 8  241 335 
 SML  HN ES       1231 48.17                             117   -0.50 8  241 335 
 SML  HZ I        1231 55.18        17.4 0.10            117            241 335 
 CHI  HZ EP       1231 22.11                             116   -0.02 8  250 195 
 CHI  HN ES       1231 51.24                             116   -0.24 8  250 195 
 CHI  HZ I        1231 56.72         4.2 0.32            117            250 195 
 GUY2CHZ EP   4   1231 29.49                             111    1.60 0  301 234 
 GUY2CHN ES   4   1232  1.73                             111    0.00 0  301 234 
 GUY2CHZ I        1232  9.31         2.6 0.52                           301 234 
 PRA  HZ EP       1231 37.84                             106   -0.16 6  393 209 
 PRA  HN ES       1232 20.06                             106    0.34 6  393 209 
 PRA  HZ I        1232 26.22         4.7 0.32            106            393 209 
                                                                                
