 2013  2 5 1039 38.3 L   6.797 -73.143146.1  RSN  6 0.3 1.6LRSN                1
 GAP=137        0.66       3.3     4.1  6.1 -0.2328E+01  0.4250E+01  0.3977E+01E
 Epicentro: LOS SANTOS - SANTANDER                                             3
 ACTION:UPD 13-03-12 09:30 OP:ep   STATUS:               ID:20130205103938 L   I
 2013-02-05-1034-48M.COL___164                                                 6
 STAT SP IPHASW D HRMM SECON CODA AMPLIT PERI AZIMU VELO AIN AR TRES W  DIS CAZ7
 BAR2 SZ EP   1   1039 57.97                             171   -0.02 7 23.1 191 
 BAR2 SZ I        1040 13.81        13.6 0.33            171           23.1 191 
 BRR  HZ EP       1039 59.63                             152    0.1010 71.6 299 
 BRR  HE ES   1   1040 16.71                             152    0.64 7 71.6 299 
 BRR  HZ I        1040 21.98        10.9 0.43            149           71.6 299 
 PAM  SZ EP       1040  0.71                             151    0.1310 77.4  39 
 PAM  SZ I        1040  1.08         9.2 0.17            152           77.4  39 
 PAM  SN ES       1040 17.70                             151   -0.2310 77.4  39 
 RUS  HZ EP   1   1040  2.24                             144    0.16 7  100 176 
 RUS  HE ES       1040 20.45                             144   -0.1610  100 176 
 RUS  HE I        1040 21.77         4.5 0.18            146            100 176 
 PTB  HZ EP   1   1040  4.78                             132   -0.56 7  148 259 
 PTB  HE ES   1   1040 26.05                             132   -0.37 7  148 259 
 PTB  HZ I        1040 31.26         2.4 0.20            131            148 259 
 CHI  HZ EP   1   1040 16.28                             117    0.26 6  248 195 
 CHI  HN ES   1   1040 45.67                             117    0.25 6  248 195 
                                                                                
