 2012  8 5 1743 40.3 L   7.328 -73.488110.0  RSN  5 0.3 1.5LRSN                1
 GAP=218        0.59       8.5     4.6  6.6 -0.1702E+02 -0.7330E+01  0.2375E+02E
 Epicentro: SABANA DE TORRES - SANTANDER                                       3
 ACTION:UPD 12-09-10 11:54 OP:ep   STATUS:               ID:20120805174340 L   I
 2012-08-05-1740-00M.COL___216                                                 6
 STAT SP IPHASW D HRMM SECON CODA AMPLIT PERI AZIMU VELO AIN AR TRES W  DIS CAZ7
 BRR  HZ EP       1743 55.74                             161    0.0610 34.8 225 
 BRR  HN ES   1   1744  7.76                             161    0.09 7 34.8 225 
 BRR  HZ I        1744  9.14        20.3 0.16                          34.8 225 
 PAM  SZ EP       1743 59.58                             139   -0.0210 87.0  89 
 PAM  SZ I        1744  0.65         6.0 0.18                          87.0  89 
 PAM  SN ES   2   1744 14.19                             139   -0.47 5 87.0  89 
 BAR2 SZ EP       1743 59.75                             139    0.4110 88.1 157 
 BAR2 SZ I        1744  0.06        13.3 0.22                          88.1 157 
 PTB  HZ EP       1744  3.50                             125   -0.14 9  138 231 
 PTB  HN ES   3   1744 21.00                             125   -0.84 2  138 231 
 PTB  HZ I        1744 24.12         6.5 0.22                           138 231 
 RUS  HZ EP       1744  6.78                             120   -0.26 9  165 164 
 RUS  HZ I        1744 36.49         2.0 0.26                           165 164 
                                                                                
