 2015  8 5 1151 11.8 L   6.783 -73.111148.1  RSN  4 0.4 1.8LRSN                1
 GAP=262        0.88       6.9     6.7  7.8  0.6741E+01  0.1882E+02 -0.6528E+00E
 Epicentro: LOS SANTOS - SANTANDER                                             3
 ACTION:UPD 15-09-15 23:00 OP:cam  STATUS:               ID:20150805115111 L   I
 OLDACT:DUP 15-08-05 22:30 OP:drio STATUS:               ID:20150805114747d    3
 2015-08-05-1147-46M.COL___346                                                 6
 STAT SP IPHASW D HRMM SECON CODA AMPLIT PERI AZIMU VELO AIN AR TRES W  DIS CAZ7
 BAR2 EZ EP       1151 31.86                             171    0.1410 22.5 200 
 BAR2 EZ ES       1151 46.77                             171   -0.4710 22.5 200 
 BAR2 EZ I        1151 48.29        10.0 0.14            165           22.5 200 
 BRR  HZ EP       1151 33.74                             151    0.2710 75.4 298 
 BRR  HN ES       1151 50.82                             151    0.4710 75.4 298 
 ZAR  HZ EP       1151 44.49                             122   -0.37 8  208 292 
 ZAR  HE ES       1152 10.25                             122   -0.38 8  208 292 
 ZAR  HZ I        1152 20.22         2.9 0.18            120            208 292 
 NOR  HZ EP   4   1151 49.07                             119    1.16 0  237 235 
 NOR  HE ES       1152 16.24                             119    0.19 8  237 235 
 NOR  HE I        1152 20.93         8.3 0.48            117            237 235 
                                                                                
