 2017  7 5 1223  3.7 L   6.768 -73.138146.6  RSN  8 0.4 1.9LRSN                1
 GAP= 97        1.02       4.8     3.1  6.2 -0.2206E+01  0.2618E+01  0.6017E+01E
 Epicentro: LOS SANTOS - SANTANDER                                             3
 ACTION:UPD 17-08-30 15:30 OP:rebc STATUS:               ID:20170705122303 L   I
 OLDACT:UP  17-07-06 00:30 OP:ar   STATUS:               ID:20170705121657     3
 OLDACT:REG 17-07-05 21:21 OP:ar   STATUS:               ID:20170705121657     3
 2017-07-05-1218-00M.COL___368                                                 6
 STAT SP IPHASW D HRMM SECON CODA AMPLIT PERI AZIMU VELO AIN AR TRES W  DIS CAZ7
 BAR2 EZ EP       1223 22.98                             172   -0.3810 20.1 194 
 BAR2 EZ ES       1223 38.85                             172    0.1510 20.1 194 
 BAR2 EZ I        1223 39.13        17.0 0.18            172           20.1 194 
 BRR  HZ EP       1223 25.01                             152   -0.0610 73.6 301 
 BRR  HN ES       1223 42.41                             152    0.6710 73.6 301 
 BRR  HZ I        1223 43.85        19.7 0.20            151           73.6 301 
 PAM  EZ EP       1223 26.00                             150   -0.1310 79.6  37 
 PAM  EE ES       1223 43.34                             150   -0.2910 79.6  37 
 PAM  EZ I        1223 45.68        11.1 0.70            152           79.6  37 
 PTB  HZ EP       1223 31.20                             132    0.46 9  148 260 
 PTB  HN ES       1223 50.80                             132   -1.04 9  148 260 
 PTB  HZ I        1223 52.12         7.9 0.30            132            148 260 
 TAM  HZ EP       1223 31.26                             131   -0.03 9  153 104 
 TAM  HE ES       1223 52.92                             131    0.11 9  153 104 
 SPBC HZ EP       1223 32.07                             130    0.02 9  161 220 
 SPBC HE ES       1223 54.58                             130    0.41 9  161 220 
 SPBC HZ I        1223 59.13        11.6 0.26            130            161 220 
 ZAR  HZ EP       1223 36.96                             122    0.55 8  206 293 
 ZAR  HE ES       1224  1.80                             122   -0.12 8  206 293 
 ZAR  HZ I        1224  7.09        10.5 0.44            123            206 293 
 NOR  HZ EP       1223 39.16                             119   -0.17 8  233 235 
 NOR  HN ES       1224  7.01                             119   -0.11 8  233 235 
 NOR  HZ I        1224  8.83         4.9 0.12            119            233 235 
                                                                                
