 2012  6 5 1306 56.9 L   6.796 -73.180140.4  RSN  5 0.3 1.7LRSN                1
 GAP=132        0.69       4.4     3.4  6.9 -0.9875E-01  0.6259E+01 -0.6676E+01E
 Epicentro: LOS SANTOS - SANTANDER                                             3
 ACTION:UPD 12-08-06 17:47 OP:ep   STATUS:               ID:20120605130655 L   I
 2012-06-05-1300-00M.COL___201                                                 6
 STAT SP IPHASW D HRMM SECON CODA AMPLIT PERI AZIMU VELO AIN AR TRES W  DIS CAZ7
 BAR2 SZ EP   1   13 7 15.74                             170   -0.13 7 22.6 181 
 BAR2 SZ ES   1   13 7 30.84                             170    0.17 7 22.6 181 
 BAR2 SZ I        13 7 32.03        12.9 0.24            171           22.6 181 
 PAM  SZ EP       13 7 18.66                             149   -0.0610 80.1  41 
 PAM  SN ES   1   13 7 35.58                             149   -0.15 7 80.1  41 
 RUS  HZ EP   1   13 7 20.11                             143   -0.01 7  101 174 
 RUS  HE ES   1   13 7 38.58                             143    0.35 7  101 174 
 RUS  HZ I        13 7 39.81         6.9 0.32            146            101 174 
 PTB  HZ EP   1   13 7 22.53                             132   -0.55 7  144 259 
 PTB  HN ES       13 7 43.19                             132   -0.32 9  144 259 
 PTB  HZ I        13 7 46.23         5.1 0.11            132            144 259 
 ZAR  HZ EP   1   13 7 29.36                             122    0.71 6  201 293 
 ZAR  HN ES       13 7 53.68                             122    0.26 9  201 293 
 ZAR  HZ I        13 8  0.30         6.8 0.19            122            201 293 
                                                                                
