 2016  4 5 1318 47.9 L   6.727 -73.587105.7  RSN  8 0.4 2.1LRSN                1
 GAP=114        0.97       3.6     3.3  8.3 -0.2117E+01  0.1716E+02 -0.1494E+01E
 Epicentro: EL CARMEN - SANTANDER                                              3
 ACTION:UPD 16-05-05 14:18 OP:rebc STATUS:               ID:20160405131847 L   I
 OLDACT:UP  16-04-05 22:39 OP:drio STATUS:               ID:20160405130745d    3
 OLDACT:UP  16-04-05 22:37 OP:drio STATUS:               ID:20160405130745d    3
 OLDACT:UP  16-04-05 22:37 OP:drio STATUS:               ID:20160405130745d    3
 OLDACT:DUP 16-04-05 22:32 OP:drio STATUS:               ID:20160405130745d    3
 OLDACT:REG 16-04-05 21:07 OP:drio STATUS:               ID:20160405130744     3
 2016-04-05-1307-44M.COL___303                                                 6
 STAT SP IPHASW D HRMM SECON CODA AMPLIT PERI AZIMU VELO AIN AR TRES W  DIS CAZ7
 BAR2 EZ EP       1319  3.83                             154    0.1310 47.1 108 
 BAR2 EZ ES       1319 16.61                             154    0.5810 47.1 108 
 BAR2 EZ I        1319 17.78        64.7 0.36            154           47.1 108 
 PTB  HZ EP   4 C 1319  5.71                             134   -1.41 0 98.3 258 
 PTB  HN ES   4   1319 19.51                             134   -2.60 0 98.3 258 
 PTB  HZ I        1319 20.30        30.4 0.10            134           98.3 258 
 RUS  HZ EP       1319  8.47                             131   -0.1410  108 149 
 RUS  HE ES       1319 24.59                             131   -0.1810  108 149 
 RUS  HZ I        1319 25.87        18.1 0.28            132            108 149 
 PAM  EZ EP       1319  9.55                             128   -0.1310  119  55 
 PAM  EE ES       1319 26.42                             128   -0.2510  119  55 
 PAM  EZ I        1319 30.35        21.0 0.28            128            119  55 
 ZAR  HZ EP       1319 13.74                             118    0.09 9  164 301 
 ZAR  HN ES       1319 33.39                             118   -0.35 9  164 301 
 ZAR  HZ I        1319 35.78        21.1 0.28            118            164 301 
 NOR  HZ EP       1319 16.65                             114   -0.09 9  192 228 
 NOR  HE ES       1319 38.26                             114   -0.98 9  192 228 
 NOR  HZ I        1319 42.59        20.1 0.18            114            192 228 
 HEL  HZ EP       1319 21.30                             110    0.61 8  223 255 
 HEL  HE ES       1319 46.53                             110    0.27 8  223 255 
 HEL  HZ I        1319 48.94         9.5 0.34            110            223 255 
 GUY2CHZ EP       1319 25.15                             107    0.30 8  258 230 
 GUY2CHN ES       1319 54.05                             107    0.37 8  258 230 
 GUY2CHZ I        1320  2.24         9.9 0.56                           258 230 
                                                                                
