 2012 10 5 1003 39.9 L   6.844 -73.297120.8  RSN 11 0.3 2.2LRSN 3.2WRSN        1
 SPEC AVERAGE  MO 13.9 ST  7.6 OM  5.2 f0 4.13 R0.3559 AL 2.53 WI 22.2 MW  3.2 3
 SPEC SD       MO  0.0 ST0.000 OM  2.8 f00.000 R0.0000 AL      WI      MW  0.0 3
 GAP= 74        0.41       2.7     2.1  3.1  0.5889E+00  0.6708E+00  0.2941E+01E
 Epicentro: ZAPATOCA - SANTANDER                                               3
 XNEAR  100.0 XFAR  800.0 SDEP 100.0                                           3
 SPEC BRR HH N MO 13.9 ST  7.6 OM  2.4 f0 4.13 R0.3559 AL 2.53 WI 22.2 MW  3.2 3
 SPEC BRR HH N T10 411 K 0.000 GD  132 VS 4.20 DE 3.00 Q0230.0 QA 0.60 VS 4.20 3
 ACTION:UP  12-11-22 17:02 OP:ep   STATUS:               ID:20121005100339 L   I
 2012-10-05-1000-00M.COL___222                                                 6
 STAT SP IPHASW D HRMM SECON CODA AMPLIT PERI AZIMU VELO AIN AR TRES W  DIS CAZ7
 GIR2 SZ EP       10 3 56.49                             166   -0.0810 28.3  24 
 GIR2 SZ ES   1   10 4  9.41                             166   -0.13 7 28.3  24 
 BAR2 SZ EP       10 3 56.88                             165    0.1010 30.6 156 
 BAR2 SZ ES   1   10 4  9.85                             165   -0.07 7 30.6 156 
 BAR2 SZ I        10 4 11.14       174.3 0.34                          30.6 156 
 BRR  HZ EP       10 3 57.25                             154   -0.2010 54.3 302 
 BRR  HZ I        10 3 57.53        59.9 0.46                          54.3 302 
 BRR  HN ES   1   10 4 11.27                             154    0.17 7 54.3 302 
 PAM  SZ EP       10 4  0.26                             142    0.0910 85.8  50 
 PAM  SN ES   1   10 4 16.06                             142    0.12 7 85.8  50 
 PAM  SN I        10 4 17.85        42.4 0.26                          85.8  50 
 RUS  HZ EP       10 4  1.87                             136   -0.0710  108 167 
 RUS  HN ES   3   10 4 18.62                             136   -0.47 2  108 167 
 RUS  HN I        10 4 22.44         3.2 0.22                           108 167 
 GRA  SZ EP   9   10 4  7.33                             130    4.11 0  127  25 
 GRA  SZ ES   1   10 4 25.11                                   -0.37 7  127  25 
 TAM  HZ EP   1   10 4  7.76                             121    0.20 7  173 105 
 TAM  HZ I        10 4 18.87         9.6 0.28                           173 105 
 ZAR  HZ EP   3   10 4  8.56                             119   -0.46 2  187 293 
 ZAR  HE ES   1   10 4 31.92                             119    0.22 7  187 293 
 ZAR  HN I        10 4 34.96        25.5 0.12                           187 293 
 CHI  HZ EP   3   10 4 16.52                             111    0.02 2  250 191 
 CHI  HN I        10 4 54.92         5.4 0.50                           250 191 
 HEL  HZ EP   3   10 4 17.96                             110    0.65 2  257 254 
 HEL  HN ES   2   10 4 46.38                             110   -0.07 4  257 254 
 HEL  HN I        10 4 50.29        16.0 0.84                           257 254 
 MON  HZ EP   3   10 4 24.36                             104   -1.83 2  338 309 
 MON  HN I        10 5  1.94        14.0 0.30                           338 309 
                                                                                
