 2014  3 5 1708 21.1 L   6.760 -73.138142.8  RSN  5 0.3 1.7LRSN                1
 GAP=139        0.78       3.7     5.1  5.7 -0.6107E+01  0.1929E+01  0.2852E+01E
 Epicentro: LOS SANTOS - SANTANDER                                             3
 ACTION:UPD 14-04-09 23:14 OP:nd   STATUS:               ID:20140305170821 L   I
 OLDACT:DUP 14-03-05 18:16 OP:stll STATUS:               ID:20140305165818d    3
 2014-03-05-1658-17M.COL___238                                                 6
 STAT SP IPHASW D HRMM SECON CODA AMPLIT PERI AZIMU VELO AIN AR TRES W  DIS CAZ7
 BAR2 SZ EP       17 8 40.34                             172    0.0910 19.2 195 
 BAR2 SZ ES       17 8 55.12                             172   -0.1010 19.2 195 
 BAR2 SZ I        17 8 56.65        20.3 0.18            170           19.2 195 
 BRR  HZ EP       17 8 42.15                             151    0.1010 74.1 301 
 BRR  HN ES       17 8 58.79                             151    0.3610 74.1 301 
 BRR  HZ I        17 8 59.64        16.2 0.32            151           74.1 301 
 PAM  SZ EP       17 8 43.15                             149    0.0210 80.3  37 
 PAM  SN ES       17 8 59.91                             149   -0.4510 80.3  37 
 PAM  SZ I        17 9  2.15         7.6 0.48            152           80.3  37 
 RUS  HZ EP       17 8 44.39                             144    0.2010 96.1 176 
 RUS  HZ I        17 8 45.51         3.7 0.10            144           96.1 176 
 RUS  HN ES       17 9  2.60                             144    0.3610 96.1 176 
 SPBC HZ EP       17 8 48.94                             129   -0.11 9  160 220 
 SPBC HN ES       17 9 10.32                             129   -0.57 9  160 220 
 SPBC HZ I        17 9 17.22         7.0 0.28            129            160 220 
                                                                                
