 2011  9 5 1103  4.6 L   6.775 -73.158139.9  RSN  7 0.3 1.8LRSN                1
 GAP=181        0.60       2.7     6.3  6.9  0.1197E+01 -0.3617E+01  0.1674E+01E
 Epicentro: LOS SANTOS - SANTANDER                                             3
 ACTION:UPD 12-07-13 15:55 OP:ep   STATUS:               ID:20110905110304 L   I
 2011-09-05-1101-31S.COL___171                                                 6
 STAT SP IPHASW D HRMM SECON CODA AMPLIT PERI AZIMU VELO AIN AR TRES W  DIS CAZ7
 BAR2 SZ EP       11 3 23.16                             171   -0.2610 20.4 188 
 BAR2 SZ I        11 3 40.25        26.3 0.24                          20.4 188 
 GIR2 SZ EP   1   11 3 23.76                             166    0.16 7 33.8 353 
 BRR  HZ EP       11 3 25.42                             151    0.3410 71.4 301 
 BRR  HZ I        11 3 26.88        18.0 0.06                          71.4 301 
 BRR  HE ES   1   11 3 40.68                             151   -0.41 7 71.4 301 
 RUS  HZ EP       11 3 27.23                             143   -0.3110 98.0 175 
 RUS  HZ I        11 3 28.25         6.2 0.28                          98.0 175 
 RUS  HN ES   1   11 3 45.89                             143    0.42 7 98.0 175 
 OCA  SZ EP   1   11 3 32.61                             128   -0.05 7  163 354 
 OCA  SZ ES   1   11 3 54.81                             128    0.23 7  163 354 
 NOR  SZ EP   2   11 3 39.82                             117    0.16 4  232 235 
 NOR  SN ES   2   11 4  6.95                             117   -0.09 4  232 235 
 CHI  HZ EP   2   11 3 41.44                             116   -0.17 4  246 195 
 CHI  HN ES   1   11 4 10.74                             116    0.23 6  246 195 
 CHI  HZ I        11 4 19.17         3.6 0.39                           246 195 
                                                                                
