 2017  9 5 1222 34.9 L   6.742 -73.065137.4  RSN  4 0.3 0.9LRSN                1
 GAP=150        0.91       4.6     6.9  7.4 -0.8450E+00 -0.3793E+01  0.8096E+00E
 Epicentro: JORDAN - SANTANDER                                                 3
 ACTION:UPD 17-10-05 19:09 OP:rebc STATUS:               ID:20170905122234 L   I
 OLDACT:DUP 17-09-05 23:13 OP:lv   STATUS:               ID:20170905121514d    3
 2017-09-05-1218-00M.COL___426                                                 6
 STAT SP IPHASW D HRMM SECON CODA AMPLIT PERI AZIMU VELO AIN AR TRES W  DIS CAZ7
 BAR2 EZ EP       1222 53.26                             171   -0.1710 21.1 218 
 BAR2 EZ ES       1223  7.59                             171   -0.3310 21.1 218 
 BAR2 EZ I        1223  9.39         3.6 0.24            172           21.1 218 
 PAM  EZ EP       1222 56.23                             149    0.0410 77.4  31 
 PAM  EN ES       1223 12.92                             149    0.0910 77.4  31 
 PAM  EZ I        1223 15.19         1.9 0.42            150           77.4  31 
 BRR  HZ EP       1222 55.24                             147   -0.5510 82.2 299 
 BRR  HN ES       1223 12.58                             147    0.4610 82.2 299 
 RUS  HZ EP       1222 57.80                             144    0.5010 93.9 181 
 RUS  HN ES       1223 14.78                             144   -0.0310 93.9 181 
 RUS  HZ I        1223 17.70         0.9 0.44            145           93.9 181 
                                                                                
