 2015 12 5 1106 24.5 L   6.784 -73.138151.3  RSN  7 0.3 1.7LRSN                1
 GAP=201        0.82       3.0     4.8  5.2  0.2692E+01  0.5659E+01 -0.2172E+01E
 Epicentro: LOS SANTOS - SANTANDER                                             3
 ACTION:UPD 16-02-04 15:02 OP:cam  STATUS:               ID:20151205110624 L   I
 OLDACT:REG 15-12-05 19:34 OP:drio STATUS:               ID:20151205105748     3
 2015-12-05-1057-48M.COL___310                                                 6
 STAT SP IPHASW D HRMM SECON CODA AMPLIT PERI AZIMU VELO AIN AR TRES W  DIS CAZ7
 BAR2 EZ EP     C 11 6 44.67                             171   -0.0710 21.7 193 
 BAR2 EZ ES       11 7  0.25                             171   -0.3010 21.7 193 
 BAR2 EZ I        11 7  1.62         6.5 0.22            167           21.7 193 
 BRR  HZ EP     C 11 6 46.50                             153    0.1810 72.8 299 
 BRR  HN ES       11 7  3.92                             153    0.5710 72.8 299 
 RUS  HZ EP       11 6 49.04                             145    0.3910 98.7 176 
 RUS  HE ES       11 7  7.27                             145   -0.2310 98.7 176 
 RUS  HZ I        11 7  8.29         5.2 0.24            145           98.7 176 
 SPBC HZ EP       11 6 53.72                             130    0.39 9  162 220 
 SPBC HN ES       11 7 15.40                             130   -0.43 9  162 220 
 SPBC HZ I        11 7 20.23         9.3 0.12            129            162 220 
 ZAR  HZ EP       11 6 57.42                             123   -0.02 8  206 293 
 ZAR  HE ES       11 7 22.87                             123   -0.29 8  206 293 
 ZAR  HZ I        11 7 28.70         9.2 0.38            122            206 293 
 NOR  HZ EP       11 7  0.38                             120   -0.12 8  234 235 
 NOR  HE ES       11 7 28.83                             120    0.23 8  234 235 
 NOR  HZ I        11 7 34.38         3.8 0.34            119            234 235 
 SML  HZ EP       11 7  1.06                             118   -0.58 8  246 335 
 SML  HN ES       11 7 30.63                             118    0.01 8  246 335 
                                                                                
