 2014 11 5 1434 32.1 L   6.774 -73.152147.5  RSN  5 0.3 1.7LRSN                1
 GAP=137        0.83       4.5     4.3  6.1 -0.1813E+01  0.3126E+01  0.1091E+01E
 Epicentro: LOS SANTOS - SANTANDER                                             3
 ACTION:UPD 14-12-19 15:39 OP:nd   STATUS:               ID:20141105143432 L   I
 OLDACT:DUP 14-11-06 00:49 OP:carl STATUS:               ID:20141105142749d    3
 2014-11-05-1427-48M.COL___275                                                 6
 STAT SP IPHASW D HRMM SECON CODA AMPLIT PERI AZIMU VELO AIN AR TRES W  DIS CAZ7
 BAR2 SZ IP     C 1434 51.86                             172    0.0310 20.4 190 
 BAR2 SZ ES       1435  7.17                             172   -0.0910 20.4 190 
 BAR2 SZ I        1435  8.26        14.2 0.20            172           20.4 190 
 BRR  HZ IP     C 1434 53.63                             152    0.2010 72.0 301 
 BRR  HN ES       1435 10.68                             152    0.5710 72.0 301 
 BRR  HZ I        1435 15.80        11.6 0.16            151           72.0 301 
 PAM  SZ EP       1434 54.84                             150    0.2310 80.0  39 
 PAM  SN ES       1435 11.69                             150   -0.5110 80.0  39 
 PAM  SZ I        1435 13.44         9.8 0.72            153           80.0  39 
 RUS  HZ EP       1434 55.84                             145    0.0710 97.8 176 
 RUS  HN ES       1435 14.38                             145    0.1110 97.8 176 
 RUS  HZ I        1435 15.30         4.1 0.20            149           97.8 176 
 PTB  HZ EP       1434 58.76                             133   -0.29 9  147 260 
 PTB  HN ES       1435 19.70                             133   -0.41 9  147 260 
 PTB  HZ I        1435 23.74         8.0 0.12            133            147 260 
                                                                                
