 2017  8 5 1849 32.3 L   6.784 -73.146141.4  RSN  7 0.4 1.5LRSN                1
 GAP=137        0.88       4.0     4.3  6.8 -0.4802E+01  0.1294E+02 -0.1461E+01E
 Epicentro: LOS SANTOS - SANTANDER                                             3
 ACTION:UPD 17-09-04 20:16 OP:rebc STATUS:               ID:20170805184932 L   I
 OLDACT:REG 17-08-05 21:09 OP:dhb  STATUS:               ID:20170805184743     3
 2017-08-05-1848-00M.COL___402                                                 6
 STAT SP IPHASW D HRMM SECON CODA AMPLIT PERI AZIMU VELO AIN AR TRES W  DIS CAZ7
 BAR2 EZ EP       1849 50.70                             171   -0.6610 21.6 191 
 BAR2 EZ ES       1850  6.44                             171    0.2110 21.6 191 
 BAR2 EZ I        1850  8.55         6.6 0.18            172           21.6 191 
 PAM  EZ EP       1849 53.96                             150   -0.1710 78.8  39 
 PAM  EE ES       1850 11.34                             150    0.1810 78.8  39 
 PAM  EZ I        1850 15.04         4.3 0.31            152           78.8  39 
 RUS  HZ EP       1849 55.43                             144   -0.0610 98.8 176 
 RUS  HE ES       1850 13.67                             144    0.0910 98.8 176 
 RUS  HZ I        1850 14.80         4.2 0.29            146           98.8 176 
 PTB  HZ EP       1849 58.86                             131   -0.02 9  147 260 
 PTB  HE ES   2   1850 18.12                             131   -1.49 5  147 260 
 PTB  HZ I        1850 20.07         2.8 0.10            133            147 260 
 SPBC HZ EP   2   1850  0.60                             128    0.27 5  162 219 
 SPBC HE ES       1850 22.27                             128    0.08 9  162 219 
 SPBC HZ I        1850 24.46         5.2 0.10            130            162 219 
 ZAR  HE ES       1850 30.13                             121    0.46 9  205 293 
 ZAR  HZ I        1850 31.96         3.8 0.17            123            205 293 
 NOR  HZ EP       1850  8.13                             118    0.47 8  234 235 
 NOR  HN ES       1850 35.24                             118   -0.00 8  234 235 
 NOR  HZ I        1850 40.17         3.1 0.28            120            234 235 
                                                                                
