 2015  4 5 1821 29.4 L   6.789 -73.134146.9  RSN  9 0.6 1.6LRSN                1
 GAP=139        1.43       5.0     5.8  8.1 -0.3301E+01  0.1681E+02 -0.1752E+01E
 Epicentro: LOS SANTOS - SANTANDER                                             3
 ACTION:UPD 15-06-03 16:52 OP:cam  STATUS:               ID:20150405182129 L   I
 OLDACT:REG 15-04-05 21:18 OP:fm   STATUS:               ID:20150405181750     3
 2015-04-05-1817-50M.COL___276                                                 6
 STAT SP IPHASW D HRMM SECON CODA AMPLIT PERI AZIMU VELO AIN AR TRES W  DIS CAZ7
 BAR2 EZ EP       1821 48.77                             171   -0.4110 22.4 194 
 BAR2 EZ ES       1822  3.70                             171   -0.8810 22.4 194 
 BAR2 EZ I        1822  7.50         6.9 0.18            170           22.4 194 
 BRR  HZ EP       1821 51.63                             152    0.8210 73.0 299 
 BRR  HN ES       1822  8.17                             152    0.7010 73.0 299 
 BRR  HZ I        1822 12.19         5.7 0.46            151           73.0 299 
 PAM  SZ EP       1821 52.49                             151    0.7110 77.5  38 
 PAM  SN ES       1822  8.78                             151   -0.4210 77.5  38 
 PAM  SZ I        1822 12.19         5.9 0.68            156           77.5  38 
 RUS  HZ EP       1821 54.06                             144    0.8610 99.2 177 
 RUS  HE ES       1822 11.78                             144    0.0510 99.2 177 
 RUS  HZ I        1822 15.30         2.0 0.32            148           99.2 177 
 PTB  HZ EP       1821 56.35                             132   -0.24 9  149 259 
 PTB  HE ES       1822 17.61                             132   -0.16 9  149 259 
 PTB  HZ I        1822 24.99         7.1 0.38            133            149 259 
 ZAR  HZ EP       1822  1.42                             122   -0.71 8  206 292 
 ZAR  HN ES       1822 28.38                             122    0.75 8  206 292 
 ZAR  HZ I        1822 33.88         4.7 0.38            124            206 292 
 NOR  HZ EP       1822  5.05                             119   -0.22 8  235 235 
 NOR  HN ES       1822 32.98                             119   -0.24 8  235 235 
 NOR  HZ I        1822 39.45         2.3 0.32            121            235 235 
 SML  HZ EP       1822  5.71                             117   -0.60 8  245 335 
 SML  HN ES       1822 34.65                             117   -0.42 8  245 335 
 SML  HZ I        1822 37.96         5.0 0.10            120            245 335 
 GUY2CHZ EP       1822 12.53                             112   -0.61 7  302 235 
 GUY2CHN ES       1822 47.49                             112    0.27 7  302 235 
 GUY2CHZ I        1822 58.56         1.7 0.50                           302 235 
                                                                                
