 2013  2 5 1809 26.1 L   6.807 -73.138144.9  RSN  7 0.3 1.9LRSN                1
 GAP=137        0.58       2.5     3.9  5.8  0.2231E+01  0.4391E+01  0.2930E+01E
 Epicentro: LOS SANTOS - SANTANDER                                             3
 ACTION:UPD 13-03-12 09:30 OP:ep   STATUS:               ID:20130205180926 L   I
 2013-02-05-1804-51M.COL___191                                                 6
 STAT SP IPHASW D HRMM SECON CODA AMPLIT PERI AZIMU VELO AIN AR TRES W  DIS CAZ7
 BAR2 SZ EP   1   18 9 45.02                             170   -0.64 7 24.2 192 
 BAR2 SZ I        1810  2.31        13.8 0.55            167           24.2 192 
 BRR  HZ EP       18 9 47.47                             152    0.2810 71.6 298 
 BRR  HN ES   1   1810  3.56                             152   -0.07 7 71.6 298 
 BRR  HN I        1810  5.92        19.4 0.14            150           71.6 298 
 PAM  SZ EP       18 9 48.39                             151    0.2210 76.3  39 
 PAM  SZ I        18 9 48.83        11.4 0.19            152           76.3  39 
 PAM  SN ES   1   1810  5.33                             151   -0.05 7 76.3  39 
 RUS  HZ EP   1   18 9 49.95                             143    0.12 7  101 177 
 RUS  HE ES   1   1810  8.35                             143    0.02 7  101 177 
 RUS  HE I        1810  9.30        11.7 0.50            141            101 177 
 ZAR  HE ES   1   1810 23.92                             122    0.06 6  205 292 
 ZAR  HE I        1810 29.77        13.4 0.23            120            205 292 
 SML  HE ES       1810 31.01                             117   -0.15 8  243 335 
 SML  HZ I        1810 33.59         8.5 0.18            116            243 335 
 CHI  HZ EP       1810  3.59                             117   -0.28 8  250 195 
 CHI  HE ES   1   1810 33.61                             117    0.29 6  250 195 
 CHI  HE I        1810 37.71         3.1 0.71            115            250 195 
                                                                                
