 2015  4 5 1149 20.9 L   6.782 -73.126157.8  RSN  4 0.4 1.5LRSN                1
 GAP=140        0.99       4.7     6.5  9.9  0.5787E+01  0.2815E+02 -0.8199E+01E
 Epicentro: LOS SANTOS - SANTANDER                                             3
 ACTION:UPD 15-06-03 16:52 OP:cam  STATUS:               ID:20150405114920 L   I
 OLDACT:REG 15-04-05 20:35 OP:fm   STATUS:               ID:20150405114749     3
 2015-04-05-1147-49M.COL___279                                                 6
 STAT SP IPHASW D HRMM SECON CODA AMPLIT PERI AZIMU VELO AIN AR TRES W  DIS CAZ7
 PAM  SZ EP       1149 44.68                             153    0.2210 77.6  37 
 PAM  SN ES       1150  3.07                             153    0.2710 77.6  37 
 PAM  SZ I        1150  5.41         5.2 0.50            158           77.6  37 
 RUS  HZ EP       1149 45.39                             147   -0.3610 98.5 177 
 RUS  HN ES       1150  4.95                             147   -0.1510 98.5 177 
 RUS  HZ I        1150  7.50         1.8 0.24            151           98.5 177 
 ZAR  HZ EP       1149 55.17                             125    0.70 8  207 292 
 ZAR  HN ES       1150 20.79                             125    0.16 8  207 292 
 ZAR  HZ I        1150 29.40         3.8 0.26            126            207 292 
 SML  HZ EP       1149 58.45                             120   -0.11 8  246 335 
 SML  HE ES       1150 27.04                             120   -0.86 8  246 335 
 SML  HZ I        1150 30.34         4.0 0.24            123            246 335 
                                                                                
