 2012  6 5 1735 46.8 L   6.778 -73.159141.4  RSN  8 0.4 2.0LRSN                1
 GAP=136        0.72       3.8     3.9  6.4 -0.2435E+01  0.6214E+01  0.3752E+01E
 Epicentro: LOS SANTOS - SANTANDER                                             3
 ACTION:UPD 12-08-06 17:47 OP:ep   STATUS:               ID:20120605173554 L   I
 2012-06-05-1730-00M.COL___201                                                 6
 STAT SP IPHASW D HRMM SECON CODA AMPLIT PERI AZIMU VELO AIN AR TRES W  DIS CAZ7
 BAR2 SZ EP       1736  5.89                             171    0.0510 20.7 187 
 BAR2 SZ ES   1   1736 20.52                             171   -0.19 7 20.7 187 
 BAR2 SZ I        1736 23.00        20.6 0.25            164           20.7 187 
 PAM  SZ EP       1736  8.77                             149    0.0610 80.1  39 
 PAM  SN ES   1   1736 25.72                             149   -0.09 7 80.1  39 
 RUS  HZ EP   1   1736 10.03                             143    0.08 7 98.3 175 
 RUS  HN ES   1   1736 28.43                             143    0.42 7 98.3 175 
 RUS  HZ I        1736 29.26        12.1 0.20            130           98.3 175 
 PTB  HZ EP   1   1736 12.52                             131   -0.71 7  146 260 
 PTB  HN ES   1   1736 33.29                             131   -0.57 7  146 260 
 PTB  HZ I        1736 34.99         8.4 0.13            118            146 260 
 ZAR  HN ES   1   1736 44.70                             121    0.73 6  204 293 
 ZAR  HZ I        1736 52.08         6.7 0.29            111            204 293 
 NOR  SN ES   1   1736 49.87                             118    0.42 6  232 235 
 CHI  HZ EP   1   1736 24.09                             116    0.14 6  246 195 
 CHI  HN ES   1   1736 52.63                             116   -0.31 6  246 195 
 CHI  HZ I        1736 56.47         3.9 0.43            107            246 195 
 PRA  HZ EP   1   1736 39.88                             106    0.05 4  389 210 
 PRA  HZ I        1737 26.69         9.8 0.28            100            389 210 
                                                                                
