 2017  7 5 1958 44.0 L   6.523 -73.447129.7  RSN  6 0.4 1.6LRSN                1
 GAP=161        0.98       5.9     4.7  8.5 -0.1294E+02  0.1768E+02 -0.7187E+01E
 Epicentro: SIMACOTA - SANTANDER                                               3
 ACTION:UPD 17-08-30 15:30 OP:rebc STATUS:               ID:20170705195844 L   I
 OLDACT:UP  17-07-05 23:58 OP:osc  STATUS:               ID:20170705194741     3
 OLDACT:REG 17-07-05 22:34 OP:ar   STATUS:               ID:20170705194741     3
 2017-07-05-1948-00M.COL___380                                                 6
 STAT SP IPHASW D HRMM SECON CODA AMPLIT PERI AZIMU VELO AIN AR TRES W  DIS CAZ7
 BAR2 EZ EP       1959  2.61                             166    0.7110 30.2  75 
 BAR2 EZ ES       1959 15.31                             166   -0.5310 30.2  75 
 BAR2 EZ I        1959 16.34        17.6 0.34            168           30.2  75 
 PTB  HZ EP   3   1959  5.50                             136   -0.96 2  112 271 
 PTB  HN ES   4   1959 20.44                             136   -3.52 0  112 271 
 PTB  HZ I        1959 25.44         3.9 0.14            137            112 271 
 PAM  EZ EP       1959  7.63                             134   -0.4010  122  42 
 PAM  EN ES       1959 27.06                             134    0.3110  122  42 
 ZAR  HZ EP       1959 13.69                             120   -0.20 9  189 305 
 ZAR  HN ES       1959 37.25                             120    0.06 9  189 305 
 NOR  HZ EP       1959 13.80                             120   -0.22 9  190 236 
 NOR  HE ES       1959 37.73                             120    0.31 9  190 236 
 NOR  HZ I        1959 39.88         4.0 0.14            121            190 236 
 GUY2CHZ EP   9   1959 23.22                             112    1.39 0  256 236 
 GUY2CHE ES       1959 52.32                                   -0.39 8  256 236 
 GUY2CHZ I        1959 57.66         1.8 0.28                           256 236 
                                                                                
