 2014 10 5 1254 42.4 L   6.612 -73.358122.2  RSN 11 0.6 1.7LRSN                1
 GAP= 63        1.37       4.2     5.3  9.5 -0.1235E+01  0.1051E+02 -0.6493E+00E
 Epicentro: GALAN - SANTANDER                                                  3
 ACTION:UPD 14-11-29 23:47 OP:nd   STATUS:               ID:20141005125442 L   I
 OLDACT:REG 14-10-05 20:31 OP:fm   STATUS:               ID:20141005124747     3
 2014-10-05-1247-47M.COL___289                                                 6
 STAT SP IPHASW D HRMM SECON CODA AMPLIT PERI AZIMU VELO AIN AR TRES W  DIS CAZ7
 BAR2 SZ EP       1254 59.32                             170    0.2110 19.5  97 
 BAR2 SZ ES   1   1255 11.76                             170   -0.39 7 19.5  97 
 BAR2 SZ I        1255 13.23         8.9 0.60            173           19.5  97 
 BRR  HZ EP     C 1255  1.40                             149    0.6110 67.3 324 
 BRR  HN ES       1255 16.45                             149    1.3010 67.3 324 
 BRR  HZ I        1255 17.34        19.5 0.24            149           67.3 324 
 RUS  HZ EP       1255  2.93                             143    0.2210 85.2 159 
 RUS  HE ES       1255 18.18                             143   -0.3910 85.2 159 
 RUS  HZ I        1255 19.99         3.9 0.16            143           85.2 159 
 PAM  SZ EP       1255  4.60                             136    0.0510  108  42 
 PAM  SE ES       1255 21.46                             136   -0.3810  108  42 
 PAM  SZ I        1255 24.56         9.2 0.40            138            108  42 
 PTB  HZ EP       1255  4.56                             132   -0.5210  122 266 
 PTB  HE ES       1255 21.81                             132   -0.9610  122 266 
 PTB  HZ I        1255 22.83        10.7 0.16            131            122 266 
 SPBC HZ EP       1255  6.30                             129    0.1410  132 217 
 SPBC HN ES   1   1255 24.66                             129   -0.04 7  132 217 
 SPBC HZ I        1255 29.45         7.6 0.30            129            132 217 
 OCA  HN ES   1   1255 32.57                             120   -0.78 7  180   1 
 OCA  HZ I        1255 34.38         9.8 0.16            121            180   1 
 ZAR  HZ EP   1   1255 12.33                             118    0.20 7  192 301 
 ZAR  HN ES   1   1255 35.65                             118    0.32 7  192 301 
 ZAR  HZ I        1255 42.97         7.2 0.30            118            192 301 
 CHI  HN ES   1   1255 42.93                             115    0.65 6  223 191 
 CHI  HZ I        1255 48.97         1.4 0.36            114            223 191 
 SML  HN ES   1   1255 46.92                             111   -0.70 6  255 342 
 SML  HZ I        1255 48.86         7.8 0.18            111            255 342 
 GUY2CHZ EP   4   1255 23.11                             110    1.69 0  270 235 
 GUY2CHN ES   4   1255 55.86                             110    3.99 0  270 235 
 GUY2CHZ I        1255 58.89         2.2 0.60                           270 235 
                                                                                
