 2011  9 5 1243 46.7 L   6.389 -73.322148.6  RSN  4 0.3 1.7LRSN                1
 GAP=271        0.68      24.9    15.6 10.2  0.3423E+03  0.9534E+02  0.1357E+03E
 Epicentro: PALMAS SOCORRO - SANTANDER                                         3
 ACTION:UPD 12-07-13 15:55 OP:ep   STATUS:               ID:20110905124346 L   I
 2011-09-05-1242-10S.COL___170                                                 6
 STAT SP IPHASW D HRMM SECON CODA AMPLIT PERI AZIMU VELO AIN AR TRES W  DIS CAZ7
 BAR2 SZ EP   1   1244  6.55                             169   -0.25 7 27.3  35 
 BAR2 SZ ES   1   1244 22.47                             169    0.02 7 27.3  35 
 BAR2 SZ I        1244 24.66         8.3 0.35                          27.3  35 
 GIR2 SZ EP   2   1244  8.25                             151   -0.52 5 77.6  11 
 BRR  HZ EP       1244  9.87                             147    0.5010 90.3 332 
 BRR  HZ I        1244 10.33         9.4 0.11                          90.3 332 
 BRR  HE ES   1   1244 26.83                             147   -0.19 7 90.3 332 
 ZAR  HZ EP   2   1244 19.37                             122   -0.51 4  209 306 
 ZAR  HE ES   1   1244 45.63                             122   -0.10 6  209 306 
                                                                                
