 2012  5 5 1231 39.0 L   6.744 -73.139144.2  RSN  5 0.3 1.5LRSN                1
 GAP=160        0.83      11.8     5.3 11.8 -0.2443E+02 -0.7180E+01  0.6102E+02E
 Epicentro: JORDAN - SANTANDER                                                 3
 ACTION:UP  12-07-05 12:02 OP:pat  STATUS:               ID:20120505123139 L   I
 2012-05-05-1230-00M.COL___192                                                 6
 STAT SP IPHASW D HRMM SECON CODA AMPLIT PERI AZIMU VELO SNR AR TRES W  DIS CAZ7
 BAR2 SZ EP   1   1231 58.47                             173     0.2 7   18 196 
 BAR2 SZ I        1232 14.71         6.1 0.31                            18 196 
 BRR  HZ EP   1   1232  0.44                             151     0.3 7   75 302 
 BRR  HN ES   1   1232 17.27                             151     0.6 7   75 302 
 BRR  HZ I        1232 19.09         8.3 0.30                            75 302 
 PAM  SZ EP       1232  1.37                             149     0.110   82  36 
 PAM  SN ES   1   1232 18.18                             149    -0.5 7   82  36 
 PTB  HZ EP   1   1232  5.59                             132    -0.2 7  147 261 
 PTB  HN ES   1   1232 26.30                             132    -0.4 7  147 261 
 PTB  HZ I        1232 29.13         1.8 0.24                           147 261 
 ZAR  HN ES   1   1232 36.94                             121    -0.2 6  207 294 
 ZAR  HZ I        1232 42.31         3.8 0.31                           207 294 
                                                                                
