 2012  8 5 1325 49.4 L   6.766 -73.158142.5  RSN  7 0.4 1.6LRSN                1
 GAP=136        0.83       5.4     5.1  8.6 -0.2148E+01  0.3821E+01  0.6516E+01E
 Epicentro: LOS SANTOS - SANTANDER                                             3
 ACTION:UPD 12-09-10 11:54 OP:ep   STATUS:               ID:20120805132549 L   I
 2012-08-05-1320-00M.COL___216                                                 6
 STAT SP IPHASW D HRMM SECON CODA AMPLIT PERI AZIMU VELO AIN AR TRES W  DIS CAZ7
 BAR2 SZ EP       1326  8.36                             172   -0.2010 19.4 188 
 BAR2 SZ I        1326 24.33        11.2 0.26                          19.4 188 
 BRR  HZ EP       1326 10.35                             152    0.1210 71.9 302 
 BRR  HZ I        1326 10.58        13.2 0.28                          71.9 302 
 BRR  HN ES   1   1326 27.30                             152    0.81 7 71.9 302 
 PAM  SZ EP       1326 11.32                             149   -0.1810 81.2  39 
 PAM  SN ES   1   1326 28.34                             149   -0.40 7 81.2  39 
 PAM  SZ I        1326 30.24         4.2 0.24                          81.2  39 
 RUS  HZ EP       1326 12.83                             144    0.2710 96.9 175 
 RUS  HN ES   1   1326 30.71                             144    0.08 7 96.9 175 
 RUS  HZ I        1326 31.87         4.0 0.30                          96.9 175 
 PTB  HZ EP       1326 16.09                             132    0.18 9  146 260 
 PTB  HN ES   1   1326 35.76                             132   -0.83 7  146 260 
 PTB  HZ I        1326 38.96         4.9 0.10                           146 260 
 ZAR  HN ES   3   1326 46.48                             122   -0.33 2  204 293 
 ZAR  HZ I        1326 52.44         6.7 0.30                           204 293 
 GUY  SZ EP   3   1326 32.02                             112   -0.72 2  300 236 
                                                                                
