 2013  8 5 1145 12.6 L   6.543 -73.578111.0  RSN  9 0.5 1.8LRSN                1
 GAP= 90        1.01       3.3     3.8  7.5  0.7323E-01  0.1226E+02 -0.1814E+01E
 Epicentro: EL CARMEN DE CHUCURI - SANTANDER                                   3
 ACTION:UPD 14-01-14 08:59 OP:ep   STATUS:               ID:20130805114512 L   I
 OLDACT:REG 13-08-05 17:39 OP:carl STATUS:               ID:20130805113959     3
 2013-08-05-1139-59M.COL___270                                                 6
 STAT SP IPHASW D HRMM SECON CODA AMPLIT PERI AZIMU VELO AIN AR TRES W  DIS CAZ7
 BAR2 SZ IP     C 1145 28.85                             157    0.0310 44.1  83 
 BAR2 SZ ES   1   1145 41.13                             157   -0.36 7 44.1  83 
 BAR2 SZ I        1145 42.66        74.4 0.32            167           44.1  83 
 BRR  HN ES   1   1145 43.48                             148    0.59 7 64.1 347 
 BRR  HN I        1145 49.61        25.8 0.16            150           64.1 347 
 GIR2 SZ EP       1145 30.48                             144    0.0710 72.9  36 
 GIR2 SZ ES   1   1145 44.30                             144   -0.03 7 72.9  36 
 GIR2 SZ I        1145 45.24        10.4 0.36            151           72.9  36 
 RUS  HZ EP       1145 31.92                             138   -0.3210 90.4 143 
 RUS  HN ES       1145 47.96                             138    0.3810 90.4 143 
 RUS  HZ I        1145 49.03         5.7 0.40            148           90.4 143 
 PTB  HZ EP       1145 31.60                             136   -0.5410 97.1 270 
 PTB  HN ES   1   1145 46.49                             136   -0.91 7 97.1 270 
 PTB  HZ I        1145 51.73         9.4 0.18            137           97.1 270 
 ZAR  HZ EP   1   1145 39.14                             118   -0.80 7  176 307 
 ZAR  HN ES       1146  1.64                             118    0.35 9  176 307 
 ZAR  HZ I        1146  9.56         9.0 0.28            122            176 307 
 NOR  HZ EP   1   1145 40.44                             117    0.09 7  179 233 
 NOR  HE ES   1   1146  2.15                             117    0.14 7  179 233 
 NOR  HZ I        1146  6.43         7.6 0.20            122            179 233 
 GUY2CHZ EP   4   1145 50.61                             109    2.26 0  246 234 
 GUY2CHE ES       1146 17.08                             109    0.82 8  246 234 
 SML  HZ EP       1145 48.85                             108   -0.03 8  256 348 
 SML  HN ES       1146 17.62                             108    0.42 8  256 348 
                                                                                
