 2010  2 5 1120 28.1 L   6.806 -73.211136.9  RSN  6 0.5 1.7LRSN                1
 GAP=168        0.97       6.2    16.8 11.5 -0.1929E+01  0.1017E+03  0.2015E+02E
 Epicentro: ZAPATOCA - SANTANDER                                               3
 ACTION:UP  10-08-24 09:47 OP:vdl  STATUS:               ID:20100205112028 L   I
 2010-02-05-1119-12S.COL___094                                                 6
 STAT SP IPHASW D HRMM SECON CODA AMPLIT PERI AZIMU VELO SNR AR TRES W  DIS CAZ7
 BAR2 SZ IP       1120 46.35                             170    -0.310   24 173 
 BAR2 SZ ES   1   1121  0.54                             170    -0.6 7   24 173 
 GIR2 SZ EP   1   1120 47.44                             167     0.8 7   30   4 
 GIR2 SZ ES   2   1121  1.96                             167     0.8 5   30   4 
 RUS  BZ EP   2   1120 50.31                             141    -0.8 5  102 172 
 RUS  BZ I        1120 51.58         6.1 0.16                           102 172 
 RUS  BE ES   2   1121  9.40                             141     0.4 5  102 172 
 CHI  HZ EP   1   1121  4.92                             115    -0.2 6  247 194 
 CHI  HE ES       1121 34.42                             115     0.3 8  247 194 
 CHI  HZ I        1121 40.81         2.6 0.74                           247 194 
 MON  HE ES   2   1121 52.87                             107    -0.5 3  347 309 
 PRA  HZ EP   2   1121 21.29                             105     0.3 3  389 209 
 PRA  HE ES   2   1122  2.53                             105     0.3 3  389 209 
 PRA  HZ I        1122  7.94         3.9 0.73                           389 209 
                                                                                
