 2014  3 5 1156 26.5 L   6.408 -73.698  4.0  RSN  4 0.3 1.6LRSN                1
 GAP=150        0.70       4.8     3.1  9.1  0.1071E+02  0.2034E+02  0.3099E+02E
 Epicentro: SANTA HELENA DEL OPON - SANTANDER                                  3
 ACTION:UPD 14-04-09 23:14 OP:nd   STATUS:               ID:20140305115626 L   I
 OLDACT:DUP 14-03-05 16:27 OP:stll STATUS:               ID:20140305114817d    3
 2014-03-05-1148-15M.COL___226                                                 6
 STAT SP IPHASW D HRMM SECON CODA AMPLIT PERI AZIMU VELO AIN AR TRES W  DIS CAZ7
 BAR2 SZ EP       1156 36.14                              47   -0.3410 60.6  70 
 BAR2 SZ I        1156 46.31         7.8 0.54             47           60.6  70 
 PTB  HN ES       1156 50.44                              47   -0.0610 85.1 280 
 RUS  HZ EP       1156 41.37                              47    0.3510 88.8 130 
 RUS  HN ES       1156 52.20                              47   -0.1710 88.8 130 
 PAM  SZ EP       1156 50.70                              47    0.26 9  151  47 
 PAM  SZ I        1157 13.84        40.5 1.12             37            151  47 
                                                                                
