 2016  8 5 1136  6.1 L   6.817 -73.131147.6  RSN  7 0.4 1.6LRSN                1
 GAP=137        1.03       5.2     5.2  7.0  0.6754E+01  0.3577E+01  0.3551E+01E
 Epicentro: LOS SANTOS - SANTANDER                                             3
 ACTION:UPD 16-10-29 15:32 OP:rebc STATUS:               ID:20160805113606 L   I
 OLDACT:UP  16-08-05 21:44 OP:dani STATUS:               ID:20160805112759     3
 OLDACT:UP  16-08-05 21:43 OP:dani STATUS:               ID:20160805112759     3
 OLDACT:UP  16-08-05 21:42 OP:dani STATUS:               ID:20160805112759     3
 OLDACT:UP  16-08-05 21:41 OP:dani STATUS:               ID:20160805112759     3
 OLDACT:REG 16-08-05 19:59 OP:dani STATUS:               ID:20160805112759     3
 2016-08-05-1127-59S.COL___337                                                 6
 STAT SP IPHASW D HRMM SECON CODA AMPLIT PERI AZIMU VELO AIN AR TRES W  DIS CAZ7
 BAR2 EZ EP       1136 25.93                             170   -0.0510 25.5 193 
 BAR2 EZ ES       1136 41.06                             170   -0.4410 25.5 193 
 BAR2 EZ I        1136 42.44        13.0 0.22                          25.5 193 
 BRR  HZ EP       1136 27.78                             153    0.3110 71.7 297 
 BRR  HN ES       1136 44.64                             153    0.5010 71.7 297 
 BRR  HZ I        1136 45.22        11.4 0.30                          71.7 297 
 PAM  EZ EP       1136 28.79                             152    0.4410 74.9  40 
 PAM  EZ I        1136 46.55         4.2 0.16                          74.9  40 
 RUS  HZ EP       1136 29.90                             144   -0.2510  102 177 
 RUS  HN ES       1136 48.89                             144   -0.0310  102 177 
 RUS  HZ I        1136 50.01         3.6 0.26                           102 177 
 PTB  HZ EP       1136 32.68                             132   -0.70 9  150 258 
 PTB  HE ES       1136 54.62                             132   -0.05 9  150 258 
 PTB  HZ I        1136 59.33         2.9 0.24                           150 258 
 ZAR  HN ES       1137  3.91                             123   -0.28 9  205 291 
 ZAR  HZ I        1137  9.92         5.6 0.32                           205 291 
 PRA  HZ EP       1136 59.91                             107   -0.05 6  394 210 
 PRA  HN ES       1137 43.13                             107    1.15 6  394 210 
 PRA  HZ I        1137 46.31         2.5 0.52                           394 210 
                                                                                
