 2016 11 5 1150 18.4 L   6.794 -73.170139.4  RSN 11 0.6 2.1LRSN                1
 GAP=143        1.43       5.4     5.6  8.1 -0.5742E+01  0.1031E+02  0.1440E+02E
 Epicentro: LOS SANTOS - SANTANDER                                             3
 ACTION:UPD 17-10-26 21:04 OP:lp   STATUS:               ID:20161105115018 L   I
 OLDACT:REG 16-11-05 19:50 OP:cog  STATUS:               ID:20161105114746     3
 2016-11-05-1148-00M.COL___337                                                 6
 STAT SP IPHASW D HRMM SECON CODA AMPLIT PERI AZIMU VELO AIN AR TRES W  DIS CAZ7
 BAR2 EZ IP     C 1150 37.17                             170   -0.1210 22.4 183 
 BAR2 EZ ES       1150 51.30                             170   -0.6910 22.4 183 
 BAR2 EZ I        1150 53.41        36.4 0.24            170           22.4 183 
 BRR  HZ EP       1150 38.95                             152    0.1610 69.1 300 
 BRR  HN ES       1150 55.54                             152    0.8810 69.1 300 
 BRR  HZ I        1151  0.99        20.1 0.18            149           69.1 300 
 PAM  EZ EP       1150 40.11                             149   -0.0110 79.6  41 
 PAM  EE ES       1150 57.27                             149    0.2310 79.6  41 
 PAM  EZ I        1150 59.36        19.2 0.44            154           79.6  41 
 PTB  HZ EP       1150 43.74                             131   -0.90 9  145 259 
 PTB  HN ES       1151  4.83                             131   -0.25 9  145 259 
 PTB  HZ I        1151 12.12        14.4 0.31            131            145 259 
 SPBC HZ EP   2   1150 46.04                             128   -0.21 5  161 218 
 SPBC HE ES       1151  8.42                             128    0.48 9  161 218 
 ZAR  HZ EP       1150 49.91                             121   -0.33 9  202 293 
 ZAR  HN ES       1151 14.45                             121   -0.60 9  202 293 
 ZAR  HZ I        1151 24.00        11.8 0.25            122            202 293 
 NOR  HZ EP       1150 52.70                             117   -0.83 8  232 234 
 NOR  HN ES       1151 20.64                             117   -0.26 8  232 234 
 NOR  HZ I        1151 25.87         9.2 0.30            119            232 234 
 CHI  HZ EP       1150 55.12                             116   -0.53 8  247 195 
 CHI  HE ES       1151 24.76                             116    0.09 8  247 195 
 CHI  HZ I        1151 28.14         7.2 0.38            119            247 195 
 ROSC BZ EP       1150 57.30                             115    1.30 8  251 211 
 HEL  HZ EP       1150 59.55                             114    1.53 8  269 256 
 HEL  HN ES       1151 29.26                             114    0.36 8  269 256 
 HEL  HZ I        1151 34.84         6.7 0.52            115            269 256 
 ORTC HZ EP       1151 11.84                             105   -0.06 6  393 216 
 ORTC HN ES       1151 53.54                             105   -0.06 6  393 216 
 ORTC HZ I        1151 58.50         3.2 0.29            107            393 216 
                                                                                
