 2011 10 5 1134 38.2 L   6.826 -73.138130.5  RSN  5 0.4 1.5LRSN                1
 GAP=136        0.72       4.6     5.0  7.6  0.4602E+01  0.5420E+01  0.1679E+00E
 Epicentro: LOS SANTOS - SANTANDER                                             3
 ACTION:UPD 12-07-13 16:02 OP:ep   STATUS:               ID:20111005113438 L   I
 2011-10-05-1131-01S.COL___170                                                 6
 STAT SP IPHASW D HRMM SECON CODA AMPLIT PERI AZIMU VELO AIN AR TRES W  DIS CAZ7
 BAR2 SZ EP   1   1134 56.05                             168   -0.01 7 26.3 191 
 BAR2 SZ ES   1   1135  9.40                             168   -0.60 7 26.3 191 
 BAR2 SZ I        1135 12.43        10.4 0.30                          26.3 191 
 BRR  HZ EP   1   1134 58.12                             150    0.45 7 70.6 296 
 BRR  HN ES   1   1135 13.28                             150    0.41 7 70.6 296 
 BRR  HZ I        1135 16.05        12.9 0.13                          70.6 296 
 PAM  SZ EP   1   1134 58.49                             149   -0.14 7 74.6  40 
 PAM  SZ I        1135 11.93         3.4 0.39                          74.6  40 
 PAM  SN ES   1   1135 14.64                             149    0.07 7 74.6  40 
 RUS  HZ EP   1   1135  0.49                             140   -0.21 7  103 177 
 RUS  HZ I        1135  1.60         4.4 0.15                           103 177 
 RUS  HN ES   1   1135 18.62                             140    0.37 7  103 177 
 ZAR  HN ES   1   1135 33.75                             119   -0.45 6  204 291 
                                                                                
