 2017  5 5 1058 20.5 L   6.776 -73.211155.5  RSN  5 0.6 1.6LRSN                1
 GAP=130        0.79       5.5     6.7  7.4  0.1278E+02 -0.3219E+01 -0.5472E+01E
 Epicentro: ZAPATOCA - SANTANDER                                               3
 ACTION:UPD 17-06-16 13:33 OP:jn   STATUS:               ID:20170505105820 L   I
 OLDACT:UP  17-05-05 21:37 OP:and  STATUS:               ID:20170505105744     3
 OLDACT:UP  17-05-05 21:37 OP:and  STATUS:               ID:20170505105744     3
 OLDACT:UP  17-05-05 21:37 OP:and  STATUS:               ID:20170505105744     3
 OLDACT:UP  17-05-05 21:36 OP:and  STATUS:               ID:20170505105744     3
 OLDACT:UP  17-05-05 21:36 OP:and  STATUS:               ID:20170505105744     3
 OLDACT:UP  17-05-05 21:36 OP:and  STATUS:               ID:20170505105744     3
 OLDACT:UP  17-05-05 21:36 OP:and  STATUS:               ID:20170505105744     3
 OLDACT:UP  17-05-05 21:36 OP:and  STATUS:               ID:20170505105744     3
 OLDACT:UP  17-05-05 21:36 OP:and  STATUS:               ID:20170505105744     3
 OLDACT:UP  17-05-05 21:35 OP:and  STATUS:               ID:20170505105744     3
 OLDACT:UP  17-05-05 21:35 OP:and  STATUS:               ID:20170505105744     3
 OLDACT:UP  17-05-05 21:34 OP:and  STATUS:               ID:20170505105744     3
 OLDACT:REG 17-05-05 20:23 OP:and  STATUS:               ID:20170505105744     3
 2017-05-05-1058-00M.COL___370                                                 6
 STAT SP IPHASW D HRMM SECON CODA AMPLIT PERI AZIMU VELO AIN AR TRES W  DIS CAZ7
 BRR  HZ EP       1058 42.48                             156    0.0510 66.4 304 
 BRR  HN ES       1058 59.99                             156    0.4310 66.4 304 
 BRR  HZ I        1059  0.79         6.1 0.11            151           66.4 304 
 PAM  EZ IP     C 1058 44.00                             151   -0.1310 84.2  42 
 PAM  EN ES   3   1059  1.11                             151   -1.47 2 84.2  42 
 PAM  EZ I        1059  2.89         7.0 0.20            157           84.2  42 
 RUS  HZ EP       1058 45.17                             147    0.1110 98.7 172 
 RUS  HN ES       1059  4.28                             147    0.0410 98.7 172 
 RUS  HZ I        1059  6.24         5.1 0.22            147           98.7 172 
 PTB  HZ EP       1058 47.16                             136   -0.43 9  140 259 
 PTB  HN ES   3   1059  7.41                             136   -1.33 2  140 259 
 PTB  HZ I        1059 16.13         5.2 0.38            133            140 259 
 ZAR  HZ EP   2 C 1058 53.68                             126    0.67 4  198 294 
 ZAR  HN ES   3   1059 16.70                             126   -1.68 2  198 294 
 ZAR  HZ I        1059 25.00         6.4 0.56            124            198 294 
                                                                                
