 2016  4 5 1313 43.1 L   6.742 -73.157140.2  RSN  5 0.3 1.5LRSN                1
 GAP=138        0.87       4.5     4.0  6.8 -0.4042E+00  0.1040E+02 -0.5252E+01E
 Epicentro: LOS SANTOS - SANTANDER                                             3
 ACTION:UPD 16-05-05 14:18 OP:rebc STATUS:               ID:20160405131343 L   I
 OLDACT:REG 16-04-05 21:07 OP:drio STATUS:               ID:20160405130744     3
 2016-04-05-1307-44M.COL___303                                                 6
 STAT SP IPHASW D HRMM SECON CODA AMPLIT PERI AZIMU VELO AIN AR TRES W  DIS CAZ7
 BAR2 EZ EP       1314  2.20                             173    0.2810 16.8 190 
 BAR2 EZ ES       1314 16.74                             173    0.1210 16.8 190 
 BAR2 EZ I        1314 18.13         8.4 0.40            173           16.8 190 
 PAM  EZ EP       1314  5.20                             148    0.1410 83.1  37 
 PAM  EE ES       1314 21.98                             148   -0.2410 83.1  37 
 PAM  EZ I        1314 24.42         6.8 0.64            151           83.1  37 
 RUS  HZ EP       1314  6.03                             144    0.2110 94.3 175 
 RUS  HN ES       1314 23.38                             144   -0.1910 94.3 175 
 RUS  HZ I        1314 25.92         3.3 0.30            148           94.3 175 
 PTB  HZ EP       1314  9.49                             131    0.11 9  145 261 
 PTB  HN ES       1314 29.59                             131   -0.31 9  145 261 
 PTB  HZ I        1314 33.14         5.8 0.12            132            145 261 
 ZAR  HZ EP       1314 14.53                             121   -0.78 8  205 294 
 ZAR  HN ES       1314 41.04                             121    0.59 8  205 294 
 ZAR  HZ I        1314 47.21         4.5 0.26            122            205 294 
                                                                                
