 2012  2 5 1149 13.9 L   6.748 -73.150143.6  RSN 11 0.3 2.7LRSN                1
 GAP=138        0.65       2.6     3.5  4.2 -0.2533E+01  0.2923E+01  0.2408E+01E
 ACTION:UP  12-03-07 16:27 OP:epov STATUS:               ID:20120205114913 L   I
 2012-02-05-1144-43S.COL___155                                                 6
 STAT SP IPHASW D HRMM SECON CODA AMPLIT PERI AZIMU VELO SNR AR TRES W  DIS CAZ7
 BAR2 SZ EP       1149 33.37                             173    0.1610 17.6 192 
 BAR2 SZ ES   1   1149 48.03                             173   -0.20 7 17.6 192 
 BAR2 SZ I        1149 49.86       137.0 0.18                          17.6 192 
 GIR2 SZ EP       1149 33.43                             165   -0.0910 36.9 352 
 GIR2 SZ ES   1   1149 48.99                             165    0.19 7 36.9 352 
 BRR  HZ EP       1149 35.22                             151    0.2210 73.7 303 
 BRR  HE ES   1   1149 52.13                             151    0.70 7 73.7 303 
 BRR  HZ I        1149 54.07       135.9 0.10                          73.7 303 
 PAM  SZ EP       1149 36.21                             149   -0.0110 82.2  37 
 PAM  SE ES   1   1149 53.38                             149   -0.22 7 82.2  37 
 RUS  HZ EP       1149 37.13                             145    0.0610 94.9 176 
 RUS  HE ES   1   1149 54.83                             145   -0.28 7 94.9 176 
 RUS  HZ I        1149 58.76        60.6 0.24                          94.9 176 
 PTB  HZ EP   1   1149 40.03                             132   -0.57 7  146 261 
 PTB  HE ES   1   1150  0.98                             132   -0.41 7  146 261 
 OCA  SZ EP   1   1149 42.13                             128   -0.49 7  166 354 
 OCA  SZ ES   1   1150  4.88                             128   -0.11 7  166 354 
 NOR  SZ EP   1   1149 49.01                             118   -0.14 6  231 236 
 NOR  SE ES   1   1150 16.57                             118   -0.04 6  231 236 
 CHI  HZ EP       1149 51.31                             117    0.41 8  243 195 
 CHI  HZ I        1149 54.04        25.8 0.42                           243 195 
 CHI  HE ES   1   1150 19.81                             117    0.08 6  243 195 
 HEL  HZ EP   1   1149 54.51                             114    0.67 6  270 257 
 HEL  HZ I        1150 31.50        24.9 0.34                           270 257 
 RREF HZ EP   1   1149 59.47                             111   -0.06 5  318 230 
 RREF HE ES   1   1150 34.73                             111   -0.35 5  318 230 
 RREF HZ I        1150 45.79        34.0 1.18                           318 230 
                                                                                
