 2017 11 5 1557 38.6 L   6.779 -73.135147.2  RSN  6 0.3 1.5LRSN                1
 GAP=139        0.75       3.9     4.2  5.5  0.2004E+01  0.4196E+01 -0.5423E+00E
 Epicentro: LOS SANTOS - SANTANDER                                             3
 ACTION:UPD 17-12-12 19:52 OP:rebc STATUS:               ID:20171105155740dL   I
 OLDACT:DUP 17-11-05 23:07 OP:mg   STATUS:               ID:20171105154742d    3
 2017-11-05-1548-00M.COL___437                                                 6
 STAT SP IPHASW D HRMM SECON CODA AMPLIT PERI AZIMU VELO AIN AR TRES W  DIS CAZ7
 BAR2 EZ EP     C 1557 58.24                             171   -0.1210 21.3 194 
 BAR2 EZ ES       1558 13.61                             171   -0.1710 21.3 194 
 BAR2 EZ I        1558 14.86         5.9 0.14            172           21.3 194 
 BRR  HZ EP       1558  0.02                             152   -0.0110 73.4 300 
 BRR  HE ES       1558 17.41                             152    0.6710 73.4 300 
 BRR  HZ I        1558 20.40         8.7 0.41            150           73.4 300 
 PAM  EZ EP       1558  1.04                             151    0.0110 78.4  38 
 PAM  EN ES       1558 18.27                             151   -0.2510 78.4  38 
 PAM  EZ I        1558 20.38         5.8 0.50            152           78.4  38 
 RUS  HZ EP       1558  2.44                             145    0.1210 98.2 177 
 RUS  HN ES       1558 20.88                             145    0.0510 98.2 177 
 RUS  HZ I        1558 22.33         2.6 0.30            148           98.2 177 
 PTB  HZ EP   2   1558  5.10                             132   -0.65 5  149 260 
 PTB  HN ES   2   1558 26.28                             132   -0.65 5  149 260 
 PTB  HZ I        1558 27.15         2.3 0.15            132            149 260 
 ZAR  HZ EP   1   1558 11.70                             122    0.36 6  206 293 
 ZAR  HN ES   1   1558 36.46                             122   -0.42 6  206 293 
 ZAR  HZ I        1558 44.10         3.8 0.27            123            206 293 
                                                                                
