 2011 11 5 1914 58.2 L   6.893 -73.253128.5  RSN  6 0.3 1.9LRSN                1
 GAP=120        0.45       4.7     3.5  4.6 -0.1755E+01  0.1371E+01 -0.2050E+01E
 Epicentro: BETULIA - SANTANDER                                                3
 ACTION:UPD 12-07-13 16:08 OP:ep   STATUS:               ID:20111105191458 L   I
 2011-11-05-1913-31S.COL___175                                                 6
 STAT SP IPHASW D HRMM SECON CODA AMPLIT PERI AZIMU VELO AIN AR TRES W  DIS CAZ7
 BTL  SZ EP       1915 15.57                             179    0.0810 3.28 330 
 BAR2 SZ EP       1915 16.27                             164    0.2210 34.1 167 
 BAR2 SZ ES   1   1915 29.99                             164    0.00 7 34.1 167 
 BAR2 SZ I        1915 31.05        18.9 0.18                          34.1 167 
 BRR  HZ EP       1915 16.54                             155   -0.0910 56.0 295 
 BRR  HZ I        1915 16.70        24.0 0.38                          56.0 295 
 BRR  HN ES   1   1915 30.92                             155   -0.10 7 56.0 295 
 PAM  SZ EP       1915 18.63                             147   -0.0510 78.6  51 
 PAM  SN ES   1   1915 34.53                             147   -0.13 7 78.6  51 
 RUS  HZ EP   3   1915 19.90                             136   -1.33 2  112 170 
 ZAR  HZ EP   2   1915 28.36                             120    0.36 4  189 291 
 ZAR  HE ES   3   1915 50.91                             120   -0.35 2  189 291 
 ZAR  HZ I        1915 54.82         6.8 0.48                           189 291 
                                                                                
