 2011  9 5 1712 14.0 L   6.771 -73.121149.8  RSN 24 0.4 4.7LRSN                1
 GAP= 61        0.83       2.7     3.6  4.3 -0.4349E-01  0.5386E+01  0.3874E+01E
 Epicentro: LOS SANTOS - SANTANDER                                             3
 ACTION:UPD 12-07-13 15:55 OP:ep   STATUS:               ID:20110905171214 L   I
 2011-09-05-1710-40S.COL___171                                                 6
 STAT SP IPHASW D HRMM SECON CODA AMPLIT PERI AZIMU VELO AIN AR TRES W  DIS CAZ7
 SAN  SZ EP       1712 34.47                             178    0.6010 5.27  97 
 SAN  SZ ES   1   1712 49.37                             178    0.03 7 5.27  97 
 BAR2 SZ IP       1712 34.11                             172    0.0110 20.9 199 
 BAR2 SZ ES   1   1712 48.98                             172   -0.77 7 20.9 199 
 BAR2 SZ I        1712 51.30     10000.6 0.43                          20.9 199 
 GIR2 SZ IP       1712 34.22                             166   -0.0610 35.0 347 
 GIR2 SZ ES   1   1712 49.97                             166   -0.11 7 35.0 347 
 BRR  HZ IP     C 1712 36.00                             152    0.1610 75.2 300 
 BRR  HE ES   1   1712 53.41                             152    0.57 7 75.2 300 
 BRR  HZ I        1712 56.63      6333.8 0.31                          75.2 300 
 PAM  SZ IP       1712 36.90                             151    0.1810 78.2  36 
 PAM  SN ES   2   1712 54.25                             151   -0.17 5 78.2  36 
 RUS  HZ IP     C 1712 37.91                             146   -0.0310 97.2 178 
 RUS  HN ES   2   1712 56.77                             146    0.18 5 97.2 178 
 RUS  HZ I        1712 58.58      6469.6 0.58                          97.2 178 
 GUE  SZ EP   1   1712 39.17                             139   -0.15 7  119  10 
 OCA  SZ EP   1   1712 43.09                             130    0.10 7  164 352 
 OCA  SZ ES   2   1713  5.71                             130    0.14 5  164 352 
 OCA  SZ I        1713 16.59      4306.0 0.23                           164 352 
 YOP  SZ EP   2   1712 44.51                             128    0.54 4  175 154 
 YOP  SE ES   1   1713  6.83                             128   -0.49 7  175 154 
 ZAR  HZ EP       1712 46.33                             123   -0.80 8  208 293 
 ZAR  HE ES   1   1713 12.13                             123   -0.81 6  208 293 
 NOR  SZ EP       1712 49.80                             119   -0.24 8  235 235 
 NOR  SN ES   2   1713 18.39                             119    0.27 4  235 235 
 CHI  HZ EP       1712 51.80                             118    0.10 8  246 196 
 CHI  HN ES   1   1713 20.73                             118   -0.35 6  246 196 
 CHI  HZ I        1713 27.50      2304.6 0.47                           246 196 
 ROSC BZ IP     C 1712 53.45                             118    1.22 8  251 212 
 ROSC BN ES   1   1713 22.34                             118    0.32 6  251 212 
 ROSC BZ I        1713 27.50      4140.8 0.39                           251 212 
 HEL  HZ EP   1   1712 55.40                             115    0.74 6  274 257 
 HEL  HN ES   1   1713 26.59                             115    0.24 6  274 257 
 HEL  HZ I        1713 32.30      2635.7 0.41                           274 257 
 VIL  SZ EP   1   1712 57.18                             113   -0.16 5  301 192 
 VIL  SE ES   1   1713 30.83                             113   -0.30 5  301 192 
 VIL  SZ I        1713 38.53      1453.8 0.51                           301 192 
 GUY  SZ EP   1   1712 58.55                             113    0.41 5  304 236 
 GUY  SN ES   1   1713 32.52                             113   -0.02 5  304 236 
 GUY  SZ I        1713 40.19      3852.5 0.51                           304 236 
 RREF HZ EP   1   1713  0.20                             111   -0.15 5  322 230 
 RREF HZ I        1713 45.47      2476.1 0.39                           322 230 
 DBB  SZ EP       1713  1.90                             110   -0.12 7  342 275 
 TOL  SZ EP       1713  2.32                             110   -0.09 7  343 225 
 ANIL HZ EP   1   1713  3.88                             109   -0.07 5  357 225 
 PRA  HZ EP       1713  7.07                             107   -0.46 6  391 210 
 PRA  HN ES   1   1713 49.41                             107    0.16 4  391 210 
 SJA  SZ IP       1713  7.57                             107   -0.86 6  398 193 
 SJA  SZ I        1713 53.39      1933.2 0.47                           398 193 
 GUA  SZ EP   1   1713 16.09                             104   -0.79 4  470 173 
 SOTA HZ EP       1713 37.75                              99   -0.27 2  642 217 
 SOTA HZ I        1714 55.78       160.6 0.93                           642 217 
                                                                                
