 2014 12 5 1446 51.2 L   6.776 -73.159140.0  RSN  8 0.4 1.6LRSN                1
 GAP=136        0.97       4.7     4.2  7.4 -0.2922E+01  0.8376E+01  0.1468E+01E
 Epicentro: LOS SANTOS - SANTANDER                                             3
 ACTION:UPD 15-02-10 17:00 OP:nd   STATUS:               ID:20141205144651 L   I
 OLDACT:REG 14-12-05 20:48 OP:spq  STATUS:               ID:20141205143744     3
 2014-12-05-1437-44M.COL___300                                                 6
 STAT SP IPHASW D HRMM SECON CODA AMPLIT PERI AZIMU VELO AIN AR TRES W  DIS CAZ7
 BAR2 SZ EP   1   1447 10.03                             171   -0.01 7 20.5 187 
 BAR2 SZ ES   1   1447 24.55                             171   -0.21 7 20.5 187 
 BAR2 SZ I        1447 25.75         9.9 0.36            170           20.5 187 
 BRR  HZ EP       1447 11.82                             152    0.1410 71.2 301 
 BRR  HN ES       1447 28.60                             152    0.9010 71.2 301 
 BRR  HZ I        1447 33.33         7.2 0.35            151           71.2 301 
 PAM  SZ EP       1447 12.89                             149   -0.0610 80.4  39 
 PAM  SN ES       1447 29.65                             149   -0.2910 80.4  39 
 PAM  SZ I        1447 32.01        15.0 0.78            154           80.4  39 
 RUS  HZ EP   1   1447 14.50                             144    0.34 7 98.1 175 
 RUS  HE ES   1   1447 32.20                             144    0.10 7 98.1 175 
 RUS  HZ I        1447 34.90         2.1 0.18            146           98.1 175 
 PTB  HZ EP       1447 16.92                             131   -0.56 9  146 260 
 PTB  HN ES       1447 37.61                             131   -0.40 9  146 260 
 PTB  HZ I        1447 41.50         5.8 0.10            132            146 260 
 SPBC HN ES   1   1447 40.48                             129   -0.12 7  160 219 
 SPBC HE ES   1   1447 41.75                                            160 219 
 SPBC HZ I        1447 46.85         4.8 0.22            130            160 219 
 ZAR  HZ EP   1   1447 23.69                             121    0.50 6  204 293 
 ZAR  HN ES       1447 47.78                             121   -0.40 9  204 293 
 ZAR  HZ I        1447 54.74         7.4 0.48            123            204 293 
 GUY2CHE ES   1   1448  8.35                             112    0.59 5  298 235 
 GUY2CHZ I        1448 16.37         1.6 0.46                           298 235 
                                                                                
