 2017 10 5 1609 38.3 L   6.791 -73.119142.1  RSN  9 0.5 1.7LRSN                1
 GAP=140        0.78       3.0     4.1  5.5 -0.1218E+01  0.1083E+02  0.2226E+01E
 Epicentro: LOS SANTOS - SANTANDER                                             3
 ACTION:UPD 17-11-07 19:28 OP:rebc STATUS:               ID:20171005160938 L   I
 OLDACT:REG 17-10-05 20:08 OP:dhb  STATUS:               ID:20171005160736     3
 2017-10-05-1608-00M.COL___432                                                 6
 STAT SP IPHASW D HRMM SECON CODA AMPLIT PERI AZIMU VELO AIN AR TRES W  DIS CAZ7
 BAR2 EZ IP     D 16 9 57.47                             170    0.0110 23.0 198 
 BAR2 EZ ES       1610 12.12                             170   -0.3010 23.0 198 
 BAR2 EZ I        1610 13.35        10.8 0.26            168           23.0 198 
 PAM  EZ IP     C 1610  0.33                             150    0.2910 76.4  37 
 PAM  EN ES       1610 16.80                             150   -0.2210 76.4  37 
 PAM  EZ I        1610 21.85         3.9 0.18            154           76.4  37 
 RUS  HZ EP       1610  1.98                             143    0.4010 99.4 178 
 RUS  HZ E        1610  2.01                                           99.4 178 
 RUS  HN ES       1610 20.10                             143    0.3410 99.4 178 
 RUS  HZ I        1610 21.67         9.4 0.30            144           99.4 178 
 ZAR  HZ EP       1610 10.75                             121   -0.07 8  207 292 
 ZAR  HE ES       1610 36.16                             121   -0.03 8  207 292 
 ZAR  HZ I        1610 41.61        14.4 0.34            122            207 292 
 NOR  HZ EP       1610 14.25                             117    0.25 8  237 235 
 NOR  HN ES       1610 42.06                             117    0.21 8  237 235 
 NOR  HZ I        1610 46.92         4.2 0.17            118            237 235 
 CHI  HZ EP       1610 15.01                             116   -0.74 8  248 196 
 CHI  HE ES       1610 44.61                             116   -0.37 8  248 196 
 CHI  HZ I        1610 54.61         1.6 0.36            117            248 196 
 GUY2CHZ EP   3   1610 24.06                             111    2.13 2  303 235 
 GUY2CHN ES   4   1610 59.66                             111    3.69 0  303 235 
 GUY2CHZ I        1611  5.12         3.1 0.52                           303 235 
 PRA  HZ EP   3   1610 32.37                             106    0.63 1  393 210 
 PRA  HE ES       1611 13.20                             106   -0.24 6  393 210 
 PRA  HZ I        1611 20.21         2.5 0.18            107            393 210 
 SJC  HZ EP   3   1610 31.67                             105   -2.35 1  412 327 
 SJC  HN ES   4   1611 12.79                             105   -4.70 0  412 327 
 SJC  HZ I        1611 17.46         1.1 0.20            106            412 327 
                                                                                
