 2010  3 5 1433 56.8 L   6.804 -73.041148.9  RSN 12 0.4 2.6LRSN                1
 GAP=134        0.64       3.1     4.7  4.6 -0.5184E+01  0.1802E+01  0.1259E+01E
 Epicentro: LOS SANTOS - SANTANDER                                             3
 ACTION:UP  10-08-24 09:52 OP:vdl  STATUS:               ID:20100305143356 L   I
 2010-03-05-1432-25S.COL___101                                                 6
 STAT SP IPHASW D HRMM SECON CODA AMPLIT PERI AZIMU VELO SNR AR TRES W  DIS CAZ7
 BAR2 SZ EP       1434 16.89                             169     0.010   28 214 
 BAR2 SZ ES   1   1434 32.36                             169    -0.2 7   28 214 
 BRR  HZ EP       1434 18.95                             150     0.110   81 294 
 BRR  HZ I        1434 20.36        70.5 0.12                            81 294 
 BRR  HN ES   2   1434 36.51                             150     0.4 5   81 294 
 RUS  BZ EP   1   1434 21.03                             144     0.2 7  101 183 
 RUS  BN ES   2   1434 39.66                             144     0.0 5  101 183 
 RUS  BZ I        1434 42.44        23.9 0.38                           101 183 
 OCA  SZ EP       1434 25.50                             130     0.0 9  162 349 
 OCA  SZ ES   2   1434 47.63                             130    -0.2 5  162 349 
 OCA  SZ I        1434 51.98        83.3 0.33                           162 349 
 CHI  HZ EP       1434 35.16                             117     0.1 8  252 198 
 CHI  HE ES   2   1435  4.12                             117    -0.8 4  252 198 
 CHI  HZ I        1435 12.65        11.7 0.39                           252 198 
 HEL  HZ EP   2   1434 38.27                             114    -0.1 4  283 256 
 HEL  HN ES   2   1435 10.71                             114    -0.2 4  283 256 
 HEL  HZ I        1435 15.99        19.9 0.36                           283 256 
 RREF BZ EP   2   1434 44.46                             111     0.4 3  331 231 
 RREF BN ES   2   1435 21.45                             111     0.4 3  331 231 
 RREF BZ I        1435 27.81        17.0 0.26                           331 231 
 DBB  SZ EP   1   1434 44.70                             109    -1.0 5  351 274 
 SDV  BZ EP       1434 45.91                             109     0.0 6  351  49 
 TOL  SZ EP       1434 46.68                             109     0.5 6  352 226 
 TOL  SZ ES   2   1435 24.92                             109     0.3 3  352 226 
 ANIL BZ EP   1   1434 48.33                             108     0.6 5  366 226 
 ANIL BE ES   2   1435 27.15                             108    -0.2 3  366 226 
 ANIL BZ I        1435 32.98        30.9 0.42                           366 226 
 PRA  HZ EP       1434 50.52                             107    -0.6 6  398 211 
 PRA  HN ES   1   1435 33.36                             107    -0.2 4  398 211 
 PRA  HZ I        1435 38.10        12.3 0.17                           398 211 
                                                                                
