 2017 10 5 1432  3.4 L   6.833 -73.024134.9  RSN  4 0.3 1.3LRSN                1
 GAP=151        0.86       4.4     5.6  7.9  0.4429E-01  0.1233E+02 -0.1614E+01E
 Epicentro: CEPITA - SANTANDER                                                 3
 ACTION:UPD 17-11-07 19:28 OP:rebc STATUS:               ID:20171005143203 L   I
 OLDACT:REG 17-10-05 19:58 OP:dhb  STATUS:               ID:20171005142738     3
 2017-10-05-1428-00M.COL___432                                                 6
 STAT SP IPHASW D HRMM SECON CODA AMPLIT PERI AZIMU VELO AIN AR TRES W  DIS CAZ7
 BAR2 EZ IP     D 1432 21.34                             166   -0.6110 31.8 213 
 BAR2 EZ ES       1432 36.66                             166    0.2410 31.8 213 
 BAR2 EZ I        1432 38.03         4.3 0.50            168           31.8 213 
 PAM  EZ IP     D 1432 24.30                             153    0.4710 66.5  33 
 PAM  EN ES       1432 39.53                             153   -0.2310 66.5  33 
 PAM  EZ I        1432 43.47         4.7 0.40            153           66.5  33 
 RUS  HZ EP       1432 26.45                             140    0.0710  104 184 
 RUS  HN ES       1432 44.33                             140    0.0310  104 184 
 RUS  HZ I        1432 45.15         2.4 0.34            144            104 184 
 ZAR  HE ES       1433  2.12                             118    0.04 8  215 290 
 ZAR  HZ I        1433  5.06         2.7 0.10            120            215 290 
                                                                                
