 2016  8 5 1100  5.6 L   6.834 -73.162150.8  RSN 15 0.5 2.4LRSN                1
 GAP=118        1.17       3.8     4.0  5.7 -0.4779E+01  0.4286E+01 -0.6566E+00E
 Epicentro: LOS SANTOS - SANTANDER                                             3
 ACTION:UPD 16-10-29 15:32 OP:rebc STATUS:               ID:20160805110005 L   I
 OLDACT:UP  16-08-05 21:23 OP:dani STATUS:               ID:20160805105759     3
 OLDACT:UP  16-08-05 21:19 OP:dani STATUS:               ID:20160805105759     3
 OLDACT:UP  16-08-05 21:19 OP:dani STATUS:               ID:20160805105759     3
 OLDACT:UP  16-08-05 21:16 OP:dani STATUS:               ID:20160805105759     3
 OLDACT:REG 16-08-05 19:57 OP:dani STATUS:               ID:20160805105759     3
 2016-08-05-1057-59S.COL___331                                                 6
 STAT SP IPHASW D HRMM SECON CODA AMPLIT PERI AZIMU VELO AIN AR TRES W  DIS CAZ7
 BAR2 EZ EP       11 0 25.94                             170   -0.0110 26.8 185 
 BAR2 HN ES       11 0 41.39                             170   -0.4110 26.8 185 
 BAR2 EZ I        11 0 42.19        55.8 0.22                          26.8 185 
 BRR  HZ EP       11 0 27.66                             154    0.5010 67.9 296 
 BRR  HN ES       11 0 44.86                             154    0.9110 67.9 296 
 BRR  HZ I        11 0 48.18        48.9 0.32                          67.9 296 
 PAM  EZ EP       11 0 28.88                             152    0.5810 75.7  42 
 PAM  EE ES       11 0 46.06                             152    0.0810 75.7  42 
 PAM  EZ I        11 0 48.12        72.0 0.48                          75.7  42 
 RUS  HZ EP       11 0 29.83                             144   -0.3410  104 175 
 RUS  HE ES       11 0 48.71                             144   -0.5910  104 175 
 RUS  HZ I        11 0 49.73        30.7 0.26                           104 175 
 PTB  HZ EP       11 0 32.72                             133   -0.22 9  147 257 
 PTB  HE ES       11 0 54.11                             133   -0.12 9  147 257 
 PTB  HZ I        11 0 56.67        24.8 0.12                           147 257 
 SPBC HZ EP       11 0 34.89                             130    0.19 9  165 218 
 SPBC HE ES       11 0 56.60                             130   -0.77 9  165 218 
 SPBC HZ I        11 1  1.60        45.6 0.30                           165 218 
 ZAR  HZ EP       11 0 38.47                             124    0.36 9  201 291 
 ZAR  HE ES       11 1  2.91                             124   -0.53 9  201 291 
 ZAR  HZ I        11 1 10.91        18.8 0.34                           201 291 
 NOR  HZ EP       11 0 42.03                             119    0.28 8  235 233 
 NOR  HE ES       11 1 10.43                             119    0.52 8  235 233 
 NOR  HZ I        11 1 17.88        16.1 0.16                           235 233 
 ROSC BZ EP   4   11 0 46.73                             117    2.44 0  255 210 
 ROSC BN ES       11 1 14.54                             117    0.10 8  255 210 
 ROSC BZ I        11 1 18.17        27.0 0.35                           255 210 
 HEL  HZ EP   4   11 0 48.66                             116    2.63 0  271 255 
 HEL  HE ES       11 1 16.79                             116   -0.74 8  271 255 
 HEL  HZ I        11 1 26.83         9.2 0.24                           271 255 
 URE  HE ES   4   11 1 17.29                             115   -1.30 0  281 291 
 SOCV BZ EP       11 0 49.10                             113    0.23 7  301  58 
 SOCV BN ES   4   11 1 20.34                             113   -2.24 0  301  58 
 GUY2CHZ EP   4   11 0 51.21                             113    1.64 0  302 234 
 GUY2CHE ES       11 1 24.70                             113    0.87 7  302 234 
 GUY2CHZ I        11 1 32.23        10.3 0.34                           302 234 
 LL6C HZ EP       11 0 50.39                             111   -0.74 7  321 358 
 PRA  HZ EP       11 0 59.65                             107    0.03 6  394 209 
 PRA  HE ES       11 1 41.89                             107    0.17 6  394 209 
 PRA  HZ I        11 1 50.50         7.9 0.34                           394 209 
 SJC  HZ EP       11 1  0.07                             107   -0.83 6  405 327 
 SJC  HN ES   4   11 1 41.32                             107   -2.67 0  405 327 
 SJC  HZ I        11 1 48.06         3.6 0.40                           405 327 
                                                                                
