 2011 10 5 1952 45.3 L   6.143 -73.888 22.1  RSN  5 0.3 1.6LRSN                1
 GAP=164        0.66       7.1     4.1 11.9 -0.1692E+02  0.3793E+02 -0.7423E+02E
 Epicentro: EL PEON - SANTANDER                                                3
 ACTION:UPD 12-07-13 16:02 OP:ep   STATUS:               ID:20111005195245 L   I
 2011-10-05-1940-00M.COL___171                                                 6
 STAT SP IPHASW D HRMM SECON CODA AMPLIT PERI AZIMU VELO AIN AR TRES W  DIS CAZ7
 RUS  HZ EP   1   1953  1.22                             102    0.43 7 93.3 107 
 RUS  HZ I        1953  1.78         7.6 0.22                          93.3 107 
 RUS  HN ES   1   1953 12.43                             102   -0.47 7 93.3 107 
 BRR  HZ EP   1   1953  2.74                              56    0.24 7  108  10 
 BRR  HN ES   1   1953 16.00                              56    0.05 7  108  10 
 BRR  HZ I        1953 16.72        19.3 0.15                           108  10 
 HEL  HN ES   1   1953 33.17                              56    0.10 7  182 272 
 HEL  HZ I        1953 35.12         6.7 0.47                           182 272 
 ZAR  HN ES   1   1953 32.21                              56   -0.54 7  184 324 
 PAM  SN ES   1   1953 34.52                              56    0.14 7  186  45 
                                                                                
