 2015  4 5 1207  5.9 L   6.824 -73.165154.4  RSN  7 0.5 1.5LRSN                1
 GAP=133        1.24       5.2     5.7 11.1 -0.3437E+00  0.2011E+02 -0.6418E+01E
 Epicentro: LOS SANTOS - SANTANDER                                             3
 ACTION:UPD 15-06-03 16:52 OP:cam  STATUS:               ID:20150405120705 L   I
 OLDACT:DUP 15-04-05 22:36 OP:fm   STATUS:               ID:20150405115751d    3
 OLDACT:REG 15-04-05 20:36 OP:fm   STATUS:               ID:20150405115750     3
 2015-04-05-1157-50M.COL___279                                                 6
 STAT SP IPHASW D HRMM SECON CODA AMPLIT PERI AZIMU VELO AIN AR TRES W  DIS CAZ7
 BAR2 EZ EP       12 7 26.93                             170    0.3510 25.7 184 
 BAR2 EZ ES   1   12 7 42.73                             170   -0.01 7 25.7 184 
 BAR2 EZ I        12 7 44.53         4.9 0.22            172           25.7 184 
 PAM  SZ EP       12 7 28.56                             152   -0.4110 76.8  42 
 PAM  SE ES       12 7 47.45                             152    0.4610 76.8  42 
 PAM  SZ I        12 7 49.48         3.4 0.36            154           76.8  42 
 RUS  HZ EP       12 7 31.28                             145    0.6110  103 175 
 RUS  HN ES       12 7 49.13                             145   -0.8910  103 175 
 RUS  HZ I        12 7 52.15         2.6 0.22            148            103 175 
 PTB  HZ EP       12 7 33.06                             134   -0.35 9  146 258 
 PTB  HN ES       12 7 55.47                             134    0.57 9  146 258 
 PTB  HZ I        12 7 57.32         2.9 0.32            135            146 258 
 ZAR  HN ES       12 8  3.61                             125   -0.49 9  201 292 
 NOR  HN ES   1   12 8 10.86                             120    0.51 6  235 234 
 NOR  HZ I        12 8 14.60         2.8 0.32            122            235 234 
 SML  HE ES       12 8 11.12                             120   -0.19 8  240 335 
 SML  HZ I        12 8 18.94         4.4 0.24            120            240 335 
                                                                                
