 2017 11 5 1448 10.0 L   6.766 -73.162138.2  RSN  5 0.3 1.1LRSN                1
 GAP=136        0.66       3.6     3.6  6.3 -0.2719E+01  0.5999E+01 -0.9964E+00E
 Epicentro: LOS SANTOS - SANTANDER                                             3
 ACTION:UPD 17-12-12 19:52 OP:rebc STATUS:               ID:20171105144810 L   I
 OLDACT:UP  17-11-05 22:45 OP:mg   STATUS:               ID:20171105143740     3
 OLDACT:UP  17-11-05 22:45 OP:mg   STATUS:               ID:20171105143740     3
 OLDACT:REG 17-11-05 20:32 OP:mg   STATUS:               ID:20171105143740     3
 2017-11-05-1438-00M.COL___431                                                 6
 STAT SP IPHASW D HRMM SECON CODA AMPLIT PERI AZIMU VELO AIN AR TRES W  DIS CAZ7
 BAR2 EZ EP   2   1448 28.94                             172    0.29 5 19.4 187 
 BAR2 EZ ES   2   1448 43.42                             172    0.23 5 19.4 187 
 BAR2 EZ I        1448 44.77         4.5 0.22            173           19.4 187 
 BRR  HZ EP       1448 30.73                             151    0.3710 71.5 302 
 BRR  HE ES   2   1448 46.97                             151    0.73 5 71.5 302 
 BRR  HZ I        1448 55.37         6.7 0.34            150           71.5 302 
 PAM  EZ EP       1448 31.53                             148   -0.1510 81.4  39 
 PAM  EN ES       1448 48.36                             148   -0.2210 81.4  39 
 PAM  EZ I        1448 50.32         1.7 0.24            152           81.4  39 
 RUS  HZ EP       1448 32.82                             143    0.0610 97.0 175 
 RUS  HN ES       1448 50.47                             143   -0.0410 97.0 175 
 RUS  HZ I        1448 51.98         2.4 0.23            151           97.0 175 
 PTB  HZ EP       1448 36.22                             130    0.08 9  145 260 
 PTB  HE ES       1448 56.07                             130   -0.46 9  145 260 
 PTB  HZ I        1448 59.33         1.0 0.14            133            145 260 
                                                                                
