 2012  8 5 1826 34.2 L   6.784 -73.146152.0  RSN  8 0.4 2.4LRSN                1
 GAP=137        0.73       3.3     5.1  5.6  0.1049E+01  0.5110E+01  0.1919E+01E
 Epicentro: LOS SANTOS - SANTANDER                                             3
 ACTION:UPD 12-09-10 11:54 OP:ep   STATUS:               ID:20120805182634 L   I
 2012-08-05-1820-00M.COL___216                                                 6
 STAT SP IPHASW D HRMM SECON CODA AMPLIT PERI AZIMU VELO AIN AR TRES W  DIS CAZ7
 BAR2 SZ IP       1826 54.58                             172    0.0210 21.5 191 
 BAR2 SZ ES   1   1827 10.02                             172   -0.41 7 21.5 191 
 BAR2 SZ I        1827 11.18        93.4 0.22                          21.5 191 
 BRR  HZ IP     C 1826 56.46                             153    0.3810 72.0 300 
 BRR  HZ I        1826 56.71       134.3 0.30                          72.0 300 
 BRR  HE ES   1   1827 13.96                             153    0.82 7 72.0 300 
 PAM  SZ EP       1826 57.38                             152    0.2110 78.8  39 
 PAM  SN ES   2   1827 14.74                             152   -0.35 5 78.8  39 
 PAM  SZ I        1827 16.88        26.7 0.52                          78.8  39 
 RUS  HZ EP       1826 58.39                             146   -0.0610 98.8 176 
 RUS  HN ES   2   1827 17.01                             146   -0.35 5 98.8 176 
 RUS  HZ I        1827 18.35        17.6 0.44                          98.8 176 
 PTB  HZ EP       1827  1.47                             134   -0.19 9  147 260 
 PTB  HN ES   3   1827 22.23                             134   -0.84 2  147 260 
 PTB  HZ I        1827 28.26        27.3 0.20                           147 260 
 OCA  HZ EP       1827  2.79                             131   -0.39 9  162 353 
 OCA  HN ES   1   1827 25.84                             131    0.07 7  162 353 
 OCA  HZ I        1827 30.96        50.4 0.34                           162 353 
 ZAR  HZ EP       1827  6.86                             124   -0.27 9  205 293 
 ZAR  HN ES   2   1827 32.21                             124   -0.60 4  205 293 
 ZAR  HZ I        1827 39.49        23.5 0.38                           205 293 
 CHI  HZ EP       1827 12.37                             119    0.30 8  247 195 
 CHI  HN ES   2   1827 41.66                             119    0.06 4  247 195 
 CHI  HZ I        1827 51.58         8.9 0.58                           247 195 
                                                                                
