 2014 10 5 1814 45.6 L   6.827 -73.132145.2  RSN  4 0.5 1.5LRSN                1
 GAP=143        0.99       5.7    12.9 10.9  0.4161E+01  0.4719E+02 -0.1845E+02E
 Epicentro: LOS SANTOS - SANTANDER                                             3
 ACTION:UPD 14-11-29 23:47 OP:nd   STATUS:               ID:20141005181445 L   I
 OLDACT:DUP 14-10-05 23:41 OP:fm   STATUS:               ID:20141005180747d    3
 2014-10-05-1807-46M.COL___295                                                 6
 STAT SP IPHASW D HRMM SECON CODA AMPLIT PERI AZIMU VELO AIN AR TRES W  DIS CAZ7
 BAR2 SZ EP       1815  5.32                             169    0.1110 26.6 192 
 BAR2 SZ ES   1   1815 21.10                             169    0.57 7 26.6 192 
 BAR2 SZ I        1815 22.16        11.1 0.18            173           26.6 192 
 PAM  SZ EP       1815  7.23                             152   -0.3110 74.1  40 
 PAM  SN ES   1   1815 24.85                             152    0.17 7 74.1  40 
 PAM  SZ I        1815 28.39         4.0 0.52            152           74.1  40 
 RUS  HZ EP   1   1815  9.98                             143    0.49 7  104 177 
 RUS  HN ES   1   1815 27.28                             143   -0.86 7  104 177 
 RUS  HZ I        1815 29.51         3.4 0.34            148            104 177 
 SML  HZ EP   1   1815 22.53                             118    0.58 6  242 335 
 SML  HN ES   1   1815 49.72                             118   -0.59 6  242 335 
 SML  HZ I        1815 52.67         3.1 0.24            120            242 335 
                                                                                
