 2017  5 5 1600 48.6 L   6.807 -73.123149.0  RSN  5 0.3 1.6LRSN                1
 GAP=240        0.65       4.4     4.6  6.2  0.1018E+02  0.6558E+01  0.6289E+01E
 Epicentro: LOS SANTOS - SANTANDER                                             3
 ACTION:UPD 17-06-16 13:33 OP:jn   STATUS:               ID:20170505160048 L   I
 OLDACT:UP  17-05-05 22:28 OP:and  STATUS:               ID:20170505155739     3
 OLDACT:UP  17-05-05 22:28 OP:and  STATUS:               ID:20170505155739     3
 OLDACT:REG 17-05-05 21:06 OP:and  STATUS:               ID:20170505155739     3
 2017-05-05-1558-00M.COL___376                                                 6
 STAT SP IPHASW D HRMM SECON CODA AMPLIT PERI AZIMU VELO AIN AR TRES W  DIS CAZ7
 BRR  HZ EP   1   16 1 10.00                             152   -0.22 7 73.0 297 
 BRR  HN ES       16 1 27.15                             152    0.0810 73.0 297 
 BRR  HZ I        16 1 32.61         5.0 0.16            151           73.0 297 
 RUS  HZ EP       16 1 12.96                             144    0.2210  101 177 
 RUS  HN ES       16 1 31.41                             144   -0.1410  101 177 
 RUS  HZ I        16 1 32.73         7.3 0.40            147            101 177 
 PTB  HZ EP   2   16 1 14.89                             132   -1.19 5  150 259 
 PTB  HN ES   1   16 1 37.47                             132   -0.03 7  150 259 
 PTB  HZ I        16 1 39.43         4.0 0.26            132            150 259 
 ZAR  HN ES       16 1 47.18                             123    0.07 8  206 292 
 ZAR  HZ I        16 1 52.75         4.7 0.34            124            206 292 
 NOR  HZ IP     D 16 1 25.13                             119    0.33 8  237 235 
 NOR  HE ES       16 1 52.97                             119   -0.05 8  237 235 
 NOR  HZ I        16 1 58.47         4.5 0.16            120            237 235 
                                                                                
