 2016  8 5 1508  6.1 L   6.809 -73.160151.7  RSN  4 0.3 1.6LRSN                1
 GAP=145        0.80       8.6     5.4  7.2 -0.1832E+02  0.9388E+01  0.9201E+01E
 Epicentro: LOS SANTOS - SANTANDER                                             3
 ACTION:UPD 16-10-29 15:32 OP:rebc STATUS:               ID:20160805150806 L   I
 OLDACT:REG 16-08-05 20:23 OP:dani STATUS:               ID:20160805145759     3
 2016-08-05-1457-59S.COL___340                                                 6
 STAT SP IPHASW D HRMM SECON CODA AMPLIT PERI AZIMU VELO AIN AR TRES W  DIS CAZ7
 BAR2 EZ EP       15 8 26.05                             171   -0.4510 24.1 186 
 BAR2 EZ ES       15 8 42.70                             171    0.3210 24.1 186 
 BAR2 EZ I        15 8 43.65         4.5 0.44                          24.1 186 
 BRR  HZ EP       15 8 28.11                             154    0.2810 69.4 298 
 BRR  HN ES       15 8 44.79                             154    0.0310 69.4 298 
 BRR  HZ I        15 8 47.39        12.9 0.35                          69.4 298 
 PAM  EN ES       15 8 46.69                             152   -0.1510 77.6  41 
 PTB  HZ EP       15 8 33.80                             134    0.32 9  146 258 
 PTB  HE ES       15 8 54.43                             134   -0.37 9  146 258 
 PTB  HZ I        15 8 59.78         4.2 0.44                           146 258 
                                                                                
