 2017 11 5 1125  5.7 L   6.786 -73.143146.0  RSN  9 0.4 1.7LRSN                1
 GAP=153        0.85       4.5     4.0  6.4 -0.6283E+01  0.3787E+01  0.6390E+01E
 Epicentro: LOS SANTOS - SANTANDER                                             3
 ACTION:UPD 17-12-12 19:52 OP:rebc STATUS:               ID:20171105112505 L   I
 OLDACT:UP  17-11-05 21:43 OP:mg   STATUS:               ID:20171105111742     3
 OLDACT:REG 17-11-05 20:06 OP:mg   STATUS:               ID:20171105111742     3
 2017-11-05-1118-00M.COL___417                                                 6
 STAT SP IPHASW D HRMM SECON CODA AMPLIT PERI AZIMU VELO AIN AR TRES W  DIS CAZ7
 BAR2 EZ EP     D 1125 25.13                             171   -0.1610 21.9 191 
 BAR2 EZ ES   2   1125 40.08                             171   -0.52 5 21.9 191 
 BAR2 EZ I        1125 41.14        17.1 0.22            170           21.9 191 
 BRR  HZ EP       1125 26.94                             152    0.0510 72.1 299 
 BRR  HN ES       1125 44.02                             152    0.5710 72.1 299 
 BRR  HZ I        1125 44.67        13.3 0.30            152           72.1 299 
 PAM  EZ EP     D 1125 27.95                             151   -0.0110 78.4  39 
 PAM  EN ES       1125 45.31                             151   -0.0510 78.4  39 
 PAM  EZ I        1125 47.74         3.2 0.29            152           78.4  39 
 PTB  HZ EP       1125 32.77                             132    0.12 9  148 259 
 PTB  HN ES       1125 52.71                             132   -0.98 9  148 259 
 PTB  HZ I        1125 55.13         5.3 0.16            132            148 259 
 SPBC HZ EP   1   1125 34.26                             129    0.18 7  162 219 
 SPBC HN ES       1125 56.59                             129    0.34 9  162 219 
 SPBC HE I        1125 58.69        10.3 0.10            129            162 219 
 SPBC HZ I        1125 58.85         6.8 0.14                           162 219 
 ZAR  HZ EP       1125 37.77                             122   -0.44 9  205 293 
 ZAR  HE ES       1126  3.94                             122    0.35 9  205 293 
 ZAR  HZ I        1126  9.05         6.1 0.26            122            205 293 
 NOR  HZ EP   1   1125 41.31                             119   -0.02 6  234 235 
 NOR  HE ES   1   1126  9.40                             119    0.24 6  234 235 
 NOR  HZ I        1126 10.85         4.4 0.28            119            234 235 
 GUY2CHZ EP   3   1125 50.43                             112    1.22 2  301 235 
 GUY2CHE ES   3   1126 23.62                             112    0.45 2  301 235 
 GUY2CHZ I        1126 33.60         1.6 0.42                           301 235 
 PRA  HZ EP   3   1125 59.76                             107    0.71 1  391 210 
 PRA  HN ES   2   1126 40.98                             107    0.28 3  391 210 
 PRA  HZ I        1126 47.15         1.4 0.30            107            391 210 
                                                                                
