 2017 10 5 1225  1.6 L   6.824 -73.157143.3  RSN 17 0.5 2.2LRSN                1
 GAP=110        1.01       3.2     3.8  5.4 -0.4839E+00  0.8782E+01  0.2500E+01E
 Epicentro: LOS SANTOS - SANTANDER                                             3
 ACTION:UPD 17-11-07 19:28 OP:rebc STATUS:               ID:20171005122501 L   I
 OLDACT:UP  17-10-05 21:14 OP:dhb  STATUS:               ID:20171005121738     3
 OLDACT:UP  17-10-05 21:14 OP:dhb  STATUS:               ID:20171005121738     3
 OLDACT:REG 17-10-05 19:46 OP:dhb  STATUS:               ID:20171005121738     3
 2017-10-05-1218-00M.COL___432                                                 6
 STAT SP IPHASW D HRMM SECON CODA AMPLIT PERI AZIMU VELO AIN AR TRES W  DIS CAZ7
 BAR2 EZ IP     D 1225 20.87                             169   -0.1310 25.8 186 
 BAR2 EZ ES       1225 36.12                             169   -0.0010 25.8 186 
 BAR2 EZ I        1225 37.01        35.3 0.26            167           25.8 186 
 PAM  EZ IP     C 1225 23.78                             150    0.2910 76.1  42 
 PAM  EE ES       1225 40.83                             150    0.2710 76.1  42 
 PAM  EZ I        1225 43.95        13.9 0.52            154           76.1  42 
 RUS  HZ EP       1225 24.99                             142   -0.3410  103 175 
 RUS  HE ES       1225 43.40                             142   -0.4210  103 175 
 RUS  HZ I        1225 44.88        26.6 0.24            142            103 175 
 SPBC HZ EP       1225 29.78                             128   -0.27 9  165 218 
 SPBC HN ES       1225 51.50                             128   -0.73 9  165 218 
 SPBC HZ I        1225 56.82        30.3 0.14            126            165 218 
 YPLC HZ IP     C 1225 31.25                             125   -0.27 9  180 151 
 YPLC HE ES       1225 55.39                             125    0.54 9  180 151 
 YPLC HZ I        1225 56.33        14.0 0.24            126            180 151 
 ZAR  HZ IP     C 1225 33.63                             122   -0.05 9  202 292 
 ZAR  HE ES       1225 59.26                             122    0.57 9  202 292 
 ZAR  HZ I        1226  4.36        20.5 0.32            121            202 292 
 NOR  HZ IP     D 1225 37.20                             118   -0.06 8  235 234 
 NOR  HN ES       1226  5.08                             118    0.01 8  235 234 
 NOR  HZ I        1226 10.02        10.3 0.26            117            235 234 
 CHI  HZ IP     D 1225 39.12                             116   -0.30 8  251 195 
 CHI  HE ES       1226  8.70                             116   -0.21 8  251 195 
 CHI  HZ I        1226 14.59         8.9 0.34            116            251 195 
 ROSC BZ EP       1225 40.58                             116    0.80 8  254 210 
 ROSC BE ES   2   1226 10.75                             116    1.20 4  254 210 
 ROSC BZ I        1226 15.39        19.4 0.35            115            254 210 
 URE  HZ EP       1225 41.23                             113   -1.10 7  282 291 
 URE  HN ES   4   1226 11.98                             113   -2.10 0  282 291 
 URE  HZ I        1226 22.93        11.5 0.20            112            282 291 
 GUY2CHZ EP       1225 45.88                             112    0.71 7  302 234 
 GUY2CHE ES   4   1226 23.37                             112    4.22 0  302 234 
 GUY2CHZ I        1226 27.55         7.6 0.24                           302 234 
 PTGC HZ EP   4   1225 56.45                             111   10.76 0  312 159 
 PTGC HN ES   4   1226 17.74                             111   -2.34 0  312 159 
 PTGC HZ I        1226 32.67        12.5 0.40            111            312 159 
 ELA  HZ EP   9   1225 50.15                             110    1.69 0  330 229 
 ELA  HE ES       1226 26.49                             110   -0.20 7  330 229 
 ELA  HZ I        1226 40.27         5.2 0.54            109            330 229 
 PRA  HZ IP       1225 54.82                             106   -0.43 6  394 209 
 PRA  HE ES       1226 37.27                             106    0.18 6  394 209 
 PRA  HZ I        1226 43.31         7.2 0.26            105            394 209 
 ORTC HZ EP       1225 55.70                             106    0.08 6  397 216 
 ORTC HE ES       1226 38.86                             106    1.12 6  397 216 
 ORTC HZ I        1226 43.98         4.5 0.36            105            397 216 
 PAL  HZ EP       1225 57.18                             105    0.45 6  406 239 
 PAL  HN ES       1226 39.80                             105    0.08 6  406 239 
 PAL  HZ I        1226 46.92         2.3 0.20            105            406 239 
 CRJC HZ EP   9   1226  1.21                             103   -2.53 0  465   4 
 CRJC HE ES       1226 49.04                             103   -0.63 5  465   4 
 CRJC HZ I        1226 58.71         3.9 0.26            103            465   4 
                                                                                
