 2013  6 5 1306 30.7 L   6.754 -73.196142.6  RSN  6 0.3 1.7LRSN                1
 GAP=172        0.72       3.8     4.7  4.9  0.2949E+01  0.5070E+01 -0.3227E+01E
 Epicentro: VILLANUEVA - SANTANDER                                             3
 ACTION:UPD 14-01-08 09:52 OP:ep   STATUS:               ID:20130605130630 L   I
 OLDACT:REG 13-06-05 16:11 OP:nd   STATUS:               ID:20130605130000     3
 2013-06-05-1300-00M.COL___261                                                 6
 STAT SP IPHASW D HRMM SECON CODA AMPLIT PERI AZIMU VELO AIN AR TRES W  DIS CAZ7
 BAR2 SZ EP       13 6 49.93                             173    0.0910 18.0 175 
 BAR2 SZ ES       13 7  4.51                             173   -0.2710 18.0 175 
 BAR2 SZ I        13 7  5.66        12.4 0.20            175           18.0 175 
 GIR2 SZ EP       13 6 50.09                             165   -0.0310 35.9   0 
 GIR2 SZ ES       13 7  5.59                             165    0.3110 35.9   0 
 GIR2 SZ I        13 7  9.80         5.6 0.44            162           35.9   0 
 BRR  HZ IP     C 13 6 52.02                             153    0.6510 69.1 304 
 BRR  HZ I        13 7  4.50        22.2 0.40            150           69.1 304 
 BRR  HN ES   2   13 7  7.10                             153   -0.41 5 69.1 304 
 RUS  HZ EP       13 6 53.65                             145   -0.1510 96.1 173 
 RUS  HN ES       13 7 11.70                             145   -0.1410 96.1 173 
 RUS  HZ I        13 7 13.10         5.2 0.22            146           96.1 173 
 PTB  HZ EP       13 6 56.86                             133    0.05 9  141 260 
 PTB  HN ES       13 7 17.09                             133   -0.11 9  141 260 
 PTB  HZ I        13 7 19.95         4.8 0.44            132            141 260 
 SML  HZ EP       13 7  7.01                             116   -0.38 8  246 337 
 SML  HN ES   2   13 7 35.60                             116   -0.42 4  246 337 
 SML  HZ I        13 7 37.20         8.8 0.28            115            246 337 
                                                                                
