 2013  9 5 1245  5.3 L   6.771 -73.131143.6  RSN  9 0.5 2.1LRSN                1
 GAP=140        0.99       4.0     4.6  6.7 -0.2869E+01  0.1298E+02 -0.4358E+00E
 Epicentro: LOS SANTOS - SANTANDER                                             3
 ACTION:UPD 13-10-22 09:20 OP:ep   STATUS:               ID:20130905124505 L   I
 OLDACT:REG 13-09-05 14:44 OP:jn   STATUS:               ID:20130905123959     3
 2013-09-05-1239-59M.COL___269                                                 6
 STAT SP IPHASW D HRMM SECON CODA AMPLIT PERI AZIMU VELO AIN AR TRES W  DIS CAZ7
 BAR2 SZ EP     D 1245 24.63                             171    0.0410 20.6 196 
 BAR2 SZ ES       1245 39.99                             171    0.3310 20.6 196 
 BAR2 SZ I        1245 40.63        43.6 0.16            172           20.6 196 
 BRR  HZ EP     C 1245 26.57                             151    0.2110 74.2 300 
 BRR  HE ES   1   1245 43.07                             151    0.25 7 74.2 300 
 BRR  HZ I        1245 45.16        21.2 0.14            151           74.2 300 
 PAM  SZ IP     C 1245 27.71                             150    0.3610 78.9  37 
 PAM  SN ES       1245 44.07                             150   -0.5010 78.9  37 
 PAM  SZ I        1245 47.38        15.6 0.28            152           78.9  37 
 RUS  HZ EP       1245 28.34                             144   -0.2410 97.3 177 
 RUS  HN ES       1245 46.89                             144    0.1410 97.3 177 
 RUS  HZ I        1245 49.17         9.6 0.28            147           97.3 177 
 PTB  HZ EP       1245 31.53                             131   -0.63 9  149 260 
 PTB  HN ES   1   1245 51.99                             131   -1.14 7  149 260 
 PTB  HZ I        1245 55.17        23.8 0.17            132            149 260 
 ZAR  HZ EP   1   1245 38.57                             121    0.71 6  207 293 
 ZAR  HN ES   1   1246  4.08                             121    0.80 6  207 293 
 ZAR  HZ I        1246  8.64        14.0 0.56            123            207 293 
 NOR  HZ EP   1   1245 40.55                             118   -0.27 6  234 235 
 NOR  HE ES       1246  8.73                             118    0.18 8  234 235 
 NOR  HZ I        1246 10.86        10.3 0.18            120            234 235 
 SML  HN ES   1   1246 10.62                             117   -0.33 6  247 335 
 GUY2CHZ EP   1   1245 49.18                             112    0.45 5  301 235 
 GUY2CHE ES   1   1246 22.60                             112   -0.02 5  301 235 
 GUY2CHZ I        1246 29.84         5.2 0.28                           301 235 
                                                                                
