 2015  4 5 1744 22.3 L   6.854 -73.144146.6  RSN  4 0.5 1.4LRSN                1
 GAP=146        1.19       8.1     9.2  9.8  0.1049E+02  0.1480E+02 -0.2896E+02E
 Epicentro: LOS SANTOS - SANTANDER                                             3
 ACTION:UPD 15-06-03 16:52 OP:cam  STATUS:               ID:20150405174422 L   I
 OLDACT:REG 15-04-05 21:15 OP:fm   STATUS:               ID:20150405173749     3
 2015-04-05-1737-49M.COL___276                                                 6
 STAT SP IPHASW D HRMM SECON CODA AMPLIT PERI AZIMU VELO AIN AR TRES W  DIS CAZ7
 BAR2 EZ EP       1744 41.94                             168   -0.2310 29.2 188 
 BAR2 EZ ES       1744 57.00                             168   -0.6610 29.2 188 
 BAR2 EZ I        1744 58.98         2.8 0.34            172           29.2 188 
 BRR  HZ EP       1744 43.80                             153    0.3910 68.7 294 
 BRR  HN ES       1745  0.48                             153    0.6210 68.7 294 
 BRR  HZ I        1745  4.66         4.2 0.48            152           68.7 294 
 PAM  SZ EP   1   1744 45.01                             153    0.66 7 72.8  42 
 PAM  SN ES       1745  1.65                             153    0.1210 72.8  42 
 PAM  SZ I        1745  4.04         4.7 0.50            154           72.8  42 
 SML  HZ EP       1744 58.17                             118   -0.24 8  238 335 
 SML  HN ES       1745 25.87                             118   -0.69 8  238 335 
 SML  HZ I        1745 30.25         2.8 0.28            120            238 335 
                                                                                
