 2014  8 5 1312 52.8 L   6.814 -73.170150.0  RSN  8 0.4 1.8LRSN                1
 GAP=133        0.89       3.3     4.0  5.4 -0.2982E+01  0.7010E+01 -0.1446E+01E
 Epicentro: LOS SANTOS - SANTANDER                                             3
 ACTION:UPD 14-09-15 21:47 OP:nd   STATUS:               ID:20140805131252 L   I
 OLDACT:REG 14-08-05 20:47 OP:carl STATUS:               ID:20140805130815     3
 2014-08-05-1308-15M.COL___251                                                 6
 STAT SP IPHASW D HRMM SECON CODA AMPLIT PERI AZIMU VELO AIN AR TRES W  DIS CAZ7
 BAR2 SZ EP       1313 13.23                             170    0.2810 24.5 183 
 BAR2 SZ ES       1313 28.53                             170   -0.1410 24.5 183 
 BAR2 SZ I        1313 29.89        14.8 0.16            171           24.5 183 
 BRR  HZ EP       1313 14.77                             154    0.5510 68.1 298 
 BRR  HN ES       1313 31.04                             154    0.0910 68.1 298 
 PAM  SZ EP       1313 15.45                             151   -0.0310 78.0  42 
 PAM  SN ES       1313 33.04                             151   -0.1510 78.0  42 
 PAM  SZ I        1313 35.04        13.0 0.56            153           78.0  42 
 RUS  HZ EP       1313 16.68                             144   -0.3910  102 175 
 RUS  HN ES       1313 36.03                             144    0.0110  102 175 
 RUS  HZ I        1313 39.41         3.8 0.38            146            102 175 
 PTB  HZ EP       1313 19.98                             133    0.09 9  145 258 
 PTB  HN ES       1313 41.07                             133    0.03 9  145 258 
 PTB  HZ I        1313 44.73         5.6 0.12            134            145 258 
 NOR  HN ES       1313 56.98                             119    0.40 8  233 234 
 SML  HZ EP       1313 29.06                             119   -0.32 8  241 336 
 SML  HN ES       1313 57.74                             119   -0.19 8  241 336 
 SML  HZ I        1314  2.71        10.3 0.28            120            241 336 
 GUY2CHZ EP       1313 37.03                             113    0.59 7  300 234 
 GUY2CHN ES       1314  9.41                             113   -1.09 7  300 234 
 GUY2CHZ I        1314 19.98         2.5 0.36                           300 234 
                                                                                
