 2017 10 5 1016 14.7 L   6.747 -73.045142.2  RSN  4 0.2 1.3LRSN                1
 GAP=152        0.51       2.7     3.3  4.3  0.3475E+00  0.5557E+01 -0.1745E+01E
 Epicentro: JORDAN - SANTANDER                                                 3
 ACTION:UPD 17-11-07 19:28 OP:rebc STATUS:               ID:20171005101614 L   I
 OLDACT:REG 17-10-05 19:27 OP:dhb  STATUS:               ID:20171005100740     3
 2017-10-05-1008-00M.COL___438                                                 6
 STAT SP IPHASW D HRMM SECON CODA AMPLIT PERI AZIMU VELO AIN AR TRES W  DIS CAZ7
 BAR2 EZ EP       1016 33.61                             170   -0.3210 22.9 221 
 BAR2 EZ ES       1016 48.92                             170    0.0210 22.9 221 
 BAR2 EZ I        1016 50.32         6.8 0.16            170           22.9 221 
 PAM  EZ IP     C 1016 36.61                             151    0.1310 75.8  30 
 PAM  EN ES       1016 53.43                             151   -0.0110 75.8  30 
 PAM  EZ I        1016 55.80         3.7 0.46            153           75.8  30 
 PAM  EZ I      C 1017 15.00                                           75.8  30 
 RUS  HZ EP       1016 37.97                             145    0.2610 94.6 183 
 RUS  HN ES       1016 55.59                             145   -0.0410 94.6 183 
 RUS  HZ I        1016 57.83         1.7 0.13            147           94.6 183 
 ZAR  HZ EP       1016 48.05                             120   -0.21 8  217 292 
 ZAR  HN ES       1017 14.58                             120    0.17 8  217 292 
 ZAR  HZ I        1017 17.59         1.8 0.16            121            217 292 
                                                                                
