 2010 10 5 1908 39.2 L   6.788 -73.076143.4  RSN 12 0.5 2.7LRSN                1
 GAP=167        1.25       4.9     7.4  7.6 -0.1122E+02  0.5927E+01  0.5184E+01E
 Epicentro: LOS SANTOS - SANTANDER                                             3
 ACTION:UP  11-02-18 11:07 OP:tino STATUS:               ID:20101005190839 L   I
 2010-10-05-1907-23S.COL___122                                                 6
 STAT SP IPHASW D HRMM SECON CODA AMPLIT PERI AZIMU VELO SNR AR TRES W  DIS CAZ7
 BAR2 SZ EP       19 8 58.54                             170     0.010   25 209 
 BAR2 SZ ES   1   19 9 13.75                             170     0.1 7   25 209 
 BAR2 SZ I        19 9 15.30       174.4 0.42                            25 209 
 BRR  HZ IP     C 19 9  0.37                             150    -0.210   79 297 
 BRR  HZ I        19 9  0.69       139.1 0.21                            79 297 
 BRR  HN ES       19 9 17.68                             150     0.510   79 297 
 RUS  HZ EP       19 9  2.37                             144    -0.210   99 180 
 RUS  HN ES       19 9 20.75                             144    -0.110   99 180 
 RUS  HZ I        19 9 22.47        47.0 0.81                            99 180 
 GUE  SZ EP       19 9  3.55                             139    -0.110  116   8 
 GRA  SZ EP       19 9  4.31                             137     0.210  125  14 
 NOR  SZ EP       19 9 14.73                             117    -0.7 8  240 236 
 NOR  SN ES       19 9 42.49                             117    -1.2 8  240 236 
 CHI  HZ EP       19 9 16.48                             117    -0.4 8  250 197 
 CHI  HZ I        19 9 17.61        19.1 0.56                           250 197 
 CHI  HN ES   1   19 9 46.35                             117     0.1 6  250 197 
 ROSC BZ EP       19 9 18.49                             116     1.0 8  256 213 
 ROSC BN ES   2   19 9 47.42                             116     0.0 4  256 213 
 ROSC BZ I        19 9 54.48        21.8 0.35                           256 213 
 HEL  HN ES   2   19 9 51.72                             114    -0.3 4  279 256 
 HEL  HZ I        19 9 55.96        10.0 1.44                           279 256 
 RREF HZ EP       19 9 26.53                             110     0.7 7  327 230 
 RREF HN ES   2   1910  3.04                             110     0.9 3  327 230 
 RREF HZ I        1910  6.81        17.0 1.34                           327 230 
 TOL  SZ EP       19 9 27.92                             109     0.0 6  348 226 
 PRA  HN ES       1910 15.76                             106     0.9 6  395 211 
 PRA  HZ I        1910 18.94        47.4 0.28                           395 211 
                                                                                
