 2016  5 5 1227 21.9 L   6.803 -73.150146.7  RSN  7 0.4 1.7LRSN                1
 GAP=136        0.94       4.0     4.8  5.9 -0.2863E+01  0.3841E+01  0.8103E+01E
 Epicentro: LOS SANTOS - SANTANDER                                             3
 ACTION:UPD 16-08-18 17:42 OP:cam  STATUS:               ID:20160505122721 L   I
 OLDACT:DUP 16-05-05 21:47 OP:dani STATUS:               ID:20160505121743d    3
 OLDACT:REG 16-05-05 20:19 OP:dnl  STATUS:               ID:20160505121742     3
 2016-05-05-1217-42M.COL___306                                                 6
 STAT SP IPHASW D HRMM SECON CODA AMPLIT PERI AZIMU VELO AIN AR TRES W  DIS CAZ7
 BAR2 EZ EP       1227 41.50                             170   -0.1810 23.5 189 
 BAR2 EZ ES       1227 56.72                             170   -0.3610 23.5 189 
 BAR2 EZ I        1227 59.25        16.0 0.28            169           23.5 189 
 BRR  HZ EP       1227 43.33                             153    0.1810 70.7 298 
 BRR  HN ES       1228  0.48                             153    0.7710 70.7 298 
 PAM  EZ EP     D 1227 44.45                             151    0.2010 77.4  40 
 PAM  EN ES       1228  1.59                             151   -0.0710 77.4  40 
 PAM  EZ I        1228  4.51        11.3 0.34            154           77.4  40 
 RUS  HZ EP       1227 45.65                             144   -0.1510  101 176 
 RUS  HE ES       1228  4.32                             144   -0.0910  101 176 
 RUS  HZ I        1228  5.34         7.1 0.38            145            101 176 
 PTB  HZ EP       1227 48.38                             132   -0.56 9  147 259 
 PTB  HN ES       1228  9.55                             132   -0.46 9  147 259 
 PTB  HZ I        1228 14.30         6.2 0.16            133            147 259 
 CHI  HZ EP       1227 59.75                             117    0.05 8  249 195 
 CHI  HN ES       1228 29.85                             117    0.69 8  249 195 
 CHI  HZ I        1228 34.99         3.5 0.38            118            249 195 
 PRA  HZ EP       1228 15.64                             107    0.15 6  392 209 
 PRA  HN ES       1228 57.51                             107    0.25 6  392 209 
                                                                                
