 2017  4 5 1859  8.3 L   6.799 -73.153142.8  RSN  9 0.4 2.2LRSN                1
 GAP=111        1.05       3.7     3.6  6.0  0.1692E+01  0.4552E+01  0.3647E+01E
 Epicentro: LOS SANTOS - SANTANDER                                             3
 ACTION:UPD 17-05-30 21:08 OP:jn   STATUS:               ID:20170405185908 L   I
 OLDACT:UP  17-04-05 23:22 OP:ar   STATUS:               ID:20170405184740     3
 OLDACT:REG 17-04-05 21:02 OP:ar   STATUS:               ID:20170405184740     3
 2017-04-05-1848-00M.COL___368                                                 6
 STAT SP IPHASW D HRMM SECON CODA AMPLIT PERI AZIMU VELO AIN AR TRES W  DIS CAZ7
 BAR2 EZ EP       1859 27.44                             170   -0.0910 23.1 188 
 BAR2 EZ ES       1859 42.47                             170   -0.0810 23.1 188 
 BAR2 EZ I        1859 43.22        67.0 0.32            170           23.1 188 
 BRR  HZ IP     C 1859 29.11                             152    0.0610 70.6 299 
 BRR  HN ES       1859 46.10                             152    0.8410 70.6 299 
 BRR  HZ I        1859 46.87        37.3 0.16            153           70.6 299 
 PAM  EZ EP       1859 30.37                             150    0.1810 77.9  40 
 PAM  EE ES       1859 46.70                             150   -0.6010 77.9  40 
 PAM  EZ I        1859 49.92        17.1 0.60            152           77.9  40 
 RUS  HZ EP       1859 31.62                             143   -0.1010  101 176 
 RUS  HE ES       1859 50.20                             143    0.1910  101 176 
 RUS  HZ I        1859 51.92        16.7 0.18            143            101 176 
 PTB  HZ EP       1859 33.99                             131   -0.93 9  147 259 
 PTB  HN ES       1859 55.17                             131   -0.53 9  147 259 
 PTB  HZ I        1859 55.94        17.2 0.16            132            147 259 
 SPBC HZ EP       1859 36.67                             128    0.19 9  163 219 
 SPBC HN ES       1859 58.63                             128    0.14 9  163 219 
 SPBC HZ I        19 0  0.90        26.2 0.14            129            163 219 
 YPLC HZ EP       1859 37.96                             126    0.09 9  177 151 
 YPLC HN ES       19 0  1.07                             126    0.11 9  177 151 
 YPLC HZ I        19 0  4.91         9.7 0.28            127            177 151 
 ZAR  HZ EP       1859 41.16                             122    0.72 9  203 292 
 ZAR  HE ES       19 0  5.46                             122   -0.08 9  203 292 
 ZAR  HZ I        19 0 10.54        27.0 0.56            123            203 292 
 NOR  HZ EP       1859 43.95                             118    0.20 8  234 234 
 NOR  HE ES       19 0 11.19                             118   -0.23 8  234 234 
 NOR  HZ I        19 0 16.91        11.8 0.14            118            234 234 
                                                                                
