 2013 11 5 1133 10.6 L   6.806 -73.175135.7  RSN  9 0.5 2.0LRSN                1
 GAP=133        1.24       4.3     5.4  8.6  0.5343E-01  0.1678E+02 -0.8795E+01E
 Epicentro: LOS SANTOS - SANTANDER                                             3
 ACTION:UPD 14-01-09 16:25 OP:ep   STATUS:               ID:20131105113310 L   I
 OLDACT:REG 13-11-05 18:15 OP:jn   STATUS:               ID:20131105113001d    3
 2013-11-05-1130-00M.COL___273                                                 6
 STAT SP IPHASW D HRMM SECON CODA AMPLIT PERI AZIMU VELO AIN AR TRES W  DIS CAZ7
 BAR2 SZ EP       1133 29.16                             170    0.1410 23.7 182 
 BAR2 SZ ES       1133 43.21                             170   -0.1910 23.7 182 
 BAR2 SZ I        1133 45.38        25.2 0.38            172           23.7 182 
 BRR  HZ EP       1133 31.16                             152    0.6810 68.0 299 
 BRR  HN ES   2   1133 46.12                             152    0.13 5 68.0 299 
 BRR  HZ I        1133 52.32        18.9 0.12            146           68.0 299 
 PAM  SZ EP       1133 32.18                             148    0.3310 79.0  42 
 PAM  SN ES       1133 48.82                             148    0.3910 79.0  42 
 PAM  SZ I        1133 51.28        30.8 0.62            145           79.0  42 
 RUS  HZ EP       1133 33.11                             141   -0.3310  102 174 
 RUS  HN ES       1133 50.97                             141   -0.2910  102 174 
 RUS  HZ I        1133 52.64         8.7 0.38            141            102 174 
 PTB  HZ EP       1133 36.27                             130   -0.21 9  145 258 
 PTB  HN ES       1133 56.21                             130   -0.45 9  145 258 
 PTB  HZ I        1134  0.18        11.3 0.16            126            145 258 
 OCA  HN ES       1133 58.98                             127   -0.47 9  159 354 
 OCA  HZ I        1134  2.83        12.8 0.36            123            159 354 
 ZAR  HZ EP       1133 43.04                             120    0.98 9  201 292 
 ZAR  HN ES       1134  7.25                             120    0.65 9  201 292 
 ZAR  HZ I        1134 13.19        13.9 0.34            116            201 292 
 SML  HZ EP       1133 45.70                             115   -0.76 8  242 336 
 SML  HE ES       1134 13.65                             115   -0.79 8  242 336 
 SJC  HZ EP   4   1134  3.91                             104   -1.66 0  407 327 
 SJC  HZ I        1134 49.17         2.0 0.36            101            407 327 
                                                                                
