 2010 11 5 1222 31.8 L   6.849 -72.979138.6  RSN  4 0.1 2.0LRSN                1
 GAP=257        0.43       4.2     6.2  4.6  0.1671E+02 -0.8141E+01 -0.1979E+01E
 Epicentro: CEPITA - SANTANDER                                                 3
 ACTION:UP  10-12-17 16:50 OP:REBC STATUS:               ID:20101105122231 L   I
 2010-11-05-1219-34S.COL___129                                                 6
 STAT SP IPHASW D HRMM SECON CODA AMPLIT PERI AZIMU VELO SNR AR TRES W  DIS CAZ7
 BAR2 SZ EP       1222 51.05                             165     0.210   36 218 
 BAR2 SZ ES   1   1223  5.64                             165    -0.2 7   36 218 
 BAR2 SZ I        1223  7.18        27.6 0.25                            36 218 
 BRR  HZ EP       1222 52.91                             146    -0.210   86 289 
 BRR  HN ES       1223  9.77                             146     0.110   86 289 
 BRR  HZ I        1223 10.85        30.6 0.52                            86 289 
 RUS  HZ EP       1222 55.23                             141     0.010  106 186 
 RUS  HN ES   1   1223 13.59                             141     0.0 7  106 186 
 RUS  HZ I        1223 15.76         8.7 0.58                           106 186 
 RREF HN ES   2   1223 56.96                             108     0.0 3  339 231 
 RREF HZ I        1224  1.02         3.4 0.22                           339 231 
                                                                                
