 2011 12 5 1558 43.5 L   6.602 -73.339181.9  RSN  4 0.4 1.7LRSN                1
 GAP=163        0.69       9.3    11.1 10.5  0.1533E+02 -0.2701E+02 -0.2960E+01E
 Epicentro: HATO - SANTANDER                                                   3
 ACTION:UPD 12-07-13 16:14 OP:ep   STATUS:               ID:20111205155843 L   I
 2011-12-05-1550-00M.COL___183                                                 6
 STAT SP IPHASW D HRMM SECON CODA AMPLIT PERI AZIMU VELO AIN AR TRES W  DIS CAZ7
 BAR2 SZ EP   1   1559  7.34                             174   -0.08 7 17.4  94 
 BRR  HZ EP   1   1559  9.11                             158    0.53 7 69.4 324 
 BRR  HN ES   1   1559 27.85                             158   -0.28 7 69.4 324 
 BRR  HZ I        1559 31.94         7.3 0.26                          69.4 324 
 RUS  HE ES   2   1559 30.66                             154    0.02 5 83.4 160 
 PAM  SZ EP   1   1559 10.99                             148   -0.43 7  108  41 
 PAM  SN ES   2   1559 33.74                             148    0.56 5  108  41 
                                                                                
