 2016  7 5 1321 38.6 L   6.576 -73.522110.4  RSN 21 0.5 2.9LRSN                1
 GAP=103        1.00       3.3     3.0  5.7 -0.4292E+01  0.8852E+01 -0.2532E+01E
 Epicentro: EL CARMEN - SANTANDER                                              3
 ACTION:UPD 17-03-29 16:47 OP:lp   STATUS:               ID:20160705132138 L   I
 OLDACT:REG 16-07-05 22:15 OP:dnl  STATUS:               ID:20160705131745     3
 2016-07-05-1317-45M.COL___322                                                 6
 STAT SP IPHASW D HRMM SECON CODA AMPLIT PERI AZIMU VELO AIN AR TRES W  DIS CAZ7
 BAR2 EZ IP     C 1321 54.83                             160    0.3310 37.6  87 
 BAR2 EZ ES       1322  7.50                             160    0.6110 37.6  87 
 BAR2 EZ I        1322  8.68       545.6 0.30            163           37.6  87 
 RUS  HZ IP     C 1321 57.88                             138   -0.3010 89.8 147 
 RUS  HN ES       1322 13.42                             138   -0.0210 89.8 147 
 RUS  HZ I        1322 15.00        79.7 0.52            139           89.8 147 
 PTB  HZ IP     D 1321 57.67                             133   -1.0010  103 268 
 PTB  HE ES   4   1322 12.67                             133   -1.65 0  103 268 
 PTB  HZ I        1322 14.04       270.8 0.20            134            103 268 
 SPBC HZ EP       1321 59.60                             129   -0.6010  119 211 
 SPBC HE ES       1322 16.38                             129   -0.6610  119 211 
 SPBC HZ I        1322 22.79       149.5 0.36            129            119 211 
 PAM  EZ EP       1322  1.07                             128   -0.1510  124  47 
 PAM  EN ES       1322 19.27                             128    0.4110  124  47 
 PAM  EZ I        1322 20.41       113.9 0.42            132            124  47 
 ZAR  HZ EP       1322  6.69                             117    0.43 9  179 305 
 ZAR  HE ES   4   1322 29.23                             117    1.40 0  179 305 
 ZAR  HZ I        1322 32.92       169.5 0.30            118            179 305 
 NOR  HZ EP       1322  6.48                             116   -0.65 9  186 233 
 NOR  HN ES       1322 29.20                             116   -0.18 9  186 233 
 NOR  HZ I        1322 32.00       124.9 0.18            116            186 233 
 TAM  HZ IP     C 1322  7.61                             115   -0.13 9  192  95 
 TAM  HN ES   2   1322 30.46                             115   -0.00 4  192  95 
 TAM  HZ I        1322 33.35        72.2 0.56            117            192  95 
 ROSC BZ EP   4   1322 11.72                             113    1.39 0  211 205 
 ROSC BN ES   4   1322 37.12                             113    2.04 0  211 205 
 ROSC BZ I        1322 41.64        68.9 0.60            113            211 205 
 CHI  HZ EP   2   1322 10.85                             112   -0.09 4  216 186 
 CHI  HN ES   2   1322 36.44                             112    0.28 4  216 186 
 CHI  HZ I        1322 41.26        22.8 0.24            113            216 186 
 HEL  HZ EP       1322 11.91                             111   -0.06 8  226 259 
 HEL  HE ES       1322 37.72                             111   -0.27 8  226 259 
 HEL  HZ I        1322 41.88        68.4 0.54            112            226 259 
 GUY2CHZ EP       1322 15.76                             108    0.57 8  253 234 
 GUY2CHN ES       1322 44.17                             108            253 234 
 GUY2CHN IS       1322 44.17                             108    0.44 8  253 234 
 GUY2CHZ I        1322 48.59        52.5 0.40                           253 234 
 URE  HZ EP   2   1322 14.31                             108   -0.82 4  257 300 
 URE  HE ES   4   1322 41.96                             108   -1.65 0  257 300 
 URE  HZ I        1322 46.44        77.3 0.16            109            257 300 
 CBOC HZ EP       1322 19.21                             105    0.47 7  287 254 
 CBOC HE ES       1322 50.29                             105    0.24 7  287 254 
 CBOC HZ I        1322 57.09        20.0 0.50            106            287 254 
 DBB  SZ EP       1322 20.52                             104    0.18 7  301 279 
 DBB  SZ ES   4   1322 48.35                             104   -4.54 0  301 279 
 ANIL HZ EP       1322 21.56                             104   -0.19 7  311 222 
 ANIL HE ES       1322 55.98                             104    0.58 7  311 222 
 ANIL HZ I        1323  2.04        84.2 0.30            105            311 222 
 SOCV BZ EP   2   1322 25.71                             101   -0.34 3  350  57 
 SOCV BE ES   4   1323  0.52                             101   -2.53 0  350  57 
 ORTC HZ EP       1322 26.89                             101    0.62 6  351 213 
 ORTC HN ES       1323  4.12                             101    0.68 6  351 213 
 ORTC HZ I        1323  9.91        20.1 0.36            102            351 213 
 PRA  HZ EP       1322 26.21                             101    0.01 6  351 206 
 PRA  HE ES       1323  3.84                             101    0.53 6  351 206 
 PRA  HZ I        1323  8.24        30.5 0.32            102            351 206 
 PAL  HZ EP       1322 27.09                             101    0.08 6  357 239 
 PAL  HE ES   3   1323  4.77                             101    0.01 2  357 239 
 PAL  HZ I        1323  9.85        20.1 0.32            102            357 239 
 SJC  HZ EP   4   1322 31.16                              99   -2.19 0  410 334 
 SJC  HN ES   4   1323 13.10                              99   -2.95 0  410 334 
 SJC  HZ I        1323 17.59        16.8 0.40            100            410 334 
                                                                                
