 2010  7 5 1906 59.0 L   6.777 -73.133146.4  RSN  6 0.2 1.8LRSN                1
 GAP=157        0.52       3.0     6.4  5.7  0.1446E+01 -0.1241E+02 -0.2759E+01E
 Epicentro: LOS SANTOS - SANTANDER                                             3
 ACTION:UPD 10-12-01 15:15 OP:pat  STATUS:               ID:20100705190659 L   I
 2010-07-05-1904-48S.COL___117                                                 6
 STAT SP IPHASW D HRMM SECON CODA AMPLIT PERI AZIMU VELO AIN AR TRES W  DIS CAZ7
 BAR2 SZ EP       19 7 18.66                             171     0.010   21 195 
 BAR2 SZ ES   2   19 7 33.66                             171    -0.3 5   21 195 
 BRR  HZ EP       19 7 20.48                             152     0.110   74 300 
 BRR  HN ES   1   19 7 37.12                             152     0.1 7   74 300 
 BRR  HZ I        19 7 41.38        24.2 0.60                            74 300 
 RUS  HZ EP       19 7 22.72                             145     0.110   98 177 
 RUS  HZ I        19 7 23.42         5.3 0.32                            98 177 
 RUS  HN ES   2   19 7 40.83                             145    -0.2 5   98 177 
 BRI  SZ EP       19 7 23.28                             141     0.210  110  20 
 BRI  SZ ES   2   19 7 41.81                             141    -0.1 5  110  20 
 BRI  SZ I        19 7 49.43         6.1 0.53                           110  20 
 OCA  SZ EP       19 7 27.21                             129    -0.4 9  163 353 
 OCA  SZ ES   3   19 7 50.36                             129     0.4 2  163 353 
 OCA  SZ I        19 7 54.26         8.8 0.17                           163 353 
 CHI  HZ EP   3   19 7 35.85                             117    -0.6 2  247 196 
 CHI  HE ES   3   19 8  5.56                             117    -0.2 2  247 196 
 CHI  HZ I        19 8  9.80         4.1 0.34                           247 196 
                                                                                
