 2017  5 5 1030 52.9 L   6.787 -73.130146.4  RSN  4 0.1 1.1LRSN                1
 GAP=139        0.61       4.2     3.5  6.7  0.2306E+00  0.2185E+01 -0.2919E+01E
 Epicentro: LOS SANTOS - SANTANDER                                             3
 ACTION:UPD 17-06-16 13:33 OP:jn   STATUS:               ID:20170505103052 L   I
 OLDACT:UP  17-05-05 21:31 OP:and  STATUS:               ID:20170505102735     3
 OLDACT:UP  17-05-05 21:31 OP:and  STATUS:               ID:20170505102735     3
 OLDACT:REG 17-05-05 20:16 OP:and  STATUS:               ID:20170505102735     3
 2017-05-05-1028-00M.COL___370                                                 6
 STAT SP IPHASW D HRMM SECON CODA AMPLIT PERI AZIMU VELO AIN AR TRES W  DIS CAZ7
 PAM  EZ IP     D 1031 15.17                             150    0.0210 77.5  38 
 PAM  EN ES       1031 32.44                             150   -0.1010 77.5  38 
 PAM  EZ I        1031 33.98         2.0 0.52            154           77.5  38 
 RUS  HZ EP   2   1031 16.56                             143   -0.00 5 99.0 177 
 RUS  HN ES   1   1031 35.10                             143    0.05 7 99.0 177 
 RUS  HZ I        1031 36.14         2.4 0.26            144           99.0 177 
 PTB  HZ EP   9   1031 19.51                             131   -0.50 0  149 260 
 PTB  HN ES       1031 40.14                             132   -0.55 9  149 260 
 PTB  HZ I        1031 47.65         1.8 0.42            130            149 260 
 ZAR  HE ES       1031 51.16                             121    0.07 8  206 292 
                                                                                
