 2012  4 5 1703 40.3 L   6.721 -73.128148.0  RSN  5 0.4 1.7LRSN                1
 GAP=142        0.61       7.2     6.0  9.1 -0.2950E+01 -0.1373E+02 -0.1265E+02E
 Epicentro: JORDAN - SANTANDER                                                 3
 ACTION:UPD 12-07-05 11:50 OP:tino STATUS:               ID:20120405170340 L   I
 2012-04-05-1700-00M.COL___196                                                 6
 STAT SP IPHASW D HRMM SECON CODA AMPLIT PERI AZIMU VELO AIN AR TRES W  DIS CAZ7
 BAR2 SZ EP   3   17 3 59.97                             174    -0.1 2   15 203 
 BAR2 SZ ES   3   17 4 15.06                             174    -0.5 2   15 203 
 BRR  HZ EP       17 4  2.11                             151     0.010   77 304 
 BRR  HZ I        17 4  2.33         9.2 0.32                            77 304 
 BRR  HN ES   1   17 4 19.47                             151     0.4 7   77 304 
 PAM  SZ EP       17 4  3.11                             150     0.010   83  35 
 PAM  SE ES   3   17 4 19.54                             150    -1.4 2   83  35 
 RUS  HN ES   2   17 4 22.26                             147     0.4 5   92 177 
 PTB  HZ EP   2   17 4  7.16                             133    -0.4 5  148 262 
 PTB  HN ES   2   17 4 28.13                             133    -0.6 5  148 262 
                                                                                
