 2014  9 5 1031 50.7 L   6.784 -73.153148.0  RSN 11 0.4 1.8LRSN                1
 GAP=136        0.93       3.2     4.0  6.4 -0.2528E+01  0.4324E+01 -0.2649E+01E
 Epicentro: LOS SANTOS - SANTANDER                                             3
 ACTION:UPD 14-10-03 23:02 OP:nd   STATUS:               ID:20140905103150 L   I
 OLDACT:REG 14-09-05 20:31 OP:fm   STATUS:               ID:20140905102818     3
 2014-09-05-1028-18M.COL___275                                                 6
 STAT SP IPHASW D HRMM SECON CODA AMPLIT PERI AZIMU VELO AIN AR TRES W  DIS CAZ7
 BAR2 SZ EP       1032 10.78                             171    0.2610 21.5 189 
 BAR2 SZ ES   1   1032 25.60                             171   -0.41 7 21.5 189 
 BAR2 SZ I        1032 26.58        20.1 0.24            169           21.5 189 
 BRR  HZ EP   1   1032 12.47                             153    0.41 7 71.4 300 
 BRR  HN ES       1032 29.32                             153    0.5810 71.4 300 
 BRR  HZ I        1032 34.13        14.3 0.30            149           71.4 300 
 PAM  SZ EP       1032 13.73                             151    0.5110 79.2  39 
 PAM  SE ES       1032 30.74                             151   -0.0710 79.2  39 
 PAM  SZ I        1032 32.96        13.2 0.50            154           79.2  39 
 RUS  HZ EP   1   1032 14.04                             145   -0.47 7 98.9 176 
 RUS  HN ES       1032 32.63                             145   -0.4810 98.9 176 
 RUS  HZ I        1032 34.17         6.0 0.28            147           98.9 176 
 PTB  HN ES       1032 38.62                             133   -0.19 9  147 259 
 SPBC HZ EP   1   1032 19.66                             130    0.51 7  161 219 
 SPBC HN ES       1032 41.78                             130    0.40 9  161 219 
 SPBC HZ I        1032 46.69         4.8 0.22            130            161 219 
 OCA  HZ EP   1   1032 18.77                             130   -0.53 7  162 353 
 OCA  HE ES       1032 41.46                             130   -0.17 9  162 353 
 OCA  HZ I        1032 45.79         7.6 0.70            130            162 353 
 ZAR  HN ES       1032 48.24                             123   -0.42 9  204 293 
 ZAR  HZ I        1032 55.62         7.5 0.18            122            204 293 
 NOR  HZ EP   4   1032 22.56                             119   -3.78 0  233 235 
 NOR  HN ES   4   1032 55.27                             119    1.10 0  233 235 
 NOR  HZ I        1033  3.32         3.7 0.18            119            233 235 
 SML  HZ EP       1032 27.27                             118   -0.28 8  245 336 
 SML  HE ES   4   1032 54.96                             118   -1.36 0  245 336 
 SML  HZ I        1032 59.94         7.7 0.30            118            245 336 
 GUY2CHN ES   1   1033  7.86                             113   -0.27 5  300 235 
 GUY2CHZ I        1033 19.54         1.3 0.50                           300 235 
                                                                                
