 2011  6 5 1100 43.3 L   6.798 -73.100143.5  RSN  6 0.2 1.4LRSN                1
 GAP=143        0.49       2.7     3.7  5.0 -0.3597E+01  0.2633E+01  0.2703E+01E
 Epicentro: LOS SANTOS - SANTANDER                                             3
 ACTION:UP  11-07-14 19:03 OP:ep   STATUS:               ID:20110605110043 L   I
 2011-06-05-1057-41S.COL___132                                                 6
 STAT SP IPHASW D HRMM SECON CODA AMPLIT PERI AZIMU VELO SNR AR TRES W  DIS CAZ7
 BAR2 SZ EP   1   11 1  2.14                             170    -0.5 7   25 202 
 BAR2 SZ I        11 1 18.92        11.8 0.31                            25 202 
 PAM  SZ EP   1   11 1  5.01                             151    -0.1 7   74  36 
 PAM  SN ES   1   11 1 22.04                             151     0.0 7   74  36 
 PAM  SZ I        11 1 25.01         1.9 0.40                            74  36 
 BRR  HZ EP       11 1  4.57                             151     0.110   76 297 
 BRR  HZ I        11 1  4.79        19.1 0.17                            76 297 
 BRR  HE ES   1   11 1 20.87                             151    -0.1 7   76 297 
 RUS  HZ EP       11 1  6.86                             143     0.110  100 179 
 RUS  HN ES   1   11 1 25.20                             143     0.1 7  100 179 
 RUS  HZ I        11 1 26.93         6.8 0.32                           100 179 
 GRA  SZ EP   1   11 1  8.27                             137     0.1 7  125  15 
 GRA  SZ ES   1   11 1 27.76                             137     0.1 7  125  15 
 GRA  SZ I        11 1 31.03         4.4 0.38                           125  15 
 NOR  SZ EP   1   11 1 19.20                             117    -0.1 6  239 235 
 NOR  SN ES   1   11 1 47.48                             117     0.1 6  239 235 
 NOR  SZ I        11 1 53.59         0.4 0.12                           239 235 
                                                                                
