 2014  7 5 1117 57.2 L   6.084 -74.233 24.1  RSN  8 0.4 1.2LRSN                1
 GAP= 90        0.91       2.1     1.9  2.7  0.2982E+00  0.4943E+00  0.8722E+00E
 Epicentro: LA BELLEZA - SANTANDER                                             3
 ACTION:UPD 15-03-16 20:41 OP:nd   STATUS:               ID:20140705111757 L   I
 OLDACT:DUP 14-07-05 22:56 OP:spq  STATUS:               ID:20140705110813d    3
 OLDACT:REG 14-07-05 20:15 OP:spq  STATUS:               ID:20140705110812     3
 2014-07-05-1108-12M.COL___256                                                 6
 STAT SP IPHASW D HRMM SECON CODA AMPLIT PERI AZIMU VELO AIN AR TRES W  DIS CAZ7
 SPBC HZ EP       1118  6.38                             113    0.1610 50.9 160 
 SPBC HE ES       1118 12.95                             113   -0.3210 50.9 160 
 PTB  HZ EP       1118  7.05                             111    0.1810 56.1 334 
 PTB  HN ES       1118 14.23                             111   -0.2010 56.1 334 
 RUS  HZ EP       1118 18.13                              56    0.6810  129  99 
 RUS  HN ES       1118 33.40                              56    0.1510  129  99 
 RUS  HZ I        1118 35.10         4.1 0.20             90            129  99 
 BAR2 SZ EP       1118 16.71                              56   -0.4410  129  64 
 BAR2 SZ ES   1   1118 32.16                              56   -0.56 7  129  64 
 BAR2 SZ I        1118 33.89         4.5 0.16             90            129  64 
 HEL  HZ EP       1118 19.73                              56    0.56 9  144 275 
 HEL  HN ES       1118 36.14                              56   -0.17 9  144 275 
 HEL  HZ I        1118 38.27         4.7 0.22             90            144 275 
 GUY2CHN ES       1118 39.61                              56    0.08 9  157 233 
 GUY2CHZ I        1118 43.65         1.8 0.44                           157 233 
 RREF HZ EP   4   1118 25.89                              56    1.91 0  180 223 
 RREF HN ES       1118 44.47                              56   -0.41 9  180 223 
 RREF HZ I        1118 49.05         2.8 0.32             90            180 223 
 TOL  SE ES   1   1118 49.85                              56    0.05 6  205 216 
 TOL  SZ I        1118 53.52         2.6 0.21             56            205 216 
                                                                                
