 2010  5 5 1656 59.3 L   6.722 -73.014139.6  RSN  7 0.5 2.0LRSN                1
 GAP=200        0.77       7.6    11.6  8.8 -0.6802E+02 -0.2355E+02  0.2700E+02E
 Epicentro: ARATOCA - SANTANDER                                                3
 ACTION:UP  10-08-24 10:03 OP:vdl  STATUS:               ID:20100505165659 L   I
 2010-05-05-1655-59S.COL___105                                                 6
 STAT SP IPHASW D HRMM SECON CODA AMPLIT PERI AZIMU VELO SNR AR TRES W  DIS CAZ7
 BAR2 SZ EP   1   1657 18.17                             170     0.0 8   24 233 
 BAR2 SZ ES   2   1657 32.83                             170    -0.1 5   24 233 
 BRR  HZ EP   1   1657 20.74                             146    -0.1 8   88 299 
 BRR  HE ES   2   1657 38.27                             146     0.6 5   88 299 
 BRR  HZ I        1657 39.92        14.2 0.11                            88 299 
 BRI  SZ EP   1   1657 22.80                             139    -0.2 8  113  12 
 BRI  SZ ES   2   1657 41.45                             139     0.1 5  113  12 
 GUE  SZ EP   1   1657 23.29                             136    -0.7 8  123   5 
 GUE  SZ ES   2   1657 42.96                             136    -0.3 5  123   5 
 GRA  SZ IP     D 1657 24.94                             134     0.510  131  10 
 GRA  SZ ES   2   1657 44.16                             134     0.1 5  131  10 
 RREF BZ EP   1   1657 46.43                             109     0.6 5  328 232 
 RREF BN ES   2   1658 20.99                             109    -1.2 4  328 232 
 RREF BZ I        1658 29.93         4.3 0.80                           328 232 
 PRA  HZ EP   1   1657 52.51                             105    -0.1 5  392 212 
 PRA  HN ES   2   1658 34.84                             105     0.6 3  392 212 
 PRA  HZ I        1658 39.79         4.6 0.30                           392 212 
                                                                                
