 2010 10 5 1927  8.0 L   6.794 -73.065140.0  RSN  4 0.2 1.6LRSN                1
 GAP=173        0.68       6.6    14.2 13.9  0.5522E+02 -0.1520E+03 -0.3464E+02E
 Epicentro: LOS SANTOS - SANTANDER                                             3
 ACTION:UP  11-02-18 11:07 OP:tino STATUS:               ID:20101005192708 L   I
 2010-10-05-1923-35S.COL___122                                                 6
 STAT SP IPHASW D HRMM SECON CODA AMPLIT PERI AZIMU VELO SNR AR TRES W  DIS CAZ7
 BAR2 SZ EP   1   1927 27.03                             169     0.1 7   26 210 
 BAR2 SZ I        1927 43.05        12.4 0.23                            26 210 
 BRR  HZ EP       1927 28.68                             149    -0.310   80 296 
 BRR  HN ES       1927 45.61                             149     0.210   80 296 
 BRR  HZ I        1927 48.81        12.9 0.08                            80 296 
 RUS  HZ EP       1927 31.32                             143     0.210  100 181 
 RUS  HZ I        1927 32.17         4.0 0.11                           100 181 
 RUS  HN ES   2   1927 48.70                             143    -0.4 5  100 181 
 GUE  SZ EP   1   1927 32.14                             138     0.0 7  116   8 
                                                                                
