 2017  1 5 1556 57.7 L   6.755 -73.099145.0  RSN  4 0.2 1.6LRSN                1
 GAP=145        0.56       3.0     4.4  4.6 -0.2360E+00 -0.1419E+01  0.1829E+00E
 Epicentro: LOS SANTOS - SANTANDER                                             3
 ACTION:UPD 17-05-22 15:55 OP:jn   STATUS:               ID:20170105155657 L   I
 OLDACT:DUP 17-01-05 23:31 OP:dnl  STATUS:               ID:20170105154745d    3
 2017-01-05-1548-00M.COL___375                                                 6
 STAT SP IPHASW D HRMM SECON CODA AMPLIT PERI AZIMU VELO AIN AR TRES W  DIS CAZ7
 BAR2 EZ EP   2   1557 16.55                             172   -0.61 5 20.2 207 
 BAR2 EZ ES       1557 32.14                             172   -0.2210 20.2 207 
 BAR2 EZ I        1557 34.79         7.7 0.48            172           20.2 207 
 BRR  HZ EP       1557 18.93                             150   -0.2310 78.1 300 
 BRR  HE ES       1557 36.11                             150    0.2010 78.1 300 
 BRR  HZ I        1557 37.57        12.3 0.30            152           78.1 300 
 PAM  EZ EP       1557 19.97                             150    0.1010 78.3  34 
 PAM  EN ES       1557 37.20                             150    0.0210 78.3  34 
 PAM  EZ I        1557 39.16         7.4 0.52            152           78.3  34 
 RUS  HZ EP       1557 21.21                             145    0.2210 95.4 179 
 RUS  HN ES       1557 39.22                             145    0.0510 95.4 179 
 RUS  HZ I        1557 40.83         4.8 0.38            147           95.4 179 
                                                                                
