 2017  6 5 1846 54.2 L   6.029 -73.722111.0  RSN  5 0.4 1.6LRSN                1
 GAP=146        0.97       4.2     3.8  9.8  0.1201E+01  0.1123E+02 -0.9906E+00E
 Epicentro: VELEZ - SANTANDER                                                  3
 ACTION:UPD 17-09-14 16:49 OP:jn   STATUS:               ID:20170605184654 L   I
 OLDACT:DUP 17-06-05 22:06 OP:cog  STATUS:               ID:20170605183748d    3
 2017-06-05-1838-00M.COL___356                                                 6
 STAT SP IPHASW D HRMM SECON CODA AMPLIT PERI AZIMU VELO AIN AR TRES W  DIS CAZ7
 RUS  HZ EP       1847 12.31                             145   -0.1810 72.3 102 
 RUS  HN ES       1847 26.61                             145   -0.1510 72.3 102 
 RUS  HZ I        1847 31.66         4.6 0.48            150           72.3 102 
 PTB  HZ EP       1847 13.66                             135   -0.2710 99.0 305 
 PTB  HN ES       1847 28.83                             135   -0.4910 99.0 305 
 PTB  HZ I        1847 30.44         4.7 0.30            141           99.0 305 
 BRR  HZ EP       1847 15.78                             129    0.0410  119   1 
 BRR  HE ES       1847 33.29                             129    0.7510  119   1 
 BRR  HZ I        1847 58.48        12.5 0.28            132            119   1 
 NOR  HZ EP       1847 17.77                             125    0.22 9  137 248 
 NOR  HN ES       1847 36.20                             125    0.43 9  137 248 
 NOR  HZ I        1847 38.39        12.8 0.38            139            137 248 
 ZAR  HZ EP   4   1847 22.72                             113   -2.01 0  205 322 
 ZAR  HN ES       1847 48.22                             113   -0.34 9  205 322 
 ZAR  HZ I        1847 50.19         7.2 0.26            120            205 322 
                                                                                
