 2017  7 5 1621 49.7 L   6.794 -73.138143.4  RSN 10 0.4 2.3LRSN                1
 GAP=113        1.06       4.2     3.9  6.0  0.5124E+00  0.3617E+01  0.6423E+01E
 Epicentro: LOS SANTOS - SANTANDER                                             3
 ACTION:UPD 17-08-30 15:30 OP:rebc STATUS:               ID:20170705162149 L   I
 OLDACT:UP  17-07-06 01:39 OP:ar   STATUS:               ID:20170705161744     3
 OLDACT:UP  17-07-06 01:37 OP:ar   STATUS:               ID:20170705161744     3
 OLDACT:REG 17-07-05 22:13 OP:ar   STATUS:               ID:20170705161744     3
 2017-07-05-1618-00M.COL___374                                                 6
 STAT SP IPHASW D HRMM SECON CODA AMPLIT PERI AZIMU VELO AIN AR TRES W  DIS CAZ7
 BAR2 EZ EP       1622  8.73                             170   -0.3510 22.9 192 
 BAR2 EZ ES       1622 23.72                             170   -0.4310 22.9 192 
 BAR2 EZ I        1622 24.58        31.6 0.10            168           22.9 192 
 BRR  HZ EP       1622 10.63                             152   -0.0610 72.2 299 
 BRR  HN ES       1622 27.54                             152    0.5110 72.2 299 
 BRR  HZ I        1622 31.99        32.3 0.20            149           72.2 299 
 PAM  EZ EP       1622 11.74                             150    0.0410 77.3  39 
 PAM  EN ES       1622 28.76                             150   -0.0710 77.3  39 
 PAM  EZ I        1622 31.02        28.7 0.38            155           77.3  39 
 PTB  HZ EP   9   1622 15.43                             131   -1.15 0  148 259 
 PTB  HN ES       1622 36.44                             131    0.08 9  148 259 
 PTB  HZ I        1622 43.19        12.9 0.20            130            148 259 
 SPBC HZ EP       1622 17.67                             128   -0.39 9  163 219 
 SPBC HE ES       1622 40.46                             128    0.31 9  163 219 
 SPBC HZ I        1622 41.48        39.3 0.10            128            163 219 
 YPLC HZ EP       1622 18.75                             126   -0.52 9  176 151 
 YPLC HE ES       1622 43.15                             126    0.85 9  176 151 
 ZAR  HZ EP       1622 22.88                             122    0.74 9  205 292 
 ZAR  HN ES       1622 47.14                             122   -0.26 9  205 292 
 ZAR  HZ I        1622 53.26        30.1 0.42            122            205 292 
 NOR  HZ EP       1622 25.11                             118   -0.26 8  235 235 
 NOR  HN ES       1622 52.68                             118   -0.47 8  235 235 
 NOR  HZ I        1622 58.92        14.4 0.14            118            235 235 
 ROSC BZ EP   4   1622 29.90                             116    2.18 0  253 211 
 ROSC BN ES   4   1623  1.17                             116    3.83 0  253 211 
 ROSC BZ I        1623  4.45        18.1 0.30            117            253 211 
 GUY2CHZ EP       1622 33.88                             112    0.60 7  301 235 
 GUY2CHE ES   4   1623 10.96                             112    3.73 0  301 235 
 GUY2CHZ I        1623 14.80         7.0 0.36                           301 235 
                                                                                
