 2017  5 5 1535 35.6 L   6.788 -73.168152.0  RSN  8 0.3 1.9LRSN                1
 GAP=110        0.81       5.0     5.5  5.9  0.1326E+02 -0.3432E+01  0.6407E+01E
 Epicentro: LOS SANTOS - SANTANDER                                             3
 ACTION:UPD 17-06-16 13:33 OP:jn   STATUS:               ID:20170505153535 L   I
 OLDACT:UP  17-05-05 22:25 OP:and  STATUS:               ID:20170505152738     3
 OLDACT:UP  17-05-05 22:25 OP:and  STATUS:               ID:20170505152738     3
 OLDACT:UP  17-05-05 22:24 OP:and  STATUS:               ID:20170505152738     3
 OLDACT:UP  17-05-05 22:23 OP:and  STATUS:               ID:20170505152738     3
 OLDACT:UP  17-05-05 22:23 OP:and  STATUS:               ID:20170505152738     3
 OLDACT:UP  17-05-05 22:23 OP:and  STATUS:               ID:20170505152738     3
 OLDACT:REG 17-05-05 20:54 OP:and  STATUS:               ID:20170505152738     3
 2017-05-05-1528-00M.COL___376                                                 6
 STAT SP IPHASW D HRMM SECON CODA AMPLIT PERI AZIMU VELO AIN AR TRES W  DIS CAZ7
 BRR  HZ IP     C 1535 57.29                             153   -0.0210 69.7 300 
 BRR  HE ES       1536 14.62                             153    0.3510 69.7 300 
 BRR  HZ I        1536 17.59        19.5 0.28            151           69.7 300 
 PAM  EZ EP   9   1535 57.29                             150   -1.31 0 80.0  40 
 PAM  EN ES       1536 14.51                             151   -0.7410 80.0  40 
 PAM  EZ I        1536 17.77        23.9 0.50            157           80.0  40 
 RUS  HZ EP   1   1535 59.80                             145   -0.06 7 99.5 175 
 RUS  HN ES   1   1536 18.40                             145   -0.41 7 99.5 175 
 RUS  HZ I        1536 19.31         7.3 0.32            146           99.5 175 
 PTB  HZ EP   9   1536  2.29                             133   -0.52 0  145 259 
 PTB  HN ES       1536 23.33                             133   -0.21 9  145 259 
 PTB  HZ I        1536 30.62        16.8 0.40            132            145 259 
 YPLC HZ IP     D 1536  6.01                             127    0.18 9  177 150 
 ZAR  HZ EP   3   1536  9.33                             123    1.09 2  202 293 
 ZAR  HE ES       1536 33.47                             123   -0.26 9  202 293 
 ZAR  HZ I        1536 39.63        10.8 0.30            124            202 293 
 NOR  HN ES   2   1536 38.97                             119   -0.33 4  232 234 
 NOR  HZ I        1536 44.62         4.2 0.22            120            232 234 
 CHI  HZ EP   2   1536 12.81                             118   -0.61 4  247 195 
 CHI  HN ES   1   1536 43.19                             118    0.25 6  247 195 
 CHI  HZ I        1536 46.63         4.2 0.44            119            247 195 
                                                                                
