 2013 10 5 1034 26.0 L   6.630 -73.554102.6  RSN  5 0.4 1.8LRSN                1
 GAP=117        0.95       5.2     4.5  7.5  0.1359E+02  0.1344E+02  0.7389E+01E
 Epicentro: EL CARMEN DE CHUCURI - SANTANDER                                   3
 ACTION:UPD 13-11-25 09:19 OP:ep   STATUS:               ID:20131005103426 L   I
 OLDACT:DUP 13-10-05 17:58 OP:stll STATUS:               ID:20131005102839d    3
 2013-10-05-1028-38M.COL___228                                                 6
 STAT SP IPHASW D HRMM SECON CODA AMPLIT PERI AZIMU VELO AIN AR TRES W  DIS CAZ7
 BAR2 SZ IP     C 1034 40.98                             156   -0.2310 41.3  96 
 BAR2 SZ ES       1034 53.17                             156    0.1310 41.3  96 
 BAR2 SZ I        1034 53.96        46.5 0.12            158           41.3  96 
 BRR  HZ EP       1034 41.00                             149   -0.6610 55.6 342 
 BRR  HN ES       1034 53.92                             149    0.0810 55.6 342 
 BRR  HZ I        1034 54.43        26.3 0.12            150           55.6 342 
 RUS  HZ EP       1034 45.79                             133    0.2910 96.7 147 
 RUS  HN ES       1035  0.89                             133    0.2010 96.7 147 
 RUS  HZ I        1035  3.30         4.9 0.30            134           96.7 147 
 PTB  HZ EP       1034 44.76                             132   -0.4110  100 264 
 PTB  HN ES       1034 59.92                             132   -0.1910  100 264 
 ZAR  HZ EP       1034 52.96                             115    0.38 9  173 304 
 ZAR  HN ES       1035 13.91                             115    0.61 9  173 304 
 ZAR  HZ I        1035 16.85         7.2 0.26            116            173 304 
                                                                                
