 2017 11 5 1914 31.2 L   6.775 -73.198145.2  RSN  5 0.2 1.1LRSN                1
 GAP=230        0.55       3.6     3.5  4.6  0.3320E+01  0.4711E+01  0.2870E+01E
 Epicentro: ZAPATOCA - SANTANDER                                               3
 ACTION:UPD 17-12-12 19:52 OP:rebc STATUS:               ID:20171105191431 L   I
 OLDACT:UP  17-11-06 00:09 OP:edw  STATUS:               ID:20171105190742     3
 OLDACT:REG 17-11-05 21:01 OP:mg   STATUS:               ID:20171105190742     3
 2017-11-05-1908-00M.COL___439                                                 6
 STAT SP IPHASW D HRMM SECON CODA AMPLIT PERI AZIMU VELO AIN AR TRES W  DIS CAZ7
 BAR2 EZ ES       1915  6.06                             172    0.1310 20.3 175 
 BAR2 EZ I        1915  7.11         4.5 0.18            170           20.3 175 
 BRR  HZ EP       1914 52.44                             154    0.3410 67.6 303 
 BRR  HN ES       1915  8.29                             154   -0.1110 67.6 303 
 RUS  HZ EP       1914 54.61                             144   -0.1410 98.4 173 
 RUS  HN ES       1915 13.06                             144   -0.0610 98.4 173 
 RUS  HZ I        1915 15.27         1.3 0.44            144           98.4 173 
 PTB  HZ EP       1914 57.34                             133   -0.24 9  142 259 
 PTB  HN ES       1915 17.99                             133   -0.16 9  142 259 
 PTB  HZ I        1915 21.49         1.2 0.26            133            142 259 
 NOR  HE ES       1915 33.84                             119    0.28 8  228 234 
                                                                                
