 2015  4 5 1933 24.0 L   6.799 -73.176135.9  RSN  9 0.4 1.7LRSN                1
 GAP=133        1.01       3.4     4.0  6.5 -0.1076E+01  0.8405E+01 -0.1575E+01E
 Epicentro: LOS SANTOS - SANTANDER                                             3
 ACTION:UPD 15-06-03 16:52 OP:cam  STATUS:               ID:20150405193324 L   I
 OLDACT:REG 15-04-05 21:19 OP:fm   STATUS:               ID:20150405192750     3
 2015-04-05-1927-50M.COL___276                                                 6
 STAT SP IPHASW D HRMM SECON CODA AMPLIT PERI AZIMU VELO AIN AR TRES W  DIS CAZ7
 BAR2 EZ EP       1933 42.43                             170   -0.0010 22.9 182 
 BAR2 EZ ES       1933 56.27                             170   -0.5510 22.9 182 
 BAR2 EZ I        1933 59.83         9.8 0.18            171           22.9 182 
 BRR  HZ EP       1933 44.24                             152    0.3210 68.3 300 
 BRR  HN ES       1934  0.23                             152    0.7710 68.3 300 
 BRR  HZ I        1934  4.46        10.5 0.32            150           68.3 300 
 PAM  SZ EP       1933 45.27                             148   -0.0410 79.6  41 
 PAM  SN ES       1934  1.92                             148   -0.0210 79.6  41 
 PAM  SZ I        1934  4.32        10.8 0.52            152           79.6  41 
 RUS  HZ EP       1933 46.32                             142   -0.4910  101 174 
 RUS  HE ES       1934  4.83                             142    0.2310  101 174 
 RUS  HZ I        1934  6.13         5.8 0.32            146            101 174 
 PTB  HZ EP       1933 50.35                             130    0.48 9  144 259 
 PTB  HN ES       1934  9.46                             130   -0.60 9  144 259 
 PTB  HZ I        1934 12.49         4.4 0.42            132            144 259 
 SPBC HZ EP   1   1933 51.46                             127   -0.09 7  161 218 
 SPBC HE ES       1934 13.37                             127    0.33 9  161 218 
 SPBC HZ I        1934 19.14        18.3 0.92            130            161 218 
 ZAR  HZ EP       1933 55.84                             120    0.34 9  201 293 
 ZAR  HN ES       1934 19.64                             120   -0.43 9  201 293 
 ZAR  HZ I        1934 27.06         7.4 0.24            122            201 293 
 NOR  HE ES       1934 25.98                             117   -0.10 8  232 234 
 NOR  HZ I        1934 28.35         2.2 0.18            119            232 234 
 SML  HZ EP   4   1933 59.10                             115   -0.85 0  242 336 
 SML  HE ES       1934 27.65                             115   -0.34 8  242 336 
 SML  HZ I        1934 34.34         4.7 0.26            117            242 336 
                                                                                
