 2016  3 5 1913  4.6 L   6.812 -73.155140.6  RSN 11 0.5 2.0LRSN                1
 GAP=135        1.13       4.4     4.8  7.0 -0.2802E+01  0.1173E+02  0.7020E+01E
 Epicentro: LOS SANTOS - SANTANDER                                             3
 ACTION:UPD 16-05-13 21:21 OP:cam  STATUS:               ID:20160305191304 L   I
 OLDACT:UP  16-03-06 01:22 OP:mh   STATUS:               ID:20160305190750d    3
 OLDACT:UP  16-03-06 01:19 OP:mh   STATUS:               ID:20160305190750d    3
 OLDACT:UP  16-03-06 01:19 OP:mh   STATUS:               ID:20160305190750d    3
 OLDACT:DUP 16-03-06 01:13 OP:mh   STATUS:               ID:20160305190750d    3
 2016-03-05-1907-49M.COL___322                                                 6
 STAT SP IPHASW D HRMM SECON CODA AMPLIT PERI AZIMU VELO AIN AR TRES W  DIS CAZ7
 BAR2 EZ EP   1   1913 22.74                             170   -0.88 7 24.5 187 
 BAR2 EZ ES       1913 37.80                             170   -0.6710 24.5 187 
 BAR2 EZ I        1913 40.06        21.4 0.14            167           24.5 187 
 PAM  EZ EP       1913 26.48                             150    0.2510 77.0  41 
 PAM  EN ES       1913 43.70                             150    0.5910 77.0  41 
 PAM  EZ I        1913 45.42        19.2 0.46            155           77.0  41 
 RUS  HZ EP       1913 27.61                             142   -0.3310  102 176 
 RUS  HE ES       1913 46.70                             142    0.5510  102 176 
 RUS  HZ I        1913 47.16        10.2 0.36            143            102 176 
 PTB  HZ EP       1913 30.52                             131   -0.55 9  147 258 
 PTB  HN ES       1913 51.34                             131   -0.39 9  147 258 
 PTB  HZ I        1913 54.07        10.6 0.28            131            147 258 
 SPBC HZ EP       1913 32.46                             128   -0.27 9  164 218 
 SPBC HN ES   1   1913 55.44                             128    0.75 7  164 218 
 SPBC HZ I        1914  1.25        19.1 0.36            128            164 218 
 ZAR  HN ES       1914  1.73                             121    0.25 9  203 292 
 ZAR  HZ I        1914  7.21        11.1 0.28            122            203 292 
 NOR  HZ EP       1913 40.09                             117    0.07 8  235 234 
 NOR  HE ES       1914  8.15                             117    0.50 8  235 234 
 NOR  HZ I        1914 12.73        12.2 0.18            118            235 234 
 CHI  HZ EP       1913 41.85                             116   -0.26 8  250 195 
 CHI  HN ES       1914 11.05                             116   -0.34 8  250 195 
 CHI  HZ I        1914 17.85         3.6 0.30            117            250 195 
 GUY2CHZ EP       1913 48.50                             111    0.55 7  301 234 
 GUY2CHN ES   4   1914 22.96                             111    1.18 0  301 234 
 GUY2CHZ I        1914 29.81         6.2 0.34                           301 234 
 MON  HZ EP   4   1913 50.46                             108   -2.74 0  352 308 
 MON  HN ES   4   1914 28.62                             108   -2.50 0  352 308 
 MON  HZ I        1914 33.02         2.5 0.24            109            352 308 
 ORTC HZ EP       1913 58.67                             105    0.28 6  396 216 
 ORTC HN ES       1914 41.10                             105    0.74 6  396 216 
 ORTC HZ I        1914 48.48         3.6 0.44            106            396 216 
 SJC  HZ EP   4   1913 57.49                             105   -2.29 0  408 327 
 SJC  HN ES   4   1914 39.16                             105   -3.68 0  408 327 
                                                                                
