 2011  9 5 1016 54.3 L   6.612 -73.561105.3  RSN  4 0.1 1.4LRSN                1
 GAP=197        0.33       3.8     6.4  4.2  0.1990E+02  0.9814E+01  0.5317E+01E
 Epicentro: EL CARMEN DE CHUCURI - SANTANDER                                   3
 ACTION:UPD 12-07-13 15:55 OP:ep   STATUS:               ID:20110905101654 L   I
 2011-09-05-1016-07S.COL___171                                                 6
 STAT SP IPHASW D HRMM SECON CODA AMPLIT PERI AZIMU VELO AIN AR TRES W  DIS CAZ7
 BAR2 SZ EP   1   1017  9.91                             157    0.09 7 41.9  93 
 BAR2 SZ ES   1   1017 21.90                             157    0.00 7 41.9  93 
 BAR2 SZ I        1017 22.96        16.1 0.20                          41.9  93 
 BRR  HZ EP       1017 10.22                             149   -0.1010 57.2 343 
 BRR  HZ I        1017 10.48         7.1 0.03                          57.2 343 
 BRR  HN ES   1   1017 22.89                             149    0.09 7 57.2 343 
 GIR2 SZ EP   1   1017 11.03                             146   -0.05 7 65.6  38 
 RUS  HZ EP   1   1017 14.06                             135    0.15 7 95.5 146 
 RUS  HN ES   1   1017 29.08                             135   -0.11 7 95.5 146 
 RUS  HZ I        1017 30.59         3.7 0.21                          95.5 146 
                                                                                
