 2012  4 5 1528 42.5 L   5.909 -73.771105.4  RSN  4 0.3 1.6LRSN                1
 GAP=221        0.41       5.1     4.1  7.9  0.7997E+01  0.7284E+01  0.1353E+02E
 Epicentro: JESUS MARIA - SANTANDER                                            3
 ACTION:UPD 12-07-05 11:50 OP:tino STATUS:               ID:20120405152842 L   I
 2012-04-05-1520-00M.COL___196                                                 6
 STAT SP IPHASW D HRMM SECON CODA AMPLIT PERI AZIMU VELO AIN AR TRES W  DIS CAZ7
 RUS  HZ EP       1529  0.58                             141     0.110   76  91 
 RUS  HN ES   2   1529 14.56                             141     0.0 5   76  91 
 RUS  HZ I        1529 16.34         3.4 0.20                            76  91 
 BAR2 SZ EP       1529  2.12                             133     0.010  100  41 
 BAR2 SZ ES   1   1529 17.27                             133    -0.1 7  100  41 
 BAR2 SZ I        1529 19.28        25.6 0.38                           100  41 
 PTB  HZ EP   3   1529  2.30                             132     0.2 2  103 313 
 PTB  HN ES   2   1529 17.29                             132    -0.1 5  103 313 
 PTB  HZ I        1529 18.32         3.7 0.22                           103 313 
 BRR  HZ EP   3   1529  4.23                             124    -0.7 2  133   3 
 BRR  HZ I        1529  6.33        28.8 0.54                           133   3 
 BRR  HE ES   3   1529 23.19                             124     0.8 2  133   3 
                                                                                
