 2017  9 5 1802  8.7 L   6.758 -73.121142.4  RSN  4 0.2 1.2LRSN                1
 GAP=142        0.64       3.3     5.0  5.2 -0.2294E+00 -0.1742E+01  0.4908E+00E
 Epicentro: LOS SANTOS - SANTANDER                                             3
 ACTION:UPD 17-10-05 19:09 OP:rebc STATUS:               ID:20170905180208 L   I
 OLDACT:REG 17-09-05 21:23 OP:lv   STATUS:               ID:20170905175739     3
 2017-09-05-1758-00M.COL___426                                                 6
 STAT SP IPHASW D HRMM SECON CODA AMPLIT PERI AZIMU VELO AIN AR TRES W  DIS CAZ7
 BAR2 EZ EP       18 2 27.70                             172   -0.1810 19.5 200 
 BAR2 EZ ES       18 2 43.04                             172    0.2210 19.5 200 
 BAR2 EZ I        18 2 44.11         4.9 0.10            173           19.5 200 
 BRR  HZ EP       18 2 29.55                             150   -0.2410 75.8 301 
 BRR  HN ES       18 2 46.31                             150    0.0910 75.8 301 
 PAM  EZ IP     D 18 2 31.14                             150    0.4310 79.4  36 
 PAM  EE ES       18 2 47.59                             150   -0.2710 79.4  36 
 PAM  EZ I        18 2 50.56         3.4 0.46            149           79.4  36 
 RUS  HZ EP       18 2 31.85                             144    0.0510 95.8 177 
 RUS  HE ES       18 2 49.71                             144   -0.0910 95.8 177 
 RUS  HZ I        18 2 51.32         2.1 0.20            146           95.8 177 
                                                                                
