 2017  8 5 1009 35.1 L   6.828 -73.150146.8  RSN 17 0.5 1.9LRSN                1
 GAP=110        1.13       3.3     3.5  5.5  0.8977E+00  0.5277E+01  0.3927E+01E
 Epicentro: LOS SANTOS - SANTANDER                                             3
 ACTION:UPD 17-09-04 20:16 OP:rebc STATUS:               ID:20170805100935 L   I
 OLDACT:REG 17-08-05 20:26 OP:dhb  STATUS:               ID:20170805100738     3
 2017-08-05-1008-00M.COL___390                                                 6
 STAT SP IPHASW D HRMM SECON CODA AMPLIT PERI AZIMU VELO AIN AR TRES W  DIS CAZ7
 BAR2 EZ IP     C 10 9 54.83                             169   -0.1110 26.3 188 
 BAR2 EZ ES       1010  9.50                             169   -0.9010 26.3 188 
 BAR2 EZ I        1010 11.05        14.5 0.20            168           26.3 188 
 BRR  HZ IP     C 10 9 56.60                             153    0.3210 69.3 296 
 BRR  HE ES       1010 13.73                             153    0.9510 69.3 296 
 BRR  HZ I        1010 17.45         9.5 0.13            151           69.3 296 
 PAM  EZ IP     C 10 9 57.89                             151    0.5710 75.3  41 
 PAM  EE ES       1010 14.91                             151    0.2710 75.3  41 
 PAM  EZ I        1010 17.07         9.3 0.50            156           75.3  41 
 RUS  HZ EP       10 9 58.99                             143   -0.2110  104 176 
 RUS  HE ES       1010 18.03                             143    0.0510  104 176 
 RUS  HZ I        1010 18.61        12.3 0.26            145            104 176 
 PTB  HZ EP       1010  1.38                             132   -0.81 9  148 258 
 PTB  HN ES       1010 23.06                             132   -0.24 9  148 258 
 PTB  HZ I        1010 29.58         6.4 0.42            132            148 258 
 SPBC HZ EP       1010  3.78                             129   -0.12 9  165 218 
 SPBC HN ES       1010 26.52                             129    0.17 9  165 218 
 SPBC HZ I        1010 31.74        10.7 0.15            129            165 218 
 YPLC HZ EP       1010  5.37                             126    0.09 9  180 152 
 YPLC HN ES       1010 28.77                             126   -0.03 9  180 152 
 YPLC HZ I        1010 30.19         9.2 0.28            129            180 152 
 ZAR  HZ EP       1010  7.40                             123   -0.07 9  202 291 
 ZAR  HN ES       1010 32.32                             123   -0.38 9  202 291 
 ZAR  HZ I        1010 40.81         5.6 0.10            123            202 291 
 NOR  HZ EP       1010 10.78                             118   -0.28 8  236 234 
 NOR  HE ES       1010 39.47                             118    0.37 8  236 234 
 NOR  HZ I        1010 43.51         4.8 0.24            119            236 234 
 CHI  HZ EP       1010 13.09                             117   -0.10 8  252 195 
 CHI  HN ES       1010 42.35                             117   -0.53 8  252 195 
 CHI  HZ I        1010 44.69         5.1 0.32            118            252 195 
 HEL  HZ EP   2   1010 16.72                             115    1.30 4  272 255 
 HEL  HN ES       1010 46.97                             115    0.12 8  272 255 
 HEL  HZ I        1010 54.41         3.8 0.54            116            272 255 
 URE  HZ EP       1010 15.30                             114   -0.76 7  282 291 
 URE  HN ES   2   1010 46.38                             114   -1.62 4  282 291 
 URE  HZ I        1010 51.77         3.4 0.12            115            282 291 
 GUY2CHZ EP   9   1010 21.71                             112    2.78 0  303 234 
 GUY2CHN ES       1010 55.99                                    0.10 7  303 234 
 GUY2CHZ I        1011  0.00         2.9 0.23                           303 234 
 PTGC HZ IP   9 C 1010 18.07                             111   -1.30 0  312 159 
 PTGC HN ES       1010 51.72                                   -0.87 7  312 159 
 PTGC HZ I        1010 56.68         6.8 0.30            113            312 159 
 PRA  HZ EP       1010 29.26                             106    0.30 6  394 209 
 PRA  HE ES       1011 11.87                             106    0.91 6  394 209 
 PRA  HZ I        1011 14.82         2.7 0.30            108            394 209 
 ORTC HZ EP       1010 29.85                             106    0.52 6  398 216 
 ORTC HN ES       1011 12.29                             106    0.67 6  398 216 
 ORTC HZ I        1011 18.40         2.2 0.76            107            398 216 
 PAL  HE ES       1011 14.00                             106    0.39 6  407 239 
                                                                                
