 2010  8 5 1150 46.9 L   6.798 -73.064142.5  RSN 11 0.4 2.0LRSN                1
 GAP=165        1.15       4.1     9.1  7.3 -0.7513E+01 -0.1033E+02 -0.5066E+00E
 Epicentro: LOS SANTOS - SANTANDER                                             3
 ACTION:UP  10-09-07 10:52 OP:vdl  STATUS:               ID:20100805115046 L   I
 2010-08-05-1147-26S.COL___125                                                 6
 STAT SP IPHASW D HRMM SECON CODA AMPLIT PERI AZIMU VELO SNR AR TRES W  DIS CAZ7
 BAR2 SZ EP       1151  6.26                             169     0.010   26 210 
 BAR2 SZ ES   1   1151 20.71                             169    -0.6 7   26 210 
 BAR2 SZ I        1151 22.35        35.1 0.13                            26 210 
 GIR2 SZ EP       1151  6.39                             166     0.110   34 335 
 GIR2 SZ ES   1   1151 21.41                             166     0.0 7   34 335 
 BRR  HZ EP       1151  8.39                             149     0.210   79 296 
 BRR  HN ES       1151 25.05                             149     0.210   79 296 
 BRR  HZ I        1151 29.53        37.9 0.12                            79 296 
 RUS  HZ EP       1151 10.29                             143    -0.110  100 181 
 RUS  HN ES       1151 28.87                             143     0.310  100 181 
 RUS  HZ I        1151 29.63         6.1 0.50                           100 181 
 BRI  SZ EP   1   1151 10.97                             141     0.6 7  106  16 
 GUE  SZ EP       1151 10.36                             139    -0.910  115   8 
 GUE  SZ I        1151 11.10         9.3 0.13                           115   8 
 GRA  SZ EP       1151 12.23                             137     0.510  124  13 
 GRA  SZ I        1151 13.47        23.0 0.21                           124  13 
 OCA  SZ EP       1151 14.89                             129    -0.3 9  162 350 
 OCA  SZ ES   2   1151 36.93                             129    -0.2 5  162 350 
 OCA  SZ I        1151 44.03        17.9 0.56                           162 350 
 CHI  HZ EP   1   1151 24.88                             116     0.2 6  251 197 
 CHI  HN ES   1   1151 53.95                             116    -0.2 6  251 197 
 CHI  HZ I        1152  0.54         4.5 1.62                           251 197 
 RREF HZ EP   1   1151 34.60                             110     0.9 5  329 230 
 RREF HN ES   2   1152  9.75                             110    -0.5 3  329 230 
 RREF HZ I        1152 15.53         5.0 0.74                           329 230 
 PRA  HN ES   1   1152 21.87                             106    -1.0 4  396 211 
 PRA  HZ I        1152 28.71         4.6 1.05                           396 211 
                                                                                
