 2013  7 5 1205 23.2 L   6.588 -73.221157.2  RSN  4 0.4 1.6LRSN                1
 GAP=184        0.97      14.0     8.4  9.5  0.4324E+02  0.2436E+02  0.1666E+02E
 Epicentro: CABRERA - SANTANDER                                                3
 ACTION:UPD 13-08-12 10:35 OP:ep   STATUS:               ID:20130705120523 L   I
 OLDACT:REG 13-07-05 16:05 OP:jn   STATUS:               ID:20130705115959     3
 2013-07-05-1159-59M.COL___266                                                 6
 STAT SP IPHASW D HRMM SECON CODA AMPLIT PERI AZIMU VELO AIN AR TRES W  DIS CAZ7
 BAR2 SZ EP       12 5 44.41                             178    0.4210 4.26  84 
 BAR2 SZ ES       12 5 59.84                             178   -0.3710 4.26  84 
 BAR2 SZ I        12 6  0.51         5.9 0.38            167           4.26  84 
 BRR  HZ EP       12 5 46.29                             152    0.2710 79.0 317 
 BRR  HN ES   1   12 6  3.89                             152    0.06 7 79.0 317 
 PTB  HZ EP       12 5 49.60                             137   -0.58 9  137 268 
 PTB  HN ES   1   12 6 11.85                             137    0.62 7  137 268 
 PTB  HZ I        12 6 19.45         6.8 0.30            131            137 268 
 ZAR  HE ES   1   12 6 22.45                             124   -0.34 6  207 299 
 ZAR  HZ I        12 6 30.29         4.0 0.60            122            207 299 
                                                                                
