 2016 11 5 1326 48.7 L   7.357 -73.198127.8  RSN  7 0.4 2.0LRSN                1
 GAP=177        1.01       5.4     4.3  6.7 -0.3457E+01  0.1114E+02  0.1908E+01E
 Epicentro: RIONEGRO - SANTANDER                                               3
 ACTION:UPD 17-10-26 21:04 OP:lp   STATUS:               ID:20161105132648 L   I
 OLDACT:REG 16-11-05 20:03 OP:cog  STATUS:               ID:20161105131744     3
 2016-11-05-1318-00M.COL___343                                                 6
 STAT SP IPHASW D HRMM SECON CODA AMPLIT PERI AZIMU VELO AIN AR TRES W  DIS CAZ7
 PAM  EZ EP       1327  7.54                             156   -0.2410 55.1  92 
 PAM  EE ES       1327 22.72                             156    0.1010 55.1  92 
 PAM  EZ I        1327 25.21         9.7 0.27            158           55.1  92 
 BRR  HZ EP       1327  7.36                             152   -0.1310 63.1 244 
 BRR  HN ES       1327 22.05                             152   -0.0710 63.1 244 
 BRR  HZ I        1327 23.04        30.8 0.10            150           63.1 244 
 BAR2 EZ EP       1327  9.36                             144    0.1410 84.6 179 
 BAR2 EZ ES       1327 25.32                             144    0.1310 84.6 179 
 BAR2 EZ I        1327 26.84        47.5 0.12            142           84.6 179 
 PTB  HZ EP       1327 15.75                             124   -0.35 9  166 237 
 PTB  HN ES       1327 36.74                             124   -0.69 9  166 237 
 PTB  HZ I        1327 41.66         9.3 0.20            124            166 237 
 ZAR  HZ EP       1327 18.77                             121    0.83 9  184 275 
 ZAR  HN ES       1327 40.85                             121    0.14 9  184 275 
 ZAR  HZ I        1327 43.36        11.1 0.13            122            184 275 
 SPBC HZ EP       1327 20.38                             117   -0.65 8  212 207 
 SPBC HN ES       1327 47.03                             117    0.81 8  212 207 
 SPBC HZ I        1327 52.14         6.5 0.10            117            212 207 
 NOR  HZ EP       1327 27.69                             111    0.10 8  271 223 
 NOR  HE ES       1327 57.91                             111    0.01 8  271 223 
 NOR  HZ I        1328  5.55         5.1 0.16            111            271 223 
 ROSC BZ EP   4   1328 12.95                             108   41.06 0  305 204 
                                                                                
