 2013 12 5 1346 38.1 L   6.841 -73.143147.5  RSN  9 0.3 1.8LRSN                1
 GAP=135        0.78       3.5     3.3  5.4 -0.1367E+01  0.4668E+01  0.1787E+01E
 Epicentro: LOS SANTOS - SANTANDER                                             3
 ACTION:UPD 14-01-13 10:16 OP:ep   STATUS:               ID:20131205134638 L   I
 OLDACT:UP  13-12-05 16:26 OP:cam  STATUS:               ID:20131205134000     3
 OLDACT:UP  13-12-05 16:26 OP:cam  STATUS:               ID:20131205134000     3
 OLDACT:REG 13-12-05 14:58 OP:cam  STATUS:               ID:20131205134000     3
 2013-12-05-1340-00M.COL___285                                                 6
 STAT SP IPHASW D HRMM SECON CODA AMPLIT PERI AZIMU VELO AIN AR TRES W  DIS CAZ7
 BAR2 SZ EP       1346 57.81                             169   -0.2010 27.9 189 
 BAR2 SZ ES       1347 13.20                             169   -0.3710 27.9 189 
 BAR2 SZ I        1347 14.89        18.4 0.30            166           27.9 189 
 BRR  HZ EP       1346 59.51                             153    0.2010 69.4 295 
 BRR  HN ES       1347 16.49                             153    0.6110 69.4 295 
 BRR  HZ I        1347 19.82        15.8 0.16            153           69.4 295 
 PAM  SZ IP     C 1347  0.34                             152    0.0810 73.7  42 
 PAM  SE ES       1347 17.50                             152   -0.0710 73.7  42 
 PAM  SZ I        1347 19.21        11.6 0.30            157           73.7  42 
 RUS  HZ EP   1   1347  2.48                             143    0.15 7  105 176 
 RUS  HE ES       1347 21.28                             143    0.0410  105 176 
 RUS  HZ I        1347 22.58         7.2 0.32            143            105 176 
 PTB  HZ EP       1347  4.78                             132   -0.52 9  149 257 
 PTB  HN ES       1347 26.18                             132   -0.36 9  149 257 
 PTB  HZ I        1347 28.19         8.7 0.18            132            149 257 
 SPBC HZ EP   2   1347  6.69                             129   -0.37 5  167 218 
 SPBC HE ES   1   1347 30.31                             129    0.63 7  167 218 
 SPBC HZ I        1347 34.26         6.2 0.24            129            167 218 
 ZAR  HE ES       1347 35.70                             123   -0.08 9  203 291 
 NOR  HZ EP   2   1347 14.61                             119    0.39 4  238 234 
 NOR  HE ES       1347 42.53                             119    0.11 8  238 234 
 NOR  HZ I        1347 51.48         6.2 0.18            119            238 234 
 CHI  HZ EP   2   1347 17.04                             117    0.68 4  253 195 
                                                                                
