 2012 10 5 1126 36.7 L   6.725 -73.135144.0  RSN  7 0.2 2.2LRSN                1
 GAP= 94        0.53       3.4     3.5  4.3  0.3810E+01 -0.3519E+01 -0.3816E+00E
 Epicentro: JORDAN - SANTANDER                                                 3
 ACTION:UPD 12-11-22 17:02 OP:ep   STATUS:               ID:20121005112636 L   I
 2012-10-05-1120-00M.COL___222                                                 6
 STAT SP IPHASW D HRMM SECON CODA AMPLIT PERI AZIMU VELO AIN AR TRES W  DIS CAZ7
 BAR2 SZ EP       1126 55.92                             174   -0.0410 15.6 200 
 BAR2 SZ I        1126 56.06        26.0 0.20                          15.6 200 
 BAR2 SZ ES   1   1127 11.19                             174    0.19 7 15.6 200 
 GIR2 SZ EP       1126 56.18                             164   -0.2110 39.6 351 
 GIR2 SZ ES   1   1127 11.67                             164   -0.10 7 39.6 351 
 BRR  HZ EP       1126 58.02                             150    0.0810 76.5 304 
 BRR  HN ES   1   1127 15.05                             150    0.52 7 76.5 304 
 BRR  HN I        1127 15.80        89.6 0.16                          76.5 304 
 PAM  SZ EP       1126 59.06                             149    0.0010 83.2  35 
 PAM  SZ I        1126 59.27        21.8 0.16                          83.2  35 
 PAM  SN ES   2   1127 16.08                             149   -0.44 5 83.2  35 
 RUS  HZ EP       1126 59.66                             146    0.0010 92.2 176 
 RUS  HN ES   1   1127 17.34                             146   -0.25 7 92.2 176 
 TAM  HZ EP       1127  4.16                             131    0.24 9  152 102 
 TAM  HZ I        1127  4.29        12.5 0.18                           152 102 
 ZAR  HE ES   1   1127 34.70                             121   -0.33 6  208 294 
 ZAR  HN I        1127 42.95        15.6 0.24                           208 294 
                                                                                
