 2010  3 5 1429 40.3 L   6.790 -73.086148.3  RSN 12 0.4 3.4LRSN                1
 GAP=130        0.75       3.2     4.7  4.8 -0.4495E+01  0.2623E+01  0.2228E+01E
 Epicentro: LOS SANTOS - SANTANDER                                             3
 ACTION:UP  10-08-24 09:52 OP:vdl  STATUS:               ID:20100305142940 L   I
 2010-03-05-1427-07S.COL___101                                                 6
 STAT SP IPHASW D HRMM SECON CODA AMPLIT PERI AZIMU VELO SNR AR TRES W  DIS CAZ7
 BAR2 SZ IP       1430  0.34                             170     0.110   24 206 
 BAR2 SZ ES   1   1430 15.46                             170    -0.3 7   24 206 
 BRR  HZ IP       1430  2.21                             151     0.110   78 297 
 BRR  HE ES   1   1430 19.56                             151     0.5 7   78 297 
 BRR  HZ I        1430 21.45       321.6 0.12                            78 297 
 RUS  BZ EP       1430  4.17                             145     0.010   99 180 
 RUS  BE ES   2   1430 22.96                             145     0.1 5   99 180 
 RUS  BZ I        1430 24.04       196.1 0.38                            99 180 
 OCA  SZ EP       1430  8.61                             130    -0.4 9  162 351 
 OCA  SZ ES   2   1430 31.59                             130     0.2 5  162 351 
 OCA  SZ I        1430 35.54       393.2 0.46                           162 351 
 CHI  HZ EP       1430 18.28                             118     0.1 8  249 197 
 CHI  HE ES   1   1430 47.59                             118    -0.2 6  249 197 
 CHI  HZ I        1430 56.10        92.8 0.59                           249 197 
 HEL  HZ EP   1   1430 21.24                             115    -0.1 6  278 256 
 HEL  HN ES   2   1430 52.57                             115    -0.7 4  278 256 
 HEL  HZ I        1430 58.50        69.7 0.32                           278 256 
 RREF BZ EP       1430 27.36                             111     0.3 7  326 230 
 RREF BN ES   1   1431  3.58                             111     0.1 5  326 230 
 RREF BZ I        1431 11.97       127.0 0.34                           326 230 
 DBB  SZ EP       1430 28.05                             110    -0.6 6  346 274 
 TOL  SZ EP       1430 29.45                             110     0.4 6  347 226 
 TOL  SZ ES   2   1431  7.31                             110     0.2 3  347 226 
 SDV  BZ EP       1430 29.77                             109    -0.2 6  356  49 
 SDV  BZ I        1430 29.99       136.0 0.11                           356  49 
 ANIL BZ EP       1430 31.45                             109     0.8 6  361 225 
 ANIL BN ES   1   1431  9.56                             109    -0.3 5  361 225 
 ANIL BZ I        1431 17.04       252.5 0.32                           361 225 
 PRA  HZ EP       1430 33.68                             107    -0.5 6  394 210 
 PRA  HE ES   2   1431 15.48                             107    -0.7 3  394 210 
 PRA  HZ I        1431 21.84       142.8 0.39                           394 210 
                                                                                
