 2015  7 5 1251 12.1 L   6.751 -73.206130.2  RSN 10 0.4 2.0LRSN                1
 GAP=176        0.87       2.9     4.3  6.7 -0.1242E+01  0.1349E+02 -0.6241E+01E
 Epicentro: VILLANUEVA - SANTANDER                                             3
 ACTION:UPD 15-09-08 21:47 OP:cam  STATUS:               ID:20150705125112 L   I
 OLDACT:UP  15-07-05 21:37 OP:mh   STATUS:               ID:20150705124749     3
 OLDACT:UP  15-07-05 21:36 OP:mh   STATUS:               ID:20150705124749     3
 OLDACT:UP  15-07-05 21:36 OP:mh   STATUS:               ID:20150705124749     3
 OLDACT:UP  15-07-05 21:34 OP:mh   STATUS:               ID:20150705124749     3
 OLDACT:UP  15-07-05 21:34 OP:mh   STATUS:               ID:20150705124749     3
 OLDACT:UP  15-07-05 21:33 OP:mh   STATUS:               ID:20150705124749     3
 OLDACT:REG 15-07-05 20:33 OP:mh   STATUS:               ID:20150705124749     3
 2015-07-05-1247-49M.COL___337                                                 6
 STAT SP IPHASW D HRMM SECON CODA AMPLIT PERI AZIMU VELO AIN AR TRES W  DIS CAZ7
 BAR2 EZ EP       1251 30.17                             172    0.3810 17.8 172 
 BAR2 EZ ES       1251 43.64                             172    0.0810 17.8 172 
 BAR2 EZ I        1251 45.33        30.7 0.13            169           17.8 172 
 RUS  HZ EP       1251 34.06                             142    0.0210 95.9 172 
 RUS  HN ES       1251 50.78                             142   -0.3410 95.9 172 
 RUS  HZ I        1251 52.63        10.5 0.34            141           95.9 172 
 OCA  HZ EP       1251 40.03                             125    0.28 9  165 356 
 OCA  HN ES       1252  1.56                             125    0.26 9  165 356 
 ZAR  HZ EP       1251 42.81                             119   -0.38 9  200 294 
 ZAR  HE ES       1252  7.39                             119   -0.02 9  200 294 
 ZAR  HZ I        1252 11.03        14.3 0.30            119            200 294 
 NOR  HZ EP   1   1251 46.00                             116   -0.07 6  226 235 
 NOR  HN ES       1252 12.03                             116   -0.51 8  226 235 
 NOR  HZ I        1252 16.24         9.3 0.14            115            226 235 
 SML  HZ EP       1251 48.01                             114   -0.18 8  246 337 
 SML  HN ES       1252 15.63                             114   -0.68 8  246 337 
 SML  HZ I        1252 18.86        13.5 0.10            114            246 337 
 HEL  HZ EP   1   1251 51.20                             112    0.48 6  264 257 
 HEL  HN ES       1252 21.59                             112    0.77 8  264 257 
 HEL  HZ I        1252 24.25         5.7 0.34            111            264 257 
 URE  HN ES   4   1252 21.05                             111   -2.10 0  280 293 
 GUY2CHZ EP   4   1251 55.52                             110    1.43 0  293 235 
 GUY2CHN ES   4   1252 28.66                             110    1.85 0  293 235 
 GUY2CHZ I        1252 31.21         4.0 0.70                           293 235 
 TOL  SZ EP   4   1252  3.54                             107    4.72 0  335 224 
 TOL  SE ES   4   1252 36.75                             107    1.52 0  335 224 
 TOL  SZ I        1252 47.07         2.5 0.54            106            335 224 
 MON  HZ EP   4   1251 58.55                             106   -1.82 0  352 310 
 MON  HN ES   4   1252 36.25                             106   -1.74 0  352 310 
 MON  HZ I        1252 37.77         1.9 0.20            106            352 310 
                                                                                
