 2010  9 5 1045 40.6 L   6.816 -73.061146.4  RSN 12 0.3 2.4LRSN                1
 GAP=132        0.72       2.7     5.2  4.8 -0.4947E+01 -0.1842E+01  0.1895E+01E
 Epicentro: LOS SANTOS - SANTANDER                                             3
 ACTION:UP  11-02-18 11:00 OP:tino STATUS:               ID:20100905104540 L   I
 2010-09-05-1041-35S.COL___120                                                 6
 STAT SP IPHASW D HRMM SECON CODA AMPLIT PERI AZIMU VELO SNR AR TRES W  DIS CAZ7
 BAR2 SZ IP       1046  0.55                             169     0.110   28 209 
 BAR2 SZ ES   1   1046 15.70                             169    -0.2 7   28 209 
 BAR2 SZ I        1046 17.18        63.5 0.19                            28 209 
 BRR  HZ IP     D 1046  2.30                             150     0.010   79 294 
 BRR  HE ES       1046 19.24                             150     0.010   79 294 
 BRR  HZ I        1046 23.74        54.7 0.19                            79 294 
 RUS  HZ EP       1046  4.54                             143     0.010  102 181 
 RUS  HN ES   1   1046 23.36                             143     0.1 7  102 181 
 RUS  HZ I        1046 24.84        24.5 0.35                           102 181 
 GUE  SZ EP       1046  5.38                             140     0.210  113   8 
 GUE  SZ I        1046  6.29        20.5 0.10                           113   8 
 GRA  SZ IP       1046  6.06                             138     0.510  122  13 
 GRA  SZ I        1046  7.31        36.4 0.27                           122  13 
 GRA  SZ ES   1   1046 24.74                             138    -0.3 7  122  13 
 OCA  SZ EP       1046  8.80                             130    -0.2 9  160 350 
 OCA  SZ ES   1   1046 30.60                             130    -0.5 7  160 350 
 OCA  SZ I        1046 35.09        32.3 0.22                           160 350 
 CHI  HZ EP   1   1046 18.73                             117    -0.1 6  253 197 
 CHI  HZ I        1046 21.81         9.0 0.24                           253 197 
 CHI  HN ES   2   1046 48.65                             117     0.0 4  253 197 
 HEL  HZ EP   2   1046 21.51                             114    -0.4 4  282 256 
 HEL  HZ I        1047  0.21        12.0 0.67                           282 256 
 GUY  SZ EP   2   1046 25.72                             112     0.4 4  310 236 
 GUY  SZ I        1047  8.38        37.4 0.39                           310 236 
 RREF HZ EP   1   1046 28.12                             110     0.4 5  330 230 
 RREF HN ES   1   1047  4.85                             110     0.3 5  330 230 
 RREF HZ I        1047 12.44        10.5 0.47                           330 230 
 SDV  BZ EP   2   1046 28.83                             109    -0.9 3  352  49 
 SDV  BZ I        1046 30.56         5.7 0.20                           352  49 
 PRA  HZ EP   1   1046 34.32                             106    -0.6 4  398 211 
 PRA  HE ES   1   1047 16.53                             106    -0.7 4  398 211 
 PRA  HZ I        1047 23.49        10.3 0.27                           398 211 
                                                                                
