 2011  9 5 1453  1.7 L   6.749 -73.212136.7  RSN  5 0.2 1.7LRSN                1
 GAP=166        0.39       6.0     7.0  4.7  0.3231E+02  0.4589E+01 -0.2662E+00E
 Epicentro: VILLANUEVA - SANTANDER                                             3
 ACTION:UPD 12-07-13 15:55 OP:ep   STATUS:               ID:20110905145301 L   I
 2011-09-05-1451-06S.COL___170                                                 6
 STAT SP IPHASW D HRMM SECON CODA AMPLIT PERI AZIMU VELO AIN AR TRES W  DIS CAZ7
 BAR2 SZ EP   1   1453 20.11                             172   -0.02 7 17.6 169 
 BAR2 SZ I        1453 20.47        12.2 0.10                          17.6 169 
 BAR2 SZ ES   1   1453 34.53                             172    0.03 7 17.6 169 
 GIR2 SZ EP   2   1453 20.20                             164   -0.25 5 36.5   3 
 BRR  HZ EP   1   1453 21.73                             152    0.05 7 68.0 306 
 BRR  HZ I        1453 22.41        15.1 0.16                          68.0 306 
 BRR  HN ES   2   1453 37.34                             152    0.07 5 68.0 306 
 RUS  HZ EP   1   1453 24.47                             143    0.26 7 95.8 171 
 RUS  HZ I        1453 24.89         3.2 0.10                          95.8 171 
 RUS  HN ES   2   1453 41.40                             143   -0.36 5 95.8 171 
 ZAR  HZ EP   2   1453 32.70                             121   -0.39 4  200 294 
 ZAR  HE ES   2   1453 57.73                             121    0.15 4  200 294 
 ZAR  HZ I        1454  4.28         5.9 0.30                           200 294 
                                                                                
