 2016  7 5 1306 25.6 L   6.756 -73.169146.8  RSN  5 0.4 1.5LRSN                1
 GAP=231        0.94       7.3     6.7  7.5  0.3024E+02  0.6800E+01 -0.3565E+00E
 Epicentro: LOS SANTOS - SANTANDER                                             3
 ACTION:UPD 17-03-29 16:47 OP:lp   STATUS:               ID:20160705130625 L   I
 OLDACT:REG 16-07-05 22:15 OP:dnl  STATUS:               ID:20160705125747     3
 2016-07-05-1257-47M.COL___322                                                 6
 STAT SP IPHASW D HRMM SECON CODA AMPLIT PERI AZIMU VELO AIN AR TRES W  DIS CAZ7
 BAR2 EZ EP       13 6 45.18                             173   -0.1310 18.2 185 
 BAR2 EZ ES       13 6 59.94                             173   -0.7110 18.2 185 
 BAR2 EZ I        13 7  1.46         8.7 0.36            165           18.2 185 
 BRR  HZ EP       13 6 47.10                             153    0.1810 71.4 303 
 BRR  HN ES       13 7  4.01                             153    0.5010 71.4 303 
 BRR  HZ I        13 7  5.21        10.1 0.18            148           71.4 303 
 RUS  HZ EP       13 6 49.30                             145    0.1210 96.0 174 
 RUS  HE ES       13 7  8.00                             145    0.4710 96.0 174 
 RUS  HZ I        13 7  9.14         3.0 0.34            143           96.0 174 
 PTB  HZ EP       13 6 51.96                             133   -0.43 9  144 261 
 PTB  HE ES       13 7 13.12                             133   -0.13 9  144 261 
 PTB  HZ I        13 7 20.23         2.9 0.09            129            144 261 
 ZAR  HZ EP   3   13 6 58.48                             123    0.37 2  204 294 
 ZAR  HN ES       13 7 23.48                             123    0.06 9  204 294 
 ZAR  HZ I        13 7 30.04         4.9 0.32            121            204 294 
                                                                                
