 2011 10 5 1810 15.1 L   6.763 -73.120147.6  RSN  5 0.4 1.6LRSN                1
 GAP=142        0.83       5.9     6.3 10.6  0.8182E+01  0.8515E+01  0.5837E+01E
 Epicentro: LOS SANTOS - SANTANDER                                             3
 ACTION:UPD 12-07-13 16:02 OP:ep   STATUS:               ID:20111005181015 L   I
 2011-10-05-1808-44S.COL___169                                                 6
 STAT SP IPHASW D HRMM SECON CODA AMPLIT PERI AZIMU VELO AIN AR TRES W  DIS CAZ7
 BAR2 SZ EP   1   1810 34.26                             172   -0.59 7 20.1 200 
 BAR2 SZ I        1810 52.14         9.5 0.32                          20.1 200 
 BRR  HZ EP   1   1810 37.28                             151    0.61 7 75.7 300 
 BRR  HZ I        1810 44.55        10.3 0.12                          75.7 300 
 BRR  HE ES   1   1810 53.95                             151    0.43 7 75.7 300 
 PAM  SZ EP   1   1810 37.83                             151    0.27 7 78.8  36 
 PAM  SN ES   1   1810 54.80                             151   -0.31 7 78.8  36 
 PAM  SZ I        1810 57.47         5.0 0.22                          78.8  36 
 RUS  HZ EP   1   1810 38.69                             145   -0.01 7 96.3 178 
 RUS  HN ES   1   1810 57.15                             145    0.02 7 96.3 178 
 RUS  HZ I        1810 58.86         5.6 0.34                          96.3 178 
 ZAR  HN ES   1   1811 13.20                             122   -0.60 6  208 293 
                                                                                
