 2016  7 5 1015 41.7 L   6.769 -73.132146.3  RSN  6 0.3 1.6LRSN                1
 GAP=140        0.62       4.6     3.7  6.1  0.1345E+01  0.8892E+01 -0.7356E-02E
 Epicentro: LOS SANTOS - SANTANDER                                             3
 ACTION:UPD 17-03-29 16:47 OP:lp   STATUS:               ID:20160705101541 L   I
 OLDACT:REG 16-07-05 22:04 OP:dnl  STATUS:               ID:20160705100744     3
 2016-07-05-1007-44M.COL___317                                                 6
 STAT SP IPHASW D HRMM SECON CODA AMPLIT PERI AZIMU VELO AIN AR TRES W  DIS CAZ7
 BAR2 EZ EP   2   1016  1.47                             172    0.12 5 20.3 196 
 BAR2 EZ ES       1016 16.48                             172   -0.1910 20.3 196 
 BAR2 EZ I        1016 17.94        10.8 0.16            172           20.3 196 
 BRR  HZ EP   2   1016  2.67                             152   -0.42 5 74.2 300 
 BRR  HE ES       1016 20.29                             152    0.5310 74.2 300 
 BRR  HZ I        1016 24.19         6.9 0.13            150           74.2 300 
 PAM  EZ EP   2   1016  3.91                             151   -0.19 5 79.2  37 
 PAM  EN ES       1016 21.37                             151   -0.1810 79.2  37 
 PAM  EZ I        1016 23.70         6.0 0.21            152           79.2  37 
 RUS  HZ EP   2   1016  5.52                             145    0.25 5 97.1 177 
 RUS  HE ES   2   1016 23.91                             145    0.27 5 97.1 177 
 RUS  HZ I        1016 25.04         2.7 0.22            148           97.1 177 
 PTB  HZ EP   2   1016  8.57                             132   -0.23 5  149 260 
 PTB  HE ES   2   1016 29.35                             132   -0.58 5  149 260 
 PTB  HZ I        1016 31.54         6.1 0.46            132            149 260 
 ZAR  HZ EP   2   1016 14.98                             122    0.51 4  207 293 
 ZAR  HN IS       1016 39.91                             122   -0.11 8  207 293 
 ZAR  HZ I        1016 46.09         7.2 0.30            122            207 293 
                                                                                
