 2010  3 5 1617 32.4 L   6.548 -73.476114.6  RSN 12 0.4 2.4LRSN                1
 GAP= 68        0.68       2.5     2.9  4.5 -0.6206E-01  0.4534E+01  0.2529E+01E
 Epicentro: EL CARMEN DE CHUCURI - SANTANDER                                   3
 ACTION:UP  10-08-24 09:52 OP:vdl  STATUS:               ID:20100305161732 L   I
 2010-03-05-1613-59S.COL___101                                                 6
 STAT SP IPHASW D HRMM SECON CODA AMPLIT PERI AZIMU VELO SNR AR TRES W  DIS CAZ7
 BAR2 SZ IP       1617 48.91                             163     0.310   33  82 
 BAR2 SZ ES   1   1618  1.08                             163    -0.2 7   33  82 
 BRR  HZ EP   1   1617 49.85                             147    -0.2 7   67 337 
 BRR  HZ I        1617 57.90       105.7 0.13                            67 337 
 BRR  HN ES       1618  3.68                             147    -0.110   67 337 
 RUS  BZ EP       1617 51.81                             141    -0.210   85 149 
 RUS  BE ES   2   1618  7.19                             141     0.0 5   85 149 
 RUS  BZ I        1618  9.09        23.7 0.26                            85 149 
 OCA  SZ EP       1618  1.50                             117     0.0 9  188   5 
 OCA  SZ ES   2   1618 25.15                             117     1.1 4  188   5 
 CHI  HZ EP   1   1618  4.94                             114     0.3 6  214 188 
 CHI  HN ES   2   1618 29.66                             114    -0.2 4  214 188 
 CHI  HZ I        1618 34.66        16.6 0.49                           214 188 
 HEL  HZ EP   1   1618  6.61                             112     0.1 6  231 260 
 HEL  HE ES       1618 33.14                             112     0.1 8  231 260 
 HEL  HZ I        1618 39.67        18.9 0.36                           231 260 
 RREF BZ EP   1   1618 11.80                             107    -0.2 6  276 229 
 RREF BE ES   2   1618 42.78                             107    -0.2 4  276 229 
 RREF BZ I        1618 47.84        17.3 0.22                           276 229 
 TOL  SZ EP   2   1618 15.50                             106     1.2 4  298 223 
 TOL  SZ ES   2   1618 48.09                             106     1.2 4  298 223 
 DBB  SZ EP   1   1618 14.66                             105    -0.3 5  307 280 
 DBB  SZ ES   1   1618 48.17                             105     0.1 5  307 280 
 MON  HZ EP   2   1618 18.34                             103    -1.0 3  344 316 
 MON  HN ES   1   1618 55.64                             103    -0.3 5  344 316 
 MON  HZ I        1618 56.62         6.1 0.70                           344 316 
 PRA  HZ EP       1618 19.65                             102    -0.4 6  350 207 
 PRA  HN ES   1   1618 57.08                             102    -0.1 5  350 207 
 PRA  HZ I        1619  1.70        29.7 0.27                           350 207 
 SDV  BZ EP       1618 26.90                             100    -0.1 6  406  50 
                                                                                
