 2016  1 5 1110  6.1 L   6.799 -73.072141.9  RSN  6 0.5 1.8LRSN                1
 GAP=173        1.10       6.0     6.0  7.5  0.2998E+00  0.1085E+02 -0.1349E+02E
 Epicentro: LOS SANTOS - SANTANDER                                             3
 ACTION:UPD 16-03-09 23:23 OP:cam  STATUS:               ID:20160105111006 L   I
 OLDACT:REG 16-01-05 21:10 OP:ar   STATUS:               ID:20160105110749     3
 2016-01-05-1107-49M.COL___332                                                 6
 STAT SP IPHASW D HRMM SECON CODA AMPLIT PERI AZIMU VELO AIN AR TRES W  DIS CAZ7
 BAR2 EZ EP       1110 25.35                             169   -0.0110 25.9 208 
 BAR2 EZ ES       1110 39.87                             169   -0.4810 25.9 208 
 BAR2 EZ I        1110 41.40        12.4 0.20            172           25.9 208 
 PAM  EZ EP       1110 27.96                             152    0.3010 72.6  35 
 PAM  EN ES       1110 45.05                             152    0.6110 72.6  35 
 PAM  EZ I        1110 47.48        13.4 0.44            152           72.6  35 
 BRR  HZ EP       1110 27.25                             149   -0.0610 78.5 296 
 BRR  HN ES       1110 43.82                             149    0.0110 78.5 296 
 BRR  HZ I        1110 48.33         8.4 0.44            149           78.5 296 
 OCA  HZ EP       1110 34.12                             128   -0.16 9  162 350 
 OCA  HN ES       1110 55.61                             128   -0.61 9  162 350 
 OCA  HZ I        1111  0.41        10.8 0.14            130            162 350 
 ZAR  HZ EP       1110 39.78                             120    0.65 8  212 291 
 ZAR  HE ES       1111  5.08                             120    0.22 8  212 291 
 ZAR  HZ I        1111  7.76         5.4 0.46            122            212 291 
 SML  HZ EP       1110 42.00                             116   -0.95 8  247 334 
 SML  HN ES       1111 12.04                             116    0.39 8  247 334 
 SML  HZ I        1111 13.33         6.5 0.10            118            247 334 
                                                                                
