 2013  8 5 1934 31.2 L   6.762 -73.169141.3  RSN  9 0.5 2.3LRSN                1
 GAP=135        0.99       4.1     4.7  7.1 -0.1380E+01  0.1064E+02  0.7204E+00E
 Epicentro: LOS SANTOS - SANTANDER                                             3
 ACTION:UPD 14-01-14 08:59 OP:ep   STATUS:               ID:20130805193431 L   I
 OLDACT:REG 13-08-05 17:49 OP:carl STATUS:               ID:20130805192959     3
 2013-08-05-1929-59M.COL___268                                                 6
 STAT SP IPHASW D HRMM SECON CODA AMPLIT PERI AZIMU VELO AIN AR TRES W  DIS CAZ7
 BAR2 SZ EP   1   1934 50.43                             172    0.20 7 18.9 185 
 BAR2 SZ ES   1   1935  4.62                             172   -0.44 7 18.9 185 
 BAR2 SZ I        1935  6.00        68.7 0.18            171           18.9 185 
 GIR2 SZ EP   1   1934 50.39                             165   -0.08 7 35.1 356 
 GIR2 SZ ES   1   1935  5.21                             165   -0.28 7 35.1 356 
 GIR2 SZ I        1935  5.96        24.8 0.22            166           35.1 356 
 BRR  HZ EP   1   1934 52.50                             152    0.62 7 71.1 302 
 BRR  HN ES   1   1935  8.94                             152    0.94 7 71.1 302 
 BRR  HN I        1935  9.34       160.5 0.24            151           71.1 302 
 PAM  SZ IP     C 1934 53.30                             148    0.0410 82.2  39 
 PAM  SN ES   1   1935 10.14                             148   -0.32 7 82.2  39 
 PAM  SZ I        1935 12.41        28.3 0.62            151           82.2  39 
 RUS  HZ EP       1934 54.22                             144   -0.0310 96.6 174 
 RUS  HN ES   1   1935 12.85                             144    0.64 7 96.6 174 
 RUS  HZ I        1935 14.30        25.9 0.36            145           96.6 174 
 PTB  HZ EP       1934 56.86                             132   -0.67 9  144 260 
 PTB  HN ES   1   1935 17.52                             132   -0.53 7  144 260 
 PTB  HZ I        1935 20.83        21.6 0.42            132            144 260 
 ZAR  HZ EP   1   1935  3.69                             122    0.39 6  203 293 
 ZAR  HE ES   1   1935 28.94                             122    0.62 6  203 293 
 ZAR  HZ I        1935 30.47        17.9 0.38            122            203 293 
 NOR  HZ EP   1   1935  6.76                             118    0.55 6  230 235 
 NOR  HE ES       1935 33.11                             118   -0.39 8  230 235 
 NOR  HZ I        1935 38.51        10.7 0.18            119            230 235 
 SML  HN ES       1935 36.11                             116   -0.40 8  246 336 
 SML  HN I        1935 38.81        32.1 0.10            117            246 336 
                                                                                
