 2017  2 5 1458  5.9 L   6.071 -73.698117.9  RSN 10 0.5 2.2LRSN                1
 GAP=110        1.21       4.1     3.9  8.5  0.1009E+01  0.1893E+02  0.7029E+01E
 Epicentro: CHIPATA - SANTANDER                                                3
 ACTION:UPD 17-05-24 15:32 OP:jn   STATUS:               ID:20170205145805 L   I
 OLDACT:UP  17-02-05 23:54 OP:ar   STATUS:               ID:20170205145744     3
 OLDACT:UP  17-02-05 23:53 OP:ar   STATUS:               ID:20170205145744     3
 OLDACT:REG 17-02-05 21:31 OP:ar   STATUS:               ID:20170205145744     3
 2017-02-05-1458-00M.COL___331                                                 6
 STAT SP IPHASW D HRMM SECON CODA AMPLIT PERI AZIMU VELO AIN AR TRES W  DIS CAZ7
 RUS  HZ EP       1458 24.85                             147    0.0610 70.9 106 
 RUS  HN ES       1458 39.07                             147   -0.4610 70.9 106 
 RUS  HZ I        1458 40.83        38.0 0.24            153           70.9 106 
 BAR2 EZ EP       1458 25.55                             143    0.4110 81.1  45 
 BAR2 EZ ES       1458 39.75                             143   -0.4110 81.1  45 
 PTB  HZ EP       1458 25.35                             137   -0.8410 98.6 302 
 PTB  HN ES       1458 42.36                             137    0.3310 98.6 302 
 PTB  HZ I        1458 43.00        48.9 0.10            136           98.6 302 
 BRR  HZ EP       1458 27.77                             133    0.2110  115 359 
 BRR  HN ES       1458 45.37                             133    0.9110  115 359 
 BRR  HZ I        1458 51.45        20.9 0.16            134            115 359 
 PAM  EE ES       1458 56.95                             119    0.05 9  179  38 
 PAM  EZ I        1458 59.00        17.7 0.16            122            179  38 
 ZAR  HZ EP       1458 36.59                             116    0.04 9  203 321 
 ZAR  HN ES       1459  0.63                             116    0.16 9  203 321 
 CBOC HZ EP       1458 43.60                             110    0.72 8  257 265 
 CBOC HN ES       1459 11.81                             110    0.07 8  257 265 
 CBOC HZ I        1459 23.84         5.1 0.56            111            257 265 
 URE  HZ EP       1458 43.86                             108   -0.88 8  275 313 
 URE  HN ES       1459 14.02                             108   -1.03 8  275 313 
 URE  HZ I        1459 26.04        13.8 0.16            109            275 313 
 ORTC HZ EP     D 1458 47.41                             107    0.40 7  294 216 
 ORTC HN ES       1459 19.25                             107    0.16 7  294 216 
 ORTC HZ I        1459 25.08        10.9 0.48            108            294 216 
 DBB  EZ EP       1458 47.53                             107    0.17 7  297 291 
 DBB  EN ES       1459 19.48                             107   -0.24 7  297 291 
 DBB  EZ I        1459 22.86         6.0 0.18            108            297 291 
                                                                                
