 2016  6 5 1318  3.7 L   6.810 -73.159137.9  RSN 13 0.5 2.3LRSN                1
 GAP=112        1.07       3.3     3.0  5.3 -0.4038E-01  0.4462E+01  0.1098E+00E
 Epicentro: LOS SANTOS - SANTANDER                                             3
 ACTION:UPD 16-07-21 22:15 OP:rebc STATUS:               ID:20160605131803 L   I
 OLDACT:UP  16-06-05 21:49 OP:ar   STATUS:               ID:20160605130743     3
 OLDACT:REG 16-06-05 20:56 OP:ar   STATUS:               ID:20160605130743     3
 2016-06-05-1307-43M.COL___319                                                 6
 STAT SP IPHASW D HRMM SECON CODA AMPLIT PERI AZIMU VELO AIN AR TRES W  DIS CAZ7
 BAR2 EZ IP     D 1318 22.43                             170    0.0310 24.3 186 
 BAR2 EZ ES       1318 36.75                             170   -0.2410 24.3 186 
 BAR2 EZ I        1318 38.06        61.6 0.18                          24.3 186 
 BRR  HZ IP     D 1318 24.37                             152    0.4810 69.4 298 
 BRR  HN ES       1318 40.66                             152    1.0210 69.4 298 
 BRR  HZ I        1318 42.89        37.6 0.26                          69.4 298 
 RUS  HZ EP       1318 26.67                             142   -0.1010  102 175 
 RUS  HN ES       1318 44.84                             142    0.0710  102 175 
 RUS  HZ I        1318 45.51        19.3 0.26                           102 175 
 PTB  HZ EP       1318 29.13                             130   -0.79 9  147 258 
 PTB  HN ES       1318 49.89                             130   -0.49 9  147 258 
 PTB  HZ I        1318 52.86        38.4 0.12                           147 258 
 TAM  HZ EP       1318 30.80                             128   -0.12 9  157 105 
 TAM  HN ES       1318 52.03                             128   -0.12 9  157 105 
 TAM  HZ I        1319  5.27         9.1 0.26                           157 105 
 OCA  HZ EP       1318 31.20                             128   -0.07 9  159 354 
 OCA  HN ES       1318 52.42                             128   -0.37 9  159 354 
 OCA  HZ I        1318 55.89        59.9 0.42                           159 354 
 SPBC HZ EP       1318 31.51                             127   -0.09 9  163 218 
 SPBC HN ES       1318 53.71                             127    0.35 9  163 218 
 SPBC HZ I        1318 58.10        25.7 0.30                           163 218 
 NOR  HZ EP       1318 38.73                             117   -0.19 8  234 234 
 NOR  HN ES       1319  5.92                             117   -0.48 8  234 234 
 NOR  HZ I        1319  9.44        15.3 0.28                           234 234 
 HEL  HZ EP       1318 43.85                             113    0.46 8  271 255 
 HEL  HN ES       1319 14.14                             113   -0.22 8  271 255 
 HEL  HZ I        1319 21.36        11.1 0.26                           271 255 
 URE  HZ EP       1318 44.91                             112    0.72 7  282 292 
 URE  HN ES       1319 15.03                             112   -0.75 7  282 292 
 URE  HZ I        1319 16.52        16.8 0.14                           282 292 
 CBOC HZ EP       1318 50.72                             109    0.55 7  333 252 
 CBOC HN ES       1319 26.99                             109    0.56 7  333 252 
 CBOC HZ I        1319 30.01         4.6 0.30                           333 252 
 DBB  SZ EP       1318 51.31                             108    0.63 7  338 274 
 DBB  SZ ES       1319 26.70                             108   -0.64 7  338 274 
 PRA  HZ EP       1318 57.19                             105    0.21 6  392 209 
 PRA  HN ES       1319 38.42                             105   -0.13 6  392 209 
 PRA  HZ I        1319 42.91         3.5 0.30                           392 209 
                                                                                
