 2013  2 5 1049 59.7 L   6.774 -73.144142.0  RSN  9 0.4 2.1LRSN                1
 GAP=138        0.81       3.2     4.2  5.7  0.8994E+00  0.3905E+01  0.4594E+01E
 Epicentro: LOS SANTOS - SANTANDER                                             3
 ACTION:UPD 13-03-12 09:30 OP:ep   STATUS:               ID:20130205104959 L   I
 2013-02-05-1050-00M.COL___241                                                 6
 STAT SP IPHASW D HRMM SECON CODA AMPLIT PERI AZIMU VELO AIN AR TRES W  DIS CAZ7
 BAR2 SZ EP       1050 18.77                             171   -0.0110 20.5 192 
 BAR2 SZ ES   1   1050 33.58                             171   -0.11 7 20.5 192 
 BAR2 SZ I        1050 34.85        46.9 0.33            163           20.5 192 
 BRR  HZ IP     C 1050 20.56                             151    0.0710 72.8 300 
 BRR  HN ES       1050 37.50                             151    0.7610 72.8 300 
 BRR  HZ I        1050 38.39        27.9 0.16            138           72.8 300 
 PAM  SZ EP       1050 21.59                             150   -0.0110 79.5  38 
 PAM  SZ I        1050 21.99        36.1 0.22            146           79.5  38 
 PAM  SE ES   1   1050 38.66                             150   -0.06 7 79.5  38 
 RUS  HZ EP       1050 22.79                             144   -0.0410 97.7 176 
 RUS  HE ES   1   1050 40.86                             144   -0.04 7 97.7 176 
 RUS  HE I        1050 43.52        23.6 0.19            135           97.7 176 
 PTB  HZ EP   1   1050 25.54                             131   -0.74 7  147 260 
 PTB  HE ES   1   1050 46.59                             131   -0.47 7  147 260 
 PTB  HZ I        1050 50.25        15.1 0.16            119            147 260 
 OCA  HN ES   1   1050 49.48                             128   -0.54 7  163 353 
 OCA  HZ I        1050 53.26        12.4 0.25            119            163 353 
 ZAR  HZ EP   1   1050 32.11                             122    0.12 6  205 293 
 ZAR  HE ES   1   1050 56.79                             122   -0.42 6  205 293 
 ZAR  HZ I        1051  3.33        13.4 0.25            111            205 293 
 CHI  HZ EP       1050 37.10                             117    0.25 8  246 195 
 CHI  HN ES       1051  5.72                             117   -0.14 8  246 195 
 CHI  HZ I        1051 10.26         5.0 0.26            108            246 195 
 HEL  HZ EP   1   1050 40.32                             114    0.70 6  272 256 
 HEL  HZ I        1051 17.08         7.2 0.36            105            272 256 
                                                                                
