 2017 11 5 1944 27.9 L   6.741 -73.179144.3  RSN  5 0.4 1.2LRSN                1
 GAP=135        1.16       6.1     5.9  8.6 -0.3526E+01  0.7458E+01  0.1025E+01E
 Epicentro: VILLANUEVA - SANTANDER                                             3
 ACTION:UPD 17-12-12 19:52 OP:rebc STATUS:               ID:20171105194427 L   I
 OLDACT:REG 17-11-05 21:09 OP:mg   STATUS:               ID:20171105193739     3
 2017-11-05-1938-00M.COL___437                                                 6
 STAT SP IPHASW D HRMM SECON CODA AMPLIT PERI AZIMU VELO AIN AR TRES W  DIS CAZ7
 BAR2 EZ ES       1945  2.16                             173   -0.1710 16.5 181 
 BAR2 EZ I        1945  5.69         4.0 0.46            172           16.5 181 
 BRR  HZ EP       1944 49.51                             152    0.5810 71.5 304 
 BRR  HE ES       1945  6.01                             152    0.7010 71.5 304 
 PAM  EZ EP       1944 50.36                             148   -0.0710 84.7  39 
 PAM  EN ES       1945  7.48                             148   -0.5110 84.7  39 
 PAM  EZ I        1945  9.41         4.4 0.50            150           84.7  39 
 RUS  HZ EP       1944 51.38                             145    0.2910 94.4 174 
 RUS  HN ES       1945  9.26                             145    0.1010 94.4 174 
 RUS  HZ I        1945 11.12         1.8 0.28            146           94.4 174 
 PTB  HZ EP       1944 53.89                             133   -0.45 9  143 261 
 PTB  HN ES       1945 14.36                             133   -0.59 9  143 261 
                                                                                
