 2011  4 5 1151  0.8 L   6.770 -73.064141.5  RSN  4 0.2 1.9LRSN                1
 GAP=251        0.52       4.2     8.8  6.2  0.6599E+01 -0.6168E+01  0.6028E+01E
 Epicentro: LOS SANTOS - SANTANDER                                             3
 ACTION:UP  11-06-22 15:29 OP:REBC STATUS:               ID:20110405115100 L   I
 2011-04-05-1149-14S.COL___122                                                 6
 STAT SP IPHASW D HRMM SECON CODA AMPLIT PERI AZIMU VELO SNR AR TRES W  DIS CAZ7
 BAR2 SZ EP       1151 19.95                             170     0.010   24 214 
 BAR2 SZ ES   1   1151 34.70                             170    -0.1 7   24 214 
 BAR2 SZ I        1151 36.01        13.1 0.21                            24 214 
 BTL  SZ EP       1151 20.19                             169     0.210   28 306 
 BRR  HZ IP       1151 21.79                             149    -0.310   81 298 
 BRR  HZ I        1151 21.95        26.8 0.12                            81 298 
 BRR  HN ES   1   1151 38.83                             149     0.2 7   81 298 
 CHI  HZ EP   2   1151 38.53                             116     0.3 4  248 197 
 CHI  HN ES   1   1152  7.29                             116    -0.1 6  248 197 
 CHI  HZ I        1152 11.76         3.2 0.62                           248 197 
                                                                                
