 2014  9 5 1234 15.8 L   6.735 -73.152144.4  RSN  6 0.4 1.5LRSN                1
 GAP=232        0.92       6.3     6.5  7.9  0.9431E+01  0.1674E+02  0.4593E+01E
 Epicentro: LOS SANTOS - SANTANDER                                             3
 ACTION:UPD 14-10-03 23:02 OP:nd   STATUS:               ID:20140905123415 L   I
 OLDACT:REG 14-09-05 20:36 OP:fm   STATUS:               ID:20140905122820     3
 2014-09-05-1228-20M.COL___275                                                 6
 STAT SP IPHASW D HRMM SECON CODA AMPLIT PERI AZIMU VELO AIN AR TRES W  DIS CAZ7
 BAR2 SZ EP       1234 35.28                             174    0.1510 16.1 192 
 BAR2 SZ ES   1   1234 50.94                             174    0.73 7 16.1 192 
 BAR2 SZ I        1234 54.04         3.6 0.18            173           16.1 192 
 BRR  HZ EP       1234 37.02                             151    0.0510 74.3 304 
 BRR  HN ES       1234 53.54                             151    0.0510 74.3 304 
 BRR  HZ I        1234 54.39         9.2 0.28            152           74.3 304 
 RUS  HE ES       1234 56.60                             146   -0.3210 93.4 175 
 RUS  HZ I        1234 59.52         4.8 0.28            148           93.4 175 
 PTB  HZ EP       1234 42.15                             132   -0.32 9  146 262 
 PTB  HE ES       1235  2.78                             132   -0.50 9  146 262 
 PTB  HZ I        1235  8.42         3.4 0.22            134            146 262 
 SML  HE ES   4   1235 17.96                             116   -4.11 0  250 336 
 SML  HZ I        1235 24.44         3.7 0.10            119            250 336 
 GUY2CHZ EP   1   1234 59.15                             112    0.35 5  296 236 
 GUY2CHN ES   1   1235 33.32                             112    0.97 5  296 236 
 GUY2CHZ I        1235 44.38         1.8 0.32                           296 236 
                                                                                
