 2011  3 5 1039 22.3 L   6.599 -73.315126.9  RSN  6 0.3 1.7LRSN                1
 GAP=100        0.56       3.6     8.4  8.9 -0.1501E+02  0.4843E+02 -0.1391E+02E
 Epicentro: GALAN - SANTANDER                                                  3
 ACTION:UP  11-06-16 14:31 OP:jfem STATUS:               ID:20110305103922 L   I
 2011-03-05-1037-15S.COL___135                                                 6
 STAT SP IPHASW D HRMM SECON CODA AMPLIT PERI AZIMU VELO SNR AR TRES W  DIS CAZ7
 BAR2 SZ EP       1039 39.72                             173     0.210   15  93 
 BAR2 SZ ES   2   1039 52.89                             173    -0.1 5   15  93 
 BAR2 SZ I        1039 53.76        18.7 0.14                            15  93 
 RUS  HZ EP   2   1039 43.25                             145     0.3 5   82 162 
 RUS  HN ES   2   1039 58.53                             145    -0.4 5   82 162 
 RUS  HZ I        1040  1.71         5.2 0.36                            82 162 
 GRA  SZ EP   2   1039 47.95                             126    -0.6 5  153  22 
 GRA  SZ ES   2   1040  8.93                             126     0.0 5  153  22 
 GRA  SZ I        1040 10.03         5.1 0.30                           153  22 
 OCA  SZ EP   1   1039 51.66                             121     0.3 7  181 360 
 OCA  SZ ES   1   1040 13.89                             121    -0.2 7  181 360 
 OCA  SZ I        1040 18.72         8.1 0.52                           181 360 
 HEL  HZ EP   2   1039 58.98                             113    -0.1 4  249 260 
 HEL  HZ I        1040 31.56         4.3 0.43                           249 260 
 RREF HZ EP   2   1040  3.88                             109    -0.5 4  293 230 
 RREF HE ES   2   1040 37.30                             109     0.1 4  293 230 
 RREF HZ I        1040 44.32         3.0 0.29                           293 230 
                                                                                
