 2014 12 5 1529 42.9 L   7.424 -73.157138.9  RSN  7 0.4 1.6LRSN                1
 GAP=134        0.86       4.3     4.1  7.0  0.2146E+01  0.7548E+01 -0.3307E+01E
 Epicentro: EL PLAYON - SANTANDER                                              3
 ACTION:UPD 15-02-10 17:00 OP:nd   STATUS:               ID:20141205152942 L   I
 OLDACT:REG 14-12-05 20:52 OP:spq  STATUS:               ID:20141205152744     3
 2014-12-05-1527-44M.COL___300                                                 6
 STAT SP IPHASW D HRMM SECON CODA AMPLIT PERI AZIMU VELO AIN AR TRES W  DIS CAZ7
 PAM  SZ EP       1530  3.52                             159    0.4810 51.4 100 
 PAM  SE ES       1530 18.93                             159    0.2110 51.4 100 
 PAM  SZ I        1530 20.69         4.8 0.42            160           51.4 100 
 BRR  HZ EP   1   1530  3.62                             152    0.31 7 70.6 240 
 BRR  HN ES       1530 19.01                             152   -0.2010 70.6 240 
 BRR  HZ I        1530 21.59        12.6 0.26            148           70.6 240 
 BAR2 SZ ES   1   1530 21.66                             145   -0.62 7 92.0 182 
 BAR2 SZ I        1530 23.15        14.9 0.12            142           92.0 182 
 RUS  HZ EP   1   1530 11.31                             126   -0.76 7  170 177 
 RUS  HE ES   1   1530 34.64                             126   -0.15 7  170 177 
 RUS  HZ I        1530 42.23         1.5 0.40            125            170 177 
 PTB  HZ EP       1530 12.10                             125    0.25 9  174 236 
 PTB  HE ES   1   1530 34.68                             125    0.27 7  174 236 
 PTB  HZ I        1530 38.17         4.3 0.11            124            174 236 
 SML  HZ EP   1   1530 12.43                             124   -0.29 7  183 327 
 SML  HN ES   1   1530 35.31                             124   -0.64 7  183 327 
 ZAR  HN ES       1530 37.18                             123    0.24 9  188 272 
 ZAR  HZ I        1530 41.50         7.7 0.34            123            188 272 
                                                                                
