 2017 11 5 1929 30.7 L   6.804 -73.121140.6  RSN  7 0.3 1.3LRSN                1
 GAP=139        0.72       3.3     3.1  4.9 -0.4012E-01  0.4862E+01 -0.4767E+00E
 Epicentro: LOS SANTOS - SANTANDER                                             3
 ACTION:UPD 17-12-12 19:52 OP:rebc STATUS:               ID:20171105192930 L   I
 OLDACT:UP  17-11-06 00:25 OP:edw  STATUS:               ID:20171105192740d    3
 OLDACT:UP  17-11-06 00:25 OP:edw  STATUS:               ID:20171105192740d    3
 OLDACT:UP  17-11-06 00:24 OP:edw  STATUS:               ID:20171105192740d    3
 OLDACT:DUP 17-11-06 00:16 OP:edw  STATUS:               ID:20171105192740d    3
 2017-11-05-1928-00M.COL___441                                                 6
 STAT SP IPHASW D HRMM SECON CODA AMPLIT PERI AZIMU VELO AIN AR TRES W  DIS CAZ7
 BAR2 EZ ES       1930  4.96                             170    0.3310 24.4 196 
 BRR  HZ EP       1929 51.68                             151    0.2110 73.4 297 
 BRR  HN ES       1930  7.60                             151   -0.0310 73.4 297 
 BRR  HZ I        1930  9.92        11.3 0.36            149           73.4 297 
 PAM  HZ EP       1929 52.29                             151    0.0010 75.3  38 
 PAM  EE ES       1930  8.70                             151   -0.3910 75.3  38 
 PAM  HZ I        1930 11.44         2.0 0.54            154           75.3  38 
 RUS  HZ EP       1929 53.80                             143   -0.2210  101 178 
 RUS  HN ES       1930 12.38                             143    0.2110  101 178 
 RUS  HZ I        1930 13.58         1.9 0.38            144            101 178 
 PTB  HZ EP       1929 57.45                             130   -0.11 9  151 259 
 PTB  HE ES       1930 18.27                             130   -0.20 9  151 259 
 PTB  HZ I        1930 21.38         1.5 0.26            129            151 259 
 ZAR  HZ EP       1930  3.61                             121    0.50 8  206 292 
 ZAR  HN ES       1930 28.41                             121    0.06 8  206 292 
 ZAR  HZ I        1930 34.20         3.9 0.28            121            206 292 
 NOR  HZ EP   4   1930  9.30                             117    2.85 0  237 235 
 NOR  HE ES   1   1930 33.62                             117   -0.69 6  237 235 
 NOR  HZ I        1930 41.29         1.8 0.24            117            237 235 
                                                                                
