 2011 11 5 1010 49.1 L   6.794 -73.143137.5  RSN  6 0.3 1.6LRSN                1
 GAP=137        0.52       3.2     3.9  4.9  0.1334E+01  0.1465E+01  0.1326E+01E
 Epicentro: LOS SANTOS - SANTANDER                                             3
 ACTION:UPD 12-07-13 16:08 OP:ep   STATUS:               ID:20111105101049 L   I
 2011-11-05-1009-31S.COL___175                                                 6
 STAT SP IPHASW D HRMM SECON CODA AMPLIT PERI AZIMU VELO AIN AR TRES W  DIS CAZ7
 BAR2 SZ EP       1011  7.68                             170    0.0010 22.8 191 
 BAR2 SZ ES   1   1011 22.20                             170    0.00 7 22.8 191 
 BAR2 SZ I        1011 23.36         8.8 0.28                          22.8 191 
 BRR  HZ EP       1011  9.53                             151    0.1810 71.7 299 
 BRR  HE ES   1   1011 25.34                             151    0.17 7 71.7 299 
 BRR  HZ I        1011 30.81        17.0 0.48                          71.7 299 
 PAM  SZ EP       1011 10.50                             149    0.0810 77.7  39 
 PAM  SN ES   1   1011 27.26                             149    0.18 7 77.7  39 
 RUS  HZ EP       1011 11.77                             142   -0.1810 99.9 176 
 RUS  HE ES   2   1011 29.54                             142   -0.27 5 99.9 176 
 RUS  HZ I        1011 32.29         2.3 0.28                          99.9 176 
 OCA  SZ ES   2   1011 37.43                             128   -1.01 5  161 353 
 ZAR  HZ EP   2   1011 21.21                             120    0.18 4  205 292 
 ZAR  HN ES   2   1011 45.77                             120   -0.19 4  205 292 
 ZAR  HZ I        1011 49.75         4.6 0.30                           205 292 
                                                                                
