 2015 10 5 1443  4.9 L   6.803 -73.136149.4  RSN  7 0.3 1.8LRSN                1
 GAP=217        0.67       3.0     4.7  5.3  0.1445E+01  0.1711E+01  0.4667E+01E
 Epicentro: LOS SANTOS - SANTANDER                                             3
 ACTION:UPD 15-12-22 20:37 OP:cam  STATUS:               ID:20151005144304 L   I
 OLDACT:REG 15-10-05 21:52 OP:spq  STATUS:               ID:20151005143750     3
 2015-10-05-1437-50M.COL___340                                                 6
 STAT SP IPHASW D HRMM SECON CODA AMPLIT PERI AZIMU VELO AIN AR TRES W  DIS CAZ7
 BAR2 EZ EP       1443 24.74                             171   -0.2010 23.8 192 
 BAR2 EZ ES   1   1443 40.52                             171   -0.08 7 23.8 192 
 BAR2 EZ I        1443 41.05        10.4 0.23            166           23.8 192 
 BRR  HZ EP       1443 26.61                             153    0.1610 72.0 298 
 BRR  HN ES       1443 43.62                             153    0.3410 72.0 298 
 BRR  HZ I        1443 44.98        11.0 0.46            148           72.0 298 
 SPBC HZ EP       1443 33.75                             130    0.02 9  164 219 
 SPBC HE ES       1443 55.94                             130   -0.30 9  164 219 
 SPBC HZ I        1443 59.92         6.9 0.14            127            164 219 
 ZAR  HE ES       1444  2.68                             123   -0.52 9  205 292 
 ZAR  HZ I        1444  8.26         4.8 0.38            121            205 292 
 NOR  HZ EP       1443 41.02                             119    0.10 8  236 235 
 NOR  HN ES       1444  9.54                             119    0.50 8  236 235 
 NOR  HZ I        1444 16.58         5.3 0.22            117            236 235 
 SML  HE ES   1   1444 10.40                             118   -0.06 6  244 335 
 SML  HZ I        1444 13.22         8.8 0.10            118            244 335 
 CHI  HZ EP       1443 43.03                             118    0.20 8  249 195 
 CHI  HE ES   1   1444 12.07                             118   -0.37 6  249 195 
 CHI  HZ I        1444 15.59         3.2 0.34            117            249 195 
                                                                                
