 2017  9 5 1233  8.6 L   6.769 -72.968141.9  RSN  4 0.4 1.2LRSN                1
 GAP=162        1.07       5.6     8.4  8.8 -0.2564E+01 -0.6206E+01  0.2140E+01E
 Epicentro: CEPITA - SANTANDER                                                 3
 ACTION:UPD 17-10-05 19:09 OP:rebc STATUS:               ID:20170905123308 L   I
 OLDACT:UP  17-09-08 14:25 OP:nlst STATUS:               ID:20170905123308 L   3
 OLDACT:REG 17-09-05 20:47 OP:lv   STATUS:               ID:20170905122738     3
 2017-09-05-1228-00M.COL___426                                                 6
 STAT SP IPHASW D HRMM SECON CODA AMPLIT PERI AZIMU VELO AIN AR TRES W  DIS CAZ7
 BAR2 EZ EP       1233 27.26                             167   -0.7310 30.7 230 
 BAR2 EZ ES       1233 42.55                             167   -0.5310 30.7 230 
 BAR2 EZ I        1233 44.99         3.3 0.15            167           30.7 230 
 PAM  EZ EP       1233 29.86                             153   -0.1410 69.7  25 
 PAM  EE ES       1233 46.99                             153    0.3310 69.7  25 
 BRR  HZ EP       1233 30.92                             146    0.3310 90.3 294 
 BRR  HN ES       1233 47.85                             146    0.1410 90.3 294 
 RUS  HZ EP       1233 31.99                             144    0.1710 97.8 187 
 RUS  HE ES       1233 50.33                             144    0.4410 97.8 187 
                                                                                
