 2016  6 5 1442 50.7 L   6.824 -73.158146.0  RSN  8 0.5 2.2LRSN                1
 GAP=134        1.18       4.0     5.9  7.6 -0.8305E+01  0.4501E+01  0.7214E+01E
 Epicentro: LOS SANTOS - SANTANDER                                             3
 ACTION:UPD 16-07-21 22:15 OP:rebc STATUS:               ID:20160605144250 L   I
 OLDACT:REG 16-06-05 21:01 OP:ar   STATUS:               ID:20160605143741     3
 2016-06-05-1437-41M.COL___316                                                 6
 STAT SP IPHASW D HRMM SECON CODA AMPLIT PERI AZIMU VELO AIN AR TRES W  DIS CAZ7
 BRR  HZ IP     C 1443 11.96                             154    0.2010 68.8 297 
 BRR  HN ES       1443 29.10                             154    0.9310 68.8 297 
 BRR  HZ I        1443 31.99        17.4 0.28                          68.8 297 
 PAM  EZ EP       1443 12.44                             151   -0.4610 76.3  42 
 PAM  EN ES       1443 30.45                             151    0.2610 76.3  42 
 PAM  EZ I        1443 33.00        14.5 0.38                          76.3  42 
 RUS  HZ EP       1443 14.38                             143   -0.3110  103 175 
 RUS  HN ES       1443 33.32                             143   -0.0710  103 175 
 RUS  HZ I        1443 34.29        13.8 0.44                           103 175 
 PTB  HZ EP       1443 16.76                             132   -0.87 9  147 258 
 PTB  HN ES       1443 38.05                             132   -0.58 9  147 258 
 PTB  HZ I        1443 44.74        16.3 0.20                           147 258 
 OCA  HZ EP       1443 19.10                             130    0.31 9  157 354 
 OCA  HN ES       1443 40.36                             130   -0.32 9  157 354 
 OCA  HZ I        1443 48.55        29.3 0.26                           157 354 
 SPBC HZ EP       1443 19.60                             129    0.25 9  164 218 
 SPBC HN ES       1443 41.41                             129   -0.27 9  164 218 
 SPBC HZ I        1443 45.41        23.5 0.22                           164 218 
 PRA  HZ EP       1443 45.13                             107    0.69 6  394 209 
 PRA  HN ES       1444 26.73                             107    0.39 6  394 209 
 PRA  HZ I        1444 30.30         7.2 0.56                           394 209 
 ORTC HZ EP       1443 45.08                             106    0.28 6  397 216 
 ORTC HN ES       1444 27.84                             106    0.85 6  397 216 
 ORTC HZ I        1444 31.31         4.7 0.22                           397 216 
                                                                                
