 2015  5 5 1746 26.9 L   6.742 -73.174138.3  RSN  6 0.4 1.6LRSN                1
 GAP=158        1.10       5.2     6.8  7.4 -0.2025E+01 -0.8491E+01  0.9754E+01E
 Epicentro: VILLANUEVA - SANTANDER                                             3
 ACTION:UPD 15-09-10 22:01 OP:cam  STATUS:               ID:20150505174626 L   I
 OLDACT:DUP 15-05-05 23:17 OP:stll STATUS:               ID:20150505173750d    3
 2015-05-05-1737-49M.COL___279                                                 6
 STAT SP IPHASW D HRMM SECON CODA AMPLIT PERI AZIMU VELO AIN AR TRES W  DIS CAZ7
 BAR2 EZ EP       1746 45.48                             173    0.0110 16.5 183 
 BAR2 EZ ES       1746 59.27                             173   -0.7110 16.5 183 
 BAR2 EZ I        1747  2.85         8.0 0.26            169           16.5 183 
 BRR  HZ EP       1746 47.24                             151   -0.0110 71.9 304 
 BRR  HN ES       1747  3.32                             151    0.1710 71.9 304 
 RUS  HZ EP       1746 49.64                             144    0.2110 94.4 174 
 RUS  HN ES       1747  7.89                             144    0.8510 94.4 174 
 RUS  HZ I        1747  9.07         5.7 0.24            143           94.4 174 
 SPBC HZ EP       1746 54.43                             129    0.31 9  156 220 
 SPBC HN ES       1747 15.31                             129   -0.08 9  156 220 
 SPBC HZ I        1747 23.40         9.1 0.22            128            156 220 
 TAM  HZ EP       1746 53.87                             128   -0.22 9  157 102 
 CHI  HZ EP       1747  3.33                             116   -0.05 8  242 195 
 CHI  HZ I        1747  4.27         2.6 0.22            117            242 195 
 CHI  HN ES       1747 31.08                             116   -0.78 8  242 195 
                                                                                
