 2010  2 5 1114  2.9 L   6.841 -73.040143.2  RSN  5 0.3 1.6LRSN                1
 GAP=313        0.41       8.2    13.7  6.8 -0.2673E+02  0.4754E+02  0.5326E+01E
 Epicentro: CEPITA - SANTANDER                                                 3
 ACTION:UP  10-08-24 09:47 OP:vdl  STATUS:               ID:20100205111402 L   I
 2010-02-05-1059-50S.COL___092                                                 6
 STAT SP IPHASW D HRMM SECON CODA AMPLIT PERI AZIMU VELO SNR AR TRES W  DIS CAZ7
 BAR2 SZ EP   2   1114 22.65                             167     0.2 5   32 210 
 BAR2 SZ ES   2   1114 37.41                             167    -0.2 5   32 210 
 RUS  HZ EP   2   1114 26.90                             142     0.2 5  105 183 
 RUS  HE ES   2   1114 45.30                             142     0.0 5  105 183 
 RUS  HZ I        1114 46.09         1.7 0.38                           105 183 
 CHI  HZ EP   2   1114 40.92                             116    -0.4 4  256 197 
 RREF HZ EP   2   1114 50.36                             109     0.1 3  334 230 
 RREF HZ I        1115 34.31         2.1 0.25                           334 230 
 PRA  HZ EP   2   1114 56.93                             105    -0.5 3  402 211 
 PRA  HE ES   2   1115 40.34                             105     0.3 3  402 211 
 PRA  HZ I        1115 45.37         2.4 0.42                           402 211 
                                                                                
