 2013  7 5 1503 52.5 L   6.496 -73.587107.1  RSN  6 0.4 1.2LRSN                1
 GAP=133        0.93       6.1     4.2  8.9  0.8312E+01  0.8787E+01  0.3522E+01E
 Epicentro: SANTA HELENA DEL OPON - SANTANDER                                  3
 ACTION:UPD 13-08-12 10:35 OP:ep   STATUS:               ID:20130705150352 L   I
 OLDACT:DUP 13-07-05 18:50 OP:jn   STATUS:               ID:20130705145960d    3
 2013-07-05-1459-59M.COL___267                                                 6
 STAT SP IPHASW D HRMM SECON CODA AMPLIT PERI AZIMU VELO AIN AR TRES W  DIS CAZ7
 BAR2 SZ EP       15 4  8.62                             155    0.1610 46.0  77 
 BAR2 SZ ES       15 4 20.59                             155   -0.2810 46.0  77 
 BRR  HN ES   1   15 4 23.18                             144    0.41 7 69.0 348 
 GIR2 SZ EP       15 4  9.96                             141   -0.4110 77.8  34 
 RUS  HZ EP   1   15 4 11.82                             138    0.24 7 86.9 140 
 RUS  HN ES   1   15 4 26.99                             138    0.56 7 86.9 140 
 RUS  HZ I        15 4 28.99         1.7 0.26            142           86.9 140 
 PTB  HZ EP       15 4 11.50                             135   -0.2110 96.3 273 
 PTB  HN ES       15 4 26.33                             135   -0.3310 96.3 273 
 PTB  HZ I        15 4 33.51         3.5 0.22            133           96.3 273 
 ZAR  HE ES   1   15 4 42.25                             116    0.89 7  179 308 
 ZAR  HZ I        15 4 46.74         4.5 0.30            118            179 308 
                                                                                
