 2011  5 5 1034 55.9 L   6.779 -73.142143.0  RSN  4 0.1 1.5LRSN                1
 GAP=138        0.37       2.6     3.5  4.6  0.5108E+00 -0.3525E+01  0.2666E+01E
 Epicentro: LOS SANTOS - SANTANDER                                             3
 ACTION:UP  11-06-29 08:51 OP:tino STATUS:               ID:20110505103455 L   I
 2011-05-05-1031-18S.COL___132                                                 6
 STAT SP IPHASW D HRMM SECON CODA AMPLIT PERI AZIMU VELO SNR AR TRES W  DIS CAZ7
 BAR2 SZ EP       1035 15.15                             171     0.010   21 192 
 BRR  HZ EP   1   1035 17.06                             152     0.2 7   73 300 
 BRR  HZ I        1035 17.36        11.8 0.28                            73 300 
 BRR  HN ES       1035 33.16                             152    -0.110   73 300 
 PAM  SZ EP   1   1035 18.03                             150     0.1 7   79  38 
 PAM  SN ES   1   1035 35.11                             150     0.0 7   79  38 
 RUS  HZ EP   1   1035 19.08                             144    -0.2 7   98 176 
 RUS  HN ES   1   1035 37.57                             144     0.1 7   98 176 
 RUS  HZ I        1035 38.68         2.4 0.35                            98 176 
                                                                                
