 2010  7 5 1923 18.5 L   6.871 -72.988146.2  RSN  8 0.3 2.1LRSN                1
 GAP=199        0.47       5.2     6.4  6.6  0.9202E+01  0.6835E+01  0.1314E+02E
 Epicentro: CEPITA - SANTANDER                                                 3
 ACTION:UPD 10-12-01 15:15 OP:pat  STATUS:               ID:20100705192318 L   I
 2010-07-05-1920-00S.COL___113                                                 6
 STAT SP IPHASW D HRMM SECON CODA AMPLIT PERI AZIMU VELO AIN AR TRES W  DIS CAZ7
 BAR2 SZ EP       1923 38.62                             165     0.110   38 215 
 BAR2 SZ ES   2   1923 53.82                             165    -0.3 5   38 215 
 BRR  HZ EP       1923 40.52                             148     0.110   84 288 
 BRR  HN ES   2   1923 57.51                             148    -0.1 5   84 288 
 BRR  HZ I        1924  0.78        24.0 0.13                            84 288 
 RUS  HZ EP       1923 42.90                             142     0.010  109 186 
 RUS  HZ I        1923 44.00         9.1 0.25                           109 186 
 OCA  SZ ES   3   1924  7.84                             130    -0.3 2  156 346 
 CHI  HZ EP   3   1923 57.28                             116    -0.3 2  261 198 
 CHI  HE ES   3   1924 27.39                             116    -0.6 2  261 198 
 CHI  HZ I        1924 34.42         6.0 0.41                           261 198 
 HEL  HZ EP   2   1924  0.09                             113    -0.7 4  291 255 
 HEL  HZ I        1924 38.68         5.3 0.26                           291 255 
 GUY  HZ EP   2   1924  4.30                             111     0.1 3  320 236 
 GUY  HE ES   2   1924 40.52                             111     0.6 3  320 236 
 PRA  HZ EP   2   1924 13.16                             106    -0.7 3  408 211 
 PRA  HZ I        1924 59.71         7.0 0.47                           408 211 
                                                                                
