 2012 12 5 1634 52.7 L   6.801 -73.169138.5  RSN 10 0.5 2.4LRSN                1
 GAP=134        1.11       3.2     4.6  6.5 -0.2259E+01  0.1175E+02 -0.1583E+01E
 Epicentro: LOS SANTOS - SANTANDER                                             3
 ACTION:UPD 13-01-04 14:25 OP:ep   STATUS:               ID:20121205163452 L   I
 2012-12-05-1630-00M.COL___237                                                 6
 STAT SP IPHASW D HRMM SECON CODA AMPLIT PERI AZIMU VELO AIN AR TRES W  DIS CAZ7
 BAR2 SZ IP       1635 11.60                             170    0.1410 23.1 184 
 BAR2 SZ ES       1635 26.04                             170   -0.0510 23.1 184 
 BAR2 SZ I        1635 27.33        40.3 0.14                          23.1 184 
 PAM  SZ EP     C 1635 14.48                             149    0.2310 79.0  41 
 PAM  SN ES       1635 31.32                             149    0.2610 79.0  41 
 PAM  SN I        1635 32.65        32.5 0.66                          79.0  41 
 RUS  HZ EP     D 1635 15.93                             142    0.1610  101 175 
 RUS  HN ES       1635 33.22                             142   -0.5410  101 175 
 PTB  HZ EP       1635 18.64                             131   -0.22 9  145 259 
 PTB  HN ES       1635 39.11                             131   -0.15 9  145 259 
 PTB  HN I        1635 41.72        64.4 0.22                           145 259 
 OCA  HZ EP       1635 20.62                             128    0.19 9  160 354 
 OCA  HN ES       1635 41.69                             128   -0.36 9  160 354 
 ZAR  HZ EP       1635 24.82                             121    0.38 9  202 292 
 ZAR  HN ES       1635 49.93                             121    0.74 9  202 292 
 ZAR  HN I        1635 56.11        41.7 0.34                           202 292 
 NOR  HZ EP       1635 26.86                             117   -0.94 8  233 234 
 NOR  HN ES       1635 55.28                             117    0.10 8  233 234 
 NOR  HN I        1636  4.21        23.6 0.18                           233 234 
 SML  HZ EP       1635 27.85                             116   -0.96 8  243 336 
 CHI  HZ EP       1635 30.92                             116    0.97 8  248 195 
 CHI  HE ES       1635 59.08                             116    0.08 8  248 195 
 CHI  HN I        1636  2.15         8.3 0.52                           248 195 
 DBB  SZ EP       1635 39.47                             108   -0.13 7  337 274 
                                                                                
