 2015  5 5 1620 15.5 L   6.812 -73.152143.1  RSN 10 0.6 2.1LRSN                1
 GAP=135        1.37       4.0     6.1  7.7 -0.7319E+00  0.1620E+02  0.2677E+01E
 Epicentro: LOS SANTOS - SANTANDER                                             3
 ACTION:UPD 15-09-10 22:01 OP:cam  STATUS:               ID:20150505162015 L   I
 OLDACT:REG 15-05-05 20:48 OP:stll STATUS:               ID:20150505161750     3
 2015-05-05-1617-50M.COL___273                                                 6
 STAT SP IPHASW D HRMM SECON CODA AMPLIT PERI AZIMU VELO AIN AR TRES W  DIS CAZ7
 BAR2 EZ EP       1620 34.95                             170    0.0910 24.5 188 
 BAR2 EZ ES       1620 49.92                             170   -0.0210 24.5 188 
 BAR2 EZ I        1620 51.11        24.2 0.22            168           24.5 188 
 BRR  HZ EP       1620 36.90                             152    0.5810 70.0 298 
 BRR  HN ES       1620 53.04                             152    0.5110 70.0 298 
 PAM  SZ EP       1620 37.81                             150    0.3910 76.8  41 
 PAM  SZ I        1620 38.11        30.4 0.20            154           76.8  41 
 PAM  SN ES       1620 54.61                             150    0.1110 76.8  41 
 RUS  HZ EP       1620 38.97                             143   -0.1410  102 176 
 RUS  HN ES       1620 57.42                             143   -0.0910  102 176 
 RUS  HZ I        1620 58.63        10.3 0.26            143            102 176 
 SPBC HZ EP       1620 44.15                             128    0.28 9  164 219 
 SPBC HN ES       1621  5.32                             128   -0.67 9  164 219 
 SPBC HZ I        1621 10.39        19.6 0.20            128            164 219 
 ZAR  HN ES       1621 12.66                             122   -0.10 9  203 292 
 ZAR  HZ I        1621 18.21        13.6 0.40            122            203 292 
 SML  HZ EP       1620 51.28                             117   -0.56 8  242 335 
 SML  HN ES       1621 18.65                             117   -1.52 8  242 335 
 CHI  HZ EP       1620 53.01                             116   -0.18 8  250 195 
 CHI  HE ES       1621 21.51                             116   -1.06 8  250 195 
 CHI  HZ I        1621 25.91         8.7 0.62            117            250 195 
 HEL  HZ EP       1620 56.74                             114    1.18 8  272 256 
 GUY2CHZ EP       1620 59.48                             112    0.45 7  301 234 
 GUY2CHN ES       1621 33.28                             112    0.31 7  301 234 
 GUY2CHZ I        1621 41.26         5.4 0.42                           301 234 
                                                                                
