 2013 12 5 1931 59.4 L   6.785 -73.083140.3  RSN  5 0.2 1.8LRSN                1
 GAP=145        0.57       3.5     4.4  5.4  0.1136E+01 -0.1579E+01 -0.3991E+01E
 Epicentro: LOS SANTOS - SANTANDER                                             3
 ACTION:UPD 14-01-13 10:16 OP:ep   STATUS:               ID:20131205193159 L   I
 OLDACT:UP  13-12-05 17:08 OP:cam  STATUS:               ID:20131205193000     3
 OLDACT:UP  13-12-05 17:07 OP:cam  STATUS:               ID:20131205193000     3
 OLDACT:REG 13-12-05 15:18 OP:cam  STATUS:               ID:20131205193000     3
 2013-12-05-1930-00M.COL___285                                                 6
 STAT SP IPHASW D HRMM SECON CODA AMPLIT PERI AZIMU VELO AIN AR TRES W  DIS CAZ7
 BAR2 SZ EP   2   1932 18.28                             170   -0.12 5 24.0 207 
 BAR2 SZ ES       1932 32.95                             170   -0.2610 24.0 207 
 BAR2 SZ I        1932 34.65        10.2 0.24            162           24.0 207 
 PAM  SZ EP       1932 21.07                             151    0.1910 74.5  35 
 BRR  HZ EP       1932 20.05                             149   -0.3410 78.1 297 
 BRR  HN ES       1932 37.02                             149    0.2710 78.1 297 
 BRR  HN I        1932 37.47        16.1 0.30            145           78.1 297 
 RUS  HZ EP   2   1932 22.59                             143    0.10 5 98.7 180 
 RUS  HN ES       1932 40.62                             143    0.1310 98.7 180 
 RUS  HN I        1932 42.56        10.4 0.40            138           98.7 180 
 NOR  HN ES   1   1933  3.42                             117    0.05 6  239 236 
 NOR  HN I        1933 10.24         7.9 0.18            114            239 236 
                                                                                
