 2017  8 5 1557 12.6 L   6.809 -73.159138.0  RSN  8 0.4 1.5LRSN                1
 GAP=134        0.96       4.2     4.1  7.1 -0.4824E+01  0.1224E+02 -0.6591E-01E
 Epicentro: LOS SANTOS - SANTANDER                                             3
 ACTION:UPD 17-09-04 20:16 OP:rebc STATUS:               ID:20170805155712 L   I
 OLDACT:DUP 17-08-06 00:01 OP:dhb  STATUS:               ID:20170805154745d    3
 2017-08-05-1548-00M.COL___402                                                 6
 STAT SP IPHASW D HRMM SECON CODA AMPLIT PERI AZIMU VELO AIN AR TRES W  DIS CAZ7
 BAR2 EZ IP     D 1557 31.06                             170   -0.2410 24.1 186 
 BAR2 EZ ES       1557 46.04                             170    0.1410 24.1 186 
 BAR2 EZ I        1557 47.28         7.4 0.14            169           24.1 186 
 PAM  EZ IP     D 1557 33.95                             150   -0.0410 77.5  41 
 PAM  EE ES       1557 50.97                             150    0.2910 77.5  41 
 PAM  EZ I        1557 52.67         3.3 0.32            153           77.5  41 
 RUS  HZ EP       1557 35.47                             142   -0.2010  102 175 
 RUS  HN ES       1557 53.76                             142    0.0910  102 175 
 RUS  HZ I        1557 55.61         4.1 0.26            144            102 175 
 PTB  HZ EP       1557 38.28                             131   -0.54 9  147 258 
 PTB  HE ES       1557 59.92                             131    0.64 9  147 258 
 PTB  HZ I        1558  3.47         4.3 0.24            132            147 258 
 SPBC HE ES       1558  1.90                             128   -0.36 9  163 218 
 ZAR  HE ES       1558  8.76                             121   -0.38 9  202 292 
 NOR  HZ EP       1557 48.00                             117    0.19 8  234 234 
 NOR  HN ES       1558 14.89                             117   -0.40 8  234 234 
 NOR  HZ I        1558 21.29         2.4 0.11            119            234 234 
 GUY2CHZ EP   2   1557 57.27                             111    1.49 4  301 234 
 GUY2CHN ES       1558 30.22                             111    0.75 7  301 234 
 GUY2CHZ I        1558 37.62         2.1 0.28                           301 234 
                                                                                
