 2017  9 5 1155 36.2 L   7.479 -73.128137.7  RSN 11 0.4 2.1LRSN                1
 GAP=197        0.91       4.4     4.1  5.5  0.2708E+00  0.7790E+01  0.2371E+01E
 Epicentro: EL PLAYON - SANTANDER                                              3
 ACTION:UPD 17-10-05 19:09 OP:rebc STATUS:               ID:20170905115536 L   I
 OLDACT:DUP 17-09-05 22:52 OP:lv   STATUS:               ID:20170905114445d    3
 2017-09-05-1148-00M.COL___426                                                 6
 STAT SP IPHASW D HRMM SECON CODA AMPLIT PERI AZIMU VELO AIN AR TRES W  DIS CAZ7
 PAM  EZ IP     D 1155 56.44                             159    0.3710 49.7 108 
 PAM  EN ES       1156 11.90                             159    0.3110 49.7 108 
 PAM  EZ I        1156 14.39        17.0 0.44            162           49.7 108 
 BRR  HZ EP       1155 56.66                             149   -0.1210 76.5 238 
 BRR  HE ES       1156 12.77                             149   -0.0810 76.5 238 
 BRR  HZ I        1156 13.78        23.1 0.15            146           76.5 238 
 BAR2 EZ EP       1155 58.28                             143   -0.3310 98.2 184 
 BAR2 EZ ES       1156 15.68                             143   -0.4310 98.2 184 
 BAR2 EZ I        1156 16.94        41.8 0.26            141           98.2 184 
 RUS  HZ EP       1156  5.53                             125   -0.28 9  175 178 
 RUS  HN ES       1156 29.31                             125    0.38 9  175 178 
 ZAR  HZ EP       1156  6.79                             122    0.05 9  191 271 
 ZAR  HN ES       1156 30.46                             122   -0.13 9  191 271 
 ZAR  HZ I        1156 33.78        16.5 0.26            122            191 271 
 SPBC HZ EP       1156 10.25                             118   -0.45 8  227 207 
 SPBC HN ES       1156 37.25                             118   -0.39 8  227 207 
 SPBC HZ I        1156 45.49        12.7 0.25            117            227 207 
 NOR  HZ EP       1156 16.90                             112   -0.29 7  286 222 
 NOR  HN ES       1156 50.06                             112    0.88 7  286 222 
 NOR  HZ I        1156 54.71        10.3 0.38            111            286 222 
 HEL  HZ EP       1156 20.23                             111    0.95 7  301 242 
 HEL  HN ES   3   1156 53.32                             111    0.41 2  301 242 
 HEL  HZ I        1156 59.95         5.0 0.40            110            301 242 
 SJC  HZ EP   4   1156 24.01                             107   -0.51 0  350 320 
 SJC  HN ES   4   1157  0.10                             107   -2.14 0  350 320 
 SJC  HZ I        1157  3.53         2.8 0.42            108            350 320 
 GUY2CHZ EP   9   1156 27.36                             107    2.16 0  351 225 
 GUY2CHN ES       1157  5.15                                   -0.45 6  351 225 
 GUY2CHZ I        1157 14.76         5.4 0.34                           351 225 
 PRA  HZ EP       1156 36.96                             102   -0.48 5  460 205 
 PRA  HN ES       1157 25.73                             102    0.51 5  460 205 
 PRA  HZ I        1157 34.25         2.4 0.26            102            460 205 
                                                                                
