 2010  4 5 1110 35.8 L   6.844 -73.068148.0  RSN 12 0.4 2.6LRSN                1
 GAP=147        0.60       3.6     4.5  5.7 -0.7636E+01 -0.1675E+01  0.1901E+01E
 Epicentro: LOS SANTOS - SANTANDER                                             3
 ACTION:UPD 10-08-24 09:57 OP:vdl  STATUS:               ID:20100405111035 L   I
 2010-04-05-1108-00S.COL___098                                                 6
 STAT SP IPHASW D HRMM SECON CODA AMPLIT PERI AZIMU VELO AIN AR TRES W  DIS CAZ7
 BAR2 SZ IP       1110 55.84                             168    -0.110   31 205 
 BAR2 SZ ES   2   1111 11.54                             168     0.0 5   31 205 
 BRR  HZ EP       1110 57.67                             152     0.110   77 292 
 BRR  HZ I        1110 58.15        39.8 0.18                            77 292 
 BRR  HN ES   2   1111 13.97                             152    -0.5 5   77 292 
 OCA  SZ EP       1111  4.16                             131     0.2 9  157 350 
 OCA  SZ ES   2   1111 26.66                             131     0.7 5  157 350 
 OCA  SZ I        1111 31.25        66.0 0.17                           157 350 
 CHI  HZ EP   1   1111 13.93                             117    -0.5 6  256 197 
 CHI  HE ES   2   1111 44.98                             117     0.5 4  256 197 
 ROSC BZ EP   2   1111 15.57                             116     0.6 4  261 212 
 ROSC BE ES   3   1111 45.29                             116    -0.3 2  261 212 
 HEL  HZ EP       1111 17.04                             115    -0.2 7  282 255 
 HEL  HN ES   2   1111 49.37                             115    -0.1 4  282 255 
 RREF BN ES   2   1112  0.38                             111     0.3 3  331 230 
 RREF BZ I        1112  7.26        15.3 0.37                           331 230 
 DBB  SZ EP   1   1111 23.71                             110    -0.6 5  348 273 
 SDV  BZ EP       1111 25.00                             109     0.2 6  351  50 
 SDV  BZ I        1111 26.04         7.7 0.11                           351  50 
 SDV  BZ ES   2   1112  2.12                             109    -0.9 3  351  50 
 TOL  SZ EP   3   1111 26.17                             109     0.9 2  353 225 
 ANIL BZ EP   3   1111 27.07                             108     0.2 2  367 225 
 ANIL BE ES   2   1112  7.41                             108     0.8 3  367 225 
 ANIL BZ I        1112 15.92        22.7 0.36                           367 225 
 PRA  HZ I        1111 31.55        13.2 0.20                           400 210 
 PRA  HE ES   3   1112 12.40                             107    -0.6 1  400 210 
                                                                                
