 2010  9 5 1530 47.1 L   7.153 -73.175144.0  RSN  7 0.4 2.2LRSN                1
 GAP=149        1.06       5.7     9.1  9.5 -0.1728E+02  0.1015E+01 -0.5635E+01E
 Epicentro: LEBRIJA - SANTANDER                                                3
 ACTION:UP  11-02-18 11:00 OP:tino STATUS:               ID:20100905153047 L   I
 2010-09-05-1526-44S.COL___120                                                 6
 STAT SP IPHASW D HRMM SECON CODA AMPLIT PERI AZIMU VELO SNR AR TRES W  DIS CAZ7
 BRR  HZ IP     C 1531  7.54                             156     0.110   60 265 
 BRR  HZ I        1531  7.81        57.4 0.10                            60 265 
 BRR  HE ES   1   1531 23.69                             156     0.4 7   60 265 
 BAR2 SZ EP   1   1531  7.61                             156    -0.3 7   62 181 
 BAR2 SZ ES   1   1531 23.84                             156    -0.3 7   62 181 
 BAR2 SZ I        1531 25.23        62.7 0.20                            62 181 
 GUE  SZ EP       1531  8.76                             150    -0.310   80  20 
 GUE  SZ I        1531  8.95        12.5 0.10                            80  20 
 GRA  SZ IP       1531 10.23                             146     0.710   91  27 
 GRA  SZ ES   1   1531 27.05                             146     0.1 7   91  27 
 GRA  SZ I        1531 28.32        58.0 0.33                            91  27 
 OCA  SZ EP       1531 11.15                             138    -0.610  121 352 
 OCA  SZ ES   2   1531 31.02                             138     0.0 5  121 352 
 OCA  SZ I        1531 38.37        21.4 0.21                           121 352 
 RUS  HZ EP   1   1531 14.01                             134     0.2 7  140 176 
 RUS  HE ES   2   1531 34.56                             134    -0.1 5  140 176 
 RUS  HZ I        1531 37.02         7.0 0.42                           140 176 
 HEL  HZ EP   2   1531 28.85                             114     0.6 4  281 248 
 HEL  HN ES   2   1531 59.98                             114    -0.3 4  281 248 
 HEL  HZ I        1532  8.19         7.2 0.46                           281 248 
                                                                                
