 2017  5 5 1327 40.8 L   6.805 -73.099140.3  RSN  6 0.3 1.4LRSN                1
 GAP=142        0.63       4.5     3.1  5.6 -0.2674E+01  0.7024E+00  0.4732E+01E
 Epicentro: LOS SANTOS - SANTANDER                                             3
 ACTION:UPD 17-06-16 13:33 OP:jn   STATUS:               ID:20170505132740 L   I
 OLDACT:UP  17-05-05 22:13 OP:and  STATUS:               ID:20170505131739     3
 OLDACT:UP  17-05-05 22:13 OP:and  STATUS:               ID:20170505131739     3
 OLDACT:REG 17-05-05 20:50 OP:and  STATUS:               ID:20170505131739     3
 2017-05-05-1318-00M.COL___376                                                 6
 STAT SP IPHASW D HRMM SECON CODA AMPLIT PERI AZIMU VELO AIN AR TRES W  DIS CAZ7
 PAM  EZ IP     C 1328  2.10                             151   -0.0810 73.8  37 
 PAM  EN ES       1328 18.95                             151    0.0610 73.8  37 
 PAM  EZ I        1328 21.42         5.6 0.60            152           73.8  37 
 BRR  HZ EP       1328  1.13                             150   -0.4510 75.5 296 
 BRR  HN ES       1328 18.00                             150    0.1910 75.5 296 
 RUS  HZ EP   2   1328  4.53                             142    0.53 5  101 179 
 RUS  HN ES   2   1328 22.08                             142   -0.05 5  101 179 
 RUS  HZ I        1328 22.99         1.8 0.40            144            101 179 
 PTB  HZ EP   9   1328  6.19                             130   -1.57 0  153 259 
 PTB  HN ES       1328 26.89                             131   -0.36 9  153 259 
 PTB  HZ I        1328 29.76         3.8 0.14            131            153 259 
 ZAR  HZ EP   2   1328 13.93                             120    0.60 4  209 291 
 ZAR  HE ES       1328 38.77                             120    0.04 8  209 291 
 ZAR  HZ I        1328 39.24         4.1 0.10            122            209 291 
 NOR  HN ES   1   1328 44.72                             117    0.05 6  239 235 
                                                                                
