 2013  2 5 1827 58.5 L   7.396 -73.182130.8  RSN  5 0.2 1.5LRSN                1
 GAP=215        0.45       3.7     3.0  4.5 -0.2486E+01  0.2668E+01 -0.3899E+00E
 Epicentro: EL PLAYON - SANTANDER                                              3
 ACTION:UPD 13-03-12 09:30 OP:ep   STATUS:               ID:20130205182758 L   I
 2013-02-05-1820-00M.COL___240                                                 6
 STAT SP IPHASW D HRMM SECON CODA AMPLIT PERI AZIMU VELO AIN AR TRES W  DIS CAZ7
 PAM  SZ EP       1828 17.95                             157    0.1610 53.6  97 
 PAM  SN ES   1   1828 32.60                             157   -0.23 7 53.6  97 
 PAM  SZ I        1828 35.53         4.3 0.49            158           53.6  97 
 BRR  HZ EP       1828 17.90                             151    0.1310 66.7 241 
 BRR  HN ES   1   1828 32.95                             151    0.14 7 66.7 241 
 BRR  HN I        1828 33.29        15.8 0.15            152           66.7 241 
 BAR2 SZ ES   1   1828 35.84                             144   -0.17 7 88.9 180 
 BAR2 SZ I        1828 37.09        13.1 0.13            145           88.9 180 
 RUS  HZ EP   1   1828 26.55                             125   -0.21 7  167 176 
 RUS  HE ES   1   1828 49.06                             125    0.25 7  167 176 
 RUS  HE I        1828 49.94         1.7 0.50            127            167 176 
 PTB  HZ EP   1   1828 26.16                             124   -0.29 7  170 236 
 PTB  HE ES   1   1828 48.17                             124   -0.08 7  170 236 
 PTB  HZ I        1828 51.13         3.4 0.18            126            170 236 
                                                                                
