 2012 12 5 1732 56.2 L   7.158 -73.944  4.0  RSN  6 0.5 2.2LRSN                1
 GAP=100        1.21       3.0     2.3  8.6 -0.7017E+00 -0.4157E+01  0.9518E+01E
 Epicentro: BARRANCABERMEJA - SANTANDER                                        3
 ACTION:UPD 13-01-04 14:25 OP:ep   STATUS:               ID:20121205173256 L   I
 2012-12-05-1730-00M.COL___237                                                 6
 STAT SP IPHASW D HRMM SECON CODA AMPLIT PERI AZIMU VELO AIN AR TRES W  DIS CAZ7
 PTB  HZ IP     D 1733 10.50                              93    0.2710 88.8 220 
 PTB  HN ES       1733 20.98                              93   -0.2210 88.8 220 
 PTB  HN I        1733 21.31        45.4 0.32                          88.8 220 
 BAR2 SZ EP       1733 13.36                              92    0.4710  105 127 
 BAR2 SZ ES       1733 25.68                              92   -0.2610  105 127 
 ZAR  HZ EP       1733 13.52                              92    0.4710  107 290 
 ZAR  HN ES       1733 25.51                              92   -0.7110  107 290 
 ZAR  HN I        1733 28.05        40.2 0.42                           107 290 
 OCA  HZ EP       1733 18.01                              92    0.20 9  138  30 
 OCA  HN ES       1733 34.64                              92   -0.06 9  138  30 
 OCA  HN I        1733 35.75       119.8 0.18                           138  30 
 PAM  SZ EP     D 1733 18.96                              92    0.66 9  139  82 
 PAM  SN ES       1733 34.74                              92   -0.83 9  139  82 
 RUS  HZ EP       1733 23.32                              56    0.41 9  169 146 
 RUS  HN ES       1733 43.36                              56   -0.41 9  169 146 
 RUS  HN I        1733 44.47        23.4 0.54                           169 146 
                                                                                
