 2011  1 5 1434 55.7 L   6.757 -73.142129.7  RSN  5 0.4 1.5LRSN                1
 GAP=159        0.73       6.6    10.5  9.6 -0.2405E+02  0.3550E+02  0.7291E+01E
 Epicentro: LOS SANTOS - SANTANDER                                             3
 ACTION:UP  11-02-08 08:38 OP:pat  STATUS:               ID:20110105143455 L   I
 2011-01-05-1420-00M.COL___136                                                 6
 STAT SP IPHASW D HRMM SECON CODA AMPLIT PERI AZIMU VELO SNR AR TRES W  DIS CAZ7
 BAR2 SZ EP   1   1435 12.87                             171    -0.4 7   19 194 
 BAR2 SZ ES   2   1435 26.61                             171    -0.4 5   19 194 
 BAR2 SZ I        1435 28.74        14.0 0.28                            19 194 
 BTL  SZ EP   1   1435 13.57                             169     0.2 7   23 322 
 BTL  SZ ES   2   1435 27.73                             169     0.6 5   23 322 
 RUS  HZ EP   1   1435 17.34                             142    -0.2 7   96 176 
 RUS  HN ES   2   1435 34.98                             142     0.5 5   96 176 
 RUS  HZ I        1435 36.89         4.3 0.22                            96 176 
 GRA  SZ ES   2   1435 38.53                             132    -0.3 5  130  17 
 GRA  SZ I        1435 39.39         5.4 0.38                           130  17 
 NOR  SZ EP   1   1435 30.74                             115     0.5 6  232 236 
 NOR  SN ES   2   1435 56.61                             115    -0.6 4  232 236 
                                                                                
