 2014  2 5 1950 23.9 L   6.842 -73.185135.6  RSN  6 0.5 1.6LRSN                1
 GAP=277        1.08       7.4     5.9  8.1  0.4403E+01  0.1740E+02  0.9904E+01E
 Epicentro: ZAPATOCA - SANTANDER                                               3
 ACTION:UPD 14-03-10 08:07 OP:ep   STATUS:               ID:20140205195023 L   I
 OLDACT:REG 14-02-05 15:56 OP:nd   STATUS:               ID:20140205195000     3
 2014-02-05-1950-00M.COL___288                                                 6
 STAT SP IPHASW D HRMM SECON CODA AMPLIT PERI AZIMU VELO AIN AR TRES W  DIS CAZ7
 BAR2 SZ EP       1950 42.89                             168    0.4610 27.6 179 
 BAR2 SZ ES       1950 56.24                             168   -0.6310 27.6 179 
 BAR2 SZ I        1951  0.37        16.5 0.24            163           27.6 179 
 RUS  HZ EP       1950 46.74                             140   -0.3410  106 174 
 RUS  HN ES       1951  5.66                             140    0.5310  106 174 
 RUS  HZ I        1951  8.74         3.5 0.34            139            106 174 
 PTB  HZ EP       1950 49.45                             130   -0.32 9  144 257 
 PTB  HN ES       1951 10.56                             130    0.63 9  144 257 
 PTB  HZ I        1951 12.59         6.5 0.24            132            144 257 
 NOR  HZ EP       1950 59.47                             116    0.47 8  234 233 
 NOR  HN ES       1951 26.04                             116   -0.32 8  234 233 
 NOR  HZ I        1951 29.98         4.1 0.30            118            234 233 
 CHI  HZ EP       1951  1.14                             115   -0.32 8  252 194 
 CHI  HN ES       1951 30.87                             115    0.14 8  252 194 
 CHI  HZ I        1951 37.41         1.2 0.30            116            252 194 
 GUY2CHZ EP   2   1951  7.34                             110    0.35 4  300 234 
 GUY2CHN ES       1951 39.95                             110   -0.63 7  300 234 
 GUY2CHZ I        1951 49.57         3.7 0.44                           300 234 
                                                                                
