 2015  6 5 1948 10.2 L   6.575 -73.726 93.6  RSN  7 0.5 1.8LRSN                1
 GAP=112        1.23       4.4     5.1 11.0 -0.1767E+01  0.3259E+02  0.1345E+02E
 Epicentro: EL CARMEN - SANTANDER                                              3
 ACTION:UPD 15-09-10 22:10 OP:cam  STATUS:               ID:20150605194810 L   I
 OLDACT:UP  15-06-06 01:13 OP:ar   STATUS:               ID:20150605193748     3
 OLDACT:REG 15-06-05 21:34 OP:ar   STATUS:               ID:20150605193748     3
 2015-06-05-1937-48M.COL___315                                                 6
 STAT SP IPHASW D HRMM SECON CODA AMPLIT PERI AZIMU VELO AIN AR TRES W  DIS CAZ7
 BRR  HZ EP       1948 25.07                             145    0.0010 58.8   1 
 BRR  HE ES       1948 37.46                             145    0.7710 58.8   1 
 BRR  HZ I        1948 42.48        14.6 0.32            150           58.8   1 
 BAR2 EZ EP       1948 25.54                             145    0.0410 60.1  88 
 BAR2 EZ ES       1948 36.92                             145   -0.5310 60.1  88 
 BAR2 EZ I        1948 39.09        23.8 0.18            158           60.1  88 
 SPBC HZ EP       1948 29.62                             127    0.0810  109 201 
 SPBC HE ES       1948 44.69                             127    0.0510  109 201 
 SPBC HZ I        1948 48.13        22.8 1.41            134            109 201 
 ZAR  HN ES       1948 53.35                             116   -0.91 9  161 309 
 ZAR  HZ I        1948 59.05        11.2 0.12            120            161 309 
 NOR  HZ EP       1948 35.30                             115   -0.58 9  169 229 
 NOR  HN ES       1948 56.05                             115    0.12 9  169 229 
 NOR  HZ I        1948 58.78         7.7 0.16            119            169 229 
 HEL  HZ EP       1948 40.70                             110    0.42 9  204 258 
 HEL  HE ES       1949  4.14                             110    0.38 9  204 258 
 HEL  HZ I        1949 11.78         8.5 0.44            114            204 258 
 GUY2CHZ EP       1948 44.84                             107    0.79 8  235 231 
 GUY2CHE ES       1949  9.89                             107   -0.58 8  235 231 
 GUY2CHZ I        1949 16.94         4.7 2.03                           235 231 
                                                                                
