 2011 10 5 1040 52.7 L   6.264 -73.682111.1  RSN  9 0.4 1.9LRSN                1
 GAP=125        0.76       3.1     3.3  7.6 -0.2933E+01  0.6150E+01  0.2801E+01E
 Epicentro: SANTA HELENA DEL OPON - SANTANDER                                  3
 ACTION:UPD 12-07-13 16:02 OP:ep   STATUS:               ID:20111005104052 L   I
 2011-10-05-1040-00M.COL___171                                                 6
 STAT SP IPHASW D HRMM SECON CODA AMPLIT PERI AZIMU VELO AIN AR TRES W  DIS CAZ7
 BAR2 SZ EP       1041 10.68                             147    0.4410 66.1  57 
 BAR2 SZ ES   1   1041 23.79                             147   -0.11 7 66.1  57 
 BAR2 SZ I        1041 25.21        54.7 0.30                          66.1  57 
 BRR  HZ EP       1041 12.02                             137    0.0710 93.3 358 
 BRR  HN ES   1   1041 26.63                             137   -0.33 7 93.3 358 
 BRR  HZ I        1041 27.82        26.7 0.14                          93.3 358 
 GIR2 SZ EP   1   1041 13.63                             133    0.47 7  105  31 
 NOR  SZ EP   1   1041 17.16                             122   -0.50 7  153 240 
 NOR  SN ES   1   1041 36.94                             122   -0.18 7  153 240 
 PAM  SZ EP   1   1041 18.82                             120   -0.29 7  161  42 
 PAM  SN ES   1   1041 39.31                             120   -0.38 7  161  42 
 PAM  SZ I        1041 41.34         3.0 0.09                           161  42 
 CHI  HZ EP   1   1041 20.32                             117   -0.81 7  181 182 
 CHI  HN ES   1   1041 43.88                             117    0.60 7  181 182 
 CHI  HZ I        1041 53.49         4.7 0.34                           181 182 
 ZAR  HZ EP   1   1041 21.59                             116    0.20 7  188 316 
 ZAR  HN ES   1   1041 44.11                             116    0.35 7  188 316 
 ZAR  HZ I        1041 48.01        33.2 0.40                           188 316 
 HEL  HZ EP   1   1041 23.99                             114    0.30 6  205 268 
 HEL  HN ES   1   1041 47.61                             114   -0.24 6  205 268 
 HEL  HZ I        1041 50.59         8.2 0.36                           205 268 
 OCA  SZ EP   1   1041 25.24                             111   -0.14 6  222  10 
                                                                                
