 2017  2 5 1949 39.2 L   6.794 -73.150148.3  RSN  7 0.4 1.9LRSN                1
 GAP=136        1.00       4.7     4.2  7.0 -0.1241E+01  0.7099E+01  0.4301E+01E
 Epicentro: LOS SANTOS - SANTANDER                                             3
 ACTION:UPD 17-05-24 15:32 OP:jn   STATUS:               ID:20170205194939 L   I
 OLDACT:REG 17-02-05 21:53 OP:ar   STATUS:               ID:20170205193742     3
 2017-02-05-1938-00M.COL___334                                                 6
 STAT SP IPHASW D HRMM SECON CODA AMPLIT PERI AZIMU VELO AIN AR TRES W  DIS CAZ7
 BAR2 EZ EP       1949 59.21                             171    0.0510 22.6 189 
 BAR2 EZ ES       1950 14.91                             171    0.2110 22.6 189 
 BAR2 EZ I        1950 16.74        29.4 0.28            171           22.6 189 
 BRR  HZ EP       1950  0.75                             153    0.0910 71.1 299 
 BRR  HN ES       1950 18.10                             153    0.7310 71.1 299 
 BRR  HZ I        1950 21.93        12.5 0.16            151           71.1 299 
 PAM  EZ EP       1950  1.89                             151    0.1210 78.2  40 
 PAM  EN ES       1950 18.79                             151   -0.5610 78.2  40 
 PAM  EZ I        1950 22.01         9.4 0.34            154           78.2  40 
 RUS  HZ EP       1950  3.19                             144   -0.0110100.0 176 
 RUS  HN ES       1950 21.85                             144   -0.0410100.0 176 
 RUS  HZ I        1950 22.86        13.0 0.32            148          100.0 176 
 PTB  HZ EP   2   1950  5.96                             133   -0.40 5  147 259 
 PTB  HN ES       1950 26.59                             133   -0.92 9  147 259 
 PTB  HZ I        1950 31.75         7.5 0.22            133            147 259 
 ZAR  HZ EP   4   1950 14.08                             123    2.25 0  204 292 
 ZAR  HN ES       1950 37.27                             123    0.02 9  204 292 
 ZAR  HZ I        1950 42.77         8.3 0.36            124            204 292 
 NOR  HZ EP       1950 15.29                             119    0.26 8  234 235 
 NOR  HE ES       1950 43.13                             119    0.18 8  234 235 
 NOR  HZ I        1950 48.59         4.8 0.18            120            234 235 
                                                                                
