 2017 10 5 1137 16.3 L   6.811 -73.171144.8  RSN  4 0.2 1.4LRSN                1
 GAP=133        0.62       3.3     3.9  5.8  0.9617E+00  0.5821E+01 -0.1326E+01E
 Epicentro: LOS SANTOS - SANTANDER                                             3
 ACTION:UPD 17-11-07 19:28 OP:rebc STATUS:               ID:20171005113717dL   I
 OLDACT:REG 17-10-05 19:37 OP:dhb  STATUS:               ID:20171005112739     3
 2017-10-05-1128-00M.COL___429                                                 6
 STAT SP IPHASW D HRMM SECON CODA AMPLIT PERI AZIMU VELO AIN AR TRES W  DIS CAZ7
 BAR2 EZ EP       1137 35.76                             170   -0.1010 24.3 183 
 BAR2 EZ ES       1137 50.89                             170   -0.2110 24.3 183 
 BAR2 EZ I        1137 52.91        10.3 0.66            164           24.3 183 
 PAM  EZ EP       1137 38.16                             150   -0.3410 78.3  42 
 PAM  EN ES       1137 56.08                             150    0.2910 78.3  42 
 PAM  EZ I        1137 57.57         2.7 0.52            154           78.3  42 
 RUS  HZ EP       1137 40.37                             143    0.2810  102 175 
 RUS  HN ES       1137 58.65                             143    0.0210  102 175 
 RUS  HZ I        1138  1.53         3.4 0.42            146            102 175 
 ZAR  HN ES       1138 13.48                             123    0.08 9  201 292 
 ZAR  HZ I        1138 30.10         2.7 0.29            119            201 292 
                                                                                
