 2015  2 5 1513 10.7 L   6.844 -73.284123.8  RSN  6 0.2 1.6LRSN                1
 GAP=117        0.52       2.6     2.5  5.0  0.3848E+00  0.5406E+01 -0.1076E+01E
 Epicentro: ZAPATOCA - SANTANDER                                               3
 ACTION:UPD 15-04-30 21:22 OP:nd   STATUS:               ID:20150205151310 L   I
 OLDACT:DUP 15-02-06 04:11 OP:spq  STATUS:               ID:20150205150751d    3
 2015-02-05-1507-50M.COL___280                                                 6
 STAT SP IPHASW D HRMM SECON CODA AMPLIT PERI AZIMU VELO AIN AR TRES W  DIS CAZ7
 BAR2 EZ EP     D 1513 27.81                             166   -0.0210 30.0 158 
 BAR2 EZ ES   1   1513 40.87                             166   -0.36 7 30.0 158 
 PAM  SE ES   1   1513 47.38                             144    0.34 7 84.7  50 
 PAM  SZ I        1513 49.38         9.5 0.24            148           84.7  50 
 RUS  HZ EP   1   1513 32.81                             137   -0.07 7  108 168 
 RUS  HN ES   1   1513 50.10                             137   -0.12 7  108 168 
 RUS  HZ I        1513 51.00         2.6 0.72            139            108 168 
 PTB  HZ EP       1513 34.87                             129    0.2810  134 256 
 PTB  HE ES       1513 53.26                             129    0.0010  134 256 
 PTB  HZ I        1513 54.91         8.5 0.21            131            134 256 
 SPBC HZ EP   1   1513 37.00                             124   -0.04 7  158 214 
 SPBC HN ES       1513 57.83                             124    0.20 9  158 214 
 SPBC HZ I        1514  3.00         5.3 0.28            127            158 214 
 ZAR  HZ EP       1513 39.69                             119   -0.36 9  188 293 
 ZAR  HE ES       1514  2.98                             119    0.01 9  188 293 
 ZAR  HZ I        1514  6.13         6.4 0.28            122            188 293 
                                                                                
