 2011  7 5 1556 21.5 L   6.348 -73.969  0.0  RSN  4 0.3 1.5LRSN                1
 GAP=262        0.70       4.3     8.7  9.1  0.2844E+02 -0.6082E+02 -0.2398E+02E
 Epicentro: CIMITARRA - SANTANDER                                              3
 ACTION:UPD 12-07-25 13:58 OP:epov STATUS:               ID:20110705155621 L   I
 2011-07-05-1540-00M.COL___124                                                 6
 STAT SP IPHASW D HRMM SECON CODA AMPLIT PERI AZIMU VELO AIN AR TRES W  DIS CAZ7
 BRR  HZ EP       1556 35.90                              47   -0.1710 88.6  19 
 BRR  HE ES   1   1556 48.07                              47    0.62 7 88.6  19 
 BRR  HZ I        1556 48.40        19.0 0.15                          88.6  19 
 BAR2 SZ EP       1556 36.46                              47   -0.2210 91.1  73 
 BAR2 SZ ES   1   1556 48.26                              47   -0.28 7 91.1  73 
 BAR2 SZ I        1556 50.16        20.2 0.21                          91.1  73 
 BTL  SZ EP       1556 37.93                              47   -0.1010 99.9  51 
 RUS  HZ EP       1556 39.92                              47    0.0810  110 117 
 RUS  HE ES   1   1556 54.57                              47    0.41 7  110 117 
 RUS  HZ I        1556 56.33         4.3 0.16                           110 117 
                                                                                
