 2017  1 5 1825 17.5 L   6.791 -73.140146.6  RSN 11 0.4 2.1LRSN                1
 GAP=138        0.96       4.0     3.8  5.4 -0.1312E+01  0.7931E+01  0.4216E+01E
 Epicentro: LOS SANTOS - SANTANDER                                             3
 ACTION:UPD 17-05-22 15:55 OP:jn   STATUS:               ID:20170105182517 L   I
 OLDACT:UP  17-01-06 00:37 OP:dnl  STATUS:               ID:20170105181742     3
 OLDACT:REG 17-01-05 20:45 OP:dnl  STATUS:               ID:20170105181742     3
 2017-01-05-1818-00M.COL___369                                                 6
 STAT SP IPHASW D HRMM SECON CODA AMPLIT PERI AZIMU VELO AIN AR TRES W  DIS CAZ7
 BAR2 EZ EP       1825 37.09                             171   -0.1010 22.5 192 
 BAR2 EZ ES       1825 52.25                             171   -0.3210 22.5 192 
 BAR2 EZ I        1825 53.75        53.3 0.20            168           22.5 192 
 BRR  HZ IP     C 1825 38.92                             152    0.1410 72.2 299 
 BRR  HN ES       1825 56.13                             152    0.7410 72.2 299 
 BRR  HZ I        1826  0.05        28.5 0.18            150           72.2 299 
 PAM  EZ EP       1825 40.08                             151    0.2810 77.7  39 
 PAM  EN ES       1825 57.26                             151    0.0510 77.7  39 
 PAM  EZ I        1825 59.66        12.0 0.46            156           77.7  39 
 RUS  HZ EP       1825 41.10                             144   -0.1410 99.6 176 
 RUS  HN ES       1825 59.79                             144    0.0110 99.6 176 
 RUS  HZ I        1826  1.31        13.3 0.44            146           99.6 176 
 PTB  HZ EP       1825 43.74                             132   -0.82 9  148 259 
 PTB  HN ES       1826  5.12                             132   -0.56 9  148 259 
 PTB  HZ I        1826 11.70        17.3 0.46            132            148 259 
 ZAR  HZ EP       1825 49.74                             122   -0.34 9  205 292 
 ZAR  HE ES       1826 15.20                             122   -0.30 9  205 292 
 ZAR  HZ I        1826 20.34        23.6 0.24            123            205 292 
 NOR  HZ EP       1825 53.13                             119   -0.12 8  235 235 
 NOR  HE ES       1826 21.47                             119    0.31 8  235 235 
 NOR  HZ I        1826 27.05         8.9 0.22            120            235 235 
 GUY2CHZ EP       1826  1.69                             112    0.57 7  301 235 
 GUY2CHE ES   4   1826 39.58                             112    4.41 0  301 235 
 GUY2CHZ  IAML    1826 43.31        10.5 0.32                           301 235 
 CBOC HZ EP       1826  4.88                             110    0.42 7  334 252 
 CBOC HN ES       1826 41.80                             110    0.69 7  334 252 
 CBOC HZ I        1826 49.11         3.0 0.54            111            334 252 
 ORTC HZ EP       1826 11.35                             106   -0.03 6  395 216 
 ORTC HN ES       1826 53.75                             106    0.32 6  395 216 
 ORTC HZ I        1827  0.95         3.1 0.32            108            395 216 
 SJC  HZ EP   4   1826 11.29                             106   -1.91 0  410 327 
 SJC  HN ES   4   1826 50.60                             106   -6.07 0  410 327 
 SJC  HZ I        1826 56.08         4.3 0.80            108            410 327 
                                                                                
