 2016  1 5 1337 28.8 L   6.806 -73.137147.4  RSN  9 0.4 1.9LRSN                1
 GAP=137        1.11       3.8     4.9  6.8  0.8803E+00  0.8297E+01 -0.2089E+01E
 Epicentro: LOS SANTOS - SANTANDER                                             3
 ACTION:UPD 16-03-09 23:23 OP:cam  STATUS:               ID:20160105133728 L   I
 OLDACT:DUP 16-01-06 00:49 OP:ar   STATUS:               ID:20160105132747d    3
 OLDACT:REG 16-01-05 21:17 OP:ar   STATUS:               ID:20160105132746     3
 2016-01-05-1327-46M.COL___332                                                 6
 STAT SP IPHASW D HRMM SECON CODA AMPLIT PERI AZIMU VELO AIN AR TRES W  DIS CAZ7
 BAR2 EZ EP     D 1337 48.67                             170   -0.0110 24.2 192 
 BAR2 EZ ES       1338  4.12                             170   -0.0410 24.2 192 
 BAR2 EZ I        1338  5.31        15.7 0.29            170           24.2 192 
 BRR  HZ EP       1337 50.62                             153    0.4310 71.7 298 
 BRR  HE ES       1338  7.54                             153    0.6910 71.7 298 
 BRR  HZ I        1338 12.89        12.9 0.18            151           71.7 298 
 PAM  EZ EP     C 1337 51.48                             151    0.3310 76.2  39 
 PAM  EN ES       1338  8.82                             151    0.2610 76.2  39 
 PAM  EZ I        1338 10.76        15.4 0.48            155           76.2  39 
 RUS  HZ EP       1337 52.75                             144   -0.0410  101 177 
 RUS  HN ES       1338 10.95                             144   -0.5310  101 177 
 RUS  HZ I        1338 12.40         5.5 0.54            148            101 177 
 PTB  HZ EP       1337 55.66                             132   -0.37 9  149 259 
 PTB  HN ES       1338 16.79                             132   -0.46 9  149 259 
 PTB  HZ I        1338 22.57        10.6 0.54            133            149 259 
 OCA  HN ES       1338 18.73                             130   -0.63 9  160 353 
 ZAR  HN ES       1338 27.37                             123    0.48 9  205 292 
 ZAR  HZ I        1338 32.13        10.1 0.32            124            205 292 
 SML  HZ EP       1338  5.60                             118    0.08 8  243 335 
 SML  HN ES       1338 33.32                             118   -0.83 8  243 335 
 SML  HZ I        1338 37.10        13.4 0.10            120            243 335 
 GUY2CHZ EP       1338 13.22                             113    0.57 7  302 235 
 GUY2CHZ I        1338 44.46         1.1 0.54                           302 235 
 GUY2CHE ES   4   1338 49.00                             113    2.17 0  302 235 
                                                                                
