 2010 11 5 1735 35.5 L   6.739 -73.129146.0  RSN  4 0.1 1.4LRSN                1
 GAP=235        0.42       4.5     5.6  5.6  0.9224E+01 -0.3527E+01  0.1552E+01E
 Epicentro: JORDAN - SANTANDER                                                 3
 ACTION:UP  10-12-17 16:50 OP:REBC STATUS:               ID:20101105173535 L   I
 2010-11-05-1733-31S.COL___129                                                 6
 STAT SP IPHASW D HRMM SECON CODA AMPLIT PERI AZIMU VELO SNR AR TRES W  DIS CAZ7
 BAR2 SZ EP       1735 55.15                             173     0.110   17 200 
 BAR2 SZ I        1735 55.57        10.8 0.44                            17 200 
 BAR2 SZ ES   2   1736  9.99                             173    -0.4 5   17 200 
 BRR  HZ EP       1735 56.94                             151    -0.110   76 302 
 BRR  HZ I        1735 57.35        12.4 0.25                            76 302 
 BRR  HE ES       1736 13.83                             151     0.110   76 302 
 RUS  HZ I        1735 59.98         3.7 0.09                            94 177 
 RUS  HN ES   2   1736 17.17                             146     0.2 5   94 177 
 NOR  SN ES   2   1736 38.65                             119    -0.1 4  232 236 
 NOR  SZ I        1736 43.11         0.6 0.20                           232 236 
                                                                                
