 2012 12 5 1958 16.9 L   6.803 -73.204139.7  RSN  8 0.5 2.3LRSN                1
 GAP=129        1.23       4.0     5.1  8.2  0.2459E-01  0.1666E+02  0.1557E+01E
 Epicentro: ZAPATOCA - SANTANDER                                               3
 ACTION:UPD 13-01-04 14:25 OP:ep   STATUS:               ID:20121205195816 L   I
 2012-12-05-1950-00M.COL___237                                                 6
 STAT SP IPHASW D HRMM SECON CODA AMPLIT PERI AZIMU VELO AIN AR TRES W  DIS CAZ7
 BAR2 SZ EP       1958 35.85                             170    0.0710 23.4 174 
 BAR2 SZ ES       1958 49.98                             170   -0.5410 23.4 174 
 BAR2 SZ I        1958 52.70        28.7 0.18                          23.4 174 
 PAM  SZ EP       1958 39.05                             148    0.3510 81.4  43 
 PAM  SN ES       1958 56.21                             148    0.4810 81.4  43 
 PAM  SN I        1958 57.15        26.9 0.50                          81.4  43 
 RUS  HZ EP       1958 39.71                             142   -0.3910  102 172 
 RUS  HN ES       1958 58.61                             142    0.3810  102 172 
 RUS  HN I        1959  0.03        12.2 0.30                           102 172 
 PTB  HZ EP       1958 42.40                             132   -0.37 9  141 258 
 PTB  HN ES       1959  2.66                             132   -0.32 9  141 258 
 PTB  HN I        1959  9.22        24.0 0.34                           141 258 
 ZAR  HZ EP       1958 48.85                             122    0.56 9  198 293 
 ZAR  HN ES       1959 13.04                             122    0.24 9  198 293 
 ZAR  HN I        1959 20.14        22.2 0.30                           198 293 
 NOR  HZ IP     C 1958 52.09                             118    0.38 8  230 233 
 NOR  HN ES       1959 19.86                             118    0.98 8  230 233 
 NOR  HN I        1959 24.41        33.6 0.16                           230 233 
 SML  HN ES       1959 19.96                             116   -0.95 8  241 337 
 SML  HN I        1959 23.64        26.7 0.10                           241 337 
 CHI  HZ EP       1958 53.79                             116   -0.31 8  247 194 
 CHI  HN ES       1959 22.44                             116   -0.69 8  247 194 
                                                                                
