 2012 10 5 1859  9.4 L   6.790 -73.142146.8  RSN 10 0.5 2.9LRSN                1
 GAP=138        0.92       4.4     5.0  6.0  0.3677E+00  0.1187E+02  0.9015E+01E
 Epicentro: LOS SANTOS - SANTANDER                                             3
 ACTION:UPD 12-11-22 17:02 OP:ep   STATUS:               ID:20121005185909 L   I
 2012-10-05-1858-15M.COL___202                                                 6
 STAT SP IPHASW D HRMM SECON CODA AMPLIT PERI AZIMU VELO AIN AR TRES W  DIS CAZ7
 BAR2 SZ IP       1859 28.94                             171   -0.1610 22.3 192 
 BAR2 SZ ES   1   1859 44.80                             171    0.31 7 22.3 192 
 BAR2 SZ I        1859 45.53       128.7 0.24                          22.3 192 
 GIR2 SZ EP       1859 29.12                             167   -0.0710 32.5 350 
 GIR2 SZ ES   1   1859 44.51                             167   -0.15 7 32.5 350 
 BRR  HZ IP     D 1859 30.82                             152    0.1410 72.1 299 
 BRR  HZ I        1859 32.40       147.3 0.14                          72.1 299 
 BRR  HN ES   1   1859 47.94                             152    0.64 7 72.1 299 
 PAM  SZ IP       1859 31.70                             151   -0.0210 78.0  39 
 PAM  SZ I        1859 31.95       128.0 0.20                          78.0  39 
 PAM  SN ES   1   1859 49.14                             151   -0.03 7 78.0  39 
 RUS  HZ EP       1859 33.19                             144    0.0610 99.4 176 
 RUS  HN ES   1   1859 51.21                             144   -0.46 7 99.4 176 
 ZAR  HZ EP       1859 41.31                             122   -0.65 9  205 292 
 ZAR  HN ES   1   19 0  6.77                             122   -0.62 6  205 292 
 CHI  HZ EP       1859 46.85                             117   -0.16 8  248 195 
 HEL  HZ EP       1859 50.77                             115    1.13 8  272 256 
 HEL  HN ES   2   19 0 19.86                             115   -1.20 4  272 256 
 GUY  SZ EP       1859 53.86                             112    0.61 7  303 235 
 GUY  SN ES   1   19 0 27.27                             112   -0.21 5  303 235 
 GUY  SZ I        19 0 34.58        56.1 0.40                           303 235 
 PRA  HZ EP       19 0  2.54                             107   -0.28 6  391 210 
 PRA  HE ES   1   19 0 44.88                             107    0.35 4  391 210 
 PRA  HN I        19 0 49.19        21.8 0.24                           391 210 
                                                                                
