 2012  1 5 1808 38.4 L   6.773 -73.093139.6  RSN  5 0.4 1.5LRSN                1
 GAP=145        0.95       6.0     8.9  9.0 -0.1227E+01 -0.5911E+01  0.2506E+01E
 Epicentro: LOS SANTOS - SANTANDER                                             3
 ACTION:UP  12-02-03 08:14 OP:REBC STATUS:               ID:20120105180838 L   I
 2012-01-05-1800-00M.COL___189                                                 6
 STAT SP IPHASW D HRMM SECON CODA AMPLIT PERI AZIMU VELO SNR AR TRES W  DIS CAZ7
 BAR2 SZ EP       18 8 57.14                             170    -0.110   22 206 
 BAR2 SZ ES   1   18 9 11.15                             170    -0.8 7   22 206 
 BAR2 SZ I        18 9 13.01        10.7 0.24                            22 206 
 GIR2 SZ EP   3   18 8 57.29                             165    -0.1 2   36 342 
 GIR2 SZ ES   3   18 9 12.35                             165     0.0 2   36 342 
 PAM  SZ EP       18 9  0.12                             150     0.310   76  35 
 PAM  SE ES   1   18 9 16.62                             150     0.0 7   76  35 
 BRR  HZ EP       18 8 59.02                             149    -0.210   78 298 
 BRR  HN ES   1   18 9 16.04                             149     0.5 7   78 298 
 BRR  HZ I        18 9 19.28         8.5 0.20                            78 298 
 RUS  HZ EP       18 9  1.11                             143    -0.210   97 179 
 RUS  HZ I        18 9  1.81         3.5 0.28                            97 179 
 RUS  HE ES   1   18 9 19.86                             143     0.7 7   97 179 
                                                                                
