 2010  7 5 1653 51.6 L   6.841 -73.004142.0  RSN  4 0.1 1.4LRSN                1
 GAP=171        0.40       3.2     6.9  8.2  0.4976E+01 -0.4020E+02 -0.5082E+01E
 Epicentro: CEPITA - SANTANDER                                                 3
 ACTION:UPD 10-12-01 15:15 OP:pat  STATUS:               ID:20100705165351 L   I
 2010-07-05-1650-19S.COL___118                                                 6
 STAT SP IPHASW D HRMM SECON CODA AMPLIT PERI AZIMU VELO AIN AR TRES W  DIS CAZ7
 BAR2 SZ EP       1654 11.22                             166     0.210   34 216 
 BAR2 SZ ES   3   1654 25.86                             166    -0.3 2   34 216 
 BRR  HZ EP   1   1654 13.08                             148     0.0 7   84 291 
 BRR  HZ I        1654 13.62         7.6 0.10                            84 291 
 BRR  HE ES   1   1654 29.79                             148    -0.1 7   84 291 
 BRI  SZ EP       1654 14.38                             143     0.010   99  13 
 RUS  HZ EP       1654 15.16                             142    -0.110  105 185 
 RUS  HN ES   2   1654 33.85                             142     0.0 5  105 185 
 RUS  HZ I        1654 35.59         2.4 0.48                           105 185 
                                                                                
