 2017 12 5 1732 32.6 L   6.792 -73.163142.0  RSN  6 0.2 1.7LRSN                1
 GAP=218        0.56       4.3     3.4  5.5  0.1014E+02 -0.4586E+01 -0.9017E+01E
 Epicentro: LOS SANTOS - SANTANDER                                             3
 ACTION:UPD 18-01-04 13:17 OP:rebc STATUS:               ID:20171205173232 L   I
 OLDACT:UP  17-12-05 22:49 OP:mg   STATUS:               ID:20171205172738d    3
 OLDACT:UP  17-12-05 22:49 OP:mg   STATUS:               ID:20171205172738d    3
 OLDACT:DUP 17-12-05 22:45 OP:mg   STATUS:               ID:20171205172738d    3
 2017-12-05-1728-00M.COL___485                                                 6
 STAT SP IPHASW D HRMM SECON CODA AMPLIT PERI AZIMU VELO AIN AR TRES W  DIS CAZ7
 BAR2 EZ EP       1732 51.58                             171   -0.1910 22.2 186 
 BAR2 EZ ES   2   1733  6.84                             171    0.13 5 22.2 186 
 BAR2 EZ I        1733  8.19        11.8 0.14            172           22.2 186 
 RUS  HZ EP       1732 55.66                             143   -0.2810 99.9 175 
 RUS  HN ES       1733 14.39                             143    0.2510 99.9 175 
 RUS  HZ I        1733 15.50         7.9 0.34            145           99.9 175 
 PTB  HZ EP   2   1732 59.09                             132    0.00 5  146 259 
 PTB  HN ES       1733 19.37                             132   -0.37 9  146 259 
 PTB  HZ I        1733 20.50         3.7 0.19            133            146 259 
 SPBC HZ EP       1733  0.87                             128    0.22 9  161 219 
 SPBC HN ES   1   1733 22.55                             128    0.04 7  161 219 
 SPBC HZ I        1733 25.06         7.2 0.11            130            161 219 
 YPLC HZ EP       1733  2.02                             126   -0.13 9  177 151 
 YPLC HN ES       1733 25.29                             126    0.09 9  177 151 
 YPLC HZ I        1733 27.79         5.6 0.34            128            177 151 
 ZAR  HZ EP       1733  4.99                             122    0.33 9  203 293 
 ZAR  HN ES       1733 29.81                             122    0.15 9  203 293 
 ZAR  HZ I        1733 35.74         6.8 0.27            123            203 293 
                                                                                
