 2013  4 5 1257  9.0 L   6.784 -73.158149.1  RSN  5 0.5 1.6LRSN                1
 GAP=235        1.01       8.2     7.7 10.3  0.9789E+01  0.1107E+02  0.8773E+00E
 Epicentro: LOS SANTOS - SANTANDER                                             3
 ACTION:UPD 13-05-22 14:36 OP:EP   STATUS:               ID:20130405125709 L   I
 2013-04-05-1250-00M.COL___245                                                 6
 STAT SP IPHASW D HRMM SECON CODA AMPLIT PERI AZIMU VELO AIN AR TRES W  DIS CAZ7
 BAR2 SZ EP       1257 28.97                             172    0.0010 21.3 187 
 BAR2 SZ ES   1   1257 44.27                             172   -0.30 7 21.3 187 
 BAR2 SZ I        1257 44.82        11.8 0.32            173           21.3 187 
 BRR  HZ IP     C 1257 30.76                             153    0.2910 70.9 300 
 BRR  HN ES   1   1257 47.73                             153    0.49 7 70.9 300 
 BRR  HZ I        1257 57.94        12.2 0.46            151           70.9 300 
 RUS  HZ EP   1   1257 33.15                             145    0.21 7 98.9 175 
 RUS  HN ES   1   1257 51.55                             145   -0.08 7 98.9 175 
 RUS  HZ I        1257 53.95         2.6 0.38            154           98.9 175 
 PTB  HZ EP   1   1257 35.14                             133   -0.93 7  146 259 
 PTB  HN ES   1   1257 56.49                             133   -0.71 7  146 259 
 PTB  HZ I        1258  1.75         4.3 0.42            136            146 259 
 NOR  HN ES   1   1258 13.42                             119    0.90 6  233 235 
                                                                                
