 2013 11 5 1020 15.0 L   6.780 -73.192141.6  RSN  7 0.4 1.3LRSN                1
 GAP=132        1.00       4.1     4.6  7.0  0.8632E+00  0.7438E+01 -0.7062E+01E
 Epicentro: LOS SANTOS - SANTANDER                                             3
 ACTION:UPD 14-01-09 16:25 OP:ep   STATUS:               ID:20131105102015 L   I
 OLDACT:REG 13-11-05 18:11 OP:jn   STATUS:               ID:20131105102000     3
 2013-11-05-1020-00M.COL___273                                                 6
 STAT SP IPHASW D HRMM SECON CODA AMPLIT PERI AZIMU VELO AIN AR TRES W  DIS CAZ7
 BAR2 SZ EP       1020 34.24                             171    0.1310 20.7 177 
 BAR2 SZ ES       1020 49.04                             171    0.0410 20.7 177 
 BAR2 SZ I        1020 50.05         6.7 0.30            173           20.7 177 
 BRR  HZ EP       1020 35.94                             153    0.4010 67.9 302 
 BRR  HE ES   1   1020 52.06                             153    0.51 7 67.9 302 
 BRR  HZ I        1020 56.31         4.4 0.30            153           67.9 302 
 PAM  SZ EP       1020 37.22                             148    0.1010 82.5  41 
 PAM  SN ES       1020 54.27                             148   -0.0910 82.5  41 
 PAM  SZ I        1020 56.18         4.4 0.60            152           82.5  41 
 RUS  HZ EP       1020 38.58                             143    0.3310 98.8 173 
 RUS  HN ES       1020 56.10                             143   -0.2610 98.8 173 
 RUS  HZ I        1020 57.68         2.0 0.28            147           98.8 173 
 PTB  HZ EP       1020 41.21                             132    0.05 9  142 259 
 PTB  HN ES       1021  0.72                             132   -0.82 9  142 259 
 PTB  HZ I        1021  5.15         1.5 0.46            134            142 259 
 ZAR  HN ES   1   1021 12.46                             122    0.87 6  200 293 
 SML  HZ EP       1020 50.86                             116   -0.56 8  244 337 
 SML  HE ES       1021 19.38                             116   -0.43 8  244 337 
                                                                                
