 2017  8 5 1928 49.8 L   6.755 -73.140135.7  RSN 12 0.6 2.0LRSN                1
 GAP=139        1.13       3.8     4.0  6.2 -0.1309E+01  0.7130E+01  0.4190E+01E
 Epicentro: LOS SANTOS - SANTANDER                                             3
 ACTION:UPD 17-09-04 20:16 OP:rebc STATUS:               ID:20170805192849 L   I
 OLDACT:REG 17-08-05 21:11 OP:dhb  STATUS:               ID:20170805192737     3
 2017-08-05-1928-00M.COL___399                                                 6
 STAT SP IPHASW D HRMM SECON CODA AMPLIT PERI AZIMU VELO AIN AR TRES W  DIS CAZ7
 BAR2 EZ IP     D 1929  7.99                             172   -0.1410 18.6 195 
 BAR2 EZ ES       1929 22.47                             172    0.0510 18.6 195 
 BAR2 EZ I        1929 26.93        18.9 0.24            170           18.6 195 
 BRR  HZ EP       1929  9.92                             150   -0.1410 74.3 302 
 BRR  HN ES       1929 26.32                             150    0.4610 74.3 302 
 BRR  HZ I        1929 27.99        28.0 0.18            150           74.3 302 
 PAM  EZ EP     D 1929 10.80                             148   -0.3810 80.9  37 
 PAM  EE ES       1929 27.98                             148    0.1310 80.9  37 
 PAM  EZ I        1929 30.89        13.5 0.54            153           80.9  37 
 RUS  HZ EP       1929 12.54                             143    0.3410 95.5 176 
 RUS  HN ES       1929 29.75                             143    0.0810 95.5 176 
 RUS  HZ I        1929 32.78         7.8 0.32            145           95.5 176 
 PTB  HZ EP       1929 14.86                             130   -1.09 9  148 261 
 PTB  HN ES       1929 35.83                             130   -0.51 9  148 261 
 PTB  HZ I        1929 41.67        10.8 0.20            131            148 261 
 SPBC HZ EP       1929 17.09                             127   -0.13 9  160 220 
 SPBC HN ES       1929 39.04                             127    0.44 9  160 220 
 SPBC HZ I        1929 42.70        14.4 0.14            129            160 220 
 ZAR  HZ EP       1929 22.09                             120    0.21 8  207 293 
 ZAR  HN ES       1929 47.10                             120    0.20 8  207 293 
 ZAR  HZ I        1929 52.75        15.4 0.30            122            207 293 
 NOR  HZ IP     D 1929 24.56                             117   -0.16 8  232 236 
 NOR  HN ES       1929 51.64                             117   -0.31 8  232 236 
 NOR  HZ I        1929 54.37         9.3 0.20            119            232 236 
 CHI  HZ EP       1929 27.32                             116    0.87 8  244 196 
 CHI  HN ES       1929 54.39                             116   -0.65 8  244 196 
 CHI  HZ I        1930  1.50         3.8 0.32            118            244 196 
 HEL  HZ EP   2   1929 31.89                             113    2.43 4  272 257 
 HEL  HN ES       1930  0.46                             113    0.06 8  272 257 
 HEL  HZ I        1930  6.73        11.3 0.40            115            272 257 
 GUY2CHZ EP   2   1929 33.50                             111    0.80 4  299 236 
 GUY2CHN ES   2   1930  7.06                             111    0.90 4  299 236 
 GUY2CHZ I        1930 12.20         4.7 0.25                           299 236 
 CBOC HZ EP   9   1929 35.22                             108   -1.00 0  333 253 
 CBOC HN ES       1930 11.29                                   -0.13 7  333 253 
 CBOC HZ I        1930 16.27         2.1 0.09            110            333 253 
                                                                                
