 2010 11 5 1729 31.6 L   7.167 -73.242123.0  RSN 10 0.5 2.4LRSN                1
 GAP=120        1.00       4.1     5.9  6.9 -0.9224E+01  0.3547E+01  0.3512E+01E
 Epicentro: LEBRIJA - SANTANDER                                                3
 ACTION:UP  10-12-17 16:50 OP:REBC STATUS:               ID:20101105172931 L   I
 2010-11-05-1726-23S.COL___129                                                 6
 STAT SP IPHASW D HRMM SECON CODA AMPLIT PERI AZIMU VELO SNR AR TRES W  DIS CAZ7
 GIR2 SZ IP   2   1729 48.89                             174     0.8 5   11 151 
 GIR2 SZ ES   2   1730  1.56                             174     0.6 5   11 151 
 BRR  HZ IP       1729 48.97                             155    -0.210   52 263 
 BRR  HN ES       1730  2.89                             155    -0.110   52 263 
 BRR  HZ I        1730  3.74       171.2 0.29                            52 263 
 BAR2 SZ EP       1729 50.10                             151    -0.110   64 174 
 BAR2 SZ ES   1   1730  4.51                             151    -0.2 7   64 174 
 BAR2 SZ I        1730  5.51       214.1 0.65                            64 174 
 GUE  SZ EP       1729 50.98                             145    -0.410   81  25 
 GUE  SZ I        1729 51.47        18.3 0.07                            81  25 
 GRA  SZ IP   2   1729 53.07                             141     1.0 5   93  31 
 GRA  SZ I        1729 55.13        71.4 0.65                            93  31 
 GRA  SZ ES   1   1730  9.04                             141     1.0 7   93  31 
 OCA  SZ EP       1729 53.82                             133    -0.410  119 356 
 OCA  SZ ES   1   1730 11.62                             133    -0.3 7  119 356 
 OCA  SZ I        1730 13.45        86.1 0.09                           119 356 
 RUS  HZ EP       1729 56.72                             128    -0.1 9  142 173 
 RUS  HE ES   2   1730 16.26                             128    -0.3 5  142 173 
 RUS  HZ I        1730 17.65         9.5 0.53                           142 173 
 NOR  SZ EP   1   1730  8.49                             112     0.4 6  253 226 
 NOR  SN ES   1   1730 36.81                             112     0.2 6  253 226 
 HEL  HZ EP   2   1730 11.62                             110     0.6 4  275 247 
 HEL  HE ES   1   1730 42.26                             110     0.4 6  275 247 
 HEL  HZ  AML     1730 50.97         7.8 0.33                           275 247 
 RREF HZ EP   2   1730 19.87                             105     0.7 3  342 223 
 RREF HN ES   2   1730 56.52                             105     0.1 3  342 223 
 RREF HZ I        1731  6.74         8.0 0.49                           342 223 
                                                                                
