 2011 12 5 1638  0.6 L   6.750 -73.098150.6  RSN  7 0.4 2.0LRSN                1
 GAP=145        0.67       4.1     5.9  5.9 -0.5434E+01  0.5484E+01  0.5557E+01E
 Epicentro: LOS SANTOS - SANTANDER                                             3
 ACTION:UPD 12-07-13 16:14 OP:ep   STATUS:               ID:20111205163800 L   I
 2011-12-05-1630-00M.COL___183                                                 6
 STAT SP IPHASW D HRMM SECON CODA AMPLIT PERI AZIMU VELO AIN AR TRES W  DIS CAZ7
 BAR2 SZ EP   1   1638 20.88                             172    0.12 7 19.8 208 
 BAR2 SZ ES   1   1638 36.11                             172   -0.36 7 19.8 208 
 BAR2 SZ I        1638 37.69        30.9 0.23                          19.8 208 
 GIR2 SZ EP   1   1638 21.20                             165    0.16 7 37.8 344 
 BRR  HZ EP   1   1638 22.81                             151    0.11 7 78.5 300 
 BRR  HZ I        1638 23.13        36.2 0.12                          78.5 300 
 BRR  HN ES   1   1638 40.06                             151    0.14 7 78.5 300 
 PAM  SZ EP   1   1638 23.59                             151    0.18 7 78.6  34 
 PAM  SN ES   1   1638 40.76                             151   -0.44 7 78.6  34 
 PAM  SZ I        1638 43.05        15.0 0.24                          78.6  34 
 RUS  HZ EP   1   1638 24.84                             146    0.40 7 94.9 179 
 RUS  HZ I        1638 26.05        10.2 0.14                          94.9 179 
 RUS  HN ES   1   1638 43.34                             146    0.31 7 94.9 179 
 NOR  SZ EP   1   1638 36.86                             119    0.11 6  236 236 
 NOR  SN ES   2   1639  4.50                             119   -0.44 4  236 236 
 CHI  HZ EP   1   1638 37.21                             118   -0.96 6  245 197 
 CHI  HN ES   2   1639  7.59                             118    0.13 4  245 197 
 CHI  HZ I        1639 13.42         4.8 0.38                           245 197 
                                                                                
