 2012 10 5 1642 17.2 L   6.819 -73.120146.1  RSN  5 0.3 1.5LRSN                1
 GAP=139        0.62       4.9     6.9  7.4 -0.4914E+01  0.4545E+01  0.6276E+01E
 Epicentro: LOS SANTOS - SANTANDER                                             3
 ACTION:UPD 12-11-22 17:02 OP:ep   STATUS:               ID:20121005164217 L   I
 2012-10-05-1640-00M.COL___222                                                 6
 STAT SP IPHASW D HRMM SECON CODA AMPLIT PERI AZIMU VELO AIN AR TRES W  DIS CAZ7
 BAR2 SZ EP       1642 36.40                             170   -0.4910 26.0 195 
 BAR2 SZ I        1642 42.53         5.1 0.38                          26.0 195 
 BAR2 SZ ES   2   1642 52.46                             170    0.18 5 26.0 195 
 GIR2 SZ EP   3   1642 36.10                             167   -0.74 2 29.9 344 
 BRR  HZ EP       1642 38.57                             152    0.1410 72.7 296 
 BRR  HZ I        1642 44.24        12.0 0.40                          72.7 296 
 BRR  HN ES   2   1642 55.13                             152    0.10 5 72.7 296 
 PAM  SZ EP       1642 39.56                             152    0.3510 74.0  39 
 PAM  SN ES   1   1642 56.30                             152   -0.12 7 74.0  39 
 PAM  SZ I        1642 58.49         9.4 0.50                          74.0  39 
 RUS  HZ EP       1642 41.11                             143    0.0210  103 178 
 RUS  HN ES   2   1642 59.85                             143    0.10 5  103 178 
 RUS  HZ I        1643  1.26         2.1 0.28                           103 178 
                                                                                
