 2012  2 5 1336 22.7 L   6.774 -73.153142.8  RSN 11 0.3 2.2LRSN                1
 GAP=137        0.59       2.6     2.8  3.7 -0.5618E+00  0.2041E+01  0.3147E+01E
 ACTION:UP  12-03-07 16:27 OP:epov STATUS:               ID:20120205133622 L   I
 2012-02-05-1330-00M.COL___188                                                 6
 STAT SP IPHASW D HRMM SECON CODA AMPLIT PERI AZIMU VELO SNR AR TRES W  DIS CAZ7
 BAR2 SZ EP       1336 42.01                             171    0.1010 20.4 189 
 BAR2 SZ ES       1336 56.68                             171   -0.2110 20.4 189 
 BAR2 SZ I        1336 59.77        49.3 0.34                          20.4 189 
 GIR2 SZ EP       1336 42.04                             166   -0.0510 34.0 352 
 GIR2 SZ ES   1   1336 57.36                             166    0.14 7 34.0 352 
 BRR  HZ EP       1336 43.75                             152    0.1910 72.0 301 
 BRR  HN ES       1337  0.30                             152    0.4610 72.0 301 
 BRR  HZ I        1337  1.54        32.1 0.13                          72.0 301 
 PAM  SZ EP       1336 44.85                             149    0.0910 80.1  39 
 PAM  SN ES   1   1337  1.51                             149   -0.46 7 80.1  39 
 RUS  HZ EP       1336 46.04                             144    0.0910 97.8 175 
 RUS  HN ES   1   1337  3.82                             144   -0.27 7 97.8 175 
 RUS  HZ I        1337  6.24        29.2 0.41                          97.8 175 
 PTB  HZ EP   1   1336 48.90                             131   -0.40 7  146 260 
 PTB  HN ES   1   1337  9.67                             131   -0.39 7  146 260 
 ZAR  HE ES   1   1337 19.94                             122   -0.24 6  204 293 
 ZAR  HZ I        1337 26.64        25.5 0.30                           204 293 
 NOR  SZ EP   1   1336 58.22                             118    0.22 6  232 235 
 NOR  SE ES   1   1337 25.64                             118    0.09 6  232 235 
 CHI  HZ EP   1   1337  0.27                             117    0.37 6  246 195 
 CHI  HE ES   1   1337 29.27                             117    0.34 6  246 195 
 CHI  HZ I        1337 33.01         7.3 0.65                           246 195 
 HEL  HZ EP   1   1337  2.13                             114   -0.47 6  271 256 
 HEL  HZ I        1337 42.83         7.4 0.27                           271 256 
 PRA  HZ EP   1   1337 15.36                             106   -0.41 4  389 210 
 PRA  HE ES   1   1337 57.19                             106    0.01 4  389 210 
                                                                                
