 2017  4 5 1703 55.6 L   7.066 -73.000163.8  RSN  4 0.3 1.6LRSN                1
 GAP=154        0.77       9.1     5.5  6.4 -0.2225E+02  0.3615E+01 -0.4012E+01E
 Epicentro: FLORIDABLANCA - SANTANDER                                          3
 ACTION:UPD 17-05-30 21:08 OP:jn   STATUS:               ID:20170405170355 L   I
 OLDACT:REG 17-04-05 20:51 OP:ar   STATUS:               ID:20170405165746     3
 2017-04-05-1658-00M.COL___371                                                 6
 STAT SP IPHASW D HRMM SECON CODA AMPLIT PERI AZIMU VELO AIN AR TRES W  DIS CAZ7
 PAM  EZ EP       17 4 18.41                             164    0.0610 44.9  48 
 PAM  EN ES   1   17 4 35.52                             164   -0.56 7 44.9  48 
 PAM  EZ I        17 4 35.70         6.5 0.24            165           44.9  48 
 BAR2 EZ EP       17 4 18.73                             160    0.3310 56.1 201 
 BAR2 EZ ES       17 4 36.14                             160   -0.0210 56.1 201 
 BAR2 EZ I        17 4 36.79         6.5 0.30            159           56.1 201 
 BRR  HZ EP       17 4 19.10                             153   -0.0510 78.8 273 
 BRR  HN ES       17 4 37.94                             153    0.4410 78.8 273 
 PTB  HZ EP       17 4 26.00                             131   -0.19 9  171 250 
 PTB  HE ES       17 4 49.65                             131   -0.38 9  171 250 
 PTB  HZ I        17 4 51.06         5.0 0.44            131            171 250 
                                                                                
