 2012  9 5 1350  5.3 L   6.707 -73.188152.0  RSN  4 0.4 1.3LRSN                1
 GAP=225        0.57      13.6    15.7 12.6  0.1494E+03 -0.9175E+02 -0.2190E+02E
 Epicentro: VILLANUEVA - SANTANDER                                             3
 ACTION:UPD 12-10-22 14:17 OP:ep   STATUS:               ID:20120905135005 L   I
 2012-09-05-1350-00M.COL___217                                                 6
 STAT SP IPHASW D HRMM SECON CODA AMPLIT PERI AZIMU VELO AIN AR TRES W  DIS CAZ7
 BAR2 SZ EP       1350 25.28                             175   -0.2510 12.7 177 
 BAR2 SZ I        1350 42.08         6.4 0.40                          12.7 177 
 BRR  HZ EP       1350 27.49                             152    0.2610 72.9 307 
 BRR  HZ I        1350 30.65         3.6 0.38                          72.9 307 
 BRR  HN ES   1   1350 44.19                             152   -0.13 7 72.9 307 
 RUS  HZ EP   3   1350 29.97                             147    0.95 2 90.8 173 
 RUS  HZ I        1350 30.93         2.1 0.14                          90.8 173 
 RUS  HN ES   3   1350 48.03                             147    0.52 2 90.8 173 
 PTB  HN ES   3   1350 52.68                             133   -0.57 2  141 263 
                                                                                
