 2017  6 5 1304  5.1 L   6.790 -73.149152.6  RSN  6 0.4 2.0LRSN                1
 GAP=236        1.00       5.0     6.0  7.6  0.9772E+01  0.2142E+01 -0.7825E+00E
 Epicentro: LOS SANTOS - SANTANDER                                             3
 ACTION:UPD 17-09-14 16:49 OP:jn   STATUS:               ID:20170605130405 L   I
 OLDACT:DUP 17-06-05 23:14 OP:osc  STATUS:               ID:20170605125740d    3
 OLDACT:REG 17-06-05 20:51 OP:osc  STATUS:               ID:20170605125739     3
 2017-06-05-1258-00M.COL___350                                                 6
 STAT SP IPHASW D HRMM SECON CODA AMPLIT PERI AZIMU VELO AIN AR TRES W  DIS CAZ7
 BRR  HZ EP       13 4 27.11                             154    0.1510 71.4 299 
 BRR  HE ES       13 4 44.54                             154    0.4910 71.4 299 
 BRR  HZ I        13 4 50.59        13.5 0.40            152           71.4 299 
 RUS  HZ EP       13 4 29.38                             145   -0.0410 99.5 176 
 RUS  HN ES       13 4 48.20                             145   -0.2110 99.5 176 
 RUS  HZ I        13 4 48.95        11.4 0.26            151           99.5 176 
 PTB  HZ EP       13 4 31.77                             134   -0.77 9  147 259 
 PTB  HN ES       13 4 53.37                             134   -0.61 9  147 259 
 PTB  HZ I        13 5  0.64        13.0 0.44            135            147 259 
 SPBC HZ EP       13 4 34.33                             131    0.34 9  162 219 
 SPBC HN ES       13 4 56.49                             131   -0.07 9  162 219 
 SPBC HZ I        13 4 58.92        23.0 0.36            134            162 219 
 ZAR  HZ EP       13 4 38.06                             124    0.09 9  204 292 
 ZAR  HE ES       13 5  3.50                             124   -0.14 9  204 292 
 ZAR  HZ I        13 5  9.44         8.9 0.14            126            204 292 
 NOR  HZ EP       13 4 41.38                             120    0.28 8  234 235 
 NOR  HN ES       13 5  9.89                             120    0.68 8  234 235 
 NOR  HZ I        13 5 12.49         5.6 0.18            123            234 235 
                                                                                
