 2012  3 5 1333 50.4 L   6.747 -73.173147.3  RSN  5 0.2 1.7LRSN                1
 GAP=230        0.47       4.8     4.3  4.5  0.1317E+02  0.2974E+01  0.1554E+01E
 ACTION:UP  12-03-31 23:17 OP:EP   STATUS:               ID:20120305133350 L   I
 2012-03-05-1330-00M.COL___191                                                 6
 STAT SP IPHASW D HRMM SECON CODA AMPLIT PERI AZIMU VELO SNR AR TRES W  DIS CAZ7
 BAR2 SZ EP   1   1334 10.09                             173    -0.1 7   17 184 
 BAR2 SZ ES   1   1334 25.32                             173    -0.2 7   17 184 
 BAR2 SZ I        1334 26.73        16.0 0.21                            17 184 
 BRR  HZ EP   1   1334 11.93                             153     0.1 7   72 304 
 BRR  HZ I        1334 13.86        10.1 0.49                            72 304 
 BRR  HN ES   1   1334 28.67                             153     0.2 7   72 304 
 RUS  HZ EP       1334 14.08                             146     0.110   95 174 
 RUS  HN ES   1   1334 32.25                             146    -0.1 7   95 174 
 RUS  HZ I        1334 34.25         5.6 0.41                            95 174 
 PTB  HZ EP       1334 17.06                             133    -0.1 9  144 261 
 PTB  HN ES   1   1334 38.22                             133     0.2 7  144 261 
 ZAR  HE ES   1   1334 48.02                             123    -0.3 6  204 294 
 ZAR  HZ I        1334 54.16         5.1 0.29                           204 294 
                                                                                
