 2015  5 5 2247 36.0 L   6.788 -73.122148.0  RSN  9 0.5 2.4LRSN                1
 GAP=140        1.25       4.7     5.9  7.7  0.5543E+01  0.1129E+02 -0.8736E+01E
 Epicentro: LOS SANTOS - SANTANDER                                             3
 ACTION:UPD 15-09-10 22:01 OP:cam  STATUS:               ID:20150505224736 L   I
 OLDACT:REG 15-05-06 03:19 OP:ak   STATUS:               ID:20150505223750     3
 2015-05-05-2237-50M.COL___276                                                 6
 STAT SP IPHASW D HRMM SECON CODA AMPLIT PERI AZIMU VELO AIN AR TRES W  DIS CAZ7
 BAR2 EZ IP     D 2247 55.97                             171    0.0510 22.7 197 
 BAR2 EZ ES       2248 11.02                             171   -0.4110 22.7 197 
 BAR2 EZ I        2248 12.03        30.6 0.25            172           22.7 197 
 BRR  HZ EP       2247 58.20                             152    0.6110 74.1 298 
 BRR  HN ES       2248 14.93                             152    0.5310 74.1 298 
 BRR  HZ I        2248 19.34        30.5 0.12            150           74.1 298 
 PAM  SZ IP     D 2247 58.97                             151    0.5310 76.7  37 
 PAM  SN ES       2248 15.90                             151   -0.0310 76.7  37 
 PAM  SZ I        2248 18.41        51.6 0.78            153           76.7  37 
 RUS  HZ EP       2248  0.38                             144    0.4810 99.2 178 
 RUS  HN ES       2248 17.87                             144   -0.6510 99.2 178 
 RUS  HZ I        2248 19.37        22.8 0.32            149           99.2 178 
 OCA  HZ EP       2248  4.58                             130   -0.08 9  162 352 
 OCA  HN ES       2248 26.15                             130   -0.85 9  162 352 
 OCA  HZ I        2248 29.83        47.7 0.27            131            162 352 
 ZAR  HN ES       2248 35.09                             122    0.51 8  207 292 
 ZAR  HZ I        2248 40.92        33.6 0.26            123            207 292 
 SML  HZ EP       2248 12.81                             117   -0.22 8  246 335 
 SML  HN ES       2248 42.33                             117    0.44 8  246 335 
 SML  HZ I        2248 48.54        37.3 0.07            119            246 335 
 URE  HZ EP       2248 17.21                             114   -0.33 7  287 292 
 URE  HN ES       2248 48.98                             114   -0.93 7  287 292 
 URE  HZ I        2248 52.18        12.7 0.15            115            287 292 
 SJC  HZ EP   1   2248 30.96                             106   -1.00 4  412 327 
 SJC  HN ES   4   2249 13.12                             106   -2.47 0  412 327 
 SJC  HZ I        2249 16.18         3.4 0.59            107            412 327 
                                                                                
