 2017  2 5 2348 53.2 L   6.750 -73.181147.1  RSN  4 0.4 1.2LRSN                1
 GAP=230        1.05       8.6     8.5  8.7  0.3936E+02  0.1399E+02  0.6713E+01E
 Epicentro: VILLANUEVA - SANTANDER                                             3
 ACTION:UPD 17-05-24 15:32 OP:jn   STATUS:               ID:20170205234853 L   I
 OLDACT:UP  17-02-06 07:14 OP:dani STATUS:               ID:20170205234745     3
 OLDACT:REG 17-02-06 03:53 OP:dani STATUS:               ID:20170205234745     3
 2017-02-05-2348-00M.COL___328                                                 6
 STAT SP IPHASW D HRMM SECON CODA AMPLIT PERI AZIMU VELO AIN AR TRES W  DIS CAZ7
 BAR2 EZ ES       2349 27.55                             173   -0.7010 17.5 181 
 BRR  HZ EP       2349 14.39                             153   -0.0810 70.7 304 
 BRR  HE ES       2349 31.67                             153    0.6110 70.7 304 
 BRR  HZ I        2349 34.59         5.2 0.30            151           70.7 304 
 RUS  HZ EP       2349 16.81                             146    0.0810 95.4 174 
 RUS  HN ES       2349 35.49                             146    0.4110 95.4 174 
 RUS  HZ I        2349 36.34         2.5 0.38            146           95.4 174 
 PTB  HZ EP       2349 19.69                             133   -0.16 9  143 261 
 PTB  HN ES       2349 40.44                             133   -0.20 9  143 261 
 PTB  HZ I        2349 45.40         1.5 0.23            132            143 261 
                                                                                
