 2014  8 5 2024 28.3 L   6.850 -73.184140.4  RSN 14 0.4 2.3LRSN                1
 GAP=129        0.97       2.9     4.2  5.5 -0.8470E-01  0.9080E+01  0.4163E+01E
 Epicentro: ZAPATOCA - SANTANDER                                               3
 ACTION:UPD 14-09-15 21:47 OP:nd   STATUS:               ID:20140805202428 L   I
 OLDACT:REE 14-08-06 02:47 OP:mh   STATUS:               ID:20140805201813     3
 2014-08-05-2018-13M.COL___257                                                 6
 STAT SP IPHASW D HRMM SECON CODA AMPLIT PERI AZIMU VELO AIN AR TRES W  DIS CAZ7
 BAR2 SZ EP       2024 47.43                             168    0.0510 28.5 180 
 BAR2 SZ ES       2025  2.34                             168    0.0610 28.5 180 
 BAR2 SZ I        2025  4.02        89.6 0.12            166           28.5 180 
 BRR  HZ EP       2024 49.19                             154    0.7010 64.9 296 
 BRR  HN ES   1   2025  4.45                             154    0.18 7 64.9 296 
 BRR  HZ I        2025  6.73        47.4 0.11            153           64.9 296 
 PAM  SZ EP       2024 50.16                             150    0.3210 76.1  45 
 PAM  SN ES       2025  6.94                             150    0.2710 76.1  45 
 PAM  SZ I        2025  8.62        25.5 0.22            155           76.1  45 
 RUS  HZ EP       2024 51.51                             141   -0.4310  106 174 
 RUS  HN ES   1   2025  9.88                             141   -0.53 7  106 174 
 RUS  HZ I        2025 12.10        14.4 0.23            141            106 174 
 PTB  HZ EP       2024 53.88                             131   -0.66 9  145 256 
 PTB  HN ES   1   2025 14.56                             131   -0.47 7  145 256 
 PTB  HZ I        2025 18.05        24.4 0.06            131            145 256 
 OCA  HN ES       2025 16.35                             129   -0.58 9  154 354 
 ZAR  HZ EP       2025  0.01                             122    0.26 9  198 291 
 ZAR  HN ES       2025 24.20                             122   -0.11 9  198 291 
 NOR  HZ EP       2025  3.53                             117   -0.15 8  235 233 
 NOR  HN ES   1   2025 31.75                             117    0.45 6  235 233 
 NOR  HZ I        2025 34.71        12.7 0.10            118            235 233 
 SML  HZ EP   1   2025  3.44                             117   -0.42 6  237 336 
 SML  HN ES   1   2025 31.75                             117    0.12 6  237 336 
 SML  HZ I        2025 35.37        34.4 0.10            119            237 336 
 CHI  HZ EP       2025  5.58                             115   -0.57 8  253 194 
 CHI  HN ES   1   2025 36.17                             115    0.48 6  253 194 
 CHI  HZ I        2025 42.57         8.2 0.40            116            253 194 
 GUY2CHZ EP       2025 12.13                             111    0.51 7  301 233 
 GUY2CHN ES   4   2025 48.06                             111    2.63 0  301 233 
 GUY2CHZ I        2025 55.87        10.4 0.09                           301 233 
 RREF HZ EP       2025 15.08                             110    0.84 7  322 228 
 RREF HN ES   4   2025 53.37                             110    3.27 0  322 228 
 RREF HZ I        2025 59.47        10.8 0.33            110            322 228 
 TOL  SZ EP   1   2025 16.95                             108    0.51 5  345 223 
 TOL  SE ES   4   2025 56.64                             108    2.63 0  345 223 
 PRA  HZ EP       2025 21.29                             105   -0.65 6  395 209 
 PRA  HN ES       2026  4.03                             105    0.23 6  395 209 
 PRA  HZ I        2026 10.18        12.2 0.31            106            395 209 
 SJC  HZ EP   4   2025 20.25                             105   -2.59 0  402 327 
 SJC  HN ES   4   2026  1.72                             105   -3.69 0  402 327 
                                                                                
