 2017  8 5 2128 45.4 L   6.775 -73.148141.3  RSN 21 0.5 2.6LRSN                1
 GAP= 98        1.11       3.1     2.6  4.7  0.1551E+00  0.3608E+01  0.1668E+01E
 Epicentro: LOS SANTOS - SANTANDER                                             3
 ACTION:UPD 17-09-04 20:16 OP:rebc STATUS:               ID:20170805212845 L   I
 OLDACT:REG 17-08-06 02:54 OP:lv   STATUS:               ID:20170805212745     3
 2017-08-05-2128-00M.COL___402                                                 6
 STAT SP IPHASW D HRMM SECON CODA AMPLIT PERI AZIMU VELO AIN AR TRES W  DIS CAZ7
 BAR2 EZ IP     C 2129  4.38                             171   -0.0710 20.6 191 
 BAR2 EZ ES       2129 18.68                             171   -0.6310 20.6 191 
 BAR2 EZ I        2129 22.11       165.9 0.31            168           20.6 191 
 BRR  HZ IP     C 2129  6.29                             151    0.1410 72.3 301 
 BRR  HE ES       2129 23.42                             151    1.1010 72.3 301 
 BRR  HZ I        2129 24.48        98.4 0.19            150           72.3 301 
 PAM  EZ EP       2129  7.21                             149   -0.0910 79.7  38 
 PAM  EN ES       2129 24.26                             149   -0.1110 79.7  38 
 PAM  EZ I        2129 26.44        81.6 0.51            154           79.7  38 
 RUS  HZ EP       2129  8.37                             144   -0.1610 97.8 176 
 RUS  HN ES       2129 27.10                             144    0.5410 97.8 176 
 RUS  HZ I        2129 28.47        67.7 0.23            143           97.8 176 
 PTB  HZ EP   9   2129 11.36                             131   -0.59 0  147 260 
 PTB  HN ES       2129 31.76                                   -0.30 9  147 260 
 PTB  HZ I        2129 35.37        36.9 0.29            130            147 260 
 TAM  HZ IP     C 2129 12.64                             130   -0.06 9  155 104 
 TAM  HN ES       2129 33.58                             130   -0.40 9  155 104 
 TAM  HZ I        2129 37.54        20.6 0.15            133            155 104 
 SPBC HZ EP       2129 13.23                             128   -0.12 9  161 220 
 SPBC HN ES       2129 35.15                             128    0.01 9  161 220 
 SPBC HZ I        2129 38.04        44.0 0.12            128            161 220 
 YPLC HZ EP       2129 14.69                             126    0.03 9  175 151 
 YPLC HN ES       2129 37.71                             126    0.24 9  175 151 
 YPLC HZ I        2129 39.44        34.0 0.12            127            175 151 
 ZAR  HZ EP       2129 18.25                             121    0.60 9  205 293 
 ZAR  HN ES       2129 43.07                             121    0.26 9  205 293 
 ZAR  HZ I        2129 48.59        52.6 0.25            122            205 293 
 TABC EZ EP   9   2129 21.94                             119    1.31 0  227 211 
 TABC EZ ES       2129 49.86                                    0.45 8  227 211 
 TABC EZ I        2129 53.90        52.7 0.51            118            227 211 
 NOR  HZ EP       2129 20.57                             118   -0.12 8  233 235 
 NOR  HN ES       2129 48.34                             118    0.13 8  233 235 
 NOR  HZ I        2129 55.61        39.7 0.06            118            233 235 
 CHI  HZ EP       2129 22.64                             116    0.08 8  246 195 
 CHI  HN ES       2129 50.83                             116   -0.71 8  246 195 
 CHI  HZ I        2130  0.14        18.0 0.25            117            246 195 
 ROSC BZ EP   9   2129 24.74                             116    1.73 0  250 211 
 ROSC BN ES       2129 52.96                                   -1.11 8  250 211 
 ROSC BZ I        2130  2.26        46.2 0.37            116            250 211 
 HEL  HZ EP       2129 26.13                             114    0.83 8  271 256 
 HEL  HN ES       2129 55.85                             114   -0.56 8  271 256 
 HEL  HZ I        2130  4.76        17.9 0.16            114            271 256 
 URE  HZ EP       2129 25.46                             113   -0.90 7  285 292 
 URE  HN ES       2129 56.98                             113   -1.32 7  285 292 
 URE  HZ I        2130  9.03        27.5 0.07            113            285 292 
 GUY2CHZ EP       2129 28.76                             112    0.15 7  299 235 
 GUY2CHN ES       2130  2.07                             112   -0.24 7  299 235 
 GUY2CHZ I        2130 12.52        23.2 0.47                           299 235 
 PTGC HZ EP   4   2129 27.46                             111   -1.32 0  306 158 
 PTGC HN ES   4   2129 59.18                             111   -3.44 0  306 158 
 CBOC HZ EP       2129 32.35                             109    0.33 7  333 253 
 CBOC HN ES       2130  8.09                             109   -0.28 7  333 253 
 CBOC HZ I        2130 16.78         8.3 0.14            109            333 253 
 DBB  EZ EP       2129 32.90                             109    0.20 7  339 275 
 DBB  EN ES   4   2130  7.75                             109   -1.84 0  339 275 
 DBB  EZ I        2130 15.59        26.9 0.05            109            339 275 
 PRA  HZ EP       2129 38.78                             106    0.30 6  389 210 
 PRA  HE ES   4   2130 19.16                             106   -0.72 0  389 210 
 PRA  HZ I        2130 27.67        19.6 0.23            106            389 210 
 ORTC HZ EP       2129 38.83                             106   -0.07 6  393 216 
 ORTC HN ES       2130 20.93                             106    0.31 6  393 216 
 ORTC HZ I        2130 29.01         9.5 0.39            106            393 216 
 PAL  HZ EP       2129 40.42                             105    0.19 6  404 239 
 PAL  HN ES       2130 23.07                             105    0.08 6  404 239 
 PAL  HZ I        2130 28.19         8.7 0.16            106            404 239 
 SJC  HZ EP   4   2129 39.20                             105   -1.89 0  411 327 
 SJC  HN ES   4   2130 20.43                             105   -4.08 0  411 327 
                                                                                
