 2012  4 5 2225  4.2 L   6.646 -73.243153.7  RSN  4 0.2 1.3LRSN                1
 GAP=213        0.43       5.4     6.3  6.2  0.2423E+02 -0.3788E+00 -0.1557E+01E
 Epicentro: BARICHARA - SANTANDER                                              3
 ACTION:UPD 12-07-05 11:50 OP:tino STATUS:               ID:20120405222504 L   I
 2012-04-05-2220-00M.COL___196                                                 6
 STAT SP IPHASW D HRMM SECON CODA AMPLIT PERI AZIMU VELO AIN AR TRES W  DIS CAZ7
 BRR  HZ EP   1   2225 26.25                             153    -0.1 7   73 315 
 BRR  HZ I        2225 28.66         5.1 0.13                            73 315 
 BRR  HE ES   1   2225 43.67                             153     0.1 7   73 315 
 RUS  HZ EP   1   2225 27.87                             150     0.1 7   85 168 
 RUS  HN ES   1   2225 45.92                             150    -0.2 7   85 168 
 RUS  HZ I        2225 47.58         2.2 0.38                            85 168 
 PTB  HZ EP   2   2225 30.87                             136     0.2 5  135 265 
 PTB  HE ES   2   2225 51.57                             136     0.2 5  135 265 
 ZAR  HN ES   2   2226  1.95                             124    -0.5 4  201 298 
                                                                                
