 2010 10 5 2156 47.2 L   6.664 -74.162 72.0  RSN 13 0.4 2.5LRSN                1
 GAP= 74        0.94       2.8     3.0  9.0 -0.2470E+01  0.9869E+01  0.4236E+01E
 Epicentro: PUERTO PARRA - SANTANDER                                           3
 ACTION:UP  11-02-18 11:07 OP:tino STATUS:               ID:20101005215647 L   I
 2010-10-05-2140-00S.COL___118                                                 6
 STAT SP IPHASW D HRMM SECON CODA AMPLIT PERI AZIMU VELO SNR AR TRES W  DIS CAZ7
 BRR  HZ IP     D 2157  0.78                             131    -0.210   70  45 
 BRR  HE ES       2157 11.83                             131     0.110   70  45 
 BRR  HZ I        2157 12.65       185.5 0.06                            70  45 
 BAR2 SZ IP       2157  5.20                             118     0.010  108  94 
 BAR2 SZ I        2157  5.55       122.7 0.11                           108  94 
 BAR2 SZ ES   1   2157 19.64                             118     0.3 7  108  94 
 NOR  SZ IP       2157  8.53                             110    -0.6 9  145 213 
 NOR  SN ES       2157 26.19                             110     0.0 9  145 213 
 RUS  HZ EP       2157  9.34                             110    -0.5 9  147 126 
 RUS  HE ES   1   2157 27.13                             110    -0.5 7  147 126 
 RUS  HZ I        2157 27.47        25.5 0.22                           147 126 
 HEL  HZ EP       2157 11.18                             108    -0.1 9  160 251 
 HEL  HE ES   1   2157 30.28                             108     0.2 7  160 251 
 HEL  HZ I        2157 32.49        46.9 0.24                           160 251 
 OCA  SZ EP       2157 15.37                             104    -0.1 9  197  28 
 OCA  SZ ES   1   2157 38.39                             104     0.9 6  197  28 
 OCA  SZ I        2157 44.62        36.7 0.36                           197  28 
 ROSC BZ EP   1   2157 16.86                             104     0.5 6  202 185 
 ROSC BZ I        2157 47.95        14.5 0.47                           202 185 
 CHI  HZ EP   2   2157 19.99                             102     0.3 4  230 168 
 CHI  HE ES   2   2157 45.43                             102     0.4 4  230 168 
 CHI  HZ I        2157 53.15        15.3 0.56                           230 168 
 RREF HZ EP       2157 21.08                             101     0.5 8  235 214 
 RREF HE ES   1   2157 47.01                             101     0.4 6  235 214 
 RREF HZ I        2157 51.94        30.3 0.28                           235 214 
 YOP  SZ EP   2   2157 21.42                             101     0.8 4  241 127 
 TOL  SZ EP   1   2157 24.22                             100     0.6 6  263 209 
 TOL  SZ ES   2   2157 51.94                             100    -0.1 4  263 209 
 MON  HZ EP   1   2157 25.11                              99    -0.9 6  286 325 
 MON  HN ES   1   2157 56.13                              99    -0.2 6  286 325 
 PRA  HZ EP   2   2157 33.04                              97     0.9 3  336 194 
 PRA  HN ES   2   2158  6.82                              97    -0.4 3  336 194 
 PRA  HZ I        2158 19.75        31.7 0.22                           336 194 
                                                                                
