 2016 12 5 2250  6.4 L   6.726 -73.194152.6  RSN  5 0.3 1.5LRSN                1
 GAP=226        0.86       6.6     6.1  6.3  0.2491E+02  0.5060E+01 -0.3165E+01E
 Epicentro: VILLANUEVA - SANTANDER                                             3
 ACTION:UPD 17-01-11 20:12 OP:rebc STATUS:               ID:20161205225006 L   I
 OLDACT:REG 16-12-06 04:07 OP:dani STATUS:               ID:20161205224745     3
 2016-12-05-2248-00M.COL___340                                                 6
 STAT SP IPHASW D HRMM SECON CODA AMPLIT PERI AZIMU VELO AIN AR TRES W  DIS CAZ7
 BAR2 EZ EP       2250 26.27                             174   -0.4510 14.8 175 
 BAR2 EZ ES       2250 42.35                             174   -0.2210 14.8 175 
 BAR2 EZ I        2250 42.81         7.1 0.13            174           14.8 175 
 BRR  HZ EP       2250 28.48                             154    0.1910 71.0 306 
 BRR  HN ES       2250 45.54                             154    0.1910 71.0 306 
 BRR  HZ I        2250 48.59         6.7 0.12            152           71.0 306 
 RUS  HZ EP       2250 30.61                             147    0.2910 93.0 172 
 RUS  HE ES       2250 49.18                             147    0.2110 93.0 172 
 RUS  HZ I        2250 50.45         2.7 0.28            149           93.0 172 
 PTB  HZ EP       2250 33.57                             135    0.22 9  141 262 
 PTB  HN ES       2250 53.94                             135   -0.43 9  141 262 
 PTB  HZ I        2250 56.74         4.0 0.16            134            141 262 
 ZAR  HZ EP       2250 38.63                             124   -0.50 9  202 295 
 ZAR  HN ES       2251  5.12                             124    0.46 9  202 295 
 ZAR  HZ I        2251 10.66         4.7 0.15            124            202 295 
                                                                                
