 2014  1 5 2106 42.3 L   6.820 -73.129140.8  RSN 14 0.5 2.4LRSN 2.7WRSN        1
 SPEC AVERAGE  MO 13.1 ST 10.2 OM  1.6 f0 7.03 R0.2991 AL 0.00 WI 20.0 MW  2.7 3
 SPEC SD       MO  0.2 ST 17.9 OM  0.4 f0 4.38 R0.1511 AL      WI      MW  0.1 3
 GAP=138        1.25       3.2     5.2  7.3 -0.2686E+01  0.1653E+02 -0.1318E+01E
 Epicentro: LOS SANTOS - SANTANDER                                             3
 SPEC BAR2SH Z MO 13.5 ST  3.3 OM  1.9 f0 4.62 R0.3364 AL-0.00 WI 20.0 MW  2.9 3
 SPEC BAR2SH Z T21 714 K 0.000 GD  143 VS 4.20 DE 3.20 Q0300.0 QA 0.60 VS 4.20 3
 SPEC BRR HH Z MO 13.2 ST  3.1 OM  1.6 f0 5.51 R0.2820 AL-0.00 WI 20.0 MW  2.7 3
 SPEC BRR HH Z T21 717 K 0.000 GD  158 VS 4.20 DE 3.20 Q0300.0 QA 0.60 VS 4.20 3
 SPEC PAM SH Z MO 13.2 ST0.265 OM  1.6 f0 2.43 R0.6395 AL-0.00 WI 20.0 MW  2.7 3
 SPEC PAM SH Z T21 719 K 0.000 GD  159 VS 4.20 DE 3.20 Q0300.0 QA 0.60 VS 4.20 3
 SPEC RUS HH Z MO 12.8 ST0.773 OM  1.2 f0 4.58 R0.3393 AL-0.00 WI 20.0 MW  2.5 3
 SPEC RUS HH Z T21 722 K 0.000 GD  174 VS 4.20 DE 3.20 Q0300.0 QA 0.60 VS 4.20 3
 SPEC PTB HH Z MO 13.1 ST 23.5 OM  1.4 f0 11.6 R0.1340 AL-0.00 WI 20.0 MW  2.7 3
 SPEC PTB HH Z T21 726 K 0.000 GD  205 VS 4.20 DE 3.20 Q0300.0 QA 0.60 VS 4.20 3
 SPEC OCA HH Z MO 13.2 ST  2.1 OM  1.5 f0 4.78 R0.3251 AL-0.00 WI 20.0 MW  2.8 3
 SPEC OCA HH Z T21 729 K 0.000 GD  211 VS 4.20 DE 3.20 Q0300.0 QA 0.60 VS 4.20 3
 SPEC SPBCHH Z MO 13.1 ST 11.2 OM  1.4 f0 8.90 R0.1746 AL-0.00 WI 20.0 MW  2.7 3
 SPEC SPBCHH Z T21 730 K 0.000 GD  217 VS 4.20 DE 3.20 Q0300.0 QA 0.60 VS 4.20 3
 SPEC ZAR HH Z MO 13.4 ST  5.8 OM  1.6 f0 5.86 R0.2652 AL-0.00 WI 20.0 MW  2.9 3
 SPEC ZAR HH Z T21 738 K 0.000 GD  248 VS 4.20 DE 3.20 Q0300.0 QA 0.60 VS 4.20 3
 SPEC NOR HH Z MO 13.1 ST  4.3 OM  1.3 f0 6.43 R0.2417 AL-0.00 WI 20.0 MW  2.7 3
 SPEC NOR HH Z T21 743 K 0.000 GD  275 VS 4.20 DE 3.20 Q0300.0 QA 0.60 VS 4.20 3
 SPEC SML HH Z MO 12.9 ST 68.4 OM  1.1 f0 18.8 R0.0827 AL-0.00 WI 20.0 MW  2.6 3
 SPEC SML HH Z T21 744 K 0.000 GD  280 VS 4.20 DE 3.20 Q0300.0 QA 0.60 VS 4.20 3
 SPEC CHI HH Z MO 13.2 ST0.508 OM  1.3 f0 3.12 R0.4981 AL-0.00 WI 20.0 MW  2.7 3
 SPEC CHI HH Z T21 748 K 0.000 GD  287 VS 4.20 DE 3.20 Q0300.0 QA 0.60 VS 4.20 3
 SPEC HEL HH Z MO 13.3 ST  1.1 OM  1.4 f0 3.60 R0.4317 AL-0.00 WI 20.0 MW  2.8 3
 SPEC HEL HH Z T21 753 K 0.000 GD  308 VS 4.20 DE 3.20 Q0300.0 QA 0.60 VS 4.20 3
 SPEC SJC HH Z MO 12.7 ST  8.8 OM  0.7 f0 11.2 R0.1387 AL-0.00 WI 20.0 MW  2.4 3
 SPEC SJC HH Z T21 816 K 0.000 GD  431 VS 4.20 DE 3.20 Q0300.0 QA 0.60 VS 4.20 3
 OLDACT:DUP 14-01-06 06:06 OP:nd   STATUS:               ID:20140105210001d    3
 ACTION:UPD 14-03-13 09:51 OP:ep   STATUS:               ID:20140105210642 L   I
 OLDACT:UP  14-01-06 06:24 OP:nd   STATUS:               ID:20140105210001d    3
 2014-01-05-2100-00M.COL___285                                                 6
 STAT SP IPHASW D HRMM SECON CODA AMPLIT PERI AZIMU VELO AIN AR TRES W  DIS CAZ7
 BAR2 SZ EP       21 7  1.66                             169    0.2510 25.8 193 
 BAR2 SZ ES       21 7 16.11                             169   -0.1910 25.8 193 
 BAR2 SZ I        21 7 18.05        79.5 0.24            168           25.8 193 
 BRR  HZ IP     C 21 7  3.55                             151    0.5810 71.9 296 
 BRR  HN ES   2   21 7 19.11                             151    0.03 5 71.9 296 
 BRR  SZ I        21 7 24.10        34.6 0.14            149           71.9 296 
 BRR  HZ I        21 7 24.16        34.0 0.12                          71.9 296 
 PAM  SZ EP       21 7  4.44                             151    0.6010 74.5  39 
 PAM  SN ES       21 7 21.32                             151    0.7010 74.5  39 
 PAM  SZ I        21 7 22.93        30.3 0.40            156           74.5  39 
 RUS  HZ EP       21 7  5.51                             142   -0.2310  103 177 
 RUS  HN ES       21 7 23.58                             142   -0.4210  103 177 
 RUS  SZ I        21 7 26.21        12.2 0.48            145            103 177 
 RUS  HZ I        21 7 26.51        11.9 0.20                           103 177 
 PTB  HZ EP       21 7  8.37                             130   -0.73 9  150 258 
 PTB  HN ES   4   21 7 28.31                             130   -1.67 0  150 258 
 PTB  SZ I        21 7 33.32        41.5 0.14            131            150 258 
 PTB  HZ I        21 7 33.40        37.7 0.12                           150 258 
 OCA  HZ EP       21 7  9.70                             129   -0.37 9  158 352 
 OCA  HN ES       21 7 31.06                             129   -0.65 9  158 352 
 OCA  HZ I        21 7 35.15        22.4 0.22            132            158 352 
 OCA  SZ I        21 7 38.43        20.8 0.26                           158 352 
 SPBC HZ EP       21 7 10.63                             127   -0.09 9  166 219 
 SPBC HN ES       21 7 32.43                             127   -0.44 9  166 219 
 SPBC SZ I        21 7 35.04        35.6 0.24            129            166 219 
 SPBC HZ I        21 7 37.58        30.8 0.24                           166 219 
 ZAR  HZ EP       21 7 15.56                             121    1.02 9  205 291 
 ZAR  HN ES       21 7 40.06                             121    0.38 9  205 291 
 ZAR  HZ I        21 7 45.80        41.8 0.28            123            205 291 
 ZAR  SZ I        21 7 46.24        51.3 0.44                           205 291 
 NOR  HZ EP       21 7 18.01                             117   -0.06 8  237 234 
 NOR  HN ES       21 7 45.48                             117   -0.47 8  237 234 
 NOR  SZ I        21 7 54.08        19.2 0.20            119            237 234 
 NOR  HZ I        21 7 54.15        18.7 0.20                           237 234 
 SML  HZ EP       21 7 17.69                             116   -0.85 8  243 335 
 SML  HN ES       21 7 46.14                             116   -0.66 8  243 335 
 SML  SZ I        21 7 49.44        24.1 0.08            119            243 335 
 SML  HZ I        21 7 57.24        21.2 0.10                           243 335 
 CHI  HZ EP       21 7 20.17                             116    0.14 8  251 195 
 CHI  HN ES       21 7 49.63                             116    0.19 8  251 195 
 CHI  SZ I        21 7 54.26         6.8 0.92            119            251 195 
 CHI  HZ I        21 7 55.65         9.3 0.56                           251 195 
 HEL  HZ EP       21 7 23.04                             113    0.49 8  274 255 
 HEL  HN ES       21 7 54.66                             113    0.74 8  274 255 
 HEL  SZ I        21 8  0.53        16.0 0.54            115            274 255 
 HEL  HZ I        21 8  1.17        12.2 0.78                           274 255 
 GUY2CHZ EP   4   21 7 26.10                             111    0.08 0  304 235 
 GUY2CHN ES   4   21 7 59.43                             111   -0.67 0  304 235 
 GUY2CSZ I        21 8  8.14        12.7 0.36                           304 235 
 GUY2CHZ I        21 8  8.35        14.8 0.36                           304 235 
 SJC  HZ EP   4   21 7 36.19                             105   -1.44 0  408 327 
 SJC  HN ES   4   21 8 17.67                             105   -3.10 0  408 327 
 SJC  HZ I        21 8 21.63         4.4 0.60            107            408 327 
 SJC  SZ I        21 8 29.10         9.7 3.54                           408 327 
                                                                                
