 2015  2 5 2107 20.8 L   6.431 -73.932 32.0  RSN  5 0.4 1.6LRSN                1
 GAP=139        0.88       4.5     2.4  5.5 -0.1777E+01 -0.8764E+01  0.6961E+01E
 Epicentro: CIMITARRA - SANTANDER                                              3
 ACTION:UPD 15-04-30 21:22 OP:nd   STATUS:               ID:20150205210720 L   I
 OLDACT:REG 15-02-06 08:17 OP:spq  STATUS:               ID:20150205205747     3
 2015-02-05-2057-47M.COL___281                                                 6
 STAT SP IPHASW D HRMM SECON CODA AMPLIT PERI AZIMU VELO AIN AR TRES W  DIS CAZ7
 PTB  HZ EP     D 21 7 30.88                             110   -0.2710 59.3 282 
 PTB  HE ES       21 7 39.20                             110   -0.0110 59.3 282 
 PTB  HZ I        21 7 39.76        56.8 0.10             99           59.3 282 
 BAR2 EZ EP       21 7 34.17                              61   -0.4410 84.8  78 
 BAR2 EZ ES   1   21 7 44.67                              61   -0.70 7 84.8  78 
 BAR2 EZ I        21 7 46.06         8.8 0.30             91           84.8  78 
 RUS  HZ EP     D 21 7 38.35                              61    0.1310  111 122 
 RUS  HE ES       21 7 51.97                              61    0.1910  111 122 
 RUS  HZ I        21 7 53.07        15.8 0.20             61            111 122 
 PAM  SZ EP       21 7 46.16                              61    0.69 9  169  54 
 PAM  SN ES       21 8  4.90                              61    0.20 9  169  54 
 PAM  SZ I        21 8  6.50         4.7 0.03             61            169  54 
 HEL  HZ EP       21 7 46.70                              61    0.19 9  179 262 
 HEL  HN ES       21 8  6.46                              61   -0.08 9  179 262 
 HEL  HZ I        21 8  7.93         7.0 0.16             61            179 262 
                                                                                
