 2011  2 5 2218  1.1 L   7.161 -72.946164.0  RSN 13 0.5 2.6LRSN                1
 GAP=111        1.18       5.1     8.5  6.7 -0.1219E+02  0.3419E+01  0.3011E+01E
 Epicentro: TONA - SANTANDER                                                   3
 ACTION:UP  11-03-28 15:06 OP:jfem STATUS:               ID:20110205221801 L   I
 2011-02-05-2200-00M.COL___139                                                 6
 STAT SP IPHASW D HRMM SECON CODA AMPLIT PERI AZIMU VELO SNR AR TRES W  DIS CAZ7
 GIR2 SZ IP       2218 22.86                             169     0.010   29 252 
 GIR2 SZ ES   1   2218 39.38                             169    -0.5 7   29 252 
 URB  SZ EP       2218 24.14                             164     0.910   44 281 
 BTL  SZ IP   2   2218 24.85                             164     1.4 5   45 233 
 BTL  SZ ES   1   2218 40.86                             164     0.0 7   45 233 
 BAR2 SZ IP       2218 24.59                             156     0.210   68 203 
 BAR2 SZ I        2218 24.79        89.6 0.17                            68 203 
 BAR2 SZ ES   1   2218 41.90                             156    -0.7 7   68 203 
 GRA  SZ IP       2218 24.90                             152    -0.110   82  11 
 GRA  SZ ES   1   2218 43.07                             152    -0.6 7   82  11 
 GRA  SZ I        2218 43.74        97.5 0.13                            82  11 
 OCA  SZ EP       2218 28.49                             140     0.510  126 341 
 OCA  SZ ES   1   2218 49.08                             140     0.0 7  126 341 
 OCA  SZ I        2218 50.64        73.9 0.33                           126 341 
 RUS  HZ EP       2218 29.81                             137     0.1 9  141 186 
 RUS  HN ES   1   2218 52.39                             137     0.4 7  141 186 
 RUS  HZ I        2218 53.80        34.1 0.18                           141 186 
 YOP  SZ EP   2   2218 35.37                             125     0.0 4  208 164 
 NOR  SZ EP       2218 41.98                             117    -0.4 7  277 231 
 CHI  HZ EP       2218 44.47                             116    -0.2 7  293 197 
 CHI  HZ I        2219 22.77         5.4 0.48                           293 197 
 HEL  HZ EP       2218 45.75                             115    -0.1 7  305 250 
 HEL  HN ES   2   2219 19.96                             115    -0.9 4  305 250 
 HEL  HZ I        2219 28.41        14.6 0.62                           305 250 
 SDV  BZ EP       2218 46.35                             114    -0.8 7  318  53 
 DBB  SZ EP       2218 51.45                             111    -0.3 6  361 268 
                                                                                
