 2013  2 5 2048 52.6 L   6.780 -73.163140.9  RSN  4 0.1 1.7LRSN                1
 GAP=135        0.45       2.4     2.3  4.0 -0.6150E+00  0.8437E+00  0.1371E+01E
 Epicentro: LOS SANTOS - SANTANDER                                             3
 ACTION:UPD 13-03-12 09:30 OP:ep   STATUS:               ID:20130205204852 L   I
 2013-02-05-2038-50M.COL___185                                                 6
 STAT SP IPHASW D HRMM SECON CODA AMPLIT PERI AZIMU VELO AIN AR TRES W  DIS CAZ7
 BRR  HZ EP       2049 13.44                             152    0.2710 70.7 301 
 BRR  HN ES       2049 29.38                             152    0.1410 70.7 301 
 BRR  HN I        2049 30.79        14.0 0.38            153           70.7 301 
 PAM  SZ EP       2049 14.35                             149   -0.1110 80.3  40 
 PAM  SZ I        2049 14.65         9.5 0.20            152           80.3  40 
 PAM  SN ES       2049 31.42                             149   -0.1110 80.3  40 
 RUS  HZ EP       2049 15.73                             143    0.0310 98.5 175 
 RUS  HN ES       2049 33.78                             143    0.0410 98.5 175 
 RUS  HN I        2049 36.01         5.9 0.32            144           98.5 175 
 PTB  HZ EP       2049 18.89                             131   -0.05 9  145 260 
 PTB  HN ES       2049 39.28                             131   -0.23 9  145 260 
 PTB  HN I        2049 41.79         5.2 0.34            132            145 260 
                                                                                
