 2012  3 5 2322 47.3 L   6.798 -73.166146.3  RSN 13 0.4 2.9LRSN                1
 GAP=102        0.92       3.8     4.1  6.5  0.3121E+00  0.6021E+01  0.3930E+01E
 ACTION:UP  12-03-31 23:17 OP:EP   STATUS:               ID:20120305232247 L   I
 2012-03-05-2320-00M.COL___191                                                 6
 STAT SP IPHASW D HRMM SECON CODA AMPLIT PERI AZIMU VELO SNR AR TRES W  DIS CAZ7
 BAR2 SZ IP       2323  7.07                             171     0.110   23 185 
 BAR2 SZ ES   1   2323 21.85                             171    -0.5 7   23 185 
 BAR2 SZ I        2323 23.89       296.1 0.25                            23 185 
 BRR  HZ EP       2323  8.93                             153     0.510   69 300 
 BRR  HZ I        2323  9.30       441.1 0.21                            69 300 
 PAM  SZ EP       2323  9.84                             150     0.110   79  41 
 PAM  SE ES   1   2323 27.24                             150     0.1 7   79  41 
 PAM  SZ I        2323 29.38        75.9 0.18                            79  41 
 RUS  HZ EP       2323 10.87                             144    -0.310  101 175 
 RUS  HN ES   1   2323 29.79                             144     0.1 7  101 175 
 RUS  HZ I        2323 30.99       146.7 0.41                           101 175 
 PTB  HZ EP   1   2323 13.50                             133    -0.6 7  146 259 
 PTB  HN ES   1   2323 34.96                             133    -0.1 7  146 259 
 YOP  SZ EP   1   2323 17.58                             126     0.1 7  180 153 
 YOP  SE ES   1   2323 41.67                             126     0.7 7  180 153 
 YOP  SZ I        2323 42.61        55.9 0.26                           180 153 
 ZAR  HZ EP   1   2323 19.52                             123    -0.1 6  202 292 
 ZAR  HN ES   1   2323 44.82                             123     0.0 6  202 292 
 NOR  SZ EP   1   2323 22.85                             119     0.0 6  233 234 
 NOR  SN ES   1   2323 50.35                             119    -0.3 6  233 234 
 CHI  HZ EP   1   2323 25.17                             117     0.2 6  248 195 
 CHI  HZ I        2324  4.26        64.3 0.37                           248 195 
 HEL  HZ EP   1   2323 28.31                             115     1.0 6  270 256 
 HEL  HZ I        2324  4.51        65.2 0.30                           270 256 
 VIL  SZ EP   1   2323 30.30                             112    -0.4 5  303 191 
 VIL  SN ES   1   2324  3.96                             112    -0.6 5  303 191 
 VIL  SZ I        2324  9.89        36.4 0.75                           303 191 
 SDV  BZ EP   1   2323 36.40                             108    -1.2 5  362  50 
 SDV  BZ I        2323 37.73        10.9 0.31                           362  50 
 PRA  HZ EP   1   2323 40.72                             107     0.0 4  391 209 
 PRA  HN ES   1   2324 22.79                             107     0.4 4  391 209 
                                                                                
