 2010 10 5 2055 13.1 L   6.759 -73.097143.6  RSN 11 0.4 2.4LRSN                1
 GAP=164        0.75       3.9     6.3  6.0 -0.1180E+02  0.6183E+00  0.2789E+01E
 Epicentro: LOS SANTOS - SANTANDER                                             3
 ACTION:UP  11-02-18 11:07 OP:tino STATUS:               ID:20101005205513 L   I
 2010-10-05-2053-27S.COL___122                                                 6
 STAT SP IPHASW D HRMM SECON CODA AMPLIT PERI AZIMU VELO SNR AR TRES W  DIS CAZ7
 BAR2 SZ EP       2055 32.38                             171    -0.110   21 207 
 BAR2 SZ ES   1   2055 47.15                             171    -0.4 7   21 207 
 BAR2 SZ I        2055 48.74        55.4 0.38                            21 207 
 BRR  HZ IP     C 2055 34.38                             150    -0.110   78 300 
 BRR  HZ I        2055 34.65       143.1 0.16                            78 300 
 BRR  HN ES   1   2055 51.68                             150     0.6 7   78 300 
 RUS  HZ EP   1   2055 36.60                             145     0.3 7   96 179 
 RUS  HE ES   2   2055 54.57                             145     0.2 5   96 179 
 RUS  HZ I        2055 56.33        27.4 0.13                            96 179 
 GUE  SZ EP   1   2055 38.38                             138     0.5 7  120   9 
 GRA  SZ IP       2055 38.25                             136    -0.210  129  15 
 GRA  SZ ES   1   2055 58.03                             136    -0.1 7  129  15 
 GRA  SZ I        2055 58.97        30.6 0.29                           129  15 
 OCA  SZ EP   2   2055 41.03                             128    -0.7 5  165 352 
 OCA  SZ I        2056  8.81        35.4 0.37                           165 352 
 NOR  SZ EP   2   2055 48.67                             118    -0.3 4  237 236 
 NOR  SE ES   1   2056 16.17                             118    -0.7 6  237 236 
 CHI  HZ EP   2   2055 50.23                             117    -0.2 4  246 197 
 CHI  HZ I        2055 53.18        10.2 0.38                           246 197 
 CHI  HE ES   2   2056 19.54                             117     0.1 4  246 197 
 RREF HZ EP   2   2055 59.87                             110     0.6 3  323 231 
 RREF HZ I        2056 43.98        12.0 0.28                           323 231 
 TOL  SZ EP   1   2056  1.96                             109     0.6 5  344 226 
 PRA  HZ EP   2   2056  6.07                             106    -0.3 3  391 211 
 PRA  HN ES   2   2056 48.43                             106     0.4 3  391 211 
                                                                                
