 2010 10 5 2319 49.7 L   6.766 -73.058144.2  RSN  5 0.3 1.7LRSN                1
 GAP=169        0.78       6.3     8.3 13.3 -0.3001E+02 -0.5636E+02  0.4025E+02E
 Epicentro: LOS SANTOS - SANTANDER                                             3
 ACTION:UP  11-02-18 11:07 OP:tino STATUS:               ID:20101005231949 L   I
 2010-10-05-2316-35S.COL___122                                                 6
 STAT SP IPHASW D HRMM SECON CODA AMPLIT PERI AZIMU VELO SNR AR TRES W  DIS CAZ7
 BRR  HZ EP       2320 10.96                             149    -0.310   82 298 
 BRR  HZ I        2320 12.80        13.7 0.18                            82 298 
 BRR  HE ES   1   2320 28.11                             149     0.0 7   82 298 
 RUS  HZ EP       2320 12.91                             145    -0.110   97 182 
 RUS  HZ I        2320 32.81         4.4 0.27                            97 182 
 GUE  SZ EP       2320 14.91                             138     0.510  119   7 
 GRA  SZ EP   1   2320 14.51                             136    -0.3 7  127  13 
 GRA  SZ ES   2   2320 34.40                             136    -0.1 5  127  13 
 GRA  SZ I        2320 35.40         9.1 0.35                           127  13 
 NOR  SZ EP   2   2320 25.56                             117    -0.4 4  241 237 
 NOR  SN ES   1   2320 54.57                             117     0.3 6  241 237 
                                                                                
