 2013 11 5 2145 59.4 L   6.790 -73.174141.8  RSN  5 0.4 1.4LRSN                1
 GAP=133        1.13       5.9     5.7  8.3 -0.3097E+01  0.5932E+01  0.2316E+01E
 Epicentro: LOS SANTOS - SANTANDER                                             3
 ACTION:UPD 14-01-09 16:26 OP:ep   STATUS:               ID:20131105214559 L   I
 OLDACT:REG 13-11-05 22:26 OP:carl STATUS:               ID:20131105213848     3
 2013-11-05-2138-48M.COL___209                                                 6
 STAT SP IPHASW D HRMM SECON CODA AMPLIT PERI AZIMU VELO AIN AR TRES W  DIS CAZ7
 BAR2 SZ EP       2146 18.55                             171    0.0010 21.8 182 
 BAR2 SZ ES       2146 32.84                             171   -0.6210 21.8 182 
 BAR2 SZ I        2146 34.48         9.5 0.38            171           21.8 182 
 BRR  HZ EP       2146 20.41                             152    0.3910 69.1 301 
 BRR  HN ES       2146 36.87                             152    0.7810 69.1 301 
 PAM  SZ EP       2146 21.38                             149   -0.0210 80.3  41 
 PAM  SN ES       2146 38.23                             149   -0.3110 80.3  41 
 PAM  SZ I        2146 40.94         4.5 0.72            151           80.3  41 
 RUS  HZ EP       2146 22.86                             143    0.1410 99.7 174 
 RUS  HN ES       2146 41.32                             143    0.4310 99.7 174 
 RUS  HZ I        2146 42.60         3.2 0.26            145           99.7 174 
 PTB  HZ EP       2146 25.32                             132   -0.45 9  144 259 
 PTB  HN ES       2146 45.87                             132   -0.45 9  144 259 
 PTB  HZ I        2146 48.89         2.9 0.16            133            144 259 
                                                                                
