 2013  2 5 2359 36.7 L   6.865 -73.330123.2  RSN  7 0.4 2.0LRSN                1
 GAP= 99        1.14       3.5     6.6  7.1 -0.1520E+01  0.1021E+02  0.2993E+01E
 Epicentro: BETULIA - SANTANDER                                                3
 ACTION:UPD 13-03-12 09:30 OP:ep   STATUS:               ID:20130205235936 L   I
 2013-02-05-2348-42M.COL___184                                                 6
 STAT SP IPHASW D HRMM SECON CODA AMPLIT PERI AZIMU VELO AIN AR TRES W  DIS CAZ7
 BAR2 SZ EP       2359 54.18                             164    0.2410 34.3 152 
 BAR2 SZ ES       24 0  6.84                             164   -0.5510 34.3 152 
 BAR2 SZ I        24 0  8.50        49.7 0.46            167           34.3 152 
 BRR  HZ EP       2359 54.66                             156    0.4310 49.9 302 
 BRR  HN ES       24 0  8.53                             156    0.6110 49.9 302 
 BRR  HN I        24 0 14.45        51.1 0.18            155           49.9 302 
 PAM  SZ EP       2359 57.59                             143    0.3410 87.2  53 
 PAM  SN ES       24 0 13.60                             143    0.3010 87.2  53 
 PAM  SZ I        24 0 15.81        14.2 0.30            147           87.2  53 
 RUS  HZ EP       2359 59.00                             136   -0.1610  111 166 
 RUS  HN ES       24 0 16.27                             136   -0.4210  111 166 
 PTB  HZ EP       2359 59.52                             130   -0.6610  130 254 
 OCA  HZ EP       24 0  2.06                             126   -0.45 9  152   0 
 OCA  HN ES       24 0 22.21                             126   -0.44 9  152   0 
 CHI  HZ EP       24 0 14.11                             112    0.58 8  251 190 
 CHI  HZ I        24 0 14.52         3.0 0.40            115            251 190 
 CHI  HN ES       24 0 42.60                             112    0.33 8  251 190 
                                                                                
