 2015  1 5 2230 34.8 L   6.820 -73.146139.5  RSN 11 0.5 2.0LRSN                1
 GAP= 70        1.29       3.6     3.8  6.9 -0.1426E+00  0.5065E+01 -0.4480E+00E
 Epicentro: LOS SANTOS - SANTANDER                                             3
 ACTION:UPD 15-03-02 15:37 OP:nd   STATUS:               ID:20150105223034 L   I
 OLDACT:REG 15-01-06 05:07 OP:stll STATUS:               ID:20150105222744     3
 2015-01-05-2227-44M.COL___271                                                 6
 STAT SP IPHASW D HRMM SECON CODA AMPLIT PERI AZIMU VELO AIN AR TRES W  DIS CAZ7
 BAR2 EZ EP       2230 53.94                             169    0.2610 25.5 189 
 BAR2 EZ ES       2231  8.31                             169   -0.1310 25.5 189 
 BAR2 EZ I        2231 10.92        17.2 0.26            170           25.5 189 
 BRR  HZ EP       2230 55.77                             152    0.6010 70.2 297 
 BRR  HZ I        2230 56.06        32.5 0.24            152           70.2 297 
 BRR  HN ES       2231 11.91                             152    0.8210 70.2 297 
 PAM  SZ EP       2230 56.12                             150   -0.0910 75.7  41 
 PAM  SN ES       2231 13.07                             150    0.1310 75.7  41 
 PAM  SZ I        2231 15.93        19.0 0.36            153           75.7  41 
 RUS  HZ EP       2230 58.05                             142   -0.0110  103 176 
 RUS  HN ES       2231 16.14                             142   -0.0910  103 176 
 RUS  HZ I        2231 19.52         5.8 0.32            144            103 176 
 PTB  HZ EP       2231  0.82                             130   -0.43 9  148 258 
 PTB  HE ES       2231 22.17                             130    0.24 9  148 258 
 PTB  HZ I        2231 24.28        13.1 0.10            132            148 258 
 TAM  HZ EP       2231  1.80                             129   -0.20 9  156 106 
 TAM  HN ES       2231 23.38                             129    0.13 9  156 106 
 OCA  HN ES       2231 23.18                             129   -0.75 9  158 353 
 OCA  HZ I        2231 27.14        10.8 0.32            131            158 353 
 SPBC HZ EP       2231  3.25                             127    0.31 9  165 219 
 SPBC HN ES       2231 23.76                             127   -1.17 9  165 219 
 SPBC HZ I        2231 29.54        12.9 0.30            129            165 219 
 ZAR  HZ EP       2231  7.63                             121    0.92 9  203 292 
 ZAR  HN ES       2231 31.77                             121    0.13 9  203 292 
 ZAR  HZ I        2231 38.15        12.4 0.36            123            203 292 
 NOR  HZ EP       2231 10.55                             117    0.29 8  236 234 
 NOR  HN ES       2231 37.60                             117   -0.36 8  236 234 
 NOR  HZ I        2231 41.10         7.2 0.22            119            236 234 
 SML  HZ EP       2231 10.91                             116    0.09 8  242 335 
 SML  HN ES       2231 37.82                             116   -1.13 8  242 335 
 SML  HZ I        2231 41.17         8.4 0.10            118            242 335 
                                                                                
