 2012  9 5 2229 53.7 L   6.778 -73.147146.6  RSN  9 0.3 2.1LRSN                1
 GAP=137        0.67       3.3     3.5  5.1 -0.1378E+01  0.2483E+01  0.4422E+01E
 Epicentro: LOS SANTOS - SANTANDER                                             3
 ACTION:UPD 12-10-22 14:17 OP:ep   STATUS:               ID:20120905222953 L   I
 2012-09-05-2230-00M.COL___218                                                 6
 STAT SP IPHASW D HRMM SECON CODA AMPLIT PERI AZIMU VELO AIN AR TRES W  DIS CAZ7
 BAR2 SZ EP       2230 13.27                             171   -0.0910 21.0 191 
 BAR2 SZ ES   1   2230 28.78                             171    0.07 7 21.0 191 
 BAR2 SZ I        2230 31.25        43.6 0.31                          21.0 191 
 GIR2 SZ EP   1   2230 13.27                             166   -0.24 7 33.6 351 
 GIR2 SZ ES   1   2230 28.99                             166    0.01 7 33.6 351 
 BRR  HZ EP       2230 15.16                             152    0.1910 72.3 300 
 BRR  HZ I        2230 15.62        28.5 0.13                          72.3 300 
 BRR  HN ES   1   2230 32.38                             152    0.79 7 72.3 300 
 PAM  SZ EP       2230 16.05                             150   -0.0410 79.3  38 
 PAM  SZ I        2230 16.29        42.5 0.21                          79.3  38 
 PAM  SN ES   1   2230 33.45                             150   -0.13 7 79.3  38 
 RUS  HZ EP   1   2230 17.26                             145   -0.08 7 98.2 176 
 RUS  HN ES   1   2230 35.44                             145   -0.36 7 98.2 176 
 RUS  HZ I        2230 37.11        11.2 0.24                          98.2 176 
 PTB  HN ES   1   2230 41.09                             132   -0.62 7  147 260 
 ZAR  HN ES   1   2230 51.44                             122   -0.23 6  205 293 
 ZAR  HZ I        2230 57.67        12.7 0.25                           205 293 
 NOR  SZ EP   1   2230 29.42                             119    0.13 6  233 235 
 NOR  SN ES   1   2230 56.90                             119   -0.18 6  233 235 
 NOR  SZ I        2231  1.08        10.8 0.22                           233 235 
 CHI  HZ EP   1   2230 31.39                             118    0.23 6  246 195 
 CHI  HN ES   1   2231  1.06                             118    0.65 6  246 195 
 CHI  HZ I        2231  8.98         5.4 0.29                           246 195 
                                                                                
