 2011  3 5 2119 10.8 L   6.800 -73.092144.2  RSN 14 0.4 2.6LRSN                1
 GAP=105        0.75       2.7     4.7  6.0 -0.3774E+01  0.7520E+01 -0.1987E+00E
 Epicentro: LOS SANTOS - SANTANDER                                             3
 ACTION:UP  11-06-16 14:31 OP:jfem STATUS:               ID:20110305211910 L   I
 2011-03-05-2117-41S.COL___135                                                 6
 STAT SP IPHASW D HRMM SECON CODA AMPLIT PERI AZIMU VELO SNR AR TRES W  DIS CAZ7
 BAR2 SZ IP       2119 30.18                             170    -0.110   25 204 
 BAR2 SZ I        2119 30.73        64.1 0.25                            25 204 
 BAR2 SZ ES   2   2119 45.05                             170    -0.4 5   25 204 
 RUS  HZ EP       2119 34.10                             143    -0.310  100 179 
 RUS  HN ES   1   2119 52.73                             143     0.0 7  100 179 
 GUE  SZ EP   1   2119 35.18                             139    -0.1 7  115   9 
 GRA  SZ IP       2119 35.80                             137     0.110  124  15 
 GRA  SZ ES   1   2119 55.18                             137     0.0 7  124  15 
 GRA  SZ I        2119 56.58        43.4 0.33                           124  15 
 OCA  SZ EP       2119 39.39                             129     0.4 9  161 351 
 OCA  SZ ES   2   2120  1.48                             129     0.4 5  161 351 
 OCA  SZ I        2120  4.26        66.3 0.34                           161 351 
 YOP  SZ EP       2119 40.88                             126     0.4 9  176 155 
 YOP  SN ES   2   2120  4.33                             126     0.7 4  176 155 
 CHI  HZ EP       2119 48.58                             117     0.0 8  250 196 
 CHI  HN ES   2   2120 17.71                             117    -0.3 4  250 196 
 CHI  HZ I        2120 27.37         9.0 0.36                           250 196 
 HEL  HZ EP       2119 51.81                             114     0.3 7  278 256 
 HEL  HN ES   2   2120 22.74                             114    -0.6 4  278 256 
 HEL  HZ I        2120 29.73        18.3 0.30                           278 256 
 GUY  SZ EP   3   2119 56.47                             112     1.6 2  306 235 
 GUY  SZ I        2120 38.09        44.1 0.39                           306 235 
 RREF HZ EP   1   2119 57.94                             110     0.6 5  326 230 
 RREF HN ES   1   2120 33.83                             110     0.1 5  326 230 
 RREF HZ I        2120 37.48        15.2 0.60                           326 230 
 DBB  SZ EP   2   2119 57.92                             109    -0.9 3  345 274 
 TOL  SZ EP   1   2119 58.89                             109    -0.6 5  348 225 
 SDV  BZ EP       2119 59.39                             108    -0.8 6  356  50 
 PRA  HZ EP   1   2120  4.43                             106    -0.2 4  395 210 
 PRA  HN ES   3   2120 45.41                             106    -1.2 1  395 210 
 PRA  HZ I        2120 49.74        22.5 0.22                           395 210 
                                                                                
