 2015  8 5 2005 44.4 L   6.722 -73.111136.1  RSN  5 0.3 1.6LRSN                1
 GAP=144        0.84       4.2     5.6  6.2 -0.7856E+00  0.5946E+01  0.8583E+00E
 Epicentro: JORDAN - SANTANDER                                                 3
 ACTION:UPD 15-09-15 23:00 OP:cam  STATUS:               ID:20150805200544 L   I
 OLDACT:REG 15-08-06 04:16 OP:stll STATUS:               ID:20150805195749     3
 2015-08-05-1957-49M.COL___358                                                 6
 STAT SP IPHASW D HRMM SECON CODA AMPLIT PERI AZIMU VELO AIN AR TRES W  DIS CAZ7
 BAR2 EZ IP     D 20 6  3.15                             173    0.4010 16.4 209 
 BAR2 EZ ES       20 6 16.67                             173   -0.3910 16.4 209 
 BAR2 EZ I        20 6 19.10        12.2 0.16            172           16.4 209 
 BRR  HZ EP       20 6  5.00                             148    0.0010 78.9 303 
 BRR  HN ES       20 6 21.48                             148    0.4210 78.9 303 
 PAM  EZ EP       20 6  6.00                             147    0.1010 82.0  34 
 PAM  EZ I        20 6  6.23        12.1 0.26            148           82.0  34 
 PAM  EN ES       20 6 22.44                             147   -0.2310 82.0  34 
 RUS  HZ EP       20 6  6.69                             144    0.1110 91.8 178 
 RUS  HZ I        20 6  8.18         4.3 0.16            144           91.8 178 
 RUS  HN ES       20 6 23.97                             144    0.1010 91.8 178 
 CPBEREZ EP       20 6 10.25                             129   -0.58 9  150 262 
                                                                                
