 2011 12 5 2039 51.3 L   6.859 -73.183149.2  RSN  4 0.3 1.2LRSN                1
 GAP=177        0.58       5.6    15.1  7.4 -0.5016E+02  0.2099E+02 -0.6282E+00E
 Epicentro: ZAPATOCA - SANTANDER                                               3
 ACTION:UPD 12-07-13 16:14 OP:ep   STATUS:               ID:20111205203951 L   I
 2011-12-05-2040-00M.COL___183                                                 6
 STAT SP IPHASW D HRMM SECON CODA AMPLIT PERI AZIMU VELO AIN AR TRES W  DIS CAZ7
 GIR2 SZ EP   2   2040 10.90                             170   -0.30 5 24.3 357 
 GIR2 SZ ES   2   2040 27.09                             170    0.36 5 24.3 357 
 BAR2 SZ EP   1   2040 11.02                             168   -0.44 7 29.5 180 
 BAR2 SZ ES   2   2040 27.31                             168    0.11 5 29.5 180 
 BAR2 SZ I        2040 27.80         3.5 0.35                          29.5 180 
 PAM  SZ EP   1   2040 13.92                             152    0.18 7 75.3  45 
 PAM  SZ I        2040 14.16         1.5 0.26                          75.3  45 
 PAM  SN ES   1   2040 31.16                             152   -0.10 7 75.3  45 
 RUS  HZ EP   1   2040 16.34                             142    0.47 7  107 174 
 RUS  HN ES   1   2040 34.87                             142   -0.18 7  107 174 
 RUS  HZ I        2040 35.15         4.7 0.44                           107 174 
                                                                                
