 2011  5 5 2000 40.6 L   6.768 -73.109146.5  RSN 10 0.3 2.6LRSN                1
 GAP=143        0.69       3.4     4.4  4.9 -0.8282E+01  0.5879E+01  0.1514E+01E
 Epicentro: LOS SANTOS - SANTANDER                                             3
 ACTION:UP  11-06-29 08:51 OP:tino STATUS:               ID:20110505200040 L   I
 2011-05-05-1959-36S.COL___132                                                 6
 STAT SP IPHASW D HRMM SECON CODA AMPLIT PERI AZIMU VELO SNR AR TRES W  DIS CAZ7
 BAR2 SZ EP   1   20 1  0.25                             171     0.0 8   21 203 
 BAR2 SZ ES   1   20 1 15.76                             171     0.2 8   21 203 
 BAR2 SZ I        20 1 19.35        48.4 0.38                            21 203 
 BRR  HZ EP   1   20 1  1.98                             151    -0.1 8   76 299 
 BRR  HZ I        20 1  3.77       105.2 0.13                            76 299 
 BRR  HE ES   1   20 1 19.37                             151     0.5 8   76 299 
 PAM  SZ EP   1   20 1  3.05                             151     0.2 8   78  36 
 PAM  SE ES   1   20 1 19.92                             151    -0.3 8   78  36 
 RUS  HZ EP   1   20 1  4.07                             145     0.0 8   97 178 
 RUS  HN ES   1   20 1 22.22                             145    -0.3 8   97 178 
 RUS  HZ I        20 1 23.84        41.2 0.33                            97 178 
 BRI  SZ EP   1   20 1  4.83                             141     0.2 8  110  18 
 BRI  SZ ES   1   20 1 23.30                             141    -0.2 8  110  18 
 BRI  SZ I        20 1 25.49        64.6 0.17                           110  18 
 GRA  SZ IP       20 1  6.08                             137     0.010  128  15 
 GRA  SZ ES   1   20 1 25.82                             137    -0.1 7  128  15 
 GRA  SZ I        20 1 28.72        75.5 0.28                           128  15 
 NOR  SZ EP   1   20 1 16.27                             118    -0.2 6  236 236 
 NOR  SN ES   1   20 1 44.81                             118     0.3 6  236 236 
 HEL  HZ EP   1   20 1 21.47                             115     0.3 6  275 257 
 HEL  HN ES   1   20 1 51.57                             115    -1.2 6  275 257 
 RREF HZ EP   1   20 1 26.94                             111     0.1 5  323 230 
 RREF HN ES   1   20 2  3.30                             111     0.4 5  323 230 
 RREF HZ I        20 2  9.64        32.6 0.30                           323 230 
 PRA  HZ EP   1   20 1 34.01                             107     0.0 5  391 210 
 PRA  HE ES   1   20 2 15.71                             107     0.1 5  391 210 
                                                                                
