 2010  7 5 2058 50.2 L   6.788 -73.158143.2  RSN 11 0.4 2.1LRSN                1
 GAP=154        0.81       3.4     6.5  6.2 -0.5699E+01 -0.1968E+01 -0.2673E+01E
 Epicentro: LOS SANTOS - SANTANDER                                             3
 ACTION:UPD 10-12-01 15:15 OP:pat  STATUS:               ID:20100705205850 L   I
 2010-07-05-2056-33S.COL___117                                                 6
 STAT SP IPHASW D HRMM SECON CODA AMPLIT PERI AZIMU VELO AIN AR TRES W  DIS CAZ7
 BAR2 SZ IP       2059  9.72                             171     0.210   22 188 
 BAR2 SZ ES   1   2059 23.94                             171    -0.6 7   22 188 
 BRR  HZ IP     D 2059 11.46                             152     0.410   71 300 
 BRR  HN ES   1   2059 27.91                             152     0.6 7   71 300 
 RUS  HZ EP       2059 13.76                             144     0.110   99 175 
 RUS  HE ES   1   2059 31.85                             144     0.0 7   99 175 
 RUS  HZ I        2059 34.62        12.2 0.36                            99 175 
 BRI  SZ IP       2059 14.21                             140     0.210  110  21 
 BRI  SZ ES   2   2059 32.77                             140     0.2 5  110  21 
 BRI  SZ I        2059 37.84        18.5 0.63                           110  21 
 GUE  SZ EP       2059 14.70                             138    -0.110  118  13 
 GRA  SZ IP       2059 15.50                             136     0.110  127  18 
 GRA  SZ ES   1   2059 34.51                             136    -0.5 7  127  18 
 OCA  SZ EP       2059 18.12                             129    -0.3 9  161 354 
 OCA  SZ ES   2   2059 39.92                             129    -0.5 5  161 354 
 OCA  SZ I        2059 44.66        22.4 0.35                           161 354 
 CHI  HZ EP   2   2059 26.86                             117    -0.7 4  247 195 
 CHI  HN ES   3   2059 56.10                             117    -0.7 2  247 195 
 CHI  HZ I        21 0  0.01         5.9 0.32                           247 195 
 ROSC BE ES   3   2059 57.03                             116    -0.4 2  251 211 
 ROSC BZ I        21 0  3.15         6.6 0.68                           251 211 
 HEL  HZ EP   3   2059 30.44                             114     0.3 2  270 256 
 HEL  HN ES   2   21 0  0.58                             114    -0.7 4  270 256 
 HEL  HZ I        21 0  9.00         7.4 0.27                           270 256 
 PRA  HZ EP   2   2059 42.94                             106    -0.5 3  390 209 
 PRA  HZ I        21 0 31.20         5.6 0.83                           390 209 
                                                                                
