 2013  6 5 2233 26.5 L   6.806 -73.099141.9  RSN  7 0.6 2.4LRSN                1
 GAP=142        1.49       6.0     8.2 10.2 -0.3872E+01  0.1438E+02  0.4255E+01E
 Epicentro: LOS SANTOS - SANTANDER                                             3
 ACTION:UPD 14-01-08 09:52 OP:ep   STATUS:               ID:20130605223326 L   I
 OLDACT:UP  13-07-15 10:33 OP:ep   STATUS:               ID:20130605223326 L   3
 OLDACT:DUP 13-06-06 01:07 OP:stll STATUS:               ID:20130605222846d    3
 2013-06-05-2228-44M.COL___225                                                 6
 STAT SP IPHASW D HRMM SECON CODA AMPLIT PERI AZIMU VELO AIN AR TRES W  DIS CAZ7
 BAR2 SZ EP       2233 45.63                             169   -0.1010 25.3 201 
 BAR2 SZ ES       2234  1.04                             169    0.3310 25.3 201 
 BAR2 SZ I        2234  3.27        30.1 0.30            170           25.3 201 
 GIR2 SZ EP       2233 45.00                             167   -0.7510 31.9 341 
 GIR2 SZ ES       2233 59.47                             167   -1.2810 31.9 341 
 PAM  SZ EP       2233 48.42                             151    0.3210 73.7  37 
 PAM  SZ I        2233 48.70        37.9 0.22            153           73.7  37 
 PAM  SN ES       2234  5.67                             151    0.7310 73.7  37 
 BRR  HZ EP       2233 47.81                             150    0.3110 75.5 296 
 BRR  HN ES       2234  4.63                             150    0.7610 75.5 296 
 BRR  HE I        2234  8.46        51.6 0.20            150           75.5 296 
 RUS  HZ EP       2233 49.98                             143    0.0610  101 179 
 RUS  HN ES       2234  8.05                             143   -0.1210  101 179 
 RUS  HE I        2234  9.22        38.4 0.48            146            101 179 
 PTB  HN ES   4   2234 13.65                             130   -1.17 0  153 259 
 OCA  HN ES       2234 16.09                             129   -0.30 9  160 351 
 OCA  HE I        2234 19.88       108.8 0.20            130            160 351 
 HEL  HN ES       2234 38.75                             113   -0.03 7  277 256 
 SOCV BZ EP   4   2234  7.54                             112   -1.33 0  297  56 
 GUY2CHN ES   4   2234 45.52                             111    0.76 0  306 235 
                                                                                
