 2016 10 5 2203 14.2 L   6.777 -73.147139.1  RSN  6 0.3 1.6LRSN                1
 GAP=137        0.69       3.6     3.1  5.0 -0.2140E+00  0.5239E+01 -0.3285E+01E
 Epicentro: LOS SANTOS - SANTANDER                                             3
 ACTION:UPD 16-11-09 19:16 OP:rebc STATUS:               ID:20161005220314 L   I
 OLDACT:REG 16-10-06 05:55 OP:cara STATUS:               ID:20161005215740     3
 2016-10-05-2158-00M.COL___360                                                 6
 STAT SP IPHASW D HRMM SECON CODA AMPLIT PERI AZIMU VELO AIN AR TRES W  DIS CAZ7
 BAR2 EZ IP       22 3 33.01                             171   -0.0110 20.8 191 
 BAR2 EZ ES       22 3 47.52                             171   -0.1510 20.8 191 
 BAR2 EZ I        22 3 48.87         4.3 0.34            172           20.8 191 
 BRR  HZ EP       22 3 34.71                             151   -0.0310 72.3 300 
 BRR  HN ES       22 3 51.02                             151    0.2910 72.3 300 
 BRR  HZ I        22 3 55.69        13.1 0.16            150           72.3 300 
 PAM  EZ EP       22 3 36.01                             149    0.1310 79.4  38 
 PAM  EE ES       22 3 52.52                             149   -0.2410 79.4  38 
 PAM  EZ I        22 3 54.78         8.1 0.44            152           79.4  38 
 RUS  HE ES       22 3 55.33                             143    0.3010 98.1 176 
 RUS  HZ I        22 3 57.04         4.2 0.40            147           98.1 176 
 PTB  HZ EP       22 3 40.13                             131   -0.49 9  147 260 
 PTB  HN ES       22 4  0.91                             131   -0.28 9  147 260 
 PTB  HZ I        22 4  3.38         4.5 0.10            132            147 260 
 ZAR  HZ EP       22 3 46.73                             121    0.38 9  205 293 
 ZAR  HN ES       22 4 11.55                             121    0.16 9  205 293 
 ZAR  HZ I        22 4 16.86         7.8 0.22            122            205 293 
                                                                                
