 2017 10 5 2005 39.8 L   6.815 -73.161134.2  RSN  6 0.5 1.8LRSN                1
 GAP=167        1.21       6.7     9.0  8.9 -0.3840E+02  0.2725E+02  0.5539E+00E
 Epicentro: LOS SANTOS - SANTANDER                                             3
 ACTION:UPD 17-11-07 19:28 OP:rebc STATUS:               ID:20171005200539 L   I
 OLDACT:UP  17-10-06 03:11 OP:dani STATUS:               ID:20171005195740     3
 OLDACT:REG 17-10-06 02:47 OP:dani STATUS:               ID:20171005195740     3
 2017-10-05-1958-00M.COL___447                                                 6
 STAT SP IPHASW D HRMM SECON CODA AMPLIT PERI AZIMU VELO AIN AR TRES W  DIS CAZ7
 BAR2 EZ EP     C 20 5 57.91                             169   -0.1410 24.7 185 
 BAR2 EZ ES       20 6 11.99                             169   -0.3110 24.7 185 
 BAR2 EZ I        20 6 13.72        21.3 0.24            167           24.7 185 
 PAM  EZ EP       20 6  0.93                             148    0.1710 77.2  41 
 PAM  EN ES       20 6 17.67                             148    0.5310 77.2  41 
 PAM  EZ I        20 6 18.31        15.5 0.36            150           77.2  41 
 RUS  HZ EP       20 6  1.85                             141   -0.6910  102 175 
 RUS  HE ES       20 6 20.07                             141   -0.2310  102 175 
 RUS  HZ I        20 6 21.15         8.1 0.24            140            102 175 
 SPBC HN ES       20 6 28.84                             126   -0.17 9  163 218 
 NOR  HZ EP       20 6 14.50                             116   -0.31 8  234 234 
 NOR  HN ES       20 6 42.44                             116    0.30 8  234 234 
 NOR  HZ I        20 6 43.80         7.4 0.16            116            234 234 
 CHI  HZ EP       20 6 16.96                             114   -0.03 8  250 195 
 CHI  HN ES       20 6 47.36                             114    1.35 8  250 195 
 CHI  HZ I        20 6 51.09         2.1 0.25            115            250 195 
                                                                                
