 2012 12 5 2030 31.8 L   6.814 -73.189141.7  RSN  9 0.2 2.3LRSN                1
 GAP=130        0.57       2.8     2.8  3.9 -0.2203E+01  0.3203E+01  0.1483E+01E
 Epicentro: ZAPATOCA - SANTANDER                                               3
 ACTION:UPD 13-01-04 14:25 OP:ep   STATUS:               ID:20121205203031 L   I
 2012-12-05-2030-00M.COL___237                                                 6
 STAT SP IPHASW D HRMM SECON CODA AMPLIT PERI AZIMU VELO AIN AR TRES W  DIS CAZ7
 BAR2 SZ EP       2030 51.23                             170    0.2110 24.5 178 
 BAR2 SZ ES       2031  6.19                             170    0.2210 24.5 178 
 BAR2 SZ I        2031  7.86        79.2 0.21                          24.5 178 
 GIR2 SZ EP       2030 51.24                             168    0.2510 29.3 359 
 PAM  SZ EP       2030 54.04                             149    0.2810 79.4  43 
 PAM  SZ I        2030 54.46        44.3 0.19                          79.4  43 
 PAM  SE ES       2031 10.38                             149   -0.4710 79.4  43 
 RUS  HZ EP       2030 55.26                             142   -0.0910  103 173 
 RUS  HN ES       2031 13.54                             142   -0.1410  103 173 
 RUS  HN I        2031 15.78        53.2 0.27                           103 173 
 PTB  HZ EP       2030 58.02                             132   -0.06 9  143 258 
 PTB  HE ES       2031 18.48                             132   -0.07 9  143 258 
 ZAR  HN ES   2   2031 27.77                             122   -0.43 4  199 292 
 ZAR  HZ I        2031 34.98        13.9 0.29                           199 292 
 NOR  HZ EP   1   2031  7.04                             118    0.02 6  232 233 
 NOR  HE ES   1   2031 34.72                             118    0.26 6  232 233 
 NOR  HZ I        2031 39.41         9.1 0.22                           232 233 
 CHI  HZ EP       2031  9.23                             116   -0.12 8  249 194 
 PRA  HZ EP   1   2031 24.74                             106   -0.37 4  391 209 
 PRA  HN ES   1   2032  6.57                             106   -0.09 4  391 209 
 PRA  HZ I        2032 13.49         6.9 0.46                           391 209 
                                                                                
