 2011  7 5 2135 48.6 L   6.769 -73.151148.0  RSN  6 0.4 1.3LRSN                1
 GAP=137        0.80       6.5     8.0  9.8 -0.3826E+01 -0.7720E+01  0.1745E+02E
 Epicentro: LOS SANTOS - SANTANDER                                             3
 ACTION:UPD 12-07-25 13:58 OP:epov STATUS:               ID:20110705213548 L   I
 2011-07-05-2130-34S.COL___123                                                 6
 STAT SP IPHASW D HRMM SECON CODA AMPLIT PERI AZIMU VELO AIN AR TRES W  DIS CAZ7
 BAR2 SZ ES   3   2136 22.81                             172   -1.12 2 19.9 190 
 BAR2 SZ I        2136 24.77         7.6 0.26                          19.9 190 
 BTL  SZ EP       2136  9.04                             172    0.5610 20.9 322 
 BRR  HZ EP       2136  9.52                             153   -0.5610 72.4 301 
 BRR  HN ES   1   2136 27.08                             153    0.27 7 72.4 301 
 PAM  SZ EP       2136 11.27                             150    0.0110 80.4  38 
 PAM  SN ES   1   2136 28.82                             150   -0.09 7 80.4  38 
 RUS  HZ EP       2136 12.37                             145    0.0210 97.2 176 
 RUS  HZ I        2136 13.41         1.7 0.18                          97.2 176 
 RUS  HN ES   2   2136 30.76                             145   -0.11 5 97.2 176 
 BRI  SZ EP   3   2136 12.26                             141   -0.72 2  112  20 
                                                                                
