 2013  2 5 2234 28.1 L   6.770 -73.142149.0  RSN  5 0.5 2.0LRSN                1
 GAP=138        1.19       6.5     6.3  8.7 -0.3865E+01  0.6433E+01  0.2195E+01E
 Epicentro: LOS SANTOS - SANTANDER                                             3
 ACTION:UPD 13-03-12 09:30 OP:ep   STATUS:               ID:20130205223428 L   I
 2013-02-05-2228-51M.COL___191                                                 6
 STAT SP IPHASW D HRMM SECON CODA AMPLIT PERI AZIMU VELO AIN AR TRES W  DIS CAZ7
 BAR2 SZ EP       2234 48.12                             172    0.0710 20.2 193 
 BAR2 SZ I        2234 48.21        22.9 0.40            175           20.2 193 
 BAR2 SZ ES       2235  3.51                             172   -0.1110 20.2 193 
 BRR  HZ IP     C 2234 50.14                             152    0.4410 73.2 301 
 BRR  HN ES       2235  7.38                             152    0.8210 73.2 301 
 BRR  HN I        2235 10.83        41.1 0.18            152           73.2 301 
 PAM  SZ EP       2234 50.95                             151    0.1610 79.7  38 
 PAM  SN ES       2235  7.81                             151   -0.6810 79.7  38 
 PAM  SN I        2235 10.83         9.3 0.24            151           79.7  38 
 RUS  HZ EP       2234 51.95                             145    0.0210 97.3 176 
 RUS  HE ES       2235 10.75                             145    0.2310 97.3 176 
 PTB  HZ EP       2234 54.96                             133   -0.35 9  148 260 
 PTB  HN ES       2235 15.80                             133   -0.74 9  148 260 
                                                                                
