 2016  1 5 2329 36.2 L   6.189 -73.651106.8  RSN  5 0.3 1.5LRSN                1
 GAP= 99        0.54       3.0     4.4  9.1  0.4430E+01  0.2012E+02  0.1533E+01E
 Epicentro: LA PAZ - SANTANDER                                                 3
 ACTION:UPD 16-03-09 23:23 OP:cam  STATUS:               ID:20160105232936 L   I
 OLDACT:REG 16-01-06 04:00 OP:dnl  STATUS:               ID:20160105232748     3
 2016-01-05-2327-48M.COL___267                                                 6
 STAT SP IPHASW D HRMM SECON CODA AMPLIT PERI AZIMU VELO AIN AR TRES W  DIS CAZ7
 BAR2 EZ EP   2   2329 53.89                             145    0.41 5 68.3  49 
 BAR2 EZ ES   2   2330  6.64                             145   -0.28 5 68.3  49 
 BAR2 EZ I        2330  9.76        17.2 0.39            159           68.3  49 
 RUS  HZ EP   2   2329 54.52                             144    0.50 5 70.9 118 
 RUS  HE ES   2   2330  7.50                             144   -0.38 5 70.9 118 
 RUS  HZ I        2330 10.35         4.1 0.27            156           70.9 118 
 SPBC HZ EP       2329 53.98                             142    0.1910 75.5 218 
 SPBC HE ES   2   2330  7.76                             142    0.28 5 75.5 218 
 SPBC HZ I        2330 13.52        11.1 0.07            147           75.5 218 
 CHI  HZ EP   2   2330  3.26                             117   -0.27 4  173 183 
 CHI  HN ES   2   2330 24.17                             117   -0.65 4  173 183 
 CHI  HZ I        2330 27.13         2.3 0.26            126            173 183 
 ZAR  HZ EP   3   2330  5.28                             113   -0.35 2  196 317 
 ZAR  HE ES       2330 28.39                             113   -0.16 9  196 317 
 ZAR  HZ I        2330 30.54         3.0 0.06            123            196 317 
                                                                                
