 2017  4 5 2058 23.5 L   6.850 -73.294142.8  RSN  4 0.1 1.3LRSN                1
 GAP=155        0.44       2.8     2.7  4.3 -0.2494E+01  0.7512E+00 -0.4190E+00E
 Epicentro: ZAPATOCA - SANTANDER                                               3
 ACTION:UPD 17-05-30 21:08 OP:jn   STATUS:               ID:20170405205823 L   I
 OLDACT:DUP 17-04-06 07:24 OP:lv   STATUS:               ID:20170405204745d    3
 2017-04-05-2048-00M.COL___368                                                 6
 STAT SP IPHASW D HRMM SECON CODA AMPLIT PERI AZIMU VELO AIN AR TRES W  DIS CAZ7
 BAR2 EZ ES       2058 58.40                             167    0.2310 31.1 157 
 BAR2 EZ I        2058 59.67         5.7 0.17            170           31.1 157 
 PAM  EZ EP       2058 46.00                             148    0.0810 85.1  50 
 PAM  EN ES       2059  3.23                             148   -0.1510 85.1  50 
 PAM  EZ I        2059  5.76         2.9 0.44            150           85.1  50 
 RUS  HZ EP       2058 47.63                             141    0.0410  108 168 
 RUS  HN ES       2059  6.20                             141   -0.1410  108 168 
 RUS  HZ I        2059  7.18         2.2 0.35            144            108 168 
 PTB  HN ES       2059  8.70                             134   -0.0610  133 255 
 PTB  HZ I        2059 12.45         3.1 0.07            135            133 255 
                                                                                
