 2011  1 5 2248  8.9 L   6.502 -73.590104.5  RSN  4 0.2 1.7LRSN                1
 GAP=204        0.50       5.1     4.9  8.0 -0.5044E+01  0.2440E+02  0.9243E+01E
 Epicentro: SANTA HELENA DEL OPON - SANTANDER                                  3
 ACTION:UP  11-02-08 08:38 OP:pat  STATUS:               ID:20110105224808 L   I
 2011-01-05-2240-00M.COL___121                                                 6
 STAT SP IPHASW D HRMM SECON CODA AMPLIT PERI AZIMU VELO SNR AR TRES W  DIS CAZ7
 BAR2 SZ EP       2248 24.46                             155    -0.110   46  78 
 BAR2 SZ ES   1   2248 36.90                             155     0.2 7   46  78 
 BAR2 SZ I        2248 38.04        46.3 0.42                            46  78 
 RUS  HZ EP       2248 27.60                             138    -0.210   88 140 
 RUS  HN ES   2   2248 42.30                             138    -0.2 5   88 140 
 RUS  HZ I        2248 44.39         3.6 0.15                            88 140 
 NOR  SZ EP       2248 36.10                             116     0.2 9  176 234 
 NOR  SN ES   2   2248 56.64                             116    -0.4 4  176 234 
 CHI  HN ES   2   2249  4.66                             112     0.5 4  208 184 
                                                                                
