 2014  9 5 2205  7.7 L   6.780 -73.178140.2  RSN 13 0.5 2.0LRSN                1
 GAP=133        1.13       3.0     4.2  5.5 -0.1386E+01  0.7036E+01  0.2464E+01E
 Epicentro: LOS SANTOS - SANTANDER                                             3
 ACTION:UPD 14-10-03 23:02 OP:nd   STATUS:               ID:20140905220507 L   I
 OLDACT:REG 14-09-06 04:33 OP:stll STATUS:               ID:20140905215818     3
 2014-09-05-2158-18M.COL___284                                                 6
 STAT SP IPHASW D HRMM SECON CODA AMPLIT PERI AZIMU VELO AIN AR TRES W  DIS CAZ7
 BAR2 SZ EP       22 5 26.81                             171    0.2310 20.8 181 
 BAR2 SZ ES       22 5 41.69                             171    0.3610 20.8 181 
 BAR2 SZ I        22 5 43.31        29.2 0.22            169           20.8 181 
 BRR  HZ EP       22 5 28.69                             152    0.5810 69.2 302 
 BRR  HN ES       22 5 44.67                             152    0.6210 69.2 302 
 BRR  HZ I        22 5 45.88        15.0 0.40            150           69.2 302 
 PAM  SZ EP       22 5 29.63                             148    0.0810 81.3  40 
 PAM  SZ I        22 5 29.90        23.9 0.20            152           81.3  40 
 PAM  SN ES       22 5 45.95                             148   -0.6610 81.3  40 
 RUS  HZ EP       22 5 30.71                             143   -0.0310 98.7 174 
 RUS  HZ I        22 5 31.86         8.7 0.12            144           98.7 174 
 RUS  HN ES       22 5 48.84                             143    0.1010 98.7 174 
 PTB  HZ EP       22 5 33.81                             131   -0.02 9  144 259 
 PTB  HN ES       22 5 53.42                             131   -0.82 9  144 259 
 PTB  HZ I        22 5 57.24         9.0 0.12            130            144 259 
 SPBC HZ EP       22 5 35.71                             128    0.34 9  159 218 
 SPBC HN ES       22 5 56.86                             128   -0.12 9  159 218 
 SPBC HZ I        22 6  4.75        14.1 0.22            128            159 218 
 ZAR  HZ EP       22 5 40.06                             121    0.55 9  202 293 
 ZAR  HE ES       22 6  4.35                             121    0.01 9  202 293 
 ZAR  HZ I        22 6 10.98         7.3 0.34            121            202 293 
 NOR  HZ EP       22 5 42.90                             118    0.27 8  231 234 
 NOR  HE ES       22 6  9.77                             118   -0.13 8  231 234 
 NOR  HZ I        22 6 13.67         6.4 0.20            118            231 234 
 SML  HZ EP       22 5 43.72                             116   -0.33 8  244 336 
 SML  HN ES       22 6 11.44                             116   -0.99 8  244 336 
 SML  HZ I        22 6 16.04        10.5 0.12            117            244 336 
 CHI  HZ EP       22 5 44.50                             116   -0.24 8  246 194 
 CHI  HZ I        22 5 45.81         4.0 0.24            117            246 194 
 CHI  HN ES       22 6 12.72                             116   -0.93 8  246 194 
 GUY2CHZ EP       22 5 51.39                             112    0.83 7  297 235 
 GUY2CHN ES       22 6 24.40                             112    0.40 7  297 235 
 GUY2CHZ I        22 6 33.05         5.1 0.32                           297 235 
 PRA  HZ EP       22 6  0.65                             106    0.07 6  388 209 
 PRA  HN ES       22 6 41.79                             106   -0.05 6  388 209 
 PRA  HZ I        22 6 49.06         5.8 0.38            106            388 209 
 ORTC HZ EP       22 6  1.05                             106    0.10 6  392 216 
 ORTC HN ES       22 6 41.52                             106   -0.99 6  392 216 
 ORTC HZ I        22 6 50.69         2.3 0.50            106            392 216 
                                                                                
