 2011  1 5 2209 30.7 L   6.757 -73.148137.3  RSN 17 0.4 3.1LRSN                1
 GAP=136        0.79       2.7     3.9  5.1 -0.2468E+01  0.7600E+01  0.1978E+01E
 Epicentro: LOS SANTOS - SANTANDER                                             3
 ACTION:UP  11-02-08 08:38 OP:pat  STATUS:               ID:20110105220930 L   I
 2011-01-05-2200-00M.COL___136                                                 6
 STAT SP IPHASW D HRMM SECON CODA AMPLIT PERI AZIMU VELO SNR AR TRES W  DIS CAZ7
 BAR2 SZ IP       22 9 48.94                             172    -0.310   19 192 
 BAR2 SZ ES   1   2210  3.41                             172    -0.2 7   19 192 
 BAR2 SZ I        2210  5.04       199.2 0.27                            19 192 
 BTL  SZ ES   2   2210  3.39                             170    -0.4 5   22 324 
 GIR2 SZ EP       22 9 49.93                             164     0.410   36 352 
 RUS  HZ IP       22 9 53.03                             143    -0.210   96 176 
 RUS  HN ES   1   2210 11.06                             143     0.2 7   96 176 
 RUS  HZ I        2210 13.18        94.5 0.42                            96 176 
 GRA  SZ IP       22 9 55.58                             134     0.010  130  17 
 GRA  SZ ES   1   2210 15.31                             134     0.3 7  130  17 
 GRA  SZ I        2210 17.33       101.2 0.33                           130  17 
 OCA  SZ EP   1   22 9 58.86                             127     0.0 7  165 353 
 OCA  SZ I        2210 25.36       192.9 0.31                           165 353 
 YOP  SZ IP     C 22 9 59.83                             125     0.1 9  175 153 
 YOP  SZ I        2210  0.25        85.3 0.38                           175 153 
 YOP  SN ES   1   2210 22.28                             125    -0.1 7  175 153 
 NOR  SZ EP       2210  5.19                             117    -0.4 8  232 235 
 NOR  SN ES   1   2210 32.12                             117    -0.8 6  232 235 
 CHI  HZ IP     C 2210  7.34                             116    -0.1 8  244 195 
 CHI  HN ES   1   2210 36.80                             116     0.7 6  244 195 
 CHI  HZ I        2210 44.58        87.5 0.41                           244 195 
 CVER SZ EP   2   2210 10.63                             113     0.5 4  268 203 
 CVER SZ I        2210 50.58       302.3 0.47                           268 203 
 HEL  HZ EP       2210 10.11                             113    -0.2 8  271 257 
 HEL  HN ES   2   2210 41.45                             113     0.2 4  271 257 
 HEL  HZ I        2210 48.87        64.8 0.26                           271 257 
 VIL  SZ EP       2210 12.83                             111    -0.2 7  297 190 
 VIL  SN ES   1   2210 46.24                             111     0.2 5  297 190 
 VIL  SZ I        2210 53.89        56.3 0.34                           297 190 
 GUY  SZ EP       2210 14.24                             111     0.6 7  298 236 
 GUY  SN ES   1   2210 47.71                             111     0.6 5  298 236 
 GUY  SZ I        2210 55.99       103.1 0.20                           298 236 
 RREF HZ EP       2210 15.72                             109    -0.4 7  318 230 
 RREF HN ES   2   2210 51.72                             109     0.2 3  318 230 
 RREF HZ I        2211  2.08        92.9 0.58                           318 230 
 TOL  SZ EP       2210 18.41                             108     0.2 7  340 225 
 TOL  SZ ES   1   2210 55.81                             108     0.5 5  340 225 
 PRA  HZ EP   1   2210 23.20                             105    -0.2 4  388 210 
 PRA  HN ES   2   2211  4.07                             105    -0.5 3  388 210 
 SJA  SZ EP   2   2210 23.47                             105    -0.9 3  395 193 
                                                                                
