 2014  4 5 2011 47.4 L   6.790 -73.168144.0  RSN  5 0.3 1.6LRSN                1
 GAP=134        0.70       3.5     3.9  7.3 -0.5385E+00  0.1253E+02 -0.2276E+01E
 Epicentro: LOS SANTOS - SANTANDER                                             3
 ACTION:UPD 14-05-13 23:06 OP:nd   STATUS:               ID:20140405201147 L   I
 OLDACT:UP  14-04-06 03:15 OP:mh   STATUS:               ID:20140405200819     3
 OLDACT:UP  14-04-06 03:15 OP:mh   STATUS:               ID:20140405200819     3
 OLDACT:UP  14-04-06 03:15 OP:mh   STATUS:               ID:20140405200819     3
 OLDACT:REG 14-04-06 03:05 OP:mh   STATUS:               ID:20140405200819     3
 2014-04-05-2008-19M.COL___265                                                 6
 STAT SP IPHASW D HRMM SECON CODA AMPLIT PERI AZIMU VELO AIN AR TRES W  DIS CAZ7
 PAM  SZ EP       2012 10.08                             149    0.5010 79.8  40 
 PAM  SN ES       2012 26.68                             149   -0.2010 79.8  40 
 PAM  SZ I        2012 28.99        10.6 0.34            154           79.8  40 
 RUS  HZ EP       2012 10.64                             143   -0.2810 99.7 175 
 RUS  HN ES   1   2012 29.31                             143    0.05 7 99.7 175 
 RUS  HZ I        2012 31.84         2.0 0.22            151           99.7 175 
 PTB  HZ EP       2012 14.29                             132    0.30 9  145 259 
 PTB  HN ES   1   2012 34.45                             132   -0.28 7  145 259 
 PTB  HZ I        2012 40.14         3.5 0.18            133            145 259 
 ZAR  HZ EP   1   2012 19.30                             122   -0.24 6  202 293 
 ZAR  HN ES   1   2012 44.98                             122    0.37 6  202 293 
 ZAR  HZ I        2012 50.92         6.4 0.36            124            202 293 
 SML  HZ EP   1   2012 23.58                             117   -0.35 6  244 336 
 SML  HN ES   1   2012 52.12                             117   -0.29 6  244 336 
 SML  HZ I        2013  2.61         5.4 0.09            119            244 336 
                                                                                
