 2012  6 5 2140  5.0 L   6.022 -74.192 32.1  RSN  6 0.4 1.8LRSN                1
 GAP= 85        0.86       3.0     2.1 11.0 -0.6853E+00 -0.7468E+00  0.4454E+01E
 Epicentro: LA BELLEZA - SANTANDER                                             3
 ACTION:UPD 12-08-06 17:47 OP:ep   STATUS:               ID:20120605214004 L   I
 2012-06-05-2140-00M.COL___201                                                 6
 STAT SP IPHASW D HRMM SECON CODA AMPLIT PERI AZIMU VELO AIN AR TRES W  DIS CAZ7
 NOR  SZ EP       2140 19.01                              61   -0.3010 90.5 236 
 NOR  SN ES       2140 30.10                              61   -0.3510 90.5 236 
 RUS  HZ EP       2140 24.07                              61    0.1010  124  97 
 RUS  HE ES       2140 38.53                              61   -0.2210  124  97 
 RUS  HZ I        2140 38.90         8.0 0.15             92            124  97 
 BAR2 SZ EP       2140 24.81                              61    0.5610  128  61 
 BAR2 SZ ES   1   2140 38.71                              61   -0.53 7  128  61 
 BAR2 SZ I        2140 42.88        28.0 0.45             92            128  61 
 HEL  HZ EP       2140 27.55                              61    0.53 9  149 277 
 HEL  HE ES   1   2140 44.51                              61    0.35 7  149 277 
 HEL  HZ I        2140 47.95        15.3 0.16             92            149 277 
 CHI  HZ EP   1   2140 28.51                              61   -0.20 7  162 162 
 CHI  HN ES   1   2140 47.66                              61    0.48 7  162 162 
 CHI  HZ I        2140 56.57        13.0 0.49             56            162 162 
 ZAR  HZ EP       2140 30.15                              61   -0.10 9  178 336 
 ZAR  HN ES   1   2140 49.57                              61   -0.34 7  178 336 
                                                                                
