 2012  9 5 2121 37.3 L   6.747 -73.133141.2  RSN  6 0.3 1.6LRSN                1
 GAP=141        0.66       4.4     4.0  8.2  0.1801E+01  0.2661E+01  0.1424E+01E
 Epicentro: LOS SANTOS - SANTANDER                                             3
 ACTION:UPD 12-10-22 14:17 OP:ep   STATUS:               ID:20120905212137 L   I
 2012-09-05-2120-00M.COL___218                                                 6
 STAT SP IPHASW D HRMM SECON CODA AMPLIT PERI AZIMU VELO AIN AR TRES W  DIS CAZ7
 BAR2 SZ EP       2121 56.27                             172   -0.0510 17.9 198 
 BAR2 SZ I        2122 12.07        15.6 0.26                          17.9 198 
 BRR  HZ EP       2121 58.34                             150    0.0910 75.4 302 
 BRR  HN ES   1   2122 15.03                             150    0.47 7 75.4 302 
 PAM  SZ EP   1   2121 59.34                             149    0.03 7 81.2  36 
 PAM  SZ I        2121 59.58         7.9 0.25                          81.2  36 
 PAM  SN ES   1   2122 16.07                             149   -0.37 7 81.2  36 
 RUS  HZ EP   1   2122  0.27                             145    0.06 7 94.6 177 
 RUS  HN ES   1   2122 18.25                             145    0.20 7 94.6 177 
 RUS  HZ I        2122 19.74         2.9 0.22                          94.6 177 
 PTB  HN ES   1   2122 24.04                             131   -0.71 7  148 261 
 ZAR  HN ES   1   2122 35.46                             121    0.22 6  208 294 
 ZAR  HZ I        2122 40.20         4.1 0.23                           208 294 
                                                                                
