 2011  9 5 2052 41.2 L   6.806 -73.163141.2  RSN 17 0.4 3.4LRSN                1
 GAP= 74        0.84       2.8     4.2  4.8 -0.1859E+00  0.8009E+01  0.2631E+01E
 Epicentro: LOS SANTOS - SANTANDER                                             3
 ACTION:UPD 12-07-13 15:55 OP:ep   STATUS:               ID:20110905205241 L   I
 2011-09-05-2051-00S.COL___169                                                 6
 STAT SP IPHASW D HRMM SECON CODA AMPLIT PERI AZIMU VELO AIN AR TRES W  DIS CAZ7
 SAN  SZ IP       2053  0.67                             175    0.6810 10.9 115 
 SAN  SZ ES   1   2053 15.32                             175    0.64 7 10.9 115 
 BAR2 SZ EP       2053  0.17                             170   -0.0710 23.7 185 
 BAR2 SZ I        2053  0.55       514.2 0.11                          23.7 185 
 BAR2 SZ ES   1   2053 14.61                             170   -0.52 7 23.7 185 
 GIR2 SZ IP       2053  0.29                             167    0.0410 30.3 354 
 GIR2 SZ ES   1   2053 14.65                             167   -0.50 7 30.3 354 
 BRR  HZ IP     D 2053  2.10                             152    0.4110 69.2 299 
 BRR  HZ I        2053 24.27       490.1 0.18                          69.2 299 
 PAM  SZ EP       2053  3.12                             150    0.1910 78.1  41 
 PAM  SE ES   1   2053 19.72                             150   -0.19 7 78.1  41 
 RUS  HZ IP     D 2053  4.03                             143   -0.4910  101 175 
 RUS  HN ES   1   2053 22.55                             143   -0.19 7  101 175 
 RUS  HZ I        2053 24.19       426.0 0.41                           101 175 
 OCA  SZ EP       2053  8.88                             129   -0.14 9  159 354 
 OCA  SZ ES   1   2053 30.24                             129   -0.52 7  159 354 
 OCA  SZ I        2053 37.17       374.1 0.38                           159 354 
 YOP  SZ EP   1   2053 10.69                             125   -0.33 7  180 153 
 YOP  SE ES   1   2053 34.93                             125    0.62 7  180 153 
 ZAR  HZ EP   1   2053 13.50                             122    0.41 6  202 292 
 ZAR  HN ES   1   2053 38.39                             122    0.39 6  202 292 
 ZAR  HZ I        2053 45.16       320.0 0.33                           202 292 
 NOR  SZ EP   1   2053 16.36                             118   -0.13 6  234 234 
 NOR  SE ES   1   2053 43.81                             118   -0.24 6  234 234 
 CHI  HZ EP       2053 18.47                             116   -0.15 8  249 195 
 CHI  HZ I        2053 51.06       148.9 0.30                           249 195 
 ROSC BZ EP   1   2053 19.75                             116    0.77 6  252 211 
 ROSC BZ I        2053 55.16       285.0 0.31                           252 211 
 HEL  HZ EP   1   2053 20.78                             114   -0.16 6  270 256 
 HEL  HZ I        2053 59.45       166.3 0.37                           270 256 
 VIL  SZ EP   1   2053 23.83                             111   -0.56 5  304 191 
 VIL  SZ I        2054  6.70        98.3 0.40                           304 191 
 TOL  SZ EP   1   2053 29.51                             108    0.39 5  343 224 
 TOL  SZ ES   1   2054  6.09                             108   -0.45 5  343 224 
 COD  HZ EP   1   2053 28.43                             108   -0.82 5  347 355 
 COD  HZ I        2054 12.60       118.1 0.43                           347 355 
 PRA  HZ EP   1   2053 34.59                             106    0.12 4  392 209 
 PRA  HE ES   1   2054 15.65                             106   -0.41 4  392 209 
                                                                                
