 2017  3 5 2231 26.8 L   6.758 -73.124142.1  RSN  8 0.2 1.6LRSN                1
 GAP=141        0.75       3.5     3.8  5.2  0.1782E+01  0.3079E-01  0.3136E+00E
 Epicentro: LOS SANTOS - SANTANDER                                             3
 ACTION:UPD 17-05-25 18:36 OP:jn   STATUS:               ID:20170305223126 L   I
 OLDACT:UP  17-03-06 06:10 OP:edw  STATUS:               ID:20170305222131     3
 OLDACT:UP  17-03-06 06:09 OP:edw  STATUS:               ID:20170305222131     3
 OLDACT:UP  17-03-06 06:08 OP:edw  STATUS:               ID:20170305222131     3
 OLDACT:REG 17-03-06 03:25 OP:edw  STATUS:               ID:20170305222131     3
 2017-03-05-2228-00M.COL___387                                                 6
 STAT SP IPHASW D HRMM SECON CODA AMPLIT PERI AZIMU VELO AIN AR TRES W  DIS CAZ7
 BAR2 EZ EP       2231 45.87                             172   -0.0910 19.5 199 
 BAR2 EZ ES       2232  0.90                             172    0.0310 19.5 199 
 BAR2 EZ I        2232  2.04         8.2 0.48            169           19.5 199 
 BRR  HZ EP       2231 47.91                             150    0.0610 75.5 301 
 BRR  HN ES       2232  4.73                             150    0.4910 75.5 301 
 PAM  EZ EP     C 2231 48.82                             149    0.0110 79.6  36 
 PAM  EN ES       2232  5.63                             149   -0.3010 79.6  36 
 PAM  EZ I        2232  7.86        10.6 0.46            151           79.6  36 
 RUS  HZ EP       2231 49.99                             144    0.0910 95.9 177 
 RUS  HN ES       2232  7.73                             144   -0.1510 95.9 177 
 RUS  HZ I        2232  9.62        10.5 0.24            143           95.9 177 
 PTB  HZ EP   9   2231 52.82                             130   -0.83 0  149 261 
 PTB  HN ES       2232 13.01                             133   -0.72 9  149 261 
 PTB  HZ I        2232 16.71         4.7 0.38            128            149 261 
 ZAR  HZ EP   4   2231 56.66                             121   -2.81 0  208 293 
 ZAR  HN ES       2232 24.67                             121   -0.24 8  208 293 
 ZAR  HZ I        2232 30.04         5.7 0.34            119            208 293 
 CHI  HZ EP   4   2231 59.39                             116   -4.54 0  245 196 
 CHI  HN ES   2   2232 32.84                             116   -0.01 4  245 196 
 CHI  HZ I        2232 35.82         1.3 0.26            115            245 196 
 PRA  HZ EP   2   2232 20.25                             106    0.34 3  389 210 
 PRA  HN ES   4   2232 58.66                             106   -2.64 0  389 210 
 PRA  HZ I        2233  7.09         1.1 0.28            105            389 210 
 SJC  HZ EP   4   2232 21.00                             105   -1.89 0  414 327 
                                                                                
