 2013  2 5 2046 59.9 L   6.792 -73.143146.3  RSN  4 0.4 1.7LRSN                1
 GAP=137        1.02       5.6     5.3  9.0 -0.3409E+01  0.4350E+01  0.7024E+01E
 Epicentro: LOS SANTOS - SANTANDER                                             3
 ACTION:UPD 13-03-12 09:30 OP:ep   STATUS:               ID:20130205204659 L   I
 2013-02-05-2038-50M.COL___185                                                 6
 STAT SP IPHASW D HRMM SECON CODA AMPLIT PERI AZIMU VELO AIN AR TRES W  DIS CAZ7
 BRR  HZ EP       2047 21.45                             152    0.3010 71.9 299 
 BRR  HN ES       2047 38.32                             152    0.6010 71.9 299 
 BRR  HN I        2047 41.77        11.0 0.20            152           71.9 299 
 PAM  SZ EP       2047 22.33                             151    0.1210 77.9  39 
 PAM  SZ I        2047 22.56         6.8 0.42            154           77.9  39 
 PAM  SN ES       2047 39.07                             151   -0.5310 77.9  39 
 RUS  HZ EP       2047 23.94                             144    0.2910 99.7 176 
 RUS  HN ES       2047 42.15                             144   -0.0110 99.7 176 
 RUS  HN I        2047 43.75         9.9 0.40            147           99.7 176 
 PTB  HZ EP       2047 26.51                             132   -0.42 9  148 259 
 PTB  HN ES       2047 47.54                             132   -0.46 9  148 259 
 PTB  HN I        2047 50.66         8.5 0.10            133            148 259 
                                                                                
