 2014  4 5 2141 49.0 L   6.183 -74.061  9.8  RSN  8 0.4 2.7LRSN                1
 GAP= 98        1.00       2.3     2.3  5.1  0.5501E+00 -0.3012E+01 -0.1744E+01E
 Epicentro: CIMITARRA - SANTANDER                                              3
 ACTION:UPD 14-05-13 23:06 OP:nd   STATUS:               ID:20140405214149 L   I
 OLDACT:UP  14-04-06 04:15 OP:mh   STATUS:               ID:20140405213806     3
 OLDACT:UP  14-04-06 04:14 OP:mh   STATUS:               ID:20140405213806     3
 OLDACT:REG 14-04-06 03:07 OP:mh   STATUS:               ID:20140405213806     3
 2014-04-05-2138-06M.COL___262                                                 6
 STAT SP IPHASW D HRMM SECON CODA AMPLIT PERI AZIMU VELO AIN AR TRES W  DIS CAZ7
 SPBC HZ EP       2141 59.23                              96    0.6210 58.7 181 
 SPBC HN ES       2142  6.53                              96    0.4110 58.7 181 
 SPBC HZ I        2142  8.10        30.3 0.11             98           58.7 181 
 PTB  HZ IP       2141 58.61                              96    0.0610 58.8 312 
 PTB  HN ES       2142  6.19                              96    0.1810 58.8 312 
 PTB  HZ I        2142  7.48        87.0 0.08             99           58.8 312 
 RUS  HZ IP       2142  7.38                              93    0.1710  113 106 
 RUS  HN ES       2142 20.86                              93   -0.5810  113 106 
 RUS  HZ I        2142 22.78         6.9 0.14             94            113 106 
 NOR  HZ EP       2142  5.91                              93   -0.8110  113 233 
 NOR  HN ES   1   2142 20.00                              93   -0.56 7  113 233 
 NOR  HZ I        2142 20.79      50.7e6 0.01             94            113 233 
 CHI  HZ EP   1   2142 16.15                              56   -0.03 7  176 168 
 CHI  HN ES   1   2142 37.40                              56   -0.01 7  176 168 
 CHI  HZ I        2142 46.54         1.3 0.27             56            176 168 
 GUY2CHZ EP       2142 16.69                              56   -0.01 9  179 234 
 GUY2CHZ I        2142 41.79        53.9 0.41                           179 234 
 PAM  SZ EP       2142 19.42                              56    0.41 9  198  50 
 PAM  SN ES       2142 42.25                              56   -0.18 9  198  50 
 PAM  SZ I        2142 44.60        18.9 0.16             56            198  50 
 RREF HZ EP       2142 19.71                              56    0.09 9  201 225 
 RREF HE ES   4   2142 45.09                              56    1.56 0  201 225 
                                                                                
