 2014  8 5 2043 47.8 L   6.775 -73.147142.4  RSN 13 0.4 2.1LRSN                1
 GAP=138        0.82       2.6     4.0  4.7 -0.1836E+01  0.3894E+01  0.1025E+01E
 Epicentro: LOS SANTOS - SANTANDER                                             3
 ACTION:UPD 14-09-15 21:47 OP:nd   STATUS:               ID:20140805204347 L   I
 OLDACT:UP  14-08-06 03:58 OP:mh   STATUS:               ID:20140805203815     3
 OLDACT:UP  14-08-06 03:58 OP:mh   STATUS:               ID:20140805203815     3
 OLDACT:REG 14-08-06 02:35 OP:mh   STATUS:               ID:20140805203815     3
 2014-08-05-2038-15M.COL___254                                                 6
 STAT SP IPHASW D HRMM SECON CODA AMPLIT PERI AZIMU VELO AIN AR TRES W  DIS CAZ7
 BAR2 SZ EP       2044  6.86                             171   -0.0710 20.5 191 
 BAR2 SZ ES       2044 21.64                             171   -0.2510 20.5 191 
 BAR2 SZ I        2044 22.75        41.2 0.12            173           20.5 191 
 BRR  HZ EP     C 2044  9.01                             151    0.3910 72.5 301 
 BRR  HN ES       2044 25.59                             151    0.7010 72.5 301 
 BRR  HZ I        2044 28.80        31.2 0.16            145           72.5 301 
 PAM  SZ EP   1   2044  9.86                             150    0.11 7 79.6  38 
 PAM  SN ES   1   2044 26.77                             150   -0.14 7 79.6  38 
 PAM  SZ I        2044 29.58        23.6 0.35            143           79.6  38 
 RUS  HZ EP   1   2044 11.20                             144    0.22 7 97.8 176 
 RUS  HE ES   1   2044 28.93                             144   -0.16 7 97.8 176 
 RUS  HZ I        2044 31.14        10.2 0.26            142           97.8 176 
 PTB  HZ EP   1   2044 13.87                             131   -0.52 7  147 260 
 PTB  HE ES   1   2044 34.94                             131   -0.23 7  147 260 
 PTB  HZ I        2044 36.71        20.1 0.14            126            147 260 
 SPBC HZ EP       2044 15.08                             129   -0.71 9  161 220 
 SPBC HN ES   1   2044 38.41                             129    0.76 7  161 220 
 SPBC HZ I        2044 45.02        17.2 0.15            125            161 220 
 OCA  HZ EP       2044 15.66                             128   -0.41 9  163 353 
 OCA  HN ES   1   2044 37.83                             128   -0.33 7  163 353 
 OCA  HZ I        2044 40.70        13.0 0.25            122            163 353 
 ZAR  HZ EP   1   2044 20.18                             122    0.09 6  205 293 
 ZAR  HN ES   1   2044 44.99                             122   -0.31 6  205 293 
 ZAR  HZ I        2044 47.78        10.6 0.24            116            205 293 
 NOR  HZ EP   1   2044 22.88                             118   -0.23 6  233 235 
 NOR  HN ES       2044 50.53                             118   -0.15 8  233 235 
 NOR  HZ I        2044 54.23        11.3 0.15            114            233 235 
 CHI  HZ EP   1   2044 25.48                             117    0.51 6  246 195 
 CHI  HN ES       2044 53.92                             117   -0.08 8  246 195 
 SML  HZ EP   1   2044 24.89                             117    0.42 6  246 336 
 SML  HN ES   2   2044 53.40                             117    0.30 4  246 336 
 SML  HZ I        2044 56.28        15.7 0.10            111            246 336 
 GUY2CHZ EP   1   2044 31.23                             112    0.21 5  299 235 
 GUY2CHN ES   4   2045  5.65                             112    0.89 0  299 235 
 TOL  SN ES   4   2045 13.40                             109    0.41 0  341 225 
 PRA  HZ EP   1   2044 41.69                             106    0.82 4  390 210 
 PRA  HN ES   1   2045 22.49                             106    0.19 4  390 210 
 PRA  HZ I        2045 29.81         4.5 0.48            103            390 210 
                                                                                
