 2014  4 5 2021  9.5 L   6.838 -73.208149.3  RSN  5 0.4 1.6LRSN                1
 GAP=127        0.95       3.6     7.7 10.6 -0.8724E+01  0.3693E+02  0.7119E+00E
 Epicentro: ZAPATOCA - SANTANDER                                               3
 ACTION:UPD 14-05-13 23:06 OP:nd   STATUS:               ID:20140405202109 L   I
 OLDACT:UP  14-04-06 03:38 OP:mh   STATUS:               ID:20140405201816     3
 OLDACT:REG 14-04-06 03:05 OP:mh   STATUS:               ID:20140405201816     3
 2014-04-05-2018-16M.COL___265                                                 6
 STAT SP IPHASW D HRMM SECON CODA AMPLIT PERI AZIMU VELO AIN AR TRES W  DIS CAZ7
 PAM  SZ EP       2021 32.39                             151    0.2210 78.9  45 
 PAM  SN ES       2021 50.07                             151    0.2110 78.9  45 
 PAM  SZ I        2021 55.74         2.4 0.34            159           78.9  45 
 RUS  HZ EP   1   2021 33.39                             143   -0.55 7  105 172 
 RUS  HN ES   1   2021 52.41                             143   -0.60 7  105 172 
 SPBC HZ EP       2021 38.88                             130    0.69 9  162 216 
 SPBC HN ES       2022  0.74                             130    0.17 9  162 216 
 SPBC HZ I        2022  8.41         7.6 0.12            133            162 216 
 SML  HN ES       2022 13.29                             119   -0.48 8  237 336 
 SML  HZ I        2022 20.91         4.8 0.14            123            237 336 
 CHI  HZ EP   1   2021 47.17                             117   -0.48 6  251 193 
 CHI  HN ES       2022 17.36                             117   -0.05 8  251 193 
 CHI  HZ I        2022 25.88         1.7 0.13            123            251 193 
                                                                                
