 2016 11 5 2203  3.4 L   6.786 -73.189142.9  RSN  6 0.1 1.6LRSN                1
 GAP=253        0.41       1.8     3.4  3.6  0.7930E+00 -0.3046E+01  0.1495E+01E
 Epicentro: ZAPATOCA - SANTANDER                                               3
 ACTION:UPD 17-10-26 21:05 OP:lp   STATUS:               ID:20161105220303 L   I
 OLDACT:UP  16-11-06 04:00 OP:edw  STATUS:               ID:20161105215611d    3
 OLDACT:UP  16-11-06 03:58 OP:edw  STATUS:               ID:20161105215611d    3
 OLDACT:DUP 16-11-06 03:52 OP:edw  STATUS:               ID:20161105215611d    3
 2016-11-05-2158-00M.COL___349                                                 6
 STAT SP IPHASW D HRMM SECON CODA AMPLIT PERI AZIMU VELO AIN AR TRES W  DIS CAZ7
 BRR  HZ EP       22 3 24.08                             153    0.0210 67.8 302 
 BRR  HN ES       22 3 40.23                             153    0.0610 67.8 302 
 PTB  HZ EP       22 3 29.36                             132   -0.34 9  143 259 
 PTB  HN ES       22 3 50.01                             132   -0.19 9  143 259 
 PTB  HZ I        22 3 52.33         4.7 0.30            131            143 259 
 SPBC HN ES       22 3 53.13                             129    0.08 9  159 218 
 ZAR  HZ EP       22 3 35.48                             122    0.20 9  200 293 
 ZAR  HN ES       22 4  0.17                             122    0.04 9  200 293 
 NOR  HZ EP       22 3 38.56                             118    0.10 8  230 234 
 NOR  HN ES       22 4  5.94                             118    0.13 8  230 234 
 NOR  HZ I        22 4 11.43         3.8 0.24            117            230 234 
 CHI  HN EP       22 3 40.62                             117   -0.04 8  246 194 
 CHI  HE ES       22 4  9.73                             117    0.01 8  246 194 
 CHI  HZ I        22 4 15.59         1.7 0.25            116            246 194 
                                                                                
