 2016  4 5 2352  3.6 L   6.787 -73.125150.1  RSN 17 0.4 2.2LRSN                1
 GAP=128        0.80       2.5     2.8  4.5 -0.1959E+01  0.3949E+01  0.3501E+00E
 Epicentro: LOS SANTOS - SANTANDER                                             3
 ACTION:UPD 16-05-05 14:19 OP:rebc STATUS:               ID:20160405235203 L   I
 OLDACT:REG 16-04-06 03:50 OP:ak   STATUS:               ID:20160405234749     3
 2016-04-05-2347-49M.COL___304                                                 6
 STAT SP IPHASW D HRMM SECON CODA AMPLIT PERI AZIMU VELO AIN AR TRES W  DIS CAZ7
 BAR2 EZ EP       2352 23.88                             171    0.1410 22.5 196 
 BAR2 EZ ES       2352 39.31                             171   -0.1310 22.5 196 
 BAR2 EZ I        2352 41.68        32.8 0.22            167           22.5 196 
 PAM  EZ IP     C 2352 26.69                             152    0.4310 77.1  38 
 PAM  EN ES       2352 44.36                             152    0.4210 77.1  38 
 PAM  EZ I        2352 46.45        11.3 0.58            157           77.1  38 
 RUS  HZ EP       2352 27.71                             145    0.0310 99.1 177 
 RUS  HN ES       2352 46.52                             145    0.0710 99.1 177 
 RUS  HZ I        2352 47.56        17.0 0.30            145           99.1 177 
 PTB  HZ EP       2352 30.75                             133   -0.35 9  150 260 
 PTB  HN ES       2352 51.86                             133   -0.69 9  150 260 
 PTB  HZ I        2352 59.30        24.6 0.50            132            150 260 
 OCA  HN ES       2352 54.59                             130   -0.28 9  162 352 
 SPBC HN ES       2352 54.79                             130   -0.19 9  164 220 
 ZAR  HZ EP       2352 36.12                             123   -0.48 8  207 292 
 ZAR  HN ES       2353  2.68                             123    0.35 8  207 292 
 ZAR  HZ I        2353  9.72         9.7 0.13            123            207 292 
 NOR  HZ EP       2352 39.44                             119   -0.26 8  236 235 
 NOR  HN ES       2353  7.76                             119   -0.09 8  236 235 
 NOR  HZ I        2353 12.02        15.1 0.18            119            236 235 
 CHI  HZ EP       2352 41.59                             118    0.12 8  248 196 
 CHI  HN ES       2353 10.74                             118   -0.26 8  248 196 
 CHI  HZ I        2353 19.16         8.2 0.46            118            248 196 
 ROSC BZ EP   4   2352 43.40                             117    1.44 0  253 212 
 ROSC BE ES   4   2353 15.29                             117    3.41 0  253 212 
 ROSC BZ I        2353 21.68        17.8 0.35            118            253 212 
 HEL  HZ EP   2   2352 45.14                             115    0.90 4  274 256 
 HEL  HN ES       2353 16.48                             115    0.54 8  274 256 
 HEL  HZ I        2353 21.91         5.7 0.22            116            274 256 
 URE  HZ EP   9   2352 43.29                             114   -1.89 0  286 292 
 URE  HN ES   2   2353 15.58                                   -0.13 4  286 292 
 GUY2CHZ EP   4   2352 49.53                             113    2.00 0  302 235 
 GUY2CHE ES       2353 21.96                             113    0.17 7  302 235 
 GUY2CHZ I        2353 28.71        11.1 0.32                           302 235 
 ELA  HZ EP   4   2352 53.63                             111    2.90 0  330 230 
 ELA  HN ES       2353 27.97                             111    0.48 7  330 230 
 ELA  HZ I        2353 43.72         7.4 0.62            111            330 230 
 CBOC HZ EP       2352 51.53                             110    0.63 7  335 252 
 CBOC HE ES       2353 27.68                             110   -0.10 7  335 252 
 MON  HN ES   4   2353 29.60                             109   -2.06 0  356 308 
 ANIL HE ES   2   2353 32.54                             109   -0.14 3  358 225 
 SDV  BZ EP       2352 53.14                             109   -0.58 6  360  50 
 SDV  BN ES   4   2353 30.93                             109   -1.87 0  360  50 
                                                                                
