 2016  1 5 2346 14.0 L   6.172 -73.802 10.9  RSN  7 0.4 1.4LRSN                1
 GAP= 92        0.71       2.2     1.7  4.4 -0.6769E-01 -0.1873E+01 -0.2942E+00E
 Epicentro: LANDAZURI - SANTANDER                                              3
 ACTION:UPD 16-03-09 23:23 OP:cam  STATUS:               ID:20160105234614 L   I
 OLDACT:REG 16-01-06 04:00 OP:dnl  STATUS:               ID:20160105233748     3
 2016-01-05-2337-48M.COL___259                                                 6
 STAT SP IPHASW D HRMM SECON CODA AMPLIT PERI AZIMU VELO AIN AR TRES W  DIS CAZ7
 SPBC HZ EP   2   2346 24.53                              97    0.01 5 64.8 208 
 SPBC HN ES   2   2346 33.47                              97    0.71 5 64.8 208 
 SPBC HZ I        2346 35.74        28.8 0.06             47           64.8 208 
 BAR2 EZ EP   2   2346 27.88                              95    0.48 5 82.8  56 
 BAR2 EZ ES       2346 37.87                              95   -0.0110 82.8  56 
 BAR2 EZ I        2346 39.44         6.8 0.18             47           82.8  56 
 PTB  HZ EP       2346 26.95                              95   -0.2410 83.0 299 
 PTB  HE ES       2346 37.35                              95   -0.1710 83.0 299 
 PTB  HZ I        2346 39.13        19.6 0.11             47           83.0 299 
 RUS  HZ EP       2346 28.08                              95    0.0410 85.4 111 
 RUS  HN ES   2   2346 37.99                              95   -1.04 5 85.4 111 
 RUS  HZ I        2346 39.62        13.5 0.09             47           85.4 111 
 BRR  HZ EP   3   2346 30.58                              94    0.25 2  104   6 
 BRR  HN ES   2   2346 43.98                              94    0.88 5  104   6 
 CHI  HZ EP   2   2346 41.18                              56    0.72 4  171 177 
 CHI  HE ES   2   2347  0.86                              56   -0.27 4  171 177 
 CHI  HZ I        2347  6.42         1.5 0.35             47            171 177 
 PAM  EZ EP   2   2346 41.89                              56    0.48 4  178  43 
 PAM  EN ES       2347  2.72                              56   -0.10 9  178  43 
 PAM  EZ I        2347  3.60         4.4 0.27             47            178  43 
                                                                                
