 2017  5 5 2138  1.8 L   6.796 -73.170145.1  RSN  8 0.5 2.2LRSN                1
 GAP=110        1.25       4.6     4.4  8.7  0.2248E+01  0.6262E+01  0.6064E+01E
 Epicentro: LOS SANTOS - SANTANDER                                             3
 ACTION:UPD 17-06-16 13:33 OP:jn   STATUS:               ID:20170505213801 L   I
 OLDACT:DUP 17-05-06 05:11 OP:dnl  STATUS:               ID:20170505212746d    3
 OLDACT:DUP 17-05-06 05:08 OP:dnl  STATUS:               ID:20170505212745d    3
 2017-05-05-2128-00M.COL___345                                                 6
 STAT SP IPHASW D HRMM SECON CODA AMPLIT PERI AZIMU VELO AIN AR TRES W  DIS CAZ7
 BRR  HZ EP     D 2138 22.85                             153    0.0910 69.1 300 
 BRR  HE ES       2138 39.97                             153    0.8610 69.1 300 
 BRR  HZ I        2138 40.28        34.7 0.10            153           69.1 300 
 PAM  EN IP     D 2138 24.00                             150   -0.0710 79.4  41 
 PAM  EZ ES       2138 40.86                             150   -0.5710 79.4  41 
 PAM  EN I        2138 41.80        82.4 0.44            155           79.4  41 
 RUS  HZ EP   2   2138 25.19                             144   -0.28 5  100 175 
 RUS  HN ES       2138 43.65                             144   -0.2810  100 175 
 RUS  HZ I        2138 45.66        15.4 0.28            144            100 175 
 PTB  HZ EP       2138 27.71                             132   -0.76 9  145 259 
 PTB  HN ES       2138 48.35                             132   -0.92 9  145 259 
 PTB  HZ I        2138 54.26        11.4 0.30            132            145 259 
 SPBC HZ EP       2138 30.48                             129    0.42 9  161 218 
 SPBC HE ES       2138 52.46                             129    0.36 9  161 218 
 SPBC HZ I        2139  0.12        21.0 0.22            129            161 218 
 YPLC HZ EP       2138 31.66                             126    0.02 9  178 151 
 YPLC HN ES       2138 55.40                             126    0.50 9  178 151 
 YPLC HZ I        2138 58.48        12.4 0.32            128            178 151 
 ZAR  HZ EP       2138 34.69                             122    0.72 9  202 293 
 ZAR  HE ES       2138 59.16                             122    0.10 9  202 293 
 ZAR  HZ I        2139  4.77        23.7 0.26            124            202 293 
 NOR  HZ EP   2   2138 36.31                             118   -0.93 4  232 234 
 NOR  HE ES       2139  4.88                             118    0.01 8  232 234 
 NOR  HZ I        2139  8.35         8.7 0.12            119            232 234 
                                                                                
