 2017  5 5 2142 56.2 L   6.768 -73.164145.0  RSN  8 0.4 2.2LRSN                1
 GAP=136        1.04       4.7     4.2  7.5 -0.1911E+01  0.1044E+02  0.4871E+01E
 Epicentro: LOS SANTOS - SANTANDER                                             3
 ACTION:UPD 17-06-16 13:33 OP:jn   STATUS:               ID:20170505214256 L   I
 OLDACT:UP  17-05-06 05:18 OP:dnl  STATUS:               ID:20170505213557     3
 OLDACT:REG 17-05-06 05:03 OP:dnl  STATUS:               ID:20170505213557     3
 2017-05-05-2138-00M.COL___350                                                 6
 STAT SP IPHASW D HRMM SECON CODA AMPLIT PERI AZIMU VELO AIN AR TRES W  DIS CAZ7
 BRR  HZ IP     C 2143 17.44                             152    0.1710 71.2 302 
 BRR  HN ES       2143 34.19                             152    0.4910 71.2 302 
 BRR  HZ I        2143 39.35        46.7 0.20            149           71.2 302 
 PAM  EZ IP     C 2143 18.38                             150   -0.2010 81.4  39 
 PAM  EE ES       2143 35.53                             150   -0.5110 81.4  39 
 PAM  EZ I        2143 39.23        14.6 0.30            154           81.4  39 
 RUS  HZ EP       2143 19.65                             145    0.0110 97.2 175 
 RUS  HE ES       2143 38.40                             145    0.4810 97.2 175 
 RUS  HZ I        2143 39.07        22.6 0.28            149           97.2 175 
 PTB  HZ EP       2143 22.61                             132   -0.26 9  145 260 
 PTB  HN ES       2143 42.82                             132   -0.84 9  145 260 
 PTB  HZ I        2143 48.62        26.0 0.30            133            145 260 
 ZAR  HZ EP       2143 28.72                             122    0.18 9  204 293 
 ZAR  HN ES       2143 54.42                             122    0.65 9  204 293 
 ZAR  HZ I        2144  2.32        29.1 0.46            123            204 293 
 NOR  HZ EP       2143 31.59                             119    0.10 8  231 235 
 NOR  HN ES       2143 58.85                             119   -0.16 8  231 235 
 NOR  HZ I        2144  2.31        13.4 0.20            121            231 235 
 HEL  HZ EP   2   2143 37.01                             115    0.95 4  269 256 
 HEL  HE ES   4   2144  6.11                             115   -1.04 0  269 256 
 HEL  HZ I        2144 14.70        11.3 0.46            117            269 256 
 CBOC HZ EP   4   2143 44.09                             110    1.35 0  331 253 
 CBOC HE ES       2144 18.61                             110   -0.42 7  331 253 
 CBOC HZ I        2144 27.46         2.6 0.26            112            331 253 
                                                                                
