 2014 11 5 2049 55.8 L   6.782 -73.156147.7  RSN  7 0.3 1.4LRSN                1
 GAP=136        0.78       4.3     3.9  5.9 -0.5762E+01  0.1064E+01  0.7040E+01E
 Epicentro: LOS SANTOS - SANTANDER                                             3
 ACTION:UPD 14-12-19 15:39 OP:nd   STATUS:               ID:20141105204955 L   I
 OLDACT:REG 14-11-06 05:30 OP:spq  STATUS:               ID:20141105204744     3
 2014-11-05-2047-44M.COL___284                                                 6
 STAT SP IPHASW D HRMM SECON CODA AMPLIT PERI AZIMU VELO AIN AR TRES W  DIS CAZ7
 BAR2 SZ EP       2050 15.45                             171   -0.1410 21.2 188 
 BAR2 SZ ES   1   2050 30.82                             171   -0.23 7 21.2 188 
 BAR2 SZ I        2050 31.98         5.5 0.18            168           21.2 188 
 BRR  HZ EP   1   2050 17.28                             153    0.15 7 71.2 300 
 BRR  HE ES       2050 34.37                             153    0.5910 71.2 300 
 BRR  HZ I        2050 38.06        10.5 0.33            153           71.2 300 
 PAM  SZ EP       2050 18.48                             150    0.1610 79.6  39 
 PAM  SN ES       2050 35.61                             150   -0.3010 79.6  39 
 PAM  SZ I        2050 36.11         2.9 0.29            157           79.6  39 
 PAM  SN E        2053 57.39                                           79.6  39 
 RUS  HZ EP       2050 19.41                             145   -0.1710 98.7 175 
 RUS  HN ES   1   2050 38.47                             145    0.32 7 98.7 175 
 RUS  HZ I        2050 40.82         1.7 0.24            144           98.7 175 
 PTB  HZ EP       2050 22.58                             133   -0.18 9  146 259 
 PTB  HN ES       2050 43.28                             133   -0.54 9  146 259 
 PTB  HZ I        2050 45.08         3.3 0.16            133            146 259 
 SPBC HZ EP       2050 24.62                             130    0.41 9  161 219 
 SPBC HN ES   1   2050 46.40                             130    0.01 7  161 219 
 SPBC HZ I        2050 53.44         5.1 0.20            130            161 219 
 NOR  HN ES   1   2050 59.20                             119    0.02 6  233 235 
 NOR  HZ I        2051  6.11         1.8 0.08            120            233 235 
                                                                                
