 2017  1 5 2250 57.2 L   6.626 -73.996 13.6  RSN  5 0.5 1.4LRSN                1
 GAP=167        1.19       4.5     2.5  8.0 -0.4216E-01 -0.6731E+01 -0.4272E+01E
 Epicentro: PUERTO PARRA - SANTANDER                                           3
 ACTION:UPD 17-05-22 15:56 OP:jn   STATUS:               ID:20170105225057 L   I
 OLDACT:UP  17-01-06 05:15 OP:cog  STATUS:               ID:20170105224743     3
 OLDACT:REG 17-01-06 03:56 OP:cog  STATUS:               ID:20170105224743     3
 2017-01-05-2248-00M.COL___381                                                 6
 STAT SP IPHASW D HRMM SECON CODA AMPLIT PERI AZIMU VELO AIN AR TRES W  DIS CAZ7
 PTB  HZ EP   2   2251  7.28                             101    1.52 5 51.7 259 
 PTB  HN ES       2251 12.12                             101   -0.3410 51.7 259 
 BRR  HZ EP       2251  7.52                              99    0.2810 61.8  31 
 BRR  HE ES       2251 15.40                              99    0.3110 61.8  31 
 BRR  HZ I        2251 15.51        16.6 0.10             91           61.8  31 
 BAR2 EZ EP       2251 11.86                              96    0.1210 90.1  92 
 BAR2 EZ ES       2251 22.68                              96   -0.4310 90.1  92 
 BAR2 EZ I        2251 23.51        12.9 0.26             90           90.1  92 
 ZAR  HZ EP       2251 18.67                              94    0.3910  135 315 
 ZAR  HN ES       2251 33.93                              94   -0.8110  135 315 
 PAM  EZ EP   4   2251 23.98                              56    1.34 0  164  61 
 PAM  EN ES       2251 42.57                              56    0.07 9  164  61 
 PAM  EZ I        2251 45.73         4.5 0.20             90            164  61 
                                                                                
