 2016  8 5 2318  1.0 L   6.712 -73.214138.3  RSN  4 0.3 1.3LRSN                1
 GAP=230        0.51       5.3     4.5  6.4  0.1461E+02  0.1076E+02 -0.3637E+01E
 Epicentro: VILLANUEVA - SANTANDER                                             3
 ACTION:UPD 16-10-29 15:32 OP:rebc STATUS:               ID:20160805231801 L   I
 OLDACT:DUP 16-08-06 04:05 OP:ak   STATUS:               ID:20160805230741d    3
 OLDACT:REG 16-08-06 03:24 OP:ak   STATUS:               ID:20160805230740     3
 2016-08-05-2308-00M.COL___365                                                 6
 STAT SP IPHASW D HRMM SECON CODA AMPLIT PERI AZIMU VELO AIN AR TRES W  DIS CAZ7
 BAR2 EZ EP   2   2318 19.05                             174   -0.47 5 13.7 165 
 BAR2 EZ ES       2318 33.97                             174   -0.0410 13.7 165 
 BAR2 EZ I        2318 35.30         2.8 0.34                          13.7 165 
 RUS  HZ EP   2   2318 23.20                             145   -0.14 5 91.8 171 
 RUS  HN ES       2318 41.02                             145    0.2210 91.8 171 
 RUS  HZ I        2318 42.79         2.0 0.32                          91.8 171 
 PTB  HZ EP   2   2318 26.19                             132   -0.30 5  139 262 
 PTB  HN ES       2318 46.25                             132   -0.16 9  139 262 
 PTB  HZ I        2318 50.32         3.6 0.05                           139 262 
 ZAR  HZ EP   2   2318 33.25                             121    0.64 4  201 296 
 ZAR  HN ES       2318 57.40                             121    0.10 9  201 296 
 ZAR  HZ I        2319  4.14         3.5 0.23                           201 296 
                                                                                
