 2017  4 5 2111 12.1 L   6.797 -73.154146.8  RSN  9 0.3 1.8LRSN                1
 GAP=111        0.76       3.0     3.0  4.5 -0.1736E+00  0.1492E+01  0.3849E+01E
 Epicentro: LOS SANTOS - SANTANDER                                             3
 ACTION:UPD 17-05-30 21:08 OP:jn   STATUS:               ID:20170405211112 L   I
 OLDACT:REG 17-04-06 07:16 OP:lv   STATUS:               ID:20170405210747     3
 2017-04-05-2108-00M.COL___368                                                 6
 STAT SP IPHASW D HRMM SECON CODA AMPLIT PERI AZIMU VELO AIN AR TRES W  DIS CAZ7
 BAR2 EZ EP       2111 31.55                             171   -0.2910 22.9 188 
 BAR2 EZ ES       2111 47.11                             171   -0.1310 22.9 188 
 BAR2 EZ I        2111 48.38        14.5 0.14            171           22.9 188 
 BRR  HZ EP       2111 33.36                             153    0.0410 70.5 299 
 BRR  HN ES       2111 50.52                             153    0.6510 70.5 299 
 BRR  HZ I        2111 51.90        12.2 0.28            153           70.5 299 
 PAM  EZ EP       2111 34.51                             151    0.0410 78.2  40 
 PAM  EE ES       2111 51.71                             151   -0.2110 78.2  40 
 PAM  EZ I        2111 53.99        16.8 0.55            152           78.2  40 
 RUS  HZ EP       2111 35.74                             144   -0.1910  100 175 
 RUS  HN ES       2111 54.57                             144    0.0510  100 175 
 RUS  HZ I        2111 55.52         4.3 0.47            145            100 175 
 PTB  HZ EP       2111 38.90                             132   -0.16 9  147 259 
 PTB  HN ES       2112  0.29                             132    0.21 9  147 259 
 SPBC HZ EP       2111 40.89                             129    0.30 9  162 219 
 SPBC HN ES       2112  2.38                             129   -0.44 9  162 219 
 YPLC HZ EP       2111 42.41                             127    0.43 9  177 151 
 ZAR  HE ES       2112  9.40                             123   -0.42 9  203 292 
 ZAR  HZ I        2112 11.37         5.4 0.23            123            203 292 
 PRA  HZ EP       2112  5.66                             107    0.09 6  391 209 
 PRA  HN ES       2112 47.39                             107    0.12 6  391 209 
 PRA  HZ I        2112 53.34         1.7 0.33            107            391 209 
                                                                                
