 2017  3 5 2325 24.9 L   6.780 -73.151148.7  RSN  7 0.3 1.4LRSN                1
 GAP=137        0.84       3.5     4.2  5.3 -0.3257E+01  0.1908E+01  0.4645E+01E
 Epicentro: LOS SANTOS - SANTANDER                                             3
 ACTION:UPD 17-05-25 18:36 OP:jn   STATUS:               ID:20170305232524 L   I
 OLDACT:DUP 17-03-06 06:35 OP:edw  STATUS:               ID:20170305231743d    3
 2017-03-05-2318-00M.COL___387                                                 6
 STAT SP IPHASW D HRMM SECON CODA AMPLIT PERI AZIMU VELO AIN AR TRES W  DIS CAZ7
 BAR2 EZ EP       2325 44.76                             172   -0.0910 21.1 190 
 BAR2 EZ ES       2326  0.13                             172   -0.2710 21.1 190 
 BAR2 EZ I        2326  1.01         7.5 0.32            170           21.1 190 
 BRR  HZ EP       2325 46.61                             153    0.2010 71.8 300 
 BRR  HN ES       2326  3.69                             153    0.5110 71.8 300 
 PAM  EZ EP       2325 47.68                             151    0.1210 79.4  39 
 PAM  EN ES       2326  4.84                             151   -0.3810 79.4  39 
 PAM  EZ I        2326  6.91         4.7 0.54            153           79.4  39 
 RUS  HZ EP       2325 48.89                             145    0.0910 98.4 176 
 RUS  HN ES       2326  7.81                             145    0.3810 98.4 176 
 RUS  HZ I        2326  8.47         2.7 0.18            145           98.4 176 
 PTB  HZ EP       2325 51.92                             133   -0.11 9  147 260 
 PTB  HN ES       2326 12.62                             133   -0.56 9  147 260 
 PTB  HZ I        2326 15.48         2.4 0.14            133            147 260 
 SPBC HZ EP       2325 53.40                             130   -0.04 9  161 219 
 SPBC HN ES       2326 16.06                             130    0.37 9  161 219 
 SPBC HZ I        2326 20.19         5.1 0.18            130            161 219 
 CHI  HZ EP       2326  2.67                             118    0.14 8  246 195 
 CHI  HN ES       2326 31.31                             118   -0.56 8  246 195 
 CHI  HZ I        2326 36.09         1.9 0.52            118            246 195 
                                                                                
