 2016  3 5 2338 27.0 L   6.668 -73.608 91.0  RSN  6 0.4 1.4LRSN                1
 GAP=157        0.59       5.1     3.2  8.1  0.4363E+01  0.5361E+01  0.3334E+01E
 Epicentro: EL CARMEN - SANTANDER                                              3
 ACTION:UPD 16-05-13 21:21 OP:cam  STATUS:               ID:20160305233827 L   I
 OLDACT:UP  16-03-06 05:14 OP:dnl  STATUS:               ID:20160305232750     3
 OLDACT:REG 16-03-06 03:46 OP:dnl  STATUS:               ID:20160305232750     3
 2016-03-05-2327-50M.COL___328                                                 6
 STAT SP IPHASW D HRMM SECON CODA AMPLIT PERI AZIMU VELO AIN AR TRES W  DIS CAZ7
 BAR2 EZ EP   2   2338 40.97                             150   -0.28 5 47.8 100 
 BAR2 EZ ES   2   2338 52.81                             150    0.45 5 47.8 100 
 BAR2 EZ I        2338 53.97        12.2 0.13            150           47.8 100 
 PTB  HZ EP   2   2338 43.96                             130   -0.74 5 94.9 261 
 PTB  HN ES       2338 58.44                             130   -0.0710 94.9 261 
 PTB  HZ I        2338 59.95         5.0 0.10            128           94.9 261 
 RUS  HZ EP   2   2338 45.83                             128   -0.34 5  104 146 
 RUS  HE ES   2   2339  1.22                             128    0.09 5  104 146 
 RUS  HZ I        2339  2.62         8.8 0.22            127            104 146 
 ZAR  HZ EP   2   2338 52.57                             114    0.44 5  165 303 
 ZAR  HE ES   2   2339 11.84                             114    0.11 5  165 303 
 ZAR  HZ I        2339 16.04         3.1 0.22            112            165 303 
 NOR  HZ EP   2   2338 55.03                             111    0.56 4  185 229 
 NOR  HE ES   2   2339 15.52                             111   -0.37 4  185 229 
 NOR  HZ I        2339 20.41         2.5 0.14            110            185 229 
 GUY2CHZ EP   4   2339  4.23                             105    1.48 0  252 231 
 GUY2CHE ES   2   2339 31.41                             105    0.77 4  252 231 
 GUY2CHZ I        2339 36.52         1.5 0.28                           252 231 
                                                                                
