 2017  2 5 2018 32.7 L   6.791 -73.146152.7  RSN  4 0.3 1.4LRSN                1
 GAP=137        0.92       5.2     5.0  8.0 -0.3053E+01  0.3215E+01  0.5432E+01E
 Epicentro: LOS SANTOS - SANTANDER                                             3
 ACTION:UPD 17-05-24 15:32 OP:jn   STATUS:               ID:20170205201832 L   I
 OLDACT:DUP 17-02-06 04:49 OP:dani STATUS:               ID:20170205200746d    3
 OLDACT:UP  17-02-06 04:48 OP:dani STATUS:               ID:20170205200744     3
 OLDACT:UP  17-02-06 04:48 OP:dani STATUS:               ID:20170205200744     3
 OLDACT:UP  17-02-06 04:46 OP:dani STATUS:               ID:20170205200744     3
 OLDACT:UP  17-02-06 04:46 OP:dani STATUS:               ID:20170205200744     3
 OLDACT:UP  17-02-06 04:45 OP:dani STATUS:               ID:20170205200744     3
 OLDACT:UP  17-02-06 04:45 OP:dani STATUS:               ID:20170205200744     3
 OLDACT:UP  17-02-06 04:45 OP:dani STATUS:               ID:20170205200744     3
 OLDACT:UP  17-02-06 04:43 OP:dani STATUS:               ID:20170205200744     3
 OLDACT:UP  17-02-06 04:42 OP:dani STATUS:               ID:20170205200744     3
 OLDACT:UP  17-02-06 04:42 OP:dani STATUS:               ID:20170205200744     3
 OLDACT:REG 17-02-06 03:31 OP:dani STATUS:               ID:20170205200744     3
 2017-02-05-2008-00M.COL___334                                                 6
 STAT SP IPHASW D HRMM SECON CODA AMPLIT PERI AZIMU VELO AIN AR TRES W  DIS CAZ7
 BRR  HZ EP       2018 54.82                             153    0.1810 71.7 299 
 BRR  HN ES       2019 12.30                             153    0.5610 71.7 299 
 BRR  HZ I        2019 15.72         6.6 0.49            155           71.7 299 
 PAM  EZ EP       2018 55.61                             152   -0.1110 78.2  39 
 PAM  EN ES       2019 13.32                             152   -0.3410 78.2  39 
 PAM  EZ I        2019 15.31         3.0 0.20            154           78.2  39 
 RUS  HZ EP       2018 57.56                             145    0.4810 99.5 176 
 RUS  HE ES       2019 15.93                             145   -0.1510 99.5 176 
 RUS  HZ I        2019 18.45         2.9 0.32            148           99.5 176 
 PTB  HZ EP       2018 59.89                             134   -0.34 9  148 259 
 PTB  HE ES       2019 21.33                             134   -0.37 9  148 259 
 PTB  HZ I        2019 22.44         2.6 0.29            136            148 259 
                                                                                
