 2017  4 5 2200 16.3 L   5.940 -73.888  0.3  RSN  7 0.4 1.6LRSN                1
 GAP=104        1.17       2.0     2.5  5.7 -0.8434E+00 -0.1447E+01 -0.9014E+00E
 Epicentro: SUCRE - SANTANDER                                                  3
 ACTION:UPD 17-05-30 21:08 OP:jn   STATUS:               ID:20170405220016 L   I
 OLDACT:REG 17-04-06 07:17 OP:lv   STATUS:               ID:20170405215741     3
 2017-04-05-2158-00M.COL___365                                                 6
 STAT SP IPHASW D HRMM SECON CODA AMPLIT PERI AZIMU VELO AIN AR TRES W  DIS CAZ7
 SPBC HZ IP     C 22 0 23.46                              47    0.2610 37.8 213 
 SPBC HN ES       22 0 29.04                              47    0.4210 37.8 213 
 SPBC HZ I        22 0 29.55        91.3 0.10             47           37.8 213 
 RUS  HZ EP       22 0 31.07                              47   -0.3410 89.3  93 
 RUS  HN ES       22 0 42.33                              47   -0.8910 89.3  93 
 RUS  HZ I        22 0 42.94         5.8 0.16             47           89.3  93 
 PTB  HZ IP     C 22 0 30.83                              47   -0.4010 91.4 317 
 PTB  HN ES       22 0 42.14                              47   -0.7710 91.4 317 
 PTB  HZ I        22 0 42.71        27.1 0.20             47           91.4 317 
 BAR2 EZ EP       22 0 33.86                              47    0.1410  106  47 
 BAR2 EZ ES       22 0 47.82                              47    0.4810  106  47 
 BAR2 EZ I        22 0 51.95        12.6 0.26             47            106  47 
 BRR  HZ EP       22 0 37.28                              47    0.1410  130   9 
 BRR  HN ES       22 0 53.89                              47    0.4510  130   9 
 CHI  HZ EP       22 0 40.13                              47    0.21 9  146 173 
 CHI  HN ES       22 0 58.24                              47   -0.14 9  146 173 
 CHI  HZ I        22 1  2.41         5.7 0.31             47            146 173 
 PAM  EZ EP       22 0 48.35                              37    0.26 9  203  40 
 PAM  EN ES       22 1 13.35                              37    0.44 9  203  40 
 PAM  EZ I        22 1 14.63         7.2 0.18             37            203  40 
                                                                                
