 2013  1 5 2342 49.5 L   6.887 -73.274124.1  RSN  7 0.5 1.6LRSN                1
 GAP=165        0.93       5.4     8.1  8.9  0.2097E+02  0.1760E+02  0.9158E+01E
 Epicentro: BETULIA - SANTANDER                                                3
 ACTION:UPD 13-02-15 09:12 OP:ep   STATUS:               ID:20130105234249 L   I
 2013-01-05-2340-00M.COL___242                                                 6
 STAT SP IPHASW D HRMM SECON CODA AMPLIT PERI AZIMU VELO AIN AR TRES W  DIS CAZ7
 BAR2 SZ EP   1   2343  7.24                             164    0.44 7 34.2 163 
 BAR2 SZ ES   1   2343 20.18                             164   -0.15 7 34.2 163 
 BRR  HZ EP   1   2343  7.55                             155    0.23 7 54.1 297 
 BRR  HN ES   1   2343 21.69                             155    0.45 7 54.1 297 
 BRR  HZ I        2343 22.46        10.7 0.14            128           54.1 297 
 RUS  HZ EP   1   2343 12.44                             135    0.35 7  112 169 
 RUS  HN ES   1   2343 29.26                             135   -0.49 7  112 169 
 RUS  HZ I        2343 30.68         4.7 0.22            116            112 169 
 PTB  HZ EP   1   2343 12.60                             129   -1.04 7  136 254 
 PTB  HZ I        2343 34.75         8.9 0.56            108            136 254 
 OCA  HN ES   1   2343 34.72                             126   -0.41 7  150 358 
 ZAR  HN ES   1   2343 41.86                             120    0.19 7  187 291 
 ZAR  HZ I        2343 47.78         2.8 0.10            104            187 291 
 CHI  HZ EP   1   2343 27.25                             112    0.51 6  255 191 
                                                                                
