 2017 10 5 2058 53.9 L   7.037 -73.501108.2  RSN  5 0.4 1.5LRSN                1
 GAP=141        1.02       4.4     4.1 10.5  0.9067E+00  0.2206E+02 -0.1143E+01E
 Epicentro: SAN VICENTE DE CHUCURI - SANTANDER                                 3
 ACTION:UPD 17-11-07 19:28 OP:rebc STATUS:               ID:20171005205853 L   I
 OLDACT:UP  17-10-06 03:30 OP:dani STATUS:               ID:20171005205734d    3
 OLDACT:DUP 17-10-06 03:27 OP:dani STATUS:               ID:20171005205734d    3
 2017-10-05-2058-00M.COL___447                                                 6
 STAT SP IPHASW D HRMM SECON CODA AMPLIT PERI AZIMU VELO AIN AR TRES W  DIS CAZ7
 BAR2 EZ EP       2059 10.74                             149    0.0210 60.5 144 
 BAR2 EZ ES       2059 24.29                             149    0.4210 60.5 144 
 BAR2 EZ I        2059 25.01        17.4 0.20            152           60.5 144 
 PAM  EZ EP       2059 14.33                             136    0.7010 94.7  69 
 PAM  EN ES       2059 28.44                             136   -0.6110 94.7  69 
 PAM  EZ I        2059 32.51         6.1 0.22            139           94.7  69 
 RUS  HZ EP       2059 16.87                             125   -0.4910  135 160 
 RUS  HN ES       2059 35.65                             125   -0.0410  135 160 
 RUS  HZ I        2059 38.39         1.8 0.44            129            135 160 
 ZAR  HZ EP       2059 19.32                             120    0.18 9  158 289 
 ZAR  HN ES       2059 38.67                             120   -0.18 9  158 289 
 ZAR  HZ I        2059 41.64         6.5 0.29            123            158 289 
 NOR  HE ES       2059 51.55                             111   -0.07 8  222 223 
                                                                                
