 2013  6 5 2231  3.7 L   6.808 -73.139148.0  RSN 25 0.6 2.9LRSN 3.3WRSN        1
 SPEC AVERAGE  MO 14.1 ST  2.1 OM  2.3 f0 2.70 R0.7592 AL 1.69 WI 28.1 MW  3.3 3
 SPEC SD       MO  0.2 ST  2.6 OM  0.3 f00.708 R0.1937 AL      WI      MW  0.1 3
 GAP= 55        1.38       2.4     3.2  5.1 -0.1820E+01  0.2678E+01  0.1974E+01E
 Epicentro: LOS SANTOS - SANTANDER                                             3
 SPEC YOP SH E MO 14.2 ST0.870 OM  2.2 f0 2.01 R0.9572 AL 2.15 WI 26.3 MW  3.4 3
 SPEC YOP SH E T223156 K 0.050 GD  232 VS 5.20 DE 3.20 Q0750.0 QA 1.50 VS 5.20 3
 SPEC RREFHH Z MO 13.8 ST0.667 OM  1.6 f0 2.53 R0.7605 AL 2.09 WI 25.2 MW  3.2 3
 SPEC RREFHH Z T223228 K 0.050 GD  355 VS 5.20 DE 3.20 Q0750.0 QA 1.50 VS 5.20 3
 SPECGUY2CHH E MO 13.9 ST0.343 OM 1.74 f0 1.85 R1.0406 AL 1.63 WI 28.8 MW  3.2 3
 SPECGUY2CHH E T223222 K 0.050 GD  336 VS 5.20 DE 3.20 Q0750.0 QA 1.50 VS 5.20 3
 SPEC HEL HH E MO 14.0 ST0.712 OM  1.8 f0 2.32 R0.8293 AL 1.39 WI 39.6 MW  3.3 3
 SPEC HEL HH E T223214 K 0.050 GD  310 VS 5.20 DE 3.20 Q0750.0 QA 1.50 VS 5.20 3
 SPEC CHI HH E MO 14.1 ST0.852 OM  2.0 f0 2.16 R0.8907 AL 1.77 WI 24.9 MW  3.4 3
 SPEC CHI HH E T2232 9 K 0.050 GD  290 VS 5.20 DE 3.20 Q0750.0 QA 1.50 VS 5.20 3
 SPEC NOR HH E MO 14.1 ST  5.3 OM  2.0 f0 4.03 R0.4774 AL 1.85 WI 30.5 MW  3.4 3
 SPEC NOR HH E T2232 6 K 0.050 GD  278 VS 5.20 DE 3.20 Q0750.0 QA 1.50 VS 5.20 3
 SPEC OCA HH N MO 14.3 ST  1.5 OM  2.3 f0 2.26 R0.8513 AL 1.03 WI 41.7 MW  3.5 3
 SPEC OCA HH N T223152 K 0.050 GD  217 VS 5.20 DE 3.20 Q0750.0 QA 1.50 VS 5.20 3
 SPEC PTB HH E MO 13.8 ST0.893 OM  1.8 f0 2.85 R0.6751 AL 1.10 WI 37.1 MW  3.1 3
 SPEC PTB HH E T223150 K 0.050 GD  210 VS 5.20 DE 3.20 Q0750.0 QA 1.50 VS 5.20 3
 SPEC RUS HH E MO 14.2 ST0.567 OM  2.3 f0 1.76 R1.0932 AL 1.82 WI 15.9 MW  3.4 3
 SPEC RUS HH E T223146 K 0.050 GD  179 VS 5.20 DE 3.20 Q0750.0 QA 1.50 VS 5.20 3
 SPEC PAM SH N MO 14.1 ST  1.7 OM  2.2 f0 2.81 R0.6847 AL 2.03 WI 28.4 MW  3.3 3
 SPEC PAM SH N T223142 K 0.050 GD  166 VS 5.20 DE 3.20 Q0750.0 QA 1.50 VS 5.20 3
 SPEC BRR HH N MO 14.4 ST  9.3 OM  2.5 f0 3.94 R0.4883 AL 1.96 WI 23.7 MW  3.5 3
 SPEC BRR HH N T223142 K 0.050 GD  164 VS 5.20 DE 3.20 Q0750.0 QA 1.50 VS 5.20 3
 SPEC BAR2SH Z MO 13.8 ST  1.2 OM  2.0 f0 2.99 R0.6435 AL 1.36 WI 15.6 MW  3.2 3
 SPEC BAR2SH Z T223138 K 0.050 GD  149 VS 5.20 DE 3.20 Q0750.0 QA 1.50 VS 5.20 3
 ACTION:UPD 14-01-08 09:52 OP:ep   STATUS:               ID:20130605223103 L   I
 OLDACT:UP  13-06-06 01:00 OP:stll STATUS:               ID:20130605222844     3
 OLDACT:UP  13-06-06 00:55 OP:stll STATUS:               ID:20130605222844     3
 OLDACT:REG 13-06-05 22:27 OP:stll STATUS:               ID:20130605222844     3
 2013-06-05-2228-44M.COL___225                                                 6
 STAT SP IPHASW D HRMM SECON CODA AMPLIT PERI AZIMU VELO AIN AR TRES W  DIS CAZ7
 BAR2 SZ IP     C 2231 23.75                             170    0.1210 24.3 191 
 BAR2 SZ ES       2231 38.75                             170   -0.4210 24.3 191 
 BAR2 SZ I        2231 39.97        99.1 0.22            168           24.3 191 
 GIR2 SZ EP       2231 23.84                             168    0.2010 30.6 349 
 GIR2 SZ ES       2231 39.09                             168   -0.0810 30.6 349 
 BRR  HZ IP     C 2231 25.57                             153    0.4510 71.4 298 
 BRR  HE ES       2231 42.47                             153    0.6610 71.4 298 
 BRR  HN I        2231 45.85       210.2 0.18            152           71.4 298 
 PAM  SZ EP       2231 26.58                             151    0.4810 76.3  40 
 PAM  SE ES       2231 43.42                             151   -0.1510 76.3  40 
 PAM  SN I        2231 45.12       141.8 0.36            155           76.3  40 
 RUS  HZ EP       2231 27.74                             144   -0.0010  101 176 
 RUS  HN ES       2231 46.80                             144    0.3110  101 176 
 RUS  HE I        2231 48.40       105.1 0.28            144            101 176 
 GRA  SZ ES       2231 49.32                             138    0.4710  125  17 
 CCUC3EZ EP       2231 30.36                             135    0.41 9  137  31 
 CCUC3EE ES       2231 51.33                             135    0.93 9  137  31 
 CAPV BZ EP       2231 31.40                             132    0.21 9  148  38 
 CAPV BZ ES       2231 52.32                             132   -0.30 9  148  38 
 PTB  HZ EP       2231 30.32                             132   -0.63 9  149 259 
 PTB  HN ES       2231 51.39                             132   -0.79 9  149 259 
 PTB  HE I        2231 57.41        71.0 0.24            132            149 259 
 TAM  HZ IP     D 2231 32.16                             131    0.63 9  155 105 
 TAM  HZ I        2231 32.39        59.6 0.38            134            155 105 
 TAM  HN ES       2231 53.75                             131    0.53 9  155 105 
 OCA  HZ EP       2231 32.15                             130    0.02 9  160 353 
 OCA  HN ES       2231 53.05                             130   -1.24 9  160 353 
 OCA  HE I        2231 57.16       171.0 0.24            132            160 353 
 YOP  SZ EP       2231 33.81                             127   -0.15 9  179 154 
 YOP  SN ES       2231 56.69                             127   -0.87 9  179 154 
 YOP  SE I        2232  2.04        66.2 0.38            128            179 154 
 AGZ  SZ EP       2231 38.07                             121    0.10 8  220 160 
 AGZ  SZ ES       2232  2.81                             121   -1.88 8  220 160 
 NOR  HZ EP       2231 39.53                             119   -0.16 8  236 234 
 NOR  HN ES       2232  6.96                             119   -0.79 8  236 234 
 NOR  HE I        2232 13.01        73.3 0.50            119            236 234 
 SML  HZ EP       2231 40.10                             118   -0.32 8  243 335 
 SML  HN ES       2232  8.61                             118   -0.43 8  243 335 
 CHI  HZ IP     D 2231 42.08                             117    0.43 8  250 195 
 CHI  HN ES       2232 11.16                             117   -0.07 8  250 195 
 CHI  HE I        2232 19.46        49.0 0.40            118            250 195 
 CROSAEZ EP       2231 42.69                             117    0.69 8  253 211 
 CROSAEN ES       2232 11.97                             117    0.11 8  253 211 
 HEL  HZ EP       2231 44.42                             115    0.28 8  273 256 
 HEL  HN ES       2232 15.70                             115    0.02 8  273 256 
 HEL  HE I        2232 22.98        38.8 0.40            116            273 256 
 URE  HZ EP       2231 44.30                             114   -0.64 7  284 292 
 GUY2CHZ EP       2231 48.11                             113    0.56 7  302 235 
 GUY2CHN ES       2232 23.16                             113    1.42 7  302 235 
 GUY2CHE I        2232 29.30        27.6 0.32                           302 235 
 VIL  SZ EP       2231 47.41                             112    0.06 7  304 192 
 VIL  SN ES       2232 21.62                             112    0.24 7  304 192 
 RREF HZ EP       2231 49.76                             111   -0.32 7  323 229 
 RREF HN ES       2232 27.45                             111    1.20 7  323 229 
 RREF HZ I        2232 35.95        26.0 0.42            112            323 229 
 COD  HZ IP     D 2231 51.63                             109   -0.46 6  347 354 
 COD  HN ES       2232 29.58                             109   -0.24 6  347 354 
 SDV  BZ EP       2231 53.37                             109   -0.34 6  359  50 
 SDV  BE ES       2232 31.83                             109   -0.88 6  359  50 
 PRA  HZ EP       2231 57.58                             107    0.14 6  393 210 
 PRA  HN ES       2232 39.06                             107   -0.29 6  393 210 
 PRA  HE I        2232 45.17        32.6 0.34            107            393 210 
                                                                                
