 2010  9 5 2320 31.8 L   6.837 -73.017139.7  RSN 11 0.4 2.2LRSN                1
 GAP=135        0.72       3.0     4.9  4.6 -0.5063E+01 -0.2360E+01  0.1608E+01E
 Epicentro: CEPITA - SANTANDER                                                 3
 ACTION:UP  11-02-18 11:00 OP:tino STATUS:               ID:20100905232031 L   I
 2010-09-05-2316-47S.COL___120                                                 6
 STAT SP IPHASW D HRMM SECON CODA AMPLIT PERI AZIMU VELO SNR AR TRES W  DIS CAZ7
 BAR2 SZ EP       2320 51.00                             166     0.110   33 214 
 BAR2 SZ ES       2321  6.01                             166     0.210   33 214 
 BAR2 SZ I        2321  8.78        25.8 0.49                            33 214 
 BRR  HZ EP       2320 52.79                             148    -0.210   83 291 
 BRR  HZ I        2320 53.26        38.8 0.27                            83 291 
 BRR  HN ES       2321  9.64                             148     0.110   83 291 
 RUS  HZ EP       2320 55.12                             141    -0.110  105 184 
 RUS  HN ES   2   2321 13.44                             141    -0.1 5  105 184 
 RUS  HZ I        2321 15.59        11.0 0.19                           105 184 
 GRA  SZ EP       2320 55.66                             138    -0.210  118  11 
 GRA  SZ ES   1   2321 14.95                             138     0.3 7  118  11 
 GRA  SZ I        2321 16.51        18.4 0.66                           118  11 
 OCA  SZ EP       2320 59.42                             129    -0.1 9  159 348 
 OCA  SZ ES   2   2321 20.37                             129    -0.7 5  159 348 
 OCA  SZ I        2321 24.12        16.3 0.34                           159 348 
 CHI  HN ES   2   2321 39.85                             115     0.0 4  257 198 
 CHI  HZ I        2321 46.37         5.2 0.73                           257 198 
 ROSC BZ EP   1   2321 11.65                             114     0.8 6  264 213 
 ROSC BE ES   2   2321 40.01                             114    -1.2 4  264 213 
 ROSC BZ I        2321 47.67        12.6 0.42                           264 213 
 HEL  HZ EP   1   2321 13.66                             112     0.3 6  287 256 
 HEL  HN ES   2   2321 45.62                             112    -0.2 4  287 256 
 HEL  HZ I        2321 50.31         9.1 1.10                           287 256 
 RREF HZ EP   2   2321 19.69                             109     0.5 3  335 230 
 RREF HN ES   2   2321 56.48                             109     0.2 3  335 230 
 RREF HZ I        2322  3.36         7.8 0.42                           335 230 
 SDV  BZ EP   1   2321 20.32                             108     0.3 5  347  49 
 SDV  BZ I        2321 21.50         4.9 0.30                           347  49 
 PRA  HZ EP   1   2321 26.28                             105    -0.1 4  403 211 
 PRA  HN ES   2   2322  8.37                             105    -0.6 3  403 211 
 PRA  HZ I        2322 13.70         7.9 0.97                           403 211 
                                                                                
