 2011  2 5 2113 39.0 L   6.821 -72.956146.7  RSN  5 0.3 1.6LRSN                1
 GAP=180        0.51       4.7    18.7  9.5 -0.2099E+02 -0.6421E+02  0.1730E+02E
 Epicentro: CEPITA - SANTANDER                                                 3
 ACTION:UP  11-03-28 15:06 OP:jfem STATUS:               ID:20110205211339 L   I
 2011-02-05-2111-13S.COL___138                                                 6
 STAT SP IPHASW D HRMM SECON CODA AMPLIT PERI AZIMU VELO SNR AR TRES W  DIS CAZ7
 BTL  SZ EP       2113 59.36                             164     0.310   36 287 
 BTL  SZ ES   2   2114 14.41                             164    -0.4 5   36 287 
 GIR2 SZ EP   3   2113 58.46                             163    -0.6 2   39 317 
 RUS  HZ EP       2114  3.05                             143    -0.110  104 188 
 RUS  HN ES   2   2114 21.83                             143     0.0 5  104 188 
 GRA  SZ ES   2   2114 22.97                             138    -0.1 5  119   8 
 GRA  SZ I        2114 27.49         7.2 0.60                           119   8 
 CHI  HZ EP   3   2114 16.83                             116    -0.9 2  257 200 
 CHI  HZ I        2114 54.98         2.0 0.51                           257 200 
                                                                                
