 2017 11 5 2232 13.5 L   6.785 -73.144150.1  RSN  9 0.4 1.2LRSN                1
 GAP=137        0.96       4.0     4.4  6.8 -0.5810E+01  0.5909E+01  0.4600E+01E
 Epicentro: LOS SANTOS - SANTANDER                                             3
 ACTION:UPD 17-12-12 19:52 OP:rebc STATUS:               ID:20171105223213 L   I
 OLDACT:REG 17-11-06 03:28 OP:osc  STATUS:               ID:20171105222739     3
 2017-11-05-2228-00M.COL___438                                                 6
 STAT SP IPHASW D HRMM SECON CODA AMPLIT PERI AZIMU VELO AIN AR TRES W  DIS CAZ7
 BAR2 EZ EP       2232 33.81                             171    0.1410 21.8 191 
 BAR2 EZ ES       2232 49.66                             171    0.2910 21.8 191 
 BAR2 EZ I        2232 50.14         7.9 0.20            171           21.8 191 
 BRR  HZ EP       2232 35.69                             153    0.4610 72.2 300 
 BRR  HE ES       2232 52.47                             153    0.3410 72.2 300 
 PAM  EZ EP       2232 36.40                             151    0.1110 78.5  39 
 PAM  EN ES       2232 53.84                             151   -0.2010 78.5  39 
 RUS  HZ EP       2232 37.50                             145   -0.1210 99.0 176 
 RUS  HN ES       2232 55.96                             145   -0.4310 99.0 176 
 RUS  HZ I        2232 57.42         1.7 0.22            147           99.0 176 
 PTB  HZ EP       2232 40.27                             133   -0.60 9  148 259 
 PTB  HN ES       2233  1.37                             133   -0.81 9  148 259 
 PTB  HZ I        2233  8.10         1.6 0.36            133            148 259 
 SPBC HE ES       2233  4.97                             130    0.28 9  162 219 
 NOR  HE ES       2233 17.62                             119    0.16 8  234 235 
 CHI  HN ES       2233 20.98                             118    0.18 8  247 195 
 GUY2CHE ES       2233 31.77                             113    0.38 7  300 235 
                                                                                
