 2017  2 5 2301 48.0 L   6.764 -73.195155.7  RSN  4 0.1 1.2LRSN                1
 GAP=229        0.38       3.2     3.2  3.8  0.6905E+01 -0.5331E+00 -0.9270E+00E
 Epicentro: ZAPATOCA - SANTANDER                                               3
 ACTION:UPD 17-05-24 15:32 OP:jn   STATUS:               ID:20170205230148 L   I
 OLDACT:REG 17-02-06 07:17 OP:dani STATUS:               ID:20170205225742     3
 2017-02-05-2258-00M.COL___328                                                 6
 STAT SP IPHASW D HRMM SECON CODA AMPLIT PERI AZIMU VELO AIN AR TRES W  DIS CAZ7
 BRR  HZ EP       23 2 10.17                             155    0.0510 68.6 304 
 BRR  HN ES       23 2 27.33                             155   -0.0210 68.6 304 
 BRR  HZ I        23 2 31.65         4.5 0.36            156           68.6 304 
 RUS  HZ EP       23 2 12.68                             147    0.1410 97.2 173 
 RUS  HN ES       23 2 31.57                             147   -0.0810 97.2 173 
 RUS  HZ I        23 2 32.05         1.4 0.30            151           97.2 173 
 PTB  HZ EP       23 2 15.10                             135   -0.20 9  142 260 
 PTB  HE ES       23 2 36.68                             135    0.12 9  142 260 
 PTB  HZ I        23 2 37.98         1.9 0.42            139            142 260 
 ZAR  HN ES       23 2 46.34                             125   -0.01 9  201 294 
                                                                                
