 2011 11 5 2313 17.6 L   6.728 -73.076142.5  RSN  7 0.2 1.7LRSN                1
 GAP=149        0.35       3.2     3.5  5.4 -0.4060E+00  0.4448E+01  0.1114E+01E
 Epicentro: JORDAN - SANTANDER                                                 3
 ACTION:UPD 12-07-13 16:08 OP:ep   STATUS:               ID:20111105231317 L   I
 2011-11-05-2305-00M.COL___176                                                 6
 STAT SP IPHASW D HRMM SECON CODA AMPLIT PERI AZIMU VELO AIN AR TRES W  DIS CAZ7
 BAR2 SZ EP   2   2313 36.82                             172    0.08 5 19.0 218 
 BAR2 SZ ES   2   2313 51.35                             172   -0.33 5 19.0 218 
 BAR2 SZ I        2313 53.52         7.3 0.39                          19.0 218 
 GIR2 SZ EP   3   2313 36.86                             163   -0.32 2 40.9 342 
 GIR2 SZ ES   3   2313 52.75                             163    0.30 2 40.9 342 
 PAM  SZ EP   2   2313 39.73                             149    0.15 5 79.4  32 
 PAM  SN ES   2   2313 56.77                             149    0.04 5 79.4  32 
 BRR  HZ EP   2   2313 38.74                             148   -0.29 5 81.8 301 
 BRR  HZ I        2313 41.56        13.2 0.33                          81.8 301 
 BRR  HN ES   2   2313 56.12                             148    0.37 5 81.8 301 
 RUS  HZ EP   2   2313 40.60                             145    0.17 5 92.3 180 
 RUS  HN ES   2   2313 58.15                             145   -0.10 5 92.3 180 
 RUS  HZ I        2314  1.11         4.1 0.75                          92.3 180 
 ZAR  HN ES   2   2314 16.55                             120   -0.31 4  214 293 
 ZAR  HZ I        2314 21.18         7.8 0.29                           214 293 
 NOR  SE ES   2   2314 21.43                             117    0.22 4  237 237 
                                                                                
