 2016  7 5 2250 39.1 L   6.766 -73.216145.2  RSN  5 0.3 1.4LRSN                1
 GAP=237        0.58       5.5     4.7  8.5  0.1744E+02 -0.9030E+01 -0.1968E+02E
 Epicentro: ZAPATOCA - SANTANDER                                               3
 ACTION:UPD 17-03-29 16:47 OP:lp   STATUS:               ID:20160705225039 L   I
 OLDACT:REG 16-07-06 02:55 OP:ak   STATUS:               ID:20160705224742     3
 2016-07-05-2247-42M.COL___328                                                 6
 STAT SP IPHASW D HRMM SECON CODA AMPLIT PERI AZIMU VELO AIN AR TRES W  DIS CAZ7
 RUS  HZ EP       2251  2.51                             145   -0.0410 97.7 171 
 RUS  HN ES       2251 20.99                             145    0.1210 97.7 171 
 RUS  HZ I        2251 22.40         2.8 0.38            142           97.7 171 
 PTB  HZ EP   2   2251  4.84                             134   -0.39 5  139 260 
 PTB  HN ES       2251 25.32                             134   -0.32 9  139 260 
 PTB  HZ I        2251 28.00         3.0 0.17            132            139 260 
 SPBC HZ EP   2   2251  6.35                             131   -0.43 5  155 218 
 SPBC HE ES       2251 28.46                             131    0.06 9  155 218 
 SPBC HZ I        2251 32.52         4.1 0.09            128            155 218 
 ZAR  HN ES       2251 36.02                             123    0.32 9  198 294 
 GUY2CHZ EP   2   2251 22.41                             113    0.73 4  293 234 
                                                                                
