 2014  6 5 2033 28.0 L   6.825 -73.118146.2  RSN  7 0.3 1.8LRSN                1
 GAP=139        0.80       2.9     4.9  5.1 -0.1512E+01  0.6914E+01 -0.1591E+01E
 Epicentro: LOS SANTOS - SANTANDER                                             3
 ACTION:UPD 14-07-01 22:51 OP:nd   STATUS:               ID:20140605203328 L   I
 OLDACT:UP  14-06-06 02:45 OP:cam  STATUS:               ID:20140605203000     3
 OLDACT:REG 14-06-06 02:20 OP:cma  STATUS:               ID:20140605203000     3
 2014-06-05-2030-00M.COL___276                                                 6
 STAT SP IPHASW D HRMM SECON CODA AMPLIT PERI AZIMU VELO AIN AR TRES W  DIS CAZ7
 BAR2 SZ EP   1   2033 47.44                             169   -0.27 7 26.7 195 
 BAR2 SZ ES       2034  3.02                             169   -0.1010 26.7 195 
 BAR2 SZ I        2034  3.94        11.0 0.12            168           26.7 195 
 BRR  HZ EP       2033 49.20                             152   -0.0310 72.6 295 
 BRR  HN ES       2034  6.32                             152    0.4910 72.6 295 
 BRR  HN I        2034 11.09        22.6 0.18            150           72.6 295 
 PAM  SZ EP     D 2033 50.45                             152    0.4710 73.3  39 
 PAM  SN ES       2034  7.10                             152   -0.0610 73.3  39 
 PAM  SZ I        2034  9.76         8.6 0.64            157           73.3  39 
 RUS  HZ EP       2033 51.88                             143   -0.0610  103 178 
 RUS  HN ES       2034 10.50                             143   -0.1510  103 178 
 RUS  HZ I        2034 11.44         4.0 0.28            146            103 178 
 SPBC HZ EP   1   2033 56.43                             128   -0.45 7  167 219 
 SPBC HN ES       2034 19.23                             128   -0.20 9  167 219 
 SPBC HN I        2034 25.64        24.5 0.24            130            167 219 
 SML  HZ EP       2034  4.36                             118   -0.11 8  242 334 
 SML  HN ES       2034 32.43                             118   -0.52 8  242 334 
 SML  HZ I        2034 34.45         6.3 0.10            119            242 334 
 GUY2CHZ EP       2034 12.75                             112    0.70 7  305 235 
 GUY2CHN ES   4   2034 49.70                             112    3.26 0  305 235 
 GUY2CHZ I        2034 53.24         2.6 0.28                           305 235 
                                                                                
