 2012 12 5 2337  7.1 L   6.794 -73.186140.9  RSN 11 0.3 2.8LRSN                1
 GAP= 69        0.63       2.1     2.1  3.9 -0.1808E+00  0.1986E+01  0.6173E+00E
 Epicentro: LOS SANTOS - SANTANDER                                             3
 ACTION:UPD 13-01-04 14:25 OP:ep   STATUS:               ID:20121205233707 L   I
 2012-12-05-2330-00M.COL___237                                                 6
 STAT SP IPHASW D HRMM SECON CODA AMPLIT PERI AZIMU VELO AIN AR TRES W  DIS CAZ7
 BAR2 SZ EP       2337 26.43                             171    0.2710 22.3 179 
 BAR2 SZ ES       2337 40.62                             171   -0.3710 22.3 179 
 BAR2 SZ I        2337 42.50       234.9 0.21                          22.3 179 
 GIR2 SZ EP       2337 26.53                             167    0.3010 31.5 358 
 PAM  SZ EP       2337 29.25                             149    0.2110 80.8  42 
 PAM  SZ I        2337 29.64       168.3 0.22                          80.8  42 
 PAM  SE ES       2337 46.38                             149    0.2510 80.8  42 
 RUS  HZ EP       2337 30.34                             143   -0.0510  100 174 
 RUS  HN ES       2337 48.89                             143    0.3710  100 174 
 RUS  HN I        2337 50.50       101.5 0.30                           100 174 
 PTB  HZ EP       2337 33.04                             132   -0.26 9  143 259 
 PTB  HN ES       2337 53.56                             132   -0.15 9  143 259 
 PTB  HZ I        2337 56.43        50.5 0.13                           143 259 
 TAM  HZ IP     D 2337 34.71                             129   -0.11 9  159 104 
 TAM  HZ I        2337 34.88        83.6 0.19                           159 104 
 TAM  HN ES       2337 55.96                             129   -0.45 9  159 104 
 OCA  HZ EP   1   2337 34.70                             128   -0.39 7  160 355 
 OCA  HE ES       2337 56.72                             128   -0.18 9  160 355 
 ZAR  HZ EP   1   2337 39.13                             122    0.26 6  200 293 
 ZAR  HE ES   1   2338  3.88                             122    0.26 6  200 293 
 ZAR  HZ I        2338 13.25        43.1 0.47                           200 293 
 CHI  HZ EP   1   2337 44.45                             116    0.08 6  247 194 
 CHI  HN ES   1   2338 13.59                             116    0.18 6  247 194 
 HEL  HZ EP   1   2337 46.62                             114    0.01 6  268 256 
 HEL  HN ES   1   2338 17.07                             114   -0.33 6  268 256 
 HEL  HZ I        2338 25.23        26.2 0.25                           268 256 
 PRA  HZ EP   1   2338  0.50                             106    0.33 4  389 209 
 PRA  HN ES   1   2338 41.07                             106   -0.46 4  389 209 
 PRA  HZ I        2338 49.82        14.5 0.46                           389 209 
                                                                                
