 2017  1 5 2001 15.1 L   6.770 -73.094143.5  RSN  6 0.3 1.5LRSN                1
 GAP=145        0.82       4.6     5.3  7.2  0.8084E+01  0.1142E+02  0.4652E+01E
 Epicentro: LOS SANTOS - SANTANDER                                             3
 ACTION:UPD 17-05-22 15:55 OP:jn   STATUS:               ID:20170105200115 L   I
 OLDACT:UP  17-01-06 04:24 OP:cog  STATUS:               ID:20170105194937     3
 OLDACT:UP  17-01-06 04:23 OP:cog  STATUS:               ID:20170105194937     3
 OLDACT:REG 17-01-06 03:38 OP:cog  STATUS:               ID:20170105194937     3
 2017-01-05-1958-00M.COL___375                                                 6
 STAT SP IPHASW D HRMM SECON CODA AMPLIT PERI AZIMU VELO AIN AR TRES W  DIS CAZ7
 BAR2 EZ EP       20 1 34.25                             171   -0.2110 22.0 206 
 BAR2 EZ ES       20 1 49.08                             171   -0.4610 22.0 206 
 BAR2 EZ I        20 1 49.84        10.1 0.34            170           22.0 206 
 PAM  EN ES       20 1 54.17                             151    0.0110 76.6  35 
 BRR  HZ EP       20 1 36.36                             150   -0.0610 77.8 299 
 BRR  HN ES       20 1 53.60                             150    0.5710 77.8 299 
 RUS  HZ EP       20 1 38.67                             144    0.2710 97.1 179 
 RUS  HN ES       20 1 56.66                             144    0.1010 97.1 179 
 RUS  HZ I        20 1 57.49         3.0 0.26            144           97.1 179 
 PTB  HZ EP   4   20 1 41.18                             130   -1.19 0  153 260 
 PTB  HN ES   4   20 2  1.79                             130   -1.83 0  153 260 
 PTB  HZ I        20 2  4.23         5.8 0.18            130            153 260 
 ZAR  HN ES       20 2 13.49                             121   -0.33 8  211 292 
                                                                                
