 2012  4 5 2226 58.0 L   6.745 -73.141150.7  RSN  6 0.2 1.5LRSN                1
 GAP=140        0.55       3.8     3.6  5.7  0.5744E+00  0.1861E+01  0.2817E+01E
 Epicentro: JORDAN - SANTANDER                                                 3
 ACTION:UPD 12-07-05 11:50 OP:tino STATUS:               ID:20120405222658 L   I
 2012-04-05-2220-00M.COL___196                                                 6
 STAT SP IPHASW D HRMM SECON CODA AMPLIT PERI AZIMU VELO AIN AR TRES W  DIS CAZ7
 BAR2 SZ EP   1   2227 18.09                             173    -0.1 7   17 195 
 BAR2 SZ ES   2   2227 33.74                             173    -0.1 5   17 195 
 BAR2 SZ I        2227 36.08         7.6 0.36                            17 195 
 BRR  HZ EP   1   2227 20.19                             152     0.3 7   75 302 
 BRR  HE ES   1   2227 37.33                             152     0.3 7   75 302 
 BRR  HZ I        2227 41.42         5.3 0.20                            75 302 
 PAM  SZ EP   1   2227 21.25                             150     0.2 7   82  37 
 PAM  SN ES   1   2227 38.65                             150    -0.3 7   82  37 
 RUS  HZ EP       2227 21.73                             146    -0.110   94 176 
 RUS  HN ES   1   2227 40.57                             146     0.1 7   94 176 
 RUS  HZ I        2227 42.27         4.1 0.45                            94 176 
 PTB  HZ EP   1   2227 25.37                             133     0.0 7  147 261 
 PTB  HE ES   1   2227 46.45                             133    -0.2 7  147 261 
 PTB  HZ I        2227 48.39         4.4 0.16                           147 261 
 ZAR  HN ES   2   2227 56.39                             123    -0.5 4  207 294 
                                                                                
