 2017  9 5 2029  9.2 L   6.771 -73.133144.0  RSN  9 0.4 1.8LRSN                1
 GAP=139        0.88       3.4     4.6  5.4 -0.4248E+01  0.9836E+01  0.3331E+01E
 Epicentro: LOS SANTOS - SANTANDER                                             3
 ACTION:UPD 17-10-05 19:09 OP:rebc STATUS:               ID:20170905202909 L   I
 OLDACT:UP  17-09-06 04:08 OP:edw  STATUS:               ID:20170905202744     3
 OLDACT:REG 17-09-06 03:09 OP:edw  STATUS:               ID:20170905202744     3
 2017-09-05-2028-00M.COL___428                                                 6
 STAT SP IPHASW D HRMM SECON CODA AMPLIT PERI AZIMU VELO AIN AR TRES W  DIS CAZ7
 BAR2 EZ EP       2029 28.23                             172   -0.3610 20.5 195 
 BAR2 EZ ES       2029 43.94                             172    0.2510 20.5 195 
 BAR2 EZ I        2029 44.22        23.1 0.30            171           20.5 195 
 BRR  HZ EP       2029 29.75                             151   -0.5910 74.0 300 
 BRR  HN ES       2029 47.16                             151    0.3510 74.0 300 
 PAM  EZ EP       2029 31.20                             150   -0.1510 79.1  37 
 PAM  EN ES       2029 48.62                             150    0.0110 79.1  37 
 PAM  EZ I        2029 50.61         6.2 0.64            152           79.1  37 
 RUS  HZ EP       2029 32.40                             144   -0.1610 97.3 177 
 RUS  HN ES       2029 50.92                             144    0.1510 97.3 177 
 RUS  HZ I        2029 52.65         9.4 0.26            146           97.3 177 
 ZAR  HZ EP       2029 42.34                             122    0.53 8  207 293 
 ZAR  HN ES   4   2030  5.95                             122   -1.28 0  207 293 
 ZAR  HZ I        2030 11.96         6.3 0.10            122            207 293 
 NOR  HZ EP       2029 44.85                             118    0.08 8  234 235 
 NOR  HN ES       2030 12.08                             118   -0.41 8  234 235 
 NOR  HZ I        2030 17.03         3.7 0.46            119            234 235 
 CHI  HN ES       2030 15.85                             117    0.23 8  246 196 
 GUY2CHZ EP       2029 53.28                             112    0.61 7  300 235 
 GUY2CHE ES       2030 25.98                             112   -0.57 7  300 235 
 GUY2CHZ I        2030 36.67         2.5 0.52                           300 235 
 PRA  HZ EP       2030  3.15                             106    0.72 6  390 210 
 PRA  HN ES       2030 43.72                             106   -0.21 6  390 210 
 PRA  HZ I        2030 46.31         3.5 0.34            107            390 210 
                                                                                
