 2016  4 5 2127 20.4 L   6.766 -73.133141.8  RSN  9 0.4 1.7LRSN                1
 GAP=140        0.90       3.4     3.8  6.0 -0.2753E+01  0.9658E+01  0.7776E-01E
 Epicentro: LOS SANTOS - SANTANDER                                             3
 ACTION:UPD 16-05-05 14:19 OP:rebc STATUS:               ID:20160405212720 L   I
 OLDACT:REG 16-04-06 03:37 OP:ak   STATUS:               ID:20160405211748     3
 2016-04-05-2117-48M.COL___307                                                 6
 STAT SP IPHASW D HRMM SECON CODA AMPLIT PERI AZIMU VELO AIN AR TRES W  DIS CAZ7
 BAR2 EZ EP       2127 39.78                             172    0.2910 20.0 196 
 BAR2 EZ ES       2127 54.11                             172   -0.2610 20.0 196 
 BAR2 EZ I        2127 55.77        12.0 0.16            172           20.0 196 
 PAM  EZ EP       2127 42.60                             149    0.2810 79.4  37 
 PAM  EN ES       2127 59.39                             149   -0.0210 79.4  37 
 PAM  EZ I        2128  1.75         9.6 0.44            153           79.4  37 
 RUS  HZ EP       2127 43.26                             144   -0.2210 96.8 177 
 RUS  HN ES       2128  1.65                             144    0.1610 96.8 177 
 RUS  HZ I        2128  4.47         4.8 0.32            147           96.8 177 
 PTB  HZ EP       2127 46.67                             131   -0.44 9  148 260 
 PTB  HN ES       2128  7.49                             131   -0.45 9  148 260 
 PTB  HZ I        2128 10.12         6.7 0.10            132            148 260 
 SPBC HZ EP       2127 48.79                             128    0.38 9  161 220 
 SPBC HN ES       2128 10.84                             128    0.59 9  161 220 
 SPBC HZ I        2128 15.40         5.4 0.10            131            161 220 
 ZAR  HZ EP       2127 52.76                             121   -0.11 8  207 293 
 ZAR  HN ES       2128 18.36                             121    0.16 8  207 293 
 ZAR  HZ I        2128 23.72         5.2 0.21            123            207 293 
 NOR  HE ES       2128 23.38                             118   -0.02 8  234 235 
 CHI  HN ES       2128 25.75                             117   -0.74 8  245 196 
 GUY2CHZ EP       2128  3.39                             112   -0.33 7  300 236 
 GUY2CHN ES       2128 38.18                             112    0.68 7  300 236 
 GUY2CHZ I        2128 45.25         2.8 0.28                           300 236 
                                                                                
