 2017 10 5 2319  6.2 L   6.806 -73.173141.1  RSN  5 0.5 1.6LRSN                1
 GAP=133        0.81       3.5     5.0  6.5  0.1229E+00  0.1090E+02  0.4593E+01E
 Epicentro: LOS SANTOS - SANTANDER                                             3
 ACTION:UPD 17-11-07 19:28 OP:rebc STATUS:               ID:20171005231906 L   I
 OLDACT:UP  17-10-06 04:01 OP:dani STATUS:               ID:20171005231746     3
 OLDACT:REG 17-10-06 02:59 OP:dani STATUS:               ID:20171005231746     3
 2017-10-05-2318-00M.COL___441                                                 6
 STAT SP IPHASW D HRMM SECON CODA AMPLIT PERI AZIMU VELO AIN AR TRES W  DIS CAZ7
 BAR2 EZ ES       2319 39.85                             170   -0.2610 23.7 183 
 PAM  EZ EP       2319 27.90                             150   -0.0710 78.8  42 
 PAM  EN ES       2319 45.07                             150    0.0910 78.8  42 
 PAM  EZ I        2319 47.31         7.1 0.64            152           78.8  42 
 RUS  HZ EP       2319 29.11                             143   -0.4110  101 174 
 RUS  HE ES       2319 48.25                             143    0.5110  101 174 
 RUS  HZ I        2319 48.66         3.5 0.20            145            101 174 
 ZAR  HZ EP   3   2319 40.48                             122    2.49 2  201 292 
 ZAR  HE ES       2320  2.85                             122    0.03 9  201 292 
 ZAR  HZ I        2320  9.12         7.1 0.40            121            201 292 
 CHI  HZ EP       2319 43.59                             116    0.00 8  249 194 
 CHI  HE ES       2320 12.78                             116   -0.00 8  249 194 
 CHI  HZ I        2320 14.80         2.3 0.36            117            249 194 
                                                                                
