 2016  6 5 2114 59.9 L   6.622 -73.070141.2  RSN  4 0.2 1.4LRSN                1
 GAP=228        0.54       9.1     4.2  8.4 -0.2489E+02 -0.1431E+02  0.5576E+02E
 Epicentro: CURITI - SANTANDER                                                 3
 ACTION:UPD 16-07-21 22:15 OP:rebc STATUS:               ID:20160605211459 L   I
 OLDACT:UP  16-06-08 16:34 OP:nlst STATUS:               ID:20160605211459 L   3
 OLDACT:UP  16-06-06 04:14 OP:mh   STATUS:               ID:20160605210745d    3
 OLDACT:UP  16-06-06 04:13 OP:mh   STATUS:               ID:20160605210745d    3
 OLDACT:UP  16-06-06 04:13 OP:mh   STATUS:               ID:20160605210745d    3
 OLDACT:DUP 16-06-06 04:13 OP:mh   STATUS:               ID:20160605210745d    3
 2016-06-05-2107-44M.COL___323                                                 6
 STAT SP IPHASW D HRMM SECON CODA AMPLIT PERI AZIMU VELO AIN AR TRES W  DIS CAZ7
 BAR2 EZ EP       2115 18.96                             174    0.1310 12.9 255 
 BAR2 EZ I        2115 36.41         3.4 0.12                          12.9 255 
 BRR  HZ EP       2115 21.62                             146   -0.0810 89.0 307 
 BRR  HN ES       2115 38.95                             146    0.2610 89.0 307 
 BRR  HZ I        2115 42.58         5.1 0.29                          89.0 307 
 PAM  EZ EP       2115 22.59                             146    0.1710 89.3  27 
 PAM  EN ES       2115 39.69                             146   -0.2810 89.3  27 
 PAM  EZ I        2115 41.42         3.5 0.22                          89.3  27 
 PTB  HZ EP       2115 26.97                             130   -0.09 9  154 267 
 PTB  HN ES   1   2115 47.96                             130   -0.27 7  154 267 
 PTB  HZ I        2115 50.16         7.3 0.86                           154 267 
                                                                                
