 2016 10 5 2336 25.9 L   7.526 -73.086147.3  RSN  4 0.2 1.4LRSN                1
 GAP=240        0.54       4.6     3.4  5.1 -0.3892E+01  0.7752E+00  0.5028E+01E
 Epicentro: EL PLAYON - SANTANDER                                              3
 ACTION:UPD 16-11-09 19:16 OP:rebc STATUS:               ID:20161005233625 L   I
 OLDACT:REG 16-10-06 04:01 OP:cara STATUS:               ID:20161005232744     3
 2016-10-05-2328-00M.COL___360                                                 6
 STAT SP IPHASW D HRMM SECON CODA AMPLIT PERI AZIMU VELO AIN AR TRES W  DIS CAZ7
 PAM  EZ IP       2336 46.74                             161   -0.0310 47.4 116 
 PAM  EN ES       2337  2.91                             161   -0.1610 47.4 116 
 PAM  EZ I        2337  4.13         6.5 0.34            162           47.4 116 
 BRR  HZ EP       2336 47.92                             149    0.0210 83.2 236 
 BRR  HZ I        2337  5.19        14.9 0.38            141           83.2 236 
 BRR  HN ES       2337  5.39                             149    0.3110 83.2 236 
 RUS  HZ EP       2336 56.86                             127    0.16 9  181 180 
 RUS  HN ES       2337 20.76                             127    0.01 9  181 180 
 RUS  HZ I        2337 24.84         0.8 0.18            121            181 180 
 PTB  HN ES       2337 20.32                             125   -0.36 9  187 234 
 PTB  HZ I        2337 24.58         2.5 0.14            117            187 234 
                                                                                
