 2012  2 5 2006 39.7 L   6.782 -73.156147.7  RSN 12 0.4 2.1LRSN                1
 GAP=136        0.70       3.0     3.4  4.5 -0.1120E+01  0.3013E+01  0.2307E+01E
 ACTION:UP  12-03-07 16:28 OP:epov STATUS:               ID:20120205200639 L   I
 2012-02-05-2000-00M.COL___188                                                 6
 STAT SP IPHASW D HRMM SECON CODA AMPLIT PERI AZIMU VELO SNR AR TRES W  DIS CAZ7
 BAR2 SZ EP       20 6 59.45                             171   -0.1010 21.2 188 
 BAR2 SZ ES   1   20 7 14.77                             171   -0.23 7 21.2 188 
 BAR2 SZ I        20 7 16.97        26.7 0.24                          21.2 188 
 GIR2 SZ EP       20 6 59.61                             167   -0.0710 33.0 353 
 GIR2 SZ ES   2   20 7 15.36                             167    0.13 5 33.0 353 
 BRR  HZ IP     C 20 7  1.36                             153    0.2810 71.2 300 
 BRR  HZ I        20 7  1.60        47.2 0.14                          71.2 300 
 BRR  HE ES   1   20 7 18.67                             153    0.93 7 71.2 300 
 PAM  SZ EP       20 7  2.27                             150   -0.0110 79.6  39 
 PAM  SN ES   1   20 7 19.62                             150   -0.25 7 79.6  39 
 RUS  HZ EP       20 7  3.58                             145    0.0410 98.7 175 
 RUS  HN ES   1   20 7 22.17                             145    0.07 7 98.7 175 
 RUS  HZ I        20 7 23.51        13.8 0.68                          98.7 175 
 PTB  HZ EP       20 7  6.09                             133   -0.63 9  146 260 
 PTB  HN ES   1   20 7 27.35                             133   -0.42 7  146 260 
 PTB  HZ I        20 7 29.36        10.9 0.40                           146 260 
 OCA  SZ EP       20 7  8.39                             130    0.03 9  162 354 
 ZAR  HZ EP   3   20 7 11.83                             123   -0.44 2  204 293 
 ZAR  HE ES   1   20 7 37.27                             123   -0.38 6  204 293 
 ZAR  HZ I        20 7 43.17        19.0 0.56                           204 293 
 NOR  SZ EP       20 7 15.44                             119    0.09 8  233 235 
 NOR  SN ES   2   20 7 42.80                             119   -0.33 4  233 235 
 CHI  HZ EP       20 7 17.60                             118    0.30 8  246 195 
 CHI  HN ES   1   20 7 46.65                             118    0.05 6  246 195 
 CHI  HZ I        20 7 52.57         5.9 0.38                           246 195 
 HEL  HZ EP   2   20 7 20.68                             115    0.81 4  270 256 
 HEL  HN ES   2   20 7 51.80                             115    0.63 4  270 256 
 HEL  HZ I        20 7 58.30         7.2 0.44                           270 256 
 PRA  HZ EP   1   20 7 33.17                             107    0.12 4  390 210 
                                                                                
