 2010  1 5 2107 55.9 L   6.804 -73.293139.2  RSN  6 0.5 1.8LRSN                1
 GAP=128        0.69       4.5    10.4 10.7 -0.9764E+01  0.5238E+02 -0.1375E+02E
 Epicentro: ZAPATOCA - SANTANDER                                               3
 ACTION:UP  10-08-24 09:42 OP:vdl  STATUS:               ID:20100105210755 L   I
 2010-01-05-2100-00S.COL___095                                                 6
 STAT SP IPHASW D HRMM SECON CODA AMPLIT PERI AZIMU VELO SNR AR TRES W  DIS CAZ7
 BAR2 SZ EP   2   21 8 14.75                             169    -0.1 5   26 153 
 BAR2 SZ ES   2   21 8 29.33                             169    -0.3 5   26 153 
 RUS  BZ EP   2   21 8 18.83                             141    -0.4 5  103 167 
 RUS  BE ES   2   21 8 37.47                             141     0.0 5  103 167 
 RUS  BZ I        21 8 38.65        10.7 0.28                           103 167 
 GUE  SZ EP   2   21 8 19.65                             137    -0.7 5  121  20 
 GRA  SZ EP   1   21 8 21.52                             134     0.4 7  131  24 
 GRA  SZ ES   2   21 8 40.95                             134     0.3 5  131  24 
 CHI  HZ EP   2   21 8 33.52                             116     0.6 4  245 191 
 CHI  HE ES   2   21 9  2.04                             116     0.3 4  245 191 
 CHI  HZ I        21 9  9.26         4.0 0.34                           245 191 
 MON  HZ EP   2   21 8 42.02                             108    -1.1 3  340 310 
 MON  HE ES   2   21 9 20.69                             108     0.7 3  340 310 
                                                                                
