 2016  1 5 2233 38.6 L   6.792 -73.117128.2  RSN  7 0.5 1.7LRSN                1
 GAP=141        0.84       4.8     4.9  8.5  0.5837E+01  0.7978E+01 -0.1277E+02E
 Epicentro: LOS SANTOS - SANTANDER                                             3
 ACTION:UPD 16-03-09 23:23 OP:cam  STATUS:               ID:20160105223338 L   I
 OLDACT:UP  16-01-06 05:33 OP:dnl  STATUS:               ID:20160105222748     3
 OLDACT:REG 16-01-06 03:58 OP:dnl  STATUS:               ID:20160105222748     3
 2016-01-05-2227-48M.COL___262                                                 6
 STAT SP IPHASW D HRMM SECON CODA AMPLIT PERI AZIMU VELO AIN AR TRES W  DIS CAZ7
 BAR2 EZ EP   2   2233 56.24                             169    0.15 5 23.2 198 
 BAR2 EZ ES   2   2234  9.74                             169   -0.01 5 23.2 198 
 BAR2 EZ I        2234 12.51        12.6 0.20            172           23.2 198 
 BRR  HZ EP   2   2233 57.99                             148   -0.07 5 74.4 298 
 BRR  HE ES   2   2234 12.32                             148   -0.93 5 74.4 298 
 BRR  HZ I        2234 18.17         8.0 0.14            149           74.4 298 
 PAM  EZ EP       2233 59.07                             148    0.2010 76.1  37 
 PAM  EN ES   2   2234 14.57                             148   -0.12 5 76.1  37 
 PAM  EZ I        2234 18.00         5.0 0.30            152           76.1  37 
 RUS  HZ EP       2234  0.21                             140   -0.3410 99.5 178 
 RUS  HE ES       2234 18.01                             140    0.3210 99.5 178 
 PTB  HZ EP   2   2234  3.31                             127   -1.14 5  151 259 
 PTB  HE ES   2   2234 24.00                             127   -0.64 5  151 259 
 PTB  HZ I        2234 27.21         7.1 0.15            131            151 259 
 ZAR  HZ EP       2234 10.42                             118    0.13 8  207 292 
 ZAR  HE ES       2234 35.66                             118    0.63 8  207 292 
 ZAR  HZ I        2234 40.51         6.5 0.24            122            207 292 
 SML  HZ EP   2   2234 13.92                             113   -0.60 4  246 335 
 SML  HN ES   4   2234 40.03                             113   -2.53 0  246 335 
 SML  HZ I        2234 43.24         6.1 0.10            117            246 335 
                                                                                
