 2010  1 5 2345 20.3 L   6.788 -73.307145.6  RSN  4 0.1 1.4LRSN                1
 GAP=167        0.32       2.8     5.5 10.0 -0.2680E+01  0.1928E+02  0.7502E+01E
 Epicentro: ZAPATOCA - SANTANDER                                               3
 ACTION:UP  10-08-24 09:42 OP:vdl  STATUS:               ID:20100105234520 L   I
 2010-01-05-2340-00S.COL___099                                                 6
 STAT SP IPHASW D HRMM SECON CODA AMPLIT PERI AZIMU VELO SNR AR TRES W  DIS CAZ7
 GUE  SZ EP   1   2345 45.58                             138     0.1 7  123  20 
 GUE  SZ ES   2   2346  5.22                             138     0.1 5  123  20 
 GRA  SZ EP   1   2345 46.07                             135    -0.1 7  133  25 
 CHI  HZ EP   2   2345 57.60                             118     0.2 4  243 191 
 CHI  HZ I        2345 59.76         1.8 0.76                           243 191 
 CHI  HE ES   2   2346 26.25                             118    -0.1 4  243 191 
 MON  HE ES   2   2346 44.78                             109     0.0 3  340 310 
                                                                                
