 2017  2 5 2321 40.7 L   6.828 -73.133143.5  RSN  6 0.5 1.4LRSN                1
 GAP=137        0.87       5.3     4.7  8.8 -0.7050E+01 -0.5697E+01  0.2916E+02E
 Epicentro: LOS SANTOS - SANTANDER                                             3
 ACTION:UPD 17-05-24 15:32 OP:jn   STATUS:               ID:20170205232140 L   I
 OLDACT:UP  17-02-06 07:08 OP:dani STATUS:               ID:20170205231748     3
 OLDACT:UP  17-02-06 07:07 OP:dani STATUS:               ID:20170205231748     3
 OLDACT:UP  17-02-06 07:07 OP:dani STATUS:               ID:20170205231748     3
 OLDACT:REG 17-02-06 03:47 OP:dani STATUS:               ID:20170205231748     3
 2017-02-05-2318-00M.COL___328                                                 6
 STAT SP IPHASW D HRMM SECON CODA AMPLIT PERI AZIMU VELO AIN AR TRES W  DIS CAZ7
 BRR  HZ EP       2322  1.66                             152    0.1210 71.1 296 
 BRR  HN ES       2322 18.29                             152    0.4510 71.1 296 
 BRR  HZ I        2322 21.75        13.7 0.33            153           71.1 296 
 PAM  EZ EP       2322  2.56                             151    0.1410 74.1  40 
 PAM  EN ES       2322 19.31                             151   -0.1010 74.1  40 
 PAM  EZ I        2322 21.42         4.2 0.43            154           74.1  40 
 RUS  HZ EP       2322  3.85                             143   -0.5510  104 177 
 RUS  HN ES   3   2322 21.96                             143   -0.96 2  104 177 
 RUS  HZ I        2322 22.73         2.4 0.50            145            104 177 
 PTB  HZ EP       2322  7.79                             131    0.17 9  150 258 
 PTB  HN ES       2322 28.18                             131   -0.47 9  150 258 
 PTB  HZ I        2322 30.43         2.9 0.17            133            150 258 
 ZAR  HE ES   3   2322 36.15                             122   -2.02 2  204 291 
 CHI  HZ EP       2322 18.77                             116    0.18 8  252 195 
 CHI  HE ES       2322 48.56                             116    0.37 8  252 195 
 CHI  HZ I        2322 51.26         0.7 0.15            118            252 195 
                                                                                
