 2015  3 5 2258 58.4 L   6.855 -73.173141.0  RSN  5 0.3 2.0LRSN                1
 GAP=242        0.71       3.6    12.8 13.8 -0.1992E+02 -0.1163E+03  0.1185E+02E
 Epicentro: ZAPATOCA - SANTANDER                                               3
 ACTION:UPD 15-04-30 16:23 OP:nd   STATUS:               ID:20150305225858 L   I
 OLDACT:UP  15-03-06 06:57 OP:mh   STATUS:               ID:20150305225750     3
 OLDACT:REG 15-03-06 02:50 OP:mh   STATUS:               ID:20150305225750     3
 2015-03-05-2257-50M.COL___281                                                 6
 STAT SP IPHASW D HRMM SECON CODA AMPLIT PERI AZIMU VELO AIN AR TRES W  DIS CAZ7
 PTB  HZ EP       2259 24.33                             131   -0.4710  146 256 
 PTB  HN ES   1   2259 45.40                             131   -0.01 7  146 256 
 PTB  HZ I        2259 52.84         9.3 0.54            140            146 256 
 SPBC HZ EP       2259 26.47                             127   -0.3210  166 217 
 SPBC HN ES   1   2259 49.48                             127    0.52 7  166 217 
 SPBC HZ I        2259 55.04        13.7 0.76            137            166 217 
 NOR  HZ EP       2259 34.20                             117    0.25 9  236 233 
 NOR  HN ES       23 0  1.66                             117   -0.05 9  236 233 
 NOR  HZ I        23 0  5.30         6.4 0.20            127            236 233 
 SML  HZ EP   1   2259 34.57                             117    0.58 6  237 335 
 SML  HN ES       23 0  1.76                             117   -0.02 9  237 335 
 SML  HZ I        23 0  5.65         9.8 0.42            127            237 335 
 GUY2CHZ EP       2259 42.11                             111    0.22 8  302 233 
 GUY2CHN ES   4   23 0 19.35                             111    3.52 0  302 233 
 GUY2CHZ I        23 0 24.58         3.5 0.76                           302 233 
                                                                                
