 2015  7 5 2321  2.3 L   6.787 -73.109136.0  RSN  6 0.3 1.6LRSN                1
 GAP=142        0.86       4.2     4.8  7.2 -0.3500E+01  0.1601E+02  0.3130E+00E
 Epicentro: LOS SANTOS - SANTANDER                                             3
 ACTION:UPD 15-09-08 21:47 OP:cam  STATUS:               ID:20150705232102 L   I
 OLDACT:UP  15-07-06 04:07 OP:drio STATUS:               ID:20150705231749     3
 OLDACT:UP  15-07-06 04:07 OP:drio STATUS:               ID:20150705231749     3
 OLDACT:REG 15-07-06 02:49 OP:drio STATUS:               ID:20150705231749     3
 2015-07-05-2317-49M.COL___331                                                 6
 STAT SP IPHASW D HRMM SECON CODA AMPLIT PERI AZIMU VELO AIN AR TRES W  DIS CAZ7
 BAR2 EZ ES       2321 35.37                             170    0.2210 23.1 201 
 PAM  EZ EP       2321 23.05                             149   -0.3610 76.0  36 
 PAM  EN ES       2321 40.21                             149    0.3510 76.0  36 
 PAM  EZ I        2321 42.42        10.2 0.60            151           76.0  36 
 RUS  HZ EP       2321 24.82                             142   -0.1710 99.0 178 
 RUS  HE ES       2321 42.40                             142   -0.2910 99.0 178 
 RUS  HZ I        2321 43.98         3.4 0.26            145           99.0 178 
 ZAR  HN ES       2321 59.39                             120   -0.38 8  208 292 
 ZAR  HZ I        2322  4.51         5.0 0.12            120            208 292 
 NOR  HZ EP       2321 38.44                             116    0.67 8  237 235 
 NOR  HE ES       2322  5.56                             116    0.14 8  237 235 
 NOR  HZ I        2322  6.66         3.4 0.14            117            237 235 
 GUY2CHZ EP   4   2321 46.93                             110    1.15 0  304 235 
 GUY2CHE ES   4   2322 21.05                             110    1.37 0  304 235 
 GUY2CHZ I        2322 27.76         1.8 0.46                           304 235 
                                                                                
