 2016  8 5 2018 31.2 L   6.865 -73.378115.5  RSN 10 0.4 2.0LRSN                1
 GAP=109        0.91       3.3     3.1  5.7  0.6428E+00  0.9302E+01  0.3163E+01E
 Epicentro: SAN VICENTE DE CHUCURI - SANTANDER                                 3
 ACTION:UPD 16-10-29 15:32 OP:rebc STATUS:               ID:20160805201831 L   I
 OLDACT:DUP 16-08-06 03:30 OP:ak   STATUS:               ID:20160805200735d    3
 2016-08-05-2008-00M.COL___366                                                 6
 STAT SP IPHASW D HRMM SECON CODA AMPLIT PERI AZIMU VELO AIN AR TRES W  DIS CAZ7
 BAR2 EZ EP   1   2018 47.73                             161    0.05 7 37.2 144 
 BAR2 EZ ES       2019  0.54                             161    0.0210 37.2 144 
 BAR2 EZ I        2019  1.54        36.2 0.38                          37.2 144 
 BRR  HZ EP       2018 47.69                             157   -0.0110 45.6 306 
 BRR  HN ES       2019  0.56                             157    0.0110 45.6 306 
 BRR  HZ I        2019  2.22        18.6 0.11                          45.6 306 
 PAM  EZ EP       2018 51.74                             139    0.3510 91.5  55 
 PAM  EN ES       2019  7.03                             139   -0.0910 91.5  55 
 PAM  EZ I        2019 10.50         8.8 0.18                          91.5  55 
 RUS  HZ EP       2018 52.88                             133   -0.2910  112 163 
 RUS  HN ES       2019 10.34                             133    0.0610  112 163 
 PTB  HZ EP       2018 52.73                             129   -0.9110  125 253 
 PTB  HN ES   4   2019  9.47                             129   -1.65 0  125 253 
 PTB  HZ I        2019 14.14        24.7 0.32                           125 253 
 ZAR  HZ EP       2018 59.16                             119    0.15 9  178 293 
 ZAR  HN ES       2019 21.32                             119    0.64 9  178 293 
 ZAR  HZ I        2019 24.38        12.5 0.30                           178 293 
 NOR  HZ EP       2019  3.67                             113    0.05 8  219 229 
 NOR  HN ES       2019 28.85                             113   -0.04 8  219 229 
 HEL  HZ EP   2   2019  8.42                             110    0.96 4  249 253 
 HEL  HE ES       2019 35.92                             110    0.19 8  249 253 
 HEL  HZ I        2019 40.62         9.7 0.32                           249 253 
 URE  HZ EP   2   2019  7.21                             109   -0.73 4  257 293 
 URE  HN ES       2019 35.83                             109   -0.74 8  257 293 
 URE  HZ I        2019 37.98         8.9 0.14                           257 293 
 GUY2CHZ EP       2019 12.31                             107    0.57 7  285 231 
 GUY2CHE ES       2019 43.56                             107    0.21 7  285 231 
 GUY2CHZ I        2019 51.42         3.6 0.11                           285 231 
                                                                                
