 2013  8 5 2103 34.4 L   6.779 -73.150154.2  RSN  5 0.4 1.5LRSN                1
 GAP=137        0.98       5.8     5.1  9.0  0.1679E+01  0.2991E+01 -0.1980E+01E
 Epicentro: LOS SANTOS - SANTANDER                                             3
 ACTION:UPD 14-01-14 08:59 OP:ep   STATUS:               ID:20130805210334 L   I
 OLDACT:REG 13-08-05 21:37 OP:cam  STATUS:               ID:20130805205959     3
 2013-08-05-2059-59M.COL___269                                                 6
 STAT SP IPHASW D HRMM SECON CODA AMPLIT PERI AZIMU VELO AIN AR TRES W  DIS CAZ7
 BRR  HZ EP       21 3 56.67                             154    0.1710 71.9 300 
 BRR  HZ I        21 4  4.69         7.2 0.60            152           71.9 300 
 BRR  HN ES       21 4 14.40                             154    0.6610 71.9 300 
 PAM  SZ EP       21 3 57.64                             151    0.0010 79.5  39 
 PAM  SN ES   1   21 4 15.06                             151   -0.70 7 79.5  39 
 RUS  HZ EP   1   21 3 59.25                             146    0.42 7 98.3 176 
 RUS  HN ES       21 4 17.87                             146   -0.0210 98.3 176 
 RUS  HZ I        21 4 19.97         3.1 0.52            144           98.3 176 
 PTB  HZ EP       21 4  1.88                             134   -0.11 9  147 260 
 PTB  HN ES       21 4 22.87                             134   -0.63 9  147 260 
 ZAR  HE ES   1   21 4 33.23                             124   -0.00 6  204 293 
                                                                                
