 2014  1 5 2123  3.5 L   6.826 -73.153142.7  RSN 12 0.5 2.1LRSN                1
 GAP=134        1.18       3.1     4.5  6.2 -0.1599E+01  0.8425E+01  0.1555E+01E
 Epicentro: LOS SANTOS - SANTANDER                                             3
 ACTION:UPD 14-03-13 09:51 OP:ep   STATUS:               ID:20140105212303 L   I
 OLDACT:REG 14-01-06 05:40 OP:nd   STATUS:               ID:20140105212000     3
 2014-01-05-2120-00M.COL___285                                                 6
 STAT SP IPHASW D HRMM SECON CODA AMPLIT PERI AZIMU VELO AIN AR TRES W  DIS CAZ7
 BAR2 SZ EP       2123 22.94                             169    0.0710 26.1 187 
 BAR2 SZ ES       2123 37.29                             169   -0.6610 26.1 187 
 BAR2 SZ I        2123 39.39        45.3 0.18            168           26.1 187 
 BRR  HZ EP       2123 24.75                             153    0.5010 69.1 297 
 BRR  HN ES       2123 41.50                             153    1.1010 69.1 297 
 BRR  HZ I        2123 44.73        23.3 0.34            151           69.1 297 
 PAM  SZ EP       2123 25.81                             151    0.4710 75.7  41 
 PAM  SN ES       2123 42.58                             151    0.2410 75.7  41 
 PAM  SZ I        2123 44.72        20.9 0.60            156           75.7  41 
 RUS  HZ EP       2123 27.03                             142   -0.1910  104 176 
 RUS  HN ES       2123 45.38                             142   -0.3010  104 176 
 RUS  HZ I        2123 47.80         6.7 0.18            145            104 176 
 PTB  HZ EP       2123 29.58                             131   -0.67 9  148 258 
 PTB  HN ES       2123 50.64                             131   -0.44 9  148 258 
 PTB  HZ I        2123 54.87        15.4 0.12            132            148 258 
 OCA  HN ES       2123 52.77                             129   -0.25 9  157 353 
 SPBC HZ EP       2123 32.06                             128    0.07 9  165 218 
 SPBC HN ES       2123 53.94                             128   -0.23 9  165 218 
 SPBC HZ I        2124  1.17        15.4 0.26            129            165 218 
 ZAR  HZ EP       2123 35.22                             122   -0.39 9  202 291 
 ZAR  HN ES       2124  0.87                             122    0.25 9  202 291 
 ZAR  HZ I        2124  8.39        14.4 0.22            123            202 291 
 NOR  HZ EP       2123 39.24                             118    0.02 8  236 234 
 NOR  HN ES       2124  6.82                             118   -0.22 8  236 234 
 NOR  HZ I        2124 13.39        11.9 0.30            119            236 234 
 SML  HZ EP       2123 39.31                             117   -0.37 8  241 335 
 SML  HN ES       2124  7.19                             117   -0.68 8  241 335 
 SML  HZ I        2124 10.75        23.6 0.26            119            241 335 
 CHI  HZ EP       2123 41.37                             116    0.01 8  251 195 
 CHI  HN ES       2124 11.15                             116    0.29 8  251 195 
 CHI  HZ I        2124 14.45         5.5 0.30            118            251 195 
 ROSC BZ EP   4   2123 43.23                             116    1.50 0  255 211 
 ROSC BN ES   4   2124 12.95                             116    1.43 0  255 211 
 GUY2CHZ EP       2123 48.22                             112    1.09 7  302 234 
 GUY2CHN ES       2124 21.62                             112    0.49 7  302 234 
 GUY2CHZ I        2124 31.00         8.8 0.50                           302 234 
 SJC  HZ EP   4   2123 57.00                             105   -1.67 0  406 327 
 SJC  HE ES   4   2124 38.55                             105   -3.12 0  406 327 
                                                                                
