 2013  3 5 2255 16.5 L   6.841 -73.154141.5  RSN  6 0.5 1.4LRSN                1
 GAP=133        0.98       6.8     7.0  9.2 -0.6905E+01  0.1302E+02  0.8004E+01E
 Epicentro: LOS SANTOS - SANTANDER                                             3
 ACTION:UPD 13-04-09 14:00 OP:ep   STATUS:               ID:20130305225516 L   I
 2013-03-05-2250-00M.COL___228                                                 6
 STAT SP IPHASW D HRMM SECON CODA AMPLIT PERI AZIMU VELO AIN AR TRES W  DIS CAZ7
 BAR2 SZ ES   1   2255 50.98                             168    0.23 7 27.7 187 
 BRR  HZ EP   1   2255 37.74                             153    0.66 7 68.4 296 
 BRR  HN ES   2   2255 53.58                             153    0.49 5 68.4 296 
 BRR  HZ I        2255 58.46         6.4 0.12            140           68.4 296 
 PAM  SZ EP   1   2255 38.65                             151    0.51 7 74.6  42 
 PAM  SN ES   1   2255 54.11                             151   -0.87 7 74.6  42 
 PAM  SZ I        2255 56.64         4.5 0.18            139           74.6  42 
 RUS  HZ EP   1   2255 40.63                             141    0.41 7  105 176 
 RUS  HN ES   1   2255 58.63                             141   -0.06 7  105 176 
 RUS  HZ I        2256  0.73         2.5 0.28            122            105 176 
 PTB  HZ EP   1   2255 42.54                             131   -0.64 7  148 257 
 PTB  HN ES   1   2256  3.71                             131   -0.24 7  148 257 
 PTB  HZ I        2256  6.50         3.9 0.36            115            148 257 
 CHI  HZ EP   1   2255 53.93                             116   -0.54 6  253 195 
 CHI  HZ I        2256 29.94         2.0 0.24            103            253 195 
                                                                                
