 2012  2 5 2319 19.8 L   6.801 -73.153144.1  RSN  8 0.4 1.6LRSN                1
 GAP=136        0.62       4.3     5.2  6.3  0.1500E+01 -0.9574E+00  0.7500E+01E
 ACTION:UP  12-03-07 16:28 OP:epov STATUS:               ID:20120205231919 L   I
 2012-02-05-2317-59S.COL___188                                                 6
 STAT SP IPHASW D HRMM SECON CODA AMPLIT PERI AZIMU VELO SNR AR TRES W  DIS CAZ7
 BAR2 SZ EP   3   2319 38.46                             170   -0.77 2 23.3 188 
 BAR2 SZ ES   2   2319 53.94                             170   -0.44 5 23.3 188 
 GIR2 SZ EP       2319 39.02                             167   -0.2510 31.1 352 
 BRR  HZ EP       2319 40.87                             153    0.1410 70.5 299 
 BRR  HZ I        2319 48.14        10.1 0.14                          70.5 299 
 BRR  HN ES   1   2319 57.51                             153    0.46 7 70.5 299 
 PAM  SZ EP       2319 42.01                             150    0.1510 77.8  40 
 RUS  HZ EP       2319 43.36                             143   -0.0410  101 176 
 RUS  HN ES   2   2320  1.90                             143    0.10 5  101 176 
 RUS  HZ I        2320  3.35         3.5 0.32                           101 176 
 PTB  HZ EP       2319 46.08                             132   -0.49 9  147 259 
 PTB  HE ES   3   2320  7.31                             132   -0.13 2  147 259 
 PTB  HZ I        2320  9.21         3.0 0.18                           147 259 
 ZAR  HZ EP   3   2319 52.68                             122    0.62 2  203 292 
 ZAR  HE ES   3   2320 17.01                             122   -0.22 2  203 292 
 ZAR  HZ I        2320 22.85         9.4 0.30                           203 292 
 CHI  HZ EP       2319 57.81                             117    0.41 8  249 195 
 CHI  HE ES   3   2320 27.58                             117    0.86 2  249 195 
 CHI  HZ I        2320 34.10         2.1 0.60                           249 195 
                                                                                
