 2013  1 5 2227 47.0 L   5.853 -73.655120.2  RSN  7 0.4 1.6LRSN                1
 GAP= 98        0.73       3.2     5.1  8.6  0.4292E+01  0.2559E+02  0.4464E+01E
 Epicentro: PUENTE NACIONAL - SANTANDER                                        3
 ACTION:UPD 13-02-15 09:12 OP:ep   STATUS:               ID:20130105222747 L   I
 2013-01-05-2220-00M.COL___242                                                 6
 STAT SP IPHASW D HRMM SECON CODA AMPLIT PERI AZIMU VELO AIN AR TRES W  DIS CAZ7
 RUS  HZ EP   1   2228  5.61                             151   -0.04 7 63.5  86 
 RUS  HN ES   1   2228 20.72                             151    0.51 7 63.5  86 
 RUS  HZ I        2228 21.33         3.4 0.16            154           63.5  86 
 BAR2 SZ ES   1   2228 23.96                             138    0.15 7 97.1  33 
 PTB  HZ EP   1   2228  8.72                             133   -0.32 7  117 311 
 PTB  HN ES   1   2228 26.31                             133    0.05 7  117 311 
 PTB  HZ I        2228 28.57         8.6 0.11            121            117 311 
 CHI  HZ EP   1   2228 11.16                             128   -0.16 7  136 184 
 CHI  HE ES   1   2228 30.01                             128   -0.31 7  136 184 
 CHI  HZ I        2228 33.17         6.4 0.28            118            136 184 
 BRR  HZ EP   1   2228 10.78                             127   -0.31 7  139 357 
 BRR  HN ES   1   2228 29.28                             127   -0.62 7  139 357 
 BRR  HZ I        2228 33.80         7.8 0.12            120            139 357 
 HEL  HZ EP   1   2228 19.73                             115    0.64 6  211 280 
 HEL  HZ I        2228 53.03         3.1 0.44            107            211 280 
 ZAR  HZ EP   1   2228 20.82                             114    0.63 6  225 324 
 ZAR  HN ES   1   2228 46.15                             114    0.04 6  225 324 
 ZAR  HZ I        2228 52.42         4.8 0.12            107            225 324 
 MON  HN ES   4   2229 18.29                             102   -2.55 0  392 326 
                                                                                
