 2015  5 5 2325 15.8 L   6.814 -73.135138.4  RSN  7 0.5 1.6LRSN                1
 GAP=137        1.23       4.1     6.4  7.6  0.5608E+01  0.1374E+02 -0.5008E+00E
 Epicentro: LOS SANTOS - SANTANDER                                             3
 ACTION:UPD 15-09-10 22:01 OP:cam  STATUS:               ID:20150505232515 L   I
 OLDACT:REG 15-05-06 03:23 OP:ak   STATUS:               ID:20150505231747     3
 2015-05-05-2317-47M.COL___276                                                 6
 STAT SP IPHASW D HRMM SECON CODA AMPLIT PERI AZIMU VELO AIN AR TRES W  DIS CAZ7
 BAR2 EZ EP       2325 33.57                             169   -0.9710 25.0 192 
 BAR2 EZ ES       2325 49.11                             169   -0.0810 25.0 192 
 BAR2 EZ I        2325 50.47         9.6 0.20            166           25.0 192 
 BRR  HZ IP     C 2325 36.11                             151   -0.0310 71.6 297 
 BRR  HN ES       2325 52.31                             151    0.2810 71.6 297 
 PAM  SZ EP       2325 37.53                             150    0.4510 75.5  40 
 PAM  SN ES       2325 53.42                             150   -0.2910 75.5  40 
 RUS  HZ EP       2325 38.59                             142   -0.3110  102 177 
 RUS  HN ES       2325 57.59                             142    0.6410  102 177 
 RUS  HZ I        2325 58.83         2.8 0.20            142            102 177 
 ZAR  HZ EP       2325 48.44                             121    0.64 9  205 292 
 ZAR  HE ES       2326 12.01                             121   -0.77 9  205 292 
 ZAR  HZ I        2326 20.10         3.6 0.09            119            205 292 
 SML  HZ EP       2325 51.83                             116   -0.06 8  243 335 
 SML  HN ES       2326 20.70                             116    0.63 8  243 335 
 SML  HZ I        2326 25.64         5.8 0.08            116            243 335 
 CHI  HZ EP   1   2325 52.93                             115   -0.33 6  250 195 
 CHI  HN ES       2326 22.77                             115    0.27 8  250 195 
 CHI  HZ I        2326 26.55         1.9 0.53            115            250 195 
                                                                                
