 2017  2 5 2200 46.4 L   6.782 -73.152145.1  RSN  8 0.5 1.8LRSN                1
 GAP=137        1.09       4.8     4.6  7.1 -0.2598E+01  0.8618E+01  0.1578E+01E
 Epicentro: LOS SANTOS - SANTANDER                                             3
 ACTION:UPD 17-05-24 15:32 OP:jn   STATUS:               ID:20170205220046 L   I
 OLDACT:UP  17-02-06 06:53 OP:dani STATUS:               ID:20170205215748     3
 OLDACT:UP  17-02-06 06:53 OP:dani STATUS:               ID:20170205215748     3
 OLDACT:UP  17-02-06 06:52 OP:dani STATUS:               ID:20170205215748     3
 OLDACT:REG 17-02-06 03:42 OP:dani STATUS:               ID:20170205215748     3
 2017-02-05-2158-00M.COL___331                                                 6
 STAT SP IPHASW D HRMM SECON CODA AMPLIT PERI AZIMU VELO AIN AR TRES W  DIS CAZ7
 BAR2 EZ ES       22 1 20.67                             171   -0.4310 21.2 189 
 BRR  HZ EP       22 1  7.69                             152    0.2210 71.6 300 
 BRR  HN ES       22 1 24.76                             152    0.8410 71.6 300 
 BRR  HZ I        22 1 27.81         9.6 0.28            151           71.6 300 
 PAM  EZ EP       22 1  8.83                             150    0.2010 79.4  39 
 PAM  EN ES       22 1 25.71                             150   -0.2910 79.4  39 
 PAM  EZ I        22 1 27.97        10.8 0.56            153           79.4  39 
 RUS  HZ EP       22 1  9.80                             144   -0.1110 98.6 176 
 RUS  HN ES       22 1 28.66                             144    0.3810 98.6 176 
 RUS  HZ I        22 1 29.47         5.8 0.20            144           98.6 176 
 PTB  HZ EP       22 1 12.55                             132   -0.64 9  147 260 
 PTB  HN ES       22 1 33.50                             132   -0.60 9  147 260 
 PTB  HZ I        22 1 35.49         7.3 0.42            131            147 260 
 ZAR  HZ EP   3   22 1 20.53                             122    1.75 2  204 293 
 ZAR  HN ES       22 1 43.91                             122   -0.16 9  204 293 
 ZAR  HZ I        22 1 48.96         8.7 0.40            122            204 293 
 NOR  HZ EP       22 1 21.83                             119   -0.04 8  233 235 
 NOR  HE ES       22 1 50.08                             119    0.51 8  233 235 
 NOR  HZ I        22 1 55.74         3.1 0.37            118            233 235 
 ROSC BZ EP   9   22 1 27.05                             117    2.83 0  251 211 
 ROSC BN ES       22 1 56.30                             114   -0.28 8  251 211 
 ROSC BZ I        22 2  0.30        11.2 0.37            117            251 211 
                                                                                
