 2012  1 5 2302  9.7 L   6.777 -73.130143.4  RSN 13 0.4 2.5LRSN                1
 GAP=140        0.96       3.6     4.3  5.2 -0.1834E+01  0.7355E+01  0.3344E+01E
 Epicentro: LOS SANTOS - SANTANDER                                             3
 ACTION:UP  12-02-03 08:14 OP:REBC STATUS:               ID:20120105230209 L   I
 2012-01-05-2300-00M.COL___186                                                 6
 STAT SP IPHASW D HRMM SECON CODA AMPLIT PERI AZIMU VELO SNR AR TRES W  DIS CAZ7
 BAR2 SZ IP       23 2 29.02                             171     0.010   21 196 
 BAR2 SZ I        23 2 29.21        70.1 0.17                            21 196 
 BAR2 SZ ES       23 2 43.79                             171    -0.310   21 196 
 GIR2 SZ EP       23 2 29.14                             166     0.010   34 348 
 GIR2 SZ ES   2   23 2 44.23                             166    -0.1 5   34 348 
 BRR  HZ IP     C 23 2 30.94                             151     0.210   74 300 
 BRR  HZ I        23 2 31.29       118.6 0.11                            74 300 
 BRR  HN ES       23 2 47.81                             151     0.610   74 300 
 PAM  SZ EP       23 2 31.83                             150     0.110   78  37 
 PAM  SE ES       23 2 48.84                             150     0.010   78  37 
 RUS  HZ EP       23 2 32.84                             144    -0.210   98 177 
 RUS  HN ES       23 2 51.34                             144     0.110   98 177 
 RUS  HZ I        23 2 53.03        27.9 0.23                            98 177 
 PTB  HZ EP       23 2 35.77                             131    -0.8 9  149 260 
 PTB  HN ES   1   23 2 56.64                             131    -0.9 7  149 260 
 OCA  SZ EP   1   23 2 37.51                             129    -0.6 7  163 353 
 OCA  SZ I        23 3  5.54        28.8 0.31                           163 353 
 ZAR  HZ EP   1   23 2 42.29                             121     0.0 6  207 293 
 ZAR  HN ES   1   23 3  7.88                             121     0.2 6  207 293 
 ZAR  HZ I        23 3 13.08        42.6 0.40                           207 293 
 NOR  SZ EP       23 2 45.40                             118     0.1 8  235 235 
 NOR  SN ES   1   23 3 13.17                             118     0.1 6  235 235 
 CHI  HZ EP       23 2 47.26                             117     0.2 8  247 196 
 CHI  HE ES   1   23 3 16.53                             117     0.3 6  247 196 
 CHI  HZ I        23 3 24.75        10.4 0.55                           247 196 
 HEL  HZ EP       23 2 50.44                             114     0.5 8  273 256 
 HEL  HZ I        23 3 30.44        15.2 0.58                           273 256 
 RREF HZ EP   1   23 2 55.84                             110     0.1 5  321 230 
 RREF HN ES   1   23 3 31.26                             110    -0.3 5  321 230 
 RREF HZ I        23 3 41.98        14.1 0.16                           321 230 
 TOL  SZ EP   1   23 2 58.16                             109     0.4 5  343 225 
                                                                                
