 2017 11 5 2138 33.9 L   6.788 -73.143145.5  RSN  5 0.3 1.1LRSN                1
 GAP=137        0.70       3.7     3.6  5.2 -0.1396E+01  0.2804E+01  0.6173E+00E
 Epicentro: LOS SANTOS - SANTANDER                                             3
 ACTION:UPD 17-12-12 19:52 OP:rebc STATUS:               ID:20171105213833 L   I
 OLDACT:REG 17-11-06 03:21 OP:osc  STATUS:               ID:20171105213739     3
 2017-11-05-2138-00M.COL___441                                                 6
 STAT SP IPHASW D HRMM SECON CODA AMPLIT PERI AZIMU VELO AIN AR TRES W  DIS CAZ7
 BAR2 EZ ES       2139  8.65                             171   -0.0910 22.1 191 
 BRR  HZ EP       2138 55.24                             152    0.1710 72.1 299 
 BRR  HE ES       2139 11.82                             152    0.2410 72.1 299 
 PAM  EZ EP       2138 56.05                             151   -0.0810 78.2  39 
 PAM  EN ES       2139 13.36                             151   -0.1210 78.2  39 
 PAM  EZ I        2139 15.27         2.8 0.52            152           78.2  39 
 RUS  HZ EP       2138 57.23                             144   -0.3010 99.3 176 
 RUS  HN ES       2139 16.24                             144    0.2810 99.3 176 
 RUS  HZ I        2139 16.96         3.1 0.30            145           99.3 176 
 PTB  HZ EP       2139  1.19                             132    0.34 9  148 259 
 PTB  HE ES       2139 21.41                             132   -0.46 9  148 259 
 PTB  HZ I        2139 24.46         1.1 0.18            132            148 259 
                                                                                
