 2012 11 5 2254 13.5 L   6.764 -73.120145.8  RSN  7 0.4 2.5LRSN                1
 GAP=111        0.88       4.8     4.4  7.0  0.8361E+01  0.4738E-02 -0.1151E+02E
 Epicentro: LOS SANTOS - SANTANDER                                             3
 ACTION:UPD 12-12-05 15:31 OP:}ep  STATUS:               ID:20121105225413 L   I
 2012-11-05-2250-00M.COL___230                                                 6
 STAT SP IPHASW D HRMM SECON CODA AMPLIT PERI AZIMU VELO AIN AR TRES W  DIS CAZ7
 BAR2 SZ EP       2254 33.26                             172    0.2310 20.2 200 
 BAR2 SZ ES       2254 48.18                             172   -0.1210 20.2 200 
 BAR2 SZ I        2254 49.02        36.2 0.18                          20.2 200 
 GIR2 SZ EP       2254 33.55                             165    0.2910 35.7 347 
 BRR  HZ IP     D 2254 35.33                             151    0.4710 75.6 300 
 BRR  HN ES   2   2254 52.12                             151    0.56 5 75.6 300 
 BRR  HN I        2254 56.88        65.7 0.18                          75.6 300 
 RUS  HZ EP       2254 36.63                             145   -0.2910 96.5 178 
 RUS  HN ES       2254 54.89                             145   -0.3310 96.5 178 
 RUS  HN I        2254 55.70        55.8 0.28                          96.5 178 
 TAM  HZ EP   1   2254 41.51                             131    0.71 7  151 104 
 TAM  HN ES       2255  2.05                             131   -0.07 9  151 104 
 TAM  HN I        2255  3.66        32.8 0.44                           151 104 
 OCA  HZ EP   1   2254 41.65                             129   -0.53 7  165 352 
 OCA  HN ES   1   2255  4.05                             129   -0.52 7  165 352 
 ZAR  HZ EP       2254 45.88                             122   -0.45 8  208 293 
 ZAR  HN ES   1   2255 12.30                             122    0.33 6  208 293 
 ZAR  HN I        2255 18.65        32.5 0.34                           208 293 
                                                                                
