 2017 12 5 2217 49.7 L   6.822 -73.107139.3  RSN  4 0.3 1.4LRSN                1
 GAP=140        0.85       5.1     5.1  7.1 -0.8311E+01  0.1059E+02 -0.2710E+01E
 Epicentro: LOS SANTOS - SANTANDER                                             3
 ACTION:UPD 18-01-04 13:17 OP:rebc STATUS:               ID:20171205221749 L   I
 OLDACT:REG 17-12-06 02:49 OP:dhb  STATUS:               ID:20171205220737     3
 2017-12-05-2208-00M.COL___483                                                 6
 STAT SP IPHASW D HRMM SECON CODA AMPLIT PERI AZIMU VELO AIN AR TRES W  DIS CAZ7
 BAR2 EZ E        2218  6.93                                           26.8 198 
 BAR2 EZ EP       2218  8.82                             169    0.1610 26.8 198 
 BAR2 EZ ES       2218 23.05                             169   -0.3710 26.8 198 
 BAR2 EZ I        2218 24.67         6.9 0.20            171           26.8 198 
 PAM  EZ EP       2218 11.08                             151    0.1010 72.8  38 
 PAM  HN ES       2218 27.63                             151    0.0710 72.8  38 
 PAM  EZ I        2218 30.55         5.9 0.72            151           72.8  38 
 RUS  HZ EP       2218 12.42                             142   -0.6010  103 179 
 RUS  HN ES       2218 31.66                             142    0.4810  103 179 
 RUS  HZ I        2218 32.03         4.9 0.22            144            103 179 
 PTB  HZ EP       2218 16.81                             129    0.19 9  152 258 
 PTB  HE ES       2218 37.57                             129   -0.02 9  152 258 
 PTB  HZ I        2218 38.03         1.9 0.16            132            152 258 
                                                                                
