 2013  2 5 2312 17.5 L   6.756 -73.163141.4  RSN  5 0.4 1.9LRSN                1
 GAP=136        0.95       4.9     4.8  7.0 -0.2117E+01  0.4265E+01  0.1294E+01E
 Epicentro: LOS SANTOS - SANTANDER                                             3
 ACTION:UPD 13-03-12 09:30 OP:ep   STATUS:               ID:20130205231217 L   I
 2013-02-05-2308-42M.COL___187                                                 6
 STAT SP IPHASW D HRMM SECON CODA AMPLIT PERI AZIMU VELO AIN AR TRES W  DIS CAZ7
 BAR2 SZ EP       2312 36.61                             172    0.1310 18.3 187 
 BAR2 SZ ES       2312 51.29                             172   -0.0110 18.3 187 
 BAR2 SZ I        2312 52.89        16.3 0.38            173           18.3 187 
 BRR  HZ EP       2312 38.46                             151    0.2710 72.0 303 
 BRR  HN ES       2312 54.99                             151    0.6410 72.0 303 
 BRR  HN I        2312 56.10        26.9 0.24            152           72.0 303 
 PAM  SZ EP       2312 39.56                             148    0.0310 82.4  38 
 PAM  SN ES       2312 56.21                             148   -0.5310 82.4  38 
 PAM  SN I        2312 57.76         9.1 0.28            149           82.4  38 
 RUS  HZ EP       2312 40.78                             144    0.3310 95.9 175 
 RUS  HN ES       2312 58.30                             144   -0.0810 95.9 175 
 PTB  HZ EP       2312 43.45                             131   -0.38 9  145 261 
 PTB  HN ES       2313  3.88                             131   -0.50 9  145 261 
                                                                                
