 2011 11 5 2141 49.5 L   6.782 -73.120148.6  RSN  6 0.3 1.7LRSN                1
 GAP=141        0.42       4.4     4.7  6.3  0.4584E+01  0.4350E+01 -0.1341E+01E
 Epicentro: LOS SANTOS - SANTANDER                                             3
 ACTION:UPD 12-07-13 16:08 OP:ep   STATUS:               ID:20111105214149 L   I
 2011-11-05-2125-00M.COL___176                                                 6
 STAT SP IPHASW D HRMM SECON CODA AMPLIT PERI AZIMU VELO AIN AR TRES W  DIS CAZ7
 BAR2 SZ EP   2   2142  9.34                             171   -0.12 5 22.1 198 
 BAR2 SZ I        2142  9.68        12.2 0.07                          22.1 198 
 BAR2 SZ ES   2   2142 24.77                             171   -0.24 5 22.1 198 
 GIR2 SZ EP   3   2142  9.45                             166   -0.14 2 33.8 346 
 BRR  HZ EP   1   2142 11.19                             152    0.03 7 74.7 299 
 BRR  HZ I        2142 11.57        19.4 0.10                          74.7 299 
 BRR  HN ES   2   2142 28.63                             152    0.58 5 74.7 299 
 PAM  SZ EP   2   2142 12.29                             151    0.28 5 77.2  37 
 PAM  SN ES   2   2142 29.29                             151   -0.27 5 77.2  37 
 RUS  HZ EP   2   2142 13.43                             145    0.04 5 98.4 178 
 RUS  HN ES   2   2142 32.02                             145    0.01 5 98.4 178 
 RUS  HZ I        2142 33.24         4.1 0.40                          98.4 178 
 ZAR  HE ES   2   2142 47.79                             122   -0.43 4  207 292 
 ZAR  HZ I        2142 54.34         5.2 0.25                           207 292 
                                                                                
