 2013  6 5 2323 14.2 L   6.777 -73.134145.5  RSN  5 0.4 1.8LRSN                1
 GAP=139        1.05       5.6     5.4  7.7 -0.2882E+01  0.5189E+01  0.1806E+01E
 Epicentro: LOS SANTOS - SANTANDER                                             3
 ACTION:UPD 14-01-08 09:52 OP:ep   STATUS:               ID:20130605232314 L   I
 OLDACT:REG 13-06-05 22:28 OP:stll STATUS:               ID:20130605231851     3
 2013-06-05-2318-51M.COL___228                                                 6
 STAT SP IPHASW D HRMM SECON CODA AMPLIT PERI AZIMU VELO AIN AR TRES W  DIS CAZ7
 BAR2 SZ EP       2323 33.45                             171   -0.3310 21.1 195 
 BAR2 SZ ES       2323 48.94                             171   -0.0910 21.1 195 
 BAR2 SZ I        2323 51.21         8.0 0.30            171           21.1 195 
 BRR  HZ IP     C 2323 35.44                             152   -0.0410 73.6 300 
 BRR  HN ES       2323 52.80                             152    0.7410 73.6 300 
 BRR  HE I        2323 57.58        11.7 0.16            150           73.6 300 
 PAM  SZ IP     D 2323 36.41                             150   -0.0710 78.6  38 
 PAM  SZ I        2323 36.61         9.8 0.22            154           78.6  38 
 PAM  SN ES       2323 53.59                             150   -0.2510 78.6  38 
 RUS  HZ EP       2323 37.98                             144    0.2210 97.9 177 
 RUS  HN ES       2323 56.26                             144    0.1510 97.9 177 
 RUS  HE I        2323 57.09         7.9 0.46            148           97.9 177 
 PTB  HZ EP       2323 41.67                             132    0.43 9  149 260 
 PTB  HN ES       2324  1.51                             132   -0.81 9  149 260 
 PTB  HE I        2324  7.13        14.3 0.38            132            149 260 
                                                                                
