 2014 12 5 2110 12.2 L   6.701 -73.067141.3  RSN  5 0.2 2.1LRSN                1
 GAP=197        0.44       6.8     4.5  6.9 -0.2176E+02 -0.9845E+01  0.3362E+02E
 Epicentro: JORDAN - SANTANDER                                                 3
 ACTION:UPD 15-02-10 17:00 OP:nd   STATUS:               ID:20141205211012 L   I
 OLDACT:REG 14-12-06 05:33 OP:mh   STATUS:               ID:20141205210746     3
 2014-12-05-2107-46M.COL___315                                                 6
 STAT SP IPHASW D HRMM SECON CODA AMPLIT PERI AZIMU VELO AIN AR TRES W  DIS CAZ7
 BAR2 SZ EP       2110 31.07                             173   -0.1210 17.6 227 
 BAR2 SZ I        2110 48.28        41.2 0.16            147           17.6 227 
 PAM  SZ EP       2110 34.28                             149    0.0910 81.4  30 
 PAM  SN ES       2110 51.39                             149    0.0410 81.4  30 
 PAM  SZ I        2110 53.49        27.7 0.56            148           81.4  30 
 BRR  HZ EP   1   2110 33.64                             147   -0.03 7 84.2 302 
 BRR  HN ES   1   2110 50.35                             147   -0.07 7 84.2 302 
 NOR  HZ EP   1   2110 47.38                             117   -0.42 6  236 238 
 NOR  HN ES   1   2111 15.82                             117    0.26 6  236 238 
 NOR  HZ I        2111 18.85         8.0 0.28            118            236 238 
 GUY2CHZ EP   1   2110 56.09                             111    0.36 5  302 237 
 GUY2CHN ES   4   2111 32.23                             111    2.54 0  302 237 
 GUY2CHZ I        2111 36.84         5.8 0.28                           302 237 
                                                                                
