 2015  9 5 2358 35.4 L   6.766 -73.189153.9  RSN  6 0.3 1.4LRSN                1
 GAP=133        0.69       4.2     4.4  7.3  0.2822E+01 -0.7517E+01 -0.1639E+01E
 Epicentro: LOS SANTOS - SANTANDER                                             3
 ACTION:UPD 15-10-28 16:24 OP:cam  STATUS:               ID:20150905235835 L   I
 OLDACT:DUP 15-09-06 07:30 OP:spq  STATUS:               ID:20150905234749d    3
 2015-09-05-2347-48M.COL___355                                                 6
 STAT SP IPHASW D HRMM SECON CODA AMPLIT PERI AZIMU VELO AIN AR TRES W  DIS CAZ7
 BRR  HZ EP   1   2358 57.52                             155    0.18 7 69.1 303 
 BRR  HE ES       2359 14.61                             155    0.1710 69.1 303 
 BRR  HZ I        2359 22.45        10.6 0.64            154           69.1 303 
 PAM  EZ EP     D 2358 58.64                             150   -0.2210 83.4  40 
 RUS  HZ EP       2359  0.05                             146    0.3010 97.2 173 
 RUS  HE ES   1   2359 18.50                             146   -0.23 7 97.2 173 
 RUS  HZ I        2359 19.67         1.8 0.30            152           97.2 173 
 PTB  HZ EP       2359  2.39                             135   -0.20 9  142 260 
 PTB  HN ES   1   2359 23.13                             135   -0.66 7  142 260 
 PTB  HZ I        2359 25.81         2.0 0.38            138            142 260 
 SPBC HN ES   1   2359 26.60                             132    0.29 7  157 219 
 SPBC HZ I        2359 31.73         3.9 0.20            136            157 219 
 ZAR  HN ES   1   2359 33.95                             125    0.33 6  201 294 
 ZAR  HZ I        2359 38.49         3.0 0.22            128            201 294 
                                                                                
