 2011 11 5 2053 29.0 L   6.851 -73.306120.8  RSN  6 0.3 1.9LRSN                1
 GAP=126        0.42       2.8     3.7  5.3  0.2535E+01  0.3719E+01 -0.4573E+00E
 Epicentro: ZAPATOCA - SANTANDER                                               3
 ACTION:UPD 12-07-13 16:08 OP:ep   STATUS:               ID:20111105205329 L   I
 2011-11-05-2049-00S.COL___173                                                 6
 STAT SP IPHASW D HRMM SECON CODA AMPLIT PERI AZIMU VELO AIN AR TRES W  DIS CAZ7
 BAR2 SZ EP   1   2053 45.99                             164    0.10 7 31.7 155 
 BAR2 SZ I        2053 46.27        46.4 0.12                          31.7 155 
 BAR2 SZ ES   2   2053 58.60                             164   -0.46 5 31.7 155 
 BRR  HZ EP   1   2053 46.47                             155    0.02 7 53.1 302 
 BRR  HE ES   2   2054  0.38                             155    0.33 5 53.1 302 
 BRR  HZ I        2054  1.73        21.4 0.16                          53.1 302 
 PAM  SZ EP   2   2053 49.50                             142    0.24 5 86.0  51 
 PAM  SE ES   2   2054  5.08                             142    0.03 5 86.0  51 
 RUS  HZ EP   1   2053 50.91                             135   -0.19 7  109 167 
 RUS  HZ I        2053 51.62         3.8 0.13                           109 167 
 RUS  HN ES   2   2054  8.60                             135    0.28 5  109 167 
 OCA  SZ EP   2   2053 55.19                             125    0.36 5  153 359 
 OCA  SZ ES   2   2054 14.52                             125   -0.43 5  153 359 
 OCA  SZ I        2054 21.74        14.7 0.31                           153 359 
 ZAR  HZ EP   2   2053 57.66                             119   -0.31 4  186 293 
 ZAR  HN ES   2   2054 20.60                             119    0.05 4  186 293 
 ZAR  HZ I        2054 24.45         9.6 0.24                           186 293 
                                                                                
