 2013  3 5 2046  4.4 L   6.800 -73.172145.9  RSN  6 0.4 1.7LRSN                1
 GAP=133        0.78       5.6     5.1  8.2  0.6592E+01  0.1383E+02  0.6889E+01E
 Epicentro: LOS SANTOS - SANTANDER                                             3
 ACTION:UPD 13-04-09 14:00 OP:ep   STATUS:               ID:20130305204604 L   I
 2013-03-05-2040-00M.COL___228                                                 6
 STAT SP IPHASW D HRMM SECON CODA AMPLIT PERI AZIMU VELO AIN AR TRES W  DIS CAZ7
 BAR2 SZ EP   1   2046 24.11                             171    0.06 7 23.0 183 
 BAR2 SZ ES   1   2046 39.10                             171   -0.27 7 23.0 183 
 BAR2 SZ I        2046 41.82        11.0 0.10            168           23.0 183 
 BRR  HZ EP   1   2046 26.07                             153    0.63 7 68.7 300 
 BRR  HN ES   1   2046 42.52                             153    0.68 7 68.7 300 
 BRR  HZ I        2046 43.66        13.0 0.24            153           68.7 300 
 PAM  SN ES   1   2046 43.79                             150   -0.39 7 79.3  41 
 RUS  HZ EP   1   2046 28.26                             144    0.07 7  101 174 
 RUS  HN ES   1   2046 46.72                             144   -0.02 7  101 174 
 PTB  HZ EP   1   2046 30.90                             133   -0.24 7  145 259 
 PTB  HN ES   1   2046 51.86                             133   -0.12 7  145 259 
 PTB  HZ I        2046 56.88         5.7 0.10            133            145 259 
 ZAR  HN ES   1   2047  1.09                             123   -0.61 6  201 292 
                                                                                
