 2014 11 5 2334 14.9 L   6.788 -73.141140.6  RSN  4 0.2 1.5LRSN                1
 GAP=139        0.64       3.8     3.8  5.9 -0.4494E+01  0.6812E+01 -0.1700E+01E
 Epicentro: LOS SANTOS - SANTANDER                                             3
 ACTION:UPD 14-12-19 15:39 OP:nd   STATUS:               ID:20141105233414 L   I
 OLDACT:DUP 14-11-06 10:49 OP:spq  STATUS:               ID:20141105232750d    3
 2014-11-05-2327-49M.COL___277                                                 6
 STAT SP IPHASW D HRMM SECON CODA AMPLIT PERI AZIMU VELO AIN AR TRES W  DIS CAZ7
 BAR2 SZ ES   1   2334 48.56                             171   -0.08 7 22.1 192 
 BAR2 SZ I        2334 49.60         7.4 0.36            172           22.1 192 
 PAM  SZ EP       2334 36.81                             150    0.2510 78.1  39 
 PAM  SE ES       2334 53.37                             150   -0.1210 78.1  39 
 PAM  SZ I        2334 55.63         4.7 0.58            151           78.1  39 
 RUS  HZ EP       2334 38.14                             143    0.1410 99.2 176 
 RUS  HE ES       2334 55.99                             143   -0.0610 99.2 176 
 RUS  HZ I        2334 57.11         4.3 0.22            146           99.2 176 
 PTB  HZ EP       2334 40.96                             131   -0.47 9  148 259 
 PTB  HN ES       2335  2.43                             131    0.27 9  148 259 
 PTB  HZ I        2335  4.67         4.6 0.20            132            148 259 
                                                                                
