 2016 10 5 2031 23.1 L   6.812 -73.168139.4  RSN  6 0.2 1.6LRSN                1
 GAP=133        0.54       2.7     2.4  4.3 -0.8329E+00  0.3913E+01  0.6817E+00E
 Epicentro: LOS SANTOS - SANTANDER                                             3
 ACTION:UPD 16-11-09 19:16 OP:rebc STATUS:               ID:20161005203123 L   I
 OLDACT:REG 16-10-06 03:19 OP:cara STATUS:               ID:20161005202744     3
 2016-10-05-2028-00M.COL___353                                                 6
 STAT SP IPHASW D HRMM SECON CODA AMPLIT PERI AZIMU VELO AIN AR TRES W  DIS CAZ7
 BAR2 EZ EP       2031 41.76                             170   -0.2110 24.3 184 
 BAR2 EZ ES       2031 56.74                             170    0.0410 24.3 184 
 BAR2 EZ I        2031 58.05         9.5 0.42            172           24.3 184 
 PAM  EZ EP       2031 44.72                             149    0.0610 78.0  42 
 PAM  EN ES       2032  1.61                             149    0.1210 78.0  42 
 PAM  EZ I        2032  3.89         8.6 0.48            151           78.0  42 
 RUS  HZ IP     C 2031 45.98                             142   -0.3510  102 175 
 RUS  HN ES       2032  4.64                             142    0.1810  102 175 
 RUS  HZ I        2032  5.59         5.8 0.28            147            102 175 
 PTB  HN ES       2032  9.66                             131   -0.16 9  146 258 
 PTB  HZ I        2032 13.06         4.4 0.16            131            146 258 
 ZAR  HN ES       2032 19.58                             121   -0.01 9  201 292 
 ZAR  HZ I        2032 29.33         4.5 0.12            121            201 292 
 GUY2CHZ EP       2032  6.71                             111    0.45 7  300 234 
 GUY2CHE ES       2032 40.09                             111    0.15 7  300 234 
 GUY2CHZ I        2032 47.82         2.3 0.30                           300 234 
                                                                                
