 2014 12 5 2024 27.6 L   6.384 -73.666100.1  RSN  8 0.4 2.2LRSN                1
 GAP= 92        1.05       3.8     3.1  8.1 -0.2965E+01  0.5600E+01 -0.7896E+01E
 Epicentro: SANTA HELENA DEL OPON - SANTANDER                                  3
 ACTION:UPD 15-02-10 17:00 OP:nd   STATUS:               ID:20141205202427 L   I
 OLDACT:UP  14-12-06 06:38 OP:mh   STATUS:               ID:20141205201744     3
 OLDACT:REG 14-12-06 05:30 OP:mh   STATUS:               ID:20141205201744     3
 2014-12-05-2017-44M.COL___312                                                 6
 STAT SP IPHASW D HRMM SECON CODA AMPLIT PERI AZIMU VELO AIN AR TRES W  DIS CAZ7
 BAR2 SZ EP   1   2024 44.01                             148    0.57 7 58.2  67 
 BAR2 SZ ES       2024 56.37                             148    0.5510 58.2  67 
 BAR2 SZ I        2024 59.23        73.0 0.20            150           58.2  67 
 RUS  HZ EP       2024 45.81                             137    0.0510 84.3 130 
 RUS  HN ES   1   2024 59.23                             137   -0.71 7 84.3 130 
 PTB  HZ EP     C 2024 45.10                             135   -0.4110 89.1 281 
 PTB  HN ES       2024 58.82                             135   -0.6910 89.1 281 
 PTB  HZ I        2025  1.52        54.4 0.28            139           89.1 281 
 SPBC HZ EP   1   2024 46.23                             134    0.31 7 92.6 209 
 SPBC HN ES       2025  0.60                             134    0.3710 92.6 209 
 SPBC HZ I        2025  2.84        65.0 0.30            138           92.6 209 
 PAM  SZ EP       2024 52.22                             120    0.07 9  150  45 
 PAM  SN ES       2025 10.82                             120   -0.50 9  150  45 
 PAM  SZ I        2025 16.52        14.9 0.62            122            150  45 
 NOR  HZ EP   1   2024 52.48                             118   -0.29 7  161 236 
 NOR  HN ES       2025 12.50                             118    0.06 9  161 236 
 NOR  HZ I        2025 15.29        20.9 0.18            121            161 236 
 ZAR  HZ EP       2024 54.87                             115    0.08 9  180 313 
 ZAR  HN ES       2025 16.56                             115    0.53 9  180 313 
 GUY2CHZ EP   4   2025  1.41                             110    0.57 0  228 236 
 GUY2CHN ES   4   2025 29.69                             110    2.89 0  228 236 
 GUY2CHZ I        2025 34.33        11.5 0.30                           228 236 
 TOL  SZ EP   4   2025  4.53                             106   -1.16 0  271 223 
 TOL  SN ES   4   2025 36.67                             106    1.24 0  271 223 
                                                                                
