 2016 10 5 2223 40.2 L   6.787 -73.156141.4  RSN  7 0.3 1.7LRSN                1
 GAP=136        0.72       3.1     3.1  5.2 -0.2105E+01  0.6594E+01 -0.1769E+01E
 Epicentro: LOS SANTOS - SANTANDER                                             3
 ACTION:UPD 16-11-09 19:16 OP:rebc STATUS:               ID:20161005222340 L   I
 OLDACT:REG 16-10-06 03:32 OP:cara STATUS:               ID:20161005221747     3
 2016-10-05-2218-00M.COL___360                                                 6
 STAT SP IPHASW D HRMM SECON CODA AMPLIT PERI AZIMU VELO AIN AR TRES W  DIS CAZ7
 BAR2 EZ IP       2223 59.18                             171   -0.0910 21.7 188 
 BAR2 EZ ES       2224 14.03                             171   -0.1210 21.7 188 
 BAR2 EZ I        2224 15.35        13.4 0.12            170           21.7 188 
 PAM  EZ IP     C 2224  2.14                             149    0.0710 79.3  40 
 PAM  EN ES       2224 19.16                             149    0.0410 79.3  40 
 PAM  EZ I        2224 22.87         4.1 0.54            154           79.3  40 
 RUS  HZ EP       2224  3.13                             143   -0.3010 99.2 175 
 RUS  HN ES       2224 21.87                             143    0.3310 99.2 175 
 RUS  HZ I        2224 23.28         3.6 0.30            148           99.2 175 
 PTB  HZ EP       2224  6.24                             131   -0.44 9  146 259 
 PTB  HN ES       2224 26.84                             131   -0.50 9  146 259 
 PTB  HZ I        2224 34.48         6.6 0.32            132            146 259 
 SPBC HZ EP       2224  8.24                             128    0.05 9  161 219 
 SPBC HN ES       2224 30.20                             128    0.18 9  161 219 
 SPBC HZ I        2224 34.24         8.1 0.10            130            161 219 
 ZAR  HZ EP       2224 12.71                             121    0.40 9  204 293 
 ZAR  HN ES       2224 37.69                             121    0.34 9  204 293 
 ZAR  HZ I        2224 44.09         6.8 0.60            123            204 293 
 NOR  HN ES       2224 43.24                             118    0.23 8  233 235 
 NOR  HZ I        2224 50.16         4.4 0.20            120            233 235 
                                                                                
