 2017  9 5 2055 45.5 L   6.779 -73.113144.0  RSN  8 0.4 1.7LRSN                1
 GAP=116        0.97       3.5     4.1  5.8  0.3616E+01  0.7075E+01  0.5952E+01E
 Epicentro: LOS SANTOS - SANTANDER                                             3
 ACTION:UPD 17-10-05 19:09 OP:rebc STATUS:               ID:20170905205545 L   I
 OLDACT:UP  17-09-06 04:17 OP:edw  STATUS:               ID:20170905204744     3
 OLDACT:UP  17-09-06 04:14 OP:edw  STATUS:               ID:20170905204744     3
 OLDACT:REG 17-09-06 03:12 OP:edw  STATUS:               ID:20170905204744     3
 2017-09-05-2048-00M.COL___428                                                 6
 STAT SP IPHASW D HRMM SECON CODA AMPLIT PERI AZIMU VELO AIN AR TRES W  DIS CAZ7
 BAR2 EZ EP       2056  4.03                             171   -0.8410 22.0 200 
 BAR2 EZ ES       2056 20.34                             171    0.3510 22.0 200 
 BAR2 EZ I        2056 22.52        14.1 0.30            171           22.0 200 
 BRR  HZ EP       2056  6.52                             151   -0.1710 75.5 299 
 BRR  HN ES       2056 23.71                             151    0.4810 75.5 299 
 PAM  EZ EP     D 2056  7.68                             151    0.1910 77.0  36 
 PAM  EN ES       2056 24.64                             151   -0.0110 77.0  36 
 PAM  EZ I        2056 27.96         4.1 0.44            153           77.0  36 
 RUS  HZ EP       2056  8.90                             144    0.0310 98.0 178 
 RUS  HN ES       2056 27.19                             144    0.0710 98.0 178 
 RUS  HZ I        2056 28.76         8.3 0.30            146           98.0 178 
 YPLC HZ EP       2056 15.11                             127    0.33 9  173 152 
 YPLC HE ES       2056 37.23                             127   -0.40 9  173 152 
 ZAR  HZ EP       2056 18.39                             121    0.14 8  208 292 
 ZAR  HN ES       2056 43.09                             121   -0.71 8  208 292 
 ZAR  HZ I        2056 47.83         6.5 0.42            123            208 292 
 CHI  HZ EP       2056 23.01                             117    0.07 8  247 196 
 CHI  HE ES       2056 52.02                             117   -0.13 8  247 196 
 CHI  HZ I        2056 56.02         2.8 0.68            119            247 196 
 GUY2CHZ EP       2056 29.94                             112    0.75 7  303 236 
 GUY2CHE ES       2057  3.31                             112    0.03 7  303 236 
 GUY2CHZ I        2057 11.07         2.0 0.60                           303 236 
                                                                                
