 2012  1 5 2054 10.6 L   6.741 -73.144138.7  RSN  7 0.3 1.9LRSN                1
 GAP=139        0.82       4.7     4.0  6.8  0.3893E+00  0.3468E+01 -0.2523E+01E
 Epicentro: JORDAN - SANTANDER                                                 3
 ACTION:UP  12-02-03 08:14 OP:REBC STATUS:               ID:20120105205410 L   I
 2012-01-05-2050-00M.COL___189                                                 6
 STAT SP IPHASW D HRMM SECON CODA AMPLIT PERI AZIMU VELO SNR AR TRES W  DIS CAZ7
 BAR2 SZ EP       2054 29.32                             173     0.110   17 195 
 BAR2 SZ I        2054 29.74        17.5 0.09                            17 195 
 BAR2 SZ ES   1   2054 43.92                             173     0.1 7   17 195 
 GIR2 SZ EP       2054 29.51                             164    -0.110   38 352 
 BRR  HZ EP       2054 31.30                             150     0.110   75 303 
 BRR  HN ES   1   2054 47.86                             150     0.6 7   75 303 
 BRR  HN I        2054 53.04        49.2 0.22                            75 303 
 PAM  SZ EP       2054 32.40                             148     0.010   82  37 
 PAM  SE ES   1   2054 48.87                             148    -0.5 7   82  37 
 RUS  HZ EP       2054 33.30                             144     0.110   94 176 
 RUS  HE ES   1   2054 50.88                             144     0.1 7   94 176 
 RUS  HZ I        2054 55.09         4.6 0.32                            94 176 
 PTB  HZ EP   1   2054 36.32                             131    -0.6 7  147 261 
 PTB  HE ES       2054 56.96                             131    -0.5 9  147 261 
 ZAR  HZ EP   1   2054 43.40                             120     0.5 6  207 294 
 ZAR  HE ES   1   2055  8.11                             120     0.1 6  207 294 
 ZAR  HZ I        2055 11.66         6.6 0.20                           207 294 
                                                                                
