 2012  4 5 2305  2.6 L   6.774 -73.125150.8  RSN  6 0.4 1.6LRSN                1
 GAP=140        0.82       5.3     7.2  8.7  0.1859E+01  0.4101E+01  0.4042E+01E
 Epicentro: LOS SANTOS - SANTANDER                                             3
 ACTION:UPD 12-07-05 11:50 OP:tino STATUS:               ID:20120405230502 L   I
 2012-04-05-2300-00M.COL___196                                                 6
 STAT SP IPHASW D HRMM SECON CODA AMPLIT PERI AZIMU VELO AIN AR TRES W  DIS CAZ7
 BAR2 SZ EP   1   23 5 22.85                             172     0.0 7   21 197 
 BAR2 SZ ES   1   23 5 38.20                             172    -0.4 7   21 197 
 BAR2 SZ I        23 5 41.00         7.7 0.45                            21 197 
 BRR  HZ EP   1   23 5 24.85                             152     0.3 7   75 300 
 BRR  HE ES   1   23 5 41.93                             152     0.3 7   75 300 
 BRR  HZ I        23 5 46.85         6.8 0.16                            75 300 
 PAM  SZ EP   1   23 5 25.70                             151     0.3 7   78  37 
 PAM  SN ES   1   23 5 42.95                             151    -0.3 7   78  37 
 RUS  HZ EP   1   23 5 26.34                             146    -0.3 7   98 177 
 RUS  HN ES   1   23 5 45.95                             146     0.5 7   98 177 
 RUS  HZ I        23 5 46.88         5.7 0.47                            98 177 
 ZAR  HN ES   2   23 6  0.83                             123    -0.7 4  207 293 
 ZAR  HZ I        23 6  6.96         4.1 0.30                           207 293 
 CHI  HN ES   2   23 6  9.26                             118    -0.6 4  246 196 
                                                                                
