 2017  4 5 2347 53.8 L   6.786 -73.143144.7  RSN  9 0.5 1.6LRSN                1
 GAP=138        1.15       4.3     4.5  7.3 -0.4428E+00  0.7344E+01  0.7421E+01E
 Epicentro: LOS SANTOS - SANTANDER                                             3
 ACTION:UPD 17-05-30 21:08 OP:jn   STATUS:               ID:20170405234753 L   I
 OLDACT:REG 17-04-06 07:21 OP:lv   STATUS:               ID:20170405233747     3
 2017-04-05-2338-00M.COL___359                                                 6
 STAT SP IPHASW D HRMM SECON CODA AMPLIT PERI AZIMU VELO AIN AR TRES W  DIS CAZ7
 BAR2 EZ EP       2348 13.20                             171   -0.0810 21.8 192 
 BAR2 EZ ES       2348 28.07                             171   -0.4010 21.8 192 
 BAR2 EZ I        2348 29.11        13.7 0.12            169           21.8 192 
 BRR  HZ EP       2348 15.08                             152    0.1810 72.2 300 
 BRR  HE ES       2348 32.20                             152    0.8510 72.2 300 
 BRR  HZ I        2348 32.60        10.6 0.11            151           72.2 300 
 PAM  EZ EP       2348 15.99                             150    0.0210 78.4  39 
 PAM  EN ES       2348 33.14                             150   -0.1210 78.4  39 
 PAM  EZ I        2348 35.90         5.4 0.31            153           78.4  39 
 RUS  HZ EP       2348 17.14                             144   -0.2010 99.0 176 
 RUS  HN ES       2348 35.58                             144   -0.1110 99.0 176 
 RUS  HZ I        2348 36.66         3.4 0.10            144           99.0 176 
 PTB  HZ EP       2348 20.30                             132   -0.39 9  148 259 
 PTB  HN ES       2348 40.73                             132   -0.93 9  148 259 
 PTB  HZ I        2348 45.55         4.5 0.11            131            148 259 
 SPBC HZ EP       2348 22.17                             129    0.04 9  162 219 
 SPBC HN ES       2348 44.58                             129    0.37 9  162 219 
 SPBC HZ I        2348 49.28         6.9 0.13            129            162 219 
 ZAR  HZ EP   4   2348 27.47                             122    1.19 0  205 293 
 ZAR  HN ES       2348 52.13                             122    0.53 9  205 293 
 ZAR  HZ I        2348 57.69         6.8 0.16            122            205 293 
 CHI  HZ EP       2348 31.34                             117    0.05 8  247 195 
 CHI  HN ES       2349  1.44                             117    0.92 8  247 195 
 CHI  HZ I        2349  7.90         1.5 0.35            117            247 195 
 HEL  HN ES       2349  4.71                             115   -0.56 8  272 256 
                                                                                
