 2013  6 5 2049  8.7 L   6.767 -73.174148.7  RSN  6 0.4 1.7LRSN                1
 GAP=135        1.02       5.5     5.3  7.3 -0.3243E+01  0.3783E+01  0.1650E+00E
 Epicentro: LOS SANTOS - SANTANDER                                             3
 ACTION:UPD 14-01-08 09:52 OP:ep   STATUS:               ID:20130605204908 L   I
 OLDACT:REG 13-06-05 22:24 OP:stll STATUS:               ID:20130605203850     3
 2013-06-05-2038-50M.COL___228                                                 6
 STAT SP IPHASW D HRMM SECON CODA AMPLIT PERI AZIMU VELO AIN AR TRES W  DIS CAZ7
 BAR2 SZ EP       2049 28.63                             172    0.0010 19.4 183 
 BAR2 SZ ES       2049 44.31                             172    0.1610 19.4 183 
 BAR2 SZ I        2049 47.01         6.9 0.28            174           19.4 183 
 GIR2 SZ EP       2049 28.67                             166   -0.1610 34.5 356 
 BRR  HZ EP       2049 30.39                             153    0.2510 70.4 302 
 BRR  HN ES       2049 47.58                             153    0.7410 70.4 302 
 BRR  HE I        2049 48.68        20.2 0.18            154           70.4 302 
 PAM  SZ EP       2049 31.49                             150   -0.0410 82.1  40 
 PAM  SN ES       2049 48.82                             150   -0.5010 82.1  40 
 PAM  SE I        2049 54.41         5.7 0.38            152           82.1  40 
 RUS  HZ EP       2049 32.90                             145    0.3810 97.2 174 
 RUS  HN ES       2049 50.97                             145   -0.1210 97.2 174 
 RUS  HE I        2049 52.29         7.0 0.58            149           97.2 174 
 PTB  HZ EP       2049 35.57                             133   -0.03 9  144 260 
 PTB  HE ES       2049 55.79                             133   -0.77 9  144 260 
 PTB  HN I        2050  2.39         7.4 0.30            136            144 260 
                                                                                
