 2011  4 5 2008 21.7 L   6.816 -73.184147.9  RSN  5 0.4 1.9LRSN                1
 GAP=185        0.79       7.5    12.8 11.7 -0.1924E+02 -0.3642E+01  0.1394E+02E
 Epicentro: ZAPATOCA - SANTANDER                                               3
 ACTION:UP  11-06-22 15:29 OP:REBC STATUS:               ID:20110405200821 L   I
 2011-04-05-2003-00S.COL___119                                                 6
 STAT SP IPHASW D HRMM SECON CODA AMPLIT PERI AZIMU VELO SNR AR TRES W  DIS CAZ7
 BAR2 SZ EP   1   20 8 41.57                             170    -0.1 7   25 180 
 BAR2 SZ ES   2   20 8 57.00                             170    -0.2 5   25 180 
 BAR2 SZ I        20 8 59.02         9.4 0.30                            25 180 
 BRR  HZ EP   1   20 8 43.57                             154     0.7 7   67 299 
 BRR  HZ I        20 8 46.50        17.9 0.29                            67 299 
 BRR  HN ES   2   20 8 59.14                             154    -0.2 5   67 299 
 OCA  SZ EP   2   20 8 49.31                             130    -0.7 5  158 355 
 OCA  SZ I        20 8 50.12        35.4 0.37                           158 355 
 NOR  SE ES   2   20 9 24.60                             119    -0.5 4  232 233 
 CHI  HZ EP   2   20 8 59.42                             117    -0.2 4  249 194 
 CHI  HE ES   2   20 9 29.36                             117     0.2 4  249 194 
 CHI  HZ I        20 9 36.89         2.7 0.37                           249 194 
                                                                                
