 2011  2 5 2259 13.0 L   6.781 -73.149141.7  RSN  9 0.3 2.1LRSN                1
 GAP=158        0.68       3.5     7.4  6.0 -0.1450E+02  0.2258E+02 -0.4940E+01E
 Epicentro: LOS SANTOS - SANTANDER                                             3
 ACTION:UP  11-03-28 15:06 OP:jfem STATUS:               ID:20110205225913 L   I
 2011-02-05-2257-49S.COL___113                                                 6
 STAT SP IPHASW D HRMM SECON CODA AMPLIT PERI AZIMU VELO SNR AR TRES W  DIS CAZ7
 BTL  SZ EP       2259 32.28                             171     0.210   20 319 
 BAR2 SZ EP       2259 32.00                             171    -0.110   21 190 
 BAR2 SZ ES   1   2259 46.82                             171    -0.1 7   21 190 
 BAR2 SZ I        2259 48.15        42.0 0.25                            21 190 
 GIR2 SZ EP       2259 32.18                             166     0.010   33 352 
 RUS  HZ EP       2259 35.77                             144    -0.410   99 176 
 RUS  HN ES   1   2259 54.63                             144     0.4 7   99 176 
 RUS  HZ I        2259 55.60        19.0 0.23                            99 176 
 GRA  SZ EP       2259 38.00                             136     0.010  128  17 
 GRA  SZ ES   1   2259 57.69                             136     0.1 7  128  17 
 GRA  SZ I        23 0  0.58        18.1 0.40                           128  17 
 OCA  SZ EP       2259 41.07                             128    -0.1 9  162 353 
 OCA  SZ I        23 0  7.65        16.3 0.23                           162 353 
 NOR  SZ EP       2259 48.52                             118     0.2 8  233 235 
 NOR  SN ES   2   23 0 15.30                             118    -0.6 4  233 235 
 CHI  HZ EP       2259 49.99                             117    -0.2 8  247 195 
 CHI  HZ I        23 0 25.01         5.0 0.31                           247 195 
 RREF HZ EP       2259 59.30                             110     0.6 7  320 230 
 RREF HN ES   2   23 0 34.27                             110    -0.2 3  320 230 
 RREF HZ I        23 0 41.54         7.8 0.20                           320 230 
                                                                                
