 2011 12 5 2015 49.5 L   6.759 -73.098144.0  RSN 14 0.4 2.6LRSN                1
 GAP=120        0.78       3.3     4.7  4.9 -0.4642E+01  0.4441E+01  0.4459E+01E
 Epicentro: LOS SANTOS - SANTANDER                                             3
 ACTION:UPD 12-07-13 16:14 OP:ep   STATUS:               ID:20111205201549 L   I
 2011-12-05-2010-00M.COL___183                                                 6
 STAT SP IPHASW D HRMM SECON CODA AMPLIT PERI AZIMU VELO AIN AR TRES W  DIS CAZ7
 BAR2 SZ IP       2016  8.71                             171   -0.1310 20.7 207 
 BAR2 SZ I        2016  9.10        81.0 0.11                          20.7 207 
 BAR2 SZ ES   1   2016 23.43                             171   -0.51 7 20.7 207 
 GIR2 SZ EP       2016  8.80                             165   -0.3010 36.9 343 
 GIR2 SZ ES   1   2016 24.75                             165    0.34 7 36.9 343 
 PAM  SZ EP   1   2016 11.52                             150    0.00 7 77.8  34 
 PAM  SE ES   1   2016 28.81                             150    0.08 7 77.8  34 
 PAM  SZ I        2016 30.94        66.6 0.58                          77.8  34 
 BRR  HN ES   1   2016 28.04                             150    0.55 7 78.0 300 
 BRR  HZ I        2016 29.75       169.4 0.15                          78.0 300 
 RUS  HZ EP   1   2016 12.56                             145   -0.15 7 95.8 179 
 RUS  HE ES   1   2016 31.39                             145    0.56 7 95.8 179 
 RUS  HZ I        2016 34.23        24.3 0.27                          95.8 179 
 BRI  SZ EP   1   2016 13.50                             140    0.11 7  111  17 
 BRI  SZ ES   2   2016 31.46                             140   -0.59 5  111  17 
 OCA  SZ EP   1   2016 18.16                             128    0.02 7  165 352 
 OCA  SZ ES   1   2016 40.56                             128    0.06 7  165 352 
 OCA  SZ I        2016 44.78        80.2 0.43                           165 352 
 YOP  SZ EP   1   2016 19.16                             127    0.41 7  172 154 
 YOP  SZ I        2016 47.19        23.2 0.36                           172 154 
 NOR  SZ EP   1   2016 24.33                             118   -0.96 6  236 236 
 NOR  SN ES   1   2016 52.42                             118   -0.80 6  236 236 
 CHI  HZ EP   1   2016 26.18                             117   -0.57 6  246 197 
 CHI  HZ I        2016 59.60        22.1 0.47                           246 197 
 HEL  HZ EP   1   2016 30.74                             114    0.69 6  276 257 
 HEL  HN ES   2   2017  1.84                             114    0.14 4  276 257 
 RREF HZ EP   1   2016 36.30                             110    0.64 5  323 231 
 RREF HZ I        2017 21.25        35.8 0.31                           323 231 
 TOL  SZ EP   1   2016 37.93                             109    0.21 5  344 226 
 TOL  SZ ES   2   2017 16.10                             109    0.75 3  344 226 
 PRA  HZ EP   1   2016 43.16                             106    0.38 4  391 211 
 PRA  HN ES   2   2017 24.72                             106    0.36 3  391 211 
                                                                                
