 2012  5 5 2142 38.0 L   6.357 -73.087 11.4  RSN  5 0.4 1.5LRSN                1
 GAP=158        1.04       2.9     5.5  8.1  0.1996E+01  0.2986E+02  0.9697E+00E
 Epicentro: OCAMONTE - SANTANDER                                               3
 ACTION:UP  12-07-05 12:02 OP:pat  STATUS:               ID:20120505214238 L   I
 2012-05-05-2140-00M.COL___192                                                 6
 STAT SP IPHASW D HRMM SECON CODA AMPLIT PERI AZIMU VELO SNR AR TRES W  DIS CAZ7
 RUS  HZ EP   1   2142 47.15                              99     0.2 8   51 180 
 RUS  HZ I        2142 47.55        32.0 0.11                            51 180 
 RUS  HN ES   1   2142 53.55                              99    -0.4 8   51 180 
 BRR  HZ EP   1   2142 55.61                              94     0.6 7  108 320 
 BRR  HZ I        2143  6.16        11.6 0.22                           108 320 
 BRR  HN ES       2143  8.00                              94    -0.210  108 320 
 PAM  SZ EP   1   2142 57.35                              94     0.5 7  117  21 
 PAM  SN ES   1   2143 10.93                              94    -0.6 7  117  21 
 PAM  SZ I        2143 12.06         8.0 0.18                           117  21 
 PTB  HZ EP   1   2143  2.32                              56     0.6 7  153 278 
 PTB  HN ES       2143 20.15                              56    -0.1 9  153 278 
 PTB  HZ I        2143 23.20         8.9 0.21                           153 278 
 ZAR  HN ES   1   2143 37.63                              56    -0.4 6  233 303 
                                                                                
