 2016  4 5 2343 32.8 L   6.609 -73.744102.3  RSN  4 0.2 1.0LRSN                1
 GAP=150        0.59       3.8     2.3  6.8 -0.9718E+00  0.2016E+00 -0.5530E+01E
 Epicentro: EL CARMEN - SANTANDER                                              3
 ACTION:UPD 16-05-05 14:19 OP:rebc STATUS:               ID:20160405234332 L   I
 OLDACT:DUP 16-04-06 04:49 OP:ak   STATUS:               ID:20160405233747d    3
 2016-04-05-2337-46M.COL___304                                                 6
 STAT SP IPHASW D HRMM SECON CODA AMPLIT PERI AZIMU VELO AIN AR TRES W  DIS CAZ7
 BAR2 EZ EP       2343 49.33                             146    0.2110 62.2  92 
 BAR2 EZ ES       2344  2.22                             146    0.3310 62.2  92 
 BAR2 EZ I        2344  2.45         3.6 0.25            148           62.2  92 
 PTB  HZ EP       2343 50.15                             139    0.0910 79.1 264 
 PTB  HN ES       2344  3.42                             139   -0.1410 79.1 264 
 PTB  HZ I        2344  4.92         4.1 0.16            140           79.1 264 
 RUS  HZ EP   2   2343 53.41                             130    0.19 5  108 137 
 RUS  HE ES       2344  8.88                             130   -0.3010  108 137 
 RUS  HZ I        2344  9.78         0.7 0.13            132            108 137 
 PAM  EZ EP   2   2343 56.51                             122    0.01 5  141  55 
 PAM  EN ES       2344 14.73                             122   -0.28 9  141  55 
 PAM  EZ I        2344 16.06         3.0 0.26            123            141  55 
                                                                                
