 2012  4 5 2328 36.8 L   6.152 -73.736105.0  RSN  4 0.2 1.1LRSN                1
 GAP=187        0.45       4.7     4.9  8.1  0.1614E+02  0.6145E+01 -0.1374E+01E
 Epicentro: LANDAZURI - SANTANDER                                              3
 ACTION:UPD 12-07-05 11:50 OP:tino STATUS:               ID:20120405232836 L   I
 2012-04-05-2320-00M.COL___196                                                 6
 STAT SP IPHASW D HRMM SECON CODA AMPLIT PERI AZIMU VELO AIN AR TRES W  DIS CAZ7
 RUS  HZ EP   1   2328 54.69                             141    -0.2 7   78 112 
 RUS  HZ I        2328 55.02         2.1 0.39                            78 112 
 RUS  HE ES   1   2329  9.17                             141     0.1 7   78 112 
 PTB  HE ES   2   2329  9.72                             136     0.0 5   91 298 
 PTB  HZ I        2329 11.93         2.7 0.47                            91 298 
 BRR  HZ EP   1   2328 56.85                             131     0.2 7  106   1 
 BRR  HZ I        2329  8.94         4.0 0.49                           106   1 
 BRR  HN ES   1   2329 11.93                             131    -0.1 7  106   1 
 ZAR  HN ES   2   2329 28.32                             113     0.0 4  193 320 
                                                                                
