 2016 11 5 2050 32.1 L   6.782 -73.137141.9  RSN 11 0.2 2.1LRSN                1
 GAP=155        0.59       2.2     2.4  3.2 -0.1207E+01  0.1362E+01  0.2246E+01E
 Epicentro: LOS SANTOS - SANTANDER                                             3
 ACTION:UPD 17-10-26 21:05 OP:lp   STATUS:               ID:20161105205032 L   I
 OLDACT:UP  16-11-06 03:30 OP:edw  STATUS:               ID:20161105204653     3
 OLDACT:REG 16-11-06 02:30 OP:edw  STATUS:               ID:20161105204653     3
 2016-11-05-2048-00M.COL___346                                                 6
 STAT SP IPHASW D HRMM SECON CODA AMPLIT PERI AZIMU VELO AIN AR TRES W  DIS CAZ7
 BAR2 EZ IP     C 2050 51.21                             171   -0.0610 21.5 193 
 BAR2 EZ ES       2051  6.09                             171   -0.1010 21.5 193 
 BAR2 EZ I        2051  6.90        43.5 0.28            170           21.5 193 
 BRR  HZ IP     C 2050 53.07                             151    0.0910 73.0 300 
 BRR  HE ES       2051  9.43                             151    0.2010 73.0 300 
 BRR  HZ I        2051 14.11        36.2 0.12            150           73.0 300 
 PAM  EZ EP       2050 54.21                             150    0.2010 78.4  38 
 PAM  EN ES       2051 10.92                             150   -0.1410 78.4  38 
 PAM  EZ I        2051 13.39        16.7 0.44            153           78.4  38 
 PTB  HZ EP   9   2050 57.84                             131   -1.00 0  148 260 
 PTB  HN ES       2051 19.02                             132    0.35 9  148 260 
 PTB  HZ I        2051 21.68        15.4 0.10            131            148 260 
 SPBC HZ IP     C 2051  0.24                             128   -0.01 9  162 220 
 SPBC HE ES       2051 22.24                             128    0.06 9  162 220 
 SPBC HZ I        2051 26.54        17.9 0.15            129            162 220 
 ZAR  HZ EP       2051  4.46                             121   -0.04 8  206 293 
 ZAR  HN ES       2051 29.35                             121   -0.40 8  206 293 
 ZAR  HZ I        2051 34.78        11.7 0.09            122            206 293 
 NOR  HZ EP       2051  7.79                             118    0.19 8  234 235 
 NOR  HN ES       2051 35.15                             118   -0.11 8  234 235 
 NOR  HZ I        2051 37.10         9.4 0.18            119            234 235 
 CHI  HZ EP       2051  9.21                             116   -0.23 8  247 195 
 CHI  HN ES       2051 38.56                             116    0.03 8  247 195 
 CHI  HZ I        2051 41.60         3.6 0.34            118            247 195 
 HEL  HZ EP       2051 12.94                             114    0.74 8  272 256 
 HEL  HN ES       2051 43.12                             114   -0.33 8  272 256 
 HEL  HZ I        2051 50.20         5.9 0.32            115            272 256 
 PRA  HZ EP       2051 25.11                             106   -0.26 6  391 210 
 PRA  HN ES       2052  6.93                             106    0.03 6  391 210 
 PRA  HZ I        2052  8.93         3.6 0.33            107            391 210 
 SJC  HZ EP   4   2051 26.15                             105   -1.68 0  411 327 
 SJC  HN ES   4   2052  7.32                             105   -3.96 0  411 327 
 SJC  HZ I        2052 11.55         2.8 0.52            106            411 327 
                                                                                
