 2013 11 5 2251  1.4 L   6.774 -73.141144.5  RSN  7 0.3 1.7LRSN                1
 GAP=138        0.83       3.7     3.5  5.3 -0.6116E+00  0.5935E+01  0.1015E+01E
 Epicentro: LOS SANTOS - SANTANDER                                             3
 ACTION:UPD 14-01-09 16:26 OP:ep   STATUS:               ID:20131105225101 L   I
 OLDACT:REG 13-11-05 22:27 OP:carl STATUS:               ID:20131105224846     3
 2013-11-05-2248-46M.COL___210                                                 6
 STAT SP IPHASW D HRMM SECON CODA AMPLIT PERI AZIMU VELO AIN AR TRES W  DIS CAZ7
 BAR2 SZ IP     D 2251 20.83                             171   -0.0410 20.6 193 
 BAR2 SZ ES       2251 35.80                             171   -0.2110 20.6 193 
 BAR2 SZ I        2251 42.05        10.8 0.26            170           20.6 193 
 BRR  HZ IP     C 2251 22.73                             152    0.1710 73.1 300 
 BRR  HN ES       2251 39.70                             152    0.6710 73.1 300 
 BRR  HZ I        2251 43.02         9.6 0.20            152           73.1 300 
 PAM  SZ EP       2251 23.74                             150    0.1010 79.3  38 
 PAM  SN ES       2251 40.71                             150   -0.2310 79.3  38 
 PAM  SZ I        2251 41.35         8.2 0.32            156           79.3  38 
 RUS  HZ EP       2251 24.78                             144   -0.0810 97.7 176 
 RUS  HN ES       2251 43.27                             144    0.1510 97.7 176 
 RUS  HZ I        2251 45.67         3.1 0.26            147           97.7 176 
 PTB  HZ EP       2251 27.81                             132   -0.50 9  148 260 
 PTB  HN ES       2251 48.69                             132   -0.57 9  148 260 
 PTB  HZ I        2251 51.01         8.7 0.16            133            148 260 
 ZAR  HZ EP       2251 34.11                             122    0.14 8  206 293 
 ZAR  HN ES       2251 59.19                             122   -0.15 8  206 293 
 ZAR  HZ I        2252  5.28         8.4 0.28            124            206 293 
 NOR  HZ EP       2251 37.34                             118    0.37 8  233 235 
 NOR  HN ES       2252  4.96                             118    0.28 8  233 235 
 NOR  HZ I        2252 11.04         4.7 0.44            121            233 235 
                                                                                
