 2011  8 5 2231 34.4 L   6.783 -73.101147.7  RSN  3 0.1 1.2LRSN                1
 GAP=143        0.36       2.7     3.9  4.8 -0.2173E+00 -0.1019E+01  0.1703E+01E
 Epicentro: LOS SANTOS - SANTANDER                                             3
 ACTION:UPD 12-07-25 14:06 OP:epov STATUS:               ID:20110805223134 L   I
 2011-08-05-2225-00S.MAN___137                                                 6
 STAT SP IPHASW D HRMM SECON CODA AMPLIT PERI AZIMU VELO AIN AR TRES W  DIS CAZ7
 PAM  SZ EP   1   2231 56.61                             152   -0.11 7 75.9  36 
 PAM  SN ES   1   2232 14.20                             152    0.06 7 75.9  36 
 PAM  SZ I        2232 16.49         1.8 0.21                          75.9  36 
 BRR  HZ EP   1   2231 55.95                             151   -0.09 7 76.4 298 
 BRR  HZ I        2231 58.81         8.9 0.36                          76.4 298 
 BRR  HN ES   1   2232 12.99                             151    0.05 7 76.4 298 
 RUS  HZ EP   1   2231 58.38                             145    0.20 7 98.5 179 
 RUS  HN ES   1   2232 16.62                             145   -0.11 7 98.5 179 
 RUS  HZ I        2232 17.70         1.5 0.18                          98.5 179 
                                                                                
