 2017 11 5 2207 21.5 L   6.787 -73.140146.8  RSN  6 0.4 0.9LRSN                1
 GAP=138        0.99       4.7     5.0  6.8 -0.5863E+01  0.5398E+01  0.3354E+01E
 Epicentro: LOS SANTOS - SANTANDER                                             3
 ACTION:UPD 17-12-12 19:52 OP:rebc STATUS:               ID:20171105220721 L   I
 OLDACT:REG 17-11-06 03:23 OP:osc  STATUS:               ID:20171105215738     3
 2017-11-05-2158-00M.COL___438                                                 6
 STAT SP IPHASW D HRMM SECON CODA AMPLIT PERI AZIMU VELO AIN AR TRES W  DIS CAZ7
 BAR2 EZ ES       22 7 56.60                             171   -0.0410 22.0 192 
 BRR  HZ EP       22 7 43.28                             152    0.4310 72.5 299 
 BRR  HN ES       22 8  0.01                             152    0.5210 72.5 299 
 PAM  EZ EP       22 7 43.97                             151    0.0810 78.1  38 
 PAM  EE ES       22 8  0.70                             151   -0.6410 78.1  38 
 RUS  HZ EP       22 7 45.68                             144    0.4110 99.1 176 
 RUS  HN ES       22 8  4.02                             144    0.2310 99.1 176 
 RUS  HZ I        22 8  4.79         1.0 0.34            144           99.1 176 
 PTB  HZ EP       22 7 48.55                             132   -0.06 9  148 259 
 PTB  HE ES       22 8  9.37                             132   -0.36 9  148 259 
 PTB  HZ I        22 8 11.31         1.2 0.19            132            148 259 
 SPBC HZ EP       22 7 49.51                             129   -0.52 9  162 219 
 SPBC HN ES       22 8 12.04                             129   -0.23 9  162 219 
                                                                                
