 2011  8 5 2351 55.8 L   6.739 -73.103145.7  RSN  6 0.3 2.2LRSN                1
 GAP=145        0.66       4.1     5.0  5.7 -0.3837E+01  0.5142E+01  0.5717E+01E
 Epicentro: JORDAN - SANTANDER                                                 3
 ACTION:UPD 12-07-25 14:06 OP:epov STATUS:               ID:20110805235155 L   I
 2011-08-05-2340-00M.COL___145                                                 6
 STAT SP IPHASW D HRMM SECON CODA AMPLIT PERI AZIMU VELO AIN AR TRES W  DIS CAZ7
 BAR2 SZ EP   1   2352 15.33                             172    0.01 7 18.5 208 
 BAR2 SZ ES   1   2352 30.38                             172   -0.18 7 18.5 208 
 BAR2 SZ I        2352 32.13        68.3 0.41                          18.5 208 
 BRR  HZ IP     D 2352 17.36                             150   -0.0110 78.6 301 
 BRR  HZ I        2352 17.79        81.4 0.10                          78.6 301 
 BRR  HN ES   1   2352 34.65                             150    0.45 7 78.6 301 
 PAM  SZ EP   1   2352 18.28                             150    0.13 7 79.9  34 
 PAM  SZ I        2352 18.63        35.7 0.20                          79.9  34 
 PAM  SN ES   1   2352 35.23                             150   -0.36 7 79.9  34 
 RUS  HZ EP       2352 19.26                             146    0.2110 93.7 179 
 RUS  HN ES   1   2352 37.12                             146   -0.07 7 93.7 179 
 RUS  HZ I        2352 39.23        27.6 0.28                          93.7 179 
 NOR  SZ EP   1   2352 30.68                             118   -0.84 6  235 236 
 NOR  SN ES   1   2352 59.29                             118   -0.11 6  235 236 
 NOR  SZ I        2353  3.19         3.4 0.32                           235 236 
 CHI  HZ EP   1   2352 33.37                             118    0.45 6  243 197 
 CHI  HZ I        2353  6.74        10.4 0.46                           243 197 
                                                                                
