 2013  8 5 2112 26.7 L   6.738 -73.364126.0  RSN  7 0.4 2.0LRSN                1
 GAP= 98        0.89       4.0     4.1  5.9  0.3628E+01  0.8299E+01  0.2955E+01E
 Epicentro: ZAPATOCA - SANTANDER                                               3
 ACTION:UPD 14-01-14 08:59 OP:ep   STATUS:               ID:20130805211226 L   I
 OLDACT:REG 13-08-05 21:37 OP:cam  STATUS:               ID:20130805210959     3
 2013-08-05-2109-59M.COL___269                                                 6
 STAT SP IPHASW D HRMM SECON CODA AMPLIT PERI AZIMU VELO AIN AR TRES W  DIS CAZ7
 BAR2 SZ EP       2112 44.17                             168    0.1310 25.7 129 
 BAR2 SZ ES       2112 57.24                             168   -0.3110 25.7 129 
 BAR2 SZ I        2112 58.54        56.8 0.26            170           25.7 129 
 GIR2 SZ EP       2112 44.27                             160   -0.1810 42.1  27 
 GIR2 SZ ES       2112 58.10                             160   -0.1710 42.1  27 
 BRR  HZ IP     D 2112 44.84                             154   -0.0610 56.1 317 
 BRR  HN ES       2112 59.32                             154    0.2510 56.1 317 
 BRR  HZ I        2113  0.02        30.9 0.14            154           56.1 317 
 RUS  HZ EP       2112 48.48                             140    0.0610 98.5 162 
 RUS  HN ES       2113  5.77                             140    0.4210 98.5 162 
 RUS  HZ I        2113  7.87         6.7 0.32            141           98.5 162 
 PAM  SZ EP       2112 48.51                             140    0.0410 99.1  48 
 PAM  SN ES       2113  5.49                             140    0.0710 99.1  48 
 PAM  SZ I        2113  6.74        11.9 0.28            143           99.1  48 
 PTB  HZ EP       2112 48.97                             133   -0.8510  123 260 
 PTB  HN ES   4   2113  6.20                             133   -1.63 0  123 260 
 PTB  HZ I        2113 10.42        17.7 0.10            132            123 260 
 ZAR  HZ EP   1   2112 56.64                             120    0.71 7  185 297 
 ZAR  HN ES       2113 19.00                             120    0.30 9  185 297 
 ZAR  HZ I        2113 23.23        12.0 0.34            121            185 297 
                                                                                
