 2014  1 5 2048 20.6 L   6.770 -73.196151.6  RSN  7 0.4 1.6LRSN                1
 GAP=196        0.96       3.4     5.5  6.7  0.5617E+01 -0.9435E+00 -0.1192E+01E
 Epicentro: VILLANUEVA - SANTANDER                                             3
 ACTION:UPD 14-03-13 09:51 OP:ep   STATUS:               ID:20140105204820 L   I
 OLDACT:REG 14-01-06 05:38 OP:nd   STATUS:               ID:20140105204000     3
 2014-01-05-2040-00M.COL___285                                                 6
 STAT SP IPHASW D HRMM SECON CODA AMPLIT PERI AZIMU VELO AIN AR TRES W  DIS CAZ7
 BRR  HZ IP     D 2048 42.27                             155    0.0910 68.1 303 
 BRR  HN ES       2048 59.36                             155    0.3210 68.1 303 
 BRR  HZ I        2049  0.31        12.1 0.50            153           68.1 303 
 RUS  HZ EP       2048 44.12                             146   -0.5810 97.8 173 
 RUS  HN ES       2049  3.50                             146   -0.0210 97.8 173 
 RUS  HZ I        2049  5.96         2.6 0.16            134           97.8 173 
 PTB  HZ EP       2048 47.17                             135   -0.30 9  142 260 
 PTB  HN ES       2049  8.09                             135   -0.37 9  142 260 
 PTB  HZ I        2049 14.10         8.1 0.34            127            142 260 
 ZAR  HZ EP       2048 52.72                             124   -0.28 9  200 294 
 ZAR  HN ES       2049 18.73                             124    0.43 9  200 294 
 ZAR  HZ I        2049 20.22         3.9 0.38            117            200 294 
 NOR  HZ EP     C 2048 56.36                             120    0.41 8  228 234 
 NOR  HN ES       2049 23.17                             120   -0.38 8  228 234 
 NOR  HZ I        2049 26.19         3.2 0.11            112            228 234 
 SML  HZ EP       2048 58.21                             119    0.61 8  244 337 
 SML  HN ES       2049 26.10                             119   -0.40 8  244 337 
 SML  HZ I        2049 32.44         7.2 0.22            111            244 337 
 CHI  HZ EP       2048 58.15                             119    0.06 8  244 194 
 CHI  HN ES       2049 28.12                             119    0.76 8  244 194 
 CHI  HZ I        2049 35.98         1.3 0.38            110            244 194 
                                                                                
