 2016 11 5 2250  5.8 L   6.804 -73.128147.1  RSN  4 0.2 1.7LRSN                1
 GAP=196        0.54       4.4     3.1  5.8 -0.6494E+01  0.3788E+01  0.7183E+01E
 Epicentro: LOS SANTOS - SANTANDER                                             3
 ACTION:UPD 17-10-26 21:05 OP:lp   STATUS:               ID:20161105225005 L   I
 OLDACT:REG 16-11-06 02:40 OP:edw  STATUS:               ID:20161105224745     3
 2016-11-05-2248-00M.COL___346                                                 6
 STAT SP IPHASW D HRMM SECON CODA AMPLIT PERI AZIMU VELO AIN AR TRES W  DIS CAZ7
 PAM  EZ EP       2250 28.35                             151    0.3210 75.9  39 
 PAM  EN ES       2250 45.24                             151   -0.1610 75.9  39 
 PAM  EZ I        2250 46.10         6.1 0.22            154           75.9  39 
 PTB  HZ EP       2250 32.91                             132   -0.10 9  150 259 
 PTB  HN ES       2250 54.15                             132   -0.12 9  150 259 
 PTB  HZ I        2250 56.48         4.2 0.56            132            150 259 
 ZAR  HZ EP       2250 38.28                             122   -0.18 8  206 292 
 ZAR  HN ES       2251  4.15                             122    0.18 8  206 292 
 ZAR  HZ I        2251  9.15         6.3 0.44            123            206 292 
 NOR  HZ EP       2250 41.54                             118   -0.22 8  236 235 
 NOR  HN ES       2251 10.11                             118    0.27 8  236 235 
 NOR  HZ I        2251 13.26         3.5 0.20            120            236 235 
                                                                                
