 2013  9 5 2125 37.9 L   6.771 -73.130148.9  RSN  6 0.4 1.6LRSN                1
 GAP=140        0.91       4.6     4.8  6.6 -0.2263E+01  0.3769E+01  0.2334E+01E
 Epicentro: LOS SANTOS - SANTANDER                                             3
 ACTION:UPD 13-10-22 09:20 OP:ep   STATUS:               ID:20130905212537 L   I
 OLDACT:REG 13-09-06 02:19 OP:nd   STATUS:               ID:20130905211959     3
 2013-09-05-2119-59M.COL___269                                                 6
 STAT SP IPHASW D HRMM SECON CODA AMPLIT PERI AZIMU VELO AIN AR TRES W  DIS CAZ7
 BAR2 SZ EP       2125 57.92                             172    0.0710 20.6 196 
 BAR2 SZ ES       2126 13.36                             172   -0.0510 20.6 196 
 BAR2 SZ I        2126 14.26         9.0 0.36            168           20.6 196 
 BRR  HZ EP       2125 59.93                             152    0.3810 74.3 300 
 BRR  HE ES       2126 17.03                             152    0.5910 74.3 300 
 BRR  HZ I        2126 17.82        14.2 0.32            152           74.3 300 
 PAM  SZ EP       2126  0.59                             151    0.0710 78.8  37 
 PAM  SN ES       2126 17.78                             151   -0.4010 78.8  37 
 PAM  SZ I        2126 20.16         9.6 0.54            156           78.8  37 
 RUS  HZ EP       2126  1.89                             145    0.1710 97.3 177 
 RUS  HN ES       2126 20.22                             145   -0.0810 97.3 177 
 RUS  HZ I        2126 24.01         3.2 0.50            144           97.3 177 
 PTB  HZ EP       2126  4.69                             132   -0.52 9  149 260 
 PTB  HN ES       2126 26.04                             132   -0.48 9  149 260 
 PTB  HZ I        2126 33.21         8.8 0.28            132            149 260 
 CHI  HZ EP   4   2126 16.08                             118    0.60 0  246 196 
 CHI  HN ES   2   2126 45.56                             118    0.76 4  246 196 
 CHI  HZ I        2126 49.78         1.5 0.40            118            246 196 
                                                                                
