 2014 11 5 2158 17.7 L   6.767 -73.126144.0  RSN  9 0.4 1.8LRSN                1
 GAP=141        0.73       3.8     4.0  5.1 -0.6187E+01  0.3976E+01  0.5110E+01E
 Epicentro: LOS SANTOS - SANTANDER                                             3
 ACTION:UPD 14-12-19 15:39 OP:nd   STATUS:               ID:20141105215817 L   I
 OLDACT:DUP 14-11-06 09:03 OP:spq  STATUS:               ID:20141105214749d    3
 2014-11-05-2147-48M.COL___283                                                 6
 STAT SP IPHASW D HRMM SECON CODA AMPLIT PERI AZIMU VELO AIN AR TRES W  DIS CAZ7
 BAR2 SZ EP       2158 36.78                             172   -0.2410 20.3 198 
 BAR2 SZ ES   1   2158 52.02                             172   -0.10 7 20.3 198 
 BAR2 SZ I        2158 53.30        17.0 0.20            169           20.3 198 
 BRR  HZ EP       2158 38.87                             151    0.0310 74.9 300 
 BRR  HE ES       2158 55.87                             151    0.5210 74.9 300 
 BRR  HZ I        2158 59.42        14.9 0.32            150           74.9 300 
 PAM  SZ EP     C 2158 39.82                             150    0.0410 78.9  37 
 PAM  SN ES       2158 56.90                             150   -0.1410 78.9  37 
 PAM  SZ I        2158 58.94         9.5 0.52            154           78.9  37 
 RUS  HZ EP       2158 40.98                             145    0.0110 96.8 177 
 RUS  HN ES   1   2158 59.69                             145    0.54 7 96.8 177 
 RUS  HZ I        2159  0.73         6.6 0.32            145           96.8 177 
 PTB  HZ EP       2158 44.17                             131   -0.45 9  149 260 
 PTB  HN ES   2   2159  5.21                             131   -0.44 5  149 260 
 PTB  HZ I        2159  6.40         4.6 0.29            131            149 260 
 SPBC HZ EP   1   2158 45.80                             129   -0.09 7  162 220 
 SPBC HE ES   1   2159  7.42                             129   -0.49 7  162 220 
 SPBC HZ I        2159 10.55         9.3 0.18            129            162 220 
 NOR  HZ EP   1   2158 53.08                             118   -0.18 6  234 235 
 NOR  HN ES       2159 20.87                             118   -0.15 8  234 235 
 NOR  HZ I        2159 26.20         4.6 0.44            119            234 235 
 GUY2CHZ EP   1   2159  1.73                             112    0.57 5  301 236 
 GUY2CHN ES   4   2159 36.52                             112    1.44 0  301 236 
 GUY2CHZ I        2159 43.17         2.7 0.28                           301 236 
 TOL  SZ EP   1   2159  6.46                             109    0.73 5  342 225 
 TOL  SN ES   1   2159 43.70                             109    0.48 5  342 225 
 TOL  SZ I        2159 53.50         5.4 0.34            110            342 225 
                                                                                
