 2015  3 5 2145  1.7 L   6.748 -73.109143.8  RSN 13 0.4 2.3LRSN                1
 GAP=144        0.92       4.0     4.0  5.2 -0.5237E+01  0.5734E+01  0.4423E+01E
 Epicentro: LOS SANTOS - SANTANDER                                             3
 ACTION:UPD 15-04-30 16:23 OP:nd   STATUS:               ID:20150305214501 L   I
 OLDACT:UP  15-03-06 06:52 OP:mh   STATUS:               ID:20150305213749     3
 OLDACT:UP  15-03-06 06:52 OP:mh   STATUS:               ID:20150305213749     3
 OLDACT:REG 15-03-06 02:48 OP:mh   STATUS:               ID:20150305213749     3
 2015-03-05-2137-49M.COL___287                                                 6
 STAT SP IPHASW D HRMM SECON CODA AMPLIT PERI AZIMU VELO AIN AR TRES W  DIS CAZ7
 BAR2 EZ EP       2145 21.17                             172    0.1110 19.1 205 
 BAR2 EZ ES       2145 36.75                             172    0.6310 19.1 205 
 BAR2 EZ I        2145 39.10        45.1 0.21            169           19.1 205 
 BRR  HZ EP       2145 22.95                             150   -0.1010 77.5 301 
 BRR  HN ES       2145 39.47                             150   -0.2010 77.5 301 
 BRR  HZ I        2145 43.75        32.4 0.26            147           77.5 301 
 PAM  SZ EP       2145 23.96                             150    0.0810 79.5  35 
 PAM  SN ES       2145 41.12                             150   -0.0210 79.5  35 
 PAM  SZ I        2145 44.34        20.8 0.48            153           79.5  35 
 RUS  HZ EP   1   2145 25.16                             145    0.28 7 94.7 178 
 RUS  HN ES       2145 42.48                             145   -0.4510 94.7 178 
 RUS  HZ I        2145 44.78        15.1 0.30            147           94.7 178 
 PTB  HZ EP       2145 28.43                             131   -0.40 9  151 261 
 PTB  HN ES       2145 49.55                             131   -0.40 9  151 261 
 PTB  HZ I        2145 54.81        15.9 0.24            130            151 261 
 SPBC HZ EP       2145 30.21                             129    0.28 9  161 221 
 SPBC HN ES       2145 51.70                             129   -0.20 9  161 221 
 SPBC HZ I        2145 56.60        27.3 0.62            129            161 221 
 NOR  HZ EP       2145 37.24                             118   -0.13 8  235 236 
 NOR  HN ES       2146  4.96                             118   -0.19 8  235 236 
 NOR  HZ I        2146 12.48        10.7 0.14            118            235 236 
 ROSC BZ EP   4   2145 40.74                             116    1.28 0  250 212 
 ROSC BN ES   4   2146 10.77                             116    1.90 0  250 212 
 SML  HZ EP   4   2145 37.22                             116   -1.79 0  251 335 
 SML  HN ES   4   2146  5.26                             116   -2.82 0  251 335 
 SML  HZ I        2146 15.59        21.3 0.10            117            251 335 
 HEL  HZ EP   1   2145 42.28                             114    0.13 6  275 257 
 HEL  HN ES       2146 14.00                             114    0.34 8  275 257 
 HEL  HZ I        2146 19.43         7.5 0.36            114            275 257 
 GUY2CHZ EP   1   2145 46.07                             112    0.80 5  301 236 
 GUY2CHN ES   1   2146 20.83                             112    1.61 5  301 236 
 GUY2CHZ I        2146 27.44        10.3 0.62                           301 236 
 RREF HZ EP   4   2145 49.79                             110    2.05 0  321 231 
 RREF HN ES   4   2146 26.74                             110    3.13 0  321 231 
 RREF HZ I        2146 28.30        10.2 0.22            111            321 231 
 TOL  SZ EP       2145 49.67                             109   -0.12 7  342 226 
 TOL  SN ES   4   2146 28.27                             109    1.01 0  342 226 
 TOL  SZ I        2146 37.32         8.1 0.28            110            342 226 
 PRA  HZ EP       2145 54.03                             106   -0.83 6  389 211 
 PRA  HN ES       2146 36.38                             106    0.10 6  389 211 
 PRA  HZ I        2146 43.44        10.2 0.26            107            389 211 
                                                                                
