 2016  8 5 2309 42.8 L   6.156 -73.791100.2  RSN  8 0.4 1.6LRSN                1
 GAP= 99        1.04       3.8     3.0  8.1 -0.2308E+01  0.7063E+01 -0.3794E+01E
 Epicentro: LANDAZURI - SANTANDER                                              3
 ACTION:UPD 16-10-29 15:32 OP:rebc STATUS:               ID:20160805230942 L   I
 OLDACT:REG 16-08-06 03:24 OP:ak   STATUS:               ID:20160805230740     3
 2016-08-05-2308-00M.COL___365                                                 6
 STAT SP IPHASW D HRMM SECON CODA AMPLIT PERI AZIMU VELO AIN AR TRES W  DIS CAZ7
 SPBC HZ EP       23 9 59.07                             145    0.2210 63.8 209 
 SPBC HN ES       2310 11.77                             145    0.4010 63.8 209 
 SPBC HZ I        2310 13.44        10.5 0.10                          63.8 209 
 BAR2 EZ EP       2310  0.78                             138    0.2510 82.9  54 
 BAR2 EZ ES       2310 14.64                             138    0.2910 82.9  54 
 BAR2 EZ I        2310 16.11        29.9 0.50                          82.9  54 
 RUS  HZ EP       2310  0.54                             138   -0.4010 83.6 110 
 RUS  HN ES       2310 15.07                             138   -0.0210 83.6 110 
 RUS  HZ I        2310 15.95         4.0 0.26                          83.6 110 
 PTB  HZ EP       23 9 59.66                             137   -0.7410 84.9 300 
 PTB  HN ES       2310 13.44                             137   -0.6810 84.9 300 
 PTB  HZ I        2310 14.25         8.0 0.28                          84.9 300 
 NOR  HZ EP       2310  5.36                             123    0.02 9  136 241 
 NOR  HN ES       2310 22.76                             123   -0.16 9  136 241 
 NOR  HZ I        2310 26.96         9.9 0.18                           136 241 
 PAM  EN ES   2   2310 31.45                             115   -0.53 4  178  43 
 ZAR  HZ EP   2   2310 11.52                             114    0.46 4  189 321 
 ZAR  HE ES       2310 33.91                             114    0.81 9  189 321 
 ZAR  HZ I        2310 36.25         6.9 0.54                           189 321 
 GUY2CHZ EP   2   2310 13.23                             112    0.06 4  202 239 
 GUY2CHN ES       2310 37.12                             112    0.26 9  202 239 
 GUY2CHZ I        2310 41.53         2.0 0.24                           202 239 
                                                                                
