 2011  9 5 2259 21.0 L   6.751 -73.142148.1  RSN 10 0.3 2.1LRSN                1
 GAP=139        0.60       2.8     4.5  4.3 -0.1486E+01  0.3716E+01  0.1167E+01E
 Epicentro: LOS SANTOS - SANTANDER                                             3
 ACTION:UPD 12-07-13 15:55 OP:ep   STATUS:               ID:20110905225921 L   I
 2011-09-05-2256-10S.COL___170                                                 6
 STAT SP IPHASW D HRMM SECON CODA AMPLIT PERI AZIMU VELO AIN AR TRES W  DIS CAZ7
 BAR2 SZ EP       2259 40.89                             173    0.0910 18.2 194 
 BAR2 SZ ES   1   2259 56.15                             173   -0.10 7 18.2 194 
 BAR2 SZ I        2259 58.72        29.8 0.29                          18.2 194 
 GIR2 SZ EP   1   2259 41.07                             165   -0.01 7 36.6 351 
 GIR2 SZ ES   1   2259 57.21                             165    0.45 7 36.6 351 
 BRR  HZ EP   1   2259 42.77                             152    0.22 7 74.3 302 
 BRR  HZ I        2259 42.99        29.4 0.13                          74.3 302 
 BRR  HE ES   1   2259 59.66                             152    0.28 7 74.3 302 
 PAM  SZ EP   1   2259 43.61                             150   -0.07 7 81.4  37 
 PAM  SN ES   1   23 0  1.00                             150   -0.39 7 81.4  37 
 RUS  HZ EP       2259 44.73                             146    0.1510 95.2 176 
 RUS  HN ES   1   23 0  2.60                             146   -0.39 7 95.2 176 
 RUS  HZ I        23 0  4.62        13.1 0.34                          95.2 176 
 OCA  SZ ES   1   23 0 12.48                             129   -0.11 7  166 353 
 OCA  SZ I        23 0 17.72        20.1 0.39                           166 353 
 ZAR  HZ EP   1   2259 53.58                             122   -0.25 6  207 293 
 ZAR  HZ I        23 0 25.89        12.8 0.20                           207 293 
 NOR  SN ES   1   23 0 23.74                             119   -0.56 6  232 236 
 CHI  HZ EP   1   2259 58.83                             118    0.57 6  244 196 
 CHI  HZ I        23 0  1.38         5.1 0.36                           244 196 
 COD  HZ EP   1   23 0  9.76                             109   -0.31 5  354 355 
                                                                                
