 2013  4 5 2120 18.9 L   6.826 -73.138151.1  RSN 16 0.6 3.5LRSN 3.8WRSN        1
 SPEC AVERAGE  MO 14.8 ST 87.2 OM  3.0 f0 5.14 R0.3796 AL 2.51 WI 47.9 MW  3.8 3
 SPEC SD       MO  0.3 ST 83.9 OM  0.4 f0 1.18 R0.1165 AL      WI      MW  0.2 3
 GAP=112        1.13       3.6     3.6  5.7  0.2344E+01  0.3219E+01 -0.3797E+00E
 Epicentro: LOS SANTOS - SANTANDER                                             3
 SPEC ZAR HH E MO 15.1 ST269.7 OM  3.0 f0 6.76 R0.2692 AL 2.16 WI 38.4 MW  4.0 3
 SPEC ZAR HH E T212116 K 0.050 GD  253 VS 5.20 DE 3.20 Q0750.0 QA 1.50 VS 5.20 3
 SPEC TAM HH N MO 14.9 ST 11.8 OM  2.9 f0 2.71 R0.6716 AL 2.12 WI 22.4 MW  3.9 3
 SPEC TAM HH N T2121 8 K 0.050 GD  216 VS 5.20 DE 3.20 Q0750.0 QA 1.50 VS 5.20 3
 SPEC OCA HH N MO 15.2 ST166.6 OM  3.2 f0 5.19 R0.3507 AL 2.51 WI 27.4 MW  4.1 3
 SPEC OCA HH N T2121 9 K 0.050 GD  218 VS 5.20 DE 3.20 Q0750.0 QA 1.50 VS 5.20 3
 SPEC PTB HH N MO 14.9 ST 67.8 OM  2.9 f0 4.89 R0.3722 AL 2.10 WI 39.4 MW  3.9 3
 SPEC PTB HH N T2121 6 K 0.050 GD  212 VS 5.20 DE 3.20 Q0750.0 QA 1.50 VS 5.20 3
 SPEC RUS HH N MO 14.4 ST 35.5 OM  2.5 f0 5.63 R0.3233 AL 2.57 WI 51.1 MW  3.6 3
 SPEC RUS HH N T2121 0 K 0.050 GD  182 VS 5.20 DE 3.20 Q0750.0 QA 1.50 VS 5.20 3
 SPEC COD HH N MO 14.2 ST 25.7 OM  2.0 f0 5.83 R0.3122 AL 2.02 WI 79.8 MW  3.4 3
 SPEC COD HH N T212142 K 0.050 GD  376 VS 5.20 DE 3.20 Q0750.0 QA 1.50 VS 5.20 3
 SPEC HEL HH N MO 14.6 ST 31.6 OM  2.4 f0 4.89 R0.3722 AL 3.03 WI 91.5 MW  3.7 3
 SPEC HEL HH N T212125 K 0.050 GD  312 VS 5.20 DE 3.20 Q0750.0 QA 1.50 VS 5.20 3
 SPEC CHI HH N MO 14.7 ST 24.6 OM  2.6 f0 3.94 R0.4619 AL 3.26 WI 25.0 MW  3.8 3
 SPEC CHI HH N T212126 K 0.050 GD  293 VS 5.20 DE 3.20 Q0750.0 QA 1.50 VS 5.20 3
 SPEC BRR HH N MO 14.9 ST151.8 OM  3.0 f0 6.42 R0.2835 AL 2.78 WI 56.5 MW  3.9 3
 SPEC BRR HH N T212057 K 0.050 GD  166 VS 5.20 DE 3.20 Q0750.0 QA 1.50 VS 5.20 3
 ACTION:UPD 13-05-22 14:36 OP:EP   STATUS:               ID:20130405212018 L   I
 2013-04-05-2120-00M.COL___245                                                 6
 STAT SP IPHASW D HRMM SECON CODA AMPLIT PERI AZIMU VELO AIN AR TRES W  DIS CAZ7
 BAR2 SZ IP       2120 39.22                             170    0.0110 26.3 191 
 BAR2 SZ ES       2120 54.64                             170   -0.4310 26.3 191 
 BAR2 SZ I        2120 56.85       914.7 0.30            170           26.3 191 
 BRR  HZ IP     C 2120 41.10                             154    0.5310 70.6 296 
 BRR  HN ES       2120 58.41                             154    0.9110 70.6 296 
 BRR  HZ I        2121  0.52       198.3 0.16            151           70.6 296 
 RUS  HZ IP     D 2120 43.05                             144   -0.3010  103 177 
 RUS  HN ES       2121  1.78                             144   -0.6710  103 177 
 RUS  HN I        2121  3.46       572.3 0.42            146            103 177 
 PTB  HZ EP   1   2120 45.69                             133   -0.72 7  149 258 
 PTB  HN ES       2121  7.39                             133   -0.50 9  149 258 
 TAM  HZ IP     C 2120 47.37                             132    0.40 9  155 106 
 TAM  HN ES       2121  9.08                             132    0.19 9  155 106 
 OCA  HZ EP   1   2120 47.36                             131    0.01 7  158 353 
 OCA  HN ES   1   2121 10.01                             131    0.44 7  158 353 
 ZAR  HZ EP   1   2120 51.84                             124    0.20 6  204 291 
 ZAR  HE ES   1   2121 17.53                             124    0.32 6  204 291 
 CHI  HZ EP       2120 56.85                             118   -0.34 8  252 195 
 CHI  HN ES   1   2121 26.76                             118   -0.33 6  252 195 
 CHI  HN I        2121 29.02       255.5 0.28            119            252 195 
 HEL  HZ EP   1   2121  0.42                             116    0.89 6  274 255 
 HEL  HN ES   1   2121 32.41                             116    1.16 6  274 255 
 HEL  HN I        2121 40.17       119.2 0.44            115            274 255 
 URE  HZ EP   1   2120 59.55                             115   -0.63 6  284 291 
 URE  HN ES   1   2121 31.32                             115   -1.08 6  284 291 
 URE  HN I        2121 44.06       234.2 0.22            114            284 291 
 VIL  SZ EP   1   2121  2.66                             113   -0.21 5  306 192 
 VIL  SN ES   1   2121 38.85                             113    1.66 5  306 192 
 DBB  SZ EP       2121  6.65                             110    0.01 7  340 274 
 DBB  SZ ES       2121 43.52                             110   -0.39 7  340 274 
 DBB  SZ I        2121 45.77        97.0 0.50            110            340 274 
 COD  HZ EP   1   2121  6.57                             110   -0.58 5  345 354 
 COD  HN ES   1   2121 44.27                             110   -0.53 5  345 354 
 COD  HN I        2121 50.12       128.5 0.52            110            345 354 
 PRA  HZ EP   1   2121 12.66                             107   -0.26 4  395 209 
 PRA  HN ES   1   2121 55.95                             107    0.87 4  395 209 
 YOT  HZ EP   1   2121 21.87                             104   -0.50 3  474 229 
 SMAR HZ EP       2121 24.41                             103   -0.17 4  494 346 
                                                                                
