 2014  8 5 2313 49.4 L   6.270 -73.674109.8  RSN  5 0.4 1.1LRSN                1
 GAP=117        1.01       5.0     3.8  9.1  0.3350E+01  0.1515E+02 -0.7930E+00E
 Epicentro: SANTA HELENA DEL OPON - SANTANDER                                  3
 ACTION:UPD 14-09-15 21:47 OP:nd   STATUS:               ID:20140805231349 L   I
 OLDACT:REG 14-08-06 02:41 OP:mh   STATUS:               ID:20140805230813     3
 2014-08-05-2308-13M.COL___254                                                 6
 STAT SP IPHASW D HRMM SECON CODA AMPLIT PERI AZIMU VELO AIN AR TRES W  DIS CAZ7
 BAR2 SZ EP   1   2314  6.82                             147    0.10 7 65.1  57 
 BAR2 SZ ES       2314 20.14                             147   -0.0910 65.1  57 
 RUS  HZ EP       2314  7.41                             142   -0.5510 77.6 122 
 RUS  HN ES       2314 22.89                             142    0.4510 77.6 122 
 RUS  HZ I        2314 24.91         2.7 0.22            143           77.6 122 
 PTB  HZ EP   1   2314  8.47                             137    0.07 7 91.5 289 
 PTB  HE ES       2314 22.72                             137   -0.4910 91.5 289 
 PTB  HZ I        2314 24.09         4.2 0.44            139           91.5 289 
 NOR  HZ EP   1   2314 13.67                             121   -0.70 7  154 240 
 NOR  HN ES       2314 34.30                             121    0.45 9  154 240 
 NOR  HZ I        2314 37.44                             122            154 240 
 ZAR  HZ EP       2314 18.52                             115    0.49 9  188 316 
 ZAR  HN ES       2314 40.56                             115    0.21 9  188 316 
                                                                                
