 2013  2 5 2013 56.4 L   6.871 -73.190135.4  RSN  4 0.4 1.6LRSN                1
 GAP=127        1.07       7.1     6.2 12.5 -0.1334E+02  0.2282E+02  0.9789E+01E
 Epicentro: ZAPATOCA - SANTANDER                                               3
 ACTION:UPD 13-03-12 09:30 OP:ep   STATUS:               ID:20130205201355 L   I
 2013-02-05-2008-50M.COL___185                                                 6
 STAT SP IPHASW D HRMM SECON CODA AMPLIT PERI AZIMU VELO AIN AR TRES W  DIS CAZ7
 BRR  HZ EP       2014 16.20                             153    0.2510 63.3 294 
 BRR  HE I        2014 36.92        11.5 0.22            142           63.3 294 
 PAM  SZ IP       2014 17.27                             150   -0.0710 75.0  46 
 PAM  SZ I        2014 17.39         9.1 0.18            147           75.0  46 
 PAM  SN ES       2014 33.66                             150   -0.0410 75.0  46 
 RUS  HZ EP       2014 20.34                             139    0.5910  109 174 
 RUS  HN ES   1   2014 37.46                             139   -0.53 7  109 174 
 RUS  HN I        2014 39.25         2.8 0.50            141            109 174 
 PTB  HZ EP       2014 21.45                             130   -0.77 9  145 255 
 PTB  HN ES       2014 42.69                             130    0.30 9  145 255 
 PTB  HN I        2014 47.51         7.4 0.44            124            145 255 
                                                                                
