 2015  2 5 2315 13.2 L   6.736 -73.087147.5  RSN  5 0.3 1.3LRSN                1
 GAP=147        0.74       4.5     5.0  8.1 -0.6608E+01 -0.6636E+01  0.9213E+01E
 Epicentro: JORDAN - SANTANDER                                                 3
 ACTION:UPD 15-04-30 21:22 OP:nd   STATUS:               ID:20150205231513 L   I
 OLDACT:REG 15-02-06 08:30 OP:spq  STATUS:               ID:20150205230745     3
 2015-02-05-2307-45M.COL___287                                                 6
 STAT SP IPHASW D HRMM SECON CODA AMPLIT PERI AZIMU VELO AIN AR TRES W  DIS CAZ7
 PAM  SZ EP       2315 35.69                             150   -0.0710 79.3  33 
 PAM  SE ES   1   2315 53.04                             150   -0.27 7 79.3  33 
 PAM  SZ I        2315 54.92         3.0 0.20            158           79.3  33 
 BRR  HZ EP   1   2315 34.87                             150   -0.25 7 80.4 301 
 BRR  HN ES       2315 52.64                             150    0.4610 80.4 301 
 BRR  HZ I        2315 56.20         4.3 0.54            151           80.4 301 
 RUS  HZ EP   1   2315 36.96                             146    0.31 7 93.2 180 
 RUS  HN ES   1   2315 54.76                             146   -0.15 7 93.2 180 
 RUS  HZ I        2315 58.23         1.3 0.34            147           93.2 180 
 PTB  HE ES   1   2316  1.64                             131   -0.70 7  153 262 
 PTB  HZ I        2316  6.80         3.0 0.25            133            153 262 
 SPBC HZ EP   1   2315 42.12                             130    0.35 7  162 222 
 SPBC HN ES   1   2316  3.98                             130   -0.04 7  162 222 
 SPBC HZ I        2316 11.39         3.6 0.22            131            162 222 
                                                                                
