 2012  8 5 2101 24.9 L   6.780 -73.157143.0  RSN  9 0.5 1.9LRSN                1
 GAP=136        0.87       4.1     4.3  6.5 -0.7805E+00  0.6234E+01  0.6517E+01E
 Epicentro: LOS SANTOS - SANTANDER                                             3
 ACTION:UPD 12-09-10 11:54 OP:ep   STATUS:               ID:20120805210124 L   I
 2012-08-05-2100-00M.COL___216                                                 6
 STAT SP IPHASW D HRMM SECON CODA AMPLIT PERI AZIMU VELO AIN AR TRES W  DIS CAZ7
 BAR2 SZ IP       21 1 44.22                             171    0.0710 20.9 188 
 BAR2 SZ ES   1   21 1 58.92                             171   -0.25 7 20.9 188 
 BAR2 SZ I        21 2  0.35        24.0 0.20                          20.9 188 
 BRR  HZ IP     D 21 1 46.06                             152    0.3110 71.2 301 
 BRR  HE ES   1   21 2  2.74                             152    0.72 7 71.2 301 
 BRR  HZ I        21 2  7.33        22.2 0.18                          71.2 301 
 PAM  SZ EP       21 1 47.18                             149    0.2010 79.9  39 
 PAM  SE ES   1   21 2  3.85                             149   -0.35 7 79.9  39 
 RUS  HZ EP       21 1 48.23                             144    0.0010 98.4 175 
 RUS  HZ I        21 1 49.06         9.9 0.12                          98.4 175 
 RUS  HN ES   1   21 2  6.33                             144   -0.09 7 98.4 175 
 PTB  HZ EP       21 1 51.12                             132   -0.37 9  146 260 
 PTB  HN ES   1   21 2 11.26                             132   -0.97 7  146 260 
 PTB  HZ I        21 2 14.39         7.4 0.16                           146 260 
 ZAR  HZ EP   2   21 1 56.26                             122   -0.88 4  204 293 
 ZAR  HN ES   1   21 2 22.56                             122    0.28 6  204 293 
 ZAR  HZ I        21 2 29.45        16.1 0.50                           204 293 
 NOR  SZ EP   1   21 1 59.58                             118   -0.64 6  232 235 
 NOR  SN ES   1   21 2 28.45                             118    0.68 6  232 235 
 CHI  HZ EP   1   21 2  2.05                             117   -0.13 6  246 195 
 CHI  HE ES   1   21 2 31.53                             117    0.28 6  246 195 
 CHI  HZ I        21 2 37.74         4.6 0.26                           246 195 
 PRA  HZ EP   1   21 2 18.75                             106    0.72 4  389 210 
 PRA  HN ES   2   21 3  0.03                             106    0.57 3  389 210 
                                                                                
