 2010  2 5 2350 12.4 L   6.798 -73.030148.4  RSN  9 0.5 2.1LRSN                1
 GAP=195        0.96       4.1     9.4 10.5 -0.1136E+02  0.4140E+02 -0.4812E+01E
 Epicentro: CEPITA - SANTANDER                                                 3
 ACTION:UP  10-08-24 09:47 OP:vdl  STATUS:               ID:20100205235012 L   I
 2010-02-05-2348-45S.COL___094                                                 6
 STAT SP IPHASW D HRMM SECON CODA AMPLIT PERI AZIMU VELO SNR AR TRES W  DIS CAZ7
 BAR2 SZ EP   1   2350 32.47                             168     0.0 8   28 217 
 GIR2 SZ EP   1   2350 32.59                             165     0.1 8   36 330 
 RUS  BZ EP       2350 36.27                             145    -0.110  100 183 
 RUS  BN ES       2350 55.01                             145    -0.110  100 183 
 RUS  BZ I        2350 56.05        17.1 0.58                           100 183 
 OCA  SZ EP       2350 41.40                             130     0.3 9  163 349 
 OCA  SZ ES   1   2351  3.37                             130    -0.2 7  163 349 
 CHI  HZ EP       2350 50.34                             117    -0.3 8  252 198 
 CHI  HN ES   1   2351 20.73                             117     0.3 6  252 198 
 CHI  HZ I        2351 23.73         6.2 0.90                           252 198 
 HEL  HN ES   2   2351 25.55                             114    -1.1 4  284 256 
 HEL  HZ I        2351 31.91         6.9 1.00                           284 256 
 RREF BE ES       2351 37.61                             111     0.9 7  331 231 
 RREF BZ I        2351 41.79         7.6 0.13                           331 231 
 TOL  SZ EP   2   2351  3.15                             109     1.4 3  352 226 
 PRA  HZ EP   1   2351  5.73                             107    -1.0 4  398 211 
 PRA  HN ES   1   2351 48.27                             107    -0.9 4  398 211 
                                                                                
