 2011  2 5 2003 22.1 L   6.792 -73.081148.7  RSN 19 0.4 3.0LRSN                1
 GAP=106        0.95       3.0     5.1  4.7 -0.3114E+01  0.5333E+01  0.3556E+01E
 Epicentro: LOS SANTOS - SANTANDER                                             3
 ACTION:UP  11-03-28 15:06 OP:jfem STATUS:               ID:20110205200322 L   I
 2011-02-05-2000-47S.COL___138                                                 6
 STAT SP IPHASW D HRMM SECON CODA AMPLIT PERI AZIMU VELO SNR AR TRES W  DIS CAZ7
 BAR2 SZ IP       20 3 42.07                             170    -0.110   25 207 
 BTL  SZ ES   1   20 3 58.09                             170     0.3 7   25 304 
 BAR2 SZ ES   1   20 3 57.32                             170    -0.4 7   25 207 
 BAR2 SZ I        20 3 58.82       339.5 0.43                            25 207 
 GIR2 SZ EP       20 3 42.08                             166    -0.110   34 339 
 GIR2 SZ ES   1   20 3 57.97                             166     0.1 7   34 339 
 URB  SZ EP       20 3 43.55                             158     0.610   57 330 
 URB  SZ ES   2   20 4  0.13                             158     0.9 5   57 330 
 RUS  HZ EP       20 3 45.85                             145    -0.210   99 180 
 RUS  HN ES   1   20 4  4.09                             145    -0.7 7   99 180 
 RUS  HZ I        20 4  5.95       168.4 0.54                            99 180 
 GRA  SZ IP       20 3 47.78                             138     0.310  125  14 
 GRA  SZ ES   1   20 4  6.97                             138    -0.4 7  125  14 
 GRA  SZ I        20 4  8.85       139.2 0.36                           125  14 
 OCA  SZ IP       20 3 50.50                             130    -0.3 9  162 351 
 OCA  SZ ES   1   20 4 13.32                             130     0.1 7  162 351 
 OCA  SZ I        20 4 18.95       126.3 0.04                           162 351 
 YOP  SZ EP       20 3 52.46                             128     0.5 9  175 155 
 YOP  SN ES   2   20 4 14.85                             128    -0.5 4  175 155 
 YOP  SZ I        20 4 17.61        41.2 0.54                           175 155 
 NOR  SZ EP       20 3 58.06                             118    -0.5 8  240 236 
 CHI  HZ IP     D 20 3 59.99                             118    -0.1 8  250 197 
 CHI  HZ I        20 4  2.71        45.0 0.52                           250 197 
 CHI  HN ES   1   20 4 30.26                             118     0.5 6  250 197 
 ROSC BZ EP       20 4  1.54                             117     0.8 8  256 213 
 ROSC BZ I        20 4 39.69        92.0 0.42                           256 213 
 HEL  HZ EP       20 4  3.22                             115     0.0 7  279 256 
 HEL  HN ES   2   20 4 34.53                             115    -0.7 4  279 256 
 HEL  HZ I        20 4 40.60        58.2 0.31                           279 256 
 VIL  SZ EP       20 4  5.52                             113     0.0 7  302 191 
 VIL  SN ES   2   20 4 38.91                             113    -0.5 4  302 191 
 VIL  SZ I        20 4 50.46        30.8 0.55                           302 191 
 GUY  SZ EP       20 4  6.80                             112     0.3 7  307 236 
 GUY  SN ES   2   20 4 40.92                             112    -0.2 4  307 236 
 GUY  SZ I        20 4 48.69        79.4 0.55                           307 236 
 RREF HZ EP       20 4  9.03                             111     0.1 7  327 230 
 RREF HN ES   2   20 4 46.01                             111     0.6 3  327 230 
 RREF HZ I        20 4 53.60        62.7 0.17                           327 230 
 DBB  SZ EP       20 4  9.74                             109    -0.8 6  347 274 
 TOL  SZ EP       20 4 11.13                             109     0.1 6  348 226 
 SDV  BZ EP       20 4 11.42                             109    -0.3 6  356  49 
 SJA  SZ EP       20 4 16.57                             107    -0.3 6  401 194 
                                                                                
