 2014  8 5 2332 51.5 L   6.746 -73.174155.3  RSN  5 0.2 1.5LRSN                1
 GAP=197        0.45       2.4     3.2  5.1  0.3148E+01 -0.1717E+01 -0.5571E+01E
 Epicentro: LOS SANTOS - SANTANDER                                             3
 ACTION:UPD 14-09-15 21:47 OP:nd   STATUS:               ID:20140805233251 L   I
 OLDACT:REG 14-08-06 02:42 OP:mh   STATUS:               ID:20140805232815     3
 2014-08-05-2328-15M.COL___254                                                 6
 STAT SP IPHASW D HRMM SECON CODA AMPLIT PERI AZIMU VELO AIN AR TRES W  DIS CAZ7
 RUS  HZ EP       2333 16.00                             147    0.2110 94.9 174 
 RUS  HN ES       2333 34.69                             147   -0.0610 94.9 174 
 RUS  HZ I        2333 37.12         1.8 0.15            150           94.9 174 
 PTB  HZ EP       2333 18.95                             135    0.08 9  144 261 
 PTB  HN ES       2333 40.10                             135   -0.14 9  144 261 
 PTB  HZ I        2333 46.93         4.8 0.32            135            144 261 
 SPBC HZ EP       2333 19.90                             132   -0.22 9  157 219 
 SPBC HN ES       2333 42.53                             132    0.08 9  157 219 
 SPBC HZ I        2333 50.92         5.6 0.20            134            157 219 
 ZAR  HZ EP       2333 24.45                             124   -0.06 9  204 294 
 ZAR  HN ES   1   2333 50.64                             124    0.37 6  204 294 
 SML  HN ES       2333 58.31                             119   -0.14 8  248 337 
 SML  HZ I        2334  0.84         4.3 0.27            123            248 337 
                                                                                
