 2015 10 5 2028 15.0 L   6.776 -73.105144.0  RSN 13 0.4 2.3LRSN                1
 GAP=143        0.87       2.7     3.7  5.5 -0.1412E+01  0.5903E+01  0.2129E+01E
 Epicentro: LOS SANTOS - SANTANDER                                             3
 ACTION:UPD 15-12-22 20:37 OP:cam  STATUS:               ID:20151005202815 L   I
 OLDACT:REG 15-10-06 03:48 OP:ar   STATUS:               ID:20151005202750     3
 2015-10-05-2027-50M.COL___304                                                 6
 STAT SP IPHASW D HRMM SECON CODA AMPLIT PERI AZIMU VELO AIN AR TRES W  DIS CAZ7
 BAR2 EZ EP       2028 34.19                             171   -0.1810 22.0 203 
 BAR2 EZ ES   2   2028 49.62                             171    0.13 5 22.0 203 
 BAR2 EZ I        2028 51.28        30.1 0.22            169           22.0 203 
 BRR  HZ EP       2028 36.15                             150   -0.0910 76.4 299 
 BRR  HN ES       2028 53.24                             150    0.4210 76.4 299 
 BRR  HZ I        2028 56.19        42.5 0.22            148           76.4 299 
 PAM  EZ EP     D 2028 37.07                             151    0.1010 76.8  36 
 PAM  EN ES       2028 53.97                             151   -0.1510 76.8  36 
 PAM  EZ I        2028 56.45        48.5 0.64            154           76.8  36 
 RUS  HZ EP       2028 38.39                             144    0.0510 97.7 179 
 RUS  HE ES   2   2028 56.79                             144    0.22 5 97.7 179 
 RUS  HZ I        2028 57.66        19.5 0.32            147           97.7 179 
 SPBC HZ EP       2028 43.21                             128   -0.21 9  164 221 
 SPBC HN ES       2029  5.39                             128   -0.21 9  164 221 
 SPBC HZ I        2029  7.60        26.0 0.14            129            164 221 
 ZAR  HZ EP       2028 48.54                             121    0.70 8  209 292 
 ZAR  HN ES       2029 13.34                             121   -0.14 8  209 292 
 ZAR  HZ I        2029 19.03        40.8 0.30            122            209 292 
 NOR  HN ES       2029 17.89                             118   -0.91 8  237 236 
 NOR  HZ I        2029 20.45        16.7 0.46            119            237 236 
 CHI  HZ EP       2028 52.38                             117   -0.05 8  247 196 
 CHI  HE ES       2029 21.96                             117    0.33 8  247 196 
 CHI  HZ I        2029 27.33         7.6 0.30            119            247 196 
 SML  HZ EP       2028 51.06                             117   -0.92 8  248 335 
 SML  HE ES       2029 20.89                             117    0.05 8  248 335 
 SML  HZ I        2029 23.00        19.4 0.10            118            248 335 
 HEL  HZ EP       2028 56.29                             114    0.78 7  276 257 
 HEL  HN ES   2   2029 26.71                             114   -0.42 4  276 257 
 HEL  HZ I        2029 32.58        14.7 0.42            115            276 257 
 URE  HZ EP   4   2028 55.06                             113   -1.48 0  289 292 
 URE  HN ES   4   2029 26.79                             113   -2.17 0  289 292 
 URE  HZ I        2029 38.61        20.8 0.26            114            289 292 
 GUY2CHZ EP   2   2028 59.43                             112    0.69 4  303 236 
 GUY2CHN ES       2029 33.06                             112    0.18 7  303 236 
 GUY2CHZ I        2029 37.88         7.9 0.60                           303 236 
 CBOC HZ EP       2029  2.47                             109    0.25 7  337 253 
 CBOC HE ES   2   2029 38.93                             109   -0.13 3  337 253 
 CBOC HZ I        2029 41.12         2.9 0.20            110            337 253 
                                                                                
