 2014  2 5 2001 16.2 L   6.797 -73.178141.5  RSN  7 0.3 1.6LRSN                1
 GAP=133        0.83       3.8     3.4  5.6 -0.6888E+00  0.5422E+01  0.2790E+01E
 Epicentro: LOS SANTOS - SANTANDER                                             3
 ACTION:UPD 14-03-10 08:07 OP:ep   STATUS:               ID:20140205200116 L   I
 OLDACT:DUP 14-02-05 23:37 OP:stll STATUS:               ID:20140205195819d    3
 2014-02-05-1958-18M.COL___242                                                 6
 STAT SP IPHASW D HRMM SECON CODA AMPLIT PERI AZIMU VELO AIN AR TRES W  DIS CAZ7
 BAR2 SZ EP       20 1 35.06                             170   -0.2410 22.6 181 
 BAR2 SZ ES       20 1 50.46                             170    0.2710 22.6 181 
 BAR2 SZ I        20 1 51.07        18.6 0.22            169           22.6 181 
 BRR  HZ EP       20 1 37.09                             153    0.3710 68.3 300 
 BRR  HN ES       20 1 53.00                             153    0.2710 68.3 300 
 PAM  SZ EP       20 1 38.12                             149    0.0010 80.0  41 
 PAM  SZ I        20 1 38.22         9.8 0.24            151           80.0  41 
 PAM  SN ES       20 1 54.91                             149   -0.3110 80.0  41 
 RUS  HZ EP       20 1 39.57                             143    0.0410  101 174 
 RUS  HN ES       20 1 57.68                             143   -0.0410  101 174 
 RUS  HZ I        20 1 58.52         3.6 0.34            143            101 174 
 PTB  HZ EP       20 1 41.96                             132   -0.54 9  144 259 
 PTB  HE ES       20 2  2.72                             132   -0.29 9  144 259 
 PTB  HZ I        20 2  5.04         5.5 0.20            132            144 259 
 ZAR  HN ES       20 2 12.89                             122    0.01 9  201 293 
 NOR  HZ EP       20 1 52.13                             118    0.78 8  232 234 
 NOR  HN ES       20 2 18.51                             118   -0.26 8  232 234 
 NOR  HZ I        20 2 21.32         2.3 0.14            118            232 234 
                                                                                
