 2017 11 5 2243 43.4 L   6.817 -73.135144.0  RSN 10 0.6 1.5LRSN                1
 GAP=137        1.35       4.8     5.5  7.7 -0.3688E+01  0.1246E+02  0.1128E-01E
 Epicentro: LOS SANTOS - SANTANDER                                             3
 ACTION:UPD 17-12-12 19:52 OP:rebc STATUS:               ID:20171105224343 L   I
 OLDACT:REG 17-11-06 03:28 OP:osc  STATUS:               ID:20171105223741     3
 2017-11-05-2238-00M.COL___435                                                 6
 STAT SP IPHASW D HRMM SECON CODA AMPLIT PERI AZIMU VELO AIN AR TRES W  DIS CAZ7
 BAR2 EZ EP       2244  3.48                             170    0.6010 25.4 192 
 BAR2 EZ ES       2244 17.69                             170   -0.3710 25.4 192 
 BAR2 EZ I        2244 18.78        11.7 0.20            170           25.4 192 
 BRR  HZ EP       2244  4.32                             152   -0.0710 71.4 297 
 BRR  HE ES       2244 21.45                             152    0.7110 71.4 297 
 BRR  HZ I        2244 24.44         8.4 0.34            150           71.4 297 
 PAM  EZ EP       2244  5.39                             151    0.0710 75.2  40 
 PAM  EN ES       2244 22.22                             151   -0.1710 75.2  40 
 PAM  EZ I        2244 24.65         6.6 0.50            153           75.2  40 
 RUS  HZ EP       2244  6.59                             143   -0.5410  102 177 
 RUS  HN ES       2244 25.31                             143   -0.3210  102 177 
 RUS  HZ I        2244 25.95         1.7 0.22            145            102 177 
 PTB  HZ EP   9   2244  9.19                             131   -1.19 0  149 258 
 PTB  HN ES       2244 30.12                                   -0.10 9  149 258 
 PTB  HZ I        2244 32.09         2.9 0.32            131            149 258 
 SPBC HZ EP       2244 11.43                             128   -0.57 9  165 219 
 SPBC HE ES       2244 34.76                             128    0.48 9  165 219 
 SPBC HZ I        2244 38.00         3.3 0.12            129            165 219 
 ZAR  HZ EP       2244 16.47                             122    0.68 9  204 292 
 ZAR  HE ES       2244 40.84                             122   -0.20 9  204 292 
 ZAR  HZ I        2244 47.23         3.9 0.40            122            204 292 
 NOR  HZ EP       2244 20.53                             118    1.26 8  237 234 
 NOR  HE ES       2244 46.84                             118   -0.39 8  237 234 
 NOR  HZ I        2244 50.45         2.1 0.38            119            237 234 
 GUY2CHN ES       2245  0.70                             112   -0.61 7  303 235 
 SJC  HN ES       2245 20.57                             105   -1.45 6  408 327 
                                                                                
