 2015  4 5 2258  4.2 L   6.810 -73.152146.6  RSN  7 0.5 1.3LRSN                1
 GAP=135        1.30       4.7     6.3  8.1 -0.3668E+01  0.1051E+02 -0.4851E+01E
 Epicentro: LOS SANTOS - SANTANDER                                             3
 ACTION:UPD 15-06-03 16:52 OP:cam  STATUS:               ID:20150405225804 L   I
 OLDACT:DUP 15-04-06 06:53 OP:stll STATUS:               ID:20150405224750d    3
 2015-04-05-2247-49M.COL___273                                                 6
 STAT SP IPHASW D HRMM SECON CODA AMPLIT PERI AZIMU VELO AIN AR TRES W  DIS CAZ7
 BAR2 EZ EP       2258 24.13                             170    0.1510 24.3 188 
 BAR2 EZ I        2258 24.32         5.6 0.42            169           24.3 188 
 BAR2 EZ ES       2258 39.32                             170   -0.0610 24.3 188 
 BRR  HZ EP       2258 26.09                             153    0.6910 70.0 298 
 BRR  HZ I        2258 26.31         5.9 0.28            152           70.0 298 
 BRR  HN ES       2258 42.72                             153    0.8010 70.0 298 
 PAM  SZ EP       2258 26.65                             151    0.1410 77.0  40 
 PAM  SN ES       2258 43.86                             151   -0.0210 77.0  40 
 PAM  SZ I        2258 46.00         3.7 0.56            155           77.0  40 
 RUS  HZ EP       2258 28.02                             144   -0.1310  102 176 
 RUS  HE ES       2258 45.89                             144   -0.9110  102 176 
 RUS  HZ I        2258 48.71         1.3 0.20            145            102 176 
 PTB  HZ EP       2258 31.03                             132   -0.19 9  147 258 
 PTB  HN ES       2258 51.48                             132   -0.80 9  147 258 
 PTB  HZ I        2258 58.31         2.1 0.38            132            147 258 
 SPBC HZ EP       2258 33.22                             129    0.39 9  164 219 
 SPBC HE ES       2258 55.63                             129    0.49 9  164 219 
 SPBC HZ I        2258 58.53         5.4 0.68            130            164 219 
 SML  HZ EP       2258 40.62                             118   -0.14 8  242 335 
 SML  HE ES       2259  8.56                             118   -0.69 8  242 335 
                                                                                
