 2013  7 5 2213 19.6 L   6.786 -73.121148.2  RSN 10 0.4 2.1LRSN                1
 GAP=140        1.03       3.6     4.5  5.7  0.2651E+00  0.5952E+01  0.1517E+01E
 Epicentro: LOS SANTOS - SANTANDER                                             3
 ACTION:UPD 13-08-12 10:35 OP:ep   STATUS:               ID:20130705221319 L   I
 OLDACT:REG 13-07-06 00:17 OP:carl STATUS:               ID:20130705220959     3
 2013-07-05-2209-59M.COL___267                                                 6
 STAT SP IPHASW D HRMM SECON CODA AMPLIT PERI AZIMU VELO AIN AR TRES W  DIS CAZ7
 BAR2 SZ EP       2213 39.39                             171   -0.1210 22.4 197 
 BAR2 SZ ES       2213 53.91                             171   -1.1210 22.4 197 
 GIR2 SZ EP       2213 39.84                             167    0.2210 33.4 346 
 GIR2 SZ ES       2213 55.38                             167    0.1510 33.4 346 
 BRR  HZ EP       2213 41.43                             152    0.2410 74.3 299 
 BRR  HN ES       2213 58.83                             152    0.8010 74.3 299 
 BRR  HZ I        2214  4.05        13.0 0.14            150           74.3 299 
 PAM  SZ EP   1   2213 42.48                             151    0.43 7 76.9  37 
 PAM  SN ES   1   2213 59.74                             151    0.18 7 76.9  37 
 PAM  SZ I        2214  3.54         6.7 0.18            155           76.9  37 
 RUS  HZ EP       2213 43.32                             145   -0.1510 98.9 178 
 RUS  HN ES   1   2214  2.40                             145    0.31 7 98.9 178 
 RUS  HZ I        2214  3.79        10.3 0.38            148           98.9 178 
 PTB  HE ES       2214  8.15                             132   -0.18 9  150 260 
 PTB  HZ I        2214 14.85        18.3 0.46            132            150 260 
 ZAR  HZ EP   1   2213 52.23                             122   -0.30 6  207 292 
 ZAR  HE ES       2214 18.13                             122   -0.07 8  207 292 
 ZAR  HZ I        2214 24.49        11.8 0.30            123            207 292 
 NOR  HZ EP       2213 55.28                             119   -0.33 8  236 235 
 NOR  HE ES       2214 23.90                             119    0.20 8  236 235 
 NOR  HE I        2214 28.77        19.0 0.24            120            236 235 
 SML  HZ EP       2213 56.41                             118   -0.23 8  246 335 
 SML  HN ES       2214 25.13                             118   -0.40 8  246 335 
 SML  HN I        2214 31.24        33.1 0.10            119            246 335 
 CHI  HZ EP   1   2213 57.74                             118    0.39 6  248 196 
 CHI  HN ES   1   2214 27.22                             118    0.43 6  248 196 
 CHI  HN I        2214 29.35        11.2 0.30            120            248 196 
                                                                                
