 2015  5 5 2049 56.8 L   6.787 -73.077145.6  RSN  6 0.4 1.6LRSN                1
 GAP=146        0.97       3.4     5.6  7.1 -0.1576E+01  0.1092E+02  0.3895E+01E
 Epicentro: LOS SANTOS - SANTANDER                                             3
 ACTION:UPD 15-09-10 22:01 OP:cam  STATUS:               ID:20150505204956 L   I
 OLDACT:REG 15-05-06 03:08 OP:ak   STATUS:               ID:20150505204750     3
 2015-05-05-2047-50M.COL___282                                                 6
 STAT SP IPHASW D HRMM SECON CODA AMPLIT PERI AZIMU VELO AIN AR TRES W  DIS CAZ7
 PAM  SZ IP     D 2050 19.22                             152    0.4210 73.9  34 
 PAM  SN ES       2050 35.78                             152   -0.1810 73.9  34 
 PAM  SZ I        2050 38.72         6.2 0.20            154           73.9  34 
 BRR  HZ EP   1   2050 18.36                             150   -0.01 7 78.6 297 
 BRR  HN ES       2050 35.67                             150    0.4810 78.6 297 
 RUS  HZ EP       2050 20.53                             144    0.1010 98.9 180 
 RUS  HN ES       2050 38.42                             144   -0.4310 98.9 180 
 RUS  HZ I        2050 40.41         3.2 0.30            145           98.9 180 
 NOR  HZ EP       2050 33.86                             118    0.75 8  240 236 
 NOR  HN ES       2051  0.89                             118   -0.54 8  240 236 
 NOR  HZ I        2051  4.72         4.0 0.22            118            240 236 
 SML  HZ EP   1   2050 33.07                             117   -0.85 6  248 334 
 SML  HN ES       2051  2.47                             117   -0.39 8  248 334 
 SML  HZ I        2051  5.33         8.5 0.11            118            248 334 
 CHI  HZ EP       2050 34.49                             117   -0.09 8  249 197 
 CHI  HN ES   1   2051  4.25                             117    0.21 6  249 197 
 CHI  HZ I        2051  7.86         1.6 0.42            118            249 197 
                                                                                
