 2012  2 5 2041 43.9 L   6.322 -73.689 26.7  RSN  5 0.2 1.4LRSN                1
 GAP=233        0.37       8.2     6.3  4.8  0.3963E+02 -0.7691E+01 -0.1427E+02E
 ACTION:UP  12-03-07 16:28 OP:epov STATUS:               ID:20120205204143 L   I
 2012-02-05-2040-00M.COL___188                                                 6
 STAT SP IPHASW D HRMM SECON CODA AMPLIT PERI AZIMU VELO SNR AR TRES W  DIS CAZ7
 BAR2 SZ EP       2041 54.96                             103   -0.0410 63.5  62 
 RUS  HZ EP   3   2041 58.22                              97    0.31 2 82.1 125 
 BRR  HZ EP       2041 58.13                              95    0.0810 86.9 358 
 BRR  HZ I        2041 58.17        11.1 0.36                          86.9 358 
 GIR2 SZ EP       2041 59.89                              61   -0.0610  100  33 
 GIR2 SZ ES   3   2042 12.90                              61    0.46 2  100  33 
 PAM  SZ EP   3   2042  6.85                              61   -0.63 2  157  44 
                                                                                
