 2010  6 5 2236 28.9 L   6.797 -73.051140.0  RSN  7 0.4 2.0LRSN                1
 GAP=185        0.64       5.0    11.2  8.4 -0.3751E+02  0.2493E+02 -0.2235E-02E
 Epicentro: LOS SANTOS - SANTANDER                                             3
 ACTION:UP  10-08-24 10:08 OP:vdl  STATUS:               ID:20100605223628 L   I
 2010-06-05-2234-21S.COL___111                                                 6
 STAT SP IPHASW D HRMM SECON CODA AMPLIT PERI AZIMU VELO SNR AR TRES W  DIS CAZ7
 BAR2 SZ EP   1   2236 47.88                             169    -0.1 8   27 213 
 BAR2 SZ ES   2   2237  3.12                             169     0.3 5   27 213 
 GUE  SZ EP   2   2236 52.39                             139    -0.6 5  115   7 
 GRA  SZ EP       2236 53.36                             137    -0.110  123  13 
 GRA  SZ ES   1   2237 12.96                             137     0.4 7  123  13 
 OCA  SZ EP   2   2236 57.49                             128     0.5 5  162 350 
 OCA  SZ ES   2   2237 18.30                             128    -0.6 5  162 350 
 OCA  SZ I        2237 24.30        10.4 0.14                           162 350 
 CHI  HZ EP   2   2237  6.99                             116     0.4 4  251 197 
 CHI  HN ES   2   2237 35.39                             116    -0.6 4  251 197 
 CHI  HZ I        2237 39.64         4.3 0.24                           251 197 
 HEL  HZ EP   2   2237 10.02                             113     0.0 4  282 256 
 HEL  HZ I        2237 47.61         7.2 0.49                           282 256 
 RREF BZ EP   2   2237 16.49                             109     0.8 3  330 231 
 RREF BN ES   2   2237 52.16                             109    -0.1 3  330 231 
 RREF BZ I        2237 58.71         7.0 0.31                           330 231 
                                                                                
