 2013  6 5 2340  6.1 L   6.770 -73.136147.6  RSN  8 0.3 2.1LRSN                1
 GAP=139        0.75       2.8     3.8  4.6 -0.2851E+01  0.1363E+01 -0.3374E+00E
 Epicentro: LOS SANTOS - SANTANDER                                             3
 ACTION:UPD 14-01-08 09:52 OP:ep   STATUS:               ID:20130605234006 L   I
 OLDACT:REG 13-06-05 22:29 OP:stll STATUS:               ID:20130605233850     3
 2013-06-05-2338-50M.COL___228                                                 6
 STAT SP IPHASW D HRMM SECON CODA AMPLIT PERI AZIMU VELO AIN AR TRES W  DIS CAZ7
 BAR2 SZ ES       2340 41.07                             172   -0.3010 20.3 195 
 BAR2 SZ I        2340 42.19        12.6 0.24            172           20.3 195 
 GIR2 SZ EP       2340 26.14                             166    0.0110 34.7 349 
 GIR2 SZ ES       2340 41.75                             166    0.0410 34.7 349 
 BRR  HZ IP     C 2340 27.96                             152    0.3310 73.8 300 
 BRR  HZ I        2340 28.32        14.7 0.32            148           73.8 300 
 BRR  HN ES       2340 45.08                             152    0.6910 73.8 300 
 PAM  SZ EP       2340 28.81                             150    0.1510 79.3  37 
 PAM  SZ I        2340 29.18        23.5 0.24            151           79.3  37 
 PAM  SN ES       2340 46.09                             150   -0.1410 79.3  37 
 RUS  HZ EP       2340 29.99                             145    0.1610 97.2 177 
 RUS  HN ES       2340 48.29                             145   -0.0210 97.2 177 
 RUS  HE I        2340 49.71        17.6 0.48            147           97.2 177 
 GRA  SZ IP       2340 31.83                             137    0.0410  129  17 
 GRA  SZ ES       2340 51.68                             137   -0.1010  129  17 
 PTB  HZ EP       2340 32.98                             132   -0.32 9  148 260 
 PTB  HN ES       2340 54.13                             132   -0.35 9  148 260 
 PTB  HE I        2340 59.76        22.3 0.46            131            148 260 
 OCA  HN ES       2340 57.02                             129   -0.34 9  164 353 
 OCA  HN I        2341  6.03        34.4 0.26            128            164 353 
                                                                                
