 2013  3 5 2135 27.6 L   6.791 -73.167148.2  RSN 12 0.5 2.5LRSN                1
 GAP= 70        0.98       4.4     4.2  7.4  0.4117E+01  0.2998E+00  0.1442E+01E
 Epicentro: LOS SANTOS - SANTANDER                                             3
 ACTION:UPD 13-04-09 14:00 OP:ep   STATUS:               ID:20130305213527 L   I
 2013-03-05-2130-00M.COL___228                                                 6
 STAT SP IPHASW D HRMM SECON CODA AMPLIT PERI AZIMU VELO AIN AR TRES W  DIS CAZ7
 BAR2 SZ EP       2135 47.62                             171    0.1610 22.0 184 
 BAR2 SZ ES   1   2136  2.75                             171   -0.22 7 22.0 184 
 BAR2 SZ I        2136  4.38        91.2 0.38            154           22.0 184 
 BRR  HZ EP   1   2135 49.70                             153    0.81 7 69.7 300 
 BRR  HN ES   1   2136  6.53                             153    1.01 7 69.7 300 
 BRR  HZ I        2136 10.79        26.0 0.24            132           69.7 300 
 PAM  SZ EP   1   2135 50.49                             150    0.32 7 79.7  40 
 PAM  SE ES   1   2136  7.61                             150   -0.19 7 79.7  40 
 PAM  SZ I        2136  9.83        68.1 0.57            141           79.7  40 
 RUS  HZ EP     D 2135 51.47                             144   -0.0210 99.8 175 
 RUS  HN ES   1   2136  9.53                             144   -0.63 7 99.8 175 
 RUS  HZ I        2136 11.46        18.1 0.44            123           99.8 175 
 PTB  HZ EP   2   2135 54.61                             133    0.11 5  145 259 
 PTB  HN ES   1   2136 14.70                             133   -0.82 7  145 259 
 PTB  HZ I        2136 21.51        45.4 0.24            112            145 259 
 TAM  HZ IP     D 2135 55.79                             130    0.17 9  157 104 
 TAM  HN ES   1   2136 17.52                             130    0.02 7  157 104 
 TAM  HZ I        2136 23.87        18.4 0.52            115            157 104 
 OCA  HN ES   1   2136 17.65                             130   -0.76 7  161 354 
 ZAR  HE ES   1   2136 25.82                             123    0.55 6  202 293 
 ZAR  HZ I        2136 36.42        30.2 0.36            106            202 293 
 SML  HZ EP   2   2136  3.64                             118   -0.68 4  244 336 
 SML  HN ES   1   2136 32.35                             118   -0.64 6  244 336 
 ROSC BZ EP   4   2136  6.10                             117    0.51 0  251 211 
 ROSC BN ES   4   2136 38.02                             117    2.77 0  251 211 
 ROSC BZ I        2136 43.68        34.8 0.50            102            251 211 
 HEL  HZ EP   2   2136  7.11                             115   -0.51 4  270 256 
 HEL  HZ I        2136 46.38        14.2 0.34            101            270 256 
 PRA  HZ EP   1   2136 20.94                             107    0.01 4  390 209 
 PRA  HZ I        2137  9.13        17.8 0.62             98            390 209 
                                                                                
