 2014  1 5 2331  7.7 L   6.643 -73.611120.7  RSN  7 0.4 1.3LRSN                1
 GAP=109        1.10       3.4     4.7  6.7  0.1625E+01  0.8456E+01  0.2833E+01E
 Epicentro: EL CARMEN DE CHUCURI - SANTANDER                                   3
 ACTION:UPD 14-03-13 09:51 OP:ep   STATUS:               ID:20140105233107 L   I
 OLDACT:REG 14-01-06 05:48 OP:nd   STATUS:               ID:20140105233000     3
 2014-01-05-2330-00M.COL___285                                                 6
 STAT SP IPHASW D HRMM SECON CODA AMPLIT PERI AZIMU VELO AIN AR TRES W  DIS CAZ7
 BAR2 SZ ES       2331 39.02                             157    0.1710 47.7  97 
 BRR  HZ EP       2331 25.49                             155    0.4110 52.5 348 
 BRR  HE ES       2331 38.99                             155    0.3310 52.5 348 
 BRR  HZ I        2331 44.17         4.0 0.34            154           52.5 348 
 PTB  HZ EP       2331 27.28                             139   -0.6110 94.2 263 
 PTB  HN ES       2331 43.31                             139   -0.3410 94.2 263 
 PTB  HZ I        2331 45.23         3.8 0.26            140           94.2 263 
 RUS  HZ EP       2331 28.82                             138   -0.3110  101 145 
 RUS  HN ES       2331 45.25                             138   -0.6210  101 145 
 NOR  HZ EP       2331 36.20                             119   -0.26 9  183 229 
 NOR  HN ES       2331 59.23                             119    0.31 9  183 229 
 NOR  HZ I        2331 59.48         2.4 0.14            121            183 229 
 CHI  HZ EP       2331 41.64                             114    0.40 8  223 183 
 CHI  HE ES       2332  8.31                             114    0.89 8  223 183 
 CHI  HZ I        2332 11.34         1.1 0.28            116            223 183 
 SML  HZ EP       2331 42.83                             112   -0.24 8  244 348 
 SML  HN ES       2332 11.00                             112    0.33 8  244 348 
 SML  HZ I        2332 15.90         5.5 0.22            112            244 348 
                                                                                
