 2010  3 5 2128 54.8 L   6.828 -73.071144.1  RSN  9 0.3 2.5LRSN                1
 GAP=131        0.59       2.9     5.5  4.7  0.2953E+00 -0.1869E+01  0.4133E-01E
 Epicentro: LOS SANTOS - SANTANDER                                             3
 ACTION:UP  10-08-24 09:52 OP:vdl  STATUS:               ID:20100305212854 L   I
 2010-03-05-2125-29S.COL___101                                                 6
 STAT SP IPHASW D HRMM SECON CODA AMPLIT PERI AZIMU VELO SNR AR TRES W  DIS CAZ7
 BAR2 SZ EP       2129 14.36                             168     0.010   29 206 
 BAR2 SZ ES   2   2129 29.21                             168    -0.4 5   29 206 
 BRR  HZ EP       2129 16.11                             150     0.010   77 294 
 BRR  HZ I        2129 16.38        86.8 0.12                            77 294 
 BRR  HE ES   1   2129 33.13                             150     0.4 7   77 294 
 RUS  BZ EP       2129 18.85                             143     0.310  103 181 
 RUS  BN ES   1   2129 36.77                             143    -0.4 7  103 181 
 RUS  BZ I        2129 38.64        30.6 0.24                           103 181 
 OCA  SZ EP       2129 22.58                             130    -0.2 9  158 350 
 OCA  SZ ES   3   2129 44.10                             130    -0.5 2  158 350 
 OCA  SZ I        2129 47.66        83.6 0.26                           158 350 
 CHI  HZ EP       2129 33.07                             116     0.1 8  254 197 
 CHI  HE ES   2   2130  3.17                             116     0.4 4  254 197 
 CHI  HZ I        2130  9.21         8.8 0.48                           254 197 
 DBB  SZ EP   1   2129 42.87                             109    -0.2 5  348 274 
 TOL  SZ EP   1   2129 43.89                             108     0.0 5  352 225 
 TOL  SZ ES   3   2130 21.29                             108    -0.9 2  352 225 
 SDV  BZ EP   1   2129 43.91                             108     0.1 5  352  50 
 SDV  BZ I        2129 44.70        16.9 0.15                           352  50 
 PRA  HZ EP   1   2129 49.18                             106     0.1 4  399 210 
 PRA  HE ES   2   2130 30.19                             106    -1.2 3  399 210 
 PRA  HZ I        2130 37.19         8.6 0.25                           399 210 
                                                                                
