 2017  9 5 2344  4.6 L   6.809 -73.105143.4  RSN 11 0.5 1.7LRSN                1
 GAP=115        1.04       3.5     4.3  5.9 -0.8912E+00  0.7682E+01  0.5618E+01E
 Epicentro: LOS SANTOS - SANTANDER                                             3
 ACTION:UPD 17-10-05 19:09 OP:rebc STATUS:               ID:20170905234404 L   I
 OLDACT:UP  17-09-06 07:24 OP:edw  STATUS:               ID:20170905233744     3
 OLDACT:UP  17-09-06 07:22 OP:edw  STATUS:               ID:20170905233744     3
 OLDACT:REG 17-09-06 03:48 OP:edw  STATUS:               ID:20170905233744     3
 2017-09-05-2338-00M.COL___428                                                 6
 STAT SP IPHASW D HRMM SECON CODA AMPLIT PERI AZIMU VELO AIN AR TRES W  DIS CAZ7
 BAR2 EZ EP       2344 23.63                             169   -0.3110 25.4 200 
 BAR2 EZ ES       2344 38.84                             169   -0.2310 25.4 200 
 BAR2 EZ I        2344 41.30        10.1 0.34            168           25.4 200 
 PAM  EZ EP       2344 26.78                             152    0.4710 73.8  37 
 PAM  EN ES       2344 42.77                             152   -0.5010 73.8  37 
 PAM  EZ I        2344 45.76         4.7 0.42            156           73.8  37 
 BRR  HZ EP       2344 25.79                             151    0.1410 74.7 296 
 BRR  HE ES       2344 42.75                             151    0.6410 74.7 296 
 BRR  HZ I        2344 45.02        11.9 0.26            150           74.7 296 
 RUS  HZ EP       2344 28.48                             143    0.3510  101 179 
 RUS  HN ES       2344 46.43                             143   -0.0810  101 179 
 RUS  HZ I        2344 48.63         2.7 0.38            145            101 179 
 SPBC HZ EP       2344 32.65                             128   -0.57 9  167 220 
 SPBC HN ES       2344 56.19                             128    0.61 9  167 220 
 SPBC HZ I        2344 59.61         6.1 0.46            129            167 220 
 YPLC HZ EP   2   2344 33.79                             126   -0.27 4  176 153 
 YPLC HN ES   2   2344 56.75                             126   -0.31 4  176 153 
 ZAR  HZ EP       2344 36.91                             121   -0.33 8  208 291 
 ZAR  HN ES       2345  2.77                             121    0.03 8  208 291 
 ZAR  HZ I        2345  8.73         6.2 0.34            122            208 291 
 NOR  HZ EP       2344 40.73                             117    0.12 8  239 235 
 NOR  HN ES       2345  7.71                             117   -1.01 8  239 235 
 NOR  HZ I        2345 13.68         5.5 0.16            119            239 235 
 CHI  HZ EP       2344 42.35                             116   -0.01 8  251 196 
 CHI  HE ES       2345 12.24                             116    0.40 8  251 196 
 CHI  HZ I        2345 14.98         1.7 0.50            118            251 196 
 GUY2CHZ EP   2   2344 47.52                             111   -1.02 4  305 235 
 GUY2CHN ES       2345 22.76                             111   -0.08 7  305 235 
 GUY2CHZ I        2345 29.29         2.1 0.40                           305 235 
 PRA  HZ EP       2344 59.43                             106    1.07 6  395 210 
 PRA  HE ES       2345 40.20                             106   -0.12 6  395 210 
 PRA  HZ I        2345 45.81         2.5 0.26            107            395 210 
                                                                                
