 2011  8 5 2332 17.2 L   6.752 -73.066156.0  RSN  7 0.4 2.0LRSN                1
 GAP=149        0.81       5.8     6.9  8.2 -0.1034E+02  0.7501E+01  0.1783E+02E
 Epicentro: LOS SANTOS - SANTANDER                                             3
 ACTION:UPD 12-07-25 14:06 OP:epov STATUS:               ID:20110805233217 L   I
 2011-08-05-2320-00M.COL___145                                                 6
 STAT SP IPHASW D HRMM SECON CODA AMPLIT PERI AZIMU VELO AIN AR TRES W  DIS CAZ7
 PAM  SZ EP   1   2332 40.71                             153    0.29 7 76.5  32 
 PAM  SN ES   1   2332 58.05                             153   -0.52 7 76.5  32 
 PAM  SZ I        2332 59.98         8.3 0.25                          76.5  32 
 BRR  HZ EP   1   2332 39.55                             151   -0.45 7 81.5 299 
 BRR  HZ I        2332 44.32        22.4 0.11                          81.5 299 
 BRR  HN ES   1   2332 58.56                             151    0.74 7 81.5 299 
 RUS  HZ EP   1   2332 41.64                             147    0.08 7 95.1 181 
 RUS  HN ES   1   2333  0.65                             147    0.06 7 95.1 181 
 RUS  HZ I        2333  1.64        16.9 0.29                          95.1 181 
 NOR  SN ES   1   2333 21.98                             120   -0.67 6  239 237 
 CHI  HZ EP   1   2332 55.53                             120    0.36 6  246 197 
 CHI  HZ I        2333 31.17         7.2 0.36                           246 197 
 RREF HZ EP   1   2333  3.88                             112   -0.26 5  325 231 
 PRA  HZ EP   1   2333 11.38                             108    0.35 4  392 211 
                                                                                
