 2017 11 5 2333  2.4 L   6.789 -73.141143.1  RSN 11 0.5 1.6LRSN                1
 GAP=113        1.21       3.9     4.1  6.5  0.1473E+01  0.4472E+01  0.5199E+01E
 Epicentro: LOS SANTOS - SANTANDER                                             3
 ACTION:UPD 17-12-12 19:52 OP:rebc STATUS:               ID:20171105233302 L   I
 OLDACT:REG 17-11-06 04:03 OP:osc  STATUS:               ID:20171105232741     3
 2017-11-05-2328-00M.COL___435                                                 6
 STAT SP IPHASW D HRMM SECON CODA AMPLIT PERI AZIMU VELO AIN AR TRES W  DIS CAZ7
 BAR2 EZ EP       2333 21.66                             171    0.0210 22.2 192 
 BAR2 EZ ES       2333 36.30                             171   -0.3910 22.2 192 
 BAR2 EZ I        2333 40.25         7.5 0.18            170           22.2 192 
 BRR  HZ EP       2333 23.47                             152    0.2010 72.2 299 
 BRR  HE ES       2333 40.46                             152    0.8710 72.2 299 
 BRR  HZ I        2333 44.93        11.3 0.16            153           72.2 299 
 PAM  EZ EP       2333 24.53                             150    0.2110 78.0  39 
 PAM  EE ES       2333 41.37                             150   -0.0910 78.0  39 
 PAM  EZ I        2333 43.56         8.3 0.38            154           78.0  39 
 RUS  HZ EP       2333 25.88                             144    0.1310 99.3 176 
 RUS  HN ES       2333 44.35                             144    0.3510 99.3 176 
 RUS  HZ I        2333 45.45         2.9 0.28            145           99.3 176 
 PTB  HZ EP       2333 28.63                             131   -0.50 9  148 259 
 PTB  HN ES       2333 49.44                             131   -0.57 9  148 259 
 PTB  HZ I        2333 51.72         4.2 0.14            133            148 259 
 SPBC HZ EP       2333 30.54                             129   -0.05 9  163 219 
 SPBC HN ES       2333 52.76                             129    0.15 9  163 219 
 SPBC HZ I        2333 55.46         7.6 0.10            130            163 219 
 YPLC HZ EP       2333 32.27                             126    0.44 9  176 151 
 YPLC HE ES       2333 53.60                             126   -1.22 9  176 151 
 YPLC HZ I        2333 59.07         4.1 0.28            129            176 151 
 ZAR  HZ EP       2333 34.52                             122   -0.20 9  205 292 
 ZAR  HE ES       2333 59.46                             122   -0.50 9  205 292 
 ZAR  HZ I        2334  5.03         5.1 0.58            124            205 292 
 NOR  HZ EP       2333 37.76                             118   -0.13 8  234 235 
 NOR  HE ES       2334  5.61                             118   -0.01 8  234 235 
 NOR  HZ I        2334  9.44         2.9 0.26            120            234 235 
 CHI  HZ EP       2333 40.27                             117    0.48 8  248 195 
 CHI  HN ES       2334  9.72                             117    0.73 8  248 195 
 CHI  HZ I        2334 14.59         1.9 0.32            119            248 195 
 GUY2CHZ EP   9   2333 47.19                             112    1.39 0  301 235 
 GUY2CHN ES       2334 22.01                                    0.93 7  301 235 
 GUY2CHZ I        2334 27.76         1.9 0.30                           301 235 
                                                                                
