 2012 11 5 2244 27.6 L   6.758 -73.192144.2  RSN  7 0.3 2.1LRSN                1
 GAP=173        0.70       3.6     5.2  4.9  0.9155E+01  0.7733E+01  0.6371E+01E
 Epicentro: VILLANUEVA - SANTANDER                                             3
 ACTION:UPD 12-12-05 15:31 OP:}ep  STATUS:               ID:20121105224427 L   I
 2012-11-05-2240-00M.COL___230                                                 6
 STAT SP IPHASW D HRMM SECON CODA AMPLIT PERI AZIMU VELO AIN AR TRES W  DIS CAZ7
 BAR2 SZ EP       2244 46.83                             173   -0.1010 18.4 177 
 BAR2 SZ ES       2245  1.87                             173   -0.1510 18.4 177 
 BAR2 SZ I        2245  3.23        25.4 0.12                          18.4 177 
 GIR2 SZ EP       2244 47.04                             165   -0.1410 35.5 360 
 BRR  HZ EP       2244 48.67                             153    0.2210 69.3 304 
 BRR  HN ES       2245  5.09                             153    0.3610 69.3 304 
 RUS  HZ EP       2244 50.91                             145    0.0310 96.4 173 
 RUS  HN ES   1   2245  9.32                             145    0.27 7 96.4 173 
 ZAR  HZ EP   1   2244 59.33                             122   -0.29 6  201 294 
 ZAR  HE ES       2245 24.30                             122   -0.32 9  201 294 
 ZAR  HN I        2245 34.30        14.5 0.30                           201 294 
 CHI  HZ EP       2245  4.78                             117    0.22 8  243 194 
 CHI  HN ES       2245 32.77                             117   -0.63 8  243 194 
 CHI  HN I        2245 38.90        11.2 0.36                           243 194 
 PRA  HZ EP       2245 20.76                             107    0.48 6  385 209 
 PRA  HN ES   2   2246  2.19                             107    0.81 3  385 209 
 PRA  HN I        2246  8.70         3.1 0.38                           385 209 
                                                                                
