 2012  7 5 2144 49.5 L   7.414 -73.179133.3  RSN  6 0.2 1.4LRSN                1
 GAP=186        0.39       8.6     4.1  5.1  0.9889E+01  0.3894E+01  0.2358E+02E
 Epicentro: EL PLAYON - SANTANDER                                              3
 ACTION:UPD 12-08-14 11:42 OP:ep   STATUS:               ID:20120705214449 L   I
 2012-07-05-2140-00M.COL___201                                                 6
 STAT SP IPHASW D HRMM SECON CODA AMPLIT PERI AZIMU VELO AIN AR TRES W  DIS CAZ7
 PAM  SN ES   2   2145 24.33                             157     0.0 5   54  99 
 BRR  HZ EP       2145  9.24                             151     0.110   68 240 
 BRR  HN ES   1   2145 24.44                             151     0.0 7   68 240 
 BRR  HZ I        2145 25.31        15.4 0.42             96             68 240 
 BAR2 SZ EP   3   2145 11.15                             144     0.2 2   91 180 
 BAR2 SZ I        2145 30.99         4.0 0.70             56             91 180 
 RUS  HZ EP       2145 18.08                             125    -0.1 9  169 176 
 PTB  HZ EP       2145 17.84                             125     0.0 9  171 236 
 PTB  HZ I        2145 42.11         1.5 0.44             56            171 236 
 ZAR  HN ES   3   2145 41.54                             122    -0.9 2  186 273 
