 2017 11 5 2317 32.2 L   6.849 -73.119152.7  RSN  4 0.4 1.1LRSN                1
 GAP=137        0.97       5.6     5.3  8.5 -0.3705E+01  0.3954E+01  0.7413E+01E
 Epicentro: LOS SANTOS - SANTANDER                                             3
 ACTION:UPD 17-12-12 19:52 OP:rebc STATUS:               ID:20171105231732 L   I
 OLDACT:REG 17-11-06 03:45 OP:osc  STATUS:               ID:20171105230741     3
 2017-11-05-2308-00M.COL___435                                                 6
 STAT SP IPHASW D HRMM SECON CODA AMPLIT PERI AZIMU VELO AIN AR TRES W  DIS CAZ7
 PAM  EZ EP       2317 55.47                             154    0.6410 71.3  40 
 PAM  EE ES       2318 12.18                             154   -0.2910 71.3  40 
 PAM  EZ I        2318 12.74         2.4 0.40            154           71.3  40 
 BRR  HZ EP       2317 53.46                             154   -0.6710 71.5 294 
 BRR  HE ES       2318 11.48                             154    0.2610 71.5 294 
 RUS  HZ EP       2317 57.11                             144    0.0910  106 178 
 RUS  HN ES       2318 16.30                             144   -0.0710  106 178 
 PTB  HZ EP       2317 60.00                             133   -0.11 9  152 257 
 PTB  HE ES       2318 22.04                             133    0.17 9  152 257 
 PTB  HZ I        2318 22.45         1.3 0.24            133            152 257 
                                                                                
