 2011  7 5 2334  7.4 L   6.804 -73.115156.0  RSN  5 0.3 1.6LRSN                1
 GAP=140        0.54       5.0     9.1 18.3 -0.5229E+01 -0.5759E+02 -0.1319E+02E
 Epicentro: LOS SANTOS - SANTANDER                                             3
 ACTION:UPD 12-07-25 13:58 OP:epov STATUS:               ID:20110705233407 L   I
 2011-07-05-2330-02S.COL___123                                                 6
 STAT SP IPHASW D HRMM SECON CODA AMPLIT PERI AZIMU VELO AIN AR TRES W  DIS CAZ7
 BAR2 SZ EP   3   2334 27.35                             171   -0.95 2 24.6 197 
 BRR  HZ EP       2334 29.90                             154    0.0710 73.9 297 
 BRR  HZ I        2334 46.77         6.7 0.52                          73.9 297 
 BRR  HN ES   3   2334 47.42                             154    0.11 2 73.9 297 
 PAM  SZ EP       2334 30.89                             154    0.3010 74.9  38 
 RUS  HZ EP       2334 32.18                             146   -0.0310  101 178 
 RUS  HN ES   3   2334 51.18                             146   -0.36 2  101 178 
 GRA  SZ EP       2334 33.18                             140   -0.2910  124  16 
                                                                                
