 2014  2 5 2248 41.7 L   6.519 -73.574107.8  RSN  7 0.4 1.6LRSN                1
 GAP= 92        0.96       3.7     4.2  6.0  0.6725E+01  0.7186E+01  0.4255E+00E
 Epicentro: EL CARMEN DE CHUCURI - SANTANDER                                   3
 ACTION:UPD 14-03-10 08:07 OP:ep   STATUS:               ID:20140205224841 L   I
 OLDACT:REG 14-02-05 23:13 OP:stll STATUS:               ID:20140205224818     3
 2014-02-05-2248-18M.COL___243                                                 6
 STAT SP IPHASW D HRMM SECON CODA AMPLIT PERI AZIMU VELO AIN AR TRES W  DIS CAZ7
 BAR2 SZ EP       2248 57.40                             156   -0.2210 44.1  79 
 BAR2 SZ ES       2249 10.10                             156    0.0810 44.1  79 
 BAR2 SZ I        2249 11.31        59.6 0.48            158           44.1  79 
 BRR  HZ EP       2248 58.66                             146    0.0310 66.8 347 
 BRR  HN ES       2249 12.03                             146    0.2210 66.8 347 
 RUS  HZ EP       2249  0.75                             138   -0.1710 88.0 142 
 RUS  HN ES       2249 16.13                             138    0.2510 88.0 142 
 RUS  HZ I        2249 17.88         2.4 0.22            140           88.0 142 
 PTB  HZ EP       2249  0.97                             134   -0.1010 97.6 271 
 PTB  HN ES       2249 15.41                             134   -0.7410 97.6 271 
 PTB  HZ I        2249 16.92         8.4 0.28            135           97.6 271 
 ZAR  HZ EP       2249  9.66                             116    0.52 9  178 307 
 ZAR  HN ES       2249 31.26                             116    0.74 9  178 307 
 ZAR  HZ I        2249 34.04         4.0 0.46            117            178 307 
 CHI  HZ EP       2249 13.39                             112    0.22 8  210 185 
 SML  HZ EP       2249 17.82                             107   -0.43 8  258 348 
 SML  HN ES       2249 46.33                             107   -0.40 8  258 348 
                                                                                
