 2012  1 5 2125 53.2 L   6.798 -73.137150.9  RSN  6 0.3 1.8LRSN                1
 GAP=138        0.89       5.4     4.7  7.7 -0.3387E+00  0.4506E+01  0.1628E+02E
 Epicentro: LOS SANTOS - SANTANDER                                             3
 ACTION:UP  12-02-03 08:14 OP:REBC STATUS:               ID:20120105212553 L   I
 2012-01-05-2120-00M.COL___189                                                 6
 STAT SP IPHASW D HRMM SECON CODA AMPLIT PERI AZIMU VELO SNR AR TRES W  DIS CAZ7
 BRR  HZ EP       2126 15.07                             153     0.110   72 298 
 BRR  HZ I        2126 15.59        20.9 0.36                            72 298 
 BRR  HE ES       2126 32.49                             153     0.510   72 298 
 PAM  SZ EP       2126 16.11                             152     0.210   77  39 
 PAM  SN ES       2126 33.34                             152    -0.310   77  39 
 RUS  HZ EP   1   2126 17.54                             145     0.1 7  100 177 
 RUS  HE ES   1   2126 36.19                             145    -0.2 7  100 177 
 RUS  HZ I        2126 37.67         6.4 0.36                           100 177 
 PTB  HZ EP       2126 20.30                             133    -0.4 9  149 259 
 PTB  HE ES   1   2126 41.67                             133    -0.4 7  149 259 
 ZAR  HE ES   1   2126 51.61                             123    -0.1 6  205 292 
 ZAR  HZ I        2126 58.42         7.6 0.26                           205 292 
 CHI  HZ EP       2126 31.51                             118     0.3 8  249 195 
 CHI  HZ I        2127  6.61         2.9 0.49                           249 195 
                                                                                
