 2015  2 5 2249  5.6 L   6.760 -73.128146.0  RSN  6 0.3 1.6LRSN                1
 GAP=141        0.71       3.7     3.8  6.5 -0.6678E+00  0.9251E+01 -0.4671E+01E
 Epicentro: LOS SANTOS - SANTANDER                                             3
 ACTION:UPD 15-04-30 21:22 OP:nd   STATUS:               ID:20150205224905 L   I
 OLDACT:REG 15-02-06 08:28 OP:spq  STATUS:               ID:20150205224748     3
 2015-02-05-2247-48M.COL___290                                                 6
 STAT SP IPHASW D HRMM SECON CODA AMPLIT PERI AZIMU VELO AIN AR TRES W  DIS CAZ7
 BAR2 EZ EP   1   2249 25.28                             172    0.06 7 19.5 198 
 BAR2 EZ ES   1   2249 39.93                             172   -0.57 7 19.5 198 
 BAR2 EZ I        2249 42.40         5.2 0.29            172           19.5 198 
 PAM  SZ EP       2249 28.31                             150    0.2910 79.7  36 
 PAM  SE ES       2249 45.53                             150    0.0610 79.7  36 
 PAM  SZ I        2249 47.72         6.5 0.64            153           79.7  36 
 RUS  HZ EP   1   2249 29.21                             145    0.12 7 96.0 177 
 RUS  HE ES   1   2249 47.45                             145    0.07 7 96.0 177 
 RUS  HZ I        2249 48.12         3.4 0.34            149           96.0 177 
 PTB  HZ EP       2249 32.63                             132   -0.09 9  149 261 
 PTB  HN ES   1   2249 53.73                             132   -0.12 7  149 261 
 PTB  HZ I        2249 57.47         4.6 0.10            133            149 261 
 ZAR  HN ES       2250  4.49                             122    0.43 8  208 293 
 ZAR  HZ I        2250  9.36         6.6 0.25            123            208 293 
 SML  HZ EP   1   2249 41.92                             117   -0.88 6  249 335 
 SML  HE ES   1   2250 11.67                             117   -0.12 6  249 335 
 SML  HZ I        2250 14.38         6.5 0.10            119            249 335 
                                                                                
