 2014  7 5 2101 23.0 L   6.780 -73.160150.7  RSN 11 0.5 1.9LRSN                1
 GAP=136        1.17       3.2     4.8  6.2 -0.2493E+01  0.7747E+01 -0.7076E+00E
 Epicentro: LOS SANTOS - SANTANDER                                             3
 ACTION:UPD 15-03-16 20:41 OP:nd   STATUS:               ID:20140705210123 L   I
 OLDACT:REG 14-07-06 03:26 OP:carl STATUS:               ID:20140705205813     3
 2014-07-05-2058-13M.COL___259                                                 6
 STAT SP IPHASW D HRMM SECON CODA AMPLIT PERI AZIMU VELO AIN AR TRES W  DIS CAZ7
 BAR2 SZ EP       21 1 43.38                             172    0.2110 20.9 187 
 BAR2 SZ ES       21 1 58.46                             172   -0.4410 20.9 187 
 BAR2 SZ I        21 1 59.33        17.2 0.26            170           20.9 187 
 BRR  HZ EP       21 1 45.02                             153    0.3610 70.9 301 
 BRR  HN ES       21 2  2.62                             153    1.0710 70.9 301 
 BRR  HZ I        21 2  6.15         8.3 0.12            151           70.9 301 
 PAM  SZ EP       21 1 45.96                             151    0.0710 80.1  39 
 PAM  SN ES       21 2  3.57                             151   -0.1810 80.1  39 
 PAM  SZ I        21 2  5.30         9.2 0.56            154           80.1  39 
 RUS  HZ EP       21 1 47.19                             145    0.1110 98.5 175 
 RUS  HE ES       21 2  5.33                             145   -0.5410 98.5 175 
 RUS  HZ I        21 2  6.97         6.0 0.26            147           98.5 175 
 PTB  HZ EP       21 1 50.04                             133   -0.15 9  146 260 
 PTB  HN ES       21 2 10.90                             133   -0.50 9  146 260 
 PTB  HZ I        21 2 18.67        10.2 0.30            132            146 260 
 SPBC HZ EP       21 1 52.04                             131    0.42 9  160 219 
 SPBC HE ES       21 2 14.20                             131    0.25 9  160 219 
 SPBC HZ I        21 2 15.46        11.1 0.16            130            160 219 
 OCA  HZ EP       21 1 51.20                             130   -0.67 9  162 354 
 OCA  HN ES       21 2 15.13                             130    0.73 9  162 354 
 OCA  HZ I        21 2 17.50         8.2 0.18            131            162 354 
 ZAR  HZ EP       21 1 55.86                             124    0.16 9  203 293 
 ZAR  HN ES       21 2 20.92                             124   -0.28 9  203 293 
 ZAR  HZ I        21 2 23.24         7.8 0.22            123            203 293 
 SML  HZ EP       21 1 59.56                             118   -0.48 8  245 336 
 SML  HN ES       21 2 28.22                             118   -0.72 8  245 336 
 SML  HZ I        21 2 33.35        10.4 0.26            119            245 336 
 RREF HN ES       21 2 44.79                             112   -0.19 7  319 229 
 RREF HZ I        21 2 55.06         4.5 0.28            112            319 229 
 PRA  HZ EP       21 2 16.99                             107    0.62 6  389 210 
 PRA  HN ES       21 2 58.05                             107    0.04 6  389 210 
 PRA  HZ I        21 3  4.69         1.9 0.26            108            389 210 
                                                                                
