 2012  8 5 2354 28.9 L   6.715 -73.187147.6  RSN  5 0.4 1.6LRSN                1
 GAP=226        0.83       8.2     8.1  8.4  0.3975E+02  0.1575E+02  0.2087E+01E
 Epicentro: VILLANUEVA - SANTANDER                                             3
 ACTION:UPD 12-09-10 11:54 OP:ep   STATUS:               ID:20120805235428 L   I
 2012-08-05-2350-00M.COL___216                                                 6
 STAT SP IPHASW D HRMM SECON CODA AMPLIT PERI AZIMU VELO AIN AR TRES W  DIS CAZ7
 BAR2 SZ ES   1   2355  3.43                             175   -0.58 7 13.5 178 
 BRR  HZ EP       2354 50.49                             152    0.1310 72.4 307 
 BRR  HZ I        2354 50.66        19.6 0.13                          72.4 307 
 BRR  HE ES   1   2355  7.67                             152    0.60 7 72.4 307 
 RUS  HZ EP   1   2354 52.62                             147    0.36 7 91.6 173 
 RUS  HN ES   1   2355 10.37                             147   -0.07 7 91.6 173 
 RUS  HZ I        2355 12.31         3.5 0.26                          91.6 173 
 PTB  HZ EP       2354 55.26                             134   -0.26 9  142 262 
 PTB  HN ES   1   2355 16.61                             134    0.36 7  142 262 
 PTB  HZ I        2355 23.53         3.5 0.37                           142 262 
 ZAR  HN ES   1   2355 26.22                             123   -0.61 6  204 295 
 ZAR  HZ I        2355 33.01         3.9 0.19                           204 295 
                                                                                
