 2015  1 5 2352 17.8 L   6.864 -73.277125.8  RSN  7 0.5 1.8LRSN                1
 GAP=128        1.18       5.9     4.7 10.6  0.1149E+02  0.3915E+01 -0.2381E+02E
 Epicentro: BETULIA - SANTANDER                                                3
 ACTION:UPD 15-03-02 15:37 OP:nd   STATUS:               ID:20150105235217 L   I
 OLDACT:REG 15-01-06 05:10 OP:stll STATUS:               ID:20150105234744     3
 2015-01-05-2347-44M.COL___271                                                 6
 STAT SP IPHASW D HRMM SECON CODA AMPLIT PERI AZIMU VELO AIN AR TRES W  DIS CAZ7
 BAR2 EZ EP       2352 35.58                             165    0.2810 31.8 161 
 BAR2 EZ ES       2352 48.77                             165   -0.1510 31.8 161 
 BAR2 EZ I        2352 49.79        42.1 0.20            169           31.8 161 
 BRR  HZ EP       2352 36.06                             155    0.1410 55.0 299 
 RUS  HZ EP       2352 40.55                             137    0.1410  110 169 
 RUS  HZ I        2352 41.08         4.0 0.10            140            110 169 
 RUS  HN ES       2352 57.62                             137   -0.3910  110 169 
 PTB  HZ EP       2352 40.93                             130   -1.12 9  135 255 
 PTB  HE ES       2353  1.48                             130    0.55 9  135 255 
 PTB  HZ I        2353  2.85         8.7 0.24            131            135 255 
 TAM  HN ES       2353  7.59                             123    0.31 9  171 106 
 ZAR  HZ EP       2352 47.86                             120    0.53 9  188 292 
 ZAR  HN ES       2353 10.54                             120    0.20 9  188 292 
 ZAR  HZ I        2353 14.40         4.4 0.36            120            188 292 
 SML  HN ES       2353 18.27                             114   -0.47 8  231 338 
 SML  HZ I        2353 23.60        10.8 0.24            114            231 338 
                                                                                
