 2011  2 5 2016  8.8 L   6.792 -73.157145.3  RSN  8 0.3 1.8LRSN                1
 GAP=157        0.66       2.8     6.2  5.3 -0.7163E+01  0.9132E+01  0.8866E-02E
 Epicentro: LOS SANTOS - SANTANDER                                             3
 ACTION:UP  11-03-28 15:06 OP:jfem STATUS:               ID:20110205201608 L   I
 2011-02-05-2013-53S.COL___138                                                 6
 STAT SP IPHASW D HRMM SECON CODA AMPLIT PERI AZIMU VELO SNR AR TRES W  DIS CAZ7
 BTL  SZ EP       2016 28.45                             172     0.210   19 319 
 BTL  SZ ES   2   2016 44.02                             172     0.6 5   19 319 
 BAR2 SZ EP       2016 28.09                             171    -0.210   22 188 
 BAR2 SZ ES   2   2016 43.21                             171    -0.4 5   22 188 
 BAR2 SZ I        2016 44.54        17.6 0.17                            22 188 
 GIR2 SZ EP   3   2016 28.12                             167    -0.3 2   32 353 
 GIR2 SZ ES   2   2016 42.93                             167    -0.8 5   32 353 
 RUS  HZ EP       2016 32.47                             144     0.010  100 175 
 RUS  HN ES   1   2016 51.24                             144     0.4 7  100 175 
 RUS  HZ I        2016 53.45         8.2 0.34                           100 175 
 GRA  SZ EP       2016 33.93                             137    -0.110  127  18 
 GRA  SZ ES   1   2016 53.83                             137     0.0 7  127  18 
 GRA  SZ I        2016 54.99         8.8 0.36                           127  18 
 OCA  SZ EP       2016 37.48                             129     0.4 9  161 354 
 OCA  SZ ES   1   2016 59.12                             129    -0.1 7  161 354 
 OCA  SZ I        2017  3.45         8.4 0.21                           161 354 
 NOR  SZ EP       2016 44.19                             119    -0.1 8  233 235 
 NOR  SN ES   1   2017 12.17                             119     0.1 6  233 235 
 CHI  HZ EP       2016 46.11                             117    -0.2 8  247 195 
 CHI  HZ I        2017 23.27         3.1 0.36                           247 195 
                                                                                
