 2016  3 5 2215 47.8 L   6.797 -73.144138.5  RSN  8 0.4 1.8LRSN                1
 GAP=137        0.64       5.0     3.9  7.7 -0.7803E+01  0.5734E+01 -0.3661E+01E
 Epicentro: LOS SANTOS - SANTANDER                                             3
 ACTION:UPD 16-05-13 21:21 OP:cam  STATUS:               ID:20160305221547 L   I
 OLDACT:REG 16-03-06 03:44 OP:dnl  STATUS:               ID:20160305220751     3
 2016-03-05-2207-51M.COL___328                                                 6
 STAT SP IPHASW D HRMM SECON CODA AMPLIT PERI AZIMU VELO AIN AR TRES W  DIS CAZ7
 BAR2 EZ EP   2   2216  6.76                             170    0.17 5 23.0 191 
 BAR2 EZ ES   2   2216 21.70                             170    0.48 5 23.0 191 
 BAR2 EZ I        2216 24.10        15.5 0.23            169           23.0 191 
 PAM  EZ EP       2216  9.31                             149    0.0110 77.5  39 
 PAM  EN ES   2   2216 26.42                             149    0.39 5 77.5  39 
 PAM  EZ I        2216 27.32        11.4 0.34            154           77.5  39 
 RUS  HZ EP   2   2216 10.98                             142    0.12 5  100 176 
 RUS  HN ES   2   2216 28.13                             142   -0.69 5  100 176 
 RUS  HZ I        2216 30.28         4.8 0.18            145            100 176 
 PTB  HZ EP   2   2216 13.65                             130   -0.59 5  148 259 
 PTB  HN ES       2216 34.36                             130   -0.47 9  148 259 
 PTB  HZ I        2216 37.38        11.4 0.12            130            148 259 
 SPBC HZ EP   2   2216 15.98                             127    0.20 5  163 219 
 SPBC HN ES   2   2216 38.17                             127    0.60 5  163 219 
 SPBC HZ I        2216 42.54         9.8 0.13            129            163 219 
 ZAR  HZ EP   2   2216 19.79                             121   -0.06 4  204 292 
 ZAR  HE ES   2   2216 45.58                             121    0.76 4  204 292 
 ZAR  HZ I        2216 51.68         8.5 0.13            122            204 292 
 NOR  HZ EP   2   2216 22.96                             117   -0.20 4  235 235 
 NOR  HN ES   2   2216 50.90                             117    0.20 4  235 235 
 NOR  HZ I        2216 56.35         7.3 0.14            118            235 235 
 GUY2CHZ EP   4   2216 32.38                             111    1.26 0  301 235 
 GUY2CHE ES   2   2217  5.75                             111    0.87 4  301 235 
 GUY2CHZ I        2217 12.33         4.3 0.24                           301 235 
                                                                                
