 2014  5 5 2040 29.8 L   6.160 -73.645110.9  RSN  9 0.4 1.7LRSN                1
 GAP= 77        0.93       3.1     3.8  7.2  0.1240E+01  0.3412E+01 -0.4455E+01E
 Epicentro: LA PAZ - SANTANDER                                                 3
 OLDACT:REG 14-05-06 02:53 OP:spq  STATUS:               ID:20140505203817     3
 ACTION:UPD 15-03-16 16:55 OP:nd   STATUS:               ID:20140505204029 L   I
 OLDACT:UP  14-05-06 04:12 OP:spq  STATUS:               ID:20140505203817     3
 2014-05-05-2038-17M.COL___217                                                 6
 STAT SP IPHASW D HRMM SECON CODA AMPLIT PERI AZIMU VELO AIN AR TRES W  DIS CAZ7
 RUS  HZ EP   1   2040 48.41                             146    0.56 7 68.8 115 
 RUS  HE ES   1   2041  2.19                             146    0.26 7 68.8 115 
 RUS  HZ I        2041  4.28         7.0 0.24            143           68.8 115 
 SPBC HZ EP       2040 48.01                             144    0.4110 73.5 220 
 SPBC HN ES       2041  1.04                             144   -0.4510 73.5 220 
 SPBC HZ I        2041  2.82        15.9 0.24            136           73.5 220 
 PTB  HZ EP       2040 48.82                             135   -0.7110 99.1 295 
 PTB  HE ES       2041  4.79                             135   -0.1410 99.1 295 
 PTB  HZ I        2041  7.52        16.9 0.12            131           99.1 295 
 BRR  HE ES   1   2041  6.24                             133    0.44 7  105 356 
 PAM  SE ES   1   2041 17.56                             119   -0.33 7  167  39 
 CHI  HZ EP   1   2040 56.93                             119   -0.05 7  170 183 
 CHI  HN ES   1   2041 18.20                             119    0.01 7  170 183 
 CHI  HZ I        2041 30.31         4.0 3.16            114            170 183 
 ZAR  HZ EP       2040 59.47                             114   -0.23 9  199 318 
 ZAR  HE ES       2041 23.46                             114    0.43 9  199 318 
 ZAR  HZ I        2041 27.23        10.5 0.42            112            199 318 
 HEL  HZ EP   1   2041  1.45                             113    0.24 6  209 271 
 HEL  HN ES   1   2041 26.34                             113    0.63 6  209 271 
 HEL  HZ I        2041 33.15         5.9 0.44            109            209 271 
 URE  HE ES   4   2041 36.55                             106   -1.52 0  273 310 
 SML  HN ES   1   2041 42.29                             105   -0.52 5  296 351 
                                                                                
