 2012  4 5 2338 50.2 L   6.765 -73.151148.0  RSN  8 0.4 1.9LRSN                1
 GAP=137        0.84       4.4     4.8  6.9  0.9661E+00  0.8361E+01  0.7067E+01E
 Epicentro: LOS SANTOS - SANTANDER                                             3
 ACTION:UPD 12-07-05 11:50 OP:tino STATUS:               ID:20120405233850 L   I
 2012-04-05-2337-59S.COL___204                                                 6
 STAT SP IPHASW D HRMM SECON CODA AMPLIT PERI AZIMU VELO AIN AR TRES W  DIS CAZ7
 BAR2 SZ EP   1   2339  9.97                             172     0.0 7   19 190 
 BAR2 SZ ES   1   2339 25.29                             172    -0.2 7   19 190 
 BAR2 SZ I        2339 27.73        21.3 0.25                            19 190 
 BRR  HZ EP   1   2339 12.05                             152     0.4 7   73 301 
 BRR  HE ES   1   2339 29.20                             152     0.8 7   73 301 
 BRR  HZ I        2339 33.17        16.5 0.17                            73 301 
 PAM  SZ EP   1   2339 12.93                             150     0.1 7   81  38 
 PAM  SN ES   1   2339 30.20                             150    -0.3 7   81  38 
 RUS  HZ EP   1   2339 13.83                             145    -0.1 7   97 176 
 RUS  HE ES   1   2339 32.32                             145    -0.1 7   97 176 
 RUS  HZ I        2339 33.88         8.0 0.34                            97 176 
 PTB  HZ EP   1   2339 16.62                             133    -0.6 7  146 260 
 PTB  HN ES   1   2339 37.68                             133    -0.6 7  146 260 
 PTB  HZ I        2339 40.97         8.9 0.15                           146 260 
 ZAR  HZ EP   2   2339 23.18                             123     0.3 4  205 293 
 ZAR  HE ES   1   2339 48.27                             123    -0.1 6  205 293 
 ZAR  HZ I        2339 53.54         9.6 0.23                           205 293 
 NOR  SZ EP   1   2339 25.48                             119    -0.3 6  232 235 
 NOR  SE ES   2   2339 54.05                             119     0.6 4  232 235 
 CHI  HZ EP   1   2339 27.97                             118     0.4 6  245 195 
 CHI  HN ES   1   2339 57.04                             118     0.3 6  245 195 
 CHI  HZ I        2340  3.21         5.6 0.36                           245 195 
                                                                                
