 2012  5 5 2023 58.1 L   6.760 -73.175144.2  RSN  6 0.4 1.8LRSN                1
 GAP=135        0.93       6.2     5.5  9.0  0.3031E+01  0.9502E+01  0.5065E+00E
 Epicentro: VILLANUEVA - SANTANDER                                             3
 ACTION:UP  12-07-05 12:02 OP:pat  STATUS:               ID:20120505202358 L   I
 2012-05-05-2020-00M.COL___192                                                 6
 STAT SP IPHASW D HRMM SECON CODA AMPLIT PERI AZIMU VELO SNR AR TRES W  DIS CAZ7
 BAR2 SZ EP   1   2024 17.75                             172     0.3 7   19 183 
 BAR2 SZ ES   1   2024 32.31                             172    -0.2 7   19 183 
 BAR2 SZ I        2024 33.84        16.8 0.22                            19 183 
 BRR  HZ EP   1   2024 19.57                             152     0.5 7   71 303 
 BRR  HZ I        2024 19.75        28.8 0.18                            71 303 
 BRR  HN ES   1   2024 35.98                             152     0.6 7   71 303 
 PAM  SZ EP   1   2024 20.54                             149     0.1 7   83  39 
 PAM  SZ I        2024 20.94         9.6 0.19                            83  39 
 PAM  SN ES   1   2024 37.35                             149    -0.6 7   83  39 
 RUS  HZ EP   1   2024 21.30                             145    -0.1 7   96 174 
 RUS  HN ES   1   2024 39.75                             145     0.2 7   96 174 
 RUS  HZ I        2024 41.89        10.5 0.30                            96 174 
 PTB  HZ EP   1   2024 24.06                             132    -0.5 7  144 260 
 PTB  HN ES   1   2024 44.78                             132    -0.4 7  144 260 
 PTB  HZ I        2024 48.06         2.8 0.12                           144 260 
 ZAR  HN ES   1   2024 55.34                             122    -0.1 6  203 294 
                                                                                
