 2013  9 5 2030 36.6 L   6.682 -73.188149.0  RSN  4 0.3 1.5LRSN                1
 GAP=223        0.88       6.9     6.6  7.1  0.2221E+02  0.5821E+01  0.1783E+01E
 Epicentro: VILLANUEVA - SANTANDER                                             3
 ACTION:UPD 13-10-22 09:20 OP:ep   STATUS:               ID:20130905203036 L   I
 OLDACT:REG 13-09-06 02:13 OP:nd   STATUS:               ID:20130905202959     3
 2013-09-05-2029-59M.COL___269                                                 6
 STAT SP IPHASW D HRMM SECON CODA AMPLIT PERI AZIMU VELO AIN AR TRES W  DIS CAZ7
 BAR2 SZ EP       2030 55.86                             176   -0.5710 9.99 176 
 BAR2 SZ ES       2031 11.88                             176   -0.0110 9.99 176 
 BAR2 SZ I        2031 12.51         8.4 0.14            175           9.99 176 
 BRR  HZ EP       2030 58.30                             152    0.0210 74.5 309 
 BRR  HN ES       2031 15.45                             152    0.2510 74.5 309 
 BRR  HZ I        2031 20.69         8.8 0.50            151           74.5 309 
 RUS  HZ EP       2031  0.47                             148    0.6510 88.1 172 
 RUS  HN ES       2031 17.78                             148   -0.1510 88.1 172 
 RUS  HZ I        2031 19.92         3.1 0.34            151           88.1 172 
 PTB  HZ EP       2031  3.06                             134   -0.18 9  141 264 
 PTB  HN ES       2031 23.99                             134   -0.03 9  141 264 
 PTB  HZ I        2031 27.52         3.1 0.14            135            141 264 
                                                                                
