 2011  6 5 2220 25.6 L   6.796 -73.074150.2  RSN  9 0.4 2.0LRSN                1
 GAP=146        0.89       4.3     6.9  7.3 -0.6177E+01 -0.6290E+00  0.7871E+01E
 Epicentro: LOS SANTOS - SANTANDER                                             3
 ACTION:UP  11-07-14 19:03 OP:ep   STATUS:               ID:20110605222025 L   I
 2011-06-05-2218-52S.COL___132                                                 6
 STAT SP IPHASW D HRMM SECON CODA AMPLIT PERI AZIMU VELO SNR AR TRES W  DIS CAZ7
 BAR2 SZ EP       2220 45.69                             170    -0.110   26 208 
 BAR2 SZ ES   2   2221  1.81                             170     0.3 5   26 208 
 BAR2 SZ I        2221  2.54        15.5 0.23                            26 208 
 PAM  SZ EP   2   2220 48.73                             153     0.7 5   73  35 
 PAM  SE ES   2   2221  5.73                             153     0.2 5   73  35 
 BRR  HZ EP       2220 47.72                             151     0.110   78 296 
 BRR  HZ I        2220 49.27        30.8 0.12                            78 296 
 BRR  HE ES       2221  4.95                             151     0.110   78 296 
 RUS  HZ EP       2220 49.65                             145    -0.110  100 181 
 RUS  HN ES   1   2221  8.44                             145    -0.1 7  100 181 
 RUS  HZ I        2221 11.93         7.6 0.48                           100 181 
 GRA  SZ EP   1   2220 51.56                             138     0.5 7  124  14 
 GRA  SZ ES   1   2221 10.10                             138    -0.9 7  124  14 
 GRA  SZ I        2221 13.23         9.3 0.14                           124  14 
 OCA  SZ EP   2   2220 54.37                             130     0.0 5  162 350 
 OCA  SZ I        2221 22.21        18.0 0.26                           162 350 
 NOR  SZ EP   1   2221  1.59                             119    -0.6 6  241 236 
 NOR  SN ES   2   2221 30.20                             119    -0.6 4  241 236 
 CHI  HZ EP   1   2221  3.42                             118    -0.3 6  250 197 
 CHI  HN ES   2   2221 34.20                             118     0.7 4  250 197 
 CHI  HZ I        2221 39.09         5.3 0.35                           250 197 
 HEL  HZ EP   2   2221  7.77                             115     0.9 4  280 256 
 HEL  HZ I        2221 44.43         4.9 0.09                           280 256 
                                                                                
