 2015  7 5 2120 57.9 L   6.827 -73.173136.4  RSN 18 0.4 2.6LRSN                1
 GAP=132        0.90       2.0     3.2  5.1 -0.5765E-01  0.8882E+01  0.1646E+01E
 Epicentro: ZAPATOCA - SANTANDER                                               3
 ACTION:UPD 15-09-08 21:47 OP:cam  STATUS:               ID:20150705212057 L   I
 OLDACT:REG 15-07-06 02:44 OP:drio STATUS:               ID:20150705211745     3
 2015-07-05-2117-45M.COL___331                                                 6
 STAT SP IPHASW D HRMM SECON CODA AMPLIT PERI AZIMU VELO AIN AR TRES W  DIS CAZ7
 BAR2 EZ EP       2121 16.54                             169    0.1110 25.9 182 
 BAR2 EZ ES       2121 30.85                             169   -0.0610 25.9 182 
 BAR2 EZ I        2121 32.34        45.1 0.16            168           25.9 182 
 PAM  EZ EP       2121 19.38                             149    0.3010 77.1  43 
 PAM  EN ES       2121 36.25                             149    0.6310 77.1  43 
 PAM  EZ I        2121 38.03       106.6 0.48            155           77.1  43 
 RUS  HZ EP       2121 20.96                             141    0.0110  104 175 
 RUS  HE ES       2121 38.45                             141   -0.5010  104 175 
 RUS  HZ I        2121 40.66        29.2 0.30            143            104 175 
 OCA  HZ EP       2121 24.71                             128   -0.44 9  157 354 
 OCA  HN ES       2121 46.08                             128   -0.35 9  157 354 
 OCA  HZ I        2121 52.58        86.3 0.44            131            157 354 
 ZAR  HZ EP       2121 29.60                             121    0.29 9  200 292 
 ZAR  HE ES       2121 54.36                             121    0.52 9  200 292 
 ZAR  HZ I        2122  0.12        58.1 0.26            122            200 292 
 NOR  HZ EP       2121 33.04                             116    0.04 8  234 233 
 NOR  HN ES       2122  0.47                             116    0.07 8  234 233 
 NOR  HZ I        2122  5.11        26.7 0.14            118            234 233 
 SML  HZ EP   4   2121 32.80                             116   -0.76 0  240 336 
 SML  HE ES       2122  1.23                             116   -0.16 8  240 336 
 SML  HZ I        2122  5.80        43.2 0.10            118            240 336 
 CHI  HZ EP       2121 34.92                             115   -0.37 8  251 194 
 CHI  HN ES       2122  3.95                             115   -0.54 8  251 194 
 CHI  HZ I        2122  8.50        11.8 0.24            117            251 194 
 ROSC BZ EP       2121 36.30                             115    0.69 8  254 210 
 ROSC BN ES       2122  4.81                             115   -0.23 8  254 210 
 ROSC BZ I        2122 14.17        24.6 0.40            117            254 210 
 HEL  HZ EP       2121 37.35                             113   -0.03 8  270 255 
 HEL  HN ES       2122  7.56                             113   -0.64 8  270 255 
 HEL  HZ I        2122 16.11        14.3 0.24            115            270 255 
 URE  HZ EP   4   2121 40.62                             112    2.56 0  280 292 
 URE  HN ES       2122  8.86                             112   -0.55 7  280 292 
 URE  HZ I        2122 11.54        33.5 0.12            114            280 292 
 GUY2CHZ EP       2121 41.52                             110    0.54 7  300 234 
 GUY2CHN ES       2122 15.06                             110    0.46 7  300 234 
 GUY2CHZ I        2122 23.91        14.0 0.30                           300 234 
 PTGC HZ EP   4   2121 39.96                             109   -1.80 0  313 158 
 PTGC HN ES   4   2122 13.47                             109   -2.52 0  313 158 
 DBB  SZ EP       2121 44.44                             108   -0.17 7  336 274 
 DBB  SZ ES       2122 21.58                             108    0.51 7  336 274 
 DBB  SZ I        2122 28.04        47.3 0.70            110            336 274 
 TOL  SZ EP       2121 45.38                             108   -0.39 7  344 224 
 TOL  SN ES       2122 23.82                             108    0.70 7  344 224 
 TOL  SZ I        2122 31.78        14.9 0.50            109            344 224 
 MON  HZ EP   4   2121 44.17                             107   -1.87 0  350 308 
 MON  HE ES       2122 23.01                             107   -0.60 6  350 308 
 MON  HZ I        2122 23.28        12.9 0.18            109            350 308 
 PRA  HZ EP       2121 50.76                             105   -0.45 6  393 209 
 PRA  HE ES       2122 32.58                             105   -0.24 6  393 209 
 PRA  HZ I        2122 38.46        15.0 0.34            107            393 209 
 ORTC HZ EP       2121 51.97                             105    0.41 6  396 216 
 ORTC HN ES       2122 33.81                             105    0.38 6  396 216 
 ORTC HZ I        2122 39.67        10.4 0.56            107            396 216 
 SJC  HZ EP   4   2121 51.11                             104   -1.54 0  405 327 
 SJC  HN ES   4   2122 32.83                             104   -2.56 0  405 327 
 SJC  HZ I        2122 35.64         4.7 0.30            106            405 327 
                                                                                
