 2014 10 5 2045 47.3 L   6.776 -73.136152.7  RSN 15 0.4 2.0LRSN                1
 GAP=139        0.90       2.8     3.7  5.2 -0.2175E+01  0.3469E+01  0.8345E+00E
 Epicentro: LOS SANTOS - SANTANDER                                             3
 ACTION:UPD 14-11-29 23:47 OP:nd   STATUS:               ID:20141005204547 L   I
 OLDACT:REG 14-10-06 02:58 OP:spq  STATUS:               ID:20141005203750     3
 2014-10-05-2037-50M.COL___289                                                 6
 STAT SP IPHASW D HRMM SECON CODA AMPLIT PERI AZIMU VELO AIN AR TRES W  DIS CAZ7
 BAR2 SZ EP       2046  7.83                             172    0.0710 20.9 194 
 BAR2 SZ ES   1   2046 23.32                             172   -0.37 7 20.9 194 
 BAR2 SZ I        2046 24.39        37.4 0.16            170           20.9 194 
 BRR  HZ IP     C 2046  9.69                             153    0.3210 73.5 300 
 BRR  HE ES       2046 27.25                             153    0.7010 73.5 300 
 BRR  HZ I        2046 30.19        19.0 0.34            150           73.5 300 
 PAM  SZ EP     C 2046 10.77                             152    0.3910 78.8  38 
 PAM  SE ES       2046 28.01                             152   -0.3510 78.8  38 
 PAM  SZ I        2046 30.10        13.6 0.56            154           78.8  38 
 RUS  HZ EP       2046 11.68                             146    0.0910 97.8 177 
 RUS  HN ES   1   2046 30.45                             146   -0.06 7 97.8 177 
 RUS  HZ I        2046 31.67         7.1 0.20            147           97.8 177 
 PTB  HZ EP       2046 14.73                             133   -0.21 9  148 260 
 PTB  HN ES       2046 35.90                             133   -0.56 9  148 260 
 PTB  HZ I        2046 38.82        10.6 0.14            132            148 260 
 SPBC HZ EP       2046 16.75                             131    0.50 9  162 220 
 SPBC HE ES       2046 38.99                             131    0.18 9  162 220 
 SPBC HZ I        2046 45.76        23.6 0.18            130            162 220 
 OCA  HZ EP       2046 16.31                             131   -0.15 9  163 353 
 OCA  HN ES   1   2046 38.96                             131   -0.21 7  163 353 
 OCA  HZ I        2046 43.81         7.6 0.25            131            163 353 
 ZAR  HZ EP   1   2046 20.92                             124    0.46 6  206 293 
 ZAR  HN ES       2046 46.08                             124   -0.21 8  206 293 
 ZAR  HZ I        2046 53.42        11.6 0.44            123            206 293 
 CHI  HZ EP   1   2046 24.79                             119   -0.40 6  246 196 
 CHI  HN ES   1   2046 54.20                             119   -0.51 6  246 196 
 CHI  HZ I        2046 58.96         2.7 0.42            119            246 196 
 SML  HZ EP       2046 24.72                             119    0.04 8  247 335 
 SML  HN ES   1   2046 53.19                             119   -0.61 6  247 335 
 SML  HZ I        2047  0.38         9.8 0.19            119            247 335 
 GUY2CHZ EP   4   2046 32.37                             114    1.16 0  301 235 
 GUY2CHE ES   1   2047  6.45                             114    1.03 5  301 235 
 GUY2CHZ I        2047 13.15         3.1 0.26                           301 235 
 RREF HZ EP       2046 33.10                             112   -0.59 7  321 230 
 RREF HN ES       2047  9.43                             112   -0.41 7  321 230 
 RREF HZ I        2047 12.26         3.6 0.28            112            321 230 
 TOL  SZ EP   4   2046 36.85                             111    1.09 0  342 225 
 TOL  SE ES   4   2047 15.81                             111    2.29 0  342 225 
 TOL  SZ I        2047 20.13         7.0 0.40            111            342 225 
 MON  HZ EP   4   2046 35.34                             110   -1.57 0  356 309 
 MON  HE ES   4   2047 13.16                             110   -2.42 0  356 309 
 MON  HZ I        2047 18.74         2.0 0.38            110            356 309 
 PRA  HN ES   4   2047 21.32                             108   -1.36 0  390 210 
 PRA  HZ I        2047 29.45         5.5 0.30            108            390 210 
                                                                                
