 2015  6 5 2354 49.0 L   6.742 -73.111142.9  RSN  6 0.2 1.5LRSN                1
 GAP=237        0.41       2.7     2.9  3.8  0.3286E+01  0.4135E+01  0.3230E+01E
 Epicentro: LOS SANTOS - SANTANDER                                             3
 ACTION:UPD 15-09-10 22:10 OP:cam  STATUS:               ID:20150605235449 L   I
 OLDACT:DUP 15-06-06 10:25 OP:spq  STATUS:               ID:20150605234752d    3
 2015-06-05-2347-50M.COL___312                                                 6
 STAT SP IPHASW D HRMM SECON CODA AMPLIT PERI AZIMU VELO AIN AR TRES W  DIS CAZ7
 BAR2 EZ EP       2355  8.23                             172    0.0410 18.3 206 
 BAR2 EZ ES   1   2355 22.99                             172   -0.17 7 18.3 206 
 BAR2 EZ I        2355 24.16        11.6 0.14            168           18.3 206 
 BRR  HZ EP   1   2355 10.02                             150   -0.21 7 77.8 301 
 BRR  HN ES       2355 26.77                             150   -0.0210 77.8 301 
 BRR  HZ I        2355 27.47         9.7 0.30            148           77.8 301 
 RUS  HZ EP   1   2355 11.96                             145   -0.04 7 93.9 178 
 RUS  HE ES   1   2355 30.20                             145    0.27 7 93.9 178 
 RUS  HZ I        2355 31.55         3.6 0.30            145           93.9 178 
 ZAR  HN ES       2355 47.75                             121    0.21 8  210 293 
 ZAR  HZ I        2355 53.24         2.9 0.32            120            210 293 
 NOR  HZ EP       2355 24.57                             118    0.06 8  234 236 
 NOR  HE ES       2355 52.02                             118   -0.19 8  234 236 
 NOR  HZ I        2355 55.59         2.5 0.16            117            234 236 
 GUY2CHZ EP   4   2355 34.65                             112    2.23 0  301 236 
 GUY2CHE ES   4   2356  9.18                             112    2.89 0  301 236 
 GUY2CHZ I        2356 13.00         1.3 0.30                           301 236 
                                                                                
