 2014 11 5 2141 59.0 L   6.757 -73.344125.7  RSN  4 0.4 0.9LRSN                1
 GAP=149        0.78       6.6     5.4  9.8 -0.1408E+02  0.2394E+02 -0.2158E+02E
 Epicentro: ZAPATOCA - SANTANDER                                               3
 ACTION:UPD 14-12-19 15:39 OP:nd   STATUS:               ID:20141105214159 L   I
 OLDACT:REG 14-11-06 05:34 OP:spq  STATUS:               ID:20141105213749     3
 2014-11-05-2137-49M.COL___286                                                 6
 STAT SP IPHASW D HRMM SECON CODA AMPLIT PERI AZIMU VELO AIN AR TRES W  DIS CAZ7
 BAR2 SZ EP       2142 16.24                             168   -0.0810 25.6 136 
 BAR2 SZ ES   1   2142 29.31                             168   -0.49 7 25.6 136 
 BAR2 SZ I        2142 30.17         2.8 0.20            168           25.6 136 
 PAM  SZ EP   1   2142 20.88                             141    0.36 7 96.0  48 
 PAM  SN ES   1   2142 37.36                             141    0.10 7 96.0  48 
 PAM  SZ I        2142 38.34         1.6 0.26            142           96.0  48 
 RUS  HN ES   1   2142 38.12                             139    0.31 7 99.9 163 
 RUS  HZ I        2142 39.69         0.9 0.56            140           99.9 163 
 PTB  HZ EP       2142 21.94                             132   -0.4010  125 259 
 PTB  HE ES   1   2142 41.07                             132    0.56 7  125 259 
 PTB  HZ I        2142 42.09         1.9 0.13            133            125 259 
                                                                                
