 2016  8 5 2048 43.7 L   6.762 -73.211145.1  RSN  4 0.1 1.5LRSN                1
 GAP=236        0.38       2.6     3.0  4.4  0.2588E+01  0.5298E+01 -0.1399E+01E
 Epicentro: ZAPATOCA - SANTANDER                                               3
 ACTION:UPD 16-10-29 15:32 OP:rebc STATUS:               ID:20160805204843 L   I
 OLDACT:REG 16-08-06 03:13 OP:ak   STATUS:               ID:20160805203745     3
 2016-08-05-2038-00M.COL___363                                                 6
 STAT SP IPHASW D HRMM SECON CODA AMPLIT PERI AZIMU VELO AIN AR TRES W  DIS CAZ7
 BAR2 EZ EP       2049  3.01                             172   -0.1410 19.1 170 
 BAR2 EZ ES       2049 18.32                             172   -0.0110 19.1 170 
 BAR2 EZ I        2049 19.45         7.8 0.06                          19.1 170 
 RUS  HZ EP   2   2049  7.00                             145   -0.12 5 97.2 172 
 RUS  HN ES       2049 25.56                             145    0.1610 97.2 172 
 RUS  HZ I        2049 27.06         3.2 0.42                          97.2 172 
 SPBC HZ EP   2   2049 11.62                             130    0.23 5  155 218 
 SPBC HN ES       2049 32.88                             130   -0.13 9  155 218 
 SPBC HZ I        2049 37.03         4.8 0.13                           155 218 
 ZAR  HZ EP   2   2049 15.86                             123    0.30 4  199 294 
 ZAR  HN ES       2049 40.48                             123    0.04 9  199 294 
 ZAR  HZ I        2049 46.10         3.0 0.30                           199 294 
                                                                                
