 2013  2 5 2107 24.2 L   6.742 -73.526114.4  RSN  5 0.5 1.6LRSN                1
 GAP=105        1.14       5.8     4.8  8.9  0.2558E+01  0.2902E+01  0.6657E+01E
 Epicentro: EL CARMEN DE CHUCURI - SANTANDER                                   3
 ACTION:UPD 13-03-12 09:30 OP:ep   STATUS:               ID:20130205210724 L   I
 2013-02-05-2058-50M.COL___191                                                 6
 STAT SP IPHASW D HRMM SECON CODA AMPLIT PERI AZIMU VELO AIN AR TRES W  DIS CAZ7
 BAR2 SZ EP       21 7 40.92                             159    0.2210 41.4 114 
 BAR2 SZ ES       21 7 53.34                             159   -0.2310 41.4 114 
 BAR2 SZ I        21 7 53.93        24.6 0.14            158           41.4 114 
 BRR  HZ EP       21 7 41.08                             157    0.5510 45.4 333 
 BRR  HN ES       21 7 53.86                             157    0.5910 45.4 333 
 PTB  HZ EP       21 7 44.67                             134   -0.0910  105 258 
 PTB  HZ I        21 7 44.84         5.4 0.16            134            105 258 
 PTB  HN ES       21 8  0.08                             134   -0.7310  105 258 
 RUS  HZ EP       21 7 45.65                             134    0.1910  106 152 
 RUS  HN ES       21 8  2.16                             134    0.1110  106 152 
 RUS  HN I        21 8  2.71         4.2 0.20            134            106 152 
 PAM  SZ EP   1   21 7 45.87                             132   -0.19 7  113  54 
 PAM  SN ES   1   21 8  2.18                             132   -0.94 7  113  54 
                                                                                
