 2012  4 5 2137 24.6 L   6.805 -73.158144.0  RSN  6 0.4 1.5LRSN                1
 GAP=135        0.77       5.5     5.0  7.3  0.5750E+01  0.3433E+01 -0.7921E+01E
 Epicentro: LOS SANTOS - SANTANDER                                             3
 ACTION:UPD 12-07-05 11:50 OP:tino STATUS:               ID:20120405213724 L   I
 2012-04-05-2130-00M.COL___196                                                 6
 STAT SP IPHASW D HRMM SECON CODA AMPLIT PERI AZIMU VELO AIN AR TRES W  DIS CAZ7
 BAR2 SZ ES   1   2137 58.91                             170    -0.3 7   24 187 
 BAR2 SZ I        2138  0.41         7.3 0.45                            24 187 
 BRR  HZ EP   1   2137 45.93                             153     0.4 7   70 299 
 BRR  HE ES   1   2138  2.30                             153     0.5 7   70 299 
 BRR  HZ I        2138  3.66         7.9 0.15                            70 299 
 PAM  SZ EP       2137 46.87                             150     0.210   78  41 
 PAM  SN ES   2   2138  3.11                             150    -0.8 5   78  41 
 RUS  HZ EP   1   2137 48.02                             143    -0.2 7  101 175 
 RUS  HN ES   1   2138  6.95                             143     0.3 7  101 175 
 RUS  HZ I        2138  8.10         3.3 0.21                           101 175 
 PTB  HZ EP   2   2137 50.78                             132    -0.6 5  147 259 
 PTB  HN ES   2   2138 11.81                             132    -0.4 5  147 259 
 ZAR  HZ EP   1   2137 56.75                             122    -0.1 6  203 292 
 ZAR  HE ES   1   2138 21.69                             122    -0.2 6  203 292 
                                                                                
