 2013  4 5 2032 37.0 L   6.821 -73.048141.7  RSN  7 0.3 2.4LRSN                1
 GAP=249        0.61       3.8     4.3  4.4  0.9319E+01  0.6039E+01  0.4153E+01E
 Epicentro: LOS SANTOS - SANTANDER                                             3
 ACTION:UPD 13-05-22 14:36 OP:EP   STATUS:               ID:20130405203237 L   I
 2013-04-05-2030-00M.COL___245                                                 6
 STAT SP IPHASW D HRMM SECON CODA AMPLIT PERI AZIMU VELO AIN AR TRES W  DIS CAZ7
 BAR2 SZ EP       2032 56.43                             168    0.1310 29.3 210 
 BAR2 SZ ES       2033 11.10                             168   -0.2410 29.3 210 
 BAR2 SZ I        2033 12.52        73.5 0.20            159           29.3 210 
 BRR  HZ EP       2032 58.30                             149    0.0510 79.9 293 
 BRR  HE ES       2033 15.11                             149    0.2910 79.9 293 
 BRR  HE I        2033 15.43        60.2 0.22            146           79.9 293 
 RUS  HZ EP       2033  0.42                             142   -0.1110  103 182 
 RUS  HN ES       2033 19.02                             142    0.1510  103 182 
 RUS  HN I        2033 22.70        16.5 0.34            138            103 182 
 PTB  HZ EP   4   2033  3.38                             129   -1.31 0  159 259 
 PTB  HN ES   4   2033 24.15                             129   -2.12 0  159 259 
 PTB  HN I        2033 29.05        35.1 0.42            126            159 259 
 ZAR  HZ EP   2   2033  9.89                             120   -0.28 4  213 290 
 ZAR  HN ES       2033 35.51                             120   -0.51 8  213 290 
 ZAR  HN I        2033 39.96        19.1 0.22            120            213 290 
 CHI  HZ EP       2033 15.04                             116   -0.03 8  254 197 
 CHI  HN ES   1   2033 44.38                             116   -0.38 6  254 197 
 CHI  HN I        2033 51.73        16.8 0.32            115            254 197 
 HEL  HZ EP   1   2033 18.79                             113    0.53 6  283 256 
 HEL  HN ES       2033 50.69                             113    0.26 7  283 256 
 HEL  HN I        2033 53.10         9.6 0.54            112            283 256 
                                                                                
