 2013  6 5 2233  1.6 L   6.788 -73.120150.5  RSN  5 0.3 1.9LRSN                1
 GAP=140        0.80       4.7     7.1  6.9  0.1389E+01  0.6818E+01  0.7913E+00E
 Epicentro: LOS SANTOS - SANTANDER                                             3
 ACTION:UPD 14-01-08 09:52 OP:ep   STATUS:               ID:20130605223301 L   I
 OLDACT:DUP 13-06-06 00:04 OP:stll STATUS:               ID:20130605222845d    3
 2013-06-05-2228-44M.COL___225                                                 6
 STAT SP IPHASW D HRMM SECON CODA AMPLIT PERI AZIMU VELO AIN AR TRES W  DIS CAZ7
 BAR2 SZ EP       2233 21.64                             171   -0.1910 22.7 198 
 BAR2 SZ ES       2233 37.62                             171    0.0410 22.7 198 
 BAR2 SZ I        2233 38.36        10.3 0.38            170           22.7 198 
 GIR2 SZ EP       2233 22.04                             167    0.1110 33.2 346 
 GIR2 SZ ES       2233 37.12                             167   -0.6410 33.2 346 
 BRR  HZ EP       2233 23.39                             152   -0.0910 74.3 298 
 BRR  HN ES       2233 40.87                             152    0.3510 74.3 298 
 BRR  HN I        2233 42.54        23.5 0.22            151           74.3 298 
 PAM  SN ES       2233 42.32                             152    0.3010 76.7  37 
 RUS  HN ES       2233 44.68                             145    0.1110 99.1 178 
                                                                                
