 2011  5 5 2104 30.0 L   6.767 -73.093147.4  RSN 11 0.3 2.7LRSN                1
 GAP=145        0.63       3.3     4.6  4.4 -0.8524E+01  0.5654E+01  0.8782E+00E
 Epicentro: LOS SANTOS - SANTANDER                                             3
 ACTION:UP  11-06-29 08:51 OP:tino STATUS:               ID:20110505210430 L   I
 2011-05-05-2102-15S.COL___132                                                 6
 STAT SP IPHASW D HRMM SECON CODA AMPLIT PERI AZIMU VELO SNR AR TRES W  DIS CAZ7
 BAR2 SZ EP   1   21 4 49.70                             171    -0.1 8   22 207 
 BAR2 SZ ES   1   21 5  4.84                             171    -0.4 8   22 207 
 BAR2 SZ I        21 5  6.52       118.3 0.23                            22 207 
 PAM  SZ EP   1   21 4 52.45                             151     0.1 8   77  34 
 PAM  SN ES   1   21 5  9.90                             151     0.1 8   77  34 
 BRR  HZ EP   1   21 4 51.57                             150    -0.1 8   78 299 
 BRR  HZ I        21 4 51.86       258.4 0.17                            78 299 
 BRR  HE ES   1   21 5  8.81                             150     0.2 8   78 299 
 RUS  HZ EP   1   21 4 53.51                             145    -0.1 8   97 179 
 RUS  HN ES   1   21 5 12.43                             145     0.4 8   97 179 
 RUS  HZ I        21 5 13.56        45.6 0.23                            97 179 
 BRI  SZ EP   1   21 4 54.16                             141     0.0 8  110  17 
 BRI  SZ ES   1   21 5 13.40                             141     0.4 8  110  17 
 BRI  SZ I        21 5 17.71        58.9 0.34                           110  17 
 GRA  SZ IP       21 4 55.43                             137    -0.110  128  14 
 GRA  SZ ES   1   21 5 15.08                             137    -0.4 7  128  14 
 GRA  SZ I        21 5 17.45        60.6 0.32                           128  14 
 NOR  SZ EP   1   21 5  5.69                             118    -0.4 6  237 236 
 NOR  SE ES   1   21 5 34.19                             118    -0.1 6  237 236 
 HEL  HZ EP   1   21 5 11.54                             115     0.7 6  277 257 
 HEL  HZ I        21 5 48.38        33.7 0.34                           277 257 
 GUY  SZ EP   1   21 5 14.37                             112     0.1 6  306 236 
 GUY  SZ I        21 5 57.97        36.8 0.52                           306 236 
 RREF HZ EP   1   21 5 16.75                             111     0.3 5  324 231 
 RREF HE ES   2   21 5 52.31                             111    -0.4 4  324 231 
 RREF HZ I        21 6  1.88        20.0 0.27                           324 231 
 PRA  HZ EP   1   21 5 23.32                             107    -0.2 5  392 211 
                                                                                
