 2017 12 5 2003 45.1 L   6.792 -73.145138.0  RSN 10 0.5 2.0LRSN                1
 GAP=158        1.14       3.4     4.9  6.7  0.4343E+01  0.8153E+01  0.3172E+01E
 Epicentro: LOS SANTOS - SANTANDER                                             3
 ACTION:UPD 18-01-04 13:17 OP:rebc STATUS:               ID:20171205200345 L   I
 OLDACT:REG 17-12-06 02:34 OP:dhb  STATUS:               ID:20171205195739     3
 2017-12-05-1958-00M.COL___498                                                 6
 STAT SP IPHASW D HRMM SECON CODA AMPLIT PERI AZIMU VELO AIN AR TRES W  DIS CAZ7
 BAR2 EZ EP       20 4  3.29                             170   -0.5010 22.5 191 
 BAR2 EZ ES       20 4 18.29                             170   -0.0710 22.5 191 
 BAR2 EZ I        20 4 19.93        31.5 0.18            169           22.5 191 
 RUS  HZ IP     C 20 4  7.66                             142   -0.3810 99.7 176 
 RUS  HE ES       20 4 26.60                             142    0.6810 99.7 176 
 RUS  HZ I        20 4 27.37        16.0 0.32            143           99.7 176 
 PTB  HZ EP       20 4 10.66                             130   -0.79 9  148 259 
 PTB  HN ES       20 4 31.41                             130   -0.58 9  148 259 
 PTB  HZ I        20 4 33.83         8.0 0.24            130            148 259 
 OCA  HZ EP       20 4 13.43                             128    0.52 9  161 353 
 OCA  HN ES       20 4 35.13                             128    0.53 9  161 353 
 OCA  HZ I        20 4 39.23        36.6 0.42            129            161 353 
 YPLC HZ EP       20 4 13.92                             125   -0.35 9  176 151 
 YPLC HN ES       20 4 36.98                             125   -0.03 9  176 151 
 YPLC HZ I        20 4 38.80         9.9 0.28            126            176 151 
 ZAR  HZ EP       20 4 16.81                             120   -0.29 9  204 292 
 ZAR  HN ES       20 4 42.42                             120    0.36 9  204 292 
 ZAR  HZ I        20 4 48.01         7.2 0.26            120            204 292 
 CHI  HZ EP       20 4 21.81                             115   -0.49 8  248 195 
 CHI  HN ES       20 4 51.69                             115    0.39 8  248 195 
 CHI  HZ I        20 4 56.89         2.8 0.24            116            248 195 
 GUY2CHZ EP       20 4 28.95                             111    0.63 7  301 235 
 GUY2CHE ES   4   20 5  5.66                             111    3.63 0  301 235 
 GUY2CHZ I        20 5  8.49         2.1 0.26                           301 235 
 PRA  HZ EP       20 4 38.21                             105   -0.08 6  391 210 
 PRA  HN ES       20 5 20.71                             105    0.94 6  391 210 
 PRA  HZ I        20 5 25.12         3.7 0.26            106            391 210 
 ORTC HZ EP       20 4 38.87                             105    0.17 6  395 216 
 ORTC HE ES       20 5 21.17                             105    0.68 6  395 216 
 ORTC HZ I        20 5 27.82         2.7 0.48            105            395 216 
                                                                                
