 2012  3 5 2134 10.6 L   6.794 -73.141144.9  RSN 20 0.4 3.2LRSN                1
 GAP=103        0.97       3.4     3.9  5.4  0.3416E+00  0.3872E+01  0.4111E+01E
 ACTION:UP  12-03-31 23:17 OP:EP   STATUS:               ID:20120305213410 L   I
 2012-03-05-2130-00M.COL___191                                                 6
 STAT SP IPHASW D HRMM SECON CODA AMPLIT PERI AZIMU VELO SNR AR TRES W  DIS CAZ7
 BAR2 SZ IP       2134 30.13                             171     0.010   23 191 
 BAR2 SZ ES   1   2134 44.52                             171    -0.8 7   23 191 
 BAR2 SZ I        2134 46.23       590.4 0.25                            23 191 
 BRR  HZ EP       2134 32.09                             152     0.410   72 299 
 BRR  HE ES   1   2134 48.80                             152     0.7 7   72 299 
 BRR  HZ I        2134 53.68       454.2 0.14                            72 299 
 PAM  SZ EP       2134 33.02                             151     0.310   78  39 
 PAM  SZ I        2134 33.39       249.8 0.17                            78  39 
 PAM  SN ES   1   2134 49.78                             151    -0.2 7   78  39 
 RUS  HZ EP       2134 34.03                             144    -0.210  100 176 
 RUS  HE ES   1   2134 52.24                             144    -0.4 7  100 176 
 RUS  HZ I        2134 54.34       150.1 0.36                           100 176 
 PTB  HZ EP       2134 36.68                             132    -0.8 9  148 259 
 PTB  HN ES   1   2134 58.56                             132     0.0 7  148 259 
 OCA  SZ EP   1   2134 38.90                             129     0.0 7  161 353 
 OCA  SZ ES   1   2135  0.87                             129    -0.1 7  161 353 
 YOP  SZ IP       2134 40.85                             126     0.4 9  178 153 
 YOP  SZ I        2134 41.70       109.9 0.18                           178 153 
 YOP  SN ES   1   2135  4.66                             126     0.8 7  178 153 
 ZAR  HZ EP       2134 43.10                             122     0.1 9  205 292 
 ZAR  HN ES   1   2135  8.81                             122     0.4 6  205 292 
 ZAR  HZ I        2135 15.00       244.8 0.24                           205 292 
 NOR  SZ EP       2134 46.28                             118     0.0 8  235 235 
 NOR  SN ES   1   2135 13.95                             118    -0.2 6  235 235 
 CHI  HZ EP   1   2134 48.36                             117     0.2 6  248 195 
 CHI  HZ I        2135 20.89        80.7 0.33                           248 195 
 ROSC BZ EP   1   2134 48.56                             116    -0.1 6  252 211 
 ROSC BZ I        2135 26.63       152.0 0.47                           252 211 
 HEL  HZ EP   1   2134 50.53                             114    -0.3 6  272 256 
 HEL  HZ I        2135 29.27       121.4 0.48                           272 256 
 VIL  SZ EP   1   2134 53.97                             112     0.1 5  303 192 
 VIL  SN ES   2   2135 27.54                             112    -0.2 4  303 192 
 VIL  SZ I        2135 33.00        55.3 0.65                           303 192 
 GUY  SZ EP   1   2134 55.12                             112     0.7 5  304 235 
 RREF HZ EP   1   2134 56.99                             111     0.3 5  322 230 
 RREF HZ I        2135 38.89        85.6 0.48                           322 230 
 TOL  SZ EP   1   2134 59.05                             109     0.3 5  343 225 
 SDV  BZ EP       2134 59.89                             108    -0.7 6  360  50 
 PRA  HZ EP   1   2135  3.78                             106    -0.3 4  392 210 
 PAL  HZ EP   1   2135  5.31                             106    -0.4 4  406 239 
 YOT  HZ EP   1   2135 12.79                             103    -0.8 4  472 229 
 YOT  HZ I        2136 11.10        16.8 0.65                           472 229 
                                                                                
