 2012  2 5 2331 12.0 L   6.248 -73.828 96.6  RSN  5 0.2 1.0LRSN                1
 GAP=127        0.40       3.9     2.1  6.9  0.6181E+00  0.5547E+01  0.2170E+01E
 ACTION:UP  12-03-07 16:28 OP:epov STATUS:               ID:20120205233112 L   I
 2012-02-05-2330-00M.COL___188                                                 6
 STAT SP IPHASW D HRMM SECON CODA AMPLIT PERI AZIMU VELO SNR AR TRES W  DIS CAZ7
 PTB  HZ EP       2331 28.48                             139   -0.0710 76.6 295 
 PTB  HZ I        2331 29.91         2.4 0.10                          76.6 295 
 PTB  HN ES   3   2331 41.58                             139    0.10 2 76.6 295 
 BAR2 SZ ES   3   2331 43.23                             137    0.58 2 80.9  62 
 RUS  HZ EP       2331 30.28                             134   -0.1710 91.3 115 
 RUS  HZ I        2331 30.90         2.3 0.36                          91.3 115 
 RUS  HE ES   1   2331 44.92                             134    0.05 7 91.3 115 
 NOR  SZ EP       2331 34.70                             121    0.23 9  138 237 
 NOR  SN ES   1   2331 51.91                             121   -0.10 7  138 237 
 CHI  HZ EP   2   2331 39.53                             114    0.07 4  179 177 
 CHI  HZ I        2331 50.62         1.5 0.88                           179 177 
                                                                                
