 2013  2 5 2125 54.3 L   6.805 -73.187143.2  RSN  7 0.3 2.5LRSN 2.9WRSN        1
 SPEC AVERAGE  MO 13.5 ST  7.0 OM  1.9 f0 5.24 R0.3060 AL 2.70 WI 22.1 MW  2.9 3
 SPEC SD       MO  0.3 ST  5.0 OM  0.7 f0 1.47 R0.0926 AL      WI      MW  0.2 3
 GAP=131        0.86       3.8     3.9  6.4 -0.2987E+01  0.2764E+01  0.8734E+01E
 Epicentro: ZAPATOCA - SANTANDER                                               3
 SPEC RUS HH Z MO 13.0 ST  5.1 OM  0.6 f0 7.10 R0.2070 AL 1.76 WI 13.6 MW  2.6 3
 SPEC RUS HH Z T212617 K 0.000 GD  175 VP 7.60 DE 3.20 Q0300.0 QA 0.60 VS 4.20 3
 SPEC PAM SH Z MO 13.7 ST 15.4 OM  1.3 f0 6.13 R0.2398 AL 3.16 WI 16.5 MW  3.1 3
 SPEC PAM SH Z T212616 K 0.000 GD  164 VP 7.60 DE 3.20 Q0300.0 QA 0.60 VS 4.20 3
 SPEC CHI HH N MO 13.6 ST  1.8 OM  1.7 f0 3.30 R0.4455 AL 2.45 WI 34.9 MW  3.0 3
 SPEC CHI HH N T2127 1 K 0.000 GD  286 VS 4.20 DE 3.20 Q0300.0 QA 0.60 VS 4.20 3
 SPEC BRR HH N MO 13.7 ST  6.0 OM  2.1 f0 4.43 R0.3318 AL 3.44 WI 23.4 MW  3.1 3
 SPEC BRR HH N T212631 K 0.000 GD  158 VS 4.20 DE 3.20 Q0300.0 QA 0.60 VS 4.20 3
 ACTION:UPD 13-03-12 09:30 OP:ep   STATUS:               ID:20130205212554 L   I
 2013-02-05-2118-50M.COL___196                                                 6
 STAT SP IPHASW D HRMM SECON CODA AMPLIT PERI AZIMU VELO AIN AR TRES W  DIS CAZ7
 BAR2 SZ EP       2126 13.46                             170   -0.1910 23.5 179 
 BAR2 SZ I        2126 29.56        69.2 0.26            168           23.5 179 
 BRR  HZ IP     D 2126 15.34                             153    0.3810 67.0 300 
 BRR  HZ I        2126 15.53        58.1 0.16            153           67.0 300 
 BRR  HN ES       2126 31.62                             153    0.5610 67.0 300 
 PAM  SZ IP       2126 16.55                             149    0.1210 80.0  42 
 PAM  SZ I        2126 16.72        60.3 0.20            152           80.0  42 
 PAM  SN ES       2126 33.40                             149   -0.2710 80.0  42 
 RUS  HZ EP       2126 17.63                             143   -0.2610  102 174 
 RUS  HN ES       2126 36.20                             143   -0.0810  102 174 
 RUS  HN I        2126 38.14        35.4 0.48            142            102 174 
 PTB  HZ EP       2126 20.20                             132   -0.49 9  143 258 
 PTB  HN ES       2126 40.85                             132   -0.40 9  143 258 
 PTB  HN I        2126 46.49        68.9 0.50            131            143 258 
 NOR  HZ EP       2126 29.91                             118    0.37 8  231 234 
 NOR  HN ES       2126 56.81                             118   -0.20 8  231 234 
 NOR  HN I        2127  5.22        33.2 0.14            118            231 234 
 CHI  HZ IP     C 2126 32.02                             117    0.21 8  248 194 
 CHI  HN ES       2127  1.50                             117    0.45 8  248 194 
 CHI  HN I        2127  5.80        29.2 0.40            116            248 194 
                                                                                
