 2016  4 5 2223  5.1 L   6.830 -73.173147.1  RSN  7 0.3 1.7LRSN                1
 GAP=146        0.78       3.8     4.1  5.6 -0.6364E+01  0.5583E+01  0.2632E+01E
 Epicentro: ZAPATOCA - SANTANDER                                               3
 ACTION:UPD 16-05-05 14:19 OP:rebc STATUS:               ID:20160405222305 L   I
 OLDACT:REG 16-04-06 03:40 OP:ak   STATUS:               ID:20160405221745     3
 2016-04-05-2217-45M.COL___307                                                 6
 STAT SP IPHASW D HRMM SECON CODA AMPLIT PERI AZIMU VELO AIN AR TRES W  DIS CAZ7
 BAR2 EZ EP       2223 25.12                             169    0.1510 26.3 182 
 BAR2 EZ ES       2223 40.54                             169    0.0910 26.3 182 
 BAR2 EZ I        2223 41.27        12.3 0.22            171           26.3 182 
 PAM  EZ EP       2223 27.71                             151    0.2710 76.9  43 
 PAM  EN ES       2223 44.79                             151   -0.0710 76.9  43 
 PAM  EZ I        2223 47.16        10.4 0.44            153           76.9  43 
 RUS  HZ EP       2223 29.35                             143    0.1010  104 175 
 RUS  HN ES       2223 47.92                             143   -0.1610  104 175 
 RUS  HZ I        2223 48.80         6.6 0.26            145            104 175 
 PTB  HZ EP       2223 31.40                             133   -0.58 9  145 257 
 PTB  HN ES       2223 52.68                             133   -0.26 9  145 257 
 PTB  HZ I        2223 55.77         6.4 0.14            133            145 257 
 SPBC HZ EP   2   2223 34.38                             129    0.60 5  164 217 
 SPBC HE ES       2223 56.48                             129    0.34 9  164 217 
 SPBC HZ I        2223 58.42         6.8 0.12            131            164 217 
 CHI  HZ EP       2223 43.02                             117   -0.13 8  251 194 
 CHI  HN ES       2224 12.33                             117   -0.48 8  251 194 
 GUY2CHZ EP   4   2223 50.62                             113    1.90 0  301 234 
 GUY2CHE ES       2224 23.40                             113    0.66 7  301 234 
 GUY2CHZ I        2224 31.34         2.7 0.34                           301 234 
                                                                                
