 2013  6 5 2236 59.9 L   6.800 -73.071146.3  RSN  7 0.2 1.7LRSN                1
 GAP=146        0.58       3.3     4.7  4.3  0.1560E+01  0.5682E+01  0.4935E+01E
 Epicentro: LOS SANTOS - SANTANDER                                             3
 ACTION:UPD 14-01-08 09:52 OP:ep   STATUS:               ID:20130605223700 L   I
 OLDACT:UP  13-07-15 10:33 OP:ep   STATUS:               ID:20130605223700 L   3
 OLDACT:DUP 13-06-06 01:13 OP:stll STATUS:               ID:20130605222847d    3
 2013-06-05-2228-44M.COL___225                                                 6
 STAT SP IPHASW D HRMM SECON CODA AMPLIT PERI AZIMU VELO AIN AR TRES W  DIS CAZ7
 BAR2 SZ EP       2237 19.69                             169   -0.0110 26.1 208 
 BAR2 SZ ES       2237 34.93                             169   -0.1810 26.1 208 
 BAR2 SZ I        2237 36.24         8.1 0.16            165           26.1 208 
 GIR2 SZ ES       2237 34.90                             166   -0.3010 33.7 336 
 GIR2 SZ I        2237 35.08         4.9 0.56            167           33.7 336 
 PAM  SN ES       2237 39.05                             153   -0.0310 72.4  34 
 BRR  HZ EP       2237 21.71                             150    0.1310 78.6 296 
 BRR  HN ES       2237 38.74                             150    0.2810 78.6 296 
 BRR  HE I        2237 38.95        15.7 0.18            149           78.6 296 
 RUS  HZ EP       2237 23.91                             144    0.1810  100 181 
 RUS  HN ES       2237 42.43                             144    0.1410  100 181 
 RUS  HE I        2237 44.32         9.0 0.22            143            100 181 
 PTB  HN ES   4   2237 47.46                             130   -1.89 0  156 259 
 PTB  HE I        2237 52.85        11.2 0.38            129            156 259 
 GUY2CHZ EP       2237 43.89                             112   -0.45 7  308 236 
 GUY2CHN ES   4   2238 21.02                             112    2.04 0  308 236 
                                                                                
