 2011  7 5 2101  3.7 L   6.785 -73.099145.8  RSN  7 0.3 1.6LRSN                1
 GAP=143        0.55       3.3     5.2  4.3 -0.4448E+01 -0.5167E+01 -0.1330E+00E
 Epicentro: LOS SANTOS - SANTANDER                                             3
 ACTION:UPD 12-07-25 13:58 OP:epov STATUS:               ID:20110705210103 L   I
 2011-07-05-2057-46S.COL___123                                                 6
 STAT SP IPHASW D HRMM SECON CODA AMPLIT PERI AZIMU VELO AIN AR TRES W  DIS CAZ7
 BAR2 SZ EP       21 1 23.17                             171   -0.1610 23.3 203 
 BAR2 SZ ES   1   21 1 38.19                             171   -0.46 7 23.3 203 
 BAR2 SZ I        21 1 41.95        10.6 0.58                          23.3 203 
 BTL  SZ EP       21 1 23.48                             170    0.1410 23.8 308 
 BTL  SZ ES   1   21 1 39.01                             170    0.34 7 23.8 308 
 PAM  SZ EP       21 1 25.97                             151    0.1610 75.5  36 
 PAM  SN ES   1   21 1 43.23                             151    0.18 7 75.5  36 
 BRR  HZ EP       21 1 25.06                             151   -0.1010 76.5 298 
 BRR  HZ I        21 1 30.40        15.6 0.30                          76.5 298 
 BRR  HN ES   1   21 1 41.99                             151    0.09 7 76.5 298 
 RUS  HZ EP       21 1 27.34                             144    0.0210 98.7 179 
 RUS  HN ES   2   21 1 45.90                             144    0.15 5 98.7 179 
 RUS  HZ I        21 1 48.46         3.4 0.28                          98.7 179 
 BRI  SZ EP       21 1 27.69                             141    0.1110  108  18 
 GRA  SZ EP       21 1 28.86                             137   -0.0910  126  15 
 GRA  SZ I        21 1 29.96         6.7 0.32                           126  15 
 GRA  SZ ES   2   21 1 47.81                             137   -0.84 5  126  15 
                                                                                
