 2014  3 5 2327  8.2 L   6.776 -73.129151.8  RSN  4 0.3 1.5LRSN                1
 GAP=140        0.75       4.1     4.1  8.6  0.1933E+00  0.1177E+02 -0.4640E+00E
 Epicentro: LOS SANTOS - SANTANDER                                             3
 ACTION:UPD 14-04-09 23:14 OP:nd   STATUS:               ID:20140305232708 L   I
 OLDACT:REG 14-03-05 22:52 OP:fm   STATUS:               ID:20140305232643     3
 2014-03-05-2326-43M.COL___241                                                 6
 STAT SP IPHASW D HRMM SECON CODA AMPLIT PERI AZIMU VELO AIN AR TRES W  DIS CAZ7
 PAM  SZ EP       2327 31.40                             151    0.2810 78.3  37 
 PAM  SN ES       2327 48.72                             151   -0.2710 78.3  37 
 PAM  SZ I        2327 50.67         7.2 0.48            156           78.3  37 
 RUS  HZ EP       2327 32.48                             146    0.1110 97.9 177 
 RUS  HN ES       2327 51.27                             146    0.0510 97.9 177 
 RUS  HZ I        2327 52.52         2.4 0.38            148           97.9 177 
 PTB  HZ EP   1   2327 35.06                             133   -0.73 7  149 260 
 PTB  HE ES   1   2327 57.18                             133   -0.14 7  149 260 
 PTB  HZ I        2328  2.35         4.8 0.22            134            149 260 
 ZAR  HN ES       2328  7.51                             123    0.34 8  207 293 
                                                                                
