 2016  9 5 2350  2.7 L   6.818 -73.095149.1  RSN 20 0.4 2.3LRSN                1
 GAP=123        1.04       3.1     3.7  4.8 -0.2809E+01  0.2301E+01  0.2119E+01E
 Epicentro: LOS SANTOS - SANTANDER                                             3
 ACTION:UPD 17-08-17 21:07 OP:lp   STATUS:               ID:20160905235002 L   I
 OLDACT:UP  16-09-06 05:33 OP:edw  STATUS:               ID:20160905234736     3
 OLDACT:UP  16-09-06 05:29 OP:edw  STATUS:               ID:20160905234736     3
 OLDACT:UP  16-09-06 05:28 OP:edw  STATUS:               ID:20160905234736     3
 OLDACT:REG 16-09-06 03:17 OP:edw  STATUS:               ID:20160905234736     3
 2016-09-05-2348-00M.COL___361                                                 6
 STAT SP IPHASW D HRMM SECON CODA AMPLIT PERI AZIMU VELO AIN AR TRES W  DIS CAZ7
 BAR2 EZ EP       2350 22.60                             169   -0.1610 26.7 201 
 BAR2 EZ ES       2350 38.40                             169   -0.0410 26.7 201 
 BAR2 EZ I        2350 40.36        63.7 0.30            166           26.7 201 
 PAM  EZ EP       2350 25.37                             153    0.4310 72.4  37 
 PAM  EN ES       2350 42.81                             153    0.4910 72.4  37 
 PAM  EZ I        2350 45.80        16.4 0.46            157           72.4  37 
 BRR  HZ EP       2350 24.36                             151   -0.0410 75.3 295 
 BRR  HN ES       2350 41.34                             151   -0.0210 75.3 295 
 BRR  HZ I        2350 45.39        36.7 0.28            148           75.3 295 
 RUS  HZ EP       2350 26.50                             144   -0.3610  102 179 
 RUS  HN ES       2350 45.47                             144   -0.2710  102 179 
 RUS  HZ I        2350 46.61        21.4 0.28            145            102 179 
 PTB  HZ EP   9   2350 29.45                             131   -0.98 0  154 259 
 PTB  HN ES       2350 50.02                             130   -1.09 9  154 259 
 PTB  HZ I        2350 57.03        14.4 0.11            130            154 259 
 OCA  HZ EP   2   2350 30.54                             130   -0.58 5  159 351 
 OCA  HN ES   2   2350 53.47                             130    0.15 5  159 351 
 OCA  HZ I        2350 56.16        45.6 0.16            131            159 351 
 SPBC HZ EP       2350 31.49                             129   -0.41 9  168 220 
 SPBC HN ES   4   2350 53.44                             129   -1.26 0  168 220 
 SPBC HZ I        2350 58.41        34.6 0.18            128            168 220 
 ZAR  HZ EP       2350 36.35                             122    0.56 8  209 291 
 ZAR  HN ES       2351  0.96                             122   -0.66 8  209 291 
 ZAR  HZ I        2351  5.93        20.7 0.40            122            209 291 
 NOR  HZ EP       2350 38.82                             118   -0.38 8  240 235 
 NOR  HN ES       2351  8.02                             118    0.33 8  240 235 
 NOR  HZ I        2351 12.09        11.7 0.20            118            240 235 
 CHI  HZ EP       2350 40.96                             117    0.05 8  252 196 
 CHI  HN ES       2351 10.40                             117   -0.35 8  252 196 
 CHI  HZ I        2351 13.85         9.4 0.50            118            252 196 
 ROSC BZ EP   4   2350 43.07                             117    1.61 0  257 212 
 ROSC BN ES   4   2351 15.01                             117    3.28 0  257 212 
 ROSC BZ I        2351 17.18        27.8 0.40            117            257 212 
 HEL  HZ EP       2350 44.89                             115    1.19 7  278 256 
 HEL  HN ES   4   2351 14.88                             115   -0.83 0  278 256 
 HEL  HZ I        2351 21.93         5.4 0.40            115            278 256 
 SOCV BZ EP   4   2350 44.95                             113   -0.27 0  296  57 
 SOCV BN ES       2351 17.99                             113   -0.42 7  296  57 
 VIL  EZ EP       2350 46.56                             112   -0.02 7  306 193 
 VIL  EN ES       2351 21.11                             112    0.27 7  306 193 
 VIL  EZ I        2351 25.74        14.5 0.62            113            306 193 
 GUY2CHZ EP       2350 47.22                             112    0.15 7  307 235 
 GUY2CHN ES   4   2351 25.61                             112    3.90 0  307 235 
 GUY2CHZ I        2351 28.77        10.8 0.34                           307 235 
 PTGC HZ EP   4   2350 45.64                             112   -1.01 0  309 160 
 PTGC HN ES   4   2351 19.41                             112   -1.55 0  309 160 
 LL6C HZ EP       2350 47.93                             111   -0.38 7  323 357 
 LL6C HZ ES   4   2351 26.76                             111    2.84 0  323 357 
 ELA  HZ EP   2   2350 50.47                             110    0.18 3  335 230 
 ELA  HN ES       2351 27.88                             110    0.45 7  335 230 
 ELA  HZ I        2351 35.24         9.1 0.52            111            335 230 
 CBOC HZ EP   4   2350 50.45                             110    0.05 0  340 252 
 CBOC HE ES   4   2351 27.89                             110    0.26 0  340 252 
 CBOC HZ I        2351 37.33         2.8 0.44            110            340 252 
 SJC  HZ EP   4   2350 56.78                             106   -1.72 0  411 326 
 SJC  HN ES   4   2351 37.47                             106   -4.59 0  411 326 
 SJC  HZ I        2351 45.46         2.8 0.46            107            411 326 
 CRJC HZ EP   9   2351  3.04                             104   -1.95 0  465   3 
 CRJC HN ES       2351 50.99                                   -0.66 5  465   3 
 CRJC HZ I        2351 52.72         4.6 0.12            105            465   3 
 URI  HZ EP   4   2351 13.01                             101   -2.35 0  554  13 
 URI  HE ES   4   2352 10.65                             101   -1.42 0  554  13 
                                                                                
