 2017  7 5 2032 35.6 L   6.823 -73.131141.2  RSN 16 0.6 2.4LRSN                1
 GAP=112        1.15       4.0     3.9  6.4 -0.1373E+01  0.5477E+01  0.1041E+02E
 Epicentro: LOS SANTOS - SANTANDER                                             3
 ACTION:UPD 17-08-30 15:30 OP:rebc STATUS:               ID:20170705203235 L   I
 OLDACT:UP  17-07-06 04:26 OP:dhb  STATUS:               ID:20170705202741     3
 OLDACT:REG 17-07-06 02:53 OP:dhb  STATUS:               ID:20170705202741     3
 2017-07-05-2028-00M.COL___383                                                 6
 STAT SP IPHASW D HRMM SECON CODA AMPLIT PERI AZIMU VELO AIN AR TRES W  DIS CAZ7
 BAR2 EZ IP     D 2032 54.55                             169   -0.2310 26.1 192 
 BAR2 EZ ES       2033  9.41                             169   -0.3110 26.1 192 
 BAR2 EZ I        2033 10.91        71.3 0.35            164           26.1 192 
 BRR  HZ IP     C 2032 56.25                             152   -0.0610 71.4 296 
 BRR  HN ES       2033 13.08                             152    0.6510 71.4 296 
 BRR  HZ I        2033 13.76        72.9 0.11            148           71.4 296 
 PAM  HZ EP       2032 57.25                             151    0.0610 74.4  40 
 PAM  EE ES       2033 13.98                             151   -0.0210 74.4  40 
 PTB  HZ EP   2   2033  1.24                             130   -1.19 5  150 258 
 PTB  HE ES       2033 22.87                             130   -0.45 9  150 258 
 PTB  HZ I        2033 29.30        22.5 0.41            128            150 258 
 SPBC HZ EP       2033  3.50                             127   -0.58 9  166 219 
 SPBC HE ES       2033 26.13                             127   -0.13 9  166 219 
 SPBC HZ I        2033 31.13        29.0 0.16            125            166 219 
 YPLC HZ EP       2033  5.13                             125   -0.13 9  178 152 
 YPLC HE ES   2   2033 29.52                             125    1.16 4  178 152 
 YPLC HZ I        2033 31.85        13.1 0.33            126            178 152 
 ZAR  HZ EP   2   2033  8.91                             121    1.06 4  205 291 
 ZAR  HE ES       2033 33.55                             121    0.58 9  205 291 
 ZAR  HZ I        2033 38.58        33.0 0.63            120            205 291 
 TABC EZ EP       2033 12.37                             118    0.93 8  233 211 
 TABC EZ ES       2033 39.82                             118    0.45 8  233 211 
 TABC EZ I        2033 44.75        23.1 0.44            117            233 211 
 NOR  HZ EP       2033 11.17                             117   -0.24 8  237 234 
 NOR  HE ES       2033 38.68                             117   -0.63 8  237 234 
 NOR  HZ I        2033 45.76        17.9 0.20            116            237 234 
 ROSC BZ EP       2033 13.43                             115   -0.41 8  256 211 
 ROSC BE ES   2   2033 42.06                             115   -1.58 4  256 211 
 ROSC BZ I        2033 50.54        31.2 0.51            114            256 211 
 URE  HZ EP   4   2033 17.38                             113    0.83 0  284 291 
 URE  HE ES   4   2033 46.03                             113   -2.43 0  284 291 
 URE  HZ I        2033 56.49        23.4 0.16            112            284 291 
 GUY2CHZ EP   3   2033 20.32                             111    0.97 2  304 235 
 GUY2CHE ES       2033 54.22                             111    0.77 7  304 235 
 GUY2CHZ I        2034  2.40        11.2 0.41                           304 235 
 VIL  EZ EP   4   2033 20.02                             111    0.85 0  306 192 
 VIL  EE ES       2033 53.32                             111    0.19 7  306 192 
 VIL  EZ I        2034  3.53        26.7 0.33            110            306 192 
 CBOC HZ EP   4   2033 23.44                             109    0.81 0  336 252 
 CBOC HN ES       2033 59.94                             109    0.65 7  336 252 
 CBOC HZ I        2034  9.89         4.4 0.20            108            336 252 
 DBB  EZ EP       2033 23.06                             109   -0.04 7  341 274 
 DBB  EN ES       2033 58.89                             109   -1.22 7  341 274 
 DBB  EZ I        2034 11.58         4.2 0.38            108            341 274 
 ORTC HZ EP       2033 29.88                             105    0.12 6  398 216 
 ORTC HE ES       2034 12.75                             105    0.78 6  398 216 
 ORTC HZ I        2034 17.47        13.1 0.43            105            398 216 
                                                                                
