 2016 10 5 2357 53.3 L   7.391 -73.163145.4  RSN  6 0.2 1.7LRSN                1
 GAP=183        0.48       2.9     2.1  3.4  0.8931E+00  0.1751E+01 -0.5430E+00E
 Epicentro: EL PLAYON - SANTANDER                                              3
 ACTION:UPD 16-11-09 19:16 OP:rebc STATUS:               ID:20161005235753 L   I
 OLDACT:DUP 16-10-06 07:31 OP:cara STATUS:               ID:20161005234746d    3
 2016-10-05-2348-00M.COL___360                                                 6
 STAT SP IPHASW D HRMM SECON CODA AMPLIT PERI AZIMU VELO AIN AR TRES W  DIS CAZ7
 PAM  EZ EP       2358 13.89                             160   -0.2810 51.5  96 
 PAM  EN ES       2358 30.64                             160    0.2110 51.5  96 
 PAM  EZ I        2358 31.57         6.4 0.26            163           51.5  96 
 BRR  HZ EP       2358 14.17                             153   -0.1010 68.3 243 
 BRR  HN ES       2358 30.50                             153   -0.1110 68.3 243 
 BRR  HZ I        2358 32.63        13.6 0.40            153           68.3 243 
 BAR2 EZ IP       2358 15.84                             147    0.0010 88.4 181 
 BAR2 EZ ES       2358 33.37                             147   -0.0210 88.4 181 
 BAR2 EZ I        2358 35.74         8.0 0.30            149           88.4 181 
 RUS  HZ EP       2358 22.54                             129   -0.06 9  166 177 
 RUS  HN ES       2358 45.62                             129    0.19 9  166 177 
 PTB  HZ EP       2358 22.40                             127   -0.06 9  171 237 
 PTB  HN ES       2358 45.09                             127   -0.10 9  171 237 
 PTB  HZ I        2358 47.88         6.2 0.36            129            171 237 
 ZAR  HZ EP       2358 24.47                             125    0.41 9  187 274 
 ZAR  HN ES       2358 48.06                             125    0.03 9  187 274 
 ZAR  HZ I        2358 51.22         6.3 0.20            126            187 274 
                                                                                
