 2011  6 5 2335 40.9 L   6.826 -73.011134.8  RSN  5 0.2 1.4LRSN                1
 GAP=153        0.53       4.3     7.9  8.2  0.8455E+01 -0.2115E+02 -0.1750E+02E
 Epicentro: CEPITA - SANTANDER                                                 3
 ACTION:UP  11-07-14 19:03 OP:ep   STATUS:               ID:20110605233540 L   I
 2011-06-05-2332-46S.COL___132                                                 6
 STAT SP IPHASW D HRMM SECON CODA AMPLIT PERI AZIMU VELO SNR AR TRES W  DIS CAZ7
 BAR2 SZ EP   1   2335 59.21                             166    -0.2 7   32 216 
 BAR2 SZ ES   2   2336 14.02                             166     0.2 5   32 216 
 BAR2 SZ I        2336 16.48         5.0 0.21                            32 216 
 PAM  SZ EP   1   2336  1.31                             152     0.0 7   66  31 
 BRR  HZ EP       2336  1.46                             147    -0.210   84 292 
 BRR  HN ES   2   2336 17.97                             147     0.1 5   84 292 
 BRR  HZ I        2336 22.28        15.0 0.38                            84 292 
 RUS  HZ EP   2   2336  3.71                             141    -0.1 5  104 184 
 RUS  HN ES   2   2336 21.74                             141     0.1 5  104 184 
 RUS  HZ I        2336 22.60         1.7 0.14                           104 184 
 OCA  SZ EP       2336  8.64                             127     0.3 9  160 348 
 OCA  SZ ES   2   2336 29.25                             127    -0.5 5  160 348 
 OCA  SZ I        2336 32.95         3.7 0.48                           160 348 
                                                                                
