 2013  2 5 2138 51.6 L   6.797 -73.158143.3  RSN  6 0.4 2.0LRSN                1
 GAP=135        0.92       4.0     4.7  6.2 -0.1896E+01  0.3102E+01  0.6564E+01E
 Epicentro: LOS SANTOS - SANTANDER                                             3
 ACTION:UPD 13-03-12 09:30 OP:ep   STATUS:               ID:20130205213852dL   I
 2013-02-05-2128-51M.COL___191                                                 6
 STAT SP IPHASW D HRMM SECON CODA AMPLIT PERI AZIMU VELO AIN AR TRES W  DIS CAZ7
 BAR2 SZ EP       2139 10.92                             171   -0.0310 22.8 187 
 BAR2 SZ ES       2139 25.74                             171   -0.2910 22.8 187 
 BAR2 SZ I        2139 27.37        29.1 0.20            171           22.8 187 
 BRR  HZ EP       2139 12.73                             152    0.2710 70.2 299 
 BRR  HN ES       2139 29.42                             152    0.7210 70.2 299 
 BRR  HN I        2139 33.11        33.7 0.18            151           70.2 299 
 PAM  SZ EP       2139 13.69                             150    0.0410 78.5  40 
 PAM  SZ I        2139 14.04        14.4 0.18            153           78.5  40 
 PAM  SN ES       2139 30.68                             150   -0.1510 78.5  40 
 RUS  HZ EP       2139 14.99                             143   -0.1310  100 175 
 RUS  HN ES       2139 33.38                             143   -0.0710  100 175 
 RUS  HN I        2139 34.69        11.4 0.36            146            100 175 
 PTB  HZ EP       2139 17.81                             132   -0.46 9  146 259 
 PTB  HN ES       2139 38.53                             132   -0.52 9  146 259 
 PTB  HZ I        2139 41.94         8.6 0.38            132            146 259 
 CHI  HZ EP       2139 29.33                             117    0.21 8  248 195 
 CHI  HE ES       2139 58.94                             117    0.58 8  248 195 
                                                                                
