 2014  5 5 2304 52.7 L   6.446 -73.745 13.0  RSN 10 0.5 1.8LRSN                1
 GAP= 73        1.39       2.8     2.7  5.2  0.2845E+00 -0.4237E+00 -0.5235E+01E
 Epicentro: SANTA HELENA DEL OPON - SANTANDER                                  3
 OLDACT:REG 14-05-06 03:09 OP:spq  STATUS:               ID:20140505225816     3
 ACTION:UPD 15-03-16 16:55 OP:nd   STATUS:               ID:20140505230452 L   I
 OLDACT:UP  14-05-06 05:25 OP:spq  STATUS:               ID:20140505225816     3
 2014-05-05-2258-16M.COL___215                                                 6
 STAT SP IPHASW D HRMM SECON CODA AMPLIT PERI AZIMU VELO AIN AR TRES W  DIS CAZ7
 BRR  HZ EP       23 5  4.78                              98    0.3010 73.2   3 
 BRR  HN ES       23 5 14.06                              98    0.4010 73.2   3 
 BRR  HZ I        23 5 19.97        20.4 0.14             47           73.2   3 
 PTB  HZ EP       23 5  5.33                              97   -0.0910 79.3 278 
 PTB  HE ES       23 5 14.45                              97   -0.8910 79.3 278 
 PTB  HZ I        23 5 15.35        39.0 0.16             47           79.3 278 
 SPBC HZ EP       23 5  8.42                              96    0.5610 95.0 202 
 SPBC HN ES       23 5 20.45                              96    0.7810 95.0 202 
 SPBC HZ I        23 5 25.37        22.8 0.22             47           95.0 202 
 RUS  HZ EP       23 5  8.34                              96   -0.0110 95.5 130 
 RUS  HE ES       23 5 19.57                              96   -0.9810 95.5 130 
 RUS  HZ I        23 5 20.41        17.6 0.66             47           95.5 130 
 PAM  SZ EP       23 5 17.25                              56    0.46 9  152  49 
 PAM  SE ES       23 5 35.04                              56   -0.53 9  152  49 
 PAM  HZ I        23 5 40.08        19.3 0.20             47            152  49 
 ZAR  HZ EP       23 5 17.55                              56   -0.76 9  169 313 
 ZAR  HN ES       23 5 38.33                              56    0.06 9  169 313 
 ZAR  HZ I        23 5 39.98        21.2 0.10             47            169 313 
 HEL  HZ EP       23 5 22.92                              56    0.36 9  199 262 
 HEL  HE ES       23 5 45.58                              56   -0.26 9  199 262 
 HEL  HZ I        23 5 49.05         9.8 0.22             37            199 262 
 CHI  HZ EP   4   23 5 24.76                              56    1.96 0  201 180 
 CHI  HN ES   4   23 5 51.26                              56    4.99 0  201 180 
 CHI  HZ I        23 5 59.50         7.9 2.52             37            201 180 
 TAM  HN ES   1   23 5 49.43                              56    0.55 6  216  90 
 SML  HE ES       23 5 59.63                              56    0.45 8  263 352 
                                                                                
