 2016  9 5 2345 17.0 L   6.813 -73.119150.3  RSN 30 0.6 2.9LRSN                1
 GAP= 53        1.24       2.8     2.8  5.0 -0.9637E+00  0.1822E+01  0.1850E+01E
 Epicentro: LOS SANTOS - SANTANDER                                             3
 ACTION:UPD 17-08-17 21:07 OP:lp   STATUS:               ID:20160905234517 L   I
 OLDACT:UP  16-09-06 05:19 OP:edw  STATUS:               ID:20160905233734d    3
 OLDACT:UP  16-09-06 05:18 OP:edw  STATUS:               ID:20160905233734d    3
 OLDACT:UP  16-09-06 05:15 OP:edw  STATUS:               ID:20160905233734d    3
 OLDACT:DUP 16-09-06 05:01 OP:edw  STATUS:               ID:20160905233734d    3
 OLDACT:UP  16-09-06 04:57 OP:edw  STATUS:               ID:20160905233733     3
 OLDACT:UP  16-09-06 04:56 OP:edw  STATUS:               ID:20160905233733     3
 OLDACT:REG 16-09-06 03:16 OP:edw  STATUS:               ID:20160905233733     3
 2016-09-05-2338-00M.COL___361                                                 6
 STAT SP IPHASW D HRMM SECON CODA AMPLIT PERI AZIMU VELO AIN AR TRES W  DIS CAZ7
 BAR2 EZ IP     D 2345 37.19                             170   -0.0010 25.4 196 
 BAR2 EZ ES       2345 52.93                             170   -0.0410 25.4 196 
 BAR2 EZ I        2345 53.45       172.6 0.21            171           25.4 196 
 BRR  HZ IP     D 2345 38.90                             153    0.1810 73.2 296 
 BRR  HN ES       2345 55.71                             153    0.0210 73.2 296 
 BRR  HZ I        2345 57.16        98.9 0.12            151           73.2 296 
 PAM  EZ EP     C 2345 39.98                             153    0.4810 74.3  38 
 PAM  EN ES       2345 57.17                             153    0.1010 74.3  38 
 PAM  EZ I        2345 59.43       168.8 0.48            151           74.3  38 
 RUS  HZ EP     D 2345 41.14                             144   -0.1210  102 178 
 RUS  HN ES       2346  0.25                             144    0.0410  102 178 
 RUS  HZ I        2346  0.97        78.4 0.24            144            102 178 
 PTB  HZ EP   9   2345 43.79                             132   -0.81 0  151 259 
 PTB  HN ES       2346  4.97                             132   -0.37 9  151 259 
 PTB  HZ I        2346 11.75        68.8 0.42            131            151 259 
 TAM  HZ IP     D 2345 45.64                             132    0.86 9  153 106 
 TAM  HZ I        2346  6.53        42.7 0.40            131            153 106 
 TAM  HN ES       2346  7.25                             132    0.77 9  153 106 
 OCA  HZ EP       2345 45.38                             131   -0.16 9  159 352 
 OCA  HN ES       2346  7.50                             131   -0.32 9  159 352 
 OCA  HZ I        2346 16.60       126.6 0.18            129            159 352 
 SPBC HZ EP       2345 46.19                             129    0.08 9  166 219 
 SPBC HN ES       2346  8.13                             129   -0.70 9  166 219 
 SPBC HZ I        2346 11.49       124.7 0.11            129            166 219 
 ZAR  HZ EP       2345 50.44                             123    0.50 8  206 291 
 ZAR  HN ES       2346 14.99                             123   -0.67 8  206 291 
 ZAR  HZ I        2346 20.36        95.7 0.38            121            206 291 
 NOR  HZ EP       2345 53.31                             119   -0.01 8  238 235 
 NOR  HN ES       2346 21.70                             119    0.03 8  238 235 
 NOR  HZ I        2346 28.71        55.3 0.24            118            238 235 
 CHI  HZ EP       2345 55.30                             118    0.14 8  251 196 
 CHI  HN ES       2346 24.70                             118   -0.25 8  251 196 
 CHI  HZ I        2346 28.22        62.6 0.56            117            251 196 
 ROSC BZ EP   9   2345 57.29                             117    1.64 0  256 211 
 ROSC BN ES       2346 28.48                             117    1.02 8  256 211 
 ROSC BZ I        2346 31.67       118.8 0.45            116            256 211 
 HEL  HZ EP       2345 58.65                             115    0.87 7  275 256 
 HEL  HN ES       2346 29.86                             115    0.25 7  275 256 
 HEL  HZ I        2346 35.26        50.0 0.28            114            275 256 
 URE  HZ EP   4   2346  0.52                             114    2.01 0  286 291 
 URE  HN ES   4   2346 32.92                             114    2.00 0  286 291 
 URE  HZ I        2346 38.88        51.4 0.18            113            286 291 
 SOCV BZ EP     C 2346  0.05                             113    0.19 7  298  57 
 SOCV BN ES       2346 32.42                             113   -0.89 7  298  57 
 GUY2CHZ EP       2346  1.48                             113    0.32 7  304 235 
 GUY2CHN ES   4   2346 39.44                             113    3.81 0  304 235 
 GUY2CHZ I        2346 43.44        38.6 0.32                           304 235 
 VIL  EZ EP       2345 59.75                             113   -1.08 7  305 192 
 VIL  EN ES       2346 34.88                             113   -0.16 7  305 192 
 LL1C HZ EP   4   2346  2.50                             113    1.84 0  306 351 
 LL1C HN ES   4   2346 38.19                             113    3.45 0  306 351 
 PTGC HZ IP     D 2346  0.29                             112   -0.78 7  309 159 
 PTGC HN ES       2346 34.03                             112   -1.43 7  309 159 
 PTGC HZ I        2346 35.62        46.6 0.24            112            309 159 
 LL6C HZ EP   4   2346  1.94                             111   -0.77 0  324 357 
 LL6C HZ ES   4   2346 37.78                             111   -0.62 0  324 357 
 ELA  HZ EP   9   2346  6.30                             111    1.92 0  332 230 
 ELA  HN ES       2346 42.89                             111   -0.39 7  332 230 
 ELA  HZ I        2346 49.91        33.2 0.54            110            332 230 
 CBOC HZ EP   2   2346  4.80                             110    0.35 3  337 252 
 CBOC HN ES   2   2346 42.38                             110    0.89 3  337 252 
 DBB  EZ EP       2346  4.63                             110   -0.33 7  342 274 
 DBB  EZ ES       2346 41.44                             110   -0.96 7  342 274 
 DBB  EZ I        2346 42.87        17.9 0.24            109            342 274 
 ARGC HZ EP   9   2346  8.49                             109    1.73 0  359 340 
 ARGC HN ES       2346 47.28                             109   -0.05 6  359 340 
 ARGC HZ I        2346 53.16        12.0 0.18            108            359 340 
 ANIL HZ EP       2346  6.42                             109   -0.89 6  360 225 
 ANIL HN ES       2346 48.42                             109    1.84 6  360 225 
 PAL  HZ EP       2346 12.69                             106    0.02 6  409 239 
 PAL  HN ES       2346 57.23                             106    1.11 6  409 239 
 PAL  HZ I        2347  0.81         9.4 0.22            106            409 239 
 SJC  HZ EP   4   2346 11.50                             106   -1.23 0  410 326 
 SJC  HN ES   4   2346 53.52                             106   -2.71 0  410 326 
 SJC  HZ I        2346 59.04        11.8 0.56            105            410 326 
 LCBC HZ EP   4   2346  8.82                             106   -5.47 0  424 302 
 LCBC HN ES       2346 59.11                             106    0.12 5  424 302 
 CRJC HZ EP   9   2346 17.50                             104   -1.90 0  466   3 
 CRJC HN ES       2347  5.57                             104   -0.63 5  466   3 
 CRJC HZ I        2347 12.40        20.6 0.36            103            466   3 
 YOT  HZ EP   4   2346 21.98                             104    1.46 0  475 229 
 YOT  HE ES   4   2347 12.66                             104    2.56 0  475 229 
 SMAR HZ EP   2   2346 22.61                             103   -0.27 2  496 346 
 SMAR HN ES   4   2347 10.52                             103   -3.76 0  496 346 
 MACC HZ EP   4   2346 24.16                             102   -1.86 0  522 189 
 MACC HN ES   4   2347 15.95                             102   -3.93 0  522 189 
 MACC HZ I        2347 20.76         8.1 0.46            101            522 189 
 URI  HZ EP   4   2346 27.98                             101   -1.84 0  555  13 
 URI  HN ES   4   2347 23.88                             101   -2.77 0  555  13 
 URI  HZ I        2347 28.80         3.6 0.70            100            555  13 
                                                                                
