 2012 10 5 2307 54.8 L   6.129 -73.428128.5  RSN 12 0.4 2.0LRSN                1
 GAP= 67        0.86       2.8     3.2  5.9 -0.1879E+01  0.4613E+01  0.3133E+01E
 Epicentro: SUAITA - SANTANDER                                                 3
 ACTION:UPD 12-11-22 17:02 OP:ep   STATUS:               ID:20121005230754 L   I
 2012-10-05-2300-00M.COL___222                                                 6
 STAT SP IPHASW D HRMM SECON CODA AMPLIT PERI AZIMU VELO AIN AR TRES W  DIS CAZ7
 RUS  HZ EP       23 8 13.66                             159    0.1210 46.3 124 
 RUS  HN ES   1   23 8 27.97                             159   -0.15 7 46.3 124 
 BAR2 SZ EP       23 8 13.85                             154    0.1210 58.0  28 
 BAR2 SZ ES   1   23 8 28.71                             154    0.25 7 58.0  28 
 GIR2 SZ EP       23 8 17.22                             137    0.1610  108  14 
 GIR2 SZ ES   1   23 8 34.42                             137    0.03 7  108  14 
 BRR  HZ EP       23 8 16.98                             136   -0.2610  113 344 
 BRR  HZ I        23 8 18.29        14.8 0.34                           113 344 
 BRR  HN ES   1   23 8 34.63                             136   -0.07 7  113 344 
 PAM  SZ EP       23 8 22.11                             126    0.20 9  156  31 
 PAM  SN ES   1   23 8 42.78                             126   -0.25 7  156  31 
 PAM  SN I        23 8 47.83         8.8 0.48                           156  31 
 CHI  HZ EP       23 8 22.73                             124   -0.37 9  169 191 
 CHI  HN ES   1   23 8 44.63                             124   -0.51 7  169 191 
 CHI  HN I        23 8 46.92        10.3 0.52                           169 191 
 NOR  SN ES   1   23 8 45.17                             123    0.47 7  171 249 
 TAM  HZ EP       23 8 24.95                             121    0.78 9  184  79 
 TAM  HE ES   2   23 8 46.32                             121   -0.73 4  184  79 
 ZAR  HZ EP   1   23 8 27.02                             116   -0.76 6  218 314 
 ZAR  HZ I        23 8 28.26         7.9 0.30                           218 314 
 ZAR  HE ES   1   23 8 52.55                             116   -0.92 6  218 314 
 HEL  HZ EP       23 8 29.98                             115    0.18 8  233 272 
 HEL  HN ES   1   23 8 57.98                             115    0.92 6  233 272 
 HEL  HN I        23 9  1.25        10.9 0.42                           233 272 
 RREF HZ EP   2   23 8 32.29                             113   -0.04 4  252 238 
 PRA  HZ EP       23 8 38.02                             108   -0.41 7  312 211 
 PRA  HN ES   1   23 9 12.53                             108    0.09 5  312 211 
 PRA  HN I        23 9 15.59         4.5 0.44                           312 211 
                                                                                
