 2016  9 6 0752  9.0 L   6.815 -73.154152.6  RSN 12 0.4 1.8LRSN                1
 GAP=118        1.05       3.1     4.4  5.8 -0.8607E+00  0.1754E+01  0.1053E+01E
 Epicentro: LOS SANTOS - SANTANDER                                             3
 ACTION:UPD 17-08-17 21:07 OP:lp   STATUS:               ID:20160906075209 L   I
 OLDACT:UP  16-09-06 16:19 OP:dani STATUS:               ID:20160906074734     3
 OLDACT:UP  16-09-06 16:18 OP:dani STATUS:               ID:20160906074734     3
 OLDACT:REG 16-09-06 12:37 OP:dani STATUS:               ID:20160906074734     3
 2016-09-06-0748-00M.COL___322                                                 6
 STAT SP IPHASW D HRMM SECON CODA AMPLIT PERI AZIMU VELO AIN AR TRES W  DIS CAZ7
 BAR2 EZ EP        752 29.42                             170   -0.1010 24.9 187 
 BAR2 HN ES        752 44.94                             170   -0.5610 24.9 187 
 BAR2 EZ I         752 46.10        21.1 0.16            170           24.9 187 
 BRR  HZ EP     C  752 31.20                             154    0.3610 69.6 298 
 BRR  HE ES        752 48.56                             154    0.7110 69.6 298 
 BRR  HZ I         752 48.96        14.0 0.12            145           69.6 298 
 PAM  EZ EP        752 32.41                             152    0.4610 76.7  41 
 PAM  EE ES        752 49.87                             152    0.0510 76.7  41 
 PAM  EZ I         752 51.65        17.4 0.44            147           76.7  41 
 RUS  HZ EP        752 33.46                             145   -0.1310  102 176 
 RUS  HN ES        752 52.50                             145   -0.2410  102 176 
 RUS  HZ I         752 53.97         4.6 0.30            141            102 176 
 PTB  HZ EP        752 36.54                             134    0.02 9  147 258 
 PTB  HN ES        752 57.28                             134   -0.68 9  147 258 
 PTB  HZ I         753  3.36         4.6 0.26            126            147 258 
 OCA  HZ EP        752 37.60                             131   -0.12 9  158 353 
 OCA  HE ES        753  0.07                             131   -0.03 9  158 353 
 OCA  HZ I         753  2.88        11.1 0.18            124            158 353 
 SPBC HZ EP        752 38.46                             130    0.32 9  164 218 
 SPBC HN ES        753  1.15                             130    0.32 9  164 218 
 SPBC HZ I         753  5.28        12.8 0.24            124            164 218 
 ZAR  HE ES        753  6.97                             124   -0.36 9  203 292 
 ZAR  HZ I         753 14.09         5.5 0.31            117            203 292 
 CHI  HE ES        753 17.80                             118    0.71 8  250 195 
 GUY2CHZ EP   4    752 56.21                             114    3.22 0  301 234 
 GUY2CHZ I         753 35.76         2.2 0.33                           301 234 
 PTGC HZ EP        752 52.60                             113   -0.82 7  311 159 
 PTGC HN ES   4    753 26.51                             113   -1.53 0  311 159 
 PTGC HZ I         753 31.01         3.9 0.46            108            311 159 
 SJC  HZ EP        753  4.10                             107   -0.50 6  407 327 
 SJC  HZ I         753 52.08         1.2 0.52            102            407 327 
                                                                                
