 2011  4 6 0115 51.1 L   6.761 -73.081140.6  RSN 11 0.3 2.2LRSN                1
 GAP=141        0.66       3.0     5.1  5.4 -0.4670E+01  0.1066E+01  0.2033E+01E
 Epicentro: LOS SANTOS - SANTANDER                                             3
 ACTION:UP  11-06-22 15:29 OP:REBC STATUS:               ID:20110406011551 L   I
 2011-04-06-0112-48S.COL___125                                                 6
 STAT SP IPHASW D HRMM SECON CODA AMPLIT PERI AZIMU VELO SNR AR TRES W  DIS CAZ7
 BAR2 SZ EP        116 10.26                             171     0.210   22 211 
 BAR2 SZ ES   1    116 24.19                             171    -0.7 7   22 211 
 BAR2 SZ I         116 27.88        55.1 0.26                            22 211 
 BTL  SZ EP        116 10.55                             169     0.410   27 310 
 GIR2 SZ EP   1    116 10.32                             164     0.0 7   37 340 
 BRR  HZ EP   1    116 12.05                             149    -0.1 7   80 299 
 BRR  HE ES   1    116 28.99                             149     0.4 7   80 299 
 BRR  HZ I         116 31.48        33.2 0.12                            80 299 
 GRA  SZ EP        116 15.93                             135    -0.110  128  14 
 GRA  SZ ES   1    116 35.43                             135    -0.1 7  128  14 
 GRA  SZ I         116 37.08        12.6 0.32                           128  14 
 OCA  SZ EP        116 19.32                             127    -0.2 9  166 351 
 OCA  SZ ES   2    116 41.59                             127    -0.1 5  166 351 
 OCA  SZ I         116 46.40        17.7 0.31                           166 351 
 YOP  SE ES   2    116 43.19                             126     0.5 4  172 155 
 YOP  SZ I         116 49.59        12.7 0.42                           172 155 
 CHI  HZ EP   1    116 28.16                             116    -0.1 6  246 197 
 CHI  HE ES   2    116 56.99                             116    -0.3 4  246 197 
 CHI  HZ I         117  1.11         5.7 0.28                           246 197 
 HEL  HZ EP   2    116 31.59                             113    -0.1 4  278 257 
 HEL  HN ES   2    117  3.51                             113     0.1 4  278 257 
 HEL  HZ I         117 10.11         8.7 0.12                           278 257 
 RREF HZ EP   2    116 37.73                             110     0.4 3  325 231 
 RREF HN ES   2    117 12.96                             110    -0.4 3  325 231 
 RREF HZ I         117 19.96         9.7 0.25                           325 231 
 PRA  HZ EP   2    116 43.72                             106    -0.7 3  392 211 
 PRA  HE ES   2    117 25.56                             106    -0.4 3  392 211 
                                                                                
