 2013  1 6 0024 43.6 L   6.810 -73.134149.1  RSN 10 0.6 2.5LRSN 3.0WRSN        1
 SPEC AVERAGE  MO 13.6 ST  8.6 OM  2.5 f0 4.77 R0.4104 AL 2.37 WI 21.3 MW  3.0 3
 SPEC SD       MO  0.2 ST  6.0 OM  0.9 f0 2.13 R0.2414 AL      WI      MW  0.1 3
 GAP=127        1.44       4.7     6.2  8.2  0.2182E+01 -0.6223E+00 -0.3716E+01E
 Epicentro: LOS SANTOS - SANTANDER                                             3
 SPEC ZAR HH N MO 13.6 ST 15.2 OM  1.8 f0 6.65 R0.2211 AL 2.13 WI 20.2 MW  3.0 3
 SPEC ZAR HH N T 02542 K 0.000 GD  253 VS 4.20 DE 3.00 Q0230.0 QA 0.60 VS 4.20 3
 SPEC OCA HH N MO 13.9 ST  5.5 OM  2.2 f0 3.67 R0.4005 AL 1.77 WI 29.8 MW  3.2 3
 SPEC OCA HH N T 02533 K 0.000 GD  217 VS 4.20 DE 3.00 Q0230.0 QA 0.60 VS 4.20 3
 SPEC CHI HH N MO 13.6 ST0.357 OM  1.8 f0 1.82 R0.8077 AL 1.52 WI 20.6 MW  3.0 3
 SPEC CHI HH N T 02550 K 0.000 GD  291 VS 4.20 DE 3.00 Q0230.0 QA 0.60 VS 4.20 3
 SPEC BRR HH Z MO 13.5 ST 13.2 OM  1.1 f0 6.93 R0.2121 AL 4.06 WI 14.7 MW  2.9 3
 SPEC BRR HH Z T 025 5 K 0.000 GD  165 VP 7.60 DE 3.00 Q0230.0 QA 0.60 VS 4.20 3
 ACTION:UPD 13-02-15 09:12 OP:ep   STATUS:               ID:20130106002443 L   I
 2013-01-06-0019-48M.COL___181                                                 6
 STAT SP IPHASW D HRMM SECON CODA AMPLIT PERI AZIMU VELO AIN AR TRES W  DIS CAZ7
 BAR2 SZ EP        025  4.15                             170    0.4410 24.7 192 
 BAR2 SZ ES        025 18.87                             170   -0.4910 24.7 192 
 BAR2 SZ I         025 20.47        63.9 0.20            168           24.7 192 
 BRR  HZ IP     C  025  5.94                             153    0.7510 71.8 297 
 BRR  HN ES        025 22.65                             153    0.6510 71.8 297 
 BRR  HN I         025 23.31       105.1 0.34            150           71.8 297 
 RUS  HZ EP        025  8.14                             144    0.3310  102 177 
 RUS  HN ES        025 26.28                             144   -0.3710  102 177 
 PTB  HZ EP        025 10.72                             132   -0.30 9  149 258 
 PTB  HN ES        025 31.74                             132   -0.64 9  149 258 
 PTB  HN I         025 37.06        31.7 0.50            130            149 258 
 OCA  HZ EP        025 12.28                             130    0.15 9  159 353 
 OCA  HN ES        025 33.56                             130   -0.78 9  159 353 
 OCA  HN I         025 38.96        61.5 0.22            130            159 353 
 ZAR  HZ EP   1    025 16.78                             123    0.39 6  205 292 
 ZAR  HN ES        025 42.53                             123    0.60 9  205 292 
 ZAR  HN I         025 49.45        28.9 0.38            122            205 292 
 CHI  HZ EP        025 22.51                             117    0.82 8  250 195 
 CHI  HN ES        025 50.68                             117   -0.68 8  250 195 
 CHI  HN I         025 59.73        12.2 0.34            117            250 195 
 HEL  HN ES        025 55.67                             115   -0.16 8  274 256 
 SDV  BZ EP        025 33.67                             109    0.05 6  359  50 
 SJC  HE EP        025 37.41                             106   -1.88 6  409 327 
                                                                                
