 2017  1 6 0930 18.0 L   6.811 -73.097142.0  RSN  8 0.5 1.7LRSN                1
 GAP=170        1.10       6.0     4.0  6.3  0.7297E+01  0.2416E+01  0.3598E+00E
 Epicentro: LOS SANTOS - SANTANDER                                             3
 ACTION:UPD 17-05-22 15:56 OP:jn   STATUS:               ID:20170106093018 L   I
 OLDACT:UP  17-01-06 18:59 OP:and  STATUS:               ID:20170106092740     3
 OLDACT:UP  17-01-06 18:57 OP:and  STATUS:               ID:20170106092740     3
 OLDACT:UP  17-01-06 18:57 OP:and  STATUS:               ID:20170106092740     3
 OLDACT:UP  17-01-06 18:57 OP:and  STATUS:               ID:20170106092740     3
 OLDACT:UP  17-01-06 18:56 OP:and  STATUS:               ID:20170106092740     3
 OLDACT:REG 17-01-06 12:52 OP:and  STATUS:               ID:20170106092740     3
 2017-01-06-0928-00M.COL___360                                                 6
 STAT SP IPHASW D HRMM SECON CODA AMPLIT PERI AZIMU VELO AIN AR TRES W  DIS CAZ7
 BAR2 EZ IP     C  930 36.84                             169   -0.3810 26.0 201 
 BAR2 EZ ES        930 51.94                             169   -0.2810 26.0 201 
 BAR2 EZ I         930 52.94        12.6 0.22            173           26.0 201 
 BRR  HZ EP        930 38.78                             150   -0.1910 75.4 296 
 BRR  HE ES        930 55.93                             150    0.5810 75.4 296 
 BRR  HZ I         931  0.31        10.9 0.14            149           75.4 296 
 RUS  HZ EP        930 41.23                             143   -0.2110  102 179 
 RUS  HN ES        930 59.39                             143   -0.3510  102 179 
 RUS  HZ I         931  0.42         6.1 0.28            147            102 179 
 TAM  HZ EP        930 45.24                             130    0.33 9  150 106 
 TAM  HN ES        931  6.38                             130    0.47 9  150 106 
 TAM  HZ I         931  7.33         4.9 0.20            133            150 106 
 PTB  HZ EP   9    930 43.78                             130   -1.38 0  153 259 
 PTB  HE ES        931  4.57                             133   -0.41 9  153 259 
 PTB  HZ I         931  6.85         6.5 0.12            131            153 259 
 ZAR  HZ EP        930 49.91                             121   -0.75 8  209 291 
 ZAR  HE ES        931 16.39                             121    0.24 8  209 291 
 ZAR  HZ I         931 23.88         6.7 0.26            121            209 291 
 NOR  HZ EP        930 53.78                             117   -0.27 8  240 235 
 GUY2CHZ EP        931  2.27                             111    0.27 7  306 235 
 GUY2CHN ES        931 37.42                             111    1.08 7  306 235 
 GUY2CHZ I         931 44.51         1.8 0.66                           306 235 
                                                                                
