 2017 10 6 0443 48.7 L   6.860 -73.161144.8  RSN 19 0.6 2.3LRSN                1
 GAP= 77        1.08       3.1     3.2  5.5  0.8231E+00  0.6150E+01  0.1236E+01E
 Epicentro: ZAPATOCA - SANTANDER                                               3
 ACTION:UPD 17-11-07 19:28 OP:rebc STATUS:               ID:20171006044348 L   I
 OLDACT:DUP 17-10-06 15:01 OP:dhb  STATUS:               ID:20171006043256d    3
 OLDACT:UP  17-10-06 15:00 OP:dhb  STATUS:               ID:20171006043255     3
 OLDACT:UP  17-10-06 14:59 OP:dhb  STATUS:               ID:20171006043255     3
 OLDACT:REG 17-10-06 12:27 OP:dhb  STATUS:               ID:20171006043255     3
 2017-10-06-0438-00M.COL___435                                                 6
 STAT SP IPHASW D HRMM SECON CODA AMPLIT PERI AZIMU VELO AIN AR TRES W  DIS CAZ7
 BAR2 EZ IP     D  444  8.36                             168    0.0110 29.7 184 
 BAR2 EZ ES        444 23.30                             168   -0.3910 29.7 184 
 BAR2 EZ I         444 24.65        49.3 0.26            164           29.7 184 
 PAM  EZ IP     C  444 11.13                             152    0.5410 73.6  44 
 PAM  EE ES        444 28.03                             152    0.3710 73.6  44 
 PAM  EZ I         444 29.92        22.1 0.21            156           73.6  44 
 RUS  HZ EP        444 12.34                             142   -0.5110  107 175 
 RUS  HN ES        444 31.41                             142   -0.2810  107 175 
 RUS  HZ I         444 32.97        41.1 0.34            140            107 175 
 TAM  HZ IP     C  444 16.74                             130    0.12 9  159 107 
 TAM  HN ES        444 38.28                             130   -0.13 9  159 107 
 TAM  HZ I         444 46.74        13.6 0.32            131            159 107 
 SPBC HZ EP        444 17.21                             128   -0.30 9  167 217 
 SPBC HN ES        444 39.83                             128   -0.16 9  167 217 
 SPBC HZ I         444 46.66        35.1 0.32            127            167 217 
 YPLC HZ IP     D  444 18.88                             125   -0.19 9  183 152 
 YPLC HN ES        444 42.81                             125    0.04 9  183 152 
 YPLC HZ I         444 45.71        21.2 0.30            125            183 152 
 ZAR  HZ EP        444 21.63                             123    0.97 9  200 291 
 ZAR  HN ES        444 46.44                             123    0.85 9  200 291 
 ZAR  HZ I         444 52.16        25.5 0.32            123            200 291 
 NOR  HZ EP        444 25.01                             118    0.38 8  237 233 
 NOR  HE ES        444 52.27                             118   -0.40 8  237 233 
 NOR  HZ I         444 58.58        12.5 0.16            118            237 233 
 CHI  HZ EP        444 26.67                             116   -0.31 8  255 194 
 CHI  HE ES        444 56.91                             116    0.06 8  255 194 
 CHI  HZ I         445  4.98         5.8 0.50            116            255 194 
 ROSC BZ IP   3 D  444 28.80                             116    1.52 2  258 210 
 ROSC BE ES   3    445  0.21                             116    2.82 2  258 210 
 ROSC BZ I         445  5.70        15.5 0.55            116            258 210 
 URE  HZ EP        444 28.65                             114   -0.61 7  280 291 
 URE  HE ES        444 59.69                             114   -1.22 7  280 291 
 URE  HZ I         445  4.98        10.6 0.14            114            280 291 
 GUY2CHZ EP   3    444 34.02                             112    1.49 2  304 234 
 GUY2CHE ES   4    445 10.95                             112    4.22 0  304 234 
 GUY2CHZ I         445 17.45         9.7 0.56                           304 234 
 VIL  EZ EP        444 33.20                             111    0.44 7  309 191 
 VIL  EE ES        445  7.24                             111    0.10 7  309 191 
 VIL  EZ I         445 10.61        14.3 0.38            111            309 191 
 PTGC HZ EP   3    444 31.67                             111   -1.61 2  315 159 
 PTGC HE ES   4    445  5.60                             111   -2.45 0  315 159 
 PTGC HZ I         445 18.84         5.4 0.48            111            315 159 
 ELA  HZ EP   9    444 38.92                             110    3.07 0  332 228 
 ELA  HE ES        445 16.84                                    1.14 7  332 228 
 ELA  HZ I         445 22.27         8.3 0.36            110            332 228 
 APAC HZ EP        444 42.74                             106    0.32 6  395 287 
 APAC HE ES   3    445 25.75                             106    1.42 1  395 287 
 APAC HZ I         445 27.31         2.8 0.50            107            395 287 
 PRA  HZ EP        444 43.06                             106    0.31 6  397 209 
 PRA  HE ES        445 24.98                             106    0.06 6  397 209 
 PRA  HZ I         445 31.43         9.4 0.40            106            397 209 
 ORTC HZ EP        444 43.63                             106    0.54 6  400 215 
 ORTC HE ES   3    445 27.76                             106    2.25 1  400 215 
 ORTC HZ I         445 30.99         5.7 0.38            106            400 215 
 SJC  HZ EP        444 42.59                             106   -0.87 6  403 327 
 SJC  HE ES   3    445 24.71                             106   -1.47 1  403 327 
 SJC  HZ I         445 26.93         2.9 0.26            107            403 327 
                                                                                
