 2017  4 6 0539 40.4 L   6.785 -73.144139.5  RSN 21 0.3 2.4LRSN                1
 GAP=112        0.86       2.5     2.6  4.0  0.3329E+00  0.2762E+01  0.2346E+01E
 Epicentro: LOS SANTOS - SANTANDER                                             3
 ACTION:UPD 17-05-30 21:08 OP:jn   STATUS:               ID:20170406053940 L   I
 OLDACT:UP  17-04-06 16:03 OP:cara STATUS:               ID:20170406053740     3
 OLDACT:REG 17-04-06 12:57 OP:cara STATUS:               ID:20170406053740     3
 2017-04-06-0538-00M.COL___359                                                 6
 STAT SP IPHASW D HRMM SECON CODA AMPLIT PERI AZIMU VELO AIN AR TRES W  DIS CAZ7
 BAR2 EZ IP        539 59.29                             171    0.0310 21.7 191 
 BAR2 EZ ES        540 13.88                             171   -0.0810 21.7 191 
 BAR2 EZ I         540 15.34        99.9 0.22            169           21.7 191 
 BRR  HZ EP     C  540  1.19                             151    0.2410 72.2 300 
 BRR  HN ES        540 17.32                             151    0.3510 72.2 300 
 BRR  HZ I         540 22.50        57.3 0.12            150           72.2 300 
 PAM  EZ EP     C  540  2.14                             149    0.1010 78.6  39 
 PAM  EN ES        540 19.10                             149    0.1910 78.6  39 
 PAM  EZ I         540 21.46        55.5 0.60            153           78.6  39 
 RUS  HZ EP        540  3.30                             143   -0.1310 98.9 176 
 RUS  HN ES        540 20.80                             143   -0.5810 98.9 176 
 RUS  HZ I         540 22.54        30.6 0.24            143           98.9 176 
 PTB  HZ EP        540  6.19                             131   -0.68 9  148 259 
 PTB  HN ES        540 27.58                             131    0.08 9  148 259 
 PTB  HZ I         540 30.27        34.1 0.26            130            148 259 
 SPBC HZ EP        540  8.41                             128    0.08 9  162 219 
 SPBC HN ES        540 29.78                             128   -0.32 9  162 219 
 SPBC HZ I         540 34.13        39.3 0.14            128            162 219 
 YPLC HZ IP     D  540  9.74                             125    0.14 9  175 151 
 YPLC HN ES        540 32.76                             125    0.39 9  175 151 
 YPLC HZ I         540 37.00        17.3 0.28            127            175 151 
 ZAR  HZ EP        540 12.47                             121   -0.08 9  205 293 
 ZAR  HN ES        540 37.96                             121    0.35 9  205 293 
 ZAR  HZ I         540 44.19        45.9 0.32            121            205 293 
 NOR  HZ IP        540 16.06                             117    0.36 8  234 235 
 NOR  HE ES        540 43.47                             117    0.25 8  234 235 
 NOR  HZ I         540 45.26        18.8 0.14            118            234 235 
 CHI  HZ EP        540 17.70                             116    0.10 8  247 195 
 CHI  HN ES        540 46.29                             116   -0.31 8  247 195 
 CHI  HZ I         540 49.99         8.6 0.32            117            247 195 
 ROSC BZ EP   4    540 19.46                             115    1.41 0  251 211 
 ROSC BN ES   4    540 50.80                             115    3.39 0  251 211 
 ROSC BZ I         540 54.11        15.9 0.30            116            251 211 
 HEL  HZ EP   4    540 20.87                             113    0.58 0  272 256 
 HEL  HN ES        540 51.07                             113   -0.33 8  272 256 
 HEL  HZ I         540 58.48        14.8 0.46            114            272 256 
 URE  HZ EP   9    540 19.91                             112   -1.37 0  285 292 
 URE  HN ES        540 50.72                                   -1.07 7  285 292 
 URE  HZ I         540 52.91        20.6 0.14            113            285 292 
 PTGC HZ EP   4    540 22.59                             110   -1.22 0  307 159 
 PTGC HN ES   4    540 54.54                             110   -3.11 0  307 159 
 PTGC HZ I         541  0.63         7.5 0.26            112            307 159 
 CBOC HZ EP        540 27.48                             109    0.44 7  333 252 
 CBOC HN ES   4    541  0.52                             109   -2.89 0  333 252 
 CBOC HZ I         541  7.15         5.2 0.28            109            333 252 
 DBB  EZ EP   4    540 27.72                             108    0.04 0  340 275 
 DBB  EN ES   4    541  3.20                             108   -1.35 0  340 275 
 DBB  EZ I         541  6.81        11.3 0.46            109            340 275 
 ARGC HZ EP        540 29.17                             107   -0.86 6  361 340 
 ARGC HN ES   4    541  5.71                             107   -3.03 0  361 340 
 ARGC HZ I         541 14.10         4.0 0.26            108            361 340 
 PRA  HZ EP        540 32.93                             105   -0.63 6  391 210 
 PRA  HE ES        541 15.35                             105    0.33 6  391 210 
 PRA  HZ I         541 21.17        12.9 0.40            106            391 210 
 ORTC HZ EP        540 33.80                             105   -0.18 6  394 216 
 ORTC HN ES        541 16.20                             105    0.44 6  394 216 
 ORTC HZ I         541 23.81         4.8 0.72            106            394 216 
 PAL  HZ EP        540 35.69                             105    0.40 6  405 239 
 PAL  HN ES        541 17.90                             105   -0.19 6  405 239 
 PAL  HZ I         541 22.77         5.7 0.50            105            405 239 
 SJC  HZ EP   4    540 33.76                             104   -2.20 0  411 327 
 SJC  HE ES   4    541 12.83                             104   -6.45 0  411 327 
 SJC  HZ I         541 19.53         7.2 0.58            105            411 327 
                                                                                
