 2014 10 6 0225 52.2 L   6.859 -73.112152.3  RSN 18 0.5 2.0LRSN                1
 GAP=138        1.06       3.0     4.5  6.5 -0.1763E+01  0.6278E+01  0.4549E+01E
 Epicentro: LOS SANTOS - SANTANDER                                             3
 ACTION:UPD 14-11-29 23:47 OP:nd   STATUS:               ID:20141006022552 L   I
 OLDACT:DUP 14-10-06 14:27 OP:fm   STATUS:               ID:20141006021749d    3
 2014-10-06-0217-48M.COL___286                                                 6
 STAT SP IPHASW D HRMM SECON CODA AMPLIT PERI AZIMU VELO AIN AR TRES W  DIS CAZ7
 PAM  SZ EP        226 15.60                             154    0.8710 70.0  41 
 PAM  SN ES        226 32.30                             154    0.0110 70.0  41 
 PAM  SZ I         226 34.72        22.6 0.46            161           70.0  41 
 BRR  HZ EP        226 14.70                             153    0.5910 71.7 292 
 BRR  HN ES        226 31.54                             153    0.3510 71.7 292 
 BRR  HZ I         226 35.25        16.0 0.18            151           71.7 292 
 RUS  HZ EP   1    226 16.77                             143   -0.31 7  107 178 
 RUS  HN ES   1    226 35.74                             143   -0.73 7  107 178 
 PTB  HZ EP   1    226 19.34                             133   -0.84 7  153 257 
 PTB  HN ES        226 41.51                             133   -0.48 9  153 257 
 PTB  HZ I         226 46.58        15.1 0.32            132            153 257 
 OCA  HZ EP   1    226 20.71                             132    0.21 7  154 351 
 OCA  HN ES        226 42.43                             132   -0.13 9  154 351 
 OCA  HZ I         226 50.95         7.3 0.30            135            154 351 
 SPBC HZ EP        226 21.99                             129    0.06 9  171 219 
 SPBC HN ES   1    226 45.45                             129    0.35 7  171 219 
 SPBC HZ I         226 53.13         8.4 0.40            130            171 219 
 ZAR  HZ EP   1    226 25.08                             124   -0.13 6  205 290 
 ZAR  HN ES        226 51.20                             124    0.25 9  205 290 
 ZAR  HZ I         226 56.36        19.8 0.44            125            205 290 
 SML  HZ EP   1    226 28.32                             119   -0.44 6  239 334 
 SML  HE ES        226 56.56                             119   -0.70 8  239 334 
 SML  HZ I         227  0.86        11.8 0.10            122            239 334 
 CHI  HZ EP   1    226 31.09                             118    0.01 6  256 196 
 CHI  HN ES        227  0.63                             118   -0.76 8  256 196 
 CHI  HZ I         227  5.80         2.6 0.20            120            256 196 
 ROSC BZ EP   1    226 31.51                             117   -0.01 6  260 211 
 ROSC BN ES   1    227  2.28                             117    0.10 6  260 211 
 ROSC BZ I         227  9.98         7.7 0.40            119            260 211 
 URE  HZ EP   1    226 32.78                             115   -0.96 6  285 290 
 URE  HN ES   4    227  4.56                             115   -1.56 0  285 290 
 URE  HZ I         227 12.92         6.7 0.24            116            285 290 
 GUY2CHZ EP   4    226 38.41                             113    1.50 0  308 234 
 GUY2CHN ES   4    227 13.37                             113    1.61 0  308 234 
 GUY2CHZ I         227 21.57         5.3 0.58                           308 234 
 CBOC HZ EP   1    226 39.70                             111   -0.35 5  339 251 
 CBOC HE ES        227 18.37                             111    1.01 7  339 251 
 CBOC HZ I         227 29.46         1.8 0.28            112            339 251 
 TOL  SZ EP   1    226 42.04                             110    0.46 5  351 224 
 TOL  SE ES   4    227 22.54                             110    2.46 0  351 224 
 TOL  SZ I         227 27.06         6.7 0.30            112            351 224 
 MON  HZ EP   4    226 39.03                             110   -2.33 0  353 307 
 MON  HN ES   4    227 17.58                             110   -2.11 0  353 307 
 MON  HZ I         227 19.10         1.2 0.26            112            353 307 
 PRA  HN ES   4    227 28.67                             107   -0.80 0  400 210 
 PRA  HZ I         227 34.09         3.4 0.70            109            400 210 
 ORTC HZ EP   1    226 47.32                             107    0.07 4  403 216 
 ORTC HE ES        227 30.44                             107    0.28 6  403 216 
 ORTC HZ I         227 35.95         2.9 0.36            109            403 216 
 SJC  HZ EP   4    226 46.22                             107   -1.39 0  406 326 
 SJC  HE ES   4    227 23.45                             107   -7.35 0  406 326 
 SJC  HZ I         227 31.95         2.6 0.52            109            406 326 
                                                                                
