 2017  7 6 0702 37.0 L   6.176 -72.967  4.0  RSN  6 0.4 1.7LRSN                1
 GAP=170        1.04       3.0     5.0  6.8 -0.1158E+01  0.1396E+02 -0.3253E+01E
 Epicentro: ENCINO - SANTANDER                                                 3
 ACTION:UPD 17-08-30 15:30 OP:rebc STATUS:               ID:20170706070237 L   I
 OLDACT:UP  17-07-06 17:28 OP:edw  STATUS:               ID:20170706065744d    3
 OLDACT:DUP 17-07-06 17:25 OP:edw  STATUS:               ID:20170706065744d    3
 OLDACT:UP  17-07-06 17:21 OP:edw  STATUS:               ID:20170706065739     3
 OLDACT:UP  17-07-06 17:21 OP:edw  STATUS:               ID:20170706065739     3
 OLDACT:UP  17-07-06 17:18 OP:edw  STATUS:               ID:20170706065739     3
 OLDACT:REG 17-07-06 13:45 OP:edw  STATUS:               ID:20170706065739     3
 2017-07-06-0658-00M.COL___379                                                 6
 STAT SP IPHASW D HRMM SECON CODA AMPLIT PERI AZIMU VELO AIN AR TRES W  DIS CAZ7
 BAR2 EZ EP        7 2 45.43                              47   -0.2310 51.8 333 
 BAR2 EZ ES        7 2 51.77                              47   -0.6710 51.8 333 
 BAR2 EZ I         7 2 52.36       105.8 0.16             47           51.8 333 
 YPLC HN ES   2    7 3  7.11                              47   -0.16 5  108 143 
 BRR  HZ IP     D  7 2 58.14                              47    0.6010  132 321 
 BRR  HN ES        7 3 13.67                              47    0.0810  132 321 
 BRR  HZ I         7 3 16.06        10.7 0.12             47            132 321 
 SPBC HZ EP        7 2 57.90                              47   -0.27 9  135 245 
 SPBC HN ES        7 3 14.39                              47   -0.32 9  135 245 
 SPBC HZ I         7 3 18.72         8.4 0.16             47            135 245 
 PTB  HZ EP        7 3  3.39                              47    0.11 9  170 284 
 PTB  HN ES        7 3 24.13                              47    0.33 9  170 284 
 PTB  HZ I         7 3 24.62        10.0 0.18             47            170 284 
 PTGC HN ES   4    7 3 44.42                              37    5.29 0  237 157 
 ZAR  HZ EP        7 3 15.02                              37    0.94 8  255 305 
 ZAR  HN ES        7 3 42.92                              37   -0.10 8  255 305 
 ZAR  HZ I         7 3 49.32         4.8 0.26             37            255 305 
                                                                                
