 2013  3 6 0248 50.5 L   6.770 -73.074139.7  RSN  4 0.3 1.4LRSN                1
 GAP=243        0.63       5.1     5.7  7.1  0.1596E+02  0.8298E+00 -0.2327E+01E
 Epicentro: LOS SANTOS - SANTANDER                                             3
 ACTION:UPD 13-04-09 14:00 OP:ep   STATUS:               ID:20130306024850 L   I
 2013-03-06-0240-00M.COL___228                                                 6
 STAT SP IPHASW D HRMM SECON CODA AMPLIT PERI AZIMU VELO AIN AR TRES W  DIS CAZ7
 BAR2 SZ ES   1    249 24.08                             170   -0.01 7 23.0 211 
 BAR2 SZ I         249 24.86         5.4 0.21            171           23.0 211 
 BRR  HZ EP     C  249 11.16                             149   -0.3210 79.7 298 
 BRR  HN ES        249 28.06                             149    0.1910 79.7 298 
 BRR  HN I         249 28.96         5.6 0.21            150           79.7 298 
 RUS  HZ EP   1    249 13.85                             144    0.49 7 97.0 181 
 RUS  HN ES        249 31.07                             144   -0.1510 97.0 181 
 RUS  HN I         249 32.05         3.0 0.38            145           97.0 181 
 PTB  HN ES        249 38.80                             129    0.01 9  155 261 
                                                                                
