 2015  1 6 0316  7.5 L   6.796 -73.138149.5  RSN  7 0.4 1.5LRSN                1
 GAP=201        0.94       3.6     6.6  5.8  0.8198E+01  0.2312E+01 -0.3153E+00E
 Epicentro: LOS SANTOS - SANTANDER                                             3
 ACTION:UPD 15-03-02 15:37 OP:nd   STATUS:               ID:20150106031607 L   I
 OLDACT:UP  15-01-06 15:26 OP:cam  STATUS:               ID:20150106030808     3
 OLDACT:REG 15-01-06 13:51 OP:cam  STATUS:               ID:20150106030808     3
 2015-01-06-0308-08M.COL___274                                                 6
 STAT SP IPHASW D HRMM SECON CODA AMPLIT PERI AZIMU VELO AIN AR TRES W  DIS CAZ7
 BAR2 EZ EP        316 27.38                             171   -0.1710 23.0 192 
 BAR2 EZ ES        316 42.99                             171   -0.2110 23.0 192 
 BAR2 EZ I         316 43.80         6.4 0.20            164           23.0 192 
 BRR  HZ IP     C  316 29.36                             153    0.2810 72.2 299 
 BRR  HN ES        316 46.72                             153    0.7910 72.2 299 
 BRR  HN I         316 47.20        13.0 0.28            148           72.2 299 
 RUS  HZ EP        316 31.74                             145    0.1810  100 177 
 RUS  HE ES        316 49.94                             145   -0.4010  100 177 
 RUS  HZ I         316 51.28         3.2 0.32            142            100 177 
 PTB  HZ EP        316 34.45                             133   -0.37 9  148 259 
 PTB  HE ES        316 55.64                             133   -0.50 9  148 259 
 PTB  HZ I         317  2.79         3.8 0.66            128            148 259 
 SPBC HZ EP        316 36.41                             130    0.13 9  163 219 
 SML  HZ EP        316 44.29                             118   -0.11 8  244 335 
 SML  HN ES        317 12.98                             118   -0.22 8  244 335 
 SML  HZ I         317 15.50         4.6 0.10            118            244 335 
 CHI  HZ EP        316 45.41                             118    0.05 8  248 195 
 CHI  HN ES        317 15.45                             118    0.55 8  248 195 
 CHI  HZ I         317 22.51         1.1 0.50            116            248 195 
                                                                                
