 2012  4 6 0713 11.7 L   6.730 -73.247152.6  RSN  4 0.2 1.1LRSN                1
 GAP=206        0.53       5.8     5.6  7.1  0.1596E+02 -0.4643E+01 -0.2234E+01E
 Epicentro: VILLANUEVA - SANTANDER                                             3
 ACTION:UPD 12-07-05 11:50 OP:tino STATUS:               ID:20120406071311 L   I
 2012-04-06-0710-00M.COL___196                                                 6
 STAT SP IPHASW D HRMM SECON CODA AMPLIT PERI AZIMU VELO AIN AR TRES W  DIS CAZ7
 BAR2 SZ EP   1    713 31.80                             173    -0.2 7   17 155 
 BAR2 SZ I         713 47.41         5.6 0.79                            17 155 
 BRR  HZ EP   1    713 33.64                             155     0.3 7   66 309 
 BRR  HZ I         713 34.00         5.3 0.16                            66 309 
 BRR  HN ES   1    713 50.12                             155    -0.1 7   66 309 
 RUS  HZ EP   1    713 35.50                             147    -0.2 7   94 169 
 RUS  HE ES   1    713 54.61                             147     0.2 7   94 169 
 RUS  HZ I         713 56.48         1.0 0.31                            94 169 
 PTB  HZ EP   1    713 38.27                             136     0.1 7  135 261 
 PTB  HN ES   1    713 58.69                             136    -0.1 7  135 261 
 PTB  HZ I         714  5.71         1.0 0.30                           135 261 
                                                                                
