 2010 11 6 0237 48.8 L   6.773 -73.142148.0  RSN  7 0.3 1.9LRSN                1
 GAP=213        0.53       4.7     6.0  6.0  0.1274E+02  0.7322E+01  0.8167E+01E
 Epicentro: LOS SANTOS - SANTANDER                                             3
 ACTION:UP  10-12-17 16:50 OP:REBC STATUS:               ID:20101106023748 L   I
 2010-11-06-0220-00M.COL___116                                                 6
 STAT SP IPHASW D HRMM SECON CODA AMPLIT PERI AZIMU VELO SNR AR TRES W  DIS CAZ7
 BAR2 SZ EP   2    238  8.54                             172    -0.1 5   21 193 
 BAR2 SZ I         238 24.54        15.4 0.38                            21 193 
 BRR  HZ IP     C  238 10.27                             152     0.010   73 300 
 BRR  HZ I         238 10.50        31.1 0.12                            73 300 
 BRR  HE ES   1    238 27.10                             152     0.1 7   73 300 
 RUS  HZ EP   1    238 12.17                             145    -0.4 7   98 176 
 RUS  HE ES   1    238 31.23                             145     0.2 7   98 176 
 RUS  HZ I         238 32.85         4.4 0.46                            98 176 
 YOP  SZ EP   2    238 19.21                             127     0.5 4  176 153 
 NOR  SZ EP   2    238 24.04                             119    -0.5 4  233 235 
 HEL  HZ EP   2    238 29.72                             115     0.6 4  272 256 
 HEL  HE ES   2    239  0.42                             115    -0.1 4  272 256 
 HEL  HZ I         239  8.69         3.0 0.37                           272 256 
 PRA  HZ EP   1    238 42.32                             107     0.2 4  390 210 
 PRA  HZ I         238 43.88         8.4 0.22                           390 210 
 PRA  HE ES   2    239 23.45                             107    -0.2 3  390 210 
                                                                                
