 2015  5 6 0332 31.4 L   6.813 -73.128148.8  RSN  7 0.4 1.3LRSN                1
 GAP=202        1.05       4.1     7.4  7.7  0.1323E+02  0.5694E+01  0.2142E+01E
 Epicentro: LOS SANTOS - SANTANDER                                             3
 ACTION:UPD 15-09-10 22:01 OP:cam  STATUS:               ID:20150506033231 L   I
 OLDACT:REG 15-05-06 12:05 OP:drio STATUS:               ID:20150506032749     3
 2015-05-06-0327-49M.COL___276                                                 6
 STAT SP IPHASW D HRMM SECON CODA AMPLIT PERI AZIMU VELO AIN AR TRES W  DIS CAZ7
 BAR2 EZ EP        332 50.78                             170   -0.6610 25.1 194 
 BAR2 EZ ES        333  6.71                             170   -0.3510 25.1 194 
 BAR2 EZ I         333  9.09         4.8 0.30            171           25.1 194 
 BRR  HZ EP        332 53.31                             153    0.3610 72.2 297 
 BRR  HN ES        333 10.44                             153    0.7010 72.2 297 
 BRR  HZ I         333 15.00         4.2 0.36            154           72.2 297 
 RUS  HZ EP        332 55.76                             144    0.2010  102 177 
 RUS  HN ES        333 14.52                             144    0.1310  102 177 
 RUS  HZ I         333 15.89         2.2 0.54            147            102 177 
 SPBC HN ES        333 22.42                             129   -0.53 9  166 219 
 ZAR  HN ES        333 29.47                             123   -0.27 8  205 292 
 SML  HN ES        333 36.64                             118   -0.17 8  243 335 
 CHI  HZ EP        333  9.66                             117    0.17 8  251 196 
 CHI  HZ I         333 10.25         1.2 0.40            120            251 196 
 CHI  HE ES        333 39.60                             117    0.42 8  251 196 
                                                                                
