 2013 10 6 0040 56.2 L   6.573 -73.592107.7  RSN  5 0.4 1.6LRSN                1
 GAP=141        0.95       5.3     4.0  8.5  0.3718E+01  0.9851E+01  0.4227E+00E
 Epicentro: EL CARMEN DE CHUCURI - SANTANDER                                   3
 ACTION:UPD 13-11-25 09:19 OP:ep   STATUS:               ID:20131006004056 L   I
 OLDACT:REG 13-10-06 06:50 OP:nd   STATUS:               ID:20131006003959     3
 2013-10-06-0039-59M.COL___273                                                 6
 STAT SP IPHASW D HRMM SECON CODA AMPLIT PERI AZIMU VELO AIN AR TRES W  DIS CAZ7
 BAR2 SZ IP     C  041 12.37                             155    0.2510 45.4  87 
 BAR2 SZ ES        041 24.82                             155    0.2710 45.4  87 
 BAR2 SZ I         041 26.57        53.3 0.34            163           45.4  87 
 RUS  HZ EP        041 15.72                             136   -0.1310 94.0 143 
 RUS  HN ES        041 30.73                             136   -0.4610 94.0 143 
 RUS  HZ I         041 32.52         4.3 0.24            141           94.0 143 
 PTB  HZ IP     C  041 15.17                             135   -0.1710 95.6 268 
 PTB  HN ES        041 29.70                             135   -0.5810 95.6 268 
 PTB  HZ I         041 31.74         5.7 0.16            135           95.6 268 
 SPBC HZ EP        041 17.16                             129   -0.0210  115 208 
 SPBC HN ES        041 34.23                             129    0.6810  115 208 
 SPBC HZ I         041 40.80         5.3 0.18            131            115 208 
 ZAR  HZ EP   2    041 23.41                             117    0.39 4  173 306 
 ZAR  HN ES   2    041 44.43                             117    0.48 4  173 306 
 ZAR  HZ I         041 52.08         4.5 0.32            119            173 306 
                                                                                
