 2010 10 6 0100 55.6 L   6.356 -73.970 84.0  RSN  5 0.2 1.6LRSN                1
 GAP=115        0.51       3.6     4.2 10.0 -0.3049E+01  0.9170E+01  0.6051E+01E
 Epicentro: CIMITARRA - SANTANDER                                              3
 ACTION:UP  11-02-18 11:07 OP:tino STATUS:               ID:20101006010055 L   I
 2010-10-06-0057-26S.COL___122                                                 6
 STAT SP IPHASW D HRMM SECON CODA AMPLIT PERI AZIMU VELO SNR AR TRES W  DIS CAZ7
 BRR  HZ IP     C  1 1 11.73                             131    -0.310   88  19 
 BRR  HZ I         1 1 11.93        19.6 0.12                            88  19 
 BRR  HN ES   1    1 1 25.07                             131     0.2 7   88  19 
 RUS  HZ EP   2    1 1 14.82                             124    -0.1 5  111 118 
 RUS  HE ES   2    1 1 30.23                             124     0.2 5  111 118 
 NOR  SN ES   2    1 1 33.26                             118     0.0 5  133 229 
 HEL  HZ EP   2    1 1 21.99                             112     0.3 4  173 264 
 HEL  HZ I         1 1 39.02         3.5 0.67                           173 264 
 GUE  SZ EP   2    1 1 25.12                             108     0.4 4  200  35 
                                                                                
