 2013 11 6 0058 41.1 L   6.744 -73.131150.0  RSN  5 0.2 1.3LRSN                1
 GAP=141        0.57       3.4     5.2  5.2  0.2600E+01 -0.7744E+01 -0.3189E+01E
 Epicentro: JORDAN - SANTANDER                                                 3
 ACTION:UPD 14-01-09 16:26 OP:ep   STATUS:               ID:20131106005841 L   I
 OLDACT:REG 13-11-06 07:10 OP:jn   STATUS:               ID:20131106005738     3
 2013-11-06-0057-38M.COL___207                                                 6
 STAT SP IPHASW D HRMM SECON CODA AMPLIT PERI AZIMU VELO AIN AR TRES W  DIS CAZ7
 BAR2 SZ EP        059  0.93                             173   -0.1710 17.8 199 
 BAR2 SZ ES        059 16.74                             173    0.0010 17.8 199 
 BAR2 SZ I         059 17.19         6.9 0.16            169           17.8 199 
 BRR  HZ EP        059  2.89                             152   -0.0310 75.7 302 
 BRR  HN ES        059 20.16                             152    0.1810 75.7 302 
 BRR  HZ I         059 21.05         4.2 0.38            150           75.7 302 
 PAM  SZ EP        059  3.73                             151   -0.2210 81.2  36 
 RUS  HZ EP        059  5.22                             146    0.4210 94.3 177 
 RUS  HN ES        059 23.23                             146   -0.0810 94.3 177 
 RUS  HZ I         059 24.94         1.4 0.20            145           94.3 177 
 SPBC HN ES   1    059 31.57                             130   -0.20 7  160 221 
 SPBC HZ I         059 34.73         4.2 0.22            129            160 221 
                                                                                
