 2012  3 6 0332 42.8 L   6.828 -73.404115.3  RSN  8 0.4 1.4LRSN                1
 GAP= 83        0.93       3.7     5.4  8.5  0.2662E+01  0.1655E+02  0.3333E+01E
 ACTION:UP  12-03-31 23:17 OP:EP   STATUS:               ID:20120306033242 L   I
 2012-03-06-0330-00M.COL___191                                                 6
 STAT SP IPHASW D HRMM SECON CODA AMPLIT PERI AZIMU VELO SNR AR TRES W  DIS CAZ7
 BAR2 SZ EP   1    332 59.66                             162     0.5 8   36 137 
 BAR2 SZ ES   1    333 11.50                             162    -0.5 8   36 137 
 BAR2 SZ I         333 13.81        19.8 0.27                            36 137 
 BRR  HZ EP   1    332 59.82                             157     0.5 8   46 312 
 BRR  HZ I         332 59.98        18.6 0.13                            46 312 
 BRR  HN ES   1    333 12.45                             157     0.3 8   46 312 
 PAM  SN ES   1    333 19.44                             138     0.1 8   96  54 
 RUS  HZ EP   1    333  4.68                             134     0.2 8  109 161 
 RUS  HN ES   1    333 21.07                             134    -0.3 8  109 161 
 RUS  HZ I         333 23.46         4.7 0.28                           109 161 
 PTB  HZ EP        333  4.24                             130    -0.610  121 255 
 OCA  SZ EP   1    333  8.55                             122     0.0 7  156   3 
 OCA  SZ ES   1    333 28.15                             122    -0.5 7  156   3 
 OCA  SZ I         333 30.53         0.4 0.24                           156   3 
 ZAR  HN ES   1    333 32.32                             119     0.3 7  177 295 
 CHI  HN ES   1    333 47.01                             110     0.3 6  246 189 
                                                                                
