 2016 10 6 0947 14.7 L   6.814 -73.156146.0  RSN 14 0.4 1.9LRSN                1
 GAP=135        0.96       2.8     3.9  5.6 -0.1946E+01  0.5043E+01  0.9017E+00E
 Epicentro: LOS SANTOS - SANTANDER                                             3
 ACTION:UPD 16-11-09 19:16 OP:rebc STATUS:               ID:20161006094714 L   I
 OLDACT:UP  16-10-06 15:47 OP:dani STATUS:               ID:20161006093739     3
 OLDACT:UP  16-10-06 15:46 OP:dani STATUS:               ID:20161006093739     3
 OLDACT:UP  16-10-06 15:44 OP:dani STATUS:               ID:20161006093739     3
 OLDACT:UP  16-10-06 15:44 OP:dani STATUS:               ID:20161006093739     3
 OLDACT:REG 16-10-06 13:17 OP:dnl  STATUS:               ID:20161006093739     3
 2016-10-06-0938-00M.COL___354                                                 6
 STAT SP IPHASW D HRMM SECON CODA AMPLIT PERI AZIMU VELO AIN AR TRES W  DIS CAZ7
 BAR2 EZ EP        947 34.29                             170   -0.1410 24.7 187 
 BAR2 HN ES        947 49.60                             170   -0.1910 24.7 187 
 BAR2 EZ I         947 50.34        28.3 0.44            168           24.7 187 
 BRR  HZ EP        947 36.09                             153    0.2610 69.5 298 
 BRR  HN ES        947 53.14                             153    0.8710 69.5 298 
 BRR  HZ I         947 55.72        21.2 0.30            145           69.5 298 
 PAM  EZ EP        947 37.15                             151    0.1910 76.9  41 
 PAM  EE ES        947 54.22                             151   -0.0610 76.9  41 
 PAM  EZ I         947 56.44        20.0 0.76            147           76.9  41 
 RUS  HZ EP        947 38.37                             143   -0.2710  102 175 
 RUS  HN ES        947 57.25                             143   -0.0310  102 175 
 RUS  HZ I         947 58.78         6.5 0.32            139            102 175 
 PTB  HZ EP        947 40.94                             132   -0.72 9  147 258 
 PTB  HN ES        948  1.98                             132   -0.68 9  147 258 
 PTB  HZ I         948  5.19         8.5 0.26            124            147 258 
 OCA  HZ EP        947 42.85                             130   -0.07 9  159 353 
 OCA  HN ES        948  4.69                             130   -0.20 9  159 353 
 OCA  HZ I         948  9.11        17.3 0.28            123            159 353 
 SPBC HN ES        948  5.77                             129    0.18 9  164 218 
 ZAR  HZ EP        947 47.06                             123    0.02 9  202 292 
 ZAR  HN ES        948 12.50                             123    0.27 9  202 292 
 ZAR  HZ I         948 18.91        10.0 0.40            115            202 292 
 NOR  HE ES        948 18.13                             119   -0.24 8  235 234 
 CHI  HZ EP   4    947 56.86                             117    4.27 0  250 195 
 CHI  HN ES        948 22.45                             117    0.34 8  250 195 
 CHI  HZ I         948 25.86         1.8 0.21            112            250 195 
 HEL  HZ EP   4    947 56.59                             115    1.69 0  271 255 
 HEL  HZ I         948 32.73         4.8 0.48            109            271 255 
 URE  HZ EP   4    947 58.57                             114    2.92 0  282 292 
 URE  HN ES   4    948 25.55                             114   -2.00 0  282 292 
 URE  HZ I         948 30.25         6.8 0.13            108            282 292 
 PTGC HE ES   4    948 31.07                             112   -2.13 0  311 159 
 PRA  HZ EP        948  9.09                             107    0.72 6  393 209 
 PRA  HE ES        948 50.67                             107    0.47 6  393 209 
 PRA  HZ I         948 53.15         2.4 0.24            102            393 209 
 SJC  HZ EP   4    948  8.64                             106   -1.45 0  407 327 
 SJC  HN ES   4 C  948 49.32                             106   -3.94 0  407 327 
 SJC  HZ I         948 59.80         1.5 0.49            101            407 327 
                                                                                
