 2014 11 6 0728 46.9 L   6.782 -73.148148.8  RSN  9 0.5 1.8LRSN                1
 GAP=137        1.20       4.9     5.3  7.0 -0.7955E+01  0.7325E+01  0.8534E+01E
 Epicentro: LOS SANTOS - SANTANDER                                             3
 ACTION:UPD 14-12-19 15:39 OP:nd   STATUS:               ID:20141106072846 L   I
 OLDACT:REG 14-11-06 14:21 OP:carl STATUS:               ID:20141106072738     3
 2014-11-06-0727-38M.COL___283                                                 6
 STAT SP IPHASW D HRMM SECON CODA AMPLIT PERI AZIMU VELO AIN AR TRES W  DIS CAZ7
 BAR2 SZ EP        729  7.18                             172    0.2810 21.3 190 
 BAR2 SZ ES        729 22.53                             172    0.0610 21.3 190 
 BAR2 SZ I         729 23.69        11.6 0.20            168           21.3 190 
 BRR  HZ EP        729  8.61                             153    0.1510 71.9 300 
 BRR  HN ES        729 26.01                             153    0.7710 71.9 300 
 BRR  HZ I         729 27.07        15.5 0.12            152           71.9 300 
 PAM  SZ EP        729  9.52                             151   -0.0610 79.1  39 
 PAM  SN ES        729 26.93                             151   -0.3210 79.1  39 
 PAM  SZ I         729 29.18        21.3 0.66            157           79.1  39 
 RUS  HZ EP        729 10.90                             145    0.0410 98.6 176 
 RUS  HN ES        729 29.65                             145    0.1410 98.6 176 
 RUS  HZ I         729 31.58         5.3 0.20            145           98.6 176 
 PTB  HZ EP        729 13.31                             133   -0.79 9  147 260 
 PTB  HN ES        729 34.49                             133   -0.79 9  147 260 
 PTB  HZ I         729 41.87        13.7 0.36            133            147 260 
 SPBC HZ EP        729 15.62                             130    0.11 9  161 219 
 SPBC HN ES        729 37.37                             130   -0.43 9  161 219 
 SPBC HZ I         729 44.55         9.4 0.32            130            161 219 
 NOR  HZ EP        729 22.82                             119    0.12 8  233 235 
 NOR  HE ES        729 50.07                             119   -0.52 8  233 235 
 NOR  HZ I         729 58.87         4.7 0.18            120            233 235 
 CHI  HZ EP        729 24.68                             118    0.09 8  247 195 
 CHI  HN ES        729 53.73                             118   -0.24 8  247 195 
 CHI  HZ I         729 59.49         3.8 0.36            119            247 195 
 GUY2CHZ EP        729 30.86                             113    0.33 7  300 235 
 GUY2CHN ES        730  6.05                             113    1.51 7  300 235 
 GUY2CHZ I         730 12.68         3.4 0.42                           300 235 
                                                                                
