 2012  9 6 0851 14.6 L   6.794 -73.180139.8  RSN 11 0.4 2.2LRSN                1
 GAP=133        0.77       3.6     4.1  5.4  0.3965E+00  0.7484E+01  0.6099E+01E
 Epicentro: LOS SANTOS - SANTANDER                                             3
 ACTION:UPD 12-10-22 14:17 OP:ep   STATUS:               ID:20120906085114 L   I
 2012-09-06-0850-00M.COL___218                                                 6
 STAT SP IPHASW D HRMM SECON CODA AMPLIT PERI AZIMU VELO AIN AR TRES W  DIS CAZ7
 BAR2 SZ EP   1    851 33.51                             170    0.01 7 22.3 181 
 BAR2 SZ ES   1    851 48.17                             170   -0.06 7 22.3 181 
 BAR2 SZ I         851 49.68        85.7 0.27                          22.3 181 
 GIR2 SZ EP   1    851 33.48                             167   -0.10 7 31.5 357 
 GIR2 SZ ES   1    851 47.99                             167   -0.38 7 31.5 357 
 BRR  HZ EP   1    851 35.29                             152    0.35 7 68.2 301 
 BRR  HN ES   1    851 51.76                             152    0.96 7 68.2 301 
 BRR  HZ I         851 53.23        42.2 0.16                          68.2 301 
 PAM  SZ EP   1    851 36.44                             149    0.07 7 80.4  41 
 PAM  SN ES   1    851 53.20                             149   -0.16 7 80.4  41 
 PAM  SZ I         851 55.62        34.7 0.46                          80.4  41 
 RUS  HZ EP   1    851 37.50                             143   -0.25 7  100 174 
 RUS  HN ES   1    851 55.98                             143    0.18 7  100 174 
 RUS  HZ I         851 57.44        10.6 0.27                           100 174 
 PTB  HZ EP   1    851 40.14                             131   -0.60 7  144 259 
 PTB  HN ES   1    852  0.28                             131   -0.84 7  144 259 
 ZAR  HZ EP   1    851 46.16                             121   -0.17 6  201 293 
 ZAR  HE ES   1    852 11.13                             121    0.06 6  201 293 
 ZAR  HZ I         852 17.02         9.6 0.21                           201 293 
 NOR  SZ EP   2    851 49.81                             118    0.19 4  231 234 
 NOR  SN ES   2    852 16.97                             118    0.04 4  231 234 
 CHI  HZ EP   1    851 51.71                             116   -0.09 6  247 194 
 CHI  HN ES   1    852 21.33                             116    0.52 6  247 194 
 CHI  HZ I         852 24.99         8.0 0.50                           247 194 
 HEL  HZ EP   1    851 54.90                             114    0.81 6  268 256 
 HEL  HZ I         852 31.85         5.0 0.32                           268 256 
 PRA  HZ EP   1    852  7.70                             106    0.06 4  390 209 
 PRA  HN ES   1    852 48.71                             106   -0.29 4  390 209 
 PRA  HZ I         852 54.74         7.6 0.30                           390 209 
                                                                                
