 2011 11 6 0835 39.3 L   6.774 -73.116144.1  RSN  5 0.2 1.6LRSN                1
 GAP=142        0.47       3.4     4.7  5.3  0.2150E+01 -0.9269E+01 -0.7929E+00E
 Epicentro: LOS SANTOS - SANTANDER                                             3
 ACTION:UPD 12-07-13 16:08 OP:ep   STATUS:               ID:20111106083539 L   I
 2011-11-06-0834-08S.COL___175                                                 6
 STAT SP IPHASW D HRMM SECON CODA AMPLIT PERI AZIMU VELO AIN AR TRES W  DIS CAZ7
 BAR2 SZ EP   2    835 58.75                             171    0.10 5 21.4 200 
 BAR2 SZ ES   2    836 13.41                             171   -0.37 5 21.4 200 
 BAR2 SZ I         836 14.70        10.7 0.18                          21.4 200 
 BRR  HZ EP        836  0.17                             151   -0.3110 75.4 299 
 BRR  HE ES        836 17.23                             151    0.2110 75.4 299 
 BRR  HZ I         836 20.99         8.2 0.26                          75.4 299 
 PAM  SZ EP        836  1.52                             150    0.2010 77.6  36 
 PAM  SN ES   2    836 18.35                             150   -0.17 5 77.6  36 
 RUS  HZ EP   1    836  2.75                             144    0.12 7 97.5 178 
 RUS  HN ES   2    836 20.78                             144   -0.08 5 97.5 178 
 RUS  HZ I         836 22.51         3.8 0.33                          97.5 178 
 OCA  SZ EP   2    836  7.78                             129    0.02 5  164 352 
 OCA  SZ ES   2    836 29.77                             129   -0.21 5  164 352 
 OCA  SZ I         836 37.43         7.3 0.24                           164 352 
                                                                                
