 2013  7 6 0734 10.8 L   7.429 -73.216130.0  RSN 19 0.5 2.5LRSN 3.1WRSN        1
 SPEC AVERAGE  MO 13.7 ST  4.1 OM  2.3 f0 3.50 R0.4851 AL 2.37 WI 24.3 MW  3.1 3
 SPEC SD       MO  0.2 ST  4.7 OM  0.5 f0 1.19 R0.1240 AL      WI      MW  0.1 3
 GAP=107        0.97       3.0     3.2  5.2  0.1839E+01  0.4893E+01  0.2753E+01E
 Epicentro: EL PLAYON - SANTANDER                                              3
 SPEC TAM HH N MO 13.9 ST  2.0 OM  2.1 f0 2.85 R0.5453 AL 2.48 WI 21.3 MW  3.2 3
 SPEC TAM HH N T 735 3 K 0.000 GD  231 VS 4.20 DE 3.20 Q0300.0 QA 0.60 VS 4.20 3
 SPEC ZAR HH Z MO 13.3 ST0.361 OM  1.6 f0 2.41 R0.6448 AL 1.46 WI 22.9 MW  2.8 3
 SPEC ZAR HH Z T 735 1 K 0.000 GD  222 VS 4.20 DE 3.20 Q0300.0 QA 0.60 VS 4.20 3
 SPEC PTB HH N MO 13.4 ST0.918 OM  1.7 f0 3.09 R0.5029 AL 1.49 WI 18.9 MW  2.9 3
 SPEC PTB HH N T 73458 K 0.000 GD  213 VS 4.20 DE 3.20 Q0300.0 QA 0.60 VS 4.20 3
 SPEC HEL HH N MO 13.6 ST  1.1 OM  1.7 f0 2.87 R0.5415 AL 1.95 WI 43.2 MW  3.0 3
 SPEC HEL HH N T 73521 K 0.000 GD  317 VS 4.20 DE 3.20 Q0300.0 QA 0.60 VS 4.20 3
 SPEC NOR HH N MO 13.8 ST 14.6 OM  1.9 f0 5.92 R0.2625 AL 3.89 WI 29.5 MW  3.1 3
 SPEC NOR HH N T 73518 K 0.000 GD  305 VS 4.20 DE 3.20 Q0300.0 QA 0.60 VS 4.20 3
 SPEC PAM SH N MO 14.0 ST  4.0 OM  2.5 f0 3.13 R0.4965 AL 2.50 WI 12.8 MW  3.3 3
 SPEC PAM SH N T 73444 K 0.000 GD  142 VS 4.20 DE 3.20 Q0300.0 QA 0.60 VS 4.20 3
 SPEC CHI HH N MO 13.7 ST  1.2 OM  1.8 f0 2.68 R0.5799 AL 2.13 WI 34.7 MW  3.1 3
 SPEC CHI HH N T 73530 K 0.000 GD  340 VS 4.20 DE 3.20 Q0300.0 QA 0.60 VS 4.20 3
 SPEC BRR HH N MO 13.8 ST  8.7 OM  2.2 f0 5.06 R0.3071 AL 3.03 WI 11.0 MW  3.1 3
 SPEC BRR HH N T 73444 K 0.000 GD  145 VS 4.20 DE 3.20 Q0300.0 QA 0.60 VS 4.20 3
 ACTION:UPD 13-08-12 10:35 OP:ep   STATUS:               ID:20130706073412dL   I
 OLDACT:UP  13-07-06 10:58 OP:jn   STATUS:               ID:20130706072959     3
 OLDACT:REG 13-07-06 08:01 OP:jn   STATUS:               ID:20130706072959     3
 2013-07-06-0729-59M.COL___266                                                 6
 STAT SP IPHASW D HRMM SECON CODA AMPLIT PERI AZIMU VELO AIN AR TRES W  DIS CAZ7
 GIR2 SZ EP        734 28.95                             162    0.0810 38.8 176 
 PAM  SZ EP     C  734 30.49                             155    0.2610 57.9 100 
 PAM  SN ES        734 45.21                             155   -0.1610 57.9 100 
 PAM  SZ I         734 47.21        84.7 0.40            151           57.9 100 
 BRR  HZ EP     D  734 30.18                             152    0.2510 65.3 237 
 BRR  HN ES   1    734 45.36                             152    0.52 7 65.3 237 
 BRR  HZ I         734 45.86        74.0 0.12            139           65.3 237 
 OCA  HZ EP        734 32.17                             143    0.3810 90.3 353 
 OCA  HN ES   1    734 48.79                             143    0.63 7 90.3 353 
 OCA  HZ I         734 50.50        52.7 0.24            137           90.3 353 
 BAR2 SZ IP     C  734 32.04                             142   -0.0410 92.6 178 
 BAR2 SZ ES        734 48.29                             142   -0.3910 92.6 178 
 BAR2 SZ I         734 49.58        78.0 0.17            131           92.6 178 
 PTB  HZ EP        734 38.18                             124   -0.43 9  169 234 
 PTB  HN ES   1    735  0.75                             124    0.46 7  169 234 
 PTB  HZ I         735  3.07        38.3 0.42            113            169 234 
 RUS  HZ EP        734 38.75                             124   -0.67 9  171 175 
 RUS  HN ES   1    735  1.37                             124   -0.36 7  171 175 
 RUS  HZ I         735  6.63        10.5 0.26            114            171 175 
 SML  HZ EP        734 39.11                             122   -0.48 9  179 328 
 SML  HN ES   1    735  1.15                             122   -0.89 7  179 328 
 ZAR  HZ EP     C  734 40.05                             122    0.16 9  181 272 
 ZAR  HE ES   1    735  2.69                             122    0.11 7  181 272 
 ZAR  HZ I         735  6.53        39.7 0.32            112            181 272 
 TAM  HZ EP     D  734 40.94                             120   -0.10 9  192 125 
 TAM  HN ES   1    735  4.42                             120   -0.21 7  192 125 
 TAM  HZ I         735  5.61        37.7 0.20            112            192 125 
 YOP  SZ EP        734 47.27                             114    0.29 8  246 159 
 YOP  SN ES   1    735 15.24                             114    0.06 6  246 159 
 YOP  SZ I         735 16.53        20.7 0.34            105            246 159 
 NOR  HZ EP   1    734 50.06                             111   -0.22 6  276 222 
 NOR  HN ES   1    735 21.01                             111   -0.06 6  276 222 
 NOR  HZ I         735 27.44        25.1 0.26            102            276 222 
 HEL  HZ EP   1    734 52.61                             110    0.29 5  290 242 
 HEL  HN ES   1    735 23.54                             110   -1.15 5  290 242 
 HEL  HZ I         735 35.30        15.0 0.28            102            290 242 
 CHI  HZ EP   1    734 56.50                             108    1.27 5  315 190 
 CHI  HN ES   4    735 32.10                             108    2.22 0  315 190 
 CHI  HZ I         735 36.74         9.4 0.42            100            315 190 
 DBB  SZ EP        734 56.55                             107   -0.48 7  334 262 
 DBB  SZ ES   4    735 30.68                             107   -2.39 0  334 262 
 DBB  SZ I         735 36.79        13.1 0.56             99            334 262 
 GUY2CHZ EP   1    734 59.51                             106    1.20 5  341 224 
 GUY2CHZ I         735 48.01        16.6 0.56                           341 224 
 RREF HZ EP   4    735  3.41                             105    1.94 0  366 220 
 RREF HZ I         735 49.36        15.2 0.60             97            366 220 
 ORTC HZ EP   1    735 11.15                             101    0.47 4  450 210 
 ORTC HZ I         736 10.63         6.4 0.36                           450 210 
 PRA  HZ EP   1    735 11.00                             101    0.20 4  451 204 
 PRA  HN ES   1    735 59.07                             101    1.47 4  451 204 
 PRA  HZ I         736  6.63        12.9 0.38                           451 204 
                                                                                
