 2017  2 6 0033 53.7 L   6.788 -73.136146.6  RSN  8 0.4 1.8LRSN                1
 GAP=138        1.09       4.1     4.8  6.2 -0.1975E+00  0.6176E+01  0.4741E+01E
 Epicentro: LOS SANTOS - SANTANDER                                             3
 ACTION:UPD 17-05-24 15:33 OP:jn   STATUS:               ID:20170206003353 L   I
 OLDACT:UP  17-02-06 12:27 OP:edw  STATUS:               ID:20170206002747     3
 OLDACT:REG 17-02-06 11:27 OP:edw  STATUS:               ID:20170206002747     3
 2017-02-06-0028-00M.COL___328                                                 6
 STAT SP IPHASW D HRMM SECON CODA AMPLIT PERI AZIMU VELO AIN AR TRES W  DIS CAZ7
 BAR2 EZ EP        034 12.97                             171   -0.4210 22.2 193 
 BAR2 EZ ES        034 28.58                             171   -0.1810 22.2 193 
 BAR2 EZ I         034 29.10        17.1 0.34            170           22.2 193 
 BRR  HZ EP        034 15.10                             152    0.0910 72.8 299 
 BRR  HN ES        034 32.12                             152    0.4810 72.8 299 
 PAM  EZ EP     D  034 16.06                             150    0.0610 77.7  38 
 PAM  EN ES        034 33.18                             150   -0.2310 77.7  38 
 PAM  EZ I         034 35.19        15.9 0.58            152           77.7  38 
 RUS  HZ EP        034 17.10                             144   -0.3110 99.2 177 
 RUS  HN ES        034 36.30                             144    0.3810 99.2 177 
 RUS  HZ I         034 36.80        11.6 0.26            144           99.2 177 
 PTB  HZ EP   9    034 19.81                             132   -0.98 0  149 259 
 PTB  HN ES        034 40.10                             133   -0.85 9  149 259 
 PTB  HZ I         034 42.71         6.9 0.40            131            149 259 
 ZAR  HZ EP        034 27.32                             122    0.99 8  206 292 
 ZAR  HN ES        034 51.17                             122   -0.63 8  206 292 
 ZAR  HZ I         034 53.41         6.7 0.26            122            206 292 
 NOR  HZ EP        034 29.31                             118   -0.16 8  235 235 
 NOR  HN ES        034 57.35                             118   -0.03 8  235 235 
 NOR  HZ I         035  1.70         4.0 0.26            118            235 235 
 CHI  HZ EP        034 31.47                             117    0.15 8  248 195 
 CHI  HN ES        035  0.50                             117   -0.17 8  248 195 
 CHI  HZ I         035  4.02         4.9 0.56            117            248 195 
 PTGC HZ EP   4    034 36.19                             111   -1.20 0  307 159 
 PTGC HN ES   4    035  8.12                             111   -3.36 0  307 159 
 ORTC HN ES   4    035 30.73                             106    1.12 0  395 216 
                                                                                
