 2014 12 6 0933 34.0 L   6.841 -73.156152.8  RSN 10 0.5 1.7LRSN                1
 GAP=133        1.32       3.8     5.7  7.4 -0.2190E+01  0.5215E+01  0.2050E+01E
 Epicentro: LOS SANTOS - SANTANDER                                             3
 ACTION:UPD 15-02-10 17:00 OP:nd   STATUS:               ID:20141206093334 L   I
 OLDACT:DUP 14-12-06 18:55 OP:carl STATUS:               ID:20141206092746d    3
 2014-12-06-0927-45M.COL___312                                                 6
 STAT SP IPHASW D HRMM SECON CODA AMPLIT PERI AZIMU VELO AIN AR TRES W  DIS CAZ7
 BAR2 SZ EP        933 54.33                             169   -0.2510 27.6 186 
 BAR2 SZ ES        934 11.73                             169    1.1010 27.6 186 
 BAR2 SZ I         934 15.32         6.8 0.76            168           27.6 186 
 BRR  HZ EP        933 56.04                             155    0.2810 68.1 296 
 BRR  HN ES        934 13.14                             155    0.4110 68.1 296 
 BRR  HZ I         934 17.45        10.3 0.14            154           68.1 296 
 PAM  SZ EP        933 56.99                             153    0.1510 74.7  42 
 PAM  SN ES        934 14.01                             153   -0.6310 74.7  42 
 PAM  SZ I         934 16.08         8.0 0.50            157           74.7  42 
 RUS  HZ EP        933 58.40                             144   -0.3910  105 176 
 RUS  HN ES   4    934 17.09                             144   -1.03 0  105 176 
 RUS  HZ I         934 18.71         4.1 0.42            146            105 176 
 PTB  HZ EP        934  0.95                             134   -0.60 9  148 257 
 PTB  HN ES        934 22.47                             134   -0.55 9  148 257 
 PTB  HZ I         934 24.92         6.9 0.14            134            148 257 
 PTB  HZ E         934 27.35                                            148 257 
 OCA  HZ EP        934  3.06                             132    0.60 9  156 353 
 OCA  HN ES        934 24.00                             132   -0.65 9  156 353 
 OCA  HZ I         934 29.43         5.8 0.20            135            156 353 
 SPBC HZ EP        934  3.51                             130    0.19 9  166 218 
 SPBC HN ES        934 25.41                             130   -0.78 9  166 218 
 SPBC HZ I         934 31.74         7.9 0.18            131            166 218 
 ZAR  HZ EP        934  7.19                             124    0.54 9  201 291 
 ZAR  HE ES        934 32.58                             124    0.47 9  201 291 
 ZAR  HZ I         934 38.05        10.1 0.58            126            201 291 
 SML  HZ EP        934 10.68                             119    0.13 8  239 335 
 SML  HN ES        934 38.64                             119   -0.42 8  239 335 
 SML  HZ I         934 42.19         8.7 0.10            122            239 335 
 CHI  HZ EP        934 12.99                             118    0.44 8  253 195 
 CHI  HN ES        934 42.64                             118    0.03 8  253 195 
 CHI  HZ I         934 53.42         1.7 0.44            120            253 195 
                                                                                
