 2012  8 6 0826 59.5 L   6.804 -73.201133.2  RSN  5 0.2 1.4LRSN                1
 GAP=130        0.48       2.6     3.7  5.2 -0.1757E+00  0.9736E+00 -0.3941E+01E
 Epicentro: ZAPATOCA - SANTANDER                                               3
 ACTION:UPD 12-09-10 11:54 OP:ep   STATUS:               ID:20120806082659 L   I
 2012-08-06-0820-00M.COL___216                                                 6
 STAT SP IPHASW D HRMM SECON CODA AMPLIT PERI AZIMU VELO AIN AR TRES W  DIS CAZ7
 BAR2 SZ EP   1    827 17.69                             169    0.06 8 23.6 175 
 BAR2 SZ ES   1    827 31.95                             169    0.18 8 23.6 175 
 BAR2 SZ I         827 34.08         9.6 0.18                          23.6 175 
 PAM  SZ EP   1    827 20.66                             147    0.02 8 81.1  43 
 RUS  HZ EP        827 22.03                             141   -0.1010  102 173 
 RUS  HN ES   1    827 39.66                             141   -0.11 7  102 173 
 RUS  HZ I         827 41.27         2.4 0.22                           102 173 
 PTB  HZ EP   1    827 24.81                             130   -0.12 7  142 258 
 PTB  HN ES   1    827 44.81                             130    0.06 7  142 258 
 PTB  HZ I         827 48.48         2.2 0.11                           142 258 
 OCA  HZ EP   1    827 27.24                             127    0.48 7  159 355 
 OCA  HN ES   1    827 47.63                             127   -0.39 7  159 355 
 OCA  HZ I         827 51.71         5.9 0.22                           159 355 
                                                                                
