 2013  9 6 0658 39.6 L   6.796 -73.145142.3  RSN 14 0.5 2.2LRSN                1
 GAP= 71        1.11       3.1     3.7  5.7 -0.5039E+00  0.5288E+01  0.2262E+01E
 Epicentro: LOS SANTOS - SANTANDER                                             3
 ACTION:UPD 13-10-22 09:20 OP:ep   STATUS:               ID:20130906065839 L   I
 OLDACT:REG 13-09-06 10:49 OP:cam  STATUS:               ID:20130906065741     3
 2013-09-06-0657-41M.COL___247                                                 6
 STAT SP IPHASW D HRMM SECON CODA AMPLIT PERI AZIMU VELO AIN AR TRES W  DIS CAZ7
 BAR2 SZ IP     D  658 58.82                             170    0.0510 22.9 190 
 BAR2 SZ ES        659 13.36                             170   -0.4010 22.9 190 
 BAR2 SZ I         659 14.61        37.2 0.36            169           22.9 190 
 BRR  HZ IP     C  659  0.74                             152    0.3810 71.5 299 
 BRR  HN ES        659 17.48                             152    0.9010 71.5 299 
 BRR  HZ I         659 21.92        25.2 0.12            150           71.5 299 
 PAM  SZ EP        659  1.73                             150    0.3010 77.7  39 
 PAM  SN ES   1    659 18.62                             150    0.13 7 77.7  39 
 PAM  SZ I         659 20.75        30.9 0.48            154           77.7  39 
 RUS  HZ EP        659  2.82                             143   -0.1310  100 176 
 RUS  HN ES   1    659 21.04                             143   -0.15 7  100 176 
 RUS  HZ I         659 22.97        15.0 0.42            145            100 176 
 PTB  HZ EP        659  5.49                             131   -0.76 9  148 259 
 PTB  HN ES   1    659 26.11                             131   -0.96 7  148 259 
 PTB  HZ I         659 28.79        19.8 0.16            131            148 259 
 TAM  HN ES        659 28.39                             130    0.07 9  155 105 
 OCA  HZ EP        659  7.46                             129   -0.19 9  161 353 
 OCA  HN ES   1    659 28.80                             129   -0.76 7  161 353 
 OCA  HZ I         659 34.39        16.8 0.28            131            161 353 
 SPBC HZ EP        659  7.81                             128    0.04 9  163 219 
 SPBC HN ES   1    659 29.77                             128   -0.00 7  163 219 
 SPBC HZ I         659 35.42        17.3 0.32            129            163 219 
 ZAR  HZ EP        659 12.96                             122    1.15 9  204 292 
 ZAR  HN ES        659 37.18                             122    0.22 9  204 292 
 ZAR  HZ I         659 43.62        20.6 0.32            122            204 292 
 NOR  HZ EP        659 15.58                             118    0.51 8  234 235 
 NOR  HN ES        659 42.78                             118    0.01 8  234 235 
 NOR  HZ I         659 48.30        11.6 0.16            119            234 235 
 SML  HZ EP        659 15.38                             117   -0.67 8  244 335 
 SML  HE ES   1    659 43.58                             117   -0.92 6  244 335 
 SML  HZ I         659 46.59        25.0 0.24            118            244 335 
 CHI  HZ EP        659 16.97                             116   -0.06 8  248 195 
 CHI  HN ES   1    659 46.19                             116   -0.06 6  248 195 
 CHI  HZ I         659 49.58         5.7 0.26            118            248 195 
 ROSC BZ EP   4    659 19.63                             116    2.17 0  252 211 
 ROSC BE ES   4    659 49.13                             116    2.11 0  252 211 
 PRA  HZ EP        659 33.04                             106    0.11 6  392 210 
 PRA  HN ES   1    7 0 14.38                             106   -0.17 4  392 210 
 PRA  HZ I         7 0 20.68         7.8 0.40            107            392 210 
 ORTC HZ EP        659 33.65                             106    0.32 6  395 216 
 ORTC HN ES        7 0 14.75                             106   -0.52 6  395 216 
 ORTC HZ I         7 0 22.07         5.6 0.30            107            395 216 
                                                                                
