 2014  1 6 0643 33.2 L   6.812 -73.143144.7  RSN  8 0.4 1.7LRSN                1
 GAP=119        1.00       3.9     4.1  6.0 -0.1448E+01  0.4931E+01  0.3776E+00E
 Epicentro: LOS SANTOS - SANTANDER                                             3
 ACTION:UPD 14-03-13 09:52 OP:ep   STATUS:               ID:20140106064000 L   I
 OLDACT:UPD 14-01-06 11:16 OP:CAM  STATUS:               ID:20140106064000 L   3
 2014-01-06-0640-00M.COL___285                                                 6
 STAT SP IPHASW D HRMM SECON CODA AMPLIT PERI AZIMU VELO AIN AR TRES W  DIS CAZ7
 BAR2 SZ EP        643 53.02                             170    0.3310 24.7 190 
 BAR2 SZ ES        644  8.04                             170    0.1110 24.7 190 
 BAR2 SZ I         644 10.65        19.8 0.42            164           24.7 190 
 PAM  SZ EP        643 55.87                             151    0.6810 76.2  40 
 PAM  SN ES        644 11.88                             151   -0.5010 76.2  40 
 PAM  SZ I         644 15.29         7.0 0.50            150           76.2  40 
 RUS  HZ EP        643 57.10                             143    0.2010  102 176 
 RUS  HN ES        644 15.48                             143    0.0510  102 176 
 RUS  HZ I         644 17.84         5.1 0.24            136            102 176 
 PTB  HZ EP        643 59.73                             132   -0.36 9  148 258 
 PTB  HN ES        644 20.54                             132   -0.55 9  148 258 
 PTB  HZ I         644 22.61         8.1 0.42            127            148 258 
 SPBC HZ EP        644  2.12                             128    0.43 9  164 219 
 SPBC HZ I         644 31.09        10.6 0.22            123            164 219 
 ZAR  HZ EP        644  5.65                             122    0.14 9  204 292 
 ZAR  HN ES        644 31.05                             122    0.31 9  204 292 
 CHI  HZ EP        644 10.47                             117   -0.48 8  250 195 
 CHI  HN ES        644 40.26                             117   -0.16 8  250 195 
 CHI  HZ I         644 44.75         1.5 0.28            112            250 195 
 SOCV BZ EP        644 15.34                             112   -0.71 7  300  57 
                                                                                
