 2010  9 6 0858 17.6 L   6.792 -73.058142.6  RSN  6 0.3 1.3LRSN                1
 GAP=199        0.78       8.6    11.4 10.0 -0.4675E+01 -0.6241E+02 -0.2960E+02E
 Epicentro: LOS SANTOS - SANTANDER                                             3
 ACTION:UP  11-02-18 11:00 OP:tino STATUS:               ID:20100906085817 L   I
 2010-09-06-0856-02S.COL___119                                                 6
 STAT SP IPHASW D HRMM SECON CODA AMPLIT PERI AZIMU VELO SNR AR TRES W  DIS CAZ7
 BAR2 SZ EP        858 36.83                             169    -0.110   26 212 
 BTL  SZ EP        858 37.08                             169     0.210   27 301 
 BTL  SZ ES   1    858 51.97                             169     0.0 7   27 301 
 BRR  HZ EP        858 38.83                             149    -0.110   80 296 
 BRR  HZ I         858 39.14         6.9 0.11                            80 296 
 BRR  HE ES   1    858 55.55                             149     0.0 7   80 296 
 GUE  SZ EP        858 42.40                             139     0.510  116   7 
 GUE  SZ I         858 43.36         1.8 0.09                           116   7 
 GRA  SZ EP        858 41.90                             137    -0.510  124  13 
 GRA  SZ I         858 43.02         2.5 0.28                           124  13 
 OCA  SZ EP        858 45.91                             128     0.0 9  163 350 
                                                                                
