 2013  7 6 0048  2.6 L   6.615 -73.199147.9  RSN  4 0.3 1.2LRSN                1
 GAP=189        0.62       8.6     5.1  7.5  0.9440E+01  0.1885E+01  0.2135E+02E
 Epicentro: BARICHARA - SANTANDER                                              3
 ACTION:UPD 13-08-12 10:35 OP:ep   STATUS:               ID:20130706004802 L   I
 OLDACT:DUP 13-07-06 08:22 OP:jn   STATUS:               ID:20130706003960d    3
 OLDACT:REG 13-07-06 07:43 OP:jn   STATUS:               ID:20130706003959     3
 2013-07-06-0039-59M.COL___266                                                 6
 STAT SP IPHASW D HRMM SECON CODA AMPLIT PERI AZIMU VELO AIN AR TRES W  DIS CAZ7
 BAR2 SZ EP   1    048 22.03                             179   -0.22 8 3.15 143 
 BAR2 SZ ES   1    048 37.36                             179   -0.22 8 3.15 143 
 BAR2 SZ I         048 38.29         3.7 0.24            157           3.15 143 
 BRR  HZ EP   1    048 24.07                             150   -0.33 8 78.6 314 
 BRR  HN ES   1    048 41.86                             150    0.46 8 78.6 314 
 BRR  HZ I         048 47.20         4.2 0.44            160           78.6 314 
 RUS  HZ EP   1    048 25.64                             150    0.39 8 80.9 171 
 RUS  HZ I         048 51.52         1.7 0.13            130           80.9 171 
 PTB  HZ EP   1    048 29.10                             134    0.12 7  139 267 
 PTB  HN ES        048 49.44                             134   -0.1210  139 267 
 PTB  HZ I         048 52.27         2.0 0.20            129            139 267 
                                                                                
