 2010 11 6 0840 10.4 L   6.806 -72.983141.5  RSN  4 0.2 1.5LRSN                1
 GAP=199        0.45       4.1     9.8  6.8  0.2706E+02 -0.3357E+02 -0.1379E+02E
 Epicentro: CEPITA - SANTANDER                                                 3
 ACTION:UP  10-12-17 16:50 OP:REBC STATUS:               ID:20101106084010 L   I
 2010-11-06-0839-00S.COL___125                                                 6
 STAT SP IPHASW D HRMM SECON CODA AMPLIT PERI AZIMU VELO SNR AR TRES W  DIS CAZ7
 BAR2 SZ ES   2    840 44.81                             166     0.0 5   33 223 
 BAR2 SZ I         840 48.15         7.8 0.47                            33 223 
 BRR  HZ IP     C  840 32.00                             146    -0.110   87 292 
 BRR  HZ I         840 32.46         8.2 0.11                            87 292 
 BRR  HN ES   1    840 49.14                             146     0.1 7   87 292 
 RUS  HZ EP   1    840 34.11                             143     0.3 7  102 186 
 RUS  HE ES   1    840 51.95                             143    -0.1 7  102 186 
 RUS  HZ I         840 53.33         3.0 0.19                           102 186 
 OCA  SZ EP   2    840 38.44                             128    -0.2 5  163 347 
 OCA  SZ ES   2    841  0.79                             128     0.1 5  163 347 
 OCA  SZ I         841  8.48         3.5 0.37                           163 347 
                                                                                
