 2016  8 6 0508  1.7 L   6.795 -73.122148.4  RSN  6 0.2 1.1LRSN                1
 GAP=240        0.64       3.5     4.1  4.2  0.6340E+01 -0.1862E+00 -0.1693E+01E
 Epicentro: LOS SANTOS - SANTANDER                                             3
 ACTION:UPD 16-10-29 15:32 OP:rebc STATUS:               ID:20160806050801 L   I
 OLDACT:DUP 16-08-06 17:49 OP:edw  STATUS:               ID:20160806045639d    3
 OLDACT:REG 16-08-06 12:50 OP:edw  STATUS:               ID:20160806045638     3
 2016-08-06-0457-00M.COL___359                                                 6
 STAT SP IPHASW D HRMM SECON CODA AMPLIT PERI AZIMU VELO AIN AR TRES W  DIS CAZ7
 BAR2 EZ EP        5 8 21.28                             171   -0.3610 23.4 197 
 BAR2 EZ ES        5 8 37.24                             171    0.0410 23.4 197 
 BAR2 EZ I         5 8 37.27         4.0 0.42                          23.4 197 
 BRR  HZ EP        5 8 23.39                             152    0.1210 73.7 298 
 BRR  HN ES        5 8 40.41                             152    0.3110 73.7 298 
 RUS  HZ EP        5 8 25.76                             145    0.1010 99.9 178 
 RUS  HN ES        5 8 44.17                             145   -0.1810 99.9 178 
 RUS  HZ I         5 8 44.89         0.9 0.20                          99.9 178 
 PTB  HZ EP   9    5 8 28.31                             132   -0.79 0  150 259 
 PTB  HN ES        5 8 49.39                                   -0.30 9  150 259 
 PTB  HZ I         5 8 52.26         1.1 0.40                           150 259 
 SPBC HZ EP        5 8 30.55                             129    0.03 9  164 220 
 SPBC HE ES        5 8 53.13                             129    0.14 9  164 220 
 SPBC HZ I         5 8 58.61         2.0 0.30                           164 220 
 ZAR  HZ EP        5 8 34.82                             122    0.24 8  207 292 
 ZAR  HN ES        5 8 59.78                             122   -0.45 8  207 292 
                                                                                
