 2016 11 6 0402 45.4 L   6.806 -73.141149.4  RSN  9 0.3 1.8LRSN                1
 GAP=151        0.80       4.3     4.5  5.4 -0.6182E+01  0.1206E+01  0.1160E+02E
 Epicentro: LOS SANTOS - SANTANDER                                             3
 ACTION:UPD 17-10-26 21:05 OP:lp   STATUS:               ID:20161106040245 L   I
 OLDACT:UP  16-11-06 15:01 OP:dani STATUS:               ID:20161106035743     3
 OLDACT:REG 16-11-06 12:34 OP:dani STATUS:               ID:20161106035743     3
 2016-11-06-0358-00M.COL___343                                                 6
 STAT SP IPHASW D HRMM SECON CODA AMPLIT PERI AZIMU VELO AIN AR TRES W  DIS CAZ7
 BAR2 EZ EP        4 3  5.19                             170   -0.2410 24.1 191 
 BAR2 EZ ES        4 3 20.82                             170   -0.2710 24.1 191 
 BAR2 EZ I         4 3 23.06        20.1 0.32            165           24.1 191 
 BRR  HZ EP        4 3  6.93                             153    0.0310 71.4 298 
 BRR  HN ES        4 3 24.23                             153    0.5210 71.4 298 
 BRR  HZ I         4 3 28.22         9.5 0.29            141           71.4 298 
 PAM  EZ EP        4 3  8.21                             152    0.3110 76.5  40 
 PAM  EN ES        4 3 25.45                             152   -0.0410 76.5  40 
 PAM  EZ I         4 3 28.48         6.1 0.46            140           76.5  40 
 PTB  HZ EP        4 3 12.07                             133   -0.60 9  148 259 
 PTB  HE ES        4 3 33.88                             133   -0.11 9  148 259 
 PTB  HZ I         4 3 35.62         5.0 0.14            118            148 259 
 SPBC HZ EP        4 3 13.82                             130   -0.39 9  164 219 
 NOR  HZ EP        4 3 21.53                             119    0.15 8  236 234 
 NOR  HZ I         4 3 58.40         2.1 0.38            107            236 234 
 CHI  HZ EP        4 3 23.60                             118    0.26 8  249 195 
 CHI  HN ES        4 3 53.08                             118    0.11 8  249 195 
 CHI  HZ I         4 3 58.27         2.7 0.29            105            249 195 
 ROSC BZ EP   4    4 3 25.88                             117    2.12 0  254 211 
 ROSC BZ I         4 3 59.99         9.5 0.41            105            254 211 
 PRA  HZ EP        4 3 39.32                             107    0.22 6  393 210 
 PRA  HE ES        4 4 21.67                             107    0.65 6  393 210 
 PRA  HZ I         4 4 27.58         3.7 0.37             96            393 210 
                                                                                
