 2010  5 6 0322 35.2 L   6.723 -72.983145.4  RSN  8 0.2 1.9LRSN                1
 GAP=202        0.48       4.2     6.5  5.5 -0.4241E+01 -0.1462E+02 -0.4274E+01E
 Epicentro: CEPITA - SANTANDER                                                 3
 ACTION:UP  10-08-24 10:03 OP:vdl  STATUS:               ID:20100506032235 L   I
 2010-05-06-0320-51S.COL___105                                                 6
 STAT SP IPHASW D HRMM SECON CODA AMPLIT PERI AZIMU VELO SNR AR TRES W  DIS CAZ7
 BAR2 SZ EP   2    322 55.02                             169     0.2 5   26 237 
 BAR2 SZ ES   1    323  9.90                             169    -0.2 7   26 237 
 BRR  HZ IP     C  322 57.57                             146     0.110   91 298 
 BRR  HN ES   1    323 15.10                             146     0.2 7   91 298 
 BRR  HZ I         323 17.86        14.2 0.15                            91 298 
 BRI  SZ EP   1    322 59.55                             140     0.3 7  112  11 
 GUE  SZ EP        323  0.39                             138     0.110  123   3 
 GRA  SZ EP   2    323  0.68                             136     0.0 5  130   9 
 OCA  SZ EP   2    323  3.99                             127    -0.5 4  172 348 
 OCA  SZ ES   1    323 27.15                             127    -0.3 7  172 348 
 HEL  HZ EP   3    323 17.30                             113     0.2 2  288 258 
 HEL  HZ I         323 51.86         2.7 0.66                           288 258 
 PRA  HZ EP   2    323 28.40                             106    -0.5 3  394 212 
 PRA  HZ I         324 14.93         3.3 0.28                           394 212 
                                                                                
