 2012  9 6 0556  9.8 L   6.697 -73.229151.2  RSN  4 0.1 1.2LRSN                1
 GAP=206        0.38       4.2     4.1  5.9  0.7150E+01  0.3802E+01 -0.3223E+01E
 Epicentro: VILLANUEVA - SANTANDER                                             3
 ACTION:UPD 12-10-22 14:17 OP:ep   STATUS:               ID:20120906055609 L   I
 2012-09-06-0550-00M.COL___218                                                 6
 STAT SP IPHASW D HRMM SECON CODA AMPLIT PERI AZIMU VELO AIN AR TRES W  DIS CAZ7
 BAR2 SZ EP   2    556 29.84                             175   -0.05 5 12.7 156 
 BAR2 SZ ES   1    556 45.38                             175   -0.21 7 12.7 156 
 BAR2 SZ I         556 46.22         5.2 0.34                          12.7 156 
 BRR  HZ EP   1    556 31.43                             154   -0.01 7 70.0 310 
 BRR  HN ES   1    556 48.52                             154    0.18 7 70.0 310 
 RUS  HN ES   1    556 51.92                             148    0.14 7 90.5 170 
 PTB  HN ES   1    556 56.78                             136   -0.09 7  137 263 
 PTB  HN I         557  0.42         1.6 0.24                           137 263 
                                                                                
