 2010  8 6 0207 57.1 L   6.811 -73.081144.9  RSN  9 0.3 1.8LRSN                1
 GAP=171        0.73       3.7     6.9  6.1  0.4332E+01 -0.4669E+01  0.1934E+01E
 Epicentro: LOS SANTOS - SANTANDER                                             3
 ACTION:UP  10-09-07 10:52 OP:vdl  STATUS:               ID:20100806020757 L   I
 2010-08-06-0204-38S.COL___125                                                 6
 STAT SP IPHASW D HRMM SECON CODA AMPLIT PERI AZIMU VELO SNR AR TRES W  DIS CAZ7
 BAR2 SZ EP        2 8 16.64                             169    -0.110   27 205 
 BAR2 SZ ES   1    2 8 31.27                             169    -0.7 7   27 205 
 BAR2 SZ I         2 8 32.99        12.6 0.71                            27 205 
 GIR2 SZ EP   2    2 8 16.78                             167     0.1 5   32 337 
 BRR  HZ EP        2 8 18.41                             150    -0.110   77 295 
 BRR  HN ES        2 8 35.40                             150     0.210   77 295 
 BRR  HZ I         2 8 39.23        17.0 0.34                            77 295 
 RUS  HZ EP        2 8 20.75                             143    -0.110  102 180 
 RUS  HN ES        2 8 39.69                             143     0.310  102 180 
 RUS  HZ I         2 8 40.52         6.7 0.97                           102 180 
 GUE  SZ EP   1    2 8 21.82                             140     0.3 7  114   9 
 GUE  SZ I         2 8 42.80         2.4 0.39                           114   9 
 CHI  HZ EP   1    2 8 34.84                             117    -0.3 6  252 197 
 CHI  HN ES   1    2 9  4.90                             117     0.2 6  252 197 
 CHI  HZ I         2 9  6.52         3.2 0.33                           252 197 
 HEL  HN ES   3    2 9  9.54                             114    -0.5 2  279 256 
 HEL  HZ I         2 9 16.28         5.4 0.36                           279 256 
 RREF HN ES   2    2 9 20.33                             110    -0.1 3  328 230 
 RREF HZ I         2 9 28.88         2.8 1.31                           328 230 
 PRA  HN ES   2    2 9 33.14                             106    -0.1 3  397 210 
 PRA  HZ I         2 9 36.81         3.4 0.20                           397 210 
                                                                                
