 2014  6 6 0031 13.0 L   6.784 -73.154143.7  RSN 10 0.4 1.6LRSN                1
 GAP=136        1.00       3.9     4.2  7.3 -0.4095E+01  0.1311E+02 -0.2142E+01E
 Epicentro: LOS SANTOS - SANTANDER                                             3
 ACTION:UPD 14-07-01 22:51 OP:nd   STATUS:               ID:20140606003113 L   I
 OLDACT:REG 14-06-06 12:48 OP:fm   STATUS:               ID:20140606002814     3
 2014-06-06-0028-14M.COL___265                                                 6
 STAT SP IPHASW D HRMM SECON CODA AMPLIT PERI AZIMU VELO AIN AR TRES W  DIS CAZ7
 BAR2 SZ EP        031 32.28                             171   -0.0310 21.4 188 
 BAR2 SZ ES   1    031 47.40                             171   -0.00 7 21.4 188 
 BAR2 SZ I         031 48.79        10.7 0.44            171           21.4 188 
 BRR  HZ EP   1    031 34.21                             152    0.31 7 71.3 300 
 PAM  SZ EP        031 35.10                             150    0.0110 79.3  39 
 PAM  SN ES        031 52.09                             150   -0.2510 79.3  39 
 PAM  SZ I         031 54.83         5.5 0.48            153           79.3  39 
 RUS  HZ EP        031 36.64                             144    0.2510 98.8 175 
 RUS  HN ES        031 55.07                             144    0.4110 98.8 175 
 RUS  HZ I         031 55.67         4.1 0.26            146           98.8 175 
 PTB  HZ EP        031 39.03                             132   -0.63 9  147 259 
 PTB  HN ES        031 59.62                             132   -0.85 9  147 259 
 PTB  HZ I         032  3.98         5.1 0.16            133            147 259 
 SPBC HZ EP        031 40.97                             129   -0.15 9  161 219 
 SPBC HN ES        032  2.99                             129   -0.09 9  161 219 
 SPBC HZ I         032  5.79         6.4 0.38            131            161 219 
 ZAR  HZ EP        031 45.60                             122    0.33 9  204 293 
 ZAR  HE ES        032 11.29                             122    0.83 9  204 293 
 NOR  HZ EP        031 47.86                             118   -0.53 8  233 235 
 NOR  HN ES        032 16.45                             118    0.44 8  233 235 
 NOR  HZ I         032 20.54         3.9 0.20            120            233 235 
 SML  HN ES   2    032 18.35                             117    0.14 4  245 336 
 HEL  HN ES   4    032 25.94                             114    1.84 0  271 256 
 GUY2CHZ EP   4    031 52.95                             112   -3.33 0  299 235 
 GUY2CHN ES        032 30.32                             112    0.25 7  299 235 
 GUY2CHZ I         032 38.96         3.2 0.38                           299 235 
                                                                                
