 2010  5 6 0305 59.1 L   6.733 -72.941131.0  RSN  4 0.1 1.6LRSN                1
 GAP=233        0.29       4.8     6.7  7.3 -0.1453E+02 -0.2833E+02  0.7219E+01E
 Epicentro: CEPITA - SANTANDER                                                 3
 ACTION:UP  10-08-24 10:03 OP:vdl  STATUS:               ID:20100506030559 L   I
 2010-05-06-0304-14S.COL___105                                                 6
 STAT SP IPHASW D HRMM SECON CODA AMPLIT PERI AZIMU VELO SNR AR TRES W  DIS CAZ7
 BAR2 SZ EP   2    3 6 17.21                             166     0.0 5   31 240 
 BAR2 SZ ES   3    3 6 31.20                             166    -0.1 2   31 240 
 BRR  HZ EP   2    3 6 20.25                             142    -0.1 5   95 296 
 BRR  HN ES   2    3 6 36.89                             142     0.0 5   95 296 
 BRR  HZ I         3 6 43.82         7.1 0.32                            95 296 
 GUE  SZ EP   1    3 6 22.86                             135    -0.1 7  121   1 
 GUE  SZ ES   2    3 6 41.45                             135     0.0 5  121   1 
 GRA  SZ EP   2    3 6 23.48                             133     0.2 5  128   7 
                                                                                
