 2011  4 6 0944 48.9 L   6.756 -73.138148.2  RSN 11 0.3 2.3LRSN                1
 GAP=179        0.61       3.6     4.7  4.9 -0.9390E+01  0.1036E+01  0.2987E+01E
 Epicentro: LOS SANTOS - SANTANDER                                             3
 ACTION:UP  11-06-22 15:29 OP:REBC STATUS:               ID:20110406094448 L   I
 2011-04-06-0940-00M.COL___140                                                 6
 STAT SP IPHASW D HRMM SECON CODA AMPLIT PERI AZIMU VELO SNR AR TRES W  DIS CAZ7
 BAR2 SZ IP        945  8.67                             172     0.010   19 195 
 BAR2 SZ ES   1    945 23.95                             172    -0.2 7   19 195 
 BAR2 SZ I         945 25.24        63.3 0.12                            19 195 
 GIR2 SZ EP   1    945  8.94                             165     0.0 7   36 350 
 BRR  HZ IP     C  945 10.52                             152     0.110   74 302 
 BRR  HZ I         945 10.78        50.8 0.06                            74 302 
 BRR  HE ES   1    945 27.70                             152     0.4 7   74 302 
 GRA  SZ EP        945 14.48                             136    -0.210  130  16 
 OCA  SZ EP   1    945 18.12                             129     0.3 7  165 353 
 OCA  SZ ES   2    945 40.11                             129    -0.3 5  165 353 
 OCA  SZ I         945 44.77        17.4 0.38                           165 353 
 NOR  SZ EP   1    945 24.44                             119    -0.1 6  233 236 
 NOR  SN ES   1    945 52.44                             119     0.1 6  233 236 
 CHI  HZ EP   1    945 26.65                             118     0.4 6  244 196 
 CHI  HZ I         945 27.17         7.9 0.11                           244 196 
 CHI  HN ES   2    945 55.54                             118     0.2 4  244 196 
 HEL  HZ EP   2    945 28.89                             115    -0.3 4  272 257 
 HEL  HN ES   2    946  0.59                             115     0.0 4  272 257 
 HEL  HZ I         946  8.20         9.7 0.22                           272 257 
 GUY  SZ EP   1    945 33.00                             113     0.4 5  301 236 
 GUY  SE ES   1    946  5.76                             113    -1.0 5  301 236 
 GUY  SZ I         946 18.46        16.0 0.30                           301 236 
 RREF HZ EP   2    945 34.97                             111     0.1 3  319 230 
 RREF HN ES   2    946 10.87                             111     0.2 3  319 230 
 RREF HZ I         946 20.17         9.0 0.37                           319 230 
 PRA  HZ EP   2    945 41.89                             107    -0.1 3  388 210 
                                                                                
