 2014  1 6 0107  1.6 L   6.810 -73.147147.3  RSN 10 0.4 1.8LRSN                1
 GAP=136        1.06       3.3     4.2  5.9 -0.7159E+00  0.7151E+01  0.2105E+01E
 Epicentro: LOS SANTOS - SANTANDER                                             3
 ACTION:UPD 14-03-13 09:52 OP:ep   STATUS:               ID:20140106010701 L   I
 OLDACT:DUP 14-01-06 10:05 OP:carl STATUS:               ID:20140106010001d    3
 2014-01-06-0100-00M.COL___285                                                 6
 STAT SP IPHASW D HRMM SECON CODA AMPLIT PERI AZIMU VELO AIN AR TRES W  DIS CAZ7
 BAR2 SZ EP        1 7 21.53                             170    0.0610 24.4 189 
 BAR2 SZ ES        1 7 36.79                             170   -0.1610 24.4 189 
 BAR2 SZ I         1 7 37.55        27.6 0.28            171           24.4 189 
 BRR  HZ EP        1 7 23.29                             153    0.3810 70.5 298 
 BRR  HN ES        1 7 40.42                             153    0.9110 70.5 298 
 BRR  HZ I         1 7 44.18         8.5 0.38            150           70.5 298 
 PAM  SZ EP        1 7 24.35                             151    0.3810 76.6  40 
 PAM  SN ES        1 7 40.94                             151   -0.4510 76.6  40 
 PAM  SZ I         1 7 43.69        11.2 0.44            153           76.6  40 
 RUS  HZ EP        1 7 25.30                             144   -0.3210  102 176 
 RUS  HN ES        1 7 44.46                             144    0.1310  102 176 
 RUS  HZ I         1 7 45.87         6.5 0.40            147            102 176 
 PTB  HZ EP        1 7 28.05                             132   -0.68 9  148 258 
 PTB  HN ES        1 7 49.55                             132   -0.32 9  148 258 
 PTB  HZ I         1 7 51.14         5.7 0.14            132            148 258 
 ZAR  HN ES        1 7 59.19                             123   -0.27 9  203 292 
 ZAR  HN I         1 8  9.24         8.8 0.66            122            203 292 
 NOR  HZ EP        1 7 37.28                             119   -0.23 8  235 234 
 NOR  HN ES        1 8  5.41                             119   -0.08 8  235 234 
 NOR  HZ I         1 8  9.81         3.2 0.18            119            235 234 
 SML  HN EP        1 7 38.50                             118    0.27 8  243 335 
 SML  HE ES        1 8  6.26                             118   -0.51 8  243 335 
 SML  HN I         1 8 14.17        18.6 0.10            118            243 335 
 CHI  HZ EP        1 7 39.59                             117    0.05 8  250 195 
 CHI  HN ES        1 8  8.93                             117   -0.17 8  250 195 
 CHI  HZ I         1 8 12.22         2.8 0.54            119            250 195 
 GUY2CHZ EP        1 7 46.44                             113    1.07 7  302 235 
 GUY2CHE ES        1 8 19.53                             113    0.04 7  302 235 
 GUY2CHZ I         1 8 27.58         2.3 0.34                           302 235 
                                                                                
