 2010  7 6 0827 16.4 L   7.401 -73.192132.7  RSN  6 0.2 1.5LRSN                1
 GAP=128        0.45       3.5     5.5  5.3 -0.8423E+01  0.1765E+01  0.1072E+01E
 Epicentro: EL PLAYON - SANTANDER                                              3
 ACTION:UPD 10-12-01 15:15 OP:pat  STATUS:               ID:20100706082717dL   I
 2010-07-06-0823-40S.COL___118                                                 6
 STAT SP IPHASW D HRMM SECON CODA AMPLIT PERI AZIMU VELO AIN AR TRES W  DIS CAZ7
 BRI  SZ EP   1    827 35.81                             156     0.3 7   56  51 
 BRI  SZ ES   2    827 50.80                             156     0.3 5   56  51 
 GUE  SZ EP   1    827 35.61                             156    -0.1 7   56  32 
 GUE  SZ ES   2    827 50.70                             156    -0.1 5   56  32 
 BRR  HZ EP   1    827 35.66                             152    -0.1 7   66 241 
 BRR  HN ES   2    827 51.04                             152     0.1 5   66 241 
 BRR  HZ I         827 52.39        10.0 0.07                            66 241 
 GRA  SZ EP        827 36.24                             151     0.110   69  39 
 GRA  SZ ES   2    827 50.99                             151    -0.6 5   69  39 
 BAR2 SZ EP   1    827 37.65                             144     0.0 7   90 179 
 BAR2 SZ ES   2    827 54.27                             144     0.0 5   90 179 
 OCA  SZ EP   1    827 37.76                             143    -0.1 7   94 351 
 OCA  SZ ES   2    827 54.89                             143     0.3 5   94 351 
 OCA  SZ I         827 56.73         5.0 0.18                            94 351 
                                                                                
