 2012  6 6 0015 54.1 L   6.800 -73.152140.3  RSN  9 0.5 2.2LRSN                1
 GAP=136        0.95       3.9     4.8  8.3 -0.2447E+01  0.1498E+02 -0.3476E+01E
 Epicentro: LOS SANTOS - SANTANDER                                             3
 ACTION:UPD 12-08-06 17:47 OP:ep   STATUS:               ID:20120606001554 L   I
 2012-06-06-0010-00M.COL___201                                                 6
 STAT SP IPHASW D HRMM SECON CODA AMPLIT PERI AZIMU VELO AIN AR TRES W  DIS CAZ7
 BAR2 SZ EP        016 13.18                             170    0.0910 23.2 188 
 BAR2 SZ ES   1    016 27.83                             170   -0.06 7 23.2 188 
 BAR2 SZ I         016 28.83        64.5 0.25            170           23.2 188 
 PAM  SZ EP        016 16.06                             150    0.2810 77.9  40 
 PAM  SN ES   1    016 32.95                             150    0.26 7 77.9  40 
 RUS  HZ EP   1    016 17.51                             143    0.18 7  101 176 
 RUS  HN ES   1    016 35.24                             143   -0.21 7  101 176 
 RUS  HZ I         016 36.49        13.7 0.20            143            101 176 
 PTB  HZ EP        016 19.76                             131   -0.81 9  147 259 
 PTB  HN ES   1    016 40.51                             131   -0.70 7  147 259 
 PTB  HZ I         016 43.72        24.6 0.13            130            147 259 
 OCA  HZ EP   1    016 21.57                             128   -0.43 7  160 353 
 OCA  HN ES   1    016 43.41                             128   -0.34 7  160 353 
 OCA  HZ I         016 48.33        61.3 0.21            129            160 353 
 ZAR  HZ EP   1    016 26.38                             121    0.24 6  203 292 
 ZAR  HN ES        016 51.79                             121    0.67 9  203 292 
 ZAR  HZ I         016 54.54        19.5 0.12            121            203 292 
 NOR  SN ES   1    016 58.00                             117    0.96 6  234 234 
 CHI  HN ES   1    017  0.72                             116    0.08 6  248 195 
 CHI  HZ I         017  7.37         3.6 0.31            116            248 195 
 DBB  SZ EP   1    016 41.16                             109   -0.12 5  339 274 
                                                                                
