 2011  8 6 0208 38.0 L   6.713 -73.515113.1  RSN  5 0.2 1.9LRSN                1
 GAP=137        0.37       2.9     3.6  4.4  0.5013E+01  0.9435E+01  0.7217E+01E
 Epicentro: EL CARMEN DE CHUCURI - SANTANDER                                   3
 ACTION:UPD 12-07-25 14:06 OP:epov STATUS:               ID:20110806020838 L   I
 2011-08-06-0200-00M.COL___145                                                 6
 STAT SP IPHASW D HRMM SECON CODA AMPLIT PERI AZIMU VELO AIN AR TRES W  DIS CAZ7
 BAR2 SZ ES   1    2 9  6.73                             159   -0.16 7 39.1 110 
 BAR2 SZ I         2 9  7.51        67.6 0.24                          39.1 110 
 BRR  HZ EP        2 8 54.21                             155   -0.1010 48.7 333 
 BRR  HE ES   1    2 9  7.09                             155    0.03 7 48.7 333 
 BRR  HZ I         2 9  7.93        21.6 0.14                          48.7 333 
 RUS  HZ EP        2 8 58.98                             135    0.1610  103 152 
 RUS  HZ I         2 8 59.73        16.9 0.14                           103 152 
 RUS  HE ES   1    2 9 15.09                             135   -0.01 7  103 152 
 NOR  SZ EP        2 9  7.81                             115    0.08 9  197 230 
 NOR  SE ES   2    2 9 30.94                             115   -0.01 4  197 230 
 CHI  HZ EP   3    2 9 11.01                             111   -1.11 2  232 186 
 CHI  HE ES   3    2 9 38.81                             111    0.03 2  232 186 
 CHI  HZ I         2 9 49.47         3.2 0.44                           232 186 
                                                                                
