 2017 12 6 0558 48.5 L   6.807 -73.100145.2  RSN  4 0.2 1.4LRSN                1
 GAP=247        0.63       6.3     5.0  5.7  0.2022E+02  0.5315E+00 -0.1238E+02E
 Epicentro: LOS SANTOS - SANTANDER                                             3
 ACTION:UPD 18-01-04 13:17 OP:rebc STATUS:               ID:20171206055848 L   I
 OLDACT:REG 17-12-06 13:40 OP:leo  STATUS:               ID:20171206054736     3
 2017-12-06-0548-00M.COL___495                                                 6
 STAT SP IPHASW D HRMM SECON CODA AMPLIT PERI AZIMU VELO AIN AR TRES W  DIS CAZ7
 BAR2 EZ EP        559  7.78                             170   -0.3010 25.5 201 
 BAR2 EZ ES        559 23.44                             170    0.0610 25.5 201 
 BAR2 EZ I         559 25.00         6.5 0.26            171           25.5 201 
 RUS  HZ EP        559 12.28                             143    0.0710  101 179 
 RUS  HE ES        559 30.85                             143    0.1210  101 179 
 PTB  HZ EP        559 15.55                             131   -0.31 9  153 259 
 PTB  HN ES        559 37.20                             131   -0.02 9  153 259 
 PTB  HZ I         559 38.32         1.8 0.14            132            153 259 
 ZAR  HZ EP        559 21.87                             122    0.54 8  208 291 
 ZAR  HN ES        559 46.89                             122   -0.07 8  208 291 
 ZAR  HZ I         559 48.45         2.9 0.32            123            208 291 
                                                                                
