 2012  4 6 0756 27.4 L   6.776 -73.158146.8  RSN 12 0.4 2.3LRSN                1
 GAP=113        0.88       3.5     3.8  6.0  0.1285E+01  0.5878E+01  0.4167E+01E
 Epicentro: LOS SANTOS - SANTANDER                                             3
 ACTION:UPD 12-07-05 11:51 OP:tino STATUS:               ID:20120406075627 L   I
 2012-04-06-0750-00M.COL___196                                                 6
 STAT SP IPHASW D HRMM SECON CODA AMPLIT PERI AZIMU VELO AIN AR TRES W  DIS CAZ7
 BAR2 SZ EP        756 46.95                             172    -0.210   21 187 
 BAR2 SZ ES   1    757  1.97                             172    -0.5 7   21 187 
 BAR2 SZ I         757  3.86        66.5 0.21                            21 187 
 BRR  HZ EP        756 48.96                             153     0.310   71 301 
 BRR  HZ I         756 49.24        88.6 0.14                            71 301 
 BRR  HN ES   1    757  6.08                             153     0.8 7   71 301 
 PAM  SZ EP   1    756 50.11                             150     0.2 7   80  39 
 PAM  SN ES   1    757  7.34                             150    -0.1 7   80  39 
 PAM  SZ I         757 11.39        20.3 0.81                            80  39 
 RUS  HZ EP   1    756 50.79                             145    -0.3 7   98 175 
 RUS  HE ES   1    757  9.40                             145    -0.2 7   98 175 
 RUS  HZ I         757 10.99        26.7 0.21                            98 175 
 PTB  HZ EP   1    756 53.59                             133    -0.7 7  146 260 
 PTB  HN ES   1    757 14.96                             133    -0.3 7  146 260 
 PTB  HZ I         757 17.22        20.2 0.15                           146 260 
 OCA  SZ EP   1    756 56.05                             129     0.0 7  163 354 
 YOP  SZ EP   1    756 57.41                             127     0.0 7  177 153 
 YOP  SN ES   1    757 21.38                             127     0.6 7  177 153 
 YOP  SZ I         757 22.54        10.6 0.30                           177 153 
 ZAR  HZ EP   1    756 59.90                             123     0.0 6  204 293 
 ZAR  HE ES   1    757 25.47                             123     0.2 6  204 293 
 ZAR  HZ I         757 33.46        32.4 0.29                           204 293 
 NOR  SZ EP   1    757  3.16                             119     0.2 6  232 235 
 NOR  SN ES   1    757 31.31                             119     0.7 6  232 235 
 CHI  HZ EP   1    757  4.75                             118    -0.1 6  246 195 
 CHI  HN ES   1    757 34.41                             118     0.3 6  246 195 
 CHI  HZ I         757 39.79         5.6 0.44                           246 195 
 HEL  HZ EP   1    757  7.87                             115     0.4 6  270 256 
 HEL  HN ES   1    757 38.00                             115    -0.7 6  270 256 
 HEL  HZ I         757 46.35        12.7 0.30                           270 256 
 PRA  HZ EP   1    757 20.48                             107    -0.2 4  389 210 
 PRA  HN ES   1    758  2.03                             107    -0.1 4  389 210 
                                                                                
