 2013 11 6 0930 39.2 L   6.804 -73.134142.0  RSN 12 0.6 2.4LRSN                1
 GAP=138        1.35       3.9     5.0  7.7 -0.5158E+01  0.1109E+02 -0.6949E-01E
 Epicentro: LOS SANTOS - SANTANDER                                             3
 ACTION:UPD 14-01-09 16:26 OP:ep   STATUS:               ID:20131106093039 L   I
 OLDACT:REG 13-11-06 06:55 OP:jn   STATUS:               ID:20131106093000     3
 2013-11-06-0930-00M.COL___273                                                 6
 STAT SP IPHASW D HRMM SECON CODA AMPLIT PERI AZIMU VELO AIN AR TRES W  DIS CAZ7
 BAR2 SZ EP        930 58.61                             170    0.2110 24.0 193 
 BAR2 SZ ES   2    931 12.69                             170   -0.69 5 24.0 193 
 BAR2 SZ I         931 15.72        95.6 0.20            169           24.0 193 
 BRR  HZ EP        931  0.43                             152    0.4210 72.2 298 
 BRR  HN ES        931 17.08                             152    0.8410 72.2 298 
 BRR  HZ I         931 18.26        26.1 0.28            151           72.2 298 
 PAM  SZ EP        931  1.53                             150    0.5710 76.2  39 
 PAM  SN ES        931 18.14                             150    0.2110 76.2  39 
 PAM  SZ I         931 20.64        39.2 0.42            155           76.2  39 
 RUS  HZ EP        931  2.62                             143    0.0010  101 177 
 RUS  HN ES        931 20.09                             143   -0.7910  101 177 
 RUS  HZ I         931 23.29        18.7 0.32            145            101 177 
 PTB  HZ EP        931  5.20                             131   -0.80 9  149 259 
 PTB  HN ES        931 26.31                             131   -0.59 9  149 259 
 PTB  HZ I         931 28.96        29.8 0.10            132            149 259 
 OCA  HZ EP        931  7.41                             129    0.20 9  160 353 
 OCA  HN ES        931 27.91                             129   -1.14 9  160 353 
 OCA  HZ I         931 29.65        19.1 0.32            132            160 353 
 SPBC HZ EP        931  7.59                             128    0.06 9  164 219 
 SPBC HN ES        931 30.40                             128    0.77 9  164 219 
 SPBC HZ I         931 34.23        30.0 0.26            130            164 219 
 ZAR  HZ EP   1    931 11.71                             121    0.18 6  205 292 
 ZAR  HN ES        931 36.73                             121   -0.00 9  205 292 
 ZAR  HZ I         931 42.88        27.8 0.50            123            205 292 
 NOR  HZ EP        931 14.62                             118   -0.24 8  236 235 
 NOR  HN ES        931 42.64                             118   -0.04 8  236 235 
 NOR  HZ I         931 45.78        19.6 0.22            119            236 235 
 SML  HZ EP        931 14.81                             117   -0.84 8  244 335 
 SML  HN ES   1    931 44.93                             117    0.86 6  244 335 
 HEL  HZ EP   1    931 20.51                             114    1.12 6  273 256 
 HEL  HN ES        931 50.47                             114   -0.26 8  273 256 
 HEL  HZ I         931 57.12       119.9 1.08            116            273 256 
 GUY2CHZ EP        931 23.19                             111    0.40 7  302 235 
 GUY2CHN ES        931 56.65                             111   -0.14 7  302 235 
 GUY2CHZ I         932  4.08        11.3 0.32                           302 235 
                                                                                
