 2011  9 6 0744  4.0 L   7.349 -73.192137.5  RSN  5 0.3 1.5LRSN                1
 GAP=261        0.39      11.7     7.9  9.6  0.7191E+02 -0.3408E+02 -0.7274E+02E
 Epicentro: RIONEGRO - SANTANDER                                               3
 ACTION:UPD 12-07-13 15:55 OP:ep   STATUS:               ID:20110906074404 L   I
 2011-09-06-0741-02S.COL___170                                                 6
 STAT SP IPHASW D HRMM SECON CODA AMPLIT PERI AZIMU VELO AIN AR TRES W  DIS CAZ7
 GIR2 SZ EP   2    744 22.64                             166   -0.04 5 29.8 180 
 BRR  HZ EP   2    744 23.79                             153   -0.06 5 63.3 245 
 BRR  HN ES   2    744 38.97                             153   -0.33 5 63.3 245 
 BRR  HZ I         744 40.60         6.9 0.11                          63.3 245 
 BAR2 SZ EP   2    744 25.26                             146   -0.16 5 83.6 179 
 BAR2 SZ ES   2    744 42.51                             146    0.41 5 83.6 179 
 BAR2 SZ I         744 43.34         6.8 0.17                          83.6 179 
 RUS  HZ I         744 47.27         1.5 1.17                           161 176 
 RUS  HN ES   3    744 53.87                             127   -0.44 2  161 176 
 ZAR  HZ EP   2    744 34.18                             123    0.24 4  185 275 
 ZAR  HN ES   2    744 57.38                             123    0.12 4  185 275 
 ZAR  HZ I         744 59.86         5.0 0.74                           185 275 
                                                                                
