 2017 11 6 0306 26.6 L   6.862 -73.155138.0  RSN  7 0.6 1.4LRSN                1
 GAP=132        1.41       6.7     6.2  9.8 -0.3828E+01  0.2490E+02 -0.2876E+01E
 Epicentro: LOS SANTOS - SANTANDER                                             3
 ACTION:UPD 17-12-12 19:52 OP:rebc STATUS:               ID:20171106030626 L   I
 OLDACT:REG 17-11-06 13:01 OP:dnl  STATUS:               ID:20171106025739     3
 2017-11-06-0258-00M.COL___444                                                 6
 STAT SP IPHASW D HRMM SECON CODA AMPLIT PERI AZIMU VELO AIN AR TRES W  DIS CAZ7
 BAR2 EZ EP   2    3 6 45.02                             167   -0.46 5 30.0 186 
 BAR2 EZ ES        3 6 59.75                             167   -0.4410 30.0 186 
 BAR2 EZ I         3 7  1.23         4.4 0.24            169           30.0 186 
 BRR  HZ EP        3 6 46.53                             153   -0.1810 67.3 294 
 BRR  HN ES        3 7  3.20                             153    0.8210 67.3 294 
 BRR  HZ I         3 7  5.47         6.5 0.26            152           67.3 294 
 PAM  EZ EP        3 6 47.51                             151   -0.2410 72.9  44 
 PAM  EN ES        3 7  4.39                             151    0.1710 72.9  44 
 PAM  EZ I         3 7  5.42         4.4 0.22            153           72.9  44 
 RUS  HZ EP   2    3 6 50.00                             141   -0.15 5  107 176 
 RUS  HE ES        3 7  8.99                             141    0.5010  107 176 
 RUS  HZ I         3 7  9.75         2.3 0.32            144            107 176 
 PTB  HZ EP        3 6 51.81                             130   -1.20 9  148 256 
 PTB  HN ES        3 7 13.08                             130   -0.52 9  148 256 
 PTB  HZ I         3 7 15.15         2.4 0.42            131            148 256 
 ZAR  HZ EP        3 6 59.17                             121    0.96 9  201 290 
 ZAR  HN ES        3 7 22.66                             121   -0.19 9  201 290 
 ZAR  HZ I         3 7 27.97         5.3 0.28            122            201 290 
 GUY2CHZ EP   2    3 7 11.31                             111    1.06 4  304 234 
 GUY2CHE ES        3 7 44.93                             111    0.66 7  304 234 
 GUY2CHZ I         3 7 52.94         1.4 0.34                           304 234 
                                                                                
