 2013  6 6 0545 10.2 L   6.817 -73.159147.5  RSN 16 0.5 3.0LRSN                1
 GAP= 64        0.98       2.6     3.7  5.5  0.6623E+00  0.7010E+00 -0.9062E-01E
 Epicentro: LOS SANTOS - SANTANDER                                             3
 ACTION:UPD 14-01-08 09:52 OP:ep   STATUS:               ID:20130606054510 L   I
 OLDACT:UP  13-06-06 13:16 OP:mh   STATUS:               ID:20130606054000     3
 OLDACT:UP  13-06-06 13:14 OP:mh   STATUS:               ID:20130606054000     3
 OLDACT:REG 13-06-06 09:35 OP:mh   STATUS:               ID:20130606054000     3
 2013-06-06-0540-00M.COL___257                                                 6
 STAT SP IPHASW D HRMM SECON CODA AMPLIT PERI AZIMU VELO AIN AR TRES W  DIS CAZ7
 BAR2 SZ IP     D  545 30.14                             170    0.1010 24.9 186 
 BAR2 SZ ES   1    545 45.03                             170   -0.51 7 24.9 186 
 BAR2 SZ I         545 47.75       118.1 0.32            168           24.9 186 
 BRR  HZ IP     C  545 32.04                             154    0.6610 69.1 298 
 BRR  HN ES        545 48.89                             154    0.9610 69.1 298 
 BRR  HN I         545 49.49       236.1 0.28            150           69.1 298 
 PAM  SZ EP   1    545 32.92                             151    0.38 7 76.9  41 
 PAM  SN ES   1    545 50.00                             151    0.01 7 76.9  41 
 PAM  SN I         545 50.82       122.6 0.46            155           76.9  41 
 RUS  HZ EP   1    545 33.98                             144   -0.25 7  103 175 
 RUS  HN ES        545 52.82                             144   -0.1710  103 175 
 RUS  HN I         545 54.31       135.6 0.28            144            103 175 
 PTB  HZ EP   1    545 36.72                             133   -0.46 7  147 258 
 PTB  HN ES        545 57.39                             133   -0.86 9  147 258 
 PTB  HN I         546  3.33       136.3 0.32            130            147 258 
 TAM  HZ IP     D  545 38.36                             131    0.21 9  157 105 
 TAM  HN ES   1    545 59.74                             131   -0.25 7  157 105 
 TAM  HN I         546  0.55        99.5 0.36            134            157 105 
 OCA  HZ EP   1    545 38.82                             130    0.39 7  158 354 
 OCA  HN ES        546  0.49                             130    0.02 9  158 354 
 OCA  HN I         546  5.40       196.8 0.16            131            158 354 
 YOP  SZ EP   1    545 40.70                             126    0.14 7  181 153 
 YOP  SN ES   2    546  3.25                             126   -1.02 4  181 153 
 YOP  SZ I         546  5.17        44.9 0.26            127            181 153 
 NOR  HZ EP   1    545 45.86                             119   -0.13 6  235 234 
 NOR  HN ES   2    546 14.23                             119    0.31 4  235 234 
 NOR  HN I         546 20.23       154.9 0.16            118            235 234 
 SML  HZ EP   1    545 46.43                             118   -0.21 6  241 335 
 SML  HN ES        546 14.46                             118   -0.64 8  241 335 
 SML  HN I         546 17.08       111.2 0.10            118            241 335 
 CHI  HZ EP   1    545 48.19                             117    0.08 6  250 195 
 CHI  HN ES        546 17.94                             117    0.23 8  250 195 
 CHI  HN I         546 21.92        39.8 0.42            117            250 195 
 HEL  HZ EP   1    545 50.92                             115    0.56 6  271 255 
 HEL  HN ES   4    546 24.65                             115    2.93 0  271 255 
 HEL  HN I         546 28.72        36.1 0.34            114            271 255 
 URE  HZ EP   4    545 50.19                             114   -0.90 0  282 292 
 URE  HE ES   4    546 19.97                             114   -3.05 0  282 292 
 URE  HE I         546 33.92        87.1 0.24            113            282 292 
 GUY2CHZ EP   4    545 54.84                             113    1.00 0  301 234 
 GUY2CHN ES   4    546 29.35                             113    1.44 0  301 234 
 GUY2CHN I         546 37.04        39.8 0.36                           301 234 
 COD  HZ EP   1    545 58.19                             109   -0.19 5  346 355 
 COD  HN ES        546 35.33                             109   -0.66 6  346 355 
 PRA  HZ EP   1    546  3.61                             107   -0.24 4  393 209 
 PRA  HE ES   2    546 45.89                             107    0.17 3  393 209 
 PRA  HE I         546 50.91        25.3 0.30            107            393 209 
                                                                                
