 2017  6 6 0458 27.5 L   6.764 -73.233148.3  RSN  4 0.1 0.9LRSN                1
 GAP=225        0.39       3.2     3.2  3.8  0.7043E+01 -0.1463E+01 -0.2705E+01E
 Epicentro: ZAPATOCA - SANTANDER                                               3
 ACTION:UPD 17-09-14 16:50 OP:jn   STATUS:               ID:20170606045827 L   I
 OLDACT:REG 17-06-06 12:17 OP:edw  STATUS:               ID:20170606045640     3
 2017-06-06-0457-00M.COL___365                                                 6
 STAT SP IPHASW D HRMM SECON CODA AMPLIT PERI AZIMU VELO AIN AR TRES W  DIS CAZ7
 BRR  HZ EP        458 48.59                             155   -0.0410 65.2 306 
 BRR  HN ES        459  5.17                             155    0.0810 65.2 306 
 RUS  HZ EP        458 51.50                             145    0.1710 97.8 170 
 RUS  HN ES        459  9.74                             145   -0.1610 97.8 170 
 RUS  HZ I         459 11.23         1.3 0.36            145           97.8 170 
 PTB  HN ES        459 14.40                             135    0.10 9  138 260 
 ZAR  HZ EP        458 59.33                             124   -0.07 9  197 294 
 ZAR  HN ES        459 24.15                             124   -0.11 9  197 294 
                                                                                
