 2012 10 6 0641 58.8 L   6.779 -73.134142.5  RSN  5 0.1 1.4LRSN                1
 GAP=139        0.32       2.9     3.2  4.7  0.5073E+01  0.2721E+01  0.1896E+01E
 Epicentro: LOS SANTOS - SANTANDER                                             3
 ACTION:UPD 12-11-22 17:02 OP:ep   STATUS:               ID:20121006064158 L   I
 2012-10-06-0640-00M.COL___222                                                 6
 STAT SP IPHASW D HRMM SECON CODA AMPLIT PERI AZIMU VELO AIN AR TRES W  DIS CAZ7
 BAR2 SZ EP   1    642 17.75                             171   -0.20 7 21.3 194 
 BAR2 SZ I         642 35.28         7.6 0.28                          21.3 194 
 BRR  HZ EP   1    642 19.74                             151    0.06 7 73.5 300 
 BRR  HN ES   1    642 36.00                             151   -0.01 7 73.5 300 
 BRR  HN I         642 39.73        16.3 0.17                          73.5 300 
 PAM  SN ES   2    642 37.86                             150    0.07 5 78.4  38 
 PAM  SN I         642 46.44         1.7 0.40                          78.4  38 
 RUS  HZ EP   1    642 22.10                             144    0.09 7 98.2 177 
 RUS  HE ES   1    642 40.18                             144    0.03 7 98.2 177 
 RUS  HE I         642 42.53         2.2 0.14                          98.2 177 
 ZAR  HE ES   1    642 56.53                             121    0.01 6  206 293 
                                                                                
