 2016 11 6 0446 10.9 L   6.768 -73.171150.1  RSN  6 0.2 1.4LRSN                1
 GAP=144        0.62       4.1     3.8  7.6 -0.2872E+01 -0.9381E+01  0.1996E+01E
 Epicentro: LOS SANTOS - SANTANDER                                             3
 ACTION:UPD 17-10-26 21:05 OP:lp   STATUS:               ID:20161106044610 L   I
 OLDACT:UP  16-11-06 15:57 OP:dani STATUS:               ID:20161106043746     3
 OLDACT:REG 16-11-06 12:37 OP:dani STATUS:               ID:20161106043746     3
 2016-11-06-0438-00M.COL___343                                                 6
 STAT SP IPHASW D HRMM SECON CODA AMPLIT PERI AZIMU VELO AIN AR TRES W  DIS CAZ7
 BAR2 EZ EP        446 30.85                             172   -0.1510 19.5 184 
 BAR2 EZ I         446 46.98         9.6 0.32            162           19.5 184 
 BRR  HZ EP     C  446 32.69                             153    0.1910 70.5 302 
 BRR  HN ES        446 49.31                             153   -0.0310 70.5 302 
 BRR  HZ I         446 54.08         4.1 0.50            164           70.5 302 
 PAM  EZ EP        446 33.92                             150    0.0510 81.9  39 
 PAM  EZ I         446 53.29         1.6 0.30            141           81.9  39 
 PTB  HZ EP        446 37.66                             134   -0.27 9  144 260 
 PTB  HN ES        446 58.65                             134   -0.36 9  144 260 
 PTB  HZ I         447  4.33         2.6 0.06            143            144 260 
 SPBC HE ES        447  1.82                             131    0.33 9  159 219 
 SPBC HZ I         447  4.36         4.0 0.31            135            159 219 
 ZAR  HE ES        447  9.23                             124    0.28 9  203 293 
                                                                                
