 2015  6 6 0216 58.5 L   6.790 -73.084154.2  RSN 16 0.4 2.4LRSN                1
 GAP=125        0.80       2.5     3.2  4.1 -0.1002E+01  0.4231E+01  0.1301E+01E
 Epicentro: LOS SANTOS - SANTANDER                                             3
 ACTION:UPD 15-09-10 22:10 OP:cam  STATUS:               ID:20150606021658 L   I
 OLDACT:UP  15-06-06 13:37 OP:mh   STATUS:               ID:20150606020748     3
 OLDACT:UP  15-06-06 13:37 OP:mh   STATUS:               ID:20150606020748     3
 OLDACT:UP  15-06-06 13:35 OP:mh   STATUS:               ID:20150606020748     3
 OLDACT:REG 15-06-06 12:32 OP:mh   STATUS:               ID:20150606020748     3
 2015-06-06-0207-48M.COL___309                                                 6
 STAT SP IPHASW D HRMM SECON CODA AMPLIT PERI AZIMU VELO AIN AR TRES W  DIS CAZ7
 BAR2 EZ IP        217 19.22                             171    0.0810 24.4 206 
 BAR2 EZ ES        217 34.74                             171   -0.5210 24.4 206 
 BAR2 EZ I         217 37.03        44.7 0.22            168           24.4 206 
 PAM  SZ EP   1    217 22.06                             153    0.64 7 74.2  35 
 PAM  SN ES        217 39.45                             153    0.1410 74.2  35 
 PAM  SZ I         217 40.82        38.8 0.56            155           74.2  35 
 BRR  HZ EP     C  217 21.15                             152    0.2410 77.7 297 
 BRR  HN ES        217 38.87                             152    0.4710 77.7 297 
 BRR  HZ I         217 42.67        32.1 0.58            148           77.7 297 
 RUS  HZ EP   1    217 23.02                             146    0.05 7 99.2 180 
 RUS  HN ES        217 42.12                             146    0.0410 99.2 180 
 RUS  HZ I         217 44.02        11.1 0.26            148           99.2 180 
 OCA  HZ EP   1    217 27.60                             131   -0.05 7  162 351 
 OCA  HN ES   1    217 49.91                             131   -0.49 7  162 351 
 OCA  HZ I         217 53.94        56.1 0.32            131            162 351 
 SPBC HZ EP        217 28.11                             130    0.15 9  167 221 
 SPBC HN ES        217 50.67                             130   -0.29 9  167 221 
 SPBC HZ I         217 53.48        53.5 0.10            130            167 221 
 ZAR  HZ EP   1    217 31.52                             123   -0.65 6  211 292 
 ZAR  HZ E         217 31.52                                            211 292 
 ZAR  HN ES        217 58.80                             123    0.35 8  211 292 
 ZAR  HZ I         218  4.01        31.3 0.26            122            211 292 
 NOR  HZ EP   1    217 35.02                             120   -0.21 6  240 236 
 NOR  HN ES        218  3.72                             120   -0.18 8  240 236 
 NOR  HZ I         218  9.13        19.8 0.20            119            240 236 
 SML  HZ EP   1    217 35.63                             119   -0.38 6  248 334 
 SML  HN ES   1    218  4.35                             119   -0.94 6  248 334 
 SML  HZ I         218 15.57        30.9 0.22            118            248 334 
 HEL  HZ EP   1    217 40.19                             116    0.36 6  278 256 
 HEL  HN ES        218 12.06                             116   -0.02 7  278 256 
 HEL  HZ I         218 18.61        15.2 0.24            115            278 256 
 URE  HZ EP   4    217 39.81                             115   -0.91 0  291 292 
 URE  HN ES   4    218 11.66                             115   -2.00 0  291 292 
 PTGC HZ EP        217 42.06                             113   -0.28 7  305 160 
 PTGC HN ES   4    218 14.70                             113   -1.84 0  305 160 
 PTGC HZ I         218 16.28        20.7 0.32            115            305 160 
 GUY2CHZ EP   1    217 43.73                             113    0.69 5  306 236 
 GUY2CHN ES   4    218 19.34                             113    1.54 0  306 236 
 GUY2CHZ I         218 23.91        14.7 0.32                           306 236 
 CBOC HZ EP        217 46.82                             111    0.37 7  340 253 
 CBOC HN ES        218 23.54                             111   -0.33 7  340 253 
 CBOC HZ I         218 28.32         5.3 0.22            111            340 253 
 MON  HZ EP   4    217 46.02                             110   -2.49 0  360 308 
 MON  HN ES   4    218 24.37                             110   -3.17 0  360 308 
 PRA  HZ EP   2    217 51.59                             108   -0.99 3  394 211 
 PRA  HN ES   1    218 33.96                             108   -0.82 4  394 211 
 ORTC HZ EP   1    217 53.34                             107    0.28 4  399 217 
 ORTC HN ES   1    218 36.64                             107    1.00 4  399 217 
 ORTC HZ I         218 41.71         6.7 0.24            108            399 217 
 PAL  HZ EP        217 54.60                             107    0.05 6  411 240 
 PAL  HN ES   4    218 36.64                             107   -1.63 0  411 240 
 PAL  HZ I         218 49.58         3.8 0.54            107            411 240 
                                                                                
