 2012  7 6 0025  1.8 L   5.800 -73.825107.6  RSN  4 0.3 2.1LRSN                1
 GAP=237        0.73       7.1     5.1  9.7  0.1630E+02  0.1393E+02  0.9937E+01E
 Epicentro: JESUS MARIA - SANTANDER                                            3
 ACTION:UPD 12-08-14 11:42 OP:ep   STATUS:               ID:20120706002501 L   I
 2012-07-06-0020-00M.COL___201                                                 6
 STAT SP IPHASW D HRMM SECON CODA AMPLIT PERI AZIMU VELO AIN AR TRES W  DIS CAZ7
 RUS  HZ EP   1    025 20.75                             140     0.2 8   83  83 
 RUS  HN ES   1    025 35.20                             140     0.1 8   83  83 
 PTB  HZ EP   1    025 21.70                             131    -0.3 8  108 320 
 PTB  HE ES   1    025 37.80                             131     0.1 8  108 320 
 BAR2 SZ EP        025 22.91                             130     0.110  113  39 
 BAR2 SZ ES   1    025 38.56                             130    -0.6 7  113  39 
 BAR2 SZ I         025 41.01        27.7 0.32            129            113  39 
 BRR  HZ EP        025 25.49                             122    -0.110  145   5 
 BRR  HZ I         025 26.05        15.6 0.27            121            145   5 
 BRR  HN ES   1    025 44.80                             122     0.5 7  145   5 
