 2013  8 6 0803 33.6 L   6.733 -73.172148.3  RSN  4 0.6 1.2LRSN                1
 GAP=229        1.51       9.2    11.0 13.7  0.3081E+02 -0.7002E+01  0.3361E+01E
 Epicentro: VILLANUEVA - SANTANDER                                             3
 ACTION:UPD 14-01-14 08:59 OP:ep   STATUS:               ID:20130806080333 L   I
 OLDACT:REG 13-08-06 08:05 OP:jn   STATUS:               ID:20130806075960d    3
 2013-08-06-0759-59M.COL___267                                                 6
 STAT SP IPHASW D HRMM SECON CODA AMPLIT PERI AZIMU VELO AIN AR TRES W  DIS CAZ7
 BRR  HZ EP        8 3 55.06                             152   -0.0310 72.6 305 
 BRR  HN ES        8 4 12.47                             152    0.6010 72.6 305 
 BRR  HZ I         8 4 17.83         2.5 0.24            155           72.6 305 
 RUS  HZ EP        8 3 57.35                             146    0.2510 93.5 174 
 RUS  HN ES        8 4 14.74                             146   -0.7010 93.5 174 
 RUS  HZ I         8 4 18.61         1.9 0.34            150           93.5 174 
 PTB  HZ EP        8 3 59.67                             133   -0.73 9  144 261 
 PTB  HN ES        8 4 20.58                             133   -0.73 9  144 261 
 PTB  HZ I         8 4 23.26         2.4 0.12            137            144 261 
 SPBC HZ EP        8 4  2.15                             131    0.57 9  156 220 
 SPBC HN ES        8 4 24.22                             131    0.80 9  156 220 
 SPBC HZ I         8 4 28.31         2.5 0.16            135            156 220 
                                                                                
