 2017 11 6 0914 35.7 L   6.792 -73.152136.4  RSN  6 0.3 1.2LRSN                1
 GAP=149        0.73       4.4     3.9  7.0 -0.7823E+01  0.1210E+02 -0.7495E+01E
 Epicentro: LOS SANTOS - SANTANDER                                             3
 ACTION:UPD 17-12-12 19:52 OP:rebc STATUS:               ID:20171106091435 L   I
 OLDACT:UP  17-11-06 18:05 OP:dnl  STATUS:               ID:20171106090742d    3
 OLDACT:DUP 17-11-06 18:03 OP:dnl  STATUS:               ID:20171106090742d    3
 OLDACT:UP  17-11-06 17:57 OP:dnl  STATUS:               ID:20171106090741     3
 OLDACT:UP  17-11-06 17:57 OP:dnl  STATUS:               ID:20171106090741     3
 OLDACT:REG 17-11-06 13:16 OP:dnl  STATUS:               ID:20171106090741     3
 2017-11-06-0908-00M.COL___426                                                 6
 STAT SP IPHASW D HRMM SECON CODA AMPLIT PERI AZIMU VELO AIN AR TRES W  DIS CAZ7
 BAR2 EZ EP   2    914 54.29                             170    0.06 5 22.4 189 
 BAR2 EZ ES        915  8.19                             170   -0.4610 22.4 189 
 BAR2 EZ I         915 10.79         5.8 0.54            171           22.4 189 
 BRR  HZ EP        914 56.05                             151    0.1710 71.0 299 
 BRR  HN ES   4    915 13.15                             151    1.57 0 71.0 299 
 BRR  HZ I         915 20.56         2.8 0.38            151           71.0 299 
 PAM  EZ EP        914 56.95                             148   -0.0910 78.5  40 
 PAM  EE ES        915 13.96                             148    0.3110 78.5  40 
 PAM  EZ I         915 16.43         2.3 0.58            154           78.5  40 
 PTB  HZ EP   2    915  1.06                             130   -0.82 5  147 259 
 PTB  HN ES        915 22.08                             130   -0.19 9  147 259 
 PTB  HZ I         915 25.32         1.1 0.18            134            147 259 
 SPBC HZ EP   2    915  3.24                             127   -0.19 5  162 219 
 SPBC HN ES        915 25.53                             127    0.50 9  162 219 
 SPBC HZ I         915 29.73         3.4 0.10            133            162 219 
 ZAR  HZ EP   2    915  7.25                             120   -0.31 4  204 292 
 ZAR  HN ES        915 32.48                             120    0.10 9  204 292 
 ZAR  HZ I         915 35.70         1.4 0.26            124            204 292 
                                                                                
