 2010  9 6 0131 34.7 L   6.790 -73.031145.9  RSN 12 0.3 2.0LRSN                1
 GAP=172        0.71       3.4     6.1  4.9 -0.6241E+01 -0.4743E-01  0.1155E+01E
 Epicentro: CEPITA - SANTANDER                                                 3
 ACTION:UP  11-02-18 11:00 OP:tino STATUS:               ID:20100906013134 L   I
 2010-09-06-0129-18S.COL___120                                                 6
 STAT SP IPHASW D HRMM SECON CODA AMPLIT PERI AZIMU VELO SNR AR TRES W  DIS CAZ7
 BAR2 SZ EP        131 54.50                             169     0.110   28 217 
 BAR2 SZ ES   1    132  9.94                             169     0.1 7   28 217 
 BAR2 SZ I         132 10.98        20.4 0.11                            28 217 
 BTL  SZ EP        131 54.66                             168     0.210   30 298 
 BTL  SZ ES   1    132  9.76                             168    -0.1 7   30 298 
 GIR2 SZ EP   1    131 54.66                             165     0.2 7   37 331 
 BRR  HZ IP     D  131 56.38                             149    -0.110   83 295 
 BRR  HN ES   1    132 13.61                             149     0.0 7   83 295 
 BRR  HZ I         132 16.22        21.4 0.12                            83 295 
 RUS  HZ EP   1    131 58.64                             144     0.3 7   99 183 
 RUS  HN ES   1    132 16.61                             144    -0.2 7   99 183 
 RUS  HZ I         132 18.85         9.5 0.40                            99 183 
 GUE  SZ EP   1    131 59.89                             140     0.6 7  116   6 
 GRA  SZ EP   1    131 59.37                             137    -0.4 7  124  12 
 GRA  SZ ES   1    132 18.70                             137    -0.6 7  124  12 
 GRA  SZ I         132 20.15        12.9 0.22                           124  12 
 OCA  SZ EP   1    132  3.26                             129     0.0 7  163 349 
 OCA  SZ I         132 29.65        13.9 0.20                           163 349 
 CHI  HZ EP   1    132 12.47                             117    -0.2 6  251 198 
 CHI  HZ I         132 13.48         4.1 0.10                           251 198 
 HEL  HE ES   2    132 48.48                             114    -0.1 4  284 257 
 HEL  HZ I         132 52.51         3.5 0.27                           284 257 
 RREF HZ EP   2    132 22.53                             110     0.7 3  331 231 
 RREF HE ES   2    132 59.09                             110     0.5 3  331 231 
 RREF HZ I         133  6.48         6.2 0.21                           331 231 
 PRA  HZ EP   1    132 28.22                             106    -0.6 4  397 211 
 PRA  HZ I         132 30.36         3.3 0.07                           397 211 
 PRA  HE ES   2    133 10.25                             106    -0.8 3  397 211 
                                                                                
