 2017  3 6 0124  9.8 L   6.861 -73.028146.0  RSN  4 0.1 1.1LRSN                1
 GAP=253        0.34       4.0     4.5  3.4  0.1442E+02 -0.1932E+01 -0.4096E+01E
 Epicentro: CEPITA - SANTANDER                                                 3
 ACTION:UPD 17-05-25 18:36 OP:jn   STATUS:               ID:20170306012409 L   I
 OLDACT:UP  17-03-06 13:01 OP:and  STATUS:               ID:20170306011747d    3
 OLDACT:UP  17-03-06 13:01 OP:and  STATUS:               ID:20170306011747d    3
 OLDACT:DUP 17-03-06 13:00 OP:and  STATUS:               ID:20170306011747d    3
 2017-03-06-0118-00M.COL___387                                                 3
 2017-03-06-0118-00M.COL___393                                                 6
 STAT SP IPHASW D HRMM SECON CODA AMPLIT PERI AZIMU VELO AIN AR TRES W  DIS CAZ7
 BAR2 EZ EP        124 29.67                             166   -0.0410 34.3 210 
 BAR2 EZ ES        124 45.31                             166    0.0510 34.3 210 
 BAR2 EZ I         124 46.16         3.2 0.17            167           34.3 210 
 BRR  HZ EP        124 31.42                             150   -0.0810 80.3 290 
 BRR  HN ES        124 48.53                             150    0.1010 80.3 290 
 RUS  HZ EP   2    124 33.91                             142   -0.14 5  107 183 
 RUS  HN ES        124 52.99                             142    0.0110  107 183 
 RUS  HZ I         124 53.21         2.0 0.28            143            107 183 
 ZAR  HZ EP   2    124 43.66                             121    0.40 4  214 289 
 ZAR  HN ES        125  9.26                             121   -0.11 8  214 289 
                                                                                
