 2010 10 6 0841 51.6 L   6.775 -73.161153.7  RSN 13 0.4 2.6LRSN                1
 GAP=169        0.91       4.5     6.1  6.4 -0.1269E+02  0.7819E+00  0.7917E+01E
 Epicentro: LOS SANTOS - SANTANDER                                             3
 ACTION:UP  11-02-18 11:08 OP:tino STATUS:               ID:20101006084151 L   I
 2010-10-06-0838-25S.COL___121                                                 6
 STAT SP IPHASW D HRMM SECON CODA AMPLIT PERI AZIMU VELO SNR AR TRES W  DIS CAZ7
 BAR2 SZ IP        842 11.80                             172    -0.410   20 187 
 BAR2 SZ ES   1    842 28.01                             172    -0.2 7   20 187 
 BAR2 SZ I         842 29.70       120.4 0.24                            20 187 
 BRR  HZ IP     C  842 13.71                             154     0.110   71 301 
 BRR  HN ES        842 31.11                             154     0.310   71 301 
 BRR  HZ I         842 33.35       116.8 0.14                            71 301 
 GUE  SZ EP   2    842 16.88                             140    -0.4 5  120  13 
 GRA  SZ IP        842 18.61                             138     0.810  129  18 
 GRA  SZ ES   1    842 38.32                             138     0.0 7  129  18 
 GRA  SZ I         842 40.62        54.9 0.18                           129  18 
 OCA  SZ EP        842 20.31                             131    -0.5 9  163 354 
 OCA  SZ ES   1    842 43.04                             131    -0.5 7  163 354 
 OCA  SZ I         842 51.06        44.2 0.10                           163 354 
 NOR  SZ EP   2    842 27.62                             120     0.1 4  232 235 
 CHI  HZ EP   2    842 29.44                             119     0.0 4  246 195 
 CHI  HN ES   2    842 58.96                             119     0.0 4  246 195 
 CHI  HZ I         843  6.88        21.3 0.32                           246 195 
 ROSC BZ EP   1    842 29.98                             119     0.1 6  250 211 
 ROSC BZ I         843  7.63        33.8 0.43                           250 211 
 HEL  HZ EP   2    842 32.60                             116     0.6 4  270 256 
 HEL  HN ES        843  3.48                             116     0.0 8  270 256 
 HEL  HZ I         843  9.99        29.7 1.06                           270 256 
 RREF HZ EP   1    842 38.28                             112     0.5 5  319 230 
 RREF HZ I         843 24.29        34.3 0.48                           319 230 
 DBB  SZ EP   1    842 38.65                             111    -0.6 5  338 275 
 DBB  SZ I         843 22.95         4.6 0.33                           338 275 
 TOL  SZ EP   2    842 40.27                             111     0.4 3  340 225 
 PRA  HZ EP   1    842 45.23                             108     0.2 4  389 210 
 PRA  HN ES   1    843 26.01                             108    -0.7 4  389 210 
                                                                                
