 2017  2 6 0943 42.4 L   6.738 -73.404122.2  RSN  5 0.5 1.6LRSN                1
 GAP=163        1.19       7.7     6.9  8.8  0.3079E+02  0.1760E+02  0.6160E+01E
 Epicentro: EL CARMEN - SANTANDER                                              3
 ACTION:UPD 17-05-24 15:33 OP:jn   STATUS:               ID:20170206094342 L   I
 OLDACT:UP  17-04-03 15:00 OP:nlst STATUS:               ID:20170206094342 L   3
 OLDACT:REG 17-02-06 12:18 OP:edw  STATUS:               ID:20170206093745     3
 2017-02-06-0938-00M.COL___313                                                 6
 STAT SP IPHASW D HRMM SECON CODA AMPLIT PERI AZIMU VELO AIN AR TRES W  DIS CAZ7
 BAR2 EZ IP     D  943 59.17                             166   -0.1710 29.3 123 
 BAR2 EZ ES        944 12.35                             166   -0.2310 29.3 123 
 BAR2 EZ I         944 13.46        24.7 0.34            172           29.3 123 
 BRR  HZ EP        943 59.55                             155   -0.4210 53.1 320 
 BRR  HN ES        944 13.86                             155    0.1610 53.1 320 
 BRR  HZ I         944 19.35        10.2 0.46            154           53.1 320 
 RUS  HZ EP        944  3.56                             138   -0.2910  100 159 
 RUS  HN ES        944 21.35                             138    0.7610  100 159 
 RUS  HZ I         944 22.78         2.2 0.26            144            100 159 
 PTB  HZ EP        944  4.36                             133   -0.4110  118 259 
 PTB  HN ES        944 21.85                             133   -0.3810  118 259 
 PTB  HZ I         944 26.37         6.5 0.38            134            118 259 
 ZAR  HZ EP        944 11.80                             120    0.87 9  181 298 
 ZAR  HN ES   1    944 33.81                             120    0.61 7  181 298 
 ZAR  HZ I         944 39.41         5.8 0.34            122            181 298 
                                                                                
