 2017 12 6 0226 22.2 L   6.804 -73.133138.0  RSN 11 0.3 1.9LRSN                1
 GAP= 66        0.80       2.3     2.9  4.6  0.6938E+00  0.7672E+00 -0.8247E+00E
 Epicentro: LOS SANTOS - SANTANDER                                             3
 ACTION:UPD 18-01-04 13:17 OP:rebc STATUS:               ID:20171206022622 L   I
 OLDACT:REG 17-12-06 13:02 OP:leo  STATUS:               ID:20171206021738     3
 2017-12-06-0218-00M.COL___489                                                 6
 STAT SP IPHASW D HRMM SECON CODA AMPLIT PERI AZIMU VELO AIN AR TRES W  DIS CAZ7
 BAR2 EZ EP        226 40.76                             170   -0.1410 24.0 193 
 BAR2 EZ ES        226 55.37                             170   -0.1310 24.0 193 
 BAR2 EZ I         226 56.54        24.7 0.20            168           24.0 193 
 PAM  HZ EP        226 43.85                             150    0.3410 76.2  39 
 RUS  HZ EP        226 44.90                             142   -0.3110  101 177 
 RUS  HN ES        227  3.46                             142    0.2910  101 177 
 RUS  HZ I         227  4.86        16.1 0.40            142            101 177 
 PTB  HZ EP   9    226 47.45                             130   -1.22 0  149 259 
 PTB  HN ES        227  8.28                                    0.18 9  149 259 
 PTB  HZ I         227 11.40         5.2 0.48            130            149 259 
 TAM  HZ EP        226 49.20                             129    0.05 9  154 105 
 OCA  HZ EP        226 49.74                             128   -0.14 9  160 353 
 OCA  HN ES        227 11.14                             128   -0.34 9  160 353 
 SPBC HZ EP        226 49.86                             127   -0.36 9  164 219 
 SPBC HE ES        227 11.97                             127   -0.12 9  164 219 
 SPBC HZ I         227 15.69        10.1 0.20            127            164 219 
 YPLC HZ EP        226 51.24                             125   -0.17 9  177 152 
 YPLC HN ES        227 14.86                             125    0.66 9  177 152 
 YPLC HZ I         227 17.60        10.6 0.30            125            177 152 
 ZAR  HZ EP        226 54.73                             120    0.47 9  205 292 
 ZAR  HN ES        227 19.43                             120    0.16 9  205 292 
 ZAR  HZ I         227 21.06         7.5 0.40            121            205 292 
 CHI  HZ EP        226 59.53                             115   -0.03 8  249 195 
 CHI  HN ES        227 27.99                             115   -0.71 8  249 195 
 CHI  HZ I         227 31.53         2.3 0.50            116            249 195 
 ROSC BZ EP   4    226 58.64                             115   -1.38 0  254 211 
 CBOC HZ EP        227  9.24                             108    0.28 7  335 252 
 CBOC HE ES        227 45.91                             108    0.47 7  335 252 
 SOL  EZ EP   4    227 23.18                             102   -2.31 0  477 263 
                                                                                
