 2016  5 6 0352  1.0 L   6.784 -73.128144.1  RSN 13 0.4 1.5LRSN                1
 GAP=140        1.00       2.9     3.6  5.2 -0.1255E+01  0.6029E+01  0.2891E+01E
 Epicentro: LOS SANTOS - SANTANDER                                             3
 ACTION:UPD 16-08-18 17:42 OP:cam  STATUS:               ID:20160506035201 L   I
 OLDACT:REG 16-05-06 13:21 OP:ak   STATUS:               ID:20160506034746     3
 2016-05-06-0347-46M.COL___304                                                 6
 STAT SP IPHASW D HRMM SECON CODA AMPLIT PERI AZIMU VELO AIN AR TRES W  DIS CAZ7
 BAR2 EZ EP        352 20.67                             171    0.2510 22.0 196 
 BAR2 EZ ES        352 35.82                             171    0.2710 22.0 196 
 BAR2 EZ I         352 36.92         9.2 0.12            169           22.0 196 
 BRR  HZ IP     C  352 22.55                             151    0.4210 73.8 299 
 BRR  HE ES        352 39.12                             151    0.5210 73.8 299 
 BRR  HZ I         352 41.57         7.3 0.33            149           73.8 299 
 PAM  EZ EP        352 23.49                             150    0.4310 77.6  38 
 PAM  EN ES        352 40.33                             150    0.0710 77.6  38 
 PAM  EZ I         352 42.41         2.9 0.32            154           77.6  38 
 RUS  HZ EP        352 24.04                             144   -0.4210 98.7 177 
 RUS  HE ES        352 42.27                             144   -0.4810 98.7 177 
 RUS  HZ I         352 44.20         4.2 0.20            145           98.7 177 
 PTB  HZ EP        352 27.17                             131   -0.82 9  149 260 
 PTB  HE ES        352 48.66                             131   -0.37 9  149 260 
 PTB  HZ I         352 50.04         4.0 0.09            131            149 260 
 OCA  HZ EP   2    352 29.02                             129   -0.37 5  162 353 
 OCA  HN ES        352 50.87                             129   -0.65 9  162 353 
 SPBC HZ EP        352 29.44                             129    0.07 9  163 220 
 SPBC HN ES        352 51.69                             129    0.20 9  163 220 
 SPBC HZ I         352 55.78         7.2 0.09            129            163 220 
 ZAR  HZ EP        352 33.42                             122   -0.19 8  207 292 
 ZAR  HE ES        352 58.80                             122   -0.23 8  207 292 
 ZAR  HZ I         353  5.79         3.9 0.15            122            207 292 
 NOR  HZ EP        352 36.95                             118    0.24 8  235 235 
 NOR  HN ES        353  4.30                             118   -0.25 8  235 235 
 NOR  HZ I         353 10.30         3.1 0.19            119            235 235 
 CHI  HZ EP        352 37.98                             117   -0.51 8  247 196 
 CHI  HN ES        353  7.61                             117   -0.11 8  247 196 
 HEL  HZ EP        352 41.69                             114    0.38 8  274 256 
 HEL  HE ES        353 13.12                             114    0.39 8  274 256 
 HEL  HZ I         353 21.76         1.9 0.24            115            274 256 
 CBOC HZ EP        352 48.94                             109    0.92 7  335 252 
 CBOC HE ES        353 24.33                             109   -0.34 7  335 252 
 CBOC HZ I         353 28.18         0.5 0.12            110            335 252 
 PRA  HZ EP        352 54.96                             106    0.55 6  391 210 
 PRA  HE ES        353 36.63                             106    0.57 6  391 210 
 PRA  HZ I         353 43.01         1.7 0.28            107            391 210 
                                                                                
