 2015  1 6 0751 48.8 L   6.805 -73.200144.4  RSN  4 0.4 1.6LRSN                1
 GAP=199        0.91       4.8     7.2  8.8 -0.3819E+01  0.1880E+02 -0.8273E+01E
 Epicentro: ZAPATOCA - SANTANDER                                               3
 ACTION:UPD 15-03-02 15:37 OP:nd   STATUS:               ID:20150106075148 L   I
 OLDACT:REG 15-01-06 14:20 OP:cam  STATUS:               ID:20150106074805     3
 2015-01-06-0748-05M.COL___274                                                 6
 STAT SP IPHASW D HRMM SECON CODA AMPLIT PERI AZIMU VELO AIN AR TRES W  DIS CAZ7
 BAR2 EZ EP        752  8.32                             170    0.0110 23.6 175 
 BAR2 EZ ES        752 23.36                             170   -0.1410 23.6 175 
 BAR2 EZ I         752 24.47         2.8 0.20            169           23.6 175 
 PTB  HZ EP        752 14.48                             133   -0.70 9  142 258 
 PTB  HN ES        752 35.56                             133   -0.16 9  142 258 
 PTB  HZ I         752 43.39         2.4 0.44            130            142 258 
 SPBC HZ EP        752 17.18                             129    0.25 9  160 217 
 SPBC HN ES        752 39.31                             129    0.48 9  160 217 
 SPBC HZ I         752 42.83        12.8 0.94            130            160 217 
 SML  HN ES        752 53.74                             117    0.42 8  241 337 
 SML  HN I         752 59.93         6.6 0.10            118            241 337 
                                                                                
