 2011  8 6 0321 44.5 L   6.224 -73.390128.8  RSN  4 0.1 1.5LRSN                1
 GAP=109        0.32       2.6     3.3  4.2  0.4711E+00  0.5983E+01  0.1332E+01E
 Epicentro: GUADALUPE - SANTANDER                                              3
 ACTION:UPD 12-07-25 14:06 OP:epov STATUS:               ID:20110806032144 L   I
 2011-08-06-0320-00M.COL___145                                                 6
 STAT SP IPHASW D HRMM SECON CODA AMPLIT PERI AZIMU VELO AIN AR TRES W  DIS CAZ7
 BAR2 SZ EP        322  2.94                             159    0.0410 46.7  29 
 BAR2 SZ ES   1    322 17.08                             159   -0.16 7 46.7  29 
 BAR2 SZ I         322 18.85        10.8 0.20                          46.7  29 
 RUS  HZ EP        322  3.49                             158    0.0710 50.0 137 
 RUS  HN ES   2    322 18.17                             158    0.00 5 50.0 137 
 RUS  HZ I         322 19.57         2.8 0.30                          50.0 137 
 BRR  HZ EP        322  6.16                             138   -0.0610  104 340 
 BRR  HN ES   2    322 23.41                             138    0.26 5  104 340 
 BRR  HZ I         322 23.44         9.9 0.12                           104 340 
 NOR  SZ EP   2    322 13.32                             122   -0.05 4  179 246 
 NOR  SN ES   2    322 35.83                             122   -0.05 4  179 246 
                                                                                
