 2014  4 6 0351 33.8 L   6.884 -74.109 85.9  RSN  8 0.5 1.7LRSN                1
 GAP= 65        1.30       3.3     3.6 11.0 -0.3769E+00 -0.1233E+02 -0.4172E+01E
 Epicentro: PUERTO PARRA - SANTANDER                                           3
 ACTION:UPD 14-05-13 23:06 OP:nd   STATUS:               ID:20140406035133 L   I
 OLDACT:REG 14-04-06 13:29 OP:carl STATUS:               ID:20140406034818     3
 2014-04-06-0348-18M.COL___250                                                 6
 STAT SP IPHASW D HRMM SECON CODA AMPLIT PERI AZIMU VELO AIN AR TRES W  DIS CAZ7
 PTB  HZ EP        351 47.72                             145    0.1210 54.1 225 
 PTB  HN ES        351 58.41                             145    0.0410 54.1 225 
 PTB  HZ I         351 59.39        21.3 0.20            146           54.1 225 
 ZAR  HZ EP        351 52.89                             124    0.6410  107 309 
 ZAR  HE ES        352  6.98                             124    0.3310  107 309 
 ZAR  HZ I         352 10.20        20.7 0.10            124            107 309 
 SPBC HZ EP        351 55.93                             117    0.43 9  136 178 
 SPBC HN ES        352 12.32                             117   -0.12 9  136 178 
 RUS  HZ EP        351 58.76                             114    0.35 9  158 134 
 RUS  HE ES        352 17.01                             114   -0.61 9  158 134 
 RUS  HZ I         352 18.12         2.9 0.12            115            158 134 
 PAM  SZ EP        351 58.75                             113   -0.32 9  164  72 
 PAM  SE ES        352 19.10                             113    0.31 9  164  72 
 PAM  SZ I         352 20.90        13.7 0.36            114            164  72 
 OCA  HN ES        352 20.19                             111    0.18 9  173  30 
 OCA  HZ I         352 23.82         6.7 0.26            112            173  30 
 HEL  HZ EP        352  0.62                             111    0.44 9  175 244 
 HEL  HE ES        352 19.74                             111   -1.03 9  175 244 
 HEL  HZ I         352 26.24         4.7 0.32            112            175 244 
 SML  HE ES        352 26.54                             107   -1.16 8  212   1 
                                                                                
