 2015  1 6 0912  2.2 L   6.763 -73.231146.9  RSN  5 0.3 1.3LRSN                1
 GAP=186        0.84       5.6     6.1  7.1 -0.1028E+01  0.9585E+01 -0.1652E+02E
 Epicentro: ZAPATOCA - SANTANDER                                               3
 ACTION:UPD 15-03-02 15:37 OP:nd   STATUS:               ID:20150106091202 L   I
 OLDACT:REG 15-01-06 14:23 OP:cam  STATUS:               ID:20150106090819     3
 2015-01-06-0908-19M.COL___271                                                 6
 STAT SP IPHASW D HRMM SECON CODA AMPLIT PERI AZIMU VELO AIN AR TRES W  DIS CAZ7
 BAR2 EZ ES        912 36.97                             172   -0.2710 19.7 164 
 BAR2 EZ I         912 39.29         4.2 0.34            178           19.7 164 
 BRR  HZ EP        912 23.61                             155    0.4810 65.3 306 
 BRR  HN ES        912 39.75                             155    0.2810 65.3 306 
 BRR  HN I         912 41.08         6.7 0.20            152           65.3 306 
 PTB  HZ EP        912 28.54                             134    0.20 9  138 260 
 PTB  HN ES        912 48.31                             134   -0.44 9  138 260 
 PTB  HZ I         912 51.11         0.8 0.14            136            138 260 
 ZAR  HN ES        912 58.92                             124    0.16 9  197 294 
 SML  HZ EP        912 38.38                             118   -0.48 8  244 338 
 SML  HN ES        913  7.32                             118   -0.15 8  244 338 
 SML  HZ I         913 17.57         2.1 0.26            117            244 338 
                                                                                
