 2013  1 6 0953 25.0 L   7.265 -74.003 10.9  RSN  4 0.3 1.2LRSN                1
 GAP=194        0.67       2.9     1.7  4.1  0.2009E+01 -0.4520E+00  0.2493E+01E
 Epicentro: PUERTO WILCHES - SANTANDER                                         3
 ACTION:UPD 13-02-15 09:12 OP:ep   STATUS:               ID:20130106095325 L   I
 2013-01-06-0949-40M.COL___177                                                 6
 STAT SP IPHASW D HRMM SECON CODA AMPLIT PERI AZIMU VELO AIN AR TRES W  DIS CAZ7
 BRR  HZ EP        953 31.13                             102   -0.1010 36.6 119 
 BRR  HN ES        953 36.07                             102   -0.0310 36.6 119 
 BRR  HZ I         953 37.01        19.5 0.28            104           36.6 119 
 PTB  HZ EP        953 39.89                              94   -0.0910 94.6 212 
 PTB  HN ES        953 51.76                              94    0.1010 94.6 212 
 PTB  HN I         953 52.62         3.8 0.26             95           94.6 212 
 ZAR  HZ EP        953 40.75                              94    0.3210 97.7 285 
 ZAR  HN ES        953 52.18                              94   -0.3010 97.7 285 
 ZAR  HN I         953 53.85         7.4 0.12             95           97.7 285 
 RUS  HZ EP        953 53.54                              56    0.46 9  183 146 
 RUS  HZ I         953 53.76         3.5 0.28             56            183 146 
 RUS  HN ES        954 14.68                              56   -0.31 9  183 146 
                                                                                
