 2014  8 6 0828  4.0 L   6.789 -73.147136.9  RSN 16 0.4 1.7LRSN                1
 GAP=137        0.89       2.3     3.2  5.0 -0.1410E+01  0.4051E+01  0.1171E+01E
 Epicentro: LOS SANTOS - SANTANDER                                             3
 ACTION:UPD 14-09-15 21:47 OP:nd   STATUS:               ID:20140806082804 L   I
 OLDACT:DUP 14-08-06 17:29 OP:spq  STATUS:               ID:20140806081819d    3
 OLDACT:REG 14-08-06 13:44 OP:spq  STATUS:               ID:20140806081818     3
 2014-08-06-0818-18M.COL___254                                                 6
 STAT SP IPHASW D HRMM SECON CODA AMPLIT PERI AZIMU VELO AIN AR TRES W  DIS CAZ7
 BAR2 SZ EP        828 22.83                             170    0.3210 22.1 190 
 BAR2 SZ ES   1    828 37.20                             170    0.23 7 22.1 190 
 BAR2 SZ I         828 39.66         8.3 0.23            169           22.1 190 
 BRR  HZ EP        828 24.79                             151    0.5910 71.6 299 
 BRR  HN ES        828 40.13                             151    0.1610 71.6 299 
 BRR  HZ I         828 43.46         6.2 0.30            149           71.6 299 
 PAM  SZ EP        828 25.25                             149   -0.0710 78.4  39 
 PAM  SN ES        828 41.94                             149   -0.0210 78.4  39 
 PAM  SZ I         828 45.02         6.9 0.20            154           78.4  39 
 RUS  HZ EP        828 26.66                             142   -0.1210 99.4 176 
 RUS  HE ES        828 44.03                             142   -0.5310 99.4 176 
 RUS  HZ I         828 46.89         3.1 0.34            145           99.4 176 
 PTB  HZ EP        828 29.49                             130   -0.71 9  147 259 
 PTB  HE ES        828 50.08                             130   -0.57 9  147 259 
 PTB  HZ I         828 56.74         7.4 0.22            130            147 259 
 OCA  HZ EP        828 32.31                             127    0.59 9  161 353 
 OCA  HE ES        828 53.30                             127   -0.07 9  161 353 
 OCA  HZ I         828 58.79         4.4 0.24            130            161 353 
 SPBC HZ EP        828 31.76                             127    0.05 9  162 219 
 SPBC HE ES        828 53.58                             127    0.24 9  162 219 
 SPBC HZ I         828 58.92         8.3 0.40            128            162 219 
 ZAR  HN ES        829  0.66                             120   -0.12 9  204 292 
 ZAR  HZ I         829  7.37         4.4 0.14            122            204 292 
 NOR  HZ EP        828 38.69                             117   -0.43 8  234 235 
 NOR  HN ES        829  7.03                             117    0.50 8  234 235 
 NOR  HZ I         829 12.65         3.3 0.26            118            234 235 
 SML  HZ EP   1    828 39.58                             115   -0.65 6  245 335 
 SML  HE ES        829  8.30                             115   -0.21 8  245 335 
 SML  HZ I         829 12.01         9.6 0.10            118            245 335 
 CHI  HZ EP        828 41.08                             115    0.01 8  247 195 
 CHI  HN ES   1    829  9.91                             115   -0.09 6  247 195 
 CHI  HZ I         829 16.23         2.2 0.28            117            247 195 
 HEL  HE ES        829 14.82                             113    0.13 8  272 256 
 HEL  HZ I         829 21.56         2.6 0.40            114            272 256 
 GUY2CHN ES   1    829 21.39                             111    0.66 5  300 235 
 GUY2CHZ I         829 29.56         3.6 0.31                           300 235 
 RREF HE ES   1    829 25.05                             109   -0.22 5  321 230 
 RREF HZ I         829 31.51         2.9 0.24            111            321 230 
 PRA  HN ES        829 39.04                             105    0.55 6  391 210 
 PRA  HZ I         829 43.55         2.6 0.54            107            391 210 
 SJC  HZ EP   4    828 56.76                             104   -2.61 0  410 327 
 SJC  HN ES   4    829 38.64                             104   -3.93 0  410 327 
 SJC  HZ I         829 41.53         1.1 0.49            106            410 327 
                                                                                
