 2016  6 6 0254 56.6 L   6.835 -73.152141.9  RSN 23 0.5 2.6LRSN                1
 GAP= 70        1.10       2.7     3.3  7.1 -0.1182E+01  0.1031E+02  0.2540E+01E
 Epicentro: LOS SANTOS - SANTANDER                                             3
 ACTION:UPD 16-07-21 22:15 OP:rebc STATUS:               ID:20160606025456 L   I
 OLDACT:UP  16-06-06 15:27 OP:dani STATUS:               ID:20160606024746     3
 OLDACT:UP  16-06-06 15:19 OP:dani STATUS:               ID:20160606024746     3
 OLDACT:REG 16-06-06 12:00 OP:dani STATUS:               ID:20160606024746     3
 2016-06-06-0247-46M.COL___322                                                 6
 STAT SP IPHASW D HRMM SECON CODA AMPLIT PERI AZIMU VELO AIN AR TRES W  DIS CAZ7
 BAR2 EZ EP     C  255 15.62                             169   -0.2210 27.1 187 
 BAR2 EZ I         255 31.69       192.1 0.14                          27.1 187 
 BRR  HZ IP     C  255 17.50                             153    0.3210 68.8 296 
 BRR  HE ES   4    255 34.71                             153    1.46 0 68.8 296 
 BRR  HZ I         255 38.13        90.0 0.21                          68.8 296 
 PAM  EZ EP        255 18.57                             151    0.3210 74.9  42 
 PAM  EE ES        255 35.65                             151    0.5110 74.9  42 
 PAM  EZ I         255 37.90       128.4 0.64                          74.9  42 
 RUS  HZ EP        255 19.75                             142   -0.5010  105 176 
 RUS  HN ES        255 38.21                             142   -0.5010  105 176 
 RUS  HZ I         255 39.13        62.0 0.22                           105 176 
 PTB  HZ EP        255 22.61                             131   -0.64 9  148 257 
 PTB  HN ES   4    255 43.48                             131   -0.57 0  148 257 
 PTB  HZ I         255 45.85        55.5 0.17                           148 257 
 OCA  HZ EP        255 24.13                             129   -0.10 9  156 353 
 OCA  HN ES        255 45.61                             129   -0.18 9  156 353 
 OCA  HZ I         255 48.98       194.9 0.22                           156 353 
 TAM  HZ IP     D  255 23.98                             129   -0.15 9  157 106 
 TAM  HE ES        255 45.92                             129    0.31 9  157 106 
 TAM  HZ I         255 46.29        17.3 0.24                           157 106 
 SPBC HZ EP        255 24.64                             128   -0.40 9  166 218 
 SPBC HN ES        255 46.74                             128   -0.49 9  166 218 
 SPBC HZ I         255 51.60        62.0 0.20                           166 218 
 NOR  HZ EP   4    255 33.54                             117    1.27 0  236 234 
 NOR  HN ES        256  0.14                             117    0.03 8  236 234 
 NOR  HZ I         256  2.55        39.9 0.19                           236 234 
 CHI  HZ EP        255 34.07                             116   -0.39 8  252 195 
 CHI  HN ES        256  4.82                             116    0.81 8  252 195 
 CHI  HZ I         256 10.14        12.8 0.36                           252 195 
 ROSC BZ EP   4    255 36.69                             116    1.87 0  256 210 
 ROSC BN ES   4    256  7.29                             116    2.64 0  256 210 
 ROSC BZ I         256 11.29        26.3 0.45                           256 210 
 HEL  HZ EP   4    255 37.95                             114    1.32 0  272 255 
 HEL  HE ES        256  8.44                             114    0.57 8  272 255 
 HEL  HZ I         256 16.13        22.5 0.53                           272 255 
 URE  HZ EP        255 36.37                             113   -0.86 7  282 291 
 URE  HN ES        256  8.60                             113   -0.34 7  282 291 
 URE  HZ I         256 11.82        42.5 0.12                           282 291 
 VIL  SZ EP        255 39.99                             111   -0.25 7  307 191 
 VIL  SE ES   4    256 16.04                             111    1.74 0  307 191 
 PTGC HZ EP   4    255 38.82                             110   -1.89 0  313 159 
 PTGC HN ES   4    256 12.40                             110   -2.73 0  313 159 
 PTGC HZ I         256 22.84        11.0 0.26                           313 159 
 ELA  HZ EP   4    255 44.90                             109    1.40 0  331 229 
 ELA  HN ES        256 20.69                             109    0.59 7  331 229 
 ELA  HZ I         256 27.93        18.8 0.30                           331 229 
 CBOC HN ES        256 19.54                             109   -0.38 7  334 251 
 ARGC HZ EP   4    255 47.81                             108    2.17 0  355 340 
 ARGC HN ES        256 24.85                             108    0.94 6  355 340 
 ARGC HZ I         256 37.91         5.4 0.39                           355 340 
 ANIL HZ EP   4    255 48.74                             108    2.24 0  360 224 
 ANIL HN ES   4    256 27.07                             108    1.63 0  360 224 
 ANIL HZ I         256 34.02        46.4 0.32                           360 224 
 PRA  HZ EP        255 50.36                             106    0.03 6  395 209 
 PRA  HN ES        256 33.51                             106    1.26 6  395 209 
 PRA  HZ I         256 35.68        12.0 0.31                           395 209 
 ORTC HZ EP        255 51.63                             106    0.94 6  398 216 
 ORTC HE ES        256 33.41                             106    0.52 6  398 216 
 ORTC HZ I         256 36.65         9.5 0.26                           398 216 
 SJC  HZ EP   9    255 50.21                             105   -1.38 0  406 327 
 SJC  HN ES        256 33.48                             105    0.36 6  406 327 
 SJC  HZ I         256 35.50        14.5 0.62                           406 327 
 PAL  HZ EP        255 51.65                             105   -0.13 6  407 239 
 PAL  HT ES        256 35.65                             105    0.82 6  407 239 
 PAL  HZ I         256 41.50         7.2 0.22                           407 239 
                                                                                
