 2017  2 6 0321  9.6 L   6.785 -73.109145.2  RSN 10 0.5 1.8LRSN                1
 GAP=221        1.20       4.9     6.2  6.6  0.9041E+01  0.2690E+01  0.7376E+01E
 Epicentro: LOS SANTOS - SANTANDER                                             3
 ACTION:UPD 17-05-24 15:33 OP:jn   STATUS:               ID:20170206032109 L   I
 OLDACT:UP  17-02-06 17:35 OP:edw  STATUS:               ID:20170206031746     3
 OLDACT:REG 17-02-06 11:45 OP:edw  STATUS:               ID:20170206031746     3
 2017-02-06-0318-00M.COL___325                                                 6
 STAT SP IPHASW D HRMM SECON CODA AMPLIT PERI AZIMU VELO AIN AR TRES W  DIS CAZ7
 BAR2 EZ EP        321 28.80                             171   -0.3210 22.8 201 
 BAR2 EZ ES        321 44.00                             171   -0.3610 22.8 201 
 BRR  HZ EP     C  321 30.75                             151   -0.1610 75.6 298 
 BRR  HN ES        321 48.07                             151    0.5210 75.6 298 
 BRR  HZ I         321 51.83         9.9 0.32            147           75.6 298 
 RUS  HZ EP        321 33.50                             144    0.3710 98.7 178 
 RUS  HN ES        321 51.69                             144    0.1910 98.7 178 
 RUS  HZ I         321 52.85        14.8 0.32            143           98.7 178 
 PTB  HZ EP   9    321 36.09                             131   -0.74 0  151 260 
 PTB  HN ES        321 56.59                             131   -0.76 9  151 260 
 PTB  HZ I         322  2.31         4.8 0.22            128            151 260 
 ZAR  HZ EP        321 43.28                             121    0.85 8  208 292 
 ZAR  HN ES        322  7.14                             121   -0.92 8  208 292 
 ZAR  HZ I         322 12.56         6.4 0.48            120            208 292 
 NOR  HN ES        322 14.16                             118    0.61 8  237 235 
 CHI  HZ EP        321 47.29                             117    0.11 8  248 196 
 CHI  HN ES        322 16.23                             117   -0.28 8  248 196 
 CHI  HZ I         322 20.00         2.7 0.38            117            248 196 
 ROSC BZ EP        321 47.96                             116    0.23 8  253 212 
 ROSC BN ES        322 17.13                             116   -0.37 8  253 212 
 ROSC BZ I         322 23.82         5.3 0.30            116            253 212 
 PTGC HZ EP        321 52.17                             111   -0.89 7  306 159 
 PTGC HN ES   4    322 25.65                             111   -1.32 0  306 159 
 ORTC HZ EP        322  3.76                             106    0.17 6  396 217 
 ORTC HN ES   4    322 46.71                             106    0.98 0  396 217 
 ORTC HZ I         322 52.10         1.8 0.38            106            396 217 
                                                                                
