 2013  1 6 0940 58.1 L   6.795 -73.097146.8  RSN  4 0.1 1.8LRSN                1
 GAP=242        0.38       2.4     5.5  3.2  0.6811E+01  0.3070E+01  0.2399E+01E
 Epicentro: LOS SANTOS - SANTANDER                                             3
 ACTION:UPD 13-02-15 09:12 OP:ep   STATUS:               ID:20130106094058 L   I
 2013-01-06-0939-40M.COL___180                                                 6
 STAT SP IPHASW D HRMM SECON CODA AMPLIT PERI AZIMU VELO AIN AR TRES W  DIS CAZ7
 BAR2 SZ EP        941 17.80                             170   -0.0510 24.4 203 
 BAR2 SZ ES        941 33.11                             170   -0.1710 24.4 203 
 BAR2 SZ I         941 34.13        11.5 0.18            170           24.4 203 
 BRR  HZ EP        941 19.68                             151    0.0510 76.3 297 
 BRR  HN ES        941 36.49                             151    0.0510 76.3 297 
 BRR  HN I         941 37.26        14.2 0.36            151           76.3 297 
 RUS  HN ES        941 40.63                             144    0.1910 99.8 179 
 CHI  HZ EP        941 35.93                             117    0.00 8  250 196 
 CHI  HN ES        942  5.36                             117   -0.11 8  250 196 
                                                                                
