 2017  5 6 0030 28.3 L   7.375 -73.116 10.6  RSN  6 0.3 1.8LRSN                1
 GAP=181        0.72       3.8     1.7  3.8  0.9635E-01  0.2211E+01  0.3963E+01E
 Epicentro: MATANZA - SANTANDER                                                3
 ACTION:UPD 17-06-16 13:33 OP:jn   STATUS:               ID:20170506003028 L   I
 OLDACT:UP  17-05-06 14:44 OP:and  STATUS:               ID:20170506002745     3
 OLDACT:UP  17-05-06 14:43 OP:and  STATUS:               ID:20170506002745     3
 OLDACT:UP  17-05-06 14:41 OP:and  STATUS:               ID:20170506002745     3
 OLDACT:REG 17-05-06 12:23 OP:and  STATUS:               ID:20170506002745     3
 2017-05-06-0028-00M.COL___333                                                 6
 STAT SP IPHASW D HRMM SECON CODA AMPLIT PERI AZIMU VELO AIN AR TRES W  DIS CAZ7
 PAM  EZ IP     D  030 36.50                              99   -0.0010 46.2  95 
 PAM  EN ES        030 42.63                              99   -0.2510 46.2  95 
 PAM  EZ I         030 43.76        83.8 0.18            103           46.2  95 
 BRR  HZ EP        030 39.71                              95   -0.1910 72.2 246 
 BRR  HE ES        030 48.95                              95    0.0210 72.2 246 
 BRR  HZ I         030 51.82        17.0 0.28             97           72.2 246 
 RUS  HZ EP        030 54.48                              56    0.37 9  164 179 
 RUS  HN ES        031 14.14                              56   -0.08 9  164 179 
 RUS  HZ I         031 18.90         9.5 0.26             56            164 179 
 PTB  HZ EP        030 55.08                              56    0.22 9  175 238 
 PTB  HN ES   3    031 14.49                              56   -1.06 2  175 238 
 PTB  HZ I         031 16.10        10.7 0.26             56            175 238 
 ZAR  HZ EP        030 57.65                              56    0.53 9  193 274 
 ZAR  HN ES        031 19.14                              56   -0.44 9  193 274 
 ZAR  HZ I         031 20.91        22.1 0.26             56            193 274 
 LL6C HN EP   9    030 50.33                              56   -15.4 0  262 356 
 LL6C HN ES   4    031 16.45                                   -3.05 0  262 356 
 LL6C HN I         031 22.41         3.3 0.40             56            262 356 
 SJC  HZ EP   4    031 20.04                              55    2.11 0  360 321 
 SJC  HN ES   4    032  0.16                              55    3.53 0  360 321 
                                                                                
