 2012  5 6 0514 11.6 L   6.806 -73.139146.2  RSN 15 0.4 2.9LRSN                1
 GAP=137        0.82       3.0     3.7  5.2 -0.1657E+01  0.6455E+01  0.7582E+00E
 Epicentro: LOS SANTOS - SANTANDER                                             3
 ACTION:UP  12-07-05 12:02 OP:pat  STATUS:               ID:20120506051411 L   I
 2012-05-06-0510-00M.COL___192                                                 6
 STAT SP IPHASW D HRMM SECON CODA AMPLIT PERI AZIMU VELO SNR AR TRES W  DIS CAZ7
 BAR2 SZ IP        514 31.32                             170     0.010   24 191 
 BAR2 SZ I         514 31.88       164.8 0.14                            24 191 
 BAR2 SZ ES   1    514 46.36                             170    -0.3 7   24 191 
 BRR  HZ IP     C  514 33.11                             153     0.310   72 298 
 BRR  HZ I         514 33.39       302.2 0.19                            72 298 
 BRR  HE ES   1    514 50.00                             153     0.6 7   72 298 
 PAM  SZ EP        514 34.09                             151     0.310   76  39 
 PAM  SN ES   1    514 51.20                             151     0.1 7   76  39 
 PAM  SZ I         514 53.59        87.8 0.52                            76  39 
 RUS  HZ EP        514 35.38                             144    -0.110  101 176 
 RUS  HE ES   1    514 53.71                             144    -0.3 7  101 176 
 RUS  HZ I         514 56.34        59.0 0.33                           101 176 
 PTB  HZ EP        514 37.87                             132    -0.8 9  149 259 
 PTB  HN ES   1    514 59.23                             132    -0.6 7  149 259 
 PTB  HZ I         515  4.05        72.9 0.12                           149 259 
 ZAR  HZ EP   1    514 44.10                             122     0.0 6  204 292 
 ZAR  HN ES   1    515  9.80                             122     0.3 6  204 292 
 ZAR  HZ I         515 15.09       111.2 0.60                           204 292 
 CHI  HZ EP   1    514 49.90                             117     0.5 6  249 195 
 CHI  HN ES   1    515 18.86                             117     0.0 6  249 195 
 CHI  HZ I         515 24.39        22.0 0.37                           249 195 
 ROSC BN ES   1    515 19.73                             117     0.1 6  254 211 
 ROSC BZ I         515 27.44        38.9 0.33                           254 211 
 HEL  HZ EP   1    514 52.18                             115     0.3 6  273 256 
 HEL  HN ES   1    515 23.49                             115     0.1 6  273 256 
 HEL  HZ I         515 29.66        53.4 0.49                           273 256 
 URE  HZ EP   1    514 52.51                             114    -0.2 6  284 292 
 URE  HZ I         515 33.50        52.6 0.21                           284 292 
 GUY  SZ EP   1    514 56.28                             112     0.7 5  304 235 
 GUY  SN ES   1    515 30.07                             112     0.2 5  304 235 
 GUY  SZ I         515 38.97        41.4 0.38                           304 235 
 RREF HZ EP   1    514 57.35                             111    -0.5 5  323 229 
 RREF HN ES   1    515 33.94                             111     0.0 5  323 229 
 RREF HZ I         515 45.04        50.1 0.39                           323 229 
 DBB  SZ EP   1    514 59.04                             109    -0.1 5  340 274 
 DBB  SZ ES   2    515 36.06                             109    -0.2 3  340 274 
 COD  HZ EP   1    514 59.64                             109    -0.3 5  348 354 
 COD  HN ES   1    515 37.16                             109    -0.4 5  348 354 
 PRA  HZ EP   1    515  5.63                             106     0.4 4  393 210 
 PRA  HE ES   1    515 47.28                             106     0.2 4  393 210 
                                                                                
