 2014  6 6 0736 12.7 L   6.821 -73.135142.6  RSN 22 0.5 2.2LRSN                1
 GAP= 71        0.96       2.5     2.7  4.9 -0.5209E+00  0.4597E+01  0.2034E+01E
 Epicentro: LOS SANTOS - SANTANDER                                             3
 OLDACT:REG 14-06-06 13:14 OP:fm   STATUS:               ID:20140606072809     3
 ACTION:UPD 14-07-01 22:51 OP:nd   STATUS:               ID:20140606073612 L   I
 OLDACT:UP  14-06-06 17:47 OP:fm   STATUS:               ID:20140606072809     3
 2014-06-06-0728-09M.COL___256                                                 6
 STAT SP IPHASW D HRMM SECON CODA AMPLIT PERI AZIMU VELO AIN AR TRES W  DIS CAZ7
 BAR2 SZ EP        736 31.98                             169   -0.0310 25.8 192 
 BAR2 SZ ES   1    736 47.03                             169   -0.03 7 25.8 192 
 BAR2 SZ I         736 47.77        30.1 0.26            168           25.8 192 
 PAM  SN ES        736 51.78                             151    0.4110 74.8  40 
 RUS  HZ EP        736 35.88                             142   -0.4310  103 177 
 RUS  HN ES        736 54.75                             142    0.0310  103 177 
 RUS  SZ I         736 55.50        16.0 0.76            133            103 177 
 PTB  HZ EP        736 38.90                             131   -0.67 9  149 258 
 PTB  HE ES        737  0.33                             131   -0.19 9  149 258 
 PTB  SZ I         737  2.18        17.9 0.20            121            149 258 
 TAM  HZ IP     C  736 40.25                             130    0.17 9  155 106 
 TAM  HN ES        737  1.69                             130    0.26 9  155 106 
 TAM  SZ I         737  5.18         7.2 0.42            118            155 106 
 OCA  HN ES        737  2.15                             129   -0.15 9  158 353 
 SPBC HZ EP        736 40.99                             128   -0.22 9  166 219 
 SPBC HE ES        737  3.23                             128   -0.21 9  166 219 
 SPBC SZ I         737 10.00        20.7 0.28            118            166 219 
 ZAR  HZ EP        736 44.75                             122   -0.23 9  204 291 
 ZAR  HE ES        737 10.38                             122    0.23 9  204 291 
 ZAR  SZ I         737 15.87        18.5 0.28            112            204 291 
 NOR  HZ EP        736 48.35                             117   -0.16 8  237 234 
 NOR  HE ES        737 16.43                             117    0.00 8  237 234 
 NOR  SZ I         737 22.28        12.7 0.20            108            237 234 
 SML  HZ EP   1    736 48.68                             117   -0.31 6  242 335 
 SML  HE ES   1    737 17.79                             117    0.51 6  242 335 
 SML  SZ I         737 25.66        11.5 0.10            107            242 335 
 CHI  HZ EP        736 50.11                             116   -0.40 8  251 195 
 CHI  HN ES        737 19.35                             116   -0.64 8  251 195 
 CHI  SZ I         737 27.33         7.1 0.42            107            251 195 
 ROSC BZ EP        736 52.04                             116    1.10 8  255 211 
 ROSC BN ES   4    737 22.55                             116    1.79 0  255 211 
 ROSC SZ I         737 25.53        14.5 0.50            107            255 211 
 HEL  HZ EP        736 52.94                             114   -0.02 8  274 255 
 HEL  HN ES        737 23.73                             114   -0.62 8  274 255 
 HEL  SZ I         737 30.83        10.9 0.46            105            274 255 
 GUY2CHZ EP        736 56.40                             111   -0.03 7  304 235 
 GUY2CHN ES        737 31.34                             111    0.80 7  304 235 
 GUY2CSZ I         737 39.40         7.0 0.32                           304 235 
 VIL  SZ EP   1    736 56.08                             111   -0.18 5  306 192 
 VIL  SE ES   4    737 31.89                             111    1.65 0  306 192 
 VIL  SZ I         737 35.51        11.2 0.50            103            306 192 
 PTGC HZ EP   4    736 55.09                             111   -1.52 0  310 159 
 PTGC SZ I         737 28.00         8.5 2.54            102            310 159 
 PTGC HN ES   4    737 28.87                             111   -1.99 0  310 159 
 RREF HZ EP        736 59.71                             110    0.72 7  324 229 
 RREF HN ES        737 35.89                             110    0.80 7  324 229 
 RREF SZ I         737 41.58         7.0 1.02            102            324 229 
 CBOC HZ EP        737  0.62                             109    0.91 7  335 252 
 CBOC HN ES   4    737 33.73                             109   -2.64 0  335 252 
 CBOC SZ I         737 47.58         3.5 0.88            101            335 252 
 TOL  SZ EP   1    737  1.74                             108    0.61 5  346 225 
 TOL  SN ES   4    737 40.35                             108    1.46 0  346 225 
 TOL  SZ I         737 51.88        13.6 0.62            100            346 225 
 ARGC HZ EP   1    737  0.97                             108   -1.07 5  357 340 
 ARGC SZ I         737 47.78        16.3 3.12             99            357 340 
 PRA  HZ EP        737  6.40                             106   -0.02 6  395 210 
 PRA  HN ES        737 48.06                             106   -0.26 6  395 210 
 PRA  SZ I         737 52.21        10.2 0.62             98            395 210 
 ORTC HZ EP   1    737  6.81                             106   -0.01 4  398 216 
 ORTC HN ES   4    737 51.30                             106    2.27 0  398 216 
 ORTC SZ I         737 53.20         7.4 2.60             98            398 216 
                                                                                
