 2010  9 6 0859 36.4 L   6.802 -72.976145.0  RSN 12 0.4 2.5LRSN                1
 GAP=178        0.95       3.6     7.8  5.8 -0.1003E+02  0.2794E+01  0.1326E+01E
 Epicentro: CEPITA - SANTANDER                                                 3
 ACTION:UP  11-02-18 11:00 OP:tino STATUS:               ID:20100906085936 L   I
 2010-09-06-0856-02S.COL___119                                                 6
 STAT SP IPHASW D HRMM SECON CODA AMPLIT PERI AZIMU VELO SNR AR TRES W  DIS CAZ7
 BAR2 SZ IP        859 56.21                             167     0.010   33 225 
 BAR2 SZ ES   1    9 0 11.63                             167     0.0 7   33 225 
 BAR2 SZ I         9 0 13.05        64.1 0.46                            33 225 
 BTL  SZ IP        859 56.33                             166     0.110   35 292 
 BTL  SZ ES   1    9 0 11.15                             166    -0.6 7   35 292 
 BRR  HZ IP     C  859 58.08                             147    -0.410   88 293 
 BRR  HZ I         859 58.36       142.4 0.15                            88 293 
 BRR  HN ES   1    9 0 15.83                             147     0.1 7   88 293 
 RUS  HZ EP   1    9 0  0.19                             143     0.0 7  101 187 
 RUS  HN ES   1    9 0 18.43                             143    -0.2 7  101 187 
 RUS  HZ I         9 0 20.06        32.4 0.30                           101 187 
 GUE  SZ EP        9 0  1.26                             140     0.410  114   3 
 GRA  SZ IP     C  9 0  1.01                             138    -0.210  121   9 
 GRA  SZ I         9 0 21.69        33.2 0.34                           121   9 
 OCA  SZ EP        9 0  4.59                             129    -0.4 9  163 347 
 OCA  SZ ES   1    9 0 28.04                             129     0.8 7  163 347 
 OCA  SZ I         9 0 32.69        36.5 0.59                           163 347 
 CHI  HZ EP   2    9 0 14.20                             116    -0.5 4  254 199 
 CHI  HZ I         9 0 16.83         9.7 0.32                           254 199 
 CHI  HN ES   1    9 0 45.49                             116     0.9 6  254 199 
 ROSC BZ EP        9 0 16.04                             115     0.4 8  263 215 
 ROSC BN ES   2    9 0 46.51                             115     0.3 4  263 215 
 ROSC BZ I         9 0 53.88        21.0 0.39                           263 215 
 HEL  HZ EP        9 0 18.99                             113     0.4 7  290 257 
 HEL  HE ES   3    9 0 50.38                             113    -1.2 2  290 257 
 RREF HZ EP        9 0 24.25                             109     0.0 7  336 231 
 RREF HN ES   2    9 1  1.22                             109    -0.3 3  336 231 
 RREF HZ I         9 1  4.61        14.1 0.25                           336 231 
 PRA  HZ EP   1    9 0 29.88                             106    -1.2 4  402 212 
 PRA  HE ES   2    9 1 13.46                             106    -0.2 3  402 212 
 PRA  HZ I         9 1 17.34        10.2 0.55                           402 212 
                                                                                
