 2012  7 6 0804  9.6 L   6.744 -73.161142.0  RSN  8 0.3 2.0LRSN                1
 GAP=137        0.84       4.4     4.6  6.1  0.3913E+01  0.2886E+01 -0.3730E+01E
 Epicentro: VILLANUEVA - SANTANDER                                             3
 ACTION:UPD 12-08-14 11:42 OP:ep   STATUS:               ID:20120706080409 L   I
 2012-07-06-0800-00M.COL___201                                                 6
 STAT SP IPHASW D HRMM SECON CODA AMPLIT PERI AZIMU VELO AIN AR TRES W  DIS CAZ7
 BAR2 SZ EP        8 4 28.74                             173     0.110   17 188 
 BAR2 SZ ES   1    8 4 43.08                             173    -0.5 7   17 188 
 BAR2 SZ I         8 4 45.61        23.3 0.21            173             17 188 
 BRR  HZ EP        8 4 30.50                             151     0.010   73 303 
 BRR  HE ES        8 4 47.27                             151     0.510   73 303 
 BRR  HZ I         8 4 50.71        24.8 0.12            144             73 303 
 PAM  SZ EP   1    8 4 31.58                             148    -0.2 7   83  38 
 RUS  HZ EP        8 4 32.70                             145     0.110   95 175 
 RUS  HE ES        8 4 50.58                             145     0.110   95 175 
 RUS  HZ I         8 4 53.25        15.8 0.36            149             95 175 
 PTB  HZ EP        8 4 35.60                             132    -0.4 9  145 261 
 PTB  HN ES   1    8 4 56.35                             132    -0.3 7  145 261 
 PTB  HZ I         8 5  1.81         9.3 0.19            130            145 261 
 OCA  HZ EP   1    8 4 37.90                             128    -0.3 7  166 354 
 OCA  HZ I         8 5  3.50        16.4 0.33            119            166 354 
 ZAR  HZ EP   1    8 4 42.27                             122     0.4 6  205 294 
 ZAR  HN ES   1    8 5  6.89                             122    -0.2 6  205 294 
 ZAR  HZ I         8 5 12.88        13.1 0.38            117            205 294 
 NOR  SZ EP   1    8 4 45.11                             118     0.5 6  230 235 
 NOR  SE ES   1    8 5 11.74                             118    -0.2 6  230 235 
