 2011  5 6 0156  4.2 L   6.784 -73.139148.8  RSN  5 0.1 1.7LRSN                1
 GAP=138        0.42       2.5     5.3  5.8 -0.1223E+01 -0.1259E+02 -0.1286E+01E
 Epicentro: LOS SANTOS - SANTANDER                                             3
 ACTION:UP  11-06-29 08:51 OP:tino STATUS:               ID:20110506015604 L   I
 2011-05-06-0152-54S.COL___132                                                 6
 STAT SP IPHASW D HRMM SECON CODA AMPLIT PERI AZIMU VELO SNR AR TRES W  DIS CAZ7
 BAR2 SZ EP   1    156 23.83                             171    -0.3 8   22 193 
 BAR2 SZ I         156 41.67        16.0 0.25                            22 193 
 BRR  HZ EP   1    156 25.85                             153     0.1 8   73 299 
 BRR  HE ES   1    156 42.57                             153     0.0 8   73 299 
 BRR  HZ I         156 44.58         7.6 0.08                            73 299 
 PAM  SZ EP   1    156 26.96                             151     0.2 8   78  38 
 RUS  HZ EP   1    156 28.05                             145     0.0 8   99 176 
 RUS  HE ES   1    156 46.85                             145     0.1 8   99 176 
 RUS  HZ I         156 47.76         7.6 0.23                            99 176 
 GRA  SZ EP        156 29.82                             137     0.010  127  17 
 GRA  SZ ES   1    156 49.74                             137    -0.1 7  127  17 
 GRA  SZ I         156 50.81         6.2 0.28                           127  17 
                                                                                
