 2015  4 6 0457 36.3 L   6.490 -73.655102.4  RSN 10 0.5 1.8LRSN                1
 GAP= 70        1.04       2.9     3.0  7.2 -0.1456E+01  0.2729E+01 -0.6753E+01E
 Epicentro: SANTA HELENA DEL OPON - SANTANDER                                  3
 ACTION:UPD 15-06-03 16:53 OP:cam  STATUS:               ID:20150406045736 L   I
 OLDACT:UP  15-04-06 16:05 OP:mh   STATUS:               ID:20150406044736     3
 OLDACT:UP  15-04-06 16:05 OP:mh   STATUS:               ID:20150406044736     3
 OLDACT:UP  15-04-06 16:04 OP:mh   STATUS:               ID:20150406044736     3
 OLDACT:UP  15-04-06 16:04 OP:mh   STATUS:               ID:20150406044736     3
 OLDACT:REG 15-04-06 12:52 OP:mher STATUS:               ID:20150406044736     3
 2015-04-06-0447-36M.COL___261                                                 6
 STAT SP IPHASW D HRMM SECON CODA AMPLIT PERI AZIMU VELO AIN AR TRES W  DIS CAZ7
 BAR2 EZ EP        457 52.50                             150    0.3810 53.4  78 
 BAR2 EZ I         458  6.29        26.9 0.04            147           53.4  78 
 BRR  HZ IP        457 52.72                             143   -0.0610 68.5 355 
 BRR  HZ EP   1    457 52.72                             143   -0.06 7 68.5 355 
 BRR  HN ES        458  5.75                             143    0.1210 68.5 355 
 BRR  HZ I         458  7.26        12.9 0.11            141           68.5 355 
 PTB  HZ EP   1    457 53.45                             135   -0.97 7 88.8 274 
 PTB  HN ES        458  7.84                             135   -0.7110 88.8 274 
 PTB  HZ I         458  8.60        16.3 0.10            136           88.8 274 
 RUS  HZ EP   2    457 55.30                             135   -0.00 5 91.5 136 
 RUS  HN ES        458 10.21                             135    0.0910 91.5 136 
 RUS  HZ I         458 11.97         6.5 0.26            134           91.5 136 
 SPBC HZ EP        457 55.61                             131   -0.2310  104 207 
 SPBC HN ES        458 11.03                             131   -0.0410  104 207 
 PAM  SZ EP        458  0.09                             121    0.00 9  141  48 
 PAM  SN ES        458 18.71                             121    0.08 9  141  48 
 PAM  SZ I         458 19.53         5.0 0.28            120            141  48 
 ZAR  HZ EP        458  2.81                             115   -0.07 9  173 310 
 ZAR  HN ES        458 24.05                             115    0.44 9  173 310 
 ZAR  HZ I         458 27.13         9.6 0.36            115            173 310 
 OCA  HZ EP        458  5.81                             112    0.08 9  197  11 
 OCA  HN ES        458 29.08                             112    0.40 9  197  11 
 OCA  HZ I         458 33.74        18.4 0.16            112            197  11 
 HEL  HZ EP   1    458  7.76                             110    0.27 6  210 261 
 HEL  HN ES        458 32.93                             110    1.11 8  210 261 
 HEL  HZ I         458 34.97         3.2 0.34            111            210 261 
 URE  HZ EP   4    458 10.30                             106   -1.38 0  250 304 
 URE  HN ES   4    458 35.15                             106   -4.13 0  250 304 
 SML  HZ EP   1    458 11.88                             105   -0.91 6  260 350 
 SML  HN ES        458 40.78                             105   -0.47 8  260 350 
 SML  HZ I         458 48.68         7.3 0.10            106            260 350 
                                                                                
