 2016  1 6 0800 57.6 L   6.812 -73.183143.8  RSN 16 0.4 2.0LRSN                1
 GAP= 69        0.93       2.2     2.5  4.3 -0.5872E+00  0.2736E+01  0.1007E+01E
 Epicentro: ZAPATOCA - SANTANDER                                               3
 ACTION:UPD 16-03-09 23:23 OP:cam  STATUS:               ID:20160106080057 L   I
 OLDACT:REG 16-01-06 12:22 OP:drio STATUS:               ID:20160106075748     3
 2016-01-06-0757-48M.COL___259                                                 6
 STAT SP IPHASW D HRMM SECON CODA AMPLIT PERI AZIMU VELO AIN AR TRES W  DIS CAZ7
 BAR2 EZ EP        8 1 17.06                             170    0.0110 24.3 180 
 BAR2 EZ ES        8 1 31.64                             170   -0.5610 24.3 180 
 BAR2 EZ I         8 1 41.04        13.1 0.44            171           24.3 180 
 BRR  HZ EP        8 1 18.83                             154    0.4910 67.0 299 
 BRR  HN ES        8 1 34.91                             154    0.4210 67.0 299 
 BRR  HZ I         8 1 39.10        16.4 0.30            155           67.0 299 
 PAM  EZ EP        8 1 20.11                             150    0.3610 79.1  42 
 PAM  EN ES        8 1 37.35                             150    0.3510 79.1  42 
 PAM  EZ I         8 1 37.92        13.5 0.24            151           79.1  42 
 RUS  HZ EP        8 1 21.22                             143   -0.1010  102 174 
 RUS  HN ES        8 1 39.84                             143    0.0510  102 174 
 RUS  HZ I         8 1 41.37         9.6 0.44            144            102 174 
 PTB  HZ EP        8 1 23.71                             132   -0.40 9  144 258 
 PTB  HN ES        8 1 44.73                             132   -0.02 9  144 258 
 PTB  HZ I         8 1 49.78        11.7 0.52            134            144 258 
 TAM  HZ EP        8 1 25.15                             129   -0.41 9  159 105 
 TAM  HZ I         8 1 42.40        13.0 0.46            130            159 105 
 TAM  HE ES        8 1 47.32                             129   -0.02 9  159 105 
 OCA  HZ EP        8 1 26.10                             129    0.46 9  159 355 
 OCA  HE ES        8 1 47.13                             129   -0.35 9  159 355 
 OCA  HZ I         8 1 56.51        18.9 0.18            131            159 355 
 SPBC HZ EP        8 1 25.28                             129   -0.56 9  162 218 
 SPBC HN ES        8 1 48.04                             129    0.20 9  162 218 
 SPBC HZ I         8 1 50.08        15.9 0.26            130            162 218 
 ZAR  HZ EP        8 1 29.97                             122    0.45 9  200 292 
 ZAR  HN ES        8 1 54.42                             122    0.04 9  200 292 
 ZAR  HZ I         8 2  0.24        11.8 0.38            124            200 292 
 NOR  HZ EP        8 1 33.39                             118    0.41 8  232 234 
 NOR  HN ES        8 2  0.31                             118   -0.24 8  232 234 
 NOR  HZ I         8 2  6.48         7.8 0.56            120            232 234 
 SML  HZ EP        8 1 33.19                             117   -0.66 8  241 336 
 SML  HN ES        8 2  1.36                             117   -0.73 8  241 336 
 SML  HZ I         8 2  6.27        13.2 0.10            118            241 336 
 CHI  HZ EP        8 1 35.35                             117    0.10 8  249 194 
 CHI  HN ES        8 2  4.76                             117    0.17 8  249 194 
 CHI  HZ I         8 2  9.80         7.6 0.38            118            249 194 
 GUY2CHZ EP        8 1 41.39                             112    0.52 7  299 234 
 GUY2CHN ES        8 2 14.42                             112   -0.17 7  299 234 
 GUY2CHZ I         8 2 23.51         6.1 0.58                           299 234 
 CBOC HZ EP        8 1 44.91                             110    0.84 7  330 252 
 CBOC HN ES        8 2 20.01                             110   -0.28 7  330 252 
 CBOC HZ I         8 2 26.98         1.8 0.32            111            330 252 
 PRA  HZ EP        8 1 50.65                             106   -0.34 6  391 209 
 PRA  HN ES        8 2 32.22                             106   -0.38 6  391 209 
 PRA  HZ I         8 2 41.87         7.4 0.30            107            391 209 
 SJC  HZ EP   4    8 1 51.23                             105   -1.52 0  406 327 
 SJC  HE ES   4    8 2 32.16                             105   -3.58 0  406 327 
 SJC  HZ I         8 2 36.54         1.7 0.42            106            406 327 
                                                                                
