 2011 12 6 0914  5.8 L   7.122 -73.580 88.1  RSN  4 0.2 1.4LRSN                1
 GAP=145        0.50       2.3     7.5  5.3  0.8264E-01 -0.1764E+02  0.1893E+01E
 Epicentro: SAN VICENTE DE CHUCURI - SANTANDER                                 3
 ACTION:UPD 12-07-13 16:14 OP:ep   STATUS:               ID:20111206091405 L   I
 2011-12-06-0910-00M.COL___182                                                 6
 STAT SP IPHASW D HRMM SECON CODA AMPLIT PERI AZIMU VELO AIN AR TRES W  DIS CAZ7
 BRR  HZ EP   1    914 17.60                             170   -0.33 7 14.7 264 
 BRR  HN ES   1    914 27.54                             170    0.13 7 14.7 264 
 BRR  HZ I         914 28.49        32.9 0.18                          14.7 264 
 OCA  SZ EP   1    914 26.43                             120   -0.26 7  127  13 
 OCA  SZ ES   1    914 43.23                             120    0.23 7  127  13 
 OCA  SZ I         914 45.57         5.2 0.27                           127  13 
 RUS  HZ EP   1    914 29.52                             117    0.24 7  147 158 
 RUS  HN ES   1    914 47.46                             117   -0.14 7  147 158 
 RUS  HZ I         914 52.03         1.4 0.17                           147 158 
 CTAU SZ EP   1    914 37.74                             107    0.20 6  218 194 
                                                                                
