 2015  1 6 0215 33.3 L   6.777 -73.166146.6  RSN  7 0.5 1.5LRSN                1
 GAP=199        1.12       5.1     7.0  7.3  0.1845E+02  0.9605E+01  0.3582E+01E
 Epicentro: LOS SANTOS - SANTANDER                                             3
 ACTION:UPD 15-03-02 15:37 OP:nd   STATUS:               ID:20150106021533 L   I
 OLDACT:UP  15-01-06 15:18 OP:cam  STATUS:               ID:20150106020813     3
 OLDACT:REG 15-01-06 13:47 OP:cam  STATUS:               ID:20150106020813     3
 2015-01-06-0208-13M.COL___274                                                 6
 STAT SP IPHASW D HRMM SECON CODA AMPLIT PERI AZIMU VELO AIN AR TRES W  DIS CAZ7
 BAR2 EZ EP        215 52.42                             172   -0.5710 20.5 185 
 BAR2 EZ ES        216  8.15                             172   -0.1910 20.5 185 
 BAR2 EZ I         216  9.35         9.0 0.78            166           20.5 185 
 BRR  HZ EP        215 54.77                             153    0.2610 70.5 301 
 BRR  HN ES        216 11.84                             153    0.7910 70.5 301 
 BRR  HZ I         216 16.04        10.1 0.32            150           70.5 301 
 RUS  HZ EP        215 57.39                             145    0.4110 98.2 175 
 RUS  HN ES        216 15.20                             145   -0.2410 98.2 175 
 RUS  HZ I         216 17.92         2.4 0.26            144           98.2 175 
 PTB  HZ EP        215 59.76                             133   -0.35 9  145 260 
 PTB  HN ES        216 20.39                             133   -0.62 9  145 260 
 PTB  HZ I         216 25.46         4.7 0.12            131            145 260 
 ZAR  HZ EP        216  5.32                             123   -0.38 9  203 293 
 ZAR  HN ES        216 31.34                             123    0.38 9  203 293 
 ZAR  HZ I         216 36.43         4.2 0.26            123            203 293 
 SML  HE ES   1    216 38.50                             117   -0.36 6  245 336 
 CHI  HZ EP        216 11.35                             118    0.62 8  246 195 
 CHI  HN ES        216 40.11                             118    0.20 8  246 195 
 CHI  HZ I         216 47.66         1.6 0.34            118            246 195 
                                                                                
