 2016  3 6 0215 25.1 L   6.813 -73.154146.2  RSN 12 0.4 2.0LRSN                1
 GAP=135        1.04       3.2     3.8  6.4 -0.2648E+01  0.9481E+01 -0.2894E+01E
 Epicentro: LOS SANTOS - SANTANDER                                             3
 ACTION:UPD 16-05-13 21:21 OP:cam  STATUS:               ID:20160306021525 L   I
 OLDACT:REG 16-03-06 12:55 OP:ar   STATUS:               ID:20160306020746     3
 2016-03-06-0207-46M.COL___325                                                 6
 STAT SP IPHASW D HRMM SECON CODA AMPLIT PERI AZIMU VELO AIN AR TRES W  DIS CAZ7
 BAR2 EZ EP        215 44.82                             170   -0.0410 24.7 187 
 BAR2 EZ ES        216  0.54                             170    0.3110 24.7 187 
 BAR2 EZ I         216  1.64        16.9 0.36            169           24.7 187 
 PAM  EZ EP        215 47.60                             151    0.2210 76.8  41 
 PAM  EN ES        216  4.78                             151    0.0710 76.8  41 
 PAM  EZ I         216  6.02         7.4 0.16            153           76.8  41 
 RUS  HZ EP        215 49.04                             143   -0.0110  102 176 
 RUS  HN ES        216  7.56                             143   -0.1410  102 176 
 RUS  HZ I         216  8.66         9.2 0.28            148            102 176 
 PTB  HZ EP        215 51.68                             132   -0.41 9  147 258 
 PTB  HN ES        216 13.30                             132    0.19 9  147 258 
 PTB  HZ I         216 18.03         9.4 0.20            130            147 258 
 OCA  HZ EP        215 52.84                             130   -0.50 9  159 353 
 OCA  HE ES        216 14.99                             130   -0.34 9  159 353 
 OCA  HZ I         216 20.72        27.7 0.22            129            159 353 
 SPBC HZ EP        215 53.86                             129    0.13 9  164 218 
 SPBC HE ES        216 16.04                             129    0.01 9  164 218 
 SPBC HZ I         216 18.64        17.3 0.28            129            164 218 
 ZAR  HZ EP        215 58.45                             123    0.98 9  203 292 
 ZAR  HE ES        216 22.54                             123   -0.15 9  203 292 
 ZAR  HZ I         216 29.86        16.8 0.34            121            203 292 
 NOR  HZ EP        216  0.79                             119   -0.12 8  235 234 
 NOR  HN ES        216 28.14                             119   -0.67 8  235 234 
 NOR  HZ I         216 36.64         6.7 0.34            119            235 234 
 HEL  HZ EP   2    216  6.75                             115    1.43 4  272 255 
 HEL  HN ES        216 37.21                             115    0.55 8  272 255 
 HEL  HZ I         216 44.96         4.8 0.28            115            272 255 
 GUY2CHZ EP   9    216 10.82                             112    2.03 0  301 234 
 GUY2CHN ES        216 43.87                                   -0.99 7  301 234 
 GUY2CHZ I         216 52.72         3.6 0.46                           301 234 
 MON  HE ES        216 51.54                             109   -0.52 6  352 308 
 MON  HZ I         217  6.13         4.1 0.48            109            352 308 
 SJC  HZ EP   9    216 19.10                             106   -1.42 0  407 327 
 SJC  HN ES        217  3.15                                    0.86 6  407 327 
 SJC  HZ I         217 14.73         2.0 0.64            106            407 327 
                                                                                
