 2017  2 6 0721 20.0 L   6.689 -73.158144.6  RSN  4 0.3 1.1LRSN                1
 GAP=247        0.74       8.2     5.4  5.9  0.1606E+02  0.7806E+01 -0.1932E+01E
 Epicentro: VILLANUEVA - SANTANDER                                             3
 ACTION:UPD 17-05-24 15:33 OP:jn   STATUS:               ID:20170206072120 L   I
 OLDACT:REG 17-02-06 12:03 OP:edw  STATUS:               ID:20170206071745     3
 2017-02-06-0718-00M.COL___313                                                 6
 STAT SP IPHASW D HRMM SECON CODA AMPLIT PERI AZIMU VELO AIN AR TRES W  DIS CAZ7
 BAR2 EZ EP        721 39.20                             175   -0.1110 11.1 194 
 BAR2 EZ ES        721 54.61                             175    0.2410 11.1 194 
 BAR2 EZ I         721 55.38         3.4 0.27            172           11.1 194 
 BRR  HZ EP        721 41.22                             150   -0.1310 76.7 307 
 BRR  HE ES        721 57.83                             150   -0.1710 76.7 307 
 BRR  HZ I         722  6.38         3.0 0.46            146           76.7 307 
 PTB  HZ EP        721 47.02                             132    0.43 9  145 263 
 PTB  HN ES        722  6.96                             132   -0.36 9  145 263 
 PTB  HZ I         722 10.19         1.0 0.08            134            145 263 
 ZAR  HZ EP        721 52.48                             122   -0.28 8  208 295 
 ZAR  HE ES        722 18.73                             122    0.43 8  208 295 
 ZAR  HZ I         722 23.10         1.8 0.32            123            208 295 
                                                                                
