 2012  1 6 0336 40.6 L   6.756 -73.162153.9  RSN  5 0.3 1.1LRSN                1
 GAP=180        0.56       6.4     5.4  8.2  0.6460E+01  0.3561E+01  0.4373E+01E
 Epicentro: LOS SANTOS - SANTANDER                                             3
 ACTION:UP  12-02-03 08:14 OP:REBC STATUS:               ID:20120106033640 L   I
 2012-01-06-0330-00M.COL___186                                                 6
 STAT SP IPHASW D HRMM SECON CODA AMPLIT PERI AZIMU VELO SNR AR TRES W  DIS CAZ7
 GIR2 SZ EP   1    337  1.10                             166    -0.3 7   36 354 
 GIR2 SZ ES   2    337 17.35                             166    -0.3 5   36 354 
 BRR  HZ EP   2    337  3.04                             154     0.3 5   72 303 
 BRR  HE ES   2    337 20.64                             154     0.7 5   72 303 
 RUS  HZ EP   2    337  5.32                             147     0.4 5   96 175 
 RUS  HN ES   2    337 23.67                             147    -0.1 5   96 175 
 RUS  HZ I         337 25.04         2.1 0.33                            96 175 
 PTB  HZ EP   1    337  8.05                             134     0.0 7  145 261 
 PTB  HN ES   1    337 29.25                             134    -0.2 7  145 261 
 PTB  HZ I         337 29.82         0.0 0.50                           145 261 
 ZAR  HE ES   2    337 39.31                             124    -0.1 4  204 294 
                                                                                
