 2015  1 6 0744 19.5 L   6.712 -73.075138.0  RSN  4 0.4 1.4LRSN                1
 GAP=280        0.94       6.7     7.3  7.7 -0.5655E+01  0.5940E+01  0.1128E+02E
 Epicentro: JORDAN - SANTANDER                                                 3
 ACTION:UPD 15-03-02 15:37 OP:nd   STATUS:               ID:20150106074419 L   I
 OLDACT:DUP 15-01-06 17:06 OP:cam  STATUS:               ID:20150106073815d    3
 OLDACT:REG 15-01-06 14:20 OP:cam  STATUS:               ID:20150106073814     3
 2015-01-06-0738-14M.COL___274                                                 6
 STAT SP IPHASW D HRMM SECON CODA AMPLIT PERI AZIMU VELO AIN AR TRES W  DIS CAZ7
 BAR2 EZ EP        744 38.30                             172    0.2110 17.7 222 
 BAR2 EZ ES        744 52.13                             172   -0.4710 17.7 222 
 BAR2 EZ I         744 56.57         3.6 0.20            165           17.7 222 
 BRR  HZ EP        744 40.72                             147    0.1810 82.8 302 
 BRR  HN ES        744 57.38                             147    0.4210 82.8 302 
 BRR  HZ I         744 59.88         2.7 0.30            149           82.8 302 
 PTB  HZ EP        744 45.80                             129   -0.62 9  154 263 
 PTB  HN ES        745  7.16                             129   -0.26 9  154 263 
 PTB  HZ I         745 12.45         3.9 0.54            130            154 263 
 SPBC HZ EP        744 47.32                             128    0.12 9  161 223 
 SPBC HN ES        745  9.18                             128    0.38 9  161 223 
 SPBC HZ I         745 16.88         5.0 0.38            128            161 223 
                                                                                
