 2011  4 6 0107 51.9 L   7.396 -73.211126.9  RSN 17 0.2 2.8LRSN                1
 GAP= 90        0.39       1.6     2.2  2.4 -0.1045E+01  0.1794E+01  0.4367E+00E
 Epicentro: EL PLAYON - SANTANDER                                              3
 ACTION:UP  11-06-22 15:29 OP:REBC STATUS:               ID:20110406010751 L   I
 2011-04-06-0106-11S.COL___125                                                 6
 STAT SP IPHASW D HRMM SECON CODA AMPLIT PERI AZIMU VELO SNR AR TRES W  DIS CAZ7
 GIR2 SZ EP        1 8  9.48                             164     0.010   35 177 
 GIR2 SZ ES   1    1 8 23.10                             164    -0.1 7   35 177 
 BTL  SZ IP        1 8 10.54                             156     0.210   53 187 
 PAM  SZ IP        1 8 10.87                             155    -0.110   57  96 
 GUE  SZ EP        1 8 10.76                             154     0.110   57  33 
 PAM  SZ I         1 8 28.67        68.2 0.37                            57  96 
 BRR  HZ IP     D  1 8 10.64                             151     0.010   64 240 
 BRR  HE ES   1    1 8 25.26                             151     0.1 7   64 240 
 BRR  HZ I         1 8 27.46       260.0 0.31                            64 240 
 GRA  SZ IP        1 8 11.32                             149     0.110   70  40 
 GRA  SZ ES   1    1 8 26.28                             149     0.0 7   70  40 
 GRA  SZ I         1 8 27.67       320.0 0.25                            70  40 
 BAR2 SZ IP        1 8 12.52                             143    -0.110   89 178 
 BAR2 SZ ES   1    1 8 28.79                             143     0.0 7   89 178 
 BAR2 SZ I         1 8 30.12       503.6 0.10                            89 178 
 OCA  SZ EP        1 8 12.64                             141    -0.210   94 353 
 OCA  SZ I         1 8 36.08        39.3 0.17                            94 353 
 YOP  SZ EP   1    1 8 27.42                             113    -0.1 6  242 159 
 YOP  SE ES   1    1 8 55.20                             113    -0.1 6  242 159 
 YOP  SZ I         1 8 56.78        74.6 0.47                           242 159 
 NOR  SZ EP        1 8 31.06                             110     0.1 8  273 222 
 NOR  SN ES   3    1 9  1.85                                     0.4 2  273 222 
 HEL  HZ EP   1    1 8 33.19                             109     0.1 5  289 243 
 HEL  HN ES   3    1 9  4.54                                    -0.8 2  289 243 
 HEL  HZ I         1 9 15.37        20.5 0.27                           289 243 
 CHI  HZ EP   2    1 8 35.79                             108     0.0 3  311 191 
 CHI  HN ES   2    1 9  9.68                             108    -0.4 3  311 191 
 CHI  HZ I         1 9 27.72        16.3 0.86                           311 191 
 DBB  SZ EP        1 8 37.93                             106    -0.1 7  334 263 
 GUY  SZ EP   3    1 8 39.67                             106     0.4 2  340 225 
 GUY  SE ES   3    1 9 15.83                                    -0.4 2  340 225 
 GUY  SZ I         1 9 27.53        41.9 0.38                           340 225 
 RREF HZ EP   1    1 8 42.95                             105     0.8 5  363 221 
 RREF HN ES   1    1 9 21.12                             105    -0.3 5  363 221 
 RREF HZ I         1 9 30.58        24.3 0.31                           363 221 
 TOL  SZ EP   1    1 8 44.89                             103     0.1 4  389 217 
 PRA  HZ EP        1 8 51.11                             101    -0.3 5  447 205 
 PRA  HN ES   2    1 9 37.93                             101     0.0 3  447 205 
                                                                                
