 2013  8 6 0318 25.0 L   5.964 -73.840109.0  RSN 11 0.4 1.6LRSN                1
 GAP= 80        0.98       2.9     3.2  6.8 -0.8469E+00  0.6782E+00  0.1153E+01E
 Epicentro: SUCRE - SANTANDER                                                  3
 ACTION:UPD 14-01-14 08:59 OP:ep   STATUS:               ID:20130806031825 L   I
 OLDACT:UP  13-08-06 10:44 OP:jn   STATUS:               ID:20130806030960d    3
 2013-08-06-0309-59M.COL___268                                                 6
 STAT SP IPHASW D HRMM SECON CODA AMPLIT PERI AZIMU VELO AIN AR TRES W  DIS CAZ7
 SPBC HZ EP        318 40.91                             157    0.1910 43.0 217 
 SPBC HN ES   1    318 53.14                             157    0.12 7 43.0 217 
 SPBC HZ I         318 55.23        12.1 0.28            159           43.0 217 
 RUS  HZ EP        318 43.60                             140   -0.3510 84.2  95 
 RUS  HN ES   1    318 57.84                             140   -0.93 7 84.2  95 
 RUS  HZ I         318 59.53         5.7 0.24            145           84.2  95 
 PTB  HZ EP        318 43.50                             136   -0.5310 93.2 313 
 PTB  HN ES        318 58.59                             136   -0.3210 93.2 313 
 PTB  HZ I         319  1.84         6.8 0.14            138           93.2 313 
 BAR2 SZ EP        318 45.10                             134    0.1310  101  46 
 BAR2 SZ ES        319  1.02                             134    0.4510  101  46 
 BAR2 SZ I         319  2.12        17.7 0.44            138            101  46 
 NOR  HE ES   1    319  4.63                             128    0.93 7  122 249 
 NOR  HZ I         319  7.15         9.9 0.20            130            122 249 
 BRR  HZ EP        318 47.33                             126    0.2110  127   6 
 BRR  HN ES   1    319  4.87                             126    0.46 7  127   6 
 BRR  HZ I         319  8.59         8.8 0.10            129            127   6 
 GIR2 SZ EP        318 49.20                             123    0.36 9  142  30 
 CHI  HZ EP        318 49.95                             122    0.18 9  148 175 
 CHI  HN ES   1    319  8.79                             122   -0.34 7  148 175 
 CHI  HZ I         319  9.91         2.4 0.18            127            148 175 
 HEL  HE ES   1    319 16.12                             115   -0.63 7  189 278 
 ZAR  HZ EP   1    318 54.89                             113   -0.31 6  203 326 
 ZAR  HN ES   1    319 18.75                             113   -0.04 6  203 326 
 ZAR  HZ I         319 22.20         5.9 0.28            116            203 326 
 PRA  HZ EP   1    319  3.15                             106   -0.33 6  275 205 
 PRA  HN ES   1    319 34.10                             106    0.58 6  275 205 
                                                                                
