 2017  3 6 0314 42.0 L   6.787 -73.133138.4  RSN 14 0.5 1.9LRSN                1
 GAP= 99        1.08       3.9     3.2  5.9 -0.3552E+00  0.3359E+01  0.2667E+01E
 Epicentro: LOS SANTOS - SANTANDER                                             3
 ACTION:UPD 17-05-25 18:36 OP:jn   STATUS:               ID:20170306031442 L   I
 OLDACT:UP  17-03-06 14:07 OP:and  STATUS:               ID:20170306030745     3
 OLDACT:UP  17-03-06 14:07 OP:and  STATUS:               ID:20170306030745     3
 OLDACT:UP  17-03-06 14:06 OP:and  STATUS:               ID:20170306030745     3
 OLDACT:UP  17-03-06 14:05 OP:and  STATUS:               ID:20170306030745     3
 OLDACT:UP  17-03-06 14:05 OP:and  STATUS:               ID:20170306030745     3
 OLDACT:UP  17-03-06 14:04 OP:and  STATUS:               ID:20170306030745     3
 OLDACT:UP  17-03-06 14:04 OP:and  STATUS:               ID:20170306030745     3
 OLDACT:REG 17-03-06 12:13 OP:and  STATUS:               ID:20170306030745     3
 2017-03-06-0308-00M.COL___387                                                 6
 STAT SP IPHASW D HRMM SECON CODA AMPLIT PERI AZIMU VELO AIN AR TRES W  DIS CAZ7
 BAR2 EZ EP        315  0.55                             171   -0.2010 22.2 194 
 BAR2 EZ ES        315 15.34                             171   -0.0210 22.2 194 
 BAR2 EZ I         315 16.30        31.7 0.32            167           22.2 194 
 BRR  HZ IP     D  315  2.38                             151   -0.1210 73.1 299 
 BRR  HN ES        315 19.28                             151    0.8010 73.1 299 
 BRR  HZ I         315 22.15        13.3 0.13            150           73.1 299 
 PAM  EZ EP        315  3.52                             149    0.0310 77.7  38 
 PAM  EN ES        315 19.92                             149   -0.3010 77.7  38 
 PAM  EZ I         315 22.36        30.1 0.44            154           77.7  38 
 RUS  HZ EP        315  5.12                             143    0.1710 99.0 177 
 RUS  HN ES        315 23.22                             143    0.3910 99.0 177 
 RUS  HZ I         315 24.94         9.5 0.26            143           99.0 177 
 PTB  HZ EP        315  7.58                             130   -0.93 9  149 260 
 PTB  HN ES        315 28.12                             130   -1.04 9  149 260 
 PTB  HZ I         315 34.31         7.5 0.12            130            149 260 
 TAM  HZ IP     C  315  8.97                             129    0.00 9  153 105 
 TAM  HN ES        315 29.86                             129   -0.13 9  153 105 
 SPBC HZ EP        315  9.65                             128   -0.30 9  163 220 
 SPBC HN ES        315 32.13                             128    0.41 9  163 220 
 SPBC HZ I         315 36.78         8.7 0.10            127            163 220 
 ZAR  HZ IP     D  315 15.12                             121    0.92 8  206 292 
 ZAR  HE ES        315 39.65                             121    0.36 8  206 292 
 ZAR  HZ I         315 45.29         9.5 0.20            121            206 292 
 NOR  HZ EP   2    315 17.33                             117   -0.04 4  235 235 
 NOR  HN ES        315 44.74                             117   -0.20 8  235 235 
 NOR  HZ I         315 50.75         5.2 0.16            117            235 235 
 CHI  HZ EP   2    315 19.73                             116    0.52 4  248 196 
 CHI  HN ES   2    315 48.35                             116    0.13 4  248 196 
 CHI  HZ I         315 55.12         2.6 0.54            116            248 196 
 HEL  HZ EP   2    315 22.01                             113    0.02 4  273 256 
 HEL  HN ES   4    315 56.64                             113    3.48 0  273 256 
 PTGC HZ EP   9    315 23.92                             110   -1.43 0  307 159 
 PTGC HN ES        315 57.60                             111   -0.11 7  307 159 
 PRA  HZ EP        315 35.36                             105    0.13 6  391 210 
 PRA  HN ES   3    316 18.27                             105    1.54 1  391 210 
 PRA  HZ I         316 22.09         2.4 0.22            106            391 210 
 SJC  HZ EP   4    315 35.27                             104   -2.32 0  411 327 
 SJC  HN ES   4    316 16.08                             104   -4.86 0  411 327 
 SJC  HZ I         316 20.12         2.5 0.66            106            411 327 
                                                                                
