 2015  1 6 0823 37.9 L   6.449 -73.729 98.9  RSN  5 0.4 1.3LRSN                1
 GAP=202        1.07       6.3     4.4  8.2  0.1230E+01  0.8834E+01 -0.1357E+02E
 Epicentro: SANTA HELENA DEL OPON - SANTANDER                                  3
 ACTION:UPD 15-03-02 15:37 OP:nd   STATUS:               ID:20150106082337 L   I
 OLDACT:REG 15-01-06 14:21 OP:cam  STATUS:               ID:20150106081818     3
 2015-01-06-0818-18M.COL___274                                                 6
 STAT SP IPHASW D HRMM SECON CODA AMPLIT PERI AZIMU VELO AIN AR TRES W  DIS CAZ7
 BAR2 EZ EP        823 54.32                             146    0.3810 62.5  75 
 BAR2 EZ ES        824  6.64                             146    0.1910 62.5  75 
 BAR2 EZ I         824  8.20         5.4 0.16            143           62.5  75 
 BRR  HZ EP        823 53.96                             141   -0.4110 72.8   1 
 BRR  HN ES        824  7.13                             141   -0.0810 72.8   1 
 BRR  HZ I         824  7.59         5.4 0.12            137           72.8   1 
 PTB  HZ EP        823 54.80                             138   -0.2510 81.1 277 
 PTB  HN ES        824  8.04                             138   -0.3910 81.1 277 
 PTB  HZ I         824  9.32         5.0 0.18            137           81.1 277 
 ZAR  HZ EP        824  4.32                             116    0.37 9  170 313 
 ZAR  HN ES        824 25.18                             116    0.92 9  170 313 
 SML  HZ EP        824 14.33                             106   -0.32 8  263 352 
 SML  HN ES        824 42.82                             106   -0.50 8  263 352 
 SML  HZ I         824 51.36         1.5 0.26            106            263 352 
                                                                                
