 2013  3 6 0625  1.2 L   6.784 -73.092146.1  RSN  4 0.4 1.2LRSN                1
 GAP=242        0.88       7.9     9.6  8.2  0.4624E+02  0.1184E+02  0.8790E+00E
 Epicentro: LOS SANTOS - SANTANDER                                             3
 ACTION:UPD 13-04-09 14:00 OP:ep   STATUS:               ID:20130306062501 L   I
 2013-03-06-0620-00M.COL___228                                                 6
 STAT SP IPHASW D HRMM SECON CODA AMPLIT PERI AZIMU VELO AIN AR TRES W  DIS CAZ7
 BAR2 SZ ES        625 35.68                             170   -0.5710 23.4 205 
 BAR2 SZ I         625 36.85         5.7 0.20            171           23.4 205 
 BRR  HZ EP        625 22.77                             151    0.0010 77.2 298 
 BRR  HE ES        625 40.01                             151    0.4410 77.2 298 
 BRR  HZ I         625 41.95         2.0 0.17            151           77.2 298 
 RUS  HZ EP   1    625 25.12                             144    0.25 7 98.6 179 
 RUS  HE ES        625 43.60                             144    0.2910 98.6 179 
 RUS  HE I         625 44.35         3.5 0.19            146           98.6 179 
 PTB  HZ EP   1    625 28.23                             131   -0.50 7  153 260 
 PTB  HE ES   1    625 50.05                             131   -0.12 7  153 260 
 PTB  HZ I         625 50.84         1.6 0.16            132            153 260 
                                                                                
