 2017  1 6 0851 43.1 L   6.825 -73.170137.4  RSN  8 0.4 1.5LRSN                1
 GAP=237        0.86       4.5     4.8  6.0  0.8440E+01  0.1089E+02  0.4686E+01E
 Epicentro: LOS SANTOS - SANTANDER                                             3
 ACTION:UPD 17-05-22 15:56 OP:jn   STATUS:               ID:20170106085143 L   I
 OLDACT:UP  17-01-06 18:43 OP:and  STATUS:               ID:20170106084744     3
 OLDACT:UP  17-01-06 18:41 OP:and  STATUS:               ID:20170106084744     3
 OLDACT:UP  17-01-06 18:40 OP:and  STATUS:               ID:20170106084744     3
 OLDACT:REG 17-01-06 12:51 OP:and  STATUS:               ID:20170106084744     3
 2017-01-06-0848-00M.COL___363                                                 6
 STAT SP IPHASW D HRMM SECON CODA AMPLIT PERI AZIMU VELO AIN AR TRES W  DIS CAZ7
 BAR2 EZ EP        852  2.01                             169    0.2110 25.7 183 
 BAR2 EZ ES        852 16.53                             169    0.1610 25.7 183 
 BAR2 EZ I         852 17.95         6.6 0.24            168           25.7 183 
 BRR  HZ EP        852  3.44                             152    0.2810 67.5 298 
 BRR  HN ES   4    852 20.88                             152    2.09 0 67.5 298 
 RUS  HZ EP        852  5.90                             141   -0.3810  104 175 
 RUS  HN ES        852 24.45                             141    0.1010  104 175 
 RUS  HZ I         852 25.44         4.2 0.14            142            104 175 
 PTB  HZ EP        852  8.42                             130   -0.80 9  146 258 
 PTB  HN ES        852 29.21                             130   -0.37 9  146 258 
 PTB  HZ I         852 31.46         3.6 0.15            130            146 258 
 ZAR  HZ EP   3    852 15.38                             121    0.71 2  201 292 
 ZAR  HE ES        852 39.29                             121    0.02 9  201 292 
 ZAR  HZ I         852 44.86         3.7 0.34            121            201 292 
 CHI  HZ EP        852 20.47                             115   -0.12 8  251 194 
 CHI  HN ES        852 49.77                             115   -0.03 8  251 194 
 CHI  HZ I         852 54.35         2.1 0.34            116            251 194 
 GUY2CHZ EP        852 26.78                             111    0.49 7  301 234 
 GUY2CHN ES        853  0.35                             111    0.40 7  301 234 
 GUY2CHZ I         853  8.08         1.9 0.64                           301 234 
 PTGC HZ EP   4    852 24.83                             110   -2.19 0  312 158 
 CBOC HZ EP        852 30.05                             108    0.55 7  332 251 
                                                                                
