 2014  6 6 0400 43.8 L   6.798 -73.141136.6  RSN 12 0.5 1.7LRSN                1
 GAP=137        1.12       4.3     5.6  8.6 -0.6269E+01  0.4625E+01  0.3778E+00E
 Epicentro: LOS SANTOS - SANTANDER                                             3
 OLDACT:REG 14-06-06 13:03 OP:fm   STATUS:               ID:20140606035806     3
 ACTION:UPD 14-07-01 22:51 OP:nd   STATUS:               ID:20140606040043 L   I
 OLDACT:UP  14-06-06 16:50 OP:fm   STATUS:               ID:20140606035806     3
 2014-06-06-0358-06M.COL___265                                                 6
 STAT SP IPHASW D HRMM SECON CODA AMPLIT PERI AZIMU VELO AIN AR TRES W  DIS CAZ7
 BAR2 SZ EP   1    4 1  1.70                             170   -0.59 7 23.2 191 
 BAR2 SZ ES   1    4 1 17.28                             170    0.55 7 23.2 191 
 BAR2 SZ I         4 1 18.37        17.0 0.16            165           23.2 191 
 BRR  HZ EP   1    4 1  4.25                             151    0.29 7 71.8 298 
 BRR  SZ I         4 1 27.53         6.8 0.40            156           71.8 298 
 PAM  SZ EP        4 1  5.34                             149    0.3410 77.2  39 
 PAM  SZ I         4 1 28.60         9.2 0.22            139           77.2  39 
 RUS  HZ EP   1    4 1  6.72                             142    0.12 7  100 176 
 RUS  SZ I         4 1 26.05         7.9 0.26            138            100 176 
 PTB  HZ EP        4 1  9.42                             130   -0.63 9  148 259 
 PTB  HN ES        4 1 29.80                             130   -0.74 9  148 259 
 PTB  SZ I         4 1 38.47         4.4 0.26            133            148 259 
 OCA  HZ EP   1    4 1 12.09                             127    0.68 7  161 353 
 OCA  HN ES        4 1 32.36                             127   -0.61 9  161 353 
 OCA  SZ I         4 1 34.19         5.9 0.46            124            161 353 
 SPBC HZ EP        4 1 11.25                             127   -0.34 9  163 219 
 SPBC HN ES        4 1 33.62                             127    0.33 9  163 219 
 SPBC SZ I         4 1 34.33         5.7 0.24            127            163 219 
 ZAR  HZ EP        4 1 16.39                             120    0.70 9  205 292 
 ZAR  HN ES        4 1 41.21                             120    0.62 9  205 292 
 ZAR  SZ I         4 1 47.18         3.5 0.12            121            205 292 
 SML  HZ EP   1    4 1 19.27                             115   -0.67 6  244 335 
 SML  HN ES   4    4 1 46.31                             115   -1.85 0  244 335 
 SML  SZ I         4 1 55.88         8.8 0.08            113            244 335 
 GUY2CHZ EP   1    4 1 26.99                             110   -0.01 5  302 235 
 GUY2CHN ES   1    4 2  0.95                             110    0.23 5  302 235 
 GUY2CSZ I         4 2 14.32         3.5 4.44                           302 235 
 CBOC HZ EP   1    4 1 31.12                             108    0.75 5  334 252 
 CBOC HE ES   4    4 2  4.65                             108   -2.07 0  334 252 
 PRA  HZ EP        4 1 36.63                             105   -0.36 6  392 210 
 PRA  HN ES   4    4 2 16.56                             105   -1.95 0  392 210 
                                                                                
