 2013  4 6 0954 18.3 L   6.806 -73.125141.8  RSN 14 0.4 2.4LRSN                1
 GAP=185        0.93       3.1     4.8  4.8  0.1209E+01  0.7231E+01  0.3124E+01E
 Epicentro: LOS SANTOS - SANTANDER                                             3
 ACTION:UPD 13-05-22 14:36 OP:EP   STATUS:               ID:20130406095418 L   I
 2013-04-06-0950-00M.COL___245                                                 6
 STAT SP IPHASW D HRMM SECON CODA AMPLIT PERI AZIMU VELO AIN AR TRES W  DIS CAZ7
 BAR2 SZ EP        954 37.79                             170    0.2810 24.4 195 
 BAR2 SZ ES        954 51.89                             170   -0.5810 24.4 195 
 BAR2 SZ I         954 54.06        86.3 0.18            163           24.4 195 
 GIR2 SZ EP     C  954 37.89                             167    0.3610 31.1 346 
 GIR2 SZ ES        954 52.63                             167    0.1310 31.1 346 
 GIR2 SZ I         954 53.97        49.5 0.12            165           31.1 346 
 BRR  HZ EP     C  954 39.70                             151    0.5510 72.9 297 
 BRR  HN ES        954 55.84                             151    0.4510 72.9 297 
 BRR  HZ I         955  1.68        45.5 0.12            147           72.9 297 
 RUS  HZ EP        954 41.73                             143    0.0010  101 177 
 RUS  HE ES   1    955  0.18                             143    0.19 7  101 177 
 RUS  HZ I         955  2.60        12.8 0.30            143            101 177 
 PTB  HZ EP        954 44.44                             131   -0.75 9  150 259 
 PTB  HN ES   1    955  5.40                             131   -0.75 7  150 259 
 PTB  HZ I         955 10.14        45.2 0.18            129            150 259 
 OCA  HN ES        955  7.69                             129   -0.43 9  160 352 
 ZAR  HZ EP        954 50.69                             121   -0.02 8  206 292 
 ZAR  HE ES   1    955 16.15                             121    0.18 6  206 292 
 ZAR  HZ I         955 22.89        35.2 0.48            121            206 292 
 NOR  HZ EP        954 53.74                             117   -0.33 8  237 235 
 NOR  HE ES   1    955 21.97                             117    0.02 6  237 235 
 NOR  HZ I         955 26.96        31.6 0.20            117            237 235 
 SML  HZ EP        954 54.32                             117   -0.46 8  244 335 
 SML  HN ES   2    955 23.34                             117    0.14 4  244 335 
 CHI  HZ EP        954 55.93                             116   -0.02 8  250 196 
 CHI  HN ES   1    955 25.10                             116   -0.19 6  250 196 
 CHI  HZ I         955 31.28        12.1 0.26            117            250 196 
 ROSC BZ EP   1    954 57.00                             116    0.57 6  254 211 
 HEL  HZ EP        954 59.10                             114    0.49 8  274 256 
 HEL  HN ES   1    955 30.61                             114    0.59 6  274 256 
 HEL  HZ I         955 39.24        15.4 0.42            114            274 256 
 PRA  HZ EP   1    955 11.43                             106   -0.48 4  394 210 
 PRA  HN ES   4    955 53.15                             106   -0.56 0  394 210 
 SJA  SZ EP   4    955 14.06                             105    1.17 0  401 193 
 SJC  HZ EP   4    955 12.05                             105   -1.80 0  410 327 
 SJC  HE ES   4    955 51.47                             105   -5.68 0  410 327 
 SJC  HZ I         955 57.95         7.3 0.52            107            410 327 
                                                                                
