 2014  7 6 0020 22.4 L   6.819 -73.351128.5  RSN  5 0.4 1.6LRSN                1
 GAP=163        0.86       5.3     5.4  6.9  0.1306E+02  0.5385E+01  0.2614E+01E
 Epicentro: ZAPATOCA - SANTANDER                                               3
 ACTION:UPD 15-03-16 20:41 OP:nd   STATUS:               ID:20140706002022 L   I
 OLDACT:UP  14-07-06 13:59 OP:cam  STATUS:               ID:20140706002001d    3
 OLDACT:DUP 14-07-06 13:57 OP:cam  STATUS:               ID:20140706002001d    3
 OLDACT:UP  14-07-06 13:56 OP:cam  STATUS:               ID:20140706002000     3
 OLDACT:UP  14-07-06 13:48 OP:cam  STATUS:               ID:20140706002000     3
 OLDACT:REG 14-07-06 12:33 OP:cma  STATUS:               ID:20140706002000     3
 2014-07-06-0020-00M.COL___279                                                 6
 STAT SP IPHASW D HRMM SECON CODA AMPLIT PERI AZIMU VELO AIN AR TRES W  DIS CAZ7
 BAR2 SZ EP        020 40.29                             166    0.1010 31.3 143 
 BAR2 SZ ES        020 53.51                             166   -0.5410 31.3 143 
 BAR2 SZ I         020 54.97        20.0 0.26            168           31.3 143 
 BRR  HZ EP        020 40.85                             157    0.2410 51.0 309 
 BRR  HN ES        020 55.28                             157    0.4810 51.0 309 
 BRR  HZ I         020 55.85         7.4 0.12            153           51.0 309 
 RUS  HZ EP        020 45.32                             138    0.3210  107 164 
 RUS  HE ES        021  2.63                             138    0.0110  107 164 
 RUS  HZ I         021  4.62         2.9 0.30            139            107 164 
 PTB  HZ EP        020 45.68                             133   -0.3310  126 256 
 PTB  HN ES        021  4.23                             133   -0.1810  126 256 
 PTB  HZ I         021  7.77         6.3 0.24            131            126 256 
 SML  HZ EP   4    020 55.50                             114   -1.46 0  233 340 
 SML  HN ES   2    021 23.16                             114   -0.74 4  233 340 
 SML  HZ I         021 32.15         5.5 0.10            112            233 340 
                                                                                
