 2012  2 6 0523 21.3 L   6.763 -73.183147.3  RSN  8 0.5 1.9LRSN                1
 GAP=133        1.01       5.4     5.8  8.7 -0.8563E+01  0.6534E+01  0.9782E+01E
 ACTION:UP  12-03-07 16:28 OP:epov STATUS:               ID:20120206052321 L   I
 2012-02-06-0520-00M.COL___188                                                 6
 STAT SP IPHASW D HRMM SECON CODA AMPLIT PERI AZIMU VELO SNR AR TRES W  DIS CAZ7
 BAR2 SZ EP        523 40.99                             172   -0.0110 18.9 180 
 BAR2 SZ ES   1    523 56.00                             172   -0.39 7 18.9 180 
 BAR2 SZ I         523 57.69        30.3 0.19                          18.9 180 
 GIR2 SZ EP   1    523 41.03                             166   -0.19 7 34.9 358 
 BRR  HZ EP        523 42.82                             153    0.3210 69.7 303 
 BRR  HE ES   1    524  0.10                             153    1.04 7 69.7 303 
 BRR  HZ I         524  1.82        18.9 0.46                          69.7 303 
 PAM  SZ EP   1    523 43.84                             149   -0.15 7 83.2  40 
 PAM  SN ES   1    524  1.11                             149   -0.62 7 83.2  40 
 RUS  HZ EP   1    523 44.69                             145   -0.22 7 96.9 173 
 RUS  HE ES   1    524  3.82                             145    0.47 7 96.9 173 
 RUS  HZ I         524  4.80         6.5 0.44                          96.9 173 
 PTB  HZ EP   1    523 48.07                             133    0.15 7  143 260 
 PTB  HN ES   1    524  8.47                             133   -0.25 7  143 260 
 NOR  SN ES        524 23.06                             119   -0.87 8  229 235 
 CHI  HZ EP   1    523 59.08                             118    0.57 6  244 194 
 CHI  HN ES   1    524 27.96                             118    0.41 6  244 194 
 CHI  HZ I         524 33.79         6.6 0.53                           244 194 
                                                                                
