 2011  2 6 0332 42.4 L   6.783 -73.122146.9  RSN 14 0.4 2.3LRSN                1
 GAP=104        0.69       2.5     3.7  5.1 -0.2110E+01  0.5848E+01  0.1765E+00E
 Epicentro: LOS SANTOS - SANTANDER                                             3
 ACTION:UP  11-03-28 15:06 OP:jfem STATUS:               ID:20110206033242 L   I
 2011-02-06-0320-00M.COL___139                                                 6
 STAT SP IPHASW D HRMM SECON CODA AMPLIT PERI AZIMU VELO SNR AR TRES W  DIS CAZ7
 BAR2 SZ EP        333  2.12                             171     0.010   22 198 
 BAR2 SZ ES   1    333 17.54                             171     0.0 7   22 198 
 BTL  SZ EP   1    333  2.37                             171     0.2 7   22 313 
 BAR2 SZ I         333 20.18        45.2 0.29                            22 198 
 GIR2 SZ EP   2    333  2.26                             166     0.0 5   34 346 
 RUS  HZ EP        333  6.06                             145    -0.110   99 178 
 RUS  HE ES   1    333 24.77                             145     0.1 7   99 178 
 RUS  HZ I         333 27.55        21.9 0.67                            99 178 
 GRA  SZ EP        333  7.86                             137     0.010  127  16 
 GRA  SZ ES   1    333 27.27                             137    -0.4 7  127  16 
 GRA  SZ I         333 30.27        27.9 0.26                           127  16 
 OCA  SZ EP   1    333 11.66                             129     0.6 7  162 352 
 OCA  SZ ES   1    333 33.61                             129     0.3 7  162 352 
 OCA  SZ I         333 38.03        39.2 0.34                           162 352 
 YOP  SZ EP   1    333 12.61                             127     0.3 7  176 154 
 YOP  SE ES   2    333 35.87                             127     0.3 4  176 154 
 YOP  SZ I         333 40.43        14.8 0.58                           176 154 
 NOR  SZ EP   1    333 18.12                             118    -0.2 6  236 235 
 NOR  SE ES   1    333 46.18                             118    -0.2 6  236 235 
 CHI  HZ EP        333 20.05                             117     0.0 8  248 196 
 CHI  HE ES   1    333 48.82                             117    -0.6 6  248 196 
 CHI  HZ I         333 57.89        12.1 0.65                           248 196 
 HEL  HZ EP   1    333 23.36                             115     0.4 6  274 256 
 HEL  HN ES   2    333 54.42                             115    -0.1 4  274 256 
 HEL  HZ I         334  0.53        10.8 0.52                           274 256 
 RREF HZ EP   1    333 29.11                             111     0.4 5  323 230 
 RREF HN ES   2    334  5.14                             111     0.3 3  323 230 
 RREF HZ I         334 13.16        15.3 0.27                           323 230 
 DBB  SZ EP   1    333 30.06                             109    -0.2 5  342 275 
 DBB  SZ ES   1    334  6.95                             109    -0.6 5  342 275 
 TOL  SZ EP   2    333 31.54                             109     0.7 3  344 225 
 SDV  BZ EP   1    333 31.44                             108    -1.0 5  360  50 
 SDV  BZ I         334 11.00         5.4 0.20                           360  50 
                                                                                
