 2011  2 6 0749 11.8 L   6.760 -73.170139.6  RSN  7 0.2 1.4LRSN                1
 GAP=156        0.51       4.1     8.6  7.1 -0.2331E+02  0.1481E+02 -0.6331E+01E
 Epicentro: LOS SANTOS - SANTANDER                                             3
 ACTION:UP  11-03-28 15:06 OP:jfem STATUS:               ID:20110206074911 L   I
 2011-02-06-0744-34S.COL___138                                                 6
 STAT SP IPHASW D HRMM SECON CODA AMPLIT PERI AZIMU VELO SNR AR TRES W  DIS CAZ7
 BAR2 SZ EP   1    749 30.41                             172    -0.2 7   19 185 
 BAR2 SZ ES   2    749 45.40                             172     0.1 5   19 185 
 BAR2 SZ I         749 46.73         8.2 0.23                            19 185 
 BTL  SZ EP        749 30.49                             171    -0.210   21 328 
 GIR2 SZ EP   2    749 30.55                             165    -0.3 5   35 356 
 RUS  HZ EP   2    749 34.88                             143     0.2 5   96 174 
 RUS  HN ES   2    749 52.74                             143     0.2 5   96 174 
 RUS  HZ I         749 54.35         4.1 0.41                            96 174 
 GRA  SZ EP        749 37.24                             134     0.310  131  18 
 GRA  SZ I         749 38.57         4.6 0.61                           131  18 
 GRA  SZ ES   1    749 56.56                             134     0.0 7  131  18 
 NOR  SN ES   2    750 14.27                             117     0.3 4  230 235 
 CHI  HZ EP   2    749 48.51                             116    -0.2 4  244 195 
 CHI  HZ I         750 27.57         1.3 0.48                           244 195 
                                                                                
