 2011 10 6 0621 12.9 L   6.750 -73.161140.4  RSN  5 0.2 1.3LRSN                1
 GAP=137        0.53       3.7     7.9  5.3 -0.7214E+01  0.7970E+01 -0.4139E+00E
 Epicentro: LOS SANTOS - SANTANDER                                             3
 ACTION:UPD 12-07-13 16:02 OP:ep   STATUS:               ID:20111006062112 L   I
 2011-10-06-0620-00M.COL___171                                                 6
 STAT SP IPHASW D HRMM SECON CODA AMPLIT PERI AZIMU VELO AIN AR TRES W  DIS CAZ7
 BAR2 SZ EP   1    621 31.36                             172   -0.39 7 17.6 188 
 BAR2 SZ ES   1    621 46.28                             172   -0.20 7 17.6 188 
 BAR2 SZ I         621 48.46         4.9 0.51                          17.6 188 
 GIR2 SZ EP   1    621 31.99                             165   -0.07 7 36.5 354 
 GIR2 SZ ES   1    621 46.92                             165   -0.11 7 36.5 354 
 BRR  HZ EP   1    621 33.91                             151    0.39 7 72.6 303 
 BRR  HZ I         621 55.56         6.4 0.14                          72.6 303 
 PAM  SZ EP   1    621 34.81                             148   -0.04 7 82.7  38 
 PAM  SZ I         621 35.08         2.4 0.19                          82.7  38 
 PAM  SE ES   1    621 52.22                             148    0.22 7 82.7  38 
 RUS  HZ EP   1    621 35.61                             144   -0.10 7 95.2 175 
 RUS  HE ES   1    621 53.84                             144    0.32 7 95.2 175 
 RUS  HZ I         621 54.78         3.5 0.44                          95.2 175 
                                                                                
