 2010  7 6 0215 27.8 L   6.790 -73.098141.9  RSN  6 0.3 1.4LRSN                1
 GAP=161        0.70       5.8    12.2 11.8  0.8901E+01 -0.7356E+02 -0.3211E+02E
 Epicentro: LOS SANTOS - SANTANDER                                             3
 ACTION:UPD 10-12-01 15:15 OP:pat  STATUS:               ID:20100706021527 L   I
 2010-07-06-0215-04S.COL___118                                                 6
 STAT SP IPHASW D HRMM SECON CODA AMPLIT PERI AZIMU VELO AIN AR TRES W  DIS CAZ7
 BAR2 SZ EP   1    215 46.71                             170    -0.3 8   24 204 
 BAR2 SZ ES   2    216  1.60                             170    -0.3 5   24 204 
 BRR  HZ EP   1    215 48.60                             150    -0.2 8   76 297 
 BRR  HE ES   2    216  5.44                             150     0.2 5   76 297 
 BRR  HZ I         216  7.88         6.3 0.25                            76 297 
 RUS  HZ EP   1    215 51.08                             144     0.0 8   99 179 
 RUS  HE ES   2    216  9.65                             144     0.4 5   99 179 
 RUS  HZ I         216 10.67         3.2 0.38                            99 179 
 BRI  SZ EP   1    215 51.08                             141    -0.2 8  108  18 
 GUE  SZ EP        215 52.67                             138     0.510  117   9 
 GRA  SZ EP   1    215 52.34                             136    -0.3 7  125  15 
                                                                                
