 2010  8 6 0716 18.3 L   6.784 -73.040139.2  RSN  5 0.2 1.5LRSN                1
 GAP=171        0.59       3.8     5.9  6.1  0.1613E+01 -0.1122E+02  0.1386E+01E
 Epicentro: CEPITA - SANTANDER                                                 3
 ACTION:UP  10-09-07 10:52 OP:vdl  STATUS:               ID:20100806071618 L   I
 2010-08-06-0712-11S.COL___125                                                 6
 STAT SP IPHASW D HRMM SECON CODA AMPLIT PERI AZIMU VELO SNR AR TRES W  DIS CAZ7
 BAR2 SZ EP        716 37.36                             169     0.110   27 217 
 BAR2 SZ ES   1    716 51.86                                    -0.1 7   27 217 
 BAR2 SZ I         716 53.68         8.6 0.46                            27 217 
 BRR  HZ EP        716 39.18                             148    -0.310   82 296 
 BRR  HN ES        716 56.14                             148     0.210   82 296 
 BRR  HZ I         716 58.59         6.6 0.40                            82 296 
 RUS  HZ EP        716 41.32                             143     0.010   99 183 
 RUS  HN ES   2    716 59.30                                     0.1 5   99 183 
 RUS  HZ I         717  1.41         2.8 0.75                            99 183 
 GRA  SZ EP   1    716 43.22                             136     0.3 7  124  12 
 GRA  SZ ES   2    717  1.61                             136    -0.4 5  124  12 
 GRA  SZ I         717  6.64         3.3 0.37                           124  12 
 RREF HN ES   2    717 41.45                             109    -0.1 3  330 231 
 RREF HZ I         717 51.31         2.4 0.61                           330 231 
                                                                                
