 2016  5 6 0720 47.9 L   6.808 -73.155147.0  RSN 11 0.5 1.7LRSN                1
 GAP=118        1.08       3.1     4.5  6.1 -0.1340E+01  0.5854E+01  0.2358E+01E
 Epicentro: LOS SANTOS - SANTANDER                                             3
 ACTION:UPD 16-08-18 17:42 OP:cam  STATUS:               ID:20160506072047 L   I
 OLDACT:REG 16-05-06 13:48 OP:ak   STATUS:               ID:20160506071746     3
 2016-05-06-0717-46M.COL___283                                                 6
 STAT SP IPHASW D HRMM SECON CODA AMPLIT PERI AZIMU VELO AIN AR TRES W  DIS CAZ7
 BAR2 EZ EP        721  7.76                             170    0.0810 24.0 187 
 BAR2 EZ ES        721 22.90                             170   -0.2210 24.0 187 
 BAR2 EZ I         721 24.21         9.5 0.26            169           24.0 187 
 BRR  HZ IP     C  721  9.44                             153    0.3410 69.9 298 
 BRR  HZ I         721 27.04         5.6 0.11            148           69.9 298 
 PAM  EZ EP        721 10.47                             151    0.2310 77.4  41 
 PAM  EN ES        721 27.85                             151    0.1810 77.4  41 
 RUS  HZ EP        721 12.17                             144    0.3410  101 175 
 RUS  HN ES        721 30.82                             144    0.3210  101 175 
 RUS  HZ I         721 31.60         6.9 0.40            144            101 175 
 PTB  HZ EP        721 14.21                             132   -0.67 9  147 258 
 PTB  HN ES        721 35.36                             132   -0.57 9  147 258 
 PTB  HZ I         721 42.13         4.5 0.24            129            147 258 
 OCA  HZ EP        721 15.97                             130   -0.24 9  159 353 
 OCA  HE ES        721 37.79                             130   -0.51 9  159 353 
 OCA  HZ I         721 41.38        13.0 0.16            129            159 353 
 SPBC HZ EP        721 16.80                             129    0.31 9  163 219 
 SPBC HN ES        721 38.44                             129   -0.35 9  163 219 
 SPBC HZ I         721 41.18         8.8 0.30            128            163 219 
 ZAR  HZ EP        721 21.14                             123    0.85 9  203 292 
 ZAR  HN ES        721 46.00                             123    0.45 9  203 292 
 ZAR  HZ I         721 51.54         6.2 0.32            120            203 292 
 CHI  HZ EP        721 25.34                             117   -0.38 8  249 195 
 CHI  HN ES        721 55.39                             117    0.17 8  249 195 
 CHI  HZ I         722  1.59         2.6 0.38            117            249 195 
 PTGC HZ EP        721 30.99                             112   -0.95 7  310 159 
 PTGC HE ES   4    722  4.41                             112   -1.88 0  310 159 
 PRA  HZ EP        721 41.00                             107   -0.48 6  392 209 
 PRA  HN ES        722 24.10                             107    0.82 6  392 209 
 PRA  HZ I         722 30.15         2.5 0.40            106            392 209 
 SJC  HZ EP   4    721 42.02                             106   -1.33 0  408 327 
 SJC  HN ES   4    722 24.72                             106   -1.88 0  408 327 
                                                                                
