 2015  9 6 0532 11.4 L   6.806 -73.128146.4  RSN  9 0.6 1.7LRSN                1
 GAP=138        1.62       5.0     6.8  9.8 -0.2373E+01  0.1537E+02 -0.5528E+01E
 Epicentro: LOS SANTOS - SANTANDER                                             3
 ACTION:UPD 15-10-28 16:24 OP:cam  STATUS:               ID:20150906053211 L   I
 OLDACT:DUP 15-09-06 14:21 OP:stll STATUS:               ID:20150906052742d    3
 2015-09-06-0527-41M.COL___355                                                 6
 STAT SP IPHASW D HRMM SECON CODA AMPLIT PERI AZIMU VELO AIN AR TRES W  DIS CAZ7
 BAR2 EZ EP        532 31.45                             170    0.3410 24.4 194 
 BAR2 EZ ES        532 46.81                             170    0.3110 24.4 194 
 BAR2 EZ I         532 49.12         9.4 0.22            168           24.4 194 
 BRR  HZ EP        532 33.30                             152    0.6210 72.6 297 
 BRR  HZ I         532 33.67        10.2 0.18            150           72.6 297 
 BRR  HN ES        532 50.70                             152    1.4010 72.6 297 
 PAM  EZ EP        532 34.16                             151    0.5910 75.7  39 
 PAM  EZ I         532 34.53         7.7 0.24            155           75.7  39 
 PAM  EN ES        532 50.41                             151   -0.4610 75.7  39 
 RUS  HZ EP        532 34.95                             144   -0.2910  101 177 
 RUS  HN ES        532 52.83                             144   -1.0110  101 177 
 RUS  HZ I         532 55.23         3.4 0.24            146            101 177 
 PTB  HZ EP        532 38.42                             132   -0.17 9  150 259 
 PTB  HN ES        532 59.16                             132   -0.65 9  150 259 
 PTB  HZ I         533  5.29         5.0 0.32            131            150 259 
 OCA  HZ EP        532 39.65                             130   -0.06 9  160 352 
 OCA  HN ES        533  0.93                             130   -0.87 9  160 352 
 OCA  HZ I         533  6.34        14.5 0.16            131            160 352 
 SPBC HZ EP        532 40.41                             129    0.31 9  165 219 
 SPBC HE ES        533  2.79                             129    0.30 9  165 219 
 SPBC HZ I         533  9.61         7.8 0.12            129            165 219 
 ZAR  HZ EP        532 44.28                             122    0.25 8  206 292 
 ZAR  HE ES        533  8.56                             122   -0.94 8  206 292 
 ZAR  HZ I         533 16.54         4.6 0.24            122            206 292 
 SML  HE ES        533 16.66                             118   -0.03 8  244 335 
                                                                                
