 2013  8 6 0315 20.3 L   6.759 -73.155142.9  RSN  9 0.3 1.4LRSN                1
 GAP=137        0.63       3.0     3.3  5.2 -0.4887E+00  0.2904E+01 -0.3106E+01E
 Epicentro: LOS SANTOS - SANTANDER                                             3
 ACTION:UPD 14-01-14 08:59 OP:ep   STATUS:               ID:20130806031520 L   I
 OLDACT:DUP 13-08-06 10:46 OP:jn   STATUS:               ID:20130806030903d    3
 2013-08-06-0309-59M.COL___268                                                 6
 STAT SP IPHASW D HRMM SECON CODA AMPLIT PERI AZIMU VELO AIN AR TRES W  DIS CAZ7
 BAR2 SZ EP        315 39.60                             172    0.0910 18.7 189 
 BAR2 SZ ES        315 54.45                             172   -0.0310 18.7 189 
 GIR2 SZ EP   1    315 39.52                             165   -0.25 7 35.6 353 
 BRR  HZ EP        315 41.35                             152    0.1210 72.6 302 
 BRR  HN ES   1    315 57.99                             152    0.45 7 72.6 302 
 BRR  HZ I         316  2.46         5.2 0.12            150           72.6 302 
 PAM  SZ EP        315 42.49                             149    0.0110 81.6  38 
 PAM  SN ES   1    315 59.30                             149   -0.47 7 81.6  38 
 PAM  SZ I         316  1.10         5.8 0.20            153           81.6  38 
 RUS  HZ EP   1    315 43.66                             144    0.20 7 96.1 175 
 RUS  HN ES   1    316  1.74                             144    0.22 7 96.1 175 
 RUS  HZ I         316  3.70         2.8 0.26            148           96.1 175 
 PTB  HZ EP   1    315 46.42                             132   -0.46 7  146 260 
 PTB  HN ES   1    316  7.05                             132   -0.55 7  146 260 
 PTB  HZ I         316  9.74         3.8 0.24            132            146 260 
 SPBC HN ES   1    316 10.08                             129    0.14 7  159 220 
 SPBC HZ I         316 12.46         2.7 0.18            131            159 220 
 ZAR  HN ES   1    316 17.85                             122   -0.03 6  205 293 
 ZAR  HZ I         316 24.48         4.8 0.40            123            205 293 
 SML  HN ES   1    316 26.46                             116    0.52 6  247 336 
                                                                                
