 2011 10 6 0529 48.2 L   6.835 -73.045144.8  RSN  4 0.3 1.2LRSN                1
 GAP=148        0.62       4.6     6.6  8.2 -0.1150E+01 -0.2254E+01  0.7292E+01E
 Epicentro: LOS SANTOS - SANTANDER                                             3
 ACTION:UPD 12-07-13 16:02 OP:ep   STATUS:               ID:20111006052948 L   I
 2011-10-06-0520-00M.COL___171                                                 6
 STAT SP IPHASW D HRMM SECON CODA AMPLIT PERI AZIMU VELO AIN AR TRES W  DIS CAZ7
 BAR2 SZ EP   1    530  7.50                             167   -0.34 7 30.9 209 
 BAR2 SZ I         530 23.90         3.8 0.33                          30.9 209 
 PAM  SZ EP   1    530 10.27                             154    0.56 7 67.6  34 
 PAM  SZ I         530 10.74         2.5 0.21                          67.6  34 
 PAM  SN ES   1    530 26.25                             154   -0.27 7 67.6  34 
 BRR  HZ EP   1    530  9.54                             150   -0.15 7 79.6 292 
 BRR  HZ I         530  9.79         7.8 0.16                          79.6 292 
 BRR  HN ES   1    530 26.64                             150    0.15 7 79.6 292 
 RUS  HZ EP   1    530 11.94                             143   -0.14 7  104 182 
 RUS  HZ I         530 13.77         1.0 0.53                           104 182 
 RUS  HE ES   1    530 30.94                             143    0.19 7  104 182 
                                                                                
