 2012  3 6 0041 59.5 L   6.751 -73.206132.5  RSN  4 0.3 1.1LRSN                1
 GAP=227        0.53       7.1     7.1  9.3  0.3327E+02 -0.5263E+00 -0.5210E+00E
 ACTION:UP  12-03-31 23:17 OP:EP   STATUS:               ID:20120306004159 L   I
 2012-03-06-0040-00M.COL___191                                                 6
 STAT SP IPHASW D HRMM SECON CODA AMPLIT PERI AZIMU VELO SNR AR TRES W  DIS CAZ7
 BRR  HZ EP   1    042 19.29                             151     0.2 7   68 305 
 BRR  HZ I         042 22.44         6.6 0.43                            68 305 
 BRR  HN ES   2    042 34.13                             151    -0.2 5   68 305 
 RUS  HZ EP   1    042 21.79                             142     0.2 7   96 172 
 RUS  HZ I         042 22.63         0.9 0.18                            96 172 
 RUS  HN ES   2    042 38.63                             142    -0.2 5   96 172 
 PTB  HZ EP   1    042 24.37                             130    -0.3 7  140 260 
 PTB  HN ES   2    042 44.81                             130     0.4 5  140 260 
 ZAR  HN ES   2    042 54.86                             120    -0.2 4  200 294 
                                                                                
