 2010 11 6 0845 33.9 L   6.806 -73.046141.4  RSN  6 0.3 1.8LRSN                1
 GAP=193        0.58       3.1     7.5  5.9  0.3332E+01 -0.1243E+01 -0.1219E+00E
 Epicentro: LOS SANTOS - SANTANDER                                             3
 ACTION:UP  10-12-17 16:50 OP:REBC STATUS:               ID:20101106084533 L   I
 2010-11-06-0841-00S.COL___123                                                 6
 STAT SP IPHASW D HRMM SECON CODA AMPLIT PERI AZIMU VELO SNR AR TRES W  DIS CAZ7
 BAR2 SZ EP   2    845 53.08                             168    -0.1 5   28 213 
 BAR2 SZ ES   2    846  8.36                             168     0.2 5   28 213 
 BAR2 SZ I         846  9.60        17.4 0.19                            28 213 
 BRR  HZ EP   1    845 55.09                             149    -0.1 7   81 294 
 BRR  HE ES   1    846 11.91                             149     0.1 7   81 294 
 BRR  HZ I         846 14.58        12.0 0.22                            81 294 
 RUS  HZ EP   1    845 57.20                             143    -0.1 7  101 182 
 RUS  HN ES   1    846 15.57                             143     0.0 7  101 182 
 RUS  HZ I         846 16.97         5.8 0.26                           101 182 
 OCA  SZ EP   1    846  2.32                             128     0.3 7  161 349 
 OCA  SZ ES   1    846 23.65                             128    -0.3 7  161 349 
 OCA  SZ I         846 28.23         7.4 0.47                           161 349 
 RREF HZ EP   2    846 22.05                             109     1.1 3  331 231 
 RREF HE ES   2    846 57.07                             109    -0.5 3  331 231 
 RREF HZ I         847  5.64         2.5 0.20                           331 231 
 PRA  HZ EP   1    846 27.60                             106    -0.4 4  398 211 
                                                                                
