 2017  7 6 0454 11.3 L   6.672 -73.196147.2  RSN  4 0.1 1.1LRSN                1
 GAP=220        0.36       4.1     2.6  3.3  0.3916E+01  0.2295E+01  0.1153E+01E
 Epicentro: VILLANUEVA - SANTANDER                                             3
 ACTION:UPD 17-08-30 15:30 OP:rebc STATUS:               ID:20170706045411 L   I
 OLDACT:DUP 17-07-06 16:59 OP:edw  STATUS:               ID:20170706044746d    3
 2017-07-06-0448-00M.COL___380                                                 6
 STAT SP IPHASW D HRMM SECON CODA AMPLIT PERI AZIMU VELO AIN AR TRES W  DIS CAZ7
 BAR2 EZ EP        454 30.76                             176   -0.1410 8.93 170 
 BAR2 EZ ES        454 46.28                             176    0.1010 8.93 170 
 BAR2 EZ I         454 46.73         3.3 0.50            175           8.93 170 
 BRR  HZ EP        454 32.78                             152   -0.0110 74.7 310 
 BRR  HE ES        454 49.54                             152   -0.0210 74.7 310 
 PTB  HZ EP        454 37.86                             134    0.16 9  140 264 
 PTB  HN ES        454 58.20                             134   -0.10 9  140 264 
 PTB  HZ I         454 59.41         1.1 0.42            134            140 264 
 ZAR  HN ES        455  9.39                             123    0.03 9  205 296 
                                                                                
