 2012  4 6 0505  4.1 L   7.453 -73.291125.8  RSN  5 0.3 1.3LRSN                1
 GAP=261        0.77      10.7     7.0  9.1  0.4662E+02 -0.1513E+02 -0.3800E+02E
 Epicentro: EL PLAYON - SANTANDER                                              3
 ACTION:UPD 12-07-05 11:50 OP:tino STATUS:               ID:20120406050504 L   I
 2012-04-06-0500-00M.COL___196                                                 6
 STAT SP IPHASW D HRMM SECON CODA AMPLIT PERI AZIMU VELO AIN AR TRES W  DIS CAZ7
 BRR  HZ EP   1    5 5 22.27                             153    -0.2 7   60 231 
 BRR  HE ES   1    5 5 37.10                             153     0.3 7   60 231 
 BRR  HZ I         5 5 38.68         7.0 0.19                            60 231 
 BAR2 SZ EP   1    5 5 25.11                             140    -0.1 7   96 173 
 BAR2 SZ ES   1    5 5 41.53                             140    -0.2 7   96 173 
 BAR2 SZ I         5 5 42.92         5.6 0.16                            96 173 
 PTB  HZ EP   1    5 5 30.92                             124    -0.2 7  164 232 
 PTB  HN ES   1    5 5 52.34                             124     0.2 7  164 232 
 PTB  HZ I         5 5 54.04         1.7 0.14                           164 232 
 ZAR  HZ EP   1    5 5 32.65                             122     0.6 7  173 272 
 ZAR  HN ES   1    5 5 53.24                             122    -0.6 7  173 272 
 ZAR  HZ I         5 6  0.02         3.0 0.10                           173 272 
 RUS  HZ EP   1    5 5 32.80                             122     0.0 7  174 172 
 RUS  HZ I         5 5 33.22         1.0 0.18                           174 172 
                                                                                
