 2016 10 6 0734 30.6 L   6.760 -73.152141.6  RSN  5 0.5 1.2LRSN                1
 GAP=234        1.07       7.2     8.2  9.7  0.2684E+01  0.1169E+02  0.1762E+02E
 Epicentro: LOS SANTOS - SANTANDER                                             3
 ACTION:UPD 16-11-09 19:16 OP:rebc STATUS:               ID:20161006073430 L   I
 OLDACT:REG 16-10-06 13:13 OP:dnl  STATUS:               ID:20161006072739     3
 2016-10-06-0728-00M.COL___354                                                 6
 STAT SP IPHASW D HRMM SECON CODA AMPLIT PERI AZIMU VELO AIN AR TRES W  DIS CAZ7
 BAR2 EZ EP   2    734 49.33                             172   -0.29 5 18.9 190 
 BAR2 EZ ES        735  4.20                             172   -0.2710 18.9 190 
 BAR2 EZ I         735  7.04         4.9 0.26            173           18.9 190 
 BRR  HZ EP        734 51.18                             151   -0.1810 72.8 302 
 BRR  HN ES        735  8.26                             151    0.6810 72.8 302 
 BRR  HZ I         735 12.29         2.9 0.28            152           72.8 302 
 RUS  HZ EP   2    734 53.89                             144    0.29 5 96.2 175 
 RUS  HN ES   2    735 11.18                             144   -0.38 5 96.2 175 
 RUS  HZ I         735 13.26         2.7 0.26            148           96.2 175 
 PTB  HZ EP   4    734 55.81                             131   -1.25 0  146 260 
 PTB  HN ES        735 16.94                             131   -0.79 9  146 260 
 PTB  HZ I         735 20.23         1.7 0.40            134            146 260 
 SPBC HZ EP        734 58.52                             129    0.14 9  159 220 
 SPBC HE ES        735 20.62                             129    0.54 9  159 220 
 SPBC HZ I         735 22.11         3.2 0.16            132            159 220 
                                                                                
