 2017  1 6 0550 18.6 L   6.834 -73.279118.1  RSN  9 0.3 1.4LRSN                1
 GAP=107        0.69       3.1     2.2  3.8  0.1561E+01  0.6439E+00  0.3420E+00E
 Epicentro: ZAPATOCA - SANTANDER                                               3
 ACTION:UPD 17-05-22 15:56 OP:jn   STATUS:               ID:20170106055018 L   I
 OLDACT:UP  17-01-06 16:16 OP:and  STATUS:               ID:20170106054741     3
 OLDACT:REG 17-01-06 12:40 OP:and  STATUS:               ID:20170106054741     3
 2017-01-06-0548-00M.COL___375                                                 6
 STAT SP IPHASW D HRMM SECON CODA AMPLIT PERI AZIMU VELO AIN AR TRES W  DIS CAZ7
 BAR2 EZ EP        550 35.02                             165   -0.0810 28.8 158 
 BAR2 EZ ES        550 48.03                             165    0.0910 28.8 158 
 BRR  HZ EP        550 35.47                             153   -0.5010 56.6 302 
 BRR  HE ES        550 49.55                             153    0.0610 56.6 302 
 BRR  HZ I         550 50.48         8.6 0.13            153           56.6 302 
 PAM  EZ EP        550 39.03                             142    0.4910 85.0  49 
 RUS  HZ EP        550 40.22                             135   -0.0410  106 168 
 RUS  HN ES        550 57.35                             135    0.2210  106 168 
 RUS  HZ I         550 59.50         2.5 0.12            136            106 168 
 PTB  HZ EP   9    550 40.33                             128   -1.83 0  134 256 
 PTB  HN ES        550 58.86                             129    0.1810  134 256 
 PTB  HZ I         551  2.73         4.6 0.17            128            134 256 
 TAM  HZ EP        550 45.91                             121    0.06 9  170 105 
 TAM  HN ES        551  6.60                             121   -0.48 9  170 105 
 ZAR  HZ EP        550 47.96                             118    0.16 9  189 293 
 ZAR  HN ES        551 10.41                             118   -0.14 9  189 293 
 ZAR  HZ I         551 12.43         4.8 0.34            118            189 293 
 NOR  HZ EP        550 52.11                             113    0.26 8  225 231 
 GUY2CHZ EP        551  0.12                             107    0.13 7  292 232 
 GUY2CHN ES        551 31.95                             107   -0.30 7  292 232 
 GUY2CHZ I         551 39.05         1.2 0.42                           292 232 
                                                                                
