 2016  5 6 0326 12.0 L   6.807 -73.154147.6  RSN 16 0.4 1.8LRSN                1
 GAP=118        0.84       2.3     3.0  4.2 -0.1455E+01  0.2301E+01  0.1987E+01E
 Epicentro: LOS SANTOS - SANTANDER                                             3
 ACTION:UPD 16-08-18 17:42 OP:cam  STATUS:               ID:20160506032612 L   I
 OLDACT:REG 16-05-06 13:16 OP:ak   STATUS:               ID:20160506031748     3
 2016-05-06-0317-48M.COL___298                                                 6
 STAT SP IPHASW D HRMM SECON CODA AMPLIT PERI AZIMU VELO AIN AR TRES W  DIS CAZ7
 BAR2 EZ EP        326 31.92                             170    0.1010 23.9 188 
 BAR2 EZ ES        326 47.37                             170    0.0510 23.9 188 
 BAR2 EZ I         326 48.49        17.5 0.17            170           23.9 188 
 BRR  HZ IP     C  326 33.69                             153    0.4410 70.0 298 
 BRR  HN ES        326 50.46                             153    0.6110 70.0 298 
 BRR  HZ I         326 51.30        11.2 0.12            151           70.0 298 
 PAM  EZ EP        326 34.73                             151    0.3510 77.4  40 
 PAM  EN ES        326 51.82                             151   -0.0410 77.4  40 
 PAM  EZ I         326 54.28        11.6 0.70            153           77.4  40 
 RUS  HZ EP        326 35.87                             144   -0.0810  101 176 
 RUS  HN ES        326 54.36                             144   -0.3010  101 176 
 RUS  HZ I         326 55.96         3.9 0.27            145            101 176 
 PTB  HZ EP        326 39.07                             133    0.06 9  147 258 
 PTB  HN ES        326 59.35                             133   -0.76 9  147 258 
 OCA  HZ EP        326 39.74                             130   -0.60 9  159 353 
 OCA  HN ES        327  2.30                             130   -0.17 9  159 353 
 OCA  HZ I         327 11.86        13.8 0.17            130            159 353 
 SPBC HZ EP        326 40.12                             129   -0.48 9  163 219 
 SPBC HN ES        327  3.11                             129    0.17 9  163 219 
 SPBC HZ I         327  7.15         9.3 0.11            129            163 219 
 ZAR  HZ EP   2    326 44.86                             123    0.45 4  203 292 
 ZAR  HN ES        327  9.47                             123   -0.25 9  203 292 
 ZAR  HZ I         327 15.12                             122            203 292 
 NOR  HZ EP        326 47.54                             119   -0.22 8  234 234 
 NOR  HE ES        327 15.98                             119    0.29 8  234 234 
 NOR  HZ I         327 22.88         4.1 0.15            119            234 234 
 CHI  HZ EP        326 50.40                             117    0.59 8  249 195 
 CHI  HN ES        327 19.11                             117   -0.23 8  249 195 
 CHI  HZ I         327 22.89         4.4 0.64            118            249 195 
 ROSC BZ EP   9    326 52.72                             117    2.52 0  253 211 
 ROSC BN ES        327 22.59                                    0.05 8  253 211 
 ROSC BZ I         327 26.47         8.1 0.27            117            253 211 
 HEL  HZ EP   2    326 52.75                             115    0.56 4  271 256 
 HEL  HN ES        327 23.50                             115   -0.07 8  271 256 
 HEL  HZ I         327 33.09         2.7 0.39            115            271 256 
 PTGC HZ EP   2    326 55.14                             112   -0.88 4  310 159 
 PTGC HE ES   4    327 28.65                             112   -1.73 0  310 159 
 CBOC HZ EP   4    327  0.29                             110    1.41 0  333 252 
 CBOC HN ES   4    327 32.02                             110   -3.45 0  333 252 
 CBOC HZ I         327 32.66         1.4 0.10            110            333 252 
 PRA  HZ EP        327  5.76                             107    0.19 6  392 209 
 PRA  HN ES        327 47.23                             107   -0.15 6  392 209 
 PRA  HZ I         327 53.28         3.8 0.28            107            392 209 
 ORTC HZ EP        327  6.55                             107    0.60 6  395 216 
 ORTC HN ES        327 48.20                             107    0.14 6  395 216 
 ORTC HZ I         327 53.27         2.3 0.24            107            395 216 
 SJC  HN ES   4    327 48.35                             106   -2.39 0  408 327 
                                                                                
