 2017 11 6 0159 24.7 L   6.757 -73.124150.0  RSN  9 0.4 1.4LRSN                1
 GAP=115        0.82       4.1     4.2  7.5  0.2080E+01  0.1021E+02  0.8355E+01E
 Epicentro: LOS SANTOS - SANTANDER                                             3
 ACTION:UPD 17-12-12 19:52 OP:rebc STATUS:               ID:20171106015924 L   I
 OLDACT:UP  17-11-06 15:36 OP:dnl  STATUS:               ID:20171106015738     3
 OLDACT:REG 17-11-06 12:58 OP:dnl  STATUS:               ID:20171106015738     3
 2017-11-06-0158-00M.COL___443                                                 6
 STAT SP IPHASW D HRMM SECON CODA AMPLIT PERI AZIMU VELO AIN AR TRES W  DIS CAZ7
 BAR2 EZ EP        159 44.71                             172   -0.0410 19.3 199 
 BAR2 EZ I         2 0  1.78         5.1 0.46            167           19.3 199 
 BRR  HZ EP        159 46.92                             152    0.3810 75.6 301 
 BRR  HN ES        2 0  4.04                             152    0.4510 75.6 301 
 BRR  HZ I         2 0 14.18         7.1 0.48            146           75.6 301 
 PAM  EZ EP   2    159 48.17                             151    0.68 5 79.7  36 
 PAM  EN ES        2 0  4.93                             151   -0.3410 79.7  36 
 PAM  EZ I         2 0  8.17         3.0 0.52            134           79.7  36 
 RUS  HZ EP        159 48.56                             146    0.0410 95.7 177 
 RUS  HN ES        2 0  6.99                             146   -0.1210 95.7 177 
 RUS  HZ I         2 0  7.93         2.6 0.54            133           95.7 177 
 PTB  HZ EP        159 51.59                             133   -0.54 9  149 261 
 PTB  HN ES   4    2 0 12.03                             133   -1.51 0  149 261 
 PTB  HZ I         2 0 14.81         2.2 0.14            123            149 261 
 YPLC HZ EP   2    159 54.77                             129    0.48 4  172 151 
 YPLC HZ I         2 0 24.03         3.6 0.46            114            172 151 
 ZAR  HZ EP   4    159 55.17                             123   -2.65 0  208 293 
 ZAR  HN ES        2 0 23.33                             123   -0.33 8  208 293 
 ZAR  HZ I         2 0 29.68         2.8 0.48            112            208 293 
 NOR  HE ES        2 0 28.69                             120    0.11 8  234 236 
 NOR  HZ I         2 0 33.75         2.8 0.38            109            234 236 
 GUY2CHZ EP   4    2 0 10.46                             113    2.05 0  300 236 
 GUY2CHN ES   4    2 0 45.31                             113    2.80 0  300 236 
 GUY2CHZ I         2 0 51.64         1.3 0.60                           300 236 
                                                                                
