 2017 10 6 0249 13.7 L   6.855 -73.147142.7  RSN  6 0.4 1.3LRSN                1
 GAP=246        0.84       5.3     5.8  6.6  0.1261E+02  0.1713E+02  0.8984E+01E
 Epicentro: LOS SANTOS - SANTANDER                                             3
 ACTION:UPD 17-11-07 19:28 OP:rebc STATUS:               ID:20171006024915dL   I
 OLDACT:REG 17-10-06 12:18 OP:dhb  STATUS:               ID:20171006024741     3
 2017-10-06-0248-00M.COL___435                                                 6
 STAT SP IPHASW D HRMM SECON CODA AMPLIT PERI AZIMU VELO AIN AR TRES W  DIS CAZ7
 BAR2 EZ EP        249 33.33                             168    0.2710 29.4 188 
 BAR2 EZ ES        249 48.20                             168    0.0110 29.4 188 
 BAR2 EZ I         249 50.64         5.9 0.18            164           29.4 188 
 RUS  HZ EP        249 37.31                             141   -0.2510  107 176 
 RUS  HN ES        249 56.28                             141    0.0710  107 176 
 RUS  HZ I         249 56.96         4.3 0.24            143            107 176 
 ZAR  HN ES        250 10.42                             122   -0.20 9  202 291 
 ZAR  HZ I         250 16.33         1.9 0.05            122            202 291 
 NOR  HZ EP        249 48.93                             117   -0.66 8  238 233 
 NOR  HE ES        250 17.85                             117    0.23 8  238 233 
 NOR  HZ I         250 25.08         1.7 0.12            118            238 233 
 CHI  HZ EP        249 51.92                             116    0.09 8  255 195 
 CHI  HE ES        250 21.31                             116   -0.30 8  255 195 
 CHI  HZ I         250 23.06         1.2 0.36            117            255 195 
 GUY2CHZ EP        249 58.42                             111    0.90 7  305 234 
 GUY2CHN ES   4    250 37.83                             111    6.10 0  305 234 
 GUY2CHZ I         250 38.79         0.8 0.36                           305 234 
                                                                                
