 2013 11 6 0030 48.5 L   6.798 -73.146146.2  RSN  6 0.5 1.3LRSN                1
 GAP=201        1.26       6.8     8.2 10.0  0.2888E+02  0.4727E+01 -0.1222E+02E
 Epicentro: LOS SANTOS - SANTANDER                                             3
 ACTION:UPD 14-01-09 16:26 OP:ep   STATUS:               ID:20131106003048 L   I
 OLDACT:REG 13-11-06 06:29 OP:jn   STATUS:               ID:20131106003000     3
 2013-11-06-0030-00M.COL___273                                                 6
 STAT SP IPHASW D HRMM SECON CODA AMPLIT PERI AZIMU VELO AIN AR TRES W  DIS CAZ7
 BAR2 SZ EP        031  8.33                             171    0.1710 23.1 190 
 BAR2 SZ ES        031 23.03                             171   -0.4810 23.1 190 
 BAR2 SZ I         031 25.09         5.5 0.26            171           23.1 190 
 BRR  HZ EP        031 10.17                             152    0.4910 71.3 299 
 BRR  HN ES        031 27.07                             152    0.8510 71.3 299 
 BRR  HZ I         031 32.53         7.2 0.32            153           71.3 299 
 RUS  HZ EP        031 12.72                             144    0.4610  100 176 
 RUS  HN ES        031 30.32                             144   -0.4910  100 176 
 RUS  HZ I         031 31.98         2.4 0.44            148            100 176 
 PTB  HZ EP        031 15.08                             132   -0.40 9  148 259 
 PTB  HN ES        031 36.49                             132   -0.05 9  148 259 
 PTB  HZ I         031 39.62         2.2 0.18            134            148 259 
 ZAR  HN ES        031 46.17                             122   -0.12 9  204 292 
 SML  HN ES        031 52.93                             117   -0.82 8  244 335 
                                                                                
