 2017  6 6 0111 41.0 L   6.725 -73.175145.2  RSN  6 0.3 1.5LRSN                1
 GAP=204        0.83       4.6     5.2  6.8  0.1288E+02 -0.2033E+01 -0.3813E+01E
 Epicentro: VILLANUEVA - SANTANDER                                             3
 ACTION:UPD 17-09-14 16:50 OP:jn   STATUS:               ID:20170606011141 L   I
 OLDACT:UP  17-06-06 13:25 OP:edw  STATUS:               ID:20170606010733d    3
 OLDACT:DUP 17-06-06 13:21 OP:edw  STATUS:               ID:20170606010733d    3
 OLDACT:UP  17-06-06 13:20 OP:edw  STATUS:               ID:20170606010732     3
 OLDACT:UP  17-06-06 13:17 OP:edw  STATUS:               ID:20170606010732     3
 OLDACT:REG 17-06-06 11:59 OP:edw  STATUS:               ID:20170606010732     3
 2017-06-06-0108-00M.COL___356                                                 6
 STAT SP IPHASW D HRMM SECON CODA AMPLIT PERI AZIMU VELO AIN AR TRES W  DIS CAZ7
 BRR  HZ IP     C  112  1.88                             152   -0.3010 72.8 305 
 BRR  HN ES        112 19.10                             152    0.4010 72.8 305 
 BRR  HZ I         112 22.18         6.7 0.20            154           72.8 305 
 RUS  HZ EP        112  3.98                             146   -0.1610 92.7 174 
 RUS  HN ES        112 22.00                             146   -0.1910 92.7 174 
 RUS  HZ I         112 25.33         3.5 0.30            147           92.7 174 
 PTB  HZ EP        112  7.04                             133   -0.47 9  143 262 
 PTB  HN ES        112 27.87                             133   -0.31 9  143 262 
 PTB  HZ I         112 30.21         3.9 0.20            135            143 262 
 SPBC HZ EP        112  9.03                             130    0.36 9  155 220 
 SPBC HN ES        112 30.57                             130    0.33 9  155 220 
 SPBC HZ I         112 37.10         4.8 0.42            132            155 220 
 YPLC HZ EP   2    112 10.39                             127    0.17 4  171 149 
 YPLC HE ES   2    112 33.23                             127    0.23 4  171 149 
 YPLC HZ I         112 38.24         3.5 0.22            130            171 149 
 ZAR  HZ EP        112 14.05                             122    0.61 9  204 295 
 ZAR  HN ES        112 38.53                             122   -0.21 9  204 295 
 ZAR  HZ I         112 44.44         5.5 0.28            125            204 295 
                                                                                
