 2017  7 6 0253 14.7 L   6.520 -73.541113.2  RSN  9 0.2 1.6LRSN                1
 GAP= 95        0.94       3.3     2.8  6.0  0.7574E+00  0.3713E+01  0.5138E+01E
 Epicentro: EL CARMEN - SANTANDER                                              3
 ACTION:UPD 17-08-30 15:30 OP:rebc STATUS:               ID:20170706025314 L   I
 OLDACT:UP  17-07-06 16:34 OP:edw  STATUS:               ID:20170706024744     3
 OLDACT:REG 17-07-06 13:16 OP:edw  STATUS:               ID:20170706024744     3
 2017-07-06-0248-00M.COL___380                                                 6
 STAT SP IPHASW D HRMM SECON CODA AMPLIT PERI AZIMU VELO AIN AR TRES W  DIS CAZ7
 BAR2 EZ IP     D  253 30.98                             158   -0.0610 40.5  79 
 BAR2 EZ ES        253 43.24                             158   -0.5410 40.5  79 
 BRR  HZ EP     D  253 32.17                             146   -0.0410 67.6 344 
 BRR  HN ES        253 46.16                             146    0.3010 67.6 344 
 BRR  HZ I         253 47.49        10.4 0.44            127           67.6 344 
 PTB  HZ EP   9    253 33.79                             134   -1.04 0  101 271 
 PTB  HN ES        253 48.49                             134   -0.9910  101 271 
 PTB  HZ I         253 50.08        11.1 0.10            119            101 271 
 SPBC HZ EP   4    253 34.31                             131   -1.62 0  113 212 
 SPBC HN ES        253 52.89                             131    0.4110  113 212 
 SPBC HZ I         253 53.50         8.6 0.10            119            113 212 
 YPLC HZ EP        253 42.47                             117   -0.11 9  179 134 
 YPLC HN ES        254  4.61                             117    0.30 9  179 134 
 YPLC HZ I         254  6.21        15.9 0.24            107            179 134 
 NOR  HZ EP        253 42.84                             117    0.04 9  181 234 
 NOR  HN ES        254  4.72                             117    0.00 9  181 234 
 NOR  HZ I         254  7.61         3.0 0.14            106            181 234 
 ZAR  HZ EP        253 42.59                             117   -0.14 9  181 307 
 ZAR  HN ES        254  4.70                             117    0.12 9  181 307 
 ZAR  HZ I         254  9.71         5.7 0.28            105            181 307 
 HEL  HN ES        254 13.51                             111   -0.17 8  223 261 
 HEL  HZ I         254 17.71         2.1 0.22            102            223 261 
 GUY2CHZ EP   4    253 53.03                             109    2.24 0  248 235 
 GUY2CHN ES        254 18.77                             109   -0.16 8  248 235 
 GUY2CHZ I         254 23.06         1.6 0.26                           248 235 
                                                                                
