 2012  5 6 0927 33.3 L   6.781 -73.161143.1  RSN  6 0.4 1.7LRSN                1
 GAP=135        0.81       5.4     4.8  8.2  0.2460E+01  0.8003E+01  0.1367E+01E
 Epicentro: LOS SANTOS - SANTANDER                                             3
 ACTION:UP  12-07-05 12:02 OP:pat  STATUS:               ID:20120506092733 L   I
 2012-05-06-0920-00M.COL___192                                                 6
 STAT SP IPHASW D HRMM SECON CODA AMPLIT PERI AZIMU VELO SNR AR TRES W  DIS CAZ7
 BAR2 SZ EP   1    927 52.09                             171    -0.5 7   21 186 
 BAR2 SZ ES   2    928  6.87                             171    -0.7 5   21 186 
 BAR2 SZ I         928  8.80        10.0 0.25                            21 186 
 BRR  HZ EP   1    927 54.53                             152     0.4 7   71 301 
 BRR  HN ES   1    928 10.76                             152     0.4 7   71 301 
 BRR  HZ I         928 14.84        12.0 0.17                            71 301 
 PAM  SZ EP   1    927 55.39                             150     0.0 7   80  40 
 PAM  SE ES   1    928 12.57                             150    -0.1 7   80  40 
 RUS  HZ EP   1    927 56.65                             144     0.0 7   99 175 
 RUS  HE ES   1    928 15.47                             144     0.6 7   99 175 
 RUS  HZ I         928 16.64         6.2 0.28                            99 175 
 PTB  HZ EP   1    927 59.64                             132    -0.2 7  146 259 
 PTB  HN ES   1    928 20.24                             132    -0.4 7  146 259 
 PTB  HZ I         928 24.48         5.0 0.22                           146 259 
 ZAR  HZ EP   2    928  5.59                             122     0.1 4  203 293 
 ZAR  HN ES   1    928 30.81                             122     0.2 6  203 293 
 ZAR  HZ I         928 37.26         9.5 0.35                           203 293 
                                                                                
