 2013 11 6 0200  3.3 L   6.773 -73.158147.6  RSN  6 0.3 1.3LRSN                1
 GAP=136        0.86       4.3     4.4  6.3 -0.3549E+01  0.3187E+01  0.9106E+00E
 Epicentro: LOS SANTOS - SANTANDER                                             3
 ACTION:UPD 14-01-09 16:26 OP:ep   STATUS:               ID:20131106020003 L   I
 OLDACT:REG 13-11-06 06:31 OP:jn   STATUS:               ID:20131106020000     3
 2013-11-06-0200-00M.COL___273                                                 6
 STAT SP IPHASW D HRMM SECON CODA AMPLIT PERI AZIMU VELO AIN AR TRES W  DIS CAZ7
 BAR2 SZ EP        2 0 23.22                             172    0.0910 20.1 188 
 BAR2 SZ ES        2 0 38.49                             172   -0.0710 20.1 188 
 BAR2 SZ I         2 0 41.56         4.1 0.18            172           20.1 188 
 BRR  HZ EP        2 0 24.99                             153    0.2910 71.5 301 
 BRR  HE ES        2 0 41.96                             153    0.6010 71.5 301 
 BRR  HZ I         2 0 42.78         4.9 0.12            153           71.5 301 
 PAM  SZ EP        2 0 26.04                             150    0.1010 80.6  39 
 PAM  SN ES        2 0 42.98                             150   -0.5810 80.6  39 
 PAM  SZ I         2 0 45.12         3.5 0.52            153           80.6  39 
 RUS  HZ EP        2 0 27.25                             145    0.1910 97.7 175 
 RUS  HN ES        2 0 45.67                             145    0.1110 97.7 175 
 RUS  HZ I         2 0 46.78         2.3 0.24            147           97.7 175 
 PTB  HZ EP        2 0 29.92                             133   -0.36 9  146 260 
 PTB  HN ES        2 0 50.98                             133   -0.32 9  146 260 
 PTB  HZ I         2 0 54.39         2.6 0.14            134            146 260 
 SPBC HN ES   1    2 0 53.51                             130   -0.27 7  160 219 
                                                                                
