 2017  6 6 0127 18.5 L   6.738 -73.167149.2  RSN  5 0.3 1.2LRSN                1
 GAP=230        0.75       4.5     5.2  8.4  0.1093E+02 -0.2511E+01 -0.4282E+01E
 Epicentro: VILLANUEVA - SANTANDER                                             3
 ACTION:UPD 17-09-14 16:50 OP:jn   STATUS:               ID:20170606012718 L   I
 OLDACT:REG 17-06-06 12:00 OP:edw  STATUS:               ID:20170606011742     3
 2017-06-06-0118-00M.COL___356                                                 6
 STAT SP IPHASW D HRMM SECON CODA AMPLIT PERI AZIMU VELO AIN AR TRES W  DIS CAZ7
 BRR  HZ EP     C  127 39.82                             153   -0.2910 72.8 304 
 BRR  HN ES        127 57.02                             153    0.0510 72.8 304 
 BRR  HZ I         127 59.58         3.1 0.46            150           72.8 304 
 RUS  HZ EP        127 42.24                             146    0.1010 93.9 174 
 RUS  HN ES        128  0.63                             146    0.0610 93.9 174 
 RUS  HZ I         128  3.44         1.7 0.24            148           93.9 174 
 PTB  HZ EP   2    127 45.34                             133   -0.10 5  144 261 
 PTB  HN ES        128  5.93                             133   -0.53 9  144 261 
 PTB  HZ I         128 13.28         1.7 0.70            132            144 261 
 SPBC HN ES        128  8.78                             131    0.20 9  156 220 
 ZAR  HN ES        128 17.31                             123    0.55 9  205 294 
 ZAR  HZ I         128 23.99         3.0 0.28            123            205 294 
                                                                                
