 2014  1 6 0325 25.6 L   6.811 -73.163147.6  RSN  8 0.4 1.5LRSN                1
 GAP=134        1.08       3.9     4.7  6.8  0.1273E+01  0.7846E+01 -0.4430E+01E
 Epicentro: LOS SANTOS - SANTANDER                                             3
 ACTION:UPD 14-03-13 09:52 OP:ep   STATUS:               ID:20140106032000 L   I
 OLDACT:UPD 14-01-06 11:16 OP:CAM  STATUS:               ID:20140106032000 L   3
 2014-01-06-0320-00M.COL___285                                                 6
 STAT SP IPHASW D HRMM SECON CODA AMPLIT PERI AZIMU VELO AIN AR TRES W  DIS CAZ7
 BAR2 SZ EP        325 45.79                             170    0.3010 24.3 185 
 BAR2 SZ ES        326  0.50                             170   -0.4910 24.3 185 
 BAR2 SZ I         326  2.04         8.0 0.34            170           24.3 185 
 BRR  HZ EP        325 47.38                             154    0.5310 69.0 298 
 BRR  HN ES        326  4.44                             154    1.0410 69.0 298 
 BRR  HZ I         326  8.31         3.9 0.44            151           69.0 298 
 PAM  SZ EP        325 47.98                             151   -0.0710 77.7  41 
 PAM  SN ES        326  5.47                             151   -0.0710 77.7  41 
 RUS  HZ EP        325 49.77                             144    0.1210  102 175 
 RUS  HN ES        326  8.25                             144   -0.1410  102 175 
 RUS  HZ I         326 10.36         2.2 0.34            146            102 175 
 PTB  HZ EP        325 52.56                             133   -0.04 9  146 258 
 PTB  HN ES        326 13.13                             133   -0.50 9  146 258 
 PTB  HZ I         326 15.79         5.0 0.12            133            146 258 
 OCA  HN ES        326 15.45                             130   -0.58 9  159 354 
 ZAR  HZ EP        325 57.94                             123   -0.02 9  202 292 
 ZAR  HE ES        326 22.85                             123   -0.34 9  202 292 
 ZAR  HZ I         326 30.70         3.5 0.10            124            202 292 
 SML  HZ EP        326  1.97                             118   -0.18 8  242 336 
 SML  HE ES        326 30.83                             118    0.19 8  242 336 
 SML  HZ I         326 33.34         4.5 0.10            119            242 336 
                                                                                
