 2013 12 6 0032 51.7 L   5.924 -73.677119.9  RSN  8 0.5 1.6LRSN                1
 GAP= 89        1.34       4.2     4.7  9.0 -0.3772E+01  0.1102E+02  0.3484E+01E
 Epicentro: PUENTE NACIONAL - SANTANDER                                        3
 ACTION:UPD 14-01-13 10:16 OP:ep   STATUS:               ID:20131206003251 L   I
 OLDACT:REG 13-12-06 07:27 OP:carl STATUS:               ID:20131206003000     3
 2013-12-06-0030-00M.COL___285                                                 6
 STAT SP IPHASW D HRMM SECON CODA AMPLIT PERI AZIMU VELO AIN AR TRES W  DIS CAZ7
 SPBC HZ EP        033  8.39                             155   -0.7710 53.0 236 
 SPBC HN ES        033 23.55                             155    0.7710 53.0 236 
 SPBC HZ I         033 25.59        16.8 0.22            156           53.0 236 
 RUS  HZ EP        033 10.36                             150   -0.1110 65.9  93 
 RUS  HE ES        033 24.80                             150   -0.3210 65.9  93 
 RUS  HZ I         033 27.48         3.1 0.22            154           65.9  93 
 BAR2 SZ ES        033 27.95                             140    0.1910 92.0  37 
 BAR2 SZ I         033 28.67        31.7 0.18            144           92.0  37 
 PTB  HZ EP        033 12.52                             134   -0.6110  110 308 
 PTB  HN ES        033 28.91                             134   -0.9410  110 308 
 PTB  HZ I         033 32.34         5.8 0.26            137            110 308 
 BRR  HZ EP        033 15.34                             129    0.3210  131 358 
 BRR  HN ES        033 34.00                             129    0.7810  131 358 
 BRR  HZ I         033 38.00         6.4 0.14            133            131 358 
 NOR  HZ EP        033 15.73                             127   -0.03 9  138 253 
 NOR  HE ES        033 34.52                             127   -0.02 9  138 253 
 NOR  HZ I         033 39.91         9.4 0.24            130            138 253 
 CHI  HZ EP        033 16.82                             127    0.06 9  143 182 
 CHI  HN ES        033 36.24                             127   -0.08 9  143 182 
 CHI  HZ I         033 39.14         2.9 0.24            131            143 182 
 GUY2CHZ EP        033 23.72                             117    0.72 9  202 248 
 GUY2CHN ES        033 47.81                             117    0.38 9  202 248 
                                                                                
