 2017 10 6 0652 50.7 L   6.824 -73.081129.8  RSN  4 0.3 1.3LRSN                1
 GAP=249        0.85       5.6     6.6  7.4  0.1547E+02  0.1497E+02 -0.5774E+01E
 Epicentro: LOS SANTOS - SANTANDER                                             3
 ACTION:UPD 17-11-07 19:28 OP:rebc STATUS:               ID:20171006065250 L   I
 OLDACT:DUP 17-10-06 15:58 OP:dhb  STATUS:               ID:20171006064737d    3
 2017-10-06-0648-00M.COL___417                                                 6
 STAT SP IPHASW D HRMM SECON CODA AMPLIT PERI AZIMU VELO AIN AR TRES W  DIS CAZ7
 BAR2 EZ EP        653  8.02                             167   -0.5110 27.9 204 
 BAR2 EZ ES        653 22.44                             167    0.0110 27.9 204 
 BAR2 EZ I         653 24.38         5.8 0.18            164           27.9 204 
 RUS  HZ EP        653 12.99                             139   -0.1210  103 180 
 RUS  HE ES        653 31.08                             139    0.5010  103 180 
 RUS  HZ I         653 32.71         4.0 0.30            141            103 180 
 SPBC HZ EP        653 18.82                             124    0.13 9  170 220 
 SPBC HE ES        653 40.12                             124   -0.39 9  170 220 
 SPBC HZ I         653 43.67         2.8 0.07            125            170 220 
 ZAR  HZ EP        653 23.21                             118    0.44 8  210 291 
 ZAR  HE ES        653 47.82                             118    0.03 8  210 291 
 ZAR  HZ I         653 52.70         1.6 0.10            119            210 291 
                                                                                
