 2011  9 6 0208  8.2 L   6.436 -73.610104.8  RSN  4 0.1 1.4LRSN                1
 GAP=174        0.34       5.8     7.6  8.3  0.3894E+02  0.4926E+02  0.3229E+02E
 Epicentro: SANTA HELENA DEL OPON - SANTANDER                                  3
 ACTION:UPD 12-07-13 15:55 OP:ep   STATUS:               ID:20110906020808 L   I
 2011-09-06-0204-26S.COL___170                                                 6
 STAT SP IPHASW D HRMM SECON CODA AMPLIT PERI AZIMU VELO AIN AR TRES W  DIS CAZ7
 BAR2 SZ ES   2    2 8 36.54                             152    0.03 5 50.4  70 
 BAR2 SZ I         2 8 39.21        12.4 0.20                          50.4  70 
 BRR  HZ EP   1    2 8 25.37                             141   -0.05 7 75.0 351 
 BRR  HN ES   2    2 8 38.85                             141    0.01 5 75.0 351 
 BRR  HZ I         2 8 46.64        14.9 0.54                          75.0 351 
 RUS  HZ EP   1    2 8 26.96                             138    0.17 7 83.8 136 
 RUS  HN ES   2    2 8 41.04                             138   -0.23 5 83.8 136 
 RUS  HZ I         2 8 42.80         2.2 0.34                          83.8 136 
 ZAR  HZ EP   2    2 8 35.53                             115   -0.24 4  181 310 
 ZAR  HE ES   2    2 8 57.39                             115    0.14 4  181 310 
 ZAR  HZ I         2 9  0.72         2.0 0.40                           181 310 
                                                                                
