 2011  9 6 0622 24.9 L   6.801 -73.146146.8  RSN  4 0.2 1.3LRSN                1
 GAP=238        0.36       7.5     8.7  6.1  0.5357E+02 -0.5477E+01 -0.9225E+01E
 Epicentro: LOS SANTOS - SANTANDER                                             3
 ACTION:UPD 12-07-13 15:55 OP:ep   STATUS:               ID:20110906062224 L   I
 2011-09-06-0617-16S.COL___171                                                 6
 STAT SP IPHASW D HRMM SECON CODA AMPLIT PERI AZIMU VELO AIN AR TRES W  DIS CAZ7
 BAR2 SZ EP   2    622 44.79                             170    0.14 5 23.4 190 
 BAR2 SZ ES   2    622 59.79                             170   -0.27 5 23.4 190 
 BAR2 SZ I         623  1.03         4.2 0.22                          23.4 190 
 BRR  HZ EP   1    622 46.04                             153   -0.10 7 71.1 298 
 BRR  HN ES   2    623  3.03                             153    0.31 5 71.1 298 
 BRR  HZ I         623  5.48         5.7 0.23                          71.1 298 
 RUS  HZ EP   2    622 48.85                             144    0.10 5  101 176 
 RUS  HN ES   2    623  7.39                             144    0.03 5  101 176 
 RUS  HZ I         623  8.84         2.1 0.46                           101 176 
 ZAR  HE ES   2    623 22.64                             123   -0.10 4  204 292 
 ZAR  HZ I         623 24.71         1.7 0.32                           204 292 
                                                                                
