 2017  2 6 0339 51.8 L   6.828 -73.157146.0  RSN 23 0.5 2.6LRSN                1
 GAP= 70        1.42       4.6     4.7  6.5  0.2149E+00  0.6610E+01  0.5877E+01E
 Epicentro: LOS SANTOS - SANTANDER                                             3
 ACTION:UPD 17-05-24 15:33 OP:jn   STATUS:               ID:20170206033951 L   I
 OLDACT:UP  17-02-06 17:52 OP:edw  STATUS:               ID:20170206033742     3
 OLDACT:UP  17-02-06 17:50 OP:edw  STATUS:               ID:20170206033742     3
 OLDACT:REG 17-02-06 11:47 OP:edw  STATUS:               ID:20170206033742     3
 2017-02-06-0338-00M.COL___325                                                 6
 STAT SP IPHASW D HRMM SECON CODA AMPLIT PERI AZIMU VELO AIN AR TRES W  DIS CAZ7
 BAR2 EZ IP     C  340 11.30                             169   -0.2010 26.2 186 
 BAR2 EZ ES        340 26.46                             169   -0.4210 26.2 186 
 BAR2 EZ I         340 27.24       117.3 0.36            167           26.2 186 
 BRR  HZ IP     C  340 13.02                             153    0.2110 68.6 297 
 BRR  HE ES        340 30.08                             153    0.8710 68.6 297 
 BRR  HZ I         340 32.96        68.0 0.20            151           68.6 297 
 PAM  EZ IP     D  340 14.21                             151    0.2910 75.8  42 
 PAM  EN ES        340 31.08                             151   -0.1210 75.8  42 
 PAM  EZ I         340 33.11       101.3 0.52            154           75.8  42 
 RUS  HZ IP     C  340 15.39                             143   -0.3910  104 175 
 RUS  HN ES        340 33.74                             143   -0.7710  104 175 
 RUS  HZ I         340 35.94        86.9 0.18            143            104 175 
 PTB  HZ EP   9    340 17.96                             132   -0.75 0  147 258 
 PTB  HN ES        340 38.71                             132   -0.26 9  147 258 
 PTB  HZ I         340 42.78        57.6 0.14            131            147 258 
 TAM  HZ IP     C  340 19.71                             130    0.05 9  157 106 
 TAM  HN ES   4    340 39.64                             130   -1.77 0  157 106 
 TAM  HZ I         340 41.97        26.5 0.20            132            157 106 
 ZAR  HZ EP        340 24.21                             122    0.22 9  202 291 
 ZAR  HN ES        340 49.36                             122    0.24 9  202 291 
 ZAR  HZ I         340 54.97        57.2 0.34            122            202 291 
 NOR  HZ EP        340 27.65                             118    0.05 8  235 234 
 NOR  HN ES        340 55.49                             118   -0.06 8  235 234 
 NOR  HZ I         340 57.28        30.4 0.16            118            235 234 
 CHI  HZ EP        340 29.79                             116    0.01 8  251 195 
 CHI  HN ES        340 59.04                             116   -0.38 8  251 195 
 CHI  HZ I         341  4.20        21.9 0.28            117            251 195 
 ROSC BZ EP   4    340 31.32                             116    1.19 0  255 210 
 ROSC BN ES        341  1.15                             116    1.11 8  255 210 
 ROSC BZ I         341  6.19        54.8 0.40            116            255 210 
 URE  HZ EP   9    340 31.30                             113   -1.29 0  281 291 
 URE  HN ES        341  1.84                             114   -1.30 7  281 291 
 URE  HZ I         341  5.45        42.8 0.12            113            281 291 
 LL1C HZ EP   9    340 37.56                             112    2.55 0  303 352 
 LL1C HE ES        341 11.40                                    0.12 7  303 352 
 PTGC HZ IP   4 D  340 34.76                             111   -1.26 0  312 159 
 PTGC HN ES   4    341  8.60                             111   -1.94 0  312 159 
 PTGC HZ I         341 10.83        19.2 0.44            112            312 159 
 LL6C HN ES   4    340 53.18                             110   -19.3 0  322 358 
 CBOC HZ EP        340 39.26                             110    0.59 7  333 252 
 CBOC HN ES   4    341 13.91                             110   -1.34 0  333 252 
 CBOC HZ I         341 25.75        10.8 0.50            110            333 252 
 DBB  EZ EP        340 39.24                             109    0.15 7  338 274 
 DBB  EN ES        341 14.68                             109   -1.31 7  338 274 
 DBB  EZ I         341 17.23        19.1 0.26            109            338 274 
 ARGC HZ EP   4    340 41.48                             108    0.43 0  356 340 
 ARGC HN ES   4    341 19.78                             108    0.30 0  356 340 
 ARGC HZ I         341 22.50         6.1 0.28            109            356 340 
 APAC HZ EP   4    340 46.31                             106    0.59 0  396 288 
 APAC HN ES   4    341 25.18                             106   -2.61 0  396 288 
 APAC HZ I         341 32.54        10.7 0.30            106            396 288 
 ORTC HZ EP        340 45.89                             106   -0.02 6  397 216 
 ORTC HN ES   4    341 29.60                             106    1.47 0  397 216 
 ORTC HZ I         341 34.16        18.1 0.22            106            397 216 
 PAL  HZ IP     C  340 47.21                             105    0.21 6  406 239 
 PAL  HN ES   4    341 29.00                             105   -1.08 0  406 239 
 PAL  HZ I         341 36.03         8.7 0.24            106            406 239 
 SJC  HZ IP   9    340 45.61                             105   -1.35 0  406 327 
 SJC  HN ES        341 26.47                             106   -2.18 6  406 327 
 SJC  HZ I         341 30.75        13.3 0.50            106            406 327 
 CRJC HZ EP   9    340 51.41                             103   -2.51 0  465   4 
 CRJC HN ES        341 37.59                             104   -2.29 5  465   4 
 YOT  HZ EP        340 54.81                             103   -0.14 5  473 228 
 YOT  HN ES   4    341 46.94                             103    2.71 0  473 228 
 SMAR HZ EP        340 56.80                             102   -0.46 4  494 346 
 SMAR HN ES   4    341 44.01                             102   -4.32 0  494 346 
                                                                                
