 2010 11 6 0017 23.1 L   6.755 -73.159138.6  RSN 12 0.4 3.6LRSN                1
 GAP=210        0.88       4.6     4.3  6.2  0.3582E+01  0.8727E+01  0.1064E+02E
 Epicentro: LOS SANTOS - SANTANDER                                             3
 ACTION:UP  10-12-17 16:50 OP:REBC STATUS:               ID:20101106001723 L   I
 2010-11-06-0000-00M.COL___116                                                 6
 STAT SP IPHASW D HRMM SECON CODA AMPLIT PERI AZIMU VELO SNR AR TRES W  DIS CAZ7
 BAR2 SZ IP        017 41.68                             172    -0.110   18 189 
 BAR2 SZ ES   1    017 56.27                             172     0.0 7   18 189 
 BAR2 SZ I         017 57.64      1010.0 0.31                            18 189 
 BRR  HZ IP     C  017 43.51                             151     0.010   73 303 
 BRR  HN ES   1    017 59.76                             151     0.3 7   73 303 
 BRR  HZ I         018  3.65       641.2 0.34                            73 303 
 RUS  HZ IP     C  017 45.67                             144    -0.110   96 175 
 RUS  HN ES   1    018  3.77                             144     0.3 7   96 175 
 RUS  HZ I         018  6.11       393.6 0.35                            96 175 
 YOP  SZ IP        017 52.53                             125     0.3 9  175 152 
 YOP  SE ES   1    018 14.31                             125    -0.7 7  175 152 
 NOR  SZ EP        017 57.84                             117    -0.1 8  231 235 
 NOR  SN ES   1    018 24.72                             117    -0.5 6  231 235 
 ROSC BZ EP   1    018  1.33                             116     1.1 6  248 211 
 ROSC BE ES   1    018 29.05                             116    -0.2 6  248 211 
 ROSC BZ I         018 36.64       250.6 0.29                           248 211 
 HEL  HZ EP   1    018  1.98                             113    -0.7 6  270 257 
 HEL  HE ES   1    018 32.76                             113    -0.7 6  270 257 
 HEL  HZ I         018 40.07       235.8 0.40                           270 257 
 GUY  SZ EP   1    018  6.29                             111     0.4 5  297 235 
 VIL  SZ EP   1    018  5.20                             111    -0.2 5  297 190 
 GUY  SZ I         018 48.55       313.4 0.42                           297 235 
 VIL  SN ES   1    018 38.20                             111    -0.2 5  297 190 
 GUY  SE ES   1    018 40.10                             111     0.8 5  297 235 
 VIL  SZ I         018 48.26       180.7 0.44                           297 190 
 RREF HZ EP   1    018  8.30                             110    -0.1 5  317 230 
 RREF HN ES   1    018 43.79                             110     0.0 5  317 230 
 RREF HZ I         018 53.09       284.8 0.20                           317 230 
 TOL  SZ EP   1    018 11.15                             108     0.6 5  339 225 
 PRA  HZ EP        018 15.21                             105    -0.5 6  387 210 
 PRA  HN ES   1    018 57.49                             105     0.6 4  387 210 
                                                                                
