 2017  1 6 0639 25.6 L   6.835 -73.137148.8  RSN 30 0.7 3.1LRSN                1
 GAP= 66        1.24       3.4     3.5  5.3  0.1732E+01  0.6132E+01  0.1999E+01E
 Epicentro: LOS SANTOS - SANTANDER                                             3
 ACTION:UPD 17-05-22 15:56 OP:jn   STATUS:               ID:20170106063925 L   I
 OLDACT:UP  17-03-25 16:52 OP:nlst STATUS:               ID:20170106063925 L   3
 OLDACT:UP  17-01-06 19:32 OP:and  STATUS:               ID:20170106063748d    3
 OLDACT:UP  17-01-06 19:29 OP:and  STATUS:               ID:20170106063748d    3
 OLDACT:UP  17-01-06 19:26 OP:and  STATUS:               ID:20170106063748d    3
 OLDACT:UP  17-01-06 19:23 OP:and  STATUS:               ID:20170106063748d    3
 OLDACT:UP  17-01-06 19:23 OP:and  STATUS:               ID:20170106063748d    3
 OLDACT:UP  17-01-06 19:20 OP:and  STATUS:               ID:20170106063748d    3
 OLDACT:DUP 17-01-06 19:18 OP:and  STATUS:               ID:20170106063748d    3
 OLDACT:UP  17-01-06 17:03 OP:and  STATUS:               ID:20170106063747     3
 OLDACT:UP  17-01-06 17:01 OP:and  STATUS:               ID:20170106063747     3
 OLDACT:UP  17-01-06 16:58 OP:and  STATUS:               ID:20170106063747     3
 OLDACT:UP  17-01-06 16:56 OP:and  STATUS:               ID:20170106063747     3
 OLDACT:REG 17-01-06 12:42 OP:and  STATUS:               ID:20170106063747     3
 2017-01-06-0638-00M.COL___369                                                 6
 STAT SP IPHASW D HRMM SECON CODA AMPLIT PERI AZIMU VELO AIN AR TRES W  DIS CAZ7
 BAR2 EZ IP     C  639 45.87                             169    0.1710 27.3 191 
 BAR2 HN ES        640  1.10                             169   -0.2710 27.3 191 
 BAR2 EZ I         640  9.77       352.9 0.42            167           27.3 191 
 BRR  HZ IP     C  639 47.55                             153    0.5010 70.3 295 
 BRR  HN ES        640  4.64                             153    0.8710 70.3 295 
 BRR  HZ I         640  9.00       270.2 0.14            152           70.3 295 
 PAM  EZ EP        639 48.50                             152    0.5510 73.8  41 
 PAM  EN ES        640  5.39                             152    0.0210 73.8  41 
 PAM  EZ I         640  7.98       305.1 0.52            158           73.8  41 
 RUS  HZ EP        639 49.87                             143   -0.0810  104 177 
 RUS  HN ES        640  8.52                             143   -0.4010  104 177 
 RUS  HZ I         640 10.65       175.3 0.36            144            104 177 
 PTB  HZ EP        639 52.36                             132   -0.64 9  150 257 
 PTB  HN ES        640 13.70                             132   -0.65 9  150 257 
 PTB  HZ I         640 16.46       191.8 0.09            132            150 257 
 TAM  HZ IP     D  639 54.31                             131    0.76 9  155 106 
 TAM  HN ES        640 14.82                             131   -0.51 9  155 106 
 TAM  HZ I         640 16.54       103.1 0.36            135            155 106 
 ZAR  HZ EP        639 58.28                             123    0.06 9  204 291 
 ZAR  HN ES        640 23.70                             123    0.06 9  204 291 
 ZAR  HZ I         640 32.92       138.1 0.11            124            204 291 
 NOR  HZ EP        640  1.84                             119   -0.02 8  238 234 
 NOR  HN ES        640 30.49                             119    0.37 8  238 234 
 NOR  HZ I         640 36.68       138.0 0.30            119            238 234 
 CHI  HZ EP        640  4.28                             117    0.35 8  253 195 
 CHI  HN ES        640 33.00                             117   -0.80 8  253 195 
 CHI  HZ I         640 40.34        75.0 0.34            118            253 195 
 ROSC BZ EP   4    640  5.79                             117    1.46 0  257 211 
 ROSC BN ES   4    640 37.34                             117    2.82 0  257 211 
 ROSC BZ I         640 43.21       134.8 0.40            118            257 211 
 URE  HZ EP        640  6.54                             114   -0.25 7  283 291 
 URE  HN ES   4    640 36.78                             114   -2.11 0  283 291 
 URE  HZ I         640 45.94       126.2 0.38            115            283 291 
 LL1C HZ EP   9    640 11.15                             112    2.21 0  303 351 
 LL1C HN ES        640 44.67                             113   -0.27 7  303 351 
 LL1C HZ I         640 58.95       191.6 0.38            114            303 351 
 GUY2CHZ EP        640 10.28                             113    0.56 7  304 234 
 GUY2CHE ES   4    640 46.47                             113    2.36 0  304 234 
 GUY2CHZ I         640 54.15       145.9 0.48                           304 234 
 PTGC HZ EP        640  9.27                             112   -0.72 7  312 159 
 PTGC HN ES   3    640 42.90                             112   -1.69 2  312 159 
 PTGC HZ I         640 47.81        40.9 0.24            113            312 159 
 LL6C HZ EP   9    639 52.04                             111   -19.0 0  321 357 
 LL6C HN ES        640 26.59                                   -0.86 7  321 357 
 ELA  HZ EP   3    640 15.05                             111    2.07 2  332 229 
 ELA  HN ES   4    640 52.94                             111    3.02 0  332 229 
 ELA  HZ I         641  0.61        66.7 0.28            111            332 229 
 CBOC HZ EP        640 13.77                             110    0.86 7  336 252 
 CBOC HN ES   3    640 48.91                             110   -0.89 2  336 252 
 CBOC HZ I         641  2.13        28.5 0.30            111            336 252 
 DBB  EZ EP        640 13.42                             110    0.11 7  340 274 
 DBB  EN ES   4    640 48.67                             110   -1.83 0  340 274 
 DBB  EZ I         640 54.14        52.3 0.16            111            340 274 
 ARGC HZ EP   3    640 16.07                             109    1.06 2  356 340 
 ARGC HN ES        640 54.12                             109    0.59 6  356 340 
 ARGC HZ I         640 56.81        13.1 0.26            110            356 340 
 ORTC HZ EP        640 20.44                             107    0.36 6  399 216 
 ORTC HN ES   3    641  4.49                             107    1.93 1  399 216 
 ORTC HZ I         641 10.30        59.4 0.48            107            399 216 
 SJC  HZ EP   3    640 19.50                             106   -1.47 1  407 327 
 SJC  HE EP   3    640 19.69                             106            407 327 
 SJC  HN ES        641  0.84                             106   -3.30 6  407 327 
 SJC  HZ I         641  2.04        15.4 0.26            107            407 327 
 PAL  HZ EP        640 21.66                             106    0.44 6  409 239 
 PAL  HN ES        641  4.79                             106    0.20 6  409 239 
 PAL  HZ I         641 10.07        26.8 0.22            107            409 239 
 LCBC HZ EP        640 22.41                             106   -0.13 5  421 302 
 LCBC HE ES        641  6.89                             106   -0.04 5  421 302 
 CRJC HZ EP   4    640 25.61                             104   -2.13 0  464   3 
 CRJC HN ES   4    641 12.73                             104   -3.46 0  464   3 
 CRJC HZ I         641 17.86        24.0 0.38            105            464   3 
 YOT  HZ EP     D  640 28.89                             103   -0.25 5  475 229 
 YOT  HN ES   4    641 21.66                             103    2.97 0  475 229 
 YOT  HZ I         641 30.76         6.6 0.54            104            475 229 
 SMAR HZ EP        640 30.79                             103   -0.36 4  493 346 
 SMAR HN ES   4    641 18.94                             103   -3.33 0  493 346 
 SMAR HZ I         641 24.18        10.6 0.22            104            493 346 
 PTA  HZ EP        640 33.58                             102   -0.41 4  517 274 
 PTA  HN ES        641 27.90                             102    0.58 4  517 274 
 MACC HZ EP   3    640 33.20                             102   -1.68 1  525 189 
 MACC HN ES   4    641 25.06                             102   -3.85 0  525 189 
 MACC HZ I         641 55.32        20.9 0.76            103            525 189 
 GARC HZ EP        640 40.77                             100   -0.64 3  577 207 
 GARC HN ES   4    641 36.70                             100   -3.83 0  577 207 
 CONO HZ EP   4    640 47.49                             100    0.99 0  616 216 
 CONO HN ES   4    641 55.82                             100    6.23 0  616 216 
 FLO2 HZ EP        640 49.18                              99   -0.10 2  644 206 
 FLO2 HN ES   4    641 57.22                              99    2.69 0  644 206 
 SOTO HZ EP   4    640 53.43                              99    3.28 0  647 217 
                                                                                
