 2010 12 6 0706 12.0 L   7.436 -73.291127.2  RSN  8 0.5 2.4LRSN                1
 GAP=125        0.98       4.7     9.7 12.3 -0.6820E+01  0.7996E+02  0.1204E+01E
 Epicentro: EL PLAYON - SANTANDER                                              3
 ACTION:UP  11-01-14 15:23 OP:pat  STATUS:               ID:20101206070612 L   I
 2010-12-06-0702-55S.COL___135                                                 6
 STAT SP IPHASW D HRMM SECON CODA AMPLIT PERI AZIMU VELO SNR AR TRES W  DIS CAZ7
 BTL  SZ EP        7 6 30.95                             154     0.210   57 177 
 GUE  SZ EP   1    7 6 30.10                             153    -0.8 7   59  43 
 GRA  SZ IP        7 6 31.71                             148     0.210   73  47 
 GRA  SZ I         7 6 32.65        82.3 0.32                            73  47 
 GRA  SZ ES        7 6 46.92                             148     0.210   73  47 
 OCA  SZ EP        7 6 32.87                             143     0.310   89 358 
 OCA  SZ ES   2    7 6 48.95                             143     0.3 5   89 358 
 OCA  SZ I         7 6 54.74        53.8 0.35                            89 358 
 BAR2 SZ EP        7 6 33.09                             141     0.010   94 173 
 BAR2 SZ ES   1    7 6 48.98                             141    -0.6 7   94 173 
 BAR2 SZ I         7 6 51.33        92.0 0.29                            94 173 
 NOR  SZ EP   2    7 6 51.41                             111     0.6 4  271 220 
 NOR  SE ES   2    7 7 21.81                             111     0.7 4  271 220 
 MON  HZ EP   1    7 6 53.28                             108    -0.9 5  300 300 
 MON  HE ES   2    7 7 26.57                             108    -0.4 4  300 300 
 MON  HZ I         7 7 41.79         5.8 0.53                           300 300 
 CHI  HZ EP   2    7 6 56.70                             107     0.4 3  314 189 
 CHI  HZ I         7 7 37.92         7.6 0.20                           314 189 
                                                                                
