 2017  7 6 0806 42.1 L   6.763 -73.105144.9  RSN  6 0.4 1.4LRSN                1
 GAP=265        0.78       7.2     5.3  6.2  0.7323E+01  0.9259E+01 -0.1736E+01E
 Epicentro: LOS SANTOS - SANTANDER                                             3
 ACTION:UPD 17-08-30 15:30 OP:rebc STATUS:               ID:20170706080642 L   I
 OLDACT:UP  17-07-06 14:15 OP:edw  STATUS:               ID:20170706075740     3
 OLDACT:REG 17-07-06 13:51 OP:edw  STATUS:               ID:20170706075740     3
 2017-07-06-0758-00M.COL___373                                                 6
 STAT SP IPHASW D HRMM SECON CODA AMPLIT PERI AZIMU VELO AIN AR TRES W  DIS CAZ7
 BAR2 EZ EP        8 7  1.63                             172    0.0910 20.7 204 
 BAR2 EZ ES        8 7 16.49                             172   -0.2510 20.7 204 
 BAR2 EZ I         8 7 17.89         4.7 0.30            173           20.7 204 
 BRR  HZ EP     C  8 7  3.62                             151    0.1510 77.1 300 
 BRR  HE ES        8 7 20.72                             151    0.5510 77.1 300 
 BRR  HZ I         8 7 24.97         4.0 0.26            147           77.1 300 
 PTB  HZ EP        8 7  9.23                             131   -0.07 9  151 261 
 PTB  HN ES        8 7 30.31                             131   -0.24 9  151 261 
 PTB  HZ I         8 7 32.58         3.0 0.12            132            151 261 
 ZAR  HZ EP        8 7 15.06                             121    0.01 8  210 293 
 ZAR  HN ES        8 7 40.19                             121   -0.59 8  210 293 
 ZAR  HZ I         8 7 46.21         2.3 0.22            122            210 293 
 NOR  HE ES   2    8 7 46.06                             118    0.22 4  236 236 
 CBOC HN ES   2    8 8  7.11                             110    0.97 3  337 253 
 SJC  HZ EP   4    8 7 35.59                             105   -2.70 0  415 327 
 SJC  HN ES   4    8 8 18.67                             105   -3.48 0  415 327 
                                                                                
