 2012  8 6 0635 42.0 L   6.664 -73.192142.9  RSN  4 0.4 1.4LRSN                1
 GAP=221        0.73       7.4     7.0  7.4  0.2541E+02  0.1206E+02  0.4544E+01E
 Epicentro: VILLANUEVA - SANTANDER                                             3
 ACTION:UPD 12-09-10 11:54 OP:ep   STATUS:               ID:20120806063542 L   I
 2012-08-06-0630-00M.COL___216                                                 6
 STAT SP IPHASW D HRMM SECON CODA AMPLIT PERI AZIMU VELO AIN AR TRES W  DIS CAZ7
 BAR2 SZ EP   1    636  0.74                             177   -0.33 8 8.01 172 
 BAR2 SZ ES   1    636 15.45                             177   -0.49 8 8.01 172 
 BAR2 SZ I         636 17.07         6.4 0.22                          8.01 172 
 BRR  HZ EP   1    636  2.94                             151   -0.15 8 75.5 311 
 BRR  HN ES   1    636 20.15                             151    0.61 8 75.5 311 
 BRR  HZ I         636 25.13         7.1 0.10                          75.5 311 
 RUS  HZ EP   1    636  4.65                             147    0.18 8 86.1 172 
 RUS  HN ES   1    636 22.31                             147    0.32 8 86.1 172 
 RUS  HZ I         636 24.26         3.5 0.28                          86.1 172 
 PTB  HZ EP        636  8.18                             133    0.1110  140 264 
 PTB  HN ES   1    636 28.06                             133   -0.35 7  140 264 
                                                                                
