 2013 11 6 0730 59.2 L   6.796 -73.233140.5  RSN  7 0.3 1.3LRSN                1
 GAP=189        0.83       3.9     6.0  8.2  0.3337E+00 -0.4494E+01 -0.4673E+01E
 Epicentro: ZAPATOCA - SANTANDER                                               3
 ACTION:UPD 14-01-09 16:26 OP:ep   STATUS:               ID:20131106073059 L   I
 OLDACT:REG 13-11-06 06:45 OP:jn   STATUS:               ID:20131106073000     3
 2013-11-06-0730-00M.COL___273                                                 6
 STAT SP IPHASW D HRMM SECON CODA AMPLIT PERI AZIMU VELO AIN AR TRES W  DIS CAZ7
 BAR2 SZ EP        731 17.79                             170   -0.3610 23.2 166 
 BAR2 SZ I         731 33.97         7.6 0.74            166           23.2 166 
 BRR  HZ EP        731 19.55                             154    0.2610 63.2 303 
 BRR  HN ES        731 35.32                             154    0.3210 63.2 303 
 BRR  HZ I         731 40.65         2.8 0.12            162           63.2 303 
 PTB  HZ EP        731 24.67                             133   -0.16 9  138 258 
 PTB  HN ES        731 44.70                             133   -0.16 9  138 258 
 PTB  HZ I         731 49.70         2.4 0.40            139            138 258 
 SPBC HE ES        731 48.07                             129   -0.04 9  157 216 
 SPBC HZ I         731 54.83         2.7 0.34            133            157 216 
 ZAR  HZ EP        731 31.05                             122    0.69 9  195 293 
 ZAR  HN ES        731 54.45                             122   -0.25 9  195 293 
 ZAR  HZ I         732  3.02         1.9 0.34            128            195 293 
 SML  HN ES        732  2.79                             117   -0.37 8  240 337 
 SML  HZ I         732  6.93         2.4 0.22            120            240 337 
 GUY2CHZ EP   4    731 43.05                             112    1.45 0  293 234 
 GUY2CHN ES   4    732 17.83                             112    3.11 0  293 234 
 GUY2CHZ I         732 25.51         1.2 0.50                           293 234 
                                                                                
