 2010  8 6 0158 58.1 L   6.783 -73.067142.7  RSN  5 0.3 1.4LRSN                1
 GAP=173        0.66       5.3    10.3 10.0  0.1785E+02 -0.7068E+02 -0.8733E+01E
 Epicentro: LOS SANTOS - SANTANDER                                             3
 ACTION:UP  10-09-07 10:52 OP:vdl  STATUS:               ID:20100806015858 L   I
 2010-08-06-0155-40S.COL___125                                                 6
 STAT SP IPHASW D HRMM SECON CODA AMPLIT PERI AZIMU VELO SNR AR TRES W  DIS CAZ7
 BAR2 SZ EP        159 17.35                             170     0.010   25 211 
 BAR2 SZ ES   2    159 31.84                             170    -0.6 5   25 211 
 BAR2 SZ I         159 34.45         7.6 0.75                            25 211 
 BRR  HZ EP        159 19.15                             149    -0.210   80 297 
 BRR  HN ES        159 36.25                             149     0.210   80 297 
 BRR  HZ I         159 37.36         9.7 0.49                            80 297 
 RUS  HZ EP        159 21.59                             144     0.210   98 181 
 RUS  HN ES   3    159 39.32                             144    -0.2 2   98 181 
 GUE  SZ EP        159 22.51                             138     0.010  117   8 
 GUE  SZ I         159 43.71         1.2 0.04                           117   8 
 CHI  HN ES   3    2 0  3.81                             116    -1.2 2  249 197 
 CHI  HZ I         2 0  8.67         2.3 0.14                           249 197 
                                                                                
