 2010 10 6 0421 14.8 L   6.768 -73.044143.0  RSN  8 0.4 1.8LRSN                1
 GAP=186        0.70       4.2     8.7  6.4 -0.2239E+02 -0.1259E+02  0.9757E+01E
 Epicentro: LOS SANTOS - SANTANDER                                             3
 ACTION:UP  11-02-18 11:08 OP:tino STATUS:               ID:20101006042114 L   I
 2010-10-06-0417-41S.COL___122                                                 6
 STAT SP IPHASW D HRMM SECON CODA AMPLIT PERI AZIMU VELO SNR AR TRES W  DIS CAZ7
 BAR2 SZ EP   1    421 34.11                             170     0.0 8   25 218 
 BAR2 SZ ES   1    421 49.31                             170     0.1 8   25 218 
 BAR2 SZ I         421 50.75        21.4 0.17                            25 218 
 BRR  HZ EP   1    421 36.03                             148    -0.3 8   83 297 
 BRR  HE ES   1    421 53.24                             148     0.1 8   83 297 
 BRR  HZ I         421 55.74         9.6 0.09                            83 297 
 GUE  SZ EP   2    421 39.56                             138     0.2 5  118   6 
 GRA  SZ IP        421 39.99                             136     0.110  126  12 
 GRA  SZ ES   1    421 59.42                             136     0.0 7  126  12 
 GRA  SZ I         422  0.76         5.1 0.37                           126  12 
 OCA  SZ EP   2    421 43.28                             128    -0.1 5  165 349 
 OCA  SZ ES   2    422  5.43                             128    -0.3 5  165 349 
 OCA  SZ I         422 14.16         6.7 0.46                           165 349 
 CHI  HZ EP   2    421 52.08                             117    -0.3 4  248 198 
 CHI  HZ I         421 53.47         2.4 0.09                           248 198 
 CHI  HE ES   2    422 20.65                             117    -1.0 4  248 198 
 ROSC BZ EP   2    421 54.23                             116     1.1 4  256 214 
 ROSC BZ I         422 32.16         3.4 0.28                           256 214 
 PRA  HZ EP   1    422  7.96                             106    -0.6 5  395 211 
 PRA  HE ES        422 50.93                             106     0.5 6  395 211 
 PRA  HZ I         422 57.37         6.3 0.22                           395 211 
                                                                                
