 2014  8 6 0147 55.9 L   6.795 -73.206147.3  RSN  5 0.3 1.2LRSN                1
 GAP=232        0.66       4.0     4.4  5.3  0.2772E+01  0.2035E+01  0.9845E+00E
 Epicentro: ZAPATOCA - SANTANDER                                               3
 ACTION:UPD 14-09-15 21:47 OP:nd   STATUS:               ID:20140806014755 L   I
 OLDACT:DUP 14-08-06 14:48 OP:spq  STATUS:               ID:20140806013818d    3
 2014-08-06-0138-17M.COL___257                                                 6
 STAT SP IPHASW D HRMM SECON CODA AMPLIT PERI AZIMU VELO AIN AR TRES W  DIS CAZ7
 BAR2 SZ EP        148 15.72                             171    0.0610 22.5 173 
 BAR2 SZ ES   1    148 30.80                             171   -0.31 7 22.5 173 
 BAR2 SZ I         148 32.31         5.1 0.16            165           22.5 173 
 BRR  HZ EP        148 17.38                             155    0.5010 65.7 302 
 BRR  HE ES        148 33.23                             155   -0.0510 65.7 302 
 BRR  HZ I         148 35.49         3.5 0.18            151           65.7 302 
 PTB  HZ EP   1    148 22.24                             134   -0.12 7  141 259 
 PTB  HE ES        148 42.88                             134   -0.15 9  141 259 
 PTB  HZ I         148 45.68         1.5 0.20            131            141 259 
 SPBC HZ EP        148 23.88                             130   -0.17 9  159 217 
 SPBC HN ES        148 46.27                             130    0.24 9  159 217 
 SPBC HZ I         148 55.08         2.5 0.18            128            159 217 
 ZAR  HZ EP        148 27.37                             124   -0.43 9  198 293 
 ZAR  HE ES        148 52.88                             124    0.17 9  198 293 
 ZAR  HZ I         149  1.28         1.2 0.18            123            198 293 
                                                                                
