 2015 12 6 0432  2.0 L   6.802 -73.122147.0  RSN 19 0.5 2.7LRSN                1
 GAP=139        0.97       2.8     3.9  4.8 -0.1715E+01  0.6619E+01  0.9740E+00E
 Epicentro: LOS SANTOS - SANTANDER                                             3
 ACTION:UPD 16-02-04 15:02 OP:cam  STATUS:               ID:20151206043202 L   I
 OLDACT:UP  15-12-06 15:56 OP:mh   STATUS:               ID:20151206042744     3
 OLDACT:UP  15-12-06 15:56 OP:mh   STATUS:               ID:20151206042744     3
 OLDACT:REG 15-12-06 12:05 OP:mh   STATUS:               ID:20151206042744     3
 2015-12-06-0427-44M.COL___325                                                 6
 STAT SP IPHASW D HRMM SECON CODA AMPLIT PERI AZIMU VELO AIN AR TRES W  DIS CAZ7
 BAR2 EZ IP        432 21.87                             170    0.0910 24.1 196 
 BAR2 EZ ES        432 36.73                             170   -0.4910 24.1 196 
 BAR2 EZ I         432 37.95        75.5 0.48            166           24.1 196 
 BRR  HZ IP     D  432 23.88                             152    0.4910 73.4 297 
 BRR  HN ES        432 40.97                             152    0.8810 73.4 297 
 BRR  HZ I         432 42.47        82.9 0.12            144           73.4 297 
 PAM  EZ EP   1    432 24.81                             152    0.59 7 75.6  38 
 PAM  EN ES        432 41.78                             152    0.2110 75.6  38 
 PAM  EZ I         432 42.40        33.7 0.32            151           75.6  38 
 RUS  HZ EP        432 25.67                             144   -0.1910  101 178 
 RUS  HN ES        432 44.15                             144   -0.3310  101 178 
 RUS  HZ I         432 45.30        23.8 0.40            142            101 178 
 PTB  HZ EP   1    432 28.58                             132   -0.71 7  150 259 
 PTB  HN ES        432 50.86                             132    0.27 9  150 259 
 PTB  HZ I         432 53.51        48.3 0.16            126            150 259 
 OCA  HZ EP   1    432 30.09                             130   -0.31 7  160 352 
 OCA  HN ES        432 52.46                             130   -0.11 9  160 352 
 OCA  HZ I         432 55.32        90.1 0.22            126            160 352 
 SPBC HZ EP        432 30.69                             129   -0.06 9  165 220 
 SPBC HN ES        432 52.83                             129   -0.36 9  165 220 
 SPBC HZ I         432 54.79        72.1 0.38            124            165 220 
 ZAR  HZ EP   1    432 34.85                             122    0.10 6  206 292 
 ZAR  HN ES   1    432 59.50                             122   -0.81 6  206 292 
 ZAR  HZ I         433  6.55        59.6 0.26            117            206 292 
 NOR  HZ EP   1    432 37.95                             118   -0.07 6  237 235 
 NOR  HN ES   1    433  5.60                             118   -0.54 6  237 235 
 NOR  HZ I         433 13.89        38.2 0.20            114            237 235 
 SML  HZ EP   1    432 38.97                             118    0.19 6  245 335 
 SML  HN ES        433  6.57                             118   -0.91 8  245 335 
 SML  HZ I         433 11.83        63.2 0.10            114            245 335 
 ROSC BZ EP        432 40.76                             117    0.43 8  254 212 
 ROSC BN ES   4    433 11.74                             117    1.49 0  254 212 
 ROSC BZ I         433 19.01        44.4 0.35            113            254 212 
 HEL  HZ EP   1    432 42.39                             115   -0.15 6  275 256 
 HEL  HN ES        433 14.42                             115    0.23 8  275 256 
 HEL  HZ I         433 22.10        15.2 0.26            111            275 256 
 URE  HZ EP   4    432 42.06                             114   -1.32 0  286 292 
 URE  HN ES   4    433 12.98                             114   -2.69 0  286 292 
 URE  HZ I         433 23.26        22.1 0.16            110            286 292 
 GUY2CHZ EP   1    432 46.07                             112    0.17 5  303 235 
 GUY2CHN ES   4    433 23.69                             112    3.53 0  303 235 
 GUY2CHZ I         433 27.96        27.2 0.44                           303 235 
 CBOC HZ EP   1    432 49.59                             110    0.35 5  336 252 
 CBOC HN ES   4    433 24.75                             110   -1.35 0  336 252 
 DBB  SZ EP        432 49.69                             109   -0.12 7  342 274 
 DBB  SZ I         433 30.27        43.5 0.75            106            342 274 
 ANIL HZ EP   1    432 52.58                             108    0.52 5  359 225 
 ANIL HN ES   1    433 32.40                             108    1.27 5  359 225 
 ORTC HZ EP        432 55.86                             106   -0.28 6  397 216 
 PAL  HZ EP        432 57.39                             106   -0.07 6  408 239 
                                                                                
