 2011 10 6 0725 34.4 L   6.786 -72.938163.8  RSN 10 0.4 2.2LRSN                1
 GAP=166        0.76       4.2     6.8  6.1 -0.2173E+01  0.5108E+01 -0.1101E+01E
 Epicentro: CEPITA - SANTANDER                                                 3
 ACTION:UPD 12-07-13 16:02 OP:ep   STATUS:               ID:20111006072534 L   I
 2011-10-06-0720-00M.COL___171                                                 6
 STAT SP IPHASW D HRMM SECON CODA AMPLIT PERI AZIMU VELO AIN AR TRES W  DIS CAZ7
 BAR2 SZ IP        725 56.35                             168   -0.1010 34.5 232 
 BAR2 SZ ES   2    726 13.09                             168   -0.56 5 34.5 232 
 BAR2 SZ I         726 14.36        35.0 0.28                          34.5 232 
 GIR2 SZ EP        725 56.39                             165   -0.1710 42.9 319 
 GIR2 SZ ES   2    726 13.87                             165    0.04 5 42.9 319 
 PAM  SZ EP        725 58.41                             157    0.3910 66.6  23 
 PAM  SN ES   1    726 16.34                             157   -0.09 7 66.6  23 
 BRR  HZ IP     D  725 58.31                             149   -0.4410 92.6 293 
 BRR  HZ I         725 59.06        49.9 0.16                          92.6 293 
 BRR  HN ES   1    726 18.33                             149    0.59 7 92.6 293 
 RUS  HZ EP   1    726  0.12                             147    0.18 7  100 189 
 RUS  HN ES   1    726 19.89                             147    0.04 7  100 189 
 RUS  HZ I         726 22.21        17.6 0.39                           100 189 
 BRI  SZ EP   1    726  0.16                             146    0.41 7  104   9 
 OCA  SZ EP   1    726  4.17                             132   -0.52 7  166 345 
 OCA  SZ ES   1    726 28.02                             132   -0.29 7  166 345 
 OCA  SZ I         726 31.79        14.4 0.19                           166 345 
 ZAR  HZ EP   1    726 11.04                             123    0.74 6  226 290 
 ZAR  HZ I         726 41.99        18.7 0.27                           226 290 
 NOR  SZ EP   2    726 12.65                             120   -0.50 4  253 238 
 HEL  HZ EP   2    726 17.87                             116   -0.12 4  294 257 
 HEL  HZ I         726 57.41         4.1 0.43                           294 257 
                                                                                
