 2012  2 6 0627 32.8 L   6.779 -73.150147.9  RSN 10 0.5 1.8LRSN                1
 GAP=182        1.00       3.9     5.3  7.3  0.9134E-01  0.7427E+01 -0.1406E+01E
 ACTION:UP  12-03-07 16:28 OP:epov STATUS:               ID:20120206062732 L   I
 2012-02-06-0620-00M.COL___188                                                 6
 STAT SP IPHASW D HRMM SECON CODA AMPLIT PERI AZIMU VELO SNR AR TRES W  DIS CAZ7
 BAR2 SZ EP        627 52.48                             172   -0.1610 20.9 190 
 BAR2 SZ ES   1    628  8.16                             172    0.05 7 20.9 190 
 BAR2 SZ I         628  8.94        30.8 0.22                          20.9 190 
 GIR2 SZ EP        627 52.54                             167   -0.2510 33.5 352 
 BRR  HZ EP        627 54.36                             153    0.1410 71.9 300 
 BRR  HN ES   1    628 11.63                             153    0.71 7 71.9 300 
 BRR  HZ I         628 13.98        23.9 0.13                          71.9 300 
 RUS  HZ EP        627 56.40                             145   -0.2010 98.3 176 
 RUS  HN ES        628 15.22                             145    0.0610 98.3 176 
 RUS  HZ I         628 16.55         5.7 0.36                          98.3 176 
 PTB  HZ EP   1    627 58.93                             133   -0.93 7  147 260 
 PTB  HN ES   1    628 20.07                             133   -0.89 7  147 260 
 OCA  SZ EP        628  2.07                             130    0.58 9  163 353 
 OCA  SZ I         628 27.98         0.4 0.30                           163 353 
 ZAR  HZ EP   1    628  5.18                             123   -0.25 6  204 293 
 ZAR  HN ES   1    628 30.54                             123   -0.33 6  204 293 
 ZAR  HZ I         628 36.50        17.7 0.26                           204 293 
 NOR  SZ EP   1    628  8.71                             119    0.24 6  233 235 
 NOR  SE ES   1    628 36.50                             119    0.22 6  233 235 
 CHI  HZ EP   1    628 10.30                             118   -0.06 6  246 195 
 CHI  HN ES        628 39.56                             118   -0.10 8  246 195 
 RREF HE ES        628 55.85                             111    1.14 7  320 230 
 RREF HZ I         629  4.28         6.4 0.47                           320 230 
                                                                                
