 2011 12 6 0214 40.6 L   6.731 -73.091148.7  RSN  7 0.5 1.4LRSN                1
 GAP=147        0.82       5.8     6.7  7.9 -0.1054E+02  0.1387E+02  0.1099E+01E
 Epicentro: JORDAN - SANTANDER                                                 3
 ACTION:UPD 12-07-13 16:14 OP:ep   STATUS:               ID:20111206021440 L   I
 2011-12-06-0210-00M.COL___183                                                 6
 STAT SP IPHASW D HRMM SECON CODA AMPLIT PERI AZIMU VELO AIN AR TRES W  DIS CAZ7
 BAR2 SZ EP   1    215  0.40                             173   -0.04 7 18.3 213 
 BAR2 SZ ES   1    215 15.38                             173   -0.58 7 18.3 213 
 BAR2 SZ I         215 17.75         9.6 0.34                          18.3 213 
 GIR2 SZ EP   1    215  1.66                             164    0.83 7 40.1 344 
 PAM  SZ EP   1    215  3.11                             150   -0.12 7 80.0  33 
 PAM  SE ES   1    215 20.87                             150   -0.05 7 80.0  33 
 PAM  SZ I         215 22.95         1.8 0.17                          80.0  33 
 BRR  HZ EP   1    215  2.78                             150    0.24 7 80.3 301 
 BRR  HE ES   1    215 19.57                             150   -0.12 7 80.3 301 
 BRR  HZ I         215 23.43         7.0 0.16                          80.3 301 
 RUS  HZ EP   2    215  3.43                             147   -0.61 5 92.7 179 
 RUS  HN ES   1    215 22.78                             147    0.41 7 92.7 179 
 RUS  HZ I         215 24.55         3.9 0.27                          92.7 179 
 NOR  SZ EP   1    215 15.77                             119   -0.75 6  235 237 
 NOR  SN ES   2    215 45.21                             119    0.63 4  235 237 
 HEL  HN ES   2    215 53.29                             115    0.08 4  276 258 
                                                                                
