 2014  9 6 0533  8.6 L   6.768 -73.209148.2  RSN  7 0.4 1.4LRSN                1
 GAP=227        0.98       5.1     7.4  8.7  0.5165E+01  0.1000E+02  0.9708E+01E
 Epicentro: ZAPATOCA - SANTANDER                                               3
 ACTION:UPD 14-10-03 23:02 OP:nd   STATUS:               ID:20140906053308 L   I
 OLDACT:REG 14-09-06 15:58 OP:fm   STATUS:               ID:20140906052817     3
 2014-09-06-0528-17M.COL___266                                                 6
 STAT SP IPHASW D HRMM SECON CODA AMPLIT PERI AZIMU VELO AIN AR TRES W  DIS CAZ7
 BAR2 SZ EP   1    533 28.34                             172   -0.15 7 19.7 171 
 BAR2 SZ ES   1    533 43.72                             172   -0.26 7 19.7 171 
 BAR2 SZ I         533 44.36         6.2 0.36            166           19.7 171 
 BRR  HZ EP        533 29.91                             154    0.0910 67.0 304 
 BRR  HN ES        533 47.01                             154    0.6610 67.0 304 
 BRR  HZ I         533 50.08         5.3 0.36            151           67.0 304 
 RUS  HE ES   1    533 50.47                             145   -0.53 7 97.8 172 
 RUS  HZ I         533 53.38         2.8 0.34            145           97.8 172 
 PTB  HZ EP        533 34.82                             134   -0.31 9  140 260 
 PTB  HN ES        533 55.15                             134   -0.65 9  140 260 
 PTB  HZ I         534  3.52         3.7 0.16            132            140 260 
 SPBC HZ EP   1    533 36.92                             131    0.26 7  156 218 
 SPBC HN ES        533 58.78                             131    0.26 9  156 218 
 SPBC HZ I         534  4.21         4.8 0.20            129            156 218 
 CHI  HN ES        534 15.44                             118    0.45 8  243 194 
 CHI  HZ I         534 19.86         2.2 0.70            119            243 194 
 GUY2CHN ES   4    534 28.05                             113    3.15 0  293 235 
 GUY2CHZ I         534 30.71         0.9 0.50                           293 235 
                                                                                
