 2014  8 6 0525 18.4 L   6.752 -73.185137.9  RSN  6 0.3 1.3LRSN                1
 GAP=178        0.80       3.7     5.6  7.0 -0.2068E+00  0.4254E+01  0.1974E+01E
 Epicentro: VILLANUEVA - SANTANDER                                             3
 ACTION:UPD 14-09-15 21:47 OP:nd   STATUS:               ID:20140806052518 L   I
 OLDACT:DUP 14-08-06 16:34 OP:spq  STATUS:               ID:20140806051819d    3
 OLDACT:REG 14-08-06 13:17 OP:spq  STATUS:               ID:20140806051818     3
 2014-08-06-0518-18M.COL___254                                                 6
 STAT SP IPHASW D HRMM SECON CODA AMPLIT PERI AZIMU VELO AIN AR TRES W  DIS CAZ7
 BAR2 SZ ES   1    525 51.55                             172    0.06 7 17.7 179 
 BAR2 SZ I         525 53.44         3.2 0.28            171           17.7 179 
 BRR  HZ EP        525 38.95                             151    0.2710 70.2 304 
 BRR  HN ES        525 54.14                             151   -0.3310 70.2 304 
 BRR  HZ I         526  3.22         2.8 0.48            149           70.2 304 
 RUS  HZ EP   1    525 40.76                             144   -0.30 7 95.7 173 
 RUS  HE ES   1    525 58.99                             144    0.29 7 95.7 173 
 RUS  HZ I         526  1.41         1.6 0.20            150           95.7 173 
 PTB  HZ EP        525 43.84                             131   -0.45 9  143 261 
 PTB  HN ES        526  4.92                             131    0.47 9  143 261 
 PTB  HZ I         526 12.56         2.3 0.42            133            143 261 
 SPBC HZ EP   1    525 46.17                             128    0.49 7  156 219 
 SPBC HN ES        526  6.61                             128   -0.32 9  156 219 
 SPBC HZ I         526 11.29         3.6 0.16            132            156 219 
 OCA  HE ES   1    526  8.70                             127    0.12 7  165 355 
 OCA  HZ I         526 11.73         5.1 0.52            131            165 355 
                                                                                
