 2010  1 6 0512 54.1 L   6.362 -73.585112.0  RSN  5 0.4 1.3LRSN                1
 GAP=183        0.86       7.1    43.2 26.7 -0.2040E+03  0.1068E+04 -0.1224E+03E
 Epicentro: SANTA HELENA DEL OPON - SANTANDER                                  3
 ACTION:UP  10-08-24 09:42 OP:vdl  STATUS:               ID:20100106051254 L   I
 2010-01-06-0510-49S.COL___097                                                 6
 STAT SP IPHASW D HRMM SECON CODA AMPLIT PERI AZIMU VELO SNR AR TRES W  DIS CAZ7
 BAR2 SZ EP        513 11.20                             151     0.410   51  60 
 BAR2 SZ ES   1    513 23.38                             151    -0.4 7   51  60 
 RUS  BZ EP   2    513 12.14                             141    -0.6 5   76 133 
 RUS  BZ I         514  1.41         7.0 0.56                            76 133 
 GIR2 SZ EP        513 13.69                             137     0.410   90  29 
 CHI  HZ EP   2    513 23.33                             115    -0.5 4  192 185 
 CHI  HN ES   2    513 47.06                             115     0.1 4  192 185 
 CHI  HZ I         513 50.86         1.5 0.30                           192 185 
 OCA  SZ EP        513 24.98                             112    -0.4 8  210   8 
 OCA  SZ ES   2    513 49.60                             112    -0.2 4  210   8 
                                                                                
