 2017  6 6 0600 17.8 L   6.709 -73.203145.2  RSN  4 0.4 1.1LRSN                1
 GAP=224        0.94       7.6     7.7  8.9  0.4017E+02 -0.5464E+01 -0.1451E+02E
 Epicentro: VILLANUEVA - SANTANDER                                             3
 ACTION:UPD 17-09-14 16:50 OP:jn   STATUS:               ID:20170606060017 L   I
 OLDACT:UP  17-06-06 15:43 OP:edw  STATUS:               ID:20170606055738     3
 OLDACT:REG 17-06-06 12:21 OP:edw  STATUS:               ID:20170606055738     3
 2017-06-06-0558-00M.COL___353                                                 6
 STAT SP IPHASW D HRMM SECON CODA AMPLIT PERI AZIMU VELO AIN AR TRES W  DIS CAZ7
 BRR  HZ EP        6 0 38.43                             152   -0.5010 71.4 308 
 BRR  HN ES        6 0 55.53                             152    0.1410 71.4 308 
 BRR  HZ I         6 0 55.63         2.8 0.52            154           71.4 308 
 RUS  HZ EP        6 0 40.80                             146   -0.0710 91.3 172 
 RUS  HN ES        6 0 59.00                             146    0.1510 91.3 172 
 RUS  HZ I         6 1  0.44         2.1 0.26            146           91.3 172 
 PTB  HZ EP   2    6 0 43.28                             133   -0.76 5  140 262 
 PTB  HN ES        6 1  4.44                             133   -0.04 9  140 262 
 ZAR  HZ EP        6 0 50.91                             122    0.86 9  202 295 
 ZAR  HN ES        6 1 14.99                             122   -0.20 9  202 295 
                                                                                
