 2013  2 6 0747 16.3 L   6.811 -73.161141.9  RSN  9 0.5 2.0LRSN                1
 GAP=134        0.99       3.3     4.8  7.2  0.9346E+00  0.7286E+01 -0.8614E+00E
 Epicentro: LOS SANTOS - SANTANDER                                             3
 ACTION:UPD 13-03-12 09:31 OP:ep   STATUS:               ID:20130206074716 L   I
 2013-02-06-0740-00M.COL___240                                                 6
 STAT SP IPHASW D HRMM SECON CODA AMPLIT PERI AZIMU VELO AIN AR TRES W  DIS CAZ7
 BAR2 SZ EP        747 35.60                             170    0.1610 24.3 186 
 BAR2 SZ ES        747 50.18                             170   -0.2210 24.3 186 
 BAR2 SZ I         747 51.85        12.7 0.18            168           24.3 186 
 BRR  HZ EP   1    747 36.96                             152    0.09 7 69.2 298 
 BRR  HN ES   1    747 53.60                             152    0.65 7 69.2 298 
 BRR  HN I         747 58.72        30.4 0.16            149           69.2 298 
 PAM  SZ EP        747 38.41                             150    0.3410 77.6  41 
 PAM  SN ES   1    747 55.11                             150    0.03 7 77.6  41 
 PAM  SN I         747 56.59         7.7 0.28            155           77.6  41 
 RUS  HZ EP   1    747 39.97                             142    0.25 7  102 175 
 RUS  HN ES        747 57.63                             142   -0.3910  102 175 
 RUS  HN I         747 59.76         7.3 0.28            144            102 175 
 PTB  HZ EP        747 42.64                             131   -0.14 9  146 258 
 PTB  HN ES        748  2.94                             131   -0.53 9  146 258 
 PTB  HN I         748  8.61        13.9 0.24            130            146 258 
 OCA  HN ES        748  5.84                             129   -0.04 9  159 354 
 OCA  HN I         748  9.34        22.6 0.16            130            159 354 
 ZAR  HE ES   1    748 14.34                             122    1.15 6  202 292 
 ZAR  HE I         748 20.18        24.5 0.22            122            202 292 
 SML  HN ES        748 19.96                             117   -0.76 8  242 336 
 SML  HN I         748 23.21        11.1 0.10            118            242 336 
 CHI  HZ EP   1    747 53.58                             116   -0.24 6  249 195 
 CHI  HN ES   1    748 23.81                             116    0.69 6  249 195 
 CHI  HN I         748 29.13         2.7 0.50            118            249 195 
                                                                                
