 2017  1 6 0822 48.3 L   6.701 -73.140144.0  RSN 11 0.4 1.6LRSN                1
 GAP= 89        0.91       3.6     3.2  5.5  0.1409E+01  0.1613E+01  0.2255E+01E
 Epicentro: VILLANUEVA - SANTANDER                                             3
 ACTION:UPD 17-05-22 15:56 OP:jn   STATUS:               ID:20170106082248 L   I
 OLDACT:UP  17-01-06 18:31 OP:and  STATUS:               ID:20170106081739     3
 OLDACT:UP  17-01-06 18:30 OP:and  STATUS:               ID:20170106081739     3
 OLDACT:UP  17-01-06 18:30 OP:and  STATUS:               ID:20170106081739     3
 OLDACT:UP  17-01-06 18:29 OP:and  STATUS:               ID:20170106081739     3
 OLDACT:UP  17-01-06 18:27 OP:and  STATUS:               ID:20170106081739     3
 OLDACT:UP  17-01-06 18:27 OP:and  STATUS:               ID:20170106081739     3
 OLDACT:REG 17-01-06 12:49 OP:and  STATUS:               ID:20170106081739     3
 2017-01-06-0818-00M.COL___363                                                 6
 STAT SP IPHASW D HRMM SECON CODA AMPLIT PERI AZIMU VELO AIN AR TRES W  DIS CAZ7
 BAR2 EZ EP        823  7.63                             175    0.0810 13.0 201 
 BAR2 EZ ES        823 22.21                             175   -0.3510 13.0 201 
 BAR2 EZ I         823 26.97         7.8 0.50            174           13.0 201 
 BRR  HZ EP        823  9.75                             150    0.1210 77.5 305 
 BRR  HE ES   3    823 27.43                             150    1.17 2 77.5 305 
 BRR  HZ I         823 27.72         6.4 0.18            150           77.5 305 
 PAM  EZ EP        823 10.94                             148    0.1010 85.7  35 
 PAM  EE ES        823 28.22                             148   -0.2110 85.7  35 
 PAM  EZ I         823 30.89         7.0 0.45            151           85.7  35 
 RUS  HZ EP        823 11.39                             146    0.2810 89.7 176 
 RUS  HN ES        823 29.26                             146    0.3610 89.7 176 
 RUS  HZ I         823 30.98         8.0 0.34            149           89.7 176 
 PTB  HZ EP        823 14.52                             132   -0.50 9  147 263 
 PTB  HN ES        823 35.27                             132   -0.60 9  147 263 
 PTB  HZ I         823 41.41         2.9 0.10            133            147 263 
 TAM  HZ IP     D  823 15.94                             131    0.40 9  152 101 
 ZAR  HZ EP        823 21.12                             121   -0.02 8  209 295 
 ZAR  HE ES        823 47.10                             121    0.34 8  209 295 
 ZAR  HZ I         823 51.81         4.6 0.29            123            209 295 
 NOR  HE ES        823 51.26                             119    0.62 8  229 237 
 NOR  HZ I         823 53.30         2.5 0.22            121            229 237 
 URE  HN ES   4    823 58.66                             113   -3.55 0  289 294 
 URE  HZ I         824  4.77         3.1 0.12            115            289 294 
 GUY2CHE ES   4    824  7.46                             112    2.82 0  296 237 
 GUY2CHZ I         824 12.87         1.3 0.21                           296 237 
 PTGC HZ EP        823 30.55                             112   -0.34 7  298 158 
 PTGC HN ES        824  3.51                             112   -0.61 7  298 158 
                                                                                
