 2013  9 6 0430 44.6 L   6.826 -73.198141.1  RSN  4 0.3 1.1LRSN                1
 GAP=200        0.48       2.9     5.8 11.0  0.3559E+00 -0.3175E+02 -0.7987E+01E
 Epicentro: ZAPATOCA - SANTANDER                                               3
 ACTION:UPD 13-10-22 09:20 OP:ep   STATUS:               ID:20130906043044 L   I
 OLDACT:UP  13-09-06 09:30 OP:cam  STATUS:               ID:20130906042960d    3
 OLDACT:UP  13-09-06 09:30 OP:cam  STATUS:               ID:20130906042960d    3
 OLDACT:DUP 13-09-06 09:29 OP:cam  STATUS:               ID:20130906042960d    3
 OLDACT:UP  13-09-06 09:28 OP:cam  STATUS:               ID:20130906042959     3
 OLDACT:UP  13-09-06 09:28 OP:cam  STATUS:               ID:20130906042959     3
 OLDACT:REG 13-09-06 08:11 OP:cam  STATUS:               ID:20130906042959     3
 2013-09-06-0429-59M.COL___269                                                 6
 STAT SP IPHASW D HRMM SECON CODA AMPLIT PERI AZIMU VELO AIN AR TRES W  DIS CAZ7
 BAR2 SZ EP   1    431  3.80                             169    0.04 8 25.9 176 
 PTB  HZ EP   1    431 10.69                             132   -0.07 7  143 257 
 PTB  HN ES        431 31.32                             132    0.1810  143 257 
 PTB  HZ I         431 36.85         1.8 0.28            138            143 257 
 SPBC HZ EP   1    431 12.88                             128    0.23 7  162 217 
 SPBC HN ES   2    431 33.82                             128   -0.69 5  162 217 
 SPBC HZ I         431 41.66         1.6 0.28            134            162 217 
 SML  HZ EP   2    431 20.32                             117   -0.14 4  239 336 
 SML  HN ES        431 48.27                             117   -0.13 9  239 336 
                                                                                
