 2011 10 6 0035  5.4 L   6.781 -73.070138.8  RSN  5 0.2 1.4LRSN                1
 GAP=147        0.48       3.2     4.9  5.1 -0.4666E+00 -0.1708E+01  0.3881E-01E
 Epicentro: LOS SANTOS - SANTANDER                                             3
 ACTION:UPD 12-07-13 16:02 OP:ep   STATUS:               ID:20111006003505 L   I
 2011-10-06-0020-00M.COL___170                                                 6
 STAT SP IPHASW D HRMM SECON CODA AMPLIT PERI AZIMU VELO AIN AR TRES W  DIS CAZ7
 BAR2 SZ EP   1    035 24.14                             170   -0.08 7 24.3 211 
 BAR2 SZ I         035 24.22         5.2 0.11                          24.3 211 
 BAR2 SZ ES   1    035 38.78                             170   -0.12 7 24.3 211 
 GIR2 SZ EP   1    035 24.32                             165   -0.07 7 35.7 337 
 PAM  SZ EP   1    035 27.13                             151    0.44 7 74.1  33 
 PAM  SE ES   1    035 43.10                             151   -0.19 7 74.1  33 
 BRR  HZ EP   1    035 26.11                             148   -0.22 7 79.6 297 
 BRR  HZ I         035 34.87         8.5 0.33                          79.6 297 
 BRR  HE ES   1    035 42.84                             148    0.20 7 79.6 297 
 RUS  HZ EP   1    035 28.15                             143   -0.16 7 98.2 181 
 RUS  HE ES   1    035 46.36                             143    0.19 7 98.2 181 
 RUS  HZ I         035 47.47         2.6 0.29                          98.2 181 
                                                                                
