 2017  1 6 0939 16.6 L   6.627 -73.188143.3  RSN  4 0.2 1.3LRSN                1
 GAP=217        0.61       6.7     4.4  4.9  0.1020E+02  0.6089E+01  0.3598E+00E
 Epicentro: BARICHARA - SANTANDER                                              3
 ACTION:UPD 17-05-22 15:56 OP:jn   STATUS:               ID:20170106093916 L   I
 OLDACT:UP  17-01-06 19:02 OP:and  STATUS:               ID:20170106093743     3
 OLDACT:REG 17-01-06 12:52 OP:and  STATUS:               ID:20170106093743     3
 2017-01-06-0938-00M.COL___360                                                 6
 STAT SP IPHASW D HRMM SECON CODA AMPLIT PERI AZIMU VELO AIN AR TRES W  DIS CAZ7
 BAR2 EZ EP        939 35.61                             178   -0.1010 3.88 170 
 BAR2 EZ ES        939 50.75                             178    0.1510 3.88 170 
 BAR2 EZ I         939 52.19         5.6 0.44            174           3.88 170 
 BRR  HZ EP        939 37.69                             150   -0.2410 78.5 313 
 BRR  HN ES        939 54.57                             150    0.0110 78.5 313 
 PTB  HZ EP        939 42.58                             133   -0.15 9  141 266 
 PTB  HE ES        940  3.12                             133    0.03 9  141 266 
 PTB  HZ I         940  6.65         2.1 0.10            132            141 266 
 ZAR  HZ EP        939 49.87                             121    0.58 8  208 298 
 ZAR  HN ES        940 14.59                             121   -0.18 8  208 298 
 ZAR  HZ I         940 16.60         2.0 0.12            122            208 298 
                                                                                
