 2016 11 6 0743 13.0 L   7.109 -73.441116.3  RSN  5 0.6 1.3LRSN                1
 GAP=163        0.97       8.5     4.9  8.7 -0.1495E+02  0.1022E+02  0.5686E+01E
 Epicentro: LEBRIJA - SANTANDER                                                3
 ACTION:UPD 17-10-26 21:05 OP:lp   STATUS:               ID:20161106074313 L   I
 OLDACT:UP  16-11-06 16:43 OP:dani STATUS:               ID:20161106073746d    3
 OLDACT:DUP 16-11-06 16:40 OP:dani STATUS:               ID:20161106073746d    3
 OLDACT:UP  16-11-06 16:39 OP:dani STATUS:               ID:20161106073745     3
 OLDACT:UP  16-11-06 16:39 OP:dani STATUS:               ID:20161106073745     3
 OLDACT:UP  16-11-06 16:38 OP:dani STATUS:               ID:20161106073745     3
 OLDACT:REG 16-11-06 12:51 OP:dani STATUS:               ID:20161106073745     3
 2016-11-06-0738-00M.COL___334                                                 6
 STAT SP IPHASW D HRMM SECON CODA AMPLIT PERI AZIMU VELO AIN AR TRES W  DIS CAZ7
 BRR  HZ EP        743 29.17                             165    0.2510 29.9 270 
 BRR  HN ES        743 41.70                             165    0.3510 29.9 270 
 BRR  HZ I         743 42.77         5.8 0.09            147           29.9 270 
 BAR2 EZ EP        743 31.29                             150    0.3810 63.9 153 
 BAR2 EZ ES        743 44.59                             150   -0.2910 63.9 153 
 BAR2 EZ I         743 46.58        17.1 0.20            118           63.9 153 
 PAM  EZ EP   3    743 31.45                             141   -1.33 2 85.8  73 
 PAM  EN ES        743 48.22                             141   -0.0010 85.8  73 
 PAM  EZ I         743 51.00         2.7 0.32            118           85.8  73 
 PTB  HZ EP        743 35.51                             129   -0.3510  129 241 
 PTB  HN ES        743 53.23                             129   -0.4610  129 241 
 PTB  HZ I         743 58.23         2.2 0.17            105            129 241 
 SPBC HZ EP   3    743 43.37                             120    2.65 2  176 203 
 SPBC HZ I         744  8.89         3.5 0.18             99            176 203 
                                                                                
