 2013 11 6 0242  2.7 L   6.807 -73.159146.7  RSN  9 0.4 1.6LRSN                1
 GAP=135        0.94       3.6     4.0  5.9 -0.2522E+00  0.5090E+01 -0.1709E+01E
 Epicentro: LOS SANTOS - SANTANDER                                             3
 ACTION:UPD 14-01-09 16:26 OP:ep   STATUS:               ID:20131106024202 L   I
 OLDACT:REG 13-11-06 06:33 OP:jn   STATUS:               ID:20131106024000     3
 2013-11-06-0240-00M.COL___273                                                 6
 STAT SP IPHASW D HRMM SECON CODA AMPLIT PERI AZIMU VELO AIN AR TRES W  DIS CAZ7
 BAR2 SZ EP        242 22.17                             170   -0.2410 23.9 186 
 BAR2 SZ ES        242 37.59                             170   -0.2310 23.9 186 
 BAR2 SZ I         242 38.60        15.4 0.24            171           23.9 186 
 BRR  HZ EP        242 24.19                             153    0.3810 69.5 298 
 BRR  HN ES        242 40.98                             153    0.6610 69.5 298 
 BRR  HZ I         242 45.41         5.4 0.16            153           69.5 298 
 PAM  SZ EP        242 25.38                             151    0.3910 77.7  41 
 PAM  SN ES        242 42.07                             151   -0.3410 77.7  41 
 PAM  SZ I         242 44.52        10.7 0.42            154           77.7  41 
 RUS  HZ EP        242 26.52                             144   -0.0510  102 175 
 RUS  HN ES        242 45.39                             144    0.1710  102 175 
 RUS  HZ I         242 46.14         5.3 0.26            147            102 175 
 PTB  HZ EP        242 29.05                             132   -0.54 9  147 258 
 PTB  HN ES        242 50.25                             132   -0.34 9  147 258 
 PTB  HZ I         242 53.41         3.3 0.10            134            147 258 
 SPBC HZ EP        242 31.65                             129    0.45 9  163 218 
 SPBC HN ES   1    242 52.83                             129   -0.64 7  163 218 
 SPBC HZ I         242 55.94         6.2 0.36            131            163 218 
 ZAR  HE ES        243  0.32                             123    0.10 9  202 292 
 NOR  HN ES   2    243  7.00                             119    0.78 4  234 234 
 SML  HZ EP        242 39.06                             118   -0.13 8  242 336 
 SML  HN ES   1    243  7.22                             118   -0.46 6  242 336 
                                                                                
