 2011  5 6 0214 25.4 L   6.541 -73.512109.9  RSN  6 0.3 1.8LRSN                1
 GAP=114        0.73       3.5     3.5  5.7 -0.1603E+01  0.5561E+01 -0.1740E+01E
 Epicentro: EL CARMEN DE CHUCURI - SANTANDER                                   3
 ACTION:UP  11-06-29 08:51 OP:tino STATUS:               ID:20110506021425 L   I
 2011-05-06-0200-00M.COL___139                                                 6
 STAT SP IPHASW D HRMM SECON CODA AMPLIT PERI AZIMU VELO SNR AR TRES W  DIS CAZ7
 BAR2 SZ EP        214 41.15                             160    -0.110   37  81 
 BAR2 SZ ES   1    214 53.47                             160    -0.1 7   37  81 
 BAR2 SZ I         214 55.00        75.5 0.21                            37  81 
 BRR  HZ EP   1    214 42.00                             146    -0.5 7   66 341 
 BRR  HE ES        214 55.76                             146    -0.110   66 341 
 RUS  HZ EP   1    214 44.27                             140    -0.4 7   86 147 
 RUS  HE ES   1    215  0.01                             140     0.4 7   86 147 
 RUS  HZ I         215  1.31         3.0 0.16                            86 147 
 GRA  SZ EP        214 51.99                             119    -0.1 9  168  28 
 GRA  SZ ES   1    215 13.39                             119     0.6 7  168  28 
 GRA  SZ I         215 15.50        10.1 0.54                           168  28 
 OCA  SZ EP   1    214 54.42                             115     0.1 7  189   6 
 OCA  SZ I         215 24.75        11.9 0.26                           189   6 
 HEL  HZ EP   1    214 58.83                             111     0.0 6  227 260 
 HEL  HN ES        215 25.14                             111     0.3 8  227 260 
 HEL  HZ I         215 29.82         5.4 0.49                           227 260 
                                                                                
