 2011  9 6 0359 27.6 L   6.777 -73.133145.6  RSN  4 0.1 1.6LRSN                1
 GAP=237        0.33       6.3     7.6  4.9  0.3979E+02 -0.4457E+01 -0.2408E+01E
 Epicentro: LOS SANTOS - SANTANDER                                             3
 ACTION:UPD 12-07-13 15:55 OP:ep   STATUS:               ID:20110906035927 L   I
 2011-09-06-0356-28S.COL___170                                                 6
 STAT SP IPHASW D HRMM SECON CODA AMPLIT PERI AZIMU VELO AIN AR TRES W  DIS CAZ7
 BAR2 SZ EP   1    359 47.11                             171   -0.01 7 21.1 195 
 BAR2 SZ ES   2    4 0  2.53                             171    0.14 5 21.1 195 
 BRR  HZ EP   1    359 48.95                             152    0.12 7 73.7 300 
 BRR  HZ I         4 0  1.29         4.9 0.26                          73.7 300 
 BRR  HN ES   2    4 0  5.14                             152   -0.28 5 73.7 300 
 RUS  HZ EP        359 51.04                             145   -0.0610 97.9 177 
 RUS  HZ I         359 51.94         7.8 0.51                          97.9 177 
 RUS  HN ES   2    4 0  9.54                             145    0.07 5 97.9 177 
 ZAR  HE ES   2    4 0 25.79                             122    0.08 4  206 293 
 ZAR  HZ I         4 0 29.40         4.9 0.59                           206 293 
                                                                                
