 2016 10 6 0957 12.8 L   7.441 -73.184134.4  RSN 15 0.5 2.3LRSN                1
 GAP= 97        0.97       4.0     3.2  5.1  0.1621E+01  0.2702E+01 -0.1559E+01E
 Epicentro: EL PLAYON - SANTANDER                                              3
 ACTION:UPD 16-11-09 19:16 OP:rebc STATUS:               ID:20161006095712 L   I
 OLDACT:UP  16-10-06 15:53 OP:dani STATUS:               ID:20161006094742     3
 OLDACT:UP  16-10-06 15:52 OP:dani STATUS:               ID:20161006094742     3
 OLDACT:REG 16-10-06 13:18 OP:dnl  STATUS:               ID:20161006094742     3
 2016-10-06-0948-00M.COL___354                                                 6
 STAT SP IPHASW D HRMM SECON CODA AMPLIT PERI AZIMU VELO AIN AR TRES W  DIS CAZ7
 PAM  EZ EP        957 32.83                             157    0.2610 54.6 102 
 PAM  EE ES        957 48.05                             157    0.0810 54.6 102 
 PAM  EZ I         957 51.25        23.2 0.40            158           54.6 102 
 BRR  HZ EP        957 32.64                             151    0.0110 69.0 238 
 BRR  HN ES        957 47.96                             151   -0.1210 69.0 238 
 BRR  HZ I         957 48.41        49.0 0.12            152           69.0 238 
 OCA  HZ EP        957 34.54                             144    0.3610 89.5 350 
 OCA  HZ I         957 53.09        93.2 0.22            141           89.5 350 
 BAR2 EZ EP        957 34.52                             143   -0.1010 93.9 180 
 BAR2 HN ES        957 51.19                             143   -0.4310 93.9 180 
 BAR2 EZ I         957 52.14        80.9 0.14            145           93.9 180 
 RUS  HZ EP        957 41.49                             125   -0.36 9  172 176 
 RUS  HN ES   2    958  3.04                             125   -1.44 4  172 176 
 RUS  HZ I         958  9.39         6.6 0.66            126            172 176 
 PTB  HZ EP        957 41.50                             125    0.20 9  172 235 
 PTB  HN ES   2    958  2.38                             125   -1.12 4  172 235 
 PTB  HZ I         958  7.56        11.6 0.20            125            172 235 
 ZAR  HZ EP        957 42.72                             123    0.16 9  185 272 
 ZAR  HE ES        958  6.31                             123    0.56 9  185 272 
 ZAR  HZ I         958  9.19        30.5 0.44            122            185 272 
 TAM  HZ EP        957 43.39                             122    0.28 9  190 126 
 TAM  HN ES        958  6.96                             122    0.22 9  190 126 
 TAM  HZ I         958 11.66        21.0 0.32            122            190 126 
 SPBC HZ EP        957 46.62                             118    0.15 8  221 206 
 SPBC HE ES   2    958 13.70                             118    0.99 4  221 206 
 SPBC HZ I         958 20.91        17.2 0.38            118            221 206 
 URE  HZ EP        957 50.07                             113   -0.78 8  261 278 
 URE  HN ES   4    958 18.51                             113   -1.99 0  261 278 
 URE  HZ I         958 27.55        10.5 0.16            113            261 278 
 NOR  HZ EP        957 53.11                             112    0.23 7  279 222 
 NOR  HN ES   4    958 25.94                             112    1.83 0  279 222 
 NOR  HZ I         958 28.29         8.0 0.24            112            279 222 
 CHI  HZ EP        957 57.77                             109    0.12 7  317 191 
 GUY2CHZ EP   9    958  3.36                             107    2.48 0  344 225 
 GUY2CHE ES        958 41.32                             106    0.48 7  344 225 
 GUY2CHZ I         958 47.07         5.1 0.36                           344 225 
 CRJC HZ EP        958  5.34                             104   -1.32 6  397   5 
 CRJC HE ES   4    958 45.79                             104   -2.85 0  397   5 
 CRJC HZ I         958 50.46         6.8 0.20            104            397   5 
 PRA  HZ EP        958 13.51                             102    0.26 5  453 205 
                                                                                
