 2015  2 6 0327 49.3 L   6.795 -73.154140.0  RSN 10 0.5 1.8LRSN                1
 GAP=136        1.19       3.7     5.6  6.7 -0.4639E+01  0.7177E+01  0.3904E+01E
 Epicentro: LOS SANTOS - SANTANDER                                             3
 ACTION:UPD 15-04-30 21:22 OP:nd   STATUS:               ID:20150206032749 L   I
 OLDACT:REG 15-02-06 12:37 OP:cam  STATUS:               ID:20150206031739     3
 2015-02-06-0317-39M.COL___284                                                 6
 STAT SP IPHASW D HRMM SECON CODA AMPLIT PERI AZIMU VELO AIN AR TRES W  DIS CAZ7
 BAR2 EZ EP        328  8.16                             170   -0.0210 22.6 188 
 BAR2 EZ ES        328 22.06                             170   -0.8810 22.6 188 
 BAR2 EZ I         328 24.04        19.1 0.32            167           22.6 188 
 BRR  HZ EP        328  9.49                             152   -0.2710 70.7 299 
 BRR  HN ES        328 26.95                             152    1.2010 70.7 299 
 BRR  HZ I         328 29.30        12.6 0.18            143           70.7 299 
 PAM  SZ IP     D  328 11.08                             149    0.1510 78.4  40 
 PAM  SN ES        328 28.03                             149    0.1910 78.4  40 
 PAM  SZ I         328 30.02         8.7 0.48            146           78.4  40 
 RUS  HZ EP        328 12.18                             143   -0.2310  100 175 
 RUS  HE ES        328 30.70                             143    0.2310  100 175 
 RUS  HZ I         328 32.55         7.1 0.20            137            100 175 
 PTB  HZ EP     D  328 14.96                             131   -0.71 9  147 259 
 PTB  HN ES        328 35.90                             131   -0.36 9  147 259 
 PTB  HZ I         328 36.90         8.9 0.38            123            147 259 
 OCA  HZ EP   1    328 17.31                             128    0.13 7  161 354 
 OCA  HN ES        328 38.74                             128   -0.21 9  161 354 
 OCA  HZ I         328 40.98         9.2 0.24            121            161 354 
 SPBC HZ EP        328 17.24                             128    0.02 9  162 219 
 SPBC HN ES        328 39.03                             128   -0.00 9  162 219 
 SPBC HZ I         328 41.68         8.8 0.10            121            162 219 
 CHI  HZ EP        328 26.72                             116    0.16 8  248 195 
 CHI  HN ES        328 56.19                             116    0.54 8  248 195 
 CHI  HZ I         329  3.48         3.7 0.36            110            248 195 
 HEL  HZ EP   1    328 28.88                             114   -0.19 6  271 256 
 HEL  HZ I         329  6.35         4.3 0.36            108            271 256 
 GUY2CHZ EP        328 33.03                             111    0.55 7  300 235 
 GUY2CHZ I         329 14.91         2.6 0.32                           300 235 
                                                                                
