 2014  2 6 0654  7.5 L   6.811 -73.142144.8  RSN  8 0.4 1.7LRSN                1
 GAP=137        0.86       3.6     4.5  7.3 -0.4133E+01  0.1286E+02 -0.2504E+01E
 Epicentro: LOS SANTOS - SANTANDER                                             3
 ACTION:UPD 14-03-10 08:07 OP:ep   STATUS:               ID:20140206065407 L   I
 OLDACT:UP  14-02-06 13:14 OP:mh   STATUS:               ID:20140206065000     3
 OLDACT:REG 14-02-06 08:27 OP:mh   STATUS:               ID:20140206065000     3
 2014-02-06-0650-00M.COL___291                                                 6
 STAT SP IPHASW D HRMM SECON CODA AMPLIT PERI AZIMU VELO AIN AR TRES W  DIS CAZ7
 PAM  SZ EP   1    654 30.15                             151    0.61 7 76.2  40 
 PAM  SN ES        654 47.00                             151    0.2710 76.2  40 
 PAM  SZ I         654 49.89         4.9 0.46            155           76.2  40 
 RUS  HZ EP   1    654 30.99                             143   -0.25 7  102 176 
 RUS  HN ES   1    654 49.03                             143   -0.72 7  102 176 
 RUS  HZ I         654 50.93         3.0 0.31            149            102 176 
 PTB  HZ EP        654 33.97                             132   -0.48 9  148 258 
 PTB  HN ES        654 55.58                             132    0.11 9  148 258 
 PTB  HZ I         654 59.99         7.3 0.13            133            148 258 
 SPBC HZ EP        654 36.23                             129    0.19 9  164 219 
 SPBC HN ES   1    654 58.12                             129   -0.17 7  164 219 
 SPBC HZ I         655  2.88         5.8 0.19            132            164 219 
 ZAR  HZ EP   1    654 39.62                             122   -0.26 6  204 292 
 ZAR  HN ES   1    655  5.21                             122    0.08 6  204 292 
 NOR  HZ EP        654 43.88                             118    0.60 8  236 234 
 NOR  HN ES   1    655 11.79                             118    0.60 6  236 234 
 NOR  HZ I         655 17.46         3.5 0.22            121            236 234 
 SML  HZ EP        654 43.66                             117   -0.32 8  243 335 
 SML  HN ES   1    655 11.98                             117   -0.45 6  243 335 
 SML  HZ I         655 22.14        11.8 0.05            120            243 335 
 URE  HZ EP   4    654 47.31                             113   -1.21 0  284 292 
 GUY2CHZ EP   4    654 52.67                             112    1.49 0  302 235 
 GUY2CHN ES   4    655 26.88                             112    1.63 0  302 235 
 GUY2CHZ I         655 34.28         1.9 0.47                           302 235 
 SJC  HZ EP   4    655  1.49                             106   -1.45 0  408 327 
                                                                                
