 2012  7 6 0701 15.7 L   6.786 -73.198146.5  RSN  4 0.1 1.3LRSN                1
 GAP=240        0.32       4.4     3.2  3.8  0.9319E+01  0.1749E+01 -0.2435E+01E
 Epicentro: ZAPATOCA - SANTANDER                                               3
 ACTION:UPD 12-08-14 11:42 OP:ep   STATUS:               ID:20120706070115 L   I
 2012-07-06-0700-00M.COL___201                                                 6
 STAT SP IPHASW D HRMM SECON CODA AMPLIT PERI AZIMU VELO AIN AR TRES W  DIS CAZ7
 BAR2 SZ EP   1    7 1 35.45                             171     0.1 8   22 175 
 BAR2 SZ ES   1    7 1 50.64                             171    -0.1 8   22 175 
 BAR2 SZ I         7 1 51.62         3.5 0.09            165             22 175 
 RUS  HZ EP   1    7 1 39.42                             144     0.0 8  100 173 
 RUS  HN ES   1    7 1 58.08                             144     0.1 8  100 173 
 RUS  HZ I         7 2  0.68         2.6 0.41            141            100 173 
 PTB  HZ EP        7 1 42.13                             133    -0.110  142 259 
 PTB  HN ES   1    7 2  2.82                             133     0.0 7  142 259 
 PTB  HZ I         7 2  5.92         3.0 0.19            132            142 259 
 ZAR  HN ES   1    7 2 12.77                             123     0.1 7  199 293 
