 2010  1 6 0212 39.9 L   6.806 -73.148142.8  RSN 10 0.4 2.3LRSN                1
 GAP=183        0.72       3.0     8.0  5.8 -0.7888E+01  0.2396E+02  0.4290E+00E
 Epicentro: LOS SANTOS - SANTANDER                                             3
 ACTION:UP  10-08-24 09:42 OP:vdl  STATUS:               ID:20100106021239 L   I
 2010-01-06-0212-06S.COL___097                                                 6
 STAT SP IPHASW D HRMM SECON CODA AMPLIT PERI AZIMU VELO SNR AR TRES W  DIS CAZ7
 BAR2 SZ IP        212 59.27                             170     0.110   24 189 
 BAR2 SZ ES   1    213 14.22                             170     0.0 7   24 189 
 GIR2 SZ IP        212 59.41                             167     0.210   31 351 
 GIR2 SZ ES   2    213 14.38                             167     0.1 5   31 351 
 RUS  BZ IP        213  3.11                             143    -0.310  101 176 
 RUS  BE ES   1    213 21.81                             143     0.1 7  101 176 
 RUS  BZ I         213 23.15        13.4 0.23                           101 176 
 OCA  SZ IP        213  7.69                             129    -0.2 9  160 353 
 OCA  SZ ES   1    213 29.74                             129     0.0 7  160 353 
 OCA  SZ I         213 36.75        37.4 0.35                           160 353 
 NOR  SZ IP        213 15.40                             118    -0.1 8  235 234 
 NOR  SZ ES   3    213 42.37                             118    -0.9 2  235 234 
 CHI  HZ EP        213 17.26                             116    -0.2 8  249 195 
 CHI  HE ES   1    213 46.53                             116    -0.3 6  249 195 
 CHI  HZ I         213 56.21         9.8 0.63                           249 195 
 ROSC BZ EP        213 18.78                             116     0.9 8  253 211 
 ROSC BE ES   2    213 47.42                             116    -0.1 4  253 211 
 ROSC BZ I         213 55.07        13.6 0.77                           253 211 
 RREF BZ EP   3    213 26.42                             110     0.5 2  322 229 
 RREF BE ES   2    214  1.34                             110    -0.5 3  322 229 
 RREF BZ I         214 11.80        16.1 0.19                           322 229 
 TOL  SZ EP        213 28.53                             109     0.5 7  344 225 
 TOL  SZ ES   2    214  6.18                             109     0.5 3  344 225 
 PRA  HZ EP        213 32.83                             106    -0.5 6  392 209 
 PRA  HN ES   2    214 15.07                             106     0.0 3  392 209 
 PRA  HZ I         214 20.95        11.7 0.27                           392 209 
                                                                                
