 2017 12 6 0916 28.8 L   6.791 -73.153138.0  RSN  4 0.4 1.1LRSN                1
 GAP=243        0.87       8.6     6.6  8.1  0.3655E+02  0.5969E+01 -0.1406E+02E
 Epicentro: LOS SANTOS - SANTANDER                                             3
 ACTION:UPD 18-01-04 13:17 OP:rebc STATUS:               ID:20171206091628 L   I
 OLDACT:REG 17-12-06 13:56 OP:leo  STATUS:               ID:20171206090743     3
 2017-12-06-0908-00M.COL___483                                                 6
 STAT SP IPHASW D HRMM SECON CODA AMPLIT PERI AZIMU VELO AIN AR TRES W  DIS CAZ7
 BAR2 EZ EP        916 46.93                             170   -0.5110 22.2 188 
 BAR2 EZ ES        917  2.41                             170    0.4110 22.2 188 
 BAR2 EZ I         917  3.01         3.5 0.68            171           22.2 188 
 RUS  HZ EP        916 52.04                             142    0.3510 99.7 176 
 RUS  HN ES        917  9.28                             142   -0.2910 99.7 176 
 RUS  HZ I         917 10.61         1.7 0.26            145           99.7 176 
 PTB  HZ EP        916 54.97                             130   -0.05 9  147 259 
 PTB  HN ES        917 15.61                             130    0.12 9  147 259 
 PTB  HZ I         917 17.96         1.3 0.12            130            147 259 
 ZAR  HZ EP   2    917  1.56                             121    0.89 4  204 292 
 ZAR  HE ES        917 25.32                             121   -0.24 9  204 292 
 ZAR  HZ I         917 30.96         2.1 0.36            121            204 292 
                                                                                
