 2017 11 6 0144 13.7 L   6.832 -73.156148.5  RSN 27 0.5 2.4LRSN                1
 GAP= 64        1.07       3.0     2.8  4.6  0.7957E-01  0.3039E+01  0.1820E+01E
 Epicentro: LOS SANTOS - SANTANDER                                             3
 ACTION:UPD 17-12-12 19:52 OP:rebc STATUS:               ID:20171106014413 L   I
 OLDACT:UP  17-11-06 13:58 OP:dnl  STATUS:               ID:20171106013738     3
 OLDACT:UP  17-11-06 13:57 OP:dnl  STATUS:               ID:20171106013738     3
 OLDACT:UP  17-11-06 13:56 OP:dnl  STATUS:               ID:20171106013738     3
 OLDACT:REG 17-11-06 12:58 OP:dnl  STATUS:               ID:20171106013738     3
 2017-11-06-0138-00M.COL___441                                                 6
 STAT SP IPHASW D HRMM SECON CODA AMPLIT PERI AZIMU VELO AIN AR TRES W  DIS CAZ7
 BAR2 EZ IP     D  144 33.67                             169   -0.1010 26.7 186 
 BAR2 EZ ES        144 48.57                             169   -0.8210 26.7 186 
 BAR2 EZ I         144 51.52        62.1 0.44            167           26.7 186 
 BRR  HZ IP     D  144 35.47                             154    0.4310 68.5 296 
 BRR  HN ES        144 52.43                             154    0.7810 68.5 296 
 BRR  HZ I         144 55.07        40.7 0.26            150           68.5 296 
 PAM  EZ IP     C  144 36.50                             152    0.3710 75.4  42 
 PAM  EN ES        144 53.75                             152    0.1510 75.4  42 
 PAM  EZ I         144 55.86        46.0 0.50            155           75.4  42 
 RUS  HZ IP     D  144 37.66                             143   -0.3610  104 176 
 RUS  HE ES        144 56.81                             143   -0.1510  104 176 
 RUS  HZ I         144 57.45        33.7 0.24            143            104 176 
 PTB  HZ EP        144 40.45                             133   -0.44 9  147 257 
 PTB  HN ES        145  1.73                             133   -0.34 9  147 257 
 PTB  HZ I         145  5.18        21.9 0.46            130            147 257 
 TAM  HZ IP     C  144 42.09                             131    0.26 9  157 106 
 TAM  HN ES        145  3.94                             131    0.20 9  157 106 
 TAM  HZ I         145  4.65         9.5 0.36            134            157 106 
 SPBC HZ EP        144 42.63                             129   -0.01 9  165 218 
 SPBC HE ES        145  5.18                             129   -0.01 9  165 218 
 SPBC HZ I         145 10.63        45.8 0.48            128            165 218 
 YPLC HZ EP        144 44.20                             127    0.11 9  181 152 
 YPLC HN ES        145  7.93                             127    0.16 9  181 152 
 YPLC HZ I         145  9.07        48.2 0.28            128            181 152 
 ZAR  HZ EP        144 46.14                             123    0.02 9  202 291 
 ZAR  HN ES        145 11.63                             123    0.26 9  202 291 
 ZAR  HZ I         145 17.20        21.9 0.36            122            202 291 
 TABC EZ EP   4    144 51.27                             120    1.35 0  232 210 
 TABC EZ ES   4    145 20.66                             120    2.53 0  232 210 
 TABC EZ I         145 25.17        24.7 0.40            119            232 210 
 NOR  HZ EP        144 49.66                             119   -0.09 8  236 234 
 NOR  HN ES        145 17.54                             119   -0.30 8  236 234 
 NOR  HZ I         145 25.50        22.0 0.20            118            236 234 
 CHI  HZ EP        144 51.91                             117   -0.02 8  252 195 
 CHI  HE ES        145 21.48                             117   -0.24 8  252 195 
 CHI  HZ I         145 26.81        11.7 0.32            117            252 195 
 ROSC BZ EP   9    144 53.54                             117    1.26 0  255 210 
 ROSC BN ES        145 24.53                             117    0.93 8  255 210 
 ROSC BZ I         145 29.83        20.2 0.30            116            255 210 
 URE  HZ EP        144 53.47                             114   -1.20 7  281 291 
 URE  HE ES   4    145 24.38                             114   -2.22 0  281 291 
 URE  HZ I         145 36.26        12.6 0.20            114            281 291 
 GUY2CHZ EP   4    144 59.06                             113    1.46 0  302 234 
 GUY2CHN ES   4    145 35.65                             113    3.84 0  302 234 
 GUY2CHZ I         145 38.85        12.6 0.56                           302 234 
 VIL  EZ EP        144 57.22                             112   -0.43 7  307 191 
 VIL  EN ES   4    145 30.34                             112   -1.56 0  307 191 
 VIL  EZ I         145 40.71        16.8 0.46            112            307 191 
 PTGC HZ EP   4    144 56.94                             112   -1.20 0  312 159 
 PTGC HN ES   4    145 30.26                             112   -2.52 0  312 159 
 PTGC HZ I         145 35.18        20.2 0.28            112            312 159 
 CBOC HZ EP   2    145  1.11                             110    0.34 3  334 251 
 CBOC HE ES        145 38.24                             110    0.79 7  334 251 
 CBOC HZ I         145 54.79         5.7 0.66            110            334 251 
 ARGC HZ EP   4    145  3.68                             109    0.62 0  355 340 
 ARGC HN ES   4    145 43.60                             109    2.06 0  355 340 
 ARGC HZ I         145 53.88         5.8 0.28            109            355 340 
 PRA  HZ EP        145  7.63                             107   -0.02 6  395 209 
 PRA  HN ES        145 49.21                             107   -0.49 6  395 209 
 PRA  HZ I         145 53.69        10.1 0.24            107            395 209 
 APAC HZ EP   2    145  7.56                             107   -0.20 3  396 288 
 APAC HE ES   4    145 47.35                             107   -2.55 0  396 288 
 APAC HZ I         145 54.43         5.5 0.36            106            396 288 
 ORTC HZ EP        145  8.62                             107    0.61 6  398 216 
 ORTC HN ES        145 51.59                             107    1.25 6  398 216 
 ORTC HZ I         145 57.63         6.5 0.26            106            398 216 
 SJC  HZ EP        145  7.86                             106   -1.10 6  406 327 
 SJC  HN ES   4    145 48.14                             106   -3.90 0  406 327 
 SJC  HZ I         145 53.31         3.5 0.64            106            406 327 
 PAL  HZ EP        145  9.47                             106    0.38 6  407 239 
 PAL  HN ES        145 52.95                             106    0.69 6  407 239 
 PAL  HZ I         145 55.21         5.0 0.22            106            407 239 
 CRJC HZ EP   4    145 14.06                             104   -1.84 0  464   4 
 CRJC HN ES   4    146  0.42                             104   -3.97 0  464   4 
 CRJC HZ I         146  6.16         6.3 0.48            104            464   4 
 SMAR HZ EP        145 19.61                             103    0.38 4  493 346 
 SMAR HN ES   4    146  5.02                             103   -5.30 0  493 346 
 SMAR HZ I         146 11.40         7.3 0.20            103            493 346 
 URI  HZ EP   4    145 24.27                             101   -2.15 0  554  13 
 URI  HE ES   4    146 21.27                             101   -1.84 0  554  13 
 URI  HZ I         146 23.77         1.4 0.54            101            554  13 
                                                                                
