 2013 11 6 0050 44.8 L   7.177 -73.095139.6  RSN  7 0.5 1.4LRSN                1
 GAP=112        1.14       4.6     6.1  9.1  0.4387E+01  0.2226E+02 -0.5714E+01E
 Epicentro: BUCARAMANGA - SANTANDER                                            3
 ACTION:UPD 14-01-09 16:26 OP:ep   STATUS:               ID:20131106005044 L   I
 OLDACT:REG 13-11-06 06:30 OP:jn   STATUS:               ID:20131106005000     3
 2013-11-06-0050-00M.COL___273                                                 6
 STAT SP IPHASW D HRMM SECON CODA AMPLIT PERI AZIMU VELO AIN AR TRES W  DIS CAZ7
 PAM  SN ES        051 20.65                             160    0.1910 47.2  68 
 BAR2 SZ ES        051 20.78                             153   -0.5710 65.4 188 
 BAR2 SZ I         051 23.65         5.5 0.18            154           65.4 188 
 BRR  HZ EP        051  5.42                             152    0.2410 68.6 264 
 BRR  HN ES   2    051 22.15                             152    1.11 5 68.6 264 
 RUS  HZ EP        051 12.16                             132    0.72 9  142 179 
 RUS  HN ES        051 31.87                             132   -0.32 9  142 179 
 PTB  HZ EP        051 12.36                             127   -0.71 9  166 245 
 PTB  HN ES        051 35.38                             127    0.29 9  166 245 
 PTB  HZ I         051 37.96         2.7 0.20            127            166 245 
 ZAR  HN ES        051 40.88                             122    0.15 9  198 280 
 ZAR  HZ I         051 48.12         2.8 0.12            122            198 280 
 SML  HZ EP        051 17.61                             120    0.17 8  209 329 
 SML  HN ES        051 42.33                             120   -0.53 8  209 329 
                                                                                
