 2017  6 6 0936  4.9 L   6.309 -73.656109.2  RSN  6 0.4 1.3LRSN                1
 GAP=129        1.02       4.3     4.1  8.0  0.1015E+02 -0.6059E+01 -0.7461E+01E
 Epicentro: SANTA HELENA DEL OPON - SANTANDER                                  3
 ACTION:UPD 17-09-14 16:50 OP:jn   STATUS:               ID:20170606093604 L   I
 OLDACT:REG 17-06-06 12:35 OP:edw  STATUS:               ID:20170606092738     3
 2017-06-06-0928-00M.COL___344                                                 6
 STAT SP IPHASW D HRMM SECON CODA AMPLIT PERI AZIMU VELO AIN AR TRES W  DIS CAZ7
 RUS  HZ EP        936 22.94                             142   -0.5310 78.4 126 
 RUS  HN ES        936 37.72                             142   -0.2310 78.4 126 
 RUS  HZ I         936 38.84         1.5 0.16            143           78.4 126 
 SPBC HN ES        936 38.23                             139    0.2210 86.0 212 
 BRR  HZ EP        936 23.62                             138    0.0410 88.5 356 
 BRR  HN ES        936 38.13                             138   -0.0110 88.5 356 
 PTB  HZ EP        936 23.53                             137   -0.3710 92.1 286 
 PTB  HN ES        936 38.61                             137   -0.1110 92.1 286 
 PTB  HZ I         936 40.82         4.5 0.32            136           92.1 286 
 YPLC HZ EP        936 31.64                             117   -0.36 9  174 125 
 YPLC HN ES        936 54.08                             117    0.95 9  174 125 
 YPLC HZ I         936 54.44         4.9 0.32            118            174 125 
 ZAR  HZ EP        936 33.48                             115    0.16 9  186 315 
 ZAR  HN ES        936 55.98                             115    0.51 9  186 315 
 ZAR  HZ I         937  0.43         4.9 0.42            115            186 315 
                                                                                
