 2012  5 6 0939 41.5 L   6.775 -73.127143.9  RSN  6 0.3 1.3LRSN                1
 GAP=140        0.82       5.5     5.2  7.5  0.4337E+00  0.8384E+01 -0.1427E+01E
 Epicentro: LOS SANTOS - SANTANDER                                             3
 ACTION:UP  12-07-05 12:02 OP:pat  STATUS:               ID:20120506093941 L   I
 2012-05-06-0937-38M.COL___181                                                 6
 STAT SP IPHASW D HRMM SECON CODA AMPLIT PERI AZIMU VELO SNR AR TRES W  DIS CAZ7
 BAR2 SZ EP   1    940  0.57                             171    -0.3 7   21 197 
 BAR2 SZ ES   1    940 15.44                             171    -0.5 7   21 197 
 BAR2 SZ I         940 16.98         8.1 0.19                            21 197 
 BRR  HZ EP        940  2.59                             151     0.010   74 300 
 BRR  HZ I         940  2.95         6.7 0.10                            74 300 
 BRR  HN ES   1    940 19.61                             151     0.5 7   74 300 
 PAM  SZ EP   1    940  3.87                             150     0.3 7   78  37 
 PAM  SN ES   1    940 20.57                             150    -0.2 7   78  37 
 RUS  HZ EP   1    940  5.28                             144     0.4 7   98 177 
 RUS  HN ES   1    940 23.19                             144     0.1 7   98 177 
 RUS  HZ I         940 24.34         1.6 0.26                            98 177 
 PTB  HZ EP   1    940  7.79                             131    -0.6 7  149 260 
 PTB  HN ES   1    940 29.60                             131     0.1 7  149 260 
 PTB  HZ I         940 31.30         1.3 0.17                           149 260 
 ZAR  HZ EP   2    940 13.96                             121    -0.1 4  207 293 
 ZAR  HN ES   2    940 39.53                             121     0.0 4  207 293 
 ZAR  HZ I         940 44.58         2.5 0.16                           207 293 
                                                                                
