 2017 12 6 0648 29.2 L   6.864 -73.110146.5  RSN  4 0.2 1.5LRSN                1
 GAP=249        0.54       5.5     4.3  5.0  0.1537E+02 -0.3858E+00 -0.1015E+02E
 Epicentro: LOS SANTOS - SANTANDER                                             3
 ACTION:UPD 18-01-04 13:17 OP:rebc STATUS:               ID:20171206064829 L   I
 OLDACT:REG 17-12-06 13:45 OP:leo  STATUS:               ID:20171206064746     3
 2017-12-06-0648-00M.COL___495                                                 6
 STAT SP IPHASW D HRMM SECON CODA AMPLIT PERI AZIMU VELO AIN AR TRES W  DIS CAZ7
 BAR2 EZ EP        648 49.51                             167    0.3810 31.1 195 
 BAR2 EZ ES        649  4.55                             167   -0.1010 31.1 195 
 BAR2 EZ I         649  6.00        11.2 0.14            166           31.1 195 
 RUS  HZ EP        648 53.50                             142   -0.0610  107 178 
 RUS  HN ES        649 12.39                             142   -0.1410  107 178 
 RUS  HZ I         649 14.66         2.7 0.62            142            107 178 
 PTB  HZ EP        648 56.60                             131   -0.15 9  153 257 
 PTB  HN ES        649 18.47                             131    0.26 9  153 257 
 ZAR  HZ EP        649  1.75                             122   -0.09 8  205 290 
 ZAR  HE ES        649 27.12                             122   -0.16 8  205 290 
                                                                                
