 2010  8 6 0446 40.8 L   6.786 -73.048145.5  RSN 17 0.5 3.5LRSN                1
 GAP=133        1.24       3.8     6.1  6.2 -0.1147E+02  0.3233E+01  0.5903E+01E
 Epicentro: LOS SANTOS - SANTANDER                                             3
 ACTION:UP  10-09-07 10:52 OP:vdl  STATUS:               ID:20100806044640 L   I
 2010-08-06-0443-04S.COL___125                                                 6
 STAT SP IPHASW D HRMM SECON CODA AMPLIT PERI AZIMU VELO SNR AR TRES W  DIS CAZ7
 BAR2 SZ IP        447  0.50                             169     0.110   26 215 
 BAR2 SZ I         447  0.88      1179.6 0.64                            26 215 
 BAR2 SZ ES   1    447 15.71                             169    -0.1 7   26 215 
 GIR2 SZ EP        447  0.59                             165     0.010   36 334 
 GIR2 SZ ES   1    447 15.71                             165    -0.3 7   36 334 
 BRR  HZ IP     D  447  2.41                             149    -0.110   82 296 
 BRR  HN ES        447 19.76                             149     0.310   82 296 
 BRR  HZ I         447 21.17       739.2 0.15                            82 296 
 RUS  HZ EP        447  4.29                             144    -0.110   99 182 
 RUS  HN ES   1    447 22.12                             144    -0.7 7   99 182 
 RUS  HZ I         447 24.20       237.0 0.15                            99 182 
 GUE  SZ EP        447  5.43                             139     0.010  116   7 
 GUE  SZ ES   1    447 25.08                             139     0.4 7  116   7 
 GUE  SZ I         447 27.16       146.7 0.11                           116   7 
 GRA  SZ IP        447  6.31                             137     0.410  124  13 
 GRA  SZ ES   1    447 25.83                             137     0.4 7  124  13 
 GRA  SZ I         447 27.16       599.4 0.40                           124  13 
 OCA  SZ EP        447  8.82                             129    -0.5 9  163 349 
 OCA  SZ ES   1    447 31.30                             129    -0.4 7  163 349 
 OCA  SZ I         447 35.57       439.4 0.17                           163 349 
 CHI  HZ EP        447 18.37                             117    -0.2 8  250 198 
 CHI  HN ES        447 48.56                             117     0.4 8  250 198 
 CHI  HZ I         447 51.29       202.4 1.44                           250 198 
 ROSC BZ EP        447 20.45                             116     1.1 8  257 213 
 ROSC BN ES        447 48.94                             116    -0.5 8  257 213 
 ROSC BZ I         447 54.38       228.3 0.40                           257 213 
 HEL  HZ EP        447 21.46                             114    -0.6 7  282 257 
 HEL  HN ES   1    447 53.24                             114    -1.1 6  282 257 
 HEL  HZ I         447 59.67       130.4 0.77                           282 257 
 GUY  SZ EP   1    447 26.34                             112     1.1 5  309 236 
 GUY  SN ES   1    448  0.82                             112     0.8 5  309 236 
 RREF HZ EP        447 27.50                             110    -0.2 7  329 231 
 RREF HN ES        448  5.24                             110     0.9 7  329 231 
 RREF HZ I         448 12.95       303.3 0.67                           329 231 
 DBB  SZ EP        447 28.87                             109    -0.6 6  350 274 
 TOL  SZ EP        447 30.30                             109     0.5 6  350 226 
 SDV  BZ EP        447 29.82                             109    -0.1 6  353  49 
 SDV  BZ I         448  9.34        41.6 0.53                           353  49 
 ANIL HZ EP        447 31.69                             108     0.4 6  364 226 
 ANIL HN ES        448 11.07                             108     0.3 6  364 226 
 PRA  HZ EP        447 33.76                             106    -1.0 6  396 211 
 PRA  HN ES   1    448 15.50                             106    -1.4 4  396 211 
 PRA  HZ I         448 23.90       146.5 0.66                           396 211 
                                                                                
