 2014  5 6 0645 59.3 L   6.880 -73.543 11.3  RSN  9 0.5 1.9LRSN                1
 GAP= 94        1.25       2.6     3.1  6.7 -0.3379E+01  0.1204E+02 -0.8046E+01E
 Epicentro: SAN VICENTE DE CHUCURI - SANTANDER                                 3
 ACTION:UPD 15-03-16 16:55 OP:nd   STATUS:               ID:20140506064559 L   I
 OLDACT:DUP 14-05-06 16:19 OP:carl STATUS:               ID:20140506063810d    3
 2014-05-06-0638-09M.COL___230                                                 6
 STAT SP IPHASW D HRMM SECON CODA AMPLIT PERI AZIMU VELO AIN AR TRES W  DIS CAZ7
 PAM  SZ EP        646 16.78                              94    0.2210  106  61 
 PAM  SE ES        646 29.58                              94   -0.4010  106  61 
 PAM  SZ I         646 30.70        16.6 0.18             47            106  61 
 PTB  HZ EP        646 16.00                              94   -0.3210  108 250 
 PTB  HN ES        646 29.29                              94   -0.2810  108 250 
 PTB  HZ I         646 31.78        47.6 0.22             47            108 250 
 RUS  HZ EP        646 18.62                              94   -0.1010  120 155 
 RUS  HE ES        646 33.45                              94   -0.3810  120 155 
 SPBC HZ EP        646 23.13                              93    0.68 9  148 203 
 SPBC HN ES        646 40.72                              93    0.24 9  148 203 
 SPBC HZ I         646 44.32        18.5 0.44             47            148 203 
 OCA  HZ EP        646 22.71                              93   -0.49 9  152   9 
 OCA  HE ES        646 43.00                              93    1.19 9  152   9 
 OCA  HZ I         646 47.59        10.8 0.32             47            152   9 
 ZAR  HZ EP        646 24.11                              56    0.09 9  160 295 
 ZAR  HN ES        646 43.06                              56   -0.22 9  160 295 
 ZAR  HZ I         646 44.12        28.9 0.38             47            160 295 
 SML  HZ EP        646 31.62                              56    0.11 8  220 345 
 SML  HN ES        646 55.77                              56   -0.84 8  220 345 
 HEL  HZ EP        646 34.29                              56    0.81 8  233 251 
 HEL  HN ES        646 59.96                              56   -0.15 8  233 251 
 HEL  HZ I         647  1.82        12.3 0.26             37            233 251 
 CHI  HZ EP   4    646 39.46                              56    3.78 0  250 185 
 CHI  HN ES   4    647  9.47                              56    5.44 0  250 185 
 CHI  HZ I         647 21.93         3.5 0.50             37            250 185 
                                                                                
