 2016 10 6 0848 33.0 L   6.200 -73.868 94.0  RSN 12 0.4 1.5LRSN                1
 GAP= 64        1.08       2.5     2.5  6.3 -0.1217E+01  0.3152E+01 -0.5548E+00E
 Epicentro: LANDAZURI - SANTANDER                                              3
 ACTION:UPD 16-11-09 19:16 OP:rebc STATUS:               ID:20161006084833 L   I
 OLDACT:UP  16-10-06 15:02 OP:dani STATUS:               ID:20161006084745     3
 OLDACT:UP  16-10-06 15:00 OP:dani STATUS:               ID:20161006084745     3
 OLDACT:UP  16-10-06 14:59 OP:dani STATUS:               ID:20161006084745     3
 OLDACT:UP  16-10-06 14:59 OP:dani STATUS:               ID:20161006084745     3
 OLDACT:REG 16-10-06 13:16 OP:dnl  STATUS:               ID:20161006084745     3
 2016-10-06-0848-00M.COL___354                                                 6
 STAT SP IPHASW D HRMM SECON CODA AMPLIT PERI AZIMU VELO AIN AR TRES W  DIS CAZ7
 SPBC HZ EP        848 48.40                             143   -0.0710 64.7 200 
 SPBC HE ES        849  0.53                             143   -0.0210 64.7 200 
 SPBC HZ I         849  2.25        18.8 0.42            145           64.7 200 
 PTB  HZ EP     D  848 48.40                             138   -0.7810 75.1 300 
 PTB  HN ES        849  1.11                             138   -0.7110 75.1 300 
 PTB  HZ I         849  1.93         8.9 0.16            140           75.1 300 
 BAR2 EZ EP        848 50.61                             134    0.0810 87.4  60 
 BAR2 EZ ES        849  4.72                             134    0.4910 87.4  60 
 BAR2 EZ I         849  5.90        12.0 0.44            135           87.4  60 
 RUS  HZ EP        848 51.27                             132   -0.1410 93.3 111 
 RUS  HN ES        849  5.66                             132   -0.1410 93.3 111 
 RUS  HZ I         849  7.29         3.2 0.13            133           93.3 111 
 BRR  HZ EP        848 51.53                             129   -0.0110  102  10 
 BRR  HN ES        849  6.48                             129    0.4610  102  10 
 BRR  HZ I         849 10.12         9.3 0.33            130            102  10 
 NOR  HZ EP        848 53.99                             121   -0.6010  131 238 
 NOR  HE ES        849 11.56                             121    0.1010  131 238 
 NOR  HZ I         849 12.83         5.8 0.10            123            131 238 
 CHI  HZ EP        848 59.51                             114   -0.26 9  174 175 
 CHI  HN ES        849 21.16                             114    0.49 9  174 175 
 CHI  HZ I         849 24.90         2.3 0.26            115            174 175 
 ZAR  HZ EP        848 59.74                             113   -0.14 9  180 323 
 ZAR  HN ES        849 21.72                             113    0.84 9  180 323 
 ZAR  HZ I         849 23.22         6.0 0.28            114            180 323 
 PAM  EZ EP   4    849  2.51                             113    1.96 0  180  46 
 PAM  EE ES        849 21.77                             113   -0.29 9  180  46 
 PAM  EZ I         849 26.43         3.0 0.22            114            180  46 
 HEL  HZ EP        849  0.64                             113   -0.14 9  184 270 
 HEL  HN ES        849 22.59                             113    0.12 9  184 270 
 HEL  HZ I         849 25.38         2.7 0.24            114            184 270 
 GUY2CHZ EP        849  3.23                             111    0.71 9  198 237 
 GUY2CHE ES        849 26.06                             111    0.49 9  198 237 
 GUY2CHZ I         849 33.05         2.6 0.48                           198 237 
 OCA  HZ EP        849  6.15                             107   -0.12 8  233  15 
                                                                                
