 2016  2 6 0524  4.9 L   6.772 -73.259125.5  RSN  5 0.5 1.2LRSN                1
 GAP=179        0.71       5.4     8.8  7.7  0.1172E+02  0.2959E+02 -0.5768E+00E
 Epicentro: ZAPATOCA - SANTANDER                                               3
 ACTION:UPD 16-03-04 21:23 OP:rebc STATUS:               ID:20160206052404 L   I
 OLDACT:REG 16-02-06 13:19 OP:dnl  STATUS:               ID:20160206051745     3
 2016-02-06-0517-45M.COL___331                                                 6
 STAT SP IPHASW D HRMM SECON CODA AMPLIT PERI AZIMU VELO AIN AR TRES W  DIS CAZ7
 BAR2 EZ EP   2    524 22.57                             170    0.52 5 21.6 157 
 BAR2 EZ ES        524 35.33                             170   -0.1110 21.6 157 
 BAR2 EZ I         524 40.46         4.0 0.26            165           21.6 157 
 RUS  HZ EP   2    524 27.16                             139    0.56 5 99.2 169 
 RUS  HE ES   2    524 43.33                             139   -0.20 5 99.2 169 
 RUS  HZ I         524 46.85         1.9 0.26            144           99.2 169 
 PTB  HZ EP   2    524 29.64                             129    0.58 5  135 259 
 PTB  HN ES   2    524 48.15                             129    0.24 5  135 259 
 PTB  HZ I         524 57.86         2.5 0.24            127            135 259 
 SML  HZ EP   2    524 39.45                             113   -0.78 4  242 338 
 SML  HE ES   2    525  7.52                             113   -0.28 4  242 338 
 SML  HZ I         525 13.31         1.5 0.10            116            242 338 
 CHI  HZ EP   2    524 41.35                             113    0.47 4  243 192 
 CHI  HE ES   2    525  7.69                             113   -1.26 4  243 192 
 CHI  HZ I         525 12.88         1.1 0.38            117            243 192 
                                                                                
