 2016 12 6 0813 37.6 L   6.767 -73.140142.9  RSN  9 0.4 1.4LRSN                1
 GAP=121        0.97       3.4     3.9  5.4  0.2812E+01  0.3847E+01  0.6566E+01E
 Epicentro: LOS SANTOS - SANTANDER                                             3
 ACTION:UPD 17-01-11 20:12 OP:rebc STATUS:               ID:20161206081337 L   I
 OLDACT:REG 16-12-06 14:10 OP:ar   STATUS:               ID:20161206080739     3
 2016-12-06-0808-00M.COL___331                                                 6
 STAT SP IPHASW D HRMM SECON CODA AMPLIT PERI AZIMU VELO AIN AR TRES W  DIS CAZ7
 BAR2 EZ EP        813 56.88                             172    0.0710 19.9 194 
 BAR2 EZ ES        814 11.54                             172   -0.2610 19.9 194 
 BAR2 EZ I         814 13.44         8.2 0.21            171           19.9 194 
 BRR  HZ EP        813 58.77                             151    0.2110 73.5 301 
 BRR  HE ES        814 15.41                             151    0.4910 73.5 301 
 BRR  HZ I         814 19.02         5.4 0.25            151           73.5 301 
 PAM  EZ EP        813 59.92                             149    0.2710 79.8  38 
 PAM  EE ES        814 16.96                             149    0.1010 79.8  38 
 PAM  EZ I         814 20.03         2.6 0.23            152           79.8  38 
 RUS  HZ EP        814  1.07                             144    0.2810 96.9 176 
 RUS  HN ES        814 18.63                             144   -0.2610 96.9 176 
 RUS  HZ I         814 21.63         1.7 0.18            146           96.9 176 
 PTB  HZ EP        814  3.79                             131   -0.53 9  148 260 
 PTB  HN ES        814 24.83                             131   -0.34 9  148 260 
 PTB  HZ I         814 25.75         3.9 0.14            132            148 260 
 ZAR  HZ EP        814  9.55                             121   -0.50 8  206 293 
 ZAR  HE ES        814 35.03                             121   -0.34 8  206 293 
 ZAR  HZ I         814 42.69         3.0 0.14            122            206 293 
 CHI  HZ EP        814 15.13                             117    0.37 8  245 196 
 CHI  HN ES        814 44.40                             117    0.64 8  245 196 
 CHI  HZ I         814 47.58         1.0 0.08            118            245 196 
 PTGC HZ EP        814 20.45                             111   -0.45 7  305 159 
 PTGC HN ES        814 53.90                             111   -0.79 7  305 159 
 PRA  HZ EP        814 31.36                             106    0.69 6  389 210 
 PRA  HN ES        815 12.70                             106    0.62 6  389 210 
 PRA  HZ I         815 18.73         1.2 0.26            107            389 210 
                                                                                
