 2012  3 6 0918 46.5 L   6.765 -73.164138.4  RSN  7 0.4 1.6LRSN                1
 GAP=136        0.81       4.7     4.4  6.8 -0.9514E+00  0.9270E+01  0.2007E+01E
 ACTION:UP  12-03-31 23:17 OP:EP   STATUS:               ID:20120306091846 L   I
 2012-03-06-0916-48S.COL___157                                                 6
 STAT SP IPHASW D HRMM SECON CODA AMPLIT PERI AZIMU VELO SNR AR TRES W  DIS CAZ7
 BAR2 SZ EP   1    919  5.01                             172    -0.1 8   19 186 
 BAR2 SZ ES   1    919 19.93                             172     0.2 8   19 186 
 BAR2 SZ I         919 22.67        11.2 0.26                            19 186 
 BRR  HZ EP   1    919  7.18                             151     0.3 8   71 302 
 BRR  HN ES   1    919 23.36                             151     0.6 8   71 302 
 BRR  HZ I         919 25.11         8.9 0.14                            71 302 
 PAM  SZ EP   1    919  8.19                             148     0.0 8   82  39 
 PAM  SZ I         919  8.51         7.8 0.22                            82  39 
 PAM  SE ES   1    919 24.69                             148    -0.4 8   82  39 
 RUS  HN ES   1    919 26.96                             143     0.0 8   97 175 
 PTB  HZ EP   1    919 12.47                             131    -0.1 7  145 260 
 PTB  HN ES        919 32.41                             131    -0.610  145 260 
 PTB  HZ I         919 35.36                                            145 260 
 ZAR  HZ EP   1    919 18.17                             121    -0.2 7  204 293 
 ZAR  HN ES   1    919 43.63                             121     0.3 7  204 293 
 PRA  HZ EP   1    919 39.80                             105     0.6 5  388 210 
 PRA  HN ES   1    920 20.73                             105     0.3 5  388 210 
                                                                                
