 2012  1 6 0244 57.3 L   6.062 -73.272  7.6  RSN  9 0.3 1.6LRSN                1
 GAP=122        0.59       1.6     3.4  6.7  0.1029E+01  0.1687E+02 -0.6697E-01E
 Epicentro: GAMBITA - SANTANDER                                                3
 ACTION:UP  12-02-03 08:14 OP:REBC STATUS:               ID:20120106024457 L   I
 2012-01-06-0240-00M.COL___186                                                 6
 STAT SP IPHASW D HRMM SECON CODA AMPLIT PERI AZIMU VELO SNR AR TRES W  DIS CAZ7
 RUS  HZ IP        245  2.36                             100    -0.310   28 132 
 RUS  HN ES   1    245  7.02                             100     0.1 7   28 132 
 RUS  HZ I         245  8.42        29.6 0.33                            28 132 
 BAR2 SZ EP   1    245  7.24                              94     0.1 7   60  10 
 BAR2 SZ ES   2    245 14.77                              94    -0.1 5   60  10 
 BAR2 SZ I         245 20.44        20.3 0.38                            60  10 
 GIR2 SZ EP   2    245 15.44                              92     0.3 5  113   4 
 GIR2 SZ ES   2    245 29.20                              92     0.2 5  113   4 
 BRR  HZ EP   1    245 17.15                              92     0.3 7  125 337 
 BRR  HN ES   2    245 32.06                              92    -0.1 5  125 337 
 BRR  HZ I         245 42.55        10.4 0.16                           125 337 
 PTB  HZ EP   2    245 18.58                              92    -0.7 5  141 292 
 CHI  HZ EP   1    245 23.44                              91    -0.1 7  166 198 
 CHI  HZ I         245 25.06         6.9 0.43                           166 198 
 CHI  HN ES   1    245 44.46                              91     0.5 7  166 198 
 ZAR  HZ EP   2    245 31.98                              56     0.2 4  236 312 
 ZAR  HN ES   1    245 58.51                              56    -0.1 6  236 312 
 ZAR  HZ I         246  2.64         5.8 0.44                           236 312 
 HEL  HZ EP   1    245 33.76                              56    -0.2 6  250 273 
 HEL  HZ I         245 34.82         4.7 0.32                           250 273 
 RREF HN ES   2    246  5.93                              56    -0.1 4  263 241 
 RREF HZ I         246  7.92         5.2 0.36                           263 241 
                                                                                
