 2015  1 6 0010 49.8 L   6.829 -73.126139.9  RSN  7 0.5 1.8LRSN                1
 GAP=203        1.20       4.6     7.1 12.4  0.1197E+02 -0.1113E+02 -0.1532E+02E
 Epicentro: LOS SANTOS - SANTANDER                                             3
 ACTION:UPD 15-03-02 15:37 OP:nd   STATUS:               ID:20150106001049 L   I
 OLDACT:REG 15-01-06 13:40 OP:cam  STATUS:               ID:20150106000815     3
 2015-01-06-0008-15M.COL___274                                                 6
 STAT SP IPHASW D HRMM SECON CODA AMPLIT PERI AZIMU VELO AIN AR TRES W  DIS CAZ7
 RUS  HZ EP        011 12.97                             142   -0.2010  104 177 
 RUS  HN ES        011 31.67                             142    0.2410  104 177 
 RUS  HZ I         011 34.38         3.9 0.30            146            104 177 
 PTB  HZ EP        011 15.97                             130   -0.54 9  151 258 
 PTB  HN ES        011 36.58                             130   -0.80 9  151 258 
 PTB  HZ I         011 44.36         7.0 0.22            132            151 258 
 SPBC HZ EP        011 17.91                             127   -0.28 9  167 219 
 ZAR  HN ES        011 47.28                             121    0.28 9  205 291 
 NOR  HN ES        011 54.36                             117    0.89 8  238 234 
 NOR  HN I         011 59.24        14.9 0.14            120            238 234 
 SML  HZ EP        011 26.51                             116    0.67 8  242 335 
 SML  HN ES        011 54.11                             116    0.12 8  242 335 
 SML  HN I         012  0.08        11.7 0.30            120            242 335 
 CHI  HZ EP        011 27.03                             115   -0.51 8  252 195 
 CHI  HN ES        011 57.61                             115    0.60 8  252 195 
 CHI  HZ I         011 59.49         1.8 0.44            119            252 195 
                                                                                
