 2016  8 6 0558 53.2 L   6.771 -73.137146.5  RSN  7 0.4 1.3LRSN                1
 GAP=139        0.94       4.2     4.3  6.7 -0.2307E+01  0.7837E+01 -0.1357E+00E
 Epicentro: LOS SANTOS - SANTANDER                                             3
 ACTION:UPD 16-10-29 15:32 OP:rebc STATUS:               ID:20160806055853 L   I
 OLDACT:REG 16-08-06 13:01 OP:edw  STATUS:               ID:20160806055740     3
 2016-08-06-0558-00M.COL___359                                                 6
 STAT SP IPHASW D HRMM SECON CODA AMPLIT PERI AZIMU VELO AIN AR TRES W  DIS CAZ7
 BAR2 EZ EP        559 12.47                             172   -0.3510 20.4 194 
 BAR2 HN ES        559 27.73                             172   -0.4310 20.4 194 
 BAR2 EZ I         559 28.69         5.7 0.44                          20.4 194 
 BRR  HZ EP        559 14.87                             152    0.3410 73.6 300 
 BRR  HE ES        559 31.80                             152    0.6110 73.6 300 
 BRR  HZ I         559 33.15         3.7 0.60                          73.6 300 
 PAM  EZ EP        559 15.86                             150    0.2910 79.3  38 
 PAM  EE ES        559 32.86                             150   -0.1910 79.3  38 
 PAM  EZ I         559 34.95         3.3 0.60                          79.3  38 
 RUS  HN ES        559 35.31                             145    0.1610 97.3 176 
 RUS  HZ I         559 36.16         1.8 0.20                          97.3 176 
 PTB  HZ EP        559 19.61                             132   -0.61 9  148 260 
 PTB  HE ES        559 41.06                             132   -0.27 9  148 260 
 PTB  HZ I         559 44.33         1.7 0.52                           148 260 
 SPBC HZ EP        559 21.79                             130    0.25 9  161 220 
 SPBC HN ES        559 43.93                             130    0.26 9  161 220 
 SPBC HZ I         559 48.66         3.3 0.14                           161 220 
 ZAR  HN ES        559 51.27                             122   -0.12 8  206 293 
 ZAR  HZ I         559 57.62         1.7 0.34                           206 293 
                                                                                
