 2010 10 6 0943 32.9 L   6.302 -73.461118.2  RSN  6 0.4 1.6LRSN                1
 GAP=146        0.81       5.0     8.1 10.7 -0.1080E+02  0.2870E+02  0.1873E+02E
 Epicentro: CONTRATACION - SANTANDER                                           3
 ACTION:UP  11-02-18 11:08 OP:tino STATUS:               ID:20101006094332 L   I
 2010-10-06-0939-51S.COL___121                                                 6
 STAT SP IPHASW D HRMM SECON CODA AMPLIT PERI AZIMU VELO SNR AR TRES W  DIS CAZ7
 BAR2 SZ EP   2    943 50.23                             158     0.3 5   44  44 
 BAR2 SZ ES   2    944  3.52                             158     0.3 5   44  44 
 BAR2 SZ I         944  5.39        21.5 0.34                            44  44 
 BRR  HZ IP     D  943 52.36                             139    -0.410   93 343 
 BRR  HE ES   1    944  8.08                             139    -0.2 7   93 343 
 BRR  HZ I         944  9.26         8.0 0.07                            93 343 
 CHI  HZ EP   2    944  2.27                             118    -0.1 4  187 189 
 CHI  HE ES   2    944 25.08                             118    -0.3 4  187 189 
 CHI  HZ I         944 30.48         2.5 0.34                           187 189 
 OCA  SZ EP   2    944  5.18                             114     0.1 4  215   4 
 OCA  SZ I         944  7.38         3.9 0.51                           215   4 
 OCA  SZ ES   2    944 30.91                             114     0.8 4  215   4 
 HEL  HZ EP   2    944  6.10                             112    -0.8 4  229 267 
 HEL  HN ES   2    944 34.15                             112     0.6 4  229 267 
 HEL  HZ I         944 35.92         2.3 0.28                           229 267 
 RREF HZ IP     C  944 11.34                             110     0.5 8  260 234 
 RREF HE ES   2    944 40.38                             110     0.0 4  260 234 
 RREF HZ I         944 44.77         4.0 0.24                           260 234 
                                                                                
