 2013  9 6 0432 41.5 L   6.741 -73.196153.2  RSN  4 0.4 1.1LRSN                1
 GAP=198        0.88       7.9    11.0  8.4  0.2181E+02  0.8434E+00 -0.1661E+02E
 Epicentro: VILLANUEVA - SANTANDER                                             3
 ACTION:UPD 13-10-22 09:20 OP:ep   STATUS:               ID:20130906043241 L   I
 OLDACT:UP  13-09-06 09:28 OP:cam  STATUS:               ID:20130906042959     3
 OLDACT:UP  13-09-06 09:28 OP:cam  STATUS:               ID:20130906042959     3
 OLDACT:REG 13-09-06 08:11 OP:cam  STATUS:               ID:20130906042959     3
 2013-09-06-0429-59M.COL___269                                                 6
 STAT SP IPHASW D HRMM SECON CODA AMPLIT PERI AZIMU VELO AIN AR TRES W  DIS CAZ7
 BAR2 SZ EP   1    433  1.36                             173   -0.52 7 16.5 175 
 BAR2 SZ ES   1    433 18.44                             173    0.63 7 16.5 175 
 BRR  HZ EP        433  3.19                             154   -0.1710 69.9 305 
 BRR  HN ES        433 20.10                             154   -0.3310 69.9 305 
 BRR  HZ I         433 24.87         2.8 0.38            153           69.9 305 
 PTB  HZ EP   1    433  9.15                             135    0.68 7  141 261 
 PTB  HN ES   2    433 29.27                             135   -0.26 5  141 261 
 PTB  HZ I         433 31.31         1.5 0.20            136            141 261 
 SML  HZ EP   1    433 18.85                             118   -0.07 6  247 337 
 SML  HN ES   1    433 48.64                             118    0.51 6  247 337 
                                                                                
