 2011  2 6 0113 22.8 L   6.780 -73.132145.6  RSN  5 0.2 1.5LRSN                1
 GAP=160        0.46       2.7    14.6  7.7 -0.1557E+02  0.5508E+02 -0.4048E+01E
 Epicentro: LOS SANTOS - SANTANDER                                             3
 ACTION:UP  11-03-28 15:06 OP:jfem STATUS:               ID:20110206011322 L   I
 2011-02-06-0109-40S.COL___138                                                 6
 STAT SP IPHASW D HRMM SECON CODA AMPLIT PERI AZIMU VELO SNR AR TRES W  DIS CAZ7
 BTL  SZ EP   1    113 42.62                             171     0.2 7   21 316 
 RUS  HZ EP   1    113 46.53                             144     0.2 7   98 177 
 RUS  HN ES   1    114  4.78                             144     0.0 7   98 177 
 RUS  HZ I         114  6.69         4.3 0.35                            98 177 
 GRA  SZ EP   2    113 48.07                             137    -0.1 5  127  17 
 GRA  SZ ES   2    114  7.56                             137    -0.4 5  127  17 
 GRA  SZ I         114 10.59         4.4 0.40                           127  17 
 OCA  SZ EP   2    113 51.50                             129     0.2 5  163 353 
 OCA  SZ ES   2    114 13.51                             129    -0.1 5  163 353 
 OCA  SZ I         114 17.72         5.3 0.12                           163 353 
 CHI  HZ EP   1    114  0.14                             117    -0.2 6  247 196 
 CHI  HN ES   2    114 29.09                             117    -0.5 4  247 196 
 CHI  HZ I         114 35.28         1.8 0.32                           247 196 
                                                                                
