 2015  1 6 0713 36.2 L   6.798 -73.150150.8  RSN 16 0.5 2.2LRSN                1
 GAP=112        1.15       3.0     3.4  5.7  0.7197E+00  0.1848E+01  0.2276E+00E
 Epicentro: LOS SANTOS - SANTANDER                                             3
 ACTION:UPD 15-03-02 15:37 OP:nd   STATUS:               ID:20150106071336 L   I
 OLDACT:UP  15-01-06 16:56 OP:cam  STATUS:               ID:20150106070811     3
 OLDACT:UP  15-01-06 16:52 OP:cam  STATUS:               ID:20150106070811     3
 OLDACT:UP  15-01-06 16:52 OP:cam  STATUS:               ID:20150106070811     3
 OLDACT:REG 15-01-06 14:18 OP:cam  STATUS:               ID:20150106070811     3
 2015-01-06-0708-11M.COL___274                                                 6
 STAT SP IPHASW D HRMM SECON CODA AMPLIT PERI AZIMU VELO AIN AR TRES W  DIS CAZ7
 BAR2 EZ EP     C  713 56.44                             171    0.0310 23.0 189 
 BAR2 EZ ES        714 12.09                             171   -0.0910 23.0 189 
 BAR2 EZ I         714 14.73        26.8 0.36            170           23.0 189 
 BRR  HZ IP     C  713 58.27                             154    0.4110 70.9 299 
 BRR  HN ES        714 15.17                             154    0.4010 70.9 299 
 BRR  HZ I         714 20.58        19.1 0.12            152           70.9 299 
 RUS  HZ EP        714  0.28                             145   -0.1310  100 176 
 RUS  HN ES        714 19.30                             145   -0.0110  100 176 
 RUS  HZ I         714 19.78        16.8 0.20            147            100 176 
 PTB  HZ EP        714  2.97                             133   -0.55 9  147 259 
 PTB  HN ES        714 24.32                             133   -0.52 9  147 259 
 PTB  HZ I         714 27.28        22.6 0.18            133            147 259 
 TAM  HZ EP        714  4.56                             132    0.27 9  155 105 
 TAM  HN ES        714 26.52                             132    0.30 9  155 105 
 TAM  HN I         714 30.69        16.4 0.36            135            155 105 
 OCA  HZ EP        714  4.82                             131   -0.08 9  160 353 
 OCA  HN ES        714 27.50                             131    0.19 9  160 353 
 OCA  HZ I         714 30.30        19.1 0.22            132            160 353 
 SPBC HZ EP        714  5.27                             130    0.24 9  163 219 
 SPBC HN ES        714 27.51                             130   -0.01 9  163 219 
 SPBC HZ I         714 33.30        29.5 0.28            131            163 219 
 ZAR  HZ EP        714  8.99                             124    0.06 9  204 292 
 ZAR  HN ES        714 34.87                             124    0.40 9  204 292 
 ZAR  HN I         714 40.44        35.1 0.16            124            204 292 
 NOR  HZ EP        714 12.54                             120    0.38 8  234 234 
 NOR  HN ES        714 39.32                             120   -0.89 8  234 234 
 NOR  HZ I         714 45.84        13.4 0.24            120            234 234 
 SML  HZ EP        714 12.85                             118   -0.25 8  244 335 
 SML  HN ES        714 40.58                             118   -1.31 8  244 335 
 SML  HZ I         714 44.01        18.8 0.28            120            244 335 
 CHI  HZ EP        714 13.79                             118   -0.34 8  248 195 
 CHI  HN ES        714 43.54                             118   -0.18 8  248 195 
 CHI  HZ I         714 53.42         4.8 0.34            119            248 195 
 HEL  HZ EP        714 17.93                             116    1.33 8  272 256 
 HEL  HN ES        714 48.80                             116    0.67 8  272 256 
 HEL  HZ I         714 55.29         9.3 0.34            116            272 256 
 PTGC HZ EP        714 19.54                             112   -0.72 7  309 159 
 PTGC HN ES   4    714 52.23                             112   -2.41 0  309 159 
 PTGC HZ I         714 53.78         7.8 0.30            114            309 159 
 DBB  SZ EP   4    714 24.80                             110    0.98 0  339 274 
 MON  HZ EP   4    714 23.68                             109   -1.68 0  353 308 
 MON  HN ES   4    715  2.33                             109   -1.39 0  353 308 
 MON  HZ I         715 17.37         4.2 0.56            110            353 308 
 PAL  HZ EP        714 31.73                             107    0.27 6  405 239 
 SJC  HZ EP   4    714 30.40                             106   -1.51 0  409 327 
 SJC  HN ES   4    715 12.15                             106   -3.23 0  409 327 
 SJC  HZ I         715 19.79         2.3 0.58            107            409 327 
                                                                                
