 2011  2 6 0531 48.6 L   6.768 -73.105142.9  RSN  6 0.3 1.3LRSN                1
 GAP=164        0.66       4.9    14.6  7.5 -0.4364E+02  0.3114E+02 -0.4951E+01E
 Epicentro: LOS SANTOS - SANTANDER                                             3
 ACTION:UP  11-03-28 15:06 OP:jfem STATUS:               ID:20110206053148 L   I
 2011-02-06-0528-15S.COL___138                                                 6
 STAT SP IPHASW D HRMM SECON CODA AMPLIT PERI AZIMU VELO SNR AR TRES W  DIS CAZ7
 BAR2 SZ EP   1    532  7.27                             171    -0.6 7   21 204 
 BAR2 SZ ES   1    532 22.99                             171     0.1 7   21 204 
 BAR2 SZ I         532 23.54         4.4 0.20                            21 204 
 BTL  SZ EP        532  7.70                             170    -0.210   25 313 
 RUS  HZ EP   1    532 12.00                             144     0.2 7   97 179 
 RUS  HN ES   2    532 30.15                             144     0.3 5   97 179 
 RUS  HZ I         532 32.14         2.6 0.14                            97 179 
 GRA  SZ EP   1    532 13.97                             136     0.2 7  128  15 
 GRA  SZ ES   1    532 33.51                             136     0.1 7  128  15 
 GRA  SZ I         532 35.05         2.8 0.31                           128  15 
 CHI  HZ EP   2    532 26.18                             117     0.3 4  246 196 
 CHI  HE ES   2    532 54.86                             117    -0.1 4  246 196 
 CHI  HZ I         533  0.57         1.4 0.26                           246 196 
 HEL  HZ EP   2    532 29.69                             114     0.6 4  276 257 
 HEL  HZ I         533  5.31         1.7 0.42                           276 257 
                                                                                
