 2010  6 6 0945 15.0 L   5.736 -73.881104.0  RSN  9 0.3 2.1LRSN                1
 GAP=133        0.64       3.3     4.2  8.9 -0.8780E+01  0.1525E+02 -0.1781E+02E
 Epicentro: ALBANIA - SANTANDER                                                3
 ACTION:UP  10-08-24 10:08 OP:vdl  STATUS:               ID:20100606094515 L   I
 2010-06-06-0942-18S.COL___111                                                 6
 STAT SP IPHASW D HRMM SECON CODA AMPLIT PERI AZIMU VELO SNR AR TRES W  DIS CAZ7
 ROSC BZ EP   2    945 35.80                             130     0.1 6  110 206 
 ROSC BE ES   1    945 51.91                             130     0.1 9  110 206 
 ROSC BZ I         945 55.55        23.3 0.52                           110 206 
 BAR2 SZ EP   1    945 36.64                             127     0.0 9  122  39 
 BAR2 SZ ES   1    945 53.65                             127     0.2 9  122  39 
 CHI  HZ EP   2    945 36.79                             126    -0.2 6  123 172 
 CHI  HN ES   1    945 53.95                             126    -0.2 9  123 172 
 CHI  HZ I         945 58.97        17.2 0.36                           123 172 
 GIR2 SZ EP   2    945 41.43                             117     0.3 6  167  27 
 RREF BZ EP   2    945 43.65                             114    -0.3 6  187 240 
 RREF BE ES   2    946  6.53                             114    -0.1 6  187 240 
 RREF BZ I         946  9.01        19.6 0.36                           187 240 
 HEL  HZ EP   1    945 43.83                             114    -0.1 8  189 286 
 HEL  HN ES   2    946  5.94                             114    -0.5 6  189 286 
 HEL  HZ I         946  8.31         9.6 0.24                           189 286 
 TOL  SZ EP   1    945 46.21                             112     0.7 8  204 232 
 GUE  SZ IP        945 50.89                             106    -0.410  255  24 
 GUE  SZ ES   2    946 19.09                             106    -0.6 5  255  24 
 OCA  SZ EP   1    945 54.50                             104    -0.1 7  284  13 
 OCA  SZ ES   1    946 26.07                             104     0.6 7  284  13 
 OCA  SZ I         946 34.12        11.8 0.48                           284  13 
                                                                                
