 2010  9 6 0832 49.5 L   6.784 -73.296122.0  RSN  4 0.2 1.1LRSN                1
 GAP=158        0.49       8.7     7.6  6.0 -0.1753E+01 -0.4723E+01 -0.2760E+02E
 Epicentro: ZAPATOCA - SANTANDER                                               3
 ACTION:UP  11-02-18 11:00 OP:tino STATUS:               ID:20100906083249 L   I
 2010-09-06-0829-57S.COL___119                                                 6
 STAT SP IPHASW D HRMM SECON CODA AMPLIT PERI AZIMU VELO SNR AR TRES W  DIS CAZ7
 BTL  SZ EP        833  6.31                             172     0.210   15  12 
 BTL  SZ ES   1    833 19.29                             172     0.2 7   15  12 
 BAR2 SZ EP   3    833  6.51                             168     0.2 2   25 150 
 BAR2 SZ ES   2    833 18.89                             168    -0.5 5   25 150 
 BRR  HZ EP        833  7.24                             153    -0.110   58 308 
 BRR  HZ I         833  7.40         3.3 0.06                            58 308 
 BRR  HE ES   2    833 21.29                             153     0.0 5   58 308 
 GUE  SZ EP        833 12.56                             132    -0.110  123  19 
                                                                                
