 2017  4 6 0748 45.3 L   6.766 -73.155145.4  RSN  7 0.4 1.6LRSN                1
 GAP=137        0.96       4.0     4.1  6.1 -0.5591E+00  0.6321E+01  0.1122E+00E
 Epicentro: LOS SANTOS - SANTANDER                                             3
 ACTION:UPD 17-05-30 21:09 OP:jn   STATUS:               ID:20170406074845 L   I
 OLDACT:REG 17-04-06 13:07 OP:cara STATUS:               ID:20170406074740     3
 2017-04-06-0748-00M.COL___357                                                 6
 STAT SP IPHASW D HRMM SECON CODA AMPLIT PERI AZIMU VELO AIN AR TRES W  DIS CAZ7
 BAR2 EZ EP     D  749  4.96                             172    0.2010 19.4 189 
 BAR2 EZ ES        749 20.07                             172    0.1010 19.4 189 
 BAR2 EZ I         749 23.27         7.5 0.22            170           19.4 189 
 BRR  HZ EP        749  6.93                             152    0.5210 72.2 302 
 BRR  HN ES        749 23.42                             152    0.5010 72.2 302 
 BRR  HZ I         749 27.32         5.8 0.30            151           72.2 302 
 PAM  EZ EP        749  7.80                             150    0.1610 81.0  38 
 PAM  EN ES        749 24.73                             150   -0.3710 81.0  38 
 PAM  EZ I         749 26.87         3.1 0.58            156           81.0  38 
 RUS  HZ EP        749  8.48                             145   -0.2110 96.9 175 
 RUS  HN ES        749 26.53                             145   -0.4510 96.9 175 
 RUS  HZ I         749 28.73         3.1 0.28            148           96.9 175 
 PTB  HZ EP        749 11.56                             132   -0.47 9  146 260 
 PTB  HN ES        749 32.46                             132   -0.46 9  146 260 
 PTB  HZ I         749 38.91         4.8 0.28            133            146 260 
 SPBC HZ EP        749 13.72                             130    0.34 9  160 220 
 SPBC HN ES        749 35.79                             130    0.47 9  160 220 
 SPBC HZ I         749 42.75         9.9 0.34            131            160 220 
 ZAR  HZ EP        749 17.53                             122   -0.19 9  205 293 
 ZAR  HN ES        749 42.81                             122   -0.24 9  205 293 
 ZAR  HZ I         749 49.39         6.9 0.52            124            205 293 
                                                                                
