 2016  3 6 0743 31.9 L   6.831 -73.266136.5  RSN  4 0.2 1.5LRSN                1
 GAP=152        0.45       2.5     2.4  4.6 -0.2568E+01  0.2939E+01 -0.2388E+00E
 Epicentro: ZAPATOCA - SANTANDER                                               3
 ACTION:UPD 16-05-13 21:21 OP:cam  STATUS:               ID:20160306074331 L   I
 OLDACT:UP  16-03-06 15:50 OP:ar   STATUS:               ID:20160306073749     3
 OLDACT:REG 16-03-06 13:14 OP:ar   STATUS:               ID:20160306073749     3
 2016-03-06-0737-49M.COL___324                                                 6
 STAT SP IPHASW D HRMM SECON CODA AMPLIT PERI AZIMU VELO AIN AR TRES W  DIS CAZ7
 PAM  EZ EP        743 53.73                             147    0.1210 84.2  48 
 PAM  EN ES        744 10.53                             147    0.0110 84.2  48 
 PAM  EZ I         744 12.43         5.0 0.48            152           84.2  48 
 RUS  HZ EP        743 55.21                             140    0.0310  106 169 
 RUS  HN ES        744 13.15                             140   -0.1710  106 169 
 RUS  HZ I         744 13.89         4.4 0.26            144            106 169 
 PTB  HZ EP        743 56.98                             132   -0.05 9  135 256 
 PTB  HN ES        744 16.51                             132   -0.10 9  135 256 
 PTB  HZ I         744 20.36         4.3 0.16            134            135 256 
 SPBC HZ EP        743 59.08                             128   -0.15 9  158 214 
 SPBC HN ES        744 20.86                             128    0.34 9  158 214 
 SPBC HZ I         744 25.62         4.2 0.22            130            158 214 
                                                                                
