 2015  2 6 0133 19.3 L   6.471 -73.682119.0  RSN 12 0.4 2.0LRSN                1
 GAP= 58        0.96       2.3     2.6  5.6 -0.7483E+00  0.2493E+01 -0.4673E+00E
 Epicentro: SANTA HELENA DEL OPON - SANTANDER                                  3
 ACTION:UPD 15-04-30 21:22 OP:nd   STATUS:               ID:20150206013319 L   I
 OLDACT:UP  15-02-06 14:04 OP:cam  STATUS:               ID:20150206012745     3
 OLDACT:REG 15-02-06 12:31 OP:cam  STATUS:               ID:20150206012745     3
 2015-02-06-0127-45M.COL___290                                                 6
 STAT SP IPHASW D HRMM SECON CODA AMPLIT PERI AZIMU VELO AIN AR TRES W  DIS CAZ7
 BAR2 EZ EP     C  133 37.20                             153    0.1310 56.8  76 
 BAR2 EZ ES        133 50.88                             153   -0.0610 56.8  76 
 BAR2 EZ I         133 52.32        44.1 0.26            156           56.8  76 
 BRR  HZ IP     C  133 37.69                             147    0.1410 70.4 357 
 BRR  HN ES        133 52.42                             147    0.6210 70.4 357 
 BRR  HZ I         133 53.86        32.8 0.12            147           70.4 357 
 PTB  HZ EP        133 38.35                             141   -0.3410 86.0 275 
 PTB  HN ES        133 53.49                             141   -0.3310 86.0 275 
 PTB  HZ I         133 55.07        33.2 0.16            140           86.0 275 
 RUS  HZ EP     C  133 39.56                             140   -0.2610 92.1 134 
 RUS  HE ES        133 55.23                             140   -0.6110 92.1 134 
 RUS  HZ I         133 56.24         9.3 0.16            142           92.1 134 
 SPBC HZ EP        133 39.80                             137   -0.1310  100 206 
 SPBC HE ES        133 56.38                             137    0.3410  100 206 
 SPBC HZ I         133 58.26        36.9 0.24            137            100 206 
 PAM  SZ EP        133 44.56                             126    0.01 9  145  48 
 PAM  SN ES        134  4.18                             126   -0.08 9  145  48 
 PAM  SZ I         134  6.04        11.1 0.22            128            145  48 
 ZAR  HE ES        134  8.06                             120   -0.04 9  172 311 
 ZAR  HZ I         134 14.98        19.8 0.36            120            172 311 
 OCA  HZ EP        133 49.90                             116    0.07 9  200  12 
 OCA  HN ES        134 13.96                             116    0.31 9  200  12 
 OCA  HZ I         134 15.91        16.7 0.30            117            200  12 
 CHI  HZ EP        133 50.93                             116    0.31 9  204 182 
 CHI  HN ES        134 15.21                             116    0.15 9  204 182 
 CHI  HZ I         134 19.93         3.8 0.28            117            204 182 
 HEL  HZ EP   4    133 52.23                             116    1.34 0  207 261 
 HEL  HN ES        134 14.84                             116   -0.71 8  207 261 
 HEL  HZ I         134 23.43         4.9 0.30            116            207 261 
 GUY2CHZ EP   4    133 55.57                             113    1.74 0  232 234 
 GUY2CHN ES        134 21.77                             113    1.00 8  232 234 
 GUY2CHZ I         134 29.96         4.4 0.32                           232 234 
 MON  HZ EP   4    134  4.42                             104   -0.89 0  336 320 
 MON  HN ES        134 40.84                             104   -0.36 7  336 320 
 MON  HZ I         134 41.49         3.1 0.26            105            336 320 
                                                                                
