 2013  3 6 0826 26.1 L   6.734 -73.196159.1  RSN  5 0.2 1.6LRSN                1
 GAP=195        0.50       3.2     4.1  4.6  0.4626E+01 -0.3573E+01 -0.4785E+01E
 Epicentro: VILLANUEVA - SANTANDER                                             3
 ACTION:UPD 13-04-09 14:00 OP:ep   STATUS:               ID:20130306082626 L   I
 2013-03-06-0820-00M.COL___228                                                 6
 STAT SP IPHASW D HRMM SECON CODA AMPLIT PERI AZIMU VELO AIN AR TRES W  DIS CAZ7
 BRR  HZ EP        826 49.01                             155    0.3510 70.3 306 
 BRR  HN ES        827  6.40                             155    0.1410 70.3 306 
 BRR  HE I         827  7.17        14.8 0.32            148           70.3 306 
 RUS  HZ EP   1    826 50.76                             148    0.01 7 93.9 172 
 RUS  HE ES   1    827  9.66                             148   -0.31 7 93.9 172 
 RUS  HE I         827 11.54         3.6 0.22            145           93.9 172 
 PTB  HZ EP        826 53.69                             136    0.08 9  141 261 
 PTB  HN ES        827 14.99                             136   -0.08 9  141 261 
 PTB  HZ I         827 22.30         5.1 0.31            130            141 261 
 ZAR  HZ EP   1    826 59.27                             126    0.04 6  202 295 
 ZAR  HE ES   1    827 24.85                             126   -0.21 6  202 295 
 ZAR  HZ I         827 33.96         3.1 0.33            122            202 295 
 SML  HZ EP        827  3.69                             120   -0.29 8  248 337 
 SML  HE ES   1    827 33.31                             120   -0.21 6  248 337 
                                                                                
