 2011 10 6 0616 39.3 L   6.781 -73.067137.4  RSN  4 0.2 1.4LRSN                1
 GAP=204        0.46       5.1    11.4  5.5  0.3814E+02 -0.1230E+02 -0.5323E+01E
 Epicentro: LOS SANTOS - SANTANDER                                             3
 ACTION:UPD 12-07-13 16:02 OP:ep   STATUS:               ID:20111006061639 L   I
 2011-10-06-0600-00M.COL___171                                                 6
 STAT SP IPHASW D HRMM SECON CODA AMPLIT PERI AZIMU VELO AIN AR TRES W  DIS CAZ7
 BAR2 SZ EP   1    616 58.08                             169    0.11 7 24.5 211 
 BAR2 SZ ES   1    617 12.10                             169   -0.42 7 24.5 211 
 BAR2 SZ I         617 14.34        11.9 0.24                          24.5 211 
 GIR2 SZ EP   1    616 58.19                             165    0.05 7 35.7 337 
 GIR2 SZ ES   2    617 13.13                             165    0.32 5 35.7 337 
 BRR  HZ EP   1    616 59.98                             148   -0.13 7 79.8 297 
 BRR  HZ I         617  3.64         4.3 0.17                          79.8 297 
 BRR  HE ES   2    617 16.52                             148    0.20 5 79.8 297 
 RUS  HZ EP   1    617  2.03                             143   -0.06 7 98.3 181 
 RUS  HN ES   1    617 20.07                             143    0.22 7 98.3 181 
 RUS  HZ I         617 21.66         2.5 0.22                          98.3 181 
                                                                                
