 2011 11 6 0809 46.0 L   6.763 -73.108145.7  RSN  5 0.3 1.8LRSN                1
 GAP=143        0.54       3.1     5.6  5.2 -0.3120E+01  0.5451E+01  0.6186E+00E
 Epicentro: LOS SANTOS - SANTANDER                                             3
 ACTION:UPD 12-07-13 16:08 OP:ep   STATUS:               ID:20111106080946 L   I
 2011-11-06-0807-36S.COL___175                                                 6
 STAT SP IPHASW D HRMM SECON CODA AMPLIT PERI AZIMU VELO AIN AR TRES W  DIS CAZ7
 BAR2 SZ EP        810  5.37                             172   -0.2210 20.6 204 
 BAR2 SZ ES   1    810 20.69                             172   -0.16 7 20.6 204 
 BAR2 SZ I         810 23.49        21.2 0.38                          20.6 204 
 BRR  HZ EP        810  7.37                             151   -0.1210 76.9 300 
 BRR  HE ES   2    810 24.36                             151    0.13 5 76.9 300 
 BRR  HZ I         810 26.80        13.8 0.11                          76.9 300 
 PAM  SZ EP        810  8.40                             151    0.1310 78.1  35 
 PAM  SN ES        810 25.50                             151   -0.1210 78.1  35 
 RUS  HZ EP        810  9.48                             145    0.0210 96.3 178 
 RUS  HN ES   1    810 28.11                             145    0.37 7 96.3 178 
 RUS  HZ I         810 29.51         7.9 0.39                          96.3 178 
 OCA  SZ ES   2    810 37.94                             129    0.77 5  165 352 
                                                                                
