 2011  7 6 0223  0.4 L   6.796 -73.126144.4  RSN 25 0.4 3.9LRSN                1
 GAP=123        0.74       2.3     3.7  3.8 -0.3687E+01  0.2904E+01  0.1976E+01E
 Epicentro: LOS SANTOS - SANTANDER                                             3
 ACTION:UPD 12-07-25 13:58 OP:epov STATUS:               ID:20110706022300 L   I
 2011-07-06-0221-23S.COL___123                                                 6
 STAT SP IPHASW D HRMM SECON CODA AMPLIT PERI AZIMU VELO AIN AR TRES W  DIS CAZ7
 BAR2 SZ IP     D  223 20.04                             170    0.1710 23.4 196 
 BAR2 SZ ES   1    223 34.62                             170   -0.44 7 23.4 196 
 BAR2 SZ I         223 38.22      1449.4 0.23                          23.4 196 
 GIR2 SZ IP     D  223 20.19                             167    0.2510 32.2 347 
 GIR2 SZ ES   1    223 35.11                             167   -0.07 7 32.2 347 
 BRR  HZ IP     C  223 21.84                             151    0.3110 73.4 298 
 BRR  HN ES   1    223 38.55                             151    0.54 7 73.4 298 
 BRR  HZ I         223 42.17      1778.1 0.50                          73.4 298 
 PAM  SZ IP     D  223 22.78                             151    0.3710 76.3  38 
 PAM  SN ES   1    223 39.46                             151   -0.12 7 76.3  38 
 PAM  SZ I         223 42.10       701.6 0.48                          76.3  38 
 RUS  HZ EP        223 24.00                             144    0.0210  100 177 
 RUS  HN ES   1    223 42.18                             144   -0.19 7  100 177 
 RUS  HZ I         223 44.66      1438.3 0.33                           100 177 
 BRI  SZ IP     C  223 24.50                             141    0.3610  108  20 
 BRI  SZ ES   1    223 41.99                             141   -0.66 7  108  20 
 BRI  SZ I         223 47.75       906.6 0.60                           108  20 
 GRA  SZ EP        223 25.77                             137    0.2610  126  16 
 GRA  SZ ES        223 44.91                             137   -0.1810  126  16 
 GRA  SZ I         223 48.15      1713.5 0.37                           126  16 
 OCA  SZ EP        223 28.47                             129   -0.20 9  161 352 
 OCA  SZ ES   1    223 50.21                             129   -0.52 7  161 352 
 OCA  SZ I         223 53.66      1323.5 0.26                           161 352 
 NOR  SZ EP   1    223 35.56                             118   -0.66 6  236 235 
 NOR  SN ES   1    224  3.63                             118   -0.53 6  236 235 
 CHI  HZ EP   1    223 38.19                             117    0.15 6  249 196 
 CHI  HN ES   1    224  7.22                             117   -0.18 6  249 196 
 CHI  HZ I         224 15.06       550.7 0.42                           249 196 
 ROSC BZ EP   1    223 39.48                             116    0.95 6  254 212 
 ROSC BN ES   1    224  9.04                             116    0.77 6  254 212 
 ROSC BZ I         224 14.70      1333.3 0.47                           254 212 
 HEL  HZ EP   1    223 40.11                             114   -0.66 6  274 256 
 HEL  HN ES   1    224 12.25                             114   -0.01 6  274 256 
 HEL  HZ I         224 19.25      1151.7 0.49                           274 256 
 VIL  SZ EP   1    223 43.28                             112   -0.48 5  303 192 
 VIL  SE ES   1    224 17.29                             112   -0.29 5  303 192 
 VIL  SZ I         224 27.94       509.8 0.40                           303 192 
 GUY  SZ EP   1    223 44.24                             112   -0.15 5  305 235 
 GUY  SZ I         224 25.79       673.2 0.37                           305 235 
 DBB  SZ EP        223 48.07                             109   -0.01 7  342 274 
 DBB  SZ I         224 33.80       143.7 0.45                           342 274 
 TOL  SZ EP        223 49.13                             109    0.39 7  345 225 
 SDV  BZ EP   1    223 49.50                             108   -0.72 5  359  50 
 PRA  HZ EP   1    223 53.60                             106   -0.36 4  393 210 
 PRA  HN ES   1    224 35.30                             106   -0.43 4  393 210 
 SJA  SZ EP   1    223 54.20                             106   -0.72 4  400 193 
 GUA  SZ EP   1    224  3.23                             103   -0.20 4  473 173 
 SOL  SZ EP   2    224  3.26                             103   -0.69 2  478 263 
 MAL  SZ EP   2    224 14.54                             100    0.91 2  559 237 
 PCON HZ EP   1    224 21.43                              99    0.57 2  613 216 
 PCON HZ I         224 22.25        47.5 0.30                           613 216 
 POP2 HZ EP   1    224 19.64                              99   -0.88 2  614 220 
 SOTA HZ EP   1    224 25.14                              98    0.62 2  644 217 
                                                                                
