 2012 12 6 0356 54.4 L   6.816 -73.171149.8  RSN  9 0.4 1.7LRSN                1
 GAP=133        0.70       3.0     4.2  5.5 -0.2121E+00  0.8631E+01  0.4783E+00E
 Epicentro: LOS SANTOS - SANTANDER                                             3
 ACTION:UPD 13-01-04 14:26 OP:ep   STATUS:               ID:20121206035654 L   I
 2012-12-06-0350-00M.COL___236                                                 6
 STAT SP IPHASW D HRMM SECON CODA AMPLIT PERI AZIMU VELO AIN AR TRES W  DIS CAZ7
 BAR2 SZ EP   1    357 14.36                             170   -0.16 8 24.7 183 
 BAR2 SZ ES   1    357 30.42                             170    0.18 8 24.7 183 
 BAR2 SZ I         357 31.62         8.8 0.26                          24.7 183 
 GIR2 SZ EP   1    357 14.63                             168    0.15 8 29.2 355 
 GIR2 SZ ES   1    357 30.54                             168    0.38 8 29.2 355 
 GIR2 SZ I         357 31.66         5.6 0.50                          29.2 355 
 PAM  SZ EP   1    357 17.48                             151    0.43 8 77.9  42 
 PAM  SN ES   1    357 34.91                             151    0.17 8 77.9  42 
 PAM  SZ I         357 36.94         6.5 0.44                          77.9  42 
 RUS  HZ EP   1    357 18.35                             144   -0.31 8  103 175 
 RUS  HN ES   1    357 37.19                             144   -0.42 8  103 175 
 RUS  HZ I         357 39.40         3.4 0.22                           103 175 
 PTB  HZ EP        357 21.27                             133   -0.2010  145 258 
 PTB  HN ES   1    357 42.47                             133   -0.13 7  145 258 
 PTB  HZ I         357 48.25         9.7 0.52                           145 258 
 OCA  HE ES   1    357 44.10                             131   -0.90 7  158 354 
 OCA  HZ I         357 50.32         3.6 0.14                           158 354 
 ZAR  HE ES   1    357 52.34                             124    0.32 7  201 292 
 ZAR  HZ I         357 58.26         6.7 0.26                           201 292 
 SML  HZ EP   1    357 31.03                             119    0.09 6  241 336 
 SML  HN ES   1    357 59.61                             119    0.15 6  241 336 
 SML  HZ I         358  1.87         5.5 0.10                           241 336 
 MON  HZ EP   4    357 42.59                             109   -0.57 0  350 308 
 PRA  HZ EP   1    357 48.78                             107    0.72 5  392 209 
 PRA  HE ES   1    358 30.29                             107    0.36 5  392 209 
 PRA  HZ I         358 33.71         2.5 0.62                           392 209 
                                                                                
