 2010  9 6 0636 56.1 L   6.817 -73.069145.3  RSN  4 0.2 1.3LRSN                1
 GAP=244        0.49       8.8    16.2  6.9  0.1099E+03 -0.3877E+02 -0.1467E+02E
 Epicentro: LOS SANTOS - SANTANDER                                             3
 ACTION:UP  11-02-18 11:00 OP:tino STATUS:               ID:20100906063656 L   I
 2010-09-06-0634-09S.COL___119                                                 6
 STAT SP IPHASW D HRMM SECON CODA AMPLIT PERI AZIMU VELO SNR AR TRES W  DIS CAZ7
 BTL  SZ EP   1    637 15.80                             170     0.1 7   25 297 
 BTL  SZ ES   2    637 31.37                             170     0.4 5   25 297 
 BAR2 SZ EP   1    637 15.73                             169    -0.1 7   28 207 
 BAR2 SZ ES   2    637 30.55                             169    -0.6 5   28 207 
 BAR2 SZ I         637 31.72         6.4 0.32                            28 207 
 BRR  HZ EP   1    637 17.45                             150    -0.2 7   78 294 
 BRR  HE ES   2    637 34.49                             150     0.1 5   78 294 
 BRR  HZ I         637 37.34         3.6 0.38                            78 294 
 RUS  HZ EP   1    637 20.02                             143     0.1 7  102 181 
 RUS  HN ES   2    637 38.64                             143     0.1 5  102 181 
 RUS  HZ I         637 40.44         2.8 0.30                           102 181 
                                                                                
