 2017  6 6 0102 42.6 L   6.838 -73.120151.8  RSN 28 0.5 2.7LRSN                1
 GAP=150        0.99       3.0     3.4  5.1  0.2784E+01  0.1582E+01 -0.8790E+00E
 Epicentro: LOS SANTOS - SANTANDER                                             3
 ACTION:UPD 17-09-14 16:50 OP:jn   STATUS:               ID:20170606010242 L   I
 OLDACT:UP  17-06-06 13:12 OP:edw  STATUS:               ID:20170606005743     3
 OLDACT:UP  17-06-06 13:11 OP:edw  STATUS:               ID:20170606005743     3
 OLDACT:REG 17-06-06 11:58 OP:edw  STATUS:               ID:20170606005743     3
 2017-06-06-0058-00M.COL___356                                                 6
 STAT SP IPHASW D HRMM SECON CODA AMPLIT PERI AZIMU VELO AIN AR TRES W  DIS CAZ7
 BRR  HZ IP     C  1 3  4.77                             153    0.3610 71.8 295 
 BRR  HE ES        1 3 22.11                             153    0.6610 71.8 295 
 BRR  HZ I         1 3 26.05        80.9 0.14            152           71.8 295 
 RUS  HZ EP     D  1 3  6.91                             144   -0.3010  105 178 
 RUS  HE ES        1 3 26.06                             144   -0.3610  105 178 
 RUS  HZ I         1 3 26.76       111.7 0.24            145            105 178 
 PTB  HZ EP   9    1 3  9.91                             132   -0.45 0  151 257 
 PTB  HN ES        1 3 30.77                             132   -0.82 9  151 257 
 PTB  HZ I         1 3 32.70        39.1 0.40            132            151 257 
 SPBC HZ EP        1 3 11.92                             129   -0.09 9  168 219 
 SPBC HN ES   1    1 3 33.91                             129   -1.06 7  168 219 
 SPBC HZ I         1 3 38.66        89.1 0.24            130            168 219 
 YPLC HZ IP     D  1 3 13.40                             127    0.36 9  179 153 
 YPLC HE ES        1 3 36.96                             127    0.15 9  179 153 
 YPLC HZ I         1 3 38.33        78.9 0.28            129            179 153 
 ZAR  HZ EP        1 3 15.56                             123    0.03 9  205 291 
 ZAR  HN ES        1 3 41.01                             123   -0.22 9  205 291 
 ZAR  HZ I         1 3 47.52        60.1 0.52            123            205 291 
 TABC EZ EP   4    1 3 20.46                             120    1.24 0  235 211 
 TABC EZ ES        1 3 47.25                             120   -0.55 8  235 211 
 TABC EZ I         1 3 53.63        48.2 0.30            121            235 211 
 NOR  HZ EP   2 C  1 3 18.93                             119   -0.23 4  239 234 
 NOR  HN ES        1 3 47.48                             119   -0.22 8  239 234 
 NOR  HZ I         1 3 49.50        30.4 0.18            120            239 234 
 CHI  HZ EP     C  1 3 21.16                             118    0.03 8  253 196 
 CHI  HN ES   4    1 3 50.08                             118   -1.12 0  253 196 
 CHI  HZ I         1 3 53.97        39.4 0.50            119            253 196 
 ROSC BZ EP   4    1 3 22.95                             117    1.38 0  258 211 
 ROSC BN ES        1 3 51.86                             117   -0.13 8  258 211 
 ROSC BZ I         1 3 56.81        61.6 0.40            118            258 211 
 HEL  HZ EP        1 3 24.21                             115    0.70 7  276 255 
 HEL  HN ES        1 3 55.63                             115    0.18 7  276 255 
 HEL  HZ I         1 4  1.96        22.7 0.38            116            276 255 
 URE  HZ EP   9    1 3 23.40                             114   -0.66 0  285 291 
 URE  HN ES   1    1 3 55.18                             114   -0.58 6  285 291 
 URE  HZ I         1 4  5.75        37.7 0.18            115            285 291 
 VIL  EZ EP        1 3 26.80                             112    0.00 7  308 192 
 VIL  EN ES        1 4  0.90                             112   -0.39 7  308 192 
 VIL  EZ I         1 4  3.67        56.4 0.38            114            308 192 
 PTGC HZ EP   9 D  1 3 26.09                             112   -0.94 0  312 159 
 PTGC HN ES        1 3 59.74                             112   -1.03 7  312 159 
 PTGC HZ I         1 4  4.39        42.5 0.30            114            312 159 
 ELA  HZ EP   4    1 3 32.58                             111    2.34 0  334 229 
 ELA  HN ES        1 4  8.25                             111    0.83 7  334 229 
 ELA  HZ I         1 4 15.73        18.1 0.66            112            334 229 
 CBOC HZ EP        1 3 30.92                             110    0.72 7  338 252 
 CBOC HE ES        1 4  7.52                             110    0.18 7  338 252 
 CBOC HZ I         1 4 11.12         7.7 0.18            111            338 252 
 DBB  EZ EP        1 3 30.59                             110    0.00 7  342 274 
 DBB  EN ES   4    1 4  6.24                             110   -1.80 0  342 274 
 DBB  EZ I         1 4  7.66        11.2 0.40            111            342 274 
 ARGC HZ EP   4    1 3 34.75                             109    2.63 0  356 340 
 ARGC HN ES   4    1 4 12.29                             109    1.52 0  356 340 
 ARGC HZ I         1 4 24.61        16.6 0.26            110            356 340 
 ANIL HZ EP   4    1 3 34.37                             109    1.19 0  362 224 
 ANIL HN ES   4    1 4 15.42                             109    2.76 0  362 224 
 ORTC HZ EP        1 3 37.38                             107    0.09 6  400 216 
 ORTC HN ES        1 4 20.62                             107    0.65 6  400 216 
 ORTC HZ I         1 4 24.45        18.6 0.68            108            400 216 
 APAC HZ EP        1 3 36.66                             107   -0.47 6  400 287 
 APAC HN ES        1 4 18.71                             107   -0.98 6  400 287 
 APAC HZ I         1 4 21.48         9.1 0.38            107            400 287 
 SJC  HZ EP     C  1 3 37.17                             106   -0.94 6  407 326 
 SJC  HN ES   4    1 4 17.73                             106   -3.69 0  407 326 
 SJC  HZ I         1 4 22.72        10.9 0.62            107            407 326 
 PAL  HZ EP        1 3 38.69                             106    0.22 6  410 239 
 PAL  HN ES        1 4 22.03                             106   -0.04 6  410 239 
 PAL  HZ I         1 4 24.55        10.4 0.22            107            410 239 
 CRJC HZ EP   9    1 3 43.28                             104   -1.45 0  463   3 
 CRJC HN ES        1 4 30.75                             104   -1.01 5  463   3 
 CRJC HZ I         1 4 34.58        14.4 0.34            105            463   3 
 YOT  HZ EP   1    1 3 46.45                             104    0.09 3  477 229 
 YOT  HE ES   1    1 4 36.37                             104    0.25 3  477 229 
 SMAR HZ EP        1 3 48.03                             103   -0.17 4  494 346 
 SMAR HN ES   4    1 4 35.92                             103   -3.47 0  494 346 
 SMAR HZ I         1 4 39.58        15.1 0.78            104            494 346 
 CAP2 HZ EP   1    1 3 49.26                             103   -0.74 3  509 293 
 CAP2 HN ES   4    1 4 37.95                             103   -4.64 0  509 293 
 CAP2 HZ I         1 4 40.98         5.4 0.52            103            509 293 
 MACC HZ EP   4 D  1 3 49.96                             102   -2.02 0  525 189 
 MACC HN ES   4    1 4 42.26                             102   -3.86 0  525 189 
 MACC HZ I         1 4 53.30         6.1 0.34            103            525 189 
 POP2 HZ EP   2    1 4  3.27                             100   -0.04 1  618 220 
                                                                                
