 2012  7 6 0603  0.7 L   6.758 -73.161140.4  RSN  9 0.4 1.9LRSN                1
 GAP=136        1.07       4.7     5.5  8.0 -0.1627E+01  0.1071E+02  0.2023E+01E
 Epicentro: LOS SANTOS - SANTANDER                                             3
 ACTION:UPD 12-08-14 11:42 OP:ep   STATUS:               ID:20120706060300 L   I
 2012-07-06-0600-00M.COL___201                                                 6
 STAT SP IPHASW D HRMM SECON CODA AMPLIT PERI AZIMU VELO AIN AR TRES W  DIS CAZ7
 BAR2 SZ EP        6 3 19.88                             172     0.310   18 187 
 BAR2 SZ ES   1    6 3 34.36                             172     0.0 7   18 187 
 BAR2 SZ I         6 3 36.23        28.8 0.19            170             18 187 
 BRR  HZ EP        6 3 21.71                             151     0.410   72 302 
 BRR  HN ES   1    6 3 38.42                             151     1.0 7   72 302 
 BRR  HZ I         6 3 40.58        14.8 0.21            148             72 302 
 PAM  SZ EP   1    6 3 22.49                             148    -0.2 7   82  38 
 PAM  SN ES   1    6 3 39.31                             148    -0.5 7   82  38 
 RUS  HZ EP        6 3 23.91                             144     0.310   96 175 
 RUS  HZ I         6 3 24.81         6.0 0.12            147             96 175 
 RUS  HE ES   1    6 3 40.98                             144    -0.5 7   96 175 
 PTB  HZ EP        6 3 26.49                             131    -0.5 9  145 261 
 PTB  HE ES   1    6 3 47.11                             131    -0.4 7  145 261 
 PTB  HZ I         6 3 53.52         6.1 0.16            130            145 261 
 OCA  HZ EP   1    6 3 28.52                             128    -0.5 7  165 354 
 OCA  HN ES   1    6 3 50.98                             128    -0.2 7  165 354 
 OCA  HZ I         6 3 53.32        18.0 0.23            129            165 354 
 ZAR  HZ EP   1    6 3 33.03                             121     0.2 6  204 294 
 ZAR  HN ES   1    6 3 57.78                             121    -0.1 6  204 294 
 ZAR  HZ I         6 4  4.63         8.1 0.37            121            204 294 
 NOR  SE ES   1    6 4  2.53                             118    -0.4 6  231 235 
 PRA  HZ EP        6 3 54.04                             106     0.6 6  387 210 
