 2013  9 6 0134 40.5 L   6.765 -73.101150.3  RSN  8 0.3 1.5LRSN                1
 GAP=144        0.70       2.8     3.6  4.9 -0.3032E+00  0.4346E+01 -0.1488E+01E
 Epicentro: LOS SANTOS - SANTANDER                                             3
 ACTION:UPD 13-10-22 09:20 OP:ep   STATUS:               ID:20130906013440 L   I
 OLDACT:UP  13-09-06 08:51 OP:cam  STATUS:               ID:20130906012959     3
 OLDACT:REG 13-09-06 07:51 OP:cam  STATUS:               ID:20130906012959     3
 2013-09-06-0129-59M.COL___269                                                 6
 STAT SP IPHASW D HRMM SECON CODA AMPLIT PERI AZIMU VELO AIN AR TRES W  DIS CAZ7
 BAR2 SZ EP        135  0.42                             172   -0.2010 21.0 205 
 BAR2 SZ ES        135 16.18                             172   -0.1510 21.0 205 
 BAR2 SZ I         135 16.50         4.2 0.18            164           21.0 205 
 BRR  HZ EP        135  2.50                             151    0.0210 77.4 299 
 BRR  HN ES        135 19.78                             151    0.1410 77.4 299 
 BRR  HZ I         135 20.58         6.0 0.44            139           77.4 299 
 PAM  SZ EP        135  3.52                             152    0.3210 77.5  35 
 PAM  SN ES        135 21.04                             152    0.1310 77.5  35 
 PAM  SZ I         135 23.01         6.3 0.44            148           77.5  35 
 RUS  HZ EP   1    135  4.29                             146   -0.11 7 96.4 179 
 RUS  HN ES   1    135 22.82                             146   -0.24 7 96.4 179 
 RUS  HZ I         135 23.53         2.9 0.30            137           96.4 179 
 PTB  HZ EP   1    135  7.65                             132   -0.55 7  152 261 
 PTB  HZ I         135 34.16         2.2 0.58            120            152 261 
 SPBC HZ EP   1    135 10.21                             130    0.86 7  163 221 
 SPBC HE ES        135 31.86                             130   -0.01 9  163 221 
 SPBC HZ I         135 39.41         3.2 0.42            119            163 221 
 ZAR  HN ES        135 40.08                             122    0.21 8  210 293 
 ZAR  HZ I         135 47.81         3.3 0.54            113            210 293 
 SML  HZ EP   1    135 17.56                             118   -0.42 6  249 335 
 SML  HN ES        135 46.91                             118   -0.31 8  249 335 
 SML  HZ I         135 55.15         4.3 0.26            109            249 335 
                                                                                
