 2013  6 6 0350  3.8 L   6.729 -73.216154.5  RSN  4 0.1 1.7LRSN                1
 GAP=224        0.34       3.3     3.0  4.5  0.3370E+01 -0.5861E+00  0.3534E+00E
 Epicentro: VILLANUEVA - SANTANDER                                             3
 ACTION:UPD 14-01-08 09:52 OP:ep   STATUS:               ID:20130606035003 L   I
 OLDACT:UP  13-06-06 15:04 OP:mh   STATUS:               ID:20130606034836     3
 OLDACT:REG 13-06-06 12:36 OP:mh   STATUS:               ID:20130606034836     3
 2013-06-06-0348-36M.COL___231                                                 6
 STAT SP IPHASW D HRMM SECON CODA AMPLIT PERI AZIMU VELO AIN AR TRES W  DIS CAZ7
 BRR  HZ EP   1    350 25.73                             155   -0.03 8 69.0 307 
 BRR  HN ES   1    350 42.84                             155   -0.07 8 69.0 307 
 BRR  HN I         350 47.45        14.8 0.18            155           69.0 307 
 RUS  HZ EP   1    350 28.10                             147    0.16 8 93.7 171 
 RUS  HN ES   1    350 46.69                             147   -0.09 8 93.7 171 
 RUS  HN I         350 49.09         4.6 0.56            152           93.7 171 
 PTB  HZ EP   1    350 30.61                             136   -0.09 7  139 261 
 PTB  HN ES        350 51.81                             136    0.1110  139 261 
 PTB  HZ I         350 57.72         4.6 0.38            138            139 261 
 NOR  HN ES   2    351  6.05                             121   -0.24 4  224 235 
                                                                                
