 2014  2 6 0322 59.4 L   6.777 -73.115146.0  RSN 10 0.3 1.8LRSN                1
 GAP=141        0.68       2.3     4.0  5.0 -0.4141E+00  0.5726E+01 -0.1114E+01E
 Epicentro: LOS SANTOS - SANTANDER                                             3
 ACTION:UPD 14-03-10 08:07 OP:ep   STATUS:               ID:20140206032259 L   I
 OLDACT:REG 14-02-06 08:07 OP:mh   STATUS:               ID:20140206032000     3
 2014-02-06-0320-00M.COL___291                                                 6
 STAT SP IPHASW D HRMM SECON CODA AMPLIT PERI AZIMU VELO AIN AR TRES W  DIS CAZ7
 BAR2 SZ EP   1    323 18.91                             171   -0.11 7 21.7 200 
 BAR2 SZ I         323 35.55        23.9 0.20            157           21.7 200 
 BRR  HZ EP   1    323 20.82                             151    0.01 7 75.4 299 
 BRR  HN ES        323 37.65                             151    0.1410 75.4 299 
 PAM  SZ EP   1    323 21.92                             151    0.29 7 77.3  36 
 PAM  SN ES   1    323 38.47                             151   -0.51 7 77.3  36 
 PAM  SZ I         323 39.55         7.1 0.19            142           77.3  36 
 RUS  HZ EP   1    323 23.04                             145    0.07 7 97.9 178 
 RUS  HN ES        323 41.44                             145    0.0710 97.9 178 
 RUS  HZ I         323 43.47         5.5 0.32            125           97.9 178 
 PTB  HZ EP   1    323 25.91                             132   -0.73 7  151 260 
 PTB  HZ I         323 49.47         7.7 0.16            116            151 260 
 OCA  HN ES        323 50.45                             129    0.13 9  163 352 
 SPBC HZ EP   1    323 27.96                             129    0.03 7  163 220 
 SPBC HN ES        323 50.39                             129    0.21 9  163 220 
 SPBC HZ I         323 55.11         6.4 0.15            113            163 220 
 ZAR  HZ EP        323 32.00                             122   -0.28 8  208 292 
 ZAR  HN ES   1    323 57.52                             122   -0.40 6  208 292 
 ZAR  HZ I         324  2.78         7.3 0.06            110            208 292 
 SML  HZ EP        323 36.34                             117   -0.10 8  247 335 
 SML  HN ES   1    324  6.16                             117    0.83 6  247 335 
 SML  HZ I         324 12.25         8.8 0.11            107            247 335 
 GUY2CHZ EP   1    323 43.55                             112    0.39 5  302 236 
 GUY2CHN ES   4    324 18.73                             112    1.43 0  302 236 
                                                                                
