 2016  8 6 0857 10.5 L   6.763 -73.140144.2  RSN  4 0.2 1.1LRSN                1
 GAP=139        0.54       3.3     3.2  4.5 -0.3297E+01  0.3925E+01 -0.1409E+01E
 Epicentro: LOS SANTOS - SANTANDER                                             3
 ACTION:UPD 16-10-29 15:32 OP:rebc STATUS:               ID:20160806085710 L   I
 OLDACT:REG 16-08-06 13:25 OP:edw  STATUS:               ID:20160806084731     3
 2016-08-06-0848-00M.COL___347                                                 6
 STAT SP IPHASW D HRMM SECON CODA AMPLIT PERI AZIMU VELO AIN AR TRES W  DIS CAZ7
 BAR2 EZ EP        857 29.87                             172    0.0510 19.5 194 
 BAR2 HN ES        857 44.72                             172   -0.2110 19.5 194 
 BAR2 EZ I         857 45.99         3.5 0.24                          19.5 194 
 PAM  EZ EP        857 32.74                             150    0.0710 80.1  37 
 PAM  EE ES        857 50.04                             150    0.0510 80.1  37 
 PAM  EZ I         857 51.96         1.7 0.68                          80.1  37 
 RUS  HZ EP        857 33.41                             145   -0.3510 96.5 176 
 RUS  HN ES        857 52.22                             145    0.2910 96.5 176 
 RUS  HZ I         857 53.72         0.9 0.18                          96.5 176 
 PTB  HZ EP        857 37.43                             132    0.14 9  148 260 
 PTB  HE ES        857 58.19                             132   -0.02 9  148 260 
 PTB  HZ I         857 59.06         3.3 0.92                           148 260 
                                                                                
