 2016 12 6 0331 44.9 L   6.769 -73.145147.0  RSN  9 0.5 1.8LRSN                1
 GAP=138        1.19       5.8     5.3  8.0  0.2798E+01  0.8802E+01  0.5798E+01E
 Epicentro: LOS SANTOS - SANTANDER                                             3
 ACTION:UPD 17-01-11 20:12 OP:rebc STATUS:               ID:20161206033144 L   I
 OLDACT:UP  16-12-06 18:00 OP:ar   STATUS:               ID:20161206032740     3
 OLDACT:UP  16-12-06 18:00 OP:ar   STATUS:               ID:20161206032740     3
 OLDACT:REG 16-12-06 13:26 OP:ar   STATUS:               ID:20161206032740     3
 2016-12-06-0328-00M.COL___343                                                 6
 STAT SP IPHASW D HRMM SECON CODA AMPLIT PERI AZIMU VELO AIN AR TRES W  DIS CAZ7
 BAR2 EZ EP        332  4.66                             172    0.0110 20.0 192 
 BAR2 EZ ES        332 19.90                             172   -0.1310 20.0 192 
 BAR2 EZ I         332 21.14        16.1 0.16            172           20.0 192 
 BRR  HZ IP     C  332  6.45                             152    0.1310 73.0 301 
 BRR  HE ES        332 24.12                             152    1.1210 73.0 301 
 BRR  HZ I         332 28.23        13.6 0.14            145           73.0 301 
 PAM  EZ EP        332  7.40                             150   -0.0410 80.0  38 
 PAM  EE ES        332 24.54                             150   -0.4510 80.0  38 
 PAM  EZ I         332 26.51         9.8 0.48            147           80.0  38 
 RUS  HZ EP        332  9.13                             145    0.5610 97.1 176 
 RUS  HN ES        332 26.67                             145   -0.3210 97.1 176 
 RUS  HZ I         332 28.18         4.7 0.44            144           97.1 176 
 PTB  HZ EP        332 11.72                             132   -0.24 9  147 260 
 PTB  HE ES        332 32.68                             132   -0.35 9  147 260 
 PTB  HZ I         332 39.50         4.6 0.28            127            147 260 
 ZAR  HZ EP   4    332 18.64                             122    1.03 0  205 293 
 ZAR  HN ES        332 42.51                             122   -0.58 8  205 293 
 ZAR  HZ I         332 48.74         7.0 0.34            117            205 293 
 URE  HZ EP   4    332 28.46                             114    2.23 0  285 293 
 URE  HN ES   4    332 56.10                             114   -2.33 0  285 293 
 URE  HZ I         332 58.71         6.3 0.10            110            285 293 
 PRA  HZ EP        332 38.37                             107    0.21 6  389 210 
 PRA  HE ES   4    333 21.36                             107    1.69 0  389 210 
 PRA  HZ I         333 27.66         1.3 0.28            104            389 210 
 SJC  HZ EP   4    332 38.84                             106   -2.05 0  412 327 
 SJC  HZ I         333  7.38         1.4 0.68            103            412 327 
 SJC  HN ES   4    333 20.43                             106   -4.10 0  412 327 
                                                                                
