 2011 12 6 0248 16.9 L   6.803 -73.121147.1  RSN  6 0.3 1.6LRSN                1
 GAP=140        0.57       4.3     4.3  6.2 -0.2527E+01  0.9017E+01  0.6754E+01E
 Epicentro: LOS SANTOS - SANTANDER                                             3
 ACTION:UPD 12-07-13 16:14 OP:ep   STATUS:               ID:20111206024816 L   I
 2011-12-06-0240-00M.COL___181                                                 6
 STAT SP IPHASW D HRMM SECON CODA AMPLIT PERI AZIMU VELO AIN AR TRES W  DIS CAZ7
 GIR2 SZ EP   2    248 37.24                             167    0.55 5 31.6 345 
 BRR  HN ES   1    248 55.29                             152    0.31 7 73.5 297 
 BRR  HZ I         248 57.56         7.9 0.13                          73.5 297 
 PAM  SZ EP   1    248 38.85                             152   -0.25 7 75.4  38 
 PAM  SN ES   1    248 56.20                             152   -0.24 7 75.4  38 
 RUS  HZ EP   1    248 40.87                             144    0.12 7  101 178 
 RUS  HN ES   1    248 59.37                             144   -0.01 7  101 178 
 RUS  HZ I         249  1.45         3.8 0.29                           101 178 
 NOR  SZ EP   1    248 52.90                             118   -0.02 6  237 235 
 HEL  HZ EP   1    248 57.78                             115    0.34 6  275 256 
 HEL  HN ES   1    249 28.48                             115   -0.62 6  275 256 
 HEL  HZ I         249 35.31         3.6 0.54                           275 256 
                                                                                
