 2015 11 6 0209 44.8 L   6.754 -73.057149.9  RSN 14 0.3 2.1LRSN                1
 GAP=129        0.79       2.8     2.9  4.3  0.5052E+00  0.3116E+01  0.3482E+01E
 Epicentro: JORDAN - SANTANDER                                                 3
 ACTION:UPD 15-12-28 16:09 OP:cam  STATUS:               ID:20151106020944 L   I
 OLDACT:UP  15-11-19 06:49 OP:CARA STATUS:               ID:20151106020944 L   3
 OLDACT:REG 15-11-06 10:59 OP:drio STATUS:               ID:20151106020745     3
 2015-11-06-0207-45M.COL___313                                                 6
 STAT SP IPHASW D HRMM SECON CODA AMPLIT PERI AZIMU VELO AIN AR TRES W  DIS CAZ7
 BAR2 EZ IP     C  210  4.87                             171   -0.0810 22.6 218 
 BAR2 EZ ES        210 20.61                             171   -0.0310 22.6 218 
 BAR2 EZ I         210 21.83        13.0 0.16            168           22.6 218 
 PAM  EZ EP        210  7.56                             152    0.1610 75.9  31 
 PAM  EE ES        210 24.64                             152   -0.3710 75.9  31 
 BRR  HZ EP     D  210  6.80                             150   -0.2710 82.2 298 
 BRR  HE ES        210 24.98                             150    0.5610 82.2 298 
 BRR  HZ I         210 34.72        20.5 0.30            146           82.2 298 
 RUS  HZ EP        210  8.78                             146    0.1510 95.3 182 
 RUS  HN ES        210 27.62                             146    0.4310 95.3 182 
 RUS  HZ I         210 28.43         9.2 0.28            149           95.3 182 
 SPBC HZ EP        210 13.91                             129    0.02 9  166 223 
 SPBC HN ES        210 36.11                             129   -0.44 9  166 223 
 SPBC HZ I         210 38.75        13.8 0.50            130            166 223 
 ZAR  HZ EP        210 19.13                             122    0.45 8  215 292 
 ZAR  HN ES        210 44.65                             122   -0.42 8  215 292 
 ZAR  HZ I         210 48.91        16.5 0.36            121            215 292 
 NOR  HZ EP        210 21.40                             119    0.04 8  240 237 
 NOR  HE ES        210 49.67                             119   -0.18 8  240 237 
 NOR  HZ I         210 54.82         6.8 0.16            119            240 237 
 SML  HZ EP   9    210 21.26                             117   -1.38 0  252 334 
 SML  HE ES        210 50.36                             117   -0.39 8  252 334 
 SML  HZ I         210 56.39        15.0 0.10            117            252 334 
 HEL  HZ EP        210 25.85                             115   -0.32 7  280 257 
 HEL  HN ES        210 58.07                             115   -0.35 7  280 257 
 HEL  HZ I         211  5.74         3.9 0.22            115            280 257 
 URE  HZ EP   4    210 25.33                             113   -2.00 0  295 292 
 URE  HN ES   4    210 56.08                             113   -4.39 0  295 292 
 URE  HZ I         211  8.86         6.9 0.26            113            295 292 
 PTGC HZ EP        210 28.00                             113    0.05 7  300 160 
 PTGC HN ES        211  1.14                             113   -0.45 7  300 160 
 PTGC HZ I         211  3.67        15.0 0.42            115            300 160 
 GUY2CHZ EP        210 29.66                             113    0.44 7  306 237 
 GUY2CHE ES        211  4.25                             113    0.41 7  306 237 
 GUY2CHZ I         211 13.57         4.5 0.54                           306 237 
 MON  HZ EP   4    211 11.06                             109   35.82 0  364 308 
 MON  HN ES   4    211 23.81                             109    9.25 0  364 308 
 MON  HZ I         211 25.79         3.8 0.66            109            364 308 
 SJC  HZ EP   4    210 38.69                             106   -2.97 0  419 326 
 SJC  HN ES   4    211 21.21                             106   -4.77 0  419 326 
 SJC  HZ I         211 29.58         1.6 0.60            106            419 326 
                                                                                
