 2017 11 6 0418 56.9 L   6.827 -73.142144.6  RSN 18 0.4 2.0LRSN                1
 GAP=105        0.99       3.5     2.7  5.2  0.1217E+01  0.1748E+01  0.3132E+01E
 Epicentro: LOS SANTOS - SANTANDER                                             3
 ACTION:UPD 17-12-12 19:52 OP:rebc STATUS:               ID:20171106041856 L   I
 OLDACT:UP  17-11-06 16:05 OP:dnl  STATUS:               ID:20171106040737     3
 OLDACT:UP  17-11-06 16:04 OP:dnl  STATUS:               ID:20171106040737     3
 OLDACT:REG 17-11-06 13:04 OP:dnl  STATUS:               ID:20171106040737     3
 2017-11-06-0408-00M.COL___444                                                 6
 STAT SP IPHASW D HRMM SECON CODA AMPLIT PERI AZIMU VELO AIN AR TRES W  DIS CAZ7
 BAR2 EZ EP        419 16.29                             169   -0.1410 26.3 190 
 BAR2 EZ ES        419 31.61                             169   -0.0810 26.3 190 
 BAR2 EZ I         419 32.57        23.0 0.26            169           26.3 190 
 BRR  HZ EP        419 18.05                             153    0.2010 70.2 296 
 BRR  HE ES        419 35.02                             153    0.8210 70.2 296 
 BRR  HZ I         419 35.59        20.6 0.30            150           70.2 296 
 PAM  EZ EP        419 18.96                             151    0.1410 74.8  41 
 PAM  EZ I         419 36.67        12.7 0.22            149           74.8  41 
 RUS  HZ EP        419 20.35                             143   -0.3810  104 176 
 RUS  HN ES        419 39.14                             143   -0.2010  104 176 
 RUS  HZ I         419 40.83         9.6 0.36            141            104 176 
 PTB  HZ EP        419 22.92                             132   -0.92 9  149 258 
 PTB  HN ES        419 43.89                             132   -0.98 9  149 258 
 PTB  HZ I         419 45.54         7.6 0.32            129            149 258 
 TAM  HZ EP        419 24.57                             130    0.07 9  156 106 
 TAM  HN ES        419 45.84                             130   -0.21 9  156 106 
 TAM  HZ I         419 47.33         9.6 0.68            128            156 106 
 SPBC HZ EP        419 25.32                             128   -0.22 9  166 218 
 SPBC HN ES        419 48.03                             128    0.14 9  166 218 
 SPBC HZ I         419 54.60        14.6 0.32            126            166 218 
 YPLC HZ EP        419 26.82                             126   -0.01 9  179 152 
 YPLC HN ES        419 50.81                             126    0.62 9  179 152 
 YPLC HZ I         419 53.62         9.5 0.32            124            179 152 
 ZAR  HZ EP   2    419 29.26                             122    0.09 4  203 291 
 ZAR  HN ES        419 54.60                             122    0.24 9  203 291 
 ZAR  HZ I         420  0.09        13.6 0.28            120            203 291 
 NOR  HZ EP        419 32.79                             118    0.02 8  237 234 
 NOR  HE ES        420  1.11                             118    0.36 8  237 234 
 NOR  HZ I         420  2.41         6.4 0.18            116            237 234 
 CHI  HZ EP        419 34.84                             117    0.00 8  252 195 
 CHI  HN ES        420  4.50                             117    0.05 8  252 195 
 CHI  HZ I         420 11.20         4.2 0.54            115            252 195 
 ROSC BZ EP   4    419 36.47                             116    1.23 0  256 211 
 ROSC BN ES   4    420  7.85                             116    2.69 0  256 211 
 ROSC BZ I         420 14.13         7.4 0.30            114            256 211 
 URE  HZ EP   4    419 36.07                             113   -1.74 0  283 291 
 URE  HN ES   4    420  6.75                             113   -2.99 0  283 291 
 URE  HZ I         420 14.10         6.0 0.16            111            283 291 
 GUY2CHZ EP   4    419 41.75                             112    1.08 0  303 234 
 GUY2CHE ES   4    420 18.47                             112    3.65 0  303 234 
 GUY2CHZ I         420 24.35         4.2 0.60                           303 234 
 PTGC HZ EP   4    419 39.74                             111   -1.24 0  311 159 
 PTGC HN ES   4    420 12.53                             111   -2.85 0  311 159 
 PTGC HZ I         420 17.97         3.2 0.30            109            311 159 
 CBOC HZ EP        419 44.24                             110    0.34 7  335 252 
 CBOC HN ES        420 20.82                             110    0.25 7  335 252 
 CBOC HZ I         420 32.21         1.8 0.44            108            335 252 
 PRA  HZ EP        419 51.00                             106    0.31 6  395 209 
 PRA  HN ES        420 33.07                             106    0.41 6  395 209 
 PRA  HZ I         420 39.12         5.6 0.52            105            395 209 
 SJC  HZ EP   4    419 50.44                             106   -1.70 0  407 327 
 SJC  HN ES   4    420 30.71                             106   -4.53 0  407 327 
 SJC  HZ I         420 35.70         2.1 0.54            104            407 327 
                                                                                
