 2014  5 6 0150 15.6 L   6.800 -73.171148.2  RSN  7 0.3 2.0LRSN                1
 GAP=133        0.87       2.6     4.4  6.0 -0.2205E+00  0.3582E+01  0.1617E+01E
 Epicentro: LOS SANTOS - SANTANDER                                             3
 ACTION:UPD 15-03-16 16:55 OP:nd   STATUS:               ID:20140506015015 L   I
 OLDACT:DUP 14-05-06 14:15 OP:carl STATUS:               ID:20140506014809d    3
 2014-05-06-0148-08M.COL___239                                                 6
 STAT SP IPHASW D HRMM SECON CODA AMPLIT PERI AZIMU VELO AIN AR TRES W  DIS CAZ7
 BRR  HZ EP        150 37.38                             154    0.4710 68.7 300 
 BRR  HN ES        150 54.17                             154    0.6610 68.7 300 
 BRR  HZ I         150 59.70        14.5 0.14            153           68.7 300 
 PAM  SZ EP        150 38.48                             151    0.2710 79.2  41 
 PAM  SN ES        150 55.60                             151   -0.2310 79.2  41 
 PAM  SZ I         150 57.99         9.3 0.60            153           79.2  41 
 RUS  HZ EP        150 39.56                             144   -0.0810  101 174 
 RUS  HN ES        150 58.08                             144   -0.2910  101 174 
 RUS  HZ I         150 59.14        10.2 0.28            149            101 174 
 PTB  HZ EP        150 42.51                             133   -0.04 9  145 259 
 PTB  HN ES        151  3.25                             133   -0.30 9  145 259 
 PTB  HZ I         151  6.98        13.7 0.10            135            145 259 
 OCA  HN ES        151  6.18                             130   -0.13 9  160 354 
 OCA  HZ I         151 11.39        12.5 0.30            132            160 354 
 SML  HZ EP        150 52.33                             118    0.06 8  243 336 
 SML  HE ES        151 20.15                             118   -0.69 8  243 336 
 SML  HZ I         151 25.17        17.8 0.10            120            243 336 
 CHI  HZ EP        150 53.54                             118    0.15 8  248 195 
 CHI  HN ES        151 22.70                             118   -0.14 8  248 195 
                                                                                
