 2016 10 6 0015 54.3 L   6.797 -73.122148.0  RSN  8 0.3 1.8LRSN                1
 GAP=140        0.74       2.8     3.8  5.8 -0.2916E+00  0.4163E+01  0.3660E+01E
 Epicentro: LOS SANTOS - SANTANDER                                             3
 ACTION:UPD 16-11-09 19:16 OP:rebc STATUS:               ID:20161006001554 L   I
 OLDACT:REG 16-10-06 12:59 OP:dnl  STATUS:               ID:20161006000748     3
 2016-10-06-0008-00M.COL___360                                                 6
 STAT SP IPHASW D HRMM SECON CODA AMPLIT PERI AZIMU VELO AIN AR TRES W  DIS CAZ7
 BAR2 EZ EP   2    016 14.01                             171   -0.20 5 23.6 196 
 BAR2 EZ ES   2    016 29.19                             171   -0.55 5 23.6 196 
 BAR2 EZ I         016 30.30        16.1 0.24            168           23.6 196 
 BRR  HZ EP        016 16.12                             152    0.2810 73.6 298 
 BRR  HN ES        016 32.98                             152    0.3510 73.6 298 
 BRR  HZ I         016 40.25        15.0 0.34            150           73.6 298 
 PAM  EZ EP        016 16.75                             152    0.0710 76.0  38 
 PAM  EE ES        016 34.23                             152    0.0910 76.0  38 
 PAM  EZ I         016 36.25        10.5 0.58            156           76.0  38 
 RUS  HZ EP        016 18.04                             144   -0.2110  100 178 
 RUS  HE ES        016 36.55                             144   -0.3810  100 178 
 RUS  HZ I         016 37.50         4.2 0.34            147            100 178 
 SPBC HZ EP        016 23.06                             129   -0.05 9  165 220 
 SPBC HE ES        016 45.54                             129   -0.04 9  165 220 
 SPBC HZ I         016 49.23        10.3 0.24            130            165 220 
 ZAR  HZ EP   2    016 26.55                             122   -0.60 4  207 292 
 ZAR  HE ES        016 52.39                             122   -0.39 8  207 292 
 ZAR  HZ I         016 59.25         8.3 0.30            123            207 292 
 CHI  HZ EP   2    016 32.11                             117   -0.06 4  249 196 
 CHI  HE ES        017  2.43                             117    0.72 8  249 196 
 CHI  HZ I         017  6.44         1.8 0.26            120            249 196 
 SJC  HZ EP   4    016 48.20                             106   -1.93 0  411 327 
 SJC  HN ES   4    017 29.73                             106   -3.95 0  411 327 
 SJC  HZ I         017 33.84         1.7 0.28            108            411 327 
                                                                                
