 2010  9 6 0141 34.0 L   6.835 -73.073145.5  RSN  5 0.3 1.3LRSN                1
 GAP=166        0.64       7.2    12.7  8.6  0.4421E+02 -0.5585E+02 -0.9046E+01E
 Epicentro: LOS SANTOS - SANTANDER                                             3
 ACTION:UP  11-02-18 11:00 OP:tino STATUS:               ID:20100906014134 L   I
 2010-09-06-0139-36S.COL___120                                                 6
 STAT SP IPHASW D HRMM SECON CODA AMPLIT PERI AZIMU VELO SNR AR TRES W  DIS CAZ7
 BTL  SZ EP        141 53.79                             171     0.210   23 293 
 BTL  SZ ES   1    142  8.93                             171     0.1 7   23 293 
 BAR2 SZ EP   1    141 53.79                             168     0.1 7   30 205 
 BAR2 SZ I         142  9.16         3.5 0.40                            30 205 
 BRR  HZ EP   1    141 55.72                             151     0.3 7   77 293 
 BRR  HZ I         141 59.85         5.6 0.26                            77 293 
 BRR  HN ES   1    142 11.85                             151    -0.3 7   77 293 
 RUS  HZ EP   1    141 57.55                             143    -0.4 7  104 181 
 RUS  HE ES   2    142 16.92                             143     0.2 5  104 181 
 RUS  HZ I         142 18.30         2.0 0.29                           104 181 
 GRA  SZ EP   2    141 58.46                             138    -0.3 5  120  14 
 GRA  SZ I         142 19.24         3.1 0.22                           120  14 
                                                                                
