 2013  2 6 0130 10.8 L   6.770 -73.148142.5  RSN  7 0.3 1.8LRSN                1
 GAP=138        0.61       3.7     3.4  6.2  0.7599E+00  0.1380E+01  0.5771E+01E
 Epicentro: LOS SANTOS - SANTANDER                                             3
 ACTION:UP  13-03-12 09:30 OP:ep   STATUS:               ID:20130206013010 L   I
 2013-02-06-0124-46M.COL___176                                                 6
 STAT SP IPHASW D HRMM SECON CODA AMPLIT PERI AZIMU VELO AIN AR TRES W  DIS CAZ7
 BAR2 SZ EP   1    130 29.97                             172    0.05 7 20.0 191 
 BAR2 SZ I         130 46.38        19.0 0.18                          20.0 191 
 BRR  HZ EP   1    130 31.74                             151    0.11 7 72.6 301 
 BRR  HN ES   1    130 48.16                             151    0.26 7 72.6 301 
 BRR  HN I         130 48.97        22.5 0.22                          72.6 301 
 PAM  SZ EP        130 32.80                             149    0.0110 80.1  38 
 PAM  SN ES   1    130 49.75                             149   -0.22 7 80.1  38 
 PAM  SN I         130 51.90         8.1 0.44                          80.1  38 
 RUS  HZ EP        130 33.97                             144    0.0210 97.3 176 
 RUS  HN ES   1    130 52.09                             144    0.06 7 97.3 176 
 RUS  HN I         130 53.62         7.0 0.22                          97.3 176 
 PTB  HZ EP   1    130 36.69                             131   -0.68 7  147 260 
 PTB  HN ES   1    130 57.78                             131   -0.35 7  147 260 
 PTB  HN I         131  0.22         8.5 0.34                           147 260 
 ZAR  HN ES   1    131  8.74                             121    0.43 6  205 293 
 CHI  HZ EP   1    130 48.35                             117    0.43 6  245 195 
 CHI  HN I         131 23.75         5.7 0.38                           245 195 
                                                                                
