 2016  2 6 0729  3.5 L   6.815 -73.168140.4  RSN 15 0.4 2.2LRSN                1
 GAP= 69        0.98       2.7     3.4  5.2 -0.1804E+01  0.4936E+01 -0.5696E+00E
 Epicentro: LOS SANTOS - SANTANDER                                             3
 ACTION:UPD 16-03-04 21:23 OP:rebc STATUS:               ID:20160206072903 L   I
 OLDACT:REG 16-02-06 13:24 OP:dnl  STATUS:               ID:20160206072749     3
 2016-02-06-0727-49M.COL___334                                                 6
 STAT SP IPHASW D HRMM SECON CODA AMPLIT PERI AZIMU VELO AIN AR TRES W  DIS CAZ7
 BAR2 EZ EP     D  729 22.83                             170    0.2910 24.7 184 
 BAR2 EZ ES        729 37.49                             170    0.1310 24.7 184 
 BAR2 EZ I         729 39.18        42.7 0.20            169           24.7 184 
 PAM  EZ EP     D  729 25.60                             150    0.4110 77.7  42 
 PAM  EN ES        729 42.23                             150    0.1410 77.7  42 
 PAM  EZ I         729 45.08        13.5 0.25            154           77.7  42 
 RUS  HZ EP     C  729 26.85                             142   -0.0410  102 175 
 RUS  HE ES        729 45.35                             142    0.2410  102 175 
 PTB  HZ EP        729 29.36                             131   -0.51 9  146 258 
 PTB  HN ES        729 50.01                             131   -0.40 9  146 258 
 PTB  HZ I         729 52.96        15.8 0.17            130            146 258 
 TAM  HZ EP        729 31.02                             129   -0.03 9  158 105 
 TAM  HE ES   4    729 50.23                             129   -2.28 0  158 105 
 TAM  HZ I         729 53.72        11.7 0.32            134            158 105 
 OCA  HZ EP        729 31.10                             129   -0.14 9  158 354 
 OCA  HE ES        729 51.96                             129   -0.90 9  158 354 
 OCA  HZ I         730  0.15        22.7 0.18            130            158 354 
 SPBC HZ EP        729 31.85                             128    0.26 9  163 218 
 SPBC HN ES        729 53.41                             128   -0.07 9  163 218 
 SPBC HZ I         729 59.84        29.7 0.15            128            163 218 
 ZAR  HZ EP        729 35.56                             122    0.24 9  201 292 
 ZAR  HE ES        730  1.15                             122    1.03 9  201 292 
 ZAR  HZ I         730  7.39        24.4 0.40            121            201 292 
 NOR  HZ EP        729 39.13                             117    0.29 8  234 234 
 NOR  HE ES        730  5.89                             117   -0.49 8  234 234 
 NOR  HZ I         730 11.46        13.1 0.31            118            234 234 
 SML  HZ EP        729 39.23                             117   -0.35 8  241 336 
 SML  HE ES   4    730  6.65                             117   -1.05 0  241 336 
 SML  HZ I         730 11.48        15.4 0.10            117            241 336 
 CHI  HZ EP        729 40.97                             116   -0.06 8  250 195 
 CHI  HE ES        730  9.50                             116   -0.79 8  250 195 
 CHI  HZ I         730 20.12         4.7 0.36            117            250 195 
 HEL  HZ EP   2    729 43.72                             114    0.47 4  270 255 
 HEL  HE ES   2    730 13.63                             114   -0.60 4  270 255 
 HEL  HZ I         730 23.34         8.3 0.24            114            270 255 
 URE  HZ EP   2    729 43.68                             113   -0.33 4  281 292 
 URE  HE ES   4    730 13.92                             113   -1.67 0  281 292 
 URE  HZ I         730 24.64        13.1 0.22            113            281 292 
 GUY2CHZ EP   2    729 46.98                             111    0.21 4  300 234 
 GUY2CHN ES   2    730 21.21                             111    0.71 4  300 234 
 GUY2CHZ I         730 29.44         8.8 0.40                           300 234 
 SOCV BZ EP   4    729 44.50                             111   -1.96 0  302  57 
 SOCV BE ES   4    730 15.57                             111   -4.38 0  302  57 
 CBOC HZ EP        729 50.58                             109    0.57 7  332 252 
 CBOC HE ES   4    730 24.64                             109   -1.63 0  332 252 
 CBOC HZ I         730 37.96         2.2 0.34            110            332 252 
                                                                                
