 2016  9 6 0852 34.8 L   6.783 -73.144151.7  RSN  6 0.4 1.2LRSN                1
 GAP=138        0.88       4.9     4.2  7.8  0.2763E+00  0.7752E+01 -0.3991E+01E
 Epicentro: LOS SANTOS - SANTANDER                                             3
 ACTION:UPD 17-08-17 21:07 OP:lp   STATUS:               ID:20160906085234 L   I
 OLDACT:UP  16-09-06 17:16 OP:and  STATUS:               ID:20160906084732     3
 OLDACT:REG 16-09-06 13:20 OP:dani STATUS:               ID:20160906084732     3
 2016-09-06-0848-00M.COL___322                                                 6
 STAT SP IPHASW D HRMM SECON CODA AMPLIT PERI AZIMU VELO AIN AR TRES W  DIS CAZ7
 BAR2 EZ EP   2    852 55.07                             172    0.01 5 21.5 192 
 BAR2 EZ I         853 18.86         4.0 0.49            170           21.5 192 
 BRR  HZ EP   2    852 56.28                             153   -0.33 5 72.3 300 
 BRR  HN ES        853 14.31                             153    0.6510 72.3 300 
 BRR  HZ I         853 21.72         1.9 0.42            152           72.3 300 
 PAM  EZ EP        852 57.74                             151    0.0610 78.7  39 
 PAM  EN ES        853 15.16                             151   -0.4110 78.7  39 
 PAM  EZ I         853 17.36         2.7 0.52            150           78.7  39 
 RUS  HZ EP   2    852 59.38                             146    0.42 5 98.6 176 
 RUS  HE ES        853 17.94                             146    0.1010 98.6 176 
 RUS  HZ I         853 18.73         1.1 0.36            142           98.6 176 
 PTB  HZ EP   2    853  2.60                             133    0.40 5  148 260 
 PTB  HE ES        853 22.91                             133   -0.70 9  148 260 
 PTB  HZ I         853 29.08         2.8 0.42            131            148 260 
 ZAR  HZ EP        853  7.75                             123    0.06 9  205 293 
 ZAR  HN ES        853 33.45                             123    0.07 9  205 293 
 ZAR  HZ I         853 38.66         3.2 0.46            121            205 293 
                                                                                
