 2017  6 6 0815 38.0 L   6.737 -73.210141.5  RSN  4 0.3 1.0LRSN                1
 GAP=225        0.79       6.3     6.4  7.7  0.2813E+02 -0.4934E+01 -0.1093E+02E
 Epicentro: VILLANUEVA - SANTANDER                                             3
 ACTION:UPD 17-09-14 16:50 OP:jn   STATUS:               ID:20170606081538 L   I
 OLDACT:UP  17-06-06 16:25 OP:edw  STATUS:               ID:20170606080732     3
 OLDACT:UP  17-06-06 16:24 OP:edw  STATUS:               ID:20170606080732     3
 OLDACT:REG 17-06-06 12:29 OP:edw  STATUS:               ID:20170606080732     3
 2017-06-06-0808-00M.COL___344                                                 6
 STAT SP IPHASW D HRMM SECON CODA AMPLIT PERI AZIMU VELO AIN AR TRES W  DIS CAZ7
 BRR  HZ EP        815 58.05                             153   -0.4910 68.9 306 
 BRR  HE ES        816 14.74                             153    0.1610 68.9 306 
 BRR  HZ I         816 23.11         2.1 0.40            154           68.9 306 
 RUS  HZ EP        816  0.79                             145   -0.0910 94.5 171 
 RUS  HE ES        816 18.90                             145    0.1710 94.5 171 
 RUS  HZ I         816 20.06         1.4 0.28            156           94.5 171 
 PTB  HZ EP   4    816  4.25                             133    0.39 0  140 261 
 PTB  HN ES        816 23.85                             133   -0.19 9  140 261 
 ZAR  HZ EP        816 10.36                             122    0.59 9  200 295 
 ZAR  HE ES        816 34.53                             122   -0.02 9  200 295 
 ZAR  HZ I         816 39.33         1.2 0.22            127            200 295 
                                                                                
