 2017 11 6 0431 10.0 L   6.867 -73.117151.0  RSN 28 0.5 2.6LRSN                1
 GAP= 67        1.12       2.8     2.9  5.5  0.6586E+00  0.4472E+01  0.2702E+01E
 Epicentro: LOS SANTOS - SANTANDER                                             3
 ACTION:UPD 17-12-12 19:52 OP:rebc STATUS:               ID:20171106043110 L   I
 OLDACT:UP  17-11-06 16:18 OP:dnl  STATUS:               ID:20171106042744     3
 OLDACT:UP  17-11-06 16:18 OP:dnl  STATUS:               ID:20171106042744     3
 OLDACT:REG 17-11-06 13:05 OP:dnl  STATUS:               ID:20171106042744     3
 2017-11-06-0428-00M.COL___444                                                 6
 STAT SP IPHASW D HRMM SECON CODA AMPLIT PERI AZIMU VELO AIN AR TRES W  DIS CAZ7
 BAR2 EZ IP     C  431 30.22                             168   -0.2110 31.3 193 
 BAR2 EZ I         431 46.31       182.3 0.16            171           31.3 193 
 PAM  EZ IP     D  431 33.01                             154    0.6710 69.6  41 
 PAM  EN ES        431 49.94                             154    0.1710 69.6  41 
 PAM  EZ I         431 52.30        81.3 0.62            143           69.6  41 
 BRR  HZ IP     C  431 32.11                             153    0.4210 70.9 292 
 BRR  HE ES        431 48.90                             153    0.2810 70.9 292 
 BRR  HZ I         431 53.15        90.6 0.12            150           70.9 292 
 RUS  HZ IP     C  431 34.13                             143   -0.6510  108 178 
 RUS  HN ES   4    431 52.69                             143   -1.43 0  108 178 
 RUS  HZ I         431 53.94        50.9 0.24            140            108 178 
 PTB  HZ EP        431 36.80                             132   -1.02 9  152 256 
 PTB  HE ES        431 59.35                             132   -0.17 9  152 256 
 PTB  HZ I         432  1.34        53.7 0.12            129            152 256 
 TAM  HZ IP     D  431 38.53                             132    0.53 9  154 108 
 TAM  HZ I         431 58.99        27.8 0.46            123            154 108 
 TAM  HN ES        431 59.74                             132   -0.11 9  154 108 
 SPBC HZ EP        431 39.16                             129   -0.47 9  171 218 
 SPBC HE ES   4    432  1.27                             129   -1.48 0  171 218 
 SPBC HZ I         432  5.00        72.9 0.18            125            171 218 
 YPLC HZ IP     C  431 40.64                             127   -0.02 9  182 153 
 YPLC HN ES        432  4.26                             127   -0.33 9  182 153 
 YPLC HZ I         432  7.11        69.3 0.28            121            182 153 
 ZAR  HZ EP        431 43.42                             123    0.60 9  204 290 
 ZAR  HN ES        432  7.91                             123   -0.51 9  204 290 
 ZAR  HZ I         432 14.97        49.1 0.28            118            204 290 
 NOR  HZ EP        431 46.22                             119   -0.55 8  242 233 
 NOR  HN ES        432 14.81                             119   -0.65 8  242 233 
 NOR  HZ I         432 21.61        31.5 0.14            115            242 233 
 CHI  HZ EP        431 48.52                             117   -0.33 8  257 195 
 CHI  HN ES        432 20.11                             117    0.95 8  257 195 
 CHI  HZ I         432 28.08        12.1 0.60            113            257 195 
 ROSC BZ IP     C  431 50.08                             117    0.81 8  261 211 
 ROSC BE ES   4    432 22.53                             117    2.62 0  261 211 
 ROSC BZ I         432 27.31        30.2 0.40            113            261 211 
 URE  HZ EP        431 51.54                             115    0.19 7  284 290 
 URE  HN ES   4    432 22.39                             115   -1.23 0  284 290 
 URE  HZ I         432 23.62        47.1 0.14            109            284 290 
 GUY2CHZ EP        431 55.21                             113    0.59 7  308 234 
 GUY2CHN ES   4    432 30.92                             113    1.48 0  308 234 
 GUY2CHZ I         432 37.07        22.8 0.30                           308 234 
 VIL  EZ EP   2    431 53.45                             112   -1.09 3  311 192 
 VIL  EN ES        432 29.21                             112   -0.09 7  311 192 
 VIL  EZ I         432 33.22        17.3 0.36            108            311 192 
 PTGC HZ IP   4 C  431 53.40                             112   -1.34 0  314 160 
 PTGC HN ES   4    432 26.52                             112   -3.13 0  314 160 
 PTGC HZ I         432 30.43        15.4 0.24            107            314 160 
 LL6C HZ EP        431 55.13                             112    0.04 7  318 357 
 LL6C HN ES        432 29.39                             112   -0.88 7  318 357 
 LL6C HZ I         432 39.10         7.6 0.72            106            318 357 
 CBOC HZ EP        431 58.60                             110    0.86 7  339 251 
 CBOC HN ES        432 35.17                             110    0.18 7  339 251 
 CBOC HZ I         432 38.11         8.7 0.20            106            339 251 
 DBB  EZ EP        431 58.40                             110    0.40 7  342 273 
 DBB  EN ES        432 35.44                             110   -0.00 7  342 273 
 DBB  EZ I         432 36.34        13.5 0.20            106            342 273 
 ARGC HZ EP   9    432  1.21                             109    2.04 0  353 339 
 ARGC HN ES        432 40.49                             109    0.92 6  353 339 
 ARGC HZ I         432 49.74         6.8 0.28            104            353 339 
 APAC HZ EP        432  4.68                             107    0.22 6  399 287 
 APAC HE ES        432 47.21                             107    0.27 6  399 287 
 APAC HZ I         432 49.31         7.7 0.28            102            399 287 
 PRA  HZ EP        432  4.05                             107   -0.58 6  400 209 
 PRA  HN ES        432 46.78                             107   -0.48 6  400 209 
 PRA  HZ I         432 51.12        14.1 0.78            103            400 209 
 ORTC HZ EP        432  5.44                             107    0.43 6  403 216 
 ORTC HN ES        432 48.73                             107    0.80 6  403 216 
 ORTC HZ I         432 53.56         9.1 0.24            103            403 216 
 SJC  HZ EP        432  4.90                             107   -0.31 6  405 326 
 SJC  HN ES   4    432 46.18                             107   -2.10 0  405 326 
 SJC  HZ I         432 50.37         8.4 0.44            102            405 326 
 PAL  HZ EP        432  6.36                             106    0.26 6  412 238 
 PAL  HE ES   4    432 49.00                             106   -0.87 0  412 238 
 PAL  HZ I         432 55.15        11.7 0.28            102            412 238 
 CRJC HZ EP        432 10.98                             104   -0.76 5  460   3 
 CRJC HN ES   4    432 57.93                             104   -1.97 0  460   3 
 CRJC HZ I         432 59.37        10.1 0.40             99            460   3 
 SMAR HZ EP   2    432 15.54                             103    0.31 2  491 346 
 SMAR HZ I         433 16.68         8.8 0.18             99            491 346 
 URI  HZ EP   4    432 21.09                             101   -1.07 0  549  13 
 URI  HE ES   4    433 15.38                             101   -3.07 0  549  13 
 URI  HZ I         433 35.50         2.3 0.70             97            549  13 
                                                                                
