 2010  9 6 0230  7.5 L   6.812 -73.032136.6  RSN  7 0.4 1.6LRSN                1
 GAP=171        0.90       6.2    11.2  8.5  0.1538E+02 -0.3593E+02 -0.1668E+02E
 Epicentro: CEPITA - SANTANDER                                                 3
 ACTION:UP  11-02-18 11:00 OP:tino STATUS:               ID:20100906023007 L   I
 2010-09-06-0228-27S.COL___120                                                 6
 STAT SP IPHASW D HRMM SECON CODA AMPLIT PERI AZIMU VELO SNR AR TRES W  DIS CAZ7
 BTL  SZ EP        230 26.31                             168     0.210   29 294 
 BTL  SZ ES   1    230 41.27                             168     0.6 7   29 294 
 BAR2 SZ EP   1    230 25.96                             167    -0.2 7   30 214 
 BAR2 SZ ES   1    230 40.10                             167    -0.6 7   30 214 
 BAR2 SZ I         230 41.72        12.9 0.20                            30 214 
 BRR  HZ EP   1    230 27.93                             147    -0.4 7   82 294 
 BRR  HN ES   1    230 44.44                             147    -0.1 7   82 294 
 BRR  HZ I         230 49.30        12.1 0.10                            82 294 
 RUS  HZ EP   1    230 30.41                             142     0.0 7  102 183 
 RUS  HN ES   1    230 48.51                             142     0.2 7  102 183 
 RUS  HZ I         230 50.02         3.2 0.29                           102 183 
 GUE  SZ EP   1    230 31.61                             138     0.5 7  113   6 
 GRA  SZ EP   1    230 31.03                             136    -0.5 7  121  12 
 HEL  HZ EP   2    230 49.00                             112     0.4 4  285 256 
 HEL  HZ I         231 20.47         1.5 0.54                           285 256 
                                                                                
