 2017  4 6 0117 56.0 L   6.754 -73.127144.2  RSN 11 0.3 1.9LRSN                1
 GAP=115        0.83       2.9     2.8  4.4  0.1408E+01  0.3219E+01  0.3171E+01E
 Epicentro: LOS SANTOS - SANTANDER                                             3
 ACTION:UPD 17-05-30 21:08 OP:jn   STATUS:               ID:20170406011756 L   I
 OLDACT:REG 17-04-06 12:42 OP:cara STATUS:               ID:20170406011745     3
 2017-04-06-0118-00M.COL___362                                                 6
 STAT SP IPHASW D HRMM SECON CODA AMPLIT PERI AZIMU VELO AIN AR TRES W  DIS CAZ7
 BAR2 EZ EP        118 15.46                             172    0.0810 18.9 199 
 BAR2 EZ ES        118 30.39                             172   -0.0910 18.9 199 
 BAR2 EZ I         118 31.72        12.5 0.46            169           18.9 199 
 BRR  HZ EP        118 16.57                             151   -0.6810 75.5 301 
 BRR  HN ES        118 34.31                             151    0.5010 75.5 301 
 PAM  EZ EP        118 18.47                             150    0.2310 80.2  36 
 PAM  EN ES        118 35.47                             150   -0.1010 80.2  36 
 PAM  EZ I         118 36.23         8.3 0.18            154           80.2  36 
 RUS  HZ EP        118 19.34                             145    0.1010 95.4 177 
 RUS  HN ES        118 37.43                             145    0.0710 95.4 177 
 RUS  HZ I         118 38.53         8.5 0.48            145           95.4 177 
 PTB  HZ EP        118 22.28                             131   -0.68 9  149 261 
 PTB  HN ES        118 43.53                             131   -0.44 9  149 261 
 PTB  HZ I         118 50.51        10.9 0.34            130            149 261 
 SPBC HZ EP        118 24.44                             129    0.29 9  161 221 
 SPBC HN ES        118 46.10                             129    0.01 9  161 221 
 SPBC HZ I         118 49.78        19.8 0.24            129            161 221 
 YPLC HZ EP        118 25.36                             127    0.19 9  171 151 
 YPLC HN ES        118 47.66                             127   -0.24 9  171 151 
 YPLC HZ I         118 50.29         9.7 0.30            129            171 151 
 ZAR  HZ EP        118 28.53                             121   -0.23 8  208 293 
 ZAR  HN ES        118 54.76                             121    0.46 8  208 293 
 ZAR  HZ I         119  1.61        18.3 0.28            122            208 293 
 CHI  HZ EP        118 33.52                             117    0.37 8  244 196 
 CHI  HE ES   4    119  3.53                             117    1.41 0  244 196 
 CHI  HZ I         119  4.78         2.7 0.48            118            244 196 
 HEL  HZ EP        118 36.62                             114    0.39 8  273 257 
 HEL  HE ES        119  7.72                             114    0.12 8  273 257 
 HEL  HZ I         119 14.06         6.5 0.26            115            273 257 
 PRA  HZ EP        118 48.85                             106   -0.23 6  389 210 
 PRA  HE ES        119 30.54                             106    0.07 6  389 210 
 PRA  HZ I         119 35.38         3.6 0.42            107            389 210 
                                                                                
