 2017  1 6 0815 47.4 L   6.698 -73.238158.2  RSN  4 0.2 1.0LRSN                1
 GAP=218        0.52       4.4     4.3  5.1  0.1241E+02 -0.3540E+00 -0.1341E+01E
 Epicentro: BARICHARA - SANTANDER                                              3
 ACTION:UPD 17-05-22 15:56 OP:jn   STATUS:               ID:20170106081547 L   I
 OLDACT:DUP 17-01-06 18:22 OP:and  STATUS:               ID:20170106080744d    3
 OLDACT:UP  17-01-06 18:21 OP:and  STATUS:               ID:20170106080743     3
 OLDACT:UP  17-01-06 18:20 OP:and  STATUS:               ID:20170106080743     3
 OLDACT:REG 17-01-06 12:49 OP:and  STATUS:               ID:20170106080743     3
 2017-01-06-0808-00M.COL___363                                                 6
 STAT SP IPHASW D HRMM SECON CODA AMPLIT PERI AZIMU VELO AIN AR TRES W  DIS CAZ7
 BRR  HZ EP        816  9.50                             155   -0.2610 69.2 311 
 BRR  HE ES        816 27.42                             155    0.1910 69.2 311 
 RUS  HZ EP        816 11.95                             149    0.2510 90.7 169 
 RUS  HN ES        816 30.51                             149   -0.1810 90.7 169 
 RUS  HZ I         816 32.77         1.7 0.44            149           90.7 169 
 PTB  HZ EP        816 14.42                             137    0.06 9  136 263 
 PTB  HN ES        816 35.44                             137    0.03 9  136 263 
 PTB  HZ I         816 37.74         1.1 0.28            136            136 263 
 ZAR  HE ES        816 45.67                             126   -0.10 9  199 296 
 ZAR  HZ I         816 51.67         1.2 0.23            125            199 296 
                                                                                
