 2015  1 6 0553  6.3 L   6.798 -73.164148.4  RSN  7 0.5 1.6LRSN                1
 GAP=199        1.35       5.4     7.5  8.7  0.1247E+02  0.4982E+01 -0.1104E+02E
 Epicentro: LOS SANTOS - SANTANDER                                             3
 ACTION:UPD 15-03-02 15:37 OP:nd   STATUS:               ID:20150106055306 L   I
 OLDACT:DUP 15-01-06 15:53 OP:cam  STATUS:               ID:20150106054816d    3
 2015-01-06-0548-15M.COL___274                                                 6
 STAT SP IPHASW D HRMM SECON CODA AMPLIT PERI AZIMU VELO AIN AR TRES W  DIS CAZ7
 BAR2 EZ EP        553 26.34                             171    0.0810 22.9 185 
 BAR2 EZ ES        553 41.71                             171   -0.1010 22.9 185 
 BAR2 EZ I         553 42.71        10.0 0.20            167           22.9 185 
 BRR  HZ IP     D  553 28.09                             154    0.4210 69.6 299 
 BRR  HN ES        553 45.26                             154    0.9510 69.6 299 
 BRR  HZ I         553 48.81         5.4 0.12            148           69.6 299 
 RUS  HZ EP        553 30.81                             144    0.4810  101 175 
 RUS  HE ES        553 48.34                             144   -0.7210  101 175 
 RUS  HZ I         553 49.85         3.9 0.22            146            101 175 
 PTB  HZ EP        553 33.00                             133   -0.33 9  146 259 
 PTB  HN ES        553 53.56                             133   -0.83 9  146 259 
 PTB  HZ I         553 59.49         3.4 0.34            130            146 259 
 SPBC HZ EP        553 35.18                             130    0.28 9  162 218 
 SPBC HN ES        553 57.15                             130   -0.03 9  162 218 
 SPBC HZ I         554  4.76         6.1 0.18            129            162 218 
 ZAR  HZ EP        553 39.20                             123    0.44 9  202 292 
 ZAR  HN ES        554  4.39                             123    0.33 9  202 292 
 ZAR  HZ I         554 13.88         3.7 0.44            122            202 292 
 SML  HZ EP        553 42.62                             118   -0.41 8  243 336 
 SML  HN ES        554 10.72                             118   -0.94 8  243 336 
 SML  HZ I         554 17.13         6.2 0.24            119            243 336 
                                                                                
