 2016  9 6 0853 58.8 L   6.744 -73.099137.4  RSN  5 0.4 0.7LRSN                1
 GAP=145        0.84       4.8     4.7  7.6  0.1760E+01  0.8647E+01 -0.9787E+01E
 Epicentro: JORDAN - SANTANDER                                                 3
 ACTION:UPD 17-08-17 21:07 OP:lp   STATUS:               ID:20160906085358 L   I
 OLDACT:UP  16-09-06 18:07 OP:and  STATUS:               ID:20160906084734d    3
 OLDACT:UP  16-09-06 17:22 OP:and  STATUS:               ID:20160906084734d    3
 OLDACT:DUP 16-09-06 17:18 OP:and  STATUS:               ID:20160906084734d    3
 OLDACT:REG 16-09-06 13:20 OP:dani STATUS:               ID:20160906084732     3
 2016-09-06-0848-00M.COL___322                                                 6
 STAT SP IPHASW D HRMM SECON CODA AMPLIT PERI AZIMU VELO AIN AR TRES W  DIS CAZ7
 BAR2 EZ EP   2    854 17.27                             172   -0.03 5 19.2 209 
 BAR2 EZ ES        854 31.95                             172    0.1910 19.2 209 
 BAR2 EZ I         854 35.44         1.1 0.09            176           19.2 209 
 BRR  HZ EP        854 19.52                             148    0.0510 78.8 301 
 BRR  HN ES        854 36.09                             148    0.4610 78.8 301 
 PAM  EZ EP        854 20.46                             149    0.2610 79.2  34 
 PAM  EN ES        854 36.56                             149   -0.3810 79.2  34 
 PAM  EZ I         854 47.08         1.3 0.36            147           79.2  34 
 RUS  HE ES        854 38.50                             144   -0.2510 94.2 179 
 RUS  HZ I         854 42.06         0.6 0.24            150           94.2 179 
 ZAR  HZ EP   2    854 32.11                             120    0.68 4  211 293 
 ZAR  HE ES        854 56.29                             120   -0.62 8  211 293 
                                                                                
