 2016  5 6 0633 40.7 L   6.841 -73.330127.5  RSN  8 0.5 1.6LRSN                1
 GAP= 98        1.15       3.8     4.4  8.0 -0.2704E+01  0.7192E+01 -0.5082E+01E
 Epicentro: ZAPATOCA - SANTANDER                                               3
 ACTION:UPD 16-08-18 17:42 OP:cam  STATUS:               ID:20160506063340 L   I
 OLDACT:UP  16-05-06 17:03 OP:ak   STATUS:               ID:20160506062744     3
 OLDACT:UP  16-05-06 16:54 OP:ak   STATUS:               ID:20160506062744     3
 OLDACT:REG 16-05-06 13:43 OP:ak   STATUS:               ID:20160506062744     3
 2016-05-06-0627-44M.COL___292                                                 6
 STAT SP IPHASW D HRMM SECON CODA AMPLIT PERI AZIMU VELO AIN AR TRES W  DIS CAZ7
 BAR2 EZ EP        633 58.49                             165    0.1310 32.1 149 
 BAR2 EZ ES        634 11.91                             165   -0.2310 32.1 149 
 BAR2 EZ I         634 12.99        16.1 0.14            167           32.1 149 
 BRR  HZ IP     C  633 59.00                             157    0.2210 51.4 305 
 BRR  HN ES        634 13.16                             157    0.2710 51.4 305 
 BRR  HZ I         634 14.03        10.5 0.10            157           51.4 305 
 PAM  EZ EP        634  2.09                             143    0.3010 88.8  52 
 PAM  EN ES        634 18.62                             143    0.3810 88.8  52 
 PAM  EZ I         634 20.30         4.7 0.18            143           88.8  52 
 RUS  HZ EP   2    634  3.62                             137    0.30 5  108 165 
 RUS  HE ES        634 20.50                             137   -0.4710  108 165 
 PTB  HZ EP        634  3.85                             132   -0.6010  129 255 
 PTB  HE ES        634 22.26                             132   -0.7210  129 255 
 SPBC HZ EP   2    634  7.29                             126    0.25 5  155 212 
 SPBC HN ES        634 28.35                             126    0.76 9  155 212 
 OCA  HZ EP        634  6.69                             126   -0.38 9  155   0 
 OCA  HN ES        634 27.18                             126   -0.47 9  155   0 
 OCA  HZ I         634 31.75         8.2 0.22            126            155   0 
 ZAR  HN ES        634 33.27                             121    0.73 9  183 293 
                                                                                
