 2011 11 6 0103 52.4 L   7.093 -73.419112.2  RSN  6 0.2 1.8LRSN                1
 GAP= 92        0.42       2.3     3.4  3.9 -0.5096E+00 -0.2988E+01 -0.9014E+00E
 Epicentro: SAN VICENTE DE CHUCURI - SANTANDER                                 3
 ACTION:UPD 12-07-13 16:08 OP:ep   STATUS:               ID:20111106010352 L   I
 2011-11-06-0059-31S.COL___174                                                 6
 STAT SP IPHASW D HRMM SECON CODA AMPLIT PERI AZIMU VELO AIN AR TRES W  DIS CAZ7
 BRR  HZ EP        1 4  7.87                             163   -0.0910 32.4 273 
 BRR  HE ES        1 4 20.09                             163    0.0110 32.4 273 
 BRR  HZ I         1 4 21.27        38.1 0.18                          32.4 273 
 BAR2 SZ EP   1    1 4  9.74                             149    0.00 7 61.2 155 
 BAR2 SZ ES   2    1 4 22.92                             149   -0.34 5 61.2 155 
 BAR2 SZ I         1 4 24.26        13.7 0.42                          61.2 155 
 PAM  SZ EP   2    1 4 11.27                             141   -0.41 5 84.0  71 
 PAM  SE ES   2    1 4 27.29                             141    0.57 5 84.0  71 
 OCA  SZ EP        1 4 15.00                             128   -0.0210  127   5 
 OCA  SZ ES   2    1 4 32.78                             128    0.13 5  127   5 
 OCA  SZ I         1 4 36.95         7.0 0.39                           127   5 
 RUS  HZ EP   2    1 4 16.65                             126    0.14 5  138 164 
 RUS  HE ES   2    1 4 35.37                             126    0.06 5  138 164 
 NOR  SN ES   2    1 4 53.06                             111    0.39 4  233 224 
                                                                                
