 2013  8 6 0500  1.2 L   6.667 -73.227157.1  RSN  4 0.3 0.9LRSN                1
 GAP=197        0.78       6.6     6.4  8.3  0.1747E+02 -0.6294E+00 -0.9349E+01E
 Epicentro: BARICHARA - SANTANDER                                              3
 ACTION:UPD 14-01-14 08:59 OP:ep   STATUS:               ID:20130806050001 L   I
 OLDACT:REG 13-08-06 07:50 OP:jn   STATUS:               ID:20130806045959     3
 2013-08-06-0459-59M.COL___268                                                 6
 STAT SP IPHASW D HRMM SECON CODA AMPLIT PERI AZIMU VELO AIN AR TRES W  DIS CAZ7
 BAR2 SZ EP        5 0 21.62                             176   -0.4010 9.68 149 
 BRR  HZ EP        5 0 23.62                             154   -0.0410 72.3 312 
 BRR  HN ES        5 0 41.36                             154    0.1910 72.3 312 
 BRR  HZ I         5 0 44.35         2.4 0.42            154           72.3 312 
 RUS  HN ES        5 0 44.09                             150    0.1410 87.1 169 
 RUS  HZ I         5 0 45.10         1.0 0.56            153           87.1 169 
 PTB  HZ EP        5 0 28.62                             137    0.45 9  137 264 
 PTB  HN ES        5 0 48.88                             137   -0.33 9  137 264 
 PTB  HZ I         5 0 51.55         0.9 0.52            139            137 264 
                                                                                
