 2012  6 6 0524  4.4 L   6.780 -73.131124.6  RSN  5 0.5 1.7LRSN                1
 GAP=203        0.94       6.8     8.6 21.1 -0.2035E+02  0.2799E+02  0.1367E+02E
 Epicentro: LOS SANTOS - SANTANDER                                             3
 ACTION:UPD 12-08-06 17:47 OP:ep   STATUS:               ID:20120606052408 L   I
 2012-06-06-0520-00M.COL___201                                                 6
 STAT SP IPHASW D HRMM SECON CODA AMPLIT PERI AZIMU VELO AIN AR TRES W  DIS CAZ7
 BAR2 SZ EP   1    524 21.94                             170    0.51 7 21.5 195 
 BAR2 SZ I         524 37.95         7.5 0.24            162           21.5 195 
 PTB  HZ EP   1    524 29.00                             127   -0.83 7  149 260 
 PTB  HN ES   1    524 49.72                             127    0.05 7  149 260 
 PTB  HZ I         524 52.13         5.1 0.09            137            149 260 
 OCA  HN ES   1    524 51.97                             124   -0.47 7  163 353 
 OCA  HZ I         524 55.62        15.0 0.41            132            163 353 
 ZAR  HZ EP   1    524 36.50                             117    0.70 6  206 293 
 ZAR  HN ES   1    525  0.67                             117    0.37 6  206 293 
 ZAR  HZ I         525  6.97         7.6 0.27            127            206 293 
 NOR  SN ES   1    525  5.64                             114   -0.33 6  235 235 
                                                                                
