 2011  8 6 0724 56.2 L   6.742 -73.164145.1  RSN  4 0.2 1.5LRSN                1
 GAP=231        0.58       5.3     7.5  6.2  0.1963E+02 -0.8157E+00  0.5676E+00E
 Epicentro: VILLANUEVA - SANTANDER                                             3
 ACTION:UPD 12-07-25 14:06 OP:epov STATUS:               ID:20110806072456 L   I
 2011-08-06-0720-00M.COL___145                                                 6
 STAT SP IPHASW D HRMM SECON CODA AMPLIT PERI AZIMU VELO AIN AR TRES W  DIS CAZ7
 BAR2 SZ EP        725 15.46                             173   -0.2110 16.7 187 
 BAR2 SZ ES   1    725 30.55                             173   -0.28 7 16.7 187 
 BAR2 SZ I         725 32.06         7.7 0.32                          16.7 187 
 BRR  HZ EP        725 17.26                             152   -0.1410 72.8 304 
 BRR  HZ I         725 17.44         9.2 0.16                          72.8 304 
 BRR  HN ES   1    725 34.31                             152    0.40 7 72.8 304 
 RUS  HZ EP        725 19.76                             145    0.2810 94.3 175 
 RUS  HN ES   1    725 37.68                             145    0.07 7 94.3 175 
 RUS  HZ I         725 39.10         3.0 0.28                          94.3 175 
 NOR  SE ES   2    725 58.56                             119   -0.19 4  229 235 
                                                                                
