 2015  8 6 0824 56.1 L   6.815 -73.143146.0  RSN 19 0.5 2.3LRSN                1
 GAP=183        1.03       2.9     4.4  5.7 -0.8109E+00  0.6971E+01  0.3020E+01E
 Epicentro: LOS SANTOS - SANTANDER                                             3
 ACTION:UPD 15-09-15 23:00 OP:cam  STATUS:               ID:20150806082456 L   I
 OLDACT:UP  15-08-06 18:49 OP:spq  STATUS:               ID:20150806081747     3
 OLDACT:REG 15-08-06 13:16 OP:spq  STATUS:               ID:20150806081747     3
 2015-08-06-0817-47M.COL___349                                                 6
 STAT SP IPHASW D HRMM SECON CODA AMPLIT PERI AZIMU VELO AIN AR TRES W  DIS CAZ7
 BAR2 EZ EP        825 15.71                             170   -0.0410 25.0 190 
 BAR2 EZ ES   1    825 30.57                             170   -0.54 7 25.0 190 
 BAR2 EZ I         825 32.45        41.8 0.16            167           25.0 190 
 BRR  HZ IP     C  825 17.49                             153    0.2910 70.7 297 
 BRR  HN ES        825 34.90                             153    1.2010 70.7 297 
 BRR  HZ I         825 37.40        30.8 0.35            150           70.7 297 
 RUS  HZ EP        825 19.67                             144   -0.2810  102 176 
 RUS  HN ES   1    825 38.55                             144   -0.03 7  102 176 
 RUS  HZ I         825 39.48        15.2 0.50            144            102 176 
 OCA  HZ EP        825 24.10                             130   -0.13 9  159 353 
 OCA  HN ES        825 45.75                             130   -0.46 9  159 353 
 OCA  HZ I         825 49.04        37.9 0.26            132            159 353 
 ZAR  HZ EP        825 28.26                             123   -0.22 9  204 292 
 ZAR  HN ES        825 53.22                             123   -0.56 9  204 292 
 ZAR  HZ I         825 58.91        27.8 0.26            123            204 292 
 NOR  HZ EP        825 31.81                             119   -0.12 8  236 234 
 NOR  HE ES        825 59.55                             119   -0.36 8  236 234 
 NOR  HZ I         826  5.71        14.2 0.14            119            236 234 
 SML  HZ EP        825 32.62                             118    0.07 8  242 335 
 SML  HE ES   1    826  1.08                             118    0.07 6  242 335 
 SML  HZ I         826  4.50        21.5 0.24            119            242 335 
 CHI  HZ EP        825 34.02                             117    0.07 8  250 195 
 CHI  HN ES        826  3.15                             117   -0.35 8  250 195 
 CHI  HZ I         826  5.32         7.9 0.36            118            250 195 
 HEL  HZ EP   1    825 37.00                             115    0.64 6  273 255 
 HEL  HN ES        826  8.19                             115    0.39 8  273 255 
 HEL  HZ I         826 13.80         9.6 0.28            115            273 255 
 GUY2CHZ EP        825 40.68                             112    0.87 7  302 235 
 GUY2CHE ES   4    826 16.59                             112    2.65 0  302 235 
 GUY2CHZ I         826 21.92         9.6 0.30                           302 235 
 PTGC HZ EP   4    825 38.85                             112   -1.23 0  310 159 
 PTGC HE ES   4    826 11.77                             112   -2.65 0  310 159 
 PTGC HZ I         826 16.67         7.3 0.50            113            310 159 
 CBOC HZ EP        825 43.26                             110    0.19 7  334 252 
 CBOC HE ES        826 18.70                             110   -1.05 7  334 252 
 CBOC HZ I         826 27.82         2.6 0.26            110            334 252 
 DBB  SZ EP   1    825 43.25                             110   -0.32 5  340 274 
 DBB  SZ ES   1    826 20.12                             110   -0.50 5  340 274 
 DBB  SZ I         826 21.33        24.7 0.28            110            340 274 
 TOL  SZ EP        825 45.21                             109    0.73 7  345 224 
 TOL  SN ES        826 22.73                             109    0.48 7  345 224 
 TOL  SZ I         826 30.39         7.8 0.34            110            345 224 
 MON  HZ EP   4    825 42.76                             109   -2.22 0  353 308 
 MON  HN ES   4    826 21.32                             109   -1.82 0  353 308 
 MON  HZ I         826 23.58         4.5 0.16            110            353 308 
 ANIL HN ES   4    826 26.81                             108    1.80 0  359 224 
 ANIL HZ I         826 33.63        20.9 0.31            109            359 224 
 ORTC HZ EP        825 49.93                             106   -0.23 6  397 216 
 ORTC HN ES        826 32.54                             106    0.18 6  397 216 
 ORTC HZ I         826 38.97         4.4 0.68            107            397 216 
 PAL  HZ EP        825 51.22                             106   -0.14 6  407 239 
 PAL  HN ES   1    826 33.89                             106   -0.60 4  407 239 
 PAL  HZ I         826 36.74         2.6 0.74            107            407 239 
 SJC  HZ EP   4    825 49.80                             106   -1.68 0  408 327 
 SJC  HN ES   4    826 32.88                             106   -1.84 0  408 327 
 SJC  HZ I         826 35.08         3.3 0.50            107            408 327 
                                                                                
