 2012 11 6 0552 49.9 L   6.677 -73.530112.7  RSN  4 0.2 1.4LRSN                1
 GAP=187        0.52       5.4     9.9  6.0  0.4297E+02 -0.1263E+02 -0.4571E+01E
 Epicentro: EL CARMEN DE CHUCURI - SANTANDER                                   3
 ACTION:UPD 12-12-05 15:31 OP:}ep  STATUS:               ID:20121106055249 L   I
 2012-11-06-0550-00M.COL___230                                                 6
 STAT SP IPHASW D HRMM SECON CODA AMPLIT PERI AZIMU VELO AIN AR TRES W  DIS CAZ7
 BAR2 SZ EP        553  6.38                             159    0.2910 39.6 104 
 BAR2 SZ ES        553 18.80                             159    0.0510 39.6 104 
 BAR2 SZ I         553 19.38         7.8 0.12                          39.6 104 
 BRR  HN ES        553 19.16                             154   -0.0210 51.7 337 
 BRR  HN I         553 19.82         8.4 0.32                          51.7 337 
 GIR2 SZ EP        553  6.68                             151   -0.2110 58.0  40 
 RUS  HE ES        553 26.41                             136   -0.1210 99.8 150 
 RUS  HE I         553 28.69         4.0 0.34                          99.8 150 
                                                                                
