 2017  2 6 0053 33.0 L   6.841 -73.090144.6  RSN  7 0.5 1.2LRSN                1
 GAP=142        1.29       6.0     6.4  8.2  0.6172E+01  0.6388E+01 -0.8916E+00E
 Epicentro: LOS SANTOS - SANTANDER                                             3
 ACTION:UPD 17-05-24 15:33 OP:jn   STATUS:               ID:20170206005333 L   I
 OLDACT:UP  17-02-06 13:00 OP:edw  STATUS:               ID:20170206004745     3
 OLDACT:UP  17-02-06 12:59 OP:edw  STATUS:               ID:20170206004745     3
 OLDACT:REG 17-02-06 11:28 OP:edw  STATUS:               ID:20170206004745     3
 2017-02-06-0048-00M.COL___328                                                 6
 STAT SP IPHASW D HRMM SECON CODA AMPLIT PERI AZIMU VELO AIN AR TRES W  DIS CAZ7
 BAR2 EZ ES        054  7.77                             168   -0.2010 29.4 200 
 PAM  EZ EP        053 55.32                             152    0.6310 70.0  38 
 PAM  EN ES        054 10.72                             152   -0.8710 70.0  38 
 PAM  EZ I         054 15.13         4.0 0.38            153           70.0  38 
 BRR  HZ IP     C  053 54.50                             151    0.2510 74.8 293 
 BRR  HN ES        054 11.57                             151    0.7510 74.8 293 
 RUS  HZ EP        053 56.93                             142   -0.0510  105 180 
 RUS  HE ES        054 15.78                             142    0.1210  105 180 
 RUS  HZ I         054 17.84         1.6 0.34            144            105 180 
 PTB  HZ EP   9    053 59.55                             130   -0.99 0  155 258 
 PTB  HN ES        054 20.20                             131   -0.81 9  155 258 
 PTB  HZ I         054 22.10         2.4 0.30            130            155 258 
 ZAR  HZ EP        054  5.74                             121   -0.08 8  208 290 
 ZAR  HN ES        054 30.85                             121   -0.55 8  208 290 
 ZAR  HZ I         054 38.33         1.7 0.12            121            208 290 
 CHI  HZ EP   2    054 11.01                             116   -0.31 4  255 196 
 CHI  HE ES   2    054 40.29                             116   -0.90 4  255 196 
                                                                                
