 2011  4 6 0708 51.2 L   6.752 -73.065144.2  RSN  6 0.2 1.6LRSN                1
 GAP=203        0.51       4.1     5.8  5.2 -0.8983E+01 -0.1497E+01 -0.7993E+00E
 Epicentro: LOS SANTOS - SANTANDER                                             3
 ACTION:UP  11-06-22 15:29 OP:REBC STATUS:               ID:20110406070851 L   I
 2011-04-06-0704-22S.COL___124                                                 6
 STAT SP IPHASW D HRMM SECON CODA AMPLIT PERI AZIMU VELO SNR AR TRES W  DIS CAZ7
 BAR2 SZ EP        7 9 10.85                             171     0.310   22 216 
 BAR2 SZ ES   1    7 9 25.56                             171    -0.2 7   22 216 
 BAR2 SZ I         7 9 26.76         9.1 0.05                            22 216 
 GIR2 SZ ES   3    7 9 26.05                                    -0.2 2   39 339 
 BRR  HZ EP        7 9 12.66                             149    -0.110   82 299 
 BRR  HZ I         7 9 12.86        16.3 0.16                            82 299 
 BRR  HN ES   1    7 9 29.79                             149     0.2 7   82 299 
 GRA  SZ EP   1    7 9 16.53                             136     0.0 7  129  13 
 GRA  SZ I         7 9 17.93         3.3 0.23                           129  13 
 GRA  SZ ES   2    7 9 35.99                             136    -0.3 5  129  13 
 OCA  SZ EP   2    7 9 19.50                             128    -0.5 5  167 350 
 OCA  SZ ES   2    7 9 42.90                             128     0.4 5  167 350 
 OCA  SZ I         7 9 44.40         4.4 0.19                           167 350 
 NOR  SZ EP   2    7 9 27.39                             118     0.1 4  239 237 
 NOR  SE ES   2    7 9 55.16                             118    -0.3 4  239 237 
                                                                                
