 2015  7 6 0725 32.7 L   7.455 -73.229132.5  RSN  5 0.3 1.5LRSN                1
 GAP=109        0.71       4.1     4.4  7.7  0.5844E+01  0.2004E+02  0.9483E+01E
 Epicentro: EL PLAYON - SANTANDER                                              3
 ACTION:UPD 15-09-08 21:47 OP:cam  STATUS:               ID:20150706072532 L   I
 OLDACT:DUP 15-07-06 17:15 OP:spq  STATUS:               ID:20150706071739d    3
 2015-07-06-0717-38M.COL___331                                                 6
 STAT SP IPHASW D HRMM SECON CODA AMPLIT PERI AZIMU VELO AIN AR TRES W  DIS CAZ7
 PAM  EE ES        726  8.12                             155    0.2310 59.9 102 
 PAM  EZ I         726  9.58         5.4 0.56            159           59.9 102 
 OCA  HZ EP        725 54.06                             145    0.3810 87.3 353 
 OCA  HE ES        726  9.82                             145   -0.2410 87.3 353 
 OCA  HZ I         726 13.11         8.4 0.22            146           87.3 353 
 BAR2 EZ EP        725 53.96                             142   -0.4310 95.5 177 
 BAR2 EZ ES   4    726  9.49                             142   -1.85 0 95.5 177 
 BAR2 EZ I         726 10.55         9.2 0.30            146           95.5 177 
 SML  HZ EP   1    726  1.28                             124   -0.00 7  175 328 
 SML  HE ES   1    726 23.26                             124   -0.35 7  175 328 
 ZAR  HZ EP        726  1.87                             123    0.12 9  180 271 
 ZAR  HN ES        726 24.59                             123    0.16 9  180 271 
 ZAR  HZ I         726 27.53         3.1 0.28            125            180 271 
                                                                                
