 2014  2 6 0945 18.7 L   6.823 -73.185139.7  RSN 11 0.5 1.9LRSN                1
 GAP=131        1.12       2.9     4.4  6.6 -0.2017E+01  0.1143E+02 -0.4556E-01E
 Epicentro: ZAPATOCA - SANTANDER                                               3
 ACTION:UPD 14-03-10 08:07 OP:ep   STATUS:               ID:20140206094518 L   I
 OLDACT:REG 14-02-06 08:33 OP:mh   STATUS:               ID:20140206094000     3
 2014-02-06-0940-00M.COL___291                                                 6
 STAT SP IPHASW D HRMM SECON CODA AMPLIT PERI AZIMU VELO AIN AR TRES W  DIS CAZ7
 BAR2 SZ EP        945 37.66                             169    0.0510 25.5 179 
 BAR2 SZ ES        945 52.85                             169    0.4610 25.5 179 
 BAR2 SZ I         945 54.57        23.4 0.36            169           25.5 179 
 PAM  SZ EP        945 40.42                             149    0.1210 78.4  43 
 PAM  SE ES        945 57.12                             149   -0.0510 78.4  43 
 PAM  SZ I         945 59.69        10.7 0.50            153           78.4  43 
 RUS  HZ EP        945 41.75                             142   -0.2810  103 174 
 RUS  HE ES        945 59.76                             142   -0.5110  103 174 
 RUS  HZ I         946  2.75         8.4 0.38            144            103 174 
 PTB  HZ EP        945 43.76                             131   -1.03 9  144 258 
 PTB  HN ES        946  4.43                             131   -0.75 9  144 258 
 PTB  HZ I         946  8.05        15.0 0.18            132            144 258 
 OCA  HN ES        946  8.11                             129    0.39 9  157 355 
 OCA  HZ I         946 14.26         5.4 0.30            131            157 355 
 SPBC HZ EP        945 46.78                             128    0.15 9  162 217 
 SPBC HN ES        946  8.68                             128    0.23 9  162 217 
 SPBC HZ I         946 15.96        13.3 0.34            130            162 217 
 ZAR  HZ EP        945 50.32                             122    0.12 9  199 292 
 ZAR  HN ES        946 15.52                             122    0.72 9  199 292 
 ZAR  HZ I         946 17.62         9.1 0.26            123            199 292 
 NOR  HZ EP        945 53.88                             117    0.06 8  233 233 
 NOR  HN ES        946 21.53                             117    0.28 8  233 233 
 NOR  HZ I         946 29.33         5.4 0.18            119            233 233 
 SML  HZ EP        945 54.09                             117   -0.42 8  240 336 
 SML  HN ES        946 22.13                             117   -0.34 8  240 336 
 SML  HZ I         946 27.42         6.7 0.34            119            240 336 
 CHI  HZ EP        945 56.45                             116    0.28 8  250 194 
 CHI  HN ES        946 25.81                             116    0.38 8  250 194 
 CHI  HZ I         946 33.08         3.5 0.30            118            250 194 
 GUY2CHZ EP        946  2.74                             111    0.99 7  299 234 
 GUY2CHE ES        946 35.05                             111   -0.32 7  299 234 
 GUY2CHZ I         946 45.85         4.7 0.46                           299 234 
                                                                                
