 2011  4 6 0009 48.0 L   6.773 -73.074136.4  RSN  8 0.4 1.9LRSN                1
 GAP=184        0.68       3.7     7.1  6.1 -0.1324E+02 -0.5634E+01  0.3914E+01E
 Epicentro: LOS SANTOS - SANTANDER                                             3
 ACTION:UP  11-06-22 15:29 OP:REBC STATUS:               ID:20110406000948 L   I
 2011-04-06-0008-13S.COL___125                                                 6
 STAT SP IPHASW D HRMM SECON CODA AMPLIT PERI AZIMU VELO SNR AR TRES W  DIS CAZ7
 BAR2 SZ EP   1    010  6.48                             170     0.0 8   23 211 
 BAR2 SZ ES   1    010 20.84                             170    -0.1 8   23 211 
 BAR2 SZ I         010 23.80        16.4 0.32                            23 211 
 BTL  SZ EP   1    010  5.91                             168    -0.6 8   27 307 
 BRR  HZ EP   1    010  8.56                             148    -0.1 8   80 298 
 BRR  HN ES   1    010 25.20                             148     0.4 8   80 298 
 BRR  HZ I         010 26.71        19.5 0.13                            80 298 
 GRA  SZ EP        010 12.63                             134     0.210  127  14 
 GRA  SZ ES   1    010 31.50                             134    -0.1 7  127  14 
 GRA  SZ I         010 33.20        12.4 0.39                           127  14 
 OCA  SZ EP   1    010 16.42                             126     0.5 7  164 351 
 OCA  SZ ES   1    010 37.49                             126    -0.3 7  164 351 
 OCA  SZ I         010 40.57        15.3 0.27                           164 351 
 NOR  SZ EP   2    010 23.79                             116     0.1 4  239 236 
 NOR  SE ES   2    010 51.09                             116    -0.5 4  239 236 
 CHI  HZ EP   2    010 25.42                             115     0.3 4  248 197 
 CHI  HN ES   2    010 54.34                             115     0.3 4  248 197 
 CHI  HZ I         011  4.67         1.8 0.52                           248 197 
 PRA  HZ EP   2    010 40.51                             105    -0.8 3  393 211 
 PRA  HN ES   2    011 23.34                             105     0.4 3  393 211 
                                                                                
