 2013  6 6 0554 20.6 L   6.709 -73.163157.9  RSN  6 0.4 1.5LRSN                1
 GAP=198        0.83       5.5     9.5  9.3  0.3092E+02 -0.2217E+01 -0.1345E+02E
 Epicentro: VILLANUEVA - SANTANDER                                             3
 ACTION:UPD 14-01-08 09:52 OP:ep   STATUS:               ID:20130606055420 L   I
 OLDACT:UP  13-06-06 13:22 OP:mh   STATUS:               ID:20130606055000     3
 OLDACT:REG 13-06-06 09:35 OP:mh   STATUS:               ID:20130606055000     3
 2013-06-06-0550-00M.COL___257                                                 6
 STAT SP IPHASW D HRMM SECON CODA AMPLIT PERI AZIMU VELO AIN AR TRES W  DIS CAZ7
 BAR2 SZ EP        554 41.70                             175    0.2010 13.1 189 
 BRR  HZ IP     D  554 43.77                             153    0.5410 74.9 306 
 BRR  HN ES   1    555  1.18                             153    0.26 7 74.9 306 
 BRR  HN I         555  3.36         7.8 0.20            147           74.9 306 
 RUS  HZ EP        554 44.61                             149   -0.2710 90.7 174 
 RUS  HN ES        555  3.59                             149   -0.2610 90.7 174 
 RUS  HN I         555  5.04         2.3 0.42            145           90.7 174 
 PTB  HZ EP        554 48.33                             135    0.09 9  144 263 
 PTB  HN ES   2    555  9.39                             135   -0.43 5  144 263 
 PTB  HN I         555 15.06         5.7 0.46            129            144 263 
 SML  HE ES        555 28.04                             119   -0.56 8  252 337 
 PRA  HZ EP   4    555 16.09                             109    2.69 0  382 210 
 PRA  HN ES   4    555 55.14                             109    0.52 0  382 210 
 PRA  HN I         556  1.69         0.9 0.48            108            382 210 
                                                                                
