 2011 12 6 0746 19.4 L   6.758 -73.072146.4  RSN  6 0.4 1.6LRSN                1
 GAP=148        0.69       4.2     5.6  8.9 -0.6920E+01 -0.5056E+00  0.4191E+01E
 Epicentro: LOS SANTOS - SANTANDER                                             3
 ACTION:UPD 12-07-13 16:14 OP:ep   STATUS:               ID:20111206074619 L   I
 2011-12-06-0740-00M.COL___183                                                 6
 STAT SP IPHASW D HRMM SECON CODA AMPLIT PERI AZIMU VELO AIN AR TRES W  DIS CAZ7
 PAM  SZ EP   1    746 41.64                             151    0.06 7 76.3  33 
 PAM  SZ I         746 42.14         8.6 0.23                          76.3  33 
 PAM  SN ES   2    746 58.40                             151   -0.51 5 76.3  33 
 BRR  HZ EP   1    746 40.47                             150   -0.66 7 80.5 299 
 BRR  HZ I         746 41.08         9.8 0.17                          80.5 299 
 BRR  HN ES   1    746 58.02                             150   -0.09 7 80.5 299 
 RUS  HZ EP   1    746 43.02                             145    0.19 7 95.7 181 
 RUS  HN ES   2    747  1.41                             145    0.27 5 95.7 181 
 RUS  HZ I         747  2.28         3.7 0.33                          95.7 181 
 OCA  SZ EP   1    746 48.15                             129   -0.11 7  166 351 
 OCA  SZ ES   1    747 11.50                             129    0.70 7  166 351 
 OCA  SZ I         747 17.13         6.1 0.34                           166 351 
 NOR  SN ES   1    747 24.10                             118    0.30 6  239 237 
 HEL  HN ES   2    747 32.10                             114   -0.24 4  279 257 
                                                                                
