 2017  8 6 0546 30.9 L   6.824 -73.121148.0  RSN  9 0.5 1.5LRSN                1
 GAP=242        1.06       4.5     5.5  6.7  0.7185E+01  0.6517E+01  0.3953E+01E
 Epicentro: LOS SANTOS - SANTANDER                                             3
 ACTION:UPD 17-09-04 20:16 OP:rebc STATUS:               ID:20170806054630 L   I
 OLDACT:DUP 17-08-06 17:29 OP:osc  STATUS:               ID:20170806053745d    3
 2017-08-06-0538-00M.COL___383                                                 6
 STAT SP IPHASW D HRMM SECON CODA AMPLIT PERI AZIMU VELO AIN AR TRES W  DIS CAZ7
 BAR2 EZ EP        546 50.86                             170    0.0410 26.6 195 
 BAR2 EZ ES        547  6.02                             170   -0.3710 26.6 195 
 BAR2 EZ I         547  7.44         5.7 0.20            166           26.6 195 
 BRR  HZ IP     C  546 52.65                             153    0.3410 72.4 296 
 BRR  HE ES        547  9.75                             153    0.7110 72.4 296 
 RUS  HZ EP        546 54.95                             144   -0.0510  103 178 
 RUS  HN ES        547 13.80                             144   -0.0410  103 178 
 PTB  HZ EP        546 57.64                             132   -0.65 9  151 258 
 PTB  HN ES        547 19.23                             132   -0.46 9  151 258 
 PTB  HZ I         547 25.91         2.8 0.24            130            151 258 
 SPBC HZ EP        546 59.92                             129    0.04 9  167 219 
 SPBC HN ES        547 23.00                             129    0.48 9  167 219 
 SPBC HZ I         547 27.40         4.1 0.10            128            167 219 
 ZAR  HZ EP        547  4.25                             123    0.65 8  206 291 
 ZAR  HE ES        547 28.40                             123   -0.75 8  206 291 
 ZAR  HZ I         547 34.38         3.6 0.38            122            206 291 
 NOR  HE ES        547 35.35                             119   -0.05 8  238 234 
 CHI  HZ EP        547  8.94                             117   -0.09 8  252 196 
 CHI  HN ES        547 38.67                             117   -0.14 8  252 196 
 CHI  HZ I         547 40.98         1.6 0.28            118            252 196 
 GUY2CHE ES   2    547 50.64                             112    1.22 4  305 235 
                                                                                
