 2016  5 6 0239 54.8 L   6.769 -73.192140.0  RSN  4 0.2 1.0LRSN                1
 GAP=132        0.53       3.0     2.6  6.2 -0.1051E+01  0.6734E+01 -0.3741E+01E
 Epicentro: ZAPATOCA - SANTANDER                                               3
 ACTION:UPD 16-08-18 17:42 OP:cam  STATUS:               ID:20160506023954 L   I
 OLDACT:REG 16-05-06 13:13 OP:ak   STATUS:               ID:20160506023745     3
 2016-05-06-0237-45M.COL___304                                                 6
 STAT SP IPHASW D HRMM SECON CODA AMPLIT PERI AZIMU VELO AIN AR TRES W  DIS CAZ7
 PAM  EZ EP        240 16.62                             148   -0.1810 83.3  41 
 PAM  EN ES        240 34.01                             148    0.0710 83.3  41 
 PAM  EZ I         240 34.23         2.1 0.52            152           83.3  41 
 RUS  HZ EP   2    240 17.98                             144    0.18 5 97.6 173 
 RUS  HN ES        240 35.86                             144    0.1410 97.6 173 
 RUS  HZ I         240 37.51         1.1 0.26            147           97.6 173 
 PTB  HZ EP        240 20.54                             132   -0.27 9  142 260 
 PTB  HN ES        240 40.94                             132   -0.14 9  142 260 
 PTB  HZ I         240 43.95         1.5 0.32            132            142 260 
 ZAR  HZ EP   2    240 27.14                             122    0.59 4  201 294 
 ZAR  HE ES        240 51.54                             122    0.24 9  201 294 
 ZAR  HZ I         240 57.33         1.4 0.10            123            201 294 
                                                                                
