 2014  8 6 0821 35.3 L   6.896 -73.312120.0  RSN 10 0.4 1.5LRSN                1
 GAP=103        0.93       3.3     3.9  6.3 -0.4876E+01  0.9225E+01 -0.2489E+01E
 Epicentro: BETULIA - SANTANDER                                                3
 ACTION:UPD 14-09-15 21:47 OP:nd   STATUS:               ID:20140806082135 L   I
 OLDACT:REG 14-08-06 13:44 OP:spq  STATUS:               ID:20140806081818     3
 2014-08-06-0818-18M.COL___254                                                 6
 STAT SP IPHASW D HRMM SECON CODA AMPLIT PERI AZIMU VELO AIN AR TRES W  DIS CAZ7
 BAR2 SZ EP        821 52.46                             162    0.2410 36.5 157 
 BAR2 SZ ES   1    822  4.96                             162   -0.48 7 36.5 157 
 BAR2 SZ I         822  6.82        14.6 0.30            166           36.5 157 
 BRR  HZ EP        821 52.89                             156    0.4210 50.0 298 
 BRR  HN ES        822  5.97                             156    0.1010 50.0 298 
 BRR  HZ I         822  8.86         8.9 0.28            153           50.0 298 
 PAM  SN ES        822 10.93                             143    0.0910 83.5  54 
 PAM  SZ I         822 14.11         5.1 0.32            147           83.5  54 
 PTB  HZ EP        821 57.81                             129   -0.9810  133 253 
 PTB  HN ES        822 16.86                             129   -0.2710  133 253 
 PTB  HZ I         822 20.59         3.8 0.15            129            133 253 
 OCA  HZ EP        822  0.64                             125    0.11 9  149 360 
 OCA  HN ES        822 19.84                             125   -0.39 9  149 360 
 OCA  HZ I         822 21.77         5.0 0.16            127            149 360 
 SPBC HE ES        822 22.93                             123    0.56 9  161 212 
 SPBC HZ I         822 28.99         1.9 0.36            124            161 212 
 ZAR  HN ES        822 26.28                             119    0.03 9  183 291 
 ZAR  HZ I         822 32.70         2.2 0.21            119            183 291 
 SML  HZ EP   1    822  8.88                             113    0.20 6  227 338 
 SML  HN ES   1    822 35.18                             113    0.44 6  227 338 
 SML  HZ I         822 42.65         8.7 0.09            114            227 338 
 HEL  HZ EP   1    822 12.79                             110    0.17 6  257 252 
 HEL  HE ES        822 42.07                             110    0.33 8  257 252 
 HEL  HZ I         822 47.24         1.7 0.32            111            257 252 
 GUY2CHZ EP   1    822 16.61                             107   -0.25 5  293 231 
 GUY2CHN ES   2    822 48.64                             107   -0.67 4  293 231 
 GUY2CHZ I         822 59.17         1.0 0.40                           293 231 
                                                                                
