 2014  2 6 0700 58.2 L   6.727 -73.189162.8  RSN  4 0.5 1.3LRSN                1
 GAP=196        1.11       8.1     9.9 17.7  0.1980E+02 -0.4921E+02 -0.9740E+02E
 Epicentro: VILLANUEVA - SANTANDER                                             3
 ACTION:UPD 14-03-10 08:07 OP:ep   STATUS:               ID:20140206070058 L   I
 OLDACT:REG 14-02-06 08:28 OP:mh   STATUS:               ID:20140206070000     3
 2014-02-06-0700-00M.COL___291                                                 6
 STAT SP IPHASW D HRMM SECON CODA AMPLIT PERI AZIMU VELO AIN AR TRES W  DIS CAZ7
 RUS  HZ EP   1    7 1 23.85                             149    0.64 8 93.0 173 
 RUS  HN ES   1    7 1 42.08                             149   -0.60 8 93.0 173 
 RUS  HZ I         7 1 43.67         1.5 0.31            156           93.0 173 
 PTB  HZ EP        7 1 25.76                             137   -0.3710  142 262 
 PTB  HN ES        7 1 47.56                             137   -0.3210  142 262 
 PTB  HZ I         7 1 50.14         3.1 0.12            141            142 262 
 SPBC HN ES        7 1 50.54                             134    0.6210  154 219 
 ZAR  HN ES   4    7 1 59.35                             126    1.49 0  203 295 
 SML  HZ EP        7 1 36.10                             120   -0.34 8  249 337 
 SML  HN ES   1    7 2  7.02                             120    0.77 6  249 337 
 SML  HZ I         7 2 11.39         2.4 0.06            123            249 337 
                                                                                
