 2010  3 6 0918 40.1 L   6.829 -73.015140.0  RSN  4 0.2 1.5LRSN                1
 GAP=196        0.36       5.4     7.7  5.7  0.2158E+02 -0.2299E+02 -0.1991E+02E
 Epicentro: CEPITA - SANTANDER                                                 3
 ACTION:UP  10-08-24 09:52 OP:vdl  STATUS:               ID:20100306091840 L   I
 2010-03-06-0917-07S.COL___101                                                 6
 STAT SP IPHASW D HRMM SECON CODA AMPLIT PERI AZIMU VELO SNR AR TRES W  DIS CAZ7
 BAR2 SZ EP   1    918 59.19                             166    -0.1 7   32 215 
 BAR2 SZ ES   1    919 14.12                             166    -0.1 7   32 215 
 BRR  HZ EP        919  1.27                             148    -0.110   83 292 
 BRR  HZ I         919  1.53         8.6 0.05                            83 292 
 BRR  HN ES   1    919 17.96                             148     0.0 7   83 292 
 RUS  BN ES   3    919 22.29                             142     0.5 2  104 184 
 RUS  BZ I         919 23.99         3.3 0.06                           104 184 
 OCA  SZ EP   1    919  8.10                             128     0.2 7  159 348 
 OCA  SZ ES   3    919 29.39                             128    -0.2 2  159 348 
                                                                                
