 2014  9 6 0134 13.1 L   6.799 -73.150144.8  RSN 21 0.5 2.3LRSN                1
 GAP=136        1.15       2.8     4.1  5.9 -0.2143E+01  0.7728E+01  0.6962E+00E
 Epicentro: LOS SANTOS - SANTANDER                                             3
 ACTION:UPD 14-10-03 23:02 OP:nd   STATUS:               ID:20140906013413 L   I
 OLDACT:REG 14-09-06 12:28 OP:fm   STATUS:               ID:20140906012816     3
 2014-09-06-0128-16M.COL___269                                                 6
 STAT SP IPHASW D HRMM SECON CODA AMPLIT PERI AZIMU VELO AIN AR TRES W  DIS CAZ7
 BAR2 SZ EP        134 32.72                             170    0.0610 23.1 189 
 BAR2 SZ ES   1    134 47.98                             170    0.10 7 23.1 189 
 BAR2 SZ I         134 48.45        33.4 0.34            167           23.1 189 
 BRR  HZ EP     C  134 34.66                             152    0.4810 70.9 299 
 BRR  HN ES        134 51.24                             152    0.6610 70.9 299 
 BRR  HZ I         134 52.54        34.8 0.14            149           70.9 299 
 PAM  SZ EP        134 35.66                             151    0.3710 77.8  40 
 PAM  SN ES        134 52.20                             151   -0.3610 77.8  40 
 PAM  SZ I         134 54.61        46.6 0.50            156           77.8  40 
 RUS  HZ EP   1    134 36.68                             144   -0.12 7  100 176 
 RUS  HN ES        134 54.98                             144   -0.2610  100 176 
 PTB  HZ EP        134 39.86                             132   -0.14 9  147 259 
 PTB  HN ES        135  0.12                             132   -0.82 9  147 259 
 PTB  HZ I         135  5.92        22.9 0.28            130            147 259 
 OCA  HZ EP        134 41.04                             129   -0.36 9  160 353 
 OCA  HN ES        135  2.72                             129   -0.71 9  160 353 
 OCA  HZ I         135  6.87        36.7 0.18            131            160 353 
 SPBC HZ EP        134 41.78                             129    0.24 9  163 219 
 SPBC HE ES        135  4.00                             129    0.32 9  163 219 
 SPBC HZ I         135  9.08        15.2 0.24            128            163 219 
 ZAR  HZ EP        134 45.41                             122   -0.09 9  204 292 
 ZAR  HN ES        135 11.67                             122    0.94 9  204 292 
 ZAR  HZ I         135 19.51        23.4 0.42            122            204 292 
 NOR  HZ EP   1    134 47.82                             118   -0.95 6  234 234 
 NOR  HN ES        135 15.89                             118   -0.67 8  234 234 
 NOR  HZ I         135 22.50        12.3 0.14            118            234 234 
 SML  HZ EP        134 49.30                             117   -0.42 8  244 335 
 SML  HE ES        135 19.16                             117    0.92 8  244 335 
 SML  HZ I         135 21.07        29.5 0.26            118            244 335 
 CHI  HZ EP   1    134 51.77                             117    1.00 6  248 195 
 CHI  HN ES   1    135 19.74                             117   -0.37 6  248 195 
 CHI  HZ I         135 26.91         5.7 0.36            117            248 195 
 ROSC BN ES   4    135 22.95                             116    2.11 0  252 211 
 ROSC BZ I         135 29.11        15.8 0.45            117            252 211 
 HEL  HZ EP   1    134 52.82                             115   -0.44 6  272 256 
 HEL  HE ES        135 24.47                             115   -0.08 8  272 256 
 HEL  HZ I         135 33.45         9.7 0.24            114            272 256 
 URE  HN ES   4    135 25.18                             113   -0.92 0  283 292 
 URE  HZ I         135 37.70        17.6 0.30            113            283 292 
 GUY2CHZ EP        134 57.47                             112    0.81 7  301 235 
 GUY2CHE ES        135 30.55                             112   -0.05 7  301 235 
 GUY2CHZ I         135 40.38         7.9 0.52                           301 235 
 CBOC HZ EP   1    134 59.79                             110   -0.18 5  333 252 
 TOL  SE ES   1    135 38.67                             109   -0.22 5  343 225 
 TOL  SZ I         135 48.58        12.1 0.36            109            343 225 
 MON  HZ EP   4    135  0.64                             108   -1.44 0  353 308 
 MON  HE ES        135 39.31                             108   -0.94 6  353 308 
 MON  HZ I         135 39.98         7.2 0.20            109            353 308 
 PRA  HZ EP   1    135  6.54                             106   -0.05 4  392 210 
 PRA  HN ES        135 48.96                             106    0.68 6  392 210 
 PRA  HZ I         135 54.24         5.1 0.24            107            392 210 
 ORTC HZ EP   1    135  6.99                             106    0.00 4  395 216 
 ORTC HN ES   4    135 50.53                             106    1.55 0  395 216 
 ORTC HZ I         135 54.63         5.4 0.50            107            395 216 
 SJC  HZ EP   4    135  5.89                             106   -2.78 0  409 327 
 SJC  HN ES   4    135 49.07                             106   -2.90 0  409 327 
 SJC  HZ I         135 52.53         9.7 0.48            106            409 327 
                                                                                
