 2017 12 6 0242 22.7 L   6.818 -73.164147.7  RSN 21 0.9 2.3LRSN                1
 GAP= 64        1.74       3.4     4.3  7.7  0.4234E+00  0.8372E+01 -0.1170E+01E
 Epicentro: LOS SANTOS - SANTANDER                                             3
 ACTION:UPD 18-01-04 13:17 OP:rebc STATUS:               ID:20171206024222 L   I
 OLDACT:UP  17-12-06 16:08 OP:leo  STATUS:               ID:20171206023744     3
 OLDACT:UP  17-12-06 16:01 OP:leo  STATUS:               ID:20171206023744     3
 OLDACT:REG 17-12-06 13:06 OP:leo  STATUS:               ID:20171206023744     3
 2017-12-06-0238-00M.COL___489                                                 6
 STAT SP IPHASW D HRMM SECON CODA AMPLIT PERI AZIMU VELO AIN AR TRES W  DIS CAZ7
 BAR2 EZ EP        242 42.59                             170    0.0410 25.1 185 
 BAR2 EZ ES        242 57.79                             170   -0.2810 25.1 185 
 BAR2 EZ I         243  0.41        40.7 0.32            169           25.1 185 
 PAM  EZ EP        242 45.45                             151    0.3910 77.1  42 
 PAM  EE ES        243  2.95                             151    0.4210 77.1  42 
 PAM  EZ I         243  4.77        34.2 0.54            155           77.1  42 
 RUS  HZ EP        242 46.61                             144   -0.1410  103 175 
 RUS  HN ES        243  5.31                             144   -0.2410  103 175 
 RUS  HZ I         243  6.67        43.3 0.28            145            103 175 
 PTB  HZ EP        242 49.75                             133    0.11 9  146 258 
 PTB  HN ES        243 10.42                             133   -0.27 9  146 258 
 PTB  HZ I         243 17.64        10.7 0.20            133            146 258 
 OCA  HZ EP        242 51.14                             130    0.24 9  158 354 
 OCA  HE ES        243 12.51                             130   -0.43 9  158 354 
 OCA  HZ I         243 16.45        62.3 0.18            133            158 354 
 TAM  HZ EP        242 51.00                             130    0.29 9  158 106 
 TAM  HN ES        243 12.81                             130    0.21 9  158 106 
 TAM  HZ I         243 14.08         8.0 0.42            134            158 106 
 SPBC HZ EP        242 51.81                             129    0.48 9  164 218 
 SPBC HN ES        243 13.49                             129   -0.21 9  164 218 
 SPBC HZ I         243 16.43        31.1 0.18            130            164 218 
 YPLC HZ EP        242 53.02                             127    0.17 9  180 151 
 YPLC HN ES        243 16.78                             127    0.37 9  180 151 
 YPLC HZ I         243 19.78        25.7 0.24            129            180 151 
 ZAR  HZ EP        242 55.24                             123    0.29 9  201 292 
 ZAR  HE ES        243 20.56                             123    0.41 9  201 292 
 ZAR  HZ I         243 25.80        18.3 0.40            125            201 292 
 CHI  HZ EP        243  0.85                             117    0.24 8  250 195 
 CHI  HN ES        243 29.45                             117   -0.78 8  250 195 
 CHI  HZ I         243 40.04         7.5 0.42            119            250 195 
 ROSC BZ EP   4    243  2.52                             117    1.56 0  253 210 
 ROSC HN ES   4    243 33.95                             117    3.12 0  253 210 
 ROSC BZ I         243 37.45        22.9 0.35            118            253 210 
 URE  HZ EP        243  3.20                             114   -0.32 7  281 292 
 URE  HN ES        243 33.90                             114   -1.50 7  281 292 
 DRL03HZ EP        243  4.36                             114    0.26 7  287 353 
 DRL03HE ES        243 38.10                             114    1.67 7  287 353 
 GUY2CHZ EP        243  7.39                             113    1.09 7  301 234 
 GUY2CHN ES        243 40.95                             113    0.61 7  301 234 
 PTGC HZ EP        243  5.67                             112   -1.22 7  311 158 
 PTGC HN ES        243 39.60                             112   -1.80 7  311 158 
 LL6C HZ EP        243  7.97                             111   -0.22 7  323 358 
 LL6C HN ES   3    243 44.62                             111    0.91 2  323 358 
 CBOC HZ EP        243 11.03                             110    1.53 7  332 252 
 CBOC HN ES        243 44.03                             110   -2.01 7  332 252 
 PRA  HZ EP        243 16.40                             107    0.07 6  393 209 
 PRA  HN ES        243 58.15                             107   -0.05 6  393 209 
 PRA  HZ I         244  4.84         9.7 0.36            108            393 209 
 ORTC HZ EP        243 17.05                             107    0.36 6  396 216 
 ORTC HN ES        244  1.01                             107    2.17 6  396 216 
 ORTC HZ I         244  6.47         4.7 0.36            108            396 216 
 SJC  HZ EP        243 16.79                             106   -1.16 6  406 327 
 SJC  HE ES        244  2.23                             106    1.15 6  406 327 
 SJC  HZ I         244  2.38         2.4 0.66            108            406 327 
 CRJC HZ EP        243 23.02                             104   -1.96 5  466   4 
 CRJC HE ES        244 10.62                             104   -2.97 5  466   4 
 URI  HZ EP   4    243 50.69                             101   15.18 0  555  13 
                                                                                
