 2015 10 6 0748 37.9 L   6.819 -73.105147.8  RSN  7 0.4 1.7LRSN                1
 GAP=205        0.93       2.9     7.5  6.0 -0.6233E+01  0.4343E+01  0.2438E+00E
 Epicentro: LOS SANTOS - SANTANDER                                             3
 ACTION:UPD 15-12-22 20:37 OP:cam  STATUS:               ID:20151006074837 L   I
 OLDACT:UP  15-10-06 16:42 OP:ak   STATUS:               ID:20151006074745     3
 OLDACT:UP  15-10-06 16:41 OP:ak   STATUS:               ID:20151006074745     3
 OLDACT:REG 15-10-06 14:30 OP:ak   STATUS:               ID:20151006074745     3
 2015-10-06-0747-45M.COL___319                                                 6
 STAT SP IPHASW D HRMM SECON CODA AMPLIT PERI AZIMU VELO AIN AR TRES W  DIS CAZ7
 BAR2 EZ EP        748 58.06                             169    0.2110 26.5 199 
 BAR2 EZ ES        749 13.48                             169    0.0810 26.5 199 
 BRR  HZ EP        748 59.87                             152    0.4210 74.2 295 
 BRR  HN ES        749 16.81                             152    0.5610 74.2 295 
 BRR  HZ I         749 21.98         5.5 0.30            151           74.2 295 
 OCA  HZ EP        749  6.31                             130    0.06 9  159 351 
 OCA  HN ES        749 27.67                             130   -0.67 9  159 351 
 OCA  HZ I         749 33.11         8.5 0.15            133            159 351 
 SPBC HZ EP        749  7.10                             129    0.11 9  168 220 
 SPBC HN ES        749 29.04                             129   -0.63 9  168 220 
 SPBC HZ I         749 32.83         6.5 0.17            131            168 220 
 SML  HZ EP        749 14.57                             118   -0.09 8  244 334 
 SML  HE ES        749 43.00                             118   -0.32 8  244 334 
 CHI  HZ EP   1    749 16.13                             117    0.06 6  252 196 
 CHI  HN ES        749 45.36                             117   -0.47 8  252 196 
 CHI  HZ I         749 49.11         3.1 0.86            120            252 196 
 GUY2CHZ EP   1    749 22.93                             112    0.77 5  306 235 
 GUY2CHN ES        749 56.65                             112   -0.03 7  306 235 
 GUY2CHZ I         750  5.96         2.1 0.52                           306 235 
                                                                                
