 2014 11 6 0944 17.2 L   6.799 -73.151142.3  RSN 16 0.4 2.6LRSN                1
 GAP= 71        1.07       2.8     3.1  5.7 -0.1073E+01  0.3484E+01  0.2733E+01E
 Epicentro: LOS SANTOS - SANTANDER                                             3
 ACTION:UPD 14-12-19 15:39 OP:nd   STATUS:               ID:20141106094417 L   I
 OLDACT:UP  14-11-06 16:50 OP:mh   STATUS:               ID:20141106093747     3
 OLDACT:UP  14-11-06 16:50 OP:mh   STATUS:               ID:20141106093747     3
 OLDACT:REG 14-11-06 14:26 OP:carl STATUS:               ID:20141106093747     3
 2014-11-06-0937-47M.COL___271                                                 6
 STAT SP IPHASW D HRMM SECON CODA AMPLIT PERI AZIMU VELO AIN AR TRES W  DIS CAZ7
 BRR  HZ EP     C  944 38.42                             152    0.4310 70.8 299 
 BRR  HN ES        944 54.95                             152    0.7810 70.8 299 
 BRR  HZ I         944 59.23        87.3 0.36            151           70.8 299 
 PAM  SZ EP     C  944 39.40                             150    0.2910 77.8  40 
 PAM  SN ES        944 56.11                             150   -0.0610 77.8  40 
 PAM  SZ I         944 58.34        94.9 0.50            152           77.8  40 
 RUS  HZ EP        944 40.51                             143   -0.1310  101 176 
 RUS  HN ES        944 58.90                             143    0.0010  101 176 
 RUS  HZ I         945  0.45        39.0 0.44            144            101 176 
 PTB  HZ EP        944 43.33                             131   -0.55 9  147 259 
 PTB  HN ES        945  4.76                             131    0.11 9  147 259 
 PTB  HZ I         945  7.12        67.1 0.18            131            147 259 
 TAM  HZ EP        944 44.90                             130    0.21 9  156 105 
 TAM  HN ES        945  5.74                             130   -0.36 9  156 105 
 TAM  HZ I         945  6.90        22.8 0.30            132            156 105 
 OCA  HZ EP        944 44.85                             129   -0.44 9  160 353 
 OCA  HN ES        945  6.42                             129   -0.74 9  160 353 
 OCA  HZ I         945 10.31        74.2 0.18            129            160 353 
 SPBC HZ EP        944 45.51                             128    0.08 9  163 219 
 SPBC HN ES   1    945  7.39                             128   -0.03 7  163 219 
 NOR  HZ EP        944 52.96                             118    0.24 8  234 234 
 NOR  HN ES        945 20.14                             118   -0.24 8  234 234 
 NOR  HZ I         945 27.74        31.5 0.18            118            234 234 
 CHI  HZ EP        944 55.08                             116    0.36 8  248 195 
 CHI  HN ES        945 23.36                             116   -0.59 8  248 195 
 CHI  HZ I         945 27.09        15.8 0.28            117            248 195 
 URE  HZ EP   9    944 56.85                             113   -1.24 0  283 292 
 URE  HN ES        945 28.02                                   -0.69 7  283 292 
 URE  HZ I         945 30.14        28.5 0.18            113            283 292 
 GUY2CHZ EP        945  1.23                             112    0.60 7  301 235 
 GUY2CHN ES   4    945 35.64                             112    1.16 0  301 235 
 GUY2CHZ I         945 42.04        16.0 0.17                           301 235 
 DBB  SZ EP        945  3.96                             109   -0.56 7  339 274 
 DBB  SZ ES        945 41.15                             109   -0.24 7  339 274 
 DBB  SZ I         945 43.17        45.4 0.24            109            339 274 
 ANIL HZ EP   4    945  5.44                             108   -1.42 0  357 224 
 ANIL HE ES        945 46.19                             108    0.63 6  357 224 
 ANIL HZ I         945 55.64         3.4 0.40            108            357 224 
 ARGC HZ EP        945  7.08                             108    0.32 6  359 340 
 ARGC HN ES   1    945 45.34                             108   -0.04 5  359 340 
 ARGC HZ I         945 59.43        13.9 0.44            108            359 340 
 PRA  HZ EP        945 11.01                             106    0.41 6  392 210 
 PRA  HN ES   1    945 51.20                             106   -1.02 4  392 210 
 PRA  HZ I         945 58.13        18.9 0.48            107            392 210 
 SJC  HZ EP   9    945 10.84                             105   -1.83 0  409 327 
 SJC  HE ES        945 52.41                                   -1.66 6  409 327 
 SJC  HZ I         945 56.09        21.0 0.52            106            409 327 
                                                                                
