 2012  7 6 0317 15.8 L   6.891 -72.864140.0  RSN  4 0.3 1.6LRSN                1
 GAP=211        0.75       5.4    15.1 14.4  0.4521E+02 -0.1131E+03 -0.2303E+02E
 Epicentro: GUACA - SANTANDER                                                  3
 ACTION:UPD 12-08-14 11:42 OP:ep   STATUS:               ID:20120706031715 L   I
 2012-07-06-0310-00M.COL___201                                                 6
 STAT SP IPHASW D HRMM SECON CODA AMPLIT PERI AZIMU VELO AIN AR TRES W  DIS CAZ7
 BAR2 SZ EP   1    317 35.71                             160     0.2 7   48 227 
 BAR2 SZ I         317 36.46         5.1 0.10            108             48 227 
 BRR  HZ EP        317 37.67                             144    -0.310   97 284 
 BRR  HZ I         317 54.97        10.5 0.22             56             97 284 
 BRR  HE ES   1    317 55.58                             144     0.3 7   97 284 
 RUS  HZ EP   1    317 40.27                             139     0.3 7  113 192 
 RUS  HN ES   1    317 58.48                             139    -0.3 7  113 192 
 RUS  HZ I         318  0.11         2.6 0.26             56            113 192 
 OCA  HN ES   1    318  4.84                             129     0.0 7  157 341 
 OCA  HZ I         318 10.51         8.7 0.23             56            157 341 
