 2011  2 6 0914  7.4 L   6.767 -73.207138.8  RSN 10 0.4 2.4LRSN                1
 GAP=131        0.76       3.5     7.0  7.0 -0.7127E+01  0.2087E+02 -0.4930E+01E
 Epicentro: VILLANUEVA - SANTANDER                                             3
 ACTION:UP  11-03-28 15:06 OP:jfem STATUS:               ID:20110206091407 L   I
 2011-02-06-0912-04S.COL___138                                                 6
 STAT SP IPHASW D HRMM SECON CODA AMPLIT PERI AZIMU VELO SNR AR TRES W  DIS CAZ7
 BTL  SZ EP        914 26.27                             172     0.110   18 338 
 BAR2 SZ IP        914 26.01                             172    -0.110   20 172 
 BAR2 SZ ES   1    914 40.73                             172     0.0 7   20 172 
 BAR2 SZ I         914 43.17        82.7 1.32                            20 172 
 RUS  HZ EP   1    914 29.90                             143    -0.4 7   98 172 
 RUS  HE ES   1    914 48.14                             143     0.0 7   98 172 
 RUS  HZ I         914 49.94        47.0 0.23                            98 172 
 GRA  SZ EP        914 32.80                             134     0.310  131  20 
 GRA  SZ ES   1    914 52.27                             134     0.1 7  131  20 
 GRA  SZ I         914 53.80        48.1 0.65                           131  20 
 OCA  SZ EP   1    914 34.68                             127    -0.8 7  163 356 
 YOP  SZ EP   2    914 36.62                             125    -0.4 4  179 151 
 YOP  SN ES   2    915  0.83                             125     0.8 4  179 151 
 YOP  SZ I         915  4.72        18.5 0.56                           179 151 
 NOR  SZ EP   2    914 41.73                             118    -0.2 4  227 234 
 NOR  SN ES   2    915  8.60                             118    -0.3 4  227 234 
 CHI  HZ EP   1    914 44.25                             116     0.1 6  243 194 
 CHI  HE ES   2    915 12.77                             116    -0.1 4  243 194 
 CHI  HZ I         915 20.81        11.6 0.47                           243 194 
 HEL  HZ EP   2    914 47.38                             114     0.9 4  265 256 
 HEL  HZ I         915 24.30        12.2 0.26                           265 256 
 DBB  SZ EP   1    914 54.46                             109     0.6 5  333 275 
                                                                                
