 2014 10 6 0004 49.6 L   6.809 -73.124149.7  RSN 19 0.4 2.3LRSN                1
 GAP=139        0.98       2.4     4.1  5.5 -0.1416E+01  0.4170E+01  0.2532E+01E
 Epicentro: LOS SANTOS - SANTANDER                                             3
 ACTION:UPD 14-11-29 23:47 OP:nd   STATUS:               ID:20141006000449 L   I
 OLDACT:REG 14-10-06 12:21 OP:fm   STATUS:               ID:20141005235956     3
 2014-10-05-2359-56M.COL___286                                                 6
 STAT SP IPHASW D HRMM SECON CODA AMPLIT PERI AZIMU VELO AIN AR TRES W  DIS CAZ7
 BRR  HZ EP     D  0 5 11.53                             153    0.2810 72.9 297 
 BRR  HN ES        0 5 28.74                             153    0.5910 72.9 297 
 BRR  HZ I         0 5 29.69        29.3 0.12            151           72.9 297 
 PAM  SZ EP        0 5 12.43                             152    0.3410 75.1  39 
 PAM  SN ES        0 5 29.54                             152   -0.1010 75.1  39 
 PAM  SZ I         0 5 32.16        42.2 0.66            156           75.1  39 
 RUS  HZ EP        0 5 13.50                             144   -0.2810  101 177 
 RUS  HN ES        0 5 32.50                             144   -0.1510  101 177 
 RUS  HZ I         0 5 35.07        19.4 0.34            145            101 177 
 PTB  HZ EP        0 5 16.53                             132   -0.57 9  150 259 
 PTB  HN ES        0 5 37.72                             132   -0.84 9  150 259 
 PTB  HZ I         0 5 43.15        19.6 0.68            131            150 259 
 OCA  HZ EP   1    0 5 17.60                             131   -0.54 7  160 352 
 OCA  HN ES        0 5 40.89                             131    0.48 9  160 352 
 OCA  HZ I         0 5 44.40        28.9 0.18            132            160 352 
 SPBC HZ EP        0 5 18.61                             130    0.02 9  165 219 
 SPBC HN ES        0 5 40.81                             130   -0.41 9  165 219 
 SPBC HZ I         0 5 43.31        51.4 0.36            129            165 219 
 ZAR  HZ EP        0 5 22.21                             123   -0.26 8  206 292 
 ZAR  HN ES        0 5 48.17                             123    0.04 8  206 292 
 ZAR  HZ I         0 5 54.64        18.1 0.32            123            206 292 
 SML  HZ EP        0 5 26.04                             118   -0.41 8  244 335 
 SML  HN ES        0 5 55.20                             118    0.00 8  244 335 
 SML  HZ I         0 5 58.13        27.3 0.10            119            244 335 
 CHI  HZ EP        0 5 27.66                             118   -0.01 8  250 196 
 CHI  HE ES        0 5 57.31                             118   -0.06 8  250 196 
 CHI  HZ I         0 6  0.28         7.6 0.54            119            250 196 
 ROSC BZ EP   1    0 5 28.65                             117    0.51 6  255 211 
 ROSC BN ES        0 5 58.48                             117    0.26 8  255 211 
 ROSC BZ I         0 6  2.42        11.5 0.35            118            255 211 
 GUY2CHZ EP   4    0 5 34.75                             113    1.10 0  304 235 
 GUY2CHN ES   4    0 6 10.75                             113    2.72 0  304 235 
 GUY2CHZ I         0 6 17.43        11.7 0.50                           304 235 
 PTGC HZ EP   4    0 5 32.65                             112   -0.97 0  309 159 
 PTGC HN ES   4    0 6  4.62                             112   -3.35 0  309 159 
 PTGC HZ I         0 6  7.51        11.0 0.34            114            309 159 
 RREF HZ EP   4    0 5 31.33                             111   -4.84 0  324 230 
 RREF HN ES   4    0 6  8.77                             111   -3.74 0  324 230 
 RREF HZ I         0 6 17.97        10.4 0.32            112            324 230 
 TOL  SZ EP        0 5 39.13                             110    0.86 6  346 225 
 TOL  SN ES        0 6 17.38                             110    1.14 6  346 225 
 TOL  SZ I         0 6 21.38        17.0 0.24            110            346 225 
 MON  HN ES   4    0 6 14.06                             109   -3.28 0  355 308 
 MON  HZ I         0 6 19.99         4.3 0.22            110            355 308 
 ANIL HZ EP   4    0 5 37.37                             109   -2.44 0  360 225 
 ANIL HN ES   4    0 6 17.64                             109   -1.35 0  360 225 
 ANIL HZ I         0 6 25.37         2.6 0.30            110            360 225 
 PRA  HZ EP        0 5 43.37                             107   -0.10 6  394 210 
 PRA  HN ES   4    0 6 23.56                             107   -1.95 0  394 210 
 PRA  HZ I         0 6 30.48         5.2 0.20            108            394 210 
 ORTC HZ EP   1    0 5 44.05                             107    0.16 4  398 216 
 ORTC HN ES        0 6 26.23                             107   -0.02 6  398 216 
 ORTC HZ I         0 6 33.28         5.9 0.24            108            398 216 
 SJC  HZ EP   4    0 5 43.97                             106   -1.36 0  410 327 
 SJC  HN ES   4    0 6 24.66                             106   -4.16 0  410 327 
 SJC  HZ I         0 6 29.49         3.4 0.60            107            410 327 
                                                                                
