 2017  8 6 0559 31.8 L   6.751 -73.129140.9  RSN  6 0.5 1.5LRSN                1
 GAP=141        1.07       5.8     5.8  7.9  0.2493E+01  0.1690E+02 -0.6755E+01E
 Epicentro: LOS SANTOS - SANTANDER                                             3
 ACTION:UPD 17-09-04 20:16 OP:rebc STATUS:               ID:20170806055931 L   I
 OLDACT:UP  17-08-06 18:08 OP:osc  STATUS:               ID:20170806055741     3
 OLDACT:REG 17-08-06 12:23 OP:osc  STATUS:               ID:20170806055741     3
 2017-08-06-0558-00M.COL___383                                                 6
 STAT SP IPHASW D HRMM SECON CODA AMPLIT PERI AZIMU VELO AIN AR TRES W  DIS CAZ7
 BAR2 EZ EP     C  559 50.67                             172   -0.0510 18.5 199 
 BAR2 EZ ES        6 0  5.25                             172   -0.2510 18.5 199 
 BAR2 EZ I         6 0  6.67         9.1 0.24            171           18.5 199 
 BRR  HZ EP     C  559 52.60                             150   -0.0510 75.5 301 
 BRR  HN ES        6 0  9.36                             150    0.4310 75.5 301 
 BRR  HZ I         6 0 13.13         5.1 0.12            147           75.5 301 
 PAM  EZ EP        559 53.73                             149    0.0710 80.6  36 
 PAM  EE ES        6 0 10.52                             149   -0.2210 80.6  36 
 PAM  EZ I         6 0 11.05         4.0 0.38            151           80.6  36 
 RUS  HN ES        6 0 12.86                             145    0.3810 95.0 177 
 PTB  HZ EP        559 57.52                             131   -0.90 9  149 261 
 PTB  HN ES   3    6 0 17.42                             131   -1.79 2  149 261 
 PTB  HZ I         6 0 20.74         4.1 0.20            131            149 261 
 ZAR  HZ EP        6 0  5.05                             121    0.75 8  208 293 
 ZAR  HN ES        6 0 29.72                             121    0.05 8  208 293 
 ZAR  HZ I         6 0 36.63         3.3 0.10            121            208 293 
                                                                                
