 2011  9 6 0040 14.7 L   6.817 -73.142143.2  RSN  8 0.3 1.8LRSN                1
 GAP=136        0.49       4.0     4.2  6.0 -0.4002E+00  0.5642E+01  0.5011E+00E
 Epicentro: LOS SANTOS - SANTANDER                                             3
 ACTION:UPD 12-07-13 15:55 OP:ep   STATUS:               ID:20110906004014 L   I
 2011-09-06-0036-47S.COL___162                                                 6
 STAT SP IPHASW D HRMM SECON CODA AMPLIT PERI AZIMU VELO AIN AR TRES W  DIS CAZ7
 BAR2 SZ EP   1    040 34.56                             170    0.46 7 25.2 190 
 BAR2 SZ ES   2    040 48.98                             170   -0.22 5 25.2 190 
 BAR2 SZ I         040 50.87        11.5 0.31                          25.2 190 
 GIR2 SZ EP   1    040 33.80                             168   -0.26 7 29.5 349 
 BRR  HZ IP     C  040 35.61                             152    0.0310 70.7 297 
 BRR  HZ I         040 35.87        22.1 0.15                          70.7 297 
 BRR  HE ES   2    040 52.36                             152    0.53 5 70.7 297 
 PAM  SZ EP   1    040 36.64                             151    0.06 7 75.7  40 
 PAM  SN ES   2    040 53.36                             151   -0.26 5 75.7  40 
 RUS  HZ EP   2    040 37.89                             143   -0.48 5  102 176 
 RUS  HN ES   2    040 56.80                             143    0.00 5  102 176 
 RUS  HZ I         040 57.85         4.8 0.51                           102 176 
 ZAR  HZ EP   2    040 47.03                             122    0.05 4  204 292 
 ZAR  HN ES   2    041 11.71                             122   -0.42 4  204 292 
 ZAR  HZ I         041 18.83         9.0 0.22                           204 292 
 NOR  SN ES   2    041 18.12                             118   -0.22 4  236 234 
 CHI  HZ EP   2    040 52.75                             116    0.25 4  251 195 
 CHI  HZ I         041 10.25         3.8 0.44                           251 195 
                                                                                
