 2017 12 6 0507 41.3 L   5.954 -73.764114.7  RSN  8 0.3 1.4LRSN                1
 GAP= 85        0.69       2.0     2.5  4.2  0.4109E+00  0.1629E+01  0.1100E+01E
 Epicentro: BOLIVAR - SANTANDER                                                3
 ACTION:UPD 18-01-04 13:17 OP:rebc STATUS:               ID:20171206050741 L   I
 OLDACT:REG 17-12-06 13:33 OP:leo  STATUS:               ID:20171206045641     3
 2017-12-06-0457-00M.COL___495                                                 6
 STAT SP IPHASW D HRMM SECON CODA AMPLIT PERI AZIMU VELO AIN AR TRES W  DIS CAZ7
 SPBC HZ EP        5 7 57.74                             156   -0.1510 47.8 226 
 SPBC HN ES        5 8 10.74                             156   -0.1310 47.8 226 
 SPBC HZ I         5 8 17.72         8.5 0.10            154           47.8 226 
 RUS  HZ EP        5 8  0.18                             145    0.0110 75.6  95 
 RUS  HN ES        5 8 14.92                             145    0.0110 75.6  95 
 BAR2 EZ EP        5 8  1.72                             137    0.3910 95.5  42 
 BAR2 EZ ES        5 8 17.14                             137    0.1510 95.5  42 
 PTB  HZ EP        5 8  1.01                             136   -0.4310  100 310 
 PTB  HE ES        5 8 17.35                             136    0.1810  100 310 
 PTB  HZ I         5 8 17.98         4.7 0.30            136            100 310 
 CHI  HZ EP        5 8  6.21                             124   -0.09 9  147 179 
 CHI  HN ES        5 8 25.53                             124   -0.30 9  147 179 
 CHI  HZ I         5 8 27.78         2.6 0.28            127            147 179 
 YPLC HZ EP        5 8  7.73                             121   -0.05 9  165 112 
 ZAR  HZ EP        5 8 12.13                             114   -0.29 8  209 325 
 ZAR  HN ES        5 8 36.84                             114    0.12 8  209 325 
 ZAR  HZ I         5 8 45.10         4.9 0.44            116            209 325 
 PRA  HZ EP        5 8 20.35                             107    0.06 7  277 207 
 PRA  HE ES        5 8 51.52                             107    0.78 7  277 207 
 PRA  HZ I         5 8 55.85         1.6 0.32            109            277 207 
                                                                                
