 2013  1 6 0146 51.4 L   6.641 -73.175161.8  RSN  4 0.3 1.2LRSN                1
 GAP=222        0.76      11.1     6.8 12.7  0.4147E+02 -0.2943E+02 -0.9807E+02E
 Epicentro: BARICHARA - SANTANDER                                              3
 ACTION:UPD 13-02-15 09:12 OP:ep   STATUS:               ID:20130106014651 L   I
 2013-01-06-0139-49M.COL___190                                                 6
 STAT SP IPHASW D HRMM SECON CODA AMPLIT PERI AZIMU VELO AIN AR TRES W  DIS CAZ7
 BAR2 SZ EP        147 12.49                             178   -0.2310 5.47 188 
 BAR2 SZ I         147 13.29         4.7 0.18            173           5.47 188 
 BRR  HZ EP        147 14.85                             153    0.1910 78.6 311 
 RUS  HZ EP        147 15.32                             152   -0.3310 83.4 173 
 RUS  HZ I         147 17.27         0.9 0.22            150           83.4 173 
 RUS  HN ES        147 34.86                             152    0.2710 83.4 173 
 PTB  HZ EP        147 19.61                             137    0.40 9  142 266 
 PTB  HN ES        147 40.65                             137   -0.27 9  142 266 
 PTB  HN I         147 46.12         3.8 0.56            134            142 266 
                                                                                
