 2010 12 6 0407  0.6 L   6.791 -73.115147.1  RSN 10 0.3 2.2LRSN                1
 GAP=180        0.43       3.1     7.2  4.6 -0.1440E+02  0.1181E+02 -0.1652E+01E
 Epicentro: LOS SANTOS - SANTANDER                                             3
 ACTION:UP  11-01-14 15:23 OP:pat  STATUS:               ID:20101206040700 L   I
 2010-12-06-0404-36S.COL___135                                                 6
 STAT SP IPHASW D HRMM SECON CODA AMPLIT PERI AZIMU VELO SNR AR TRES W  DIS CAZ7
 BTL  SZ EP        4 7 20.48                             171     0.110   22 310 
 BAR2 SZ IP        4 7 20.33                             171     0.010   23 199 
 BAR2 SZ ES   1    4 7 35.78                             171     0.0 7   23 199 
 BAR2 SZ I         4 7 37.39        36.2 0.23                            23 199 
 GIR2 SZ EP   2    4 7 20.48                             167     0.0 5   33 345 
 GUE  SZ EP   2    4 7 24.76                             140    -0.7 5  117  10 
 GRA  SZ EP   2    4 7 26.17                             137     0.2 5  126  16 
 GRA  SZ ES   2    4 7 45.90                             137     0.2 5  126  16 
 GRA  SZ I         4 7 47.05        20.3 0.44                           126  16 
 OCA  SZ EP   1    4 7 29.11                             130     0.0 7  162 352 
 OCA  SZ ES   2    4 7 51.40                             130     0.0 5  162 352 
 OCA  SZ I         4 7 57.36        13.3 0.21                           162 352 
 NOR  SZ EP   2    4 7 36.50                             118    -0.1 4  237 235 
 NOR  SE ES   2    4 8  4.47                             118    -0.3 4  237 235 
 CHI  HZ EP   2    4 7 38.17                             117    -0.2 4  249 196 
 CHI  HE ES   2    4 8  7.57                             117    -0.2 4  249 196 
 CHI  HZ I         4 8 13.49        10.9 0.28                           249 196 
 RREF HZ EP   2    4 7 47.32                             111     0.3 3  324 230 
 RREF HZ I         4 8 31.76        12.4 0.34                           324 230 
 PRA  HZ EP   1    4 7 54.34                             107     0.1 4  393 210 
 PRA  HN ES   2    4 8 36.92                             107     0.8 3  393 210 
                                                                                
