 2017  8 6 0845 33.8 L   6.711 -73.169149.7  RSN  5 0.4 1.0LRSN                1
 GAP=228        0.77       9.4     5.9  7.3  0.1620E+02  0.5298E+01  0.8560E+01E
 Epicentro: VILLANUEVA - SANTANDER                                             3
 ACTION:UPD 17-09-04 20:17 OP:rebc STATUS:               ID:20170806084533 L   I
 OLDACT:UP  17-08-06 19:19 OP:dani STATUS:               ID:20170806083738     3
 OLDACT:UP  17-08-06 19:19 OP:dani STATUS:               ID:20170806083738     3
 OLDACT:REG 17-08-06 12:42 OP:osc  STATUS:               ID:20170806083738     3
 2017-08-06-0838-00M.COL___380                                                 6
 STAT SP IPHASW D HRMM SECON CODA AMPLIT PERI AZIMU VELO AIN AR TRES W  DIS CAZ7
 BAR2 EZ EP        845 53.54                             175   -0.2110 13.3 186 
 BAR2 EZ ES        846  9.46                             175    0.1410 13.3 186 
 BAR2 EZ I         846 13.71         2.3 0.60            175           13.3 186 
 BRR  HZ EP        845 55.54                             152   -0.0110 74.3 306 
 BRR  HN ES        846 12.41                             152   -0.1110 74.3 306 
 BRR  HZ I         846 16.47         3.0 0.28            155           74.3 306 
 RUS  HZ EP   2    845 58.22                             147    0.92 5 91.0 174 
 PTB  HZ EP   1    846  0.42                             134   -0.31 7  144 262 
 PTB  HN ES        846 21.60                             134   -0.13 9  144 262 
 PTB  HZ I         846 23.93         0.7 0.26            138            144 262 
 ZAR  HN ES   2    846 33.57                             123    1.27 4  206 295 
                                                                                
