 2012  4 6 0543 16.8 L   6.753 -73.185145.5  RSN  5 0.4 1.4LRSN                1
 GAP=229        0.90       9.6     9.3 11.2  0.5878E+02  0.1651E+02  0.1676E+01E
 Epicentro: VILLANUEVA - SANTANDER                                             3
 ACTION:UPD 12-07-05 11:50 OP:tino STATUS:               ID:20120406054316 L   I
 2012-04-06-0540-00M.COL___196                                                 6
 STAT SP IPHASW D HRMM SECON CODA AMPLIT PERI AZIMU VELO AIN AR TRES W  DIS CAZ7
 BAR2 SZ ES   1    543 50.96                             173    -0.6 7   18 179 
 BAR2 SZ I         543 52.59         7.7 0.20                            18 179 
 BRR  HZ EP   1    543 37.80                             153    -0.1 7   70 304 
 BRR  HN ES   1    543 54.76                             153     0.5 7   70 304 
 BRR  HZ I         543 56.66         4.2 0.17                            70 304 
 RUS  HZ EP   1    543 40.12                             145    -0.1 7   96 173 
 RUS  HN ES   1    543 58.90                             145     0.5 7   96 173 
 RUS  HZ I         544  0.42         3.5 0.48                            96 173 
 PTB  HE ES   1    544  3.65                             133    -0.3 7  143 261 
 PTB  HZ I         544  6.38         2.6 0.22                           143 261 
 ZAR  HE ES   1    544 14.28                             123     0.1 6  202 294 
 ZAR  HZ I         544 20.24         2.6 0.26                           202 294 
                                                                                
