 2017  2 6 0747 46.9 L   6.757 -73.112  4.0  RSN  5 0.2 1.1LRSN                1
 GAP=238        0.57       2.4     3.9  4.1  0.7469E+01  0.9731E+01  0.4652E+01E
 Epicentro: LOS SANTOS - SANTANDER                                             3
 ACTION:UPD 17-05-24 15:33 OP:jn   STATUS:               ID:20170206074746 L   I
 OLDACT:DUP 17-02-06 19:50 OP:ar   STATUS:               ID:20170206073747d    3
 2017-02-06-0738-00M.COL___313                                                 6
 STAT SP IPHASW D HRMM SECON CODA AMPLIT PERI AZIMU VELO AIN AR TRES W  DIS CAZ7
 BAR2 EZ IP     C  747 50.68                              47   -0.0810 19.8 203 
 BAR2 EZ ES        747 54.08                              47    0.3210 19.8 203 
 BAR2 EZ I         747 54.38        38.2 0.20             98           19.8 203 
 BRR  HZ EP        747 59.06                              47   -0.0810 76.8 300 
 BRR  HE ES        748  8.62                              47   -0.0510 76.8 300 
 BRR  HZ I         748  9.68         5.7 0.16             47           76.8 300 
 RUS  HZ EP        748  2.71                              47    0.2010 95.7 178 
 RUS  HN ES        748 14.33                              47   -0.3510 95.7 178 
 RUS  HZ I         748 15.88         3.1 0.18             47           95.7 178 
 PTB  HZ EP        748 10.46                              47    0.12 9  151 261 
 PTB  HN ES        748 28.40                              47   -0.22 9  151 261 
 PTB  HZ I         748 29.76         3.4 0.12             47            151 261 
 ZAR  HN ES        748 43.04                              37    0.18 8  209 293 
                                                                                
