 2014 11 6 0116 53.9 L   6.769 -73.081143.7  RSN  7 0.2 1.5LRSN                1
 GAP=146        0.58       2.4     3.3  3.6 -0.2786E+01  0.2131E+01  0.2380E+01E
 Epicentro: LOS SANTOS - SANTANDER                                             3
 ACTION:UPD 14-12-19 15:39 OP:nd   STATUS:               ID:20141106011653 L   I
 OLDACT:REG 14-11-06 13:28 OP:carl STATUS:               ID:20141106010746     3
 2014-11-06-0107-46M.COL___283                                                 6
 STAT SP IPHASW D HRMM SECON CODA AMPLIT PERI AZIMU VELO AIN AR TRES W  DIS CAZ7
 BAR2 SZ EP        117 13.11                             171   -0.1310 22.5 210 
 BAR2 SZ ES        117 28.00                             171   -0.3410 22.5 210 
 BAR2 SZ I         117 29.44        16.3 0.18            171           22.5 210 
 PAM  SZ EP        117 15.95                             151    0.1710 75.9  34 
 PAM  SN ES        117 33.08                             151    0.2110 75.9  34 
 PAM  SZ I         117 37.62         3.6 0.36            151           75.9  34 
 BRR  HZ EP        117 15.11                             149   -0.1610 79.1 298 
 BRR  HN ES        117 32.00                             149    0.0410 79.1 298 
 BRR  HZ I         117 33.03         6.4 0.14            153           79.1 298 
 RUS  HZ EP        117 17.06                             144   -0.0910 96.9 180 
 RUS  HE ES        117 35.55                             144    0.2310 96.9 180 
 RUS  HZ I         117 37.24         3.4 0.22            145           96.9 180 
 SPBC HZ EP        117 22.20                             128   -0.20 9  165 222 
 SPBC HE ES        117 44.68                             128    0.02 9  165 222 
 SPBC HZ I         117 45.45         5.1 0.20            130            165 222 
 CHI  HZ EP        117 30.92                             117   -0.39 8  247 197 
 CHI  HN ES        118  0.71                             117    0.20 8  247 197 
 CHI  HZ I         118  4.51         1.6 0.44            118            247 197 
 GUY2CHZ EP        117 38.27                             112    0.44 7  305 236 
 GUY2CHE ES        118 12.34                             112    0.22 7  305 236 
 GUY2CHZ I         118 19.58         3.2 0.36                           305 236 
                                                                                
