 2014 11 6 0418 25.1 L   6.346 -73.132  4.0  RSN  7 0.5 1.4LRSN                1
 GAP=150        1.33       2.3     4.5  7.1 -0.1764E+01  0.1048E+02 -0.6328E+00E
 Epicentro: OCAMONTE - SANTANDER                                               3
 ACTION:UPD 14-12-19 15:39 OP:nd   STATUS:               ID:20141106041825 L   I
 OLDACT:DUP 14-11-06 16:58 OP:carl STATUS:               ID:20141106040739d    3
 2014-11-06-0407-38M.COL___283                                                 6
 STAT SP IPHASW D HRMM SECON CODA AMPLIT PERI AZIMU VELO AIN AR TRES W  DIS CAZ7
 BAR2 SZ EP        418 30.05                              47   -0.1210 27.8 349 
 BAR2 SZ ES        418 33.66                              47   -0.4510 27.8 349 
 BAR2 SZ I         418 34.45        35.2 0.18             47           27.8 349 
 RUS  HZ IP     C  418 34.09                              47    0.2310 50.4 174 
 RUS  HN ES        418 40.70                              47    0.0310 50.4 174 
 RUS  HZ I         418 41.58        24.6 0.76             47           50.4 174 
 BRR  HZ EP        418 42.56                              47    0.8210  106 323 
 BRR  HN ES        418 54.88                              47    0.1710  106 323 
 BRR  HZ I         419  0.38         9.9 0.26             47            106 323 
 PAM  SZ EP        418 44.50                              47    0.1210  120  24 
 PAM  SN ES        418 58.51                              47   -0.8910  120  24 
 PAM  SZ I         418 59.92         5.2 0.14             47            120  24 
 SPBC HN ES        419  0.38                              47   -0.8210  129 234 
 SPBC HZ I         419  7.99         7.6 0.20             47            129 234 
 OCA  HZ EP        418 57.76                              37    0.90 8  210 354 
 OCA  HN ES        419 21.86                              37    0.25 8  210 354 
 OCA  HZ I         419 26.73         5.9 0.36             37            210 354 
 NOR  HN ES        419 21.51                              37    0.01 8  211 246 
                                                                                
