 2012  8 6 0841 53.6 L   6.792 -73.167146.0  RSN 18 0.4 3.4LRSN                1
 GAP= 64        0.77       2.3     2.6  3.9 -0.2166E+00  0.2800E+01  0.2230E+01E
 Epicentro: LOS SANTOS - SANTANDER                                             3
 ACTION:UPD 12-09-10 11:54 OP:ep   STATUS:               ID:20120806084153 L   I
 2012-08-06-0840-00M.COL___216                                                 6
 STAT SP IPHASW D HRMM SECON CODA AMPLIT PERI AZIMU VELO AIN AR TRES W  DIS CAZ7
 BAR2 SZ IP        842 13.45                             171    0.2010 22.2 184 
 BAR2 SZ ES        842 28.34                             171   -0.2210 22.2 184 
 BAR2 SZ I         842 29.93       830.9 0.19                          22.2 184 
 BRR  HZ EP        842 15.29                             153    0.5910 69.6 300 
 BRR  HN ES   1    842 32.03                             153    0.89 7 69.6 300 
 BRR  HZ I         842 33.40       418.1 0.17                          69.6 300 
 PAM  SZ IP     C  842 16.22                             150    0.2410 79.6  40 
 PAM  SN ES        842 33.16                             150   -0.2710 79.6  40 
 RUS  HZ EP        842 17.40                             144    0.0610 99.9 175 
 RUS  HE ES   1    842 35.32                             144   -0.52 7 99.9 175 
 RUS  HZ I         842 37.25       420.3 0.14                          99.9 175 
 PTB  HZ EP        842 20.02                             132   -0.36 9  145 259 
 PTB  HN ES   1    842 40.90                             132   -0.35 7  145 259 
 PTB  HZ I         842 43.49       153.1 0.15                           145 259 
 TAM  HZ IP     D  842 21.69                             130    0.19 9  157 104 
 TAM  HZ I         842 21.87       362.7 0.18                           157 104 
 OCA  HZ EP        842 21.46                             129   -0.54 9  161 354 
 OCA  HN ES   1    842 44.05                             129   -0.09 7  161 354 
 YOP  SZ EP   1    842 23.65                             126   -0.05 7  179 153 
 YOP  SE ES   1    842 47.43                             126    0.26 7  179 153 
 YOP  SZ I         842 49.79       137.1 0.50                           179 153 
 ZAR  HZ EP   1    842 25.89                             123    0.00 6  202 293 
 ZAR  HN ES   1    842 51.03                             123   -0.03 6  202 293 
 ZAR  HZ I         843  2.18       167.7 0.32                           202 293 
 NOR  SZ EP        842 29.02                             119   -0.08 8  232 234 
 NOR  SN ES   1    842 57.01                             119    0.24 6  232 234 
 CHI  HZ EP        842 31.23                             117    0.06 8  247 195 
 CHI  HZ I         842 32.08       149.1 0.21                           247 195 
 CHI  HN ES   1    843  0.23                             117   -0.23 6  247 195 
 HEL  HZ EP   1    842 33.94                             115    0.38 6  270 256 
 HEL  HN ES   1    843  4.56                             115   -0.16 6  270 256 
 HEL  HZ I         843 12.56       146.5 0.20                           270 256 
 URE  HZ EP   1    842 33.63                             114   -0.86 6  282 292 
 GUY  SZ EP        842 37.76                             112    0.54 7  301 235 
 GUY  SN ES   1    843 11.10                             112   -0.14 5  301 235 
 GUY  SZ I         843 19.86       267.7 0.38                           301 235 
 VIL  SZ EP        842 36.57                             112   -0.32 7  302 191 
 VIL  SE ES   1    843 10.57                             112   -0.08 5  302 191 
 VIL  SZ I         843 13.75        86.2 0.37                           302 191 
 DBB  SZ EP        842 40.85                             110    0.01 7  337 274 
 ANIL HZ EP   1    842 43.94                             109    0.78 5  355 224 
 ANIL HN ES   1    843 21.32                             109   -0.49 5  355 224 
 PRA  HZ EP        842 46.59                             107   -0.33 6  390 209 
 PRA  HN ES   1    843 29.13                             107    0.64 4  390 209 
                                                                                
