 2010 10 6 0609 36.7 L   6.803 -73.045140.5  RSN  6 0.3 1.8LRSN                1
 GAP=185        0.59       6.0     6.9  8.8 -0.3230E+02 -0.2943E+02  0.3810E+02E
 Epicentro: LOS SANTOS - SANTANDER                                             3
 ACTION:UP  11-02-18 11:08 OP:tino STATUS:               ID:20101006060936 L   I
 2010-10-06-0605-28S.COL___121                                                 6
 STAT SP IPHASW D HRMM SECON CODA AMPLIT PERI AZIMU VELO SNR AR TRES W  DIS CAZ7
 BRR  HZ EP   1    6 9 57.40                             148    -0.4 8   81 295 
 BRR  HE ES   1    610 14.36                             148     0.0 8   81 295 
 BRR  HZ I         610 18.63        14.9 0.38                            81 295 
 GRA  SZ IP        610  1.26                             137     0.110  123  13 
 GRA  SZ ES   1    610 20.36                             137     0.1 7  123  13 
 GRA  SZ I         610 21.98         5.2 0.30                           123  13 
 CHI  HZ EP   2    610 13.94                             116    -0.5 4  252 198 
 CHI  HN ES   2    610 44.05                             116     0.1 4  252 198 
 CHI  HZ I         610 48.40         2.2 0.36                           252 198 
 HEL  HZ EP   2    610 17.99                             113     0.2 4  283 256 
 HEL  HE ES   2    610 49.29                             113    -0.6 4  283 256 
 HEL  HZ I         610 54.34         3.2 0.24                           283 256 
 RREF HZ EP        610 23.80                             109     0.2 7  330 231 
 RREF HE ES        611  0.59                             109     0.4 7  330 231 
 RREF HZ I         611  8.72         2.5 0.16                           330 231 
 PRA  HZ EP   1    610 30.57                             105    -0.1 4  398 211 
 PRA  HN ES   2    611 12.43                             105    -0.4 3  398 211 
 PRA  HZ I         611 18.84         7.6 0.22                           398 211 
                                                                                
