 2013  9 6 0325 55.8 L   6.824 -73.149145.6  RSN 21 0.5 2.7LRSN 3.1WRSN        1
 SPEC AVERAGE  MO 13.8 ST 50.4 OM  2.6 f0 7.41 R0.2933 AL 0.31 WI 31.5 MW  3.1 3
 SPEC SD       MO  0.3 ST 44.4 OM  0.5 f0 3.26 R0.1942 AL      WI      MW  0.2 3
 GAP= 70        0.95       2.4     3.4  4.3 -0.1208E+01  0.2655E+01  0.2670E+00E
 Epicentro: LOS SANTOS - SANTANDER                                             3
 SPEC BRR HH Z MO 13.2 ST 18.7 OM  1.6 f0 10.0 R0.1554 AL 1.87 WI 10.2 MW  2.7 3
 SPEC BRR HH Z T 32633 K 0.000 GD  161 VS 4.20 DE 3.20 Q0300.0 QA 0.60 VS 4.20 3
 SPEC SPBCHH N MO 13.9 ST101.5 OM  2.2 f0 10.0 R0.1554 AL 0.00 WI 35.2 MW  3.2 3
 SPEC SPBCHH N T 32648 K 0.000 GD  220 VS 4.20 DE 3.20 Q0300.0 QA 0.60 VS 4.20 3
 SPEC OCA HH N MO 14.1 ST104.2 OM  2.4 f0 8.72 R0.1782 AL 0.00 WI 44.6 MW  3.4 3
 SPEC OCA HH N T 32643 K 0.000 GD  214 VS 4.20 DE 3.20 Q0300.0 QA 0.60 VS 4.20 3
 SPEC RUS HH N MO 13.7 ST  2.4 OM  2.1 f0 3.32 R0.4681 AL 0.00 WI 38.2 MW  3.1 3
 SPEC RUS HH N T 32638 K 0.000 GD  178 VS 4.20 DE 3.20 Q0300.0 QA 0.60 VS 4.20 3
 SPEC PAM SH N MO 13.9 ST  1.3 OM  2.3 f0 2.40 R0.6475 AL 0.00 WI 27.6 MW  3.2 3
 SPEC PAM SH N T 32633 K 0.000 GD  164 VS 4.20 DE 3.20 Q0300.0 QA 0.60 VS 4.20 3
 SPEC BRR HH N MO 13.8 ST 74.5 OM  2.2 f0 10.0 R0.1554 AL 0.00 WI 32.9 MW  3.1 3
 SPEC BRR HH N T 32631 K 0.000 GD  161 VS 4.20 DE 3.20 Q0300.0 QA 0.60 VS 4.20 3
 ACTION:UPD 13-10-22 09:20 OP:ep   STATUS:               ID:20130906032555 L   I
 OLDACT:UP  13-09-06 09:22 OP:cam  STATUS:               ID:20130906031959     3
 OLDACT:UP  13-09-06 09:21 OP:cam  STATUS:               ID:20130906031959     3
 OLDACT:UP  13-09-06 09:21 OP:cam  STATUS:               ID:20130906031959     3
 OLDACT:REG 13-09-06 07:59 OP:cam  STATUS:               ID:20130906031959     3
 2013-09-06-0319-59M.COL___269                                                 6
 STAT SP IPHASW D HRMM SECON CODA AMPLIT PERI AZIMU VELO AIN AR TRES W  DIS CAZ7
 BAR2 SZ IP     D  326 15.37                             169   -0.1010 25.9 188 
 BAR2 SZ ES        326 30.59                             169   -0.2110 25.9 188 
 BAR2 SZ I         326 31.98        97.5 0.17            169           25.9 188 
 BRR  HZ EP        326 17.26                             153    0.4110 69.7 297 
 BRR  HN ES        326 33.96                             153    0.7010 69.7 297 
 BRR  HZ I         326 38.17        98.7 0.14            150           69.7 297 
 PAM  SZ EP        326 18.28                             151    0.3910 75.6  41 
 PAM  SN ES        326 35.56                             151    0.4410 75.6  41 
 PAM  SZ I         326 37.55       116.4 0.46            153           75.6  41 
 RUS  HZ EP        326 19.35                             143   -0.3810  103 176 
 RUS  HN ES        326 38.08                             143   -0.3110  103 176 
 RUS  HZ I         326 39.27        76.5 0.28            145            103 176 
 PTB  HZ EP   1    326 22.17                             132   -0.61 7  148 258 
 PTB  HN ES        326 43.22                             132   -0.60 9  148 258 
 PTB  HZ I         326 46.18        63.3 0.38            131            148 258 
 TAM  HZ EP        326 23.78                             130    0.22 9  156 106 
 OCA  HZ EP   1    326 23.53                             130   -0.32 7  158 353 
 OCA  HN ES        326 45.43                             130   -0.30 9  158 353 
 OCA  HZ I         326 49.78        59.3 0.38            130            158 353 
 SPBC HZ EP   1    326 24.37                             129   -0.10 7  165 218 
 SPBC HN ES        326 46.66                             129   -0.16 9  165 218 
 SPBC HZ I         326 52.32       106.1 0.44            129            165 218 
 ZAR  HZ EP        326 27.92                             123   -0.19 9  203 291 
 ZAR  HE ES   1    326 53.48                             123    0.18 6  203 291 
 ZAR  HZ I         326 55.56        40.7 0.14            122            203 291 
 NOR  HZ EP        326 31.46                             118   -0.20 8  236 234 
 NOR  HN ES   1    326 59.53                             118   -0.10 6  236 234 
 NOR  HZ I         327  4.93        63.5 0.14            118            236 234 
 SML  HZ EP        326 31.78                             118   -0.37 8  241 335 
 SML  HN ES        327  0.16                             118   -0.33 8  241 335 
 SML  HZ I         327  3.66       114.5 0.24            118            241 335 
 CHI  HZ EP   2    326 33.47                             117   -0.29 4  251 195 
 CHI  HN ES   1    327  2.84                             117   -0.53 6  251 195 
 CHI  HZ I         327  8.98        27.6 0.34            118            251 195 
 ROSC BZ EP        326 35.17                             116    1.03 8  255 211 
 HEL  HZ EP   1    326 37.00                             115    0.95 6  272 255 
 HEL  HN ES   1    327  7.82                             115    0.39 6  272 255 
 HEL  HZ I         327 14.15        37.3 0.44            115            272 255 
 GUY2CHZ EP   1    326 40.41                             112    0.86 5  302 234 
 RREF HZ EP   1    326 42.44                             111    0.33 5  323 229 
 COD  HZ EP        326 43.24                             109   -0.63 6  346 355 
 COD  HN ES   1    327 21.40                             109    0.05 5  346 355 
 COD  HZ I         327 29.53         9.7 0.72            110            346 355 
 ARGC HZ EP   4    326 46.19                             108    1.04 0  357 340 
 ARGC HN ES   4    327 24.13                             108    0.49 0  357 340 
 ARGC HZ I         327 28.71        11.8 0.30            109            357 340 
 PRA  HZ EP   1    326 49.26                             106   -0.31 4  394 209 
 PRA  HN ES   1    327 32.53                             106    1.03 4  394 209 
 PRA  HZ I         327 37.53        23.1 0.40            107            394 209 
 ORTC HZ EP        326 49.68                             106   -0.27 6  397 216 
 SJC  HZ EP   4    326 49.63                             106   -1.45 0  407 327 
 SJC  HN ES   4    327 30.48                             106   -3.71 0  407 327 
 SJC  HZ I         327 38.72         8.6 0.42            106            407 327 
 MACC HZ EP   4    327  2.33                             101   -2.49 0  523 189 
                                                                                
