 2015  3 6 0605 28.4 L   6.808 -73.173150.0  RSN  4 0.2 0.9LRSN                1
 GAP=235        0.62       4.5     5.6  6.0  0.7756E+01 -0.3444E+01  0.4640E+01E
 Epicentro: LOS SANTOS - SANTANDER                                             3
 ACTION:UPD 15-04-30 16:23 OP:nd   STATUS:               ID:20150306060528 L   I
 OLDACT:DUP 15-03-06 15:51 OP:spq  STATUS:               ID:20150306055752d    3
 OLDACT:DUP 15-03-06 15:36 OP:spq  STATUS:               ID:20150306055751d    3
 2015-03-06-0557-50M.COL___284                                                 6
 STAT SP IPHASW D HRMM SECON CODA AMPLIT PERI AZIMU VELO AIN AR TRES W  DIS CAZ7
 BRR  HZ EP        6 5 49.94                             154    0.0610 68.1 299 
 BRR  HN ES        6 6  6.74                             154    0.1410 68.1 299 
 BRR  HZ I         6 6  7.33         2.1 0.40            150           68.1 299 
 RUS  HZ EP        6 5 52.61                             144   -0.0810  102 174 
 RUS  HN ES   1    6 6 11.42                             144   -0.18 7  102 174 
 RUS  HZ I         6 6 12.60         0.6 0.21            141            102 174 
 PTB  HZ EP        6 5 55.07                             134   -0.43 9  145 258 
 PTB  HE ES   1    6 6 16.47                             134   -0.15 7  145 258 
 PTB  HZ I         6 6 20.83         1.5 0.12            129            145 258 
 SPBC HZ EP        6 5 57.57                             130    0.42 9  162 218 
 SPBC HN ES   1    6 6 19.71                             130    0.16 7  162 218 
 SPBC HZ I         6 6 26.20         1.3 0.24            126            162 218 
                                                                                
