 2012  8 6 0414 47.8 L   6.696 -73.192156.8  RSN  4 0.5 1.4LRSN                1
 GAP=224        0.94      10.5    10.3 12.5  0.5448E+02 -0.1663E+02 -0.1303E+02E
 Epicentro: VILLANUEVA - SANTANDER                                             3
 ACTION:UPD 12-09-10 11:54 OP:ep   STATUS:               ID:20120806041447 L   I
 2012-08-06-0410-00M.COL___216                                                 6
 STAT SP IPHASW D HRMM SECON CODA AMPLIT PERI AZIMU VELO AIN AR TRES W  DIS CAZ7
 BAR2 SZ EP   1    415  7.71                             176   -0.91 7 11.5 175 
 BAR2 SZ I         415 26.81         7.3 0.23                          11.5 175 
 BRR  HZ EP   1    415 10.26                             154   -0.03 7 73.3 308 
 BRR  HZ I         415 10.75         9.2 0.12                          73.3 308 
 BRR  HN ES   1    415 28.22                             154    0.41 7 73.3 308 
 RUS  HZ EP   1    415 12.65                             149    0.69 7 89.7 172 
 RUS  HN ES   1    415 30.72                             149   -0.07 7 89.7 172 
 RUS  HZ I         415 32.36         1.4 0.38                          89.7 172 
 PTB  HZ EP   1    415 15.31                             136    0.19 7  141 263 
 PTB  HN ES   1    415 36.13                             136   -0.29 7  141 263 
 PTB  HZ I         415 41.83         2.3 0.28                           141 263 
                                                                                
