 2014  5 6 0734 46.7 L   6.863 -73.569 10.0  RSN  6 0.3 1.6LRSN                1
 GAP=143        0.86       1.9     2.4  6.3  0.8793E+00  0.4131E+01  0.6103E+00E
 Epicentro: SAN VICENTE DE CHUCURI - SANTANDER                                 3
 ACTION:UPD 15-03-16 16:55 OP:nd   STATUS:               ID:20140506073446 L   I
 OLDACT:REG 14-05-06 13:09 OP:carl STATUS:               ID:20140506072809     3
 2014-05-06-0728-09M.COL___236                                                 6
 STAT SP IPHASW D HRMM SECON CODA AMPLIT PERI AZIMU VELO AIN AR TRES W  DIS CAZ7
 PTB  HZ EP        735  2.75                              93   -0.4110  104 250 
 PTB  HN ES        735 16.06                              93    0.0610  104 250 
 PTB  HZ I         735 18.77        19.2 0.22             47            104 250 
 RUS  HZ EP        735  5.92                              93   -0.0910  120 153 
 RUS  HN ES        735 20.74                              93   -0.3310  120 153 
 SPBC HZ EP        735  9.50                              92    0.12 9  145 203 
 SPBC HE ES        735 27.78                              92    0.71 9  145 203 
 SPBC HZ I         735 31.33         7.0 0.28             47            145 203 
 OCA  HE ES        735 30.22                              92    0.47 9  155  10 
 OCA  HZ I         735 36.21         5.0 0.52             47            155  10 
 ZAR  HZ EP        735 10.86                              92   -0.40 9  158 296 
 ZAR  HN ES        735 30.23                              92   -0.19 9  158 296 
 HEL  HZ EP        735 20.62                              56    0.09 8  229 251 
 HEL  HN ES        735 47.00                              56    0.08 8  229 251 
 HEL  HZ I         735 48.83         4.5 0.26             37            229 251 
                                                                                
