 2010  9 6 0529 41.5 L   6.810 -73.071138.4  RSN  7 0.3 2.0LRSN                1
 GAP=167        0.70       4.2     6.7  7.9 -0.6891E+01  0.7073E+01 -0.5594E+01E
 Epicentro: LOS SANTOS - SANTANDER                                             3
 ACTION:UP  11-02-18 11:00 OP:tino STATUS:               ID:20100906052941 L   I
 2010-09-06-0526-55S.COL___119                                                 6
 STAT SP IPHASW D HRMM SECON CODA AMPLIT PERI AZIMU VELO SNR AR TRES W  DIS CAZ7
 BAR2 SZ EP   1    530  0.30                             168     0.0 7   27 207 
 BAR2 SZ ES   2    530 14.90                             168    -0.1 5   27 207 
 BAR2 SZ I         530 15.96        28.1 0.25                            27 207 
 BRR  HZ IP     C  530  2.23                             149     0.010   78 295 
 BRR  HZ I         530  2.60        36.6 0.10                            78 295 
 BRR  HE ES   2    530 18.97                             149     0.5 5   78 295 
 RUS  HZ EP   1    530  4.36                             142    -0.2 7  101 181 
 RUS  HE ES   2    530 22.55                             142     0.0 5  101 181 
 RUS  HZ I         530 24.95        12.0 0.36                           101 181 
 GUE  SZ EP   1    530  5.93                             138     0.6 7  114   8 
 GRA  SZ EP   1    530  5.42                             136    -0.3 7  122  14 
 GRA  SZ ES   2    530 24.51                             136    -0.2 5  122  14 
 GRA  SZ I         530 27.02        10.7 0.37                           122  14 
 OCA  SZ EP   1    530  9.06                             128    -0.2 7  160 350 
 OCA  SZ ES   2    530 30.39                             128    -0.5 5  160 350 
 OCA  SZ I         530 36.52        10.9 0.17                           160 350 
 HEL  HZ EP   1    530 22.64                             112     0.4 6  280 256 
 HEL  HN ES   2    530 53.40                             112    -0.6 4  280 256 
 HEL  HZ I         530 59.34         5.5 0.26                           280 256 
                                                                                
