 2015  3 6 0425 55.5 L   6.765 -73.121150.7  RSN  6 0.4 1.2LRSN                1
 GAP=237        0.97       5.5     7.1  7.7  0.6300E+01  0.2860E+00  0.9476E+01E
 Epicentro: LOS SANTOS - SANTANDER                                             3
 ACTION:UPD 15-04-30 16:23 OP:nd   STATUS:               ID:20150306042555 L   I
 OLDACT:REG 15-03-06 12:28 OP:spq  STATUS:               ID:20150306041749     3
 2015-03-06-0417-49M.COL___281                                                 6
 STAT SP IPHASW D HRMM SECON CODA AMPLIT PERI AZIMU VELO AIN AR TRES W  DIS CAZ7
 BAR2 EZ EP   1    426 15.72                             172    0.07 7 20.3 200 
 BAR2 EZ ES   1    426 30.78                             172   -0.60 7 20.3 200 
 BAR2 EZ I         426 31.98         2.9 0.40            167           20.3 200 
 BRR  HZ EP        426 17.78                             152    0.3710 75.5 300 
 BRR  HN ES        426 34.93                             152    0.4210 75.5 300 
 BRR  HZ I         426 41.10         7.2 0.28            152           75.5 300 
 RUS  HZ EP   1    426 19.65                             146    0.21 7 96.6 178 
 RUS  HE ES   1    426 37.87                             146   -0.26 7 96.6 178 
 RUS  HZ I         426 41.38         1.0 0.72            146           96.6 178 
 PTB  HZ EP        426 22.72                             133   -0.32 9  150 260 
 PTB  HN ES        426 43.89                             133   -0.64 9  150 260 
 PTB  HZ I         426 47.06         1.7 0.18            133            150 260 
 SPBC HZ EP        426 23.97                             130   -0.28 9  162 221 
 SPBC HE ES        426 47.34                             130    0.65 9  162 221 
 SPBC HZ I         426 53.95         3.0 0.42            131            162 221 
 CHI  HZ EP   1    426 32.83                             118   -0.31 6  246 196 
 CHI  HN ES   1    427  2.97                             118    0.46 6  246 196 
 CHI  HZ I         427  7.01         1.0 0.84            120            246 196 
                                                                                
