 2011  5 6 0915 13.6 L   7.234 -73.449108.5  RSN  5 0.3 1.4LRSN                1
 GAP=123        0.71       3.4    11.5 10.7 -0.5100E+01 -0.9624E+02  0.2423E+01E
 Epicentro: SABANA DE TORRES - SANTANDER                                       3
 ACTION:UP  11-06-29 08:51 OP:tino STATUS:               ID:20110506091513 L   I
 2011-05-06-0912-57S.COL___132                                                 6
 STAT SP IPHASW D HRMM SECON CODA AMPLIT PERI AZIMU VELO SNR AR TRES W  DIS CAZ7
 BRR  HZ EP   1    915 28.72                             162     0.0 7   32 244 
 BRR  HE ES        915 40.67                             162     0.210   32 244 
 BRR  HZ I         915 42.92         4.1 0.16                            32 244 
 BRI  SZ EP   1    915 33.00                             138     0.4 7   90  53 
 GRA  SZ EP   1    915 33.71                             134     0.2 7  101  45 
 GRA  SZ I         915 51.39         5.2 0.21                           101  45 
 OCA  SZ EP   1    915 34.45                             131     0.0 7  112   7 
 OCA  SZ ES   1    915 50.24                             131    -0.5 7  112   7 
 OCA  SZ I         915 52.60         8.0 0.20                           112   7 
 RUS  HZ EP   1    915 38.94                             121    -0.1 7  154 165 
 RUS  HN ES   1    915 58.64                             121    -0.3 7  154 165 
                                                                                
