 2017 11 6 0546 32.2 L   6.829 -73.136146.0  RSN 15 0.7 1.8LRSN                1
 GAP=112        1.49       4.8     5.1  8.2 -0.2231E+00  0.5577E+01  0.1292E+02E
 Epicentro: LOS SANTOS - SANTANDER                                             3
 ACTION:UPD 17-12-12 19:52 OP:rebc STATUS:               ID:20171106054632 L   I
 OLDACT:UP  17-11-06 16:44 OP:dnl  STATUS:               ID:20171106053743d    3
 OLDACT:UP  17-11-06 16:43 OP:dnl  STATUS:               ID:20171106053743d    3
 OLDACT:DUP 17-11-06 16:37 OP:dnl  STATUS:               ID:20171106053743d    3
 2017-11-06-0538-00M.COL___435                                                 6
 STAT SP IPHASW D HRMM SECON CODA AMPLIT PERI AZIMU VELO AIN AR TRES W  DIS CAZ7
 BAR2 EZ EP        546 51.66                             169   -0.2310 26.7 191 
 BAR2 EZ ES        547  7.01                             169   -0.2710 26.7 191 
 BAR2 EZ I         547  9.34        21.3 0.30            167           26.7 191 
 BRR  HZ EP        546 53.54                             153    0.2410 70.6 296 
 BRR  HN ES        547 10.66                             153    0.8710 70.6 296 
 BRR  HZ I         547 12.98         8.0 0.38            150           70.6 296 
 PAM  EZ EP        546 54.55                             152    0.3410 74.2  41 
 PAM  EN ES        547 11.63                             152    0.2210 74.2  41 
 PAM  EZ I         547 13.27         4.8 0.32            148           74.2  41 
 RUS  HZ EP        546 55.57                             143   -0.5910  104 177 
 RUS  HN ES        547 14.39                             143   -0.4910  104 177 
 RUS  HZ I         547 15.32         5.7 0.32            138            104 177 
 PTB  HZ EP        546 58.56                             132   -0.73 9  149 258 
 PTB  HN ES        547 19.62                             132   -0.84 9  149 258 
 PTB  HZ I         547 21.31         5.9 0.14            127            149 258 
 SPBC HZ EP        547  0.59                             129   -0.38 9  166 219 
 SPBC HN ES        547 23.15                             129   -0.30 9  166 219 
 SPBC HZ I         547 25.34        13.6 0.24            124            166 219 
 YPLC HZ EP        547  1.94                             126   -0.26 9  179 152 
 YPLC HN ES        547 25.97                             126    0.34 9  179 152 
 YPLC HZ I         547 26.76         6.7 0.28            121            179 152 
 ZAR  HN ES        547 29.93                             123    0.04 9  204 291 
 ZAR  HZ I         547 35.93         7.5 0.30            118            204 291 
 NOR  HZ EP   2    547  8.12                             118   -0.07 4  237 234 
 NOR  HE ES        547 36.07                             118   -0.23 8  237 234 
 NOR  HZ I         547 41.09         7.5 0.32            114            237 234 
 CHI  HZ EP   2    547  9.78                             117   -0.46 4  252 195 
 CHI  HN ES        547 40.07                             117    0.13 8  252 195 
 CHI  HZ I         547 44.68         2.7 0.28            112            252 195 
 ROSC BZ EP        547 11.74                             116    1.09 8  256 211 
 ROSC BN ES        547 42.91                             116    2.24 8  256 211 
 ROSC BZ I         547 49.48         8.6 0.35            112            256 211 
 GUY2CHZ EP   9    547 17.18                             112    1.10 0  304 234 
 GUY2CHE ES        547 51.97                             113    0.53 7  304 234 
 GUY2CHZ I         547 58.06         6.0 0.32                           304 234 
 PTGC HZ EP   4    547 14.49                             111   -1.83 0  311 159 
 PTGC HZ I         547 47.04         2.9 0.32            107            311 159 
 PTGC HN ES   4    547 47.51                             111   -3.27 0  311 159 
 PRA  HZ EP        547 25.95                             106   -0.12 6  395 209 
 PRA  HE ES        548  7.86                             106   -0.27 6  395 209 
 PRA  HZ I         548 14.13         4.1 0.26            103            395 209 
 SJC  HZ EP   4    547 25.88                             106   -1.59 0  407 327 
 SJC  HE ES   4    548  6.20                             106   -4.42 0  407 327 
 SJC  HZ I         548 11.81         0.9 0.20            102            407 327 
                                                                                
