 2012  8 6 0857 36.0 L   6.785 -73.159139.0  RSN  7 0.5 1.8LRSN                1
 GAP=136        0.98       5.5     5.2  8.0  0.1438E+01  0.5797E+01 -0.5753E+01E
 Epicentro: LOS SANTOS - SANTANDER                                             3
 ACTION:UPD 12-09-10 11:54 OP:ep   STATUS:               ID:20120806085736 L   I
 2012-08-06-0850-00M.COL___216                                                 6
 STAT SP IPHASW D HRMM SECON CODA AMPLIT PERI AZIMU VELO AIN AR TRES W  DIS CAZ7
 BAR2 SZ EP        857 54.96                             171    0.1710 21.5 187 
 BAR2 SZ ES   1    858  9.47                             171    0.03 7 21.5 187 
 BAR2 SZ I         858 11.26        23.6 0.17                          21.5 187 
 BRR  HZ EP   1    857 56.90                             151    0.50 7 70.7 300 
 BRR  HN ES   1    858 13.10                             151    0.79 7 70.7 300 
 BRR  HZ I         858 17.56        11.7 0.12                          70.7 300 
 PAM  SZ EP        857 57.82                             149    0.1710 79.6  40 
 PAM  SN ES   1    858 13.90                             149   -0.63 7 79.6  40 
 RUS  HZ EP        857 59.05                             143    0.0610 99.1 175 
 RUS  HE ES   1    858 16.84                             143   -0.07 7 99.1 175 
 RUS  HZ I         858 19.73         4.9 0.21                          99.1 175 
 PTB  HZ EP   1    858  1.82                             131   -0.45 7  146 259 
 PTB  HN ES   1    858 21.84                             131   -0.91 7  146 259 
 PTB  HZ I         858 26.07         7.6 0.12                           146 259 
 OCA  HZ EP   1    858  3.25                             128   -0.69 7  162 354 
 OCA  HZ I         858 31.15        10.3 0.18                           162 354 
 ZAR  HZ EP   1    858  8.59                             121    0.65 6  203 293 
 ZAR  HN ES   1    858 32.79                             121   -0.07 6  203 293 
 ZAR  HZ I         858 39.36        12.8 0.30                           203 293 
                                                                                
