 2015 11 6 0937 27.0 L   6.823 -73.126145.4  RSN  4 0.4 1.2LRSN                1
 GAP=138        0.94       4.2     6.0  9.7  0.4392E+01  0.2855E+02 -0.6621E+01E
 Epicentro: LOS SANTOS - SANTANDER                                             3
 ACTION:UPD 15-12-28 16:09 OP:cam  STATUS:               ID:20151106093727 L   I
 OLDACT:REG 15-11-06 11:16 OP:drio STATUS:               ID:20151106092740     3
 2015-11-06-0927-40M.COL___310                                                 6
 STAT SP IPHASW D HRMM SECON CODA AMPLIT PERI AZIMU VELO AIN AR TRES W  DIS CAZ7
 PAM  EZ EP        937 49.09                             152    0.0910 74.0  40 
 PAM  EN ES        938  6.38                             152    0.2410 74.0  40 
 PAM  EZ I         938  6.59         2.4 0.22            152           74.0  40 
 RUS  HZ EP        937 51.39                             143    0.4710  103 177 
 RUS  HE ES        938  8.97                             143   -0.5810  103 177 
 RUS  HZ I         938 10.06         1.1 0.44            145            103 177 
 ZAR  HZ EP        937 59.69                             122    0.13 9  205 291 
 ZAR  HN ES        938 25.29                             122    0.36 9  205 291 
 SML  HZ EP        938  2.99                             117   -0.49 8  242 335 
 SML  HE ES        938 31.48                             117   -0.43 8  242 335 
 SML  HZ I         938 36.97         2.6 0.24            118            242 335 
                                                                                
