 2016  6 6 0804 14.2 L   6.809 -73.179147.6  RSN  5 0.5 1.1LRSN                1
 GAP=132        1.19       6.5     6.1  8.7 -0.3790E+01  0.6123E+01  0.2690E+01E
 Epicentro: ZAPATOCA - SANTANDER                                               3
 ACTION:UPD 16-07-21 22:15 OP:rebc STATUS:               ID:20160606080414 L   I
 OLDACT:REG 16-06-06 12:44 OP:dani STATUS:               ID:20160606075741     3
 2016-06-06-0757-41M.COL___322                                                 6
 STAT SP IPHASW D HRMM SECON CODA AMPLIT PERI AZIMU VELO AIN AR TRES W  DIS CAZ7
 BAR2 EZ EP        8 4 34.07                             170   -0.0410 23.9 181 
 BAR2 EZ ES        8 4 49.17                             170   -0.4310 23.9 181 
 BAR2 EZ I         8 4 50.52         3.4 0.24                          23.9 181 
 BRR  HZ EP        8 4 35.62                             154    0.2310 67.5 299 
 BRR  HE ES        8 4 52.80                             154    0.9110 67.5 299 
 BRR  HZ I         8 4 55.42         2.8 0.28                          67.5 299 
 PAM  EZ EP        8 4 36.94                             151    0.1810 79.1  42 
 PAM  EN ES        8 4 53.80                             151   -0.5210 79.1  42 
 PAM  EZ I         8 4 57.13         1.7 0.58                          79.1  42 
 RUS  HZ EP        8 4 38.52                             144    0.2510  102 174 
 RUS  HE ES        8 4 57.30                             144    0.2910  102 174 
 RUS  HZ I         8 4 58.39         1.5 0.50                           102 174 
 PTB  HZ EP        8 4 40.58                             133   -0.47 9  144 258 
 PTB  HN ES        8 5  1.43                             133   -0.54 9  144 258 
 PTB  HZ I         8 5  4.82         1.9 0.36                           144 258 
                                                                                
