 2015  2 6 0149 54.6 L   6.783 -73.144148.6  RSN  6 0.4 1.3LRSN                1
 GAP=138        1.17       6.6     7.1 10.3 -0.1422E+02  0.2870E+02 -0.5699E+01E
 Epicentro: LOS SANTOS - SANTANDER                                             3
 ACTION:UPD 15-04-30 21:22 OP:nd   STATUS:               ID:20150206014954 L   I
 OLDACT:REG 15-02-06 12:32 OP:cam  STATUS:               ID:20150206013744     3
 2015-02-06-0137-44M.COL___290                                                 6
 STAT SP IPHASW D HRMM SECON CODA AMPLIT PERI AZIMU VELO AIN AR TRES W  DIS CAZ7
 BAR2 EZ EP        150 14.68                             171    0.1410 21.5 191 
 BAR2 EZ ES        150 29.46                             171   -0.6310 21.5 191 
 BAR2 EZ I         150 32.48         4.9 0.28            170           21.5 191 
 BRR  HZ EP        150 16.64                             153    0.5210 72.3 300 
 PAM  SN ES        150 34.94                             151    0.1210 78.7  39 
 RUS  HZ EP        150 17.76                             145   -0.7510 98.7 176 
 RUS  HE ES        150 37.83                             145    0.6810 98.7 176 
 RUS  HZ I         150 38.79         1.5 0.18            148           98.7 176 
 PTB  HZ EP        150 21.69                             133   -0.10 9  148 260 
 PTB  HN ES        150 42.90                             133   -0.10 9  148 260 
 PTB  HZ I         150 49.80         5.3 0.30            133            148 260 
 SPBC HN ES        150 45.62                             130    0.12 9  162 219 
                                                                                
