 2014  5 6 0001  3.3 L   6.557 -73.522113.1  RSN 11 0.5 2.2LRSN                1
 GAP=100        1.15       2.6     3.7  7.6 -0.1527E+00  0.9942E+01 -0.1495E+01E
 Epicentro: EL CARMEN DE CHUCURI - SANTANDER                                   3
 ACTION:UPD 15-03-16 16:55 OP:nd   STATUS:               ID:20140506000103 L   I
 OLDACT:REG 14-05-06 12:58 OP:carl STATUS:               ID:20140506000010     3
 2014-05-06-0000-10M.COL___239                                                 6
 STAT SP IPHASW D HRMM SECON CODA AMPLIT PERI AZIMU VELO AIN AR TRES W  DIS CAZ7
 BRR  HZ EP        0 1 20.65                             148    0.0610 64.3 341 
 BRR  HE ES        0 1 34.35                             148    0.2910 64.3 341 
 BRR  HZ I         0 1 35.25        24.8 0.10            146           64.3 341 
 RUS  HZ EP        0 1 22.92                             140   -0.0810 88.1 147 
 RUS  HE ES        0 1 38.45                             140    0.1010 88.1 147 
 PTB  HZ EP        0 1 22.68                             134   -0.9310  103 269 
 PTB  HN ES   4    0 1 37.42                             134   -2.02 0  103 269 
 PTB  HZ I         0 1 38.79        40.0 0.16            134            103 269 
 SPBC HZ EP        0 1 24.81                             130   -0.1510  117 211 
 SPBC HN ES        0 1 41.14                             130   -0.6910  117 211 
 SPBC HZ I         0 1 44.89        32.8 0.30            131            117 211 
 PAM  SZ EP        0 1 26.40                             129    0.1310  125  46 
 PAM  SN ES        0 1 44.26                             129    0.0810  125  46 
 PAM  SZ I         0 1 45.41        18.5 0.42            128            125  46 
 ZAR  HZ EP        0 1 32.09                             117    0.83 9  180 305 
 ZAR  HE ES        0 1 53.63                             117    0.58 9  180 305 
 ZAR  HZ I         0 1 55.96        21.0 0.56            117            180 305 
 OCA  HE ES        0 1 54.54                             116   -0.21 9  187   7 
 OCA  HZ I         0 2  3.35        14.3 0.30            116            187   7 
 CHI  HZ EP        0 1 35.31                             113   -0.24 8  214 186 
 CHI  HN ES        0 2  1.38                             113    0.70 8  214 186 
 HEL  HZ EP        0 1 37.44                             112    0.68 8  226 260 
 HEL  HE ES        0 2  3.28                             112    0.43 8  226 260 
 HEL  HZ I         0 2  9.46         5.8 0.26            112            226 260 
 SML  HZ EP        0 1 39.68                             109   -0.02 8  255 346 
 SML  HE ES        0 2  7.61                             109   -0.46 8  255 346 
 SML  HZ I         0 2 13.95        22.1 0.26            108            255 346 
 URE  HZ EP        0 1 39.69                             108   -0.38 8  258 301 
 URE  HN ES        0 2  8.16                             108   -0.57 8  258 301 
 URE  HZ I         0 2 10.42        24.5 0.84            108            258 301 
                                                                                
