 2014  4 6 0023 33.9 L   6.836 -73.138146.9  RSN 15 0.5 2.4LRSN                1
 GAP=136        1.19       3.1     4.7  6.5 -0.4777E+01  0.7375E+01  0.3117E+01E
 Epicentro: LOS SANTOS - SANTANDER                                             3
 ACTION:UPD 14-05-13 23:06 OP:nd   STATUS:               ID:20140406002333 L   I
 OLDACT:REG 14-04-06 13:25 OP:carl STATUS:               ID:20140406001806     3
 2014-04-06-0018-06M.COL___259                                                 6
 STAT SP IPHASW D HRMM SECON CODA AMPLIT PERI AZIMU VELO AIN AR TRES W  DIS CAZ7
 BRR  HZ EP        023 55.75                             153    0.6710 70.1 295 
 BRR  HN ES        024 12.64                             153    1.0210 70.1 295 
 BRR  HZ I         024 16.01        53.2 0.12            153           70.1 295 
 PAM  SZ EP        023 56.02                             152    0.0310 73.8  41 
 PAM  SN ES        024 13.69                             152    0.4410 73.8  41 
 PAM  SZ I         024 18.25        13.6 0.32            156           73.8  41 
 RUS  HZ EP        023 57.99                             143   -0.0210  105 177 
 RUS  HN ES        024 16.17                             143   -0.6810  105 177 
 RUS  HZ I         024 18.95        23.9 0.28            145            105 177 
 PTB  HZ EP        024  0.47                             132   -0.61 9  149 257 
 PTB  HE ES        024 21.97                             132   -0.33 9  149 257 
 PTB  HZ I         024 23.99        51.1 0.12            133            149 257 
 OCA  HZ EP        024  1.90                             131   -0.01 9  156 353 
 OCA  HN ES        024 23.14                             131   -0.64 9  156 353 
 OCA  HZ I         024 29.71        26.3 0.48            133            156 353 
 SPBC HZ EP        024  2.88                             129    0.08 9  167 218 
 SPBC HN ES        024 25.21                             129   -0.15 9  167 218 
 NOR  HZ EP        024 10.01                             118    0.02 8  238 234 
 NOR  HE ES        024 37.57                             118   -0.59 8  238 234 
 NOR  HZ I         024 41.71        15.1 0.30            120            238 234 
 SML  HZ EP        024 10.37                             118    0.16 8  240 335 
 SML  HN ES        024 37.58                             118   -0.97 8  240 335 
 SML  HZ I         024 42.97        35.3 0.10            120            240 335 
 CHI  HZ EP        024 12.45                             117    0.38 8  253 195 
 CHI  HN ES        024 41.42                             117   -0.45 8  253 195 
 CHI  HZ I         024 49.40        11.8 0.34            119            253 195 
 ROSC BZ EP   4    024 14.31                             117    1.84 0  257 211 
 ROSC BN ES   4    024 45.04                             117    2.46 0  257 211 
 ROSC BZ I         024 50.75        15.0 0.30            118            257 211 
 HEL  HZ EP        024 14.30                             115   -0.04 8  274 255 
 HEL  HN ES        024 46.88                             115    0.98 8  274 255 
 HEL  HZ I         024 52.57        16.4 0.42            116            274 255 
 URE  HZ EP   4    024 14.56                             114   -0.36 0  283 291 
 URE  HN ES   4    024 44.17                             114   -2.76 0  283 291 
 GUY2CHZ EP        024 18.18                             112    0.31 7  304 234 
 GUY2CHE ES        024 51.87                             112   -0.31 7  304 234 
 GUY2CHZ I         025  1.72        10.5 0.52                           304 234 
 RREF HZ EP        024 21.12                             111    0.69 7  325 229 
 RREF HE ES        024 56.68                             111   -0.06 7  325 229 
 RREF HZ I         025  4.06        12.8 0.34            112            325 229 
 ANIL HE ES        025  2.74                             108   -0.56 6  361 224 
 ANIL HZ I         025 15.48        19.0 0.50            110            361 224 
 ORTC HZ EP        024 28.45                             106    0.19 6  399 216 
 ORTC HN ES        025 11.31                             106    0.62 6  399 216 
 ORTC HZ I         025 16.74         9.2 0.42            108            399 216 
                                                                                
