 2014  3 6 0936 36.8 L   6.807 -73.144148.1  RSN 13 0.4 1.9LRSN                1
 GAP=136        1.02       2.7     4.0  6.8 -0.2084E+01  0.8771E+01 -0.4356E+00E
 Epicentro: LOS SANTOS - SANTANDER                                             3
 ACTION:UPD 14-04-09 23:14 OP:nd   STATUS:               ID:20140306093636 L   I
 OLDACT:DUP 14-03-06 10:57 OP:nd   STATUS:               ID:20140306093041d    3
 2014-03-06-0930-40M.COL___231                                                 6
 STAT SP IPHASW D HRMM SECON CODA AMPLIT PERI AZIMU VELO AIN AR TRES W  DIS CAZ7
 PAM  SZ EP        936 59.76                             151    0.5610 76.7  40 
 PAM  SN ES        937 16.96                             151    0.2710 76.7  40 
 PAM  SZ I         937 19.35        12.2 0.62            157           76.7  40 
 RUS  HZ EP        937  0.76                             144   -0.0510  101 176 
 RUS  HN ES        937 19.43                             144   -0.1210  101 176 
 RUS  HZ I         937 20.72         7.6 0.34            147            101 176 
 PTB  HZ EP        937  3.84                             132   -0.12 9  148 259 
 PTB  HN ES        937 24.77                             132   -0.39 9  148 259 
 PTB  HZ I         937 29.30         9.9 0.38            133            148 259 
 OCA  HZ EP        937  5.21                             130    0.01 9  160 353 
 OCA  HN ES        937 27.34                             130   -0.03 9  160 353 
 OCA  HZ I         937 31.76        12.8 0.36            134            160 353 
 SPBC HZ EP        937  4.43                             129   -1.08 9  164 219 
 SPBC HN ES        937 28.29                             129    0.36 9  164 219 
 SPBC HZ I         937 35.74        14.6 0.36            131            164 219 
 ZAR  HZ EP        937  9.35                             123   -0.01 9  204 292 
 ZAR  HN ES        937 34.72                             123   -0.05 9  204 292 
 ZAR  HZ I         937 41.15         9.2 0.36            125            204 292 
 NOR  HZ EP        937 13.10                             119    0.40 8  235 234 
 NOR  HN ES        937 40.79                             119    0.07 8  235 234 
 NOR  HZ I         937 44.47         9.1 0.22            121            235 234 
 SML  HZ EP        937 13.17                             118   -0.30 8  243 335 
 SML  HN ES        937 41.62                             118   -0.46 8  243 335 
 SML  HZ I         937 45.39        17.6 0.10            121            243 335 
 CHI  HZ EP        937 14.67                             117   -0.01 8  249 195 
 CHI  HN ES        937 43.92                             117   -0.33 8  249 195 
 CHI  HZ I         937 52.72         3.2 0.60            120            249 195 
 URE  HZ EP   4    937 16.74                             114   -1.20 0  284 292 
 URE  HN ES   4    937 47.83                             114   -2.22 0  284 292 
 URE  HZ I         937 55.24         4.3 0.18            116            284 292 
 GUY2CHZ EP   4    937 21.39                             113    0.84 0  302 235 
 GUY2CHN ES   4    937 56.28                             113    1.58 0  302 235 
 GUY2CHZ I         938  3.64         5.1 0.76                           302 235 
 CBOC HZ EP        937 24.82                             110    0.99 7  334 252 
 CBOC HN ES        938  1.36                             110    0.83 7  334 252 
 CBOC HZ I         938  7.10         1.4 0.46            112            334 252 
 SJC  HZ EP   4    937 30.88                             106   -1.47 0  409 327 
 SJC  HN ES   4    938 13.20                             106   -2.50 0  409 327 
 SJC  HZ I         938 17.63         2.2 0.54            108            409 327 
                                                                                
