 2013 12 6 0509  6.8 L   6.802 -73.172149.9  RSN  9 0.4 1.8LRSN                1
 GAP=180        0.92       2.6     4.7  5.6  0.1345E+01  0.2097E+01 -0.2502E+01E
 Epicentro: LOS SANTOS - SANTANDER                                             3
 ACTION:UPD 14-01-13 10:16 OP:ep   STATUS:               ID:20131206050906 L   I
 OLDACT:REG 13-12-06 07:43 OP:carl STATUS:               ID:20131206050741     3
 2013-12-06-0507-41M.COL___250                                                 6
 STAT SP IPHASW D HRMM SECON CODA AMPLIT PERI AZIMU VELO AIN AR TRES W  DIS CAZ7
 BAR2 SZ EP        5 9 26.76                             171   -0.1410 23.2 183 
 BAR2 SZ ES        5 9 42.67                             171    0.0710 23.2 183 
 BAR2 SZ I         5 9 44.47        14.6 0.26            171           23.2 183 
 BRR  HZ EP        5 9 28.70                             154    0.4710 68.6 300 
 BRR  HN ES        5 9 45.59                             154    0.6210 68.6 300 
 BRR  HZ I         5 9 49.78         7.8 0.40            152           68.6 300 
 RUS  HZ EP        5 9 31.01                             145    0.0410  101 174 
 RUS  HN ES        5 9 49.43                             145   -0.4010  101 174 
 RUS  HZ I         5 9 52.45         2.5 0.30            148            101 174 
 PTB  HZ EP        5 9 33.31                             134   -0.53 9  145 259 
 PTB  HN ES        5 9 54.52                             134   -0.42 9  145 259 
 PTB  HZ I         510  0.66         9.4 0.30            134            145 259 
 OCA  HZ EP        5 9 35.89                             131    0.52 9  160 354 
 OCA  HE ES        5 9 57.10                             131   -0.57 9  160 354 
 OCA  HZ I         510  1.59         7.2 0.28            133            160 354 
 SPBC HZ EP        5 9 35.82                             130    0.38 9  162 218 
 SPBC HN ES        5 9 57.83                             130    0.03 9  162 218 
 SPBC HZ I         510  1.38         7.1 0.30            132            162 218 
 ZAR  HZ EP        5 9 39.08                             124   -0.14 9  201 292 
 ZAR  HE ES        510  4.70                             124    0.18 9  201 292 
 ZAR  HZ I         510  9.93         6.0 0.24            125            201 292 
 SML  HZ EP        5 9 43.36                             118   -0.13 8  242 336 
 SML  HE ES        510 11.89                             118   -0.24 8  242 336 
 SML  HZ I         510 16.39         7.5 0.10            121            242 336 
 CHI  HN ES        510 14.29                             118    0.11 8  248 195 
                                                                                
