 2014  7 6 0857 17.6 L   6.850 -73.153130.0  RSN  4 0.3 1.1LRSN                1
 GAP=201        0.61       8.7     5.3 14.0  0.2371E+02 -0.2271E+02 -0.9137E+02E
 Epicentro: LOS SANTOS - SANTANDER                                             3
 ACTION:UPD 15-03-16 20:41 OP:nd   STATUS:               ID:20140706085717 L   I
 OLDACT:UP  14-07-06 16:04 OP:cam  STATUS:               ID:20140706085000     3
 OLDACT:REG 14-07-06 13:15 OP:cma  STATUS:               ID:20140706085000     3
 2014-07-06-0850-00M.COL___279                                                 6
 STAT SP IPHASW D HRMM SECON CODA AMPLIT PERI AZIMU VELO AIN AR TRES W  DIS CAZ7
 RUS  HZ EP   1    857 40.18                             139   -0.13 7  106 176 
 RUS  HE ES        857 58.11                             139    0.1110  106 176 
 RUS  HZ I         857 59.14         2.0 0.50            146            106 176 
 PTB  HZ EP   1    857 43.93                             129    0.52 7  148 257 
 PTB  HN ES        858  3.49                             129   -0.02 9  148 257 
 PTB  HZ I         858  6.78         1.7 0.40            133            148 257 
 SPBC HN ES   1    858  6.55                             125   -0.44 7  167 218 
 SML  HZ EP   2    857 52.41                             115   -0.43 4  238 335 
                                                                                
