 2015 10 6 0531 24.5 L   6.759 -73.198146.9  RSN  4 0.3 1.2LRSN                1
 GAP=238        0.64       4.5     5.5  7.5  0.1361E+02  0.1339E+01 -0.5671E+01E
 Epicentro: VILLANUEVA - SANTANDER                                             3
 ACTION:UPD 15-12-22 20:37 OP:cam  STATUS:               ID:20151006053124 L   I
 OLDACT:UP  15-10-06 15:57 OP:ak   STATUS:               ID:20151006052741     3
 OLDACT:UP  15-10-06 15:56 OP:ak   STATUS:               ID:20151006052741     3
 OLDACT:REG 15-10-06 14:14 OP:ak   STATUS:               ID:20151006052741     3
 2015-10-06-0527-41M.COL___319                                                 6
 STAT SP IPHASW D HRMM SECON CODA AMPLIT PERI AZIMU VELO AIN AR TRES W  DIS CAZ7
 RUS  HZ EP        531 47.98                             145   -0.0910 96.7 172 
 RUS  HE ES        532  6.47                             145    0.0110 96.7 172 
 RUS  HZ I         532  8.10         1.9 0.38            143           96.7 172 
 SPBC HZ EP        531 52.88                             131    0.48 9  156 218 
 SPBC HN ES        532 14.38                             131    0.21 9  156 218 
 SPBC HZ I         532 16.70         3.9 0.13            129            156 218 
 ZAR  HZ EP   2    531 56.48                             123   -0.15 4  200 294 
 ZAR  HE ES        532 21.50                             123   -0.21 9  200 294 
 CHI  HZ EP   1    532  1.54                             118   -0.07 6  243 194 
 CHI  HN ES        532 30.11                             118   -0.47 8  243 194 
 CHI  HZ I         532 34.93         0.9 0.59            117            243 194 
                                                                                
