 2012  9 6 0341 45.7 L   6.727 -73.120143.6  RSN  5 0.4 1.3LRSN                1
 GAP=143        0.68       5.3     5.9  9.0 -0.3364E+01  0.1195E+01 -0.6278E+01E
 Epicentro: JORDAN - SANTANDER                                                 3
 ACTION:UPD 12-10-22 14:17 OP:ep   STATUS:               ID:20120906034145 L   I
 2012-09-06-0340-00M.COL___218                                                 6
 STAT SP IPHASW D HRMM SECON CODA AMPLIT PERI AZIMU VELO AIN AR TRES W  DIS CAZ7
 BAR2 SZ EP   1    342  4.98                             173    0.07 7 16.5 205 
 BAR2 SZ I         342  5.21         3.3 0.08                          16.5 205 
 BAR2 SZ ES   2    342 20.50                             173    0.58 5 16.5 205 
 BRR  HZ EP   1    342  7.24                             149    0.28 7 77.7 303 
 BRR  HN ES   1    342 23.87                             149    0.29 7 77.7 303 
 PAM  SZ EP   1    342  8.03                             149    0.09 7 82.1  34 
 PAM  SZ I         342  8.12         4.5 0.17                          82.1  34 
 PAM  SN ES   1    342 24.90                             149   -0.41 7 82.1  34 
 RUS  HN ES   1    342 26.29                             146   -0.24 7 92.4 177 
 PTB  HN ES   2    342 32.69                             131   -0.90 5  149 262 
                                                                                
