 2015  1 6 0924 50.1 L   6.825 -73.148143.8  RSN 20 0.5 2.5LRSN                1
 GAP= 70        1.23       3.1     3.4  5.6  0.1034E+00  0.7119E+01  0.1983E+01E
 Epicentro: LOS SANTOS - SANTANDER                                             3
 ACTION:UPD 15-03-02 15:37 OP:nd   STATUS:               ID:20150106092450 L   I
 OLDACT:UP  15-01-06 17:27 OP:cam  STATUS:               ID:20150106091820     3
 OLDACT:REG 15-01-06 14:24 OP:cam  STATUS:               ID:20150106091820     3
 2015-01-06-0918-20M.COL___271                                                 6
 STAT SP IPHASW D HRMM SECON CODA AMPLIT PERI AZIMU VELO AIN AR TRES W  DIS CAZ7
 BAR2 EZ EP     C  925  9.61                             169    0.0410 26.1 188 
 BAR2 EZ ES        925 24.23                             169   -0.5110 26.1 188 
 BAR2 EZ I         925 25.20       143.9 0.30            168           26.1 188 
 BRR  HZ IP     C  925 11.51                             153    0.5510 69.7 297 
 BRR  HE ES        925 28.22                             153    0.9910 69.7 297 
 BRR  HZ I         925 33.37        64.7 0.14            151           69.7 297 
 PAM  SZ EP     D  925 12.71                             151    0.7110 75.4  41 
 PAM  SN ES        925 29.45                             151    0.3710 75.4  41 
 PAM  SZ I         925 31.58        63.6 0.48            154           75.4  41 
 RUS  HZ EP        925 13.63                             143   -0.2510  103 176 
 RUS  HN ES        925 32.00                             143   -0.4210  103 176 
 RUS  HZ I         925 32.71        50.0 0.26            143            103 176 
 PTB  HZ EP        925 16.20                             131   -0.75 9  148 258 
 PTB  HZ I         925 42.82        37.1 0.24            130            148 258 
 TAM  HZ IP     D  925 17.98                             130    0.25 9  156 106 
 TAM  HN ES        925 39.16                             130   -0.11 9  156 106 
 TAM  HN I         925 40.25        32.9 0.48            132            156 106 
 OCA  HZ EP        925 17.72                             130   -0.29 9  157 353 
 OCA  HN ES        925 39.05                             130   -0.71 9  157 353 
 OCA  HZ I         925 43.34        54.7 0.20            130            157 353 
 SPBC HZ EP        925 18.53                             128   -0.13 9  165 218 
 SPBC HN ES        925 40.48                             128   -0.44 9  165 218 
 SPBC HZ I         925 44.46        50.2 0.20            127            165 218 
 ZAR  HZ EP        925 22.49                             122    0.19 9  203 291 
 ZAR  HE ES        925 48.12                             122    0.72 9  203 291 
 ZAR  HZ I         925 49.83        40.8 0.36            122            203 291 
 NOR  HZ EP        925 25.88                             118   -0.00 8  236 234 
 NOR  HE ES        925 53.53                             118   -0.25 8  236 234 
 NOR  HZ I         925 59.21        36.2 0.16            117            236 234 
 SML  HZ EP   1    925 25.89                             117   -0.45 6  241 335 
 SML  HN ES   1    925 53.48                             117   -1.12 6  241 335 
 SML  HZ I         925 57.52        57.4 0.26            118            241 335 
 CHI  HZ EP        925 27.84                             116   -0.15 8  251 195 
 CHI  HN ES   4    925 56.59                             116   -0.95 0  251 195 
 CHI  HZ I         926  2.38         9.7 0.28            116            251 195 
 ROSC BZ EP        925 29.27                             116    0.90 8  255 211 
 HEL  HZ EP        925 30.10                             114   -0.17 8  273 255 
 HEL  HN ES        926  1.51                             114   -0.09 8  273 255 
 HEL  HZ I         926 10.77        15.0 0.28            114            273 255 
 URE  HZ EP        925 30.03                             113   -0.91 7  283 291 
 URE  HN ES   1    926  2.47                             113   -0.32 6  283 291 
 URE  HZ I         926  3.41        28.0 0.38            113            283 291 
 CBOC HZ EP        925 37.84                             109    0.82 7  334 252 
 CBOC HN ES        926 14.37                             109    0.77 7  334 252 
 CBOC HZ I         926 18.53         6.0 0.28            109            334 252 
 DBB  SZ EP        925 37.86                             109    0.41 7  339 274 
 DBB  SZ ES   4    926 12.24                             109   -2.14 0  339 274 
 MON  HZ EP   4    925 37.55                             108   -1.26 0  352 308 
 MON  HN ES        926 16.15                             108   -0.65 6  352 308 
 MON  HZ I         926 16.94         9.7 0.26            108            352 308 
 ANIL HZ EP        925 40.83                             108    0.78 6  359 224 
 ANIL HN ES   4    926 20.09                             108    1.09 0  359 224 
 ORTC HZ EP        925 44.15                             106   -0.06 6  398 216 
 ORTC HN ES        926 25.87                             106   -0.54 6  398 216 
 ORTC HZ I         926 34.13         7.6 0.26            106            398 216 
                                                                                
