 2014  8 6 0355  5.6 L   6.789 -73.162138.4  RSN  8 0.4 1.6LRSN                1
 GAP=135        0.92       3.4     4.7  7.0 -0.3589E+01  0.5512E+01 -0.1258E+01E
 Epicentro: LOS SANTOS - SANTANDER                                             3
 ACTION:UPD 14-09-15 21:47 OP:nd   STATUS:               ID:20140806035505 L   I
 OLDACT:DUP 14-08-06 20:00 OP:spq  STATUS:               ID:20140806034820d    3
 2014-08-06-0348-19M.COL___254                                                 6
 STAT SP IPHASW D HRMM SECON CODA AMPLIT PERI AZIMU VELO AIN AR TRES W  DIS CAZ7
 BAR2 SZ EP        355 24.49                             171    0.2010 21.9 186 
 BAR2 SZ ES   1    355 39.00                             171    0.11 7 21.9 186 
 BAR2 SZ I         355 40.35         6.7 0.18            172           21.9 186 
 BRR  HZ EP        355 26.51                             152    0.6310 70.2 300 
 BRR  HN ES        355 42.13                             152    0.4310 70.2 300 
 BRR  HZ I         355 48.16         9.5 0.12            149           70.2 300 
 PAM  SZ EP        355 27.44                             149    0.3010 79.4  40 
 PAM  SE ES   1    355 43.88                             149   -0.08 7 79.4  40 
 PAM  SZ I         355 46.98         4.7 0.26            152           79.4  40 
 RUS  HE ES   1    355 45.71                             143   -0.73 7 99.6 175 
 RUS  HZ I         355 47.91         5.1 0.30            149           99.6 175 
 SPBC HZ EP        355 33.23                             128   -0.09 9  161 219 
 SPBC HN ES        355 54.75                             128   -0.21 9  161 219 
 SPBC HZ I         355 57.80         5.3 0.20            131            161 219 
 OCA  HZ EP        355 33.07                             128   -0.35 9  161 354 
 OCA  HN ES        355 54.65                             128   -0.48 9  161 354 
 OCA  HZ I         355 59.75         8.2 0.34            130            161 354 
 ZAR  HE ES        356  1.87                             121   -0.39 9  203 293 
 ZAR  HZ I         356  9.97         3.4 0.28            123            203 293 
 GUY2CHN ES   1    356 22.43                             111    0.26 5  299 235 
 GUY2CHZ I         356 29.76         1.9 0.22                           299 235 
                                                                                
