 2016  7 6 0451 53.8 L   6.799 -73.125144.0  RSN 18 0.6 2.1LRSN                1
 GAP=121        1.27       4.6     4.2  6.4 -0.5330E+01  0.6382E+01  0.2806E+01E
 Epicentro: LOS SANTOS - SANTANDER                                             3
 ACTION:UPD 17-03-29 16:47 OP:lp   STATUS:               ID:20160706045152 L   I
 OLDACT:UP  16-08-04 22:03 OP:lp   STATUS:               ID:20160706045152 L   3
 OLDACT:UP  16-08-04 21:57 OP:lp   STATUS:               ID:20160706045152 L   3
 OLDACT:UP  16-07-15 05:36 OP:edw  STATUS:               ID:20160706045152 L   3
 OLDACT:UP  16-07-06 16:07 OP:dani STATUS:               ID:20160706044746     3
 OLDACT:UP  16-07-06 16:06 OP:dani STATUS:               ID:20160706044746     3
 OLDACT:UP  16-07-06 16:06 OP:dani STATUS:               ID:20160706044746     3
 OLDACT:UP  16-07-06 16:06 OP:dani STATUS:               ID:20160706044746     3
 OLDACT:UP  16-07-06 15:58 OP:dani STATUS:               ID:20160706044746     3
 OLDACT:REG 16-07-06 12:34 OP:dani STATUS:               ID:20160706044746     3
 2016-07-06-0447-46M.COL___319                                                 6
 STAT SP IPHASW D HRMM SECON CODA AMPLIT PERI AZIMU VELO AIN AR TRES W  DIS CAZ7
 CBARIEE ES        452 28.27                                                    
 BAR2 EZ EP        452 13.07                             170   -0.1410 23.7 196 
 BAR2 EZ ES        452 28.08                             170   -0.2810 23.7 196 
 BAR2 EZ I         452 29.10        42.8 0.22            169           23.7 196 
 BRR  HZ IP     C  452 15.00                             152    0.1410 73.3 298 
 BRR  HN ES        452 32.02                             152    0.7210 73.3 298 
 BRR  HZ I         452 35.06        25.3 0.28            148           73.3 298 
 PAM  EZ EP        452 16.12                             151    0.3910 76.1  38 
 PAM  EE ES        452 33.18                             151    0.3310 76.1  38 
 PAM  EZ I         452 35.40        36.3 0.50            152           76.1  38 
 RUS  HZ EP        452 17.13                             144   -0.2110  100 177 
 RUS  HN ES        452 36.03                             144    0.3210  100 177 
 RUS  HZ I         452 36.62        11.0 0.24            144            100 177 
 PTB  HZ EP        452 20.06                             131   -0.75 9  150 259 
 PTB  HE ES        452 41.27                             131   -0.62 9  150 259 
 PTB  HZ I         452 42.71        23.7 0.46            129            150 259 
 SPBC HZ EP        452 21.96                             128   -0.32 9  165 220 
 SPBC HE ES        452 44.13                             128   -0.37 9  165 220 
 SPBC HZ I         452 47.31        13.6 0.42            127            165 220 
 ZAR  HZ EP        452 26.55                             122    0.20 8  206 292 
 ZAR  HN ES        452 51.75                             122    0.01 8  206 292 
 ZAR  HZ I         452 59.94        19.7 0.30            120            206 292 
 NOR  HE ES        452 57.32                             118   -0.22 8  236 235 
 ROSC BZ EP   4    452 34.07                             116    2.14 0  254 211 
 ROSC BN ES   4    453  0.31                             116   -1.36 0  254 211 
 ROSC BZ I         453  7.44         5.9 0.30            116            254 211 
 HEL  HE ES        453  4.01                             114   -1.63 8  274 256 
 HEL  HZ I         453 13.94         5.9 0.26            113            274 256 
 SOCV BZ EP        452 36.16                             112   -0.39 7  299  57 
 SOCV BN ES   3    453  7.62                             112   -2.27 2  299  57 
 GUY2CHZ EP        452 38.47                             112    0.95 7  303 235 
 GUY2CHE ES        453 12.64                             112    1.01 7  303 235 
 GUY2CHZ I         453 19.52         5.7 0.38                           303 235 
 LL6C HZ EP   4    452 38.03                             110   -1.41 0  325 357 
 LL6C HE ES   4    453 18.28                             110    3.23 0  325 357 
 LL6C HZ I         453 21.45         5.9 0.57            110            325 357 
 CBOC HZ EP        452 41.53                             109    0.65 7  336 252 
 CBOC HN ES        453 17.79                             109    0.19 7  336 252 
 CBOC HZ I         453 29.54         1.9 0.66            109            336 252 
 PRA  HZ EP        452 47.82                             106    0.45 6  393 210 
 PRA  HN ES        453 29.64                             106    0.49 6  393 210 
 PRA  HZ I         453 35.92         4.0 0.50            106            393 210 
 PAL  HZ EP   4    452 45.35                             105   -3.76 0  408 239 
 PAL  HN ES   4    453 29.70                             105   -2.56 0  408 239 
 PAL  HZ I         453 37.74         1.8 0.24            105            408 239 
 SJC  HZ EP   4    452 47.35                             105   -2.11 0  411 327 
 SJC  HE ES   4    453 28.38                             105   -4.50 0  411 327 
 SJC  HZ I         453 33.12         3.5 0.70            105            411 327 
                                                                                
