 2011  1 6 0724 13.5 L   6.819 -73.131149.2  RSN  5 0.4 1.5LRSN                1
 GAP=229        0.66       7.1    16.3  9.9  0.1473E+02  0.9310E+02 -0.4986E+01E
 Epicentro: LOS SANTOS - SANTANDER                                             3
 ACTION:UP  11-02-08 08:39 OP:pat  STATUS:               ID:20110106072413 L   I
 2011-01-06-0720-00M.COL___121                                                 6
 STAT SP IPHASW D HRMM SECON CODA AMPLIT PERI AZIMU VELO SNR AR TRES W  DIS CAZ7
 BAR2 SZ IP        724 33.76                             170     0.210   26 193 
 BAR2 SZ I         724 34.00         6.0 0.17                            26 193 
 BAR2 SZ ES   2    724 49.18                             170    -0.1 5   26 193 
 RUS  HZ EP   1    724 37.71                             144     0.0 7  103 177 
 RUS  HN ES   1    724 56.48                             144    -0.2 7  103 177 
 RUS  HZ I         724 58.12         3.8 0.35                           103 177 
 CHI  HZ EP   1    724 51.72                             117     0.1 6  251 195 
 CHI  HZ I         724 53.54         1.7 0.20                           251 195 
 CHI  HN ES   2    725 21.12                             117    -0.3 4  251 195 
 HEL  HZ EP   2    724 54.99                             115     0.9 4  274 255 
 HEL  HZ I         725 31.79         2.0 0.51                           274 255 
 MON  HZ EP   2    725  1.54                             109    -1.1 3  353 308 
 MON  HZ I         725  2.45         1.0 0.68                           353 308 
                                                                                
