 2017 11 6 0356 45.2 L   6.821 -73.123144.0  RSN  4 0.4 0.9LRSN                1
 GAP=138        0.86       5.1     4.8 10.2 -0.4976E+01  0.5887E+00  0.6062E+01E
 Epicentro: LOS SANTOS - SANTANDER                                             3
 ACTION:UPD 17-12-12 19:52 OP:rebc STATUS:               ID:20171106035645 L   I
 OLDACT:REG 17-11-06 13:02 OP:dnl  STATUS:               ID:20171106034746     3
 2017-11-06-0348-00M.COL___444                                                 6
 STAT SP IPHASW D HRMM SECON CODA AMPLIT PERI AZIMU VELO AIN AR TRES W  DIS CAZ7
 BRR  HN ES        357 22.96                             151    0.3710 72.4 296 
 BRR  HZ I         357 25.05         3.7 0.60            155           72.4 296 
 PAM  EZ EP        357  7.44                             151    0.4510 74.0  39 
 PAM  EN ES        357 23.52                             151   -0.5010 74.0  39 
 PAM  EZ I         357 30.89         1.1 0.72            151           74.0  39 
 RUS  HZ EP   2    357  8.90                             142   -0.00 5  103 178 
 RUS  HN ES        357 27.47                             142    0.0510  103 178 
 RUS  HZ I         357 28.38         0.9 0.38            149            103 178 
 PTB  HZ EP   2    357 11.66                             131   -0.60 5  151 258 
 PTB  HN ES        357 33.11                             131   -0.28 9  151 258 
 PTB  HZ I         357 34.06         0.8 0.62            136            151 258 
                                                                                
