 2015  8 6 0949 56.6 L   6.796 -72.997149.5  RSN 11 0.4 1.9LRSN                1
 GAP=211        0.56       3.2     4.8  4.5  0.1150E+01  0.1461E+01  0.8286E+00E
 Epicentro: CEPITA - SANTANDER                                                 3
 ACTION:UPD 15-09-15 23:00 OP:cam  STATUS:               ID:20150806094956 L   I
 OLDACT:REG 15-08-06 13:26 OP:spq  STATUS:               ID:20150806094749     3
 2015-08-06-0947-49M.COL___349                                                 6
 STAT SP IPHASW D HRMM SECON CODA AMPLIT PERI AZIMU VELO AIN AR TRES W  DIS CAZ7
 BAR2 EZ EP        950 17.03                             168    0.1510 30.4 222 
 BAR2 EZ ES        950 32.42                             168   -0.2410 30.4 222 
 BAR2 EZ I         950 34.55         9.4 0.20            166           30.4 222 
 BRR  HZ EP        950 19.01                             148   -0.0710 86.1 294 
 BRR  HN ES        950 36.92                             148    0.3310 86.1 294 
 BRR  HZ I         950 41.46         7.7 0.30            135           86.1 294 
 OCA  HZ EP   2    950 25.98                             130    0.44 5  163 347 
 OCA  HE ES   2    950 47.99                             130   -0.09 5  163 347 
 OCA  HZ I         950 51.80        15.8 0.18            115            163 347 
 ZAR  HZ EP   2    950 30.11                             121   -0.81 4  219 291 
 ZAR  HN ES   2    950 57.67                             121    0.01 4  219 291 
 ZAR  HZ I         950 58.17         4.8 0.30            108            219 291 
 NOR  HN ES   2    951  2.51                             118   -0.65 4  248 237 
 NOR  HZ I         951  7.13         4.5 0.14            106            248 237 
 SML  HZ EP   2    950 34.08                             117   -0.22 4  251 332 
 SML  HN ES   2    951  3.28                             117   -0.40 4  251 332 
 SML  HZ I         951  7.49         6.0 0.20            105            251 332 
 CHI  HZ EP   2    950 34.87                             117   -0.15 4  253 199 
 CHI  HN ES   2    951  4.64                             117   -0.32 4  253 199 
 GUY2CHZ EP   2    950 42.50                             112    0.58 3  314 237 
 GUY2CHE ES   2    951 17.32                             112    0.08 3  314 237 
 GUY2CHZ I         951 23.79         3.4 0.80                           314 237 
 TOL  SN ES   2    951 25.93                             109    0.79 3  355 227 
 TOL  SZ I         951 28.60         2.3 0.76             99            355 227 
 MON  HZ EP   9    950 44.23                             108   -3.09 0  367 307 
 MON  HZ I         951 21.80         1.0 0.52             97            367 307 
 MON  HN ES        951 23.30                                   -0.46 6  367 307 
 CRJC HZ EP   4    950 44.95                             104   -14.3 0  467   2 
 CRJC HN ES   4    950 55.65                             104   -52.4 0  467   2 
 CRJC HZ I         950 57.09         4.2 0.40                           467   2 
                                                                                
