 2013 12 6 0209 29.4 L   6.821 -73.164144.1  RSN 14 0.5 2.2LRSN 2.7WRSN        1
 SPEC AVERAGE  MO 13.2 ST  3.3 OM  1.7 f0 4.69 R0.5405 AL 0.00 WI 20.0 MW  2.7 3
 SPEC SD       MO  0.3 ST  7.1 OM  0.5 f0 3.93 R0.3451 AL      WI      MW  0.2 3
 GAP= 69        1.13       2.8     3.3  5.5 -0.5945E+00  0.2921E+01  0.1610E+01E
 Epicentro: LOS SANTOS - SANTANDER                                             3
 SPEC BAR2SH Z MO 13.4 ST0.559 OM  1.8 f0 2.75 R0.5651 AL-0.00 WI 20.0 MW  2.9 3
 SPEC BAR2SH Z T 210 1 K 0.000 GD  146 VS 4.20 DE 3.20 Q0300.0 QA 0.60 VS 4.20 3
 SPEC BRR HH Z MO 13.0 ST0.973 OM  1.4 f0 4.37 R0.3556 AL-0.00 WI 20.0 MW  2.6 3
 SPEC BRR HH Z T 210 5 K 0.000 GD  159 VS 4.20 DE 3.20 Q0300.0 QA 0.60 VS 4.20 3
 SPEC PAM SH Z MO 12.9 ST0.285 OM  1.3 f0 3.11 R0.4997 AL-0.00 WI 20.0 MW  2.5 3
 SPEC PAM SH Z T 210 7 K 0.000 GD  163 VS 4.20 DE 3.20 Q0300.0 QA 0.60 VS 4.20 3
 SPEC RUS HH Z MO 13.0 ST0.090 OM  1.4 f0 1.91 R0.8136 AL-0.00 WI 20.0 MW  2.6 3
 SPEC RUS HH Z T 21010 K 0.000 GD  177 VS 4.20 DE 3.20 Q0300.0 QA 0.60 VS 4.20 3
 SPEC PTB HH Z MO 12.9 ST  3.9 OM  1.2 f0 7.42 R0.2094 AL-0.00 WI 20.0 MW  2.5 3
 SPEC PTB HH Z T 21015 K 0.000 GD  205 VS 4.20 DE 3.20 Q0300.0 QA 0.60 VS 4.20 3
 SPEC OCA HH Z MO 13.8 ST0.193 OM  2.1 f0 1.35 R1.1511 AL-0.00 WI 20.0 MW  3.2 3
 SPEC OCA HH Z T 21017 K 0.000 GD  213 VS 4.20 DE 3.20 Q0300.0 QA 0.60 VS 4.20 3
 SPEC NOR HH Z MO 13.0 ST  1.7 OM  1.2 f0 5.16 R0.3012 AL-0.00 WI 20.0 MW  2.6 3
 SPEC NOR HH Z T 21031 K 0.000 GD  274 VS 4.20 DE 3.20 Q0300.0 QA 0.60 VS 4.20 3
 SPEC SML HH Z MO 12.7 ST 25.6 OM  0.9 f0 15.8 R0.0984 AL-0.00 WI 20.0 MW  2.4 3
 SPEC SML HH Z T 21031 K 0.000 GD  280 VS 4.20 DE 3.20 Q0300.0 QA 0.60 VS 4.20 3
 SPEC CHI HH Z MO 13.1 ST  1.7 OM  1.2 f0 5.00 R0.3108 AL-0.00 WI 20.0 MW  2.6 3
 SPEC CHI HH Z T 21034 K 0.000 GD  288 VS 4.20 DE 3.20 Q0300.0 QA 0.60 VS 4.20 3
 SPEC RREFHH Z MO 13.6 ST0.118 OM  1.7 f0 1.32 R1.1773 AL-0.00 WI 20.0 MW  3.0 3
 SPEC RREFHH Z T 21053 K 0.000 GD  352 VS 4.20 DE 3.20 Q0300.0 QA 0.60 VS 4.20 3
 SPEC PRA HH Z MO 13.4 ST  1.2 OM  1.4 f0 3.35 R0.4639 AL-0.00 WI 20.0 MW  2.9 3
 SPEC PRA HH Z T 211 2 K 0.000 GD  418 VS 4.20 DE 3.20 Q0300.0 QA 0.60 VS 4.20 3
 OLDACT:REG 13-12-06 07:43 OP:carl STATUS:               ID:20131206020744     3
 ACTION:UPD 14-01-13 10:16 OP:ep   STATUS:               ID:20131206020929 L   I
 OLDACT:UP  13-12-06 08:32 OP:carl STATUS:               ID:20131206020744     3
 2013-12-06-0207-44M.COL___250                                                 6
 STAT SP IPHASW D HRMM SECON CODA AMPLIT PERI AZIMU VELO AIN AR TRES W  DIS CAZ7
 BAR2 SZ EP        2 9 48.96                             170    0.1310 25.3 184 
 BAR2 SZ ES        210  3.35                             170   -0.6710 25.3 184 
 BAR2 SZ I         210 12.24        41.8 0.68            170           25.3 184 
 BRR  HZ IP     C  2 9 50.60                             153    0.4310 68.3 298 
 BRR  HN ES        210  7.38                             153    0.9910 68.3 298 
 BRR  SZ I         210 12.58        18.2 0.16            152           68.3 298 
 BRR  HZ I         210 12.65        16.6 0.16                          68.3 298 
 PAM  SZ EP        2 9 51.99                             151    0.6110 77.0  42 
 PAM  SN ES        210  8.78                             151    0.2310 77.0  42 
 PAM  SZ I         210 10.54        21.8 0.56            144           77.0  42 
 RUS  HZ EP        2 9 52.89                             143   -0.2310  103 175 
 RUS  HN ES        210 11.85                             143    0.1910  103 175 
 RUS  SZ I         210 12.55        20.7 0.26            140            103 175 
 PTB  HZ EP        2 9 55.48                             132   -0.57 9  146 258 
 PTB  HN ES        210 16.78                             132   -0.08 9  146 258 
 PTB  SZ I         210 23.39        21.9 0.76            130            146 258 
 TAM  SZ I         210 24.77         8.1 2.58            124            158 106 
 OCA  HZ EP        2 9 57.40                             130    0.09 9  158 354 
 OCA  HE ES        210 18.62                             130   -0.48 9  158 354 
 OCA  SZ I         210 21.99        13.0 0.34            124            158 354 
 TAM  HZ EP        2 9 57.28                             130    0.13 9  158 106 
 TAM  HN ES        210 18.50                             130   -0.32 9  158 106 
 SPBC HE ES        210 19.48                             129   -0.46 9  164 218 
 ZAR  HN ES        210 26.27                             122   -0.14 9  201 292 
 NOR  HZ EP        210  4.74                             118   -0.21 8  234 234 
 NOR  HE ES        210 33.18                             118    0.46 8  234 234 
 NOR  SZ I         210 37.30        11.9 0.46            115            234 234 
 SML  HZ EP        210  5.36                             117   -0.21 8  241 336 
 SML  HE ES        210 33.08                             117   -0.74 8  241 336 
 SML  SZ I         210 38.25         8.8 0.22            113            241 336 
 CHI  HZ EP        210  7.16                             117    0.01 8  250 195 
 CHI  HN ES        210 36.37                             117   -0.25 8  250 195 
 CHI  SZ I         210 39.48        12.7 0.36            113            250 195 
 CHI  HZ I         210 39.65        11.4 0.38                           250 195 
 RREF HZ EP        210 16.59                             111    1.17 7  322 229 
 RREF HN ES   4    210 54.73                             111    3.38 0  322 229 
 RREF SZ I         211  0.63         7.8 0.56            108            322 229 
 PRA  HZ EP        210 23.00                             106    0.06 6  393 209 
 PRA  HN ES        211  4.39                             106   -0.33 6  393 209 
 PRA  SZ I         211  8.72        11.2 0.36            103            393 209 
                                                                                
