 2014  5 6 0118 11.5 L   6.815 -73.146149.3  RSN 11 0.4 2.0LRSN                1
 GAP= 71        1.07       3.0     3.4  6.4 -0.4697E+00  0.3374E+01  0.2368E+01E
 Epicentro: LOS SANTOS - SANTANDER                                             3
 ACTION:UPD 15-03-16 16:55 OP:nd   STATUS:               ID:20140506011811 L   I
 OLDACT:UP  14-05-06 13:56 OP:carl STATUS:               ID:20140506010808     3
 OLDACT:REG 14-05-06 13:00 OP:carl STATUS:               ID:20140506010808     3
 2014-05-06-0108-08M.COL___239                                                 6
 STAT SP IPHASW D HRMM SECON CODA AMPLIT PERI AZIMU VELO AIN AR TRES W  DIS CAZ7
 BRR  HZ EP        118 33.31                             153    0.3510 70.4 297 
 BRR  HN ES        118 50.66                             153    0.9410 70.4 297 
 BRR  HZ I         118 55.60        14.0 0.20            152           70.4 297 
 PAM  SZ IP     C  118 34.27                             152    0.2810 76.1  40 
 PAM  SN ES        118 51.43                             152   -0.1310 76.1  40 
 PAM  SZ I         118 53.68        22.4 0.20            150           76.1  40 
 RUS  HZ EP        118 35.44                             144   -0.2510  102 176 
 RUS  HN ES        118 53.89                             144   -0.6910  102 176 
 RUS  HZ I         118 55.34         9.9 0.44            142            102 176 
 PTB  HZ EP        118 38.42                             133   -0.34 9  148 258 
 PTB  HN ES        118 59.42                             133   -0.62 9  148 258 
 PTB  HZ I         119  7.15        15.8 0.34            131            148 258 
 TAM  HZ EP        118 39.72                             131    0.24 9  156 106 
 TAM  HZ I         119  0.45         9.9 0.34            129            156 106 
 TAM  HN ES        119  1.54                             131    0.22 9  156 106 
 OCA  HE ES        119  1.66                             131   -0.42 9  159 353 
 OCA  HZ I         119  9.90        15.0 0.34            129            159 353 
 SPBC HZ EP        118 40.54                             130    0.17 9  164 219 
 SPBC HE ES        119  3.41                             130    0.51 9  164 219 
 SPBC HZ I         119  7.53        21.2 0.40            128            164 219 
 SML  HZ EP        118 48.04                             118   -0.10 8  242 335 
 SML  HE ES        119 16.25                             118   -0.48 8  242 335 
 CHI  HZ EP        118 49.55                             118    0.00 8  250 195 
 CHI  HN ES        119 18.89                             118   -0.35 8  250 195 
 CHI  HZ I         119 24.88         4.1 0.48            116            250 195 
 HEL  HZ EP        118 52.24                             115    0.33 8  272 255 
 HEL  HN ES        119 23.70                             115    0.25 8  272 255 
 HEL  HZ I         119 30.21         6.3 0.38            114            272 255 
 RREF HZ EP   4    118 59.63                             111    1.74 0  323 229 
 RREF HE ES   4    119 36.01                             111    1.91 0  323 229 
 RREF HZ I         119 40.16         6.7 0.24            110            323 229 
 SJC  HZ EP   4    119  5.71                             106   -1.28 0  408 327 
 SJC  HN ES   4    119 46.04                             106   -4.25 0  408 327 
                                                                                
