 2017 12 6 0854 11.5 L   6.830 -73.170144.0  RSN  4 0.3 1.2LRSN                1
 GAP=243        0.55       5.7     4.3  5.8  0.1448E+02  0.4057E+01 -0.8851E+01E
 Epicentro: ZAPATOCA - SANTANDER                                               3
 ACTION:UPD 18-01-04 13:17 OP:rebc STATUS:               ID:20171206085411 L   I
 OLDACT:DUP 17-12-06 18:18 OP:dnl  STATUS:               ID:20171206084739d    3
 2017-12-06-0848-00M.COL___474                                                 6
 STAT SP IPHASW D HRMM SECON CODA AMPLIT PERI AZIMU VELO AIN AR TRES W  DIS CAZ7
 BAR2 EZ EP        854 31.06                             169    0.0510 26.3 183 
 BAR2 EZ ES        854 46.20                             169   -0.0110 26.3 183 
 BAR2 EZ I         854 48.08         5.6 0.30            170           26.3 183 
 RUS  HZ EP   2    854 35.43                             142    0.07 5  104 175 
 RUS  HN ES        854 53.93                             142   -0.0210  104 175 
 RUS  HZ I         854 54.77         2.9 0.24            146            104 175 
 PTB  HZ EP        854 37.88                             132   -0.29 9  146 257 
 PTB  HE ES        854 59.13                             132    0.18 9  146 257 
 PTB  HZ I         855  2.37         1.5 0.12            133            146 257 
 ZAR  HZ EP   2    854 44.41                             122    0.94 4  200 292 
 ZAR  HE ES        855  8.24                             122   -0.15 9  200 292 
 ZAR  HZ I         855 13.02         1.4 0.16            124            200 292 
                                                                                
