 2013  1 6 0523 21.7 L   6.824 -73.148145.7  RSN 13 0.6 2.6LRSN 3.2WRSN        1
 SPEC AVERAGE  MO 13.9 ST  7.0 OM  2.6 f0 3.25 R0.4760 AL 2.58 WI 25.7 MW  3.2 3
 SPEC SD       MO  0.3 ST  7.4 OM  0.5 f00.773 R0.0998 AL      WI      MW  0.2 3
 GAP= 70        1.28       4.0     3.8  6.5  0.1079E+01  0.2845E+01 -0.1220E+01E
 Epicentro: LOS SANTOS - SANTANDER                                             3
 SPEC RUS HH N MO 13.4 ST  1.1 OM  1.8 f0 3.09 R0.4757 AL 2.03 WI 21.8 MW  2.9 3
 SPEC RUS HH N T 524 3 K 0.000 GD  178 VS 4.20 DE 3.00 Q0230.0 QA 0.60 VS 4.20 3
 SPEC OCA HH N MO 14.4 ST 17.6 OM  2.7 f0 3.70 R0.3973 AL 2.73 WI 24.5 MW  3.5 3
 SPEC OCA HH N T 52410 K 0.000 GD  214 VS 4.20 DE 3.00 Q0230.0 QA 0.60 VS 4.20 3
 SPEC PTB HH N MO 13.8 ST  2.0 OM  2.1 f0 2.87 R0.5122 AL 1.76 WI 26.7 MW  3.1 3
 SPEC PTB HH N T 524 8 K 0.000 GD  207 VS 4.20 DE 3.00 Q0230.0 QA 0.60 VS 4.20 3
 SPEC HEL HH N MO 13.9 ST  2.1 OM  2.0 f0 2.74 R0.5365 AL 1.94 WI 30.2 MW  3.2 3
 SPEC HEL HH N T 52432 K 0.000 GD  309 VS 4.20 DE 3.00 Q0230.0 QA 0.60 VS 4.20 3
 SPEC CHI HH N MO 14.0 ST  1.9 OM  2.2 f0 2.36 R0.6229 AL 2.29 WI 31.6 MW  3.3 3
 SPEC CHI HH N T 52428 K 0.000 GD  290 VS 4.20 DE 3.00 Q0230.0 QA 0.60 VS 4.20 3
 SPEC BRR HH N MO 14.1 ST 17.3 OM  2.5 f0 4.72 R0.3114 AL 4.74 WI 19.1 MW  3.3 3
 SPEC BRR HH N T 52359 K 0.000 GD  161 VS 4.20 DE 3.00 Q0230.0 QA 0.60 VS 4.20 3
 ACTION:UPD 13-02-15 09:12 OP:ep   STATUS:               ID:20130106052321 L   I
 2013-01-06-0519-48M.COL___187                                                 6
 STAT SP IPHASW D HRMM SECON CODA AMPLIT PERI AZIMU VELO AIN AR TRES W  DIS CAZ7
 BAR2 SZ IP        523 41.60                             170    0.1910 25.9 188 
 BAR2 SZ ES        523 56.31                             170   -0.4510 25.9 188 
 BAR2 SZ I         523 57.46        94.7 0.30            167           25.9 188 
 BRR  HZ IP     D  523 43.33                             153    0.5410 69.8 297 
 BRR  HN ES        523 59.98                             153    0.7610 69.8 297 
 BRR  HN I         524  0.93       179.9 0.22            150           69.8 297 
 RUS  HZ EP        523 45.67                             143    0.0010  103 176 
 RUS  HZ I         523 46.85        21.0 0.14            142            103 176 
 RUS  HN ES        524  4.02                             143   -0.3310  103 176 
 PTB  HZ EP        523 48.22                             132   -0.50 9  148 258 
 PTB  HN ES        524  9.01                             132   -0.76 9  148 258 
 PTB  HN I         524 14.26        68.5 0.62            130            148 258 
 TAM  HZ IP     C  523 50.03                             130    0.54 9  156 106 
 TAM  HN ES        524 10.96                             130   -0.18 9  156 106 
 TAM  HN I         524 12.47        32.1 0.38            132            156 106 
 OCA  HZ EP        523 49.57                             130   -0.21 9  158 353 
 OCA  HN ES        524 12.01                             130    0.35 9  158 353 
 OCA  HN I         524 14.23       201.1 0.22            130            158 353 
 ZAR  HZ EP        523 54.39                             122    0.35 9  203 291 
 ZAR  HE ES        524 18.61                             122   -0.64 9  203 291 
 ZAR  HN I         524 26.74        47.5 0.26            121            203 291 
 CHI  HZ EP        523 59.99                             117    0.29 8  251 195 
 CHI  HN ES        524 29.27                             117   -0.04 8  251 195 
 CHI  HN I         524 32.06        41.0 0.30            116            251 195 
 HEL  HZ EP        524  2.68                             115    0.69 8  273 255 
 HEL  HN ES        524 34.37                             115    0.98 8  273 255 
 HEL  HN I         524 45.92        10.7 0.46            114            273 255 
 RREF HE ES        524 43.95                             111   -0.23 7  323 229 
 RREF HZ I         524 54.48        15.5 0.40            110            323 229 
 DBB  SZ EP        524  9.21                             109    0.06 7  339 274 
 MON  HZ EP        524  8.92                             109   -1.59 6  352 308 
 SDV  BZ EP        524 11.07                             108   -0.52 6  359  51 
                                                                                
