 2012  2 6 0845 36.1 L   6.783 -73.178147.6  RSN  6 0.3 1.6LRSN                1
 GAP=177        0.59       4.7     4.4  5.8  0.1559E+01  0.4303E+01  0.1556E+01E
 ACTION:UP  12-03-07 16:28 OP:epov STATUS:               ID:20120206084536 L   I
 2012-02-06-0840-00M.COL___187                                                 6
 STAT SP IPHASW D HRMM SECON CODA AMPLIT PERI AZIMU VELO SNR AR TRES W  DIS CAZ7
 BAR2 SZ EP   1    845 55.88                             172    0.02 7 21.1 181 
 BAR2 SZ ES   1    846 11.34                             172    0.03 7 21.1 181 
 BAR2 SZ I         846 12.36        13.0 0.24                          21.1 181 
 GIR2 SZ EP   1    845 55.98                             167    0.00 7 32.8 357 
 BRR  HZ EP   1    845 57.56                             154    0.28 7 69.0 301 
 BRR  HZ I         846  7.12         6.3 0.39                          69.0 301 
 BRR  HN ES   1    846 14.05                             154    0.21 7 69.0 301 
 RUS  HZ EP   1    845 59.63                             145   -0.24 7 99.0 174 
 RUS  HN ES   1    846 18.46                             145    0.01 7 99.0 174 
 RUS  HZ I         846 19.80         4.5 0.41                          99.0 174 
 PTB  HZ EP   1    846  2.64                             133   -0.18 7  144 259 
 PTB  HN ES   1    846 23.04                             133   -0.66 7  144 259 
 NOR  SZ EP   2    846 11.60                             119    0.14 4  231 234 
 NOR  SN ES   1    846 39.67                             119    0.59 6  231 234 
                                                                                
