 2017  1 6 0728 38.9 L   7.292 -73.080  9.1  RSN  5 0.3 1.1LRSN                1
 GAP=166        0.86       3.4     2.2  5.2 -0.2231E+01  0.6950E+01 -0.4483E+01E
 Epicentro: MATANZA - SANTANDER                                                3
 ACTION:UPD 17-05-22 15:56 OP:jn   STATUS:               ID:20170106072838 L   I
 OLDACT:UP  17-01-06 17:48 OP:and  STATUS:               ID:20170106071222d    3
 OLDACT:DUP 17-01-06 17:46 OP:and  STATUS:               ID:20170106071222d    3
 2017-01-06-0718-00M.COL___363                                                 6
 STAT SP IPHASW D HRMM SECON CODA AMPLIT PERI AZIMU VELO AIN AR TRES W  DIS CAZ7
 PAM  EZ EP        728 46.73                              98    0.2510 42.3  83 
 PAM  EN ES        728 51.92                              98   -0.4610 42.3  83 
 PAM  EZ I         728 53.70        13.2 0.10             96           42.3  83 
 BRR  HZ EP        728 50.78                              94    0.2210 72.8 254 
 BRR  HN ES        728 59.27                              94   -0.3810 72.8 254 
 RUS  HZ EP        729  3.59                              92    0.11 9  155 180 
 RUS  HN ES        729 22.73                              92    0.10 9  155 180 
 RUS  HZ I         729 25.35         1.7 0.31             91            155 180 
 PTB  HZ EP        729  5.88                              56    0.45 9  173 241 
 PTB  HN ES        729 25.59                              56   -0.52 9  173 241 
 PTB  HZ I         729 26.31         3.8 0.25             56            173 241 
 ZAR  HZ EP        729  8.86                              56    0.42 9  198 277 
 ZAR  HN ES        729 31.41                              56   -0.07 9  198 277 
 ZAR  HZ I         729 32.44         2.1 0.14             56            198 277 
                                                                                
