 2012  7 6 0725  6.8 L   6.738 -73.154143.6  RSN 10 0.4 2.4LRSN                1
 GAP= 73        1.00       4.2     3.9  6.1  0.1755E+01  0.1132E+01 -0.2295E+01E
 Epicentro: JORDAN - SANTANDER                                                 3
 ACTION:UPD 12-08-14 11:42 OP:ep   STATUS:               ID:20120706072506 L   I
 2012-07-06-0720-00M.COL___201                                                 6
 STAT SP IPHASW D HRMM SECON CODA AMPLIT PERI AZIMU VELO AIN AR TRES W  DIS CAZ7
 BAR2 SZ IP        725 26.26                             173     0.310   16 191 
 BAR2 SZ ES        725 40.69                             173    -0.310   16 191 
 BAR2 SZ I         725 42.28        80.8 0.28            179             16 191 
 BRR  HZ IP     D  725 28.23                             151     0.410   74 304 
 BRR  HZ I         725 28.63        90.3 0.11            145             74 304 
 BRR  HN ES        725 44.86                             151     0.610   74 304 
 PAM  SZ EP        725 29.20                             149     0.110   83  37 
 RUS  HZ EP        725 30.06                             145     0.210   94 175 
 RUS  HN ES        725 47.64                             145    -0.210   94 175 
 RUS  HZ I         725 49.46        32.8 0.26            148             94 175 
 PTB  HZ EP        725 33.16                             132    -0.2 9  146 261 
 PTB  HN ES   1    725 53.43                             132    -0.7 7  146 261 
 PTB  HZ I         725 58.05        12.1 0.11            129            146 261 
 TAM  HZ EP   1    725 34.44                             130     0.2 7  154 102 
 TAM  HE ES   1    725 55.30                             130    -0.3 7  154 102 
 TAM  HZ I         725 56.63        19.5 0.17            127            154 102 
 OCA  HZ EP        725 34.75                             128    -0.8 9  167 354 
 OCA  HZ I         726  0.49        82.0 0.23            121            167 354 
 ZAR  HZ EP   1    725 39.55                             122     0.3 6  206 294 
 ZAR  HE ES   1    726  4.31                             122    -0.3 6  206 294 
 ZAR  HZ I         726  7.57        24.3 0.23            118            206 294 
 NOR  SZ EP   1    725 41.82                             119     0.0 6  230 236 
 NOR  SE ES   1    726  9.50                             119     0.3 6  230 236 
 CHI  HZ EP   1    725 43.66                             117     0.1 6  242 195 
 CHI  HN ES   1    726 12.20                             117    -0.1 6  242 195 
