 2016  9 6 0301 26.7 L   6.801 -73.145147.4  RSN  5 0.3 1.5LRSN                1
 GAP=137        0.69       3.6     3.1  6.0  0.7774E+00  0.3253E+01  0.2354E+01E
 Epicentro: LOS SANTOS - SANTANDER                                             3
 ACTION:UPD 17-08-17 21:07 OP:lp   STATUS:               ID:20160906030126 L   I
 OLDACT:UP  16-09-06 14:44 OP:dani STATUS:               ID:20160906025739     3
 OLDACT:REG 16-09-06 12:17 OP:dani STATUS:               ID:20160906025739     3
 2016-09-06-0258-00M.COL___367                                                 6
 STAT SP IPHASW D HRMM SECON CODA AMPLIT PERI AZIMU VELO AIN AR TRES W  DIS CAZ7
 BRR  HZ EP        3 1 47.77                             153   -0.2310 71.2 298 
 BRR  HE ES        3 2  4.96                             153    0.3310 71.2 298 
 BRR  HZ I         3 2  8.67         6.9 0.46            154           71.2 298 
 PAM  EZ EP        3 1 49.12                             151    0.0710 77.2  40 
 PAM  EE ES        3 2  6.28                             151   -0.2310 77.2  40 
 PAM  EZ I         3 2  7.95        10.0 0.54            153           77.2  40 
 RUS  HZ EP        3 1 50.80                             144    0.2110  101 176 
 RUS  HN ES        3 2  9.33                             144    0.0810  101 176 
 RUS  HZ I         3 2  9.91         1.7 0.32            147            101 176 
 PTB  HZ EP        3 1 53.73                             132   -0.05 9  148 259 
 PTB  HE ES        3 2 14.44                             132   -0.48 9  148 259 
 PTB  HZ I         3 2 15.99         5.1 0.12            135            148 259 
 ZAR  HN ES        3 2 24.95                             123    0.33 9  204 292 
                                                                                
