 2015  3 6 0141 28.9 L   6.763 -73.148149.4  RSN  9 0.4 1.6LRSN                1
 GAP= 96        0.99       4.5     3.8  6.7 -0.4768E+01 -0.1501E+01  0.1013E+02E
 Epicentro: LOS SANTOS - SANTANDER                                             3
 ACTION:UPD 15-04-30 16:23 OP:nd   STATUS:               ID:20150306014128 L   I
 OLDACT:UP  15-03-06 18:37 OP:spq  STATUS:               ID:20150306013746     3
 OLDACT:REG 15-03-06 12:17 OP:spq  STATUS:               ID:20150306013746     3
 2015-03-06-0137-46M.COL___281                                                 6
 STAT SP IPHASW D HRMM SECON CODA AMPLIT PERI AZIMU VELO AIN AR TRES W  DIS CAZ7
 BAR2 EZ EP        141 48.67                             172   -0.2010 19.3 192 
 BAR2 EZ ES   1    142  4.22                             172   -0.24 7 19.3 192 
 BAR2 EZ I         142  6.49         5.4 0.28            169           19.3 192 
 BRR  HZ EP        141 50.59                             153    0.0710 73.1 301 
 BRR  HE ES        142  8.39                             153    0.9810 73.1 301 
 BRR  HZ I         142  9.30         8.3 0.37            154           73.1 301 
 PAM  SZ EP        141 51.50                             150   -0.1810 80.7  38 
 PAM  SN ES        142  9.18                             150   -0.2810 80.7  38 
 PAM  SZ I         142 10.95         4.8 0.58            156           80.7  38 
 RUS  HZ EP   1    141 53.15                             146    0.45 7 96.5 176 
 RUS  HE ES   1    142 11.16                             146   -0.13 7 96.5 176 
 RUS  HZ I         142 13.61         4.9 0.64            145           96.5 176 
 PTB  HZ EP        141 55.48                             133   -0.58 9  147 260 
 PTB  HN ES        142 16.63                             133   -0.63 9  147 260 
 PTB  HZ I         142 22.65         6.3 0.42            134            147 260 
 TAM  HZ EP        141 56.85                             131    0.08 9  154 103 
 TAM  HN ES   1    142 18.52                             131   -0.01 7  154 103 
 TAM  HZ I         142 18.58         2.3 0.22            134            154 103 
 SPBC HZ EP        141 57.67                             130    0.32 9  160 220 
 SPBC HN ES        142 19.57                             130    0.01 9  160 220 
 SPBC HZ I         142 22.42        10.6 0.56            131            160 220 
 CHI  HZ EP        142  6.92                             118    0.57 8  245 195 
 CHI  HN ES   1    142 35.32                             118   -0.26 6  245 195 
 CHI  HZ I         142 44.32         1.6 0.44            119            245 195 
 GUY2CHZ EP   4    142 14.88                             113    2.50 0  299 235 
 GUY2CHE ES   1    142 46.34                             113    0.04 5  299 235 
 GUY2CHZ I         142 56.07         2.3 0.44                           299 235 
                                                                                
