 2017 12 6 0330 14.3 L   6.815 -73.164144.5  RSN 12 0.5 1.9LRSN                1
 GAP=157        1.26       3.1     4.8  7.1  0.5577E+00  0.5450E+01 -0.9494E+00E
 Epicentro: LOS SANTOS - SANTANDER                                             3
 ACTION:UPD 18-01-04 13:17 OP:rebc STATUS:               ID:20171206033014 L   I
 OLDACT:UP  17-12-06 16:37 OP:leo  STATUS:               ID:20171206032746     3
 OLDACT:REG 17-12-06 13:14 OP:leo  STATUS:               ID:20171206032746     3
 2017-12-06-0328-00M.COL___495                                                 6
 STAT SP IPHASW D HRMM SECON CODA AMPLIT PERI AZIMU VELO AIN AR TRES W  DIS CAZ7
 BAR2 EZ EP        330 33.60                             170   -0.2510 24.8 185 
 BAR2 EZ ES        330 48.16                             170   -0.9110 24.8 185 
 RUS  HZ EP        330 37.69                             143   -0.4210  102 175 
 RUS  HN ES        330 56.89                             143    0.2510  102 175 
 RUS  HZ I         330 57.49         9.9 0.22            143            102 175 
 PTB  HZ EP        330 40.47                             132   -0.60 9  146 258 
 PTB  HN ES        331  2.36                             132    0.45 9  146 258 
 PTB  HZ I         331  2.97         7.2 0.50            132            146 258 
 OCA  HZ EP        330 42.97                             130    0.59 9  158 354 
 OCA  HN ES        331  5.23                             130    0.99 9  158 354 
 SPBC HZ EP        330 42.65                             129   -0.11 9  163 218 
 SPBC HN ES        331  4.61                             129   -0.31 9  163 218 
 SPBC HZ I         331 11.67        10.1 0.26            129            163 218 
 YPLC HZ EP        330 44.17                             126   -0.12 9  179 151 
 YPLC HE ES        331  8.50                             126    0.86 9  179 151 
 YPLC HZ I         331 11.73         6.8 0.44            127            179 151 
 ZAR  HZ EP        330 45.65                             122   -0.80 9  202 292 
 ZAR  HN ES        331 11.53                             122    0.03 9  202 292 
 ZAR  HZ I         331 17.16        11.1 0.34            123            202 292 
 CHI  HZ EP        330 51.59                             117   -0.51 8  250 195 
 CHI  HN ES        331 21.94                             117    0.40 8  250 195 
 CHI  HZ I         331 23.60         5.3 0.34            117            250 195 
 ROSC HZ EP   4    330 53.10                             116    0.65 0  253 210 
 DRL03HZ EP        330 55.32                             113   -0.36 7  287 353 
 DRL03HN ES        331 27.80                             113   -0.12 7  287 353 
 GUY2CHZ EP        330 58.28                             112    0.45 7  301 234 
 GUY2CHN ES        331 32.31                             112    0.57 7  301 234 
 GUY2CHZ I         331 41.56         3.2 0.28                           301 234 
 PRA  HZ EP        331  7.87                             106   -0.01 6  393 209 
 PRA  HE ES        331 49.39                             106   -0.25 6  393 209 
 PRA  HZ I         331 54.64         3.1 0.48            107            393 209 
 ORTC HN ES        331 51.34                             106    1.05 6  396 216 
                                                                                
