 2016 12 6 0353 21.4 L   6.790 -73.117156.0  RSN  5 0.4 1.3LRSN                1
 GAP=141        0.95       5.4     4.7  7.9 -0.3574E+00  0.1034E+02 -0.2876E+01E
 Epicentro: LOS SANTOS - SANTANDER                                             3
 ACTION:UPD 17-01-11 20:12 OP:rebc STATUS:               ID:20161206035321 L   I
 OLDACT:UP  16-12-06 18:38 OP:ar   STATUS:               ID:20161206034747d    3
 OLDACT:DUP 16-12-06 18:17 OP:ar   STATUS:               ID:20161206034747d    3
 2016-12-06-0348-00M.COL___343                                                 6
 STAT SP IPHASW D HRMM SECON CODA AMPLIT PERI AZIMU VELO AIN AR TRES W  DIS CAZ7
 BAR2 EZ EP        353 42.44                             171    0.2010 23.0 198 
 BAR2 EZ ES        353 58.61                             171    0.1010 23.0 198 
 BAR2 EZ I         353 59.38         5.2 0.47            170           23.0 198 
 PAM  EZ EP        353 43.89                             153   -0.7510 76.3  37 
 PAM  EN ES        354  3.06                             153    0.2810 76.3  37 
 PAM  EZ I         354  3.63         3.5 0.18            156           76.3  37 
 RUS  HZ EP        353 46.52                             146    0.4510 99.3 178 
 RUS  HN ES        354  5.07                             146   -0.2510 99.3 178 
 RUS  HZ I         354  6.33         1.3 0.36            148           99.3 178 
 PTB  HZ EP        353 49.61                             134    0.15 9  151 259 
 PTB  HE ES        354 10.98                             134   -0.37 9  151 259 
 PTB  HZ I         354 17.33         2.2 0.26            133            151 259 
 ZAR  HZ EP   4    353 58.63                             124    3.78 0  207 292 
 ZAR  HN ES        354 21.19                             124    0.23 8  207 292 
 ZAR  HZ I         354 26.85         2.6 0.36            124            207 292 
                                                                                
