 2016 11 6 0450 51.3 L   6.790 -73.151147.7  RSN  6 0.4 1.3LRSN                1
 GAP=150        0.99       5.5     4.7  7.3 -0.7191E+01  0.5779E+01  0.5977E+01E
 Epicentro: LOS SANTOS - SANTANDER                                             3
 ACTION:UPD 17-10-26 21:05 OP:lp   STATUS:               ID:20161106045051 L   I
 OLDACT:UP  16-11-06 16:00 OP:dani STATUS:               ID:20161106044749     3
 OLDACT:REG 16-11-06 12:38 OP:dani STATUS:               ID:20161106044749     3
 2016-11-06-0448-00M.COL___343                                                 6
 STAT SP IPHASW D HRMM SECON CODA AMPLIT PERI AZIMU VELO AIN AR TRES W  DIS CAZ7
 BAR2 EZ EP        451 11.84                             171    0.7310 22.2 189 
 BAR2 HN ES        451 26.33                             171   -0.2610 22.2 189 
 BAR2 EZ I         451 27.39         9.7 0.25            170           22.2 189 
 BRR  HZ EP        451 12.94                             153    0.3110 71.2 300 
 BRR  HN ES        451 29.77                             153    0.4810 71.2 300 
 BRR  HZ I         451 35.69         3.6 0.44            154           71.2 300 
 PAM  EZ EP        451 13.51                             151   -0.2510 78.6  39 
 PAM  EN ES        451 31.00                             151   -0.3110 78.6  39 
 PAM  EZ I         451 32.39         2.6 0.40            155           78.6  39 
 PTB  HZ EP        451 17.74                             133   -0.59 9  147 259 
 PTB  HN ES        451 39.34                             133   -0.09 9  147 259 
 PTB  HZ I         451 40.50         1.5 0.14            134            147 259 
 SPBC HZ EP        451 20.01                             130    0.20 9  162 219 
 SPBC HN ES        451 41.89                             130   -0.17 9  162 219 
 SPBC HZ I         451 47.79         4.2 0.13            131            162 219 
 ZAR  HN ES        451 49.06                             123   -0.17 9  204 292 
                                                                                
