 2011  1 6 0236 23.4 L   6.817 -73.093151.1  RSN  5 0.2 1.3LRSN                1
 GAP=239        0.47       4.5     7.8  6.4 -0.7304E+01  0.1805E+02 -0.2015E+01E
 Epicentro: LOS SANTOS - SANTANDER                                             3
 ACTION:UP  11-02-08 08:38 OP:pat  STATUS:               ID:20110106023623 L   I
 2011-01-06-0231-42S.COL___136                                                 6
 STAT SP IPHASW D HRMM SECON CODA AMPLIT PERI AZIMU VELO SNR AR TRES W  DIS CAZ7
 BTL  SZ EP        236 43.88                             171     0.210   22 300 
 BAR2 SZ EP   2    236 43.51                             170    -0.2 5   27 202 
 BAR2 SZ ES   2    236 59.39                             170    -0.2 5   27 202 
 BAR2 SZ I         237  0.40         7.0 0.19                            27 202 
 RUS  HZ EP   1    236 47.49                             145    -0.3 7  102 179 
 RUS  HE ES   1    237  6.79                             145     0.0 7  102 179 
 RUS  HZ I         237  7.91         2.0 0.21                           102 179 
 NOR  SZ EP   2    236 59.98                             119    -0.1 4  241 235 
 NOR  SE ES   2    237 28.50                             119    -0.2 4  241 235 
 CHI  HZ EP   1    237  1.75                             118     0.0 6  252 196 
 CHI  HZ I         237  9.35         1.3 0.68                           252 196 
 CHI  HE ES   2    237 32.09                             118     0.4 4  252 196 
                                                                                
