 2017  6 6 0009 15.3 L   6.487 -73.602105.5  RSN  6 0.2 1.2LRSN                1
 GAP=142        0.41       2.1     2.1  3.9  0.2466E+01  0.2833E+00 -0.2506E+00E
 Epicentro: SANTA HELENA DEL OPON - SANTANDER                                  3
 ACTION:UPD 17-09-14 16:50 OP:jn   STATUS:               ID:20170606000915 L   I
 OLDACT:UP  17-06-06 12:52 OP:edw  STATUS:               ID:20170606000729d    3
 OLDACT:DUP 17-06-06 12:48 OP:edw  STATUS:               ID:20170606000729d    3
 OLDACT:UP  17-06-06 12:48 OP:edw  STATUS:               ID:20170606000728d    3
 OLDACT:UP  17-06-06 12:47 OP:edw  STATUS:               ID:20170606000728d    3
 OLDACT:DUP 17-06-06 12:44 OP:edw  STATUS:               ID:20170606000728d    3
 OLDACT:UP  17-06-06 12:43 OP:edw  STATUS:               ID:20170606000727     3
 OLDACT:UP  17-06-06 12:42 OP:edw  STATUS:               ID:20170606000727     3
 OLDACT:REG 17-06-06 11:55 OP:edw  STATUS:               ID:20170606000727     3
 2017-06-06-0008-00M.COL___359                                                 6
 STAT SP IPHASW D HRMM SECON CODA AMPLIT PERI AZIMU VELO AIN AR TRES W  DIS CAZ7
 BRR  HZ EP     C  0 9 32.02                             144   -0.1310 69.6 350 
 BRR  HN ES        0 9 45.34                             144    0.0410 69.6 350 
 RUS  HZ EP        0 9 34.10                             138   -0.1110 87.3 139 
 RUS  HN ES        0 9 49.09                             138    0.1310 87.3 139 
 RUS  HZ I         0 9 55.13         2.7 0.60            139           87.3 139 
 PTB  HZ EP   2    0 9 33.98                             135   -0.19 5 94.6 274 
 PTB  HN ES        0 9 48.71                             135   -0.1810 94.6 274 
 PTB  HZ I         0 9 50.15         2.9 0.38            138           94.6 274 
 SPBC HN ES   2    0 9 51.09                             131    0.21 5  106 209 
 ZAR  HZ EP   1    0 9 42.87                             115    0.33 7  178 309 
 ZAR  HN ES        010  3.93                             115    0.13 9  178 309 
 ZAR  HZ I         010  7.61         4.0 0.42            118            178 309 
 YPLC HZ EP   2    0 9 42.97                             115   -0.04 4  181 132 
                                                                                
