 2012  4 6 0127 36.1 L   6.723 -73.251156.5  RSN  4 0.2 0.9LRSN                1
 GAP=219        0.48       5.5     5.4  6.4  0.1812E+02 -0.1127E+01 -0.1300E+01E
 Epicentro: VILLANUEVA - SANTANDER                                             3
 ACTION:UPD 12-07-05 11:50 OP:tino STATUS:               ID:20120406012736 L   I
 2012-04-06-0120-00M.COL___196                                                 6
 STAT SP IPHASW D HRMM SECON CODA AMPLIT PERI AZIMU VELO AIN AR TRES W  DIS CAZ7
 BRR  HZ EP   1    127 58.24                             156     0.1 7   66 310 
 BRR  HZ I         128 10.59         2.7 0.44                            66 310 
 BRR  HE ES   1    128 15.44                             156     0.1 7   66 310 
 RUS  HZ EP   1    128  0.44                             148     0.0 7   94 169 
 RUS  HZ I         128 14.45         0.8 0.62                            94 169 
 RUS  HE ES   1    128 19.27                             148    -0.2 7   94 169 
 PTB  HZ EP   1    128  2.91                             137     0.1 7  135 261 
 PTB  HN ES   1    128 23.87                             137     0.2 7  135 261 
 ZAR  HN ES   2    128 33.12                             126    -0.7 4  197 296 
                                                                                
