 2013  6 6 0036 40.3 L   6.783 -73.127144.9  RSN 11 0.5 2.5LRSN                1
 GAP=140        1.00       3.2     4.3  5.7 -0.1457E+01  0.5808E+01  0.7327E+00E
 Epicentro: LOS SANTOS - SANTANDER                                             3
 ACTION:UPD 14-01-08 09:52 OP:ep   STATUS:               ID:20130606003640 L   I
 OLDACT:UP  13-06-06 10:48 OP:mh   STATUS:               ID:20130606003000     3
 OLDACT:UP  13-06-06 10:46 OP:mh   STATUS:               ID:20130606003000     3
 OLDACT:REG 13-06-06 09:26 OP:mh   STATUS:               ID:20130606003000     3
 2013-06-06-0030-00M.COL___257                                                 6
 STAT SP IPHASW D HRMM SECON CODA AMPLIT PERI AZIMU VELO AIN AR TRES W  DIS CAZ7
 BAR2 SZ EP        036 59.90                             171    0.1310 22.0 196 
 BAR2 SZ ES        037 14.94                             171   -0.0410 22.0 196 
 BAR2 SZ I         037 16.11        43.3 0.22            167           22.0 196 
 BRR  HZ IP     C  037  1.68                             151    0.2010 73.9 299 
 BRR  HN ES        037 18.60                             151    0.5710 73.9 299 
 BRR  HN I         037 18.94       125.3 0.18            149           73.9 299 
 PAM  SZ EP        037  2.74                             151    0.3410 77.6  37 
 PAM  SN ES        037 19.07                             151   -0.6010 77.6  37 
 PAM  SZ I         037 21.48        48.5 0.52            155           77.6  37 
 RUS  HZ IP     D  037  4.02                             144    0.2310 98.6 177 
 RUS  HN ES        037 22.14                             144   -0.0010 98.6 177 
 RUS  HN I         037 24.92        14.4 0.22            143           98.6 177 
 PTB  HZ EP   1    037  6.52                             131   -0.80 7  149 260 
 PTB  HN ES        037 27.63                             131   -0.79 9  149 260 
 PTB  HN I         037 32.97        67.1 0.32            130            149 260 
 OCA  HZ EP   1    037  7.98                             129   -0.73 7  162 352 
 OCA  HN ES        037 31.19                             129    0.29 9  162 352 
 OCA  HN I         037 32.36       124.4 0.22            130            162 352 
 NOR  HZ EP   1    037 16.19                             118    0.17 6  235 235 
 NOR  HN ES   2    037 44.04                             118    0.14 4  235 235 
 NOR  HZ I         037 50.88        14.7 0.18            117            235 235 
 SML  HZ EP   1    037 16.13                             117   -1.00 6  246 335 
 SML  HN ES        037 46.35                             117    0.48 8  246 335 
 SML  HN I         037 47.26        80.5 0.10            117            246 335 
 CHI  HZ EP        037 17.94                             117    0.16 8  247 196 
 CHI  HN ES   4    037 49.45                             117    2.41 0  247 196 
 CHI  HN I         037 50.34        21.0 0.32            117            247 196 
 HEL  HZ EP   4    037 21.84                             114    1.23 0  274 256 
 HEL  HE ES        037 52.32                             114    0.24 8  274 256 
 HEL  HE I         038  0.60        12.6 0.20            114            274 256 
 GUY2CHZ EP   4    037 25.55                             112    1.64 0  302 235 
 GUY2CHN ES   4    038  1.46                             112    3.51 0  302 235 
 PRA  HZ EP   1    037 33.90                             106    0.21 4  391 210 
 PRA  HN ES   2    038 15.83                             106    0.47 3  391 210 
 PRA  HN I         038 20.45        10.9 0.52            106            391 210 
                                                                                
