 2011  8 6 0230 32.6 L   6.731 -73.135144.1  RSN  5 0.3 1.2LRSN                1
 GAP=233        0.47       6.3    11.0  7.1  0.5135E+02 -0.3028E+02 -0.2234E+01E
 Epicentro: JORDAN - SANTANDER                                                 3
 ACTION:UPD 12-07-25 14:06 OP:epov STATUS:               ID:20110806023032 L   I
 2011-08-06-0220-00M.COL___145                                                 6
 STAT SP IPHASW D HRMM SECON CODA AMPLIT PERI AZIMU VELO AIN AR TRES W  DIS CAZ7
 BAR2 SZ ES   3    231  5.94                             173   -1.07 2 16.2 199 
 BRR  HZ EP        230 53.75                             151   -0.1510 76.1 303 
 BRR  HE ES        231 10.60                             151    0.1110 76.1 303 
 RUS  HZ EP        230 55.74                             146    0.0510 92.9 176 
 RUS  HN ES   2    231 14.00                             146    0.34 5 92.9 176 
 RUS  HZ I         231 15.12         3.0 0.42                          92.9 176 
 NOR  SE ES   3    231 34.76                             119   -0.67 2  231 236 
 CHI  HN ES   3    231 38.19                             118   -0.03 2  242 196 
                                                                                
