 2017  3 6 0932 15.1 L   6.798 -73.180144.4  RSN  6 0.3 1.2LRSN                1
 GAP=234        0.48       5.1     5.2  6.2  0.1462E+02  0.5793E+01 -0.6720E+01E
 Epicentro: LOS SANTOS - SANTANDER                                             3
 ACTION:UPD 17-05-25 18:36 OP:jn   STATUS:               ID:20170306093215 L   I
 OLDACT:UP  17-03-06 16:37 OP:and  STATUS:               ID:20170306092740     3
 OLDACT:UP  17-03-06 16:36 OP:and  STATUS:               ID:20170306092740     3
 OLDACT:UP  17-03-06 16:36 OP:and  STATUS:               ID:20170306092740     3
 OLDACT:UP  17-03-06 16:36 OP:and  STATUS:               ID:20170306092740     3
 OLDACT:UP  17-03-06 16:34 OP:and  STATUS:               ID:20170306092740     3
 OLDACT:REG 17-03-06 12:32 OP:and  STATUS:               ID:20170306092740     3
 2017-03-06-0928-00M.COL___393                                                 6
 STAT SP IPHASW D HRMM SECON CODA AMPLIT PERI AZIMU VELO AIN AR TRES W  DIS CAZ7
 BAR2 EZ EP        932 34.65                             171    0.1410 22.8 181 
 BAR2 EZ ES   2    932 49.14                             171   -0.54 5 22.8 181 
 BAR2 EZ I         932 52.26         4.9 0.40            168           22.8 181 
 BRR  HZ EP   2    932 35.71                             153   -0.17 5 68.0 300 
 BRR  HN ES   2    932 52.79                             153    0.67 5 68.0 300 
 RUS  HZ EP   2    932 38.65                             144   -0.04 5  101 174 
 RUS  HN ES        932 57.06                             144   -0.0510  101 174 
 RUS  HZ I         932 57.82         0.8 0.17            148            101 174 
 PTB  HZ EP        932 41.59                             133    0.01 9  144 259 
 PTB  HN ES   2    933  2.23                             133   -0.03 5  144 259 
 PTB  HZ I         933  7.53         1.8 0.34            132            144 259 
 SPBC HN ES   3    933  5.54                             129    0.36 2  161 218 
 ZAR  HZ EP   4    932 48.57                             122    1.50 0  201 293 
 ZAR  HN ES   2    933 11.58                             122   -0.45 4  201 293 
 ZAR  HZ I         933 17.17         2.9 0.46            124            201 293 
                                                                                
