 2011  2 6 0456  7.9 L   6.773 -73.163136.2  RSN  9 0.3 1.6LRSN                1
 GAP=157        0.59       3.8     6.0  6.3 -0.1166E+02  0.1939E+02 -0.7079E+01E
 Epicentro: LOS SANTOS - SANTANDER                                             3
 ACTION:UP  11-03-28 15:06 OP:jfem STATUS:               ID:20110206045607 L   I
 2011-02-06-0454-05S.COL___138                                                 6
 STAT SP IPHASW D HRMM SECON CODA AMPLIT PERI AZIMU VELO SNR AR TRES W  DIS CAZ7
 BTL  SZ EP        456 26.26                             171    -0.110   20 324 
 BAR2 SZ EP        456 26.15                             171    -0.210   20 187 
 BAR2 SZ I         456 26.50        11.6 0.10                            20 187 
 BAR2 SZ ES   1    456 40.72                             171     0.0 7   20 187 
 GIR2 SZ EP   1    456 26.23                             165    -0.3 7   34 354 
 RUS  HZ EP   1    456 30.69                             142     0.2 7   98 175 
 RUS  HN ES   2    456 48.47                             142     0.3 5   98 175 
 RUS  HZ I         456 50.51         4.9 0.25                            98 175 
 GRA  SZ EP   1    456 32.97                             134     0.4 7  129  18 
 GRA  SZ ES   1    456 52.08                             134     0.2 7  129  18 
 GRA  SZ I         456 53.54         7.4 0.59                           129  18 
 OCA  SZ EP   1    456 35.50                             127    -0.3 7  163 354 
 OCA  SZ I         456 58.09         7.5 0.35                           163 354 
 NOR  SE ES   2    457 10.23                             117     0.3 4  232 235 
 CHI  HZ EP   2    456 44.24                             115    -0.5 4  245 195 
 CHI  HZ I         456 47.10         1.0 0.04                           245 195 
 HEL  HZ EP        456 47.72                             113     0.3 8  270 256 
 HEL  HN ES   2    457 17.73                             113    -0.4 4  270 256 
 HEL  HZ I         457 25.52         2.4 0.33                           270 256 
                                                                                
