 2011  3 6 0053 35.4 L   6.791 -73.108141.4  RSN 10 0.4 1.8LRSN                1
 GAP=139        0.62       2.7     6.1  5.5 -0.1753E+01  0.7135E+01  0.2245E+00E
 Epicentro: LOS SANTOS - SANTANDER                                             3
 ACTION:UP  11-06-16 14:31 OP:jfem STATUS:               ID:20110306005336 L   I
 2011-03-06-0052-01S.COL___135                                                 6
 STAT SP IPHASW D HRMM SECON CODA AMPLIT PERI AZIMU VELO SNR AR TRES W  DIS CAZ7
 BAR2 SZ IP        053 54.58                             170     0.110   24 201 
 BAR2 SZ ES   1    054  9.56                             170     0.1 7   24 201 
 BAR2 SZ I         054 17.57        15.0 0.27                            24 201 
 RUS  HZ EP        053 58.60                             143     0.010   99 178 
 RUS  HZ I         053 59.81         7.4 0.10                            99 178 
 RUS  HN ES   2    054 16.19                             143    -0.6 5   99 178 
 GRA  SZ EP   1    054  0.49                             136     0.3 7  125  16 
 GRA  SZ ES   1    054 19.64                             136     0.0 7  125  16 
 GRA  SZ I         054 21.02        10.9 0.26                           125  16 
 OCA  SZ EP        054  3.33                             128    -0.2 9  162 352 
 OCA  SZ I         054 29.55        14.3 0.33                           162 352 
 YOP  SZ EP        054  5.11                             126     0.2 9  176 154 
 YOP  SN ES   2    054 27.80                             126    -0.1 4  176 154 
 YOP  SZ I         054 31.68         6.8 0.38                           176 154 
 CHI  HZ EP   3    054 13.03                             116     0.1 2  249 196 
 CHI  HN ES   2    054 42.71                             116     0.6 4  249 196 
 CHI  HZ I         054 45.04         3.1 0.30                           249 196 
 HEL  HZ EP   2    054 15.10                             114    -0.7 4  276 256 
 HEL  HE ES   3    054 47.28                             114    -0.1 2  276 256 
 HEL  HZ I         054 53.26         6.8 0.49                           276 256 
 RREF HE ES   3    054 59.68                             110     1.9 2  324 230 
 DBB  SZ EP   2    054 23.14                             109    -0.1 3  344 274 
 PRA  HZ EP   2    054 28.17                             106    -0.8 3  393 210 
 PRA  HN ES   2    055  9.70                             106    -1.0 3  393 210 
                                                                                
