 2010 12 6 0302  2.0 L   6.776 -73.165145.5  RSN 12 0.3 2.8LRSN                1
 GAP=168        0.68       3.1     5.1  5.0 -0.8382E+01  0.7320E+01  0.2549E+01E
 Epicentro: LOS SANTOS - SANTANDER                                             3
 ACTION:UP  11-01-14 15:23 OP:pat  STATUS:               ID:20101206030202 L   I
 2010-12-06-0301-00S.COL___129                                                 6
 STAT SP IPHASW D HRMM SECON CODA AMPLIT PERI AZIMU VELO SNR AR TRES W  DIS CAZ7
 BTL  SZ EP        3 2 21.67                             172     0.110   19 324 
 BAR2 SZ IP        3 2 21.50                             172    -0.110   21 186 
 BAR2 SZ ES   1    3 2 36.69                             172    -0.1 7   21 186 
 BAR2 SZ I         3 2 38.06       235.6 0.23                            21 186 
 GIR2 SZ EP   1    3 2 21.62                             166    -0.1 7   34 355 
 GIR2 SZ ES   1    3 2 37.51                             166     0.4 7   34 355 
 GRA  SZ IP        3 2 27.39                             136    -0.110  129  18 
 GRA  SZ ES   1    3 2 47.51                             136     0.1 7  129  18 
 GRA  SZ I         3 2 53.12        45.9 0.20                           129  18 
 OCA  SZ EP   1    3 2 29.91                             129    -0.6 7  163 354 
 OCA  SZ ES   1    3 2 52.49                             129    -0.3 7  163 354 
 OCA  SZ I         3 2 56.63        73.8 0.27                           163 354 
 NOR  SZ EP   1    3 2 37.24                             119    -0.2 6  232 235 
 NOR  SE ES   1    3 3  5.04                             119     0.1 6  232 235 
 CHI  HZ EP        3 2 39.41                             117     0.0 8  246 195 
 CHI  HE ES   1    3 3  8.26                             117    -0.2 6  246 195 
 CHI  HZ I         3 3 12.96        32.0 0.61                           246 195 
 HEL  HZ EP   1    3 2 42.69                             115     0.8 6  269 256 
 HEL  HN ES   1    3 3 12.52                             115    -0.5 6  269 256 
 HEL  HZ I         3 3 19.47        33.1 0.32                           269 256 
 RREF HZ EP   1    3 2 48.49                             111     0.7 5  318 229 
 RREF HN ES   2    3 3 23.19                             111    -0.3 3  318 229 
 RREF HZ I         3 3 32.64        36.6 0.41                           318 229 
 DBB  SZ EP   2    3 2 49.63                             110     0.4 3  338 275 
 TOL  SZ EP   1    3 2 50.38                             109     0.5 5  340 225 
 PRA  HZ EP   1    3 2 55.12                             107     0.0 4  389 209 
 PRA  HN ES   1    3 3 36.06                             107    -0.5 4  389 209 
                                                                                
