 2017  1 6 0250 25.1 L   6.276 -73.585111.1  RSN  7 0.3 1.5LRSN                1
 GAP= 75        0.81       2.7     3.3  6.1  0.1420E+01  0.8087E+01  0.5283E+01E
 Epicentro: SANTA HELENA DEL OPON - SANTANDER                                  3
 ACTION:UPD 17-05-22 15:56 OP:jn   STATUS:               ID:20170106025025 L   I
 OLDACT:UP  17-01-06 14:00 OP:and  STATUS:               ID:20170106024739     3
 OLDACT:REG 17-01-06 12:31 OP:and  STATUS:               ID:20170106024739     3
 2017-01-06-0248-00M.COL___381                                                 6
 STAT SP IPHASW D HRMM SECON CODA AMPLIT PERI AZIMU VELO AIN AR TRES W  DIS CAZ7
 BAR2 EZ EP     C  250 42.25                             151    0.2710 56.6  52 
 BAR2 EZ ES        250 55.31                             151    0.1210 56.6  52 
 RUS  HZ EP        250 42.98                             145   -0.2110 69.9 127 
 RUS  HE ES        250 56.81                             145   -0.5310 69.9 127 
 RUS  HZ I         250 58.28         3.2 0.14            145           69.9 127 
 BRR  HZ EP        250 44.09                             137   -0.1710 92.9 351 
 BRR  HN ES        250 59.65                             137    0.4110 92.9 351 
 PTB  HZ IP   9 D  250 43.58                             134   -1.36 0  101 287 
 PTB  HN ES        250 58.79                                   -0.3010  101 287 
 PTB  HZ I         250 59.22         9.1 0.12            134            101 287 
 NOR  HZ EP        250 50.71                             120   -0.33 9  163 241 
 NOR  HN ES        251 11.36                             120    0.05 9  163 241 
 NOR  HZ I         251 12.36         5.8 0.18            119            163 241 
 CHI  HZ EP        250 53.89                             116    0.21 9  183 185 
 CHI  HN ES        251 16.48                             116    0.47 9  183 185 
 ZAR  HZ EP   4    250 51.71                             114   -2.75 0  195 314 
 ZAR  HE ES        251 17.16                             114   -0.23 9  195 314 
 ZAR  HZ I         251 18.90         3.8 0.17            114            195 314 
                                                                                
