 2010  8 6 0014 17.9 L   7.259 -73.505 96.7  RSN  5 0.3 1.6LRSN                1
 GAP=137        0.96       6.4    11.7 14.8 -0.2987E+02 -0.7349E+02 -0.2249E-01E
 Epicentro: SABANA DE TORRES - SANTANDER                                       3
 ACTION:UP  10-09-07 10:52 OP:vdl  STATUS:               ID:20100806001417 L   I
 2010-08-06-0008-13S.COL___125                                                 6
 STAT SP IPHASW D HRMM SECON CODA AMPLIT PERI AZIMU VELO SNR AR TRES W  DIS CAZ7
 BRR  HZ EP        014 31.45                             163     0.010   28 234 
 BRR  HZ I         014 38.41         9.9 0.62                            28 234 
 BRR  HN ES   2    014 42.07                             163     0.0 5   28 234 
 BAR2 SZ EP        014 35.31                             137     0.110   82 154 
 BAR2 SZ I         014 51.19        13.4 0.18                            82 154 
 GUE  SZ EP        014 35.56                             134    -0.510   90  45 
 GUE  SZ I         014 51.02         7.5 0.21                            90  45 
 GRA  SZ EP        014 37.63                             130     0.510  104  48 
 GRA  SZ ES   2    014 51.78                             130    -0.3 5  104  48 
 GRA  SZ I         014 54.29         7.9 0.28                           104  48 
 OCA  SZ EP        014 37.55                             128    -0.210  110  11 
 OCA  SZ ES   2    014 53.72                             128     0.5 5  110  11 
 OCA  SZ I         014 55.77        11.8 1.24                           110  11 
                                                                                
