 2016  4 6 0206 43.9 L   6.779 -73.197146.4  RSN  4 0.2 1.3LRSN                1
 GAP=142        0.47       2.9     2.8  4.0 -0.2473E+01  0.2905E+01 -0.1201E+01E
 Epicentro: ZAPATOCA - SANTANDER                                               3
 ACTION:UPD 16-05-05 14:19 OP:rebc STATUS:               ID:20160406020643 L   I
 OLDACT:UP  16-04-06 13:54 OP:mh   STATUS:               ID:20160406015747     3
 OLDACT:REG 16-04-06 12:19 OP:mh   STATUS:               ID:20160406015747     3
 2016-04-06-0157-47M.COL___304                                                 6
 STAT SP IPHASW D HRMM SECON CODA AMPLIT PERI AZIMU VELO AIN AR TRES W  DIS CAZ7
 BAR2 EZ EP        2 7  3.65                             172    0.0510 20.7 176 
 BAR2 EZ ES        2 7 19.02                             172    0.0910 20.7 176 
 BAR2 EZ I         2 7 20.53         9.5 0.16            175           20.7 176 
 PAM  EZ EP        2 7  6.56                             149    0.0010 82.8  42 
 PAM  EN ES        2 7 24.14                             149   -0.0610 82.8  42 
 PAM  EZ I         2 7 28.84         1.9 0.36            151           82.8  42 
 RUS  HZ EP        2 7  7.38                             144   -0.2510 98.8 173 
 RUS  HN ES        2 7 26.19                             144    0.0810 98.8 173 
 RUS  HZ I         2 7 27.31         4.0 0.24            150           98.8 173 
 PTB  HZ EP        2 7 10.72                             133    0.29 9  142 259 
 PTB  HN ES        2 7 30.89                             133   -0.20 9  142 259 
 PTB  HZ I         2 7 36.90         2.8 0.34            135            142 259 
                                                                                
