 2010 12 6 0026 29.8 L   6.513 -73.573  7.7  RSN  8 0.3 2.1LRSN                1
 GAP=149        0.55       4.9     5.5  7.8 -0.2007E+02  0.3302E+02 -0.1708E+02E
 Epicentro: EL CARMEN DE CHUCURI - SANTANDER                                   3
 ACTION:UP  11-01-14 15:23 OP:pat  STATUS:               ID:20101206002629 L   I
 2010-12-06-0025-41S.COL___133                                                 6
 STAT SP IPHASW D HRMM SECON CODA AMPLIT PERI AZIMU VELO SNR AR TRES W  DIS CAZ7
 BAR2 SZ IP        026 37.23                              95    -0.110   44  79 
 BAR2 SZ I         026 37.58       136.6 0.30                            44  79 
 GIR2 SZ EP   2    026 42.05                              93     0.1 5   75  34 
 GUE  SZ EP   2    026 55.32                              91     0.0 5  162  26 
 GRA  SZ EP   1    026 56.94                              56     0.3 7  174  29 
 GRA  SZ ES   2    027 17.22                              56    -0.4 4  174  29 
 GRA  SZ I         027 20.28        58.6 0.27                           174  29 
 NOR  SZ EP   2    026 57.11                              56     0.1 4  178 234 
 NOR  SN ES   2    027 18.37                              56     0.1 4  178 234 
 OCA  SZ EP   2    026 59.54                              56     0.5 4  193   8 
 OCA  SZ I         027 27.19        20.4 0.50                           193   8 
 HEL  HZ EP   1    027  2.14                              56    -0.5 6  219 261 
 HEL  HZ I         027 29.58        11.3 0.19                           219 261 
 RREF HZ EP   2    027  9.35                              56     0.7 4  265 228 
 RREF HN ES   2    027 39.06                              56     0.1 4  265 228 
 RREF HZ I         027 45.04         5.5 0.25                           265 228 
                                                                                
