 2016  9 6 0630  4.5 L   6.779 -73.131146.7  RSN  8 0.2 1.8LRSN                1
 GAP=139        0.59       2.9     3.0  4.2 -0.7544E+00 -0.4581E+00 -0.1830E+01E
 Epicentro: LOS SANTOS - SANTANDER                                             3
 ACTION:UPD 17-08-17 21:07 OP:lp   STATUS:               ID:20160906063004 L   I
 OLDACT:REG 16-09-06 12:32 OP:dani STATUS:               ID:20160906062734     3
 2016-09-06-0628-00M.COL___361                                                 6
 STAT SP IPHASW D HRMM SECON CODA AMPLIT PERI AZIMU VELO AIN AR TRES W  DIS CAZ7
 BAR2 EZ EP        630 23.92                             171   -0.2310 21.5 195 
 BAR2 HN ES        630 39.31                             171   -0.2110 21.5 195 
 BAR2 EZ I         630 40.27        20.5 0.18            179           21.5 195 
 BRR  HZ EP        630 25.68                             152   -0.1610 73.7 299 
 BRR  HN ES        630 42.78                             152    0.2610 73.7 299 
 BRR  HZ I         630 45.37         7.0 0.30            144           73.7 299 
 PAM  EZ EP        630 26.80                             151   -0.0110 78.1  38 
 RUS  HZ EP   2    630 27.96                             145   -0.16 5 98.2 177 
 RUS  HN ES   2    630 47.04                             145    0.46 5 98.2 177 
 RUS  HZ I         630 47.84         5.8 0.31            145           98.2 177 
 PTB  HZ EP        630 31.78                             132    0.18 9  149 260 
 PTB  HE ES        630 52.63                             132   -0.14 9  149 260 
 PTB  HZ I         630 53.57         5.0 0.24            127            149 260 
 SPBC HZ EP        630 32.77                             129   -0.18 9  162 220 
 SPBC HE ES        630 55.50                             129    0.32 9  162 220 
 SPBC HZ I         630 57.56        10.0 0.16            127            162 220 
 OCA  HZ EP        630 33.42                             129    0.36 9  163 353 
 OCA  HZ I         630 57.10        11.4 0.21            120            163 353 
 ZAR  HE ES        631  2.51                             122   -0.23 8  206 293 
 ZAR  HZ I         631 11.07         3.5 0.16            116            206 293 
                                                                                
