 2013  8 6 0530 50.2 L   6.855 -73.359122.2  RSN  6 0.5 1.3LRSN                1
 GAP=110        1.15       7.8     6.8 10.6  0.5306E+01  0.1579E+02  0.5911E+00E
 Epicentro: SAN VICENTE DE CHUCURI - SANTANDER                                 3
 ACTION:UPD 14-01-14 08:59 OP:ep   STATUS:               ID:20130806053050 L   I
 OLDACT:REG 13-08-06 07:52 OP:jn   STATUS:               ID:20130806052959     3
 2013-08-06-0529-59M.COL___269                                                 6
 STAT SP IPHASW D HRMM SECON CODA AMPLIT PERI AZIMU VELO AIN AR TRES W  DIS CAZ7
 GIR2 SZ EP        531  7.05                             165   -0.0210 30.8  36 
 BAR2 SZ EP        531  7.52                             163    0.1610 35.0 146 
 BAR2 SZ ES        531 20.13                             163   -0.6010 35.0 146 
 BAR2 SZ I         531 21.78        11.6 0.32            165           35.0 146 
 BRR  HZ EP        531  7.95                             157    0.4110 47.9 306 
 BRR  HN ES        531 21.57                             157    0.5110 47.9 306 
 BRR  HZ I         531 22.27         3.8 0.10            149           47.9 306 
 PTB  HZ EP   1    531 12.42                             131   -0.88 7  126 254 
 PTB  HE ES   1    531 30.79                             131   -0.53 7  126 254 
 PTB  HZ I         531 34.27         1.7 0.14            126            126 254 
 SPBC HZ EP   4    531 18.27                             125    2.12 0  155 211 
 SPBC HN ES   1    531 37.18                             125    0.80 7  155 211 
 SPBC HZ I         531 41.96         1.7 0.48            122            155 211 
 ZAR  HN ES   1    531 40.60                             120   -0.23 7  180 293 
 ZAR  HZ I         531 51.82         4.6 0.14            117            180 293 
                                                                                
