 2012  7 6 0726 38.3 L   6.709 -73.175144.0  RSN  7 0.4 2.1LRSN                1
 GAP=227        0.90       5.0     5.9  7.1  0.1110E+02  0.9288E+01  0.9361E+01E
 Epicentro: VILLANUEVA - SANTANDER                                             3
 ACTION:UPD 12-08-14 11:42 OP:ep   STATUS:               ID:20120706072638 L   I
 2012-07-06-0720-00M.COL___201                                                 6
 STAT SP IPHASW D HRMM SECON CODA AMPLIT PERI AZIMU VELO AIN AR TRES W  DIS CAZ7
 BAR2 SZ EP        726 57.56                             175     0.010   13 184 
 BAR2 SZ ES   1    727 11.99                             175    -0.6 7   13 184 
 BAR2 SZ I         727 15.02        29.6 0.26            170             13 184 
 BRR  HZ EP        726 59.36                             151     0.010   74 307 
 BRR  HZ I         726 59.58        43.9 0.13            151             74 307 
 BRR  HN ES        727 16.23                             151     0.410   74 307 
 RUS  HZ EP        727  1.57                             146     0.410   91 174 
 RUS  HN ES   1    727 18.99                             146     0.0 7   91 174 
 RUS  HZ I         727 21.19        13.8 0.30            145             91 174 
 PTB  HZ EP   1    727  4.08                             133    -0.6 7  143 263 
 PTB  HE ES   1    727 25.38                             133     0.1 7  143 263 
 PTB  HZ I         727 27.02        14.1 0.29            132            143 263 
 ZAR  HZ EP   1    727 10.24                             122    -0.5 6  205 295 
 ZAR  HE ES   1    727 35.74                             122    -0.3 6  205 295 
 ZAR  HZ I         727 41.48        19.5 0.32            123            205 295 
 NOR  SZ EP   1    727 13.25                             119     0.2 6  226 236 
 NOR  SN ES   1    727 40.49                             119     0.4 6  226 236 
 CHI  HZ EP   1    727 15.07                             118     0.3 6  238 195 
 CHI  HN ES   1    727 42.48                             118    -0.7 6  238 195 
 CHI  HZ I         727 49.50         5.0 0.30            118            238 195 
