 2014  9 6 0417  6.9 L   6.775 -73.064138.5  RSN  8 0.5 1.6LRSN                1
 GAP=191        1.02       4.0     7.0  9.2 -0.3423E+01  0.1424E+02  0.2806E+01E
 Epicentro: LOS SANTOS - SANTANDER                                             3
 ACTION:UPD 14-10-03 23:02 OP:nd   STATUS:               ID:20140906041706 L   I
 OLDACT:REG 14-09-06 12:42 OP:fm   STATUS:               ID:20140906040815     3
 2014-09-06-0408-15M.COL___269                                                 6
 STAT SP IPHASW D HRMM SECON CODA AMPLIT PERI AZIMU VELO AIN AR TRES W  DIS CAZ7
 BRR  HZ EP        417 28.57                             148    0.7110 80.5 297 
 BRR  HN ES        417 44.63                             148    0.4310 80.5 297 
 BRR  HZ I         417 48.74        11.4 0.16            148           80.5 297 
 RUS  HE ES        417 47.44                             143   -0.1010 97.6 181 
 RUS  HZ I         417 51.01         3.1 0.26            146           97.6 181 
 PTB  HZ EP   1    417 33.24                             129   -0.85 7  156 260 
 PTB  HE ES        417 54.72                             129   -0.57 9  156 260 
 PTB  HZ I         417 58.11         5.6 0.44            130            156 260 
 OCA  HN ES        417 56.68                             127   -0.35 9  164 350 
 OCA  HZ I         418  0.32         5.0 0.42            130            164 350 
 SPBC HZ EP        417 35.32                             127    0.08 9  167 222 
 SPBC HN ES        417 57.13                             127   -0.19 9  167 222 
 SPBC HZ I         418  1.19         5.6 0.14            129            167 222 
 NOR  HN ES   4    418  8.15                             116   -2.77 0  241 236 
 NOR  HZ I         418 12.94         3.9 0.20            118            241 236 
 HEL  HN ES   1    418 19.82                             113    0.34 6  280 257 
 HEL  HZ I         418 27.51         2.0 0.24            114            280 257 
 GUY2CHZ EP   1    417 50.82                             110   -0.05 5  307 236 
 GUY2CHN ES   1    418 25.64                             110    0.49 5  307 236 
 GUY2CHZ I         418 33.35         2.2 0.54                           307 236 
 MON  HN ES   4    418 31.78                             107   -3.71 0  362 308 
                                                                                
