 2015 10 6 0018 51.1 L   6.851 -73.134143.3  RSN 10 0.5 1.9LRSN                1
 GAP=149        1.08       3.4     4.6  6.1 -0.3216E+01  0.9851E+01  0.2226E+01E
 Epicentro: LOS SANTOS - SANTANDER                                             3
 ACTION:UPD 15-12-22 20:37 OP:cam  STATUS:               ID:20151006001851 L   I
 OLDACT:UP  15-10-06 16:54 OP:ak   STATUS:               ID:20151006001748     3
 OLDACT:UP  15-10-06 16:53 OP:ak   STATUS:               ID:20151006001748     3
 OLDACT:REG 15-10-06 12:41 OP:ak   STATUS:               ID:20151006001748     3
 2015-10-06-0017-48M.COL___319                                                 6
 STAT SP IPHASW D HRMM SECON CODA AMPLIT PERI AZIMU VELO AIN AR TRES W  DIS CAZ7
 BAR2 EZ EP        019 10.32                             168   -0.2610 29.1 191 
 BAR2 EZ ES        019 26.21                             168    0.4410 29.1 191 
 BAR2 EZ I         019 30.90         9.6 0.22            166           29.1 191 
 BRR  HZ IP     D  019 11.90                             153   -0.0210 69.9 294 
 BRR  HE ES        019 28.69                             153    0.5410 69.9 294 
 BRR  HZ I         019 32.80        14.7 0.08            152           69.9 294 
 PAM  EZ EP        019 13.06                             152    0.2910 72.2  42 
 PAM  EN ES        019 29.48                             152   -0.1710 72.2  42 
 PAM  EZ I         019 30.45        13.2 0.42            159           72.2  42 
 SPBC HZ EP   1    019 19.66                             128   -0.27 7  168 218 
 SPBC HN ES        019 42.07                             128   -0.34 9  168 218 
 SPBC HZ I         019 46.81        11.6 0.22            129            168 218 
 ZAR  HZ EP        019 23.39                             122    0.07 9  203 291 
 ZAR  HN ES        019 47.76                             122   -0.67 9  203 291 
 ZAR  HZ I         019 53.78        14.0 0.28            124            203 291 
 SML  HZ EP        019 27.41                             117    0.30 8  239 334 
 SML  HN ES        019 54.27                             117   -0.91 8  239 334 
 NOR  HZ EP        019 27.56                             117    0.38 8  239 234 
 NOR  HN ES        019 54.76                             117   -0.55 8  239 234 
 NOR  HZ I         020  1.31         5.1 0.09            120            239 234 
 CHI  HZ EP        019 28.97                             116   -0.35 8  254 195 
 CHI  HN ES        019 58.39                             116   -0.72 8  254 195 
 CHI  HZ I         020  5.06         2.0 0.30            119            254 195 
 HEL  HZ EP        019 32.03                             114    0.52 8  275 255 
 HEL  HN ES        020  3.57                             114    0.56 8  275 255 
 HEL  HZ I         020  9.76         7.0 0.36            116            275 255 
 GUY2CHZ EP        019 35.96                             112    0.85 7  306 234 
 GUY2CHN ES        020  9.68                             112    0.26 7  306 234 
 GUY2CHZ I         020 18.74         6.2 0.48                           306 234 
                                                                                
