 2017  1 6 0047 48.5 L   6.788 -73.159142.8  RSN  7 0.3 1.4LRSN                1
 GAP=135        0.69       3.3     3.2  4.8  0.6502E+00  0.5252E+01 -0.7165E-01E
 Epicentro: LOS SANTOS - SANTANDER                                             3
 ACTION:UPD 17-05-22 15:56 OP:jn   STATUS:               ID:20170106004748 L   I
 OLDACT:UP  17-01-06 13:14 OP:and  STATUS:               ID:20170106003743d    3
 OLDACT:UP  17-01-06 13:14 OP:and  STATUS:               ID:20170106003743d    3
 OLDACT:DUP 17-01-06 13:11 OP:and  STATUS:               ID:20170106003743d    3
 2017-01-06-0038-00M.COL___381                                                 6
 STAT SP IPHASW D HRMM SECON CODA AMPLIT PERI AZIMU VELO AIN AR TRES W  DIS CAZ7
 BAR2 EZ EP        048  7.51                             171   -0.2110 21.8 187 
 BAR2 EZ ES        048 22.48                             171   -0.2510 21.8 187 
 BAR2 EZ I         048 25.98         3.6 0.30            172           21.8 187 
 BRR  HZ EP        048  9.40                             152    0.1310 70.5 300 
 BRR  HE ES   4    048 26.75                             152    1.26 0 70.5 300 
 PAM  EZ EP        048 10.23                             150   -0.2610 79.3  40 
 PAM  EN ES        048 27.81                             150    0.1410 79.3  40 
 PAM  EZ I         048 30.32         5.5 0.49            152           79.3  40 
 RUS  HZ EP        048 12.02                             143    0.1710 99.4 175 
 RUS  HN ES        048 30.47                             143    0.3910 99.4 175 
 RUS  HZ I         048 32.53         3.7 0.44            147           99.4 175 
 PTB  HZ EP        048 14.70                             132   -0.35 9  146 259 
 PTB  HN ES        048 35.55                             132   -0.22 9  146 259 
 PTB  HZ I         048 37.16         2.7 0.29            134            146 259 
 ZAR  HZ EP        048 21.06                             122    0.42 9  203 293 
 ZAR  HE ES        048 45.98                             122    0.25 9  203 293 
 ZAR  HZ I         048 51.26         3.1 0.24            124            203 293 
 CHI  HZ EP        048 25.68                             117   -0.15 8  247 195 
                                                                                
