 2014  7 6 0503 23.5 L   6.773 -73.170142.6  RSN  7 0.4 1.3LRSN                1
 GAP=135        0.96       4.3     5.6  7.0  0.2025E+01  0.4238E+01 -0.2602E+01E
 Epicentro: LOS SANTOS - SANTANDER                                             3
 ACTION:UPD 15-03-16 20:41 OP:nd   STATUS:               ID:20140706050323 L   I
 OLDACT:UP  14-07-06 15:11 OP:cam  STATUS:               ID:20140706050000     3
 OLDACT:UP  14-07-06 15:11 OP:cam  STATUS:               ID:20140706050000     3
 OLDACT:REG 14-07-06 13:00 OP:cma  STATUS:               ID:20140706050000     3
 2014-07-06-0500-00M.COL___279                                                 6
 STAT SP IPHASW D HRMM SECON CODA AMPLIT PERI AZIMU VELO AIN AR TRES W  DIS CAZ7
 BAR2 SZ EP   1    5 3 42.69                             172    0.05 7 20.1 184 
 BAR2 SZ ES        5 3 57.20                             172   -0.4010 20.1 184 
 BAR2 SZ I         5 3 58.60        10.2 0.18            170           20.1 184 
 BRR  HZ EP        5 3 44.44                             152    0.2310 70.4 302 
 BRR  HN ES        5 4  1.23                             152    0.8310 70.4 302 
 BRR  HZ I         5 4  4.85         3.6 0.28            152           70.4 302 
 PAM  SZ EP   1    5 3 45.50                             149   -0.07 7 81.3  40 
 RUS  HZ EP   1    5 3 46.98                             144    0.28 7 97.9 174 
 RUS  HE ES        5 4  4.71                             144   -0.1110 97.9 174 
 RUS  HZ I         5 4  6.92         1.6 0.42            145           97.9 174 
 PTB  HZ EP        5 3 49.63                             132   -0.25 9  145 260 
 PTB  HN ES        5 4 10.10                             132   -0.39 9  145 260 
 PTB  HZ I         5 4 12.92         2.5 0.20            132            145 260 
 SPBC HZ EP        5 3 51.64                             129    0.31 9  159 219 
 SPBC HN ES        5 4 12.97                             129   -0.11 9  159 219 
 SPBC HZ I         5 4 18.05         3.2 0.22            130            159 219 
 SML  HE ES   1    5 4 27.78                             117   -0.86 6  245 336 
                                                                                
