 2014  1 6 0741 56.7 L   6.805 -73.179141.6  RSN 12 0.4 2.0LRSN                1
 GAP= 78        0.91       2.5     3.2  5.1 -0.2128E+01  0.5116E+01 -0.1218E+00E
 Epicentro: LOS SANTOS - SANTANDER                                             3
 ACTION:UPD 14-03-13 09:52 OP:ep   STATUS:               ID:20140106074000 L   I
 OLDACT:UPD 14-01-06 11:16 OP:CAM  STATUS:               ID:20140106074000 L   3
 2014-01-06-0740-00M.COL___285                                                 6
 STAT SP IPHASW D HRMM SECON CODA AMPLIT PERI AZIMU VELO AIN AR TRES W  DIS CAZ7
 BAR2 SZ EP        742 16.09                             170    0.2410 23.6 181 
 BAR2 SZ ES        742 30.75                             170   -0.0210 23.6 181 
 BAR2 SZ I         742 32.27        21.8 0.28            165           23.6 181 
 PAM  SZ EP        742 18.84                             149    0.2310 79.4  42 
 PAM  SN ES        742 35.71                             149    0.0210 79.4  42 
 PAM  SZ I         742 38.24        22.6 0.54            156           79.4  42 
 RUS  HZ EP        742 20.04                             143   -0.0910  102 174 
 RUS  HN ES        742 38.63                             143    0.2410  102 174 
 RUS  HZ I         742 39.72         7.7 0.30            146            102 174 
 PTB  HZ EP        742 23.01                             132   -0.02 9  144 258 
 PTB  HN ES        742 43.99                             132    0.45 9  144 258 
 PTB  HZ I         742 46.37        11.3 0.36            128            144 258 
 TAM  HZ EP        742 24.38                             129   -0.05 9  159 105 
 TAM  HZ I         742 24.58        20.8 0.22            139            159 105 
 OCA  HN ES        742 45.95                             129   -0.42 9  159 354 
 SPBC HN ES        742 46.50                             128   -0.07 9  161 218 
 NOR  HZ EP        742 32.00                             118    0.08 8  232 234 
 NOR  HN ES        742 59.10                             118   -0.28 8  232 234 
 NOR  HZ I         743  3.58         6.1 0.46            118            232 234 
 SML  HZ EP        742 32.36                             117   -0.53 8  242 336 
 SML  HN ES        743  0.98                             117   -0.12 8  242 336 
 SML  HZ I         743  4.02        21.4 0.30            117            242 336 
 CHI  HZ EP        742 34.19                             116    0.04 8  248 194 
 CHI  HN ES        743  2.52                             116   -0.82 8  248 194 
 CHI  HZ I         743  9.56         3.2 0.60            118            248 194 
 HEL  HZ EP        742 37.52                             114    1.18 8  269 255 
 HEL  HN ES        743  7.14                             114   -0.10 8  269 255 
 HEL  HZ I         743 15.23         3.5 0.42            114            269 255 
 GUY2CHZ EP        742 40.20                             112    0.37 7  299 234 
 GUY2CHN ES        743 12.79                             112   -0.67 7  299 234 
 GUY2CHZ I         743 22.78         6.0 0.80                           299 234 
                                                                                
