 2015  7 6 0414  4.2 L   6.838 -73.115137.2  RSN  7 0.2 1.7LRSN                1
 GAP=186        0.49       1.9     3.2  3.8  0.1375E+01  0.5966E+01  0.1254E+01E
 Epicentro: LOS SANTOS - SANTANDER                                             3
 ACTION:UPD 15-09-08 21:47 OP:cam  STATUS:               ID:20150706041404 L   I
 OLDACT:REG 15-07-06 14:32 OP:spq  STATUS:               ID:20150706040743     3
 2015-07-06-0407-43M.COL___328                                                 6
 STAT SP IPHASW D HRMM SECON CODA AMPLIT PERI AZIMU VELO AIN AR TRES W  DIS CAZ7
 BAR2 EZ EP        414 23.06                             168    0.1910 28.2 195 
 BAR2 EZ ES        414 37.54                             168    0.0810 28.2 195 
 BAR2 EZ I         414 39.62         8.4 0.14            168           28.2 195 
 RUS  HZ EP        414 27.45                             141    0.0710  105 178 
 RUS  HN ES        414 45.25                             141   -0.2410  105 178 
 RUS  HZ I         414 47.53         5.6 0.28            144            105 178 
 OCA  HN ES        414 52.57                             128   -0.18 9  157 352 
 OCA  HZ I         414 58.66        14.7 0.34            129            157 352 
 ZAR  HZ EP        414 36.19                             120   -0.04 8  206 291 
 ZAR  HE ES        415  1.33                             120    0.09 8  206 291 
 ZAR  HZ I         415  9.65         3.6 0.22            120            206 291 
 GUY2CHZ EP        414 48.02                             110    0.04 7  306 234 
 GUY2CHE ES        415 22.29                             110    0.14 7  306 234 
 GUY2CHZ I         415 27.56         2.3 0.36                           306 234 
 MON  HZ EP   9    414 50.46                             107   -2.39 0  354 308 
 MON  HN ES        415 27.81                                   -0.63 6  354 308 
 PRA  HZ EP        414 58.08                             105    0.06 6  397 210 
 PRA  HN ES        415 39.75                             105   -0.29 6  397 210 
 PRA  HZ I         415 45.34         2.7 0.32            106            397 210 
                                                                                
