 2017 10 6 0442 31.6 L   7.006 -73.266120.7  RSN 18 0.5 2.2LRSN                1
 GAP= 56        0.98       3.0     2.7  5.4 -0.2512E+00  0.4718E+01  0.1489E+01E
 Epicentro: BETULIA - SANTANDER                                                3
 ACTION:UPD 17-11-07 19:28 OP:rebc STATUS:               ID:20171006044231 L   I
 OLDACT:UP  17-10-06 15:00 OP:dhb  STATUS:               ID:20171006043255     3
 OLDACT:UP  17-10-06 14:59 OP:dhb  STATUS:               ID:20171006043255     3
 OLDACT:REG 17-10-06 12:27 OP:dhb  STATUS:               ID:20171006043255     3
 2017-10-06-0438-00M.COL___435                                                 6
 STAT SP IPHASW D HRMM SECON CODA AMPLIT PERI AZIMU VELO AIN AR TRES W  DIS CAZ7
 BAR2 EZ IP     D  442 49.04                             158   -0.0610 46.7 169 
 BAR2 EZ ES        443  2.73                             158    0.0110 46.7 169 
 PAM  EZ EP        442 50.98                             147    0.0410 72.7  59 
 PAM  EN ES        443  6.44                             147    0.4510 72.7  59 
 PAM  EZ I         443  8.96        20.0 0.24            136           72.7  59 
 RUS  HZ EP        442 54.70                             131   -0.4310  125 171 
 RUS  HE ES        443 13.03                             131   -0.4210  125 171 
 RUS  HZ I         443 15.07        26.2 0.32            118            125 171 
 SPBC HZ EP        442 59.49                             121   -0.01 9  174 211 
 SPBC HN ES        443 20.18                             121   -1.05 9  174 211 
 SPBC HZ I         443 26.52        14.8 0.13            110            174 211 
 TAM  HZ EP        442 59.60                             120    0.10 9  175 111 
 TAM  HE ES        443 21.32                             120    0.09 9  175 111 
 TAM  HZ I         443 27.68        19.2 0.38            110            175 111 
 ZAR  HZ EP        443  0.07                             119   -0.33 9  184 287 
 ZAR  HE ES        443 23.41                             119    0.58 9  184 287 
 ZAR  HZ I         443 27.26        29.0 0.42            111            184 287 
 YPLC HZ EP        443  2.42                             116   -0.16 9  203 151 
 YPLC HE ES        443 27.22                             116    0.50 9  203 151 
 NOR  HZ EP        443  6.98                             112    0.50 8  239 228 
 NOR  HE ES        443 34.34                             112    0.68 8  239 228 
 NOR  HZ I         443 37.44        11.7 0.26            105            239 228 
 URE  HZ EP   9    443  7.47                             110   -1.79 0  263 288 
 URE  HE ES        443 36.10                             110   -0.72 8  263 288 
 URE  HZ I         443 39.64        16.2 0.12            104            263 288 
 CHI  HZ EP        443 10.10                             110   -0.17 8  268 191 
 CHI  HE ES        443 40.29                             110   -0.12 8  268 191 
 GUY2CHZ EP   3    443 16.18                             107    1.57 2  305 230 
 GUY2CHE ES        443 48.15                             107    0.02 7  305 230 
 GUY2CHZ I         443 58.75         7.4 0.56                           305 230 
 ELA  HZ EP   3    443 19.45                             105    1.22 2  335 225 
 ELA  HE ES        443 54.96                             105    0.40 7  335 225 
 ELA  HZ I         444  1.06         4.6 0.36            100            335 225 
 PTGC HE ES   4    443 51.18                             105   -2.21 0  335 158 
 PTGC HZ I         444 32.94        10.2 0.20            100            335 158 
 APAC HZ EP        443 22.16                             102   -0.63 6  379 285 
 APAC HE ES   3    444  0.66                             102   -2.02 2  379 285 
 APAC HZ I         444  4.18         6.4 0.72             99            379 285 
 SJC  HZ EP   9    443 21.12                             102   -2.22 0  383 327 
 SJC  HE ES        444  0.55                                   -0.89 6  383 327 
 SJC  HZ I         444  3.40         2.6 0.10             99            383 327 
 PRA  HZ EP        443 26.30                             101    0.23 6  406 206 
 PRA  HZ I         444 16.45         4.8 0.25             98            406 206 
 ORTC HZ EP   2    443 27.43                             101    1.27 3  407 213 
 ORTC HE ES   4    444 11.95                             101    3.26 0  407 213 
 ORTC HZ I         444 18.83         2.7 0.33             98            407 213 
 CRJC HZ EP        443 30.20                             100   -0.73 5  446   5 
 CRJC HE ES   3    444 18.19                             100    1.01 1  446   5 
 CRJC HZ I         444 21.83         8.8 0.20             97            446   5 
                                                                                
