 2016  9 6 0444 43.4 L   6.773 -73.113142.1  RSN  8 0.3 1.7LRSN                1
 GAP=142        0.88       3.2     6.0  7.1 -0.1949E+01  0.8222E+00 -0.2956E+01E
 Epicentro: LOS SANTOS - SANTANDER                                             3
 ACTION:UPD 17-08-17 21:07 OP:lp   STATUS:               ID:20160906044443 L   I
 OLDACT:UP  16-09-06 15:21 OP:dani STATUS:               ID:20160906043742     3
 OLDACT:REG 16-09-06 12:24 OP:dani STATUS:               ID:20160906043742     3
 2016-09-06-0438-00M.COL___367                                                 6
 STAT SP IPHASW D HRMM SECON CODA AMPLIT PERI AZIMU VELO AIN AR TRES W  DIS CAZ7
 BRR  HZ EP        445  4.52                             150    0.0510 75.7 299 
 BRR  HE ES        445 20.67                             150   -0.1910 75.7 299 
 BRR  HZ I         445 22.87         9.8 0.26            139           75.7 299 
 PAM  EZ EP        445  5.68                             150    0.4010 77.5  36 
 PAM  HE ES   4    445 24.20                             150    1.89 0 77.5  36 
 PAM  EZ I         445 26.66         2.8 0.25            141           77.5  36 
 RUS  HZ EP        445  6.25                             144   -0.3610 97.5 178 
 RUS  HN ES        445 24.87                             144    0.1910 97.5 178 
 RUS  HZ I         445 25.91         5.5 0.32            140           97.5 178 
 PTB  HZ EP        445 11.15                             131    0.76 9  151 260 
 PTB  HE ES   4    445 30.41                             131   -1.00 0  151 260 
 PTB  HZ I         445 31.97         4.6 0.30            121            151 260 
 SPBC HZ EP        445 11.18                             128   -0.49 9  163 221 
 SPBC HN ES        445 33.63                             128   -0.05 9  163 221 
 SPBC HZ I         445 35.54         5.6 0.20            121            163 221 
 OCA  HZ EP        445 11.47                             128   -0.32 9  164 352 
 OCA  HE ES        445 33.83                             128   -0.08 9  164 352 
 OCA  HZ I         445 40.77        10.0 0.22            118            164 352 
 ZAR  HZ EP        445 16.15                             121    0.04 8  208 293 
 ZAR  HZ I         445 47.62         8.6 0.30            112            208 293 
 GUY2CHZ EP   4    445 28.92                             111    1.89 0  302 236 
 GUY2CHE ES   4    446  3.76                             111    2.74 0  302 236 
 GUY2CHZ I         446  8.85         3.3 0.58                           302 236 
                                                                                
