 2013  4 6 0200 38.0 L   6.331 -73.597109.2  RSN 12 0.4 2.1LRSN                1
 GAP= 54        0.93       2.9     3.0  6.1 -0.3703E+00  0.6337E+01  0.5218E+01E
 Epicentro: SANTA HELENA DEL OPON - SANTANDER                                  3
 ACTION:UPD 13-05-22 14:36 OP:EP   STATUS:               ID:20130406020038 L   I
 2013-04-06-0200-00M.COL___245                                                 6
 STAT SP IPHASW D HRMM SECON CODA AMPLIT PERI AZIMU VELO AIN AR TRES W  DIS CAZ7
 BAR2 SZ EP        2 0 54.93                             152    0.3510 54.2  58 
 BAR2 SZ ES        2 1  7.83                             152    0.3110 54.2  58 
 BAR2 SZ I         2 1  9.29       108.8 0.40            142           54.2  58 
 RUS  HZ EP        2 0 56.21                             143   -0.0810 74.7 130 
 RUS  HN ES   1    2 1 10.30                             143   -0.26 7 74.7 130 
 RUS  HZ I         2 1 13.11        21.8 0.24            131           74.7 130 
 BRR  HZ EP   1    2 0 56.57                             138    0.05 7 86.7 352 
 BRR  HN ES   1    2 1 10.94                             138   -0.03 7 86.7 352 
 BRR  HZ I         2 1 15.09        27.7 0.18            127           86.7 352 
 GIR2 SZ EP        2 0 57.54                             136    0.2210 93.9  28 
 GIR2 SZ ES        2 1 12.68                             136    0.3010 93.9  28 
 GIR2 SZ I         2 1 13.96        34.3 0.28            125           93.9  28 
 PTB  HZ EP        2 0 56.73                             135   -0.7410 97.8 284 
 PTB  HN ES   1    2 1 11.67                             135   -1.00 7 97.8 284 
 PTB  HZ I         2 1 14.31        20.2 0.09            123           97.8 284 
 NOR  HZ EP        2 1  4.39                             119    0.32 9  164 239 
 NOR  HN ES   1    2 1 24.38                             119   -0.03 7  164 239 
 NOR  HZ I         2 1 29.85        19.9 0.16            109            164 239 
 ZAR  HZ EP        2 1  6.45                             115   -0.29 9  189 313 
 ZAR  HE ES   1    2 1 29.51                             115    0.35 7  189 313 
 ZAR  HZ I         2 1 33.47        31.9 0.30            106            189 313 
 CHI  HZ EP        2 1  7.05                             115   -0.13 9  189 185 
 CHI  HN ES   1    2 1 29.62                             115   -0.31 7  189 185 
 CHI  HZ I         2 1 32.67         7.0 0.44            106            189 185 
 TAM  HZ EP        2 1  7.76                             113   -0.20 9  200  87 
 OCA  HN ES   1    2 1 33.71                             112   -0.49 6  213   8 
 HEL  HZ EP        2 1 10.44                             112    0.46 8  214 266 
 HEL  HE ES   1    2 1 35.77                             112    0.85 6  214 266 
 HEL  HZ I         2 1 38.80         7.3 0.22            104            214 266 
 PRA  HZ EP   1    2 1 21.84                             103   -0.38 5  323 206 
 PRA  HN ES   1    2 1 57.43                             103    0.72 5  323 206 
 PRA  HZ I         2 2  4.86         9.2 0.34             98            323 206 
                                                                                
