 2017  1 6 0443  2.4 L   6.804 -73.150146.7  RSN 12 0.5 1.5LRSN                1
 GAP=102        1.11       4.1     3.8  6.1 -0.1130E+00  0.4869E+01  0.3808E+01E
 Epicentro: LOS SANTOS - SANTANDER                                             3
 ACTION:UPD 17-05-22 15:56 OP:jn   STATUS:               ID:20170106044302 L   I
 OLDACT:UP  17-01-06 15:25 OP:and  STATUS:               ID:20170106043741     3
 OLDACT:REG 17-01-06 12:36 OP:and  STATUS:               ID:20170106043741     3
 2017-01-06-0438-00M.COL___375                                                 6
 STAT SP IPHASW D HRMM SECON CODA AMPLIT PERI AZIMU VELO AIN AR TRES W  DIS CAZ7
 BAR2 EZ EP        443 21.82                             170   -0.2910 23.7 189 
 BAR2 EZ ES        443 37.25                             170   -0.2710 23.7 189 
 BAR2 EZ I         443 39.63         9.0 0.32            167           23.7 189 
 BRR  HZ EP        443 23.60                             153    0.0310 70.6 298 
 BRR  HN ES        443 40.81                             153    0.6910 70.6 298 
 BRR  HZ I         443 43.21         5.7 0.28            149           70.6 298 
 PAM  EZ IP     C  443 24.78                             151    0.1110 77.3  40 
 PAM  EN ES        443 42.06                             151   -0.0110 77.3  40 
 PAM  EZ I         443 44.02         4.6 0.30            155           77.3  40 
 RUS  HZ EP        443 26.09                             144   -0.1510  101 176 
 RUS  HN ES        443 45.13                             144    0.2610  101 176 
 RUS  HZ I         443 45.73         8.1 0.28            143            101 176 
 PTB  HZ EP        443 28.63                             132   -0.74 9  147 259 
 PTB  HN ES        443 49.68                             132   -0.76 9  147 259 
 PTB  HZ I         443 50.64         3.4 0.16            130            147 259 
 TAM  HZ IP     D  443 30.23                             131    0.07 9  156 105 
 ZAR  HZ EP        443 34.54                             123   -0.26 9  203 292 
 ZAR  HN ES        444  0.49                             123    0.38 9  203 292 
 ZAR  HZ I         444 10.18         2.5 0.12            121            203 292 
 NOR  HN ES        444  5.42                             119   -0.62 8  235 234 
 NOR  HZ I         444 13.67         2.7 0.18            117            235 234 
 CHI  HZ EP        443 40.24                             117    0.09 8  249 195 
 CHI  HN ES        444 10.41                             117    0.79 8  249 195 
 CHI  HZ I         444 17.70         1.4 0.40            117            249 195 
 GUY2CHZ EP   4    443 49.15                             112    3.15 0  301 235 
 GUY2CHE ES   4    444 24.64                             112    4.60 0  301 235 
 GUY2CHZ I         444 27.06         1.6 0.54                           301 235 
 PTGC HZ EP   9    443 45.09                             112   -1.24 0  309 159 
 PTGC HE ES        444 18.84                             112   -0.55 7  309 159 
 CBOC HZ EP        443 50.07                             110    0.79 7  333 252 
 CBOC HE ES        444 26.55                             110    0.67 7  333 252 
 CBOC HZ I         444 42.83         0.4 0.28            109            333 252 
                                                                                
