 2017  2 6 0433 41.6 L   6.762 -73.201145.1  RSN  5 0.4 1.3LRSN                1
 GAP=228        1.11       6.2     7.7  8.0  0.1850E+02  0.1062E+02  0.1483E+02E
 Epicentro: ZAPATOCA - SANTANDER                                               3
 ACTION:UPD 17-05-24 15:33 OP:jn   STATUS:               ID:20170206043341 L   I
 OLDACT:UP  17-02-06 18:17 OP:edw  STATUS:               ID:20170206042747d    3
 OLDACT:UP  17-02-06 18:16 OP:edw  STATUS:               ID:20170206042747d    3
 OLDACT:DUP 17-02-06 18:13 OP:edw  STATUS:               ID:20170206042747d    3
 2017-02-06-0428-00M.COL___325                                                 6
 STAT SP IPHASW D HRMM SECON CODA AMPLIT PERI AZIMU VELO AIN AR TRES W  DIS CAZ7
 BAR2 EZ EP        434  0.71                             172   -0.3910 18.9 174 
 BAR2 EZ ES        434 16.09                             172   -0.2010 18.9 174 
 BAR2 EZ I         434 17.36         7.3 0.24            164           18.9 174 
 BRR  HZ EP        434  2.75                             153    0.2110 68.1 304 
 BRR  HN ES        434 19.66                             153    0.8110 68.1 304 
 RUS  HZ EP        434  4.94                             145   -0.1210 97.1 172 
 RUS  HN ES        434 23.16                             145   -0.1810 97.1 172 
 RUS  HZ I         434 24.80         3.9 0.38            142           97.1 172 
 PTB  HZ EP        434  7.71                             133   -0.22 9  141 260 
 PTB  HN ES        434 27.81                             133   -0.64 9  141 260 
 PTB  HZ I         434 35.34         1.7 0.14            129            141 260 
 ZAR  HN ES   4    434 33.13                             123   -5.44 0  200 294 
 CHI  HZ EP        434 19.03                             118    0.34 8  243 194 
 CHI  HN ES        434 48.25                             118    0.66 8  243 194 
 CHI  HZ I         434 54.43         1.1 0.30            116            243 194 
                                                                                
