 2016  5 6 0515  8.6 L   6.790 -73.136148.2  RSN  5 0.3 1.3LRSN                1
 GAP=238        0.75       4.3     5.2  6.2  0.1108E+02 -0.1583E+01 -0.3495E+01E
 Epicentro: LOS SANTOS - SANTANDER                                             3
 ACTION:UPD 16-08-18 17:42 OP:cam  STATUS:               ID:20160506051508 L   I
 OLDACT:DUP 16-05-06 16:06 OP:ak   STATUS:               ID:20160506050745d    3
 2016-05-06-0507-44M.COL___292                                                 6
 STAT SP IPHASW D HRMM SECON CODA AMPLIT PERI AZIMU VELO AIN AR TRES W  DIS CAZ7
 BRR  HZ IP     C  515 30.35                             152    0.2510 72.7 299 
 BRR  HN ES        515 46.95                             152    0.0910 72.7 299 
 BRR  HZ I         515 48.06         8.8 0.05            148           72.7 299 
 RUS  HZ EP        515 32.42                             145   -0.0910 99.4 177 
 RUS  HN ES        515 50.98                             145   -0.1810 99.4 177 
 RUS  HZ I         515 52.63         1.8 0.30            144           99.4 177 
 PTB  HZ EP        515 35.25                             132   -0.60 9  149 259 
 PTB  HE ES        515 57.27                             132    0.18 9  149 259 
 PTB  HZ I         516  4.76         1.3 0.15            129            149 259 
 SPBC HZ EP        515 37.83                             130    0.56 9  163 220 
 SPBC HN ES        515 59.62                             130   -0.01 9  163 220 
 SPBC HZ I         516  2.90         2.2 0.08            128            163 220 
 ZAR  HZ EP        515 41.35                             123   -0.00 8  205 292 
 ZAR  HN ES        516  6.68                             123   -0.22 8  205 292 
 ZAR  HZ I         516 12.41         1.6 0.21            122            205 292 
                                                                                
