 2017  4 6 0334 34.1 L   6.790 -73.098143.6  RSN 10 0.2 1.8LRSN                1
 GAP=143        0.62       2.2     2.6  3.6 -0.1941E+00  0.1735E+01  0.1250E+01E
 Epicentro: LOS SANTOS - SANTANDER                                             3
 ACTION:UPD 17-05-30 21:08 OP:jn   STATUS:               ID:20170406033434 L   I
 OLDACT:DUP 17-04-06 15:10 OP:cara STATUS:               ID:20170406032748d    3
 2017-04-06-0328-00M.COL___359                                                 6
 STAT SP IPHASW D HRMM SECON CODA AMPLIT PERI AZIMU VELO AIN AR TRES W  DIS CAZ7
 BAR2 EZ IP     C  334 53.47                             170   -0.0510 23.8 203 
 BAR2 EZ ES        335  8.49                             170   -0.1410 23.8 203 
 BAR2 EZ I         335  9.80        12.1 0.24            167           23.8 203 
 PAM  EZ EP     C  334 56.26                             151    0.2810 75.0  36 
 PAM  EN ES        335 12.88                             151   -0.1410 75.0  36 
 PAM  EZ I         335 15.50         9.4 0.44            154           75.0  36 
 BRR  HZ EP     C  334 55.31                             150   -0.0510 76.4 297 
 BRR  HN ES        335 12.17                             150    0.2610 76.4 297 
 BRR  HZ I         335 13.18        11.7 0.12            146           76.4 297 
 RUS  HZ EP        334 57.53                             144   -0.0510 99.3 179 
 RUS  HN ES        335 15.82                             144   -0.0510 99.3 179 
 RUS  HZ I         335 16.82         4.8 0.44            145           99.3 179 
 PTB  HZ EP   9    335  0.38                             130   -1.01 0  153 260 
 PTB  HN ES        335 21.24                                   -0.40 9  153 260 
 PTB  HZ I         335 28.44         9.6 0.30            128            153 260 
 SPBC HZ EP        335  2.50                             128   -0.22 9  166 221 
 SPBC HN ES        335 24.66                             128   -0.35 9  166 221 
 SPBC HZ I         335 32.75         8.2 0.24            127            166 221 
 ZAR  HZ EP        335  6.73                             121   -0.27 8  209 292 
 ZAR  HN ES        335 32.88                             121    0.25 8  209 292 
 ZAR  HZ I         335 38.15         9.0 0.26            120            209 292 
 CHI  HZ EP        335 11.94                             116    0.18 8  249 196 
 CHI  HN ES        335 41.67                             116    0.57 8  249 196 
 HEL  HN ES        335 46.42                             114   -0.07 7  277 256 
 HEL  HZ I         335 52.20         4.6 0.42            113            277 256 
 URE  HZ EP   4    335 14.26                             112   -1.44 0  289 292 
 URE  HN ES   4    335 44.89                             112   -3.23 0  289 292 
 URE  HZ I         335 56.66         3.6 0.36            112            289 292 
                                                                                
