 2014  1 6 0203 32.0 L   6.843 -73.156146.3  RSN 12 0.5 1.9LRSN                1
 GAP=133        1.15       3.0     4.5  6.1 -0.1533E+01  0.6440E+01 -0.5108E+00E
 Epicentro: LOS SANTOS - SANTANDER                                             3
 ACTION:UPD 14-03-13 09:52 OP:ep   STATUS:               ID:20140106020332 L   I
 OLDACT:REG 14-01-06 09:02 OP:y    STATUS:               ID:20140106020000     3
 2014-01-06-0200-00M.COL___285                                                 6
 STAT SP IPHASW D HRMM SECON CODA AMPLIT PERI AZIMU VELO AIN AR TRES W  DIS CAZ7
 BAR2 SZ EP        2 3 51.94                             169    0.1510 27.9 186 
 BAR2 SZ ES        2 4  6.28                             169   -0.9510 27.9 186 
 BAR2 SZ I         2 4  7.97        21.6 0.64            168           27.9 186 
 BRR  HZ EP        2 3 53.57                             154    0.5410 68.0 295 
 BRR  HN ES        2 4 10.57                             154    1.1410 68.0 295 
 BRR  HZ I         2 4 13.68        15.6 0.32            151           68.0 295 
 PAM  SZ EP        2 3 54.34                             152    0.2310 74.5  43 
 PAM  SN ES        2 4 11.40                             152    0.0510 74.5  43 
 PAM  SZ I         2 4 12.51         7.8 0.24            155           74.5  43 
 RUS  HZ EP        2 3 56.36                             143    0.2010  105 176 
 RUS  HN ES        2 4 15.00                             143    0.0110  105 176 
 RUS  HZ I         2 4 16.60         5.4 0.32            144            105 176 
 PTB  HZ EP        2 3 59.12                             132    0.12 9  148 257 
 PTB  HN ES        2 4 20.11                             132    0.05 9  148 257 
 PTB  HZ I         2 4 22.86         9.5 0.10            131            148 257 
 OCA  HZ EP        2 3 59.55                             131   -0.35 9  155 353 
 OCA  HN ES        2 4 21.40                             131   -0.26 9  155 353 
 OCA  HZ I         2 4 25.36        14.9 0.26            132            155 353 
 SPBC HN ES        2 4 23.14                             129   -0.17 9  166 218 
 ZAR  HZ EP        2 4  4.03                             123   -0.16 9  201 291 
 ZAR  HN ES        2 4 28.81                             123   -0.49 9  201 291 
 ZAR  HZ I         2 4 36.24        12.1 0.54            123            201 291 
 NOR  HZ EP        2 4  8.54                             118    0.58 8  237 233 
 NOR  HE ES        2 4 35.85                             118   -0.16 8  237 233 
 NOR  HZ I         2 4 43.63         5.8 0.20            119            237 233 
 SML  HZ EP        2 4  7.62                             118   -0.52 8  239 335 
 SML  HN ES        2 4 36.14                             118   -0.19 8  239 335 
 SML  HZ I         2 4 40.12        17.3 0.10            119            239 335 
 CHI  HZ EP        2 4 10.48                             117    0.28 8  253 195 
 CHI  HN ES        2 4 39.40                             117   -0.59 8  253 195 
 CHI  HZ I         2 4 45.67         5.1 0.28            118            253 195 
 GUY2CHZ EP   4    2 4 17.66                             112    1.82 0  303 234 
 GUY2CHN ES   4    2 4 52.99                             112    2.95 0  303 234 
 GUY2CHZ I         2 5  0.48         4.1 0.30                           303 234 
                                                                                
