 2011  5 6 0340 51.9 L   6.786 -73.072140.3  RSN  5 0.2 1.7LRSN                1
 GAP=164        0.51       2.8     5.4  5.5  0.2545E+00 -0.1439E+02 -0.2944E+01E
 Epicentro: LOS SANTOS - SANTANDER                                             3
 ACTION:UP  11-06-29 08:51 OP:tino STATUS:               ID:20110506034051 L   I
 2011-05-06-0339-03S.COL___132                                                 6
 STAT SP IPHASW D HRMM SECON CODA AMPLIT PERI AZIMU VELO SNR AR TRES W  DIS CAZ7
 BAR2 SZ EP        341 10.80                             169    -0.110   25 210 
 BAR2 SZ ES   1    341 25.49                             169    -0.2 7   25 210 
 BAR2 SZ I         341 26.67        17.0 0.11                            25 210 
 BRR  HZ EP   1    341 12.70                             149    -0.2 7   79 297 
 BRR  HE ES        341 29.45                             149     0.110   79 297 
 BRR  HZ I         341 30.72        17.6 0.17                            79 297 
 RUS  HZ EP   1    341 14.83                             143    -0.1 7   99 181 
 RUS  HN ES   1    341 33.24                             143     0.3 7   99 181 
 RUS  HZ I         341 34.99         8.3 0.22                            99 181 
 BRI  SZ EP   1    341 15.40                             140     0.2 7  107  16 
 BRI  SZ I         341 36.94         5.9 0.35                           107  16 
 GRA  SZ EP        341 16.66                             136     0.110  125  14 
 GRA  SZ ES   1    341 35.70                             136    -0.1 7  125  14 
 GRA  SZ I         341 37.52         6.8 0.29                           125  14 
                                                                                
