 2017  9 6 0613 37.1 L   6.531 -73.527107.1  RSN 11 0.6 1.8LRSN                1
 GAP= 67        1.17       3.6     3.5  8.8 -0.2573E-01  0.1330E+02  0.5985E+01E
 Epicentro: EL CARMEN - SANTANDER                                              3
 ACTION:UPD 17-10-05 19:09 OP:rebc STATUS:               ID:20170906061337 L   I
 OLDACT:UP  17-09-06 16:34 OP:dnl  STATUS:               ID:20170906060745     3
 OLDACT:UP  17-09-06 16:33 OP:dnl  STATUS:               ID:20170906060745     3
 OLDACT:UP  17-09-06 16:33 OP:dnl  STATUS:               ID:20170906060745     3
 OLDACT:REG 17-09-06 12:55 OP:dnl  STATUS:               ID:20170906060745     3
 2017-09-06-0608-00M.COL___423                                                 6
 STAT SP IPHASW D HRMM SECON CODA AMPLIT PERI AZIMU VELO AIN AR TRES W  DIS CAZ7
 BAR2 EZ IP     D  613 52.64                             159   -0.0510 38.8  80 
 BAR2 EZ ES        614  5.03                             159    0.2010 38.8  80 
 BAR2 EZ I         614  6.13        39.7 0.20            159           38.8  80 
 BRR  HZ EP   2    613 53.98                             145    0.02 5 66.9 342 
 BRR  HE ES        614  7.71                             145    0.6210 66.9 342 
 BRR  HZ I         614  8.18        15.3 0.10            144           66.9 342 
 RUS  HZ EP   2    613 55.72                             139   -0.37 5 86.0 145 
 RUS  HN ES        614 10.47                             139   -0.4110 86.0 145 
 RUS  HZ I         614 13.70         6.0 0.24            138           86.0 145 
 SPBC HZ EP   4    614  0.92                             129    2.88 0  114 212 
 SPBC HN ES        614 13.72                             129   -0.6310  114 212 
 SPBC HZ I         614 15.19        16.4 0.10            128            114 212 
 PAM  EZ EP   2    613 59.90                             126    0.02 5  128  46 
 PAM  EN ES        614 17.00                             126   -0.6210  128  46 
 PAM  EZ I         614 18.76         8.3 0.30            125            128  46 
 YPLC HZ EP   2    614  4.54                             116   -0.10 4  179 135 
 YPLC HN ES        614 27.15                             116    1.06 9  179 135 
 YPLC HZ I         614 28.49        20.2 0.40            115            179 135 
 ZAR  HZ EP   4    614  6.04                             115    1.17 0  181 306 
 ZAR  HN ES        614 26.68                             115    0.17 9  181 306 
 ZAR  HZ I         614 29.24        15.1 0.48            114            181 306 
 NOR  HZ EP   2    614  4.31                             115   -0.80 4  183 234 
 NOR  HN ES        614 26.27                             115   -0.66 9  183 234 
 NOR  HZ I         614 27.96         6.7 0.16            114            183 234 
 HEL  HZ EP   2    614  9.49                             110   -0.70 4  225 260 
 HEL  HN ES        614 36.53                             110    0.56 8  225 260 
 HEL  HZ I         614 40.78         3.9 0.16            109            225 260 
 GUY2CHZ EP   2    614 14.15                             108    0.95 4  250 235 
 GUY2CHE ES        614 41.91                             108    0.57 8  250 235 
 GUY2CHZ I         614 45.91         4.5 0.28                           250 235 
 URE  HZ EP   2    614 12.82                             106   -0.95 4  259 301 
 URE  HE ES   4    614 39.60                             106   -2.75 0  259 301 
 URE  HZ I         614 46.61         4.6 0.14            106            259 301 
                                                                                
