 2014  5 6 0712 58.3 L   6.813 -73.197143.6  RSN  4 0.4 1.4LRSN                1
 GAP=130        0.94       5.0     4.4 10.4 -0.2507E+00  0.1433E+02 -0.1813E+00E
 Epicentro: ZAPATOCA - SANTANDER                                               3
 ACTION:UPD 15-03-16 16:55 OP:nd   STATUS:               ID:20140506071258 L   I
 OLDACT:REG 14-05-06 13:08 OP:carl STATUS:               ID:20140506070809     3
 2014-05-06-0708-09M.COL___236                                                 6
 STAT SP IPHASW D HRMM SECON CODA AMPLIT PERI AZIMU VELO AIN AR TRES W  DIS CAZ7
 PAM  SZ IP     D  713 20.61                             149    0.1310 80.0  43 
 PAM  SN ES        713 37.52                             149   -0.2310 80.0  43 
 PAM  SZ I         713 39.54         3.0 0.30            155           80.0  43 
 RUS  HZ EP        713 21.96                             143   -0.0610  103 173 
 RUS  HN ES        713 40.86                             143    0.3710  103 173 
 PTB  HZ EP        713 24.37                             133   -0.28 9  143 258 
 PTB  HN ES        713 44.64                             133   -0.54 9  143 258 
 PTB  HZ I         713 52.38         4.5 0.42            134            143 258 
 ZAR  HN ES        713 55.46                             123    0.69 9  198 292 
                                                                                
