 2017  3 6 0217  9.0 L   6.750 -73.108143.9  RSN  8 0.2 1.4LRSN                1
 GAP=144        0.58       2.6     3.4  4.8 -0.1768E+01  0.6342E+00  0.8765E+00E
 Epicentro: LOS SANTOS - SANTANDER                                             3
 ACTION:UPD 17-05-25 18:36 OP:jn   STATUS:               ID:20170306021709 L   I
 OLDACT:UP  17-03-06 13:14 OP:and  STATUS:               ID:20170306020745     3
 OLDACT:UP  17-03-06 13:13 OP:and  STATUS:               ID:20170306020745     3
 OLDACT:REG 17-03-06 12:11 OP:and  STATUS:               ID:20170306020745     3
 2017-03-06-0208-00M.COL___393                                                 3
 2017-03-06-0208-00M.COL___393                                                 6
 STAT SP IPHASW D HRMM SECON CODA AMPLIT PERI AZIMU VELO AIN AR TRES W  DIS CAZ7
 BAR2 EZ IP     D  217 28.15                             172   -0.2010 19.3 205 
 BAR2 EZ ES   2    217 43.16                             172   -0.27 5 19.3 205 
 BAR2 EZ I         217 44.10         5.6 0.18            169           19.3 205 
 BRR  HZ IP     D  217 30.15                             150   -0.1910 77.6 301 
 BRR  HN ES        217 47.33                             150    0.3510 77.6 301 
 BRR  HZ I         217 52.92         4.2 0.31            146           77.6 301 
 PAM  EZ EP        217 31.22                             150    0.0710 79.3  35 
 PAM  EN ES        217 48.25                             150   -0.1710 79.3  35 
 PAM  EZ I         217 49.49         2.7 0.22            153           79.3  35 
 RUS  HZ EP        217 32.47                             145    0.2910 94.8 178 
 RUS  HN ES        217 50.39                             145    0.1510 94.8 178 
 RUS  HZ I         217 51.66         4.3 0.25            148           94.8 178 
 PTB  HZ EP   9    217 35.25                             131   -0.88 0  151 261 
 PTB  HN ES   2    217 55.96                             132   -0.43 5  151 261 
 PTB  HZ I         217 59.14         3.0 0.10            130            151 261 
 SPBC HZ EP   2    217 37.54                             129    0.31 5  162 221 
 SPBC HN ES        217 58.88                             129   -0.35 9  162 221 
 SPBC HZ I         218  1.96         4.8 0.10            129            162 221 
 ZAR  HZ EP   2    217 41.85                             121   -0.12 4  210 293 
 ZAR  HN ES   2    218  7.81                             121    0.14 4  210 293 
 ZAR  HZ I         218 13.09         4.4 0.28            121            210 293 
 NOR  HN ES   4    218 10.76                             118   -1.72 0  235 236 
 NOR  HZ I         218 16.96         2.5 0.14            118            235 236 
 SJC  HZ EP   4    218  3.11                             105   -2.23 0  416 327 
 SJC  HN ES   4    218 45.32                             105   -3.94 0  416 327 
                                                                                
