 2010  7 6 0257 22.4 L   6.870 -74.154 69.6  RSN  6 0.4 1.3LRSN                1
 GAP=147        0.87       5.5     5.1 13.7 -0.8659E+01  0.1387E+02  0.7207E+01E
 Epicentro: PUERTO PARRA - SANTANDER                                           3
 ACTION:UPD 10-12-01 15:15 OP:pat  STATUS:               ID:20100706025722 L   I
 2010-07-06-0255-47S.COL___118                                                 6
 STAT SP IPHASW D HRMM SECON CODA AMPLIT PERI AZIMU VELO AIN AR TRES W  DIS CAZ7
 BRR  HZ EP   1    257 34.43                             137    -0.3 8   55  62 
 BRR  HN ES   2    257 44.62                             137     0.3 5   55  62 
 BRR  HZ I         257 45.85         8.4 0.11                            55  62 
 BAR2 SZ EP        257 40.18                             116    -0.510  112 106 
 RUS  HZ EP   1    257 46.94                             107     0.3 7  160 132 
 RUS  HE ES   2    258  5.96                             107     0.5 5  160 132 
 RUS  HZ I         258  9.11         2.6 0.24                           160 132 
 HEL  HZ EP   1    257 48.03                             106     0.5 7  170 244 
 HEL  HN ES   2    258  7.01                             106    -0.2 5  170 244 
 HEL  HZ I         258 10.76         4.7 0.31                           170 244 
 BRI  SZ EP   1    257 48.60                             105     0.4 7  177  58 
 BRI  SZ ES   2    258  9.09                             105     0.8 5  177  58 
 OCA  SZ EP   1    257 47.66                             105    -0.5 7  177  31 
 OCA  SZ ES   2    258  8.66                             105     0.3 5  177  31 
                                                                                
