 2013  5 6 0035 47.8 L   6.802 -73.146150.6  RSN 14 0.4 2.5LRSN                1
 GAP= 71        0.87       3.0     3.3  4.8 -0.1333E+01  0.3366E+01  0.4515E+00E
 Epicentro: LOS SANTOS - SANTANDER                                             3
 ACTION:UPD 13-06-20 09:48 OP:ep   STATUS:               ID:20130506003547 L   I
 2013-05-06-0030-00M.COL___253                                                 6
 STAT SP IPHASW D HRMM SECON CODA AMPLIT PERI AZIMU VELO AIN AR TRES W  DIS CAZ7
 BAR2 SZ EP        036  7.98                             171   -0.0310 23.5 190 
 BAR2 SZ ES   1    036 23.14                             171   -0.63 7 23.5 190 
 BAR2 SZ I         036 24.44       172.0 0.44            170           23.5 190 
 GIR2 SZ EP   1    036  8.06                             168    0.03 7 31.0 350 
 GIR2 SZ ES   1    036 23.99                             168    0.17 7 31.0 350 
 GIR2 SZ I         036 24.93        26.7 0.28            165           31.0 350 
 BRR  HZ IP     C  036  9.85                             153    0.3910 71.0 298 
 BRR  HN ES   1    036 27.12                             153    0.77 7 71.0 298 
 BRR  HZ I         036 28.14        45.5 0.14            149           71.0 298 
 PAM  SZ IP     D  036 10.78                             152    0.2610 77.3  40 
 PAM  SN ES   1    036 27.99                             152   -0.25 7 77.3  40 
 PAM  SZ I         036 30.26        39.7 0.52            153           77.3  40 
 RUS  HZ IP     C  036 11.79                             145   -0.2510  101 176 
 RUS  HN ES   1    036 30.73                             145   -0.22 7  101 176 
 RUS  HZ I         036 32.27        57.1 0.26            145            101 176 
 PTB  HZ EP        036 14.46                             133   -0.70 9  148 259 
 PTB  HN ES   1    036 35.98                             133   -0.52 7  148 259 
 PTB  HZ I         036 37.83        56.1 0.38            131            148 259 
 TAM  HZ IP     D  036 16.19                             132    0.32 9  155 105 
 TAM  HN ES   1    036 37.88                             132    0.11 7  155 105 
 OCA  HZ EP   1    036 16.58                             131    0.12 7  160 353 
 OCA  HN ES   1    036 39.17                             131    0.35 7  160 353 
 OCA  HZ I         036 42.82        32.1 0.30            129            160 353 
 NOR  HZ EP        036 23.82                             119    0.01 8  235 234 
 NOR  HN ES   1    036 52.46                             119    0.55 6  235 234 
 NOR  HZ I         036 57.52        32.4 0.32            118            235 234 
 SML  HZ EP        036 24.59                             118   -0.08 8  243 335 
 SML  HN ES   2    036 52.69                             118   -0.74 4  243 335 
 SML  HZ I         037  0.85        32.7 0.24            117            243 335 
 ROSC BZ EP   4    036 27.67                             118    1.47 0  253 211 
 ROSC BE ES   4    036 57.79                             118    1.64 0  253 211 
 ROSC BZ I         037  3.28        35.1 0.50            117            253 211 
 HEL  HZ EP        036 28.98                             116    0.73 8  272 256 
 HEL  HN ES   1    037  0.09                             116    0.28 6  272 256 
 HEL  HZ I         037  6.95        16.1 0.24            114            272 256 
 COD  HZ EP   1    036 35.66                             110   -0.68 5  348 355 
 COD  HN ES   1    037 13.10                             110   -1.10 5  348 355 
 COD  HZ I         037 21.62         5.9 0.52            109            348 355 
 PRA  HZ EP        036 41.31                             107   -0.19 6  392 210 
 PRA  HN ES   1    037 23.11                             107   -0.28 4  392 210 
 PRA  HZ I         037 30.04        18.5 0.28            107            392 210 
 SJC  HZ EP   4    036 42.09                             106   -1.40 0  409 327 
 SJC  HN ES   4    037 23.03                             106   -3.90 0  409 327 
                                                                                
