 2010  1 6 0817  8.8 L   6.612 -73.500152.0  RSN  4 0.5 1.7LRSN                1
 GAP=180        0.78       5.9    42.4 18.1 -0.1508E+03  0.6794E+03 -0.5552E+02E
 Epicentro: EL CARMEN DE CHUCURI - SANTANDER                                   3
 ACTION:UP  10-08-24 09:42 OP:vdl  STATUS:               ID:20100106081708 L   I
 2010-01-06-0800-00S.COL___095                                                 6
 STAT SP IPHASW D HRMM SECON CODA AMPLIT PERI AZIMU VELO SNR AR TRES W  DIS CAZ7
 BAR2 SZ EP        817 29.39                             166    -0.110   35  94 
 BAR2 SZ ES   1    817 45.84                             166     0.3 7   35  94 
 RUS  BZ EP   3    817 32.01                             147    -0.6 2   92 150 
 RUS  BN ES   3    817 50.43                             147    -0.7 2   92 150 
 RUS  BZ I         817 52.30        17.8 0.35                            92 150 
 OCA  SZ EP        817 39.38                             127    -0.2 9  181   6 
 OCA  SZ ES   2    818  3.74                             127     0.2 4  181   6 
 CHI  HZ EP        817 44.38                             122     0.5 8  221 187 
 CHI  HZ I         817 45.56         2.1 0.22                           221 187 
 CHI  HE ES   2    818 10.11                             122    -1.2 4  221 187 
                                                                                
