 2012 10 6 0001 53.0 L   6.774 -73.125142.6  RSN  5 0.2 1.7LRSN                1
 GAP=140        0.49       3.3     3.5  5.1  0.1651E+01  0.8752E+00 -0.1844E+01E
 Epicentro: LOS SANTOS - SANTANDER                                             3
 ACTION:UPD 12-11-22 17:02 OP:ep   STATUS:               ID:20121006000153 L   I
 2012-10-06-0000-00M.COL___222                                                 6
 STAT SP IPHASW D HRMM SECON CODA AMPLIT PERI AZIMU VELO AIN AR TRES W  DIS CAZ7
 BAR2 SZ ES   1    0 2 26.99                             171   -0.20 7 21.0 197 
 BAR2 SZ I         0 2 28.53        15.6 0.16                          21.0 197 
 BRR  HZ EP   1    0 2 13.81                             151   -0.21 7 74.6 300 
 BRR  HZ I         0 2 14.07         8.8 0.30                          74.6 300 
 BRR  HN ES   1    0 2 30.84                             151    0.44 7 74.6 300 
 BRR  HN I         0 2 31.49        30.6 0.18                          74.6 300 
 PAM  SZ EP        0 2 15.01                             150    0.0610 78.3  37 
 PAM  SZ I         0 2 15.12         5.2 0.20                          78.3  37 
 PAM  SN ES   1    0 2 31.95                             150   -0.10 7 78.3  37 
 PAM  SN I         0 2 32.87        15.8 0.46                          78.3  37 
 RUS  HZ EP   1    0 2 16.44                             144    0.20 7 97.6 177 
 RUS  HE ES   1    0 2 34.29                             144   -0.06 7 97.6 177 
 RUS  HN I         0 2 35.28         2.2 0.28                          97.6 177 
 ZAR  HE ES   1    0 2 50.75                             121   -0.24 6  207 293 
 ZAR  HN I         0 2 57.72         6.1 0.36                           207 293 
                                                                                
