 2012  5 6 0759 52.3 L   6.844 -73.289129.2  RSN  6 0.3 1.8LRSN                1
 GAP=108        0.70       5.0     4.2  6.4  0.1218E+01  0.7531E+01  0.1675E+01E
 Epicentro: ZAPATOCA - SANTANDER                                               3
 ACTION:UP  12-07-05 12:02 OP:pat  STATUS:               ID:20120506075952 L   I
 2012-05-06-0800-00M.COL___192                                                 6
 STAT SP IPHASW D HRMM SECON CODA AMPLIT PERI AZIMU VELO SNR AR TRES W  DIS CAZ7
 BAR2 SZ EP   1    8 0 10.43                             166     0.3 7   30 157 
 BAR2 SZ ES   1    8 0 24.13                             166     0.1 7   30 157 
 BAR2 SZ I         8 0 24.77        41.8 0.30                            30 157 
 BRR  HZ EP   1    8 0 10.75                             155     0.0 7   55 302 
 BRR  HE ES   1    8 0 25.02                             155    -0.2 7   55 302 
 PAM  SZ EP   1    8 0 13.57                             145     0.2 7   85  50 
 PAM  SN ES   1    8 0 29.54                             145    -0.2 7   85  50 
 RUS  HZ EP   1    8 0 15.26                             138     0.2 7  108 168 
 RUS  HN ES   2    8 0 32.26                             138    -0.5 5  108 168 
 PTB  HZ EP   1    8 0 15.90                             131    -0.7 7  133 255 
 PTB  HN ES   2    8 0 36.28                             131     0.7 5  133 255 
 PTB  HZ I         8 0 37.91         4.6 0.11                           133 255 
 ZAR  HZ EP   1    8 0 22.13                             121     0.1 7  187 293 
 ZAR  HN ES   2    8 0 45.27                             121     0.1 4  187 293 
 ZAR  HZ I         8 0 48.97         4.1 0.13                           187 293 
                                                                                
