 2017 10 6 0249 13.8 L   6.846 -73.147143.1  RSN  7 0.4 1.3LRSN                1
 GAP=221        0.93       5.6     5.1  6.6  0.1384E+02  0.1037E+02  0.7784E+01E
 Epicentro: LOS SANTOS - SANTANDER                                             3
 ACTION:UPD 17-11-07 19:28 OP:rebc STATUS:               ID:20171006024913 L   I
 OLDACT:DUP 17-10-06 13:42 OP:dhb  STATUS:               ID:20171006023742d    3
 2017-10-06-0238-00M.COL___435                                                 6
 STAT SP IPHASW D HRMM SECON CODA AMPLIT PERI AZIMU VELO AIN AR TRES W  DIS CAZ7
 BAR2 EZ EP        249 33.49                             168    0.3110 28.3 188 
 BAR2 EZ ES        249 48.20                             168   -0.1310 28.3 188 
 BAR2 EZ I         249 50.64         5.8 0.18            170           28.3 188 
 RUS  HZ EP        249 38.38                             142    0.7610  106 176 
 RUS  HN ES        249 56.28                             142    0.0410  106 176 
 RUS  HZ I         249 56.97         4.3 0.24            146            106 176 
 YPLC HZ EP        249 43.59                             125   -0.22 9  181 152 
 YPLC HN ES        250  6.74                             125   -0.51 9  181 152 
 YPLC HZ I         250 10.46         3.2 0.36            129            181 152 
 ZAR  HE ES        250 10.55                             122   -0.29 9  202 291 
 ZAR  HZ I         250 24.06         2.0 0.06            121            202 291 
 NOR  HZ EP        249 48.99                             118   -0.66 8  238 233 
 NOR  HN ES        250 18.05                             118    0.41 8  238 233 
 NOR  HZ I         250 21.88         1.4 0.22            118            238 233 
 CHI  HZ EP        249 52.02                             116    0.18 8  253 195 
 CHI  HN ES        250 21.39                             116   -0.15 8  253 195 
 CHI  HZ I         250 23.07         1.2 0.34            118            253 195 
 GUY2CHZ EP        249 57.48                             112   -0.09 7  304 234 
 GUY2CHE ES   4    250 36.59                             112    4.85 0  304 234 
 GUY2CHZ I         250 37.97         0.6 0.34                           304 234 
                                                                                
