 2015  3 6 0831 29.1 L   6.807 -73.137142.0  RSN 13 0.5 1.5LRSN                1
 GAP=137        1.17       3.2     4.6  6.2 -0.3258E+01  0.8446E+01  0.1800E+01E
 Epicentro: LOS SANTOS - SANTANDER                                             3
 ACTION:UPD 15-04-30 16:23 OP:nd   STATUS:               ID:20150306083129 L   I
 OLDACT:REG 15-03-06 13:00 OP:spq  STATUS:               ID:20150306082737     3
 2015-03-06-0827-37M.COL___284                                                 6
 STAT SP IPHASW D HRMM SECON CODA AMPLIT PERI AZIMU VELO AIN AR TRES W  DIS CAZ7
 BAR2 EZ EP        831 47.72                             170   -0.5810 24.3 192 
 BAR2 EZ ES        832  3.36                             170    0.0910 24.3 192 
 BAR2 EZ I         832  4.77         6.8 0.26            165           24.3 192 
 BRR  HZ EP        831 50.22                             152    0.3510 71.6 298 
 BRR  HE ES        832  6.95                             152    0.8810 71.6 298 
 BRR  HZ I         832  7.84         4.2 0.30            147           71.6 298 
 PAM  SZ EP        831 51.19                             151    0.3510 76.2  39 
 PAM  SE ES        832  7.32                             151   -0.4910 76.2  39 
 PAM  SZ I         832  9.79         4.3 0.38            149           76.2  39 
 RUS  HZ EP        831 52.95                             143    0.4210  101 177 
 RUS  HE ES        832 11.01                             143    0.1910  101 177 
 RUS  HZ I         832 13.00         4.0 0.36            137            101 177 
 PTB  HN ES        832 16.37                             131   -0.36 9  149 259 
 PTB  HZ I         832 19.52         5.3 0.12            125            149 259 
 OCA  HN ES        832 18.76                             129   -0.10 9  160 353 
 SPBC HZ EP        831 57.48                             128    0.06 9  164 219 
 SPBC HN ES        832 19.35                             128   -0.17 9  164 219 
 SPBC HZ I         832 26.68         6.9 0.32            122            164 219 
 NOR  HN ES        832 31.86                             118   -0.68 8  236 234 
 NOR  HZ I         832 37.48         2.8 0.28            112            236 234 
 SML  HZ EP        832  5.82                             117    0.34 8  243 335 
 SML  HE ES        832 32.77                             117   -1.09 8  243 335 
 SML  HZ I         832 37.51         5.1 0.26            113            243 335 
 CHI  HZ EP        832  6.36                             116   -0.34 8  250 195 
 CHI  HN ES        832 35.58                             116   -0.45 8  250 195 
 CHI  HZ I         832 42.12         1.6 0.26            111            250 195 
 HEL  HZ EP        832 10.10                             114    0.86 8  273 256 
 HEL  HN ES        832 40.89                             114    0.34 8  273 256 
 HEL  HZ I         832 48.02         2.1 0.58            109            273 256 
 GUY2CHZ EP        832 13.21                             111    0.54 7  302 235 
 GUY2CHE ES        832 46.53                             111   -0.13 7  302 235 
 GUY2CHZ I         832 54.57         1.8 0.56                           302 235 
 TOL  SZ EP        832 16.86                             109   -0.48 7  345 225 
 TOL  SZ I         833  1.51         1.6 0.56            104            345 225 
 MON  HN ES   4    832 54.11                             108   -2.00 0  354 308 
                                                                                
