 2013  2 6 0502 45.2 L   6.778 -73.162146.5  RSN  6 0.4 1.4LRSN                1
 GAP=135        0.93       5.8     5.4  7.0  0.1131E+01 -0.2343E+01  0.4660E+01E
 Epicentro: LOS SANTOS - SANTANDER                                             3
 ACTION:UPD 13-03-12 09:30 OP:ep   STATUS:               ID:20130206050245 L   I
 2013-02-06-0500-00M.COL___240                                                 6
 STAT SP IPHASW D HRMM SECON CODA AMPLIT PERI AZIMU VELO AIN AR TRES W  DIS CAZ7
 BAR2 SZ EP   2    5 3  5.54                             172    0.64 5 20.6 186 
 BAR2 SZ ES        5 3 19.70                             172   -0.5410 20.6 186 
 BAR2 SZ I         5 3 20.44        11.9 0.26            155           20.6 186 
 BRR  HZ I         5 3  6.14         4.9 0.12            151           70.9 301 
 BRR  HZ IP     C  5 3  6.25                             153   -0.1910 70.9 301 
 BRR  HN ES        5 3 23.72                             153    0.7310 70.9 301 
 PAM  SZ EP        5 3  7.63                             150   -0.0810 80.4  39 
 PAM  SN ES   2    5 3 24.89                             150   -0.35 5 80.4  39 
 RUS  HZ EP        5 3  9.00                             145    0.1110 98.2 175 
 RUS  HN ES   1    5 3 27.77                             145    0.43 7 98.2 175 
 RUS  HZ I         5 3 28.34         1.7 0.40            129           98.2 175 
 PTB  HZ EP   1    5 3 11.92                             133   -0.14 7  146 260 
 PTB  HN ES        5 3 32.59                             133   -0.39 9  146 260 
 PTB  HZ I         5 3 39.37         2.6 0.42            123            146 260 
 CHI  HZ EP   1    5 3 22.87                             118    0.21 6  246 195 
                                                                                
