 2016  4 6 0937 55.1 L   6.671 -73.174148.4  RSN  7 0.4 1.3LRSN                1
 GAP=223        0.88       5.4     5.9  7.7  0.1189E+02  0.1390E+02 -0.1170E+02E
 Epicentro: VILLANUEVA - SANTANDER                                             3
 ACTION:UPD 16-05-05 14:19 OP:rebc STATUS:               ID:20160406093755 L   I
 OLDACT:UP  16-04-06 18:21 OP:mher STATUS:               ID:20160406092744     3
 OLDACT:REG 16-04-06 12:35 OP:mh   STATUS:               ID:20160406092744     3
 2016-04-06-0927-44M.COL___273                                                 6
 STAT SP IPHASW D HRMM SECON CODA AMPLIT PERI AZIMU VELO AIN AR TRES W  DIS CAZ7
 BAR2 EZ EP        938 15.48                             176    0.5910 8.82 186 
 BAR2 EZ ES        938 30.13                             176   -0.1610 8.82 186 
 BAR2 EZ I    1    938 32.86         5.0 0.41            176           8.82 186 
 RUS  HZ EP   1    938 18.10                             148   -0.11 7 86.7 173 
 RUS  HN ES        938 35.95                             148   -0.2610 86.7 173 
 RUS  HZ I         938 38.10         1.3 0.40            152           86.7 173 
 PTB  HZ EP   1    938 21.14                             134   -0.72 7  143 264 
 PTB  HN ES   1    938 42.25                             134   -0.45 7  143 264 
 PTB  HZ I         938 43.66         2.2 0.16            135            143 264 
 SPBC HZ EP   1    938 22.66                             132    0.01 7  150 221 
 SPBC HN ES        938 44.63                             132    0.52 9  150 221 
 SPBC HZ I         938 46.40         3.2 0.24            134            150 221 
 ZAR  HZ EP        938 27.75                             122   -0.31 8  207 296 
 ZAR  HN ES        938 53.89                             122    0.16 8  207 296 
 ZAR  HZ I         939  1.29         1.7 0.45            124            207 296 
 GUY2CHZ EP   4    938 39.63                             114    1.95 0  291 237 
 GUY2CHN ES   4    939 14.48                             114    3.62 0  291 237 
 GUY2CHZ I         939 20.17         1.3 0.35                           291 237 
 MON  HN ES        939 24.17                             109    0.27 6  360 310 
                                                                                
