 2017  9 6 0246 44.9 L   6.760 -73.108138.1  RSN  9 0.5 1.9LRSN                1
 GAP=143        1.19       4.7     5.0  7.6 -0.4535E+01  0.1569E+02  0.3338E+01E
 Epicentro: LOS SANTOS - SANTANDER                                             3
 ACTION:UPD 17-10-05 19:09 OP:rebc STATUS:               ID:20170906024644 L   I
 OLDACT:REG 17-09-06 12:47 OP:dnl  STATUS:               ID:20170906023741     3
 2017-09-06-0238-00M.COL___428                                                 6
 STAT SP IPHASW D HRMM SECON CODA AMPLIT PERI AZIMU VELO AIN AR TRES W  DIS CAZ7
 BAR2 EZ IP     C  247  3.46                             171   -0.0810 20.3 204 
 BAR2 EZ ES        247 17.51                             171   -0.5710 20.3 204 
 BAR2 EZ I         247 19.11        25.1 0.28            170           20.3 204 
 BRR  HZ IP     C  247  5.37                             149   -0.1910 77.0 300 
 BRR  HN ES        247 22.24                             149    0.5510 77.0 300 
 BRR  HZ I         247 26.66        17.7 0.14            147           77.0 300 
 PAM  EZ EP        247  6.31                             149   -0.0410 78.3  35 
 PAM  EN ES        247 23.24                             149    0.1510 78.3  35 
 PAM  EZ I         247 25.60        16.3 0.46            152           78.3  35 
 RUS  HZ EP        247  7.65                             143    0.0910 96.0 178 
 RUS  HN ES        247 25.82                             143    0.5810 96.0 178 
 RUS  HZ I         247 26.71         7.5 0.24            147           96.0 178 
 SPBC HZ EP   2    247 11.93                             127   -0.82 5  163 221 
 SPBC HN ES        247 33.38                             127   -1.09 9  163 221 
 SPBC HZ I         247 35.45         8.1 0.28            129            163 221 
 ZAR  HZ EP   2    247 16.68                             120   -0.75 4  210 293 
 ZAR  HN ES        247 42.49                             120   -0.32 8  210 293 
 ZAR  HZ I         247 47.24         8.2 0.24            121            210 293 
 NOR  HZ EP        247 20.05                             117   -0.24 8  236 236 
 NOR  HE ES        247 48.91                             117    1.02 8  236 236 
 NOR  HZ I         247 54.38         3.8 0.24            118            236 236 
 HEL  HZ EP        247 25.83                             113    0.77 8  275 257 
 HEL  HE ES        247 56.26                             113   -0.13 8  275 257 
 HEL  HZ I         248  2.45         5.0 0.38            114            275 257 
 GUY2CHZ EP   2    247 28.56                             111    0.30 4  302 236 
 GUY2CHN ES        248  2.16                             111    0.07 7  302 236 
 GUY2CHZ I         248 10.67         2.9 0.46                           302 236 
                                                                                
