 2011 10 6 0851 28.3 L   6.771 -73.107147.3  RSN 10 0.3 2.0LRSN                1
 GAP=143        0.61       3.0     4.6  4.4 -0.2803E+01  0.6401E+01  0.6858E+00E
 Epicentro: LOS SANTOS - SANTANDER                                             3
 ACTION:UPD 12-07-13 16:02 OP:ep   STATUS:               ID:20111006085128 L   I
 2011-10-06-0840-00M.COL___171                                                 6
 STAT SP IPHASW D HRMM SECON CODA AMPLIT PERI AZIMU VELO AIN AR TRES W  DIS CAZ7
 BAR2 SZ IP        851 48.08                             171    0.0210 21.5 203 
 BAR2 SZ ES   1    852  2.85                             171   -0.63 7 21.5 203 
 BAR2 SZ I         852  5.96        18.8 0.22                          21.5 203 
 GIR2 SZ EP   1    851 48.18                             166   -0.07 7 35.3 344 
 GIR2 SZ ES   1    852  4.24                             166    0.42 7 35.3 344 
 BRR  HZ EP   1    851 49.98                             151    0.08 7 76.5 299 
 BRR  HE ES   1    852  7.12                             151    0.36 7 76.5 299 
 BRR  HZ I         852 10.29        28.9 0.20                          76.5 299 
 PAM  SZ EP   1    851 50.87                             151    0.22 7 77.3  36 
 PAM  SE ES   1    852  7.97                             151   -0.13 7 77.3  36 
 RUS  HZ EP   1    851 51.95                             145    0.00 7 97.2 178 
 RUS  HN ES   1    852 10.46                             145    0.06 7 97.2 178 
 RUS  HZ I         852 11.96         8.3 0.40                          97.2 178 
 OCA  SZ EP   1    851 56.94                             129   -0.12 7  164 352 
 OCA  SZ ES   1    852 19.51                             129    0.01 7  164 352 
 OCA  SZ I         852 22.12         7.7 0.16                           164 352 
 ZAR  HZ EP   1    852  0.57                             122   -0.79 6  209 293 
 ZAR  HZ I         852 33.16        12.6 0.24                           209 293 
 NOR  SZ EP   1    852  4.42                             119    0.14 6  236 236 
 NOR  SN ES   1    852 32.24                             119   -0.12 6  236 236 
 HEL  HZ EP   2    852  9.41                             115    0.46 4  275 257 
 HEL  HZ I         852 45.45         4.4 0.23                           275 257 
 PRA  HZ EP   1    852 22.36                             107    0.57 4  391 210 
 PRA  HZ I         853  7.23        11.4 0.34                           391 210 
                                                                                
