 2014  3 6 0123 47.6 L   6.809 -73.133144.3  RSN 18 0.4 2.3LRSN                1
 GAP= 71        0.89       2.5     2.6  4.8 -0.9928E+00  0.3775E+01 -0.2506E-01E
 Epicentro: LOS SANTOS - SANTANDER                                             3
 ACTION:UPD 14-04-09 23:14 OP:nd   STATUS:               ID:20140306012347 L   I
 OLDACT:REG 14-03-06 07:47 OP:nd   STATUS:               ID:20140306012049     3
 2014-03-06-0120-49M.COL___238                                                 6
 STAT SP IPHASW D HRMM SECON CODA AMPLIT PERI AZIMU VELO AIN AR TRES W  DIS CAZ7
 BAR2 SZ EP        124  7.17                             170    0.1310 24.6 193 
 BAR2 SZ ES        124 22.10                             170   -0.1310 24.6 193 
 BAR2 SZ I         124 23.92        55.5 0.26            167           24.6 193 
 PAM  SZ EP        124  9.89                             151    0.3710 75.8  39 
 PAM  SN ES        124 26.88                             151    0.2310 75.8  39 
 PAM  SZ I         124 29.37        29.3 0.48            151           75.8  39 
 RUS  HZ EP        124 11.10                             143   -0.1310  101 177 
 RUS  HN ES        124 29.82                             143    0.1310  101 177 
 RUS  HZ I         124 31.02        13.5 0.50            140            101 177 
 PTB  HZ EP        124 14.04                             131   -0.50 9  149 259 
 PTB  HN ES        124 35.06                             131   -0.53 9  149 259 
 PTB  HZ I         124 41.17        19.5 0.50            128            149 259 
 TAM  HZ EP        124 15.37                             130    0.35 9  154 105 
 TAM  HN ES        124 36.39                             130   -0.05 9  154 105 
 TAM  HZ I         124 38.69        11.5 0.46            128            154 105 
 OCA  HZ EP        124 15.36                             129   -0.32 9  159 353 
 OCA  HN ES        124 37.07                             129   -0.54 9  159 353 
 OCA  HZ I         124 44.12        17.3 0.26            127            159 353 
 SPBC HZ EP        124 16.20                             128    0.10 9  165 219 
 SPBC HN ES        124 38.45                             128    0.09 9  165 219 
 SPBC HZ I         124 43.28        29.8 0.20            125            165 219 
 ZAR  HZ EP        124 20.27                             122    0.27 9  205 292 
 ZAR  HN ES        124 46.00                             122    0.70 9  205 292 
 ZAR  HZ I         124 51.54        23.9 0.30            119            205 292 
 NOR  HZ EP        124 23.31                             118   -0.07 8  236 234 
 NOR  HN ES        124 51.38                             118    0.06 8  236 234 
 NOR  HZ I         124 58.82        12.4 0.36            115            236 234 
 SML  HZ EP        124 23.58                             117   -0.49 8  243 335 
 SML  HN ES   4    124 52.84                             117    0.30 0  243 335 
 SML  HZ I         124 56.29        31.8 0.24            115            243 335 
 CHI  HZ EP     C  124 25.24                             117   -0.08 8  250 195 
 CHI  HN ES        124 54.33                             117   -0.44 8  250 195 
 CHI  HZ I         125  0.58         7.1 0.30            114            250 195 
 ROSC BZ EP   4    124 26.97                             116    1.20 0  254 211 
 ROSC BN ES   4    124 57.55                             116    1.98 0  254 211 
 ROSC BZ I         125  1.84        15.5 0.35            113            254 211 
 HEL  HZ EP        124 28.69                             114    0.82 8  274 256 
 HEL  HN ES        124 59.81                             114    0.50 8  274 256 
 HEL  HZ I         125  5.68         8.3 0.50            112            274 256 
 URE  HZ EP   4    124 27.74                             113   -0.91 0  285 292 
 URE  HE ES   4    124 58.62                             113   -2.09 0  285 292 
 URE  HZ I         125  8.14         9.3 0.24            111            285 292 
 GUY2CHZ EP   4    124 31.17                             112   -0.12 0  303 235 
 GUY2CHN ES   4    125 10.24                             112    4.84 0  303 235 
 GUY2CHZ I         125 13.88        11.1 0.42                           303 235 
 PTGC HZ EP   4    124 30.07                             111   -1.33 0  309 159 
 PTGC HZ I         124 55.24        17.1 0.44            109            309 159 
 PTGC HN ES   4    125  3.75                             111   -1.84 0  309 159 
 ORTC HZ EP   2    124 40.00                             106   -1.61 3  397 216 
 ORTC HN ES        125 23.50                             106   -0.28 6  397 216 
 ORTC HZ I         125 31.93         6.8 0.22            104            397 216 
 SJC  HZ EP   4    124 40.88                             105   -2.18 0  409 327 
 SJC  HN ES   4    125 21.55                             105   -4.80 0  409 327 
 SJC  HZ I         125 26.87         2.3 0.34            104            409 327 
                                                                                
