 2017 10 6 0319 24.2 L   6.718 -73.126142.0  RSN 10 0.4 1.7LRSN                1
 GAP=143        0.86       3.1     4.2  5.3 -0.2731E+01  0.9771E+01  0.1326E+01E
 Epicentro: JORDAN - SANTANDER                                                 3
 ACTION:UPD 17-11-07 19:28 OP:rebc STATUS:               ID:20171006031924 L   I
 OLDACT:UP  17-10-06 14:27 OP:dhb  STATUS:               ID:20171006031741     3
 OLDACT:REG 17-10-06 12:20 OP:dhb  STATUS:               ID:20171006031741     3
 2017-10-06-0318-00M.COL___435                                                 6
 STAT SP IPHASW D HRMM SECON CODA AMPLIT PERI AZIMU VELO AIN AR TRES W  DIS CAZ7
 BAR2 EZ EP        319 43.03                             174   -0.2310 15.2 204 
 BAR2 EZ ES        319 57.86                             174   -0.2410 15.2 204 
 BAR2 EZ I         319 59.29        13.6 0.20            171           15.2 204 
 PAM  EZ IP     C  319 46.38                             148   -0.0210 83.3  34 
 PAM  EE ES        320  3.73                             148    0.0210 83.3  34 
 PAM  EZ I         320  5.77         9.3 0.48            152           83.3  34 
 RUS  HZ EP        319 46.94                             146   -0.0110 91.4 177 
 RUS  HE ES        320  5.27                             146    0.5910 91.4 177 
 RUS  HZ I         320  6.87         3.8 0.38            147           91.4 177 
 SPBC HZ EP        319 51.81                             129   -0.09 9  158 222 
 SPBC HE ES        320 13.26                             129   -0.24 9  158 222 
 SPBC HZ I         320 16.24         9.7 0.20            130            158 222 
 ZAR  HZ EP        319 57.11                             121    0.11 8  210 294 
 ZAR  HE ES        320 22.88                             121    0.32 8  210 294 
 ZAR  HZ I         320 27.26         7.8 0.30            121            210 294 
 NOR  HZ EP        319 59.22                             118   -0.15 8  231 237 
 NOR  HN ES        320 26.98                             118    0.19 8  231 237 
 NOR  HZ I         320 32.16         5.6 0.36            119            231 237 
 CHI  HZ EP        320  0.96                             117    0.14 8  241 196 
 CHI  HE ES        320 28.56                             117   -0.82 8  241 196 
 CHI  HZ I         320 32.78         1.5 0.43            119            241 196 
 URE  HZ EP   2    320  4.27                             112   -1.45 4  289 293 
 URE  HE ES   4    320 35.20                             112   -2.89 0  289 293 
 URE  HZ I         320 41.94         3.3 0.14            113            289 293 
 GUY2CHZ EP        320  7.22                             112   -0.06 7  298 236 
 GUY2CHN ES   4    320 45.06                             112    4.20 0  298 236 
 GUY2CHZ I         320 49.56         3.3 0.56                           298 236 
 PRA  HZ EP        320 17.75                             106    0.93 6  385 211 
 PRA  HE ES        320 58.30                             106    0.45 6  385 211 
 PRA  HZ I         321  3.15         2.0 0.46            107            385 211 
                                                                                
