 2014  9 6 0500 15.9 L   6.328 -73.163176.9  RSN  7 0.5 1.6LRSN                1
 GAP=174        1.09       6.5     6.5  8.5  0.5403E+01  0.7210E+01  0.2294E+01E
 Epicentro: OCAMONTE - SANTANDER                                               3
 ACTION:UPD 14-10-03 23:02 OP:nd   STATUS:               ID:20140906050015 L   I
 OLDACT:REG 14-09-06 12:46 OP:fm   STATUS:               ID:20140906045806     3
 2014-09-06-0458-06M.COL___269                                                 6
 STAT SP IPHASW D HRMM SECON CODA AMPLIT PERI AZIMU VELO AIN AR TRES W  DIS CAZ7
 BAR2 SZ EP        5 0 38.98                             170   -0.4110 29.3 356 
 BAR2 SZ ES   1    5 0 57.78                             170    0.06 7 29.3 356 
 BAR2 SZ I         5 1  0.26         6.4 0.52            170           29.3 356 
 RUS  HZ EP   1    5 0 39.88                             164   -0.43 7 49.0 170 
 RUS  HN ES   1    5 0 58.91                             164   -0.44 7 49.0 170 
 RUS  HZ I         5 1  1.93         2.4 0.44            166           49.0 170 
 BRR  HZ EP        5 0 42.76                             148    0.3410  105 325 
 BRR  HN ES        5 1  3.67                             148    0.5610  105 325 
 BRR  HZ I         5 1  6.82         4.8 0.14            148            105 325 
 SPBC HZ EP        5 0 44.05                             143    0.1210  125 233 
 SPBC HN ES        5 1  6.46                             143    0.6610  125 233 
 SPBC HZ I         5 1  9.77         5.2 0.14            144            125 233 
 PTB  HN ES        5 1  7.56                             139   -0.74 9  145 279 
 PTB  HZ I         5 1 10.03         6.0 0.14            140            145 279 
 ZAR  HN ES        5 1 21.34                             125   -0.27 8  227 305 
 ZAR  HZ I         5 1 26.79         4.1 0.38            127            227 305 
 HEL  HZ EP        5 0 57.28                             122    0.43 8  262 267 
 HEL  HN ES   1    5 1 28.27                             122   -0.52 6  262 267 
 HEL  HZ I         5 1 32.68         2.1 0.24            123            262 267 
                                                                                
