 2015  7 6 0731 42.3 L   6.798 -73.137151.6  RSN  6 0.3 1.4LRSN                1
 GAP=138        0.75       3.3     4.8  7.0  0.2540E+01  0.8859E+01 -0.3042E+01E
 Epicentro: LOS SANTOS - SANTANDER                                             3
 ACTION:UPD 15-09-08 21:47 OP:cam  STATUS:               ID:20150706073142 L   I
 OLDACT:DUP 15-07-06 17:37 OP:spq  STATUS:               ID:20150706072745d    3
 OLDACT:REG 15-07-06 14:46 OP:spq  STATUS:               ID:20150706072744     3
 2015-07-06-0727-44M.COL___331                                                 6
 STAT SP IPHASW D HRMM SECON CODA AMPLIT PERI AZIMU VELO AIN AR TRES W  DIS CAZ7
 BAR2 EZ ES   1    732 18.62                             171    0.17 7 23.3 192 
 BAR2 EZ I         732 19.11        10.3 0.18            171           23.3 192 
 PAM  EZ EP        732  5.47                             152    0.3910 76.9  39 
 PAM  EN ES        732 22.50                             152   -0.3710 76.9  39 
 PAM  EZ I         732 25.34         2.1 0.60            154           76.9  39 
 RUS  HZ EP        732  6.56                             145   -0.0110  100 177 
 RUS  HN ES   1    732 25.46                             145   -0.08 7  100 177 
 RUS  HZ I         732 26.39         3.0 0.22            148            100 177 
 OCA  HZ EP        732 10.71                             131   -0.35 9  161 353 
 OCA  HN ES        732 34.00                             131    0.48 9  161 353 
 OCA  HZ I         732 35.92         4.3 0.26            132            161 353 
 ZAR  HE ES        732 40.87                             123   -0.01 9  205 292 
 ZAR  HZ I         732 45.82         2.6 0.42            124            205 292 
 SML  HN ES   1    732 47.72                             119   -0.44 6  244 335 
                                                                                
