 2010  8 6 0702 17.5 L   6.796 -73.015140.0  RSN  5 0.3 1.4LRSN                1
 GAP=173        0.96       6.1    10.4 13.2 -0.2866E+01 -0.5708E+02 -0.1550E+02E
 Epicentro: CEPITA - SANTANDER                                                 3
 ACTION:UP  10-09-07 10:52 OP:vdl  STATUS:               ID:20100806070217 L   I
 2010-08-06-0657-37S.COL___125                                                 6
 STAT SP IPHASW D HRMM SECON CODA AMPLIT PERI AZIMU VELO SNR AR TRES W  DIS CAZ7
 BAR2 SZ EP   1    7 2 36.51                             168     0.0 7   29 220 
 BAR2 SZ I         7 2 54.17         7.4 1.57                            29 220 
 BRR  HZ EP        7 2 38.34                             147    -0.510   84 294 
 BRR  HZ I         7 2 38.86         6.8 0.53                            84 294 
 BRR  HN ES        7 2 55.75                             147     0.310   84 294 
 RUS  HN ES   1    7 2 58.77                             143     0.1 7  100 184 
 RUS  HZ I         7 2 59.73         4.2 0.08                           100 184 
 GUE  SZ EP   1    7 2 41.88                             139     0.4 7  115   5 
 GUE  SZ I         7 3  1.98         1.3 0.14                           115   5 
 GRA  SZ EP   1    7 2 42.34                             137     0.4 7  123  11 
 GRA  SZ ES   1    7 3  0.67                             137    -0.4 7  123  11 
 GRA  SZ I         7 3  2.98         4.3 0.26                           123  11 
                                                                                
