 2016  1 6 0849  9.2 L   6.764 -73.132148.6  RSN  8 0.3 1.3LRSN                1
 GAP=140        0.88       3.9     3.8  5.9 -0.6564E+00  0.5601E+01 -0.1821E+01E
 Epicentro: LOS SANTOS - SANTANDER                                             3
 ACTION:UPD 16-03-09 23:23 OP:cam  STATUS:               ID:20160106084909 L   I
 OLDACT:REG 16-01-06 12:24 OP:drio STATUS:               ID:20160106084747     3
 2016-01-06-0847-47M.COL___266                                                 6
 STAT SP IPHASW D HRMM SECON CODA AMPLIT PERI AZIMU VELO AIN AR TRES W  DIS CAZ7
 BAR2 EZ IP        849 28.78                             172   -0.2910 19.7 196 
 BAR2 EZ ES        849 44.48                             172   -0.1210 19.7 196 
 BAR2 EZ I         849 46.55         2.8 0.26            170           19.7 196 
 BRR  HZ IP        849 30.80                             152   -0.0110 74.5 301 
 BRR  HN ES        849 48.11                             152    0.4310 74.5 301 
 BRR  HZ I         849 51.12         2.3 0.18            150           74.5 301 
 PAM  EZ IP     C  849 31.68                             151   -0.1410 79.6  37 
 PAM  EN ES        849 49.48                             151   -0.0010 79.6  37 
 PAM  EZ I         849 51.00         3.2 0.50            155           79.6  37 
 RUS  HZ EP     C  849 33.13                             146    0.2210 96.5 177 
 RUS  HN ES        849 51.48                             146    0.0510 96.5 177 
 RUS  HZ I         849 53.02         1.6 0.42            147           96.5 177 
 PTB  HZ EP        849 35.90                             132   -0.53 9  148 260 
 PTB  HN ES        849 57.17                             132   -0.53 9  148 260 
 PTB  HZ I         850  2.65         2.3 0.26            132            148 260 
 SPBC HN ES        850  0.28                             130    0.35 9  161 220 
 SPBC HZ I         850  6.89         3.4 0.24            131            161 220 
 ZAR  HZ EP        849 42.85                             123    0.75 8  207 293 
 ZAR  HN ES        850  7.71                             123   -0.07 8  207 293 
 ZAR  HZ I         850 13.30         2.0 0.56            123            207 293 
 SML  HN ES   4    850 13.87                             118   -1.60 0  248 335 
 SML  HZ I         850 18.45         3.2 0.22            119            248 335 
                                                                                
