 2013  4 6 0822 36.2 L   6.792 -73.186146.0  RSN  9 0.4 1.8LRSN                1
 GAP=179        0.88       3.6     6.1  6.5  0.8434E+01  0.7571E+01  0.4022E+01E
 Epicentro: LOS SANTOS - SANTANDER                                             3
 ACTION:UPD 13-05-22 14:36 OP:EP   STATUS:               ID:20130406082236 L   I
 2013-04-06-0820-00M.COL___245                                                 6
 STAT SP IPHASW D HRMM SECON CODA AMPLIT PERI AZIMU VELO AIN AR TRES W  DIS CAZ7
 BAR2 SZ EP        822 55.71                             171   -0.0810 22.0 179 
 BAR2 SZ ES   1    823 11.07                             171   -0.03 7 22.0 179 
 BAR2 SZ I         823 13.07        18.6 0.24            159           22.0 179 
 BRR  HZ EP        822 57.51                             154    0.3610 67.8 301 
 BRR  HN ES   1    823 14.22                             154    0.70 7 67.8 301 
 BRR  HZ I         823 18.33         9.6 0.18            141           67.8 301 
 RUS  HZ EP        822 59.71                             144   -0.1810  100 173 
 RUS  HE ES        823 18.50                             144    0.0910  100 173 
 RUS  HZ I         823 19.44         6.1 0.22            134            100 173 
 PTB  HZ EP        823  2.17                             133   -0.57 9  143 259 
 PTB  HN ES   1    823 22.74                             133   -0.73 7  143 259 
 PTB  HZ I         823 30.60         8.2 0.30            121            143 259 
 OCA  HN ES   1    823 26.04                             130   -0.62 7  161 355 
 ZAR  HE ES   1    823 33.78                             123    0.52 6  200 293 
 ZAR  HZ I         823 39.95         5.1 0.26            114            200 293 
 SML  HE ES   1    823 41.37                             118    0.18 6  243 336 
 CHI  HZ EP        823 13.83                             117    0.18 8  247 194 
 CHI  HN ES   1    823 42.90                             117    0.01 6  247 194 
 CHI  HZ I         823 46.59         2.8 0.40            110            247 194 
 PRA  HZ EP        823 29.87                             107    0.53 6  389 209 
 PRA  HZ I         824 16.09         2.3 0.42            101            389 209 
                                                                                
