 2014  7 6 0950  0.7 L   6.815 -73.161147.7  RSN 11 0.4 2.1LRSN                1
 GAP=200        0.79       2.8     4.1  5.2  0.1355E+01  0.6842E+01 -0.1255E+01E
 Epicentro: LOS SANTOS - SANTANDER                                             3
 ACTION:UPD 15-03-16 20:41 OP:nd   STATUS:               ID:20140706095000 L   I
 OLDACT:UP  14-07-06 16:38 OP:cam  STATUS:               ID:20140706095000     3
 OLDACT:REG 14-07-06 13:16 OP:cma  STATUS:               ID:20140706095000     3
 2014-07-06-0950-00M.COL___279                                                 6
 STAT SP IPHASW D HRMM SECON CODA AMPLIT PERI AZIMU VELO AIN AR TRES W  DIS CAZ7
 BAR2 SZ IP     D  950 20.63                             170    0.0410 24.7 185 
 BAR2 SZ ES        950 36.63                             170    0.5310 24.7 185 
 BAR2 SZ I         950 38.95        15.8 0.16            167           24.7 185 
 RUS  HZ EP        950 24.70                             144   -0.0610  102 175 
 RUS  HE ES        950 43.00                             144   -0.5310  102 175 
 RUS  HZ I         950 44.43         9.0 0.28            146            102 175 
 PTB  HZ EP        950 27.27                             133   -0.43 9  146 258 
 PTB  HN ES        950 48.55                             133   -0.21 9  146 258 
 PTB  HZ I         950 51.46        13.4 0.12            130            146 258 
 SPBC HZ EP        950 29.59                             129    0.23 9  163 218 
 SPBC HN ES        950 51.64                             129   -0.08 9  163 218 
 SPBC HZ I         950 58.43        22.7 0.24            129            163 218 
 ZAR  HZ EP        950 33.26                             123    0.22 9  202 292 
 ZAR  HN ES        950 58.23                             123   -0.04 9  202 292 
 ZAR  HZ I         951  4.78        13.3 0.20            122            202 292 
 SML  HZ EP   1    950 37.24                             118    0.05 6  242 335 
 SML  HE ES        951  5.90                             118    0.24 8  242 335 
 SML  HZ I         951 12.59        19.6 0.10            119            242 335 
 HEL  HZ EP   4    950 42.65                             115    1.78 0  271 255 
 HEL  HN ES   4    951 14.45                             115    2.24 0  271 255 
 HEL  HZ I         951 20.09         4.8 0.22            115            271 255 
 URE  HZ EP   1    950 41.05                             114   -0.57 6  282 292 
 URE  HN ES   4    951 11.58                             114   -1.95 0  282 292 
 URE  HZ I         951 23.98         7.2 0.28            114            282 292 
 GUY2CHZ EP   4    950 45.88                             113    1.53 0  301 234 
 GUY2CHN ES        951 18.27                             113   -0.12 7  301 234 
 GUY2CHZ I         951 29.77         4.0 0.34                           301 234 
 PRA  HZ EP   1    950 54.44                             107    0.09 4  393 209 
 PRA  HN ES        951 36.03                             107   -0.17 6  393 209 
 PRA  HZ I         951 42.23         6.5 0.32            108            393 209 
 ORTC HZ EP   1    950 54.99                             107    0.27 4  396 216 
 ORTC HN ES        951 38.01                             107    1.15 6  396 216 
 ORTC HZ I         951 42.29         3.2 0.54            108            396 216 
                                                                                
