 2015  3 6 0047 57.7 L   6.456 -73.678107.4  RSN  6 0.4 1.3LRSN                1
 GAP=132        1.00       5.5     4.6  8.7 -0.1622E+02 -0.7147E+01  0.1064E+02E
 Epicentro: SANTA HELENA DEL OPON - SANTANDER                                  3
 ACTION:UPD 15-04-30 16:23 OP:nd   STATUS:               ID:20150306004757 L   I
 OLDACT:DUP 15-03-06 17:58 OP:spq  STATUS:               ID:20150306003750d    3
 2015-03-06-0037-49M.COL___284                                                 6
 STAT SP IPHASW D HRMM SECON CODA AMPLIT PERI AZIMU VELO AIN AR TRES W  DIS CAZ7
 BAR2 EZ EP        048 14.18                             150   -0.0810 56.8  75 
 BAR2 EZ ES   1    048 27.01                             150   -0.16 7 56.8  75 
 BAR2 EZ I         048 28.37        11.5 0.16            154           56.8  75 
 BRR  HZ EP        048 15.11                             143    0.1710 72.1 357 
 BRR  HN ES        048 28.93                             143    0.5510 72.1 357 
 BRR  HZ I         048 32.37         4.5 0.39            149           72.1 357 
 PTB  HZ EP        048 15.57                             138   -0.5210 86.6 276 
 PTB  HN ES        048 29.87                             138   -0.5510 86.6 276 
 PTB  HZ I         048 31.57         4.0 0.29            141           86.6 276 
 SPBC HN ES   1    048 32.28                             134   -0.20 7 99.0 206 
 SPBC HZ I         048 36.17         4.0 0.26            136           99.0 206 
 PAM  SZ EP        048 22.19                             122   -0.09 9  146  48 
 PAM  SE ES        048 41.45                             122    0.01 9  146  48 
 PAM  SZ I         048 42.10         2.0 0.20            127            146  48 
 NOR  HZ EP   1    048 23.76                             118    0.05 7  165 233 
 NOR  HE ES        048 44.82                             118    0.83 9  165 233 
 NOR  HZ I         048 49.72         3.3 0.18            121            165 233 
                                                                                
