 2016 10 6 0607 44.2 L   6.768 -73.174138.0  RSN 10 0.4 1.9LRSN                1
 GAP=134        0.67       3.2     4.6  5.6 -0.7869E+01  0.1230E+02 -0.3099E+01E
 Epicentro: LOS SANTOS - SANTANDER                                             3
 ACTION:UPD 16-11-09 19:16 OP:rebc STATUS:               ID:20161006060744 L   I
 OLDACT:UP  16-10-06 16:19 OP:dnl  STATUS:               ID:20161006055744d    3
 OLDACT:UP  16-10-06 16:19 OP:dnl  STATUS:               ID:20161006055744d    3
 OLDACT:DUP 16-10-06 16:01 OP:dnl  STATUS:               ID:20161006055744d    3
 OLDACT:REG 16-10-06 13:11 OP:dnl  STATUS:               ID:20161006055743     3
 2016-10-06-0558-00M.COL___360                                                 6
 STAT SP IPHASW D HRMM SECON CODA AMPLIT PERI AZIMU VELO AIN AR TRES W  DIS CAZ7
 BAR2 EZ IP     C  6 8  2.91                             172    0.0610 19.4 183 
 BAR2 EZ ES        6 8 17.63                             172    0.2610 19.4 183 
 BAR2 EZ I         6 8 18.97        19.7 0.26            170           19.4 183 
 BRR  HZ EP        6 8  4.80                             152    0.3110 70.3 302 
 BRR  HN ES   4    6 8 21.61                             152    1.32 0 70.3 302 
 BRR  HZ I         6 8 26.19        20.0 0.46            150           70.3 302 
 PAM  EZ EP        6 8  5.76                             148   -0.1610 82.1  40 
 PAM  EN ES        6 8 22.71                             148   -0.1410 82.1  40 
 PAM  EZ I         6 8 23.34        14.3 0.34            154           82.1  40 
 RUS  HZ EP        6 8  6.86                             144   -0.1210 97.3 174 
 RUS  HN ES        6 8 24.93                             144    0.2010 97.3 174 
 RUS  HZ I         6 8 27.28         6.0 0.26            146           97.3 174 
 PTB  HZ EP        6 8  9.78                             131   -0.44 9  144 260 
 PTB  HN ES   4    6 8 29.59                             131   -0.91 0  144 260 
 PTB  HZ I         6 8 34.07        12.2 0.16            131            144 260 
 SPBC HZ EP   3    6 8 12.89                             128    1.21 2  158 219 
 SPBC HN ES        6 8 32.96                             128   -0.14 9  158 219 
 SPBC HZ I         6 8 37.17        14.8 0.14            130            158 219 
 NOR  HZ EP   3    6 8 19.35                             118    0.34 2  230 235 
 NOR  HE ES        6 8 46.21                             118    0.06 8  230 235 
 NOR  HZ I         6 8 48.82         6.4 0.18            119            230 235 
 CHI  HN ES        6 8 49.45                             116   -0.30 8  244 195 
 CHI  HZ I         6 8 53.54         1.8 0.36            119            244 195 
 GUY2CHZ EP   2    6 8 28.22                             111    1.26 4  297 235 
 GUY2CHN ES   4    6 9  2.35                             111    2.06 0  297 235 
 GUY2CHZ I         6 9 10.09         4.1 0.52                           297 235 
 PRA  HN ES   4    6 9 21.06                             106    3.00 0  387 209 
 PRA  HZ I         6 9 23.14         3.2 0.22            108            387 209 
                                                                                
