 2017  1 6 0254 11.5 L   6.793 -73.148144.3  RSN 15 0.7 1.9LRSN                1
 GAP=100        1.16       4.1     3.3  5.9 -0.8203E-01  0.4902E+01  0.3650E+01E
 Epicentro: LOS SANTOS - SANTANDER                                             3
 ACTION:UPD 17-05-22 15:56 OP:jn   STATUS:               ID:20170106025411 L   I
 OLDACT:UP  17-01-06 14:11 OP:and  STATUS:               ID:20170106024741d    3
 OLDACT:UP  17-01-06 14:07 OP:and  STATUS:               ID:20170106024741d    3
 OLDACT:DUP 17-01-06 14:04 OP:and  STATUS:               ID:20170106024741d    3
 OLDACT:UP  17-01-06 14:00 OP:and  STATUS:               ID:20170106024739     3
 OLDACT:REG 17-01-06 12:31 OP:and  STATUS:               ID:20170106024739     3
 2017-01-06-0248-00M.COL___381                                                 6
 STAT SP IPHASW D HRMM SECON CODA AMPLIT PERI AZIMU VELO AIN AR TRES W  DIS CAZ7
 BAR2 EZ EP        254 30.66                             171   -0.2510 22.5 190 
 BAR2 EZ ES        254 45.60                             171   -0.4710 22.5 190 
 BAR2 EZ I         254 48.48        24.7 0.32            168           22.5 190 
 BRR  HZ EP        254 32.47                             152   -0.0110 71.4 299 
 BRR  HN ES        254 49.54                             152    0.6810 71.4 299 
 BRR  HZ I         254 53.51        13.1 0.24            150           71.4 299 
 PAM  EZ EP        254 33.40                             150   -0.1810 78.1  39 
 PAM  EE ES        254 50.83                             150    0.0110 78.1  39 
 PAM  EZ I         254 53.90         8.9 0.54            156           78.1  39 
 RUS  HZ EP        254 34.59                             144   -0.4410 99.8 176 
 RUS  HN ES     D  254 53.67                             144    0.2810 99.8 176 
 RUS  HZ I         254 54.78        11.0 0.28            145           99.8 176 
 PTB  HZ EP        254 37.40                             132   -0.89 9  147 259 
 PTB  HE ES        254 59.13                             132   -0.07 9  147 259 
 PTB  HZ I         255  5.25         8.6 0.17            131            147 259 
 TAM  HZ EP        254 39.09                             130    0.05 9  155 105 
 TAM  HN ES        255  0.86                             130    0.32 9  155 105 
 ZAR  HZ EP        254 44.56                             122    0.72 9  204 292 
 ZAR  HN ES        255  8.71                             122   -0.37 9  204 292 
 ZAR  HZ I         255 13.84        10.2 0.32            122            204 292 
 NOR  HZ EP        254 47.23                             118    0.18 8  234 235 
 NOR  HN ES        255 15.19                             118    0.39 8  234 235 
 NOR  HZ I         255 24.01         4.3 0.19            119            234 235 
 CHI  HZ EP        254 48.96                             117   -0.04 8  248 195 
 CHI  HN ES        255 18.21                             117   -0.06 8  248 195 
 CHI  HZ I         255 21.80         4.6 0.41            118            248 195 
 ROSC BZ EP   9    254 51.42                             116    1.99 0  252 211 
 ROSC BN ES        255 21.51                                    0.49 8  252 211 
 ROSC BZ I         255 25.36        14.8 0.40            117            252 211 
 URE  HZ EP   4    254 56.34                             113    3.85 0  284 292 
 URE  HE ES   4    255 22.00                             113   -2.47 0  284 292 
 URE  HZ I         255 28.98         4.5 0.16            114            284 292 
 GUY2CHZ EP        254 55.86                             112    0.91 7  301 235 
 GUY2CHN ES   4    255 31.75                             112    2.90 0  301 235 
 GUY2CHZ I         255 37.06         5.2 0.62                           301 235 
 PTGC HZ EP   9    254 53.83                             111   -1.36 0  308 159 
 PTGC HN ES        255 27.76                                   -0.17 7  308 159 
 ELA  HZ EP   3    254 53.08                             110   -5.11 2  328 230 
 CBOC HZ EP        254 59.08                             110    0.80 7  333 252 
 CBOC HE ES        255 34.03                             110   -0.75 7  333 252 
 CBOC HZ I         255 49.23         1.2 0.35            110            333 252 
                                                                                
