 2016  5 6 0214 52.8 L   6.775 -73.190140.0  RSN  4 0.3 1.2LRSN                1
 GAP=132        0.74       4.2     3.7  8.7 -0.2075E+01  0.1353E+02 -0.7290E+01E
 Epicentro: ZAPATOCA - SANTANDER                                               3
 ACTION:UPD 16-08-18 17:42 OP:cam  STATUS:               ID:20160506021452 L   I
 OLDACT:UP  16-05-06 14:57 OP:ak   STATUS:               ID:20160506020749d    3
 OLDACT:DUP 16-05-06 14:53 OP:ak   STATUS:               ID:20160506020749d    3
 OLDACT:REG 16-05-06 13:11 OP:ak   STATUS:               ID:20160506020746     3
 2016-05-06-0207-46M.COL___304                                                 6
 STAT SP IPHASW D HRMM SECON CODA AMPLIT PERI AZIMU VELO AIN AR TRES W  DIS CAZ7
 PAM  EZ EP        215 14.60                             148   -0.1510 82.7  41 
 PAM  EN ES        215 31.85                             148   -0.0110 82.7  41 
 PAM  EZ I         215 33.94         3.5 0.52            150           82.7  41 
 RUS  HZ EP   2    215 15.79                             144   -0.04 5 98.3 173 
 RUS  HE ES        215 34.08                             144    0.2910 98.3 173 
 RUS  HZ I         215 34.91         1.1 0.22            148           98.3 173 
 PTB  HZ EP        215 18.47                             132   -0.35 9  142 260 
 PTB  HN ES        215 38.78                             132   -0.33 9  142 260 
 PTB  HZ I         215 40.52         2.2 0.14            133            142 260 
 ZAR  HZ EP   2    215 25.31                             122    0.78 4  201 293 
 ZAR  HN ES        215 49.73                             122    0.47 9  201 293 
 ZAR  HZ I         215 55.91         2.1 0.13            123            201 293 
                                                                                
