 2015  8 6 0717 43.0 L   6.828 -73.118146.5  RSN 27 0.5 2.6LRSN                1
 GAP= 95        1.01       2.4     3.0  4.8 -0.3112E+00  0.3331E+01  0.1387E+01E
 Epicentro: LOS SANTOS - SANTANDER                                             3
 ACTION:UPD 15-09-15 23:00 OP:cam  STATUS:               ID:20150806071743 L   I
 OLDACT:REG 15-08-06 13:08 OP:spq  STATUS:               ID:20150806070748     3
 2015-08-06-0707-48M.COL___349                                                 6
 STAT SP IPHASW D HRMM SECON CODA AMPLIT PERI AZIMU VELO AIN AR TRES W  DIS CAZ7
 BAR2 EZ IP     C  718  2.65                             169   -0.1210 27.0 195 
 BAR2 EZ ES   1    718 17.99                             169   -0.22 7 27.0 195 
 BAR2 EZ I         718 18.99       124.9 0.18            166           27.0 195 
 BRR  HZ IP     D  718  4.41                             152    0.1410 72.5 295 
 BRR  HN ES        718 21.58                             152    0.6910 72.5 295 
 BRR  HZ I         718 24.11        41.6 0.24            149           72.5 295 
 RUS  HZ EP     C  718  6.56                             143   -0.4410  104 178 
 RUS  HN ES        718 25.26                             143   -0.4910  104 178 
 RUS  HZ I         718 26.40        50.1 0.30            143            104 178 
 TAM  HZ IP     D  718 10.89                             131    0.38 9  153 106 
 TAM  HN ES        718 32.58                             131    0.59 9  153 106 
 TAM  HZ I         718 33.24        16.7 0.56            135            153 106 
 OCA  HZ EP        718 10.82                             130   -0.26 9  158 352 
 OCA  HN ES        718 32.84                             130   -0.18 9  158 352 
 OCA  HZ I         718 35.82        95.5 0.22            132            158 352 
 ZAR  HZ EP        718 15.22                             122   -0.42 8  206 291 
 ZAR  HN ES        718 40.74                             122   -0.38 8  206 291 
 ZAR  HZ I         718 49.69        35.5 0.36            122            206 291 
 NOR  HZ EP        718 19.02                             118   -0.18 8  239 234 
 NOR  HN ES        718 47.37                             118   -0.09 8  239 234 
 NOR  HZ I         718 51.89        35.7 0.17            118            239 234 
 SML  HZ EP        718 19.00                             118   -0.47 8  242 334 
 SML  HE ES   1    718 47.80                             118   -0.15 6  242 334 
 SML  HZ I         718 51.17        40.5 0.10            118            242 334 
 CHI  HZ EP        718 20.66                             117   -0.46 8  252 196 
 CHI  HN ES        718 50.44                             117   -0.44 8  252 196 
 CHI  HZ I         718 57.11        14.8 0.40            117            252 196 
 ROSC BZ EP        718 22.36                             116    0.77 8  257 211 
 ROSC BE ES        718 52.54                             116    0.83 8  257 211 
 ROSC BZ I         718 58.42        41.8 0.40            116            257 211 
 HEL  HZ EP        718 24.45                             115    0.82 7  276 255 
 HEL  HE ES   4    718 56.58                             115    1.23 0  276 255 
 HEL  HZ I         719  2.27        18.8 0.50            114            276 255 
 URE  HZ EP   4    718 22.55                             114   -1.71 0  286 291 
 URE  HE ES   4    718 53.75                             114   -2.73 0  286 291 
 URE  HZ I         719  4.86        20.2 0.18            113            286 291 
 GUY2CHZ EP        718 27.80                             112    0.71 7  305 235 
 GUY2CHE ES   1    719  1.51                             112   -0.00 5  305 235 
 GUY2CHZ I         719  9.00        30.6 0.30                           305 235 
 VIL  SZ EP        718 26.19                             112   -0.64 7  307 192 
 VIL  SE ES   1    719  0.82                             112   -0.22 5  307 192 
 VIL  SZ I         719 10.23        18.3 0.50            112            307 192 
 PTGC HZ EP   4    718 25.68                             112   -1.38 0  310 159 
 PTGC HE ES   4    718 58.89                             112   -2.56 0  310 159 
 PTGC HZ I         719  4.58        19.2 0.60            112            310 159 
 ELA  HZ EP   4    718 31.97                             110    1.63 0  333 229 
 ELA  HE ES   1    719  6.70                             110   -0.60 5  333 229 
 ELA  HZ I         719 14.12        17.2 0.30            110            333 229 
 CBOC HZ EP        718 30.57                             110    0.22 7  337 252 
 CBOC HN ES   4    719  5.77                             110   -1.55 0  337 252 
 CBOC HZ I         719 16.20         5.8 0.48            110            337 252 
 DBB  SZ EP        718 30.31                             109   -0.49 7  342 274 
 DBB  SZ ES   4    719  6.43                             109   -1.68 0  342 274 
 DBB  SZ I         719  9.34        25.8 0.40            109            342 274 
 TOL  SZ EP        718 31.95                             109    0.20 6  348 225 
 TOL  SN ES        719  9.65                             109   -0.16 6  348 225 
 TOL  SZ I         719 19.20        19.4 0.40            109            348 225 
 MON  HZ EP   4    718 30.04                             109   -2.01 0  354 308 
 MON  HN ES   4    719  8.55                             109   -1.79 0  354 308 
 MON  HZ I         719 10.84         5.1 0.21            109            354 308 
 ARGC HZ EP        718 33.39                             108    0.96 6  357 340 
 ANIL HZ EP        718 34.10                             108    0.80 6  362 225 
 ANIL HN ES   4    719 13.76                             108    1.19 0  362 225 
 ANIL HZ I         719 17.98        40.1 0.32            108            362 225 
 ORTC HZ EP        718 37.35                             106   -0.06 6  400 216 
 ORTC HN ES        719 20.18                             106    0.30 6  400 216 
 ORTC HZ I         719 26.02        12.4 0.52            106            400 216 
 ELOV BZ EP        718 36.72                             106   -0.91 6  402  87 
 SJC  HZ EP   4    718 36.60                             106   -1.85 0  408 326 
 SJC  HN ES   4    719 17.98                             106   -3.74 0  408 326 
 SJC  HZ I         719 21.51         6.8 0.34            106            408 326 
 PAL  HZ EP        718 38.55                             106   -0.09 6  410 239 
 PAL  HE ES   1    719 21.67                             106   -0.41 4  410 239 
 PAL  HZ I         719 28.30         7.6 0.36            106            410 239 
 CRJC HZ EP   4    718 43.02                             104   -2.08 0  464   3 
 CRJC HN ES   4    719 29.91                             104   -3.65 0  464   3 
 CRJC HZ I         719 40.27         6.2 0.18            104            464   3 
                                                                                
