 2016  8 6 0146  3.1 L   6.748 -73.072154.9  RSN  8 0.4 1.5LRSN                1
 GAP=149        0.86       3.9     4.2  5.0 -0.3513E+01  0.6548E+01 -0.2007E+00E
 Epicentro: JORDAN - SANTANDER                                                 3
 ACTION:UPD 16-10-29 15:32 OP:rebc STATUS:               ID:20160806014603 L   I
 OLDACT:DUP 16-08-06 14:55 OP:edw  STATUS:               ID:20160806013735d    3
 OLDACT:UP  16-08-06 14:54 OP:edw  STATUS:               ID:20160806013734     3
 OLDACT:UP  16-08-06 14:52 OP:edw  STATUS:               ID:20160806013734     3
 OLDACT:UP  16-08-06 14:47 OP:edw  STATUS:               ID:20160806013734     3
 OLDACT:REG 16-08-06 12:15 OP:edw  STATUS:               ID:20160806013734     3
 2016-08-06-0138-00M.COL___368                                                 6
 STAT SP IPHASW D HRMM SECON CODA AMPLIT PERI AZIMU VELO AIN AR TRES W  DIS CAZ7
 BAR2 EZ EP        146 23.79                             172    0.0210 21.1 215 
 BAR2 EZ ES        146 39.88                             172   -0.0310 21.1 215 
 BAR2 EZ I         146 41.13         6.0 0.46                          21.1 215 
 PAM  EZ EP        146 26.47                             152    0.1910 77.3  32 
 PAM  EN ES        146 43.91                             152   -0.4510 77.3  32 
 PAM  EZ I         146 45.94         5.3 0.46                          77.3  32 
 BRR  HZ EP   9    146 25.69                             151   -0.10 0 81.1 299 
 BRR  HN ES        146 43.28                              37   -0.1110 81.1 299 
 RUS  HZ EP        146 27.48                             147    0.1410 94.6 181 
 RUS  HN ES        146 46.50                             147    0.2410 94.6 181 
 RUS  HZ I         146 48.88         1.8 0.28                          94.6 181 
 PTB  HZ EP        146 31.38                             132   -0.06 9  155 262 
 PTB  HN ES   4    146 51.76                             132   -1.79 0  155 262 
 PTB  HZ I         146 57.60         4.0 0.34                           155 262 
 SPBC HZ EP        146 32.72                             131    0.33 9  164 222 
 SPBC HN ES        146 55.33                             131    0.09 9  164 222 
 SPBC HZ I         147  1.03         5.3 0.22                           164 222 
 ZAR  HZ EP        146 36.83                             123   -0.30 8  214 293 
 ZAR  HN ES        147  4.43                             123    0.75 8  214 293 
 NOR  HZ EP        146 39.34                             120   -0.38 8  238 237 
 NOR  HN ES        147  7.54                             120   -0.76 8  238 237 
 NOR  HZ I         147 11.37         2.5 0.18                           238 237 
                                                                                
