 2014  9 6 0029 38.3 L   6.755 -73.220154.9  RSN  8 0.4 1.6LRSN                1
 GAP=190        0.88       4.4     6.4  7.9  0.1493E+02  0.9443E+01  0.6124E+01E
 Epicentro: ZAPATOCA - SANTANDER                                               3
 ACTION:UPD 14-10-03 23:02 OP:nd   STATUS:               ID:20140906002938 L   I
 OLDACT:REG 14-09-06 12:25 OP:fm   STATUS:               ID:20140906002819     3
 2014-09-06-0028-19M.COL___279                                                 6
 STAT SP IPHASW D HRMM SECON CODA AMPLIT PERI AZIMU VELO AIN AR TRES W  DIS CAZ7
 BAR2 SZ ES   1    030 14.47                             173   -0.61 7 18.5 167 
 BAR2 SZ  AMP      030 15.71        13.4 0.12                          18.5 167 
 BRR  HZ EP   1    030  0.09                             156   -0.16 7 66.9 306 
 BRR  HN ES        030 17.88                             156    0.5410 66.9 306 
 BRR  HZ I         030 21.87         6.0 0.42            153           66.9 306 
 RUS  HZ EP   1    030  2.99                             147    0.27 7 96.6 171 
 RUS  HN ES        030 21.94                             147    0.2010 96.6 171 
 RUS  HZ I         030 22.62         4.9 0.26            147           96.6 171 
 PTB  HN ES        030 25.89                             136   -0.42 9  139 260 
 PTB  HZ I         030 28.16         3.9 0.38            134            139 260 
 ZAR  HN ES        030 36.46                             125    0.28 9  198 294 
 ZAR  HZ I         030 40.50         2.6 0.30            124            198 294 
 CHI  HZ EP   1    030 16.17                             120    0.34 6  242 194 
 CHI  HN ES        030 44.77                             120   -0.30 8  242 194 
 CHI  HZ I         030 50.52         2.1 0.54            119            242 194 
 SML  HE ES   1    030 44.04                             119   -0.67 6  245 338 
 SML  HZ I         030 48.46         4.2 0.10            118            245 338 
 GUY2CHZ EP   4    030 25.15                             115    3.83 0  292 235 
 GUY2CHN ES   4    030 58.66                             115    3.82 0  292 235 
 GUY2CHZ I         031  4.12         1.2 0.24                           292 235 
                                                                                
