 2013  3 6 0713 37.9 L   6.807 -73.154149.7  RSN  8 0.3 1.9LRSN                1
 GAP=112        0.75       3.3     4.0  5.0  0.3646E+01 -0.2908E+01 -0.4341E+01E
 Epicentro: LOS SANTOS - SANTANDER                                             3
 ACTION:UPD 13-04-09 14:00 OP:ep   STATUS:               ID:20130306071337 L   I
 2013-03-06-0710-00M.COL___228                                                 6
 STAT SP IPHASW D HRMM SECON CODA AMPLIT PERI AZIMU VELO AIN AR TRES W  DIS CAZ7
 BAR2 SZ IP        713 57.99                             170    0.0010 23.9 188 
 BAR2 SZ ES        714 13.51                             170   -0.1710 23.9 188 
 BAR2 SZ I         714 14.72        18.9 0.40            167           23.9 188 
 BRR  HZ IP     C  713 59.85                             154    0.4610 70.1 298 
 BRR  HN ES        714 16.66                             154    0.4910 70.1 298 
 BRR  HN I         714 17.96        28.7 0.25            149           70.1 298 
 RUS  HZ EP   1    714  2.10                             144    0.02 7  101 176 
 RUS  HN ES   1    714 20.69                             144   -0.26 7  101 176 
 RUS  HN I         714 22.17         6.4 0.23            144            101 176 
 PTB  HZ EP        714  5.04                             133   -0.06 9  147 258 
 PTB  HE ES   1    714 25.76                             133   -0.58 7  147 258 
 PTB  HZ I         714 33.25        12.8 0.29            130            147 258 
 TAM  HZ EP        714  6.13                             131    0.16 9  156 105 
 OCA  HZ EP        714  6.59                             131    0.17 9  159 353 
 OCA  HN ES        714 28.18                             131   -0.50 9  159 353 
 OCA  HZ I         714 31.36         6.8 0.28            131            159 353 
 ZAR  HZ EP   1    714 10.11                             123   -0.36 6  203 292 
 ZAR  HN ES   1    714 36.27                             123    0.38 6  203 292 
 ZAR  HZ I         714 44.27         5.4 0.21            121            203 292 
 SML  HZ EP        714 14.35                             118   -0.27 8  243 335 
 SML  HN ES   1    714 43.29                             118    0.02 6  243 335 
                                                                                
