 2011 11 6 0940 58.4 L   6.769 -73.092143.7  RSN  5 0.2 1.8LRSN                1
 GAP=145        0.38       2.7     4.3  4.5  0.1371E+01 -0.5431E+01 -0.2538E+01E
 Epicentro: LOS SANTOS - SANTANDER                                             3
 ACTION:UPD 12-07-13 16:08 OP:ep   STATUS:               ID:20111106094058 L   I
 2011-11-06-0939-48S.COL___175                                                 6
 STAT SP IPHASW D HRMM SECON CODA AMPLIT PERI AZIMU VELO AIN AR TRES W  DIS CAZ7
 BAR2 SZ EP   1    941 17.52                             171   -0.18 7 21.9 207 
 BAR2 SZ ES   2    941 32.46                             171   -0.34 5 21.9 207 
 BAR2 SZ I         941 35.39        10.6 0.27                          21.9 207 
 PAM  SZ EP        941 20.38                             151    0.0810 76.6  34 
 PAM  SE ES   2    941 37.36                             151   -0.06 5 76.6  34 
 BRR  HZ EP   1    941 19.55                             150   -0.13 7 78.0 299 
 BRR  HN ES   1    941 36.44                             150    0.12 7 78.0 299 
 BRR  HN I         941 37.14        36.7 0.21                          78.0 299 
 RUS  HZ EP   1    941 21.58                             144   -0.05 7 96.9 179 
 RUS  HN ES   1    941 39.99                             144    0.20 7 96.9 179 
 RUS  HZ I         941 41.44         5.6 0.26                          96.9 179 
 OCA  SZ EP   2    941 27.14                             128    0.23 5  165 351 
                                                                                
