 2012 11 6 0933 57.4 L   6.774 -73.027140.4  RSN  5 0.2 1.6LRSN                1
 GAP=195        0.64       3.5     9.1  6.4  0.1759E+02 -0.2380E+02 -0.7808E+01E
 Epicentro: CEPITA - SANTANDER                                                 3
 ACTION:UPD 12-12-05 15:31 OP:}ep  STATUS:               ID:20121106093357 L   I
 2012-11-06-0930-00M.COL___230                                                 6
 STAT SP IPHASW D HRMM SECON CODA AMPLIT PERI AZIMU VELO AIN AR TRES W  DIS CAZ7
 BAR2 SZ EP        934 16.46                             169   -0.0110 26.4 220 
 BAR2 SZ I         934 16.58         9.6 0.18                          26.4 220 
 BAR2 SZ ES        934 31.13                             169   -0.2010 26.4 220 
 GIR2 SZ EP        934 16.90                             164    0.2210 38.4 331 
 BRR  HZ EP        934 18.34                             147   -0.4610 84.1 296 
 BRR  HN ES        934 35.74                             147    0.2710 84.1 296 
 BRR  HN I         934 36.40        15.3 0.18                          84.1 296 
 RUS  HZ EP        934 20.64                             143    0.2110 97.6 184 
 RUS  HN ES        934 38.36                             143   -0.0210 97.6 184 
 RUS  HN I         934 40.96         3.4 0.22                          97.6 184 
 OCA  HN ES        934 47.91                             127   -0.01 9  165 349 
                                                                                
