 2011 11 6 0044 46.0 L   6.798 -73.112138.0  RSN  8 0.3 1.8LRSN                1
 GAP=141        0.62       3.4     4.3  5.2 -0.9424E+00  0.3109E+01 -0.1083E+01E
 Epicentro: LOS SANTOS - SANTANDER                                             3
 ACTION:UPD 12-07-13 16:08 OP:ep   STATUS:               ID:20111106004446 L   I
 2011-11-06-0042-00S.COL___174                                                 6
 STAT SP IPHASW D HRMM SECON CODA AMPLIT PERI AZIMU VELO AIN AR TRES W  DIS CAZ7
 BAR2 SZ EP        045  4.73                             170   -0.0310 24.1 199 
 BAR2 SZ ES   1    045 19.29                             170   -0.06 7 24.1 199 
 BAR2 SZ I         045 21.33        14.4 0.25                          24.1 199 
 BRR  HZ EP        045  6.57                             150    0.0110 74.6 297 
 BRR  HE ES   1    045 23.10                             150    0.53 7 74.6 297 
 PAM  SZ EP        045  7.55                             150    0.2410 75.2  37 
 PAM  SE ES   1    045 24.04                             150    0.15 7 75.2  37 
 RUS  HZ EP        045  9.01                             143    0.0010  100 178 
 RUS  HE ES   2    045 26.51                             143   -0.41 5  100 178 
 RUS  HZ I         045 29.87         5.5 0.33                           100 178 
 OCA  SZ EP        045 13.37                             128   -0.46 9  161 352 
 OCA  SZ ES   2    045 34.97                             128   -0.53 5  161 352 
 OCA  SZ I         045 38.32        11.1 0.37                           161 352 
 ZAR  HZ EP   2    045 18.93                             120    0.56 4  208 292 
 ZAR  HE ES   2    045 43.17                             120   -0.41 4  208 292 
 ZAR  HZ I         045 52.22         7.7 0.08                           208 292 
 NOR  SE ES   2    045 48.94                             117   -0.49 4  238 235 
 HEL  HZ EP   2    045 26.87                             113    0.59 4  276 256 
 HEL  HZ I         046  2.57         4.5 0.59                           276 256 
                                                                                
