 2013 10 6 0917 13.9 L   6.145 -73.780102.9  RSN  7 0.4 1.5LRSN                1
 GAP=157        0.97       3.9     3.8  7.3 -0.5069E+01  0.7476E+01 -0.7053E+01E
 Epicentro: LANDAZURI - SANTANDER                                              3
 ACTION:UPD 13-11-25 09:19 OP:ep   STATUS:               ID:20131006091713 L   I
 OLDACT:REG 13-10-06 07:37 OP:nd   STATUS:               ID:20131006090959     3
 2013-10-06-0909-59M.COL___273                                                 6
 STAT SP IPHASW D HRMM SECON CODA AMPLIT PERI AZIMU VELO AIN AR TRES W  DIS CAZ7
 SPBC HZ EP        917 30.18                             146   -0.0510 63.4 211 
 SPBC HN ES        917 42.98                             146    0.0410 63.4 211 
 SPBC HZ I         917 47.07         7.2 0.16            152           63.4 211 
 BAR2 SZ IP     C  917 32.08                             138    0.2010 82.6  53 
 BAR2 SZ ES        917 45.86                             138   -0.0210 82.6  53 
 BAR2 SZ I         917 47.83        22.6 0.54            145           82.6  53 
 PTB  HZ IP     C  917 31.23                             136   -0.6710 86.6 300 
 PTB  HN ES        917 45.54                             136   -0.3810 86.6 300 
 PTB  HZ I         917 48.16         6.2 0.18            139           86.6 300 
 BRR  HZ EP        917 33.93                             130    0.2710  107   4 
 BRR  HN ES   2    917 49.57                             130    0.52 5  107   4 
 BRR  HZ I         917 56.40         4.1 0.42            134            107   4 
 NOR  HZ EP        917 36.00                             122   -0.70 9  137 242 
 NOR  HN ES        917 55.12                             122    0.66 9  137 242 
 NOR  HZ I         917 58.42         6.1 0.20            128            137 242 
 ZAR  HZ EP        917 42.55                             113    0.05 9  191 321 
 ZAR  HN ES        918  4.94                             113    0.16 9  191 321 
 ZAR  HZ I         918  8.22         4.9 0.31            117            191 321 
 HEL  HZ EP        917 43.69                             113    0.41 9  194 272 
 HEL  HN ES   2    918  6.56                             113    0.39 4  194 272 
 HEL  HZ I         918 10.94         2.9 0.26            118            194 272 
                                                                                
