 2016  3 6 0013  1.9 L   6.869 -73.327112.1  RSN  9 0.5 1.7LRSN                1
 GAP= 99        1.22       3.2     4.3  7.8 -0.2277E+01  0.1392E+02  0.1201E+00E
 Epicentro: BETULIA - SANTANDER                                                3
 ACTION:UPD 16-05-13 21:21 OP:cam  STATUS:               ID:20160306001301 L   I
 OLDACT:UP  16-03-06 13:21 OP:ar   STATUS:               ID:20160306000748     3
 OLDACT:REG 16-03-06 12:51 OP:ar   STATUS:               ID:20160306000748     3
 2016-03-06-0007-48M.COL___328                                                 6
 STAT SP IPHASW D HRMM SECON CODA AMPLIT PERI AZIMU VELO AIN AR TRES W  DIS CAZ7
 BAR2 EZ EP        013 18.03                             162    0.1210 34.5 152 
 BAR2 EZ ES        013 30.64                             162    0.2810 34.5 152 
 BAR2 EZ I         013 32.17        21.4 0.30            164           34.5 152 
 PAM  EZ EP        013 21.42                             140   -0.0010 86.7  53 
 PAM  EN ES        013 37.11                             140    0.5010 86.7  53 
 PAM  EZ I         013 39.72        10.1 0.28            144           86.7  53 
 RUS  HZ EP        013 22.98                             132   -0.5310  111 166 
 RUS  HE ES        013 40.03                             132   -0.3010  111 166 
 PTB  HZ EP        013 25.10                             127    0.4610  130 254 
 PTB  HE ES        013 41.30                             127   -1.0410  130 254 
 PTB  HZ I         013 45.28        12.6 0.28            129            130 254 
 OCA  HZ EP        013 26.26                             122   -0.72 9  152   0 
 OCA  HN ES        013 46.04                             122   -0.46 9  152   0 
 SPBC HZ EP        013 28.30                             121    0.76 9  158 212 
 SPBC HN ES        013 47.50                             121   -0.01 9  158 212 
 SPBC HZ I         013 49.07         9.5 0.22            123            158 212 
 ZAR  HZ EP        013 30.42                             117    0.33 9  183 292 
 ZAR  HN ES        013 52.80                             117    0.76 9  183 292 
 ZAR  HZ I         013 57.38         9.8 0.26            119            183 292 
 CHI  HZ EP        013 38.16                             109   -0.21 8  252 190 
 CHI  HN ES        014  7.04                             109    0.26 8  252 190 
 CHI  HZ I         014 12.61         2.2 0.54            111            252 190 
 GUY2CHZ EP        013 43.02                             106    0.13 7  290 231 
 GUY2CHN ISg       014 14.57                             106   -0.25 7  290 231 
 GUY2CHZ I         014 21.86         2.5 0.28                           290 231 
                                                                                
