 2011 10 6 0030 49.4 L   6.783 -73.119138.9  RSN  9 0.3 2.0LRSN                1
 GAP=141        0.65       3.1     4.8  4.8 -0.3283E+01  0.5905E+01  0.5513E+00E
 Epicentro: LOS SANTOS - SANTANDER                                             3
 ACTION:UPD 12-07-13 16:02 OP:ep   STATUS:               ID:20111006003049 L   I
 2011-10-06-0020-00M.COL___170                                                 6
 STAT SP IPHASW D HRMM SECON CODA AMPLIT PERI AZIMU VELO AIN AR TRES W  DIS CAZ7
 BAR2 SZ EP   1    031  8.10                             170   -0.07 7 22.2 198 
 BAR2 SZ ES   1    031 22.63                             170   -0.19 7 22.2 198 
 BAR2 SZ I         031 24.14        25.5 0.26                          22.2 198 
 GIR2 SZ EP        031  8.15                             166   -0.1710 33.8 346 
 GIR2 SZ ES   1    031 23.58                             166    0.50 7 33.8 346 
 BRR  HZ EP        031  9.93                             150   -0.0810 74.7 299 
 BRR  HE ES   1    031 26.34                             150    0.25 7 74.7 299 
 BRR  HZ I         031 31.15        46.0 0.16                          74.7 299 
 PAM  SZ EP   1    031 10.90                             150    0.04 7 77.1  37 
 PAM  SN ES   1    031 27.42                             150   -0.18 7 77.1  37 
 RUS  HZ EP   1    031 12.20                             143   -0.12 7 98.5 178 
 RUS  HE ES   1    031 30.43                             143    0.23 7 98.5 178 
 RUS  HZ I         031 31.95         5.8 0.34                          98.5 178 
 OCA  SZ EP   1    031 17.52                             128    0.13 7  163 352 
 OCA  SZ ES   1    031 38.95                             128   -0.29 7  163 352 
 OCA  SZ I         031 42.45        21.2 0.34                           163 352 
 NOR  SN ES   1    031 51.82                             117   -0.73 6  236 235 
 HEL  HZ EP   1    031 30.44                             113    0.91 6  274 256 
 HEL  HZ I         032  7.22         5.8 0.34                           274 256 
 PRA  HZ EP   1    031 42.89                             105    0.23 4  392 210 
                                                                                
