 2014  5 6 0824 21.4 L   6.809 -73.195144.2  RSN  9 0.5 2.0LRSN                1
 GAP=130        1.09       2.9     4.3  7.6 -0.3786E+00  0.9864E+01 -0.1658E+01E
 Epicentro: ZAPATOCA - SANTANDER                                               3
 ACTION:UPD 15-03-16 16:55 OP:nd   STATUS:               ID:20140506082421 L   I
 OLDACT:REG 14-05-06 13:22 OP:carl STATUS:               ID:20140506081809     3
 2014-05-06-0818-09M.COL___236                                                 6
 STAT SP IPHASW D HRMM SECON CODA AMPLIT PERI AZIMU VELO AIN AR TRES W  DIS CAZ7
 PAM  SZ EP        824 43.92                             150    0.2610 80.2  43 
 PAM  SN ES        825  1.16                             150    0.1710 80.2  43 
 PAM  SZ I         825  3.35        16.5 0.50            153           80.2  43 
 RUS  HZ EP        824 44.99                             143   -0.1510  102 173 
 RUS  HE ES        825  3.22                             143   -0.4210  102 173 
 RUS  HZ I         825  4.36         8.5 0.20            149            102 173 
 PTB  HZ EP        824 47.60                             133   -0.21 9  143 258 
 PTB  HN ES        825  8.53                             133    0.15 9  143 258 
 PTB  HZ I         825 10.61         9.6 0.46            133            143 258 
 OCA  HZ EP        824 49.33                             129   -0.15 9  159 355 
 OCA  HN ES        825 10.77                             129   -0.58 9  159 355 
 OCA  HZ I         825 17.25        12.0 0.32            131            159 355 
 SPBC HZ EP        824 49.95                             129    0.38 9  161 217 
 SPBC HE ES        825 11.72                             129    0.21 9  161 217 
 SPBC HZ I         825 14.53        12.0 0.24            132            161 217 
 ZAR  HZ EP        824 53.99                             123    0.77 9  199 292 
 ZAR  HN ES        825 18.74                             123    0.74 9  199 292 
 ZAR  HZ I         825 25.98        11.4 0.26            124            199 292 
 SML  HZ EP        824 57.56                             117   -0.07 8  241 336 
 SML  HE ES        825 26.27                             117    0.41 8  241 336 
 SML  HZ I         825 33.13        11.2 0.10            119            241 336 
 CHI  HZ EP        824 59.03                             117    0.02 8  248 194 
 CHI  HN ES        825 28.18                             117   -0.13 8  248 194 
 URE  HZ EP        825  1.39                             114   -0.43 7  278 292 
 URE  HN ES        825 31.99                             114   -1.32 7  278 292 
 URE  HZ I         825 44.33         6.2 0.20            115            278 292 
                                                                                
