 2017  1 6 0552 14.0 L   7.353 -73.270115.6  RSN  6 0.3 1.6LRSN                1
 GAP=258        0.76       6.2     5.1  6.7  0.2176E+02 -0.6465E+01 -0.1227E+02E
 Epicentro: EL PLAYON - SANTANDER                                              3
 ACTION:UPD 17-05-22 15:56 OP:jn   STATUS:               ID:20170106055214 L   I
 OLDACT:UP  17-01-06 16:19 OP:and  STATUS:               ID:20170106054742d    3
 OLDACT:UP  17-01-06 16:19 OP:and  STATUS:               ID:20170106054742d    3
 OLDACT:DUP 17-01-06 16:17 OP:and  STATUS:               ID:20170106054742d    3
 OLDACT:UP  17-01-06 16:16 OP:and  STATUS:               ID:20170106054741     3
 OLDACT:REG 17-01-06 12:40 OP:and  STATUS:               ID:20170106054741     3
 2017-01-06-0548-00M.COL___375                                                 6
 STAT SP IPHASW D HRMM SECON CODA AMPLIT PERI AZIMU VELO AIN AR TRES W  DIS CAZ7
 BRR  HZ EP        552 30.81                             152   -0.2010 55.8 241 
 BRR  HE ES        552 43.89                             152   -0.4010 55.8 241 
 BRR  HZ I         552 44.66        11.5 0.12            144           55.8 241 
 BAR2 EZ EP        552 33.58                             141    0.3010 84.6 173 
 BAR2 EZ ES        552 48.67                             141    0.3410 84.6 173 
 PTB  HZ EP   3    552 38.95                             122   -0.88 2  159 236 
 PTB  HE ES        552 59.99                             122    0.00 9  159 236 
 PTB  HZ I         553  3.04         5.7 0.24            117            159 236 
 RUS  HZ EP        552 40.93                             121    0.08 9  163 173 
 RUS  HE ES        553  1.53                             121   -0.27 9  163 173 
 RUS  HZ I         553  4.03         2.7 0.30            118            163 173 
 ZAR  HZ EP        552 41.34                             119   -0.27 9  176 275 
 ZAR  HN ES        553  3.65                             119    0.49 9  176 275 
 ZAR  HZ I         553  8.41         6.7 0.10            115            176 275 
 GUY2CHZ EP   4    553  1.96                             104    2.14 0  330 225 
 GUY2CHN ES   4    553 38.60                             104    3.03 0  330 225 
 GUY2CHZ I         553 44.39         1.5 0.38                           330 225 
                                                                                
