 2017  4 6 0839 37.9 L   6.760 -73.154137.8  RSN  7 0.3 1.5LRSN                1
 GAP=137        0.68       2.7     2.8  4.3 -0.2743E+00  0.3322E+01  0.9579E-01E
 Epicentro: LOS SANTOS - SANTANDER                                             3
 ACTION:UPD 17-05-30 21:09 OP:jn   STATUS:               ID:20170406083937 L   I
 OLDACT:REG 17-04-06 13:11 OP:cara STATUS:               ID:20170406083741     3
 2017-04-06-0838-00M.COL___357                                                 6
 STAT SP IPHASW D HRMM SECON CODA AMPLIT PERI AZIMU VELO AIN AR TRES W  DIS CAZ7
 BAR2 EZ IP        839 56.60                             172    0.1410 18.8 190 
 BAR2 EZ ES        840 11.00                             172    0.0410 18.8 190 
 BAR2 EZ I         840 12.42         8.4 0.22            171           18.8 190 
 BRR  HZ EP        839 58.58                             150    0.3210 72.6 302 
 BRR  HN ES        840 14.19                             150    0.0410 72.6 302 
 BRR  HZ I         840 18.39         7.7 0.28            150           72.6 302 
 PAM  EZ EP        839 59.58                             148    0.0710 81.4  38 
 PAM  EN ES        840 16.29                             148   -0.0910 81.4  38 
 PAM  EZ I         840 19.39         4.7 0.64            152           81.4  38 
 RUS  HZ EP        840  0.76                             143    0.2310 96.2 175 
 RUS  HN ES        840 17.74                             143   -0.4610 96.2 175 
 RUS  HZ I         840 19.68         2.5 0.48            146           96.2 175 
 PTB  HZ EP        840  3.73                             130   -0.32 9  146 260 
 PTB  HN ES        840 24.28                             130   -0.18 9  146 260 
 PTB  HZ I         840 26.62         4.7 0.14            131            146 260 
 SPBC HZ EP        840  5.35                             128   -0.04 9  159 220 
 SPBC HN ES        840 27.30                             128    0.46 9  159 220 
 SPBC HZ I         840 33.38         5.5 0.46            130            159 220 
 ZAR  HZ EP        840  9.51                             120   -0.40 9  205 293 
 ZAR  HN ES        840 35.00                             120    0.11 9  205 293 
 ZAR  HZ I         840 41.59         5.4 0.42            122            205 293 
                                                                                
