 2012 10 6 0712 31.4 L   6.775 -73.117148.2  RSN  6 0.2 1.6LRSN                1
 GAP=141        0.53       2.9     3.7  5.2  0.4401E+00  0.1633E+01  0.1202E+01E
 Epicentro: LOS SANTOS - SANTANDER                                             3
 ACTION:UPD 12-11-22 17:02 OP:ep   STATUS:               ID:20121006071231 L   I
 2012-10-06-0710-00M.COL___222                                                 6
 STAT SP IPHASW D HRMM SECON CODA AMPLIT PERI AZIMU VELO AIN AR TRES W  DIS CAZ7
 BAR2 SZ EP   1    712 51.14                             171   -0.16 7 21.5 200 
 BAR2 SZ ES   1    713  6.74                             171   -0.07 7 21.5 200 
 BAR2 SZ I         713  7.94        10.2 0.55                          21.5 200 
 BRR  HZ EP   1    712 53.08                             152    0.03 7 75.3 299 
 BRR  HN ES   1    713 10.40                             152    0.47 7 75.3 299 
 BRR  HN I         713 10.85        21.3 0.21                          75.3 299 
 BRR  HZ I         713 11.98         5.7 0.11                          75.3 299 
 PAM  SZ EP        712 54.06                             151    0.1610 77.6  36 
 PAM  SZ I         712 54.37         7.1 0.20                          77.6  36 
 PAM  SN ES   1    713 11.28                             151   -0.15 7 77.6  36 
 PAM  SN I         713 12.33         8.0 0.17                          77.6  36 
 RUS  HZ EP   1    712 55.17                             145   -0.03 7 97.7 178 
 RUS  HE ES   1    713 13.51                             145   -0.24 7 97.7 178 
 RUS  HE I         713 14.87         2.0 0.31                          97.7 178 
 ZAR  HN ES   1    713 29.71                             122   -0.46 6  208 293 
 ZAR  HN I         713 35.04         6.9 0.21                           208 293 
 CHI  HN ES   1    713 38.70                             118    0.29 6  247 196 
                                                                                
