 2017  7 6 0707 56.5 L   6.530 -73.754 87.8  RSN  4 0.3 0.7LRSN                1
 GAP=187        0.72       5.2     3.7  9.6  0.6756E+00  0.2038E+02 -0.2480E+00E
 Epicentro: SANTA HELENA DEL OPON - SANTANDER                                  3
 ACTION:UPD 17-08-30 15:30 OP:rebc STATUS:               ID:20170706070756 L   I
 OLDACT:DUP 17-07-06 17:24 OP:edw  STATUS:               ID:20170706070642d    3
 OLDACT:UP  17-07-06 14:09 OP:edw  STATUS:               ID:20170706070641     3
 OLDACT:REG 17-07-06 13:46 OP:edw  STATUS:               ID:20170706070641     3
 2017-07-06-0707-00M.COL___379                                                 6
 STAT SP IPHASW D HRMM SECON CODA AMPLIT PERI AZIMU VELO AIN AR TRES W  DIS CAZ7
 BAR2 EZ ES        7 8 23.48                             141    0.2610 63.6  84 
 BAR2 EZ I         7 8 25.59         2.0 0.38            146           63.6  84 
 BRR  HN ES        7 8 22.31                             141   -0.3610 63.9   4 
 PTB  HZ EP        7 8 12.09                             135   -0.2610 77.6 271 
 PTB  HN ES        7 8 24.77                             135    0.0410 77.6 271 
 PTB  HZ I         7 8 28.24         0.8 0.10            136           77.6 271 
 ZAR  HZ EP   2    7 8 20.86                             113   -0.19 5  162 311 
 ZAR  HN ES        7 8 40.62                             113    0.42 9  162 311 
 ZAR  HZ I         7 8 44.28         1.7 0.50            115            162 311 
                                                                                
