 2015  3 6 0254 18.7 L   6.808 -73.142148.4  RSN 16 0.4 1.9LRSN                1
 GAP= 71        0.99       2.9     3.0  5.3 -0.1363E+01  0.2860E+01  0.1374E+01E
 Epicentro: LOS SANTOS - SANTANDER                                             3
 ACTION:UPD 15-04-30 16:23 OP:nd   STATUS:               ID:20150306025418 L   I
 OLDACT:DUP 15-03-06 19:04 OP:spq  STATUS:               ID:20150306024751d    3
 2015-03-06-0247-50M.COL___284                                                 6
 STAT SP IPHASW D HRMM SECON CODA AMPLIT PERI AZIMU VELO AIN AR TRES W  DIS CAZ7
 BAR2 EZ EP     D  254 38.50                             170   -0.1210 24.3 191 
 BAR2 EZ ES   1    254 54.33                             170    0.14 7 24.3 191 
 BAR2 EZ I         254 54.82         8.2 0.34            170           24.3 191 
 BRR  HZ EP     D  254 40.36                             153    0.2810 71.1 298 
 BRR  HN ES        254 57.85                             153    1.0510 71.1 298 
 BRR  HZ I         255  0.89        11.1 0.26            149           71.1 298 
 PAM  SZ EP        254 41.22                             152    0.1310 76.4  40 
 PAM  SN ES        254 58.52                             152   -0.0810 76.4  40 
 PAM  SZ I         255  0.35        18.2 0.54            147           76.4  40 
 RUS  HZ EP        254 42.38                             144   -0.3510  101 176 
 RUS  HE ES        255  1.12                             144   -0.3910  101 176 
 RUS  HZ I         255  2.21         6.4 0.30            140            101 176 
 PTB  HZ EP        254 45.39                             133   -0.50 9  148 259 
 PTB  HE ES        255  6.74                             133   -0.39 9  148 259 
 PTB  HZ I         255 12.46        10.8 0.24            128            148 259 
 TAM  HZ EP        254 46.65                             131    0.12 9  155 105 
 TAM  HZ I         255  7.34         5.8 0.37            126            155 105 
 TAM  HN ES        255  8.61                             131    0.34 9  155 105 
 OCA  HZ EP        254 47.50                             130    0.41 9  159 353 
 OCA  HN ES        255  8.57                             130   -0.70 9  159 353 
 OCA  HZ I         255 10.60         8.1 0.33            125            159 353 
 SPBC HZ EP        254 47.45                             130    0.01 9  164 219 
 SPBC HN ES        255  9.75                             130   -0.15 9  164 219 
 SPBC HZ I         255 11.37        17.5 0.14            125            164 219 
 NOR  HZ EP        254 54.56                             119   -0.07 8  236 234 
 NOR  HE ES        255 22.44                             119   -0.25 8  236 234 
 NOR  HZ I         255 25.20         6.5 0.52            115            236 234 
 SML  HZ EP   1    254 55.21                             118   -0.15 6  243 335 
 SML  HN ES   1    255 23.18                             118   -0.80 6  243 335 
 SML  HZ I         255 30.86         8.0 0.10            113            243 335 
 CHI  HZ EP        254 56.76                             118    0.16 8  250 195 
 CHI  HN ES   1    255 26.10                             118   -0.11 6  250 195 
 CHI  HZ I         255 31.61         2.6 0.32            113            250 195 
 HEL  HZ EP   4    255  0.69                             115    1.62 0  273 256 
 HEL  HN ES   1    255 31.47                             115    0.88 6  273 256 
 HEL  HZ I         255 36.99         4.8 0.44            111            273 256 
 GUY2CHZ EP   4    255  3.56                             113    1.08 0  302 235 
 GUY2CHE ES   4    255 39.13                             113    2.46 0  302 235 
 GUY2CHZ I         255 45.46         5.1 0.64                           302 235 
 CBOC HZ EP        255  6.28                             110    0.53 7  334 252 
 CBOC HN ES   1    255 42.90                             110    0.41 5  334 252 
 CBOC HZ I         255 48.68         1.6 0.54            107            334 252 
 MON  HN ES   4    255 44.84                             109   -1.17 0  353 308 
 MON  HZ I         255 59.49         2.5 0.62            105            353 308 
 PRA  HN ES   4    255 55.34                             107    1.05 0  393 210 
 PRA  HZ I         256  3.34         3.1 0.26            103            393 210 
                                                                                
