 2013  4 6 0747 38.6 L   6.744 -73.191143.5  RSN  6 0.2 1.5LRSN                1
 GAP=173        0.53       3.5     3.0  3.8  0.4088E+01  0.2966E+01  0.2706E+01E
 Epicentro: VILLANUEVA - SANTANDER                                             3
 ACTION:UPD 13-05-22 14:36 OP:EP   STATUS:               ID:20130406074738 L   I
 2013-04-06-0740-00M.COL___245                                                 6
 STAT SP IPHASW D HRMM SECON CODA AMPLIT PERI AZIMU VELO AIN AR TRES W  DIS CAZ7
 BAR2 SZ EP        747 57.88                             173    0.0410 16.8 177 
 BAR2 SZ ES        748 12.74                             173   -0.1110 16.8 177 
 BAR2 SZ I         748 15.27        11.4 0.28            171           16.8 177 
 GIR2 SZ EP        747 57.94                             165   -0.2410 37.0 360 
 GIR2 SZ ES        748 13.30                             165   -0.1510 37.0 360 
 GIR2 SZ I         748 14.85         5.9 0.10            168           37.0 360 
 BRR  HZ IP     D  747 59.68                             152    0.2310 70.2 305 
 BRR  HN ES        748 16.02                             152    0.3110 70.2 305 
 BRR  HZ I         748 17.22         6.4 0.12            154           70.2 305 
 RUS  HZ EP        748  1.94                             145    0.2210 94.9 173 
 RUS  HN ES   1    748 19.80                             145    0.04 7 94.9 173 
 RUS  HZ I         748 21.48         3.3 0.28            146           94.9 173 
 PTB  HZ EP        748  4.57                             133   -0.27 9  142 261 
 PTB  HN ES        748 25.21                             133   -0.10 9  142 261 
 PTB  HZ I         748 28.19         4.2 0.30            134            142 261 
 ZAR  HN ES        748 35.72                             122    0.02 9  202 294 
                                                                                
