 2017 11 6 0648 32.9 L   6.853 -73.150147.9  RSN 19 0.5 2.0LRSN                1
 GAP= 64        1.08       3.1     3.0  5.4  0.1044E+00  0.3925E+01  0.3387E+01E
 Epicentro: LOS SANTOS - SANTANDER                                             3
 ACTION:UPD 17-12-12 19:52 OP:rebc STATUS:               ID:20171106064832 L   I
 OLDACT:UP  17-11-06 17:08 OP:dnl  STATUS:               ID:20171106063744d    3
 OLDACT:UP  17-11-06 17:08 OP:dnl  STATUS:               ID:20171106063744d    3
 OLDACT:UP  17-11-06 17:07 OP:dnl  STATUS:               ID:20171106063744d    3
 OLDACT:DUP 17-11-06 17:01 OP:dnl  STATUS:               ID:20171106063744d    3
 OLDACT:UP  17-11-06 17:01 OP:dnl  STATUS:               ID:20171106063743     3
 OLDACT:REG 17-11-06 13:10 OP:dnl  STATUS:               ID:20171106063743     3
 2017-11-06-0638-00M.COL___429                                                 6
 STAT SP IPHASW D HRMM SECON CODA AMPLIT PERI AZIMU VELO AIN AR TRES W  DIS CAZ7
 BAR2 EZ EP        648 52.79                             169   -0.0910 29.0 187 
 BAR2 EZ ES        649  7.40                             169   -1.0810 29.0 187 
 BAR2 EZ I         649 10.35        18.6 0.34            168           29.0 187 
 BRR  HZ EP        648 54.50                             154    0.4210 68.2 294 
 BRR  HN ES        649 11.38                             154    0.7610 68.2 294 
 BRR  HZ I         649 14.60        11.3 0.12            151           68.2 294 
 PAM  EZ EP        648 55.43                             152    0.3610 73.3  43 
 PAM  EE ES        649 12.63                             152    0.2410 73.3  43 
 PAM  EZ I         649 14.53        30.5 0.50            154           73.3  43 
 PTB  HZ EP        648 59.45                             132   -0.63 9  149 257 
 PTB  HN ES        649 21.42                             132    0.12 9  149 257 
 PTB  HZ I         649 23.14        16.6 0.42            131            149 257 
 TAM  HZ EP        649  1.13                             131    0.23 9  157 107 
 TAM  HN ES        649 22.56                             131   -0.21 9  157 107 
 TAM  HZ I         649 24.04         7.0 0.30            132            157 107 
 SPBC HZ EP        649  1.84                             129   -0.09 9  167 218 
 SPBC HE ES        649 24.30                             129   -0.31 9  167 218 
 SPBC HZ I         649 31.02        19.7 0.30            128            167 218 
 YPLC HZ EP   2    649  3.48                             126    0.14 4  182 152 
 YPLC HN ES        649 27.43                             126    0.32 9  182 152 
 YPLC HZ I         649 30.22        15.1 0.30            127            182 152 
 ZAR  HZ EP        649  5.58                             123    0.39 9  201 291 
 ZAR  HE ES        649 31.11                             123    0.71 9  201 291 
 ZAR  HZ I         649 37.05        10.1 0.58            122            201 291 
 NOR  HZ EP        649  8.96                             119   -0.09 8  238 233 
 NOR  HE ES        649 36.97                             119   -0.30 8  238 233 
 NOR  HZ I         649 42.22         7.8 0.28            118            238 233 
 CHI  HZ EP        649 11.40                             117    0.12 8  254 195 
 CHI  HE ES        649 40.87                             117   -0.37 8  254 195 
 CHI  HZ I         649 44.18         3.9 0.72            117            254 195 
 ROSC BZ EP   4    649 12.89                             117    1.27 0  258 210 
 ROSC BN ES   4    649 44.04                             117    2.19 0  258 210 
 ROSC BZ I         649 49.78        12.0 0.70            116            258 210 
 URE  HZ EP        649 13.49                             114   -0.26 7  281 291 
 URE  HN ES   4    649 43.32                             114   -2.33 0  281 291 
 URE  HZ I         649 50.06        12.0 0.20            113            281 291 
 GUY2CHZ EP   4    649 18.33                             112    1.41 0  304 234 
 GUY2CHN ES   4    649 53.82                             112    2.55 0  304 234 
 GUY2CHZ I         650  0.91         6.4 0.36                           304 234 
 LL6C HZ EP   2    649 17.14                             111   -0.85 3  319 358 
 LL6C HN ES   4    649 50.05                             111   -3.14 0  319 358 
 LL6C HZ I         650  2.04         7.7 0.68            111            319 358 
 CBOC HZ EP   2    649 19.46                             110   -0.57 3  335 251 
 CBOC HN ES        649 56.59                             110   -0.23 7  335 251 
 CBOC HZ I         650  9.03         2.2 0.52            110            335 251 
 ARGC HZ EP   4    649 23.52                             109    1.57 0  354 340 
 ARGC HE ES        649 59.15                             109   -1.08 6  354 340 
 ARGC HZ I         650 11.35         1.4 0.24            109            354 340 
 PRA  HZ EP        649 26.98                             107   -0.05 6  397 209 
 PRA  HE ES        650  8.89                             107   -0.39 6  397 209 
 PRA  HZ I         650 13.63         4.9 0.30            106            397 209 
 ORTC HZ EP        649 27.70                             106    0.32 6  400 216 
 ORTC HE ES        650 10.95                             106    1.05 6  400 216 
 ORTC HZ I         650 19.40         3.2 0.50            106            400 216 
 SJC  HZ EP   4    649 26.88                             106   -1.02 0  404 327 
 SJC  HN ES   4    650  8.00                             106   -2.82 0  404 327 
 SJC  HZ I         650 11.04         1.8 0.52            106            404 327 
                                                                                
