 2012  6 6 0618 29.4 L   6.804 -73.145146.6  RSN 10 0.5 2.8LRSN                1
 GAP=136        1.05       3.8     4.9  7.7 -0.3670E+01  0.1279E+02  0.2032E+01E
 Epicentro: LOS SANTOS - SANTANDER                                             3
 ACTION:UPD 12-08-06 17:47 OP:ep   STATUS:               ID:20120606061829 L   I
 2012-06-06-0615-37M.COL___183                                                 6
 STAT SP IPHASW D HRMM SECON CODA AMPLIT PERI AZIMU VELO AIN AR TRES W  DIS CAZ7
 BAR2 SZ EP        618 49.27                             170    0.1610 23.8 190 
 BAR2 SZ ES   1    619  5.16                             170    0.65 7 23.8 190 
 BAR2 SZ I         619  6.05       185.5 0.18            170           23.8 190 
 PAM  SZ EP        618 52.07                             151    0.4110 77.0  40 
 PAM  SN ES   1    619  9.29                             151    0.26 7 77.0  40 
 RUS  HZ EP   1    618 53.24                             144    0.00 7  101 176 
 RUS  HN ES   1    619 11.49                             144   -0.36 7  101 176 
 RUS  HZ I         619 13.18        77.5 0.39            146            101 176 
 PTB  HZ EP        618 55.69                             132   -0.73 9  148 259 
 PTB  HN ES   1    619 17.19                             132   -0.33 7  148 259 
 PTB  HZ I         619 19.41        45.5 0.13            132            148 259 
 OCA  HZ EP        618 57.51                             130   -0.20 9  160 353 
 OCA  HN ES        619 19.26                             130   -0.54 9  160 353 
 OCA  HZ I         619 25.25       206.2 0.27            131            160 353 
 ZAR  HZ EP   1    619  1.95                             123    0.09 6  204 292 
 ZAR  HN ES   1    619 27.19                             123   -0.01 6  204 292 
 ZAR  HZ I         619 34.38       126.6 0.32            123            204 292 
 NOR  SZ EP   1    619  4.99                             119   -0.20 6  235 234 
 NOR  SN ES   1    619 32.34                             119   -0.78 6  235 234 
 CHI  HZ EP        619  7.26                             117    0.09 8  249 195 
 CHI  HN ES   1    619 35.94                             117   -0.71 6  249 195 
 CHI  HZ I         619 42.52        25.3 0.22            119            249 195 
 HEL  HZ EP   1    619 10.57                             115    0.92 6  272 256 
 HEL  HN ES        619 42.06                             115    1.00 8  272 256 
 HEL  HZ I         619 45.72        20.3 0.39            116            272 256 
 TOL  SZ EP   1    619 18.54                             109    0.83 5  344 225 
                                                                                
