 2011  7 6 0350 25.2 L   6.793 -73.146148.1  RSN  7 0.3 2.0LRSN                1
 GAP=155        0.67       3.3     7.1  6.0  0.6030E+00 -0.3751E+01 -0.5352E+01E
 Epicentro: LOS SANTOS - SANTANDER                                             3
 ACTION:UPD 12-07-25 13:58 OP:epov STATUS:               ID:20110706035025 L   I
 2011-07-06-0340-00M.COL___124                                                 6
 STAT SP IPHASW D HRMM SECON CODA AMPLIT PERI AZIMU VELO AIN AR TRES W  DIS CAZ7
 BAR2 SZ EP   1    350 44.89                             171   -0.17 7 22.5 190 
 BAR2 SZ ES   1    351  0.27                             171   -0.31 7 22.5 190 
 BAR2 SZ I         351  1.21        32.6 0.19                          22.5 190 
 BRR  HZ EP   1    350 46.93                             152    0.35 7 71.5 299 
 BRR  HE ES   1    351  3.78                             152    0.49 7 71.5 299 
 BRR  HZ I         351  5.82        23.9 0.13                          71.5 299 
 RUS  HZ EP   1    350 49.14                             144    0.05 7 99.8 176 
 RUS  HN ES   1    351  7.64                             144   -0.11 7 99.8 176 
 BRI  SZ EP   1    350 49.80                             142    0.47 7  109  21 
 BRI  SZ I         351  8.99         8.0 0.33                           109  21 
 GRA  SZ EP   1    350 50.93                             137    0.25 7  127  17 
 GRA  SZ ES   1    351 10.18                             137   -0.41 7  127  17 
 GRA  SZ I         351 13.65        11.9 0.30                           127  17 
 OCA  SZ EP   1    350 53.60                             130   -0.13 7  161 353 
 OCA  SZ ES   1    351 15.80                             130   -0.21 7  161 353 
 OCA  SZ I         351 18.87        13.3 0.18                           161 353 
 MON  HZ EP   1    351 13.53                             109   -0.78 5  354 308 
                                                                                
