 2010  1 6 0539 34.7 L   6.793 -73.182140.5  RSN  4 0.3 2.1LRSN                1
 GAP=186        0.60       3.9     9.2  8.0 -0.1535E+02  0.2756E+02 -0.6165E+00E
 Epicentro: LOS SANTOS - SANTANDER                                             3
 ACTION:UP  10-08-24 09:42 OP:vdl  STATUS:               ID:20100106053934 L   I
 2010-01-06-0536-06S.COL___097                                                 6
 STAT SP IPHASW D HRMM SECON CODA AMPLIT PERI AZIMU VELO SNR AR TRES W  DIS CAZ7
 BAR2 SZ IP        539 54.04                             170     0.410   22 181 
 BAR2 SZ ES   2    540  8.28                             170    -0.2 5   22 181 
 OCA  SZ EP        540  2.62                             128     0.0 9  161 355 
 OCA  SZ ES   2    540 23.77                             128    -0.7 5  161 355 
 OCA  SZ I         540 31.21        13.9 0.32                           161 355 
 NOR  SZ EP        540  9.71                             118     0.0 8  231 234 
 NOR  SZ ES   2    540 37.30                             118     0.2 4  231 234 
 CHI  HZ EP        540 11.72                             116    -0.2 8  247 194 
 CHI  HN ES   2    540 40.37                             116    -0.6 4  247 194 
                                                                                
