 2011  4 6 0600 30.9 L   6.782 -73.115139.8  RSN  8 0.3 1.6LRSN                1
 GAP=180        0.49       3.3     5.6  5.6 -0.8270E+01 -0.2910E+01  0.6639E+01E
 Epicentro: LOS SANTOS - SANTANDER                                             3
 ACTION:UP  11-06-22 15:29 OP:REBC STATUS:               ID:20110406060031 L   I
 2011-04-06-0557-37S.COL___124                                                 6
 STAT SP IPHASW D HRMM SECON CODA AMPLIT PERI AZIMU VELO SNR AR TRES W  DIS CAZ7
 BAR2 SZ EP        6 0 49.97                             171     0.110   22 199 
 BAR2 SZ ES   2    6 1  4.11                             171    -0.5 5   22 199 
 BAR2 SZ I         6 1  6.00        10.2 0.25                            22 199 
 GIR2 SZ EP   2    6 0 50.17                             165     0.2 5   34 345 
 BRR  HZ EP   1    6 0 51.70                             150     0.0 7   75 299 
 BRR  HN ES   1    6 1  8.02                             150     0.2 7   75 299 
 BRR  HZ I         6 1  9.73         6.5 0.15                            75 299 
 GRA  SZ EP   2    6 0 55.55                             135    -0.2 5  127  16 
 GRA  SZ ES   1    6 1 15.21                             135     0.1 7  127  16 
 GRA  SZ I         6 1 16.51         4.4 0.22                           127  16 
 OCA  SZ EP   2    6 0 59.23                             127     0.2 5  163 352 
 OCA  SZ ES   2    6 1 20.15                                    -0.8 5  163 352 
 OCA  SZ I         6 1 25.25         4.3 0.31                           163 352 
 NOR  SZ EP   2    6 1  6.40                             117    -0.1 4  236 235 
 CHI  HZ EP   2    6 1  8.10                             116    -0.1 4  248 196 
 CHI  HN ES   2    6 1 37.11                             116    -0.2 4  248 196 
 CHI  HZ I         6 1 41.51         2.0 0.77                           248 196 
 RREF HZ EP   2    6 1 16.66                             109    -0.3 3  323 230 
 RREF HN ES   2    6 1 53.01                             109     0.1 3  323 230 
 RREF HZ I         6 2  2.16         1.9 0.24                           323 230 
                                                                                
