 2012  7 6 0428 53.8 L   6.605 -73.268150.6  RSN  4 0.3 1.5LRSN                1
 GAP=140        0.73       6.8     7.4  7.5  0.2527E+02  0.1156E+02  0.7468E+01E
 Epicentro: CABRERA - SANTANDER                                                3
 ACTION:UPD 12-08-14 11:42 OP:ep   STATUS:               ID:20120706042853 L   I
 2012-07-06-0424-37M.COL___205                                                 6
 STAT SP IPHASW D HRMM SECON CODA AMPLIT PERI AZIMU VELO AIN AR TRES W  DIS CAZ7
 BAR2 SZ ES   1    429 29.27                             176    -0.1 7   10  98 
 BAR2 SZ I         429 29.67         6.3 0.20            173             10  98 
 BRR  HZ EP        429 15.50                             152    -0.110   74 319 
 BRR  HZ I         429 16.05         8.7 0.10            152             74 319 
 BRR  HN ES        429 32.76                             152     0.110   74 319 
 RUS  HZ EP   1    429 17.27                             150     0.5 7   81 165 
 RUS  HN ES   1    429 34.45                             150    -0.2 7   81 165 
 RUS  HZ I         429 37.16         3.5 0.35            147             81 165 
 PTB  HZ EP   1    429 19.34                             137    -0.4 7  132 267 
 PTB  HE ES   1    429 40.17                             137     0.2 7  132 267 
 PTB  HZ I         429 44.32         3.6 0.29            134            132 267 
