 2011 11 6 0933 47.9 L   6.797 -73.139140.5  RSN 10 0.3 2.4LRSN                1
 GAP=115        0.55       2.5     2.8  4.3 -0.7709E+00  0.4373E+01  0.1640E+01E
 Epicentro: LOS SANTOS - SANTANDER                                             3
 ACTION:UPD 12-07-13 16:08 OP:ep   STATUS:               ID:20111106093347 L   I
 2011-11-06-0932-46S.COL___175                                                 6
 STAT SP IPHASW D HRMM SECON CODA AMPLIT PERI AZIMU VELO AIN AR TRES W  DIS CAZ7
 BAR2 SZ IP        934  6.99                             170    0.0810 23.2 192 
 BAR2 SZ ES   2    934 21.68                             170   -0.04 5 23.2 192 
 BAR2 SZ I         934 23.09        57.3 0.29                          23.2 192 
 BRR  HZ IP     C  934  8.76                             151    0.2210 72.0 298 
 BRR  HN ES   1    934 25.07                             151    0.44 7 72.0 298 
 BRR  HZ I         934 26.71        76.7 0.13                          72.0 298 
 PAM  SZ EP        934  9.77                             150    0.2110 77.2  39 
 PAM  SN ES        934 26.14                             150   -0.3010 77.2  39 
 RUS  HZ EP        934 11.07                             143   -0.0610  100 176 
 RUS  HZ I         934 12.24        26.0 0.14                           100 176 
 RUS  HE ES   1    934 29.07                             143   -0.16 7  100 176 
 OCA  SZ EP   1    934 15.75                             128   -0.11 7  161 353 
 OCA  SZ ES   2    934 38.04                             128    0.38 5  161 353 
 OCA  SZ I         934 40.44        37.5 0.39                           161 353 
 YOP  SZ EP   2    934 17.76                             125    0.24 4  178 153 
 YOP  SZ I         934 18.71        22.4 0.20                           178 153 
 ZAR  HZ EP   1    934 19.81                             121   -0.30 6  205 292 
 ZAR  HN ES   1    934 44.52                             121   -0.70 6  205 292 
 ZAR  HZ I         934 51.04        27.6 0.25                           205 292 
 NOR  SZ EP   1    934 23.31                             117   -0.08 6  235 235 
 NOR  SN ES   1    934 50.98                             117   -0.08 6  235 235 
 HEL  HZ EP   1    934 27.88                             114   -0.06 6  273 256 
 HEL  HN ES   2    935  0.02                             114    0.87 4  273 256 
 HEL  HZ I         935  6.01        12.9 0.37                           273 256 
 RREF HZ EP   2    934 33.73                             110   -0.15 3  322 230 
 RREF HN ES   2    935  9.78                             110    0.06 3  322 230 
 RREF HZ I         935 20.00        14.8 0.45                           322 230 
                                                                                
