 2017  2 6 0732  5.4 L   6.729 -73.135146.8  RSN  4 0.2 1.0LRSN                1
 GAP=233        0.64       5.1     4.9  5.1  0.1235E+02  0.2315E+01  0.1775E+00E
 Epicentro: JORDAN - SANTANDER                                                 3
 ACTION:UPD 17-05-24 15:33 OP:jn   STATUS:               ID:20170206073205 L   I
 OLDACT:REG 17-02-06 12:04 OP:edw  STATUS:               ID:20170206072750     3
 2017-02-06-0728-00M.COL___313                                                 6
 STAT SP IPHASW D HRMM SECON CODA AMPLIT PERI AZIMU VELO AIN AR TRES W  DIS CAZ7
 BAR2 EZ EP        732 24.74                             173   -0.2910 16.0 199 
 BAR2 EZ ES        732 40.06                             173   -0.2910 16.0 199 
 BAR2 EZ I         732 41.71         3.0 0.20            171           16.0 199 
 BRR  HZ EP        732 26.96                             151    0.0110 76.2 303 
 BRR  HN ES        732 44.12                             151    0.3610 76.2 303 
 RUS  HZ EP        732 28.84                             146    0.1310 92.7 176 
 RUS  HN ES        732 47.10                             146    0.2210 92.7 176 
 RUS  HZ I         732 48.70         1.1 0.32            145           92.7 176 
 PTB  HZ EP        732 32.52                             132    0.08 9  148 262 
 PTB  HN ES        732 53.30                             132   -0.23 9  148 262 
 PTB  HZ I         732 55.55         1.6 0.12            132            148 262 
                                                                                
