 2010  9 6 0448 14.5 L   6.795 -72.985149.3  RSN 12 0.4 2.7LRSN                1
 GAP=177        0.73       3.7     8.1  5.8 -0.1470E+02 -0.1727E+01  0.4723E+01E
 Epicentro: CEPITA - SANTANDER                                                 3
 ACTION:UP  11-02-18 11:00 OP:tino STATUS:               ID:20100906044814 L   I
 2010-09-06-0445-10S.COL___120                                                 6
 STAT SP IPHASW D HRMM SECON CODA AMPLIT PERI AZIMU VELO SNR AR TRES W  DIS CAZ7
 BAR2 SZ EP   1    448 34.76                             168     0.0 7   31 224 
 BAR2 SZ ES   2    448 50.15                             168    -0.4 5   31 224 
 BAR2 SZ I         448 51.50       186.5 0.15                            31 224 
 BTL  SZ EP   1    448 34.97                             167     0.2 7   34 294 
 BTL  SZ ES   2    448 50.82                             167     0.2 5   34 294 
 GIR2 SZ EP   1    448 34.86                             165     0.1 7   39 324 
 GIR2 SZ ES   2    448 50.84                             165     0.2 5   39 324 
 BRR  HZ IP     C  448 36.65                             148    -0.310   87 293 
 BRR  HZ I         448 36.90       201.8 0.13                            87 293 
 BRR  HN ES   2    448 54.07                             148    -0.5 5   87 293 
 RUS  HZ EP   1    448 38.63                             144     0.1 7  100 186 
 RUS  HN ES   2    448 57.33                             144     0.0 5  100 186 
 RUS  HZ I         448 58.68        31.2 0.38                           100 186 
 GUE  SZ EP   1    448 39.74                             141     0.4 7  115   3 
 GRA  SZ IP     C  448 39.57                             139    -0.210  122   9 
 GRA  SZ I         448 40.71        49.2 0.35                           122   9 
 GRA  SZ ES   2    448 59.79                             139     0.3 5  122   9 
 OCA  SZ EP   1    448 43.16                             130    -0.3 7  164 347 
 OCA  SZ ES   2    449  6.38                             130     0.4 5  164 347 
 OCA  SZ I         449 11.55        38.4 0.25                           164 347 
 CHI  HZ EP   1    448 52.78                             117    -0.1 6  253 199 
 CHI  HN ES   2    449 23.01                             117     0.2 4  253 199 
 CHI  HZ I         449 31.67        18.9 0.62                           253 199 
 ROSC BZ EP   1    448 54.51                             116     0.7 6  262 214 
 ROSC BN ES   2    449 25.17                             116     0.7 4  262 214 
 ROSC BZ I         449 32.86        22.5 0.50                           262 214 
 RREF HZ EP   1    449  2.81                             111     0.5 5  335 231 
 RREF HE ES   2    449 40.15                             111     0.6 3  335 231 
 RREF HZ I         449 47.29        20.2 0.37                           335 231 
 PRA  HZ EP   1    449  8.15                             107    -1.0 4  401 212 
 PRA  HN ES   2    449 50.32                             107    -1.4 3  401 212 
 PRA  HZ I         449 56.45        18.7 0.69                           401 212 
                                                                                
