 2014  1 6 0141 12.4 L   6.807 -73.137146.8  RSN 11 0.5 1.9LRSN                1
 GAP=137        1.16       3.1     4.5  6.0 -0.1640E+01  0.7806E+01  0.6961E+00E
 Epicentro: LOS SANTOS - SANTANDER                                             3
 ACTION:UPD 14-03-13 09:52 OP:ep   STATUS:               ID:20140106014112 L   I
 OLDACT:REG 14-01-06 09:01 OP:y    STATUS:               ID:20140106014000     3
 2014-01-06-0140-00M.COL___285                                                 6
 STAT SP IPHASW D HRMM SECON CODA AMPLIT PERI AZIMU VELO AIN AR TRES W  DIS CAZ7
 BAR2 SZ EP        141 32.26                             170    0.0510 24.3 192 
 BAR2 SZ ES        141 47.05                             170   -0.5810 24.3 192 
 BAR2 SZ I         141 48.21        50.4 0.22            170           24.3 192 
 BRR  HZ EP        141 34.15                             153    0.4310 71.6 298 
 BRR  HN ES        141 51.17                             153    0.8510 71.6 298 
 BRR  HZ I         141 54.24        10.5 0.34            150           71.6 298 
 PAM  SZ EP        141 35.17                             151    0.4810 76.2  39 
 PAM  SN ES        141 52.16                             151    0.1110 76.2  39 
 PAM  SZ I         141 54.15        18.4 0.50            154           76.2  39 
 RUS  HZ EP        141 36.30                             144   -0.0410  101 177 
 RUS  HN ES        141 55.09                             144    0.1010  101 177 
 RUS  HZ I         141 55.74        12.0 0.24            147            101 177 
 PTB  HZ EP        141 38.95                             132   -0.63 9  149 259 
 PTB  HN ES        142  0.01                             132   -0.75 9  149 259 
 PTB  HZ I         142  5.52         8.8 0.46            132            149 259 
 OCA  HZ EP        141 39.82                             130   -0.94 9  160 353 
 OCA  HN ES        142  2.57                             130   -0.29 9  160 353 
 OCA  HZ I         142  9.20         6.1 0.50            131            160 353 
 ZAR  HZ EP        141 45.01                             122    0.00 9  205 292 
 ZAR  HE ES        142 10.90                             122    0.49 9  205 292 
 ZAR  HZ I         142 18.83         7.6 0.34            123            205 292 
 NOR  HZ EP        141 48.46                             119    0.10 8  236 234 
 NOR  HN ES        142 16.22                             119   -0.15 8  236 234 
 NOR  HZ I         142 22.26         5.3 0.22            120            236 234 
 SML  HZ EP        141 48.81                             118   -0.27 8  243 335 
 SML  HN ES        142 17.79                             118    0.13 8  243 335 
 CHI  HZ EP        141 50.82                             117    0.52 8  250 195 
 CHI  HN ES        142 19.58                             117   -0.26 8  250 195 
 CHI  HZ I         142 22.96         2.4 0.34            119            250 195 
 GUY2CHZ EP        141 57.02                             112    0.79 7  302 235 
 GUY2CHN ES        142 30.47                             112    0.08 7  302 235 
 GUY2CHZ I         142 37.32         3.3 0.28                           302 235 
                                                                                
