 2012 10 6 0255 38.8 L   6.778 -73.111146.8  RSN  6 0.2 1.5LRSN                1
 GAP=142        0.43       2.7     3.2  4.6  0.1278E+01  0.2483E+01  0.7661E+00E
 Epicentro: LOS SANTOS - SANTANDER                                             3
 ACTION:UPD 12-11-22 17:02 OP:ep   STATUS:               ID:20121006025539dL   I
 2012-10-06-0250-00M.COL___222                                                 6
 STAT SP IPHASW D HRMM SECON CODA AMPLIT PERI AZIMU VELO AIN AR TRES W  DIS CAZ7
 BAR2 SZ ES   1    256 13.77                             171   -0.11 7 22.0 201 
 BAR2 SZ I         256 15.47         7.2 0.28                          22.0 201 
 BRR  HZ EP   1    256  0.42                             151    0.14 7 75.7 299 
 BRR  HN ES   1    256 17.25                             151    0.18 7 75.7 299 
 PAM  SZ EP   1    256  1.09                             151    0.03 7 76.9  36 
 PAM  SZ I         256  1.61         4.9 0.18                          76.9  36 
 PAM  SN ES   1    256 18.18                             151   -0.27 7 76.9  36 
 PAM  SN I         256 19.37         3.9 0.48                          76.9  36 
 RUS  HZ EP   1    256  2.65                             144    0.22 7 98.0 178 
 RUS  HE ES   1    256 20.96                             144    0.07 7 98.0 178 
 ZAR  HN ES   1    256 37.30                             122   -0.15 6  209 292 
 ZAR  HN I         256 42.32         3.6 0.23                           209 292 
 CHI  HN ES   2    256 45.16                             117   -0.56 4  247 196 
 CHI  HN I         256 48.58         2.4 0.35                           247 196 
                                                                                
