 2017  3 6 0656 54.0 L   6.772 -73.125140.0  RSN 18 0.4 2.3LRSN                1
 GAP= 97        0.67       2.4     2.0  3.5 -0.4661E+00  0.4850E+00  0.2267E+01E
 Epicentro: LOS SANTOS - SANTANDER                                             3
 ACTION:UPD 17-05-25 18:36 OP:jn   STATUS:               ID:20170306065654 L   I
 OLDACT:UP  17-03-06 15:33 OP:and  STATUS:               ID:20170306064745     3
 OLDACT:UP  17-03-06 15:33 OP:and  STATUS:               ID:20170306064745     3
 OLDACT:UP  17-03-06 15:31 OP:and  STATUS:               ID:20170306064745     3
 OLDACT:UP  17-03-06 15:31 OP:and  STATUS:               ID:20170306064745     3
 OLDACT:UP  17-03-06 15:30 OP:and  STATUS:               ID:20170306064745     3
 OLDACT:UP  17-03-06 15:30 OP:and  STATUS:               ID:20170306064745     3
 OLDACT:UP  17-03-06 15:30 OP:and  STATUS:               ID:20170306064745     3
 OLDACT:UP  17-03-06 15:29 OP:and  STATUS:               ID:20170306064745     3
 OLDACT:UP  17-03-06 15:29 OP:and  STATUS:               ID:20170306064745     3
 OLDACT:REG 17-03-06 12:26 OP:and  STATUS:               ID:20170306064745     3
 2017-03-06-0648-00M.COL___387                                                 6
 STAT SP IPHASW D HRMM SECON CODA AMPLIT PERI AZIMU VELO AIN AR TRES W  DIS CAZ7
 BAR2 EZ IP     C  657 12.84                             171   -0.0610 20.9 198 
 BAR2 EZ ES        657 27.25                             171   -0.3910 20.9 198 
 BAR2 EZ I         657 30.19        65.9 0.42            167           20.9 198 
 BRR  HZ EP        657 14.68                             150   -0.0710 74.7 300 
 BRR  HN ES        657 31.39                             150    0.4710 74.7 300 
 BRR  HZ I         657 32.63        24.9 0.20            149           74.7 300 
 PAM  EZ IP     C  657 15.73                             150    0.0510 78.3  37 
 PAM  EN ES        657 32.38                             150   -0.1910 78.3  37 
 PAM  EZ I         657 34.96        45.3 0.64            154           78.3  37 
 RUS  HZ EP        657 16.92                             144   -0.0510 97.4 177 
 RUS  HN ES        657 35.33                             144    0.4610 97.4 177 
 RUS  HZ I         657 36.96        58.8 0.40            142           97.4 177 
 PTB  HZ EP   9    657 19.60                             130   -1.08 0  149 260 
 PTB  HN ES        657 40.25                             131   -0.15 9  149 260 
 PTB  HZ I         657 43.78        24.4 0.32            129            149 260 
 TAM  HZ IP     C  657 21.22                             130    0.26 9  152 104 
 TAM  HN ES        657 42.10                             130    0.13 9  152 104 
 SPBC HZ EP        657 21.72                             128   -0.27 9  162 220 
 SPBC HN ES        657 43.95                             128    0.13 9  162 220 
 SPBC HZ I         657 46.34        23.9 0.27            126            162 220 
 ZAR  HZ EP   2    657 25.90                             121   -0.54 4  207 293 
 ZAR  HN ES        657 51.81                             121    0.09 8  207 293 
 ZAR  HZ I         657 58.00        12.4 0.04            120            207 293 
 NOR  HZ EP        657 29.31                             117   -0.12 8  235 235 
 NOR  HN ES        657 56.88                             117   -0.18 8  235 235 
 NOR  HZ I         658  4.09        11.4 0.20            117            235 235 
 CHI  HZ EP        657 31.24                             116    0.09 8  246 196 
 CHI  HN ES        658  0.03                             116   -0.08 8  246 196 
 CHI  HZ I         658  3.73         6.9 0.50            116            246 196 
 ROSC BZ EP   3    657 33.14                             116    1.47 2  251 212 
 ROSC BN ES   4    658  4.56                             116    3.51 0  251 212 
 ROSC BZ I         658  9.94        10.3 0.35            115            251 212 
 HEL  HZ EP   3    657 35.23                             114    1.12 2  274 257 
 HEL  HN ES   2    658  4.53                             114   -0.85 4  274 257 
 HEL  HZ I         658 11.87        10.7 0.68            113            274 257 
 URE  HZ EP   4    657 33.71                             112   -1.47 0  287 292 
 URE  HN ES   4    658  4.84                             112   -2.45 0  287 292 
 URE  HZ I         658  8.74        10.1 0.20            112            287 292 
 PTGC HZ EP        657 36.34                             111   -0.86 7  305 159 
 PTGC HN ES   4    658  9.33                             111   -1.55 0  305 159 
 PTGC HZ I         658 14.13        10.1 0.27            111            305 159 
 CBOC HZ EP   2    657 41.22                             109    0.38 3  335 253 
 CBOC HN ES   2    658 17.52                             109    0.15 3  335 253 
 CBOC HZ I         658 19.36         3.2 0.20            109            335 253 
 ANIL HZ EP   3    657 44.55                             108    1.01 2  357 225 
 ANIL HN ES   2    658 23.13                             108    0.96 3  357 225 
 ANIL HZ I         658 30.08        13.1 0.38            107            357 225 
 PRA  HZ EP   2    657 47.52                             106    0.35 3  391 210 
 PRA  HN ES   3    658 29.79                             106    1.17 1  391 210 
 PRA  HZ I         658 34.71         4.8 0.36            106            391 210 
 SJC  HZ EP   4    657 47.37                             105   -2.47 0  413 327 
 SJC  HN ES   4    658 29.45                             105   -3.94 0  413 327 
 SJC  HZ I         658 33.32         4.3 0.42            105            413 327 
                                                                                
