 2010  9 6 0053  0.6 L   6.793 -73.042145.0  RSN 12 0.4 1.9LRSN                1
 GAP=170        0.94       3.9     8.6  7.7 -0.3801E+01  0.7581E+01 -0.9759E+00E
 Epicentro: LOS SANTOS - SANTANDER                                             3
 ACTION:UP  11-02-18 11:00 OP:tino STATUS:               ID:20100906005300 L   I
 2010-09-06-0052-03S.COL___120                                                 6
 STAT SP IPHASW D HRMM SECON CODA AMPLIT PERI AZIMU VELO SNR AR TRES W  DIS CAZ7
 BAR2 SZ EP   1    053 20.13                             169    -0.1 7   27 215 
 BAR2 SZ ES   2    053 34.96                             169    -0.6 5   27 215 
 BAR2 SZ I         053 38.20        12.2 0.34                            27 215 
 BTL  SZ EP   1    053 21.36                             168     1.1 7   29 299 
 GIR2 SZ EP   2    053 20.49                             165     0.1 5   36 332 
 BRR  HZ EP        053 22.07                             149    -0.310   82 295 
 BRR  HZ I         053 23.64        27.6 0.12                            82 295 
 BRR  HN ES   1    053 39.24                             149     0.0 7   82 295 
 RUS  HZ EP   1    053 23.96                             144    -0.3 7  100 183 
 RUS  HN ES        053 42.88                             144     0.210  100 183 
 RUS  HZ I         053 44.03         4.2 0.17                           100 183 
 GUE  SZ EP   2    053 25.94                             140     0.7 5  115   6 
 GUE  SZ I         053 34.93         4.7 0.47                           115   6 
 GRA  SZ EP   1    053 25.14                             137    -0.5 7  124  12 
 GRA  SZ I         053 46.85         8.9 0.37                           124  12 
 OCA  SZ EP   1    053 29.21                             129     0.1 7  163 349 
 OCA  SZ ES   1    053 51.32                             129     0.0 7  163 349 
 OCA  SZ I         053 56.47        15.3 0.39                           163 349 
 CHI  HZ EP   1    053 38.16                             117    -0.4 6  251 198 
 CHI  HZ I         053 40.87         2.7 0.37                           251 198 
 CHI  HN ES   2    054  7.73                             117    -0.4 4  251 198 
 HEL  HZ EP   2    053 41.84                             114    -0.2 4  283 257 
 HEL  HZ I         054 19.89         5.2 0.09                           283 257 
 RREF HZ EP   1    053 48.24                             110     0.5 5  330 231 
 RREF HN ES   1    054 24.61                             110     0.2 5  330 231 
 RREF HZ I         054 28.60         4.7 0.28                           330 231 
 PRA  HZ EP   1    053 54.41                             106    -0.3 4  397 211 
 PRA  HZ I         054 40.70         3.6 0.37                           397 211 
                                                                                
