 2012  2 6 0519 17.7 L   6.804 -73.140144.7  RSN 16 0.5 2.7LRSN                1
 GAP=103        0.93       3.1     3.4  5.4 -0.1680E-02  0.2396E+01  0.1331E+01E
 ACTION:UP  12-03-07 16:28 OP:epov STATUS:               ID:20120206051917 L   I
 2012-02-06-0516-00S.MAN___181                                                 6
 STAT SP IPHASW D HRMM SECON CODA AMPLIT PERI AZIMU VELO SNR AR TRES W  DIS CAZ7
 BAR2 SZ EP        519 37.37                             170    0.1510 23.9 191 
 BAR2 SZ ES   1    519 52.27                             170   -0.17 7 23.9 191 
 BAR2 SZ I         519 53.69       286.7 0.28                          23.9 191 
 BRR  HZ IP     D  519 39.22                             152    0.4610 71.6 298 
 BRR  HE ES   1    519 56.11                             152    0.93 7 71.6 298 
 BRR  HZ I         520  1.28       160.4 0.18                          71.6 298 
 PAM  SZ EP        519 40.14                             151    0.3810 76.6  39 
 PAM  SN ES   1    519 56.96                             151   -0.01 7 76.6  39 
 RUS  HZ EP        519 41.33                             144   -0.0510  101 176 
 RUS  HE ES        519 59.27                             144   -0.5710  101 176 
 RUS  HZ I         520  0.87        64.4 0.23                           101 176 
 PTB  HZ EP   1    519 44.16                             132   -0.49 7  148 259 
 PTB  HN ES   1    520  4.57                             132   -1.10 7  148 259 
 YOP  SZ EP   1    519 48.00                             126    0.32 7  179 154 
 YOP  SZ I         519 51.26        28.4 0.33                           179 154 
 YOP  SE ES   1    520 11.19                             126    0.13 7  179 154 
 ZAR  HZ EP   1    519 50.00                             122   -0.12 6  204 292 
 ZAR  HE ES        520 15.15                             122   -0.26 9  204 292 
 ZAR  HZ I         520 21.77        67.4 0.13                           204 292 
 NOR  SZ EP   1    519 53.49                             118    0.04 6  235 234 
 NOR  SE ES   1    520 21.62                             118    0.28 6  235 234 
 CHI  HZ EP   1    519 55.60                             117    0.19 6  249 195 
 CHI  HN ES   1    520 24.67                             117   -0.14 6  249 195 
 ROSC BE ES   1    520 26.50                             116    0.91 6  253 211 
 ROSC BZ I         520 31.19        34.8 0.52                           253 211 
 HEL  HZ EP   1    519 58.78                             114    0.84 6  273 256 
 HEL  HE ES   1    520 28.72                             114   -0.61 6  273 256 
 HEL  HZ I         520 36.55        22.8 0.37                           273 256 
 VIL  SZ EP   1    520  0.97                             112   -0.16 5  304 192 
 VIL  SN ES   1    520 34.76                             112   -0.25 5  304 192 
 RREF HN ES   1    520 40.28                             111    0.37 5  323 229 
 RREF HZ I         520 47.25        27.5 0.32                           323 229 
 COD  HZ EP   1    520  5.35                             109   -0.64 5  348 354 
 COD  HZ I         520 47.10        23.1 0.47                           348 354 
 SDV  BZ EP        520  7.02                             108   -0.59 6  360  50 
 SDV  BZ I         520 47.43        10.2 0.33                           360  50 
 PRA  HZ EP   1    520 10.73                             106   -0.54 4  393 210 
                                                                                
