 2017  7 6 0715 58.8 L   6.732 -73.161145.4  RSN  6 0.3 1.4LRSN                1
 GAP=244        0.79       4.9     5.2  6.3  0.6480E+00  0.8814E+01 -0.3004E+01E
 Epicentro: VILLANUEVA - SANTANDER                                             3
 ACTION:UPD 17-08-30 15:30 OP:rebc STATUS:               ID:20170706071558 L   I
 OLDACT:UP  17-07-06 14:09 OP:edw  STATUS:               ID:20170706070641     3
 OLDACT:REG 17-07-06 13:46 OP:edw  STATUS:               ID:20170706070641     3
 2017-07-06-0707-00M.COL___379                                                 6
 STAT SP IPHASW D HRMM SECON CODA AMPLIT PERI AZIMU VELO AIN AR TRES W  DIS CAZ7
 BAR2 EZ IP     C  716 18.01                             174   -0.2510 15.7 188 
 BAR2 EZ ES        716 33.55                             174    0.1110 15.7 188 
 BAR2 EZ I         716 35.40         4.8 0.40            172           15.7 188 
 BRR  HZ IP     C  716 19.91                             152   -0.1510 73.6 304 
 BRR  HN ES        716 36.76                             152    0.1410 73.6 304 
 BRR  HZ I         716 41.42         3.3 0.26            148           73.6 304 
 PTB  HZ EP        716 25.19                             133   -0.29 9  145 262 
 PTB  HN ES        716 45.77                             133   -0.50 9  145 262 
 PTB  HZ I         716 49.69         2.2 0.18            132            145 262 
 SPBC HN ES        716 48.73                             130    0.40 9  156 220 
 SPBC HZ I         716 51.40         3.6 0.24            132            156 220 
 ZAR  HZ EP        716 32.00                             122    0.63 8  205 294 
 ZAR  HN ES        716 56.85                             122    0.09 8  205 294 
 ZAR  HZ I         717  4.89         3.5 0.30            123            205 294 
 NOR  HE ES   2    717  1.20                             119   -0.08 4  229 236 
                                                                                
