 2012  2 6 0758 12.3 L   6.801 -73.173144.0  RSN  9 0.4 2.0LRSN                1
 GAP=133        0.85       4.0     4.5  6.7  0.9351E-01  0.7751E+01  0.7901E+01E
 ACTION:UP  12-03-07 16:28 OP:epov STATUS:               ID:20120206075812 L   I
 2012-02-06-0756-00S.MAN___181                                                 6
 STAT SP IPHASW D HRMM SECON CODA AMPLIT PERI AZIMU VELO SNR AR TRES W  DIS CAZ7
 BAR2 SZ EP        758 31.70                             170   -0.0110 23.1 183 
 BAR2 SZ ES   1    758 46.30                             170   -0.56 7 23.1 183 
 BAR2 SZ I         758 47.88        25.3 0.29                          23.1 183 
 BRR  HZ EP        758 33.55                             153    0.4410 68.5 300 
 BRR  HE ES   1    758 50.22                             153    0.88 7 68.5 300 
 BRR  HZ I         758 54.72        20.2 0.16                          68.5 300 
 PAM  SZ EP   1    758 34.62                             150    0.18 7 79.2  41 
 PAM  SN ES   1    758 51.36                             150   -0.35 7 79.2  41 
 RUS  HZ EP   1    758 35.76                             143   -0.14 7  101 174 
 RUS  HN ES   1    758 54.63                             143    0.31 7  101 174 
 RUS  HZ I         758 56.31        14.9 0.48                           101 174 
 PTB  HZ EP        758 38.43                             132   -0.43 9  145 259 
 PTB  HN ES   1    758 58.87                             132   -0.71 7  145 259 
 ZAR  HN ES   1    759  9.03                             122   -0.30 6  201 292 
 ZAR  HZ I         759 15.96        10.9 0.27                           201 292 
 NOR  SZ EP   1    758 47.76                             118    0.09 6  232 234 
 NOR  SN ES   1    759 15.85                             118    0.59 6  232 234 
 CHI  HZ EP   1    758 49.87                             117    0.04 6  248 194 
 CHI  HN ES        759 19.11                             117    0.01 8  248 194 
 CHI  HZ I         759 23.32         6.0 0.49                           248 194 
 PRA  HZ EP   1    759  5.47                             106   -0.13 4  391 209 
                                                                                
