 2013  8 6 0455 57.2 L   6.809 -73.146148.1  RSN 12 0.5 1.8LRSN                1
 GAP=136        1.11       3.0     4.6  6.1 -0.9523E+00  0.7324E+01  0.9654E+00E
 Epicentro: LOS SANTOS - SANTANDER                                             3
 ACTION:UPD 14-01-14 08:59 OP:ep   STATUS:               ID:20130806045557 L   I
 OLDACT:REG 13-08-06 07:49 OP:jn   STATUS:               ID:20130806044960d    3
 2013-08-06-0449-59M.COL___267                                                 6
 STAT SP IPHASW D HRMM SECON CODA AMPLIT PERI AZIMU VELO AIN AR TRES W  DIS CAZ7
 BAR2 SZ EP        456 17.13                             170   -0.0210 24.3 190 
 BAR2 SZ ES        456 32.11                             170   -0.5910 24.3 190 
 BAR2 SZ I         456 33.94        12.8 0.48            167           24.3 190 
 BRR  HZ EP        456 19.04                             153    0.4410 70.7 298 
 BRR  HN ES        456 36.43                             153    1.1610 70.7 298 
 BRR  HZ I         456 41.32         9.0 0.14            152           70.7 298 
 PAM  SZ EP        456 20.02                             151    0.3810 76.6  40 
 PAM  SN ES        456 37.19                             151    0.0610 76.6  40 
 PAM  SZ I         456 39.30         8.2 0.54            158           76.6  40 
 RUS  HZ EP        456 20.98                             144   -0.3010  102 176 
 RUS  HE ES        456 39.74                             144   -0.2910  102 176 
 RUS  HZ I         456 42.38         5.5 0.50            146            102 176 
 PTB  HZ EP        456 23.89                             132   -0.51 9  148 258 
 PTB  HN ES        456 45.02                             132   -0.57 9  148 258 
 PTB  HZ I         456 51.08         6.9 0.28            132            148 258 
 OCA  HN ES        456 47.68                             130   -0.09 9  159 353 
 SPBC HZ EP        456 26.08                             129    0.10 9  164 219 
 SPBC HE ES        456 48.56                             129    0.16 9  164 219 
 SPBC HZ I         456 55.13        12.2 0.28            130            164 219 
 ZAR  HZ EP   1    456 30.55                             123    0.77 6  204 292 
 ZAR  HN ES        456 54.87                             123   -0.31 9  204 292 
 ZAR  HZ I         457  0.68         9.8 0.46            124            204 292 
 NOR  HZ EP   1    456 32.81                             119   -0.34 6  235 234 
 NOR  HE ES   1    457  1.52                             119    0.35 6  235 234 
 NOR  HZ I         457  8.45         6.6 0.28            120            235 234 
 SML  HZ EP        456 33.55                             118   -0.33 8  243 335 
 SML  HN ES        457  1.87                             118   -0.61 8  243 335 
 CHI  HZ EP   1    456 35.31                             117    0.15 6  250 195 
 CHI  HN ES        457  5.02                             117    0.28 8  250 195 
 CHI  HZ I         457 10.43         3.7 0.26            119            250 195 
 GUY2CHZ EP        456 41.46                             113    0.45 7  302 235 
 GUY2CHN ES   4    457 19.54                             113    4.38 0  302 235 
 GUY2CHZ I         457 24.08         4.0 0.42                           302 235 
                                                                                
