 2017 12 6 0039 17.3 L   6.880 -73.361120.6  RSN 16 0.5 2.1LRSN                1
 GAP= 65        1.15       2.4     3.0  5.9 -0.1846E+00  0.5132E+01  0.1382E+00E
 Epicentro: SAN VICENTE DE CHUCURI - SANTANDER                                 3
 ACTION:UPD 18-01-04 13:17 OP:rebc STATUS:               ID:20171206003917 L   I
 OLDACT:UP  17-12-06 14:32 OP:leo  STATUS:               ID:20171206003740     3
 OLDACT:UP  17-12-06 14:31 OP:leo  STATUS:               ID:20171206003740     3
 OLDACT:UP  17-12-06 14:27 OP:leo  STATUS:               ID:20171206003740     3
 OLDACT:REG 17-12-06 12:42 OP:leo  STATUS:               ID:20171206003740     3
 2017-12-06-0038-00M.COL___489                                                 6
 STAT SP IPHASW D HRMM SECON CODA AMPLIT PERI AZIMU VELO AIN AR TRES W  DIS CAZ7
 BAR2 EZ EP        039 34.46                             162    0.0910 37.5 148 
 BAR2 EZ ES        039 47.49                             162   -0.1910 37.5 148 
 BAR2 EZ I         039 48.91        54.2 0.30            164           37.5 148 
 PAM  EZ EP        039 37.98                             141    0.2110 89.0  55 
 PAM  EE ES        039 54.46                             141    0.7410 89.0  55 
 PAM  EZ I         039 56.18        12.8 0.30            145           89.0  55 
 RUS  HZ EP        039 39.28                             134   -0.4910  113 164 
 RUS  HN ES        039 57.28                             134   -0.0110  113 164 
 RUS  HZ I         039 58.02        11.0 0.24            137            113 164 
 PTB  HZ EP        039 39.74                             130   -0.6010  127 253 
 PTB  HN ES        039 57.53                             130   -0.7710  127 253 
 PTB  HZ I         040  2.97        12.1 0.24            132            127 253 
 OCA  HZ EP        039 42.61                             125   -0.19 9  150   2 
 OCA  HN ES        040  2.07                             125   -0.61 9  150   2 
 SPBC HN ES        040  4.09                             124    0.39 9  157 210 
 ZAR  HZ EP        039 45.46                             120   -0.06 9  179 292 
 ZAR  HN ES        040  8.23                             120    0.71 9  179 292 
 ZAR  HZ I         040 12.26        16.7 0.30            122            179 292 
 TAM  HZ EP        039 45.60                             120   -0.15 9  180 106 
 TAM  HE ES   4    040  7.42                             120   -0.51 0  180 106 
 YPLC HZ EP        039 47.40                             117   -0.14 9  197 146 
 YPLC HN ES        040 10.70                             117   -0.42 9  197 146 
 YPLC HZ I         040 13.52        36.4 0.30            120            197 146 
 CHI  HZ EP        039 54.32                             111    0.16 8  252 189 
 CHI  HN ES        040 23.97                             111    1.08 8  252 189 
 URE  HZ EP        039 53.96                             110   -0.40 8  258 292 
 URE  HN ES        040 23.05                             110   -0.21 8  258 292 
 URE  HZ I         040 24.78        10.9 0.14            112            258 292 
 DRL03HZ EP        039 57.04                             109    0.45 7  278 357 
 DRL03HN ES        040 27.81                             109    0.58 7  278 357 
 GUY2CHZ EP        039 58.66                             108    0.36 7  288 231 
 GUY2CHE ES        040 30.30                             108    0.02 7  288 231 
 GUY2CHZ I         040 36.49         5.7 0.40                           288 231 
 ELA  HN ES        040 36.93                             106    0.31 7  318 225 
 PRA  HZ EP        040  8.41                             102   -1.28 6  389 206 
 PRA  HE ES        040 50.81                             102    0.27 6  389 206 
 PAL  HZ EP        040 10.80                             102    0.89 6  390 236 
                                                                                
