 2013 10 6 0918 46.5 L   6.800 -73.172143.8  RSN  4 0.2 1.3LRSN                1
 GAP=251        0.63       4.5     4.3  5.5  0.3735E+01  0.6156E+01 -0.3854E+01E
 Epicentro: LOS SANTOS - SANTANDER                                             3
 ACTION:UPD 13-11-25 09:19 OP:ep   STATUS:               ID:20131006091846 L   I
 OLDACT:DUP 13-10-06 10:53 OP:nd   STATUS:               ID:20131006090960d    3
 2013-10-06-0909-59M.COL___273                                                 6
 STAT SP IPHASW D HRMM SECON CODA AMPLIT PERI AZIMU VELO AIN AR TRES W  DIS CAZ7
 BAR2 SZ EP        919  5.88                             170    0.0210 23.0 183 
 BAR2 SZ ES        919 20.97                             170   -0.0110 23.0 183 
 BAR2 SZ I         919 23.82         7.0 0.52            168           23.0 183 
 PTB  HZ EP        919 13.34                             132    0.31 9  145 259 
 PTB  HN ES        919 33.53                             132   -0.21 9  145 259 
 PTB  HZ I         919 36.23         2.5 0.14            133            145 259 
 SPBC HZ EP        919 14.77                             129    0.12 9  161 218 
 SPBC HN ES        919 36.58                             129   -0.05 9  161 218 
 SPBC HZ I         919 41.94         3.0 0.24            130            161 218 
 ZAR  HZ EP        919 18.01                             122   -0.51 9  201 292 
 ZAR  HN ES        919 43.82                             122    0.30 9  201 292 
 ZAR  HZ I         919 46.32         1.0 0.26            124            201 292 
                                                                                
