 2015 11 6 0928 41.8 L   6.799 -72.932154.0  RSN  6 0.5 1.5LRSN                1
 GAP=219        0.88       6.2     7.3  9.8  0.1188E+02  0.1034E+02  0.1656E+02E
 Epicentro: CEPITA - SANTANDER                                                 3
 ACTION:UPD 15-12-28 16:09 OP:cam  STATUS:               ID:20151106092841 L   I
 OLDACT:DUP 15-11-06 13:55 OP:snl  STATUS:               ID:20151106092741d    3
 OLDACT:REG 15-11-06 11:16 OP:drio STATUS:               ID:20151106092740     3
 2015-11-06-0927-40M.COL___310                                                 6
 STAT SP IPHASW D HRMM SECON CODA AMPLIT PERI AZIMU VELO AIN AR TRES W  DIS CAZ7
 BAR2 EZ EP        929  2.88                             166    0.2010 35.9 230 
 BAR2 EZ I         929 19.83         5.0 0.26            174           35.9 230 
 BRR  HZ EP   2    929  4.94                             147   -0.15 5 92.7 292 
 BRR  HE ES        929 22.70                             147   -0.5910 92.7 292 
 RUS  HZ EP   2    929  7.09                             145    0.69 5  102 189 
 RUS  HN ES   2    929 25.83                             145    0.21 5  102 189 
 RUS  HZ I         929 26.43         2.7 0.26            144            102 189 
 ZAR  HZ EP   4    929 15.60                             121   -1.42 0  226 290 
 ZAR  HN ES        929 45.27                             121    0.75 8  226 290 
 ZAR  HZ I         929 46.94         5.5 0.38            119            226 290 
 SML  HZ EP   2    929 19.40                             117   -0.62 4  255 330 
 SML  HE ES   2    929 50.13                             117    0.27 4  255 330 
 GUY2CHZ EP        929 27.53                             112   -0.42 7  321 237 
 GUY2CHE ES        930  3.86                             112   -0.12 7  321 237 
 GUY2CHZ I         930  8.41         1.3 0.41                           321 237 
                                                                                
