 2013  7 6 0357  8.3 L   6.788 -73.182149.1  RSN  5 0.4 1.1LRSN                1
 GAP=176        0.84       8.3     6.4  9.1  0.1657E+02  0.1623E-01  0.2866E+00E
 Epicentro: LOS SANTOS - SANTANDER                                             3
 ACTION:UPD 13-08-12 10:35 OP:ep   STATUS:               ID:20130706035708 L   I
 OLDACT:REG 13-07-06 07:50 OP:jn   STATUS:               ID:20130706034959     3
 2013-07-06-0349-59M.COL___267                                                 6
 STAT SP IPHASW D HRMM SECON CODA AMPLIT PERI AZIMU VELO AIN AR TRES W  DIS CAZ7
 BAR2 SZ EP   1    357 27.78                             171   -0.51 8 21.6 180 
 BAR2 SZ ES   1    357 43.71                             171   -0.17 8 21.6 180 
 BAR2 SZ I         357 44.63         2.9 0.18            169           21.6 180 
 GIR2 SZ EP   1    357 28.15                             167   -0.23 8 32.2 358 
 BRR  HN ES   1    357 46.88                             154    0.58 8 68.4 301 
 RUS  HZ EP   1    357 32.46                             145    0.16 8 99.6 174 
 RUS  HN ES   1    357 51.32                             145    0.29 8 99.6 174 
 RUS  HZ I         357 52.71         1.1 0.30            144           99.6 174 
 PTB  HZ EP   1    357 35.75                             134    0.60 7  144 259 
 PTB  HN ES        357 55.69                             134   -0.4210  144 259 
 PTB  HZ I         357 57.55         3.0 0.16            134            144 259 
                                                                                
