 2016  5 6 0946 51.0 L   6.802 -73.122140.9  RSN  5 0.3 1.0LRSN                1
 GAP=139        0.67       3.1     5.3  5.6 -0.4436E+01 -0.3067E+01  0.5245E+01E
 Epicentro: LOS SANTOS - SANTANDER                                             3
 ACTION:UPD 16-08-18 17:42 OP:cam  STATUS:               ID:20160506094651 L   I
 OLDACT:REG 16-05-06 14:12 OP:ak   STATUS:               ID:20160506093750     3
 2016-05-06-0937-50M.COL___284                                                 6
 STAT SP IPHASW D HRMM SECON CODA AMPLIT PERI AZIMU VELO AIN AR TRES W  DIS CAZ7
 BAR2 EZ EP        947 10.09                             170   -0.0210 24.1 196 
 BAR2 EZ ES        947 24.63                             170   -0.3510 24.1 196 
 BAR2 EZ I         947 24.96         2.6 0.26            170           24.1 196 
 BRR  HZ EP   2    947 11.54                             151   -0.26 5 73.4 297 
 BRR  HE ES        947 28.06                             151    0.0710 73.4 297 
 PAM  EZ EP        947 12.94                             150    0.3010 75.6  38 
 PAM  EN ES        947 29.57                             150    0.0910 75.6  38 
 PAM  EZ I         947 32.97         2.4 0.30            149           75.6  38 
 RUS  HZ EP   1    947 13.78                             143   -0.54 7  101 178 
 RUS  HN ES        947 32.58                             143    0.1010  101 178 
 RUS  HZ I         947 34.63         1.5 0.24            143            101 178 
 CHI  HZ EP   2    947 28.01                             116   -0.56 4  250 196 
 CHI  HE ES        947 58.26                             116    0.41 8  250 196 
                                                                                
