 2011 11 6 0105 26.1 L   6.776 -73.105138.6  RSN  4 0.1 1.3LRSN                1
 GAP=143        0.32       3.4     4.3  5.2  0.4850E+01  0.5136E+00  0.4115E+01E
 Epicentro: LOS SANTOS - SANTANDER                                             3
 ACTION:UPD 12-07-13 16:08 OP:ep   STATUS:               ID:20111106010526 L   I
 2011-11-06-0104-00S.COL___174                                                 6
 STAT SP IPHASW D HRMM SECON CODA AMPLIT PERI AZIMU VELO AIN AR TRES W  DIS CAZ7
 BAR2 SZ EP        1 5 44.99                             170    0.1010 22.1 203 
 BAR2 SZ I         1 6  2.35         3.3 0.28                          22.1 203 
 BRR  HZ EP        1 5 46.78                             149   -0.0510 76.4 299 
 BRR  HZ I         1 5 47.09         8.5 0.16                          76.4 299 
 BRR  HE ES   1    1 6  2.98                             149    0.01 7 76.4 299 
 PAM  SN ES   2    1 6  4.19                             150   -0.07 5 76.7  36 
 RUS  HZ EP   2    1 5 48.91                             143   -0.08 5 97.8 179 
 RUS  HE ES   2    1 6  6.73                             143   -0.07 5 97.8 179 
 RUS  HZ I         1 6 11.11         2.3 0.44                          97.8 179 
                                                                                
