 2017  4 6 0903 27.7 L   6.799 -73.150147.6  RSN 13 0.4 1.9LRSN                1
 GAP=111        0.88       2.8     3.2  4.8  0.1380E+01  0.3074E+01  0.2247E+01E
 Epicentro: LOS SANTOS - SANTANDER                                             3
 ACTION:UPD 17-05-30 21:09 OP:jn   STATUS:               ID:20170406090327 L   I
 OLDACT:REG 17-04-06 13:12 OP:cara STATUS:               ID:20170406085748     3
 2017-04-06-0858-00M.COL___357                                                 6
 STAT SP IPHASW D HRMM SECON CODA AMPLIT PERI AZIMU VELO AIN AR TRES W  DIS CAZ7
 BAR2 EZ EP        9 3 47.65                             171    0.1210 23.1 189 
 BAR2 EZ ES        9 4  2.66                             171   -0.3410 23.1 189 
 BAR2 EZ I         9 4  5.47        23.6 0.32            167           23.1 189 
 BRR  HZ EP        9 3 49.46                             153    0.4510 70.8 299 
 BRR  HN ES        9 4  6.18                             153    0.5410 70.8 299 
 BRR  HZ I         9 4 11.14        10.3 0.14            152           70.8 299 
 PAM  EZ IP        9 3 50.43                             151    0.3110 77.8  40 
 PAM  EN ES        9 4  7.14                             151   -0.4710 77.8  40 
 PAM  EZ I         9 4  9.78        10.1 0.48            158           77.8  40 
 RUS  HZ EP        9 3 51.93                             144    0.3210  100 176 
 RUS  HN ES        9 4 10.22                             144   -0.0410  100 176 
 RUS  HZ I         9 4 11.76         7.3 0.20            145            100 176 
 PTB  HZ EP        9 3 54.51                             132   -0.24 9  147 259 
 PTB  HN ES        9 4 15.47                             132   -0.40 9  147 259 
 PTB  HZ I         9 4 23.10         9.6 0.46            132            147 259 
 SPBC HZ EP        9 3 56.49                             129    0.21 9  163 219 
 SPBC HN ES        9 4 18.97                             129    0.38 9  163 219 
 SPBC HZ I         9 4 24.18        19.2 0.38            130            163 219 
 YPLC HZ EP        9 3 57.73                             127    0.11 9  177 151 
 YPLC HN ES        9 4 20.87                             127   -0.10 9  177 151 
 YPLC HZ I         9 4 22.59         7.6 0.28            130            177 151 
 ZAR  HZ EP        9 4  0.05                             123   -0.16 9  204 292 
 ZAR  HN ES        9 4 25.50                             123   -0.07 9  204 292 
 ZAR  HZ I         9 4 31.90         8.6 0.28            124            204 292 
 CHI  HZ EP        9 4  5.19                             117   -0.26 8  248 195 
 CHI  HN ES        9 4 34.26                             117   -0.65 8  248 195 
 CHI  HZ I         9 4 43.65         3.0 0.52            119            248 195 
 ROSC BZ EP   4    9 4  8.19                             117    2.33 0  252 211 
 ROSC BN ES        9 4 36.03                             117    0.39 8  252 211 
 ROSC BZ I         9 4 42.80         8.6 0.50            118            252 211 
 URE  HZ EP        9 4  8.19                             114   -0.61 7  283 292 
 URE  HN ES   4    9 4 39.40                             114   -1.46 0  283 292 
 PTGC HZ EP   4    9 4 10.54                             112   -1.09 0  309 159 
 PTGC HN ES   4    9 4 43.48                             112   -2.42 0  309 159 
 PTGC HZ I         9 4 46.83         4.1 0.46            114            309 159 
 CBOC HZ EP   4    9 4 15.41                             110    0.80 0  333 252 
 CBOC HN ES   4    9 4 49.84                             110   -1.38 0  333 252 
 CBOC HZ I         9 4 55.70         1.6 0.20            111            333 252 
                                                                                
