 2017 12 6 0840 44.8 L   6.817 -73.162140.6  RSN  5 0.4 1.3LRSN                1
 GAP=243        0.63       4.8     4.4  8.0  0.4369E+01  0.1375E+02 -0.6660E+01E
 Epicentro: LOS SANTOS - SANTANDER                                             3
 ACTION:UPD 18-01-04 13:17 OP:rebc STATUS:               ID:20171206084044 L   I
 OLDACT:REG 17-12-06 13:53 OP:leo  STATUS:               ID:20171206083745     3
 2017-12-06-0838-00M.COL___482                                                 6
 STAT SP IPHASW D HRMM SECON CODA AMPLIT PERI AZIMU VELO AIN AR TRES W  DIS CAZ7
 BAR2 EZ EP        841  3.80                             169   -0.0810 25.0 185 
 BAR2 EZ ES        841 18.90                             169    0.1710 25.0 185 
 BAR2 EZ I         841 19.65         5.8 0.34            169           25.0 185 
 RUS  HZ EP   3    841  8.43                             142    0.20 2  103 175 
 RUS  HN ES   2    841 25.68                             142   -0.80 5  103 175 
 RUS  HZ I         841 27.39         3.0 0.38            143            103 175 
 PTB  HN ES        841 31.76                             131   -0.11 9  146 258 
 PTB  HZ I         841 34.77         1.9 0.14            129            146 258 
 SPBC HZ EP   3    841 12.27                             128   -0.71 2  164 218 
 SPBC HE ES        841 35.18                             128    0.25 9  164 218 
 SPBC HZ I         841 38.11         2.2 0.10            127            164 218 
 ZAR  HZ EP   2    841 17.59                             122    0.89 4  202 292 
 ZAR  HE ES        841 41.36                             122   -0.19 9  202 292 
 ZAR  HZ I         841 48.26         2.7 0.38            120            202 292 
                                                                                
