 2012  6 6 0533  3.9 L   6.799 -73.131146.3  RSN  5 0.4 1.6LRSN                1
 GAP=184        0.86       5.3     6.1 14.9  0.1266E+02  0.3454E+01 -0.7126E+01E
 Epicentro: LOS SANTOS - SANTANDER                                             3
 ACTION:UPD 12-08-06 17:47 OP:ep   STATUS:               ID:20120606053302 L   I
 2012-06-06-0530-00M.COL___201                                                 6
 STAT SP IPHASW D HRMM SECON CODA AMPLIT PERI AZIMU VELO AIN AR TRES W  DIS CAZ7
 BAR2 SZ EP        533 23.70                             170    0.0610 23.6 194 
 BAR2 SZ I         533 23.96         7.7 0.20            166           23.6 194 
 RUS  HZ EP        533 27.82                             144    0.0910  100 177 
 RUS  HN ES   1    533 46.46                             144    0.18 7  100 177 
 PTB  HZ EP   1    533 30.62                             132   -0.47 7  149 259 
 PTB  HN ES   1    533 51.58                             132   -0.70 7  149 259 
 PTB  HZ I         533 57.54         3.4 0.30            130            149 259 
 OCA  HN ES   1    533 54.14                             130   -0.32 7  161 353 
 ZAR  HN ES        534  2.68                             122    0.64 8  206 292 
 ZAR  HZ I         534  8.92         4.9 0.30            121            206 292 
                                                                                
