 2013  4 6 0334 39.9 L   6.746 -73.169148.2  RSN  8 0.4 1.7LRSN                1
 GAP=180        0.90       3.6     5.1  6.9  0.3735E+01  0.2029E+01 -0.5874E+01E
 Epicentro: VILLANUEVA - SANTANDER                                             3
 ACTION:UPD 13-05-22 14:36 OP:EP   STATUS:               ID:20130406033439 L   I
 2013-04-06-0330-00M.COL___245                                                 6
 STAT SP IPHASW D HRMM SECON CODA AMPLIT PERI AZIMU VELO AIN AR TRES W  DIS CAZ7
 BAR2 SZ EP        334 59.80                             173    0.1310 17.0 185 
 BAR2 SZ ES   1    335 14.39                             173   -0.74 7 17.0 185 
 BAR2 SZ I         335 16.05        25.8 0.22            171           17.0 185 
 BRR  HZ EP        335  1.60                             153    0.2810 72.1 304 
 BRR  HN ES        335 18.51                             153    0.4510 72.1 304 
 BRR  HZ I         335 22.60         8.3 0.24            151           72.1 304 
 RUS  HZ EP        335  3.77                             146    0.3210 94.8 174 
 RUS  HN ES        335 21.89                             146    0.0410 94.8 174 
 RUS  HZ I         335 23.69         5.5 0.30            148           94.8 174 
 PTB  HZ EP        335  6.55                             133   -0.16 9  144 261 
 PTB  HN ES        335 27.28                             133   -0.37 9  144 261 
 PTB  HZ I         335 29.40         6.0 0.40            133            144 261 
 OCA  HN ES   1    335 31.16                             129   -0.38 7  166 354 
 ZAR  HE ES   1    335 37.95                             123    0.06 6  204 294 
 ZAR  HZ I         335 44.42         4.3 0.24            123            204 294 
 NOR  HN ES   1    335 42.65                             120   -0.01 6  229 235 
 NOR  HZ I         335 46.36         4.8 0.58            120            229 235 
 SML  HZ EP        335 16.33                             117   -0.77 8  248 336 
 SML  HN ES        335 46.62                             117    0.47 8  248 336 
                                                                                
