 2010  3 6 0551 30.6 L   6.803 -73.046148.0  RSN 13 0.5 3.0LRSN                1
 GAP=133        1.04       3.5     5.3  6.0 -0.3841E+01  0.3869E+01  0.2793E+01E
 Epicentro: LOS SANTOS - SANTANDER                                             3
 ACTION:UP  10-08-24 09:52 OP:vdl  STATUS:               ID:20100306055130 L   I
 2010-03-06-0549-37S.COL___101                                                 6
 STAT SP IPHASW D HRMM SECON CODA AMPLIT PERI AZIMU VELO SNR AR TRES W  DIS CAZ7
 BAR2 SZ IP        551 50.59                             169     0.010   28 213 
 BAR2 SZ ES   2    552  5.27                             169    -0.9 5   28 213 
 BRR  HZ IP        551 52.49                             150    -0.110   81 295 
 BRR  HZ I         551 52.84       251.9 0.29                            81 295 
 BRR  HN ES        552 10.18                             150     0.510   81 295 
 RUS  BZ EP        551 54.42                             144    -0.210  101 182 
 RUS  BN ES        552 13.34                             144     0.010  101 182 
 RUS  BZ I         552 14.82       113.1 0.91                           101 182 
 OCA  SZ EP        551 59.04                             130    -0.2 9  162 349 
 OCA  SZ ES   1    552 21.82                             130     0.3 7  162 349 
 CHI  HZ EP        552  8.54                             117    -0.3 8  252 198 
 CHI  HN ES        552 38.40                             117    -0.2 8  252 198 
 CHI  HZ I         552 45.90        43.2 0.94                           252 198 
 ROSC BZ EP        552 10.27                             117     0.7 8  259 213 
 ROSC BE ES   1    552 40.12                             117     0.2 6  259 213 
 ROSC BZ I         552 48.36        41.7 0.22                           259 213 
 HEL  HZ EP        552 11.92                             114    -0.2 7  283 256 
 HEL  HE ES        552 43.84                             114    -0.7 7  283 256 
 HEL  HZ I         552 48.39        38.6 0.82                           283 256 
 RREF BZ EP        552 18.57                             111     0.7 7  330 231 
 RREF BN ES   1    552 55.46                             111     0.8 5  330 231 
 RREF BZ I         552 59.05        36.3 0.13                           330 231 
 DBB  SZ EP        552 18.36                             109    -1.1 6  350 274 
 TOL  SZ EP        552 20.05                             109     0.2 6  352 226 
 TOL  SZ ES   2    552 58.14                             109    -0.2 3  352 226 
 SDV  BZ EP        552 19.99                             109     0.2 6  352  49 
 ANIL BZ EP        552 21.78                             108     0.3 6  365 226 
 ANIL BN ES        553  1.65                             108     0.6 6  365 226 
 ANIL BZ I         553  7.26        60.7 0.28                           365 226 
 PRA  HZ EP        552 24.21                             107    -0.7 6  398 211 
 PRA  HN ES   1    553  6.68                             107    -0.5 4  398 211 
 PRA  HZ I         553 12.38        23.0 0.71                           398 211 
                                                                                
