 2014  1 6 0701 40.9 L   6.836 -73.218131.8  RSN 12 0.7 1.9LRSN                1
 GAP=126        1.63       4.3     6.4  9.4 -0.8940E+01  0.2705E+02 -0.4146E+01E
 Epicentro: ZAPATOCA - SANTANDER                                               3
 ACTION:UPD 14-03-13 09:52 OP:ep   STATUS:               ID:20140106070000 L   I
 OLDACT:UPD 14-01-06 11:16 OP:CAM  STATUS:               ID:20140106070000 L   3
 2014-01-06-0700-00M.COL___285                                                 6
 STAT SP IPHASW D HRMM SECON CODA AMPLIT PERI AZIMU VELO AIN AR TRES W  DIS CAZ7
 BAR2 SZ EP        7 1 59.20                             168    0.2410 27.2 172 
 BAR2 SZ ES        7 2 13.05                             168    0.0210 27.2 172 
 BAR2 SZ I         7 2 15.37        33.6 0.22            166           27.2 172 
 PAM  SZ EP        7 2  1.99                             147    0.1610 79.9  46 
 PAM  SE ES        7 2 18.83                             147    0.6910 79.9  46 
 PAM  SZ I         7 2 21.30        20.8 0.48            146           79.9  46 
 RUS  HZ EP        7 2  3.37                             139   -0.3210  105 172 
 RUS  HN ES        7 2 21.55                             139    0.0910  105 172 
 RUS  HZ I         7 2 22.90        11.8 0.26            136            105 172 
 PTB  HZ EP        7 2  5.82                             130   -0.30 9  141 257 
 PTB  HN ES        7 2 26.33                             130    0.54 9  141 257 
 PTB  HZ I         7 2 29.83        10.2 0.16            125            141 257 
 OCA  HZ EP        7 2  7.34                             127   -0.38 9  156 356 
 OCA  HN ES        7 2 28.48                             127   -0.15 9  156 356 
 OCA  HZ I         7 2 32.55         6.8 0.16            124            156 356 
 SPBC HN ES        7 2 28.38                             126   -1.12 9  161 216 
 SPBC HZ I         7 2 32.75        18.3 0.34            122            161 216 
 NOR  HZ EP        7 2 15.31                             116   -0.12 8  231 233 
 NOR  HN ES        7 2 42.16                             116   -0.18 8  231 233 
 NOR  HZ I         7 2 45.71         6.4 0.18            112            231 233 
 SML  HZ EP        7 2 15.57                             115   -0.47 8  237 337 
 SML  HN ES        7 2 42.93                             115   -0.51 8  237 337 
 CHI  HZ EP        7 2 17.33                             114   -0.76 8  250 193 
 CHI  HZ I         7 2 17.87         4.9 0.18            110            250 193 
 CHI  HN ES        7 2 46.42                             114   -0.66 8  250 193 
 HEL  HZ EP        7 2 20.48                             112    0.78 8  265 255 
 HEL  HE ES        7 2 48.70                             112   -1.25 8  265 255 
 HEL  HZ I         7 2 57.26         4.1 0.26            109            265 255 
 GUY2CHZ EP        7 2 24.99                             110    1.55 7  297 233 
 GUY2CHN ES        7 2 58.33                             110    1.72 7  297 233 
 GUY2CHZ I         7 3  5.29         4.0 0.30                           297 233 
 RREF HZ EP        7 2 27.27                             108    1.17 7  318 228 
 RREF HZ I         7 3 11.37         5.6 0.42            105            318 228 
                                                                                
