 2012  1 6 0638 17.3 L   6.736 -73.064143.9  RSN 12 0.4 2.1LRSN                1
 GAP=150        0.84       3.4     6.2  6.1 -0.7309E+01  0.1595E+02 -0.8496E+00E
 Epicentro: JORDAN - SANTANDER                                                 3
 ACTION:UP  12-02-03 08:14 OP:REBC STATUS:               ID:20120106063817 L   I
 2012-01-06-0630-00M.COL___186                                                 6
 STAT SP IPHASW D HRMM SECON CODA AMPLIT PERI AZIMU VELO SNR AR TRES W  DIS CAZ7
 BAR2 SZ IP        638 36.52                             171    -0.210   21 219 
 BAR2 SZ ES   1    638 51.97                             171     0.2 7   21 219 
 BAR2 SZ I         638 53.24        40.0 0.22                            21 219 
 GIR2 SZ EP   1    638 36.66                             163    -0.4 7   41 339 
 GIR2 SZ ES   1    638 52.51                             163     0.0 7   41 339 
 PAM  SZ EP        638 39.31                             150    -0.110   78  31 
 PAM  SN ES   1    638 56.66                             150     0.1 7   78  31 
 BRR  HZ IP     C  638 38.38                             148    -0.610   83 300 
 BRR  HZ I         638 38.63        68.4 0.12                            83 300 
 RUS  HZ EP        638 40.38                             145     0.010   93 181 
 RUS  HN ES   1    638 58.87                             145     0.5 7   93 181 
 RUS  HZ I         639  0.35        13.9 0.37                            93 181 
 OCA  SZ EP        638 46.77                             128     0.5 9  169 350 
 OCA  SZ ES   1    639  8.91                             128     0.0 7  169 350 
 OCA  SZ I         639 15.06        10.8 0.39                           169 350 
 ZAR  HZ EP   1    638 51.66                             120     0.8 6  215 293 
 ZAR  HZ I         639 21.51        13.8 0.24                           215 293 
 NOR  SN ES   1    639 21.13                             118    -0.3 6  238 237 
 CHI  HZ EP   1    638 54.57                             117     0.1 6  244 198 
 CHI  HN ES   1    639 23.41                             117     0.0 6  244 198 
 CHI  HZ I         639 24.74         4.3 0.49                           244 198 
 HEL  HZ EP   1    638 58.69                             114     0.4 6  279 258 
 HEL  HZ I         639 35.32         4.5 0.30                           279 258 
 GUY  SZ EP   2    639  1.06                             111    -0.5 4  307 237 
 GUY  SN ES   2    639 36.61                             111     0.6 4  307 237 
 GUY  SZ I         639 42.00         7.5 0.44                           307 237 
 RREF HZ EP   2    639  3.81                             110     0.1 3  324 231 
 RREF HN ES   2    639 39.23                             110    -0.6 3  324 231 
                                                                                
