 2011  6 6 0644 48.3 L   6.774 -73.077143.9  RSN  6 0.4 1.5LRSN                1
 GAP=147        1.01       5.4     8.8  9.0 -0.5555E+01 -0.1430E+02 -0.5090E+01E
 Epicentro: LOS SANTOS - SANTANDER                                             3
 ACTION:UP  11-07-14 19:03 OP:ep   STATUS:               ID:20110606064448 L   I
 2011-06-06-0640-01S.COL___132                                                 6
 STAT SP IPHASW D HRMM SECON CODA AMPLIT PERI AZIMU VELO SNR AR TRES W  DIS CAZ7
 BAR2 SZ EP   1    645  7.81                             170     0.1 7   23 210 
 BAR2 SZ ES   1    645 22.68                             170    -0.2 7   23 210 
 BAR2 SZ I         645 24.24         9.3 0.24                            23 210 
 PAM  SZ EP   1    645 10.73                             151     0.5 7   75  34 
 PAM  SN ES   1    645 27.80                             151     0.5 7   75  34 
 PAM  SZ I         645 29.51         2.5 0.21                            75  34 
 BRR  HZ EP   1    645  9.69                             150    -0.1 7   79 298 
 BRR  HN ES        645 26.66                             150     0.210   79 298 
 BRR  HZ I         645 27.79        10.5 0.07                            79 298 
 RUS  HZ EP   1    645 11.37                             144    -0.3 7   98 180 
 RUS  HN ES   1    645 29.83                             144    -0.1 7   98 180 
 RUS  HZ I         645 31.71         3.4 0.34                            98 180 
 GRA  SZ EP   1    645 13.85                             136     0.4 7  126  14 
 GRA  SZ ES   1    645 32.12                             136    -1.0 7  126  14 
 GRA  SZ I         645 34.95         6.0 0.25                           126  14 
 OCA  SZ EP   1    645 16.63                             128    -0.2 7  164 351 
 OCA  SZ I         645 41.52         4.8 0.15                           164 351 
                                                                                
