 2012  4 6 0635 18.2 L   6.742 -73.169159.8  RSN  4 0.1 1.3LRSN                1
 GAP=230        0.40       5.3     5.6  5.4  0.2229E+02  0.3824E+00 -0.1166E+01E
 Epicentro: VILLANUEVA - SANTANDER                                             3
 ACTION:UPD 12-07-05 11:50 OP:tino STATUS:               ID:20120406063518 L   I
 2012-04-06-0630-00M.COL___196                                                 6
 STAT SP IPHASW D HRMM SECON CODA AMPLIT PERI AZIMU VELO AIN AR TRES W  DIS CAZ7
 BRR  HZ EP   1    635 41.04                             154     0.1 7   72 304 
 BRR  HZ I         635 48.04         3.8 0.45                            72 304 
 BRR  HN ES   1    635 58.54                             154    -0.1 7   72 304 
 RUS  HZ EP   1    635 42.93                             148     0.0 7   94 174 
 RUS  HN ES   1    636  2.37                             148     0.1 7   94 174 
 PTB  HZ EP   1    635 45.86                             136    -0.2 7  144 261 
 PTB  HN ES   2    636  7.63                             136    -0.1 5  144 261 
 PTB  HZ I         636  9.46         2.0 0.49                           144 261 
 PTB  HZ IPn       636  9.86                                            144 261 
 ZAR  HN ES   1    636 17.93                             125     0.2 6  204 294 
                                                                                
