 2015  3 6 0132 36.2 L   6.109 -73.784110.6  RSN  4 0.4 1.1LRSN                1
 GAP=161        1.01       6.8     6.7 11.3 -0.1303E+02 -0.5910E+01 -0.1295E+02E
 Epicentro: EL PENON - SANTANDER                                               3
 ACTION:UPD 15-04-30 16:23 OP:nd   STATUS:               ID:20150306013236 L   I
 OLDACT:REG 15-03-06 12:17 OP:spq  STATUS:               ID:20150306012737     3
 2015-03-06-0127-37M.COL___284                                                 6
 STAT SP IPHASW D HRMM SECON CODA AMPLIT PERI AZIMU VELO AIN AR TRES W  DIS CAZ7
 SPBC HN ES   1    133  6.60                             150    0.42 7 59.8 212 
 SPBC HZ I         133  8.38         2.4 0.27            152           59.8 212 
 BAR2 EZ EP        132 55.16                             140    0.1110 85.3  51 
 BAR2 EZ ES   1    133  9.01                             140   -0.76 7 85.3  51 
 BAR2 EZ I         133  9.96         6.0 0.18            144           85.3  51 
 PTB  HZ EP        132 54.76                             138   -0.2210 88.4 303 
 PTB  HN ES   1    133  9.17                             138   -0.48 7 88.4 303 
 PTB  HZ I         133 12.48         1.7 0.44            140           88.4 303 
 BRR  HZ EP        132 56.85                             131   -0.0410  111   4 
 BRR  HE ES        133 13.69                             131    0.6410  111   4 
 BRR  HZ I         133 15.62         3.3 0.48            135            111   4 
                                                                                
