 2015  9 6 0536 17.6 L   6.814 -73.106148.7  RSN 18 0.6 2.1LRSN                1
 GAP=122        1.38       3.2     4.6  6.1 -0.3989E+01  0.5419E+01  0.2270E+01E
 Epicentro: LOS SANTOS - SANTANDER                                             3
 ACTION:UPD 15-10-28 16:24 OP:cam  STATUS:               ID:20150906053617 L   I
 OLDACT:DUP 15-09-06 14:35 OP:stll STATUS:               ID:20150906052744d    3
 2015-09-06-0527-41M.COL___355                                                 6
 STAT SP IPHASW D HRMM SECON CODA AMPLIT PERI AZIMU VELO AIN AR TRES W  DIS CAZ7
 BAR2 EZ IP     D  536 37.80                             170    0.1610 25.9 199 
 BAR2 EZ ES        536 53.29                             170    0.0210 25.9 199 
 BAR2 EZ I         536 54.45        16.9 0.26            168           25.9 199 
 PAM  EZ EP        536 40.87                             153    0.9610 73.5  38 
 PAM  EN ES        536 57.07                             153   -0.2410 73.5  38 
 PAM  EZ I         536 59.93         9.3 0.22            157           73.5  38 
 BRR  HZ EP     C  536 39.74                             152    0.4910 74.4 296 
 BRR  HN ES        536 57.19                             152    1.0510 74.4 296 
 BRR  HZ I         537  1.86        15.4 0.18            150           74.4 296 
 RUS  HZ EP        536 41.63                             144   -0.1110  102 179 
 RUS  HN ES        537  0.26                             144   -0.3010  102 179 
 RUS  HZ I         537  3.23         7.2 0.44            146            102 179 
 PTB  HZ EP     C  536 44.58                             132   -0.65 9  152 259 
 PTB  HN ES        537  6.01                             132   -0.76 9  152 259 
 PTB  HZ I         537 13.34        15.4 0.48            132            152 259 
 OCA  HZ EP        536 46.06                             130    0.00 9  159 352 
 OCA  HN ES        537  8.37                             130    0.12 9  159 352 
 OCA  HZ I         537 13.75        25.8 0.20            133            159 352 
 SPBC HZ EP        536 46.73                             129    0.03 9  167 220 
 SPBC HN ES        537  8.97                             129   -0.43 9  167 220 
 SPBC HZ I         537 15.75        25.7 0.26            130            167 220 
 ZAR  HZ EP        536 50.36                             122   -0.24 8  208 291 
 ZAR  HE ES        537 15.47                             122   -0.87 8  208 291 
 ZAR  HZ I         537 21.28        16.1 0.44            124            208 291 
 NOR  HZ EP        536 53.79                             119   -0.19 8  239 235 
 NOR  HN ES        537 22.17                             119   -0.18 8  239 235 
 NOR  HZ I         537 28.96        10.3 0.32            120            239 235 
 SML  HZ EP        536 54.50                             118    0.05 8  244 334 
 SML  HN ES        537 22.70                             118   -0.49 8  244 334 
 SML  HZ I         537 27.36        19.8 0.10            120            244 334 
 CHI  HZ EP        536 55.74                             117   -0.01 8  251 196 
 CHI  HN ES        537 24.98                             117   -0.52 8  251 196 
 CHI  HZ I         537 30.95         5.6 0.26            120            251 196 
 ROSC BN ES        537 26.99                             117    0.56 8  256 212 
 ROSC BZ I         537 31.10        12.0 0.40            119            256 212 
 HEL  HZ EP        536 59.50                             115    1.02 7  277 256 
 HEL  HN ES        537 29.70                             115   -0.66 7  277 256 
 HEL  HZ I         537 36.51         5.5 0.30            116            277 256 
 SOCV BZ EP        536 59.18                             113   -1.10 7  297  57 
 GUY2CHZ EP        537  2.37                             112    0.52 7  306 235 
 GUY2CHE ES        537 38.35                             112    1.99 7  306 235 
 GUY2CHZ I         537 44.96         6.3 0.58                           306 235 
 TOL  SZ EP        537  6.99                             110    0.54 6  348 225 
 TOL  SE ES        537 43.97                             110   -0.59 6  348 225 
 TOL  SZ I         537 51.14         5.2 0.48            111            348 225 
 PRA  HZ EP        537 11.24                             107   -0.39 6  395 210 
 PRA  HN ES        537 53.81                             107    0.04 6  395 210 
 PRA  HZ I         537 56.89         5.3 0.32            109            395 210 
 ORTC HZ EP     D  537 12.08                             107    0.01 6  399 217 
 ORTC HN ES        537 54.37                             107   -0.18 6  399 217 
 ORTC HZ I         537 59.57         3.0 0.32            108            399 217 
                                                                                
