 2017 12 6 0635  9.3 L   6.786 -73.185142.3  RSN  4 0.4 1.0LRSN                1
 GAP=274        0.96       8.2     6.2  8.2  0.5092E+01  0.1191E+02 -0.7018E+01E
 Epicentro: LOS SANTOS - SANTANDER                                             3
 ACTION:UPD 18-01-04 13:17 OP:rebc STATUS:               ID:20171206063509 L   I
 OLDACT:DUP 17-12-06 17:49 OP:leo  STATUS:               ID:20171206062746d    3
 2017-12-06-0628-00M.COL___495                                                 6
 STAT SP IPHASW D HRMM SECON CODA AMPLIT PERI AZIMU VELO AIN AR TRES W  DIS CAZ7
 BAR2 EZ EP        635 28.55                             171    0.0610 21.5 179 
 BAR2 EZ ES        635 43.86                             171    0.4110 21.5 179 
 RUS  HZ EP        635 32.67                             143    0.0210 99.5 173 
 RUS  HN ES        635 50.23                             143   -0.6210 99.5 173 
 PTB  HZ EP        635 35.21                             132   -0.38 9  143 259 
 PTB  HE ES        635 55.80                             132   -0.28 9  143 259 
 PTB  HZ I         636  3.27         1.3 0.42            131            143 259 
 SPBC HZ EP        635 37.61                             129    0.43 9  159 218 
 SPBC HN ES        635 59.33                             129    0.42 9  159 218 
                                                                                
