 2014 12 6 0922 37.1 L   7.323 -73.452113.2  RSN  9 0.5 2.0LRSN                1
 GAP= 80        1.36       3.4     4.5  8.6  0.5000E+00  0.8942E+01 -0.1441E+01E
 Epicentro: SABANA DE TORRES - SANTANDER                                       3
 ACTION:UPD 15-02-10 17:00 OP:nd   STATUS:               ID:20141206092237 L   I
 OLDACT:REG 14-12-06 13:30 OP:carl STATUS:               ID:20141206091746     3
 2014-12-06-0917-46M.COL___312                                                 6
 STAT SP IPHASW D HRMM SECON CODA AMPLIT PERI AZIMU VELO AIN AR TRES W  DIS CAZ7
 BRR  HZ EP        922 52.96                             160    0.0010 37.3 230 
 BRR  HN ES        923  5.36                             160    0.0510 37.3 230 
 BRR  HZ I         923  6.54        34.0 0.12            159           37.3 230 
 PAM  SZ EP        922 56.71                             141    0.3010 83.1  89 
 PAM  SN ES        923 11.62                             141    0.1610 83.1  89 
 PAM  SZ I         923 13.47        14.1 0.14            144           83.1  89 
 BAR2 SZ EP        922 56.59                             140    0.3010 86.2 160 
 BAR2 SZ ES        923 11.46                             140    0.2110 86.2 160 
 BAR2 SZ I         923 12.54        37.6 0.38            141           86.2 160 
 OCA  HZ EP        922 57.55                             135    0.0410  102   8 
 OCA  HN ES        923 13.20                             135   -0.2210  102   8 
 OCA  HZ I         923 15.61        20.8 0.44            137            102   8 
 PTB  HZ EP        923  0.69                             125   -0.25 9  141 232 
 PTB  HN ES        923 18.48                             125   -1.05 9  141 232 
 PTB  HZ I         923 21.00        16.1 0.20            125            141 232 
 ZAR  HZ EP        923  2.96                             122    0.44 9  156 277 
 ZAR  HN ES        923 23.75                             122    1.42 9  156 277 
 ZAR  HZ I         923 25.81        21.7 0.30            122            156 277 
 RUS  HZ EP        923  4.30                             121    0.42 9  163 166 
 RUS  HN ES        923 24.24                             121   -0.52 9  163 166 
 RUS  HZ I         923 26.19         6.3 0.30            121            163 166 
 SML  HZ EP        923  4.23                             118   -0.47 9  177 337 
 SML  HN ES        923 25.46                             118   -0.76 9  177 337 
 SPBC HN ES        923 30.07                             115   -0.25 9  197 200 
 SPBC HZ I         923 38.85        10.9 0.22            116            197 200 
                                                                                
