 2011 12 6 0940 13.1 L   6.812 -73.025140.3  RSN  6 0.4 1.8LRSN                1
 GAP=152        0.75       3.7     7.4  6.5 -0.1102E+01  0.2360E+01  0.7795E-01E
 Epicentro: CEPITA - SANTANDER                                                 3
 ACTION:UPD 12-07-13 16:14 OP:ep   STATUS:               ID:20111206094014dL   I
 2011-12-06-0940-00M.COL___182                                                 6
 STAT SP IPHASW D HRMM SECON CODA AMPLIT PERI AZIMU VELO AIN AR TRES W  DIS CAZ7
 BAR2 SZ EP   1    940 32.29                             167    0.04 7 29.9 216 
 BAR2 SZ ES   1    940 47.10                             167   -0.07 7 29.9 216 
 BAR2 SZ I         940 48.89        17.8 0.17                          29.9 216 
 PAM  SZ EP   1    940 35.12                             153    0.88 7 68.5  32 
 PAM  SZ I         940 35.77        15.7 0.17                          68.5  32 
 PAM  SN ES   1    940 50.26                             153   -0.44 7 68.5  32 
 BRR  HZ EP   1    940 34.28                             148   -0.11 7 82.6 293 
 BRR  HN ES   1    940 51.35                             148    0.38 7 82.6 293 
 BRR  HZ I         940 55.53        16.5 0.15                          82.6 293 
 RUS  HZ EP   1    940 36.58                             142    0.14 7  102 184 
 RUS  HN ES   1    940 54.53                             142   -0.09 7  102 184 
 RUS  HZ I         940 56.23         6.6 0.20                           102 184 
 OCA  SZ EP   1    940 40.86                             128   -0.23 7  161 348 
 OCA  SZ ES   1    941  2.65                             128   -0.25 7  161 348 
 OCA  SZ I         941  7.92         8.2 0.11                           161 348 
 CTAU SZ EP   1    940 46.10                             120   -0.47 6  211 212 
                                                                                
