 2016 10 6 0745 33.3 L   6.805 -73.143148.0  RSN  6 0.3 1.3LRSN                1
 GAP=137        0.76       3.9     4.2  6.0 -0.3471E+01  0.7215E+01  0.1073E+01E
 Epicentro: LOS SANTOS - SANTANDER                                             3
 ACTION:UPD 16-11-09 19:16 OP:rebc STATUS:               ID:20161006074533 L   I
 OLDACT:REG 16-10-06 13:14 OP:dnl  STATUS:               ID:20161006073746     3
 2016-10-06-0738-00M.COL___354                                                 6
 STAT SP IPHASW D HRMM SECON CODA AMPLIT PERI AZIMU VELO AIN AR TRES W  DIS CAZ7
 BAR2 EZ EP        745 53.15                             170   -0.0810 23.9 190 
 BAR2 EZ ES        746  8.51                             170   -0.2510 23.9 190 
 BAR2 EZ I         746 10.88         6.0 0.24            170           23.9 190 
 BRR  HZ EP        745 55.02                             153    0.3110 71.2 298 
 BRR  HN ES        746 11.85                             153    0.4610 71.2 298 
 BRR  HZ I         746 14.16         4.1 0.36            152           71.2 298 
 PAM  EZ EP   2    745 56.17                             151    0.44 5 76.8  40 
 PAM  EN ES        746 13.03                             151   -0.1910 76.8  40 
 PAM  EZ I         746 15.03         3.0 0.24            155           76.8  40 
 RUS  HZ EP   2    745 57.27                             144   -0.06 5  101 176 
 RUS  HN ES        746 16.10                             144    0.0410  101 176 
 RUS  HZ I         746 17.06         1.5 0.42            146            101 176 
 PTB  HZ EP        746  0.14                             132   -0.36 9  148 259 
 PTB  HN ES        746 21.23                             132   -0.47 9  148 259 
 PTB  HZ I         746 26.05         2.1 0.18            133            148 259 
 SPBC HZ EP   2    746  2.12                             129    0.08 5  164 219 
 SPBC HE ES        746 24.84                             129    0.39 9  164 219 
 SPBC HZ I         746 27.92         4.7 0.10            131            164 219 
                                                                                
