 2017 12 6 0053 39.3 L   6.802 -73.182145.9  RSN 14 0.6 2.2LRSN                1
 GAP= 63        1.28       3.0     4.1  6.6 -0.8338E+00  0.5075E+01  0.3474E+00E
 Epicentro: ZAPATOCA - SANTANDER                                               3
 ACTION:UPD 18-01-04 13:17 OP:rebc STATUS:               ID:20171206005339 L   I
 OLDACT:UP  17-12-06 14:52 OP:leo  STATUS:               ID:20171206004224     3
 2017-12-06-0048-00M.COL___489                                                 6
 STAT SP IPHASW D HRMM SECON CODA AMPLIT PERI AZIMU VELO AIN AR TRES W  DIS CAZ7
 BAR2 EZ EP        053 58.54                             171   -0.3610 23.2 180 
 BAR2 EZ ES        054 13.89                             171   -0.3310 23.2 180 
 BAR2 EZ I         054 14.79        33.6 0.20            171           23.2 180 
 PAM  EZ EP        054  1.65                             150    0.0110 79.8  42 
 PAM  EN ES        054 18.71                             150   -0.3810 79.8  42 
 PAM  EZ I         054 21.04        13.5 0.60            153           79.8  42 
 RUS  HZ EP        054  2.61                             144   -0.4610  101 174 
 RUS  HN ES        054 21.65                             144    0.0210  101 174 
 RUS  HZ I         054 22.38        13.5 0.26            146            101 174 
 PTB  HZ EP        054  4.97                             133   -0.92 9  144 258 
 PTB  HE ES        054 27.11                             133    0.45 9  144 258 
 PTB  HZ I         054 28.42        14.2 0.48            132            144 258 
 TAM  HZ EP        054  7.03                             130   -0.28 9  159 105 
 OCA  HZ EP        054  7.64                             130    0.12 9  160 355 
 OCA  HN ES        054 30.74                             130    1.18 9  160 355 
 OCA  HZ I         054 34.97        36.2 0.26            130            160 355 
 SPBC HZ EP        054  7.62                             129    0.07 9  161 218 
 SPBC HN ES        054 29.74                             129    0.12 9  161 218 
 SPBC HZ I         054 36.70        19.7 0.18            130            161 218 
 YPLC HZ EP        054  9.14                             126   -0.14 9  179 150 
 YPLC HE ES        054 33.41                             126    0.73 9  179 150 
 YPLC HZ I         054 33.88        17.3 0.24            129            179 150 
 ZAR  HZ EP        054 11.00                             123   -0.33 9  200 293 
 ZAR  HN ES        054 36.03                             123   -0.31 9  200 293 
 ZAR  HZ I         054 42.07        17.6 0.44            123            200 293 
 CHI  HZ EP        054 16.90                             117    0.02 8  248 194 
 CHI  HE ES        054 46.82                             117    0.60 8  248 194 
 CHI  HZ I         054 48.51        10.5 0.36            118            248 194 
 URE  HZ EP   4    054 18.37                             114   -1.55 0  280 292 
 URE  HN ES   4    054 49.90                             114   -1.73 0  280 292 
 URE  HZ I         055  1.60        13.3 0.22            114            280 292 
 DRL03HZ EP        054 20.30                             113   -0.50 7  288 354 
 DRL03HN ES        054 54.05                             113    0.85 7  288 354 
 GUY2CHZ EP        054 22.78                             113    0.25 7  298 234 
 GUY2CHN ES        054 55.51                             113   -0.76 7  298 234 
 GUY2CHZ I         055  3.84         6.0 0.60                           298 234 
 PRA  HZ EP        054 32.57                             107   -0.01 6  390 209 
 PRA  HE ES        055 15.89                             107    1.72 6  390 209 
 PRA  HZ I         055 18.83         6.2 0.72            107            390 209 
                                                                                
