 2014  7 6 0116 54.3 L   6.800 -73.160145.0  RSN 10 0.5 1.9LRSN                1
 GAP=135        1.14       3.9     4.8  6.6  0.1049E+00  0.8660E+01 -0.1166E+01E
 Epicentro: LOS SANTOS - SANTANDER                                             3
 ACTION:UPD 15-03-16 20:41 OP:nd   STATUS:               ID:20140706011654 L   I
 OLDACT:UP  14-07-06 14:13 OP:cam  STATUS:               ID:20140706011000     3
 OLDACT:REG 14-07-06 12:35 OP:cma  STATUS:               ID:20140706011000     3
 2014-07-06-0110-00M.COL___279                                                 6
 STAT SP IPHASW D HRMM SECON CODA AMPLIT PERI AZIMU VELO AIN AR TRES W  DIS CAZ7
 BAR2 SZ EP        117 13.88                             171    0.0210 23.1 186 
 BAR2 SZ ES        117 28.64                             171   -0.4610 23.1 186 
 BAR2 SZ I         117 30.03        20.3 0.62            171           23.1 186 
 BRR  HZ EP        117 15.67                             153    0.3510 69.8 299 
 BRR  HN ES        117 32.82                             153    1.1310 69.8 299 
 BRR  HZ I         117 36.62        18.9 0.30            152           69.8 299 
 PAM  SZ IP     D  117 16.87                             150    0.3510 78.4  40 
 PAM  SN ES        117 33.80                             150   -0.0410 78.4  40 
 PAM  SZ I         117 36.21        11.6 0.32            153           78.4  40 
 RUS  HZ EP        117 17.86                             144   -0.1510  101 175 
 RUS  HN ES        117 36.12                             144   -0.3710  101 175 
 RUS  HZ I         117 37.59         5.9 0.70            147            101 175 
 PTB  HZ EP        117 21.01                             132   -0.08 9  146 259 
 PTB  HE ES        117 41.58                             132   -0.39 9  146 259 
 PTB  HZ I         117 44.06        10.2 0.14            133            146 259 
 SPBC HZ EP        117 22.94                             129    0.27 9  162 219 
 SPBC HE ES        117 44.78                             129   -0.00 9  162 219 
 SPBC HZ I         117 48.90        12.8 0.44            131            162 219 
 ZAR  HZ EP        117 27.06                             122    0.49 9  203 292 
 ZAR  HE ES        117 51.36                             122   -0.36 9  203 292 
 ZAR  HZ I         117 56.85         8.3 0.26            123            203 292 
 SML  HZ EP   1    117 30.10                             117   -0.74 6  243 336 
 SML  HN ES        117 58.38                             117   -0.93 8  243 336 
 SML  HZ I         118  3.07        12.0 0.24            119            243 336 
 GUY2CHZ EP   1    117 38.18                             112    0.43 5  300 235 
 PRA  HZ EP   1    117 47.74                             106    0.01 4  391 209 
                                                                                
