 2017  3 6 0344 26.2 L   6.804 -73.148151.7  RSN  6 0.3 1.2LRSN                1
 GAP=102        0.58       4.7     3.5  5.9 -0.5152E+01 -0.6628E+01  0.1277E+02E
 Epicentro: LOS SANTOS - SANTANDER                                             3
 ACTION:UPD 17-05-25 18:36 OP:jn   STATUS:               ID:20170306034426 L   I
 OLDACT:DUP 17-03-06 14:17 OP:and  STATUS:               ID:20170306033748d    3
 2017-03-06-0338-00M.COL___387                                                 6
 STAT SP IPHASW D HRMM SECON CODA AMPLIT PERI AZIMU VELO AIN AR TRES W  DIS CAZ7
 BRR  HZ EP        344 47.95                             154    0.0110 70.7 298 
 BRR  HN ES        345  5.28                             154    0.3610 70.7 298 
 PAM  EZ EP        344 49.08                             152    0.0610 77.2  40 
 PAM  EN ES        345  6.55                             152   -0.2910 77.2  40 
 PAM  EZ I         345  8.31         2.5 0.42            153           77.2  40 
 RUS  HZ EP   2    344 50.44                             145   -0.11 5  101 176 
 RUS  HN ES   2    345  9.58                             145    0.02 5  101 176 
 RUS  HZ I         345 10.01         3.1 0.24            145            101 176 
 PTB  HZ EP   2    344 52.82                             133   -0.79 5  148 259 
 PTB  HE ES   2    345 14.61                             133   -0.41 5  148 259 
 PTB  HZ I         345 14.68         1.3 0.14            135            148 259 
 TAM  HZ EP        344 54.53                             132    0.16 9  156 105 
 SPBC HZ EP   2    344 55.48                             130    0.33 5  163 219 
 SPBC HN ES   2    345 17.44                             130   -0.31 5  163 219 
 SPBC HZ I         345 18.94         2.3 0.12            131            163 219 
                                                                                
