 2012 11 6 0257 23.5 L   6.807 -73.119144.0  RSN  8 0.6 2.1LRSN                1
 GAP=140        1.47       5.5     8.0  9.1  0.1057E+02  0.1115E+02 -0.7407E+01E
 Epicentro: LOS SANTOS - SANTANDER                                             3
 ACTION:UPD 12-12-05 15:31 OP:}ep  STATUS:               ID:20121106025724 L   I
 2012-11-06-0250-00M.COL___230                                                 6
 STAT SP IPHASW D HRMM SECON CODA AMPLIT PERI AZIMU VELO AIN AR TRES W  DIS CAZ7
 BAR2 SZ IP     C  257 43.17                             170    0.2010 24.7 196 
 BAR2 SZ ES        257 57.48                             170   -0.6610 24.7 196 
 BAR2 SZ I         257 59.12        17.0 0.16                          24.7 196 
 GIR2 SZ IP     D  257 43.32                             167    0.3310 31.2 345 
 GIR2 SZ ES        257 58.10                             167   -0.0710 31.2 345 
 BRR  HZ IP     D  257 45.11                             151    0.5010 73.4 297 
 BRR  HE ES        258  1.74                             151    0.6810 73.4 297 
 BRR  HN I         258  6.49        26.1 0.16                          73.4 297 
 PAM  SZ EP        257 46.15                             151    0.7410 75.0  38 
 PAM  SZ I         257 46.40        16.9 0.26                          75.0  38 
 PAM  SN ES        258  2.94                             151    0.4610 75.0  38 
 RUS  HZ EP        257 47.11                             143   -0.0410  101 178 
 RUS  HN ES        258  4.84                             143   -0.7310  101 178 
 OCA  HN ES        258 12.82                             129   -0.80 9  160 352 
 OCA  HN I         258 16.94        51.5 0.38                           160 352 
 ZAR  HN ES        258 21.96                             122    0.44 8  206 292 
 ZAR  HN I         258 23.61        11.7 0.12                           206 292 
 SML  HZ EP        257 59.38                             117   -0.74 8  244 335 
 SML  HE ES        258 27.71                             117   -0.94 8  244 335 
                                                                                
