 2011  2 6 0002 55.6 L   6.788 -73.184139.6  RSN 14 0.4 3.5LRSN                1
 GAP=133        0.73       2.4     4.0  5.2 -0.1149E+01  0.9349E+01  0.1374E+01E
 Epicentro: LOS SANTOS - SANTANDER                                             3
 ACTION:UP  11-03-28 15:06 OP:jfem STATUS:               ID:20110206000255 L   I
 2011-02-06-0000-00M.COL___139                                                 6
 STAT SP IPHASW D HRMM SECON CODA AMPLIT PERI AZIMU VELO SNR AR TRES W  DIS CAZ7
 BAR2 SZ EP   1    0 3 14.64                             171     0.2 7   22 180 
 BAR2 SZ ES   1    0 3 29.22                             171     0.0 7   22 180 
 BAR2 SZ I         0 3 32.69       811.0 0.48                            22 180 
 GIR2 SZ EP   1    0 3 14.87                             166     0.3 7   32 358 
 GIR2 SZ ES   2    0 3 29.23                             166    -0.1 5   32 358 
 RUS  HZ IP     D  0 3 18.50                             143    -0.210  100 174 
 RUS  HN ES   1    0 3 37.02                             143     0.3 7  100 174 
 RUS  HZ I         0 3 38.70       438.1 0.27                           100 174 
 GRA  SZ IP        0 3 20.39                             135    -0.210  128  19 
 GRA  SZ ES   1    0 3 39.54                             135    -0.4 7  128  19 
 GRA  SZ I         0 3 41.59       239.8 0.59                           128  19 
 OCA  SZ EP   1    0 3 23.05                             128    -0.5 7  161 355 
 OCA  SZ ES   1    0 3 46.05                             128     0.7 7  161 355 
 OCA  SZ I         0 3 49.84       261.3 0.25                           161 355 
 YOP  SZ EP   1    0 3 25.31                             125     0.0 7  180 152 
 YOP  SN ES   1    0 3 48.41                             125    -0.1 7  180 152 
 NOR  SZ EP        0 3 30.57                             118     0.0 8  231 234 
 NOR  SE ES   1    0 3 57.46                             118    -0.3 6  231 234 
 CHI  HZ EP        0 3 32.30                             116    -0.4 8  246 194 
 CHI  HZ I         0 3 33.64       147.4 0.06                           246 194 
 CHI  HN ES   1    0 4  1.85                             116     0.2 6  246 194 
 HEL  HZ EP   1    0 3 35.15                             114     0.1 6  268 256 
 HEL  HN ES   2    0 4  5.43                             114    -0.3 4  268 256 
 HEL  HZ I         0 4 15.02       173.7 0.49                           268 256 
 GUY  SZ EP   2    0 3 38.44                             111     0.0 4  297 235 
 GUY  SZ I         0 4 22.38       348.7 0.42                           297 235 
 VIL  SZ EP   2    0 3 38.02                             111    -0.3 4  300 189 
 VIL  SE ES   2    0 4 11.06                             111    -0.6 4  300 189 
 VIL  SZ I         0 4 21.49        95.5 0.23                           300 189 
 RREF HZ EP   1    0 3 41.36                             110     0.3 5  318 229 
 RREF HE ES   2    0 4 16.63                             110     0.2 3  318 229 
 RREF HZ I         0 4 26.90       194.7 0.28                           318 229 
 DBB  SZ EP        0 3 42.71                             109     0.3 7  335 275 
 DBB  SZ ES   2    0 4 17.95                             109    -0.9 3  335 275 
 TOL  SZ EP        0 3 43.97                             108     0.8 7  340 224 
                                                                                
