 2017  6 6 0710 21.9 L   6.749 -73.150146.6  RSN 10 0.4 1.7LRSN                1
 GAP=183        0.93       4.0     4.7  6.1  0.7204E+01 -0.1553E+01  0.1706E+01E
 Epicentro: LOS SANTOS - SANTANDER                                             3
 ACTION:UPD 17-09-14 16:50 OP:jn   STATUS:               ID:20170606071021 L   I
 OLDACT:UP  17-06-06 16:06 OP:edw  STATUS:               ID:20170606070640     3
 OLDACT:UP  17-06-06 16:05 OP:edw  STATUS:               ID:20170606070640     3
 OLDACT:UP  17-06-06 16:05 OP:edw  STATUS:               ID:20170606070640     3
 OLDACT:REG 17-06-06 12:25 OP:edw  STATUS:               ID:20170606070640     3
 2017-06-06-0707-00M.COL___350                                                 6
 STAT SP IPHASW D HRMM SECON CODA AMPLIT PERI AZIMU VELO AIN AR TRES W  DIS CAZ7
 BRR  HZ EP     D  710 43.53                             152    0.2110 73.6 303 
 BRR  HN ES        711  0.53                             152    0.5410 73.6 303 
 BRR  HZ I         711  6.22         6.7 0.38            149           73.6 303 
 RUS  HZ EP     D  710 45.03                             146   -0.3510 95.0 176 
 RUS  HN ES        711  3.66                             146   -0.0010 95.0 176 
 RUS  HZ I         711  5.05         9.6 0.32            145           95.0 176 
 PTB  HZ EP        710 48.26                             133   -0.58 9  146 261 
 PTB  HN ES        711  9.13                             133   -0.70 9  146 261 
 PTB  HZ I         711 14.13         5.4 0.36            130            146 261 
 SPBC HZ EP        710 50.14                             130    0.07 9  159 220 
 SPBC HN ES        711 11.63                             130   -0.37 9  159 220 
 SPBC HZ I         711 14.11         9.0 0.54            129            159 220 
 YPLC HZ IP     D  710 51.30                             128   -0.05 9  172 150 
 YPLC HN ES   4    711 16.32                             128    2.04 0  172 150 
 ZAR  HZ EP     C  710 54.71                             122    0.09 8  206 294 
 ZAR  HN ES        711 20.02                             122   -0.08 8  206 294 
 ZAR  HZ I         711 26.02         8.1 0.36            122            206 294 
 NOR  HZ EP        710 57.20                             119   -0.13 8  231 236 
 NOR  HN ES        711 25.71                             119    0.78 8  231 236 
 NOR  HZ I         711 30.28         5.3 0.36            119            231 236 
 CHI  HZ EP        710 59.41                             118    0.32 8  243 195 
 CHI  HN ES        711 28.38                             118    0.32 8  243 195 
 CHI  HZ I         711 35.91         2.6 0.54            119            243 195 
 PTGC HZ EP   4 D  711  3.94                             112   -1.33 0  304 158 
 PTGC HN ES   4    711 37.41                             112   -1.65 0  304 158 
 CBOC HZ EP        711  9.04                             110    0.40 7  331 253 
 CBOC HN ES   4    711 41.02                             110   -4.05 0  331 253 
 CBOC HZ I         711 57.22         1.1 0.36            110            331 253 
 SJC  HZ EP   9    711 16.29                             106   -1.76 0  414 327 
 SJC  HN ES        711 59.80                             106   -0.25 6  414 327 
 SJC  HZ I         712  2.06         1.1 0.44            107            414 327 
                                                                                
