 2011  6 6 0742 37.1 L   7.254 -73.502 12.1  RSN  6 0.3 1.4LRSN                1
 GAP= 81        0.61       2.5     2.4  9.6 -0.1757E+01 -0.6519E+01 -0.7675E+01E
 Epicentro: SABANA DE TORRES - SANTANDER                                       3
 ACTION:UP  11-07-14 19:03 OP:ep   STATUS:               ID:20110606074237 L   I
 2011-06-06-0740-00M.COL___122                                                 6
 STAT SP IPHASW D HRMM SECON CODA AMPLIT PERI AZIMU VELO SNR AR TRES W  DIS CAZ7
 BRR  HZ IP     C  742 42.26                             107     0.110   28 235 
 BRR  HN ES   1    742 46.00                             107    -0.2 7   28 235 
 BRR  HZ I         742 48.79        36.5 0.13                            28 235 
 BAR2 SZ EP   1    742 50.58                              96     0.2 7   81 154 
 BAR2 SZ ES   1    743  0.49                              96    -0.2 7   81 154 
 BAR2 SZ I         743  1.69        17.3 0.25                            81 154 
 PAM  SZ EP   1    742 51.63                              95    -0.2 7   89  84 
 GRA  SZ EP   1    742 54.06                              94     0.4 7  104  48 
 GRA  SZ ES   1    743  6.47                              94    -0.1 7  104  48 
 GRA  SZ I         743 10.61        23.6 0.38                           104  48 
 MON  HZ EP   2    743 18.57                              55     0.4 4  292 305 
 MON  HZ I         744  0.29         1.0 0.48                           292 305 
 SJC  HZ EP   2    743 24.02                              55    -0.9 3  346 328 
 SJC  HZ I         743 50.85         0.9 0.69                           346 328 
                                                                                
