 2013  7 6 0939 57.1 L   6.786 -73.146138.4  RSN 12 0.5 1.9LRSN                1
 GAP= 72        1.18       4.3     4.2  6.4  0.3295E+00  0.3316E+01  0.7936E+01E
 Epicentro: LOS SANTOS - SANTANDER                                             3
 ACTION:UPD 13-08-12 10:35 OP:ep   STATUS:               ID:20130706093957 L   I
 OLDACT:REG 13-07-06 11:29 OP:jn   STATUS:               ID:20130706093848     3
 2013-07-06-0938-48M.COL___227                                                 6
 STAT SP IPHASW D HRMM SECON CODA AMPLIT PERI AZIMU VELO AIN AR TRES W  DIS CAZ7
 BAR2 SZ EP     D  940 15.90                             171    0.0410 21.7 191 
 BAR2 SZ ES        940 30.23                             171   -0.2310 21.7 191 
 BAR2 SZ I         940 33.01        26.3 0.22            168           21.7 191 
 GIR2 SZ EP        940 15.99                             166   -0.0010 32.8 351 
 GIR2 SZ ES        940 30.72                             166    0.0310 32.8 351 
 GIR2 SZ I         940 31.69        18.9 0.10            168           32.8 351 
 BRR  HZ EP     C  940 17.76                             151    0.2110 71.9 300 
 BRR  HN ES        940 34.15                             151    0.6910 71.9 300 
 BRR  HZ I         940 35.18        18.0 0.28            151           71.9 300 
 PAM  SZ EP        940 18.87                             149    0.2010 78.7  39 
 PAM  SN ES   1    940 35.45                             149   -0.00 7 78.7  39 
 PAM  SZ I         940 38.00        14.4 0.34            153           78.7  39 
 RUS  HZ EP        940 19.96                             143   -0.1110 99.0 176 
 RUS  HN ES   1    940 37.92                             143   -0.03 7 99.0 176 
 RUS  HZ I         940 40.62         8.6 0.34            142           99.0 176 
 PTB  HZ EP        940 22.57                             130   -0.92 9  147 259 
 PTB  HN ES   1    940 42.65                             130   -1.39 7  147 259 
 PTB  HZ I         940 46.27        15.6 0.20            130            147 259 
 TAM  HZ IP     D  940 24.34                             129    0.12 9  155 104 
 TAM  HN ES   1    940 45.27                             129   -0.07 7  155 104 
 OCA  HN ES   1    940 45.67                             128   -1.14 7  162 353 
 ZAR  HZ EP        940 30.10                             121    0.92 9  205 293 
 ZAR  HE ES   1    940 54.74                             121    0.57 6  205 293 
 ZAR  HZ I         941  0.04        13.1 0.42            122            205 293 
 NOR  HE ES   1    941  0.18                             117    0.37 6  234 235 
 CHI  HZ EP   1    940 34.20                             116   -0.08 6  247 195 
 CHI  HE ES   1    941  4.14                             116    0.90 6  247 195 
 CHI  HZ I         941  9.53         3.8 0.24            116            247 195 
 PRA  HZ EP        940 49.88                             105   -0.38 6  391 210 
 PRA  HN ES   1    941 31.48                             105   -0.20 4  391 210 
 PRA  HZ I         941 37.77         3.7 0.35            106            391 210 
                                                                                
