 2013  2 6 0004 31.2 L   7.440 -73.158140.8  RSN  6 0.1 1.8LRSN                1
 GAP=191        0.36       3.1     2.0  3.0 -0.1720E+01  0.1829E+01 -0.1373E+01E
 Epicentro: EL PLAYON - SANTANDER                                              3
 ACTION:UPD 13-03-12 09:30 OP:ep   STATUS:               ID:20130206000431 L   I
 2013-02-06-0000-00M.COL___240                                                 6
 STAT SP IPHASW D HRMM SECON CODA AMPLIT PERI AZIMU VELO AIN AR TRES W  DIS CAZ7
 PAM  SZ EP        0 4 51.69                             159    0.1510 51.8 102 
 PAM  SZ I         0 4 51.87         9.2 0.12            160           51.8 102 
 PAM  SN ES        0 5  7.36                             159   -0.0410 51.8 102 
 BRR  HZ EP        0 4 51.82                             152   -0.0110 71.4 239 
 BRR  HN ES        0 5  7.92                             152    0.0110 71.4 239 
 BRR  HN I         0 5  8.43        13.8 0.22            150           71.4 239 
 BAR2 SZ EP        0 4 53.56                             145   -0.0610 93.8 182 
 BAR2 SZ ES        0 5 11.02                             145   -0.0810 93.8 182 
 BAR2 SZ I         0 5 11.51        22.4 0.18            144           93.8 182 
 RUS  HE ES   2    0 5 24.03                             127    0.41 4  171 177 
 PTB  HZ EP        0 5  0.20                             126   -0.15 9  175 235 
 PTB  HE ES        0 5 23.09                             126    0.02 9  175 235 
 PTB  HZ I         0 5 25.31         4.4 0.56            125            175 235 
 ZAR  HN ES   2    0 5 25.73                             124    0.34 4  188 272 
                                                                                
