 2016 12 6 0057 47.6 L   6.822 -73.343126.0  RSN  5 0.3 1.4LRSN                1
 GAP=103        0.74       3.8     3.3  5.8 -0.1673E+01  0.2937E+01 -0.6784E+00E
 Epicentro: ZAPATOCA - SANTANDER                                               3
 ACTION:UPD 17-01-11 20:12 OP:rebc STATUS:               ID:20161206005747 L   I
 OLDACT:REG 16-12-06 13:13 OP:ar   STATUS:               ID:20161206004747     3
 2016-12-06-0048-00M.COL___343                                                 6
 STAT SP IPHASW D HRMM SECON CODA AMPLIT PERI AZIMU VELO AIN AR TRES W  DIS CAZ7
 BAR2 EZ EP        058  5.43                             165    0.4010 31.0 145 
 BAR2 EZ ES        058 18.48                             165   -0.1810 31.0 145 
 BAR2 EZ I         058 19.66        12.7 0.28            171           31.0 145 
 BRR  HZ EP        058  5.79                             156    0.2810 51.5 308 
 BRR  HZ I         058 19.52        12.8 0.28            148           51.5 308 
 BRR  HN ES        058 19.73                             156    0.2310 51.5 308 
 PAM  EZ EP        058  8.86                             142    0.1610 91.2  51 
 PAM  EE ES        058 24.80                             142   -0.3910 91.2  51 
 PAM  EZ I         058 27.03         2.5 0.34            139           91.2  51 
 RUS  HZ EP   2    058  9.46                             137   -0.47 5  107 164 
 RUS  HE ES        058 27.49                             137    0.1210  107 164 
 PTB  HZ EP        058 10.66                             132   -0.3810  127 256 
 PTB  HE ES        058 29.19                             132   -0.1610  127 256 
 PTB  HZ I         058 34.23         1.5 0.12            126            127 256 
                                                                                
