 2013  9 6 0847 22.2 L   6.958 -73.132153.8  RSN  4 0.3 1.6LRSN                1
 GAP=250        0.69      10.0     9.3  6.6  0.7771E+02 -0.9248E+01 -0.1852E+02E
 Epicentro: PIEDECUESTA - SANTANDER                                            3
 ACTION:UPD 13-10-22 09:20 OP:ep   STATUS:               ID:20130906084722 L   I
 OLDACT:REG 13-09-06 08:30 OP:cam  STATUS:               ID:20130906083959     3
 2013-09-06-0839-59M.COL___269                                                 6
 STAT SP IPHASW D HRMM SECON CODA AMPLIT PERI AZIMU VELO AIN AR TRES W  DIS CAZ7
 BAR2 SZ EP        847 43.22                             165   -0.0110 40.8 188 
 BAR2 SZ ES   1    847 58.96                             165   -0.69 7 40.8 188 
 BAR2 SZ I         848  1.92         6.2 0.52            159           40.8 188 
 BRR  HZ EP        847 44.08                             156    0.1410 66.1 285 
 BRR  HN ES        848  1.23                             156    0.3210 66.1 285 
 BRR  HZ I         848  3.42        11.4 0.12            150           66.1 285 
 RUS  HZ EP   2    847 48.34                             141    0.34 5  118 177 
 RUS  HN ES   1    848  8.35                             141    0.21 7  118 177 
 RUS  HZ I         848  9.42         2.3 0.30            140            118 177 
 ZAR  HZ EP        847 54.50                             125   -0.21 9  200 287 
 ZAR  HE ES        848 19.94                             125   -0.14 9  200 287 
 ZAR  HZ I         848 25.99         5.6 0.14            124            200 287 
                                                                                
