 2010  9 6 0759 40.2 L   6.552 -73.373 22.2  RSN  7 0.5 1.4LRSN                1
 GAP=172        0.92       3.8     6.2  4.3  0.8757E+01  0.2520E+01 -0.5066E+01E
 Epicentro: HATO - SANTANDER                                                   3
 ACTION:UP  11-02-18 11:00 OP:tino STATUS:               ID:20100906075940 L   I
 2010-09-06-0757-03S.COL___119                                                 6
 STAT SP IPHASW D HRMM SECON CODA AMPLIT PERI AZIMU VELO SNR AR TRES W  DIS CAZ7
 BAR2 SZ IP     D  759 45.68                             136     0.210   21  78 
 BAR2 SZ ES   2    759 49.44                             136    -0.1 5   21  78 
 BTL  SZ EP   1    759 47.68                             116    -0.4 7   42  16 
 BTL  SZ ES   2    759 53.90                             116    -0.3 5   42  16 
 BRR  HZ EP   1    759 52.12                             105     0.1 7   72 329 
 BRR  HZ I         759 52.74        13.0 0.11                            72 329 
 BRR  HN ES   2    8 0  1.89                             105     0.6 5   72 329 
 RUS  HZ EP   1    759 53.81                             104     0.1 7   80 156 
 RUS  HE ES   2    8 0  4.13                             104    -0.1 5   80 156 
 RUS  HZ I         8 0  5.55         8.5 0.24                            80 156 
 GUE  SZ EP   1    8 0  3.24                              56     0.3 7  150  19 
 GUE  SZ ES   2    8 0 21.80                              56     1.1 5  150  19 
 GRA  SZ EP   1    8 0  4.05                              56     0.0 7  160  23 
 GRA  SZ ES   2    8 0 22.75                              56     0.0 5  160  23 
 OCA  SZ EP   1    8 0  6.04                              56    -1.3 7  187   2 
 OCA  SZ ES   2    8 0 28.63                              56     0.0 4  187   2 
 OCA  SZ I         8 0 32.28         4.8 0.31                           187   2 
                                                                                
