 2014 11 6 0959  8.7 L   6.805 -73.153142.7  RSN 11 0.4 2.6LRSN                1
 GAP= 71        1.08       3.3     3.7  5.7 -0.2840E+01  0.2046E+01  0.3153E+01E
 Epicentro: LOS SANTOS - SANTANDER                                             3
 ACTION:UPD 14-12-19 15:39 OP:nd   STATUS:               ID:20141106095908 L   I
 OLDACT:UP  14-11-06 16:59 OP:mh   STATUS:               ID:20141106094744     3
 OLDACT:REG 14-11-06 14:26 OP:carl STATUS:               ID:20141106094744     3
 2014-11-06-0947-44M.COL___271                                                 6
 STAT SP IPHASW D HRMM SECON CODA AMPLIT PERI AZIMU VELO AIN AR TRES W  DIS CAZ7
 BAR2 SZ EP        959 27.99                             170   -0.0110 23.7 188 
 BAR2 SZ ES        959 42.33                             170   -0.7010 23.7 188 
 BAR2 SZ I         959 44.51        47.6 0.12            168           23.7 188 
 BRR  HZ EP     C  959 29.83                             152    0.3410 70.2 298 
 BRR  HN ES        959 46.52                             152    0.8410 70.2 298 
 BRR  HZ I         959 50.27        89.6 0.05            154           70.2 298 
 PAM  SZ EP     C  959 30.97                             150    0.3510 77.5  40 
 PAM  SN ES        959 47.45                             150   -0.2510 77.5  40 
 PAM  SZ I         959 50.49        34.2 0.53            148           77.5  40 
 RUS  HZ EP     C  959 32.07                             143   -0.1510  101 176 
 RUS  HN ES        959 50.78                             143    0.2310  101 176 
 RUS  HZ I         959 52.37        21.7 0.28            140            101 176 
 PTB  HZ EP        959 34.47                             131   -0.91 9  147 259 
 PTB  HN ES        959 55.58                             131   -0.59 9  147 259 
 PTB  HZ I         959 58.62       148.6 0.04            131            147 259 
 TAM  HZ EP        959 36.47                             130    0.22 9  156 105 
 TAM  HZ I         959 56.94        24.0 0.54            126            156 105 
 TAM  HE ES   1    959 57.58                             130   -0.14 7  156 105 
 OCA  HZ EP        959 36.41                             129   -0.33 9  160 353 
 OCA  HN ES        959 58.76                             129    0.17 9  160 353 
 OCA  HZ I        10 0  2.53        36.8 0.30            128            160 353 
 SPBC HZ EP        959 36.98                             128    0.00 9  163 219 
 SPBC HN ES        959 59.62                             128    0.60 9  163 219 
 SPBC HZ I        10 0  6.22      1353.3 0.03            127            163 219 
 NOR  HZ EP        959 44.10                             118   -0.14 8  234 234 
 NOR  HN ES       10 0 11.87                             118   -0.07 8  234 234 
 NOR  HZ I        10 0 18.04        22.4 0.60            116            234 234 
 CHI  HZ EP        959 46.23                             116   -0.06 8  249 195 
 CHI  HN ES       10 0 15.64                             116    0.05 8  249 195 
 CHI  HZ I        10 0 23.60         9.7 0.40            114            249 195 
 GUY2CHZ EP        959 52.75                             112    0.60 7  301 235 
 GUY2CHN ES   4   10 0 28.87                             112    2.85 0  301 235 
 GUY2CHZ I        10 0 36.09        15.2 0.33                           301 235 
                                                                                
