 2016 10 6 0007 47.5 L   6.783 -73.131148.3  RSN  4 0.3 1.3LRSN                1
 GAP=238        0.65       5.3     5.4  5.9  0.1539E+02  0.9556E+00  0.2865E+00E
 Epicentro: LOS SANTOS - SANTANDER                                             3
 ACTION:UPD 16-11-09 19:16 OP:rebc STATUS:               ID:20161006000747 L   I
 OLDACT:REG 16-10-06 13:23 OP:dnl  STATUS:               ID:20161006000005     3
 2016-10-06-0000-15M.COL___360                                                 6
 STAT SP IPHASW D HRMM SECON CODA AMPLIT PERI AZIMU VELO AIN AR TRES W  DIS CAZ7
 BAR2 EZ EP   2    0 8  7.12                             171   -0.25 5 21.8 195 
 BAR2 EZ ES        0 8 22.54                             171   -0.3510 21.8 195 
 BAR2 EZ I         0 8 23.82         4.9 0.22            170           21.8 195 
 BRR  HZ EP        0 8  8.99                             152   -0.0310 73.6 299 
 BRR  HN ES        0 8 26.08                             152    0.2510 73.6 299 
 BRR  HZ I         0 8 27.25         8.0 0.36            152           73.6 299 
 RUS  HZ EP        0 8 11.62                             145    0.3010 98.6 177 
 RUS  HN ES        0 8 29.99                             145    0.0610 98.6 177 
 RUS  HZ I         0 8 31.55         1.3 0.40            145           98.6 177 
 PTB  HZ EP   2    0 8 13.98                             132   -0.77 5  149 260 
 PTB  HE ES        0 8 36.04                             132    0.00 9  149 260 
 PTB  HZ I         0 8 37.60         2.4 0.16            132            149 260 
                                                                                
