 2015  6 6 0236  3.6 L   6.806 -73.158138.7  RSN 13 0.4 2.0LRSN                1
 GAP=135        0.85       2.3     3.6  5.3 -0.2165E+01  0.8781E+01 -0.3382E+00E
 Epicentro: LOS SANTOS - SANTANDER                                             3
 ACTION:UPD 15-09-10 22:10 OP:cam  STATUS:               ID:20150606023603 L   I
 OLDACT:UP  15-06-06 14:31 OP:mh   STATUS:               ID:20150606022749     3
 OLDACT:UP  15-06-06 14:31 OP:mh   STATUS:               ID:20150606022749     3
 OLDACT:UP  15-06-06 14:31 OP:mh   STATUS:               ID:20150606022749     3
 OLDACT:REG 15-06-06 12:32 OP:mh   STATUS:               ID:20150606022749     3
 2015-06-06-0227-49M.COL___309                                                 6
 STAT SP IPHASW D HRMM SECON CODA AMPLIT PERI AZIMU VELO AIN AR TRES W  DIS CAZ7
 BAR2 EZ EP        236 22.48                             170    0.0410 23.8 186 
 BAR2 EZ ES   1    236 36.49                             170   -0.61 7 23.8 186 
 BAR2 EZ I         236 38.62        20.2 0.22            170           23.8 186 
 BRR  HZ EP   1    236 24.39                             152    0.44 7 69.7 299 
 BRR  HN ES   1    236 40.28                             152    0.50 7 69.7 299 
 BRR  HZ I         236 43.12        12.9 0.28            148           69.7 299 
 PAM  SZ EP   1    236 25.38                             149    0.24 7 77.7  41 
 PAM  SN ES        236 42.22                             149    0.3210 77.7  41 
 PAM  SZ I         236 44.55        14.1 0.62            152           77.7  41 
 RUS  HZ EP   1    236 26.52                             142   -0.25 7  101 175 
 RUS  HN ES        236 44.60                             142   -0.2110  101 175 
 RUS  HZ I         236 45.28         9.5 0.40            146            101 175 
 OCA  HZ EP        236 31.48                             128    0.15 9  159 354 
 OCA  HN ES        236 52.66                             128   -0.27 9  159 354 
 OCA  HZ I         237  2.62        18.4 0.30            129            159 354 
 SPBC HZ EP   1    236 31.59                             127    0.01 7  163 218 
 SPBC HN ES        236 53.43                             127    0.06 9  163 218 
 SPBC HZ I         236 58.18        14.5 0.34            128            163 218 
 ZAR  HZ EP   1    236 35.58                             121    0.10 6  203 292 
 ZAR  HN ES        237  0.89                             121    0.58 9  203 292 
 ZAR  HZ I         237  6.23         9.6 0.24            121            203 292 
 NOR  HZ EP   1    236 38.90                             117    0.00 6  234 234 
 NOR  HN ES        237  5.83                             117   -0.57 8  234 234 
 NOR  HZ I         237 12.83         8.8 0.16            118            234 234 
 SML  HZ EP   1    236 39.27                             116   -0.48 6  242 336 
 SML  HE ES        237  7.36                             116   -0.55 8  242 336 
 SML  HZ I         237 15.57        10.5 0.10            117            242 336 
 HEL  HZ EP        236 43.12                             113   -0.26 8  271 256 
 HEL  HN ES        237 13.73                             113   -0.64 8  271 256 
 HEL  HZ I         237 22.57         4.3 0.30            114            271 256 
 GUY2CHZ EP   4    236 48.34                             111    1.48 0  300 235 
 GUY2CHE ES   1    237 21.25                             111    0.69 5  300 235 
 GUY2CHZ I         237 27.18         5.0 0.40                           300 235 
 TOL  SZ EP        236 52.16                             108    0.59 7  343 224 
 TOL  SE ES        237 29.48                             108    0.52 7  343 224 
 TOL  SZ I         237 35.55         4.6 0.52            109            343 224 
 PRA  HZ EP   1    236 56.22                             105   -0.70 4  392 209 
 PRA  HN ES   1    237 39.12                             105    0.64 4  392 209 
 PRA  HZ I         237 44.70         4.5 0.38            107            392 209 
                                                                                
