 2013  2 6 0520 29.0 L   6.751 -73.160154.8  RSN  4 0.2 1.2LRSN                1
 GAP=232        0.48       4.0     3.9  4.1  0.7963E+01  0.7528E+00  0.6467E-01E
 Epicentro: LOS SANTOS - SANTANDER                                             3
 ACTION:UPD 13-03-12 09:30 OP:ep   STATUS:               ID:20130206052029 L   I
 2013-02-06-0520-00M.COL___240                                                 6
 STAT SP IPHASW D HRMM SECON CODA AMPLIT PERI AZIMU VELO AIN AR TRES W  DIS CAZ7
 BAR2 SZ EP   1    520 49.36                             173   -0.23 7 17.7 188 
 BAR2 SZ ES        521  5.47                             173   -0.2110 17.7 188 
 BAR2 SZ I         521  5.84         7.4 0.18            165           17.7 188 
 BRR  HZ EP        520 51.13                             154   -0.0510 72.6 303 
 BRR  HN ES        521  8.76                             154    0.2610 72.6 303 
 BRR  HN I         521  9.29         4.3 0.16            149           72.6 303 
 RUS  HZ EP        520 53.33                             147    0.0710 95.3 175 
 RUS  HZ I         520 54.14         0.9 0.16            143           95.3 175 
 RUS  HN ES        521 12.36                             147    0.1510 95.3 175 
 PTB  HZ EP   1    520 56.58                             135    0.11 7  145 261 
 PTB  HN ES        521 17.75                             135   -0.16 9  145 261 
 PTB  HZ I         521 24.46         1.8 0.42            130            145 261 
                                                                                
