 2010  7 6 0731 52.2 L   6.813 -73.112144.8  RSN 12 0.4 2.3LRSN                1
 GAP=159        0.80       3.8     7.7  7.3 -0.1331E+02  0.1244E+02  0.3643E+01E
 Epicentro: LOS SANTOS - SANTANDER                                             3
 ACTION:UPD 10-12-01 15:15 OP:pat  STATUS:               ID:20100706073152 L   I
 2010-07-06-0729-50S.COL___118                                                 6
 STAT SP IPHASW D HRMM SECON CODA AMPLIT PERI AZIMU VELO AIN AR TRES W  DIS CAZ7
 BAR2 SZ IP     D  732 11.79                             169     0.010   26 198 
 BAR2 SZ ES   2    732 26.28                             169    -0.8 5   26 198 
 BRR  HZ IP     C  732 13.58                             151     0.210   74 296 
 BRR  HE ES   2    732 30.37                             151     0.4 5   74 296 
 BRR  HZ I         732 34.29        56.0 0.12                            74 296 
 RUS  HZ EP   1    732 15.88                             143    -0.1 7  102 178 
 RUS  HZ I         732 17.01        23.5 0.17                           102 178 
 RUS  HE ES   2    732 34.66                             143     0.2 5  102 178 
 BRI  SZ EP   1    732 16.29                             142     0.5 7  106  19 
 BRI  SZ ES   2    732 34.99                             142     0.8 5  106  19 
 GUE  SZ EP   1    732 16.05                             140    -0.6 7  114  10 
 GRA  SZ EP   1    732 17.55                             137     0.4 7  123  16 
 GRA  SZ ES   2    732 36.27                             137    -0.4 5  123  16 
 OCA  SZ EP   1    732 20.30                             130    -0.1 7  159 352 
 OCA  SZ ES   2    732 41.32                             130    -1.0 5  159 352 
 OCA  SZ I         732 46.43        23.4 0.25                           159 352 
 CHI  HZ EP   1    732 30.34                             117     0.2 6  251 196 
 CHI  HE ES   2    732 59.25                             117    -0.4 4  251 196 
 CHI  HZ I         733  4.77         8.6 0.34                           251 196 
 ROSC BZ EP   1    732 30.12                             116    -0.5 6  256 212 
 ROSC BN ES   2    733  1.32                             116     0.7 4  256 212 
 ROSC BZ I         733  5.82        12.0 0.42                           256 212 
 HEL  HZ EP   1    732 32.79                             114     0.0 6  276 256 
 HEL  HZ I         733 10.90        11.5 0.56                           276 256 
 RREF HZ EP   1    732 38.95                             110     0.2 5  326 230 
 RREF HN ES   2    733 15.08                             110     0.0 3  326 230 
 RREF HZ I         733 20.73         8.9 0.25                           326 230 
 PRA  HZ EP   1    732 45.73                             106    -0.3 4  395 210 
 PRA  HZ I         733 34.28        12.6 0.22                           395 210 
                                                                                
