 2017 10 6 0922 52.4 L   6.811 -73.162144.7  RSN 13 0.5 1.9LRSN                1
 GAP=110        0.97       3.0     3.6  5.4  0.1294E+01  0.7330E+01  0.3564E+01E
 Epicentro: LOS SANTOS - SANTANDER                                             3
 ACTION:UPD 17-11-07 19:28 OP:rebc STATUS:               ID:20171006092252 L   I
 OLDACT:UP  17-10-06 16:34 OP:dhb  STATUS:               ID:20171006091740     3
 OLDACT:UP  17-10-06 16:34 OP:dhb  STATUS:               ID:20171006091740     3
 OLDACT:REG 17-10-06 12:53 OP:dhb  STATUS:               ID:20171006091740     3
 2017-10-06-0918-00M.COL___399                                                 6
 STAT SP IPHASW D HRMM SECON CODA AMPLIT PERI AZIMU VELO AIN AR TRES W  DIS CAZ7
 BAR2 EZ IP     D  923 11.90                             170   -0.0710 24.3 185 
 BAR2 EZ ES        923 27.03                             170   -0.1710 24.3 185 
 BAR2 EZ I         923 28.18        20.8 0.18            167           24.3 185 
 PAM  EZ IP     C  923 14.84                             150    0.2710 77.7  41 
 PAM  EN ES        923 32.04                             150    0.2110 77.7  41 
 PAM  EZ I         923 33.89         7.9 0.20            154           77.7  41 
 RUS  HZ EP        923 15.84                             143   -0.3610  102 175 
 RUS  HE ES        923 34.76                             143    0.0410  102 175 
 RUS  HZ I         923 36.00         9.7 0.22            142            102 175 
 SPBC HZ EP        923 20.90                             129    0.05 9  163 218 
 SPBC HE ES        923 43.18                             129    0.18 9  163 218 
 SPBC HZ I         923 45.57        17.0 0.22            128            163 218 
 YPLC HZ EP        923 22.03                             126   -0.33 9  179 151 
 YPLC HN ES        923 46.07                             126    0.38 9  179 151 
 YPLC HZ I         923 54.29         3.7 0.26            127            179 151 
 ZAR  HZ EP        923 24.62                             122    0.01 9  202 292 
 ZAR  HN ES        923 50.01                             122    0.32 9  202 292 
 ZAR  HZ I         923 56.02        11.8 0.52            122            202 292 
 NOR  HZ EP        923 28.17                             118    0.14 8  234 234 
 NOR  HE ES        923 54.97                             118   -0.82 8  234 234 
 NOR  HZ I         924  1.07         6.8 0.26            118            234 234 
 CHI  HZ EP        923 30.12                             117   -0.04 8  249 195 
 CHI  HE ES        923 58.95                             117   -0.63 8  249 195 
 CHI  HZ I         924  9.22         2.6 0.34            117            249 195 
 URE  HZ EP        923 32.78                             113   -0.45 7  282 292 
 URE  HE ES   2    924  3.70                             113   -1.34 4  282 292 
 URE  HZ I         924 13.69         5.5 0.24            114            282 292 
 GUY2CHZ EP   2    923 37.47                             112    1.55 4  300 234 
 GUY2CHE ES   4    924 14.86                             112    5.03 0  300 234 
 GUY2CHZ I         924 18.50         4.4 0.42                           300 234 
 PTGC HZ EP   2    923 34.93                             111   -1.53 3  310 158 
 PTGC HE ES        924 10.48                             111   -0.31 7  310 158 
 PTGC HZ I         924 15.12         8.3 0.36            112            310 158 
 PRA  HZ EP        923 46.49                             106    0.54 6  392 209 
 PRA  HE ES        924 28.63                             106    0.95 6  392 209 
 PRA  HZ I         924 36.26         2.6 0.38            106            392 209 
 ORTC HZ EP        923 46.93                             106    0.61 6  395 216 
 ORTC HE ES        924 29.29                             106    0.95 6  395 216 
 ORTC HZ I         924 36.04         2.2 0.40            106            395 216 
                                                                                
