 2016 11 6 0351 36.1 L   6.807 -73.128147.8  RSN 11 0.5 1.9LRSN                1
 GAP=120        0.84       3.6     4.6  5.5  0.4413E+00  0.3183E+01  0.7098E+01E
 Epicentro: LOS SANTOS - SANTANDER                                             3
 ACTION:UPD 17-10-26 21:05 OP:lp   STATUS:               ID:20161106035136 L   I
 OLDACT:UP  16-11-06 14:57 OP:dani STATUS:               ID:20161106034747     3
 OLDACT:UP  16-11-06 14:57 OP:dani STATUS:               ID:20161106034747     3
 OLDACT:REG 16-11-06 12:34 OP:dani STATUS:               ID:20161106034747     3
 2016-11-06-0348-00M.COL___343                                                 6
 STAT SP IPHASW D HRMM SECON CODA AMPLIT PERI AZIMU VELO AIN AR TRES W  DIS CAZ7
 BAR2 EZ EP        351 55.79                             170   -0.1910 24.5 194 
 BAR2 HE ES        352 11.28                             170   -0.2210 24.5 194 
 BAR2 EZ I         352 12.40        18.1 0.20            173           24.5 194 
 BRR  HZ EP        351 57.61                             152    0.0810 72.6 297 
 BRR  HN ES        352 14.68                             152    0.4210 72.6 297 
 BRR  HZ I         352 15.22        11.1 0.10            151           72.6 297 
 PAM  EZ EP        351 58.78                             152    0.3710 75.6  39 
 PAM  EZ I         352 17.95         5.9 0.60            145           75.6  39 
 PTB  HZ EP        352  2.54                             132   -0.87 9  150 259 
 PTB  HN ES   3    352 23.36                             132   -1.36 2  150 259 
 PTB  HZ I         352 30.53         7.2 0.44            131            150 259 
 SPBC HZ EP        352  4.76                             129   -0.15 9  165 219 
 SPBC HN ES   3    352 25.76                             129   -1.64 2  165 219 
 SPBC HZ I         352 31.39         9.5 0.44            128            165 219 
 ZAR  HZ EP        352  8.74                             123   -0.08 8  206 292 
 ZAR  HE ES        352 34.27                             123   -0.09 8  206 292 
 ZAR  HZ I         352 42.71         8.1 0.26            120            206 292 
 NOR  HE ES        352 40.74                             119    0.46 8  237 235 
 CHI  HZ EP        352 14.08                             117    0.05 8  250 196 
 CHI  HN ES        352 43.48                             117   -0.15 8  250 196 
 CHI  HZ I         352 46.86         2.5 0.54            116            250 196 
 ROSC BZ EP        352 14.77                             117    0.27 8  254 211 
 ROSC BN ES   3    352 46.03                             117    1.57 2  254 211 
 ROSC BZ I         352 52.20         8.3 0.43            115            254 211 
 PTGC HZ EP   3    352 18.99                             112   -1.04 2  309 159 
 PRA  HZ EP        352 30.20                             107    0.33 6  394 210 
 PRA  HE ES        353 12.30                             107    0.49 6  394 210 
 PRA  HZ I         353 18.24         4.3 0.47            105            394 210 
                                                                                
