 2016  2 6 0351 27.5 L   6.827 -73.157140.0  RSN  6 0.3 1.6LRSN                1
 GAP=200        0.50       2.7     3.4  4.0 -0.3437E+00  0.1146E+01 -0.2468E+01E
 Epicentro: LOS SANTOS - SANTANDER                                             3
 ACTION:UPD 16-03-04 21:23 OP:rebc STATUS:               ID:20160206035127 L   I
 OLDACT:REG 16-02-06 13:17 OP:dnl  STATUS:               ID:20160206034736     3
 2016-02-06-0347-36M.COL___334                                                 6
 STAT SP IPHASW D HRMM SECON CODA AMPLIT PERI AZIMU VELO AIN AR TRES W  DIS CAZ7
 BAR2 EZ EP        351 46.73                             169    0.1910 26.2 186 
 BAR2 EZ ES        352  1.21                             169   -0.1510 26.2 186 
 BAR2 EZ I         352  3.45         7.6 0.23            165           26.2 186 
 RUS  HZ EP        351 50.98                             141    0.0210  104 175 
 RUS  HE ES   2    352  9.05                             141   -0.18 5  104 175 
 RUS  HZ I         352 11.82         3.2 0.40            143            104 175 
 PTB  HZ EP   2    351 53.21                             131   -0.78 5  147 258 
 PTB  HE ES        352 14.58                             131   -0.04 9  147 258 
 PTB  HZ I         352 21.78         5.0 0.32            129            147 258 
 SPBC HZ EP        351 55.75                             127   -0.01 9  165 218 
 SPBC HN ES        352 18.04                             127    0.27 9  165 218 
 SPBC HZ I         352 24.90         6.2 0.14            127            165 218 
 SML  HZ EP        352  3.65                             116    0.16 8  240 335 
 SML  HN ES   2    352 31.26                             116   -0.27 4  240 335 
 SML  HZ I         352 35.17         6.7 0.10            118            240 335 
 CHI  HZ EP   2    352  5.25                             115    0.04 4  251 195 
 CHI  HE ES   2    352 33.99                             115   -0.60 4  251 195 
 CHI  HZ I         352 37.45         1.8 0.34            117            251 195 
                                                                                
