 2016 12 6 0802 15.6 L   6.157 -73.492128.2  RSN  5 0.2 1.0LRSN                1
 GAP=169        0.52       3.5     3.2  4.5  0.5809E+01  0.7125E+01  0.1863E+01E
 Epicentro: SAN BENITO - SANTANDER                                             3
 ACTION:UPD 17-01-11 20:12 OP:rebc STATUS:               ID:20161206080215 L   I
 OLDACT:DUP 16-12-06 19:23 OP:lv   STATUS:               ID:20161206075744d    3
 2016-12-06-0758-00M.COL___331                                                 6
 STAT SP IPHASW D HRMM SECON CODA AMPLIT PERI AZIMU VELO AIN AR TRES W  DIS CAZ7
 RUS  HZ EP        8 2 34.74                             156    0.1110 53.9 123 
 RUS  HE ES        8 2 49.65                             156    0.1910 53.9 123 
 RUS  HZ I         8 2 51.85         1.0 0.24            158           53.9 123 
 BAR2 EZ ES        8 2 49.05                             154   -0.2310 59.1  35 
 BRR  HZ EP        8 2 37.39                             137   -0.1910  108 347 
 BRR  HE ES        8 2 54.86                             137    0.1510  108 347 
 PTB  HZ EP        8 2 38.01                             135   -0.1710  115 292 
 PTB  HE ES        8 2 55.64                             135   -0.1510  115 292 
 PTB  HZ I         8 2 57.94         1.9 0.11            137            115 292 
 ZAR  HZ EP        8 2 47.83                             117    0.09 8  211 314 
 ZAR  HN ES        8 3 13.12                             117    0.31 8  211 314 
 ZAR  HZ I         8 3 14.06         1.7 0.25            119            211 314 
                                                                                
