 2011  2 6 0944 35.9 L   6.798 -72.991143.9  RSN  5 0.2 1.1LRSN                1
 GAP=176        0.39       5.0    19.3  6.2 -0.6115E+02 -0.9788E+01 -0.5820E+00E
 Epicentro: CEPITA - SANTANDER                                                 3
 ACTION:UP  11-03-28 15:06 OP:jfem STATUS:               ID:20110206094435 L   I
 2011-02-06-0940-00M.COL___139                                                 6
 STAT SP IPHASW D HRMM SECON CODA AMPLIT PERI AZIMU VELO SNR AR TRES W  DIS CAZ7
 BAR2 SZ EP   1    944 55.59                             167     0.1 7   31 223 
 BAR2 SZ ES   2    945 10.57                             167    -0.2 5   31 223 
 BAR2 SZ I         945 13.19         5.3 0.28                            31 223 
 BTL  SZ EP   2    944 55.75                             166     0.2 5   33 294 
 RUS  HZ EP   2    944 59.67                             143     0.2 5  101 186 
 RUS  HZ I         945  0.70         1.3 0.02                           101 186 
 RUS  HN ES   2    945 17.78                             143    -0.1 5  101 186 
 GRA  SZ EP   2    945  0.38                             137    -0.3 5  122  10 
 GRA  SZ I         945 22.71         1.8 0.74                           122  10 
 CHI  HZ EP   2    945 13.75                             116    -0.3 4  253 199 
 CHI  HE ES   2    945 43.65                             116    -0.1 4  253 199 
 CHI  HZ I         945 50.21         0.9 0.31                           253 199 
                                                                                
