 2012 10 6 0428 24.3 L   6.791 -73.149137.8  RSN  5 0.4 1.7LRSN                1
 GAP=136        0.77       5.2     5.6  8.2  0.6130E+01  0.5912E+01 -0.3548E+00E
 Epicentro: LOS SANTOS - SANTANDER                                             3
 ACTION:UPD 12-11-22 17:02 OP:ep   STATUS:               ID:20121006042824 L   I
 2012-10-06-0420-00M.COL___222                                                 6
 STAT SP IPHASW D HRMM SECON CODA AMPLIT PERI AZIMU VELO AIN AR TRES W  DIS CAZ7
 BAR2 SZ EP   1    428 43.08                             170    0.10 7 22.3 189 
 BAR2 SZ ES   1    428 57.03                             170   -0.50 7 22.3 189 
 BAR2 SZ I         428 59.50        12.8 0.24                          22.3 189 
 BRR  HZ EP   1    428 44.76                             151    0.13 7 71.3 299 
 BRR  HN ES   1    429  1.24                             151    0.77 7 71.3 299 
 BRR  HZ I         429  2.39         8.9 0.07                          71.3 299 
 PAM  SZ EP   1    428 45.90                             149    0.13 7 78.4  39 
 PAM  SN ES   1    429  2.27                             149   -0.22 7 78.4  39 
 PAM  SN I         429  3.11         4.4 0.31                          78.4  39 
 RUS  HZ EP   1    428 47.18                             142   -0.05 7 99.6 176 
 RUS  HE ES   1    429  5.21                             142    0.11 7 99.6 176 
 ZAR  HN ES   1    429 20.51                             121   -0.67 6  204 292 
 ZAR  HN I         429 21.61         9.3 0.05                           204 292 
                                                                                
