 2015  3 6 0307 23.7 L   6.310 -73.643111.9  RSN  6 0.3 1.2LRSN                1
 GAP= 73        0.80       3.1     3.7  7.0  0.7711E+00  0.1378E+01  0.6287E+01E
 Epicentro: SANTA HELENA DEL OPON - SANTANDER                                  3
 ACTION:UPD 15-04-30 16:23 OP:nd   STATUS:               ID:20150306030723 L   I
 OLDACT:REG 15-03-06 12:21 OP:spq  STATUS:               ID:20150306025742     3
 2015-03-06-0257-42M.COL___281                                                 6
 STAT SP IPHASW D HRMM SECON CODA AMPLIT PERI AZIMU VELO AIN AR TRES W  DIS CAZ7
 BAR2 EZ EP        3 7 40.96                             150    0.0910 59.8  58 
 BAR2 EZ ES   1    3 7 54.05                             150   -0.23 7 59.8  58 
 BAR2 EZ I         3 7 55.53         6.2 0.34            156           59.8  58 
 RUS  HZ EP        3 7 42.20                             143   -0.2010 77.2 127 
 RUS  HN ES   1    3 7 56.74                             143   -0.28 7 77.2 127 
 SPBC HZ EP        3 7 42.92                             139    0.3510 86.9 213 
 SPBC HN ES   1    3 7 57.97                             139    0.65 7 86.9 213 
 SPBC HZ I         3 8  1.09         4.2 0.22            140           86.9 213 
 BRR  HZ EP        3 7 42.61                             139    0.0310 88.5 355 
 BRR  HN ES        3 7 57.76                             139    0.4310 88.5 355 
 BRR  HZ I         3 7 58.65         5.3 0.36            145           88.5 355 
 PTB  HZ EP        3 7 42.78                             137   -0.2310 93.5 286 
 PTB  HN ES        3 7 57.61                             137   -0.4910 93.5 286 
 PTB  HZ I         3 8  0.42         3.6 0.10            140           93.5 286 
 CHI  HZ EP   1    3 7 52.87                             116    0.18 7  186 183 
 CHI  HE ES   1    3 8 15.04                             116   -0.28 7  186 183 
 CHI  HZ I         3 8 20.75         0.8 0.64            119            186 183 
                                                                                
