 2016  9 6 0603  1.4 L   6.780 -73.075149.1  RSN  6 0.5 1.6LRSN                1
 GAP=243        1.29       7.4     8.7  9.4  0.2898E+02  0.1254E+02 -0.2153E+01E
 Epicentro: LOS SANTOS - SANTANDER                                             3
 ACTION:UPD 17-08-17 21:07 OP:lp   STATUS:               ID:20160906060301 L   I
 OLDACT:UP  16-09-06 15:35 OP:dani STATUS:               ID:20160906055731     3
 OLDACT:UP  16-09-06 15:34 OP:dani STATUS:               ID:20160906055731     3
 OLDACT:REG 16-09-06 12:30 OP:dani STATUS:               ID:20160906055731     3
 2016-09-06-0558-00M.COL___361                                                 6
 STAT SP IPHASW D HRMM SECON CODA AMPLIT PERI AZIMU VELO AIN AR TRES W  DIS CAZ7
 BAR2 EZ ES        6 3 36.80                             171   -0.3110 23.9 210 
 BRR  HZ EP        6 3 23.83                             151    0.4310 79.1 297 
 BRR  HN ES        6 3 41.03                             151    0.5010 79.1 297 
 BRR  HZ I         6 3 43.96         6.2 0.22            150           79.1 297 
 RUS  HZ EP        6 3 24.61                             145   -0.7310 98.2 180 
 RUS  HE ES        6 3 44.14                             145    0.1410 98.2 180 
 RUS  HZ I         6 3 45.40         4.0 0.54            147           98.2 180 
 PTB  HZ EP   4    6 3 27.91                             131   -1.42 0  155 260 
 PTB  HE ES        6 3 50.21                             131   -0.88 9  155 260 
 PTB  HZ I         6 3 53.56         5.6 0.14            132            155 260 
 SPBC HZ EP        6 3 30.70                             129    0.19 9  167 222 
 SPBC HN ES        6 3 53.92                             129    0.74 9  167 222 
 SPBC HZ I         6 3 54.76         3.8 0.46            130            167 222 
 ZAR  HZ EP        6 3 35.18                             122    0.26 8  212 292 
 ZAR  HN ES        6 4  0.72                             122   -0.32 8  212 292 
 ZAR  HZ I         6 4  3.70         3.9 0.09            123            212 292 
                                                                                
