 2017  8 6 0709 11.1 L   6.802 -73.127144.6  RSN 13 0.5 1.7LRSN                1
 GAP=114        1.16       3.7     3.7  6.0  0.5122E+00  0.4772E+01  0.5980E+01E
 Epicentro: LOS SANTOS - SANTANDER                                             3
 ACTION:UPD 17-09-04 20:16 OP:rebc STATUS:               ID:20170806070911 L   I
 OLDACT:REG 17-08-06 12:35 OP:osc  STATUS:               ID:20170806070641     3
 2017-08-06-0707-00M.COL___383                                                 6
 STAT SP IPHASW D HRMM SECON CODA AMPLIT PERI AZIMU VELO AIN AR TRES W  DIS CAZ7
 BAR2 EZ IP     D  7 9 30.50                             170   -0.1210 24.0 195 
 BAR2 EZ ES        7 9 45.73                             170   -0.1010 24.0 195 
 BAR2 EZ I         7 9 46.79        15.0 0.14            169           24.0 195 
 BRR  HZ IP     D  7 9 32.58                             152    0.3410 72.9 298 
 BRR  HN ES        7 9 49.60                             152    0.8910 72.9 298 
 BRR  HZ I         7 9 53.47         8.6 0.12            152           72.9 298 
 PAM  EZ IP     D  7 9 33.31                             151    0.1910 75.9  38 
 PAM  EN ES        7 9 49.95                             151   -0.3310 75.9  38 
 PAM  EZ I         7 9 52.61        10.2 0.52            154           75.9  38 
 RUS  HZ EP        7 9 34.61                             144   -0.1510  101 177 
 RUS  HE ES        7 9 53.02                             144   -0.1710  101 177 
 RUS  HZ I         7 9 54.17         9.5 0.34            144            101 177 
 PTB  HZ EP        7 9 37.59                             131   -0.59 9  150 259 
 PTB  HN ES        7 9 58.33                             131   -0.95 9  150 259 
 PTB  HZ I         7 9 59.81         3.7 0.11            132            150 259 
 SPBC HZ IP     C  7 9 39.86                             129    0.20 9  165 220 
 SPBC HN ES        710  2.61                             129    0.68 9  165 220 
 SPBC HZ I         710  4.17        15.1 0.24            129            165 220 
 YPLC HZ IP     D  7 9 40.75                             127    0.00 9  176 152 
 YPLC HN ES        710  4.21                             127    0.35 9  176 152 
 YPLC HZ I         710  8.31         3.9 0.34            128            176 152 
 ZAR  HZ EP   2    7 9 45.00                             122    1.33 4  206 292 
 ZAR  HN ES        710  8.76                             122   -0.31 8  206 292 
 ZAR  HZ I         710 14.90         6.0 0.09            123            206 292 
 NOR  HZ EP        7 9 46.62                             118   -0.35 8  236 235 
 NOR  HE ES        710 14.28                             118   -0.65 8  236 235 
 NOR  HZ I         710 19.67         4.6 0.26            119            236 235 
 CHI  HZ EP        7 9 48.79                             117   -0.04 8  249 196 
 CHI  HN ES        710 18.44                             117    0.20 8  249 196 
 CHI  HZ I         710 22.34         1.9 0.39            118            249 196 
 ROSC BZ EP        7 9 48.44                             116   -0.87 8  254 211 
 ROSC BN ES        710 19.52                             116    0.43 8  254 211 
 ROSC BZ I         710 24.75         4.6 0.30            117            254 211 
 GUY2CHZ EP   9    7 9 56.06                             112    1.19 0  303 235 
 GUY2CHE ES        710 30.18                                   -0.01 7  303 235 
 GUY2CHZ I         710 38.88         3.0 0.50                           303 235 
 CBOC HZ EP        7 9 59.02                             110    0.81 7  336 252 
 CBOC HN ES        710 35.41                             110    0.46 7  336 252 
 CBOC HZ I         710 41.20         1.0 0.25            110            336 252 
                                                                                
