 2016 11 6 0948 40.2 L   6.793 -73.161147.0  RSN  7 0.2 1.4LRSN                1
 GAP=155        0.55       3.1     3.1  5.1 -0.5209E+01 -0.3604E+01  0.8747E+01E
 Epicentro: LOS SANTOS - SANTANDER                                             3
 ACTION:UPD 17-10-26 21:05 OP:lp   STATUS:               ID:20161106094840 L   I
 OLDACT:UP  16-11-06 16:55 OP:dani STATUS:               ID:20161106094744     3
 OLDACT:UP  16-11-06 16:55 OP:dani STATUS:               ID:20161106094744     3
 OLDACT:UP  16-11-06 16:54 OP:dani STATUS:               ID:20161106094744     3
 OLDACT:UP  16-11-06 16:54 OP:dani STATUS:               ID:20161106094744     3
 OLDACT:REG 16-11-06 13:02 OP:dani STATUS:               ID:20161106094744     3
 2016-11-06-0948-00M.COL___334                                                 6
 STAT SP IPHASW D HRMM SECON CODA AMPLIT PERI AZIMU VELO AIN AR TRES W  DIS CAZ7
 BRR  HZ EP        949  1.61                             153    0.1410 70.1 300 
 BRR  HN ES        949 18.33                             153    0.3110 70.1 300 
 BRR  HZ I         949 22.64         3.8 0.13            152           70.1 300 
 PAM  EZ EP        949  2.64                             150   -0.0510 79.0  40 
 PAM  EE ES        949 20.07                             150   -0.1310 79.0  40 
 PAM  EZ I         949 21.81         6.0 0.48            154           79.0  40 
 PTB  HZ EP        949  6.81                             133   -0.34 9  146 259 
 PTB  HN ES        949 28.05                             133   -0.09 9  146 259 
 PTB  HZ I         949 32.61         2.4 0.15            133            146 259 
 SPBC HZ EP        949  8.84                             130    0.15 9  162 219 
 SPBC HN ES        949 30.55                             130   -0.32 9  162 219 
 SPBC HZ I         949 33.20         5.4 0.23            131            162 219 
 ZAR  HE ES   4    949 37.56                             123   -0.35 0  203 293 
 ZAR  HZ I         949 43.46         2.2 0.21            124            203 293 
 NOR  HN ES        949 43.69                             119    0.06 8  233 234 
 CHI  HZ EP        949 18.10                             117    0.21 8  247 195 
 CHI  HE ES        949 47.39                             117    0.14 8  247 195 
 CHI  HZ I         949 52.36         1.0 0.26            120            247 195 
                                                                                
