 2016  9 6 0426  9.9 L   6.804 -73.133148.3  RSN  7 0.3 1.7LRSN                1
 GAP=138        0.84       3.1     4.3  6.3 -0.4005E+01  0.1466E+01  0.1285E+01E
 Epicentro: LOS SANTOS - SANTANDER                                             3
 ACTION:UPD 17-08-17 21:07 OP:lp   STATUS:               ID:20160906042609 L   I
 OLDACT:UP  16-09-06 15:10 OP:dani STATUS:               ID:20160906041736     3
 OLDACT:REG 16-09-06 12:23 OP:dani STATUS:               ID:20160906041736     3
 2016-09-06-0418-00M.COL___367                                                 6
 STAT SP IPHASW D HRMM SECON CODA AMPLIT PERI AZIMU VELO AIN AR TRES W  DIS CAZ7
 BRR  HN ES        426 48.38                             153    0.2810 72.2 298 
 BRR  HZ I         426 52.86         8.1 0.10            152           72.2 298 
 PAM  EZ EP        426 32.71                             152    0.4310 76.1  39 
 PAM  EE ES        426 50.00                             152    0.2410 76.1  39 
 PAM  EZ I         426 51.58        11.9 0.48            154           76.1  39 
 RUS  HZ EP        426 33.81                             144   -0.0810  101 177 
 RUS  HN ES        426 52.32                             144   -0.3110  101 177 
 RUS  HZ I         426 53.83         4.9 0.38            148            101 177 
 PTB  HZ EP        426 37.15                             132   -0.02 9  149 259 
 PTB  HE ES        426 58.73                             132    0.26 9  149 259 
 PTB  HZ I         427  0.61         3.6 0.26            134            149 259 
 OCA  HZ EP        426 38.30                             130   -0.05 9  160 353 
 OCA  HE ES        426 59.82                             130   -0.74 9  160 353 
 OCA  HZ I         427  5.09        13.6 0.28            132            160 353 
 SPBC HZ EP        426 38.84                             129    0.16 9  164 219 
 SPBC HE ES        427  0.86                             129   -0.29 9  164 219 
 SPBC HZ I         427  3.89         5.5 0.30            132            164 219 
 ZAR  HZ EP   4    426 37.56                             123   -5.03 0  205 292 
 ZAR  HN ES   4    427  8.83                             123    0.71 0  205 292 
 ZAR  HZ I         427 11.19         8.4 0.12            124            205 292 
                                                                                
