 2016  8 6 1006 28.7 L   6.782 -73.144149.8  RSN  9 0.3 1.5LRSN                1
 GAP=138        0.67       2.7     2.8  4.2 -0.1080E+01  0.3304E+01  0.5004E+00E
 Epicentro: LOS SANTOS - SANTANDER                                             3
 ACTION:UPD 16-10-29 15:32 OP:rebc STATUS:               ID:20160806095740 L   I
 OLDACT:UP  16-08-06 20:56 OP:edw  STATUS:               ID:20160806095740 L   3
 OLDACT:UPD 16-08-06 20:47 OP:AR   STATUS:               ID:20160806095740 L   3
 2016-08-06-0958-00M.COL___362                                                 6
 STAT SP IPHASW D HRMM SECON CODA AMPLIT PERI AZIMU VELO AIN AR TRES W  DIS CAZ7
 BAR2 EZ EP       10 6 48.43                             172   -0.3110 21.4 192 
 BAR2 EZ ES       10 7  4.38                             172   -0.0210 21.4 192 
 BAR2 EZ I        10 7  6.21        10.3 0.30                          21.4 192 
 BRR  HZ EP       10 6 50.30                             153   -0.0110 72.4 300 
 BRR  HN ES       10 7  7.52                             153    0.3210 72.4 300 
 PAM  EZ EP       10 6 51.32                             151   -0.0610 78.8  38 
 PAM  EE ES       10 7  9.13                             151    0.0210 78.8  38 
 PAM  EZ I        10 7 11.60         4.0 0.52                          78.8  38 
 RUS  HZ EP       10 6 52.94                             145    0.2710 98.6 176 
 RUS  HN ES       10 7 11.52                             145    0.1310 98.6 176 
 RUS  HZ I        10 7 12.28         4.1 0.36                          98.6 176 
 PTB  HZ EP       10 6 55.19                             133   -0.75 9  148 260 
 PTB  HE ES       10 7 17.02                             133   -0.21 9  148 260 
 PTB  HZ I        10 7 21.28         2.5 0.12                           148 260 
 SPBC HZ EP       10 6 57.56                             130    0.22 9  162 219 
 SPBC HN ES       10 7 19.57                             130   -0.14 9  162 219 
 SPBC HZ I        10 7 24.26         5.1 0.16                           162 219 
 ZAR  HZ EP       10 7  1.74                             123    0.27 9  205 293 
 ZAR  HE ES       10 7 27.25                             123    0.19 9  205 293 
 ZAR  HZ I        10 7 31.61         2.3 0.22                           205 293 
 NOR  HZ EP   2   10 7  4.81                             120    0.29 4  234 235 
 NOR  HE ES       10 7 32.38                             120   -0.12 8  234 235 
 NOR  HZ I        10 7 38.03         2.4 0.14                           234 235 
 GUY2CHZ EP   2   10 7 12.69                             113    0.34 4  300 235 
 GUY2CHN ES   2   10 7 47.04                             113    0.61 4  300 235 
 GUY2CHZ I        10 7 54.76         1.7 0.64                           300 235 
                                                                                
