 2014  1 6 0015 18.7 L   6.806 -73.151143.1  RSN  8 0.5 1.5LRSN                1
 GAP=182        1.14       3.4     6.6  6.9  0.1615E+01  0.8077E+01  0.9264E+00E
 Epicentro: LOS SANTOS - SANTANDER                                             3
 ACTION:UPD 14-03-13 09:51 OP:ep   STATUS:               ID:20140106001518 L   I
 OLDACT:REG 14-01-06 08:53 OP:carl STATUS:               ID:20140106001000     3
 2014-01-06-0010-00M.COL___285                                                 6
 STAT SP IPHASW D HRMM SECON CODA AMPLIT PERI AZIMU VELO AIN AR TRES W  DIS CAZ7
 BAR2 SZ ES        015 53.53                             170    0.4510 23.9 188 
 BRR  HZ EP        015 39.72                             152    0.2210 70.4 298 
 BRR  HN ES        015 56.27                             152    0.5410 70.4 298 
 BRR  HZ I         016  1.10         5.5 0.50            149           70.4 298 
 RUS  HZ EP        015 42.24                             143    0.0210  101 176 
 RUS  HN ES        016  0.01                             143   -0.5710  101 176 
 RUS  HZ I         016  1.44         4.4 0.22            144            101 176 
 PTB  HZ EP        015 44.93                             132   -0.46 9  147 259 
 PTB  HN ES        016  5.38                             132   -0.84 9  147 259 
 OCA  HN ES        016  8.39                             129   -0.20 9  160 353 
 NOR  HZ EP        015 54.86                             118    0.62 8  235 234 
 NOR  HN ES        016 22.70                             118    0.72 8  235 234 
 NOR  HZ I         016 28.05         2.2 0.14            118            235 234 
 SML  HZ EP        015 55.06                             117   -0.01 8  243 335 
 SML  HN ES        016 23.15                             117   -0.30 8  243 335 
 SML  HZ I         016 28.08         7.4 0.10            118            243 335 
 CHI  HZ EP        015 56.59                             117    0.31 8  249 195 
 CHI  HN ES        016 25.23                             117   -0.38 8  249 195 
 CHI  HZ I         016 32.65         0.9 0.48            117            249 195 
                                                                                
