 2017  9 6 0146 27.6 L   6.765 -73.387113.2  RSN  9 0.4 1.6LRSN                1
 GAP= 94        0.90       3.6     3.8  6.7  0.2354E+01  0.1187E+02  0.3614E+01E
 Epicentro: SAN VICENTE DE CHUCURI - SANTANDER                                 3
 ACTION:UPD 17-10-05 19:09 OP:rebc STATUS:               ID:20170906014627 L   I
 OLDACT:UP  17-09-06 14:38 OP:dnl  STATUS:               ID:20170906013740     3
 OLDACT:REG 17-09-06 12:45 OP:dnl  STATUS:               ID:20170906013740     3
 2017-09-06-0138-00M.COL___428                                                 6
 STAT SP IPHASW D HRMM SECON CODA AMPLIT PERI AZIMU VELO AIN AR TRES W  DIS CAZ7
 BAR2 EZ EP        146 43.85                             164    0.3810 29.6 130 
 BAR2 EZ ES        146 56.16                             164    0.2810 29.6 130 
 BAR2 EZ I         146 57.39        19.5 0.20            161           29.6 130 
 BRR  HZ EP        146 43.83                             153   -0.2910 52.2 316 
 BRR  HE ES        146 56.81                             153   -0.2210 52.2 316 
 BRR  HZ I         146 57.35        13.4 0.12            154           52.2 316 
 PAM  EZ EP   2    146 48.51                             136    0.38 5 99.0  50 
 PAM  EE ES        147  3.60                             136   -0.5810 99.0  50 
 PAM  EZ I         147  8.88         5.8 0.28            136           99.0  50 
 RUS  HZ EP        146 48.58                             135    0.1810  102 161 
 RUS  HN ES        147  4.73                             135    0.0710  102 161 
 RUS  HZ I         147  6.18         8.2 0.22            132            102 161 
 SPBC HZ EP   4    146 53.66                             124    1.79 0  145 212 
 SPBC HN ES   4    147  9.10                             124   -1.73 0  145 212 
 SPBC HZ I         147 16.09         6.4 0.30            121            145 212 
 ZAR  HZ EP        146 55.81                             117    0.19 9  181 296 
 ZAR  HE ES        147 18.04                             117    0.53 9  181 296 
 ZAR  HZ I         147 18.94         7.2 0.42            116            181 296 
 NOR  HZ EP   4    146 57.71                             113   -1.25 0  211 231 
 NOR  HN ES   4    147 21.73                             113   -1.73 0  211 231 
 NOR  HZ I         147 26.78         3.2 0.16            111            211 231 
 GUY2CHZ EP   2    147  7.01                             107   -0.09 4  277 232 
 GUY2CHE ES        147 37.14                             107   -0.80 7  277 232 
 GUY2CHZ I         147 45.15         1.6 0.52                           277 232 
 PRA  HZ EP   9    147 19.78                             101    1.53 0  376 206 
 PRA  HE ES        147 58.99                             100   -0.32 6  376 206 
 PRA  HZ I         148  6.93         0.9 0.48             99            376 206 
                                                                                
