 2017  3 6 0834 58.0 L   6.780 -73.139152.0  RSN  9 0.4 1.4LRSN                1
 GAP= 98        0.77       3.4     3.4  5.0 -0.2315E+00  0.6368E+00  0.1205E+01E
 Epicentro: LOS SANTOS - SANTANDER                                             3
 ACTION:UPD 17-05-25 18:36 OP:jn   STATUS:               ID:20170306083458 L   I
 OLDACT:UP  17-03-06 16:16 OP:and  STATUS:               ID:20170306082747     3
 OLDACT:UP  17-03-06 16:16 OP:and  STATUS:               ID:20170306082747     3
 OLDACT:UP  17-03-06 16:15 OP:and  STATUS:               ID:20170306082747     3
 OLDACT:UP  17-03-06 16:15 OP:and  STATUS:               ID:20170306082747     3
 OLDACT:UP  17-03-06 16:14 OP:and  STATUS:               ID:20170306082747     3
 OLDACT:UP  17-03-06 16:14 OP:and  STATUS:               ID:20170306082747     3
 OLDACT:UP  17-03-06 16:13 OP:and  STATUS:               ID:20170306082747     3
 OLDACT:UP  17-03-06 16:13 OP:and  STATUS:               ID:20170306082747     3
 OLDACT:REG 17-03-06 12:30 OP:and  STATUS:               ID:20170306082747     3
 2017-03-06-0828-00M.COL___393                                                 6
 STAT SP IPHASW D HRMM SECON CODA AMPLIT PERI AZIMU VELO AIN AR TRES W  DIS CAZ7
 BAR2 EZ EP        835 18.19                             172   -0.1210 21.4 193 
 BAR2 EZ ES        835 34.20                             172    0.0210 21.4 193 
 BAR2 EZ I         835 35.83         6.2 0.22            170           21.4 193 
 BRR  HZ EP        835 20.07                             153    0.1810 72.9 300 
 BRR  HN ES   2    835 37.77                             153    0.78 5 72.9 300 
 PAM  EZ EP        835 21.09                             151    0.1710 78.6  38 
 PAM  EN ES        835 38.39                             151   -0.4310 78.6  38 
 PAM  EZ I         835 40.19         3.6 0.70            154           78.6  38 
 RUS  HZ EP        835 22.66                             145    0.4710 98.4 176 
 RUS  HN ES        835 40.89                             145   -0.1810 98.4 176 
 RUS  HZ I         835 41.96         2.8 0.30            145           98.4 176 
 PTB  HZ EP        835 25.06                             133   -0.42 9  148 260 
 PTB  HE ES   3    835 46.18                             133   -0.76 2  148 260 
 PTB  HZ I         835 50.60         2.1 0.19            135            148 260 
 TAM  HZ EP        835 26.38                             132    0.35 9  154 104 
 SPBC HZ EP   2    835 27.15                             130    0.31 5  162 220 
 SPBC HN ES        835 49.46                             130    0.10 9  162 220 
 SPBC HZ I         835 51.83         6.2 0.24            132            162 220 
 ZAR  HZ I         835 51.48         2.6 0.34            126            206 293 
 ZAR  HN ES        835 56.69                             123   -0.04 8  206 293 
 NOR  HN ES   4    836  3.31                             120    1.20 0  234 235 
 PTGC HZ EP        835 41.26                             113   -0.59 7  306 159 
 PTGC HN ES   4    836 13.05                             113   -3.03 0  306 159 
                                                                                
