 2014 12 6 0751 35.5 L   6.550 -73.578110.5  RSN  9 0.5 1.8LRSN                1
 GAP= 77        1.37       3.4     5.7  7.9 -0.2353E+00  0.5688E+01 -0.2462E+01E
 Epicentro: EL CARMEN - SANTANDER                                              3
 ACTION:UPD 15-02-10 17:00 OP:nd   STATUS:               ID:20141206075135 L   I
 OLDACT:REG 14-12-06 13:27 OP:carl STATUS:               ID:20141206074745     3
 2014-12-06-0747-45M.COL___312                                                 6
 STAT SP IPHASW D HRMM SECON CODA AMPLIT PERI AZIMU VELO AIN AR TRES W  DIS CAZ7
 BAR2 SZ IP     C  751 51.86                             157    0.2110 44.0  84 
 BAR2 SZ ES        752  4.15                             157   -0.1310 44.0  84 
 BAR2 SZ I         752  5.72        33.0 0.46            159           44.0  84 
 BRR  HZ EP        751 52.78                             148    0.3810 63.3 347 
 BRR  HN ES        752  6.43                             148    0.8210 63.3 347 
 BRR  HZ I         752  7.37         9.3 0.42            148           63.3 347 
 RUS  HZ EP        751 54.90                             138   -0.2410 91.0 143 
 RUS  HN ES        752  9.74                             138   -0.7510 91.0 143 
 RUS  HZ I         752 12.74         4.3 0.34            139           91.0 143 
 PTB  HZ EP        751 54.72                             135   -0.2710 97.1 269 
 PTB  HN ES        752  9.41                             135   -0.8110 97.1 269 
 PTB  HZ I         752 10.95        16.0 0.18            134           97.1 269 
 SPBC HZ EP        751 55.80                             131   -0.7410  113 209 
 SPBC HN ES        752 13.75                             131    0.7710  113 209 
 SPBC HZ I         752 16.63        11.7 0.20            130            113 209 
 ZAR  HZ EP   4    752  3.99                             117    1.24 0  176 306 
 ZAR  HN ES   4    752 26.39                             117    2.35 0  176 306 
 ZAR  HZ I         752 28.05        13.5 0.54            117            176 306 
 OCA  HZ EP        752  3.98                             115   -0.41 9  189   9 
 OCA  HN ES        752 27.18                             115    0.22 9  189   9 
 CHI  HZ EP        752  8.10                             112    0.69 8  213 185 
 CHI  HN ES        752 32.89                             112    0.56 8  213 185 
 CHI  HZ I         752 37.68         2.2 0.40            113            213 185 
 SML  HZ EP        752 11.89                             108    0.23 8  255 348 
 SML  HE ES        752 39.67                             108   -0.23 8  255 348 
 SML  HZ I         752 45.49        10.3 0.10            108            255 348 
 MON  HZ EP   4    752 20.07                             102   -1.30 0  337 317 
 MON  HN ES   4    752 57.41                             102    0.22 0  337 317 
                                                                                
