 2013  6 6 0146  2.1 L   6.914 -73.243146.2  RSN  5 0.2 2.0LRSN                1
 GAP=119        0.44       8.8     5.0  7.8 -0.3582E+02 -0.2482E+02  0.5127E+02E
 Epicentro: BETULIA - SANTANDER                                                3
 ACTION:UPD 14-01-08 09:52 OP:ep   STATUS:               ID:20130606014602 L   I
 OLDACT:REG 13-06-06 09:28 OP:mh   STATUS:               ID:20130606014000     3
 2013-06-06-0140-00M.COL___257                                                 6
 STAT SP IPHASW D HRMM SECON CODA AMPLIT PERI AZIMU VELO AIN AR TRES W  DIS CAZ7
 BAR2 SZ EP   1    146 22.19                             165    0.06 7 36.2 169 
 BRR  HN ES        146 38.50                             158    0.0410 56.0 292 
 BRR  HN I         146 44.44        27.4 0.20            152           56.0 292 
 PAM  SZ EP   1    146 24.57                             151    0.25 7 76.3  52 
 PAM  SN ES   2    146 41.21                             151   -0.42 5 76.3  52 
 PTB  HZ EP   1    146 28.18                             134   -0.28 7  140 253 
 PTB  HN ES        146 49.07                             134    0.06 9  140 253 
 PTB  HN I         146 54.91         9.1 0.46            133            140 253 
 NOR  HN ES   1    147  5.55                             119   -0.05 6  234 230 
                                                                                
