 2017  2 6 0105 23.0 L   6.807 -73.126147.2  RSN  6 0.4 1.4LRSN                1
 GAP=139        1.09       5.9     5.9  8.1 -0.2984E+01  0.1778E+02  0.1153E+02E
 Epicentro: LOS SANTOS - SANTANDER                                             3
 ACTION:UPD 17-05-24 15:33 OP:jn   STATUS:               ID:20170206010523 L   I
 OLDACT:UP  17-02-06 15:24 OP:edw  STATUS:               ID:20170206005746d    3
 OLDACT:DUP 17-02-06 15:21 OP:edw  STATUS:               ID:20170206005746d    3
 OLDACT:DUP 17-02-06 15:10 OP:edw  STATUS:               ID:20170206005745d    3
 2017-02-06-0058-00M.COL___328                                                 6
 STAT SP IPHASW D HRMM SECON CODA AMPLIT PERI AZIMU VELO AIN AR TRES W  DIS CAZ7
 BAR2 EZ ES        1 5 58.06                             170   -0.2610 24.5 195 
 BAR2 EZ I         1 5 59.20         7.7 0.28            168           24.5 195 
 BRR  HZ EP        1 5 45.03                             152    0.6110 72.7 297 
 BRR  HN ES        1 6  1.52                             152    0.4110 72.7 297 
 PAM  EN ES        1 6  2.44                             152   -0.2110 75.5  39 
 RUS  HZ EP        1 5 47.04                             144    0.0710  101 177 
 RUS  HN ES        1 6  5.77                             144    0.1310  101 177 
 RUS  HZ I         1 6  6.48         3.9 0.22            143            101 177 
 PTB  HZ EP        1 5 49.95                             132   -0.36 9  150 259 
 PTB  HN ES        1 6 10.93                             132   -0.67 9  150 259 
 PTB  HZ I         1 6 12.67         2.6 0.46            131            150 259 
 NOR  HZ EP        1 5 58.57                             119   -0.50 8  237 235 
 NOR  HE ES        1 6 27.89                             119    0.70 8  237 235 
 NOR  HZ I         1 6 31.01         1.3 0.18            118            237 235 
                                                                                
