 2013  9 6 0625  3.6 L   7.468 -73.217131.2  RSN  6 0.4 1.5LRSN                1
 GAP=136        0.86       3.7     3.9  6.7 -0.6789E+00  0.7512E+01 -0.1280E+01E
 Epicentro: EL PLAYON - SANTANDER                                              3
 ACTION:UPD 13-10-22 09:20 OP:ep   STATUS:               ID:20130906062503 L   I
 OLDACT:UP  13-09-06 09:57 OP:cam  STATUS:               ID:20130906061960d    3
 OLDACT:DUP 13-09-06 09:53 OP:cam  STATUS:               ID:20130906061960d    3
 OLDACT:UP  13-09-06 09:50 OP:cam  STATUS:               ID:20130906061959     3
 OLDACT:UP  13-09-06 09:49 OP:cam  STATUS:               ID:20130906061959     3
 OLDACT:REG 13-09-06 08:22 OP:cam  STATUS:               ID:20130906061959     3
 2013-09-06-0619-59M.COL___269                                                 6
 STAT SP IPHASW D HRMM SECON CODA AMPLIT PERI AZIMU VELO AIN AR TRES W  DIS CAZ7
 PAM  SZ EP        625 23.32                             155    0.1310 58.8 104 
 PAM  SZ I         625 23.79         3.9 0.16            153           58.8 104 
 PAM  SN ES        625 38.48                             155    0.0110 58.8 104 
 BRR  HZ EP   1    625 22.93                             151   -0.04 7 67.7 234 
 BRR  HN ES        625 38.05                             151   -0.0410 67.7 234 
 BRR  HZ I         625 38.38         4.5 0.50            148           67.7 234 
 PTB  HZ EP        625 31.39                             124   -0.33 9  171 233 
 PTB  HN ES        625 53.01                             124   -0.64 9  171 233 
 PTB  HZ I         625 54.50         3.3 0.24            121            171 233 
 SML  HZ EP        625 32.16                             123    0.08 9  175 327 
 SML  HE ES        625 54.04                             123   -0.26 9  175 327 
 SML  HZ I         625 55.06         7.3 0.10            123            175 327 
 ZAR  HN ES        625 56.22                             122    0.76 9  181 271 
 SPBC HZ EP        625 37.16                             117   -0.01 8  222 205 
 SPBC HE ES   1    626  3.99                             117    0.64 6  222 205 
 SPBC HZ I         626 11.83         3.2 0.22            114            222 205 
                                                                                
