 2013  8 6 0943 59.8 L   6.729 -73.194135.5  RSN  4 0.4 1.2LRSN                1
 GAP=238        0.91       8.7     6.9  9.2  0.3004E+02  0.1609E+02 -0.2772E+02E
 Epicentro: VILLANUEVA - SANTANDER                                             3
 ACTION:UPD 14-01-14 08:59 OP:ep   STATUS:               ID:20130806094359 L   I
 OLDACT:REG 13-08-06 08:18 OP:jn   STATUS:               ID:20130806093959     3
 2013-08-06-0939-59M.COL___268                                                 6
 STAT SP IPHASW D HRMM SECON CODA AMPLIT PERI AZIMU VELO AIN AR TRES W  DIS CAZ7
 BAR2 SZ EP        944 17.82                             173   -0.2010 15.2 175 
 BAR2 SZ ES        944 32.18                             173   -0.0810 15.2 175 
 BAR2 SZ I         944 33.91         4.5 0.20            175           15.2 175 
 RUS  HN ES        944 39.59                             144    0.2710 93.3 172 
 PTB  HZ EP        944 24.69                             131   -0.61 9  141 262 
 PTB  HN ES        944 45.27                             131    0.04 9  141 262 
 PTB  HZ I         944 48.05         2.1 0.36            132            141 262 
 ZAR  HZ EP        944 32.08                             120    0.70 9  202 295 
 ZAR  HN ES        944 56.03                             120   -0.00 9  202 295 
 ZAR  HZ I         945  0.22         1.4 0.32            122            202 295 
                                                                                
