 2011  7 6 0736  5.8 L   6.763 -73.138148.5  RSN  5 0.4 1.6LRSN                1
 GAP=183        0.75       4.7    13.1  8.9  0.2656E+02 -0.1618E+02 -0.2287E+01E
 Epicentro: LOS SANTOS - SANTANDER                                             3
 ACTION:UPD 12-07-25 13:58 OP:epov STATUS:               ID:20110706073605 L   I
 2011-07-06-0734-56S.COL___123                                                 6
 STAT SP IPHASW D HRMM SECON CODA AMPLIT PERI AZIMU VELO AIN AR TRES W  DIS CAZ7
 BAR2 SZ EP   1    736 25.50                             172   -0.18 7 19.5 195 
 BAR2 SZ ES   1    736 40.71                             172   -0.47 7 19.5 195 
 BAR2 SZ I         736 42.35         8.6 0.17                          19.5 195 
 BRR  HZ EP   1    736 27.50                             152    0.11 7 74.0 301 
 BRR  HZ I         736 27.75        10.6 0.16                          74.0 301 
 BRR  HN ES   1    736 44.16                             152   -0.07 7 74.0 301 
 RUS  HZ EP   1    736 29.09                             146   -0.43 7 96.4 176 
 RUS  HN ES   1    736 48.72                             146    0.70 7 96.4 176 
 RUS  HZ I         736 49.49         3.8 0.26                          96.4 176 
 OCA  SZ ES   1    736 57.62                             129    0.36 7  164 353 
 CHI  HN ES   2    737 12.59                             118    0.15 4  245 196 
                                                                                
