 2011  2 6 0547  7.7 L   6.813 -73.162147.2  RSN  6 0.4 1.2LRSN                1
 GAP=157        0.62       6.2    11.2 10.2 -0.3293E+02  0.2844E+02 -0.1126E+02E
 Epicentro: LOS SANTOS - SANTANDER                                             3
 ACTION:UP  11-03-28 15:06 OP:jfem STATUS:               ID:20110206054707 L   I
 2011-02-06-0543-38S.COL___138                                                 6
 STAT SP IPHASW D HRMM SECON CODA AMPLIT PERI AZIMU VELO SNR AR TRES W  DIS CAZ7
 BTL  SZ EP        547 27.44                             173     0.110   17 315 
 BAR2 SZ EP   1    547 27.35                             170    -0.2 7   25 186 
 BAR2 SZ ES   2    547 43.15                             170     0.2 5   25 186 
 BAR2 SZ I         547 47.69         8.4 0.61                            25 186 
 RUS  HZ EP   2    547 31.67                             144     0.0 5  102 175 
 RUS  HZ I         547 31.96         1.4 0.14                           102 175 
 RUS  HE ES   2    547 50.10                             144    -0.3 5  102 175 
 GRA  SZ EP   2    547 33.35                             137     0.3 5  125  18 
 GRA  SZ I         547 55.32         1.7 0.44                           125  18 
 NOR  SE ES   2    548 11.18                             119    -0.2 4  234 234 
 CHI  HZ EP   2    547 44.91                             117    -0.7 4  250 195 
 CHI  HN ES   2    548 16.10                             117     1.0 4  250 195 
 CHI  HZ I         548 22.06         1.2 0.50                           250 195 
                                                                                
