 2016 12 6 0312 18.5 L   6.781 -73.138146.7  RSN 12 0.4 1.8LRSN                1
 GAP=138        0.94       3.5     3.9  5.6  0.5010E+00  0.5442E+01  0.4404E+01E
 Epicentro: LOS SANTOS - SANTANDER                                             3
 ACTION:UPD 17-01-11 20:12 OP:rebc STATUS:               ID:20161206031218 L   I
 OLDACT:UP  16-12-06 17:54 OP:ar   STATUS:               ID:20161206030745     3
 OLDACT:REG 16-12-06 13:25 OP:ar   STATUS:               ID:20161206030745     3
 2016-12-06-0308-00M.COL___343                                                 6
 STAT SP IPHASW D HRMM SECON CODA AMPLIT PERI AZIMU VELO AIN AR TRES W  DIS CAZ7
 BAR2 EZ EP        312 38.13                             171   -0.0710 21.4 193 
 BAR2 EZ ES        312 53.15                             171   -0.4110 21.4 193 
 BAR2 EZ I         312 55.69        16.8 0.28            169           21.4 193 
 BRR  HZ EP        312 39.95                             152    0.1110 73.0 300 
 BRR  HN ES        312 57.13                             152    0.6410 73.0 300 
 BRR  HZ I         313  1.31         7.6 0.22            150           73.0 300 
 PAM  EZ EP        312 40.98                             151    0.1110 78.5  38 
 PAM  EE ES        312 58.27                             151   -0.0610 78.5  38 
 PAM  EZ I         312 59.68         5.4 0.42            154           78.5  38 
 RUS  HZ EP        312 41.87                             145   -0.3110 98.4 176 
 RUS  HN ES        313  1.11                             145    0.4510 98.4 176 
 RUS  HZ I         313  1.55         7.1 0.30            145           98.4 176 
 PTB  HZ EP        312 45.09                             132   -0.49 9  148 260 
 PTB  HN ES        313  5.99                             132   -0.71 9  148 260 
 PTB  HZ I         313  7.22         8.4 0.42            131            148 260 
 ZAR  HZ EP        312 51.23                             122    0.06 8  206 293 
 ZAR  HN ES        313 16.67                             122    0.02 8  206 293 
 ZAR  HZ I         313 23.18         6.6 0.16            122            206 293 
 NOR  HZ EP   4    312 52.00                             119   -2.22 0  234 235 
 NOR  HN ES        313 22.77                             119    0.68 8  234 235 
 NOR  HZ I         313 27.44         6.7 0.36            119            234 235 
 CHI  HZ EP        312 56.24                             117    0.19 8  247 195 
 CHI  HN ES        313 25.08                             117   -0.26 8  247 195 
 CHI  HZ I         313 28.68         2.5 0.40            118            247 195 
 URE  HZ EP   4    312 55.37                             114   -4.42 0  285 292 
 URE  HE ES   4    313 29.81                             114   -2.18 0  285 292 
 URE  HZ I         313 35.36         3.6 0.34            114            285 292 
 PRA  HZ EP   4    313 12.55                             107    0.67 0  391 210 
 PRA  HE ES   4    313 51.46                             107   -2.07 0  391 210 
 PRA  HZ I         314  0.47         2.4 0.26            107            391 210 
 ORTC HZ EP        313 12.66                             107    0.35 6  394 216 
 ORTC HN ES   4    313 55.92                             107    1.64 0  394 216 
 ORTC HZ I         314  1.23         2.1 0.62            107            394 216 
 SJC  HZ EP   9    313 12.35                             106   -2.00 0  411 327 
 SJC  HN ES        313 55.61                             107   -0.30 6  411 327 
                                                                                
