 2016  1 6 0648 51.8 L   6.810 -73.150147.5  RSN 17 0.4 2.2LRSN                1
 GAP= 65        1.05       2.6     3.2  4.9 -0.1229E+01  0.3810E+01  0.8528E+00E
 Epicentro: LOS SANTOS - SANTANDER                                             3
 ACTION:UPD 16-03-09 23:23 OP:cam  STATUS:               ID:20160106064851 L   I
 OLDACT:UP  16-02-01 09:16 OP:mHER STATUS:               ID:20160106064851 L   3
 OLDACT:REG 16-01-06 12:20 OP:drio STATUS:               ID:20160106064751     3
 2016-01-06-0647-51M.COL___262                                                 6
 STAT SP IPHASW D HRMM SECON CODA AMPLIT PERI AZIMU VELO AIN AR TRES W  DIS CAZ7
 BAR2 EZ EP        649 11.54                             170   -0.1410 24.4 189 
 BAR2 EZ ES        649 27.35                             170    0.1710 24.4 189 
 BAR2 EZ I         649 28.15        54.6 0.18            169           24.4 189 
 BRR  HZ EP     C  649 13.28                             153    0.1710 70.3 298 
 BRR  HE ES        649 30.39                             153    0.6710 70.3 298 
 BRR  HZ I         649 34.24        44.9 0.46            153           70.3 298 
 PAM  EZ EP        649 14.54                             151    0.3510 76.8  40 
 PAM  EN ES        649 31.62                             151   -0.0210 76.8  40 
 PAM  EZ I         649 33.71        44.8 0.50            154           76.8  40 
 RUS  HZ EP        649 15.43                             144   -0.4010  102 176 
 RUS  HE ES        649 34.35                             144   -0.2010  102 176 
 RUS  HZ I         649 35.29        10.1 0.36            145            102 176 
 PTB  HZ EP        649 18.34                             132   -0.57 9  148 258 
 PTB  HN ES        649 39.30                             132   -0.75 9  148 258 
 PTB  HZ I         649 44.99        17.3 0.38            133            148 258 
 TAM  HZ EP        649 19.97                             131    0.27 9  156 105 
 TAM  HN ES        649 41.30                             131   -0.15 9  156 105 
 TAM  HZ I         649 51.30         8.4 0.30            134            156 105 
 OCA  HZ EP        649 19.68                             130   -0.48 9  159 353 
 OCA  HN ES        649 42.88                             130    0.62 9  159 353 
 OCA  HZ I         649 46.75        33.0 0.18            133            159 353 
 SPBC HZ EP        649 20.57                             129    0.06 9  164 219 
 SPBC HN ES        649 42.80                             129   -0.09 9  164 219 
 SPBC HZ I         649 50.44        15.8 0.20            130            164 219 
 ZAR  HZ EP        649 24.76                             123    0.46 9  203 292 
 ZAR  HN ES   4    649 48.07                             123   -1.56 0  203 292 
 ZAR  HZ I         649 55.61        21.4 0.28            124            203 292 
 NOR  HZ EP        649 28.26                             119    0.58 8  235 234 
 NOR  HN ES        649 55.50                             119   -0.16 8  235 234 
 NOR  HZ I         650  1.45         7.4 0.20            120            235 234 
 SML  HZ EP        649 27.66                             118   -0.76 8  243 335 
 SML  HN ES        649 56.05                             118   -0.91 8  243 335 
 SML  HZ I         649 59.27        23.8 0.10            120            243 335 
 CHI  HZ EP        649 29.86                             117    0.14 8  250 195 
 CHI  HN ES        649 59.01                             117   -0.28 8  250 195 
 CHI  HZ I         650  2.61         8.1 0.42            119            250 195 
 HEL  HZ EP        649 32.66                             115    0.55 8  272 256 
 HEL  HN ES   4    650  4.67                             115    1.14 0  272 256 
 HEL  HZ I         650 11.84         5.8 0.28            116            272 256 
 GUY2CHZ EP   4    649 37.15                             113    1.61 0  301 235 
 GUY2CHE ES        650 10.11                             113    0.46 7  301 235 
 GUY2CHZ I         650 19.84         3.8 0.38                           301 235 
 PTGC HZ EP   9    649 34.68                             112   -1.21 0  310 159 
 PTGC HE ES        650  8.42                             112   -0.64 7  310 159 
 PTGC HZ I         650 13.15         8.9 0.48            113            310 159 
 PRA  HZ EP        649 45.82                             107    0.33 6  393 209 
 PRA  HE ES   4    650 26.75                             107   -0.60 0  393 209 
 PRA  HZ I         650 32.50         8.6 0.50            108            393 209 
 ORTC HZ EP        649 46.14                             107    0.26 6  396 216 
 ORTC HE ES        650 28.47                             107    0.43 6  396 216 
 ORTC HZ I         650 32.92         3.9 0.28            108            396 216 
                                                                                
