 2013  6 6 0122 46.1 L   6.806 -73.116136.8  RSN  4 0.1 1.8LRSN                1
 GAP=203        0.32       1.9     3.8  6.6  0.1649E+01  0.4701E+01 -0.2076E+01E
 Epicentro: LOS SANTOS - SANTANDER                                             3
 ACTION:UPD 14-01-08 09:52 OP:ep   STATUS:               ID:20130606012246 L   I
 OLDACT:UP  13-06-06 10:51 OP:mh   STATUS:               ID:20130606012000     3
 OLDACT:REG 13-06-06 09:28 OP:mh   STATUS:               ID:20130606012000     3
 2013-06-06-0120-00M.COL___257                                                 6
 STAT SP IPHASW D HRMM SECON CODA AMPLIT PERI AZIMU VELO AIN AR TRES W  DIS CAZ7
 RUS  HZ EP   1    123  9.19                             142    0.15 9  101 178 
 RUS  HN ES   2    123 26.72                             142   -0.19 6  101 178 
 RUS  HN I         123 29.23         4.7 0.32            149            101 178 
 PTB  HZ EP   1    123 12.65                             129   -0.04 9  151 259 
 PTB  HN ES   2    123 33.54                             129    0.13 6  151 259 
 PTB  HN I         123 39.73         5.5 0.22            131            151 259 
 NOR  HZ EP   1    123 21.58                             116   -0.10 8  238 235 
 NOR  HE ES   2    123 49.45                             116    0.04 5  238 235 
 NOR  HE I         123 56.36         4.8 0.22            120            238 235 
 SML  HN ES        123 50.58                             115   -0.0310  245 335 
 SML  HN I         123 58.81        11.0 0.30            120            245 335 
                                                                                
