 2014  1 6 0941 46.1 L   6.771 -73.158147.5  RSN  7 0.3 1.7LRSN                1
 GAP= 94        0.77       2.6     3.1  4.9 -0.8855E+00  0.1657E+01  0.6409E+00E
 Epicentro: LOS SANTOS - SANTANDER                                             3
 ACTION:UPD 14-03-13 09:52 OP:ep   STATUS:               ID:20140106094000 L   I
 OLDACT:UPD 14-01-06 11:16 OP:CAM  STATUS:               ID:20140106094000 L   3
 2014-01-06-0940-00M.COL___285                                                 6
 STAT SP IPHASW D HRMM SECON CODA AMPLIT PERI AZIMU VELO AIN AR TRES W  DIS CAZ7
 BAR2 SZ EP        942  5.90                             172    0.0510 20.0 188 
 BAR2 SZ ES        942 21.79                             172    0.5210 20.0 188 
 BAR2 SZ I         942 24.95        16.5 0.42            169           20.0 188 
 PAM  SZ EP        942  8.83                             150    0.1610 80.7  39 
 PAM  SZ I         942  8.91         9.7 0.18            155           80.7  39 
 PAM  SE ES        942 26.19                             150   -0.1110 80.7  39 
 RUS  HZ EP        942  9.75                             145   -0.0310 97.5 175 
 RUS  HN ES        942 28.16                             145   -0.1110 97.5 175 
 RUS  HZ I         942 31.32         3.6 0.30            146           97.5 175 
 PTB  HZ EP        942 12.87                             133   -0.14 9  146 260 
 PTB  HN ES        942 33.90                             133   -0.11 9  146 260 
 PTB  HZ I         942 41.32         8.7 0.44            132            146 260 
 TAM  HZ EP        942 13.65                             131   -0.29 9  156 104 
 TAM  HZ I         942 14.34         5.0 0.22            135            156 104 
 TAM  HN ES        942 35.61                             131   -0.06 9  156 104 
 OCA  HZ EP        942 15.23                             129    0.43 9  163 354 
 OCA  HN ES        942 36.75                             129   -0.45 9  163 354 
 OCA  HZ I         942 40.88         5.9 0.28            132            163 354 
 CHI  HZ EP        942 24.07                             118    0.57 8  245 195 
 CHI  HN ES        942 52.21                             118   -0.48 8  245 195 
 CHI  HZ I         943  1.63         2.3 0.62            119            245 195 
                                                                                
