 2017  1 6 0544 26.0 L   6.669 -73.980 19.1  RSN  5 0.3 1.1LRSN                1
 GAP=124        0.80       2.4     1.6  3.0  0.2782E+00  0.2821E+00  0.1142E+01E
 Epicentro: PUERTO PARRA - SANTANDER                                           3
 ACTION:UPD 17-05-22 15:56 OP:jn   STATUS:               ID:20170106054426 L   I
 OLDACT:REG 17-01-06 12:39 OP:and  STATUS:               ID:20170106053741     3
 2017-01-06-0538-00M.COL___375                                                 6
 STAT SP IPHASW D HRMM SECON CODA AMPLIT PERI AZIMU VELO AIN AR TRES W  DIS CAZ7
 PTB  HZ IP     D  544 35.35                             107    0.1010 54.6 255 
 PTB  HN ES        544 42.32                             107   -0.1210 54.6 255 
 PTB  HZ I         544 42.62         8.3 0.20            106           54.6 255 
 BRR  HZ EP        544 35.52                             106   -0.0410 56.8  31 
 BRR  HE ES        544 43.21                             106    0.2310 56.8  31 
 BRR  HZ I         544 43.59         9.4 0.12            105           56.8  31 
 BAR2 EZ EP        544 40.73                             100    0.2210 88.6  95 
 BAR2 EZ ES        544 51.26                             100   -0.5410 88.6  95 
 BAR2 EZ I         544 51.49         6.5 0.20            100           88.6  95 
 RUS  HZ EP        544 47.63                              56    0.6410  131 131 
 RUS  HN ES        545  3.16                              56   -0.1810  131 131 
 RUS  HZ I         545  3.92         1.7 0.32             56            131 131 
 ZAR  HZ EP        544 46.55                              56   -0.0810  133 313 
 ZAR  HN ES        545  2.50                              56   -0.2010  133 313 
 ZAR  HZ I         545  3.10         6.2 0.18             56            133 313 
                                                                                
