 2012  4 6 0438 18.2 L   6.679 -73.223156.6  RSN  4 0.4 1.3LRSN                1
 GAP=219        0.90       9.5     9.5 11.6  0.5628E+02 -0.8478E+01 -0.1625E+02E
 Epicentro: BARICHARA - SANTANDER                                              3
 ACTION:UP  12-07-05 11:50 OP:tino STATUS:               ID:20120406043818 L   I
 2012-04-06-0430-00M.COL___196                                                 6
 STAT SP IPHASW D HRMM SECON CODA AMPLIT PERI AZIMU VELO AIN AR TRES W  DIS CAZ7
 BRR  HZ EP        438 40.45                             154    -0.110   72 311 
 BRR  HZ I         438 40.67         5.0 0.38                            72 311 
 BRR  HN ES   1    438 57.91                             154    -0.1 7   72 311 
 RUS  HZ EP   1    438 41.91                             149    -0.3 7   88 170 
 RUS  HN ES   1    439  1.41                             149     0.4 7   88 170 
 RUS  HZ I         439  3.72         1.3 0.23                            88 170 
 PTB  HZ EP   1    438 45.53                             137     0.3 7  137 264 
 PTB  HN ES   1    439  5.66                             137    -0.6 7  137 264 
 ZAR  HN ES   1    439 17.46                             125     0.6 6  202 297 
 ZAR  HZ I         439 23.44         2.2 0.29                           202 297 
                                                                                
