 2011  4 6 0104 38.5 L   6.782 -73.048148.2  RSN  8 0.3 2.3LRSN                1
 GAP=185        0.59       3.9     6.9  5.2 -0.1589E+02 -0.4552E+01  0.5369E+01E
 Epicentro: LOS SANTOS - SANTANDER                                             3
 ACTION:UP  11-06-22 15:29 OP:REBC STATUS:               ID:20110406010438 L   I
 2011-04-06-0100-53S.COL___125                                                 6
 STAT SP IPHASW D HRMM SECON CODA AMPLIT PERI AZIMU VELO SNR AR TRES W  DIS CAZ7
 BAR2 SZ EP   1    1 4 58.19                             170    -0.2 7   26 215 
 BAR2 SZ ES   1    1 5 13.86                             170    -0.1 7   26 215 
 BAR2 SZ I         1 5 15.16        30.6 0.21                            26 215 
 BTL  SZ EP        1 4 58.62                             169     0.110   29 302 
 GIR2 SZ EP   1    1 4 58.36                             165    -0.2 7   37 334 
 BRR  HZ EP   1    1 5  0.07                             150    -0.4 7   82 296 
 BRR  HZ I         1 5  0.49        82.7 0.17                            82 296 
 BRR  HN ES   1    1 5 17.71                             150     0.0 7   82 296 
 GRA  SZ EP        1 5  4.07                             138     0.210  125  12 
 GRA  SZ ES        1 5 23.81                             138     0.210  125  12 
 GRA  SZ I         1 5 26.68        21.7 0.29                           125  12 
 OCA  SZ EP   1    1 5  6.95                             129    -0.3 7  164 349 
 OCA  SZ I         1 5 34.77        24.5 0.32                           164 349 
 CHI  HZ EP   1    1 5 16.34                             117    -0.1 6  250 198 
 CHI  HZ I         1 5 19.00         5.8 0.39                           250 198 
 CHI  HE ES   2    1 5 46.30                             117     0.3 4  250 198 
 RREF HZ EP   1    1 5 25.95                             111     0.5 5  329 231 
 RREF HE ES   2    1 6  2.61                             111     0.4 3  329 231 
 RREF HZ I         1 6 10.54         7.6 0.32                           329 231 
                                                                                
