 2013  4 6 0746 17.7 L   6.840 -73.165150.6  RSN  4 0.2 1.3LRSN                1
 GAP=239        0.50       5.5     4.3  4.7  0.1221E+02  0.4924E+01  0.6472E+01E
 Epicentro: LOS SANTOS - SANTANDER                                             3
 ACTION:UPD 13-05-22 14:36 OP:EP   STATUS:               ID:20130406074617 L   I
 2013-04-06-0740-00M.COL___245                                                 6
 STAT SP IPHASW D HRMM SECON CODA AMPLIT PERI AZIMU VELO AIN AR TRES W  DIS CAZ7
 BAR2 SZ EP   1    746 38.26                             169    0.28 7 27.5 184 
 BAR2 SZ ES        746 53.97                             169    0.1610 27.5 184 
 BAR2 SZ I         746 54.96         5.2 0.26            160           27.5 184 
 BRR  HN ES        746 55.65                             155   -0.2310 67.3 296 
 RUS  HZ EP   1    746 42.13                             143   -0.10 7  105 175 
 RUS  HN ES   1    747  1.14                             143   -0.24 7  105 175 
 RUS  HZ I         747  2.06         1.6 0.42            140            105 175 
 PTB  HZ EP        746 44.89                             133   -0.06 9  147 257 
 PTB  HN ES        747  6.38                             133    0.17 9  147 257 
 PTB  HZ I         747 13.64         2.9 0.46            129            147 257 
                                                                                
