 2016  8 6 0323 12.8 L   6.792 -73.122150.4  RSN 10 0.4 1.5LRSN                1
 GAP=140        0.92       3.6     3.6  5.6 -0.3624E+00  0.6911E+01 -0.1078E+01E
 Epicentro: LOS SANTOS - SANTANDER                                             3
 ACTION:UPD 16-10-29 15:32 OP:rebc STATUS:               ID:20160806032312 L   I
 OLDACT:REG 16-08-06 12:36 OP:edw  STATUS:               ID:20160806031737     3
 2016-08-06-0318-00M.COL___371                                                 6
 STAT SP IPHASW D HRMM SECON CODA AMPLIT PERI AZIMU VELO AIN AR TRES W  DIS CAZ7
 BAR2 EZ EP        323 32.91                             171   -0.0510 23.1 197 
 BAR2 EZ ES        323 48.64                             171   -0.0610 23.1 197 
 BAR2 EZ I         323 48.83         8.6 0.24                          23.1 197 
 BRR  HZ EP        323 34.90                             152    0.3210 73.9 298 
 BRR  HN ES        323 52.06                             152    0.4710 73.9 298 
 PAM  EZ EP     C  323 35.87                             152    0.4310 76.5  38 
 PAM  EE ES        323 52.77                             152   -0.3410 76.5  38 
 PAM  EZ I         323 55.21         4.7 0.66                          76.5  38 
 RUS  HZ EP        323 37.00                             145    0.0810 99.5 178 
 RUS  HN ES        323 55.69                             145   -0.0510 99.5 178 
 RUS  HZ I         323 56.29         2.5 0.22                          99.5 178 
 PTB  HZ EP        323 39.77                             133   -0.58 9  150 259 
 PTB  HE ES        324  1.38                             133   -0.46 9  150 259 
 PTB  HZ I         324  2.15         3.4 0.24                           150 259 
 SPBC HZ EP        323 41.43                             130   -0.30 9  164 220 
 SPBC HN ES        324  4.11                             130   -0.20 9  164 220 
 SPBC HZ I         324  7.44         4.0 0.10                           164 220 
 ZAR  HZ EP        323 46.14                             123    0.32 8  207 292 
 ZAR  HN ES        324 11.62                             123    0.04 8  207 292 
 ZAR  HZ I         324 17.58         3.0 0.20                           207 292 
 NOR  HZ EP   4    323 49.70                             119    0.74 0  236 235 
 NOR  HN ES        324 18.06                             119    0.89 8  236 235 
 NOR  HZ I         324 19.90         2.7 0.16                           236 235 
 URE  HZ EP        323 54.10                             114   -0.29 7  287 292 
 URE  HN ES        324 26.49                             114   -0.35 7  287 292 
 URE  HZ I         324 27.11         2.6 0.14                           287 292 
 GUY2CHZ EP   4    323 59.42                             113    2.63 0  303 235 
 GUY2CHN ES   4    324 33.84                             113    2.73 0  303 235 
 GUY2CHZ I         324 40.81         1.2 0.66                           303 235 
                                                                                
