 2014 11 6 0540 18.6 L   6.801 -73.136146.1  RSN  6 0.4 1.2LRSN                1
 GAP=138        1.02       4.8     5.2  7.0 -0.6144E+01  0.5766E+01  0.3696E+01E
 Epicentro: LOS SANTOS - SANTANDER                                             3
 ACTION:UPD 14-12-19 15:39 OP:nd   STATUS:               ID:20141106054018 L   I
 OLDACT:REG 14-11-06 14:19 OP:carl STATUS:               ID:20141106053737     3
 2014-11-06-0537-37M.COL___283                                                 6
 STAT SP IPHASW D HRMM SECON CODA AMPLIT PERI AZIMU VELO AIN AR TRES W  DIS CAZ7
 BAR2 SZ ES        540 53.16                             170   -0.4410 23.6 193 
 BAR2 SZ I         540 54.82         3.9 0.22            170           23.6 193 
 BRR  HZ EP        540 40.07                             152    0.2510 72.1 298 
 BRR  HN ES        540 57.07                             152    0.6910 72.1 298 
 BRR  HZ I         541  1.53         2.1 0.18            152           72.1 298 
 PAM  SZ EP        540 40.94                             151    0.1610 76.6  39 
 PAM  SN ES        540 57.82                             151   -0.2810 76.6  39 
 RUS  HZ EP        540 42.48                             144    0.1210  101 177 
 RUS  HN ES        541  0.99                             144    0.0810  101 177 
 RUS  HZ I         541  2.81         1.3 0.42            146            101 177 
 PTB  HZ EP        540 44.97                             132   -0.70 9  149 259 
 PTB  HN ES        541  6.37                             132   -0.44 9  149 259 
 PTB  HZ I         541  8.37         2.9 0.14            133            149 259 
 SPBC HZ EP        540 47.37                             129    0.19 9  164 219 
 SPBC HN ES        541  9.78                             129    0.30 9  164 219 
 SPBC HZ I         541 12.28         2.7 0.26            131            164 219 
                                                                                
