 2011  4 6 0215 56.9 L   6.778 -73.085148.9  RSN 13 0.2 2.3LRSN                1
 GAP=183        0.44       2.3     4.1  3.4 -0.4656E+01  0.8324E+00  0.1780E+01E
 Epicentro: LOS SANTOS - SANTANDER                                             3
 ACTION:UP  11-06-22 15:29 OP:REBC STATUS:               ID:20110406021556 L   I
 2011-04-06-0214-50S.COL___125                                                 6
 STAT SP IPHASW D HRMM SECON CODA AMPLIT PERI AZIMU VELO SNR AR TRES W  DIS CAZ7
 BAR2 SZ EP        216 16.84                             171     0.010   23 208 
 BAR2 SZ ES   1    216 32.30                             171    -0.2 7   23 208 
 BAR2 SZ I         216 34.83        54.0 0.42                            23 208 
 BTL  SZ EP        216 17.12                             170     0.210   26 308 
 GIR2 SZ EP   1    216 16.95                             166    -0.1 7   35 340 
 BRR  HZ EP        216 18.67                             150    -0.110   78 298 
 BRR  HZ I         216 20.87        26.5 0.18                            78 298 
 BRR  HN ES   1    216 35.91                             150     0.1 7   78 298 
 GRA  SZ IP        216 22.62                             137     0.210  126  14 
 GRA  SZ ES   1    216 42.26                             137    -0.1 7  126  14 
 GRA  SZ I         216 44.85        22.8 0.34                           126  14 
 OCA  SZ EP        216 25.50                             130    -0.2 9  164 351 
 OCA  SZ ES   2    216 48.67                             130     0.4 5  164 351 
 OCA  SZ I         216 51.88        29.8 0.44                           164 351 
 NOR  SZ EP   1    216 33.36                             118     0.1 6  239 236 
 CHI  HZ EP        216 34.72                             118     0.0 8  248 197 
 CHI  HE ES   2    217  4.44                             118     0.2 4  248 197 
 CHI  HZ I         217 10.05         7.9 0.16                           248 197 
 HEL  HZ EP   2    216 38.55                             115     0.6 4  278 257 
 HEL  HZ I         217 17.48        12.1 0.40                           278 257 
 GUY  SN ES   3    217 15.60                                    -0.5 2  308 236 
 GUY  SZ I         217 24.94        16.7 0.41                           308 236 
 RREF HZ EP   1    216 43.36                             111    -0.2 5  325 230 
 RREF HN ES   2    217 20.10                             111     0.1 3  325 230 
 RREF HZ I         217 26.87        13.2 0.34                           325 230 
 DBB  SZ EP   2    216 44.82                                    -0.4 3  346 275 
 PRA  HZ EP   2    216 50.39                             107    -0.3 3  393 211 
 PRA  HN ES   2    217 32.51                             107    -0.1 3  393 211 
                                                                                
