 2015  2 6 0858 35.7 L   6.828 -73.192140.2  RSN  5 0.3 1.3LRSN                1
 GAP=129        0.83       3.1     4.4  7.6 -0.3597E+01  0.1209E+02 -0.5988E+01E
 Epicentro: ZAPATOCA - SANTANDER                                               3
 ACTION:UPD 15-04-30 21:22 OP:nd   STATUS:               ID:20150206085835 L   I
 OLDACT:REG 15-02-06 13:26 OP:cam  STATUS:               ID:20150206084746     3
 2015-02-06-0847-46M.COL___287                                                 6
 STAT SP IPHASW D HRMM SECON CODA AMPLIT PERI AZIMU VELO AIN AR TRES W  DIS CAZ7
 PAM  SZ EP        858 57.57                             149    0.2210 78.5  44 
 PAM  SN ES        859 14.56                             149    0.2910 78.5  44 
 PAM  SZ I         859 16.60         2.3 0.60            154           78.5  44 
 RUS  HZ EP        858 59.04                             142   -0.0910  104 173 
 RUS  HN ES        859 16.82                             142   -0.6210  104 173 
 RUS  HZ I         859 18.93         1.6 0.30            145            104 173 
 PTB  HZ EP        859  1.84                             132    0.07 9  143 257 
 PTB  HN ES        859 22.01                             132   -0.13 9  143 257 
 PTB  HZ I         859 24.75         2.2 0.14            133            143 257 
 SPBC HZ EP        859  3.70                             128    0.04 9  162 217 
 SPBC HN ES        859 26.11                             128    0.60 9  162 217 
 SPBC HZ I         859 33.57         2.8 0.18            130            162 217 
 SML  HZ EP        859 11.33                             117   -0.10 8  239 336 
 SML  HN ES        859 38.97                             117   -0.37 8  239 336 
 SML  HZ I         859 43.76         3.4 0.10            119            239 336 
                                                                                
