 2017  2 6 0232 14.1 L   6.717 -73.616105.3  RSN  6 0.3 1.4LRSN                1
 GAP=120        0.71       3.4     2.9  6.4  0.1785E+01  0.4968E+01  0.1125E+02E
 Epicentro: EL CARMEN - SANTANDER                                              3
 ACTION:UPD 17-05-24 15:33 OP:jn   STATUS:               ID:20170206023214 L   I
 OLDACT:UP  17-02-06 16:18 OP:edw  STATUS:               ID:20170206022746     3
 OLDACT:REG 17-02-06 11:42 OP:edw  STATUS:               ID:20170206022746     3
 2017-02-06-0228-00M.COL___325                                                 6
 STAT SP IPHASW D HRMM SECON CODA AMPLIT PERI AZIMU VELO AIN AR TRES W  DIS CAZ7
 BRR  HZ EP        232 29.74                             155    0.3710 44.4 346 
 BRR  HE ES        232 41.50                             155    0.2110 44.4 346 
 BRR  HZ I         232 42.89         5.3 0.40            159           44.4 346 
 BAR2 EZ IP     D  232 29.93                             153   -0.0810 49.9 106 
 BAR2 EZ ES        232 42.40                             153   -0.0310 49.9 106 
 BAR2 EZ I         232 43.06        12.9 0.24            153           49.9 106 
 PTB  HZ IP     D  232 32.89                             134   -0.1010 95.0 258 
 PTB  HN ES        232 47.34                             134   -0.3910 95.0 258 
 PTB  HZ I         232 48.74         4.2 0.16            134           95.0 258 
 RUS  HZ EP        232 34.44                             131   -0.4110  109 147 
 RUS  HE ES        232 51.04                             131   -0.0110  109 147 
 RUS  HZ I         232 51.53         9.0 0.24            130            109 147 
 PAM  EN ES   4    232 47.96                             127   -5.43 0  122  56 
 ZAR  HZ EP   4    232 38.06                             118   -1.53 0  162 302 
 ZAR  HE ES   4    233  2.16                             118    2.67 0  162 302 
 NOR  HN ES        233  5.01                             114    0.21 9  188 227 
 CHI  HZ EP   4    232 49.67                             109    1.78 0  231 183 
 CHI  HN ES        233 14.66                             109    0.41 8  231 183 
 CHI  HZ I         233 21.34         1.3 0.24            109            231 183 
                                                                                
