 2016  4 6 0651 18.8 L   6.834 -73.158144.0  RSN  6 0.2 1.3LRSN                1
 GAP=278        0.44       4.4     3.0  3.9 -0.1118E+01  0.2148E+01  0.2866E-01E
 Epicentro: LOS SANTOS - SANTANDER                                             3
 ACTION:UPD 16-05-05 14:19 OP:rebc STATUS:               ID:20160406065118 L   I
 OLDACT:UP  16-04-06 15:19 OP:dnl  STATUS:               ID:20160406064748d    3
 OLDACT:UP  16-04-06 13:57 OP:dnl  STATUS:               ID:20160406064748d    3
 OLDACT:UP  16-04-06 13:57 OP:dnl  STATUS:               ID:20160406064748d    3
 OLDACT:DUP 16-04-06 13:25 OP:dnl  STATUS:               ID:20160406064748d    3
 OLDACT:REG 16-04-06 12:26 OP:mh   STATUS:               ID:20160406064747     3
 2016-04-06-0647-47M.COL___273                                                 6
 STAT SP IPHASW D HRMM SECON CODA AMPLIT PERI AZIMU VELO AIN AR TRES W  DIS CAZ7
 BAR2 EZ EP        651 38.44                             169    0.1810 26.9 186 
 BAR2 EZ ES        651 53.55                             169    0.0910 26.9 186 
 BAR2 EZ I         651 54.67         6.6 0.22            162           26.9 186 
 RUS  HZ EP        651 42.36                             142   -0.2610  104 175 
 RUS  HN ES   2    652  0.96                             142   -0.28 5  104 175 
 RUS  HZ I         652  2.34         1.1 0.22            133            104 175 
 PTB  HZ EP        651 45.43                             132   -0.10 9  147 257 
 PTB  HN ES        652  6.33                             132   -0.09 9  147 257 
 PTB  HZ I         652 13.63         2.2 0.18            122            147 257 
 SPBC HZ EP   2    651 47.42                             128    0.09 5  165 218 
 SPBC HN ES        652  9.82                             128    0.21 9  165 218 
 SPBC HZ I         652 11.66         2.5 0.12            119            165 218 
 ROSC BZ EP   2    651 57.30                             116    0.23 4  255 210 
 ROSC BZ I         652 17.64         2.7 0.25            108            255 210 
 GUY2CHZ EP   2    652  2.79                             112    0.38 4  302 234 
 GUY2CHE ES   2    652 36.04                             112   -0.42 4  302 234 
 GUY2CHZ I         652 42.02         0.7 0.26                           302 234 
                                                                                
