 2012  2 6 0802 41.2 L   6.713 -73.156145.9  RSN  5 0.4 1.6LRSN                1
 GAP=181        0.89       6.9     7.5  8.1  0.1197E+02  0.7772E+01  0.2805E+01E
 ACTION:UP  12-03-07 16:28 OP:epov STATUS:               ID:20120206080241 L   I
 2012-02-06-0800-00M.COL___187                                                 6
 STAT SP IPHASW D HRMM SECON CODA AMPLIT PERI AZIMU VELO SNR AR TRES W  DIS CAZ7
 BAR2 SZ EP   1    8 3  0.60                             174   -0.09 7 13.7 192 
 BAR2 SZ ES   1    8 3 15.41                             174   -0.48 7 13.7 192 
 BAR2 SZ I         8 3 16.93         7.3 0.28                          13.7 192 
 GIR2 SZ EP        8 3  1.08                             164   -0.0910 40.7 354 
 GIR2 SZ ES   1    8 3 16.25                             164   -0.51 7 40.7 354 
 GIR2 SZ E         8 3 16.25                                           40.7 354 
 BRR  HZ EP        8 3  2.87                             151    0.2710 75.3 305 
 BRR  HZ I         8 3  3.21        11.1 0.09                          75.3 305 
 BRR  HN ES   1    8 3 20.21                             151    0.92 7 75.3 305 
 RUS  HZ EP   1    8 3  4.44                             147    0.14 7 91.1 175 
 RUS  HN ES   1    8 3 22.72                             147    0.40 7 91.1 175 
 PTB  HZ EP   1    8 3  7.55                             132   -0.38 7  145 262 
 PTB  HN ES   1    8 3 28.38                             132   -0.41 7  145 262 
                                                                                
