 2015  2 6 0635 44.5 L   6.796 -73.184144.7  RSN  7 0.5 1.7LRSN                1
 GAP=132        1.24       4.4     5.9  7.7 -0.3270E+01  0.9421E+01 -0.4520E+01E
 Epicentro: ZAPATOCA - SANTANDER                                               3
 ACTION:UPD 15-04-30 21:22 OP:nd   STATUS:               ID:20150206063544 L   I
 OLDACT:DUP 15-02-06 15:06 OP:cam  STATUS:               ID:20150206062746d    3
 OLDACT:UP  15-02-06 15:05 OP:cam  STATUS:               ID:20150206062745     3
 OLDACT:REG 15-02-06 13:10 OP:cam  STATUS:               ID:20150206062745     3
 2015-02-06-0627-45M.COL___287                                                 6
 STAT SP IPHASW D HRMM SECON CODA AMPLIT PERI AZIMU VELO AIN AR TRES W  DIS CAZ7
 BAR2 EZ EP        636  4.16                             171    0.1610 22.5 180 
 BAR2 EZ ES        636 18.62                             171   -0.5710 22.5 180 
 BAR2 EZ I         636 20.27        10.0 0.36            171           22.5 180 
 BRR  HZ EP     C  636  6.00                             153    0.6410 67.7 301 
 BRR  HN ES        636 22.73                             153    1.1210 67.7 301 
 BRR  HZ I         636 24.44        10.0 0.14            151           67.7 301 
 PAM  SZ EP        636  6.91                             150    0.1010 80.5  42 
 PAM  SE ES        636 23.90                             150   -0.2910 80.5  42 
 PAM  SZ I         636 26.21        10.8 0.54            152           80.5  42 
 RUS  HZ EP        636  8.04                             144   -0.1210  101 174 
 RUS  HN ES        636 26.71                             144    0.1210  101 174 
 RUS  HZ I         636 28.19         2.5 0.44            146            101 174 
 PTB  HZ EP        636 10.76                             133   -0.25 9  144 259 
 PTB  HN ES        636 31.12                             133   -0.56 9  144 259 
 PTB  HZ I         636 34.79         7.7 0.22            132            144 259 
 SPBC HZ EP        636 12.76                             129    0.11 9  160 218 
 SPBC HN ES        636 34.46                             129   -0.13 9  160 218 
 SPBC HZ I         636 41.61         5.5 0.38            130            160 218 
 SML  HZ EP        636 21.06                             117    0.12 8  242 336 
 SML  HE ES        636 48.54                             117   -0.81 8  242 336 
 SML  HZ I         636 57.62         6.7 0.10            118            242 336 
                                                                                
