 2011  2 6 0404 26.2 L   6.769 -73.208136.0  RSN  7 0.4 1.6LRSN                1
 GAP=176        0.85       4.9    11.4 11.1 -0.9559E+01  0.5704E+02 -0.1127E+02E
 Epicentro: ZAPATOCA - SANTANDER                                               3
 ACTION:UP  11-03-28 15:06 OP:jfem STATUS:               ID:20110206040426 L   I
 2011-02-06-0401-41S.COL___137                                                 6
 STAT SP IPHASW D HRMM SECON CODA AMPLIT PERI AZIMU VELO SNR AR TRES W  DIS CAZ7
 BTL  SZ EP        4 4 44.71                             172     0.110   18 338 
 BAR2 SZ EP   1    4 4 44.31                             172    -0.3 7   20 172 
 BAR2 SZ I         4 4 44.82        11.0 0.14                            20 172 
 BAR2 SZ ES   2    4 4 58.54                             172    -0.4 5   20 172 
 RUS  HZ EP        4 4 48.47                             143    -0.410   98 172 
 RUS  HE ES   1    4 5  7.28                             143     0.8 7   98 172 
 RUS  HZ I         4 5  7.94         4.7 0.34                            98 172 
 OCA  SZ EP   1    4 4 54.17                             127     0.1 7  163 356 
 OCA  SZ ES   2    4 5 15.85                             127     0.1 5  163 356 
 OCA  SZ I         4 5 20.20         4.9 0.26                           163 356 
 NOR  SZ EP   2    4 5  1.02                             118     0.4 4  227 234 
 NOR  SN ES   2    4 5 27.02                             118    -0.4 4  227 234 
 CHI  HZ EP   2    4 5  2.46                             116    -0.4 4  244 194 
 CHI  HE ES   2    4 5 30.99                             116    -0.4 4  244 194 
 CHI  HZ I         4 5 35.00         1.9 0.54                           244 194 
 HEL  HZ EP   2    4 5  5.84                             114     0.7 4  265 256 
 HEL  HZ I         4 5 43.47         2.8 0.27                           265 256 
                                                                                
