 2013  4 6 0527 59.0 L   7.359 -73.317118.2  RSN  6 0.4 1.5LRSN                1
 GAP=241        0.99       9.9     6.0  6.9  0.2485E+02  0.5381E+01  0.3654E+00E
 Epicentro: EL PLAYON - SANTANDER                                              3
 ACTION:UPD 13-05-22 14:36 OP:EP   STATUS:               ID:20130406052759 L   I
 2013-04-06-0520-00M.COL___245                                                 6
 STAT SP IPHASW D HRMM SECON CODA AMPLIT PERI AZIMU VELO AIN AR TRES W  DIS CAZ7
 GIR2 SZ EP        528 15.26                             163   -0.2910 33.8 156 
 GIR2 SZ ES        528 27.94                             163   -0.4810 33.8 156 
 GIR2 SZ I         528 30.15         6.4 0.32            160           33.8 156 
 BRR  HZ EP        528 16.17                             155    0.0410 51.7 237 
 BRR  HN ES        528 29.81                             155    0.3610 51.7 237 
 BRR  HZ I         528 31.33         6.7 0.14            151           51.7 237 
 BAR2 SZ EP        528 19.01                             142    0.3210 86.0 170 
 BAR2 SZ ES        528 34.52                             142    0.5010 86.0 170 
 BAR2 SZ I         528 35.75        19.4 0.36            140           86.0 170 
 PTB  HZ EP        528 24.70                             123    0.04 9  155 234 
 PTB  HN ES   1    528 43.70                             123   -0.94 7  155 234 
 PTB  HZ I         528 48.24         2.7 0.26            123            155 234 
 RUS  HZ EP        528 25.95                             122   -0.27 9  164 171 
 ZAR  HN ES   1    528 47.91                             121    0.40 7  171 275 
                                                                                
