 2016  6 6 0442 30.6 L   6.815 -73.105148.7  RSN  7 0.4 1.5LRSN                1
 GAP=141        1.04       4.5     6.8  6.7 -0.1145E+02 -0.6778E+01  0.4640E+01E
 Epicentro: LOS SANTOS - SANTANDER                                             3
 ACTION:UPD 16-07-21 22:15 OP:rebc STATUS:               ID:20160606044230 L   I
 OLDACT:UP  16-06-08 16:53 OP:nlst STATUS:               ID:20160606044230 L   3
 OLDACT:UP  16-06-06 16:04 OP:dani STATUS:               ID:20160606043739     3
 OLDACT:UP  16-06-06 16:03 OP:dani STATUS:               ID:20160606043739     3
 OLDACT:REG 16-06-06 12:16 OP:dani STATUS:               ID:20160606043739     3
 2016-06-06-0437-39M.COL___322                                                 6
 STAT SP IPHASW D HRMM SECON CODA AMPLIT PERI AZIMU VELO AIN AR TRES W  DIS CAZ7
 BAR2 EZ I      C  438 21.73                                           26.0 199 
 BAR2 EZ EP        442 49.86                             170   -0.7410 26.0 199 
 BAR2 EZ ES        443  6.17                             170   -0.0610 26.0 199 
 BAR2 EZ I         443  6.88         8.4 0.28                          26.0 199 
 PAM  EZ EP     D  442 53.36                             152    0.5010 73.3  38 
 PAM  EN ES        443 10.30                             152    0.0510 73.3  38 
 PAM  EZ I         443 11.69         3.9 0.18                          73.3  38 
 BRR  HZ EP        442 52.90                             152    0.6910 74.4 296 
 BRR  HN ES        443  9.34                             152    0.2410 74.4 296 
 BRR  HZ I         443  9.78         6.4 0.30                          74.4 296 
 RUS  HZ EP        442 54.83                             144    0.1310  102 179 
 RUS  HE ES   4    443 13.49                             144   -0.04 0  102 179 
 RUS  HZ I         443 15.25         2.1 0.28                           102 179 
 PTB  HZ EP   9    442 57.57                             132   -0.62 0  152 259 
 PTB  HN ES        443 18.83                             131   -0.29 9  152 259 
 PTB  HZ I         443 21.29         2.9 0.16                           152 259 
 OCA  HZ EP        442 58.53                             130   -0.47 9  159 351 
 OCA  HN ES        443 20.83                             130   -0.36 9  159 351 
 OCA  HZ I         443 23.35         8.3 0.22                           159 351 
 SPBC HZ EP        442 59.73                             129    0.06 9  167 220 
 SPBC HN ES        443 22.17                             129   -0.20 9  167 220 
 SPBC HZ I         443 29.00         5.3 0.10                           167 220 
                                                                                
