 2013  4 6 0524  6.8 L   6.718 -73.215141.5  RSN  5 0.4 1.3LRSN                1
 GAP=162        1.14       6.8     7.1  8.2  0.1319E+02  0.1169E+02  0.9584E+01E
 Epicentro: VILLANUEVA - SANTANDER                                             3
 ACTION:UPD 13-05-22 14:36 OP:EP   STATUS:               ID:20130406052406 L   I
 2013-04-06-0520-00M.COL___245                                                 6
 STAT SP IPHASW D HRMM SECON CODA AMPLIT PERI AZIMU VELO AIN AR TRES W  DIS CAZ7
 BAR2 SZ EP        524 25.70                             174   -0.0610 14.3 165 
 BAR2 SZ ES        524 39.87                             174   -0.6910 14.3 165 
 BAR2 SZ I         524 42.42         7.1 0.26            173           14.3 165 
 GIR2 SZ EP        524 25.97                             163   -0.2610 40.0   3 
 GIR2 SZ ES        524 41.25                             163   -0.1510 40.0   3 
 GIR2 SZ I         524 43.08         4.0 0.38            165           40.0   3 
 BRR  HZ EP        524 27.73                             152    0.3310 69.8 308 
 BRR  HN ES        524 44.24                             152    0.7610 69.8 308 
 BRR  HZ I         524 48.30         3.5 0.25            151           69.8 308 
 RUS  HZ EP        524 29.45                             145   -0.0910 92.4 171 
 RUS  HN ES        524 47.89                             145    0.6010 92.4 171 
 RUS  HZ I         524 49.18         2.3 0.30            148           92.4 171 
 PTB  HZ EP        524 32.56                             133   -0.03 9  139 262 
 PTB  HN ES        524 52.24                             133   -0.47 9  139 262 
 PTB  HZ I         524 57.53         3.6 0.12            133            139 262 
                                                                                
