 2011  3 6 0346 59.9 L   6.750 -73.190140.6  RSN  7 0.3 1.6LRSN                1
 GAP=154        0.51       3.1     8.2  5.5 -0.1237E+02  0.1177E+02  0.2005E+00E
 Epicentro: VILLANUEVA - SANTANDER                                             3
 ACTION:UP  11-06-16 14:32 OP:jfem STATUS:               ID:20110306034700 L   I
 2011-03-06-0344-47S.COL___135                                                 6
 STAT SP IPHASW D HRMM SECON CODA AMPLIT PERI AZIMU VELO SNR AR TRES W  DIS CAZ7
 BAR2 SZ EP        347 18.73                             173    -0.110   18 178 
 BAR2 SZ ES   1    347 33.45                             173    -0.1 7   18 178 
 BAR2 SZ I         347 35.47        20.4 0.25                            18 178 
 RUS  HZ EP        347 22.67                             144    -0.110   96 173 
 RUS  HZ I         347 23.24         3.9 0.14                            96 173 
 RUS  HN ES   2    347 41.13                             144     0.5 5   96 173 
 GRA  SZ EP   1    347 25.55                             134     0.3 7  133  19 
 GRA  SZ ES   1    347 44.97                             134    -0.1 7  133  19 
 GRA  SZ I         347 46.33         4.3 0.40                           133  19 
 OCA  SZ ES   2    347 50.85                             127     0.4 5  165 355 
 CHI  HZ EP   1    347 36.70                             117     0.1 6  242 194 
 CHI  HN ES   3    348  5.29                             117     0.0 2  242 194 
 CHI  HZ I         348 14.32         2.2 0.24                           242 194 
 HEL  HZ EP   3    347 38.06                             114    -1.1 2  266 257 
 HEL  HZ I         348 19.07         2.3 0.26                           266 257 
 RREF HZ EP   3    347 44.80                             110    -0.2 2  314 230 
 RREF HE ES   2    348 20.66                             110     0.5 3  314 230 
 RREF HZ I         348 29.27         3.2 0.29                           314 230 
                                                                                
