 2016  5 6 0904 57.4 L   6.783 -73.148146.4  RSN 11 0.3 1.6LRSN                1
 GAP=137        0.79       2.3     3.1  4.4 -0.7813E+00  0.3339E+01  0.7143E+00E
 Epicentro: LOS SANTOS - SANTANDER                                             3
 ACTION:UPD 16-08-18 17:42 OP:cam  STATUS:               ID:20160506090457 L   I
 OLDACT:REG 16-05-06 14:09 OP:ak   STATUS:               ID:20160506085749     3
 2016-05-06-0857-49M.COL___288                                                 6
 STAT SP IPHASW D HRMM SECON CODA AMPLIT PERI AZIMU VELO AIN AR TRES W  DIS CAZ7
 BAR2 EZ EP        9 5 16.96                             171   -0.1410 21.5 190 
 BAR2 EZ ES        9 5 32.32                             171   -0.1310 21.5 190 
 BAR2 EZ I         9 5 34.61         8.9 0.30            169           21.5 190 
 BRR  HZ EP        9 5 18.72                             152    0.0310 71.8 300 
 BRR  HE ES        9 5 35.60                             152    0.3410 71.8 300 
 BRR  HZ I         9 5 40.80         5.6 0.09            145           71.8 300 
 PAM  EZ IP     D  9 5 19.69                             150   -0.1210 79.0  39 
 PAM  EN ES        9 5 37.25                             150   -0.0210 79.0  39 
 PAM  EZ I         9 5 39.14         8.0 0.50            148           79.0  39 
 RUS  HZ EP        9 5 21.34                             144    0.2310 98.8 176 
 RUS  HN ES        9 5 39.79                             144    0.2010 98.8 176 
 RUS  HZ I         9 5 40.71         4.5 0.36            141           98.8 176 
 PTB  HZ EP        9 5 24.95                             132    0.56 9  147 260 
 PTB  HN ES        9 5 44.63                             132   -0.79 9  147 260 
 PTB  HZ I         9 5 45.50         4.9 0.18            126            147 260 
 OCA  HZ EP        9 5 26.07                             129    0.11 9  162 353 
 OCA  HE ES        9 5 48.12                             129   -0.09 9  162 353 
 OCA  HZ I         9 5 53.12        11.3 0.46            124            162 353 
 SPBC HZ EP        9 5 25.62                             130   -0.20 9  162 219 
 SPBC HN ES        9 5 48.06                             130    0.09 9  162 219 
 SPBC HZ I         9 5 52.01         7.0 0.44            124            162 219 
 ZAR  HZ EP        9 5 29.34                             122   -0.62 9  204 293 
 ZAR  HN ES        9 5 55.79                             122    0.45 9  204 293 
 ZAR  HZ I         9 6  1.04         7.7 0.28            117            204 293 
 CHI  HZ EP        9 5 34.62                             117   -0.34 8  247 195 
 CHI  HN ES        9 6  4.35                             117    0.11 8  247 195 
 CHI  HZ I         9 6  9.83         1.7 0.22            113            247 195 
 HEL  HZ EP   2    9 5 38.06                             115    0.47 4  271 256 
 HEL  HZ I         9 6 16.82         2.2 0.44            110            271 256 
 CBOC HZ EP   2    9 5 44.74                             110    0.47 3  333 252 
 CBOC HN ES        9 6 20.90                             110    0.09 7  333 252 
                                                                                
