 2017 12 6 0344 28.8 L   6.770 -73.198146.4  RSN  4 0.3 1.4LRSN                1
 GAP=239        0.76       7.4     5.6  6.7  0.2697E+02  0.2241E+01 -0.1454E+02E
 Epicentro: ZAPATOCA - SANTANDER                                               3
 ACTION:UPD 18-01-04 13:17 OP:rebc STATUS:               ID:20171206034428 L   I
 OLDACT:REG 17-12-06 13:16 OP:leo  STATUS:               ID:20171206033740     3
 2017-12-06-0338-00M.COL___495                                                 6
 STAT SP IPHASW D HRMM SECON CODA AMPLIT PERI AZIMU VELO AIN AR TRES W  DIS CAZ7
 BAR2 EZ EP        344 48.39                             172   -0.0410 19.7 175 
 BAR2 HN ES        345  3.57                             172   -0.1810 19.7 175 
 BAR2 EZ I         345  4.25        11.2 0.36            169           19.7 175 
 RUS  HZ EP        344 52.38                             145   -0.0210 97.9 173 
 RUS  HN ES        345 11.13                             145    0.3010 97.9 173 
 RUS  HZ I         345 12.38         2.7 0.52            143           97.9 173 
 PTB  HZ EP        344 54.66                             133   -0.58 9  142 260 
 PTB  HE ES        345 15.89                             133    0.01 9  142 260 
 PTB  HZ I         345 17.82         2.2 0.20            133            142 260 
 ZAR  HZ EP        345  1.35                             123    0.49 9  200 294 
 ZAR  HN ES        345 26.00                             123    0.12 9  200 294 
                                                                                
