 2010  9 6 0918 38.0 L   6.732 -73.024137.3  RSN  6 0.4 1.5LRSN                1
 GAP=173        0.82       7.7    10.7 10.5 -0.2488E+02 -0.3293E+02  0.1979E+02E
 Epicentro: ARATOCA - SANTANDER                                                3
 ACTION:UP  11-02-18 11:00 OP:tino STATUS:               ID:20100906091838 L   I
 2010-09-06-0916-46S.COL___119                                                 6
 STAT SP IPHASW D HRMM SECON CODA AMPLIT PERI AZIMU VELO SNR AR TRES W  DIS CAZ7
 BAR2 SZ EP        918 57.01                             169     0.410   24 229 
 BAR2 SZ I         919 12.95         6.7 0.21                            24 229 
 BTL  SZ EP        918 57.10                             167     0.210   34 307 
 BTL  SZ ES   1    919 11.61                             167     0.0 7   34 307 
 BRR  HZ EP        918 58.99                             147    -0.210   87 299 
 BRR  HN ES   1    919 15.60                             147    -0.2 7   87 299 
 BRR  HZ I         919 16.97         6.9 0.08                            87 299 
 RUS  HN ES   3    919 16.34                             143    -1.5 2   93 184 
 RUS  HZ I         919 20.59         3.8 0.41                            93 184 
 GUE  SZ EP   2    919  2.30                             137    -0.1 5  122   5 
 GRA  SZ ES   1    919 21.87                             134    -0.3 7  130  11 
 GRA  SZ I         919 22.88         5.9 0.38                           130  11 
                                                                                
