 2017  1 6 0808 47.3 L   7.244 -73.033160.0  RSN  5 0.3 1.3LRSN                1
 GAP=264        0.65       8.4     8.2  6.8  0.5463E+02 -0.1624E+02 -0.2392E+02E
 Epicentro: CHARTA - SANTANDER                                                 3
 ACTION:UPD 17-05-22 15:56 OP:jn   STATUS:               ID:20170106080847 L   I
 OLDACT:UP  17-01-06 18:21 OP:and  STATUS:               ID:20170106080743     3
 OLDACT:UP  17-01-06 18:20 OP:and  STATUS:               ID:20170106080743     3
 OLDACT:REG 17-01-06 12:49 OP:and  STATUS:               ID:20170106080743     3
 2017-01-06-0808-00M.COL___363                                                 6
 STAT SP IPHASW D HRMM SECON CODA AMPLIT PERI AZIMU VELO AIN AR TRES W  DIS CAZ7
 BAR2 EZ EP        8 9 10.51                             154    0.0310 74.0 193 
 BAR2 EZ ES   2    8 9 27.72                             154   -0.86 5 74.0 193 
 BAR2 EZ I         8 9 33.56         3.2 0.36            164           74.0 193 
 BRR  HZ EP        8 9 10.45                             153    0.1710 76.5 259 
 BRR  HN ES        8 9 28.21                             153    0.0010 76.5 259 
 BRR  HZ I         8 9 36.77         5.4 0.38            158           76.5 259 
 RUS  HZ EP   4    8 9 17.31                             135    1.05 0  150 182 
 RUS  HN ES        8 9 39.11                             135    0.25 9  150 182 
 RUS  HZ I         8 9 39.44         0.9 0.38            146            150 182 
 PTB  HZ EP        8 9 17.53                             130   -0.43 9  176 244 
 PTB  HN ES   4    8 9 40.53                             130   -1.35 0  176 244 
 PTB  HZ I         8 9 43.06         2.6 0.16            138            176 244 
 ZAR  HZ EP        8 9 20.66                             126    0.03 9  203 278 
 ZAR  HE ES        8 9 46.80                             126    0.16 9  203 278 
 ZAR  HZ I         8 9 53.29         3.0 0.26            132            203 278 
                                                                                
