 2013  3 6 0955 35.7 L   6.776 -73.164149.3  RSN  6 0.4 1.7LRSN                1
 GAP=199        0.90       5.1     6.4  6.9  0.1521E+02 -0.2177E+01 -0.1160E+02E
 Epicentro: LOS SANTOS - SANTANDER                                             3
 ACTION:UPD 13-04-09 14:00 OP:ep   STATUS:               ID:20130306095535 L   I
 2013-03-06-0950-00M.COL___228                                                 6
 STAT SP IPHASW D HRMM SECON CODA AMPLIT PERI AZIMU VELO AIN AR TRES W  DIS CAZ7
 BAR2 SZ ES   1    956 10.87                             172   -0.38 7 20.5 186 
 BAR2 SZ I         956 12.98         6.8 0.24            169           20.5 186 
 BRR  HZ EP        955 57.50                             153    0.3410 70.8 301 
 BRR  HN ES        956 14.34                             153    0.4110 70.8 301 
 BRR  HN I         956 17.59        14.8 0.18            150           70.8 301 
 RUS  HZ EP        955 59.90                             145    0.3310 98.1 175 
 RUS  HE ES        956 18.01                             145   -0.2310 98.1 175 
 RUS  HE I         956 19.37         6.5 0.23            147           98.1 175 
 PTB  HZ EP        956  2.38                             133   -0.31 9  145 260 
 PTB  HN ES        956 23.61                             133   -0.17 9  145 260 
 PTB  HN I         956 28.66         6.4 0.30            132            145 260 
 ZAR  HZ EP   1    956  9.04                             123    0.80 6  203 293 
 ZAR  HN ES   1    956 33.36                             123   -0.30 6  203 293 
 ZAR  HZ I         956 40.14         4.0 0.26            123            203 293 
 SML  HZ EP        956 11.99                             118   -0.65 8  245 336 
 SML  HE ES   1    956 41.46                             118   -0.04 6  245 336 
                                                                                
