 2012  9 6 0343 36.3 L   6.772 -73.113143.1  RSN  6 0.2 1.5LRSN                1
 GAP=142        0.51       4.0     3.8  6.7 -0.3075E+01  0.2028E+01 -0.4913E+01E
 Epicentro: LOS SANTOS - SANTANDER                                             3
 ACTION:UPD 12-10-22 14:17 OP:ep   STATUS:               ID:20120906034336 L   I
 2012-09-06-0340-00M.COL___218                                                 6
 STAT SP IPHASW D HRMM SECON CODA AMPLIT PERI AZIMU VELO AIN AR TRES W  DIS CAZ7
 BAR2 SZ ES   2    344 10.45                             171   -0.17 5 21.3 201 
 BAR2 SZ I         344 11.41         6.6 0.32                          21.3 201 
 GIR2 SZ EP   1    343 55.52                             165   -0.27 7 35.1 345 
 BRR  HZ EP   1    343 57.60                             150    0.14 7 75.9 299 
 BRR  HZ I         343 57.96         6.0 0.12                          75.9 299 
 BRR  HN ES   1    344 14.30                             150    0.35 7 75.9 299 
 PAM  SZ EP   1    343 58.46                             150    0.19 7 77.6  36 
 PAM  SN ES   1    344 15.18                             150   -0.21 7 77.6  36 
 PAM  SZ I         344 17.83         5.8 0.64                          77.6  36 
 RUS  HN ES   1    344 17.83                             144    0.13 7 97.2 178 
 PTB  HN ES   1    344 24.12                             131   -0.31 7  151 260 
                                                                                
