 2017  1 6 0035 28.2 L   6.757 -73.110139.8  RSN  7 0.3 1.5LRSN                1
 GAP=143        0.91       4.4     4.1  6.5  0.1865E+01  0.5574E+01 -0.2512E+01E
 Epicentro: LOS SANTOS - SANTANDER                                             3
 ACTION:UPD 17-05-22 15:56 OP:jn   STATUS:               ID:20170106003528 L   I
 OLDACT:UP  17-01-06 13:04 OP:and  STATUS:               ID:20170106002744     3
 OLDACT:UP  17-01-06 13:02 OP:and  STATUS:               ID:20170106002744     3
 OLDACT:REG 17-01-06 12:24 OP:and  STATUS:               ID:20170106002744     3
 2017-01-06-0028-00M.COL___381                                                 6
 STAT SP IPHASW D HRMM SECON CODA AMPLIT PERI AZIMU VELO AIN AR TRES W  DIS CAZ7
 BAR2 EZ EP        035 46.97                             172   -0.0510 19.9 204 
 BAR2 EZ ES        036  1.90                             172    0.1810 19.9 204 
 BAR2 EZ I         036  3.99         4.4 0.25            175           19.9 204 
 BRR  HZ EP        035 48.93                             149   -0.1010 77.0 300 
 BRR  HE ES        036  6.00                             149    0.7010 77.0 300 
 BRR  HZ I         036  9.22         7.5 0.30            151           77.0 300 
 PAM  EZ EP        035 49.97                             149    0.1210 78.8  35 
 PAM  EN ES        036  6.25                             149   -0.5010 78.8  35 
 PAM  EZ I         036  9.61         7.3 0.30            145           78.8  35 
 RUS  HZ EP        035 51.26                             144    0.2810 95.6 178 
 RUS  HN ES        036  8.61                             144   -0.1610 95.6 178 
 RUS  HZ I         036 10.57         3.4 0.32            158           95.6 178 
 PTB  HZ EP   4    035 53.89                             130   -1.06 0  151 261 
 PTB  HN ES        036 15.27                             130   -0.56 9  151 261 
 PTB  HZ I         036 16.97         3.5 0.16            139            151 261 
 ZAR  HZ EP        036  1.01                             120    0.19 8  210 293 
 ZAR  HN ES        036 26.07                             120   -0.20 8  210 293 
 ZAR  HZ I         036 31.52         3.7 0.19            126            210 293 
 NOR  HZ I         036  9.76         4.1 0.14            126            235 236 
                                                                                
