 2012  3 6 0010 52.2 L   6.779 -73.157129.0  RSN  4 0.2 1.6LRSN                1
 GAP=136        0.61       4.0     4.2  7.0  0.3756E+01  0.8768E+01  0.1381E+01E
 ACTION:UP  12-03-31 23:17 OP:EP   STATUS:               ID:20120306001052 L   I
 2012-03-06-0010-00M.COL___191                                                 6
 STAT SP IPHASW D HRMM SECON CODA AMPLIT PERI AZIMU VELO SNR AR TRES W  DIS CAZ7
 BRR  HZ EP        011 11.93                             149     0.410   71 301 
 BRR  HZ I         011 12.97        12.2 0.11                            71 301 
 BRR  HN ES   1    011 26.76                             149     0.1 7   71 301 
 PAM  SZ EP   1    011 12.72                             146    -0.1 7   80  39 
 PAM  SZ I         011 13.31         8.9 0.19                            80  39 
 PAM  SN ES   1    011 28.74                             146    -0.2 7   80  39 
 RUS  HZ EP   1    011 14.06                             141    -0.1 7   98 175 
 RUS  HN ES   1    011 31.18                             141    -0.1 7   98 175 
 RUS  HZ I         011 34.35         5.8 0.29                            98 175 
 ZAR  HZ EP   1    011 23.48                             118    -0.1 6  204 293 
 ZAR  HN ES   1    011 47.66                             118    -0.4 6  204 293 
 ZAR  HZ I         011 55.03         4.9 0.13                           204 293 
                                                                                
