 2015  1 6 0637  1.3 L   6.740 -73.194164.5  RSN  4 0.5 1.4LRSN                1
 GAP=242        1.05       5.3    15.5 11.1 -0.2767E+02 -0.8724E+02  0.4218E+01E
 Epicentro: VILLANUEVA - SANTANDER                                             3
 ACTION:UPD 15-03-02 15:37 OP:nd   STATUS:               ID:20150106063701 L   I
 OLDACT:UP  15-01-06 16:13 OP:cam  STATUS:               ID:20150106062819     3
 OLDACT:REG 15-01-06 14:16 OP:cam  STATUS:               ID:20150106062819     3
 2015-01-06-0628-19M.COL___274                                                 6
 STAT SP IPHASW D HRMM SECON CODA AMPLIT PERI AZIMU VELO AIN AR TRES W  DIS CAZ7
 BRR  HZ EP        637 24.21                             156   -0.2810 70.2 305 
 BRR  HN ES        637 42.55                             156   -0.0010 70.2 305 
 BRR  HN I         637 43.94         4.6 0.38            153           70.2 305 
 PTB  HZ EP        637 29.33                             137   -0.03 9  141 261 
 PTB  HN ES        637 50.97                             137   -0.24 9  141 261 
 PTB  HZ I         637 54.81         2.3 0.12            135            141 261 
 SPBC HZ EP        637 31.27                             135    0.68 9  155 219 
 SPBC HN ES        637 53.35                             135   -0.05 9  155 219 
 SPBC HZ I         637 56.78         2.4 0.42            133            155 219 
 SML  HZ EP        637 38.72                             121   -0.78 8  248 337 
 SML  HN ES        638 10.01                             121    0.75 8  248 337 
                                                                                
