 2012  5 6 0152 50.0 L   6.792 -73.131151.0  RSN 12 0.4 2.2LRSN                1
 GAP=139        0.79       3.7     4.0  5.7 -0.7044E+00  0.7677E+01  0.5835E+01E
 Epicentro: LOS SANTOS - SANTANDER                                             3
 ACTION:UP  12-07-05 12:02 OP:pat  STATUS:               ID:20120506015250 L   I
 2012-05-06-0150-00M.COL___192                                                 6
 STAT SP IPHASW D HRMM SECON CODA AMPLIT PERI AZIMU VELO SNR AR TRES W  DIS CAZ7
 BAR2 SZ EP        153 10.26                             171     0.010   23 194 
 BAR2 SZ ES   1    153 25.68                             171    -0.4 7   23 194 
 BAR2 SZ I         153 27.32        37.0 0.37                            23 194 
 BRR  HZ EP        153 12.09                             153     0.310   73 299 
 BRR  HZ I         153 12.41        45.7 0.18                            73 299 
 BRR  HE ES   1    153 29.64                             153     0.8 7   73 299 
 PAM  SZ EP   1    153 12.96                             152     0.2 7   77  38 
 PAM  SE ES   1    153 30.38                             152    -0.1 7   77  38 
 RUS  HZ EP   1    153 14.11                             145    -0.1 7  100 177 
 RUS  HN ES   1    153 33.13                             145     0.1 7  100 177 
 RUS  HZ I         153 34.03        19.1 0.49                           100 177 
 PTB  HZ EP   1    153 16.90                             133    -0.6 7  149 259 
 PTB  HN ES   1    153 38.49                             133    -0.5 7  149 259 
 PTB  HZ I         153 41.60        15.3 0.13                           149 259 
 ZAR  HZ EP   1    153 22.80                             123    -0.2 6  206 292 
 ZAR  HN ES   1    153 48.11                             123    -0.6 6  206 292 
 ZAR  HZ I         153 53.92        21.3 0.39                           206 292 
 NOR  SZ EP   1    153 25.71                             119    -0.4 6  235 235 
 NOR  SE ES   2    153 54.30                             119     0.0 4  235 235 
 CHI  HZ EP   1    153 27.95                             118     0.0 6  248 196 
 CHI  HN ES   1    153 57.44                             118    -0.1 6  248 196 
 CHI  HZ I         154  3.51         7.3 0.42                           248 196 
 HEL  HZ EP   1    153 31.26                             116     0.6 6  273 256 
 HEL  HN ES   1    154  2.56                             116     0.2 6  273 256 
 HEL  HZ I         154  9.25         8.6 0.42                           273 256 
 GUY  SZ EP   2    153 34.87                             113     0.7 4  304 235 
 GUY  SN ES   2    154  8.81                             113     0.1 4  304 235 
 GUY  SZ I         154 15.72         9.8 0.33                           304 235 
 RREF HZ EP   1    153 36.61                             112     0.2 5  322 230 
 RREF HN ES   1    154 13.23                             112     0.6 5  322 230 
 RREF HZ I         154 21.46         8.3 0.49                           322 230 
 PRA  HZ EP   1    153 43.24                             107    -0.5 4  392 210 
 PRA  HN ES   1    154 25.89                             107     0.3 4  392 210 
                                                                                
