 2017  3 6 0442  5.2 L   6.771 -73.126148.9  RSN 13 0.5 1.6LRSN                1
 GAP= 97        0.98       4.0     2.9  5.6  0.3555E+00  0.2011E+01  0.5842E+01E
 Epicentro: LOS SANTOS - SANTANDER                                             3
 ACTION:UPD 17-05-25 18:36 OP:jn   STATUS:               ID:20170306044205 L   I
 OLDACT:UP  17-03-06 14:58 OP:and  STATUS:               ID:20170306043745     3
 OLDACT:UP  17-03-06 14:57 OP:and  STATUS:               ID:20170306043745     3
 OLDACT:UP  17-03-06 14:57 OP:and  STATUS:               ID:20170306043745     3
 OLDACT:UP  17-03-06 14:56 OP:and  STATUS:               ID:20170306043745     3
 OLDACT:REG 17-03-06 12:19 OP:and  STATUS:               ID:20170306043745     3
 2017-03-06-0438-00M.COL___387                                                 6
 STAT SP IPHASW D HRMM SECON CODA AMPLIT PERI AZIMU VELO AIN AR TRES W  DIS CAZ7
 BAR2 EZ EP        442 25.06                             172   -0.0910 20.7 198 
 BAR2 EZ ES        442 40.39                             172   -0.3210 20.7 198 
 BAR2 EZ I         442 41.70        18.8 0.16            169           20.7 198 
 BRR  HZ IP     C  442 27.02                             152    0.1410 74.7 300 
 BRR  HN ES        442 44.51                             152    0.7210 74.7 300 
 BRR  HZ I         442 47.36         8.3 0.28            149           74.7 300 
 PAM  EN ES        442 45.40                             151   -0.0510 78.6  37 
 PAM  EZ I         442 47.62         4.2 0.19            153           78.6  37 
 RUS  HZ EP        442 28.95                             145   -0.0610 97.2 177 
 RUS  HN ES        442 47.57                             145   -0.0210 97.2 177 
 RUS  HZ I         442 48.80         6.9 0.34            145           97.2 177 
 PTB  HZ EP        442 32.04                             132   -0.52 9  149 260 
 PTB  HN ES        442 53.19                             132   -0.71 9  149 260 
 PTB  HZ I         442 56.07         5.2 0.12            130            149 260 
 TAM  HZ IP     D  442 33.34                             132    0.49 9  152 104 
 TAM  HN ES        442 54.43                             132    0.01 9  152 104 
 SPBC HZ EP        442 34.04                             130    0.21 9  162 220 
 SPBC HN ES        442 56.26                             130    0.10 9  162 220 
 SPBC HZ I         442 56.71         4.6 0.14            128            162 220 
 ZAR  HZ EP   2    442 38.50                             123    0.32 4  207 293 
 ZAR  HN ES        443  3.42                             123   -0.49 8  207 293 
 ZAR  HZ I         443 10.71         6.0 0.42            121            207 293 
 NOR  HZ EP   2    442 41.24                             119    0.15 4  235 235 
 NOR  HN ES        443 10.07                             119    0.97 8  235 235 
 NOR  HZ I         443 15.23         2.9 0.14            118            235 235 
 CHI  HZ EP   2    442 42.89                             118    0.10 4  246 196 
 CHI  HN ES   2    443 12.47                             118    0.36 4  246 196 
 CHI  HZ I         443 18.29         1.2 0.22            117            246 196 
 HEL  HZ EP   3    442 47.05                             115    1.34 2  273 257 
 HEL  HN ES   2    443 17.39                             115    0.07 4  273 257 
 HEL  HZ I         443 24.68         2.4 0.28            114            273 257 
 PTGC HZ EP        442 47.79                             112   -0.96 7  305 159 
 CBOC HZ EP   2    442 53.03                             110    0.67 3  335 253 
 CBOC HN ES   3    443 28.18                             110   -0.98 2  335 253 
 CBOC HZ I         443 38.50         0.6 0.25            109            335 253 
 SJC  HZ EP   4    442 59.29                             106   -2.03 0  413 327 
 SJC  HN ES   4    443 41.13                             106   -3.97 0  413 327 
                                                                                
