 2016  4 6 0809 17.5 L   6.779 -73.171115.1  RSN  4 0.5 0.9LRSN                1
 GAP=140        1.15       6.6     7.8 17.2 -0.2248E+02  0.7001E+02 -0.3137E+02E
 Epicentro: LOS SANTOS - SANTANDER                                             3
 ACTION:UPD 16-05-05 14:19 OP:rebc STATUS:               ID:20160406080917 L   I
 OLDACT:UP  16-04-06 19:06 OP:mh   STATUS:               ID:20160406080748     3
 OLDACT:REG 16-04-06 12:31 OP:mh   STATUS:               ID:20160406080748     3
 2016-04-06-0807-48M.COL___273                                                 6
 STAT SP IPHASW D HRMM SECON CODA AMPLIT PERI AZIMU VELO AIN AR TRES W  DIS CAZ7
 PAM  EZ EP   1    8 9 36.37                             143   -0.42 7 81.0  40 
 PAM  EN ES   1    8 9 52.38                             143    0.52 7 81.0  40 
 PAM  EZ I         8 9 55.17         2.9 0.38            151           81.0  40 
 RUS  HZ EP   1    8 9 38.85                             137    0.68 7 98.5 174 
 RUS  HN ES        8 9 53.71                             137   -0.6110 98.5 174 
 RUS  HZ I         8 9 58.02         0.8 0.32            144           98.5 174 
 PTB  HZ EP        8 9 41.51                             124   -0.30 9  145 260 
 PTB  HN ES   1    810  0.57                             124   -0.23 7  145 260 
 PTB  HZ I         810  4.28         1.2 0.16            130            145 260 
 SPBC HN ES        810  4.36                             122    0.66 9  160 219 
 SPBC HZ I         810  9.77         1.0 0.11            128            160 219 
                                                                                
