 2014 12 6 0844 10.4 L   6.791 -73.143148.6  RSN 11 0.4 1.7LRSN                1
 GAP=137        1.09       2.9     4.4  6.0 -0.9704E+00  0.7260E+01  0.4905E+00E
 Epicentro: LOS SANTOS - SANTANDER                                             3
 ACTION:UPD 15-02-10 17:00 OP:nd   STATUS:               ID:20141206084410 L   I
 OLDACT:REG 14-12-06 13:29 OP:carl STATUS:               ID:20141206083736     3
 2014-12-06-0837-36M.COL___312                                                 6
 STAT SP IPHASW D HRMM SECON CODA AMPLIT PERI AZIMU VELO AIN AR TRES W  DIS CAZ7
 BAR2 SZ EP        844 30.23                             171   -0.1210 22.4 191 
 BAR2 SZ ES        844 45.49                             171   -0.4210 22.4 191 
 BAR2 SZ I         844 47.17         8.2 0.22            171           22.4 191 
 BRR  HZ EP        844 32.31                             153    0.4110 71.9 299 
 BRR  HN ES        844 49.79                             153    1.1310 71.9 299 
 BRR  HZ I         844 57.24         6.3 0.48            151           71.9 299 
 PAM  SZ EP        844 33.38                             151    0.4210 78.0  39 
 PAM  SN ES        844 50.38                             151   -0.1610 78.0  39 
 PAM  SZ I         844 52.68        10.2 0.56            154           78.0  39 
 RUS  HZ EP        844 34.30                             145   -0.0610 99.6 176 
 RUS  HN ES        844 52.78                             145   -0.2610 99.6 176 
 RUS  HZ I         844 54.53         4.2 0.62            148           99.6 176 
 PTB  HZ EP        844 37.13                             133   -0.48 9  148 259 
 PTB  HN ES        844 58.39                             133   -0.44 9  148 259 
 PTB  HZ I         845  1.79         6.6 0.46            133            148 259 
 OCA  HN ES        845  1.28                             130   -0.08 9  161 353 
 OCA  HZ I         845  5.11         7.1 0.36            132            161 353 
 SPBC HN ES        845  1.41                             130   -0.00 9  163 219 
 ZAR  HZ EP        844 42.53                             123   -0.57 9  205 292 
 ZAR  HN ES        845  8.28                             123   -0.32 9  205 292 
 ZAR  HZ I         845 14.10         5.8 0.32            124            205 292 
 SML  HZ EP        844 46.86                             118   -0.44 8  245 335 
 SML  HN ES        845 16.13                             118    0.05 8  245 335 
 SML  HZ I         845 21.72         9.6 0.10            120            245 335 
 CHI  HZ EP        844 48.49                             118    0.33 8  248 195 
 CHI  HN ES        845 17.71                             118    0.10 8  248 195 
 CHI  HZ I         845 23.57         2.9 0.38            120            248 195 
 GUY2CHZ EP        844 54.92                             113    0.82 7  301 235 
 GUY2CHN ES        845 28.44                             113    0.25 7  301 235 
 GUY2CHZ I         845 37.00         2.5 0.52                           301 235 
                                                                                
