 2010  5 6 0222 45.4 L   6.724 -73.036141.3  RSN  6 0.1 1.8LRSN                1
 GAP=198        0.35      11.4    10.2  9.8 -0.9538E+02 -0.8211E+02  0.8993E+02E
 Epicentro: ARATOCA - SANTANDER                                                3
 ACTION:UP  10-08-24 10:03 OP:vdl  STATUS:               ID:20100506022245 L   I
 2010-05-06-0221-20S.COL___105                                                 6
 STAT SP IPHASW D HRMM SECON CODA AMPLIT PERI AZIMU VELO SNR AR TRES W  DIS CAZ7
 GIR2 SZ ES   3    223 20.21                             162     0.0 2   43 336 
 BRR  HZ EP   1    223  7.23                             147     0.2 7   86 300 
 BRR  HE ES   1    223 23.75                             147    -0.1 7   86 300 
 BRR  HZ I         223 26.33         7.9 0.24                            86 300 
 BRI  SZ EP   3    223  9.47                             139     0.2 2  113  14 
 GRA  SZ EP   1    223 10.63                             135    -0.1 7  131  11 
 HEL  HZ EP   2    223 26.38                             113    -0.1 4  282 258 
 PRA  HZ EP   2    223 38.56                             106    -0.1 3  391 212 
 PRA  HZ I         224 26.72         2.2 0.61                           391 212 
                                                                                
