 2015  3 6 0447 57.9 L   6.760 -73.151145.3  RSN  7 0.4 1.2LRSN                1
 GAP=138        0.86       4.6     4.6  6.9 -0.1806E+01  0.4259E+01  0.2453E+01E
 Epicentro: LOS SANTOS - SANTANDER                                             3
 ACTION:UPD 15-04-30 16:23 OP:nd   STATUS:               ID:20150306044757 L   I
 OLDACT:DUP 15-03-06 14:07 OP:spq  STATUS:               ID:20150306043743d    3
 OLDACT:DUP 15-03-06 14:02 OP:spq  STATUS:               ID:20150306043741d    3
 2015-03-06-0437-40M.COL___278                                                 6
 STAT SP IPHASW D HRMM SECON CODA AMPLIT PERI AZIMU VELO AIN AR TRES W  DIS CAZ7
 BAR2 EZ ES   1    448 32.46                             172   -0.18 7 18.9 191 
 BAR2 EZ I         448 33.22         5.7 0.28            172           18.9 191 
 BRR  HZ EP        448 19.04                             152   -0.0910 72.9 302 
 BRR  HN ES        448 36.13                             152    0.4610 72.9 302 
 BRR  HZ I         448 37.62         3.2 0.54            150           72.9 302 
 PAM  SZ EP        448 20.10                             150   -0.2310 81.2  38 
 PAM  SN ES   1    448 37.73                             150   -0.07 7 81.2  38 
 PAM  SZ I         448 39.52         2.4 0.64            152           81.2  38 
 RUS  HZ EP   1    448 21.74                             145    0.41 7 96.2 176 
 RUS  HE ES   1    448 39.58                             145   -0.00 7 96.2 176 
 RUS  HZ I         448 40.84         1.4 0.34            146           96.2 176 
 PTB  HZ EP        448 24.34                             132   -0.40 9  146 260 
 PTB  HN ES   1    448 44.76                             132   -0.89 7  146 260 
 PTB  HZ I         448 46.99         1.7 0.70            132            146 260 
 SPBC HZ EP   1    448 26.58                             130    0.54 7  159 220 
 SPBC HN ES   1    448 48.19                             130    0.22 7  159 220 
 SPBC HZ I         448 51.86         2.3 0.40            130            159 220 
 ZAR  HN ES   1    448 56.35                             122    0.50 6  205 293 
 ZAR  HZ I         449  1.91         2.1 0.26            122            205 293 
                                                                                
