 2016  2 6 0756 43.6 L   6.799 -73.129141.8  RSN 12 0.4 1.7LRSN                1
 GAP=185        0.77       3.2     3.9  5.5  0.1993E+01  0.4318E+01 -0.1794E+01E
 Epicentro: LOS SANTOS - SANTANDER                                             3
 ACTION:UPD 16-03-04 21:23 OP:rebc STATUS:               ID:20160206075643 L   I
 OLDACT:DUP 16-02-06 15:30 OP:dnl  STATUS:               ID:20160206074748d    3
 OLDACT:UP  16-02-06 14:48 OP:dnl  STATUS:               ID:20160206074747     3
 OLDACT:REG 16-02-06 13:25 OP:dnl  STATUS:               ID:20160206074747     3
 2016-02-06-0747-47M.COL___334                                                 6
 STAT SP IPHASW D HRMM SECON CODA AMPLIT PERI AZIMU VELO AIN AR TRES W  DIS CAZ7
 BAR2 EZ EP     C  757  3.20                             170    0.4110 23.6 194 
 BAR2 EZ ES        757 17.66                             170   -0.0810 23.6 194 
 BAR2 EZ I         757 19.47         9.3 0.12            166           23.6 194 
 RUS  HZ EP        757  7.08                             143    0.1010  100 177 
 RUS  HE ES   2    757 25.64                             143    0.45 5  100 177 
 RUS  HZ I         757 28.81         2.8 0.16            144            100 177 
 PTB  HZ EP   2    757  9.71                             131   -0.73 5  150 259 
 PTB  HN ES        757 30.79                             131   -0.56 9  150 259 
 PTB  HZ I         757 37.05         7.5 0.29            130            150 259 
 OCA  HZ EP   2    757 11.92                             129    0.25 5  161 353 
 OCA  HN ES   4    757 30.97                             129   -2.56 0  161 353 
 OCA  HZ I         757 38.34        11.5 0.40            131            161 353 
 SPBC HZ EP        757 12.10                             128    0.17 9  164 219 
 SPBC HN ES   4    757 32.85                             128   -1.16 0  164 219 
 SPBC HZ I         757 39.60         9.6 0.22            128            164 219 
 ZAR  HZ EP   2    757 16.09                             121    0.09 4  206 292 
 ZAR  HN ES        757 41.91                             121    0.66 8  206 292 
 ZAR  HZ I         757 48.04         5.9 0.20            121            206 292 
 NOR  HZ EP   4    757 18.08                             117   -1.21 0  236 235 
 NOR  HN ES   4    757 45.01                             117   -2.09 0  236 235 
 NOR  HZ I         757 52.78         3.6 0.14            118            236 235 
 SML  HZ EP        757 19.91                             116   -0.22 8  245 335 
 SML  HE ES        757 48.10                             116   -0.50 8  245 335 
 SML  HZ I         757 52.03         5.4 0.10            118            245 335 
 CHI  HZ EP   2    757 20.51                             116   -0.65 4  249 196 
 CHI  HN ES   2    757 49.38                             116   -1.05 4  249 196 
 CHI  HZ I         757 55.91         1.8 0.22            118            249 196 
 HEL  HZ EP   2    757 24.46                             114    0.62 4  274 256 
 HEL  HN ES        757 55.25                             114    0.05 8  274 256 
 HEL  HZ I         758  3.72         3.3 0.36            114            274 256 
 GUY2CHZ EP        757 27.18                             111   -0.04 7  303 235 
 GUY2CHN ES   2    758  1.20                             111   -0.02 4  303 235 
 GUY2CHZ I         758  9.65         3.5 0.56                           303 235 
 CBOC HZ EP   2    757 30.88                             109    0.30 3  335 252 
 CBOC HN ES   4    758  2.96                             109   -4.24 0  335 252 
 CBOC HZ I         758 14.66         1.0 0.40            110            335 252 
                                                                                
