 2011 10 6 0827 51.3 L   6.145 -73.800 80.8  RSN  6 0.4 1.7LRSN                1
 GAP=132        0.66       4.7     3.7 11.0 -0.9064E+01  0.2591E+02 -0.1967E+02E
 Epicentro: LANDAZURI - SANTANDER                                              3
 ACTION:UPD 12-07-13 16:02 OP:ep   STATUS:               ID:20111006082751 L   I
 2011-10-06-0820-00M.COL___171                                                 6
 STAT SP IPHASW D HRMM SECON CODA AMPLIT PERI AZIMU VELO AIN AR TRES W  DIS CAZ7
 RUS  HZ EP        828  7.57                             130   -0.2010 84.1 109 
 RUS  HZ I         828  8.00        18.7 0.13                          84.1 109 
 RUS  HN ES   1    828 21.15                             130    0.50 7 84.1 109 
 BAR2 SZ EP   1    828  7.79                             130    0.33 7 84.4  54 
 BAR2 SZ ES   1    828 19.54                             130   -0.55 7 84.4  54 
 BAR2 SZ I         828 22.53        19.6 0.23                          84.4  54 
 BRR  HZ EP   2    828  9.69                             122    0.30 5  107   5 
 NOR  SZ EP   1    828 12.32                             116   -0.16 7  135 242 
 NOR  SN ES   2    828 28.59                             116   -0.43 5  135 242 
 PAM  SZ EP   1    828 17.95                             109   -0.21 7  180  43 
 PAM  SN ES   1    828 39.34                             109    0.21 7  180  43 
 HEL  HZ EP   1    828 19.42                             107    0.03 7  191 272 
 HEL  HN ES   2    828 42.03                             107    0.70 4  191 272 
 HEL  HZ I         828 45.23         3.3 0.28                           191 272 
                                                                                
