 2011 10 6 0714 13.4 L   6.739 -72.992135.8  RSN  4 0.3 1.6LRSN                1
 GAP=160        0.59       4.5     8.8  6.7 -0.1509E+02  0.2417E+02 -0.7351E+01E
 Epicentro: CEPITA - SANTANDER                                                 3
 ACTION:UPD 12-07-13 16:02 OP:ep   STATUS:               ID:20111006071413 L   I
 2011-10-06-0700-00M.COL___171                                                 6
 STAT SP IPHASW D HRMM SECON CODA AMPLIT PERI AZIMU VELO AIN AR TRES W  DIS CAZ7
 BAR2 SZ EP   1    714 31.35                             168   -0.57 7 26.6 232 
 BAR2 SZ ES   1    714 46.21                             168   -0.14 7 26.6 232 
 BAR2 SZ I         714 49.42         6.4 0.39                          26.6 232 
 PAM  SZ EP   1    714 34.27                             150   -0.09 7 73.8  26 
 PAM  SZ I         714 34.42         9.5 0.17                          73.8  26 
 PAM  SN ES   1    714 50.92                             150    0.23 7 73.8  26 
 RUS  HZ EP   1    714 35.87                             143    0.15 7 94.1 186 
 RUS  HN ES   1    714 53.33                             143    0.21 7 94.1 186 
 RUS  HZ I         714 55.62         4.3 0.39                          94.1 186 
 ZAR  HZ EP   1    714 47.48                             118    0.30 6  222 292 
 ZAR  HZ I         715 15.58         5.1 0.35                           222 292 
                                                                                
