 2012  7 6 0148 11.4 L   6.712 -73.200149.5  RSN  5 0.2 1.5LRSN                1
 GAP=224        0.66       6.1     6.5  6.1  0.2829E+02  0.1026E+02  0.6395E+01E
 Epicentro: VILLANUEVA - SANTANDER                                             3
 ACTION:UPD 12-08-14 11:42 OP:ep   STATUS:               ID:20120706014811 L   I
 2012-07-06-0140-00M.COL___201                                                 6
 STAT SP IPHASW D HRMM SECON CODA AMPLIT PERI AZIMU VELO AIN AR TRES W  DIS CAZ7
 BAR2 SZ ES   1    148 46.47                             175    -0.4 7   13 172 
 BAR2 SZ I         148 49.05         7.5 0.28            178             13 172 
 BRR  HZ EP   1    148 32.97                             153     0.0 7   71 308 
 BRR  HZ I         148 38.18         8.0 0.28            150             71 308 
 BRR  HN ES        148 49.86                             153     0.110   71 308 
 RUS  HZ EP        148 34.84                             147    -0.110   92 172 
 RUS  HE ES        148 53.49                             147     0.310   92 172 
 RUS  HZ I         148 55.29         3.6 0.26            149             92 172 
 PTB  HZ EP        148 37.88                             134    -0.1 9  140 262 
 PTB  HE ES   1    148 58.49                             134    -0.3 7  140 262 
 PTB  HZ I         149  1.64         2.5 0.15            133            140 262 
 ZAR  HN ES   1    149  9.68                             123     0.4 6  202 295 
 ZAR  HZ I         149 15.21         3.5 0.34            122            202 295 
