 2017  1 6 0701 27.9 L   6.796 -73.145139.6  RSN 16 0.5 1.9LRSN                1
 GAP= 66        1.29       4.3     3.7  6.3  0.4730E+00  0.7309E+01  0.5955E+01E
 Epicentro: LOS SANTOS - SANTANDER                                             3
 ACTION:UPD 17-05-22 15:56 OP:jn   STATUS:               ID:20170106070127 L   I
 OLDACT:UP  17-01-06 17:24 OP:and  STATUS:               ID:20170106065742     3
 OLDACT:UP  17-01-06 17:23 OP:and  STATUS:               ID:20170106065742     3
 OLDACT:UP  17-01-06 17:22 OP:and  STATUS:               ID:20170106065742     3
 OLDACT:UP  17-01-06 17:21 OP:and  STATUS:               ID:20170106065742     3
 OLDACT:UP  17-01-06 17:20 OP:and  STATUS:               ID:20170106065742     3
 OLDACT:UP  17-01-06 17:19 OP:and  STATUS:               ID:20170106065742     3
 OLDACT:REG 17-01-06 12:43 OP:and  STATUS:               ID:20170106065742     3
 2017-01-06-0658-00M.COL___369                                                 6
 STAT SP IPHASW D HRMM SECON CODA AMPLIT PERI AZIMU VELO AIN AR TRES W  DIS CAZ7
 BAR2 EZ IP     C  7 1 46.64                             170   -0.1710 22.9 190 
 BAR2 EZ ES        7 2  1.90                             170    0.3610 22.9 190 
 BAR2 EZ I         7 2  3.45        17.5 0.24            170           22.9 190 
 BRR  HZ IP     C  7 1 48.48                             151    0.0410 71.5 299 
 BRR  HN ES        7 2  5.09                             151    0.6710 71.5 299 
 BRR  HZ I         7 2  8.42        17.9 0.38            149           71.5 299 
 PAM  EZ EP        7 1 49.42                             150   -0.0910 77.7  39 
 PAM  EN ES        7 2  6.12                             150   -0.2310 77.7  39 
 PAM  EZ I         7 2  6.94        18.1 0.28            147           77.7  39 
 RUS  HZ EP        7 1 50.66                             143   -0.3910  100 176 
 RUS  HN ES        7 2  8.72                             143   -0.3510  100 176 
 RUS  HZ I         7 2 10.90        15.4 0.38            140            100 176 
 PTB  HZ EP        7 1 53.57                             131   -0.83 9  148 259 
 PTB  HN ES        7 2 14.17                             131   -0.88 9  148 259 
 PTB  HZ I         7 2 19.62        16.2 0.30            128            148 259 
 TAM  HZ IP     C  7 1 55.07                             129   -0.04 9  155 105 
 TAM  HZ I         7 2 15.40         8.3 0.40            126            155 105 
 TAM  HN ES        7 2 16.65                             129    0.34 9  155 105 
 ZAR  HZ EP        7 1 59.38                             121   -0.63 9  204 292 
 ZAR  HE ES        7 2 25.43                             121    0.40 9  204 292 
 ZAR  HZ I         7 2 31.10        10.3 0.18            118            204 292 
 NOR  HZ EP     C  7 2  3.30                             117    0.01 8  234 235 
 NOR  HN ES        7 2 30.65                             117   -0.22 8  234 235 
 NOR  HZ I         7 2 32.47         5.1 0.25            115            234 235 
 CHI  HZ EP        7 2  6.20                             116    0.95 8  248 195 
 CHI  HN ES        7 2 34.39                             116    0.03 8  248 195 
 CHI  HZ I         7 2 37.73         2.9 0.28            113            248 195 
 URE  HZ EP        7 2  8.15                             112   -0.59 7  284 292 
 URE  HN ES   4    7 2 39.11                             112   -1.46 0  284 292 
 GUY2CHZ EP        7 2 12.13                             111    0.89 7  301 235 
 GUY2CHN ES   4    7 2 46.32                             111    1.30 0  301 235 
 GUY2CHZ I         7 2 53.57         4.0 0.56                           301 235 
 PTGC HZ EP   9    7 2 10.09                             110   -1.38 0  308 159 
 PTGC HN ES        7 2 43.42                             111   -0.62 7  308 159 
 LL6C HZ EP   9    7 1 52.96                             109   -20.5 0  325 358 
 LL6C HE ES        7 2 30.04                                    1.59 7  325 358 
 CBOC HZ EP        7 2 14.91                             109    0.32 7  334 252 
 CBOC HN ES        7 2 51.51                             109    0.53 7  334 252 
 CBOC HZ I         7 3  7.84         1.7 0.66            107            334 252 
 ORTC HZ EP        7 2 22.11                             105    0.50 6  395 216 
 ORTC HN ES        7 3  4.59                             105    1.11 6  395 216 
 ORTC HZ I         7 3  9.61         2.4 0.20            103            395 216 
 PAL  HZ EP        7 2 22.97                             105    0.09 6  406 239 
 PAL  HN ES   4    7 3  8.03                             105    2.30 0  406 239 
 PAL  HZ I         7 3  9.89         1.9 0.44            103            406 239 
 SJC  HZ EP   4    7 2 21.87                             105   -1.48 0  410 327 
 SJC  HN ES   4    7 3  2.58                             105   -4.00 0  410 327 
                                                                                
