 2014  1 6 0148  6.8 L   6.515 -73.579108.7  RSN  5 0.5 1.2LRSN                1
 GAP= 92        1.32       5.8     5.3 11.4 -0.1324E+01  0.1965E+02 -0.2455E+02E
 Epicentro: EL CARMEN DE CHUCURI - SANTANDER                                   3
 ACTION:UPD 14-03-13 09:52 OP:ep   STATUS:               ID:20140106014806 L   I
 OLDACT:DUP 14-01-06 10:16 OP:carl STATUS:               ID:20140106014001d    3
 2014-01-06-0140-00M.COL___285                                                 6
 STAT SP IPHASW D HRMM SECON CODA AMPLIT PERI AZIMU VELO AIN AR TRES W  DIS CAZ7
 BAR2 SZ EP        148 23.15                             156    0.3610 44.7  79 
 BAR2 SZ ES        148 35.80                             156    0.5210 44.7  79 
 BAR2 SZ I         148 36.71         7.9 0.20            158           44.7  79 
 RUS  HZ EP        148 26.26                             138    0.2210 88.0 141 
 RUS  HE ES        148 40.31                             138   -0.7510 88.0 141 
 RUS  HZ I         148 43.30         1.4 0.40            145           88.0 141 
 PTB  HZ EP        148 25.55                             135   -0.5910 97.1 272 
 PTB  HN ES        148 40.84                             135   -0.4110 97.1 272 
 PTB  HZ I         148 45.46         2.5 0.10            136           97.1 272 
 NOR  HN ES        148 56.50                             117    0.88 9  177 234 
 SML  HZ EP        148 43.03                             107   -0.32 8  259 348 
 SML  HN ES        149 12.15                             107    0.27 8  259 348 
 SML  HZ I         149 20.98         3.9 0.10            108            259 348 
                                                                                
