 2010  9 6 0345  6.4 L   6.813 -73.028140.9  RSN  7 0.2 1.3LRSN                1
 GAP=172        0.62       4.9    10.5 12.6  0.2495E+02 -0.9415E+02 -0.4155E+02E
 Epicentro: CEPITA - SANTANDER                                                 3
 ACTION:UP  11-02-18 11:00 OP:tino STATUS:               ID:20100906034506 L   I
 2010-09-06-0343-40S.COL___120                                                 6
 STAT SP IPHASW D HRMM SECON CODA AMPLIT PERI AZIMU VELO SNR AR TRES W  DIS CAZ7
 BTL  SZ EP   1    345 25.85                             168     0.3 8   29 294 
 BAR2 SZ EP   2    345 25.33                             167    -0.2 5   30 215 
 BAR2 SZ I         345 57.10         3.5 0.32                            30 215 
 BRR  HZ EP   1    345 27.44                             148    -0.2 8   82 293 
 BRR  HN ES   1    345 44.27                             148     0.0 8   82 293 
 BRR  HZ I         345 48.85         7.3 0.31                            82 293 
 RUS  HZ EP   1    345 29.78                             142     0.0 8  102 183 
 RUS  HN ES   1    345 47.95                             142     0.0 8  102 183 
 RUS  HZ I         345 49.61         1.5 0.43                           102 183 
 GUE  SZ EP   1    345 30.62                             139     0.3 8  113   6 
 GUE  SZ I         345 31.72         2.1 0.07                           113   6 
 GRA  SZ EP        345 30.46                             137    -0.310  121  12 
 GRA  SZ I         345 52.60         4.0 0.46                           121  12 
 OCA  SZ EP        345 34.52                             128     0.2 9  161 348 
 OCA  SZ I         346  3.49         5.0 0.32                           161 348 
                                                                                
