 2015  4 6 0411 59.6 L   6.818 -73.141148.4  RSN 13 0.4 1.8LRSN                1
 GAP=136        0.95       2.8     3.7  5.1 -0.2494E+01  0.6482E+01 -0.1857E+01E
 Epicentro: LOS SANTOS - SANTANDER                                             3
 ACTION:UPD 15-06-03 16:53 OP:cam  STATUS:               ID:20150406041159 L   I
 OLDACT:UP  15-04-06 17:33 OP:mh   STATUS:               ID:20150406040736     3
 OLDACT:UP  15-04-06 17:12 OP:akv  STATUS:               ID:20150406040736     3
 OLDACT:REG 15-04-06 12:50 OP:mher STATUS:               ID:20150406040736     3
 2015-04-06-0407-36M.COL___261                                                 6
 STAT SP IPHASW D HRMM SECON CODA AMPLIT PERI AZIMU VELO AIN AR TRES W  DIS CAZ7
 BAR2 EZ IP     D  412 19.48                             170   -0.0910 25.4 190 
 BAR2 EZ ES        412 35.11                             170   -0.0510 25.4 190 
 BAR2 EZ I         412 37.81         9.0 0.28            168           25.4 190 
 BRR  HZ IP     D  412 21.30                             153    0.3210 70.7 297 
 BRR  HN ES        412 37.91                             153    0.2310 70.7 297 
 BRR  HZ I         412 43.18         7.7 0.20            150           70.7 297 
 PAM  SZ EP     C  412 22.37                             152    0.4010 75.6  40 
 PAM  SN ES        412 39.48                             152    0.0510 75.6  40 
 PAM  SZ I         412 40.39         7.0 0.16            157           75.6  40 
 RUS  HZ EP   1    412 23.84                             144    0.11 7  103 176 
 RUS  HN ES        412 42.17                             144   -0.3910  103 176 
 RUS  HZ I         412 44.35         3.4 0.28            147            103 176 
 PTB  HZ EP        412 26.24                             132   -0.60 9  149 258 
 PTB  HN ES        412 47.64                             132   -0.46 9  149 258 
 PTB  HZ I         412 52.02         8.5 0.12            132            149 258 
 OCA  HZ EP        412 27.71                             131   -0.21 9  158 353 
 OCA  HN ES        412 49.57                             131   -0.45 9  158 353 
 OCA  HZ I         412 53.38         9.3 0.18            133            158 353 
 SPBC HZ EP        412 28.44                             129   -0.01 9  165 219 
 SPBC HE ES        412 51.74                             129    0.76 9  165 219 
 SPBC HZ I         412 56.99         9.2 0.10            131            165 219 
 ZAR  HZ EP        412 32.36                             123    0.19 9  204 292 
 ZAR  HE ES        412 58.12                             123    0.54 9  204 292 
 ZAR  HZ I         413  3.45         8.9 0.68            124            204 292 
 NOR  HZ EP        412 35.43                             119   -0.20 8  236 234 
 NOR  HN ES        413  3.49                             119   -0.25 8  236 234 
 NOR  HZ I         413  8.85         5.7 0.30            120            236 234 
 SML  HZ EP        412 36.14                             118   -0.04 8  242 335 
 SML  HE ES        413  5.01                             118    0.28 8  242 335 
 SML  HZ I         413  7.12         7.7 0.10            120            242 335 
 HEL  HZ EP   1    412 40.85                             115    0.82 6  273 255 
 HEL  HE ES   1    413 10.64                             115   -0.94 6  273 255 
 HEL  HZ I         413 18.06         3.4 0.28            116            273 255 
 URE  HZ EP   1    412 40.00                             114   -0.74 6  284 292 
 URE  HN ES   4    413 10.85                             114   -2.00 0  284 292 
 URE  HZ I         413 23.30         3.4 0.26            115            284 292 
 GUY2CHZ EP   4    412 45.77                             113    2.29 0  303 235 
 GUY2CHN ES   1    413 18.41                             113    0.68 5  303 235 
 GUY2CHZ I         413 25.87         3.8 0.58                           303 235 
 RREF HN ES   4    413 25.22                             111    2.97 0  323 229 
                                                                                
