 2017  8 6 0851 45.7 L   6.745 -73.174146.8  RSN  4 0.3 1.1LRSN                1
 GAP=230        0.89       7.2     7.0  8.0  0.2014E+02  0.1171E+02 -0.4173E+01E
 Epicentro: LOS SANTOS - SANTANDER                                             3
 ACTION:UPD 17-09-04 20:17 OP:rebc STATUS:               ID:20170806085145 L   I
 OLDACT:REG 17-08-06 12:43 OP:osc  STATUS:               ID:20170806084745     3
 2017-08-06-0848-00M.COL___380                                                 6
 STAT SP IPHASW D HRMM SECON CODA AMPLIT PERI AZIMU VELO AIN AR TRES W  DIS CAZ7
 BAR2 EZ EP        852  5.30                             173   -0.0610 16.9 183 
 BAR2 EZ ES        852 20.09                             173   -0.5910 16.9 183 
 BAR2 EZ I         852 21.05         3.2 0.36            172           16.9 183 
 BRR  HZ EP        852  7.07                             153    0.0710 71.6 304 
 BRR  HN ES        852 24.06                             153    0.4510 71.6 304 
 BRR  HZ I         852 27.96         3.1 0.17            149           71.6 304 
 RUS  HN ES        852 27.86                             146    0.4110 94.8 174 
 PTB  HZ EP        852 12.25                             133   -0.14 9  144 261 
 PTB  HN ES        852 33.03                             133   -0.17 9  144 261 
 PTB  HZ I         852 37.71         1.1 0.40            132            144 261 
                                                                                
