 2013  7 6 0035  1.5 L   6.734 -73.134143.0  RSN  5 0.5 1.3LRSN                1
 GAP=141        1.18       7.3     7.5 10.1  0.1299E+01  0.1531E+02  0.1748E+02E
 Epicentro: JORDAN - SANTANDER                                                 3
 ACTION:UPD 13-08-12 10:35 OP:ep   STATUS:               ID:20130706003501 L   I
 OLDACT:REG 13-07-06 07:42 OP:jn   STATUS:               ID:20130706002959     3
 2013-07-06-0029-59M.COL___266                                                 6
 STAT SP IPHASW D HRMM SECON CODA AMPLIT PERI AZIMU VELO AIN AR TRES W  DIS CAZ7
 BAR2 SZ EP        035 20.70                             173   -0.0110 16.5 199 
 BAR2 SZ ES        035 35.12                             173   -0.5510 16.5 199 
 BAR2 SZ I         035 38.31         4.9 0.20            172           16.5 199 
 BRR  HZ EP        035 22.58                             150   -0.0910 76.1 303 
 BRR  HN ES        035 39.99                             150    0.8310 76.1 303 
 BRR  HZ I         035 42.83         5.2 0.33            151           76.1 303 
 PAM  SN ES        035 40.81                             149   -0.3010 82.4  36 
 PAM  SZ I         035 42.87         4.8 0.52            153           82.4  36 
 RUS  HZ EP     D  035 25.06                             145    0.5810 93.2 177 
 RUS  HN ES   1    035 42.52                             145    0.13 7 93.2 177 
 RUS  HZ I         035 44.55         2.1 0.64            148           93.2 177 
 PTB  HZ EP   1    035 27.53                             131   -0.75 7  148 262 
 PTB  HN ES   1    035 48.77                             131   -0.37 7  148 262 
 PTB  HZ I         035 52.11         3.0 0.16            133            148 262 
                                                                                
