 2012  4 6 0530 54.2 L   6.475 -73.619102.9  RSN  5 0.3 1.1LRSN                1
 GAP=137        0.62       4.4     3.8  6.8  0.8991E+01  0.1023E+02  0.4569E+01E
 Epicentro: SANTA HELENA DEL OPON - SANTANDER                                  3
 ACTION:UPD 12-07-05 11:50 OP:tino STATUS:               ID:20120406053054 L   I
 2012-04-06-0530-00M.COL___196                                                 6
 STAT SP IPHASW D HRMM SECON CODA AMPLIT PERI AZIMU VELO AIN AR TRES W  DIS CAZ7
 BAR2 SZ EP   1    531  9.64                             152    -0.2 7   50  75 
 BAR2 SZ ES   1    531 21.91                             152    -0.2 7   50  75 
 BRR  HZ EP   1    531 10.44                             143    -0.4 7   71 352 
 BRR  HZ I         531 18.52         4.4 0.12                            71 352 
 BRR  HN ES   1    531 24.17                             143     0.3 7   71 352 
 RUS  HZ EP   1    531 13.02                             137     0.1 7   88 137 
 RUS  HZ I         531 26.21         1.5 0.89                            88 137 
 RUS  HN ES   1    531 27.75                             137     0.3 7   88 137 
 PTB  HZ EP   1    531 12.56                             134    -0.1 7   93 274 
 PTB  HN ES   1    531 26.92                             134    -0.2 7   93 274 
 PTB  HZ I         531 28.98         2.1 0.08                            93 274 
 ZAR  HZ EP   1    531 21.49                             115     0.2 7  177 309 
 ZAR  HN ES   1    531 42.66                             115     0.3 7  177 309 
 ZAR  HZ I         531 46.73         3.5 0.35                           177 309 
                                                                                
