 2017 11 6 0823 59.0 L   6.703 -73.174150.5  RSN  4 0.2 1.2LRSN                1
 GAP=237        0.50       5.7     3.6  4.3  0.7788E+01  0.3755E+01  0.8354E+00E
 Epicentro: VILLANUEVA - SANTANDER                                             3
 ACTION:UPD 17-12-12 19:52 OP:rebc STATUS:               ID:20171106082359 L   I
 OLDACT:REG 17-11-06 13:14 OP:dnl  STATUS:               ID:20171106081739     3
 2017-11-06-0818-00M.COL___426                                                 6
 STAT SP IPHASW D HRMM SECON CODA AMPLIT PERI AZIMU VELO AIN AR TRES W  DIS CAZ7
 BAR2 EZ EP        824 19.05                             175    0.0410 12.2 184 
 BAR2 EZ ES        824 34.40                             175   -0.2310 12.2 184 
 BAR2 EZ I         824 36.39         7.0 0.74            177           12.2 184 
 BRR  HZ EP        824 20.81                             152   -0.0010 74.4 307 
 BRR  HN ES        824 38.13                             152    0.2910 74.4 307 
 BRR  HZ I         824 40.10         2.1 0.42            150           74.4 307 
 PTB  HZ EP        824 26.05                             134    0.15 9  143 263 
 PTB  HN ES        824 46.91                             134    0.01 9  143 263 
 PTB  HZ I         824 48.76         1.0 0.18            134            143 263 
 ZAR  HZ EP   2    824 31.57                             123   -0.31 4  205 295 
 ZAR  HE ES        824 57.29                             123   -0.25 8  205 295 
 ZAR  HZ I         825  2.33         1.6 0.46            123            205 295 
                                                                                
