 2017  2 6 0400 49.9 L   6.751 -73.200146.1  RSN  6 0.4 1.3LRSN                1
 GAP=227        1.03       5.6     6.6  7.9  0.1951E+02  0.9626E+01  0.1259E+02E
 Epicentro: VILLANUEVA - SANTANDER                                             3
 ACTION:UPD 17-05-24 15:33 OP:jn   STATUS:               ID:20170206040049 L   I
 OLDACT:UP  17-02-06 18:02 OP:edw  STATUS:               ID:20170206035742     3
 OLDACT:REG 17-02-06 11:49 OP:edw  STATUS:               ID:20170206035742     3
 2017-02-06-0358-00M.COL___325                                                 6
 STAT SP IPHASW D HRMM SECON CODA AMPLIT PERI AZIMU VELO AIN AR TRES W  DIS CAZ7
 BAR2 EZ EP        4 1  9.12                             173   -0.3410 17.7 174 
 BAR2 EZ ES        4 1 24.40                             173   -0.3210 17.7 174 
 BAR2 EZ I         4 1 26.69         5.1 0.26            172           17.7 174 
 BRR  HZ EP     C  4 1 11.02                             153    0.0710 69.0 305 
 BRR  HN ES        4 1 27.75                             153    0.3810 69.0 305 
 BRR  HZ I         4 1 31.88         5.5 0.28            155           69.0 305 
 RUS  HZ EP        4 1 13.47                             145    0.1310 95.8 172 
 RUS  HN ES        4 1 31.83                             145    0.2110 95.8 172 
 RUS  HZ I         4 1 33.74         3.2 0.50            147           95.8 172 
 PTB  HN ES        4 1 37.27                             133    0.42 9  141 261 
 ZAR  HN ES        4 1 46.45                             123   -0.62 9  201 294 
 CHI  HZ EP        4 1 27.53                             118    0.65 8  242 194 
 CHI  HN ES        4 1 55.00                             118   -0.73 8  242 194 
 CHI  HZ I         4 1 59.12         1.2 0.34            120            242 194 
                                                                                
