 2010  3 6 0632 42.8 L   6.802 -73.056147.7  RSN 13 0.5 2.7LRSN                1
 GAP=133        1.10       3.8     6.0  6.1 -0.4226E+01  0.5003E+01  0.2437E+01E
 Epicentro: LOS SANTOS - SANTANDER                                             3
 ACTION:UP  10-08-24 09:52 OP:vdl  STATUS:               ID:20100306063242 L   I
 2010-03-06-0629-59S.COL___101                                                 6
 STAT SP IPHASW D HRMM SECON CODA AMPLIT PERI AZIMU VELO SNR AR TRES W  DIS CAZ7
 BAR2 SZ IP        633  2.72                             169    -0.110   27 211 
 BAR2 SZ ES   1    633 18.17                             169    -0.2 7   27 211 
 BRR  HZ EP        633  4.63                             150    -0.110   80 295 
 BRR  HZ I         633  4.92       149.5 0.29                            80 295 
 BRR  HN ES        633 21.96                             150     0.210   80 295 
 RUS  BZ EP        633  6.57                             144    -0.210  101 182 
 RUS  BE ES        633 25.51                             144     0.110  101 182 
 RUS  BZ I         633 26.34        22.9 0.28                           101 182 
 OCA  SZ EP        633 11.26                             130    -0.2 9  162 350 
 OCA  SZ ES   1    633 34.14                             130     0.4 7  162 350 
 OCA  SZ I         633 38.95       119.1 0.46                           162 350 
 CHI  HZ EP        633 20.66                             117    -0.3 8  252 197 
 CHI  HE ES   1    633 50.42                             117    -0.3 6  252 197 
 CHI  HZ I         633 57.94        15.8 0.05                           252 197 
 ROSC BZ EP        633 22.35                             116     0.7 8  258 213 
 ROSC BN ES   1    633 51.60                             116    -0.3 6  258 213 
 ROSC BZ I         634  0.45        23.3 0.77                           258 213 
 HEL  HZ EP        633 24.03                             114    -0.2 7  282 256 
 HEL  HE ES   1    633 55.55                             114    -0.9 6  282 256 
 HEL  HZ I         634  0.50        27.3 0.77                           282 256 
 RREF BZ EP        633 30.24                             111     0.3 7  329 230 
 RREF BN ES        634  7.50                             111     0.8 7  329 230 
 RREF BZ I         634 14.93        26.6 0.26                           329 230 
 DBB  SZ EP        633 30.52                             109    -1.0 6  349 274 
 TOL  SZ EP        633 33.21                             109     1.2 6  351 226 
 SDV  BZ EP        633 32.12                             109     0.1 6  353  49 
 ANIL BZ EP   1    633 33.95                             108     0.4 5  364 226 
 ANIL BZ I         634 18.51        29.7 0.44                           364 226 
 PRA  HZ EP   1    633 36.32                             107    -0.7 4  397 211 
 PRA  HN ES   1    634 18.65                             107    -0.6 4  397 211 
 PRA  HZ I         634 21.64        11.8 0.49                           397 211 
                                                                                
