 2014  9 6 0906 30.3 L   6.818 -73.143145.2  RSN 25 0.5 2.5LRSN                1
 GAP= 71        1.05       2.4     2.8  5.0 -0.8407E+00  0.3027E+01  0.1158E+01E
 Epicentro: LOS SANTOS - SANTANDER                                             3
 ACTION:UPD 14-10-03 23:02 OP:nd   STATUS:               ID:20140906090630 L   I
 OLDACT:REG 14-09-06 13:00 OP:fm   STATUS:               ID:20140906085808     3
 2014-09-06-0858-08M.COL___266                                                 6
 STAT SP IPHASW D HRMM SECON CODA AMPLIT PERI AZIMU VELO AIN AR TRES W  DIS CAZ7
 BAR2 SZ EP        9 6 50.01                             170    0.0910 25.4 190 
 BAR2 SZ ES   1    9 7  5.38                             170    0.17 7 25.4 190 
 BAR2 SZ I         9 7  6.59        83.2 0.30            170           25.4 190 
 BRR  HZ EP        9 6 51.86                             153    0.4910 70.5 297 
 BRR  HN ES        9 7  8.58                             153    0.7910 70.5 297 
 BRR  HZ I         9 7 12.07        54.9 0.26            150           70.5 297 
 PAM  SZ EP        9 6 52.96                             151    0.5910 75.6  40 
 PAM  SN ES   1    9 7  8.98                             151   -0.59 7 75.6  40 
 PAM  SZ I         9 7 12.17        64.7 0.50            148           75.6  40 
 RUS  HZ EP        9 6 53.94                             143   -0.2210  103 176 
 RUS  HN ES        9 7 12.37                             143   -0.3810  103 176 
 RUS  HZ I         9 7 13.79        27.5 0.28            141            103 176 
 PTB  HZ EP   1    9 6 56.09                             132   -1.21 7  148 258 
 PTB  HN ES   1    9 7 17.18                             132   -1.17 7  148 258 
 PTB  HZ I         9 7 24.43        34.5 0.34            129            148 258 
 TAM  HZ EP     D  9 6 58.46                             130    0.49 9  155 106 
 TAM  HN ES        9 7 19.75                             130    0.21 9  155 106 
 TAM  HZ I         9 7 20.26        17.1 0.66            127            155 106 
 OCA  HZ EP        9 6 57.84                             130   -0.56 9  158 353 
 OCA  HN ES        9 7 19.91                             130   -0.39 9  158 353 
 OCA  HZ I         9 7 23.44        35.1 0.20            126            158 353 
 SPBC HZ EP        9 6 58.91                             129   -0.03 9  165 219 
 SPBC HN ES        9 7 21.23                             129   -0.04 9  165 219 
 SPBC HZ I         9 7 25.40        53.2 0.18            126            165 219 
 ZAR  HZ EP        9 7  2.58                             122   -0.10 9  204 292 
 ZAR  HN ES        9 7 27.89                             122   -0.03 9  204 292 
 ZAR  HN IS        9 7 27.94                                            204 292 
 ZAR  HZ I         9 7 33.23        38.9 0.26            119            204 292 
 NOR  HZ EP        9 7  6.20                             118    0.03 8  236 234 
 NOR  HN ES        9 7 34.29                             118    0.16 8  236 234 
 NOR  HZ I         9 7 39.45        20.6 0.18            116            236 234 
 SML  HZ EP        9 7  6.21                             117   -0.51 8  242 335 
 SML  HE ES        9 7 35.63                             117    0.51 8  242 335 
 SML  HZ I         9 7 37.04        36.0 0.34            114            242 335 
 CHI  HZ EP        9 7  7.65                             117   -0.55 8  251 195 
 CHI  HN ES   4    9 7 35.66                             117   -2.10 0  251 195 
 CHI  HZ I         9 7 41.04        26.2 0.62            114            251 195 
 ROSC BZ EP   1    9 7  8.94                             116    0.33 6  255 211 
 ROSC BE ES        9 7 38.42                             116   -0.06 8  255 211 
 ROSC BZ I         9 7 44.50        58.3 0.45            114            255 211 
 HEL  HZ EP   1    9 7 11.29                             115    0.70 6  273 255 
 HEL  HN ES        9 7 41.98                             115   -0.02 8  273 255 
 HEL  HZ I         9 7 48.12        20.5 0.30            112            273 255 
 URE  HZ EP   4    9 7  8.41                             113   -2.90 0  283 292 
 URE  HE ES   4    9 7 40.73                             113   -2.55 0  283 292 
 URE  HZ I         9 7 48.32        18.3 0.14            111            283 292 
 GUY2CHZ EP        9 7 14.53                             112    0.47 7  303 234 
 GUY2CHE ES        9 7 48.59                             112    0.41 7  303 234 
 GUY2CHZ I         9 7 56.27        21.3 0.36                           303 234 
 VIL  SZ EP   4    9 7 11.80                             112   -2.14 0  305 192 
 VIL  SN ES        9 7 47.33                             112   -0.63 7  305 192 
 VIL  SZ I         9 7 57.66        38.5 0.40            109            305 192 
 CBOC HZ EP        9 7 17.72                             110    0.41 7  335 252 
 CBOC HE ES   4    9 7 52.27                             110   -1.70 0  335 252 
 CBOC HZ I         9 7 58.61         4.1 0.52            107            335 252 
 DBB  SZ ES   1    9 7 54.12                             109   -0.70 5  340 274 
 TOL  SZ EP        9 7 19.32                             109    0.58 7  345 224 
 TOL  SN ES   4    9 7 57.99                             109    1.48 0  345 224 
 MON  HN ES   4    9 7 54.45                             109   -2.84 0  353 308 
 ARGC HZ EP   1    9 7 20.07                             108    0.33 5  357 340 
 ARGC HN ES   4    9 7 59.16                             108    0.87 0  357 340 
 ARGC HZ I         9 8  8.17         6.8 0.56            106            357 340 
 SDV  BZ EP   1    9 7 19.21                             108   -0.94 5  359  50 
 SDV  BN ES   4    9 7 54.64                             108   -4.39 0  359  50 
 SDV  BZ I         9 8  0.22         6.6 0.35            106            359  50 
 ANIL HN ES   1    9 7 59.06                             108   -0.21 5  359 224 
 ANIL HZ I         9 8  4.68         5.1 0.40            106            359 224 
 ORTC HZ EP        9 7 24.30                             106   -0.13 6  397 216 
 ORTC HN ES        9 8  7.08                             106    0.44 6  397 216 
 ORTC HZ I         9 8 11.42        14.5 0.26            104            397 216 
 SJC  HZ EP   4    9 7 23.63                             106   -2.05 0  408 327 
 SJC  HN ES   4    9 8  4.76                             106   -4.10 0  408 327 
 SJC  HZ I         9 8 11.80         6.3 0.54            103            408 327 
                                                                                
