 2013 10 6 0225 45.8 L   6.711 -73.187146.6  RSN  6 0.3 1.8LRSN                1
 GAP=182        0.87       4.6     5.2  6.2 -0.1593E+01  0.1725E+01 -0.2716E+01E
 Epicentro: VILLANUEVA - SANTANDER                                             3
 ACTION:UPD 13-11-25 09:19 OP:ep   STATUS:               ID:20131006022545 L   I
 OLDACT:REG 13-10-06 06:56 OP:nd   STATUS:               ID:20131006021959     3
 2013-10-06-0219-59M.COL___273                                                 6
 STAT SP IPHASW D HRMM SECON CODA AMPLIT PERI AZIMU VELO AIN AR TRES W  DIS CAZ7
 BAR2 SZ EP        226  5.13                             175   -0.2810 13.1 178 
 BAR2 SZ ES        226 20.47                             175   -0.2010 13.1 178 
 BAR2 SZ I         226 22.43        10.1 0.28            171           13.1 178 
 BRR  HZ EP        226  7.21                             152    0.0510 72.7 307 
 BRR  HN ES        226 24.29                             152    0.5010 72.7 307 
 BRR  HZ I         226 29.09         7.1 0.12            149           72.7 307 
 PTB  HZ EP        226 11.80                             133   -0.53 9  142 262 
 PTB  HN ES        226 32.59                             133   -0.39 9  142 262 
 PTB  HZ I         226 38.39         6.0 0.32            132            142 262 
 SPBC HZ EP        226 14.05                             131    0.63 9  153 220 
 SPBC HN ES        226 35.10                             131    0.17 9  153 220 
 SPBC HZ I         226 40.15        11.8 0.06            132            153 220 
 OCA  HZ EP        226 15.15                             128    0.04 9  170 355 
 OCA  HN ES   4    226 35.46                             128   -2.47 0  170 355 
 OCA  HZ I         226 37.46         5.3 0.16            131            170 355 
 ZAR  HZ EP   2    226 18.44                             123    0.12 4  204 295 
 ZAR  HN ES        226 43.64                             123   -0.00 9  204 295 
 ZAR  HZ I         226 49.95         9.0 0.26            123            204 295 
                                                                                
