 2015  8 6 0544 52.1 L   6.790 -73.067154.0  RSN  6 0.4 1.4LRSN                1
 GAP=191        0.95       5.5     9.4  9.4  0.1955E+02 -0.1472E+02 -0.2233E+02E
 Epicentro: LOS SANTOS - SANTANDER                                             3
 ACTION:UPD 15-09-15 23:00 OP:cam  STATUS:               ID:20150806054452 L   I
 OLDACT:REG 15-08-06 13:04 OP:spq  STATUS:               ID:20150806053747     3
 2015-08-06-0537-47M.COL___349                                                 6
 STAT SP IPHASW D HRMM SECON CODA AMPLIT PERI AZIMU VELO AIN AR TRES W  DIS CAZ7
 BAR2 EZ EP        545 12.94                             170    0.2110 25.4 210 
 BAR2 EZ ES   1    545 28.80                             170   -0.04 7 25.4 210 
 BAR2 EZ I         545 29.66         3.1 0.36            167           25.4 210 
 BRR  HZ EP     C  545 14.81                             151    0.2410 79.4 296 
 BRR  HN ES        545 32.74                             151    0.6210 79.4 296 
 BRR  HZ I         545 35.95         4.6 0.58            147           79.4 296 
 RUS  HN ES   1    545 34.96                             146   -0.68 7 99.3 181 
 RUS  HZ I         545 36.48         2.5 0.68            147           99.3 181 
 OCA  HZ EP   1    545 21.61                             131    0.37 7  163 350 
 OCA  HE ES        545 43.50                             131   -0.49 9  163 350 
 OCA  HZ I         545 47.20         5.7 0.26            131            163 350 
 ZAR  HE ES   1    545 51.61                             123   -0.72 6  213 292 
 ZAR  HZ I         545 58.03         4.0 0.30            122            213 292 
 SML  HZ EP   1    545 29.52                             119   -0.15 6  248 334 
 SML  HN ES   1    545 58.74                             119   -0.26 6  248 334 
                                                                                
