 2015  9 6 0531  8.9 L   6.280 -73.715114.9  RSN  5 0.5 1.0LRSN                1
 GAP= 88        1.45       7.7     6.0 12.8 -0.5032E+00  0.7279E+01 -0.1967E+02E
 Epicentro: LANDAZURI - SANTANDER                                              3
 ACTION:UPD 15-10-28 16:24 OP:cam  STATUS:               ID:20150906053108 L   I
 OLDACT:REG 15-09-06 13:15 OP:stll STATUS:               ID:20150906052741     3
 2015-09-06-0527-41M.COL___355                                                 6
 STAT SP IPHASW D HRMM SECON CODA AMPLIT PERI AZIMU VELO AIN AR TRES W  DIS CAZ7
 BAR2 EZ EP        531 27.61                             147    0.6210 68.3  60 
 BAR2 EZ ES        531 41.74                             147    0.6610 68.3  60 
 BAR2 EZ I         531 42.74         3.9 0.14            153           68.3  60 
 SPBC HZ EP        531 27.62                             143    0.0310 79.8 210 
 SPBC HN ES        531 42.64                             143    0.5010 79.8 210 
 SPBC HZ I         531 47.30         3.3 0.18            144           79.8 210 
 RUS  HZ EP        531 28.09                             142   -0.2210 82.0 121 
 RUS  HZ I         531 28.17         1.4 0.16            146           82.0 121 
 RUS  HE ES        531 42.61                             142   -0.8210 82.0 121 
 PTB  HZ EP        531 28.46                             140    0.4410 86.9 289 
 PTB  HN ES        531 42.36                             140   -0.5510 86.9 289 
 PTB  HZ I         531 45.25         1.1 0.14            143           86.9 289 
 BRR  HZ EP        531 27.71                             139   -0.6510 91.5   0 
 BRR  HZ I         531 28.56         4.0 0.56            144           91.5   0 
                                                                                
