 2014  4 6 0322 39.7 L   6.812 -73.168142.7  RSN  8 0.4 1.9LRSN                1
 GAP=133        0.92       2.8     3.8  6.9 -0.1223E+01  0.7337E+01 -0.8190E-01E
 Epicentro: LOS SANTOS - SANTANDER                                             3
 ACTION:UPD 14-05-13 23:06 OP:nd   STATUS:               ID:20140406032239 L   I
 OLDACT:REG 14-04-06 13:28 OP:carl STATUS:               ID:20140406031812     3
 2014-04-06-0318-12M.COL___244                                                 6
 STAT SP IPHASW D HRMM SECON CODA AMPLIT PERI AZIMU VELO AIN AR TRES W  DIS CAZ7
 PAM  SZ EP        323  2.08                             150    0.4310 78.0  42 
 PAM  SN ES        323 19.01                             150    0.2610 78.0  42 
 PAM  SZ I         323 21.43        10.8 0.42            151           78.0  42 
 RUS  HZ EP        323  3.25                             143   -0.0310  102 175 
 RUS  HN ES        323 21.02                             143   -0.6410  102 175 
 RUS  HZ I         323 22.54         6.8 0.22            145            102 175 
 PTB  HZ EP        323  5.94                             132   -0.30 9  146 258 
 PTB  HN ES        323 26.55                             132   -0.37 9  146 258 
 PTB  HZ I         323 28.81        10.0 0.10            132            146 258 
 SPBC HZ EP        323  7.79                             128   -0.14 9  163 218 
 SPBC HE ES        323 30.40                             128    0.46 9  163 218 
 SPBC HZ I         323 32.73        12.2 0.14            129            163 218 
 ZAR  HN ES        323 37.07                             122    0.47 9  201 292 
 ZAR  HZ I         323 43.15        12.0 0.24            122            201 292 
 NOR  HZ EP        323 15.30                             118    0.16 8  233 234 
 NOR  HE ES        323 42.81                             118    0.05 8  233 234 
 NOR  HZ I         323 44.92         5.1 0.18            119            233 234 
 SML  HZ EP        323 15.18                             117   -0.75 8  241 336 
 SML  HE ES        323 44.08                             117   -0.10 8  241 336 
 SML  HZ I         323 52.59        11.7 0.10            118            241 336 
 CHI  HZ EP        323 17.68                             116    0.36 8  249 195 
 CHI  HE ES        323 46.85                             116    0.21 8  249 195 
 CHI  HZ I         323 54.47         2.4 0.42            118            249 195 
                                                                                
