 2011 12 6 0940 13.2 L   6.821 -72.988138.4  RSN  6 0.3 1.8LRSN                1
 GAP=157        0.56       3.0     6.2  6.5  0.1690E+01  0.2706E+01 -0.7899E-02E
 Epicentro: CEPITA - SANTANDER                                                 3
 ACTION:UPD 12-07-13 16:14 OP:ep   STATUS:               ID:20111206094013 L   I
 2011-12-06-0936-40S.COL___162                                                 6
 STAT SP IPHASW D HRMM SECON CODA AMPLIT PERI AZIMU VELO AIN AR TRES W  DIS CAZ7
 BAR2 SZ EP   1    940 32.29                             166    0.09 7 33.1 220 
 BAR2 SZ I         940 48.89        17.5 0.14                          33.1 220 
 GIR2 SZ EP   1    940 32.64                             164    0.48 7 36.4 322 
 PAM  SZ I         940 35.77        15.6 0.18                          65.6  29 
 PAM  SN ES   1    940 50.21                             153    0.07 7 65.6  29 
 BRR  HZ EP   1    940 34.31                             146   -0.19 7 86.0 292 
 BRR  HZ I         940 35.93        17.8 0.12                          86.0 292 
 BRR  HN ES   1    940 51.30                             146    0.19 7 86.0 292 
 RUS  HZ EP   1    940 36.59                             141    0.16 7  103 186 
 RUS  HN ES   1    940 54.17                             141   -0.38 7  103 186 
 RUS  HZ I         940 56.23         6.4 0.21                           103 186 
 OCA  SZ EP   1    940 40.83                             128   -0.19 7  161 347 
 OCA  SZ ES   1    941  2.41                             128   -0.31 7  161 347 
 OCA  SZ I         941  7.38         9.2 0.30                           161 347 
                                                                                
