 2015  3 6 0753 38.2 L   6.771 -73.215140.4  RSN  7 0.4 1.4LRSN                1
 GAP=192        1.12       4.1     6.8  7.3  0.6784E+01  0.6175E+01  0.3510E+01E
 Epicentro: ZAPATOCA - SANTANDER                                               3
 ACTION:UPD 15-04-30 16:23 OP:nd   STATUS:               ID:20150306075338 L   I
 OLDACT:REG 15-03-06 12:55 OP:spq  STATUS:               ID:20150306074746     3
 2015-03-06-0747-46M.COL___284                                                 6
 STAT SP IPHASW D HRMM SECON CODA AMPLIT PERI AZIMU VELO AIN AR TRES W  DIS CAZ7
 BAR2 EZ EP        753 57.27                             171    0.1510 20.1 170 
 BAR2 EZ ES        754 11.46                             171   -0.4210 20.1 170 
 BAR2 EZ I         754 13.53         7.0 0.22            171           20.1 170 
 BRR  HZ EP        753 59.06                             153    0.5710 66.3 304 
 BRR  HN ES        754 15.03                             153    0.7010 66.3 304 
 BRR  HZ I         754 17.44         2.8 0.36            150           66.3 304 
 RUS  HZ EP        754  1.51                             143    0.2610 98.2 171 
 RUS  HE ES        754 18.86                             143   -0.3710 98.2 171 
 RUS  HZ I         754 21.12         2.9 0.22            146           98.2 171 
 PTB  HZ EP        754  3.23                             132   -0.76 9  140 260 
 PTB  HN ES        754 24.01                             132   -0.10 9  140 260 
 PTB  HZ I         754 30.69         2.4 0.32            131            140 260 
 SPBC HZ EP        754  5.86                             129    0.27 9  156 218 
 SPBC HN ES        754 27.03                             129    0.07 9  156 218 
 SPBC HZ I         754 30.92         4.4 0.24            130            156 218 
 CHI  HZ EP        754 15.36                             116    0.31 8  244 194 
 CHI  HN ES        754 43.58                             116   -0.22 8  244 194 
 SML  HE ES        754 42.10                             116   -0.74 8  244 337 
 SML  HZ I         754 47.17         3.0 0.10            118            244 337 
                                                                                
