 2014  7 6 0408 46.3 L   6.708 -73.310 27.9  RSN  6 0.5 1.3LRSN                1
 GAP= 89        1.36       3.4     3.6  4.0  0.1396E+01  0.3030E+01  0.1712E+01E
 Epicentro: GALAN - SANTANDER                                                  3
 ACTION:UPD 15-03-16 20:41 OP:nd   STATUS:               ID:20140706040846 L   I
 OLDACT:REG 14-07-06 12:56 OP:cma  STATUS:               ID:20140706040000     3
 2014-07-06-0400-00M.COL___279                                                 6
 STAT SP IPHASW D HRMM SECON CODA AMPLIT PERI AZIMU VELO AIN AR TRES W  DIS CAZ7
 BAR2 SZ IP     C  4 8 52.28                             143    0.2510 19.1 132 
 BAR2 SZ ES        4 8 56.36                             143   -0.1110 19.1 132 
 BAR2 SZ I         4 8 57.44        16.2 0.20            145           19.1 132 
 BRR  HZ EP   1    4 8 56.94                             104   -0.09 7 62.6 315 
 BRR  HE ES        4 9  5.39                             104    0.0110 62.6 315 
 BRR  HZ I         4 9  9.88         5.6 0.14             98           62.6 315 
 RUS  HZ EP        4 9  1.74                              61   -0.1410 93.6 164 
 RUS  HE ES        4 9 13.33                              61   -0.6910 93.6 164 
 RUS  HZ I         4 9 14.35         5.3 0.22             92           93.6 164 
 PAM  SZ EP   1    4 9  2.58                              61    0.27 7 97.1  44 
 PAM  SN ES        4 9 14.97                              61    0.2010 97.1  44 
 PAM  SZ I         4 9 18.34         8.8 0.22             92           97.1  44 
 PTB  HZ EP        4 9  5.22                              61   -0.4010  128 262 
 PTB  HN ES        4 9 20.11                              61   -0.5510  128 262 
 SPBC HN ES        4 9 25.80                              61    1.43 9  144 216 
 SPBC HN I         4 9 28.17        15.0 0.10             61            144 216 
                                                                                
