 2013  8 6 0431 19.1 L   6.781 -73.387117.0  RSN  8 0.5 1.3LRSN                1
 GAP=100        1.15       5.7     6.3  9.2  0.9190E+01  0.8679E+01  0.2352E+01E
 Epicentro: ZAPATOCA - SANTANDER                                               3
 ACTION:UPD 14-01-14 08:59 OP:ep   STATUS:               ID:20130806043119 L   I
 OLDACT:REG 13-08-06 07:47 OP:jn   STATUS:               ID:20130806042959     3
 2013-08-06-0429-59M.COL___268                                                 6
 STAT SP IPHASW D HRMM SECON CODA AMPLIT PERI AZIMU VELO AIN AR TRES W  DIS CAZ7
 BAR2 SZ EP        431 35.82                             164    0.3310 30.7 133 
 BAR2 SZ ES        431 48.07                             164   -0.2110 30.7 133 
 BAR2 SZ I         431 49.36         9.6 0.26            167           30.7 133 
 GIR2 SZ EP   1    431 35.60                             160   -0.06 7 39.3  33 
 BRR  HZ EP        431 35.93                             155   -0.0710 50.9 315 
 BRR  HN ES        431 49.04                             155   -0.1410 50.9 315 
 BRR  HZ I         431 49.86         4.1 0.28            153           50.9 315 
 RUS  HZ EP        431 40.85                             136    0.4410  104 161 
 PTB  HZ EP   1    431 40.11                             130   -1.20 7  121 257 
 PTB  HN ES   1    431 59.73                             130    1.08 7  121 257 
 PTB  HZ I         432  1.21         3.0 0.30            129            121 257 
 SPBC HE ES   1    432  2.40                             125   -0.69 7  146 211 
 ZAR  HN ES   1    432  9.47                             118    0.19 7  181 296 
 ZAR  HZ I         432 13.12         3.2 0.10            118            181 296 
 SML  HE ES   1    432 20.11                             111   -0.02 6  236 341 
                                                                                
