 2013  4 6 0630 30.5 L   6.726 -73.194151.2  RSN  4 0.3 1.2LRSN                1
 GAP=226        0.79       7.4     6.4  7.3  0.2241E+02  0.3891E+01  0.9777E+01E
 Epicentro: VILLANUEVA - SANTANDER                                             3
 ACTION:UPD 13-05-22 14:36 OP:EP   STATUS:               ID:20130406063030 L   I
 2013-04-06-0630-00M.COL___245                                                 6
 STAT SP IPHASW D HRMM SECON CODA AMPLIT PERI AZIMU VELO AIN AR TRES W  DIS CAZ7
 BAR2 SZ EP   1    630 50.28                             174   -0.36 7 14.8 175 
 BAR2 SZ ES   1    631  5.66                             174   -0.70 7 14.8 175 
 BAR2 SZ I         631  6.89         3.9 0.26            169           14.8 175 
 BRR  HZ EP   1    630 52.39                             154    0.17 7 71.1 306 
 BRR  HN ES        631  9.53                             154    0.3610 71.1 306 
 BRR  HZ I         631 11.99         2.4 0.40            151           71.1 306 
 RUS  HZ EP        630 54.45                             147    0.1910 92.9 172 
 RUS  HE ES   1    631 13.23                             147    0.43 7 92.9 172 
 RUS  HZ I         631 14.06         1.8 0.62            146           92.9 172 
 PTB  HZ EP        630 57.11                             135   -0.21 9  141 262 
 PTB  HN ES        631 18.12                             135   -0.12 9  141 262 
 PTB  HZ I         631 24.56         2.3 0.45            132            141 262 
                                                                                
