 2012  8 6 0235 11.0 L   7.451 -73.202127.4  RSN  5 0.2 2.3LRSN                1
 GAP=132        0.49       3.3     2.5  4.1 -0.2243E+01  0.4123E+01 -0.7912E+00E
 Epicentro: EL PLAYON - SANTANDER                                              3
 ACTION:UPD 12-09-10 11:54 OP:ep   STATUS:               ID:20120806023511 L   I
 2012-08-06-0230-00M.COL___216                                                 6
 STAT SP IPHASW D HRMM SECON CODA AMPLIT PERI AZIMU VELO AIN AR TRES W  DIS CAZ7
 PAM  SZ EP        235 30.31                             155    0.2310 56.8 102 
 PAM  SN ES        235 44.85                             155   -0.1110 56.8 102 
 BRR  HZ EP        235 30.12                             150    0.1310 67.9 236 
 BRR  HE ES        235 44.88                             150    0.0710 67.9 236 
 BRR  HZ I         235 46.55        58.4 0.14                          67.9 236 
 OCA  HZ EP   1    235 31.68                             143    0.11 7 88.1 352 
 OCA  HN ES   1    235 47.38                             143   -0.24 7 88.1 352 
 OCA  HZ I         235 51.39        64.4 0.14                          88.1 352 
 PTB  HZ EP        235 38.52                             123   -0.37 9  171 234 
 PTB  HN ES   1    236  0.57                             123   -0.07 7  171 234 
 PTB  HZ I         236  2.52        10.5 0.23                           171 234 
 ZAR  HZ EP        235 40.04                             121   -0.03 9  183 272 
 ZAR  HE ES   1    236  3.00                             121    0.26 7  183 272 
 ZAR  HZ I         236  6.90        23.6 0.39                           183 272 
                                                                                
