 2010  7 6 0832 50.8 L   7.315 -73.919  0.0  RSN  4 0.3 0.8LRSN                1
 GAP=258        0.50       2.6    10.2  9.5  0.3985E+01 -0.7403E+02 -0.3069E+01E
 Epicentro: PUERTO WILCHES - SANTANDER                                         3
 ACTION:UPD 10-12-01 15:15 OP:pat  STATUS:               ID:20100706083250 L   I
 2010-07-06-0831-10S.COL___118                                                 6
 STAT SP IPHASW D HRMM SECON CODA AMPLIT PERI AZIMU VELO AIN AR TRES W  DIS CAZ7
 BRR  HZ EP   1    832 56.63                              47    -0.3 7   32 135 
 BRR  HN ES   2    833  2.00                              47     0.4 5   32 135 
 BRR  HZ I         833  2.50        11.1 0.15                            32 135 
 OCA  SZ EP   1    833 10.61                              47     0.0 7  122  33 
 OCA  SZ ES   2    833 26.04                              47     0.0 5  122  33 
 GUE  SZ EP   1    833 10.97                              47    -0.1 7  124  63 
 BRI  SZ EP   1    833 12.45                              47     0.3 7  132  70 
 BRI  SZ ES   2    833 28.33                              47    -0.4 5  132  70 
                                                                                
