 2017 10 6 0959 57.4 L   6.657 -74.059  4.0  RSN  9 0.5 1.7LRSN                1
 GAP=107        1.02       2.6     2.0  5.2  0.4807E+00 -0.6563E+00  0.2508E+01E
 Epicentro: PUERTO PARRA - SANTANDER                                           3
 ACTION:UPD 17-11-07 19:28 OP:rebc STATUS:               ID:20171006095957 L   I
 OLDACT:UP  17-10-06 21:05 OP:osc  STATUS:               ID:20171006095126     3
 OLDACT:REG 17-10-06 19:48 OP:osc  STATUS:               ID:20171006095126     3
 2017-10-06-0958-00M.COL___399                                                 6
 STAT SP IPHASW D HRMM SECON CODA AMPLIT PERI AZIMU VELO AIN AR TRES W  DIS CAZ7
 BAR2 EZ EP       10 0 13.09                              47    0.1610 97.2  94 
 BAR2 EZ ES       10 0 24.73                              47   -0.3510 97.2  94 
 BAR2 EZ I        10 0 26.95        24.5 0.60             47           97.2  94 
 ZAR  HZ EP       10 0 17.19                              47   -0.1310  128 316 
 ZAR  HN ES       10 0 32.63                              47   -0.2610  128 316 
 ZAR  HZ I        10 0 34.39        11.6 0.10             47            128 316 
 RUS  HZ EP       10 0 19.74                              47    0.49 9  137 128 
 RUS  HE ES       10 0 35.61                              47   -0.71 9  137 128 
 RUS  HZ I        10 0 39.62        18.3 0.20             47            137 128 
 NOR  HZ EP       10 0 20.88                              47    0.06 9  151 217 
 NOR  HN ES   3   10 0 37.59                              47   -1.53 2  151 217 
 NOR  HZ I        10 0 40.39         6.4 0.14             47            151 217 
 PAM  EZ EP       10 0 24.56                              47    0.63 9  168  63 
 PAM  EN ES       10 0 44.36                              47   -0.30 9  168  63 
 PAM  EZ I        10 0 48.63        12.1 0.22             47            168  63 
 URE  HZ EP   3   10 0 29.38                              37    1.39 2  203 307 
 URE  HE ES   4   10 0 55.56                              37    3.68 0  203 307 
 GUY2CHZ EP       10 0 30.35                              37    0.34 8  214 222 
 GUY2CHE ES       10 0 55.21                              37   -0.26 8  214 222 
 GUY2CHZ I        10 0 58.43         6.4 0.30                           214 222 
 CHI  HN ES       10 0 58.34                              37    0.19 8  227 171 
 YPLC HE ES   2   10 1  0.20                              37    1.62 4  232 127 
                                                                                
