 2017 12 6 0938 34.7 L   6.695 -73.219138.0  RSN  4 0.4 1.2LRSN                1
 GAP=224        0.86       8.4     6.5  9.1  0.3141E+02  0.1720E+02 -0.1182E+02E
 Epicentro: VILLANUEVA - SANTANDER                                             3
 ACTION:UPD 18-01-04 13:17 OP:rebc STATUS:               ID:20171206093834 L   I
 OLDACT:DUP 17-12-06 18:10 OP:dnl  STATUS:               ID:20171206092739d    3
 2017-12-06-0928-00M.COL___480                                                 6
 STAT SP IPHASW D HRMM SECON CODA AMPLIT PERI AZIMU VELO AIN AR TRES W  DIS CAZ7
 BAR2 EZ EP        938 52.88                             175   -0.3710 12.1 160 
 BAR2 EZ ES        939  7.69                             175    0.0010 12.1 160 
 BAR2 EZ I         939 10.97         3.9 0.38            175           12.1 160 
 RUS  HZ EP   2    938 57.60                             145    0.63 5 90.0 170 
 RUS  HN ES        939 14.61                             145    0.3010 90.0 170 
 RUS  HZ I         939 17.18         1.6 0.30            150           90.0 170 
 PTB  HZ EP        938 59.93                             132   -0.25 9  138 263 
 PTB  HE ES        939 19.71                             132   -0.31 9  138 263 
 PTB  HZ I         939 24.16         1.3 0.32            134            138 263 
 ZAR  HZ EP   4    939  4.67                             121   -1.74 0  201 296 
 ZAR  HE ES        939 31.69                             121    0.58 9  201 296 
 ZAR  HZ I         939 36.73         3.5 0.48            124            201 296 
                                                                                
