 2016 11 6 0830 24.4 L   6.789 -73.163145.3  RSN  6 0.3 1.4LRSN                1
 GAP=179        0.83       5.1     4.2  7.5 -0.8015E+01  0.8310E+00  0.1209E+02E
 Epicentro: LOS SANTOS - SANTANDER                                             3
 ACTION:UPD 17-10-26 21:05 OP:lp   STATUS:               ID:20161106083024 L   I
 OLDACT:UP  16-11-06 14:25 OP:dnl  STATUS:               ID:20161106082739     3
 OLDACT:REG 16-11-06 12:57 OP:dani STATUS:               ID:20161106082739     3
 2016-11-06-0828-00M.COL___334                                                 6
 STAT SP IPHASW D HRMM SECON CODA AMPLIT PERI AZIMU VELO AIN AR TRES W  DIS CAZ7
 BRR  HZ EP        830 45.68                             153    0.2010 70.1 300 
 BRR  HE ES        831  2.41                             153    0.5210 70.1 300 
 BRR  HZ I         831  5.64         5.4 0.40            152           70.1 300 
 PAM  EZ EP        830 46.85                             150    0.1110 79.5  40 
 PAM  EN ES        831  3.76                             150   -0.3710 79.5  40 
 PAM  EZ I         831  5.39         3.9 0.42            158           79.5  40 
 PTB  HZ EP        830 50.72                             132   -0.46 9  146 259 
 PTB  HN ES        831 11.58                             132   -0.46 9  146 259 
 PTB  HZ I         831 19.05         3.0 0.30            132            146 259 
 SPBC HZ EP        830 52.99                             129    0.28 9  161 219 
 SPBC HN ES        831 14.84                             129    0.09 9  161 219 
 SPBC HZ I         831 22.14         4.8 0.56            130            161 219 
 ZAR  HZ EP   2    830 57.11                             122    0.39 4  203 293 
 ZAR  HN ES        831 21.84                             122   -0.06 9  203 293 
 ZAR  HZ I         831 27.48         2.9 0.28            124            203 293 
 HEL  HZ EP   4    831  6.64                             115    2.25 0  270 256 
 HEL  HN ES   4    831 37.38                             115    1.83 0  270 256 
 HEL  HZ I         831 44.05         1.2 0.30            116            270 256 
                                                                                
