 2017  4 6 0717 19.5 L   6.782 -73.153140.0  RSN  8 0.3 1.7LRSN                1
 GAP=136        1.01       3.8     4.2  5.8  0.9299E+00  0.4278E+01  0.1943E+01E
 Epicentro: LOS SANTOS - SANTANDER                                             3
 ACTION:UPD 17-05-30 21:09 OP:jn   STATUS:               ID:20170406071719 L   I
 OLDACT:DUP 17-04-06 16:35 OP:cara STATUS:               ID:20170406070635d    3
 OLDACT:REG 17-04-06 13:04 OP:cara STATUS:               ID:20170406070634     3
 2017-04-06-0707-00M.COL___357                                                 6
 STAT SP IPHASW D HRMM SECON CODA AMPLIT PERI AZIMU VELO AIN AR TRES W  DIS CAZ7
 BAR2 EZ EP        717 38.54                             171    0.1010 21.2 189 
 BAR2 EZ ES        717 52.43                             171   -0.7510 21.2 189 
 BAR2 EZ I         717 54.72        17.3 0.30            169           21.2 189 
 BRR  HZ EP        717 40.32                             152    0.2310 71.5 300 
 BRR  HN ES        717 56.58                             152    0.4710 71.5 300 
 BRR  HZ I         718  1.30        10.2 0.40            150           71.5 300 
 PAM  EZ EP        717 41.39                             149    0.1110 79.5  39 
 PAM  EN ES        717 58.12                             149   -0.1110 79.5  39 
 PAM  EZ I         718  0.61        12.1 0.48            154           79.5  39 
 RUS  HZ EP        717 42.92                             143    0.3310 98.6 175 
 RUS  HN ES        718  0.97                             143    0.4110 98.6 175 
 RUS  HZ I         718  2.80         3.6 0.36            145           98.6 175 
 PTB  HZ EP        717 45.47                             131   -0.47 9  147 260 
 PTB  HE ES        718  6.40                             131   -0.12 9  147 260 
 PTB  HZ I         718  9.16         4.1 0.10            131            147 260 
 SPBC HZ EP   9    717 47.38                             128   -0.02 0  161 219 
 SPBC HN ES        718  9.89                                    0.78 9  161 219 
 SPBC HZ I         718 14.17         9.0 0.24            129            161 219 
 ZAR  HZ EP        717 51.77                             121    0.15 9  204 293 
 ZAR  HN ES        718 16.44                             121   -0.20 9  204 293 
 ZAR  HZ I         718 23.40         5.4 0.46            122            204 293 
 CHI  HZ EP        717 56.21                             116   -0.48 8  246 195 
 CHI  HN ES        718 25.75                             116    0.09 8  246 195 
 CHI  HZ I         718 29.47         4.0 0.60            118            246 195 
                                                                                
