 2010  8 6 0849 23.5 L   5.835 -73.656125.1  RSN  6 0.2 1.4LRSN                1
 GAP=174        0.58       2.5     8.1  7.0 -0.1426E+01  0.4270E+01 -0.3838E+01E
 Epicentro: PUENTE NACIONAL - SANTANDER                                        3
 ACTION:UP  10-09-07 10:52 OP:vdl  STATUS:               ID:20100806084923 L   I
 2010-08-06-0844-55S.COL___125                                                 6
 STAT SP IPHASW D HRMM SECON CODA AMPLIT PERI AZIMU VELO SNR AR TRES W  DIS CAZ7
 RUS  HZ EP   1    849 42.80                                     0.1 8   64  84 
 RUS  HN ES   2    849 57.68                             152     0.0 5   64  84 
 RUS  HZ I         849 58.34         2.2 0.60                            64  84 
 BAR2 SZ EP   1    849 44.79                             140     0.0 8   99  32 
 BAR2 SZ I         850  2.55         6.6 0.22                            99  32 
 CHI  HZ EP   1    849 48.44                             130     0.4 8  134 184 
 CHI  HZ I         849 48.76         4.5 0.14                           134 184 
 CHI  HN ES   1    850  6.93                             130    -0.2 8  134 184 
 BRR  HZ EP        849 47.99                             128    -0.210  141 357 
 BRR  HZ I         850  6.43         5.0 0.55                           141 357 
 BRR  HN ES        850  7.57                             128     0.110  141 357 
 GIR2 SZ EP        849 48.69                             127    -0.210  147  20 
 GUE  SZ EP        849 58.62                             114     0.1 9  235  20 
 GUE  SZ I         850 27.65         1.7 0.12                           235  20 
                                                                                
