 2016  4 6 0516 24.6 L   6.801 -73.167149.1  RSN 11 0.4 1.6LRSN                1
 GAP=134        0.67       2.5     3.0  4.8  0.2161E+00  0.4918E+01  0.2390E+00E
 Epicentro: LOS SANTOS - SANTANDER                                             3
 ACTION:UPD 16-05-05 14:19 OP:rebc STATUS:               ID:20160406051624 L   I
 OLDACT:REG 16-04-06 12:24 OP:mh   STATUS:               ID:20160406050746     3
 2016-04-06-0507-46M.COL___279                                                 6
 STAT SP IPHASW D HRMM SECON CODA AMPLIT PERI AZIMU VELO AIN AR TRES W  DIS CAZ7
 BAR2 EZ EP        516 44.73                             171    0.0910 23.1 184 
 BAR2 EZ ES        517  0.01                             171   -0.2510 23.1 184 
 BAR2 EZ I         517  2.44         7.2 0.20            167           23.1 184 
 PAM  EZ EP        516 47.50                             151    0.2310 78.8  41 
 PAM  EE ES        517  4.65                             151   -0.2910 78.8  41 
 PAM  EZ I         517  7.14         4.9 0.42            157           78.8  41 
 RUS  HZ EP        516 48.65                             144   -0.0610  101 175 
 RUS  HE ES        517  7.91                             144    0.4010  101 175 
 RUS  HZ I         517 10.53         2.5 0.20            146            101 175 
 PTB  HZ EP   2    516 51.33                             133   -0.32 5  145 259 
 PTB  HN ES        517 12.64                             133   -0.10 9  145 259 
 PTB  HZ I         517 19.94         8.5 0.40            132            145 259 
 OCA  HZ EP   2    516 53.64                             130    0.49 5  160 354 
 OCA  HN ES   2    517 14.91                             130   -0.50 5  160 354 
 OCA  HZ I         517 19.78         8.8 0.23            133            160 354 
 SPBC HZ EP        516 53.24                             130    0.00 9  162 218 
 SPBC HE ES   2    517 15.14                             130   -0.42 5  162 218 
 SPBC HZ I         517 22.34         5.4 0.12            130            162 218 
 ZAR  HZ EP   2    516 56.89                             123   -0.16 4  202 292 
 ZAR  HN ES        517 23.09                             123    0.74 9  202 292 
 ZAR  HZ I         517 28.91         4.8 0.12            123            202 292 
 CHI  HZ EP   2    517  2.63                             118    0.19 4  248 195 
 CHI  HE ES        517 31.62                             118   -0.33 8  248 195 
 CHI  HZ I         517 41.98         1.8 0.06            119            248 195 
 URE  HZ EP   2    517  4.96                             114   -0.64 4  282 292 
 URE  HE ES   2    517 37.25                             114   -0.32 4  282 292 
 URE  HZ I         517 48.32         3.1 0.22            115            282 292 
 GUY2CHZ EP   4    517  9.57                             113    1.40 0  299 234 
 GUY2CHN ES   3    517 42.80                             113    0.66 2  299 234 
 GUY2CHZ I         517 50.19         1.8 0.28                           299 234 
 MON  HZ EP   4    517 18.38                             109    4.85 0  352 309 
 MON  HN ES   1    517 51.19                             109   -0.49 5  352 309 
 MON  HZ I         517 54.92         0.7 0.27            110            352 309 
                                                                                
