 2013  6 6 0007 29.9 L   6.227 -73.883 88.0  RSN  5 0.1 1.5LRSN                1
 GAP=124        0.34       1.6     1.3  4.4  0.2596E+00 -0.5091E+00  0.4906E+00E
 Epicentro: CIMITARRA - SANTANDER                                              3
 ACTION:UPD 14-01-08 09:52 OP:ep   STATUS:               ID:20130606000729 L   I
 OLDACT:UP  13-06-06 10:27 OP:mh   STATUS:               ID:20130606000002d    3
 OLDACT:DUP 13-06-06 10:22 OP:mh   STATUS:               ID:20130606000002d    3
 2013-06-06-0000-00M.COL___257                                                 6
 STAT SP IPHASW D HRMM SECON CODA AMPLIT PERI AZIMU VELO AIN AR TRES W  DIS CAZ7
 PTB  HZ EP        0 7 45.19                             137   -0.1710 72.2 299 
 PTB  HN ES        0 7 57.42                             137    0.0310 72.2 299 
 PTB  HN I         0 7 58.01        16.6 0.40            136           72.2 299 
 RUS  HZ EP   1    0 7 48.25                             129    0.11 7 96.0 113 
 RUS  HN ES        0 8  2.30                             129   -0.0410 96.0 113 
 RUS  HN I         0 8  3.94         3.5 0.14            128           96.0 113 
 BRR  HZ EP        0 7 47.84                             128    0.0410 99.2  11 
 BRR  HN ES        0 8  1.76                             128    0.0310 99.2  11 
 BRR  HN I         0 8  3.11        17.5 0.16            127           99.2  11 
 NOR  HN ES   1    0 8  7.90                             119    0.10 7  132 236 
 NOR  HN I         0 8 10.73         5.9 0.14            117            132 236 
 HEL  HE ES   4    0 8 16.05                             111   -2.56 0  182 269 
 HEL  HE I         0 8 21.98         4.3 0.22            110            182 269 
                                                                                
