 2016  6 6 0816 21.1 L   6.719 -73.578112.8  RSN  6 0.4 1.2LRSN                1
 GAP=109        1.11       4.0     4.3  7.6 -0.1055E+01  0.8353E-01 -0.4659E+01E
 Epicentro: EL CARMEN - SANTANDER                                              3
 ACTION:UPD 16-07-21 22:15 OP:rebc STATUS:               ID:20160606081621 L   I
 OLDACT:REG 16-06-06 12:46 OP:dani STATUS:               ID:20160606080747     3
 2016-06-06-0807-47M.COL___322                                                 6
 STAT SP IPHASW D HRMM SECON CODA AMPLIT PERI AZIMU VELO AIN AR TRES W  DIS CAZ7
 BRR  HZ EP        816 37.74                             156    0.4910 45.4 341 
 BRR  HN ES        816 50.67                             156    0.8110 45.4 341 
 BRR  HZ I         816 53.63         3.7 0.46                          45.4 341 
 BAR2 EZ EP        816 37.56                             156   -0.0710 46.0 108 
 BAR2 EZ ES        816 50.42                             156   -0.1110 46.0 108 
 BAR2 EZ I         816 53.41         3.7 0.32                          46.0 108 
 PTB  HZ EP        816 41.01                             136    0.0210 99.1 258 
 PTB  HE ES        816 55.74                             136   -0.7710 99.1 258 
 PTB  HZ I         816 56.76         3.6 0.18                          99.1 258 
 RUS  HZ EP        816 42.61                             134    0.3210  107 149 
 RUS  HE ES        816 58.86                             134    0.0410  107 149 
 RUS  HZ I         816 59.41         5.0 0.52                           107 149 
 PAM  EZ EP        816 43.41                             130    0.0110  119  55 
 PAM  EE ES        817  0.16                             130   -0.6410  119  55 
 PAM  EZ I         817  5.12         3.1 0.42                           119  55 
 OCA  HZ EP        816 48.23                             119    0.08 9  170  10 
 OCA  HE ES        817  9.02                             119   -0.24 9  170  10 
                                                                                
