 2016  6 6 0254 13.1 L   6.806 -73.148151.6  RSN  7 0.4 1.7LRSN                1
 GAP=136        0.98       4.2     5.0  7.3 -0.5166E+01  0.2956E+00  0.9579E+01E
 Epicentro: LOS SANTOS - SANTANDER                                             3
 ACTION:UPD 16-07-21 22:15 OP:rebc STATUS:               ID:20160606025413 L   I
 OLDACT:UP  16-06-06 15:42 OP:dani STATUS:               ID:20160606024747d    3
 OLDACT:DUP 16-06-06 15:29 OP:dani STATUS:               ID:20160606024747d    3
 OLDACT:UP  16-06-06 15:27 OP:dani STATUS:               ID:20160606024746     3
 OLDACT:UP  16-06-06 15:19 OP:dani STATUS:               ID:20160606024746     3
 OLDACT:REG 16-06-06 12:00 OP:dani STATUS:               ID:20160606024746     3
 2016-06-06-0247-46M.COL___322                                                 6
 STAT SP IPHASW D HRMM SECON CODA AMPLIT PERI AZIMU VELO AIN AR TRES W  DIS CAZ7
 BAR2 EZ EP        254 33.20                             171   -0.2110 23.9 189 
 BAR2 EZ I         254 51.72         9.6 0.19                          23.9 189 
 BRR  HZ EP        254 35.04                             154    0.2210 70.7 298 
 BRR  HN ES        254 52.60                             154    0.8110 70.7 298 
 BRR  HZ I         254 56.44         6.5 0.28                          70.7 298 
 PAM  EZ EP        254 36.05                             152    0.1610 77.0  40 
 PAM  EN ES        254 53.28                             152   -0.4110 77.0  40 
 PAM  EZ I         254 55.84        11.9 0.61                          77.0  40 
 RUS  HZ EP        254 37.41                             145   -0.0410  101 176 
 RUS  HN ES        254 56.40                             145   -0.0610  101 176 
 RUS  HZ I         254 57.49         5.6 0.40                           101 176 
 PTB  HZ EP        254 39.96                             133   -0.55 9  148 259 
 PTB  HN ES        255  1.31                             133   -0.60 9  148 259 
 PTB  HZ I         255  8.64         5.7 0.23                           148 259 
 SPBC HZ EP        254 42.26                             130    0.21 9  164 219 
 SPBC HE ES        255  4.71                             130    0.05 9  164 219 
 SPBC HZ I         255 10.26        16.5 0.28                           164 219 
 CHI  HZ EP        254 51.65                             118    0.49 8  249 195 
 CHI  HN ES        255 20.89                             118    0.02 8  249 195 
                                                                                
