 2011  9 6 0652  3.2 L   6.765 -73.064144.6  RSN 11 0.3 2.1LRSN                1
 GAP=191        0.36       2.0     3.1  3.5 -0.5552E+00  0.3126E+01  0.8475E+00E
 Epicentro: LOS SANTOS - SANTANDER                                             3
 ACTION:UPD 12-07-13 15:55 OP:ep   STATUS:               ID:20110906065203 L   I
 2011-09-06-0650-01S.COL___171                                                 6
 STAT SP IPHASW D HRMM SECON CODA AMPLIT PERI AZIMU VELO AIN AR TRES W  DIS CAZ7
 BAR2 SZ IP        652 22.68                             170   -0.0310 23.2 214 
 BAR2 SZ I         652 22.98        23.7 0.21                          23.2 214 
 BAR2 SZ ES   2    652 37.76                             170   -0.15 5 23.2 214 
 GIR2 SZ EP   2    652 22.99                             165    0.04 5 37.5 338 
 GIR2 SZ ES   2    652 38.57                             165    0.24 5 37.5 338 
 BRR  HZ IP     D  652 24.78                             149   -0.0610 81.0 298 
 BRR  HZ I         652 25.19        30.7 0.11                          81.0 298 
 BRR  HN ES   2    652 41.62                             149   -0.07 5 81.0 298 
 RUS  HZ EP   2    652 26.42                             145   -0.15 5 96.5 181 
 RUS  HE ES   2    652 44.81                             145    0.03 5 96.5 181 
 RUS  HZ I         652 46.25        18.1 0.35                          96.5 181 
 OCA  SZ EP   1    652 32.29                             128    0.35 7  165 350 
 OCA  SZ ES   2    652 54.22                             128   -0.11 5  165 350 
 OCA  SZ I         653  4.18        14.8 0.52                           165 350 
 ZAR  HZ EP   2    652 36.03                             121   -0.59 4  214 292 
 ZAR  HN ES   2    653  2.41                             121   -0.26 4  214 292 
 ZAR  HZ I         653  7.68        17.9 0.59                           214 292 
 NOR  SZ EP   2    652 39.01                             118   -0.45 4  240 236 
 NOR  SN ES   2    653  7.54                             118   -0.18 4  240 236 
 CHI  HZ EP   2    652 40.75                             117    0.02 4  247 197 
 CHI  HN ES   2    653 10.22                             117    0.23 4  247 197 
 CHI  HZ I         653 12.32         4.0 0.40                           247 197 
 HEL  HZ EP   2    652 44.66                             114    0.40 4  280 257 
 HEL  HN ES   2    653 16.82                             114    0.56 4  280 257 
 HEL  HZ I         653 22.01         6.1 0.40                           280 257 
 RREF HZ EP   2    652 50.16                             110    0.33 3  326 231 
 RREF HN ES   2    653 26.47                             110    0.29 3  326 231 
 PRA  HZ EP   2    652 56.64                             106   -0.21 3  393 211 
 PRA  HN ES   2    653 38.55                             106   -0.13 3  393 211 
                                                                                
