 2016  5 6 0655 21.8 L   6.809 -73.131148.4  RSN 15 0.5 2.0LRSN                1
 GAP=138        1.17       3.2     4.2  6.3 -0.2634E+01  0.7401E+01  0.2779E+01E
 Epicentro: LOS SANTOS - SANTANDER                                             3
 ACTION:UPD 16-08-18 17:42 OP:cam  STATUS:               ID:20160506065521 L   I
 OLDACT:DUP 16-05-06 17:14 OP:ak   STATUS:               ID:20160506064748d    3
 2016-05-06-0647-47M.COL___286                                                 6
 STAT SP IPHASW D HRMM SECON CODA AMPLIT PERI AZIMU VELO AIN AR TRES W  DIS CAZ7
 BAR2 EZ IP     C  655 42.00                             170    0.1910 24.6 193 
 BAR2 EZ ES        655 57.16                             170   -0.2310 24.6 193 
 BAR2 EZ I         655 58.63        23.4 0.12            169           24.6 193 
 BRR  HZ IP     C  655 43.80                             153    0.4710 72.2 297 
 BRR  HN ES        656  0.88                             153    0.7910 72.2 297 
 BRR  HZ I         656  4.22        22.7 0.32            152           72.2 297 
 PAM  EZ EP        655 44.87                             152    0.6410 75.6  39 
 PAM  EN ES        656  1.56                             152   -0.1410 75.6  39 
 PAM  EZ I         656  4.14        27.2 0.46            155           75.6  39 
 RUS  HZ EP        655 45.96                             144    0.0410  101 177 
 RUS  HN ES        656  4.67                             144   -0.0210  101 177 
 RUS  HZ I         656  5.92        11.6 0.28            146            101 177 
 PTB  HZ EP        655 48.60                             132   -0.59 9  150 259 
 PTB  HN ES        656  9.65                             132   -0.86 9  150 259 
 PTB  HZ I         656 12.73        10.6 0.12            133            150 259 
 OCA  HZ EP        655 50.33                             130    0.05 9  159 353 
 OCA  HN ES        656 11.89                             130   -0.58 9  159 353 
 OCA  HZ I         656 15.30        20.8 0.18            132            159 353 
 SPBC HZ EP        655 50.89                             129    0.18 9  165 219 
 SPBC HN ES        656 12.91                             129   -0.32 9  165 219 
 SPBC HZ I         656 16.34        23.7 0.14            130            165 219 
 ZAR  HZ EP        655 54.14                             123   -0.44 9  205 292 
 ZAR  HN ES        656 19.97                             123   -0.14 9  205 292 
 ZAR  HZ I         656 26.23         9.5 0.46            124            205 292 
 NOR  HZ EP        655 56.99                             119   -0.94 8  237 234 
 NOR  HN ES        656 26.54                             119    0.47 8  237 234 
 NOR  HZ I         656 31.38         6.3 0.14            120            237 234 
 CHI  HZ EP        656  0.25                             117    0.41 8  250 195 
 CHI  HN ES        656 29.41                             117   -0.06 8  250 195 
 CHI  HZ I         656 33.27         6.4 0.54            119            250 195 
 ROSC BZ EP   4    656  2.47                             117    2.18 0  254 211 
 ROSC BN ES        656 30.31                             117    0.03 8  254 211 
 ROSC BZ I         656 35.86        10.5 0.45            118            254 211 
 HEL  HE ES        656 34.67                             115    0.65 8  274 256 
 CBOC HZ EP   2    656  8.79                             110   -0.29 3  335 252 
 CBOC HE ES        656 46.96                             110    1.04 7  335 252 
 CBOC HZ I         656 48.15         2.7 0.16            111            335 252 
 PRA  HZ EP   4    656 13.90                             107   -1.75 0  394 210 
 PRA  HN ES        656 56.90                             107   -0.72 6  394 210 
 PRA  HZ I         657  0.92         3.0 0.32            108            394 210 
 SJC  HZ EP   4    656 16.22                             106   -1.28 0  409 327 
 SJC  HN ES   4    656 56.95                             106   -3.96 0  409 327 
 SJC  HZ I         657  1.76         1.6 0.49            107            409 327 
                                                                                
