 2017 12 6 0434  3.1 L   6.815 -73.153146.0  RSN 18 0.8 2.3LRSN                1
 GAP= 65        1.62       3.3     4.1  7.5 -0.8551E-01  0.7667E+01  0.3112E+00E
 Epicentro: LOS SANTOS - SANTANDER                                             3
 ACTION:UPD 18-01-04 13:17 OP:rebc STATUS:               ID:20171206043403 L   I
 OLDACT:UP  17-12-12 21:12 OP:nlst STATUS:               ID:20171206043403 L   3
 OLDACT:UP  17-12-06 16:58 OP:leo  STATUS:               ID:20171206042743     3
 OLDACT:REG 17-12-06 13:31 OP:leo  STATUS:               ID:20171206042743     3
 2017-12-06-0428-00M.COL___486                                                 6
 STAT SP IPHASW D HRMM SECON CODA AMPLIT PERI AZIMU VELO AIN AR TRES W  DIS CAZ7
 BAR2 EZ EP        434 22.71                             170   -0.0910 24.9 188 
 BAR2 EZ ES        434 37.22                             170   -0.9410 24.9 188 
 BAR2 EZ I         434 40.52        41.0 0.46            167           24.9 188 
 PAM  EZ EP        434 25.67                             151    0.3710 76.6  41 
 PAM  EN ES        434 43.31                             151    0.7010 76.6  41 
 PAM  EZ I         434 45.15        25.3 0.64            154           76.6  41 
 RUS  HZ EP        434 26.74                             143   -0.2710  102 176 
 RUS  HN ES        434 46.06                             143    0.4110  102 176 
 RUS  HZ I         434 46.46        18.2 0.26            142            102 176 
 PTB  HZ EP        434 29.50                             132   -0.55 9  147 258 
 PTB  HE ES        434 51.23                             132    0.15 9  147 258 
 PTB  HZ I         434 51.47        14.7 0.16            131            147 258 
 TAM  HZ IP        434 31.15                             130    0.24 9  156 106 
 TAM  HN ES        434 52.65                             130    0.05 9  156 106 
 OCA  HZ EP        434 31.27                             130    0.00 9  158 353 
 OCA  HN ES        434 53.49                             130    0.26 9  158 353 
 OCA  HZ I         434 57.81        36.7 0.14            131            158 353 
 SPBC HZ EP        434 31.67                             129   -0.03 9  164 218 
 SPBC HE ES        434 53.36                             129   -0.65 9  164 218 
 SPBC HZ I         435  0.59        35.7 0.36            128            164 218 
 YPLC HZ EP        434 33.21                             126    0.11 9  179 151 
 YPLC HN ES        434 57.14                             126    0.65 9  179 151 
 YPLC HZ I         434 58.09        28.5 0.26            126            179 151 
 ZAR  HZ EP        434 35.19                             123   -0.24 9  203 292 
 ZAR  HN ES        435  0.64                             123    0.00 9  203 292 
 ZAR  HZ I         435  6.20        17.3 0.38            123            203 292 
 CHI  HZ EP        434 40.97                             117    0.00 8  250 195 
 CHI  HE ES        435 10.90                             117    0.39 8  250 195 
 CHI  HZ I         435 15.80         6.4 0.36            117            250 195 
 ROSC BZ EP   4    434 42.94                             117    1.59 0  254 211 
 ROSC BN ES   4    435 13.03                             117    1.84 0  254 211 
 DRL03HZ EP        434 45.31                             113    0.79 7  287 353 
 DRL03HN ES        435 16.64                             113   -0.19 7  287 353 
 GUY2CHZ EP   4    434 48.18                             112    1.42 0  302 234 
 GUY2CHN ES        435 22.31                             112    1.49 7  302 234 
 GUY2CHZ I         435 27.88         7.8 0.56                           302 234 
 PTGC HZ EP        434 46.00                             111   -1.18 7  311 159 
 PTGC HN ES        435 19.51                             111   -2.05 7  311 159 
 PTGC HZ I         435 37.20        18.2 0.40            112            311 159 
 LL6C HZ EP        434 48.25                             111   -0.37 7  323 358 
 LL6C HN ES        435 23.64                             111   -0.48 7  323 358 
 CBOC HZ EP        434 50.77                             110    0.77 7  333 252 
 CBOC HN ES        435 27.36                             110    0.77 7  333 252 
 CBOC HZ I         435 43.80         3.2 0.58            110            333 252 
 DBB  HZ EP        434 51.11                             110    0.62 7  339 274 
 DBB  EN ES        435 24.74                             110   -2.71 7  339 274 
 PRA  HZ EP        434 56.63                             106   -0.13 6  393 209 
 PRA  HN ES        435 38.83                             106    0.22 6  393 209 
 PRA  HZ I         435 42.64         5.7 0.20            106            393 209 
 ORTC HZ EP        434 57.63                             106    0.49 6  396 216 
 ORTC HN ES        435 40.79                             106    1.50 6  396 216 
 ORTC HZ I         435 53.06         8.9 0.14            106            396 216 
                                                                                
