 2010  1 6 0951 34.3 L   6.794 -73.376140.3  RSN  5 0.2 1.4LRSN                1
 GAP=173        0.43       3.0    24.9  9.6 -0.3749E+02  0.1909E+03 -0.9992E+01E
 Epicentro: EL CARMEN DE CHUCURI - SANTANDER                                   3
 ACTION:UP  10-08-24 09:42 OP:vdl  STATUS:               ID:20100106095134 L   I
 2010-01-06-0948-14S.COL___096                                                 6
 STAT SP IPHASW D HRMM SECON CODA AMPLIT PERI AZIMU VELO SNR AR TRES W  DIS CAZ7
 BAR2 SZ EP        951 53.36                             167    -0.110   31 136 
 BAR2 SZ ES   2    952  8.52                             167     0.1 5   31 136 
 GIR2 SZ EP   2    951 53.39                             164    -0.1 5   37  33 
 RUS  BZ EP   3    951 57.51                             141    -0.3 2  105 162 
 RUS  BZ I         952  6.05         4.4 0.68                           105 162 
 OCA  SZ EP        952  2.13                             128     0.0 9  160   2 
 OCA  SZ ES   2    952 23.95                             128     0.1 5  160   2 
 CHI  HZ EP        952 11.30                             116     0.3 8  243 189 
 CHI  HN ES   2    952 39.13                             116    -0.5 4  243 189 
 CHI  HZ I         952 49.74         1.8 0.38                           243 189 
                                                                                
