 2013  1 6 0319 42.4 L   6.803 -73.130145.0  RSN  9 0.5 2.3LRSN 2.7WRSN        1
 SPEC AVERAGE  MO 13.1 ST  1.5 OM  2.7 f0 3.60 R0.4145 AL 2.13 WI 13.1 MW  2.7 3
 SPEC SD       MO  0.3 ST  1.2 OM  1.2 f00.440 R0.0507 AL      WI      MW  0.2 3
 GAP=127        1.26       4.7     5.4  7.4  0.2227E+01  0.4151E-01 -0.4433E+01E
 Epicentro: LOS SANTOS - SANTANDER                                             3
 SPEC RUS HH N MO 12.8 ST0.285 OM  1.2 f0 3.16 R0.4652 AL 1.47 WI 17.3 MW  2.5 3
 SPEC RUS HH N T 32023 K 0.000 GD  176 VS 4.20 DE 3.00 Q0230.0 QA 0.60 VS 4.20 3
 SPEC BRR HH N MO 13.5 ST  2.7 OM  1.9 f0 4.04 R0.3639 AL 2.78 WI  8.9 MW  2.9 3
 SPEC BRR HH N T 32019 K 0.000 GD  162 VS 4.20 DE 3.00 Q0230.0 QA 0.60 VS 4.20 3
 ACTION:UPD 13-02-15 09:12 OP:ep   STATUS:               ID:20130106031942 L   I
 2013-01-06-0317-48M.COL___184                                                 6
 STAT SP IPHASW D HRMM SECON CODA AMPLIT PERI AZIMU VELO AIN AR TRES W  DIS CAZ7
 BAR2 SZ EP        320  2.17                             170    0.2410 24.1 194 
 BAR2 SZ ES        320 16.94                             170   -0.2410 24.1 194 
 BAR2 SZ I         320 18.32        51.3 0.40            159           24.1 194 
 BRR  HZ EP        320  4.20                             152    0.6910 72.5 298 
 BRR  HE ES        320 21.03                             152    1.0210 72.5 298 
 BRR  HN I         320 21.58        88.6 0.28            147           72.5 298 
 RUS  HZ EP        320  6.11                             144    0.0410  101 177 
 RUS  HN ES        320 24.22                             144   -0.3310  101 177 
 RUS  HN I         320 26.46        15.6 0.26            131            101 177 
 PTB  HZ EP        320  8.97                             131   -0.47 9  150 259 
 PTB  HN ES        320 29.73                             131   -0.82 9  150 259 
 PTB  HN I         320 32.20        16.4 0.42            122            150 259 
 OCA  HZ EP        320 10.42                             129   -0.19 9  160 353 
 OCA  HN ES        320 31.93                             129   -0.70 9  160 353 
 OCA  HN I         320 35.67        72.4 0.30            124            160 353 
 ZAR  HZ EP        320 15.07                             122    0.16 8  206 292 
 ZAR  HN ES        320 40.52                             122    0.22 8  206 292 
 ZAR  HN I         320 46.31        17.9 0.14            115            206 292 
 CHI  HZ EP        320 20.69                             117    0.57 8  249 196 
 CHI  HN I         320 55.56         7.4 0.26            108            249 196 
 HEL  HN ES        320 54.04                             114   -0.19 8  274 256 
 HEL  HN I         321  1.62         4.8 0.28            107            274 256 
 SDV  BZ EP        320 31.97                             108   -0.23 6  359  50 
                                                                                
