 2016  5 6 0949 18.3 L   6.792 -73.109149.6  RSN 10 0.4 1.8LRSN                1
 GAP=142        0.90       3.2     3.6  5.2 -0.2541E+00  0.4584E+01  0.3989E+01E
 Epicentro: LOS SANTOS - SANTANDER                                             3
 ACTION:UPD 16-08-18 17:42 OP:cam  STATUS:               ID:20160506094918 L   I
 OLDACT:DUP 16-05-06 18:55 OP:ak   STATUS:               ID:20160506093751d    3
 OLDACT:REG 16-05-06 14:12 OP:ak   STATUS:               ID:20160506093750     3
 2016-05-06-0937-50M.COL___284                                                 6
 STAT SP IPHASW D HRMM SECON CODA AMPLIT PERI AZIMU VELO AIN AR TRES W  DIS CAZ7
 BAR2 EZ EP        949 38.04                             171   -0.3910 23.6 200 
 BAR2 EZ ES        949 54.26                             171    0.1510 23.6 200 
 BAR2 EZ I         949 55.10        11.0 0.46            169           23.6 200 
 BRR  HZ EP        949 40.11                             152   -0.0110 75.2 298 
 BRR  HN ES        949 57.71                             152    0.5910 75.2 298 
 BRR  HZ I         949 59.84         8.5 0.24            151           75.2 298 
 PAM  EZ EP        949 41.09                             152    0.2410 75.5  37 
 PAM  EN ES        949 58.43                             152    0.0210 75.5  37 
 PAM  EZ I         950  0.45         7.0 0.56            156           75.5  37 
 RUS  HZ EP        949 42.25                             145   -0.1410 99.5 178 
 RUS  HN ES        950  0.96                             145   -0.2010 99.5 178 
 RUS  HZ I         950  1.86         4.0 0.26            146           99.5 178 
 PTB  HZ EP   2    949 45.76                             132   -0.20 5  152 259 
 PTB  HN ES        950  6.81                             132   -0.70 9  152 259 
 PTB  HZ I         950  9.71         6.8 0.25            132            152 259 
 SPBC HZ EP        949 47.28                             130   -0.03 9  165 220 
 SPBC HE ES        950  9.88                             130   -0.04 9  165 220 
 SPBC HZ I         950 16.26        17.2 0.26            130            165 220 
 ZAR  HZ EP        949 50.84                             123   -0.61 8  208 292 
 ZAR  HN ES        950 17.02                             123   -0.26 8  208 292 
 ZAR  HZ I         950 22.84         7.8 0.44            123            208 292 
 CHI  HZ EP        949 56.51                             118    0.23 8  249 196 
 CHI  HN ES        950 26.13                             118    0.25 8  249 196 
 CHI  HZ I         950 29.90         2.7 0.40            119            249 196 
 HEL  HZ EP   2    949 59.91                             115    0.75 4  276 256 
 HEL  HN ES        950 31.87                             115    0.87 7  276 256 
 PRA  HZ EP        950 12.83                             107    0.69 6  393 210 
 PRA  HN ES        950 53.93                             107   -0.18 6  393 210 
 PRA  HZ I         950 57.48         2.5 0.40            108            393 210 
                                                                                
