 2014  9 6 0233 29.3 L   6.736 -73.149147.7  RSN  4 0.5 1.3LRSN                1
 GAP=232        1.18       7.5    11.0 11.8  0.9885E+01 -0.3819E+01  0.8399E+01E
 Epicentro: LOS SANTOS - SANTANDER                                             3
 ACTION:UPD 14-10-03 23:02 OP:nd   STATUS:               ID:20140906023329 L   I
 OLDACT:REG 14-09-06 12:30 OP:fm   STATUS:               ID:20140906022818     3
 2014-09-06-0228-18M.COL___269                                                 6
 STAT SP IPHASW D HRMM SECON CODA AMPLIT PERI AZIMU VELO AIN AR TRES W  DIS CAZ7
 BRR  HZ EP        233 50.88                             152    0.0610 74.5 303 
 BRR  HN ES        234  7.94                             152    0.3210 74.5 303 
 BRR  HZ I         234 10.59         3.9 0.32            152           74.5 303 
 RUS  HN ES   1    234 10.47                             146   -0.55 7 93.6 176 
 RUS  HZ I         234 13.97         2.4 0.18            146           93.6 176 
 PTB  HZ EP        233 56.38                             133    0.13 9  146 262 
 PTB  HN ES        234 16.52                             133   -0.78 9  146 262 
 PTB  HZ I         234 21.90         3.1 0.36            133            146 262 
 SPBC HZ EP        233 57.17                             131   -0.22 9  158 220 
 SPBC HN ES        234 20.14                             131    0.82 9  158 220 
 SPBC HZ I         234 26.54         2.1 0.20            131            158 220 
                                                                                
