 2015  1 6 0700 17.3 L   6.799 -72.982  4.0  RSN  8 0.5 1.2LRSN                1
 GAP=200        1.18       2.5     5.3  6.9  0.2995E+01  0.1951E+02  0.3352E+01E
 Epicentro: CEPITA - SANTANDER                                                 3
 ACTION:UPD 15-03-02 15:37 OP:nd   STATUS:               ID:20150106070017 L   I
 OLDACT:UP  15-01-06 16:39 OP:cam  STATUS:               ID:20150106065812     3
 OLDACT:REG 15-01-06 14:17 OP:cam  STATUS:               ID:20150106065812     3
 2015-01-06-0658-12M.COL___274                                                 6
 STAT SP IPHASW D HRMM SECON CODA AMPLIT PERI AZIMU VELO AIN AR TRES W  DIS CAZ7
 BAR2 EZ EP        7 0 22.31                              47   -0.6210 31.8 224 
 BAR2 EZ ES        7 0 27.27                              47   -0.0810 31.8 224 
 BAR2 EZ I         7 0 27.63        32.0 0.88            102           31.8 224 
 BRR  HZ EP        7 0 30.59                              47   -0.5410 87.6 293 
 BRR  HN ES        7 0 41.65                              47   -0.2910 87.6 293 
 BRR  HN I         7 0 42.71         8.6 0.16             92           87.6 293 
 RUS  HZ EP        7 0 33.62                              47   -0.0310  101 186 
 RUS  HE ES        7 0 46.17                              47   -0.2610  101 186 
 RUS  HZ I         7 0 49.22         2.1 0.46             92            101 186 
 OCA  HZ EP        7 0 42.70                              47   -0.10 9  164 347 
 OCA  HZ I         7 1  1.89         3.3 0.30             91            164 347 
 PTB  HZ EP        7 0 43.41                              47    0.45 9  166 260 
 PTB  HN ES        7 1  2.88                              47   -0.11 9  166 260 
 PTB  HZ I         7 1  5.83         1.8 0.38             91            166 260 
 SPBC HN ES        7 1  6.48                              47    0.78 9  175 224 
 SPBC HZ I         7 1 14.21         3.4 0.28             91            175 224 
 ZAR  HZ EP        7 0 51.08                              37    0.93 8  221 290 
 ZAR  HN ES        7 1 15.90                              37    0.10 8  221 290 
 SML  HZ EP        7 0 54.89                              37    0.88 8  252 332 
 SML  HN ES        7 1 22.27                              37   -0.40 8  252 332 
 SML  HZ I         7 1 25.60         4.1 0.26             56            252 332 
                                                                                
