 2016  8 6 0917 41.9 L   6.784 -73.163149.1  RSN  4 0.2 1.1LRSN                1
 GAP=135        0.69       3.9     6.2  6.2 -0.2925E+01 -0.9585E+01  0.3366E+01E
 Epicentro: LOS SANTOS - SANTANDER                                             3
 ACTION:UPD 16-10-29 15:32 OP:rebc STATUS:               ID:20160806091741 L   I
 OLDACT:DUP 16-08-06 15:12 OP:cara STATUS:               ID:20160806090737d    3
 OLDACT:REG 16-08-06 13:29 OP:edw  STATUS:               ID:20160806090735     3
 2016-08-06-0908-00M.COL___347                                                 6
 STAT SP IPHASW D HRMM SECON CODA AMPLIT PERI AZIMU VELO AIN AR TRES W  DIS CAZ7
 BAR2 EZ EP        918  1.97                             171    0.0810 21.3 186 
 BAR2 HE ES        918 17.24                             171   -0.2410 21.3 186 
 BAR2 EZ I         918 18.19         2.9 0.28                          21.3 186 
 BRR  HN ES        918 20.17                             153    0.0710 70.4 301 
 PAM  EZ EP        918  4.87                             151    0.2610 79.9  40 
 PAM  EE ES        918 22.25                             151   -0.0910 79.9  40 
 PAM  EZ I         918 24.10         3.4 0.44                          79.9  40 
 RUS  HZ EP        918  5.45                             145   -0.4110 99.0 175 
 RUS  HE ES        918 24.90                             145    0.3410 99.0 175 
 RUS  HZ I         918 26.14         1.3 0.40                          99.0 175 
                                                                                
