 2014  9 6 0721  7.8 L   6.750 -73.197147.4  RSN  6 0.4 1.6LRSN                1
 GAP=228        1.00       6.6     6.6  8.2  0.6690E+01  0.8861E+01  0.2692E+01E
 Epicentro: VILLANUEVA - SANTANDER                                             3
 ACTION:UPD 14-10-03 23:02 OP:nd   STATUS:               ID:20140906072107 L   I
 OLDACT:REG 14-09-06 12:55 OP:fm   STATUS:               ID:20140906071819     3
 2014-09-06-0718-19M.COL___266                                                 6
 STAT SP IPHASW D HRMM SECON CODA AMPLIT PERI AZIMU VELO AIN AR TRES W  DIS CAZ7
 BAR2 SZ EP        721 27.38                             173   -0.1010 17.6 175 
 BAR2 SZ ES   1    721 43.05                             173    0.19 7 17.6 175 
 BAR2 SZ I         721 43.72        10.3 0.14            170           17.6 175 
 BRR  HZ EP   1    721 28.97                             153   -0.00 7 69.3 305 
 BRR  HN ES   1    721 46.01                             153    0.49 7 69.3 305 
 BRR  HZ I         721 47.24        11.1 0.48            153           69.3 305 
 RUS  HZ EP   1    721 31.22                             145   -0.10 7 95.7 172 
 RUS  HN ES        721 49.23                             145   -0.4710 95.7 172 
 RUS  HZ I         721 51.00         4.4 0.22            146           95.7 172 
 PTB  HZ EP   1    721 33.91                             133   -0.36 7  141 261 
 PTB  HN ES        721 54.32                             133   -0.63 9  141 261 
 PTB  HZ I         721 57.24         4.3 0.16            133            141 261 
 SPBC HZ EP        721 36.30                             131    0.65 9  155 219 
 SPBC HN ES        721 58.01                             131    0.60 9  155 219 
 SPBC HZ I         722  1.81         5.2 0.20            131            155 219 
 GUY2CHZ EP   1    721 50.31                             113   -0.26 5  293 235 
 GUY2CHN ES   4    722 28.86                             113    4.90 0  293 235 
 GUY2CHZ I         722 33.22         1.2 0.44                           293 235 
 SJC  HZ EP   4    722  1.38                             106   -2.18 0  411 328 
                                                                                
