 2010 12 6 0037 11.0 L   6.777 -73.143142.1  RSN  8 0.3 1.9LRSN                1
 GAP=175        0.50       3.8     8.1  4.8 -0.2133E+02  0.7683E+01 -0.1469E+01E
 Epicentro: LOS SANTOS - SANTANDER                                             3
 ACTION:UP  11-01-14 15:23 OP:pat  STATUS:               ID:20101206003711 L   I
 2010-12-06-0035-31S.COL___132                                                 6
 STAT SP IPHASW D HRMM SECON CODA AMPLIT PERI AZIMU VELO SNR AR TRES W  DIS CAZ7
 BAR2 SZ EP   1    037 30.27                             171     0.1 8   21 192 
 BAR2 SZ ES   1    037 44.83                             171    -0.2 8   21 192 
 BAR2 SZ I         037 46.37        18.0 0.16                            21 192 
 GIR2 SZ EP   2    037 30.54                             166     0.2 5   34 351 
 GIR2 SZ ES   2    037 45.78                             166     0.4 5   34 351 
 GUE  SZ EP   2    037 35.63                             138     0.1 5  119  12 
 GRA  SZ EP        037 36.35                             135     0.210  128  17 
 GRA  SZ I         037 37.76        15.1 0.20                           128  17 
 GRA  SZ ES   2    037 55.39                             135    -0.3 5  128  17 
 OCA  SZ EP   2    037 39.00                             128    -0.3 5  163 353 
 OCA  SZ ES   2    038  0.75                             128    -0.6 5  163 353 
 OCA  SZ I         038  9.81        13.6 0.20                           163 353 
 NOR  SZ EP   2    037 46.44                             118     0.0 4  234 235 
 NOR  SE ES   2    038 14.19                             118     0.2 4  234 235 
 CHI  HZ EP   2    037 47.51                             116    -0.7 4  246 195 
 CHI  HE ES   2    038 17.20                             116    -0.1 4  246 195 
 CHI  HZ I         038 21.49         3.9 0.57                           246 195 
 PRA  HZ EP   2    038  4.54                             106     0.4 3  390 210 
 PRA  HN ES   2    038 45.58                             106     0.0 3  390 210 
                                                                                
