 2013  7 6 0025 57.0 L   6.773 -73.160145.0  RSN  8 0.4 1.6LRSN                1
 GAP=136        0.97       4.6     4.7  7.4  0.2089E+01  0.4811E+01 -0.6448E+01E
 Epicentro: LOS SANTOS - SANTANDER                                             3
 ACTION:UPD 13-08-12 10:35 OP:ep   STATUS:               ID:20130706002557 L   I
 OLDACT:REG 13-07-06 07:42 OP:jn   STATUS:               ID:20130706001959     3
 2013-07-06-0019-59M.COL___266                                                 6
 STAT SP IPHASW D HRMM SECON CODA AMPLIT PERI AZIMU VELO AIN AR TRES W  DIS CAZ7
 BAR2 SZ EP        026 16.50                             172    0.0510 20.2 187 
 BAR2 SZ ES        026 31.82                             172    0.1810 20.2 187 
 BAR2 SZ I         026 33.08        16.8 0.18            175           20.2 187 
 GIR2 SZ EP        026 16.57                             166   -0.0510 34.0 354 
 BRR  HZ EP        026 18.53                             152    0.4910 71.3 301 
 BRR  HN ES   1    026 35.17                             152    0.70 7 71.3 301 
 BRR  HZ I         026 38.59        10.6 0.32            154           71.3 301 
 PAM  SZ EP     D  026 19.41                             150    0.1110 80.7  39 
 PAM  SN ES   1    026 35.68                             150   -1.04 7 80.7  39 
 PAM  SZ I         026 41.23         4.6 0.44            151           80.7  39 
 RUS  HZ EP        026 20.43                             144   -0.0110 97.8 175 
 RUS  HN ES        026 38.80                             144    0.0510 97.8 175 
 RUS  HZ I         026 40.38         5.7 0.22            150           97.8 175 
 PTB  HZ EP        026 23.38                             132   -0.30 9  146 260 
 PTB  HN ES        026 44.19                             132   -0.32 9  146 260 
 PTB  HZ I         026 47.25         4.5 0.13            136            146 260 
 ZAR  HE ES   1    026 53.88                             122   -0.68 6  204 293 
 SML  HE ES   1    027  3.02                             117    0.55 6  246 336 
                                                                                
