 2011 11 6 0702 24.3 L   6.397 -73.240137.6  RSN  5 0.3 1.8LRSN                1
 GAP=164        0.51       4.0     6.8  6.7  0.7427E+01 -0.8054E+01 -0.2698E+01E
 Epicentro: CONFINES - SANTANDER                                               3
 ACTION:UPD 12-07-13 16:08 OP:ep   STATUS:               ID:20111106070224 L   I
 2011-11-06-0659-12S.COL___175                                                 6
 STAT SP IPHASW D HRMM SECON CODA AMPLIT PERI AZIMU VELO AIN AR TRES W  DIS CAZ7
 BAR2 SZ EP   1    7 2 42.80                             170   -0.11 7 22.5  16 
 BAR2 SZ ES   2    7 2 57.14                             170   -0.30 5 22.5  16 
 BAR2 SZ I         7 2 59.11         9.3 0.37                          22.5  16 
 RUS  HZ EP   1    7 2 44.95                             156    0.38 7 58.4 163 
 RUS  HE ES   2    7 3  0.32                             156   -0.07 5 58.4 163 
 RUS  HZ I         7 3  3.64         9.2 0.33                          58.4 163 
 BRR  HZ EP   1    7 2 45.65                             144   -0.43 7 94.3 326 
 BRR  HN ES   1    7 3  3.30                             144    0.22 7 94.3 326 
 BRR  HN I         7 3  4.62        27.0 0.32                          94.3 326 
 PAM  SZ EP   1    7 2 48.78                             137   -0.01 7  120  30 
 PAM  SN ES   2    7 3  7.89                             137   -0.01 5  120  30 
 OCA  SZ ES   2    7 3 21.78                             121    0.36 4  204 358 
                                                                                
