 2010  9 6 0929 11.9 L   6.896 -73.055146.5  RSN  8 0.2 1.8LRSN                1
 GAP=167        0.38       2.6     4.3  3.0 -0.5137E+01 -0.9189E+00 -0.4337E+00E
 Epicentro: PIEDECUESTA - SANTANDER                                            3
 ACTION:UP  11-02-18 11:00 OP:tino STATUS:               ID:20100906092911 L   I
 2010-09-06-0924-58S.COL___119                                                 6
 STAT SP IPHASW D HRMM SECON CODA AMPLIT PERI AZIMU VELO SNR AR TRES W  DIS CAZ7
 BTL  SZ EP        929 31.80                             170     0.210   24 276 
 BTL  SZ ES   1    929 47.13                             170     0.1 7   24 276 
 BAR2 SZ EP        929 32.01                             165     0.110   37 203 
 BAR2 SZ ES   1    929 47.41                             165    -0.2 7   37 203 
 BAR2 SZ I         929 49.65         8.8 0.24                            37 203 
 BRR  HZ EP        929 33.42                             151     0.010   76 288 
 BRR  HZ I         929 35.22        17.6 0.15                            76 288 
 BRR  HN ES   1    929 50.25                             151     0.0 7   76 288 
 RUS  HN ES   3    929 55.55                             141    -0.1 2  111 182 
 RUS  HZ I         929 56.98         4.1 0.42                           111 182 
 GRA  SZ EP        929 36.05                             140    -0.110  113  14 
 GRA  SZ ES   1    929 55.00                             140    -0.1 7  113  14 
 GRA  SZ I         929 56.26        12.9 0.26                           113  14 
 OCA  SZ EP        929 39.44                             131     0.0 9  151 349 
 OCA  SZ ES   3    930  0.92                             131     0.0 2  151 349 
 OCA  SZ I         930  4.40         6.1 0.19                           151 349 
 RREF HN ES   2    930 36.45                             110    -0.6 3  336 229 
 RREF HZ I         930 43.39         3.8 0.27                           336 229 
 PRA  HZ EP   1    930  7.38                             106     0.3 4  406 210 
 PRA  HE ES   3    930 49.79                             106    -0.4 1  406 210 
 PRA  HZ I         930 54.53         3.9 0.60                           406 210 
                                                                                
