 2011  2 6 0435  7.7 L   7.342 -73.064  4.0  RSN  9 0.5 2.8LRSN                1
 GAP=155        1.16       2.7     7.3  8.2 -0.1063E+02  0.1409E+02 -0.5363E+01E
 Epicentro: MATANZA - SANTANDER                                                3
 ACTION:UP  11-03-28 15:06 OP:jfem STATUS:               ID:20110206043507 L   I
 2011-02-06-0432-53S.COL___138                                                 6
 STAT SP IPHASW D HRMM SECON CODA AMPLIT PERI AZIMU VELO SNR AR TRES W  DIS CAZ7
 GIR2 SZ IP        435 13.15                              47    -0.210   32 206 
 BTL  SZ IP        435 16.39                              47     0.010   52 206 
 GUE  SZ EP        435 16.65                              47    -0.510   56  16 
 GRA  SZ IP        435 19.34                              47     0.810   67  26 
 GRA  SZ ES   1    435 26.51                              47    -0.5 7   67  26 
 GRA  SZ I         435 28.70       753.2 0.37                            67  26 
 BAR2 SZ IP        435 21.23                              47     0.010   84 189 
 BAR2 SZ ES   1    435 31.29                              47    -0.6 7   84 189 
 BAR2 SZ I         435 33.70       193.2 0.19                            84 189 
 OCA  SZ EP        435 24.38                              47     0.310  103 344 
 OCA  SZ ES   1    435 36.39                              47    -0.5 7  103 344 
 OCA  SZ I         435 38.50       413.0 0.28                           103 344 
 RUS  HZ IP        435 33.50                              47     0.4 9  160 181 
 RUS  HZ I         435 34.13       170.3 0.08                           160 181 
 NOR  SN ES   2    436 20.16                              37     0.6 4  280 226 
 HEL  HZ EP   2    435 51.79                              36     0.8 4  301 245 
 HEL  HE ES   2    436 25.14                              36     0.4 4  301 245 
 HEL  HZ I         436 34.22        14.8 0.35                           301 245 
                                                                                
