 2015  3 6 0524  3.1 L   6.759 -73.149148.6  RSN  8 0.4 1.2LRSN                1
 GAP=138        0.90       3.5     4.5  6.5 -0.2968E+01  0.2751E+01  0.2885E+01E
 Epicentro: LOS SANTOS - SANTANDER                                             3
 ACTION:UPD 15-04-30 16:23 OP:nd   STATUS:               ID:20150306052403 L   I
 OLDACT:DUP 15-03-06 15:08 OP:spq  STATUS:               ID:20150306051743d    3
 2015-03-06-0517-42M.COL___281                                                 6
 STAT SP IPHASW D HRMM SECON CODA AMPLIT PERI AZIMU VELO AIN AR TRES W  DIS CAZ7
 BAR2 EZ EP        524 22.62                             172   -0.4010 18.7 191 
 BAR2 EZ ES   1    524 38.44                             172   -0.09 7 18.7 191 
 BAR2 EZ I         524 38.86         2.5 0.16            169           18.7 191 
 BRR  HZ EP   1    524 25.11                             152    0.42 7 73.1 302 
 BRR  HN ES        524 42.10                             152    0.5910 73.1 302 
 BRR  HZ I         524 43.26         4.7 0.32            146           73.1 302 
 PAM  SZ EP        524 25.88                             150    0.0010 81.2  38 
 PAM  SE ES        524 43.55                             150   -0.0610 81.2  38 
 PAM  SZ I         524 45.04         1.8 0.62            142           81.2  38 
 RUS  HZ EP   1    524 27.32                             146    0.48 7 96.0 176 
 RUS  HE ES        524 45.10                             146   -0.2310 96.0 176 
 RUS  HZ I         524 46.03         2.2 0.34            136           96.0 176 
 PTB  HZ EP   1    524 30.35                             133    0.13 7  147 261 
 PTB  HE ES        524 50.63                             133   -0.72 9  147 261 
 PTB  HZ I         524 52.68         1.3 0.14            124            147 261 
 SPBC HZ EP   1    524 31.60                             130    0.11 7  159 220 
 SPBC HE ES        524 54.10                             130    0.49 9  159 220 
 SPBC HZ I         524 57.42         1.8 0.18            121            159 220 
 CHI  HZ EP   1    524 40.68                             118    0.18 6  244 195 
 CHI  HZ I         525  3.78         0.6 0.70            110            244 195 
 CHI  HN ES   1    525  9.23                             118   -0.41 6  244 195 
 SML  HE ES   1    525  8.89                             118   -0.49 6  248 336 
 SML  HZ I         525 15.41         2.5 0.20            109            248 336 
                                                                                
