 2014 10 6 0759 18.2 L   7.461 -73.299116.2  RSN  4 0.5 1.6LRSN                1
 GAP=231        1.19       6.9     9.6 13.8 -0.2764E+02  0.4023E+02 -0.3647E+02E
 Epicentro: EL PLAYON - SANTANDER                                              3
 ACTION:UPD 14-11-29 23:47 OP:nd   STATUS:               ID:20141006075746 L   I
 OLDACT:UPD 14-10-06 15:05 OP:SPQ  STATUS:               ID:20141006075746 L   3
 2014-10-06-0757-46M.COL___286                                                 6
 STAT SP IPHASW D HRMM SECON CODA AMPLIT PERI AZIMU VELO AIN AR TRES W  DIS CAZ7
 BRR  HZ EP   1    759 35.61                             151    0.03 7 60.0 229 
 BRR  HN ES        759 48.60                             151   -0.4910 60.0 229 
 BRR  HZ I         759 49.72         4.1 0.12            154           60.0 229 
 OCA  HZ EP   1    759 38.09                             141    0.50 7 86.0 359 
 OCA  HN ES        759 53.12                             141    0.4510 86.0 359 
 OCA  HZ I         759 55.06         4.3 0.48            142           86.0 359 
 SML  HZ EP   1    759 44.78                             120   -0.57 7  171 330 
 SML  HN ES        8 0  5.82                             120   -0.67 9  171 330 
 SML  HZ I         8 0  7.46         4.9 0.22            122            171 330 
 ZAR  HN ES        8 0  7.41                             120    0.67 9  172 271 
 ZAR  HZ  AMP      8 0  8.42        22.4 0.24                           172 271 
                                                                                
