 2017 11 6 0527 31.3 L   6.780 -73.089144.0  RSN  6 0.5 1.0LRSN                1
 GAP=145        1.07       5.8     6.0  8.6  0.4654E+01  0.1174E+02 -0.6469E+01E
 Epicentro: LOS SANTOS - SANTANDER                                             3
 ACTION:UPD 17-12-12 19:52 OP:rebc STATUS:               ID:20171106052731 L   I
 OLDACT:UP  17-11-06 16:35 OP:dnl  STATUS:               ID:20171106051744     3
 OLDACT:REG 17-11-06 13:08 OP:dnl  STATUS:               ID:20171106051744     3
 2017-11-06-0518-00M.COL___441                                                 6
 STAT SP IPHASW D HRMM SECON CODA AMPLIT PERI AZIMU VELO AIN AR TRES W  DIS CAZ7
 BAR2 EZ EP        527 51.07                             170    0.3210 23.2 207 
 BAR2 EZ ES        528  6.37                             170    0.4810 23.2 207 
 BAR2 EZ I         528  9.66         4.5 0.54            168           23.2 207 
 PAM  EZ EP        527 53.86                             151    0.6110 75.4  35 
 PAM  EN ES        528  9.61                             151   -0.7210 75.4  35 
 PAM  EZ I         528 13.51         1.5 0.34            156           75.4  35 
 BRR  HZ EP        527 52.65                             150   -0.0310 77.8 298 
 BRR  HN ES        528  9.53                             150    0.1910 77.8 298 
 BRR  HZ I         528 12.66         2.4 0.44            149           77.8 298 
 RUS  HZ EP   2    527 54.98                             144    0.25 5 98.1 180 
 RUS  HN ES        528 12.48                             144   -0.5010 98.1 180 
 RUS  HZ I         528 14.85         0.8 0.42            147           98.1 180 
 PTB  HZ EP   2    527 58.20                             130   -0.49 5  154 260 
 PTB  HN ES   4    528 17.50                             130   -2.53 0  154 260 
 PTB  HZ I         528 26.28         0.7 0.42            131            154 260 
 ZAR  HZ EP   2    528  3.55                             121   -0.81 4  211 292 
 ZAR  HN ES        528 29.90                             121   -0.22 8  211 292 
 ZAR  HZ I         528 35.10         1.1 0.44            122            211 292 
                                                                                
