 2012  4 6 0611 17.9 L   6.690 -73.282140.3  RSN  5 0.2 1.0LRSN                1
 GAP=180        0.54       6.9     7.7  6.3  0.4229E+02  0.2017E+02  0.1288E+02E
 Epicentro: GALAN - SANTANDER                                                  3
 ACTION:UPD 12-07-05 11:50 OP:tino STATUS:               ID:20120406061117 L   I
 2012-04-06-0610-00M.COL___196                                                 6
 STAT SP IPHASW D HRMM SECON CODA AMPLIT PERI AZIMU VELO AIN AR TRES W  DIS CAZ7
 BAR2 SZ EP   1    611 36.41                             173    -0.3 7   15 135 
 BAR2 SZ ES   1    611 51.18                             173    -0.2 7   15 135 
 BAR2 SZ I         611 51.86         2.5 0.29                            15 135 
 BRR  HZ EP   1    611 38.45                             153     0.3 7   66 314 
 BRR  HZ I         611 38.63         3.3 0.14                            66 314 
 BRR  HE ES   1    611 54.19                             153     0.2 7   66 314 
 RUS  HZ EP   1    611 40.45                             145     0.1 7   91 166 
 RUS  HN ES   1    611 58.09                             145     0.1 7   91 166 
 RUS  HZ I         612  0.42         0.9 0.35                            91 166 
 PTB  HZ EP   1    611 42.86                             134     0.0 7  131 263 
 PTB  HZ I         612  7.52         1.3 0.17                           131 263 
 ZAR  HN ES   1    612 13.20                             122    -0.2 6  195 297 
                                                                                
