 2010 10 6 0728 18.8 L   6.793 -73.156150.3  RSN 13 0.5 3.1LRSN                1
 GAP=170        1.14       4.7     8.4  7.8 -0.2161E+02  0.1202E+02  0.7280E+01E
 Epicentro: LOS SANTOS - SANTANDER                                             3
 ACTION:UP  11-02-18 11:08 OP:tino STATUS:               ID:20101006072818 L   I
 2010-10-06-0726-14S.COL___121                                                 6
 STAT SP IPHASW D HRMM SECON CODA AMPLIT PERI AZIMU VELO SNR AR TRES W  DIS CAZ7
 BAR2 SZ IP        728 38.42                             171    -0.610   22 188 
 BAR2 SZ ES   1    728 54.26                             171    -0.4 7   22 188 
 BAR2 SZ I         728 56.33       327.8 0.24                            22 188 
 BRR  HZ EP        728 40.32                             153    -0.110   71 300 
 BRR  HE ES   1    728 57.65                             153     0.4 7   71 300 
 BRR  HZ I         729  0.14       296.7 0.21                            71 300 
 GUE  SZ EP        728 44.56                             140     0.510  118  13 
 GRA  SZ IP        728 45.22                             138     0.710  127  18 
 GRA  SZ ES   1    729  4.63                             138     0.0 7  127  18 
 GRA  SZ I         729  7.92       157.7 0.37                           127  18 
 OCA  SZ EP        728 46.98                             130    -0.6 9  161 354 
 OCA  SZ ES   1    729  9.83                             130    -0.1 7  161 354 
 OCA  SZ I         729 16.60       156.7 0.26                           161 354 
 NOR  SZ EP        728 54.29                             119    -0.4 8  233 235 
 CHI  HZ EP   1    728 56.34                             118    -0.3 6  248 195 
 CHI  HN ES   1    729 25.91                             118    -0.3 6  248 195 
 CHI  HZ I         729 34.24        69.0 0.70                           248 195 
 ROSC BZ IP     C  728 57.87                             118     0.8 8  251 211 
 ROSC BE ES   1    729 27.73                             118     0.9 6  251 211 
 ROSC BZ I         729 36.37       107.1 0.47                           251 211 
 HEL  HZ EP   1    728 58.77                             116    -0.4 6  271 256 
 HEL  HE ES   2    729 30.42                             116    -0.1 4  271 256 
 HEL  HZ I         729 38.25        66.9 0.27                           271 256 
 RREF HZ EP        729  5.34                             112     0.3 7  320 229 
 RREF HN ES   1    729 41.71                             112     0.7 5  320 229 
 RREF HZ I         729 50.13        95.4 0.33                           320 229 
 DBB  SZ EP        729  6.01                             110    -0.3 7  338 274 
 DBB  SZ I         729 45.15        13.2 0.11                           338 274 
 TOL  SZ EP   1    729  7.12                             110     0.0 5  342 225 
 PRA  HZ EP        729 11.79                             107    -0.6 6  391 209 
 PRA  HE ES   1    729 53.73                             107    -0.4 4  391 209 
                                                                                
