 2010  1 6 0020 11.7 L   6.808 -73.121130.8  RSN  5 0.3 1.3LRSN                1
 GAP=185        0.48       3.7    20.3  6.7 -0.8644E+01  0.1863E+02  0.5518E+00E
 Epicentro: CEPITA - SANTANDER                                                 3
 ACTION:UP  10-08-24 09:42 OP:vdl  STATUS:               ID:20100106002011 L   I
 2010-01-06-0014-48S.COL___097                                                 6
 STAT SP IPHASW D HRMM SECON CODA AMPLIT PERI AZIMU VELO SNR AR TRES W  DIS CAZ7
 BAR2 SZ EP        020 29.82                             169     0.210   25 196 
 BAR2 SZ ES   2    020 43.76                             169     0.2 5   25 196 
 GIR2 SZ EP        020 29.69                             166     0.110   31 345 
 GIR2 SZ ES   3    020 42.85                             166    -0.7 2   31 345 
 RUS  BZ EP        020 33.97                             140    -0.110  101 178 
 RUS  BN ES   2    020 51.46                             140    -0.1 5  101 178 
 RUS  BZ I         020 54.26         3.4 0.30                           101 178 
 OCA  SZ EP   2    020 38.40                             126    -0.5 5  160 352 
 CHI  HZ EP   2    020 49.25                             114     0.4 4  250 196 
 CHI  HN ES   2    021 17.46                             114    -0.3 4  250 196 
                                                                                
