 2010  9 6 0358 36.7 L   6.819 -73.040148.1  RSN 13 0.6 2.5LRSN                1
 GAP=133        1.39       5.6     8.3 10.9 -0.2127E+02  0.1239E+01  0.9323E+01E
 Epicentro: CEPITA - SANTANDER                                                 3
 ACTION:UP  11-02-18 11:00 OP:tino STATUS:               ID:20100906035836 L   I
 2010-09-06-0354-59S.COL___120                                                 6
 STAT SP IPHASW D HRMM SECON CODA AMPLIT PERI AZIMU VELO SNR AR TRES W  DIS CAZ7
 BTL  SZ EP        358 57.96                             169     1.310   27 294 
 BAR2 SZ IP        358 56.83                             168     0.110   30 212 
 BAR2 SZ I         359 14.59        78.5 0.24                            30 212 
 GIR2 SZ EP   1    358 56.83                             167     0.2 7   33 330 
 BRR  HZ IP     C  358 58.56                             150    -0.110   81 293 
 BRR  HE ES   1    359 15.47                             150    -0.3 7   81 293 
 BRR  HZ I         359 18.06        53.3 0.17                            81 293 
 RUS  HZ EP   1    359  0.75                             144     0.0 7  103 183 
 RUS  HN ES   1    359 19.28                                    -0.3 7  103 183 
 RUS  HZ I         359 20.70        48.4 0.10                           103 183 
 GRA  SZ IP        359  1.53                             139    -0.210  121  12 
 GRA  SZ ES   1    359 21.15                             139    -0.1 7  121  12 
 GRA  SZ I         359 22.46        49.7 0.21                           121  12 
 OCA  SZ EP        359  5.25                             130     0.1 9  160 349 
 OCA  SZ ES   1    359 26.81                             130    -0.5 7  160 349 
 OCA  SZ I         359 31.75        35.0 0.51                           160 349 
 ROSC BZ EP   1    359 16.65                             116     0.9 6  261 213 
 ROSC BN ES   1    359 45.47                             116    -0.8 6  261 213 
 ROSC BZ I         359 55.12        17.4 0.41                           261 213 
 HEL  HZ EP   1    359 18.02                             114    -0.3 6  284 256 
 HEL  HE ES   1    359 50.45                             114    -0.3 6  284 256 
 HEL  HZ I         359 56.96        14.6 0.39                           284 256 
 RREF HZ EP   1    359 24.48                             111     0.4 5  332 230 
 RREF HZ I         4 0  9.07        13.6 0.36                           332 230 
 SDV  BZ EP   1    359 26.38                             109     0.8 5  350  49 
 SDV  BN ES   1    4 0  1.98                             109    -1.8 5  350  49 
 DBB  SZ EP   1    359 25.14                             109    -0.4 5  351 274 
 DBB  SZ I         4 0  4.77         2.9 0.51                           351 274 
 PRA  HZ EP   1    359 30.36                             106    -0.8 4  400 211 
 PRA  HE ES        4 0 13.18                             106    -0.5 6  400 211 
 PRA  HZ I         4 0 18.96        15.9 0.37                           400 211 
                                                                                
