 2016  4 6 0354 21.0 L   6.832 -73.178141.3  RSN 14 0.5 1.9LRSN                1
 GAP=131        1.03       2.9     4.0  6.1 -0.1852E+01  0.8074E+01  0.2353E+01E
 Epicentro: ZAPATOCA - SANTANDER                                               3
 ACTION:UPD 16-05-05 14:19 OP:rebc STATUS:               ID:20160406035421 L   I
 OLDACT:UP  16-04-06 17:39 OP:mh   STATUS:               ID:20160406034747d    3
 OLDACT:DUP 16-04-06 17:15 OP:mh   STATUS:               ID:20160406034747d    3
 2016-04-06-0347-46M.COL___280                                                 6
 STAT SP IPHASW D HRMM SECON CODA AMPLIT PERI AZIMU VELO AIN AR TRES W  DIS CAZ7
 BAR2 EZ EP        354 40.31                             169    0.1210 26.5 181 
 BAR2 EZ ES        354 54.60                             169   -0.5410 26.5 181 
 BAR2 EZ I         354 56.57        12.4 0.18            169           26.5 181 
 PAM  EZ EP        354 43.24                             150    0.4910 77.1  43 
 PAM  EN ES        354 59.89                             150    0.1910 77.1  43 
 PAM  EZ I         355  2.51        15.1 0.57            153           77.1  43 
 RUS  HZ EP        354 44.32                             142   -0.3110  104 174 
 RUS  HN ES        355  3.26                             142    0.2310  104 174 
 RUS  HZ I         355  3.81         7.5 0.22            145            104 174 
 PTB  HZ EP        354 47.09                             131   -0.30 9  145 257 
 PTB  HN ES        355  7.54                             131   -0.40 9  145 257 
 PTB  HZ I         355 14.96         7.7 0.32            130            145 257 
 OCA  HZ EP        354 47.92                             129   -0.71 9  156 354 
 OCA  HN ES        355 10.31                             129    0.15 9  156 354 
 OCA  HZ I         355 15.65        16.1 0.37            129            156 354 
 SPBC HZ EP   1    354 49.13                             128   -0.11 7  164 217 
 SPBC HN ES        355 11.60                             128    0.35 9  164 217 
 SPBC HZ I         355 13.72        16.6 0.38            128            164 217 
 ZAR  HN ES        355 18.18                             122    0.76 9  199 292 
 ZAR  HZ I         355 23.50         7.3 0.28            121            199 292 
 CHI  HZ EP   1    354 58.23                             116   -0.53 6  251 194 
 CHI  HN ES        355 27.72                             116   -0.46 8  251 194 
 CHI  HZ I         355 31.38         5.6 0.47            117            251 194 
 ROSC BZ EP   1    354 59.31                             116    0.27 6  254 210 
 ROSC BN ES   1    355 29.07                             116    0.38 6  254 210 
 ROSC BZ I         355 34.48         9.4 0.45            116            254 210 
 HEL  HZ EP   1    355  1.57                             114    0.83 6  270 255 
 HEL  HN ES        355 31.18                             114   -0.53 8  270 255 
 HEL  HZ I         355 38.33         4.3 0.16            114            270 255 
 GUY2CHE EP   1    355  4.73                             111    0.39 5  300 234 
 GUY2CHZ EP   4    355  5.58                             111    1.24 0  300 234 
 GUY2CHZ ES   4    355 40.50                             111    2.38 0  300 234 
 VIL  SE ES        355 39.28                             111    0.77 7  306 191 
 ORTC HZ EP        355 14.15                             105   -0.74 6  396 215 
 ORTC HN ES   1    355 57.63                             105    0.73 4  396 215 
 ORTC HZ I         356  1.71         2.5 0.27            106            396 215 
 SJC  HZ EP   4    355 14.44                             105   -1.44 0  404 327 
 SJC  HN ES   4    355 55.35                             105   -3.31 0  404 327 
 SJC  HZ I         356  9.51         2.6 0.83            106            404 327 
                                                                                
