 2016  2 6 0605 57.1 L   6.867 -73.224132.7  RSN  7 0.4 1.5LRSN                1
 GAP=123        0.69       3.9     5.7  8.2 -0.8415E+01  0.2214E+02 -0.5590E+01E
 Epicentro: BETULIA - SANTANDER                                                3
 ACTION:UPD 16-03-04 21:23 OP:rebc STATUS:               ID:20160206060557 L   I
 OLDACT:DUP 16-02-06 18:16 OP:dnl  STATUS:               ID:20160206055750d    3
 OLDACT:REG 16-02-06 13:21 OP:dnl  STATUS:               ID:20160206055749     3
 2016-02-06-0557-49M.COL___334                                                 6
 STAT SP IPHASW D HRMM SECON CODA AMPLIT PERI AZIMU VELO AIN AR TRES W  DIS CAZ7
 BAR2 EZ EP        6 6 15.55                             166    0.1610 30.7 171 
 BAR2 EZ ES   2    6 6 29.89                             166    0.27 5 30.7 171 
 BAR2 EZ I         6 6 31.50         5.6 0.32            166           30.7 171 
 PAM  EZ EP        6 6 18.44                             148    0.4210 78.1  48 
 PAM  EN ES        6 6 34.03                             148   -0.2910 78.1  48 
 PAM  EZ I         6 6 37.46         9.9 0.48            156           78.1  48 
 RUS  HZ EP   2    6 6 19.66                             138   -0.62 5  109 172 
 RUS  HE ES   2    6 6 37.64                             138   -0.69 5  109 172 
 RUS  HZ I         6 6 39.57         2.0 0.40            146            109 172 
 PTB  HZ EP   2    6 6 22.03                             130   -0.40 5  141 255 
 PTB  HE ES   2    6 6 42.80                             130    0.64 5  141 255 
 PTB  HZ I         6 6 50.56         3.4 0.48            130            141 255 
 OCA  HZ EP   2    6 6 24.06                             128    0.39 5  152 356 
 OCA  HE ES   2    6 6 44.34                             128   -0.03 5  152 356 
 OCA  HZ I         6 6 51.54         6.1 0.21            130            152 356 
 SPBC HZ EP   2    6 6 24.75                             125    0.02 5  164 215 
 SPBC HN ES   2    6 6 46.28                             125    0.03 5  164 215 
 SPBC HZ I         6 6 52.59         5.5 0.26            129            164 215 
 SML  HZ EP   2    6 6 31.91                             115   -0.02 4  233 336 
 SML  HE ES   2    6 6 57.99                             115   -1.08 4  233 336 
 SML  HZ I         6 7  3.97         4.4 0.09            118            233 336 
                                                                                
