 2015  8 6 0707 56.5 L   6.925 -72.833137.3  RSN  4 0.3 1.3LRSN                1
 GAP=260        0.63       7.4     7.4  7.8  0.1812E+02 -0.1536E+02 -0.3841E+02E
 Epicentro: GUACA - SANTANDER                                                  3
 ACTION:UPD 15-09-15 23:00 OP:cam  STATUS:               ID:20150806070756 L   I
 OLDACT:REG 15-08-06 13:07 OP:spq  STATUS:               ID:20150806065748     3
 2015-08-06-0657-48M.COL___349                                                 6
 STAT SP IPHASW D HRMM SECON CODA AMPLIT PERI AZIMU VELO AIN AR TRES W  DIS CAZ7
 BAR2 EZ ES   1    7 8 31.84                             157    0.36 7 53.4 226 
 BAR2 EZ I         7 8 33.41         2.5 0.34            165           53.4 226 
 BRR  HZ EP        7 8 18.66                             142    0.0010 99.2 282 
 BRR  HE ES        7 8 35.57                             142   -0.3410 99.2 282 
 BRR  HZ I         7 8 37.34         3.6 0.62            145           99.2 282 
 ZAR  HZ EP   1    7 8 31.74                             117    0.28 6  232 286 
 ZAR  HN ES        7 8 58.81                             117    0.11 8  232 286 
 ZAR  HZ I         7 8 59.57         2.3 0.34            120            232 286 
 SML  HZ EP        7 8 32.90                             115   -0.30 8  248 327 
 SML  HE ES   1    7 9  2.25                             115    0.44 6  248 327 
 SML  HZ I         7 9  6.34         2.0 0.08            117            248 327 
                                                                                
