 2013  3 6 0643 49.3 L   6.698 -73.182154.3  RSN  6 0.3 1.7LRSN                1
 GAP=196        0.68       5.6     6.0  6.3  0.1916E+02 -0.4911E+01 -0.6410E+01E
 Epicentro: VILLANUEVA - SANTANDER                                             3
 ACTION:UPD 13-04-09 14:00 OP:ep   STATUS:               ID:20130306064350dL   I
 2013-03-06-0640-00M.COL___228                                                 6
 STAT SP IPHASW D HRMM SECON CODA AMPLIT PERI AZIMU VELO AIN AR TRES W  DIS CAZ7
 BAR2 SZ EP   1    644  9.51                             176   -0.33 7 11.7 180 
 BAR2 SZ I         644 26.72        13.1 0.29            170           11.7 180 
 BRR  HZ IP     C  644 11.76                             153    0.1810 74.0 308 
 BRR  HE ES        644 29.11                             153    0.1810 74.0 308 
 BRR  HE I         644 29.76        24.5 0.38            155           74.0 308 
 RUS  HZ EP        644 13.45                             149    0.2210 89.7 173 
 RUS  HE ES   1    644 31.64                             149   -0.22 7 89.7 173 
 RUS  HE I         644 33.29         6.0 0.30            148           89.7 173 
 PTB  HZ EP        644 16.50                             135   -0.03 9  142 263 
 PTB  HE ES   1    644 37.40                             135   -0.33 7  142 263 
 PTB  HZ I         644 38.58         4.4 0.14            139            142 263 
 ZAR  HZ EP   1    644 23.04                             124    0.59 6  205 295 
 ZAR  HE ES   1    644 48.11                             124   -0.17 6  205 295 
 ZAR  HZ I         644 50.59         2.9 0.22            125            205 295 
 SML  HZ EP   1    644 26.65                             118   -0.75 6  252 337 
                                                                                
