 2011  1 6 0347 28.0 L   7.399 -73.147130.7  RSN  9 0.5 1.9LRSN                1
 GAP=142        0.87       3.8     8.1  9.1 -0.6832E+01  0.4010E+02  0.7055E+01E
 Epicentro: EL PLAYON - SANTANDER                                              3
 ACTION:UP  11-02-08 08:38 OP:pat  STATUS:               ID:20110106034728 L   I
 2011-01-06-0343-22S.COL___135                                                 6
 STAT SP IPHASW D HRMM SECON CODA AMPLIT PERI AZIMU VELO SNR AR TRES W  DIS CAZ7
 GRA  SZ IP        347 47.84                             151     0.410   66  35 
 GRA  SZ ES   1    348  2.93                             151     0.3 7   66  35 
 GRA  SZ I         348  6.67        59.6 0.31                            66  35 
 BAR2 SZ EP   1    347 49.24                             144     0.1 7   89 183 
 BAR2 SZ ES   1    348  5.55                             144     0.0 7   89 183 
 BAR2 SZ I         348  6.73        54.3 0.10                            89 183 
 OCA  SZ EP   1    347 49.15                             142    -0.3 7   95 348 
 OCA  SZ ES   1    348  5.88                             142    -0.2 7   95 348 
 OCA  SZ I         348  7.77        20.7 0.14                            95 348 
 RUS  HZ EP   1    347 55.76                             125    -0.5 7  167 178 
 RUS  HN ES   1    348 17.73                             125    -0.6 7  167 178 
 RUS  HZ I         348 20.22         4.0 0.28                           167 178 
 NOR  SZ EP   1    348  7.55                             111    -0.3 6  278 223 
 NOR  SE ES   1    348 39.07                             111     0.2 6  278 223 
 HEL  HZ EP   2    348 10.55                             110     0.4 4  295 243 
 HEL  HZ I         348 50.67         4.3 0.28                           295 243 
 CHI  HZ EP   2    348 13.13                             108     0.9 3  313 192 
 CHI  HN ES   2    348 47.12                             108     0.4 3  313 192 
 CHI  HZ I         348 54.12         2.4 0.35                           313 192 
 DBB  SZ EP   1    348 14.12                             106    -1.0 5  341 263 
 DBB  SZ I         348 54.18         1.5 0.57                           341 263 
 RREF HZ EP   1    348 19.67                             105     0.7 5  368 222 
 RREF HE ES   1    348 59.30                             105     0.6 5  368 222 
                                                                                
