 2010  5 6 0452 34.3 L   6.733 -73.024139.7  RSN  8 0.4 1.6LRSN                1
 GAP=216        0.79       6.7     9.4  8.4 -0.2911E+02 -0.3308E+02  0.1566E+02E
 Epicentro: ARATOCA - SANTANDER                                                3
 ACTION:UP  10-08-24 10:03 OP:vdl  STATUS:               ID:20100506045235dL   I
 2010-05-06-0451-26S.COL___105                                                 6
 STAT SP IPHASW D HRMM SECON CODA AMPLIT PERI AZIMU VELO SNR AR TRES W  DIS CAZ7
 BAR2 SZ EP   1    452 53.38                             170     0.2 8   24 229 
 GIR2 SZ EP   1    452 53.46                             162    -0.2 8   43 334 
 GIR2 SZ ES   1    453  8.41                             162    -0.3 8   43 334 
 BRR  HZ EP   1    452 56.24                             146     0.5 8   87 299 
 BRR  HE ES   1    453 12.65                             146     0.1 8   87 299 
 BRR  HZ I         453 13.77         7.4 0.19                            87 299 
 BRI  SZ EP   1    452 58.24                             139     0.4 8  112  13 
 GUE  SZ EP   1    452 58.68                             137    -0.2 8  122   5 
 GUE  SZ ES   1    453 17.77                             137    -0.3 8  122   5 
 GRA  SZ EP        452 59.51                             135     0.210  130  11 
 GRA  SZ ES   1    453 18.99                             135     0.1 7  130  11 
 OCA  SZ EP   1    453  2.20                             126    -0.9 7  170 349 
 OCA  SZ ES   1    453 25.91                             126     0.4 7  170 349 
 OCA  SZ I         453 29.05         5.8 0.24                           170 349 
 HEL  HN ES   3    453 46.34                             112    -1.3 2  283 258 
 HEL  HZ I         453 52.35         1.3 0.65                           283 258 
                                                                                
