 2017 12 6 0512 48.5 L   6.821 -73.125138.4  RSN  7 0.4 1.6LRSN                1
 GAP=185        0.90       3.3     4.7  6.8  0.3662E+00  0.7269E+01 -0.5670E+01E
 Epicentro: LOS SANTOS - SANTANDER                                             3
 ACTION:UPD 18-01-04 13:17 OP:rebc STATUS:               ID:20171206051248 L   I
 OLDACT:REG 17-12-06 13:34 OP:leo  STATUS:               ID:20171206050740     3
 2017-12-06-0508-00M.COL___495                                                 6
 STAT SP IPHASW D HRMM SECON CODA AMPLIT PERI AZIMU VELO AIN AR TRES W  DIS CAZ7
 BAR2 EZ EP        513  7.43                             169    0.1210 26.1 194 
 BAR2 EZ ES        513 21.68                             169   -0.3010 26.1 194 
 BAR2 EZ I         513 23.57         7.7 0.38            167           26.1 194 
 RUS  HZ EP        513 12.09                             142    0.3910  103 177 
 RUS  HN ES        513 29.85                             142    0.0510  103 177 
 RUS  HZ I         513 32.28         2.6 0.20            144            103 177 
 PTB  HZ EP        513 14.10                             130   -1.03 9  151 258 
 PTB  HE ES        513 36.01                             130    0.10 9  151 258 
 PTB  HZ I         513 37.94         6.5 0.32            130            151 258 
 OCA  HZ EP        513 16.09                             128    0.04 9  158 352 
 OCA  HN ES        513 37.58                             128    0.04 9  158 352 
 SPBC HZ EP        513 16.72                             127   -0.04 9  166 219 
 SPBC HN ES        513 39.00                             127    0.19 9  166 219 
 SPBC HZ I         513 42.08         4.9 0.22            127            166 219 
 ZAR  HZ EP        513 20.78                             120    0.17 8  205 291 
 ZAR  HE ES        513 45.99                             120    0.33 8  205 291 
 ZAR  HZ I         513 53.21         6.5 0.46            121            205 291 
 GUY2CHZ EP   4    513 31.63                             111   -0.52 0  304 235 
 GUY2CHN ES   4    514  9.11                             111    2.91 0  304 235 
 GUY2CHZ I         514 12.83         2.7 0.26                           304 235 
                                                                                
