 2010  4 6 0249 30.8 L   6.858 -72.948138.6  RSN  4 0.2 2.2LRSN                1
 GAP=237        0.48       2.8     5.8  4.4 -0.1011E+01 -0.5388E+01 -0.2642E+01E
 Epicentro: CEPITA - SANTANDER                                                 3
 ACTION:UPD 10-08-24 09:57 OP:vdl  STATUS:               ID:20100406024931 L   I
 2010-04-06-0246-16S.COL___098                                                 6
 STAT SP IPHASW D HRMM SECON CODA AMPLIT PERI AZIMU VELO AIN AR TRES W  DIS CAZ7
 BAR2 SZ EP        249 50.19                             164     0.110   39 222 
 BAR2 SZ ES        250  4.98                             164    -0.110   39 222 
 BRR  HZ EP        249 52.27                             148    -0.110   89 288 
 BRR  HZ I         249 52.66        33.3 0.06                            89 288 
 BRR  HN ES        250  9.17                             148     0.010   89 288 
 OCA  SZ EP        249 58.20                             130    -0.2 9  158 345 
 OCA  SZ ES        250 19.99                             130     0.1 9  158 345 
 RREF BZ EP   2    250 19.82                             108     0.7 3  343 231 
 RREF BN ES   2    250 56.20                             108    -0.5 3  343 231 
 RREF BZ I         251  2.06         4.5 0.31                           343 231 
                                                                                
