 2011  4 6 0800 53.1 L   6.741 -73.083146.0  RSN  9 0.3 2.0LRSN                1
 GAP=183        0.66       4.5     7.0  6.1 -0.1920E+02 -0.3906E+01  0.4165E+01E
 Epicentro: JORDAN - SANTANDER                                                 3
 ACTION:UP  11-06-22 15:29 OP:REBC STATUS:               ID:20110406080052 L   I
 2011-04-06-0758-13S.COL___125                                                 6
 STAT SP IPHASW D HRMM SECON CODA AMPLIT PERI AZIMU VELO SNR AR TRES W  DIS CAZ7
 BAR2 SZ EP   1    8 1 12.84                             172     0.1 7   20 214 
 BAR2 SZ ES   1    8 1 27.59                             172    -0.4 7   20 214 
 BAR2 SZ I         8 1 29.12        20.7 0.43                            20 214 
 BTL  SZ EP        8 1 13.14                             169     0.310   28 314 
 GIR2 SZ EP   1    8 1 12.95                             164    -0.1 7   39 342 
 BRR  HZ EP   1    8 1 14.72                             150    -0.1 7   80 300 
 BRR  HZ I         8 1 15.02        36.3 0.14                            80 300 
 BRR  HE ES   1    8 1 32.09                             150     0.3 7   80 300 
 GRA  SZ IP        8 1 18.63                             136    -0.110  130  14 
 GRA  SZ I         8 1 20.12        10.5 0.29                           130  14 
 GRA  SZ ES        8 1 38.92                             136     0.210  130  14 
 OCA  SZ EP   1    8 1 21.54                             128    -0.6 7  168 351 
 OCA  SZ ES   2    8 1 44.95                             128     0.2 5  168 351 
 OCA  SZ I         8 1 48.29         8.9 0.34                           168 351 
 NOR  SN ES   2    8 1 56.36                             118    -0.8 4  237 237 
 CHI  HZ EP   2    8 1 30.83                             118     0.5 4  244 197 
 CHI  HN ES   3    8 2  0.01                             118     0.6 2  244 197 
 RREF HZ EP   2    8 1 39.98                             111     0.6 3  323 231 
 RREF HN ES   2    8 2 15.65                             111     0.2 3  323 231 
 RREF HZ I         8 2 21.27         3.0 0.38                           323 231 
                                                                                
