 2013  8 6 0652  8.9 L   6.752 -73.120145.9  RSN 10 0.5 1.8LRSN                1
 GAP=204        1.06       5.0     7.4  7.7 -0.8516E+01  0.5531E+01  0.1333E+02E
 Epicentro: LOS SANTOS - SANTANDER                                             3
 ACTION:UPD 14-01-14 08:59 OP:ep   STATUS:               ID:20130806065208 L   I
 OLDACT:REG 13-08-06 08:02 OP:jn   STATUS:               ID:20130806064959     3
 2013-08-06-0649-59M.COL___268                                                 6
 STAT SP IPHASW D HRMM SECON CODA AMPLIT PERI AZIMU VELO AIN AR TRES W  DIS CAZ7
 BAR2 SZ EP        652 28.51                             172    0.0510 18.9 201 
 BAR2 SZ ES        652 43.60                             172   -0.1210 18.9 201 
 BAR2 SZ I         652 44.73        11.3 0.20            174           18.9 201 
 GIR2 SZ EP        652 28.81                             165    0.0610 37.0 347 
 GIR2 SZ I         652 46.05        18.9 0.44            162           37.0 347 
 BRR  HZ EP        652 30.58                             151    0.2310 76.3 301 
 BRR  HN ES        652 47.76                             151    0.6710 76.3 301 
 BRR  HZ I         652 52.50        10.9 0.14            150           76.3 301 
 PTB  HZ EP   1    652 35.20                             132   -0.84 7  150 261 
 PTB  HN ES   1    652 56.29                             132   -0.92 7  150 261 
 PTB  HZ I         652 58.58         8.3 0.16            130            150 261 
 SPBC HZ EP        652 37.28                             129    0.09 9  161 221 
 SPBC HN ES   1    652 58.86                             129   -0.40 7  161 221 
 SPBC HZ I         653  1.36         8.9 0.50            128            161 221 
 OCA  HN ES   1    652 59.40                             129   -0.85 7  166 352 
 OCA  HZ I         653  2.75         7.7 0.48            125            166 352 
 CHI  HN ES   1    653 15.39                             118    0.22 6  244 196 
 CHI  HZ I         653 19.83         3.2 0.60            116            244 196 
 HEL  HN ES   1    653 21.47                             115    0.69 6  274 257 
 HEL  HZ I         653 27.49         3.7 0.22            113            274 257 
 GUY2CHZ EP   1    652 53.44                             112    1.01 5  300 236 
 GUY2CHZ I         653 34.90         4.8 0.34                           300 236 
 PRA  HZ EP        653  2.17                             107    0.13 6  389 210 
 PRA  HN ES        653 42.99                             107   -0.51 6  389 210 
 PRA  HZ I         653 52.12         2.8 0.50            105            389 210 
                                                                                
