 2017  8 6 0958 46.4 L   6.666 -73.545102.0  RSN  4 0.5 1.1LRSN                1
 GAP=161        0.66       7.2     3.6  7.3  0.1508E+01  0.9950E+01  0.8942E+01E
 Epicentro: EL CARMEN - SANTANDER                                              3
 ACTION:UPD 17-09-04 20:17 OP:rebc STATUS:               ID:20170806095846 L   I
 OLDACT:UP  17-08-06 18:42 OP:osc  STATUS:               ID:20170806094746     3
 OLDACT:UP  17-08-06 18:42 OP:osc  STATUS:               ID:20170806094746     3
 OLDACT:UP  17-08-06 18:42 OP:osc  STATUS:               ID:20170806094746     3
 OLDACT:REG 17-08-06 12:56 OP:osc  STATUS:               ID:20170806094746     3
 2017-08-06-0948-00M.COL___380                                                 6
 STAT SP IPHASW D HRMM SECON CODA AMPLIT PERI AZIMU VELO AIN AR TRES W  DIS CAZ7
 BAR2 EZ EP     D  959  1.70                             156    0.1610 40.9 102 
 BAR2 EZ ES        959 13.46                             156    0.1610 40.9 102 
 BAR2 EZ I         959 15.34         3.8 0.16            160           40.9 102 
 BRR  HZ EP   1    959  1.64                             151   -0.15 7 52.1 339 
 BRR  HE ES   1    959 13.52                             151   -0.24 7 52.1 339 
 PTB  HZ EP        959  5.46                             131   -0.2110  102 262 
 PTB  HN ES        959 20.67                             131    0.0010  102 262 
 PTB  HZ I         959 25.59         4.0 0.04            133            102 262 
 ZAR  HN ES   3    959 35.61                             116    2.23 2  171 302 
                                                                                
