 2013  1 6 0915 12.7 L   6.674 -73.214137.9  RSN  5 0.3 1.5LRSN                1
 GAP=208        0.76       5.4     5.1  5.6  0.1703E+02  0.6234E+01 -0.7014E+00E
 Epicentro: BARICHARA - SANTANDER                                              3
 ACTION:UPD 13-02-15 09:12 OP:ep   STATUS:               ID:20130106091512 L   I
 2013-01-06-0909-40M.COL___186                                                 6
 STAT SP IPHASW D HRMM SECON CODA AMPLIT PERI AZIMU VELO AIN AR TRES W  DIS CAZ7
 BAR2 SZ EP        915 31.19                             176    0.0310 9.73 159 
 BAR2 SZ ES        915 45.12                             176   -0.4510 9.73 159 
 BAR2 SZ I         915 47.28         8.7 0.20            175           9.73 159 
 BRR  HZ EP        915 33.20                             150    0.1110 72.9 311 
 BRR  HN ES        915 49.49                             150    0.4810 72.9 311 
 BRR  HN I         915 53.87         9.0 0.14            152           72.9 311 
 RUS  HZ EP        915 34.67                             146   -0.0710 87.6 170 
 RUS  HN ES        915 52.08                             146    0.1310 87.6 170 
 RUS  HN I         915 55.88         4.2 0.32            148           87.6 170 
 PTB  HZ EP        915 38.10                             132   -0.04 9  138 264 
 PTB  HN ES        915 58.14                             132    0.15 9  138 264 
 PTB  HN I         916  1.13         5.5 0.20            134            138 264 
 ZAR  HZ EP        915 44.66                             121    0.15 9  203 297 
 ZAR  HN ES        916  8.73                             121   -0.60 9  203 297 
                                                                                
