 2013  7 6 0407 37.9 L   6.810 -73.151142.4  RSN 15 0.5 2.6LRSN                1
 GAP= 70        1.10       3.2     3.3  5.6 -0.7846E-01  0.5343E+01  0.3889E+01E
 Epicentro: LOS SANTOS - SANTANDER                                             3
 ACTION:UPD 13-08-12 10:35 OP:ep   STATUS:               ID:20130706040737 L   I
 OLDACT:REG 13-07-06 11:26 OP:jn   STATUS:               ID:20130706040636     3
 2013-07-06-0406-36M.COL___227                                                 6
 STAT SP IPHASW D HRMM SECON CODA AMPLIT PERI AZIMU VELO AIN AR TRES W  DIS CAZ7
 BAR2 SZ IP     C  4 7 57.20                             170    0.0310 24.3 188 
 BAR2 SZ ES        4 8 11.68                             170   -0.5110 24.3 188 
 BAR2 SZ I         4 8 13.23        96.1 0.26            170           24.3 188 
 BRR  HZ IP     D  4 7 59.06                             152    0.4110 70.2 298 
 BRR  HN ES        4 8 15.39                             152    0.5710 70.2 298 
 BRR  HZ I         4 8 20.27        52.2 0.14            150           70.2 298 
 PAM  SZ EP     D  4 8  0.01                             150    0.2510 76.9  40 
 PAM  SN ES        4 8 17.15                             150    0.3610 76.9  40 
 PAM  SZ I         4 8 19.51        70.2 0.62            153           76.9  40 
 RUS  HZ EP     D  4 8  1.21                             143   -0.2210  102 176 
 RUS  HN ES   1    4 8 19.02                             143   -0.74 7  102 176 
 RUS  HZ I         4 8 20.69        51.7 0.26            145            102 176 
 PTB  HZ EP        4 8  4.00                             131   -0.58 9  147 258 
 PTB  HN ES   1    4 8 24.64                             131   -0.74 7  147 258 
 PTB  HZ I         4 8 27.29        54.8 0.16            131            147 258 
 TAM  HZ EP     C  4 8  5.56                             130    0.14 9  156 105 
 TAM  HN ES        4 8 27.14                             130    0.28 9  156 105 
 TAM  HZ I         4 8 27.71        37.1 0.26            133            156 105 
 OCA  HN ES   1    4 8 27.20                             129   -0.46 7  159 353 
 OCA  HZ I         4 8 31.89        38.1 0.42            130            159 353 
 ZAR  HZ EP   1    4 8  9.44                             122   -0.61 6  203 292 
 ZAR  HE ES   1    4 8 36.03                             122    0.92 6  203 292 
 ZAR  HZ I         4 8 41.45        84.4 0.42            122            203 292 
 NOR  HZ EP        4 8 13.72                             118    0.24 8  235 234 
 NOR  HN ES   1    4 8 41.71                             118    0.50 6  235 234 
 NOR  HZ I         4 8 43.16        30.1 0.34            118            235 234 
 SML  HZ EP        4 8 13.41                             117   -0.82 8  242 335 
 SML  HN ES        4 8 41.97                             117   -0.58 8  242 335 
 SML  HZ I         4 8 49.19        53.1 0.10            118            242 335 
 CHI  HZ EP        4 8 15.92                             116    0.39 8  250 195 
 CHI  HN ES        4 8 44.61                             116   -0.26 8  250 195 
 CHI  HZ I         4 8 52.55        11.8 0.46            117            250 195 
 HEL  HZ EP        4 8 17.90                             114   -0.03 8  272 256 
 HEL  HN ES        4 8 50.13                             114    0.99 8  272 256 
 HEL  HZ I         4 8 55.69        23.5 0.54            115            272 256 
 GUY2CHZ EP        4 8 21.78                             112    0.39 7  301 235 
 GUY2CHN ES   1    4 8 54.61                             112   -0.69 5  301 235 
 GUY2CHZ I         4 9  6.22        20.1 0.44                           301 235 
 RREF HZ EP   4    4 8 22.29                             110   -1.66 0  322 229 
 RREF HE ES   4    4 8 59.22                             110   -0.63 0  322 229 
 RREF HZ I         4 9  8.76        18.7 0.44            111            322 229 
 PRA  HZ EP        4 8 31.84                             106    0.44 6  393 209 
 PRA  HN ES        4 9 12.80                             106   -0.32 6  393 209 
 PRA  HZ I         4 9 17.63        10.1 0.20            107            393 209 
 ORTC HN ES   4    4 9 15.22                             106    1.41 0  396 216 
                                                                                
