 2015  5 6 0537 55.2 L   6.833 -73.203134.9  RSN  9 0.5 1.7LRSN                1
 GAP=128        1.14       4.3     4.5  7.0 -0.2750E+01  0.1370E+02  0.2759E+01E
 Epicentro: ZAPATOCA - SANTANDER                                               3
 ACTION:UPD 15-09-10 22:01 OP:cam  STATUS:               ID:20150506053755 L   I
 OLDACT:UP  15-05-06 16:29 OP:drio STATUS:               ID:20150506052750     3
 OLDACT:REG 15-05-06 12:32 OP:drio STATUS:               ID:20150506052750     3
 2015-05-06-0527-50M.COL___276                                                 6
 STAT SP IPHASW D HRMM SECON CODA AMPLIT PERI AZIMU VELO AIN AR TRES W  DIS CAZ7
 BAR2 EZ EP        538 13.60                             168    0.0110 26.8 175 
 BAR2 EZ ES        538 28.29                             168    0.3410 26.8 175 
 BAR2 EZ I         538 29.54        12.5 0.22            168           26.8 175 
 BRR  HZ EP        538 14.33                             153   -0.4210 63.8 298 
 BRR  HN ES        538 29.21                             153   -0.8010 63.8 298 
 BRR  HZ I         538 33.53        10.4 0.20            150           63.8 298 
 PAM  SZ EP        538 16.22                             148   -0.1310 78.9  45 
 PAM  SZ I         538 16.36         8.6 0.22            154           78.9  45 
 PAM  SN ES        538 33.39                             148    0.5210 78.9  45 
 RUS  HZ EP        538 18.03                             140   -0.1910  105 173 
 RUS  HN ES        538 36.13                             140   -0.0510  105 173 
 RUS  HZ I         538 36.89         4.6 0.20            143            105 173 
 SPBC HZ EP        538 22.60                             127   -0.18 9  162 216 
 SPBC HN ES        538 44.04                             127   -0.26 9  162 216 
 SPBC HZ I         538 51.50        10.1 0.22            127            162 216 
 ZAR  HZ EP        538 26.44                             121    0.26 9  197 292 
 ZAR  HN ES        538 51.06                             121    0.70 9  197 292 
 ZAR  HZ I         538 58.07         6.8 0.40            121            197 292 
 NOR  HN ES        538 57.95                             116    0.82 8  232 233 
 NOR  HZ I         539  1.42         5.1 0.18            117            232 233 
 HEL  HZ EP        538 34.29                             113    0.01 8  267 255 
 HEL  HN ES        539  3.87                             113   -0.90 8  267 255 
 HEL  HZ I         539 12.80         1.8 0.22            114            267 255 
 GUY2CHZ EP        538 37.88                             110   -0.09 7  298 233 
 GUY2CHN ES        539 12.11                             110    0.77 7  298 233 
 GUY2CHZ I         539 20.21         3.6 0.34                           298 233 
                                                                                
