 2011 10 6 0935 30.7 L   6.664 -73.060140.4  RSN  6 0.3 1.7LRSN                1
 GAP=211        0.67       7.5     6.3  6.2 -0.2070E+02  0.3605E+01  0.1250E+02E
 Epicentro: ARATOCA - SANTANDER                                                3
 ACTION:UPD 12-07-13 16:02 OP:ep   STATUS:               ID:20111006093530 L   I
 2011-10-06-0920-00M.COL___171                                                 6
 STAT SP IPHASW D HRMM SECON CODA AMPLIT PERI AZIMU VELO AIN AR TRES W  DIS CAZ7
 BAR2 SZ EP        935 49.84                             173    0.3110 15.7 240 
 BAR2 SZ ES   1    936  4.02                             173   -0.21 7 15.7 240 
 BAR2 SZ I         936  6.60        12.0 0.36                          15.7 240 
 GIR2 SZ EP   1    935 50.14                             160   -0.16 7 48.2 342 
 GIR2 SZ ES   1    936  5.76                             160    0.15 7 48.2 342 
 PAM  SZ EP   1    935 52.76                             148   -0.03 7 84.7  28 
 PAM  SN ES   1    936 10.08                             148    0.05 7 84.7  28 
 PAM  SZ I         936 11.78         3.6 0.44                          84.7  28 
 BRR  HZ EP        935 51.77                             147   -0.4910 87.2 304 
 BRR  HZ I         935 52.03        31.8 0.16                          87.2 304 
 BRR  HE ES   1    936  9.28                             147    0.19 7 87.2 304 
 NOR  SN ES   2    936 33.38                             117   -0.28 4  234 239 
 HEL  HZ EP   1    936 12.00                             113    0.70 6  278 259 
 HEL  HZ I         936 49.00         2.5 0.60                           278 259 
                                                                                
