 2013  4 6 0355 52.6 L   6.854 -73.187138.1  RSN  8 0.4 1.6LRSN                1
 GAP=179        0.98       4.1     5.4  8.4  0.2506E+01  0.1053E+02 -0.1127E+02E
 Epicentro: ZAPATOCA - SANTANDER                                               3
 ACTION:UPD 13-05-22 14:36 OP:EP   STATUS:               ID:20130406035552 L   I
 2013-04-06-0350-00M.COL___245                                                 6
 STAT SP IPHASW D HRMM SECON CODA AMPLIT PERI AZIMU VELO AIN AR TRES W  DIS CAZ7
 BAR2 SZ EP        356 11.46                             168    0.0610 29.0 179 
 BAR2 SZ ES        356 26.17                             168    0.0610 29.0 179 
 BAR2 SZ I         356 29.01         9.2 0.38            170           29.0 179 
 BRR  HZ EP        356 13.17                             154    0.6710 64.4 296 
 BRR  HN ES   4    356 29.86                             154    1.81 0 64.4 296 
 BRR  HZ I         356 34.07         8.7 0.42            152           64.4 296 
 RUS  HZ EP     D  356 16.02                             140   -0.0310  107 174 
 RUS  HN ES        356 34.18                             140   -0.2010  107 174 
 RUS  HZ I         356 35.96         2.7 0.26            147            107 174 
 PTB  HZ EP        356 18.27                             131   -0.35 9  145 256 
 PTB  HN ES        356 38.26                             131   -0.69 9  145 256 
 PTB  HZ I         356 43.63         5.8 0.12            133            145 256 
 OCA  HE ES   1    356 41.12                             129    0.30 7  154 355 
 ZAR  HN ES   1    356 48.70                             122    0.46 6  198 291 
 ZAR  HZ I         356 54.24         5.0 0.46            125            198 291 
 NOR  HN ES   1    356 56.25                             117    0.89 6  235 233 
 SML  HZ EP        356 27.75                             117   -0.21 8  236 336 
 SML  HN ES   1    356 55.08                             117   -0.50 6  236 336 
                                                                                
