 2015  3 6 0913 16.5 L   6.816 -73.138141.1  RSN  6 0.3 1.2LRSN                1
 GAP=137        0.90       4.2     4.4  6.1 -0.4475E+01  0.3951E+01  0.3130E+01E
 Epicentro: LOS SANTOS - SANTANDER                                             3
 ACTION:UPD 15-04-30 16:23 OP:nd   STATUS:               ID:20150306091316 L   I
 OLDACT:REG 15-03-06 13:03 OP:spq  STATUS:               ID:20150306090748     3
 2015-03-06-0907-48M.COL___284                                                 6
 STAT SP IPHASW D HRMM SECON CODA AMPLIT PERI AZIMU VELO AIN AR TRES W  DIS CAZ7
 BAR2 EZ EP        913 35.97                             169    0.3310 25.2 191 
 BAR2 EZ ES        913 50.47                             169   -0.0810 25.2 191 
 BAR2 EZ I         913 53.61         4.1 0.24            170           25.2 191 
 BRR  HZ EP        913 37.51                             152    0.3410 71.1 297 
 BRR  HN ES        913 53.54                             152    0.2710 71.1 297 
 BRR  HZ I         913 58.12         4.2 0.48            153           71.1 297 
 PAM  SZ EP        913 38.53                             151    0.3910 75.5  40 
 PAM  SE ES        913 54.51                             151   -0.4810 75.5  40 
 PAM  SZ I         913 57.79         3.2 0.52            155           75.5  40 
 RUS  HZ EP        913 39.80                             142   -0.1510  102 177 
 RUS  HE ES        913 58.17                             142   -0.0510  102 177 
 RUS  HZ I         914  0.74         1.5 0.28            146            102 177 
 PTB  HZ EP        913 42.47                             131   -0.75 9  149 258 
 PTB  HN ES        914  3.88                             131   -0.17 9  149 258 
 PTB  HZ I         914  6.46         2.8 0.14            133            149 258 
 SPBC HZ EP        913 44.82                             128   -0.03 9  165 219 
 SPBC HN ES        914  7.23                             128    0.29 9  165 219 
 SPBC HZ I         914 10.55         2.0 0.20            131            165 219 
                                                                                
