 2013  9 6 0837 17.5 L   7.401 -73.196137.7  RSN  4 0.2 1.4LRSN                1
 GAP=184        0.47       4.7     2.7  4.6  0.1733E+01  0.1135E+01 -0.8260E+01E
 Epicentro: EL PLAYON - SANTANDER                                              3
 ACTION:UPD 13-10-22 09:20 OP:ep   STATUS:               ID:20130906083717 L   I
 OLDACT:REG 13-09-06 08:29 OP:cam  STATUS:               ID:20130906082959     3
 2013-09-06-0829-59M.COL___269                                                 6
 STAT SP IPHASW D HRMM SECON CODA AMPLIT PERI AZIMU VELO AIN AR TRES W  DIS CAZ7
 PAM  SZ EP        837 37.79                             157    0.1210 55.3  97 
 PAM  SN ES   1    837 53.30                             157   -0.08 7 55.3  97 
 PAM  SZ I         837 54.99         3.1 0.44            160           55.3  97 
 BRR  HZ EP        837 37.50                             153    0.0210 65.5 240 
 BRR  HN ES        837 52.98                             153   -0.0610 65.5 240 
 BRR  HZ I         837 54.63         5.6 0.18            154           65.5 240 
 BAR2 SZ EP        837 39.41                             145    0.0910 89.4 179 
 BAR2 SZ ES        837 56.26                             145   -0.0610 89.4 179 
 BAR2 SZ I         837 56.94         7.2 0.12            150           89.4 179 
 ZAR  HZ EP   1    837 46.87                             123   -0.48 7  184 273 
 ZAR  HN ES   1    838 10.94                             123    0.33 7  184 273 
 ZAR  HZ I         838 14.03         3.6 0.44            125            184 273 
                                                                                
