 2016  2 6 0239 19.9 L   6.874 -73.206140.0  RSN 11 0.4 1.8LRSN                1
 GAP=126        0.76       2.9     4.1  7.0 -0.3461E+01  0.1232E+02  0.1791E+00E
 Epicentro: BETULIA - SANTANDER                                                3
 ACTION:UPD 16-03-04 21:23 OP:rebc STATUS:               ID:20160206023919 L   I
 OLDACT:REG 16-02-06 13:06 OP:dnl  STATUS:               ID:20160206023742     3
 2016-02-06-0237-42M.COL___334                                                 6
 STAT SP IPHASW D HRMM SECON CODA AMPLIT PERI AZIMU VELO AIN AR TRES W  DIS CAZ7
 BAR2 EZ EP   2    239 39.19                             167    0.21 5 31.2 175 
 BAR2 EZ ES   2    239 53.85                             167   -0.05 5 31.2 175 
 BAR2 EZ I         239 56.30        12.0 0.28            159           31.2 175 
 PAM  EZ EP        239 41.44                             151    0.0710 76.0  47 
 PAM  EN ES        239 58.16                             151    0.0010 76.0  47 
 PAM  EZ I         240  0.31        14.0 0.34            143           76.0  47 
 RUS  HZ EP        239 43.43                             140   -0.2810  109 173 
 RUS  HE ES   2    240  2.52                             140    0.20 5  109 173 
 RUS  HZ I         240  3.82         5.2 0.26            129            109 173 
 PTB  HZ EP        239 45.56                             132   -0.36 9  143 255 
 PTB  HN ES   2    240  6.09                             132   -0.17 5  143 255 
 PTB  HZ I         240  8.37         9.5 0.20            121            143 255 
 SPBC HZ EP        239 48.38                             128    0.23 9  166 215 
 SPBC HN ES        240 10.95                             128    0.72 9  166 215 
 SPBC HZ I         240 13.72         8.9 0.23            117            166 215 
 ZAR  HZ EP   2    239 51.46                             123    0.49 4  195 291 
 ZAR  HE ES   2    240 15.97                             123    0.72 4  195 291 
 ZAR  HZ I         240 17.74         7.6 0.17            113            195 291 
 SML  HZ EP   2    239 54.58                             118   -0.47 4  234 336 
 SML  HE ES        240 22.48                             118   -0.02 8  234 336 
 SML  HZ I         240 25.94         8.7 0.10            109            234 336 
 NOR  HZ EP   3    239 55.50                             118    0.30 2  234 232 
 NOR  HE ES        240 22.09                             118   -0.69 8  234 232 
 NOR  HZ I         240 29.84         3.4 0.36            108            234 232 
 CHI  HZ EP   2    239 57.97                             116    0.04 4  255 193 
 CHI  HE ES   2    240 26.64                             116   -0.98 4  255 193 
 CHI  HZ I         240 34.32         2.0 0.40            106            255 193 
 URE  HZ EP   4    240  1.67                             113    2.06 0  275 291 
 URE  HN ES   4    240 28.92                             113   -1.70 0  275 291 
 URE  HZ I         240 35.20         6.2 0.14            105            275 291 
 GUY2CHZ EP   2    240  4.21                             111    1.08 4  301 233 
 GUY2CHE ES   2    240 36.84                             111   -0.05 4  301 233 
 GUY2CHZ I         240 46.58         2.4 0.36                           301 233 
                                                                                
