 2012  8 6 0125 51.6 L   6.783 -73.142141.3  RSN 10 0.4 2.3LRSN                1
 GAP=138        0.77       3.3     3.5  5.4 -0.1474E+01  0.4841E+01  0.4743E+00E
 Epicentro: LOS SANTOS - SANTANDER                                             3
 ACTION:UPD 12-09-10 11:54 OP:ep   STATUS:               ID:20120806012551 L   I
 2012-08-06-0120-00M.COL___216                                                 6
 STAT SP IPHASW D HRMM SECON CODA AMPLIT PERI AZIMU VELO AIN AR TRES W  DIS CAZ7
 BAR2 SZ EP        126 10.79                             171    0.1010 21.6 192 
 BAR2 SZ I         126 11.02        63.7 0.23                          21.6 192 
 BAR2 SZ ES   1    126 25.41                             171   -0.14 7 21.6 192 
 BRR  HZ EP        126 12.75                             151    0.3810 72.4 300 
 BRR  HZ I         126 13.24        81.7 0.13                          72.4 300 
 BRR  HE ES   1    126 29.02                             151    0.48 7 72.4 300 
 PAM  SZ EP        126 13.73                             150    0.2810 78.6  38 
 PAM  SN ES   1    126 30.26                             150   -0.20 7 78.6  38 
 RUS  HZ EP        126 14.84                             143    0.0310 98.7 176 
 RUS  HZ I         126 16.05        23.4 0.15                          98.7 176 
 RUS  HE ES   1    126 32.92                             143    0.04 7 98.7 176 
 PTB  HZ EP        126 17.62                             131   -0.62 9  148 260 
 PTB  HN ES   1    126 38.48                             131   -0.51 7  148 260 
 PTB  HZ I         126 41.90        19.8 0.15                           148 260 
 OCA  HZ EP        126 19.21                             128   -0.57 9  162 353 
 ZAR  HZ EP   1    126 24.37                             121    0.47 6  205 293 
 ZAR  HN ES   1    126 49.15                             121    0.09 6  205 293 
 ZAR  HZ I         126 58.93        20.0 0.42                           205 293 
 NOR  SZ EP   1    126 26.87                             118   -0.15 6  234 235 
 NOR  SN ES   1    126 54.69                             118    0.07 6  234 235 
 CHI  HZ EP   1    126 28.89                             116   -0.01 6  247 195 
 CHI  HN ES   1    126 57.85                             116   -0.12 6  247 195 
 CHI  HZ I         127  5.94         7.2 0.48                           247 195 
 HEL  HZ EP   1    126 32.45                             114    0.84 6  272 256 
 HEL  HN ES   1    127  2.62                             114   -0.17 6  272 256 
 HEL  HZ I         127 11.04        11.8 0.37                           272 256 
                                                                                
