 2016 11 6 0837 12.7 L   6.772 -73.230154.0  RSN  4 0.2 1.2LRSN                1
 GAP=272        0.42       5.0     5.7  5.5 -0.1106E+02 -0.1154E+02  0.1206E+02E
 Epicentro: ZAPATOCA - SANTANDER                                               3
 ACTION:UPD 17-10-26 21:05 OP:lp   STATUS:               ID:20161106083712 L   I
 OLDACT:UP  16-11-06 14:25 OP:dnl  STATUS:               ID:20161106082739     3
 OLDACT:UP  16-11-06 14:25 OP:dnl  STATUS:               ID:20161106082739     3
 OLDACT:REG 16-11-06 12:57 OP:dani STATUS:               ID:20161106082739     3
 2016-11-06-0828-00M.COL___334                                                 6
 STAT SP IPHASW D HRMM SECON CODA AMPLIT PERI AZIMU VELO AIN AR TRES W  DIS CAZ7
 BRR  HZ EP        837 34.33                             156   -0.0610 64.9 305 
 BRR  HE ES        837 51.42                             156    0.0910 64.9 305 
 BRR  HZ I         837 53.84         2.0 0.30            150           64.9 305 
 PTB  HZ EP        837 39.29                             136   -0.19 9  138 259 
 PTB  HN ES        838  0.34                             136   -0.04 9  138 259 
 PTB  HZ I         838  7.05         1.6 0.32            131            138 259 
 SPBC HZ EP   2    837 41.57                             133    0.51 5  155 217 
 SPBC HN ES   2    838  3.29                             133    0.08 5  155 217 
 SPBC HZ I         838  9.64         2.4 0.26            129            155 217 
 ZAR  HZ EP   4    837 51.67                             126    6.74 0  197 294 
 ZAR  HN ES   2    838 10.34                             126    0.26 4  197 294 
 ZAR  HZ I         838 15.62         1.6 0.38            123            197 294 
                                                                                
