 2014 12 6 0204 12.0 L   6.822 -73.178143.0  RSN  7 0.3 1.7LRSN                1
 GAP=131        0.82       2.8     3.5  6.6 -0.1702E+01  0.8452E+01 -0.2048E+01E
 Epicentro: ZAPATOCA - SANTANDER                                               3
 ACTION:UPD 15-02-10 17:00 OP:nd   STATUS:               ID:20141206020412 L   I
 OLDACT:REG 14-12-06 13:19 OP:carl STATUS:               ID:20141206015746     3
 2014-12-06-0157-46M.COL___312                                                 6
 STAT SP IPHASW D HRMM SECON CODA AMPLIT PERI AZIMU VELO AIN AR TRES W  DIS CAZ7
 PAM  SZ EP        2 4 34.33                             150    0.3610 78.0  43 
 PAM  SE ES        2 4 51.35                             150    0.2610 78.0  43 
 PAM  SZ I         2 4 53.13         8.4 0.52            155           78.0  43 
 RUS  HZ EP        2 4 35.49                             142   -0.2010  103 174 
 RUS  HN ES        2 4 54.01                             142   -0.1510  103 174 
 RUS  HZ I         2 4 55.14         3.4 0.20            147            103 174 
 PTB  HZ EP        2 4 38.15                             132   -0.32 9  145 258 
 PTB  HN ES        2 4 58.84                             132   -0.28 9  145 258 
 PTB  HZ I         2 5  1.84         5.3 0.22            133            145 258 
 SPBC HZ EP        2 4 40.26                             128   -0.00 9  163 217 
 SPBC HN ES        2 5  2.11                             128   -0.19 9  163 217 
 SPBC HZ I         2 5  9.14         6.1 0.12            131            163 217 
 ZAR  HN ES        2 5  9.06                             122    0.40 9  200 292 
 ZAR  HZ I         2 5 15.22         6.5 0.26            124            200 292 
 SML  HZ EP        2 4 47.61                             117   -0.47 8  240 336 
 SML  HE ES        2 5 15.90                             117   -0.32 8  240 336 
 SML  HZ I         2 5 19.52         9.2 0.26            120            240 336 
 GUY2CHZ EP        2 4 55.91                             112    0.60 7  300 234 
 GUY2CHE ES        2 5 29.71                             112    0.62 7  300 234 
 GUY2CHZ I         2 5 39.48         1.7 0.30                           300 234 
                                                                                
