 2016  8 6 0335 24.6 L   6.733 -73.133154.9  RSN  4 0.2 1.0LRSN                1
 GAP=234        0.58       4.8     4.6  4.7  0.1081E+02  0.1376E+01 -0.2889E+00E
 Epicentro: JORDAN - SANTANDER                                                 3
 ACTION:UPD 16-10-29 15:32 OP:rebc STATUS:               ID:20160806033524 L   I
 OLDACT:REG 16-08-06 12:38 OP:edw  STATUS:               ID:20160806032732     3
 2016-08-06-0328-00M.COL___365                                                 6
 STAT SP IPHASW D HRMM SECON CODA AMPLIT PERI AZIMU VELO AIN AR TRES W  DIS CAZ7
 BAR2 EZ EP        335 44.97                             174   -0.2210 16.5 199 
 BAR2 EZ ES        336  0.96                             174   -0.3110 16.5 199 
 BRR  HZ EP        335 47.07                             152    0.0810 76.2 303 
 BRR  HN ES        336  4.78                             152    0.3010 76.2 303 
 BRR  HZ I         336  6.65         4.3 0.66                          76.2 303 
 RUS  HZ EP        335 48.91                             148    0.1810 93.1 177 
 RUS  HN ES        336  7.75                             148    0.1810 93.1 177 
 RUS  HZ I         336  8.71         0.9 0.40                          93.1 177 
 PTB  HZ EP        335 52.19                             134   -0.12 9  148 262 
 PTB  HE ES        336 13.84                             134   -0.11 9  148 262 
 PTB  HZ I         336 14.72         1.1 0.42                           148 262 
                                                                                
