 2013  7 6 0233  8.2 L   6.749 -73.179147.6  RSN  7 0.4 1.4LRSN                1
 GAP=176        0.93       6.1     5.9  7.5  0.1325E+02  0.3228E+01  0.3795E+00E
 Epicentro: VILLANUEVA - SANTANDER                                             3
 ACTION:UPD 13-08-12 10:35 OP:ep   STATUS:               ID:20130706023308 L   I
 OLDACT:REG 13-07-06 07:47 OP:jn   STATUS:               ID:20130706022959     3
 2013-07-06-0229-59M.COL___267                                                 6
 STAT SP IPHASW D HRMM SECON CODA AMPLIT PERI AZIMU VELO AIN AR TRES W  DIS CAZ7
 BAR2 SZ EP        233 27.98                             173    0.0710 17.4 181 
 BAR2 SZ ES        233 42.60                             173   -0.7110 17.4 181 
 BAR2 SZ I         233 44.35         8.8 0.18            166           17.4 181 
 GIR2 SZ EP   1    233 27.97                             165   -0.23 7 36.5 357 
 BRR  HZ EP        233 29.84                             153    0.3410 71.0 304 
 BRR  HN ES        233 46.63                             153    0.5010 71.0 304 
 BRR  HZ I         233 47.53         8.2 0.14            151           71.0 304 
 RUS  HZ EP        233 31.98                             146    0.2610 95.3 174 
 RUS  HN ES   1    233 50.54                             146    0.44 7 95.3 174 
 RUS  HZ I         233 53.84         1.4 0.60            143           95.3 174 
 PTB  HZ EP        233 34.38                             133   -0.49 9  143 261 
 PTB  HN ES        233 55.59                             133   -0.11 9  143 261 
 PTB  HZ I         234  2.92         4.1 0.42            131            143 261 
 OCA  HN ES   2    233 59.54                             129   -0.13 5  165 355 
 ZAR  HE ES   1    234  5.83                             123   -0.08 6  203 294 
                                                                                
