 2017  3 6 0921 48.8 L   6.650 -73.166150.9  RSN  6 0.3 1.4LRSN                1
 GAP=207        0.72       9.3     8.6  5.7  0.5677E+02  0.5071E+01  0.1465E+02E
 Epicentro: VILLANUEVA - SANTANDER                                             3
 ACTION:UPD 17-05-25 18:36 OP:jn   STATUS:               ID:20170306092148 L   I
 OLDACT:UP  17-03-06 16:32 OP:and  STATUS:               ID:20170306091748     3
 OLDACT:UP  17-03-06 16:31 OP:and  STATUS:               ID:20170306091748     3
 OLDACT:UP  17-03-06 16:31 OP:and  STATUS:               ID:20170306091748     3
 OLDACT:UP  17-03-06 16:31 OP:and  STATUS:               ID:20170306091748     3
 OLDACT:REG 17-03-06 12:32 OP:and  STATUS:               ID:20170306091748     3
 2017-03-06-0918-00M.COL___393                                                 6
 STAT SP IPHASW D HRMM SECON CODA AMPLIT PERI AZIMU VELO AIN AR TRES W  DIS CAZ7
 BAR2 EZ EP        922  8.94                             177    0.0710 6.64 196 
 BAR2 EZ ES        922 24.11                             177   -0.3810 6.64 196 
 BAR2 EZ I         922 25.13         7.0 0.22            163           6.64 196 
 BRR  HZ IP     C  922 10.69                             151   -0.2710 78.7 310 
 BRR  HN ES        922 28.76                             151    0.5310 78.7 310 
 BRR  HZ I         922 32.13         2.7 0.12            146           78.7 310 
 RUS  HZ EP   9    922 13.17                             149    1.16 0 84.2 174 
 RUS  HN ES   2    922 31.71                             148    0.46 5 84.2 174 
 RUS  HZ I         922 33.35         2.1 0.58            144           84.2 174 
 PTB  HZ EP   2    922 15.81                             134   -0.01 5  143 265 
 PTB  HN ES   2    922 36.86                             134   -0.01 5  143 265 
 PTB  HZ I         922 44.10         4.1 0.36            128            143 265 
 ZAR  HZ EP   2    922 21.91                             123   -0.20 4  209 297 
 ZAR  HN ES   2    922 47.54                             123   -0.52 4  209 297 
 ZAR  HZ I         922 53.95         3.9 0.28            121            209 297 
 PTGC HZ EP        922 31.64                             114    0.35 7  294 157 
                                                                                
