 2014  2 6 0306 44.8 L   7.010 -72.872  4.0  RSN  9 0.5 1.8LRSN                1
 GAP=163        1.21       2.6     4.0  6.9 -0.3649E+01  0.8395E+01 -0.4688E+01E
 Epicentro: SANTA BARBARA - SANTANDER                                          3
 ACTION:UPD 14-03-10 08:07 OP:ep   STATUS:               ID:20140206030644 L   I
 OLDACT:UP  14-02-06 12:00 OP:mh   STATUS:               ID:20140206030000     3
 OLDACT:REG 14-02-06 07:58 OP:mh   STATUS:               ID:20140206030000     3
 2014-02-06-0300-00M.COL___291                                                 6
 STAT SP IPHASW D HRMM SECON CODA AMPLIT PERI AZIMU VELO AIN AR TRES W  DIS CAZ7
 PAM  SZ EP     C  3 6 52.53                              47    0.3710 41.1  28 
 PAM  SN ES        3 6 57.48                              47   -0.3910 41.1  28 
 PAM  SZ I         3 6 59.03       100.0 0.15             47           41.1  28 
 BAR2 SZ EP        3 6 54.04                              47   -0.3510 57.5 217 
 BRR  HZ EP        3 6 59.89                              47    0.3110 93.4 277 
 BRR  HN ES   1    3 7 10.80                              47   -0.28 7 93.4 277 
 BRR  HZ I         3 7 12.45         7.5 0.31             47           93.4 277 
 RUS  HZ EP        3 7  5.79                              47    0.8110  126 191 
 RUS  HN ES        3 7 19.98                              47   -0.7210  126 191 
 RUS  HZ I         3 7 23.27         8.8 0.22             47            126 191 
 OCA  HZ EP   1    3 7  8.00                              47    0.51 7  145 340 
 OCA  HE ES        3 7 24.64                              47   -0.53 9  145 340 
 OCA  HZ I         3 7 33.64         7.8 0.08             47            145 340 
 PTB  HZ EP   1    3 7 13.62                              37    0.68 7  183 254 
 PTB  HN ES   1    3 7 34.40                              37   -0.47 7  183 254 
 PTB  HZ I         3 7 36.16         5.6 0.09             37            183 254 
 SPBC HZ EP   4    3 7 18.26                              37    3.01 0  200 222 
 SPBC HN ES   4    3 7 43.21                              37    4.23 0  200 222 
 SPBC HZ I         3 7 45.84        21.7 0.14             37            200 222 
 ZAR  HZ EP   4    3 7 19.53                              37    1.22 0  226 284 
 ZAR  HN ES        3 7 44.81                              37    0.38 8  226 284 
 ZAR  HZ I         3 7 46.68        13.4 0.05             37            226 284 
 SML  HZ EP   4    3 7 22.52                              37    2.67 0  238 326 
 SML  HZ I         3 7 51.02        16.1 0.08             37            238 326 
                                                                                
