 2012  3 6 0930 39.3 L   6.705 -73.103143.1  RSN  5 0.3 1.7LRSN                1
 GAP=146        0.79       6.1     7.5  8.1 -0.1455E+01  0.1684E+02 -0.1214E+02E
 ACTION:UP  12-03-31 23:17 OP:EP   STATUS:               ID:20120306093039 L   I
 2012-03-06-0930-00M.COL___191                                                 6
 STAT SP IPHASW D HRMM SECON CODA AMPLIT PERI AZIMU VELO SNR AR TRES W  DIS CAZ7
 BAR2 SZ EP   1    930 58.94                             174     0.4 7   15 215 
 BAR2 SZ ES   1    931 13.75                             174     0.3 7   15 215 
 BAR2 SZ I         931 15.05         9.7 0.24                            15 215 
 BRR  HZ EP        931  0.91                             149     0.210   81 303 
 BRR  HZ I         931  1.27        15.8 0.13                            81 303 
 BRR  HN ES   1    931 17.48                             149     0.0 7   81 303 
 PAM  SZ EP   1    931  1.79                             148     0.2 7   83  32 
 PAM  SZ I         931  2.18         5.0 0.14                            83  32 
 PAM  SN ES   1    931 18.61                             148    -0.4 7   83  32 
 RUS  HN ES   1    931 19.38                             146    -0.4 7   90 179 
 ZAR  HZ EP   1    931 11.97                             120    -0.5 6  213 294 
                                                                                
