 2012  7 6 0059 24.7 L   6.764 -73.175146.7  RSN 15 0.4 3.2LRSN                1
 GAP= 64        1.01       3.6     3.3  5.3  0.1762E+01  0.2741E+01  0.2484E+01E
 Epicentro: LOS SANTOS - SANTANDER                                             3
 ACTION:UPD 12-08-14 11:42 OP:ep   STATUS:               ID:20120706005924 L   I
 2012-07-06-0054-36M.COL___211                                                 6
 STAT SP IPHASW D HRMM SECON CODA AMPLIT PERI AZIMU VELO AIN AR TRES W  DIS CAZ7
 BAR2 SZ IP        059 44.53                             172     0.210   19 183 
 BAR2 SZ ES        059 59.46                             172    -0.310   19 183 
 BAR2 SZ I         1 0  3.68       166.9 0.40            172             19 183 
 BRR  HZ IP     C  059 46.47                             153     0.510   70 303 
 BRR  HZ I         059 47.09       345.2 0.36            152             70 303 
 BRR  HN ES        1 0  3.38                             153     0.910   70 303 
 PAM  SZ IP     C  059 47.36                             149     0.010   83  39 
 RUS  HZ EP        059 48.34                             145     0.010   97 174 
 RUS  HN ES        1 0  6.51                             145    -0.210   97 174 
 RUS  HZ I         1 0  8.54       173.1 0.45            144             97 174 
 PTB  HZ EP        059 51.16                             133    -0.3 9  144 260 
 PTB  HN ES   1    1 0 11.58                             133    -0.7 7  144 260 
 PTB  HZ I         1 0 18.09       204.6 0.33            132            144 260 
 TAM  HZ EP   1    059 52.50                             130    -0.2 7  157 103 
 TAM  HZ I         1 0 13.71       130.2 0.25            129            157 103 
 TAM  HN ES   1    1 0 14.16                             130    -0.3 7  157 103 
 OCA  HZ EP        059 52.73                             129    -0.7 9  164 354 
 YOP  SZ EP        059 54.89                             127     0.3 9  177 152 
 YOP  SN ES   1    1 0 17.72                             127    -0.2 7  177 152 
 YOP  SZ I         1 0 22.22        68.4 0.24            126            177 152 
 ZAR  HZ EP   1    059 56.81                             123    -0.3 6  203 294 
 ZAR  HE ES        1 0 21.99                             123    -0.3 9  203 294 
 ZAR  HZ I         1 0 30.19       223.8 0.58            122            203 294 
 NOR  SZ EP        1 0  0.25                             119     0.3 8  230 235 
 NOR  SE ES   1    1 0 26.95                             119    -0.5 6  230 235 
 CHI  HZ EP        1 0  2.46                             118     0.5 8  244 195 
 CHI  HE ES   1    1 0 30.76                             118    -0.2 6  244 195 
 CHI  HZ I         1 0 36.14       114.9 0.58            117            244 195 
 HEL  HZ EP   1    1 0  4.55                             115     0.0 6  268 256 
 HEL  HE ES   1    1 0 35.21                             115    -0.4 6  268 256 
 HEL  HZ I         1 0 43.69       126.0 0.38            114            268 256 
 GUY  SZ EP   1    1 0  8.20                             113     0.1 5  299 235 
 GUY  SN ES   1    1 0 42.25                             113     0.4 5  299 235 
 GUY  SZ I         1 0 53.23       199.4 0.48            112            299 235 
 TOL  SZ EP   1    1 0 12.78                             110     0.4 5  338 225 
 PRA  HZ EP        1 0 17.85                             107     0.2 6  387 209 
 PRA  HE ES   1    1 0 58.69                             107    -0.3 4  387 209 
