 2010  3 6 0514 34.7 L   6.807 -73.049146.7  RSN 13 0.5 2.8LRSN                1
 GAP=133        0.98       3.4     5.6  5.3 -0.3896E+01  0.4204E+01  0.2135E+01E
 Epicentro: LOS SANTOS - SANTANDER                                             3
 ACTION:UP  10-08-24 09:52 OP:vdl  STATUS:               ID:20100306051434 L   I
 2010-03-06-0512-20S.COL___101                                                 6
 STAT SP IPHASW D HRMM SECON CODA AMPLIT PERI AZIMU VELO SNR AR TRES W  DIS CAZ7
 BAR2 SZ IP        514 54.59                             169     0.010   28 212 
 BAR2 SZ ES   1    515  9.39                             169    -0.7 7   28 212 
 BRR  HZ IP        514 56.47                             150    -0.110   80 294 
 BRR  HN ES        515 13.80                             150     0.310   80 294 
 BRR  HZ I         515 15.81       129.7 0.07                            80 294 
 RUS  BZ IP        514 58.51                             144    -0.110  101 182 
 RUS  BN ES        515 17.13                             144    -0.110  101 182 
 RUS  BZ I         515 20.65        38.3 0.52                           101 182 
 OCA  SZ EP        515  3.12                             130    -0.1 9  161 349 
 OCA  SZ ES   1    515 26.07                             130     0.7 7  161 349 
 OCA  SZ I         515 30.64       100.4 0.42                           161 349 
 CHI  HZ EP        515 12.59                             117    -0.3 8  252 197 
 CHI  HN ES   1    515 42.86                             117     0.2 6  252 197 
 CHI  HZ I         515 47.54        19.7 0.13                           252 197 
 ROSC BZ EP        515 14.27                             116     0.7 8  259 213 
 ROSC BN ES   1    515 44.68                             116     0.8 6  259 213 
 ROSC BZ I         515 52.37        46.6 0.22                           259 213 
 HEL  HZ EP        515 16.00                             114    -0.2 7  283 256 
 HEL  HN ES   2    515 47.90                             114    -0.6 4  283 256 
 HEL  HZ I         515 53.54        37.8 0.36                           283 256 
 RREF BZ EP        515 21.79                             110    -0.1 7  330 230 
 RREF BN ES        515 58.45                             110    -0.2 7  330 230 
 RREF BZ I         516  2.23        23.4 0.70                           330 230 
 DBB  SZ EP        515 22.41                             109    -1.0 6  350 274 
 TOL  SZ EP        515 24.36                             109     0.4 6  352 226 
 TOL  SZ ES   2    516  2.88                             109     0.5 3  352 226 
 SDV  BZ IP        515 24.12                             109     0.3 6  352  49 
 SDV  BZ I         515 25.02        35.7 0.08                           352  49 
 ANIL BZ EP        515 25.99                             108     0.5 6  365 226 
 ANIL BE ES   2    516  5.66                             108     0.6 3  365 226 
 ANIL BZ I         516 12.75        50.3 0.38                           365 226 
 PRA  HZ EP        515 28.14                             106    -0.8 6  398 211 
 PRA  HN ES   2    516 11.10                             106    -0.2 3  398 211 
 PRA  HZ I         516 16.92        27.8 0.15                           398 211 
                                                                                
