 2017  3 6 0041 17.3 L   6.784 -73.069148.4  RSN  5 0.2 1.0LRSN                1
 GAP=244        0.37       4.8     7.8  6.1  0.2642E+02 -0.2284E+02 -0.1869E+02E
 Epicentro: LOS SANTOS - SANTANDER                                             3
 ACTION:UPD 17-05-25 18:36 OP:jn   STATUS:               ID:20170306004117 L   I
 OLDACT:UP  17-03-06 12:48 OP:and  STATUS:               ID:20170306003749     3
 OLDACT:UP  17-03-06 12:47 OP:and  STATUS:               ID:20170306003749     3
 OLDACT:REG 17-03-06 12:05 OP:and  STATUS:               ID:20170306003749     3
 2017-03-06-0038-00M.COL___387                                                 3
 2017-03-06-0038-00M.COL___393                                                 6
 STAT SP IPHASW D HRMM SECON CODA AMPLIT PERI AZIMU VELO AIN AR TRES W  DIS CAZ7
 BAR2 EZ EP        041 37.28                             170    0.0410 24.6 211 
 BAR2 EZ ES   2    041 52.69                             170   -0.13 5 24.6 211 
 BAR2 EZ I         041 53.68         3.4 0.20            171           24.6 211 
 BRR  HZ EP        041 39.06                             150   -0.1210 79.5 297 
 BRR  HN ES   2    041 56.56                             150    0.28 5 79.5 297 
 RUS  HZ EP   2    041 41.52                             145    0.38 5 98.6 181 
 RUS  HN ES        041 59.71                             145   -0.0410 98.6 181 
 RUS  HZ I         042  0.80         1.6 0.20            146           98.6 181 
 PTB  HZ EP   9    041 43.90                             131   -1.28 0  156 260 
 PTB  HN ES   2    042  5.74                             133    0.07 5  156 260 
 PTB  HZ I         042  6.75         1.0 0.16            133            156 260 
 SPBC HN ES   3    042  8.87                             129   -0.17 2  167 222 
                                                                                
