 2015  3 6 0348 23.7 L   6.808 -73.175148.0  RSN  7 0.4 1.3LRSN                1
 GAP=133        0.96       4.4     5.3  6.6 -0.4746E+01  0.3636E+01  0.8566E+01E
 Epicentro: LOS SANTOS - SANTANDER                                             3
 ACTION:UPD 15-04-30 16:23 OP:nd   STATUS:               ID:20150306034823 L   I
 OLDACT:DUP 15-03-06 13:24 OP:spq  STATUS:               ID:20150306033744d    3
 2015-03-06-0337-43M.COL___284                                                 6
 STAT SP IPHASW D HRMM SECON CODA AMPLIT PERI AZIMU VELO AIN AR TRES W  DIS CAZ7
 BAR2 EZ E         339 53.37                                           23.9 182 
 BAR2 EZ EP   1    348 43.40                             170   -0.17 7 23.9 182 
 BAR2 EZ ES   1    348 58.58                             170   -0.52 7 23.9 182 
 BAR2 EZ I         348 59.13         2.8 0.24            169           23.9 182 
 BRR  HZ EP   1    348 45.52                             154    0.64 7 67.9 299 
 BRR  HN ES        349  1.92                             154    0.5010 67.9 299 
 BRR  HZ I         349  5.91         5.5 0.21            152           67.9 299 
 PAM  SZ EP     C  348 46.35                             151    0.1510 78.8  42 
 PAM  SE ES        349  3.56                             151   -0.2210 78.8  42 
 PAM  SZ I         349  5.61         3.1 0.56            156           78.8  42 
 RUS  HZ EP        348 47.56                             144   -0.1610  102 174 
 RUS  HE ES        349  6.67                             144    0.1910  102 174 
 RUS  HZ I         349  7.92         2.4 0.30            146            102 174 
 PTB  HZ EP        348 49.68                             133   -0.87 9  145 258 
 PTB  HE ES   1    349 11.16                             133   -0.36 7  145 258 
 PTB  HZ I         349 15.94         3.2 0.46            133            145 258 
 SPBC HZ EP        348 52.53                             130    0.32 9  162 218 
 SPBC HE ES   1    349 14.70                             130    0.22 7  162 218 
 SPBC HZ I         349 19.69         3.0 0.16            130            162 218 
 CHI  HZ EP        349  1.86                             118    0.37 8  249 194 
 CHI  HN ES   1    349 30.76                             118   -0.24 6  249 194 
 CHI  HZ I         349 34.42         1.0 0.58            119            249 194 
                                                                                
