 2011  9 6 0914 54.0 L   6.748 -73.087142.9  RSN  5 0.3 1.3LRSN                1
 GAP=189        0.48       7.0     8.5  7.4  0.3828E+02 -0.1033E+02 -0.2168E+02E
 Epicentro: LOS SANTOS - SANTANDER                                             3
 ACTION:UPD 12-07-13 15:55 OP:ep   STATUS:               ID:20110906091454 L   I
 2011-09-06-0910-58S.COL___171                                                 6
 STAT SP IPHASW D HRMM SECON CODA AMPLIT PERI AZIMU VELO AIN AR TRES W  DIS CAZ7
 BAR2 SZ EP   2    915 13.36                             172    0.17 5 20.3 211 
 BAR2 SZ ES   2    915 27.59                             172   -0.60 5 20.3 211 
 BAR2 SZ I         915 30.15         7.4 0.37                          20.3 211 
 BRR  HZ EP   1    915 15.25                             149   -0.06 7 79.7 300 
 BRR  HE ES   2    915 32.54                             149    0.58 5 79.7 300 
 RUS  HZ EP   2    915 16.91                             145   -0.10 5 94.6 180 
 RUS  HZ I         915 18.03         1.4 0.19                          94.6 180 
 RUS  HN ES   2    915 35.26                             145    0.27 5 94.6 180 
 OCA  SZ EP   2    915 22.71                             128    0.03 5  167 351 
 OCA  SZ I         915 52.91         2.9 0.54                           167 351 
 ZAR  HZ EP   2    915 27.16                             121    0.08 4  212 293 
 ZAR  HN ES   2    915 52.54                             121   -0.37 4  212 293 
 ZAR  HZ I         916  2.16         2.3 0.37                           212 293 
                                                                                
