 2010 10 6 0207 50.3 L   6.759 -73.077142.3  RSN  5 0.4 1.6LRSN                1
 GAP=184        0.66       5.3     8.0  6.7 -0.1766E+02 -0.1068E+02  0.2876E+01E
 Epicentro: LOS SANTOS - SANTANDER                                             3
 ACTION:UP  11-02-18 11:07 OP:tino STATUS:               ID:20101006020750 L   I
 2010-10-06-0203-31S.COL___122                                                 6
 STAT SP IPHASW D HRMM SECON CODA AMPLIT PERI AZIMU VELO SNR AR TRES W  DIS CAZ7
 BAR2 SZ ES   1    2 8 24.10                             171    -0.3 7   22 212 
 BRR  HZ IP     C  2 8 11.55                             148    -0.110   80 299 
 BRR  HN ES   1    2 8 28.58                             148     0.4 7   80 299 
 GRA  SZ IP        2 8 15.49                             135     0.110  128  14 
 GRA  SZ I         2 8 36.61         4.7 0.31                           128  14 
 NOR  SZ EP   2    2 8 26.10                             117    -0.1 4  239 237 
 NOR  SE ES   2    2 8 53.74                             117    -0.5 4  239 237 
 CHI  HZ EP   2    2 8 27.17                             117    -0.4 4  246 197 
 CHI  HZ I         2 8 29.13         2.9 0.43                           246 197 
 CHI  HN ES   2    2 8 57.56                             117     0.9 4  246 197 
                                                                                
