 2012 11 6 0714 19.4 L   6.830 -73.161148.2  RSN  7 0.5 2.3LRSN                1
 GAP=182        1.24       4.4     8.9  8.3  0.4564E+01  0.1315E+02 -0.3539E+01E
 Epicentro: LOS SANTOS - SANTANDER                                             3
 ACTION:UPD 12-12-05 15:31 OP:}ep  STATUS:               ID:20121106071419 L   I
 2012-11-06-0710-00M.COL___230                                                 6
 STAT SP IPHASW D HRMM SECON CODA AMPLIT PERI AZIMU VELO AIN AR TRES W  DIS CAZ7
 BAR2 SZ EP        714 39.61                             169    0.2110 26.4 185 
 BAR2 SZ ES        714 54.26                             169   -0.7310 26.4 185 
 BAR2 SZ I         714 57.21        18.6 0.30                          26.4 185 
 GIR2 SZ EP        714 39.57                             169    0.2810 27.8 353 
 GIR2 SZ ES        714 54.99                             169    0.2010 27.8 353 
 BRR  HZ EP        714 41.33                             154    0.6710 68.1 297 
 BRR  HN ES        714 58.01                             154    0.7810 68.1 297 
 BRR  HN I         714 59.09        38.7 0.20                          68.1 297 
 RUS  HZ EP        714 43.91                             143    0.2610  104 175 
 RUS  HN ES        715  2.11                             143   -0.4510  104 175 
 OCA  HZ EP   2    714 47.43                             131   -0.16 5  157 354 
 OCA  HN ES        715  9.22                             131   -0.35 9  157 354 
 OCA  HN I         715 12.22        37.3 0.32                           157 354 
 NOR  HN ES        715 22.94                             119   -0.43 8  235 234 
 NOR  HN I         715 28.41        14.8 0.16                           235 234 
 SML  HZ EP   1    714 55.63                             118   -0.15 6  240 335 
 SML  HN ES        715 23.25                             118   -0.89 8  240 335 
                                                                                
