 2015 12 6 0856 18.9 L   6.837 -73.164116.1  RSN  4 0.4 1.3LRSN                1
 GAP=214        0.96       6.7     5.0 10.8 -0.1640E+02  0.2224E+02 -0.4327E+01E
 Epicentro: LOS SANTOS - SANTANDER                                             3
 ACTION:UPD 16-02-04 15:02 OP:cam  STATUS:               ID:20151206085618 L   I
 OLDACT:UP  15-12-06 16:43 OP:mh   STATUS:               ID:20151206084739     3
 OLDACT:UP  15-12-06 16:43 OP:mh   STATUS:               ID:20151206084739     3
 OLDACT:REG 15-12-06 12:10 OP:mh   STATUS:               ID:20151206084739     3
 2015-12-06-0847-39M.COL___316                                                 6
 STAT SP IPHASW D HRMM SECON CODA AMPLIT PERI AZIMU VELO AIN AR TRES W  DIS CAZ7
 PAM  EZ EP        856 37.48                             145   -0.4410 75.6  43 
 PAM  EN ES        856 53.12                             145    0.3610 75.6  43 
 PAM  EZ I         856 57.00         3.4 0.66            152           75.6  43 
 PTB  HZ EP   1    856 42.90                             124   -0.61 7  147 257 
 PTB  HN ES        857  2.72                             124    0.01 9  147 257 
 PTB  HZ I         857  8.87         2.0 0.20            130            147 257 
 OCA  HZ EP        856 44.96                             123    0.32 9  156 354 
 OCA  HN ES        857  4.32                             123   -0.40 9  156 354 
 OCA  HZ I         857 10.05         5.7 0.38            129            156 354 
 ZAR  HZ EP        856 49.87                             115    0.65 9  201 291 
 ZAR  HN ES        857 12.82                             115   -0.06 9  201 291 
 ZAR  HZ I         857 18.41         3.3 0.36            121            201 291 
                                                                                
