 2011 10 6 0857 40.3 L   6.791 -73.155142.0  RSN  6 0.4 1.7LRSN                1
 GAP=136        0.84       5.6     6.0  8.8  0.4673E+01 -0.8327E+00 -0.3203E+01E
 Epicentro: LOS SANTOS - SANTANDER                                             3
 ACTION:UPD 12-07-13 16:02 OP:ep   STATUS:               ID:20111006085740 L   I
 2011-10-06-0855-50S.COL___163                                                 6
 STAT SP IPHASW D HRMM SECON CODA AMPLIT PERI AZIMU VELO AIN AR TRES W  DIS CAZ7
 BAR2 SZ EP   1    857 59.55                             171    0.05 7 22.2 188 
 BAR2 SZ ES   1    858 13.99                             171   -0.45 7 22.2 188 
 BAR2 SZ I         858 16.19        15.8 0.20                          22.2 188 
 GIR2 SZ EP   2    857 59.66                             167    0.06 5 32.1 352 
 BRR  HE ES   1    858 18.05                             152    0.82 7 70.8 300 
 PAM  SZ EP        858  2.51                             150    0.2610 78.8  40 
 PAM  SN ES   1    858 18.90                             150   -0.43 7 78.8  40 
 RUS  HZ EP   1    858  3.54                             143   -0.12 7 99.6 175 
 RUS  HN ES   1    858 21.97                             143    0.12 7 99.6 175 
 RUS  HZ I         858 23.96         5.7 0.53                          99.6 175 
 ZAR  HN ES   1    858 36.90                             121   -0.67 6  204 293 
                                                                                
