 2015  7 6 0712 18.5 L   6.794 -73.138147.8  RSN  6 0.3 1.5LRSN                1
 GAP=138        0.65       2.8     4.3  5.8  0.1964E+01  0.7877E+01 -0.2093E+01E
 Epicentro: LOS SANTOS - SANTANDER                                             3
 ACTION:UPD 15-09-08 21:47 OP:cam  STATUS:               ID:20150706071218 L   I
 OLDACT:REG 15-07-06 14:44 OP:spq  STATUS:               ID:20150706070749     3
 2015-07-06-0707-49M.COL___331                                                 6
 STAT SP IPHASW D HRMM SECON CODA AMPLIT PERI AZIMU VELO AIN AR TRES W  DIS CAZ7
 BAR2 EZ EP        712 38.45                             171    0.0810 22.8 192 
 BAR2 EZ ES   1    712 53.46                             171   -0.41 7 22.8 192 
 BAR2 EZ I         712 54.59         8.7 0.24            173           22.8 192 
 PAM  EZ EP   1    712 41.30                             151    0.36 7 77.3  39 
 PAM  EE ES        712 58.47                             151    0.0410 77.3  39 
 PAM  EZ I         713  1.10         4.8 0.50            152           77.3  39 
 RUS  HZ EP        712 42.38                             144   -0.0310 99.9 177 
 RUS  HN ES   1    713  1.17                             144    0.12 7 99.9 177 
 RUS  HZ I         713  1.93         3.0 0.22            148           99.9 177 
 OCA  HZ EP        712 46.54                             130   -0.51 9  161 353 
 OCA  HN ES        713  9.58                             130    0.27 9  161 353 
 OCA  HZ I         713 13.49         5.8 0.24            131            161 353 
 ZAR  HN ES        713 16.87                             123    0.18 9  205 292 
 ZAR  HZ I         713 19.12         2.5 0.16            124            205 292 
 SML  HZ EP   1    712 55.65                             118    0.30 6  245 335 
 SML  HE ES   1    713 23.62                             118   -0.47 6  245 335 
                                                                                
