 2013  4 6 0101 50.4 L   6.784 -73.132148.0  RSN  5 0.5 1.2LRSN                1
 GAP=238        1.07       8.6     8.1  9.6  0.1645E+02  0.1441E+02  0.6261E+01E
 Epicentro: LOS SANTOS - SANTANDER                                             3
 ACTION:UPD 13-05-22 14:36 OP:EP   STATUS:               ID:20130406010150 L   I
 2013-04-06-0100-00M.COL___245                                                 6
 STAT SP IPHASW D HRMM SECON CODA AMPLIT PERI AZIMU VELO AIN AR TRES W  DIS CAZ7
 BAR2 SZ EP   1    1 2 10.34                             171    0.06 7 21.9 195 
 BAR2 SZ ES        1 2 25.36                             171   -0.4110 21.9 195 
 BAR2 SZ I         1 2 26.61         5.1 0.14            170           21.9 195 
 BRR  HZ EP        1 2 12.27                             152    0.3510 73.4 299 
 BRR  HN ES   1    1 2 29.27                             152    0.57 7 73.4 299 
 RUS  HZ EP        1 2 14.41                             145    0.1610 98.7 177 
 RUS  HE ES   1    1 2 32.96                             145    0.12 7 98.7 177 
 RUS  HZ I         1 2 33.91         1.5 0.24            144           98.7 177 
 PTB  HZ EP   1    1 2 16.61                             132   -1.06 7  149 260 
 PTB  HN ES   1    1 2 38.33                             132   -0.59 7  149 260 
 PTB  HZ I         1 2 40.24         2.0 0.16            132            149 260 
 NOR  HN ES   1    1 2 55.04                             119    0.76 6  235 235 
                                                                                
