 2017  6 6 0449  5.2 L   6.779 -73.154151.2  RSN  8 0.3 1.5LRSN                1
 GAP=183        0.78       3.6     5.1  6.1  0.8249E+01 -0.1085E+02 -0.3423E+01E
 Epicentro: LOS SANTOS - SANTANDER                                             3
 ACTION:UPD 17-09-14 16:50 OP:jn   STATUS:               ID:20170606044905 L   I
 OLDACT:UP  17-06-06 14:46 OP:EDW  STATUS:               ID:20170606044740     3
 OLDACT:UP  17-06-06 14:44 OP:EDW  STATUS:               ID:20170606044740     3
 OLDACT:REG 17-06-06 12:17 OP:edw  STATUS:               ID:20170606044740     3
 2017-06-06-0448-00M.COL___365                                                 6
 STAT SP IPHASW D HRMM SECON CODA AMPLIT PERI AZIMU VELO AIN AR TRES W  DIS CAZ7
 BRR  HZ EP     C  449 27.02                             153    0.0510 71.5 301 
 BRR  HE ES        449 43.98                             153    0.0410 71.5 301 
 BRR  HZ I         449 45.04         4.5 0.12            149           71.5 301 
 RUS  HZ EP        449 29.30                             145   -0.0410 98.3 175 
 RUS  HN ES        449 47.91                             145   -0.2610 98.3 175 
 RUS  HZ I         449 48.68         4.7 0.32            144           98.3 175 
 PTB  HZ EP   9    449 32.25                             133   -0.26 0  146 260 
 PTB  HN ES        449 52.87                             133   -0.67 9  146 260 
 PTB  HZ I         449 55.20         2.7 0.28            130            146 260 
 SPBC HZ EP        449 33.69                             130   -0.22 9  161 219 
 SPBC HN ES        449 56.44                             130    0.14 9  161 219 
 SPBC HZ I         450  1.77         4.3 0.24            128            161 219 
 YPLC HZ EP        449 35.57                             128    0.32 9  175 151 
 YPLC HE ES   4    449 59.75                             128    1.06 0  175 151 
 ZAR  HZ EP   4    449 41.13                             123    3.11 0  204 293 
 ZAR  HN ES        450  3.98                             123    0.37 9  204 293 
 ZAR  HZ I         450  9.14         3.4 0.46            121            204 293 
 CHI  HN ES        450 12.39                             118    0.01 8  246 195 
 PTGC HN ES   4    450 21.33                             112   -2.02 0  307 158 
 SJC  HZ EP        450  0.36                             106   -0.76 6  411 327 
 SJC  HN ES   4    450 40.83                             106   -3.91 0  411 327 
 SJC  HZ I         450 44.84         1.5 0.52            106            411 327 
                                                                                
