 2016  4 6 0835 12.4 L   6.746 -73.124144.1  RSN  4 0.3 1.0LRSN                1
 GAP=142        0.64       4.1     5.1  7.5 -0.8407E+01  0.9341E+01 -0.4304E+01E
 Epicentro: LOS SANTOS - SANTANDER                                             3
 ACTION:UPD 16-05-05 14:19 OP:rebc STATUS:               ID:20160406083512 L   I
 OLDACT:UP  16-04-07 09:37 OP:AK   STATUS:               ID:20160406083512 L   3
 OLDACT:UP  16-04-06 19:10 OP:mh   STATUS:               ID:20160406082749     3
 OLDACT:REG 16-04-06 12:32 OP:mh   STATUS:               ID:20160406082749     3
 2016-04-06-0827-49M.COL___273                                                 6
 STAT SP IPHASW D HRMM SECON CODA AMPLIT PERI AZIMU VELO AIN AR TRES W  DIS CAZ7
 BAR2 EZ EP   2    835 32.05                             172    0.34 5 18.2 201 
 BAR2 EZ ES   2    835 47.04                             172    0.25 5 18.2 201 
 BAR2 EZ I         835 49.85         2.5 0.24            170           18.2 201 
 PAM  EZ EP        835 34.27                             149   -0.3410 80.6  36 
 PAM  EN ES        835 52.10                             149    0.1510 80.6  36 
 PAM  EZ I         835 52.76         1.7 0.37            155           80.6  36 
 RUS  HZ EP   1    835 36.09                             145    0.56 7 94.5 177 
 RUS  HN ES        835 53.35                             145   -0.2410 94.5 177 
 RUS  HZ I         835 56.35         1.0 0.10            148           94.5 177 
 PTB  HZ EP   2    835 39.37                             131    0.04 5  149 261 
 PTB  HE ES   1    836  0.29                             131   -0.07 7  149 261 
 PTB  HZ I         836  4.70         1.4 0.24            132            149 261 
                                                                                
