 2016  1 6 0226 40.6 L   6.811 -73.134147.1  RSN 19 0.5 2.4LRSN                1
 GAP= 71        1.26       2.9     3.5  5.7 -0.1168E+01  0.4995E+01  0.2546E+01E
 Epicentro: LOS SANTOS - SANTANDER                                             3
 ACTION:UPD 16-03-09 23:23 OP:cam  STATUS:               ID:20160106022640 L   I
 OLDACT:UP  16-02-01 09:16 OP:mHER STATUS:               ID:20160106022640 L   3
 OLDACT:REG 16-01-06 12:14 OP:drio STATUS:               ID:20160106021739     3
 2016-01-06-0217-39M.COL___262                                                 6
 STAT SP IPHASW D HRMM SECON CODA AMPLIT PERI AZIMU VELO AIN AR TRES W  DIS CAZ7
 BAR2 EZ EP        227  0.61                             170    0.2210 24.8 193 
 BAR2 EZ ES        227 15.38                             170   -0.4710 24.8 193 
 BAR2 EZ I         227 18.48        45.6 0.38            170           24.8 193 
 BRR  HZ EP        227  2.52                             153    0.6210 71.8 297 
 BRR  HN ES        227 19.98                             153    1.4510 71.8 297 
 BRR  HZ I         227 23.66        44.6 0.18            151           71.8 297 
 PAM  EZ EP        227  3.25                             152    0.4310 75.6  39 
 PAM  EN ES        227 20.77                             152    0.5910 75.6  39 
 PAM  EZ I         227 22.88        25.0 0.16            154           75.6  39 
 RUS  HZ EP        227  4.42                             144   -0.1210  102 177 
 RUS  HE ES        227 22.75                             144   -0.4810  102 177 
 RUS  HZ I         227 24.45        19.7 0.28            146            102 177 
 PTB  HZ EP        227  7.41                             132   -0.38 9  149 258 
 PTB  HN ES        227 28.42                             132   -0.59 9  149 258 
 PTB  HZ I         227 31.65        24.3 0.12            132            149 258 
 TAM  HZ EP        227  8.84                             131    0.57 9  154 106 
 TAM  HE ES        227 29.36                             131   -0.51 9  154 106 
 TAM  HZ I         227 31.70        14.5 0.30            135            154 106 
 OCA  HZ EP        227  8.52                             130   -0.36 9  159 353 
 OCA  HE ES        227 30.07                             130   -0.90 9  159 353 
 OCA  HZ I         227 40.28        35.1 0.42            131            159 353 
 SPBC HZ EP        227  9.61                             129    0.27 9  165 219 
 SPBC HE ES        227 31.72                             129   -0.06 9  165 219 
 SPBC HZ I         227 33.85        50.7 0.14            130            165 219 
 ZAR  HZ EP        227 13.10                             123   -0.08 9  205 292 
 ZAR  HE ES        227 38.31                             123   -0.31 9  205 292 
 ZAR  HZ I         227 46.51        17.9 0.12            123            205 292 
 NOR  HZ EP        227 16.61                             119    0.04 8  236 234 
 NOR  HN ES        227 44.04                             119   -0.61 8  236 234 
 NOR  HZ I         227 48.72        25.8 0.20            119            236 234 
 SML  HZ EP        227 16.72                             118   -0.49 8  243 335 
 SML  HE ES        227 45.19                             118   -0.60 8  243 335 
 SML  HZ I         227 51.39        26.3 0.10            119            243 335 
 CHI  HZ EP        227 18.55                             117    0.04 8  250 195 
 CHI  HN ES        227 47.40                             117   -0.71 8  250 195 
 CHI  HZ I         227 56.27         8.7 0.42            119            250 195 
 ROSC BZ EP        227 19.44                             117    0.49 8  255 211 
 ROSC BE ES        227 49.35                             117    0.46 8  255 211 
 ROSC BZ I         227 56.70        24.4 0.55            118            255 211 
 HEL  HZ EP        227 21.56                             115    0.53 8  274 256 
 HEL  HE ES        227 53.29                             115    0.71 8  274 256 
 HEL  HZ I         227 58.94        11.9 0.32            116            274 256 
 GUY2CHZ EP   4    227 25.53                             112    1.09 0  303 235 
 GUY2CHE ES   4    228  0.86                             112    2.20 0  303 235 
 GUY2CHZ I         228  7.15        13.3 0.28                           303 235 
 PRA  HZ EP        227 33.99                             107   -0.35 6  394 210 
 PRA  HN ES        228 16.55                             107    0.27 6  394 210 
 PRA  HZ I         228 21.90        15.7 0.62            108            394 210 
 ORTC HZ EP        227 34.62                             106   -0.12 6  397 216 
 ORTC HE ES        228 16.70                             106   -0.30 6  397 216 
 ORTC HZ I         228 25.13         8.1 0.60            107            397 216 
 PAL  HZ EP        227 36.07                             106    0.09 6  407 239 
 PAL  HE ES        228 19.37                             106    0.17 6  407 239 
 PAL  HZ I         228 31.24         2.5 0.38            107            407 239 
 SJC  HZ EP   4    227 34.76                             106   -1.38 0  409 327 
 SJC  HE ES   4    228 13.87                             106   -5.61 0  409 327 
 SJC  HZ I         228 24.12         3.5 0.34            107            409 327 
                                                                                
