 2013  6 6 0518 44.7 L   6.678 -72.995170.0  RSN  6 0.4 1.9LRSN                1
 GAP=213        0.79       6.9    10.4  7.9  0.3246E+02 -0.1480E+02 -0.2430E+02E
 Epicentro: ARATOCA - SANTANDER                                                3
 ACTION:UPD 14-01-08 09:52 OP:ep   STATUS:               ID:20130606051844 L   I
 OLDACT:UP  13-06-06 15:20 OP:mh   STATUS:               ID:20130606051749     3
 OLDACT:UP  13-06-06 15:20 OP:mh   STATUS:               ID:20130606051749     3
 OLDACT:REG 13-06-06 15:16 OP:mh   STATUS:               ID:20130606051749     3
 2013-06-06-0517-49M.COL___231                                                 6
 STAT SP IPHASW D HRMM SECON CODA AMPLIT PERI AZIMU VELO AIN AR TRES W  DIS CAZ7
 BAR2 SZ EP   1    519  6.92                             172   -0.3010 22.8 245 
 BAR2 SZ ES   1    519 24.55                             172   -0.2510 22.8 245 
 GIR2 SZ EP   1    519  7.89                             163    0.1110 49.4 334 
 GIR2 SZ I         519 27.46         3.9 0.42            159           49.4 334 
 RUS  HZ EP   1    519 10.14                             152    0.0610 87.4 186 
 RUS  HN ES   1    519 29.66                             152   -0.2310 87.4 186 
 RUS  HN I         519 31.10        10.9 0.38            154           87.4 186 
 BRR  HZ EP   1    519 10.09                             150    0.4310 92.3 301 
 BRR  HN ES   1    519 29.88                             150    0.7310 92.3 301 
 BRR  HN I         519 31.10        24.5 0.22            152           92.3 301 
 PTB  HZ EP   1    519 15.34                             134    0.37 9  162 265 
 PTB  HN ES   2    519 37.77                             134   -0.82 6  162 265 
 PTB  HN I         519 39.17         6.8 0.52            139            162 265 
 SML  HZ EP        519 24.50                             120   -0.3010  263 333 
 SML  HN ES   2    519 55.16                             120   -0.93 5  263 333 
 SML  HN I         519 58.84         5.3 0.28            118            263 333 
                                                                                
