 2016  5 6 0624  2.4 L   6.805 -73.176157.3  RSN  5 0.3 1.1LRSN                1
 GAP=235        0.81       5.0     5.6  7.3  0.6220E+01 -0.5259E+01  0.1205E+00E
 Epicentro: LOS SANTOS - SANTANDER                                             3
 ACTION:UPD 16-08-18 17:42 OP:cam  STATUS:               ID:20160506062402 L   I
 OLDACT:REG 16-05-06 13:43 OP:ak   STATUS:               ID:20160506061747     3
 2016-05-06-0617-47M.COL___292                                                 6
 STAT SP IPHASW D HRMM SECON CODA AMPLIT PERI AZIMU VELO AIN AR TRES W  DIS CAZ7
 BAR2 EZ EP        624 22.85                             171   -0.5410 23.6 182 
 BRR  HZ IP     D  624 24.99                             155    0.3810 68.0 299 
 BRR  HN ES        624 42.17                             155    0.2110 68.0 299 
 RUS  HZ EP        624 27.51                             146    0.1910  101 174 
 RUS  HE ES        624 46.69                             146   -0.1110  101 174 
 RUS  HZ I         624 48.32         1.1 0.56            143            101 174 
 PTB  HZ EP        624 29.78                             135   -0.24 9  145 258 
 PTB  HN ES        624 51.23                             135   -0.36 9  145 258 
 PTB  HZ I         624 56.88         2.3 0.34            132            145 258 
 SPBC HZ EP        624 31.81                             132    0.19 9  162 218 
 SPBC HN ES        624 54.73                             132    0.28 9  162 218 
 SPBC HZ I         625  1.20         1.6 0.14            129            162 218 
                                                                                
