 2014  2 6 0511 28.8 L   6.787 -73.142144.1  RSN  6 0.4 1.4LRSN                1
 GAP=138        0.85       4.6     5.0  9.1 -0.7054E+01  0.1648E+02 -0.4216E+01E
 Epicentro: LOS SANTOS - SANTANDER                                             3
 ACTION:UPD 14-03-10 08:07 OP:ep   STATUS:               ID:20140206051128 L   I
 OLDACT:REG 14-02-06 08:22 OP:mh   STATUS:               ID:20140206051000     3
 2014-02-06-0510-00M.COL___291                                                 6
 STAT SP IPHASW D HRMM SECON CODA AMPLIT PERI AZIMU VELO AIN AR TRES W  DIS CAZ7
 PAM  SZ EP        511 51.13                             150    0.2910 78.2  39 
 PAM  SN ES        512  8.03                             150   -0.0410 78.2  39 
 PAM  SZ I         512 10.51         3.8 0.18             47           78.2  39 
 RUS  HZ EP   1    511 52.21                             144   -0.02 7 99.1 176 
 RUS  HN ES   1    512 10.19                             144   -0.35 7 99.1 176 
 RUS  HZ I         512 12.25         1.8 0.22             47           99.1 176 
 PTB  HZ EP   1    511 54.89                             131   -0.71 7  148 259 
 PTB  HN ES   1    512 15.96                             131   -0.57 7  148 259 
 PTB  HZ I         512 22.17         3.5 0.25             47            148 259 
 SPBC HZ EP   1    511 57.30                             129    0.26 7  162 219 
 SPBC HN ES   1    512 19.82                             129    0.71 7  162 219 
 ZAR  HN ES   1    512 27.04                             122    0.56 6  205 292 
 ZAR  HZ I         512 32.67         2.9 0.37             37            205 292 
 SML  HZ EP   1    512  5.16                             117   -0.28 6  245 335 
 SML  HZ I         512 38.04         4.7 0.10             37            245 335 
                                                                                
