 2014 10 6 0624 19.4 L   6.802 -73.148140.0  RSN  8 0.5 1.4LRSN                1
 GAP=136        1.05       3.9     6.7  9.0 -0.1071E+02  0.1980E+02 -0.4029E+01E
 Epicentro: LOS SANTOS - SANTANDER                                             3
 ACTION:UPD 14-11-29 23:47 OP:nd   STATUS:               ID:20141006061738 L   I
 OLDACT:UPD 14-10-06 15:05 OP:SPQ  STATUS:               ID:20141006061738 L   3
 2014-10-06-0617-38M.COL___286                                                 6
 STAT SP IPHASW D HRMM SECON CODA AMPLIT PERI AZIMU VELO AIN AR TRES W  DIS CAZ7
 BAR2 SZ EP        624 38.31                             170   -0.0410 23.5 189 
 BAR2 SZ ES   1    624 53.88                             170    0.76 7 23.5 189 
 BAR2 SZ I         624 57.31         5.9 0.40            168           23.5 189 
 PAM  SZ EP        624 41.68                             150    0.6710 77.4  40 
 PAM  SE ES   1    624 57.26                             150   -0.60 7 77.4  40 
 PAM  SZ I         624 59.53         3.8 0.36            155           77.4  40 
 RUS  HZ EP   1    624 42.48                             142   -0.14 7  101 176 
 RUS  HN ES        625  0.12                             142   -0.6010  101 176 
 RUS  HZ I         625  2.31         4.3 0.50            147            101 176 
 PTB  HZ EP   1    624 45.54                             130   -0.35 7  148 259 
 PTB  HN ES   1    625  6.37                             130   -0.18 7  148 259 
 PTB  HZ I         625 14.00         5.1 0.28            131            148 259 
 OCA  HZ EP   1    624 47.65                             128    0.40 7  160 353 
 OCA  HN ES        625  8.61                             128   -0.35 9  160 353 
 OCA  HZ I         625 14.79         4.9 0.16            131            160 353 
 SPBC HZ EP        624 47.40                             127   -0.08 9  163 219 
 SPBC HN ES        625 10.06                             127    0.70 9  163 219 
 SPBC HZ I         625 13.30         5.0 0.16            130            163 219 
 CHI  HN ES   1    625 25.79                             116   -0.20 6  249 195 
 CHI  HZ I         625 32.39         1.1 0.22            119            249 195 
 TOL  SN ES   1    625 44.39                             108   -0.51 5  343 225 
                                                                                
