 2017  1 6 0847  5.0 L   6.701 -73.172150.0  RSN  7 0.4 1.5LRSN                1
 GAP=154        0.98       5.9     5.3  6.0  0.2002E+02 -0.3899E+01 -0.5005E+00E
 Epicentro: VILLANUEVA - SANTANDER                                             3
 ACTION:UPD 17-05-22 15:56 OP:jn   STATUS:               ID:20170106084705 L   I
 OLDACT:UP  17-01-06 18:37 OP:and  STATUS:               ID:20170106083738     3
 OLDACT:REG 17-01-06 12:50 OP:and  STATUS:               ID:20170106083738     3
 2017-01-06-0838-00M.COL___360                                                 6
 STAT SP IPHASW D HRMM SECON CODA AMPLIT PERI AZIMU VELO AIN AR TRES W  DIS CAZ7
 BAR2 EZ EP     C  847 24.78                             175   -0.1510 12.1 185 
 BAR2 EZ ES        847 40.10                             175   -0.4110 12.1 185 
 BAR2 EZ I         847 43.21         7.1 0.26            176           12.1 185 
 BRR  HZ EP        847 26.79                             152    0.0210 74.7 307 
 BRR  HN ES        847 43.81                             152    0.0410 74.7 307 
 BRR  HZ I         847 46.83         5.0 0.48            152           74.7 307 
 RUS  HZ EP        847 28.94                             148    0.5310 89.9 174 
 RUS  HN ES        847 47.31                             148    0.6210 89.9 174 
 RUS  HZ I         847 48.51         3.6 0.32            150           89.9 174 
 PTB  HZ EP        847 31.82                             134   -0.05 9  143 263 
 PTB  HN ES        847 52.78                             134   -0.07 9  143 263 
 PTB  HZ I         847 53.95         3.7 0.22            135            143 263 
 TAM  HZ IP     C  847 32.97                             131   -0.05 9  156 101 
 ZAR  HZ EP        847 38.44                             123    0.58 8  206 295 
 ZAR  HE ES        848  3.03                             123   -0.49 8  206 295 
 ZAR  HZ I         848  8.85         3.9 0.36            124            206 295 
 PTGC HZ EP        847 47.74                             113   -0.25 7  300 157 
 PTGC HE ES        848 20.70                             113   -0.85 7  300 157 
                                                                                
