 2016  3 6 0157 15.3 L   6.804 -73.159144.4  RSN  6 0.3 1.6LRSN                1
 GAP=135        0.80       3.7     3.7  7.3 -0.1986E+01  0.8297E+01  0.3051E+00E
 Epicentro: LOS SANTOS - SANTANDER                                             3
 ACTION:UPD 16-05-13 21:21 OP:cam  STATUS:               ID:20160306015715 L   I
 OLDACT:REG 16-03-06 12:54 OP:ar   STATUS:               ID:20160306014749     3
 2016-03-06-0147-49M.COL___328                                                 6
 STAT SP IPHASW D HRMM SECON CODA AMPLIT PERI AZIMU VELO AIN AR TRES W  DIS CAZ7
 BAR2 EZ ES   2    157 50.05                             170    0.14 5 23.5 186 
 BAR2 EZ I         157 51.22         7.4 0.52            168           23.5 186 
 PAM  EZ EP        157 37.62                             150    0.2610 78.0  41 
 PAM  EN ES        157 54.59                             150   -0.0110 78.0  41 
 PAM  EZ I         157 56.93         4.1 0.50            157           78.0  41 
 RUS  HZ EP        157 38.31                             143   -0.6010  101 175 
 RUS  HN ES        157 57.40                             143    0.0410  101 175 
 RUS  HZ I         157 59.22         4.3 0.30            145            101 175 
 PTB  HZ EP        157 41.77                             132   -0.22 9  146 259 
 PTB  HN ES        158  2.51                             132   -0.33 9  146 259 
 PTB  HZ I         158  4.71         3.5 0.20            132            146 259 
 SPBC HZ EP        157 44.10                             129    0.51 9  163 218 
 SPBC HN ES        158  5.99                             129    0.29 9  163 218 
 SPBC HZ I         158 18.32         9.4 0.10            130            163 218 
 ZAR  HN ES        158 12.70                             122    0.13 9  203 292 
 ZAR  HZ I         158 18.67         4.9 0.28            124            203 292 
                                                                                
