 2013  1 6 0058 34.8 L   6.414 -73.365152.1  RSN  6 0.6 1.8LRSN                1
 GAP=106        1.46       5.4     8.9 10.6  0.6901E+01  0.1747E+02  0.1020E+02E
 Epicentro: SIMACOTA - SANTANDER                                               3
 ACTION:UPD 13-02-15 09:12 OP:ep   STATUS:               ID:20130106005834 L   I
 2013-01-06-0049-49M.COL___190                                                 6
 STAT SP IPHASW D HRMM SECON CODA AMPLIT PERI AZIMU VELO AIN AR TRES W  DIS CAZ7
 BAR2 SZ EP        058 54.92                             169   -0.3810 28.3  46 
 BAR2 SZ ES        059 11.08                             169   -0.2110 28.3  46 
 BAR2 SZ I         059 12.85        11.7 0.30            169           28.3  46 
 RUS  HZ EP        058 57.10                             156    0.0310 65.5 152 
 RUS  HN ES        059 14.12                             156   -0.3110 65.5 152 
 RUS  HN I         059 17.16         4.6 0.48            156           65.5 152 
 BRR  HZ EP        058 58.04                             149    0.5510 85.7 333 
 BRR  HZ I         058 58.22         8.0 0.12            151           85.7 333 
 BRR  HN ES        059 16.48                             149    1.2910 85.7 333 
 PTB  HZ EP        058 59.64                             139   -0.4410  121 277 
 PTB  HN ES        059 19.10                             139   -0.7010  121 277 
 PTB  HN I         059 20.65        13.4 0.10            141            121 277 
 CHI  HZ EP        059  8.31                             124    0.37 9  201 192 
 CHI  HE ES        059 34.12                             124    0.33 9  201 192 
 CHI  HN I         059 36.06         3.4 0.46            125            201 192 
 OCA  HN ES        059 32.71                             124   -0.55 9  202   1 
 OCA  HN I         059 35.09        17.9 0.46            125            202   1 
                                                                                
