 2010 10 6 0833 53.9 L   6.748 -73.151147.3  RSN  4 0.4 1.6LRSN                1
 GAP=175        0.83      10.5    12.0 10.4 -0.6318E+02 -0.3570E+02  0.5210E+00E
 Epicentro: LOS SANTOS - SANTANDER                                             3
 ACTION:UP  11-02-18 11:08 OP:tino STATUS:               ID:20101006083353 L   I
 2010-10-06-0830-07S.COL___121                                                 6
 STAT SP IPHASW D HRMM SECON CODA AMPLIT PERI AZIMU VELO SNR AR TRES W  DIS CAZ7
 BAR2 SZ EP   2    834 13.55                             173    -0.1 5   18 192 
 BAR2 SZ ES   2    834 28.79                             173    -0.2 5   18 192 
 BAR2 SZ I         834 29.91        10.4 0.56                            18 192 
 BRR  HZ IP     C  834 15.30                             152    -0.110   74 303 
 BRR  HZ I         834 15.93         6.8 0.15                            74 303 
 BRR  HN ES   1    834 32.31                             152     0.2 7   74 303 
 GRA  SZ IP        834 20.24                             136     0.410  131  17 
 GRA  SZ ES   1    834 39.75                             136    -0.2 7  131  17 
 GRA  SZ I         834 41.11         3.8 0.27                           131  17 
 OCA  SZ EP   2    834 21.98                             129    -0.9 5  166 354 
 OCA  SZ I         834 49.26         4.9 0.34                           166 354 
                                                                                
