 2016 11 6 0851 11.7 L   6.844 -73.305165.4  RSN  4 0.2 1.3LRSN                1
 GAP=270        0.69       5.9     8.9  8.2 -0.2038E+02 -0.4012E+02  0.1987E+02E
 Epicentro: ZAPATOCA - SANTANDER                                               3
 ACTION:UPD 17-10-26 21:05 OP:lp   STATUS:               ID:20161106085111 L   I
 OLDACT:REG 16-11-06 12:59 OP:dani STATUS:               ID:20161106084747     3
 2016-11-06-0848-00M.COL___334                                                 6
 STAT SP IPHASW D HRMM SECON CODA AMPLIT PERI AZIMU VELO AIN AR TRES W  DIS CAZ7
 BRR  HZ IP     C  851 34.24                             162    0.0810 53.5 303 
 BRR  HN ES        851 51.63                             162   -0.0810 53.5 303 
 BRR  HZ I         851 56.38         3.7 0.52            157           53.5 303 
 PTB  HZ EP        851 39.19                             140    0.2310  132 255 
 PTB  HN ES        852  0.18                             140   -0.0810  132 255 
 PTB  HZ I         852  2.11         2.2 0.18            139            132 255 
 SPBC HZ EP   2    851 40.43                             134   -0.73 5  157 213 
 SPBC HN ES        852  4.19                             134    0.02 9  157 213 
 SPBC HZ I         852  5.38         3.6 0.28            136            157 213 
 ZAR  HZ EP   9    851 46.05                             129    2.35 0  186 293 
 ZAR  HN ES        852 10.46                                   -0.59 9  186 293 
 ZAR  HZ I         852 13.50         1.4 0.26            128            186 293 
                                                                                
