 2012 10 6 0527 18.1 L   6.394 -73.248 17.3  RSN  6 0.4 1.4LRSN                1
 GAP=132        0.80       2.6     4.5  6.1  0.2180E+01  0.1846E+02  0.5526E+01E
 Epicentro: CONFINES - SANTANDER                                               3
 ACTION:UPD 12-11-22 17:02 OP:ep   STATUS:               ID:20121006052718 L   I
 2012-10-06-0520-00M.COL___222                                                 6
 STAT SP IPHASW D HRMM SECON CODA AMPLIT PERI AZIMU VELO AIN AR TRES W  DIS CAZ7
 BAR2 SZ EP        527 23.17                             125    0.1210 23.0  18 
 BAR2 SZ ES        527 27.10                             125    0.1510 23.0  18 
 BAR2 SZ I         527 27.35        82.3 0.10                          23.0  18 
 RUS  HN ES   1    527 35.93                             105   -0.31 7 58.4 162 
 RUS  HN I         527 37.28         4.3 0.35                          58.4 162 
 GIR2 SZ EP   1    527 30.05                             101   -0.44 7 75.9   5 
 BRR  HZ EP   1    527 33.49                              98    0.45 7 94.0 327 
 BRR  HN ES   1    527 44.23                              98   -0.51 7 94.0 327 
 BRR  HN I         527 45.22        24.7 0.26                          94.0 327 
 PAM  SZ EP   1    527 38.11                              97    0.53 7  121  30 
 PAM  SE ES   1    527 52.37                              97   -0.44 7  121  30 
 PAM  SE I         527 53.31        13.6 0.21                           121  30 
 HEL  HZ EP   1    527 54.92                              56    0.63 6  253 265 
 HEL  HE ES   1    528 22.32                              56   -0.23 6  253 265 
 HEL  HN I         528 27.01         1.9 0.25                           253 265 
                                                                                
