 2011 11 6 0704 24.2 L   6.802 -73.116142.2  RSN  4 0.2 1.2LRSN                1
 GAP=140        0.37       3.6     4.5  5.6  0.3736E+01 -0.2936E+01  0.4910E+01E
 Epicentro: LOS SANTOS - SANTANDER                                             3
 ACTION:UPD 12-07-13 16:08 OP:ep   STATUS:               ID:20111106070424 L   I
 2011-11-06-0659-12S.COL___175                                                 6
 STAT SP IPHASW D HRMM SECON CODA AMPLIT PERI AZIMU VELO AIN AR TRES W  DIS CAZ7
 BAR2 SZ EP        7 4 43.41                             170   -0.0410 24.3 198 
 BAR2 SZ I         7 5  3.12         4.2 0.50                          24.3 198 
 BRR  HZ EP        7 4 45.20                             151    0.0410 74.0 297 
 BRR  HN ES   1    7 5  1.47                             151   -0.02 7 74.0 297 
 BRR  HN I         7 5  2.63         7.8 0.27                          74.0 297 
 PAM  SZ EP   2    7 4 46.28                             151    0.35 5 75.1  38 
 PAM  SN ES   2    7 5  2.69                             151   -0.17 5 75.1  38 
 RUS  HZ EP   1    7 4 47.48                             143   -0.16 7  101 178 
 RUS  HZ I         7 4 48.28         1.1 0.11                           101 178 
 RUS  HN ES   2    7 5  6.13                             143    0.24 5  101 178 
                                                                                
