 2016  8 6 0426 35.8 L   6.835 -73.163147.8  RSN 12 0.5 1.7LRSN                1
 GAP=133        1.02       3.4     3.7  5.4 -0.7247E+00  0.8167E+01 -0.1576E+01E
 Epicentro: LOS SANTOS - SANTANDER                                             3
 ACTION:UPD 16-10-29 15:32 OP:rebc STATUS:               ID:20160806042635 L   I
 OLDACT:DUP 16-08-06 17:02 OP:edw  STATUS:               ID:20160806041735d    3
 OLDACT:REG 16-08-06 12:46 OP:edw  STATUS:               ID:20160806041733     3
 2016-08-06-0418-00M.COL___359                                                 6
 STAT SP IPHASW D HRMM SECON CODA AMPLIT PERI AZIMU VELO AIN AR TRES W  DIS CAZ7
 BAR2 EZ EP        426 55.70                             170   -0.1010 26.9 185 
 BAR2 EZ ES        427 10.95                             170   -0.4210 26.9 185 
 BRR  HZ EP        426 57.42                             154    0.3910 67.7 296 
 BRR  HN ES        427 14.03                             154    0.4810 67.7 296 
 BRR  HZ I         427 15.61        10.3 0.30                          67.7 296 
 PAM  EZ EP        426 58.66                             151    0.4810 75.7  42 
 PAM  EN ES        427 15.91                             151    0.3110 75.7  42 
 PAM  EZ I         427 17.93         9.9 0.70                          75.7  42 
 RUS  HZ EP        426 59.63                             143   -0.4610  105 175 
 RUS  HN ES        427 18.38                             143   -0.6210  105 175 
 RUS  HZ I         427 19.25         4.4 0.32                           105 175 
 PTB  HZ EP        427  2.52                             133   -0.37 9  147 257 
 PTB  HN ES        427 23.42                             133   -0.56 9  147 257 
 PTB  HZ I         427 25.67         9.8 0.12                           147 257 
 SPBC HZ EP        427  4.85                             129    0.17 9  165 218 
 SPBC HN ES        427 27.23                             129    0.06 9  165 218 
 SPBC HZ I         427 29.46         7.6 0.78                           165 218 
 ZAR  HZ EP        427  8.33                             123    0.23 9  201 291 
 ZAR  HN ES        427 33.77                             123    0.51 9  201 291 
 ZAR  HZ I         427 40.13         6.6 0.54                           201 291 
 NOR  HZ EP        427 12.45                             119    0.67 8  235 233 
 NOR  HN ES        427 39.73                             119   -0.08 8  235 233 
 NOR  HZ I         427 44.89         4.2 0.18                           235 233 
 URE  HZ EP        427 16.54                             114   -0.12 7  281 291 
 URE  HN ES        427 48.60                             114    0.10 7  281 291 
 URE  HZ I         428  0.99         3.8 0.18                           281 291 
 GUY2CHZ EP   2    427 20.00                             113    0.37 4  302 234 
 GUY2CHN ES   2    427 54.30                             113    0.51 4  302 234 
 GUY2CHZ I         428  0.24         1.8 0.44                           302 234 
 CBOC HZ EP        427 22.88                             110    0.10 7  333 251 
 CBOC HN ES        427 59.66                             110    0.27 7  333 251 
 CBOC HZ I         428 10.36         0.9 0.22                           333 251 
 SJC  HZ EP        427 30.47                             106   -0.51 6  405 327 
 SJC  HN ES        428 12.54                             106   -1.44 6  405 327 
                                                                                
