 2015  7 6 0835 20.0 L   6.852 -73.088154.7  RSN  7 0.4 1.7LRSN                1
 GAP=141        0.83       3.9     4.8  7.3  0.4602E+00  0.1597E+02 -0.4106E+01E
 Epicentro: LOS SANTOS - SANTANDER                                             3
 ACTION:UPD 15-09-08 21:47 OP:cam  STATUS:               ID:20150706083520 L   I
 OLDACT:REG 15-07-06 16:16 OP:spq  STATUS:               ID:20150706082750     3
 2015-07-06-0827-50M.COL___331                                                 6
 STAT SP IPHASW D HRMM SECON CODA AMPLIT PERI AZIMU VELO AIN AR TRES W  DIS CAZ7
 BAR2 EZ EP        835 40.70                             168   -0.1310 30.5 200 
 BAR2 EZ ES   1    835 57.51                             168    0.41 7 30.5 200 
 BAR2 EZ I         835 59.04         6.4 0.34            168           30.5 200 
 PAM  EZ EP        835 43.28                             155    0.5910 68.9  38 
 PAM  EE ES        836  0.39                             155   -0.0110 68.9  38 
 PAM  EZ I         836  2.15         8.1 0.20            158           68.9  38 
 RUS  HZ EP   1    835 44.80                             144   -0.20 7  106 180 
 RUS  HE ES   1    836  4.00                             144   -0.51 7  106 180 
 RUS  HZ I         836  5.40         3.8 0.41            147            106 180 
 OCA  HN ES   1    836 10.52                             132   -0.34 7  156 351 
 OCA  HZ I         836 13.91        12.9 0.29            134            156 351 
 ZAR  HZ EP        835 53.46                             124    0.04 8  208 290 
 ZAR  HN ES        836 19.07                             124   -0.43 8  208 290 
 ZAR  HZ I         836 21.39         4.0 0.12            124            208 290 
 SML  HZ EP        835 56.56                             119   -0.30 8  241 333 
 SML  HE ES   1    836 25.91                             119    0.27 6  241 333 
 SML  HZ I         836 29.77         7.7 0.10            121            241 333 
 HEL  HN ES   1    836 34.66                             116    0.78 6  280 255 
 HEL  HZ I         836 40.49         3.1 0.32            117            280 255 
 GUY2CHZ EP   4    836  6.48                             113    1.51 0  310 235 
                                                                                
