 2013  8 6 0111 23.7 L   6.759 -73.164146.6  RSN  4 0.4 1.2LRSN                1
 GAP=232        0.94      10.0     9.7  9.8  0.5582E+02  0.2314E+02  0.1513E+02E
 Epicentro: LOS SANTOS - SANTANDER                                             3
 ACTION:UPD 14-01-14 08:59 OP:ep   STATUS:               ID:20130806011123 L   I
 OLDACT:REG 13-08-06 07:33 OP:jn   STATUS:               ID:20130806010959     3
 2013-08-06-0109-59M.COL___267                                                 6
 STAT SP IPHASW D HRMM SECON CODA AMPLIT PERI AZIMU VELO AIN AR TRES W  DIS CAZ7
 BAR2 SZ EP   1    111 43.02                             172   -0.30 7 18.5 186 
 BAR2 SZ ES        111 58.06                             172   -0.5810 18.5 186 
 BAR2 SZ I         112  1.02         3.8 0.30            170           18.5 186 
 BRR  HE ES   1    112  2.29                             152    0.75 7 71.8 302 
 RUS  HZ EP   1    111 47.30                             145    0.10 7 96.2 175 
 RUS  HN ES        112  5.91                             145    0.3710 96.2 175 
 RUS  HZ I         112  7.37         2.2 0.36            145           96.2 175 
 PTB  HZ EP   1    111 50.52                             132    0.06 7  145 260 
 PTB  HN ES   1    112 11.08                             132   -0.27 7  145 260 
 PTB  HZ I         112 13.32         2.8 0.14            133            145 260 
                                                                                
