 2016  4 6 0006 21.9 L   6.812 -73.159144.2  RSN 10 0.4 2.0LRSN                1
 GAP=134        0.82       3.1     3.4  4.9 -0.1523E+01  0.5786E+01  0.2241E+01E
 Epicentro: LOS SANTOS - SANTANDER                                             3
 ACTION:UPD 16-05-05 14:19 OP:rebc STATUS:               ID:20160406000621 L   I
 OLDACT:UP  16-04-07 09:37 OP:AK   STATUS:               ID:20160406000621 L   3
 OLDACT:UP  16-04-06 13:01 OP:mh   STATUS:               ID:20160406000001     3
 OLDACT:UP  16-04-06 13:01 OP:mh   STATUS:               ID:20160406000001     3
 OLDACT:REG 16-04-06 12:14 OP:mh   STATUS:               ID:20160406000001     3
 2016-04-06-0000-01M.COL___304                                                 6
 STAT SP IPHASW D HRMM SECON CODA AMPLIT PERI AZIMU VELO AIN AR TRES W  DIS CAZ7
 BAR2 EZ EP        0 6 41.25                             170   -0.0710 24.5 186 
 BAR2 EZ ES        0 6 56.23                             170   -0.2710 24.5 186 
 BAR2 EZ I         0 6 57.99        32.4 0.25            169           24.5 186 
 PAM  EZ EP        0 6 44.18                             150    0.2810 77.3  41 
 PAM  EN ES        0 7  1.32                             150    0.2310 77.3  41 
 PAM  EZ I         0 7  3.13        19.3 0.50            154           77.3  41 
 RUS  HZ EP        0 6 45.26                             143   -0.3010  102 175 
 RUS  HN ES        0 7  4.11                             143    0.0710  102 175 
 RUS  HZ I         0 7  4.44         7.3 0.20            145            102 175 
 PTB  HZ EP        0 6 48.42                             132   -0.16 9  147 258 
 PTB  HN ES        0 7  8.74                             132   -0.69 9  147 258 
 PTB  HZ I         0 7 10.63         8.3 0.18            131            147 258 
 SPBC HZ EP        0 6 50.21                             129   -0.03 9  163 218 
 SPBC HN ES        0 7 12.81                             129    0.42 9  163 218 
 SPBC HZ I         0 7 16.91        22.6 0.20            129            163 218 
 ZAR  HZ EP   1    0 6 53.73                             122   -0.27 6  202 292 
 ZAR  HN ES        0 7 19.23                             122    0.15 9  202 292 
 ZAR  HZ I         0 7 25.62        10.6 0.42            122            202 292 
 NOR  HZ EP        0 6 57.56                             118    0.11 8  234 234 
 NOR  HN ES        0 7 25.93                             118    0.72 8  234 234 
 NOR  HZ I         0 7 30.97         6.9 0.38            119            234 234 
 CHI  HZ EP        0 6 59.48                             117   -0.09 8  250 195 
 CHI  HN ES        0 7 28.88                             117   -0.10 8  250 195 
 CHI  HZ I         0 7 32.30         7.4 0.64            118            250 195 
 ROSC BN ES   4    0 7 29.24                             116   -0.39 0  253 211 
 GUY2CHZ EP        0 7  5.95                             112    0.61 7  301 234 
 GUY2CHN ES   4    0 7 42.43                             112    3.17 0  301 234 
 GUY2CHZ I         0 7 47.18         5.7 0.34                           301 234 
 DBB  SZ ES   4    0 7 45.48                             109   -0.44 0  338 274 
 ANIL HE ES   4    0 7 52.34                             108    1.96 0  357 224 
 ORTC HZ EP        0 7 15.03                             106   -0.71 6  396 216 
 ORTC HN ES   1    0 7 57.65                             106   -0.13 4  396 216 
 ORTC HZ I         0 8  2.71         3.0 0.13            107            396 216 
                                                                                
