 2013  4 6 0023 14.9 L   6.776 -73.160149.1  RSN  7 0.4 1.5LRSN                1
 GAP=181        0.97       5.6     6.4  7.5  0.1535E+02  0.1025E+02 -0.9024E+00E
 Epicentro: LOS SANTOS - SANTANDER                                             3
 ACTION:UPD 13-05-22 14:36 OP:EP   STATUS:               ID:20130406002314 L   I
 2013-04-06-0020-00M.COL___245                                                 6
 STAT SP IPHASW D HRMM SECON CODA AMPLIT PERI AZIMU VELO AIN AR TRES W  DIS CAZ7
 BAR2 SZ EP        023 34.83                             172    0.0010 20.4 187 
 BAR2 SZ ES        023 50.66                             172    0.2510 20.4 187 
 BAR2 SZ I         023 51.03         8.9 0.26            170           20.4 187 
 GIR2 SZ ES   1    023 50.06                             166   -0.63 7 33.7 354 
 BRR  HZ EP        023 36.90                             153    0.5410 71.2 301 
 BRR  HN ES   1    023 53.82                             153    0.68 7 71.2 301 
 BRR  HZ I         023 58.95         9.8 0.44            150           71.2 301 
 RUS  HZ EP        023 39.07                             145    0.3210 98.0 175 
 RUS  HN ES        023 56.96                             145   -0.4310 98.0 175 
 RUS  HZ I         023 59.55         2.3 0.34            148           98.0 175 
 PTB  HZ EP        023 41.54                             133   -0.37 9  146 260 
 PTB  HN ES        024  2.95                             133   -0.07 9  146 260 
 PTB  HZ I         024  6.51         4.1 0.34            132            146 260 
 ZAR  HN ES   1    024 12.65                             123   -0.27 6  204 293 
 ZAR  HZ I         024 18.93         2.9 0.32            123            204 293 
 SML  HE ES   1    024 20.13                             118   -0.60 6  246 336 
                                                                                
