 2010 10 6 0938 11.1 L   6.085 -73.614122.1  RSN  4 0.2 1.7LRSN                1
 GAP=144        0.45       3.4     4.7  7.9 -0.1371E+01  0.1933E+02  0.5291E+01E
 Epicentro: CHIPATA - SANTANDER                                                3
 ACTION:UP  11-02-18 11:08 OP:tino STATUS:               ID:20101006093811 L   I
 2010-10-06-0935-41S.COL___121                                                 6
 STAT SP IPHASW D HRMM SECON CODA AMPLIT PERI AZIMU VELO SNR AR TRES W  DIS CAZ7
 BAR2 SZ EP   1    938 30.20                             147     0.0 8   74  40 
 BAR2 SZ ES   1    938 44.96                             147    -0.2 8   74  40 
 BAR2 SZ I         938 46.32        29.1 0.41                            74  40 
 BRR  HZ IP     C  938 33.17                             134     0.110  114 354 
 BRR  HN ES   1    938 50.19                             134     0.1 7  114 354 
 BRR  HZ I         938 59.64        11.0 0.40                           114 354 
 CHI  HN ES   2    938 59.45                             123     0.2 5  161 185 
 CHI  HZ I         939  4.28         2.9 0.39                           161 185 
 HEL  HZ EP   2    938 43.04                             115    -0.4 4  212 273 
 HEL  HN ES   2    939  8.78                             115     0.0 4  212 273 
 HEL  HZ I         939 16.03         3.5 0.15                           212 273 
                                                                                
