 2017  8 6 0938 47.8 L   6.834 -73.136146.0  RSN 21 0.8 2.3LRSN                1
 GAP= 66        1.56       4.1     3.8  6.7  0.1167E+01  0.6255E+01  0.3258E+01E
 Epicentro: LOS SANTOS - SANTANDER                                             3
 ACTION:UPD 17-09-04 20:17 OP:rebc STATUS:               ID:20170806093847 L   I
 OLDACT:UP  17-08-06 18:49 OP:osc  STATUS:               ID:20170806093737     3
 OLDACT:UP  17-08-06 18:49 OP:osc  STATUS:               ID:20170806093737     3
 OLDACT:REG 17-08-06 12:55 OP:osc  STATUS:               ID:20170806093737     3
 2017-08-06-0938-00M.COL___380                                                 6
 STAT SP IPHASW D HRMM SECON CODA AMPLIT PERI AZIMU VELO AIN AR TRES W  DIS CAZ7
 BAR2 EZ IP     D  939  7.49                             169   -0.0510 27.2 191 
 BAR2 EZ ES        939 22.46                             169   -0.4810 27.2 191 
 BAR2 EZ I         939 23.40        45.6 0.28            168           27.2 191 
 BRR  HZ IP     D  939  9.40                             153    0.4710 70.5 295 
 BRR  HE ES        939 26.04                             153    0.6310 70.5 295 
 BRR  HZ I         939 29.71        30.3 0.14            150           70.5 295 
 PAM  EZ IP     D  939 10.33                             152    0.5110 73.8  41 
 PAM  EN ES        939 27.41                             152    0.4010 73.8  41 
 PAM  EZ I         939 29.91        19.6 0.44            154           73.8  41 
 RUS  HZ EP        939 11.44                             143   -0.3910  104 177 
 RUS  HE ES        939 30.08                             143   -0.5110  104 177 
 RUS  HZ I         939 30.92        22.6 0.24            144            104 177 
 PTB  HZ EP        939 14.55                             132   -0.40 9  150 258 
 PTB  HN ES        939 35.42                             132   -0.71 9  150 258 
 PTB  HZ I         939 37.88        21.5 0.18            130            150 258 
 TAM  HZ EP        939 15.73                             130    0.25 9  155 106 
 TAM  HN ES        939 37.36                             130    0.28 9  155 106 
 TAM  HZ I         939 37.96        18.6 0.52            133            155 106 
 SPBC HZ EP        939 16.35                             128   -0.30 9  167 218 
 SPBC HE ES        939 38.55                             128   -0.61 9  167 218 
 SPBC HZ I         939 45.22        33.7 0.26            128            167 218 
 YPLC HZ EP        939 17.99                             126    0.11 9  180 152 
 YPLC HN ES        939 41.18                             126   -0.16 9  180 152 
 YPLC HZ I         939 44.99        18.5 0.44            128            180 152 
 ZAR  HZ EP        939 20.61                             122    0.39 9  204 291 
 ZAR  HN ES        939 46.42                             122    0.91 9  204 291 
 ZAR  HZ I         939 51.94        41.6 0.52            122            204 291 
 NOR  HZ EP        939 23.57                             118   -0.30 8  238 234 
 NOR  HE ES        939 52.11                             118    0.11 8  238 234 
 NOR  HZ I         939 57.82        20.6 0.18            118            238 234 
 CHI  HZ EP        939 26.01                             117    0.08 8  253 195 
 CHI  HN ES        939 54.37                             117   -1.30 8  253 195 
 CHI  HZ I         940  2.02         5.3 0.24            117            253 195 
 ROSC BZ EP        939 27.25                             116    0.91 8  257 211 
 ROSC BN ES        939 59.03                             116    2.63 8  257 211 
 ROSC BZ I         940  5.44        14.3 0.50            117            257 211 
 HEL  HZ EP        939 28.69                             115    0.45 8  274 255 
 HEL  HN ES        939 59.09                             115   -0.70 8  274 255 
 HEL  HZ I         940  6.48        24.5 0.82            114            274 255 
 URE  HZ EP        939 27.75                             114   -1.08 7  283 291 
 URE  HN ES        939 59.56                             114   -1.29 7  283 291 
 URE  HZ I         940 12.35        18.8 0.26            113            283 291 
 GUY2CHZ EP        939 32.18                             112    0.42 7  304 234 
 GUY2CHE ES        940  6.76                             112    0.71 7  304 234 
 GUY2CHZ I         940 14.23        16.6 0.34                           304 234 
 PTGC HZ EP        939 30.59                             111   -1.42 7  312 159 
 PTGC HN ES   4    940  3.29                             111   -3.21 0  312 159 
 PTGC HZ I         940  3.68        10.2 0.42            112            312 159 
 LL6C HZ EP   1    939 33.16                             111    0.08 5  321 357 
 LL6C HE ES   1    940  7.62                             111   -0.79 5  321 357 
 LL6C HZ I         940 18.53         2.6 0.59            111            321 357 
 DBB  EZ EP        939 35.93                             109    0.56 7  340 274 
 DBB  EN ES   3    940 11.55                             109   -0.94 2  340 274 
 DBB  EZ I         940 19.75         7.2 0.34            109            340 274 
 PRA  HZ EP        939 41.91                             106    0.15 6  396 209 
 PRA  HN ES   3    940 21.19                             106   -2.67 1  396 209 
 PRA  HZ I         940 32.15         5.2 0.20            107            396 209 
 SJC  HZ EP   3    939 42.15                             106   -0.91 1  407 327 
 SJC  HN ES   3    940 23.42                             106   -2.76 1  407 327 
 PAL  HZ EP        939 43.55                             106    0.25 6  409 239 
 PAL  HN ES   3    940 27.42                             106    0.83 1  409 239 
 PAL  HZ I         940 32.33         5.1 0.56            106            409 239 
                                                                                
