 2011 10 6 0602 10.3 L   6.762 -73.164144.4  RSN  4 0.1 1.0LRSN                1
 GAP=180        0.37       4.2     8.1  4.7  0.2378E+02 -0.9129E+01 -0.2651E+01E
 Epicentro: LOS SANTOS - SANTANDER                                             3
 ACTION:UPD 12-07-13 16:02 OP:ep   STATUS:               ID:20111006060210 L   I
 2011-10-06-0600-00M.COL___171                                                 6
 STAT SP IPHASW D HRMM SECON CODA AMPLIT PERI AZIMU VELO AIN AR TRES W  DIS CAZ7
 BAR2 SZ EP   2    6 2 29.53                             172   -0.14 5 18.9 186 
 BAR2 SZ ES   2    6 2 44.65                             172   -0.13 5 18.9 186 
 BAR2 SZ I         6 2 46.26         2.5 0.21                          18.9 186 
 GIR2 SZ EP   1    6 2 29.92                             166    0.01 7 35.2 355 
 GIR2 SZ ES   2    6 2 45.30                             166    0.09 5 35.2 355 
 BRR  HZ EP   1    6 2 31.09                             152   -0.22 7 71.6 302 
 BRR  HZ I         6 2 31.64         1.9 0.13                          71.6 302 
 BRR  HE ES   1    6 2 47.83                             152    0.13 7 71.6 302 
 RUS  HZ EP   1    6 2 33.85                             145    0.24 7 96.5 175 
 RUS  HN ES   1    6 2 51.72                             145   -0.09 7 96.5 175 
 RUS  HZ I         6 2 53.72         1.8 0.28                          96.5 175 
                                                                                
