 2010  8 6 0542 29.0 L   6.807 -73.082142.0  RSN 12 0.5 1.8LRSN                1
 GAP=166        1.11       4.4     8.4  7.6 -0.5856E+01 -0.4494E+01  0.4734E+01E
 Epicentro: LOS SANTOS - SANTANDER                                             3
 ACTION:UP  10-09-07 10:52 OP:vdl  STATUS:               ID:20100806054229 L   I
 2010-08-06-0538-00S.COL___125                                                 6
 STAT SP IPHASW D HRMM SECON CODA AMPLIT PERI AZIMU VELO SNR AR TRES W  DIS CAZ7
 BAR2 SZ EP        542 48.07                             169    -0.210   26 205 
 BAR2 SZ ES   1    543  2.92                             169    -0.3 7   26 205 
 BAR2 SZ I         543  4.73        19.6 0.33                            26 205 
 GIR2 SZ ES   2    543  2.56                             166    -0.7 5   32 338 
 BRR  HZ EP        542 49.90                             150    -0.210   77 296 
 BRR  HN ES        543  6.97                             150     0.410   77 296 
 BRR  HZ I         543 10.69        15.1 0.76                            77 296 
 RUS  HZ EP   1    542 52.14                             143    -0.3 7  101 180 
 RUS  HN ES        543 11.17                             143     0.510  101 180 
 RUS  HZ I         543 11.95        11.0 0.87                           101 180 
 GUE  SZ EP   1    542 53.06                             139    -0.1 7  114   9 
 GUE  SZ I         543 15.54         2.6 1.28                           114   9 
 GRA  SZ EP        542 53.88                             137     0.210  123  14 
 GRA  SZ I         543 14.52         5.4 0.22                           123  14 
 OCA  SZ ES   3    543 18.01                             129    -0.9 2  160 351 
 OCA  SZ I         543 23.08        11.1 0.63                           160 351 
 CHI  HZ EP        543  6.30                             116    -0.5 8  251 197 
 CHI  HN ES        543 36.14                             116    -0.1 8  251 197 
 CHI  HZ I         543 41.20         3.3 0.46                           251 197 
 ROSC BZ EP   1    543  8.66                             115     1.3 6  257 212 
 ROSC BN ES   2    543 37.02                             115    -0.3 4  257 212 
 ROSC BZ I         543 43.61         4.8 0.84                           257 212 
 HEL  HN ES   2    543 41.51                             113    -0.1 4  279 256 
 HEL  HZ I         543 48.34         4.4 0.12                           279 256 
 RREF HN ES   2    543 50.79                             110    -1.2 3  328 230 
 RREF HZ I         544  0.30         4.0 0.32                           328 230 
 PRA  HN ES   2    544  4.52                             106    -0.4 3  396 210 
 PRA  HZ I         544 10.11         3.4 0.32                           396 210 
                                                                                
