 2011  2 6 0606  7.4 L   6.851 -72.968132.4  RSN  5 0.1 1.4LRSN                1
 GAP=201        0.32       1.6    14.1  4.4  0.5049E+01 -0.1330E+02 -0.1028E+01E
 Epicentro: CEPITA - SANTANDER                                                 3
 ACTION:UP  11-03-28 15:06 OP:jfem STATUS:               ID:20110206060607 L   I
 2011-02-06-0603-03S.COL___138                                                 6
 STAT SP IPHASW D HRMM SECON CODA AMPLIT PERI AZIMU VELO SNR AR TRES W  DIS CAZ7
 BTL  SZ EP        6 6 25.88                             165     0.110   34 283 
 BAR2 SZ EP   1    6 6 25.78                             163    -0.1 7   37 220 
 BAR2 SZ ES   2    6 6 40.25                             163     0.0 5   37 220 
 BAR2 SZ I         6 6 41.39        10.7 0.35                            37 220 
 RUS  HZ EP   2    6 6 30.22                             139    -0.2 5  107 187 
 RUS  HN ES   2    6 6 48.30                             139     0.0 5  107 187 
 RUS  HZ I         6 6 50.41         2.0 0.30                           107 187 
 OCA  SZ EP        6 6 34.55                             127     0.0 9  158 346 
 OCA  SZ ES        6 6 55.62                             127    -0.1 9  158 346 
 OCA  SZ I         6 6 59.68         6.9 0.26                           158 346 
 CHI  HZ EP   2    6 6 45.79                             113     0.1 4  260 199 
 CHI  HE ES   2    6 7 15.36                             113    -0.2 4  260 199 
 CHI  HZ I         6 7 19.35         0.7 0.58                           260 199 
                                                                                
