 2011  1 6 0154 42.2 L   6.803 -73.165143.1  RSN 16 0.5 2.6LRSN                1
 GAP=102        1.00       3.2     5.0  6.8 -0.5015E+01  0.9184E+01  0.2387E+00E
 Epicentro: LOS SANTOS - SANTANDER                                             3
 ACTION:UP  11-02-08 08:38 OP:pat  STATUS:               ID:20110106015442 L   I
 2011-01-06-0152-02S.COL___136                                                 6
 STAT SP IPHASW D HRMM SECON CODA AMPLIT PERI AZIMU VELO SNR AR TRES W  DIS CAZ7
 BTL  SZ EP        155  1.76                             173     0.310   17 318 
 BAR2 SZ IP        155  1.65                             170     0.110   23 185 
 BAR2 SZ ES   1    155 16.36                             170    -0.2 7   23 185 
 BAR2 SZ I         155 17.77       171.9 0.29                            23 185 
 RUS  HZ EP        155  5.69                             143    -0.110  101 175 
 RUS  HE ES   1    155 23.90                             143    -0.2 7  101 175 
 RUS  HZ I         155 26.14        75.5 0.36                           101 175 
 GRA  SZ IP        155  7.44                             136     0.210  126  18 
 GRA  SZ ES   1    155 27.01                             136     0.2 7  126  18 
 GRA  SZ I         155 28.17        58.6 0.28                           126  18 
 OCA  SZ EP        155 10.41                             129     0.1 9  160 354 
 OCA  SZ ES   1    155 31.74                             129    -0.4 7  160 354 
 OCA  SZ I         155 35.07        43.1 0.22                           160 354 
 YOP  SZ EP   1    155 12.23                             125     0.0 7  180 153 
 YOP  SZ I         155 13.10        23.0 0.10                           180 153 
 YOP  SN ES   1    155 36.42                             125     0.8 7  180 153 
 NOR  SZ EP   1    155 17.70                             118     0.1 6  233 234 
 NOR  SN ES   1    155 44.76                             118    -0.5 6  233 234 
 CHI  HZ EP        155 19.74                             117     0.0 8  248 195 
 CHI  HE ES   1    155 47.96                             117    -1.1 6  248 195 
 CHI  HZ I         155 52.68        23.9 0.68                           248 195 
 ROSC BE ES   1    155 49.37                             116    -0.3 6  252 211 
 ROSC BZ I         155 56.58        60.5 0.40                           252 211 
 HEL  HZ EP   1    155 22.18                             114     0.1 6  270 256 
 HEL  HE ES   1    155 52.79                             114    -0.4 6  270 256 
 HEL  HZ I         156  0.10        33.5 0.42                           270 256 
 RREF HZ EP   1    155 28.62                             110     0.5 5  320 229 
 RREF HN ES   1    156  4.74                             110     0.9 5  320 229 
 RREF HZ I         156 12.90        23.6 0.32                           320 229 
 DBB  SZ EP   1    155 29.54                             109     0.2 5  337 274 
 DBB  SZ I         156 10.05         5.8 0.47                           337 274 
 TOL  SZ EP   2    155 31.41                             109     1.2 3  342 224 
 SDV  BZ EP        155 31.24                             108    -1.1 6  362  50 
 SDV  BZ I         156 10.55        11.1 0.53                           362  50 
 PRA  HZ EP   1    155 35.82                             106     0.3 4  391 209 
 PRA  HN ES   1    156 17.48                             106     0.3 4  391 209 
 SJA  SZ EP   1    155 35.61                             106    -1.1 4  400 193 
 SJA  SZ I         156 23.41        27.3 0.48                           400 193 
                                                                                
