 2012  9 6 0347  0.0 L   6.736 -73.185136.1  RSN  4 0.2 1.4LRSN                1
 GAP=180        0.40       8.2     4.3  7.5 -0.4863E+01  0.3367E+01  0.1916E+02E
 Epicentro: VILLANUEVA - SANTANDER                                             3
 ACTION:UPD 12-10-22 14:17 OP:ep   STATUS:               ID:20120906034700 L   I
 2012-09-06-0340-00M.COL___218                                                 6
 STAT SP IPHASW D HRMM SECON CODA AMPLIT PERI AZIMU VELO AIN AR TRES W  DIS CAZ7
 BAR2 SZ EP   1    347 18.36                             173    0.00 7 15.9 179 
 BAR2 SZ ES   2    347 32.83                             173    0.17 5 15.9 179 
 GIR2 SZ ES   2    347 33.00                             164   -0.37 5 37.9 359 
 BRR  HZ EP   2    347 20.23                             151    0.09 5 71.2 305 
 BRR  HZ I         347 20.52         5.1 0.09                          71.2 305 
 BRR  HN ES   2    347 36.15                             151    0.32 5 71.2 305 
 PTB  HN ES   1    347 45.64                             131   -0.10 7  142 261 
 PTB  HN I         347 48.12         2.8 0.21                           142 261 
                                                                                
