 2016 10 6 0607 13.3 L   6.759 -73.160144.0  RSN  7 0.4 1.5LRSN                1
 GAP=137        0.97       4.2     5.1  6.9 -0.2082E+01  0.6291E+00  0.2921E+01E
 Epicentro: LOS SANTOS - SANTANDER                                             3
 ACTION:UPD 16-11-09 19:16 OP:rebc STATUS:               ID:20161006060713 L   I
 OLDACT:REG 16-10-06 13:11 OP:dnl  STATUS:               ID:20161006055743     3
 2016-10-06-0558-00M.COL___360                                                 6
 STAT SP IPHASW D HRMM SECON CODA AMPLIT PERI AZIMU VELO AIN AR TRES W  DIS CAZ7
 BAR2 EZ EP        6 7 32.61                             172   -0.0210 18.6 188 
 BAR2 EZ ES        6 7 47.12                             172   -0.5910 18.6 188 
 BAR2 EZ I         6 7 49.22        14.4 0.28            171           18.6 188 
 BRR  HZ EP        6 7 34.38                             152    0.0710 72.1 302 
 BRR  HN ES        6 7 51.49                             152    0.7910 72.1 302 
 BRR  HZ I         6 7 53.13         5.7 0.38            154           72.1 302 
 PAM  EZ EP        6 7 35.40                             149   -0.2110 81.9  38 
 PAM  EN ES   2    6 7 52.58                             149   -0.43 5 81.9  38 
 RUS  HZ EP        6 7 36.64                             145    0.0710 96.2 175 
 RUS  HN ES        6 7 55.31                             145    0.6010 96.2 175 
 RUS  HZ I         6 7 56.65         5.6 0.36            145           96.2 175 
 PTB  HZ EP        6 7 39.65                             132   -0.26 9  145 260 
 PTB  HN ES        6 8  0.28                             132   -0.38 9  145 260 
 PTB  HZ I         6 8  1.36         2.1 0.18            133            145 260 
 SPBC HZ EP   2    6 7 41.69                             130    0.45 5  159 220 
 SPBC HN ES        6 8  3.01                             130   -0.02 9  159 220 
 CHI  HZ EP   2    6 7 50.99                             117    0.61 4  244 195 
 CHI  HN ES        6 8 18.97                             117   -0.34 8  244 195 
 CHI  HZ I         6 8 23.66         2.3 0.46            118            244 195 
                                                                                
