 2012  3 6 0318 32.2 L   6.716 -73.182149.8  RSN  4 0.3 1.4LRSN                1
 GAP=227        0.87       8.7     8.8  8.9  0.3997E+02  0.8074E+01  0.1079E+02E
 ACTION:UP  12-03-31 23:17 OP:EP   STATUS:               ID:20120306031832 L   I
 2012-03-06-0316-41S.COL___153                                                 6
 STAT SP IPHASW D HRMM SECON CODA AMPLIT PERI AZIMU VELO SNR AR TRES W  DIS CAZ7
 BAR2 SZ EP   1    318 51.91                             175    -0.3 7   14 180 
 BAR2 SZ ES   1    319  7.20                             175    -0.6 7   14 180 
 BAR2 SZ I         319  8.46         7.2 0.32                            14 180 
 BRR  HZ EP   1    318 54.07                             153     0.2 7   73 306 
 BRR  HN ES        319 11.11                             153     0.310   73 306 
 BRR  HZ I         319 13.15         7.4 0.26                            73 306 
 RUS  HZ EP   1    318 55.69                             147    -0.1 7   92 173 
 RUS  HN ES   1    319 14.67                             147     0.5 7   92 173 
 RUS  HZ I         319 16.20         2.6 0.21                            92 173 
 PTB  HZ EP   1    318 59.15                             134     0.1 7  142 262 
 PTB  HN ES   1    319 19.62                             134    -0.4 7  142 262 
 PTB  HZ I         319 21.95         0.0 0.16                           142 262 
                                                                                
