 2011  2 6 0736 25.9 L   6.832 -72.930144.6  RSN  5 0.4 1.1LRSN                1
 GAP=265        0.73       9.7    14.6 12.4 -0.3853E+02  0.2581E+02 -0.1103E+02E
 Epicentro: CEPITA - SANTANDER                                                 3
 ACTION:UP  11-03-28 15:06 OP:jfem STATUS:               ID:20110206073625 L   I
 2011-02-06-0734-08S.COL___138                                                 6
 STAT SP IPHASW D HRMM SECON CODA AMPLIT PERI AZIMU VELO SNR AR TRES W  DIS CAZ7
 BTL  SZ EP        736 46.03                             164     0.210   39 284 
 BAR2 SZ EP   1    736 45.83                             164     0.0 7   39 227 
 BAR2 SZ ES   2    737  0.60                             164    -0.8 5   39 227 
 BAR2 SZ I         737  3.37         2.6 0.19                            39 227 
 RUS  HZ EP   2    736 49.69                             142    -0.2 5  105 189 
 RUS  HN ES   2    737  9.22                             142     0.6 5  105 189 
 RUS  HZ I         737  9.69         1.8 0.27                           105 189 
 NOR  SN ES   2    737 33.81                             116     0.2 4  257 237 
 CHI  HZ EP   2    737  4.10                             116    -0.6 4  259 200 
 CHI  HZ I         737 36.60         0.9 0.36                           259 200 
                                                                                
