 2012  4 6 0653 59.0 L   6.782 -73.170146.2  RSN  6 0.4 1.6LRSN                1
 GAP=134        1.05       7.0     6.2  9.4  0.4653E+01  0.1447E+02 -0.3955E+01E
 Epicentro: LOS SANTOS - SANTANDER                                             3
 ACTION:UPD 12-07-05 11:50 OP:tino STATUS:               ID:20120406065359 L   I
 2012-04-06-0650-00M.COL___196                                                 6
 STAT SP IPHASW D HRMM SECON CODA AMPLIT PERI AZIMU VELO AIN AR TRES W  DIS CAZ7
 BAR2 SZ EP   1    654 18.68                             171     0.0 7   21 184 
 BAR2 SZ ES   1    654 33.88                             171    -0.1 7   21 184 
 BAR2 SZ I         654 34.79        12.9 0.25                            21 184 
 BRR  HZ EP        654 20.47                             153     0.310   70 301 
 BRR  HE ES   1    654 37.51                             153     0.9 7   70 301 
 PAM  SZ EP   1    654 21.71                             150     0.2 7   81  40 
 PAM  SZ I         654 21.99         3.3 0.17                            81  40 
 PAM  SN ES   1    654 38.23                             150    -0.8 7   81  40 
 RUS  HZ EP   1    654 22.71                             144     0.0 7   99 174 
 RUS  HN ES   1    654 41.37                             144     0.2 7   99 174 
 RUS  HZ I         654 43.05         4.3 0.37                            99 174 
 PTB  HZ EP   1    654 25.34                             133    -0.4 7  145 259 
 PTB  HN ES   1    654 45.94                             133    -0.7 7  145 259 
 PTB  HZ I         654 48.22         4.7 0.13                           145 259 
 ZAR  HZ EP   1    654 31.52                             123     0.2 6  202 293 
 ZAR  HE ES   1    654 56.30                             123    -0.2 6  202 293 
 ZAR  HZ I         655  2.36         5.4 0.37                           202 293 
                                                                                
