 2017  6 6 0833 23.6 L   6.743 -73.208159.5  RSN  5 0.3 1.3LRSN                1
 GAP=226        0.64       3.9     4.5  6.0  0.8326E+01 -0.2514E+01 -0.5706E+01E
 Epicentro: VILLANUEVA - SANTANDER                                             3
 ACTION:UPD 17-09-14 16:50 OP:jn   STATUS:               ID:20170606083323 L   I
 OLDACT:UP  17-06-06 16:35 OP:edw  STATUS:               ID:20170606082733     3
 OLDACT:REG 17-06-06 12:30 OP:edw  STATUS:               ID:20170606082733     3
 2017-06-06-0828-00M.COL___344                                                 6
 STAT SP IPHASW D HRMM SECON CODA AMPLIT PERI AZIMU VELO AIN AR TRES W  DIS CAZ7
 BRR  HZ EP        833 46.34                             155    0.2310 68.8 306 
 BRR  HN ES        834  3.67                             155   -0.0010 68.8 306 
 RUS  HZ EP        833 48.54                             148    0.2010 95.0 172 
 RUS  HN ES        834  7.42                             148   -0.2310 95.0 172 
 RUS  HZ I         834  8.48         2.4 0.26            148           95.0 172 
 PTB  HZ EP   2    833 51.55                             137    0.52 5  140 261 
 PTB  HN ES        834 12.68                             137    0.24 9  140 261 
 PTB  HZ I         834 19.59         3.4 0.90            133            140 261 
 SPBC HN ES        834 14.69                             134   -0.09 9  154 218 
 ZAR  HZ EP        833 56.07                             126   -0.52 9  200 295 
 ZAR  HN ES        834 22.23                             126   -0.09 9  200 295 
 ZAR  HZ I         834 28.03         1.7 0.44            124            200 295 
                                                                                
