 2016  8 6 0635 44.2 L   6.798 -73.164146.5  RSN  6 0.2 1.2LRSN                1
 GAP=134        0.65       3.0     3.0  5.0 -0.1349E+01  0.4461E+01 -0.2910E+00E
 Epicentro: LOS SANTOS - SANTANDER                                             3
 ACTION:UPD 16-10-29 15:32 OP:rebc STATUS:               ID:20160806063544 L   I
 OLDACT:DUP 16-08-06 16:50 OP:cara STATUS:               ID:20160806062733d    3
 2016-08-06-0628-00M.COL___359                                                 6
 STAT SP IPHASW D HRMM SECON CODA AMPLIT PERI AZIMU VELO AIN AR TRES W  DIS CAZ7
 BAR2 EZ EP        636  3.46                             171   -0.4110 22.9 185 
 BAR2 HN ES        636 19.32                             171    0.0910 22.9 185 
 BAR2 EZ I         636 20.20         4.0 0.20                          22.9 185 
 PAM  EZ EP        636  6.64                             150    0.1010 78.9  41 
 PAM  EE ES        636 23.95                             150   -0.0410 78.9  41 
 PAM  EZ I         636 25.83         3.1 0.56                          78.9  41 
 RUS  HZ EP        636  8.18                             144    0.2010  101 175 
 RUS  HE ES        636 26.59                             144    0.0410  101 175 
 RUS  HZ I         636 28.00         1.2 0.42                           101 175 
 PTB  HZ EP        636 11.36                             133    0.36 9  146 259 
 PTB  HE ES        636 32.27                             133    0.34 9  146 259 
 PTB  HZ I         636 37.63         1.3 0.28                           146 259 
 SPBC HZ EP        636 12.42                             129   -0.16 9  162 218 
 SPBC HN ES        636 34.44                             129   -0.30 9  162 218 
 SPBC HZ I         636 37.93         3.3 0.10                           162 218 
 ZAR  HN ES        636 41.38                             123   -0.28 9  202 292 
 ZAR  HZ I         636 47.03         1.4 0.38                           202 292 
                                                                                
