 2017  6 6 0542 14.5 L   6.665 -73.226149.5  RSN  4 0.3 1.1LRSN                1
 GAP=217        0.85       7.1     7.1  8.2  0.3419E+02 -0.5562E+01 -0.1368E+02E
 Epicentro: BARICHARA - SANTANDER                                              3
 ACTION:UPD 17-09-14 16:50 OP:jn   STATUS:               ID:20170606054214 L   I
 OLDACT:REG 17-06-06 12:19 OP:edw  STATUS:               ID:20170606053736     3
 2017-06-06-0538-00M.COL___359                                                 6
 STAT SP IPHASW D HRMM SECON CODA AMPLIT PERI AZIMU VELO AIN AR TRES W  DIS CAZ7
 BRR  HZ EP        542 35.91                             153   -0.2610 72.6 312 
 BRR  HE ES        542 53.19                             153    0.1510 72.6 312 
 BRR  HZ I         542 57.49         3.1 0.12            152           72.6 312 
 RUS  HZ EP        542 38.33                             148    0.5910 86.9 169 
 RUS  HN ES        542 55.48                             148   -0.3510 86.9 169 
 RUS  HZ I         542 56.64         1.3 0.28            154           86.9 169 
 PTB  HN ES        543  1.39                             135    0.02 9  137 264 
 ZAR  HZ EP        542 46.64                             123   -0.40 9  202 297 
 ZAR  HN ES        543 12.57                             123    0.19 9  202 297 
 ZAR  HZ I         543 18.29         1.9 0.20            125            202 297 
                                                                                
