 2013  9 6 0541 22.9 L   6.792 -73.139150.0  RSN 10 0.4 2.3LRSN                1
 GAP=138        0.81       2.4     3.6  5.0 -0.1951E+00  0.2855E+01  0.5821E+00E
 Epicentro: LOS SANTOS - SANTANDER                                             3
 ACTION:UPD 13-10-22 09:20 OP:ep   STATUS:               ID:20130906054122 L   I
 OLDACT:UP  13-09-06 09:46 OP:cam  STATUS:               ID:20130906053959     3
 OLDACT:REG 13-09-06 08:17 OP:cam  STATUS:               ID:20130906053959     3
 2013-09-06-0539-59M.COL___269                                                 6
 STAT SP IPHASW D HRMM SECON CODA AMPLIT PERI AZIMU VELO AIN AR TRES W  DIS CAZ7
 BAR2 SZ EP     C  541 42.93                             171   -0.0910 22.6 192 
 BAR2 SZ ES   1    541 58.30                             171   -0.42 7 22.6 192 
 BAR2 SZ I         542  0.61        33.4 0.18            171           22.6 192 
 BRR  HZ EP        541 44.78                             153    0.2110 72.3 299 
 BRR  HE ES        542  2.26                             153    0.7910 72.3 299 
 BRR  HZ I         542  5.46        25.1 0.12            150           72.3 299 
 PAM  SZ EP        541 45.68                             152    0.1010 77.6  39 
 PAM  SN ES        542  3.02                             152   -0.2410 77.6  39 
 PAM  SZ I         542  5.02        34.8 0.52            154           77.6  39 
 RUS  HZ EP        541 46.80                             145   -0.2010 99.7 176 
 RUS  HN ES        542  5.91                             145    0.1010 99.7 176 
 RUS  HZ I         542  8.62        11.3 0.28            147           99.7 176 
 PTB  HZ EP   1    541 49.57                             133   -0.70 7  148 259 
 PTB  HN ES        542 11.12                             133   -0.49 9  148 259 
 PTB  HZ I         542 18.02        40.3 0.40            132            148 259 
 OCA  HZ EP   1    541 52.04                             130    0.41 7  161 353 
 OCA  HN ES        542 14.07                             130    0.04 9  161 353 
 OCA  HZ I         542 22.66        15.7 0.42            131            161 353 
 SPBC HZ EP        541 51.90                             130    0.19 9  163 219 
 SPBC HE ES   1    542 14.14                             130   -0.04 7  163 219 
 ZAR  HZ EP   1    541 55.62                             123   -0.11 6  205 292 
 ZAR  HE ES        542 21.46                             123    0.13 9  205 292 
 ZAR  HZ I         542 26.89        29.0 0.44            123            205 292 
 SML  HZ EP   1    541 59.69                             118   -0.19 6  245 335 
 SML  HE ES   1    542 28.06                             118   -0.67 6  245 335 
 SML  HZ I         542 38.11        24.4 0.30            119            245 335 
 CHI  HZ EP   1    542  1.20                             118    0.43 6  248 195 
 CHI  HN ES        542 30.42                             118    0.11 8  248 195 
 CHI  HZ I         542 40.02         7.9 0.34            119            248 195 
 HEL  HZ EP   4    542  5.38                             116    1.99 0  273 256 
 GUY2CHZ EP   4    542  8.56                             113    1.84 0  301 235 
                                                                                
