 2012 10 6 0308 43.8 L   6.097 -73.650115.5  RSN  9 0.2 1.8LRSN                1
 GAP= 73        0.46       1.9     2.4  4.6 -0.1146E+01  0.3277E+01 -0.1029E+01E
 Epicentro: CHIPATA - SANTANDER                                                3
 ACTION:UPD 12-11-22 17:02 OP:ep   STATUS:               ID:20121006030843 L   I
 2012-10-06-0300-00M.COL___222                                                 6
 STAT SP IPHASW D HRMM SECON CODA AMPLIT PERI AZIMU VELO AIN AR TRES W  DIS CAZ7
 RUS  HE ES   1    3 9 16.28                             148   -0.28 7 66.7 110 
 RUS  HE I         3 9 17.57         4.9 0.23                          66.7 110 
 BAR2 SZ EP        3 9  2.50                             145    0.0510 75.3  43 
 BAR2 SZ ES   1    3 9 17.00                             145    0.05 7 75.3  43 
 BAR2 SZ I         3 9 18.37        35.5 0.26                          75.3  43 
 BRR  HZ IP     D  3 9  4.98                             133   -0.1010  112 356 
 BRR  HE ES   1    3 9 22.01                             133    0.38 7  112 356 
 BRR  HZ I         3 9 23.25         6.3 0.09                           112 356 
 BRR  HN I         3 9 25.17        35.4 0.16                           112 356 
 GIR2 SZ EP        3 9  5.99                             131    0.0110  120  25 
 NOR  SN ES   1    3 9 27.76                             124   -0.05 7  147 246 
 CHI  HN ES   1    3 9 31.53                             121    0.11 7  163 183 
 CHI  HN I         3 9 33.89        10.8 0.26                           163 183 
 PAM  SZ EP   1    3 9 11.44                             120   -0.33 7  173  37 
 PAM  SE ES   1    3 9 33.73                             120    0.19 7  173  37 
 ZAR  HN ES   1    3 9 38.16                             115   -0.29 6  204 319 
 ZAR  HN I         3 9 40.56        11.9 0.14                           204 319 
 PRA  HZ EP   1    3 9 25.60                             106    0.38 5  297 208 
 PRA  HZ I         3 9 27.33         0.9 0.13                           297 208 
                                                                                
