 2016 11 6 0811 37.1 L   6.800 -73.133152.1  RSN  4 0.3 1.4LRSN                1
 GAP=181        0.82       7.6     7.3  8.5 -0.3706E+02 -0.3192E+01  0.1817E+02E
 Epicentro: LOS SANTOS - SANTANDER                                             3
 ACTION:UPD 17-10-26 21:05 OP:lp   STATUS:               ID:20161106081137 L   I
 OLDACT:REG 16-11-06 12:56 OP:dani STATUS:               ID:20161106080748     3
 2016-11-06-0808-00M.COL___334                                                 6
 STAT SP IPHASW D HRMM SECON CODA AMPLIT PERI AZIMU VELO AIN AR TRES W  DIS CAZ7
 BRR  HZ EP     C  811 59.15                             153    0.1710 72.4 298 
 BRR  HN ES        812 16.24                             153    0.1810 72.4 298 
 BRR  HZ I         812 20.66         4.3 0.40            154           72.4 298 
 PAM  EZ IP     C  812  0.30                             152    0.3810 76.5  39 
 PAM  EN ES        812 17.38                             152   -0.3610 76.5  39 
 PAM  EZ I         812 19.56         4.8 0.74            156           76.5  39 
 PTB  HZ EP        812  4.18                             133   -0.51 9  149 259 
 PTB  HN ES   4    812 25.10                             133   -1.12 0  149 259 
 PTB  HZ I         812 28.32         2.2 0.26            135            149 259 
 SPBC HZ EP   4    812  3.13                             130   -3.02 0  164 219 
 SPBC HN ES        812 28.90                             130    0.08 9  164 219 
 SPBC HZ I         812 31.69         2.4 0.10            133            164 219 
                                                                                
