 2012  3 6 0117 39.9 L   5.901 -73.878108.2  RSN 10 0.3 2.3LRSN                1
 GAP= 83        0.85       2.7     3.0  7.8 -0.1591E+01  0.5727E+01  0.3237E+01E
 ACTION:UP  12-03-31 23:17 OP:EP   STATUS:               ID:20120306011739 L   I
 2012-03-06-0110-00M.COL___191                                                 6
 STAT SP IPHASW D HRMM SECON CODA AMPLIT PERI AZIMU VELO SNR AR TRES W  DIS CAZ7
 RUS  HZ EP   1    117 59.29                             138     0.2 7   88  91 
 RUS  HZ I         117 59.71        16.5 0.09                            88  91 
 RUS  HN ES   1    118 13.86                             138    -0.3 7   88  91 
 PTB  HZ EP        117 58.35                             135    -0.710   95 318 
 PTB  HE ES   1    118 14.29                             135     0.3 7   95 318 
 BAR2 SZ EP   1    118  1.01                             131     0.5 7  108  45 
 BAR2 SZ ES   1    118 16.49                             131    -0.2 7  108  45 
 BAR2 SZ I         118 18.54       174.8 0.36                           108  45 
 NOR  SZ EP   1    118  0.93                             129    -0.1 7  116 251 
 NOR  SN ES   1    118 17.67                             129     0.2 7  116 251 
 BRR  HZ EP        118  2.91                             124     0.210  135   8 
 BRR  HN ES   1    118 20.86                             124     0.3 7  135   8 
 BRR  HZ I         118 24.59        26.2 0.14                           135   8 
 CHI  HZ EP   1    118  4.19                             123     0.2 7  142 173 
 CHI  HN ES   1    118 22.71                             123    -0.1 7  142 173 
 CHI  HZ I         118 26.28        16.0 0.31                           142 173 
 HEL  HZ EP   1    118  8.93                             115     0.3 7  186 280 
 HEL  HZ I         118 10.36        19.3 0.26                           186 280 
 HEL  HN ES   1    118 31.40                             115     0.4 7  186 280 
 RREF HZ EP   1    118 10.46                             114     0.3 6  197 236 
 RREF HN ES        118 33.43                             114    -0.4 9  197 236 
 RREF HZ I         118 38.42        11.6 0.28                           197 236 
 ZAR  HZ EP   1    118  9.89                             112    -0.6 6  207 328 
 ZAR  HN ES   2    118 34.56                             112     0.2 4  207 328 
 ZAR  HZ I         118 40.34        27.4 0.24                           207 328 
 PRA  HZ EP   1    118 17.50                             106     0.1 6  266 205 
 PRA  HN ES   1    118 47.11                             106     0.4 6  266 205 
 PRA  HZ I         118 51.74        34.5 0.24                           266 205 
                                                                                
