 2017  7 6 0928 50.8 L   6.015 -73.569128.3  RSN 10 0.4 1.6LRSN                1
 GAP=179        0.76       3.5     3.7  5.1 -0.7519E+01  0.3158E+01  0.1246E+01E
 Epicentro: GUEPSA - SANTANDER                                                 3
 ACTION:UPD 17-08-30 15:30 OP:rebc STATUS:               ID:20170706092850 L   I
 OLDACT:UP  17-07-06 18:52 OP:edw  STATUS:               ID:20170706092742     3
 OLDACT:UP  17-07-06 18:52 OP:edw  STATUS:               ID:20170706092742     3
 OLDACT:REG 17-07-06 13:58 OP:edw  STATUS:               ID:20170706092742     3
 2017-07-06-0928-00M.COL___368                                                 6
 STAT SP IPHASW D HRMM SECON CODA AMPLIT PERI AZIMU VELO AIN AR TRES W  DIS CAZ7
 SPBC HZ EP        929  9.46                             150   -0.6310 68.7 234 
 SPBC HN ES        929 25.09                             150   -0.0310 68.7 234 
 SPBC HZ I         929 27.86         4.6 0.24            149           68.7 234 
 BAR2 EZ EP     D  929 11.01                             147    0.1910 76.8  34 
 BAR2 EZ ES        929 26.17                             147   -0.2410 76.8  34 
 BAR2 EZ I         929 27.86        14.2 0.30            149           76.8  34 
 PTB  HZ EP   9    929 12.07                             135   -1.28 0  114 301 
 PTB  HN ES   1    929 29.15                             136   -0.48 7  114 301 
 PTB  HZ I         929 31.89         7.5 0.12            135            114 301 
 BRR  HZ EP        929 14.35                             133    0.3510  122 353 
 BRR  HN ES        929 32.27                             133    0.2010  122 353 
 NOR  HZ EP        929 16.85                             126   -0.09 9  152 251 
 NOR  HN ES        929 37.28                             126   -0.02 9  152 251 
 NOR  HZ I         929 40.12         5.6 0.30            127            152 251 
 ROSC BN ES   2    929 39.49                             126    1.06 5  154 213 
 ZAR  HZ EP   2    929 23.90                             116    0.33 4  217 319 
 ZAR  HN ES   2    929 48.52                             116   -0.59 4  217 319 
 ZAR  HZ I         929 54.92         4.5 0.46            117            217 319 
 GUY2CHZ EP        929 24.45                             116    0.21 8  217 246 
 GUY2CHN ES        929 50.70                             116    0.40 8  217 246 
 GUY2CHZ I         929 54.57         2.8 0.52                           217 246 
 HEL  HZ EP        929 24.00                             116   -0.15 8  218 275 
 HEL  HN ES        929 50.03                             116   -0.11 8  218 275 
 URE  HN ES   4    930  1.97                             109   -1.77 0  290 312 
 ORTC HZ EP   2    929 32.10                             109   -0.68 4  298 219 
 ORTC HN ES   2    930  5.19                             109   -0.31 4  298 219 
 ORTC HZ I         930  9.78         1.5 0.18            110            298 219 
                                                                                
