 2017  8 6 0108 15.2 L   6.812 -73.105149.9  RSN 15 0.6 1.8LRSN                1
 GAP=115        1.26       4.1     4.2  6.5  0.5950E+00  0.4261E+01  0.9262E+01E
 Epicentro: LOS SANTOS - SANTANDER                                             3
 ACTION:UPD 17-09-04 20:16 OP:rebc STATUS:               ID:20170806010815 L   I
 OLDACT:UP  17-08-06 13:15 OP:osc  STATUS:               ID:20170806005744     3
 OLDACT:REG 17-08-06 11:38 OP:osc  STATUS:               ID:20170806005744     3
 2017-08-06-0058-00M.COL___392                                                 6
 STAT SP IPHASW D HRMM SECON CODA AMPLIT PERI AZIMU VELO AIN AR TRES W  DIS CAZ7
 BAR2 EZ EP     D  1 8 35.25                             170   -0.1210 25.8 199 
 BAR2 EZ ES        1 8 50.58                             170   -0.5310 25.8 199 
 BAR2 EZ I         1 8 51.81        14.2 0.22            169           25.8 199 
 PAM  EZ EP        1 8 38.22                             153    0.5910 73.5  38 
 PAM  EN ES        1 8 55.40                             153    0.2710 73.5  38 
 PAM  EZ I         1 8 57.90         6.7 0.50            155           73.5  38 
 BRR  HZ EP        1 8 37.08                             152    0.1110 74.6 296 
 BRR  HE ES        1 8 54.17                             152    0.2010 74.6 296 
 BRR  HZ I         1 8 57.24        17.3 0.32            151           74.6 296 
 RUS  HZ EP        1 8 39.47                             144    0.0410  102 179 
 RUS  HN ES        1 8 58.66                             144    0.3210  102 179 
 RUS  HZ I         1 8 59.95         5.3 0.32            145            102 179 
 PTB  HZ EP        1 8 42.09                             132   -0.82 9  152 259 
 PTB  HE ES        1 9  3.92                             132   -0.62 9  152 259 
 PTB  HZ I         1 9  4.07         5.6 0.14            132            152 259 
 SPBC HZ EP        1 8 44.23                             129   -0.14 9  167 220 
 SPBC HE ES        1 9  7.01                             129   -0.13 9  167 220 
 SPBC HZ I         1 9 13.20        11.0 0.34            130            167 220 
 YPLC HE ES   2    1 9 10.15                             128    1.55 4  176 153 
 ZAR  HZ EP   2    1 8 46.75                             123   -1.53 4  208 291 
 ZAR  HE ES        1 9 14.08                             123   -0.02 8  208 291 
 ZAR  HZ I         1 9 22.53        10.0 0.07            123            208 291 
 NOR  HN ES        1 9 19.67                             119   -0.39 8  239 235 
 CHI  HZ EP        1 8 53.63                             118    0.25 8  251 196 
 CHI  HN ES        1 9 23.31                             118    0.13 8  251 196 
 CHI  HZ I         1 9 29.12         3.1 0.30            119            251 196 
 HEL  HZ EP        1 8 56.06                             115   -0.07 7  277 256 
 HEL  HE ES        1 9 29.00                             115    0.94 7  277 256 
 GUY2CHZ EP   9    1 9  1.22                             113    1.73 0  306 235 
 GUY2CHE ES        1 9 35.76                                   -0.02 7  306 235 
 GUY2CHZ I         1 9 45.60         3.9 0.46                           306 235 
 PTGC HZ EP        1 8 58.58                             112   -0.61 7  308 160 
 PTGC HN ES        1 9 32.04                             112   -1.47 7  308 160 
 PRA  HZ EP        1 9  9.80                             107    0.56 6  395 210 
 PRA  HE ES        1 9 52.80                             107    1.39 6  395 210 
 ORTC HZ EP        1 9 10.29                             107    0.61 6  399 217 
 ORTC HN ES        1 9 52.95                             107    0.76 6  399 217 
 ORTC HZ I         1 9 59.27         1.5 0.24            108            399 217 
                                                                                
