 2012  5 6 0445 38.6 L   6.787 -73.146150.9  RSN  6 0.3 1.5LRSN                1
 GAP=137        0.79       5.7     5.1  9.1 -0.2362E+00  0.4775E+01  0.6407E+01E
 Epicentro: LOS SANTOS - SANTANDER                                             3
 ACTION:UP  12-07-05 12:02 OP:pat  STATUS:               ID:20120506044538 L   I
 2012-05-06-0440-00M.COL___192                                                 6
 STAT SP IPHASW D HRMM SECON CODA AMPLIT PERI AZIMU VELO SNR AR TRES W  DIS CAZ7
 BAR2 SZ EP   1    445 58.57                             171    -0.3 7   22 191 
 BRR  HZ EP   1    446  0.83                             153     0.5 7   72 300 
 BRR  HN ES   1    446 17.88                             153     0.6 7   72 300 
 BRR  HZ I         446 22.18         6.3 0.15                            72 300 
 PAM  SZ EP   1    446  1.53                             151     0.1 7   79  39 
 PAM  SN ES   1    446 18.82                             151    -0.4 7   79  39 
 RUS  HZ EP   1    446  2.94                             145     0.2 7   99 176 
 RUS  HE ES   1    446 21.66                             145     0.0 7   99 176 
 RUS  HZ I         446 23.14         3.3 0.22                            99 176 
 PTB  HZ EP   1    446  5.79                             133    -0.2 7  147 259 
 PTB  HN ES   1    446 26.88                             133    -0.4 7  147 259 
 PTB  HZ I         446 28.21         4.8 0.56                           147 259 
 ZAR  HE ES   2    446 36.87                             123    -0.2 4  205 293 
 ZAR  HZ I         446 42.03         2.9 0.13                           205 293 
                                                                                
