 2013  6 6 0130 35.8 L   6.775 -73.113146.0  RSN 15 0.4 2.7LRSN                1
 GAP= 74        0.91       3.1     3.3  5.6 -0.1598E+01  0.3166E+01  0.4412E+01E
 Epicentro: LOS SANTOS - SANTANDER                                             3
 ACTION:UPD 14-01-08 09:52 OP:ep   STATUS:               ID:20130606013035 L   I
 OLDACT:UP  13-06-06 11:02 OP:mh   STATUS:               ID:20130606013000     3
 OLDACT:UP  13-06-06 11:02 OP:mh   STATUS:               ID:20130606013000     3
 OLDACT:UP  13-06-06 10:59 OP:mh   STATUS:               ID:20130606013000     3
 OLDACT:REG 13-06-06 09:28 OP:mh   STATUS:               ID:20130606013000     3
 2013-06-06-0130-00M.COL___257                                                 6
 STAT SP IPHASW D HRMM SECON CODA AMPLIT PERI AZIMU VELO AIN AR TRES W  DIS CAZ7
 BAR2 SZ EP   1    130 55.24                             171   -0.16 7 21.6 201 
 BAR2 SZ ES   1    131 10.55                             171   -0.16 7 21.6 201 
 BAR2 SZ I         131 12.95       112.8 0.26            170           21.6 201 
 BRR  HZ EP   1    130 57.24                             151    0.02 7 75.8 299 
 BRR  HN ES        131 14.54                             151    0.6010 75.8 299 
 BRR  HN I         131 15.75       110.5 0.20            151           75.8 299 
 PAM  SZ IP     C  130 58.17                             151    0.1510 77.4  36 
 PAM  SN ES        131 15.16                             151   -0.2110 77.4  36 
 PAM  SN I         131 16.46       114.2 0.46            152           77.4  36 
 RUS  HZ EP     D  130 59.28                             145   -0.0610 97.6 178 
 RUS  HN ES        131 17.50                             145   -0.2210 97.6 178 
 RUS  HZ I         131 19.18        33.7 0.32            144           97.6 178 
 PTB  HZ EP   1    131  2.31                             131   -0.74 7  151 260 
 PTB  HE ES   1    131 23.87                             131   -0.45 7  151 260 
 PTB  HN I         131 28.87       203.9 0.48            131            151 260 
 TAM  HZ EP   1 D  131  3.57                             131    0.49 7  151 104 
 TAM  HN ES        131 24.35                             131   -0.03 9  151 104 
 TAM  HZ I         131 32.25        20.0 0.40            132            151 104 
 OCA  HZ EP   1    131  3.42                             129   -1.00 7  164 352 
 OCA  HN ES   1    131 27.29                             129    0.54 7  164 352 
 OCA  HZ I         131 29.37        52.0 0.18            130            164 352 
 NOR  HZ EP   1    131 11.32                             118   -0.35 6  236 236 
 NOR  HN ES        131 39.34                             118   -0.33 8  236 236 
 NOR  HZ I         131 44.90        29.4 0.32            118            236 236 
 CHI  HZ EP   1    131 13.51                             117    0.21 6  247 196 
 CHI  HN ES        131 43.09                             117    0.52 8  247 196 
 CHI  HN I         131 45.16        42.3 0.28            117            247 196 
 SML  HZ EP   4    131 11.72                             117   -1.14 0  248 335 
 SML  HN ES   4    131 39.49                             117   -2.30 0  248 335 
 SML  HZ I         131 43.26        43.4 0.34            118            248 335 
 HEL  HZ EP   1    131 17.39                             115    1.07 6  275 257 
 HEL  HE ES   4    131 50.35                             115    2.40 0  275 257 
 HEL  HZ I         131 55.96        20.9 0.40            115            275 257 
 GUY2CHZ EP   4    131 20.37                             112    0.81 0  303 236 
 GUY2CHN ES   4    131 57.05                             112    3.35 0  303 236 
 GUY2CHZ I         132  0.47        19.7 0.42                           303 236 
 COD  HZ EP   4    131 22.35                             109   -2.18 0  351 354 
 COD  HN ES   4    131 59.78                             109   -2.78 0  351 354 
 COD  HN I         132  6.17        14.7 0.38            109            351 354 
 PRA  HZ EP   1 C  131 29.15                             107   -0.09 4  391 210 
 PRA  HN ES        132 11.23                             107    0.30 6  391 210 
 PRA  HN I         132 16.66        50.3 0.92            107            391 210 
 SMAR HE ES   4    132 27.54                             102   -6.27 0  501 346 
 SMAR HE I         132 29.08        17.9 0.22            103            501 346 
                                                                                
