 2015  6 6 0357  3.7 L   7.496 -73.273117.9  RSN  7 0.4 2.1LRSN                1
 GAP=178        1.01       3.0     5.7  7.2 -0.6723E+00  0.6245E+01  0.3958E+01E
 Epicentro: EL PLAYON - SANTANDER                                              3
 ACTION:UPD 15-09-10 22:10 OP:cam  STATUS:               ID:20150606035703 L   I
 OLDACT:UP  15-06-06 14:39 OP:mh   STATUS:               ID:20150606034749     3
 OLDACT:REG 15-06-06 12:34 OP:mh   STATUS:               ID:20150606034749     3
 2015-06-06-0347-49M.COL___309                                                 6
 STAT SP IPHASW D HRMM SECON CODA AMPLIT PERI AZIMU VELO AIN AR TRES W  DIS CAZ7
 BRR  HZ EP        357 21.49                             149   -0.0310 64.8 228 
 BRR  HN ES        357 34.93                             149   -0.4710 64.8 228 
 BRR  HZ I         357 36.01        43.7 0.14            147           64.8 228 
 OCA  HZ EP        357 23.23                             143    0.2910 82.3 356 
 OCA  HN ES        357 38.67                             143    0.7410 82.3 356 
 OCA  HZ I         357 41.11        31.4 0.36            144           82.3 356 
 BAR2 EZ EP        357 24.36                             137   -0.1210  100 174 
 BAR2 EZ ES   1    357 40.23                             137   -0.45 7  100 174 
 BAR2 EZ I         357 40.91        17.2 0.26            137            100 174 
 SML  HZ EP        357 30.38                             121   -0.35 9  169 329 
 SML  HN ES        357 51.05                             121   -0.75 9  169 329 
 SML  HZ I         357 52.74        24.5 0.10            121            169 329 
 ZAR  HZ EP   1    357 31.45                             120    0.08 7  175 270 
 ZAR  HN ES        357 53.37                             120    0.44 9  175 270 
 ZAR  HZ I         357 56.47        21.6 0.18            119            175 270 
 SPBC HZ EP        357 36.94                             113    0.30 8  222 203 
 SPBC HE ES        358  2.70                             113    0.39 8  222 203 
 SPBC HZ I         358  6.69        10.1 0.22            113            222 203 
 NOR  HZ EP        357 42.49                             108   -0.38 7  277 220 
 NOR  HN ES        358 13.56                             108    0.16 7  277 220 
 NOR  HZ I         358 19.67         7.0 0.20            108            277 220 
                                                                                
