 2012  9 6 0046  5.2 L   6.758 -73.194145.6  RSN  4 0.2 1.3LRSN                1
 GAP=229        0.41       4.8     5.9  5.1  0.1767E+02 -0.2880E+01 -0.1200E+01E
 Epicentro: VILLANUEVA - SANTANDER                                             3
 ACTION:UPD 12-10-22 14:17 OP:ep   STATUS:               ID:20120906004605 L   I
 2012-09-06-0040-00M.COL___218                                                 6
 STAT SP IPHASW D HRMM SECON CODA AMPLIT PERI AZIMU VELO AIN AR TRES W  DIS CAZ7
 BAR2 SZ EP   1    046 24.44                             172   -0.26 7 18.4 176 
 BAR2 SZ ES   1    046 40.09                             172    0.17 7 18.4 176 
 BAR2 SZ I         046 40.58         4.6 0.14                          18.4 176 
 BRR  HZ EP   1    046 26.19                             153    0.00 7 69.1 304 
 BRR  HZ I         046 26.53        10.1 0.15                          69.1 304 
 BRR  HN ES   1    046 42.56                             153   -0.02 7 69.1 304 
 RUS  HZ EP   1    046 28.88                             145    0.26 7 96.5 173 
 RUS  HN ES   1    046 46.75                             145   -0.16 7 96.5 173 
 RUS  HZ I         046 48.87         1.2 0.30                          96.5 173 
 PTB  HN ES   2    046 52.20                             133    0.01 5  142 260 
                                                                                
