 2014  5 6 0333 54.1 L   6.810 -73.144149.4  RSN 17 0.4 2.5LRSN                1
 GAP= 71        0.99       2.4     2.7  5.0 -0.3949E+00  0.2053E+01  0.1679E+01E
 Epicentro: LOS SANTOS - SANTANDER                                             3
 ACTION:UPD 15-03-16 16:55 OP:nd   STATUS:               ID:20140506033354 L   I
 OLDACT:REG 14-05-06 13:02 OP:carl STATUS:               ID:20140506032809     3
 2014-05-06-0328-09M.COL___239                                                 6
 STAT SP IPHASW D HRMM SECON CODA AMPLIT PERI AZIMU VELO AIN AR TRES W  DIS CAZ7
 BRR  HZ IP     D  334 16.10                             153    0.4810 70.8 298 
 BRR  HN ES        334 33.37                             153    0.9610 70.8 298 
 BRR  HZ I         334 37.14        42.2 0.44            152           70.8 298 
 PAM  SZ IP     D  334 16.98                             152    0.3310 76.4  40 
 PAM  SN ES        334 34.01                             152   -0.2210 76.4  40 
 PAM  SZ I         334 36.40        72.0 0.52            156           76.4  40 
 RUS  HZ IP     C  334 18.01                             144   -0.2810  102 176 
 RUS  HN ES        334 36.83                             144   -0.3310  102 176 
 RUS  HZ I         334 37.78        36.0 0.36            145            102 176 
 PTB  HZ EP        334 20.74                             133   -0.66 9  148 258 
 PTB  HN ES        334 41.97                             133   -0.73 9  148 258 
 PTB  HZ I         334 44.22        53.4 0.12            132            148 258 
 TAM  HZ IP     C  334 22.35                             131    0.27 9  155 105 
 TAM  HN ES        334 44.15                             131    0.24 9  155 105 
 TAM  HZ I         334 45.18        19.1 0.26            134            155 105 
 OCA  HZ EP        334 22.46                             131   -0.13 9  159 353 
 OCA  HE ES        334 44.58                             131   -0.23 9  159 353 
 OCA  HZ I         334 48.36        51.5 0.22            133            159 353 
 SPBC HZ EP        334 23.09                             130    0.11 9  164 219 
 SPBC HN ES        334 45.28                             130   -0.22 9  164 219 
 SPBC HZ I         334 50.22        60.1 0.34            130            164 219 
 ZAR  HZ EP        334 26.58                             123   -0.18 9  204 292 
 ZAR  HN ES        334 52.54                             123    0.31 9  204 292 
 ZAR  HZ I         334 58.45        36.6 0.32            124            204 292 
 SML  HZ EP        334 30.69                             118   -0.14 8  243 335 
 SML  HN ES        334 59.34                             118   -0.14 8  243 335 
 CHI  HZ EP        334 32.12                             118   -0.01 8  250 195 
 CHI  HN ES        335  1.62                             118   -0.17 8  250 195 
 CHI  HZ I         335  5.62        19.5 0.44            118            250 195 
 ROSC BZ EP   4    334 34.03                             117    1.49 0  254 211 
 ROSC BN ES   4    335  4.19                             117    1.67 0  254 211 
 HEL  HZ EP        334 34.89                             115    0.34 8  273 256 
 HEL  HE ES        335  5.95                             115   -0.15 8  273 256 
 HEL  HZ I         335 13.19        19.2 0.60            116            273 256 
 VIL  SZ EP        334 38.29                             113    0.47 7  305 192 
 VIL  SN ES        335 11.52                             113   -0.40 7  305 192 
 VIL  SZ I         335 22.22        17.6 0.38            113            305 192 
 RREF HZ EP   4    334 41.65                             111    1.15 0  323 229 
 RREF HN ES   4    335 18.85                             111    2.15 0  323 229 
 RREF HZ I         335 23.82        26.1 0.28            112            323 229 
 CBOC HZ EP        334 42.00                             110    0.77 7  334 252 
 CBOC HE ES        335 17.62                             110   -0.37 7  334 252 
 CBOC HZ I         335 26.45         6.2 0.48            111            334 252 
 SDV  BZ EP        334 43.49                             109   -0.69 6  360  50 
 SDV  BN ES   4    335 20.58                             109   -2.67 0  360  50 
 SDV  BZ I         335 22.86         6.6 0.35            111            360  50 
 ORTC HZ EP        334 48.50                             107    0.23 6  396 216 
 ORTC HE ES        335 31.39                             107    0.87 6  396 216 
 ORTC HZ I         335 38.83        11.0 0.28            108            396 216 
 SJC  HZ EP   4    334 48.03                             106   -1.65 0  408 327 
 SJC  HE ES   4    335 29.17                             106   -3.87 0  408 327 
 SJC  HZ I         335 34.52         7.5 0.58            107            408 327 
 URI  HZ EP   4    335  4.48                             101   -2.57 0  556  13 
 URI  HN ES   4    335 57.81                             101   -6.14 0  556  13 
                                                                                
