 2011  2 6 0154 25.1 L   6.556 -73.501110.0  RSN 11 0.3 2.1LRSN                1
 GAP=106        0.79       3.0     5.3  7.6 -0.3494E+01  0.2402E+02  0.5972E-01E
 Epicentro: EL CARMEN DE CHUCURI - SANTANDER                                   3
 ACTION:UP  11-03-28 15:06 OP:jfem STATUS:               ID:20110206015425 L   I
 2011-02-06-0151-07S.COL___138                                                 6
 STAT SP IPHASW D HRMM SECON CODA AMPLIT PERI AZIMU VELO SNR AR TRES W  DIS CAZ7
 BAR2 SZ IP        154 41.04                             161     0.210   35  84 
 BAR2 SZ I         154 41.38       122.8 0.25                            35  84 
 BAR2 SZ ES   1    154 53.22                             161     0.1 7   35  84 
 BTL  SZ IP        154 41.71                             155     0.310   48  33 
 GIR2 SZ IP        154 42.50                             147     0.010   67  30 
 RUS  HZ EP        154 44.09                             140    -0.310   87 148 
 RUS  HE ES   2    154 59.22                             140    -0.2 5   87 148 
 RUS  HZ I         155  1.97        12.1 0.47                            87 148 
 GRA  SZ EP        154 51.24                             119    -0.3 9  166  28 
 GRA  SZ ES   1    155 12.08                             119    -0.1 7  166  28 
 GRA  SZ I         155 15.93        15.3 0.52                           166  28 
 YOP  SZ EP   1    154 53.08                             117     0.2 7  179 138 
 YOP  SE ES   2    155 14.92                             117     0.4 4  179 138 
 OCA  SZ ES   1    155 16.56                             116     0.3 7  187   6 
 OCA  SZ I         155 24.09        25.9 0.26                           187   6 
 NOR  SZ EP        154 53.20                             116    -0.5 9  187 234 
 OCA  SZ EP   1    154 53.50                             116    -0.3 7  187   6 
 CHI  HZ EP        154 57.30                             112     0.1 8  215 187 
 CHI  HZ I         155 27.53         4.2 0.45                           215 187 
 HEL  HZ EP        154 58.67                             111     0.0 8  228 260 
 HEL  HZ I         155 29.91        12.4 0.28                           228 260 
 GUY  SZ EP        155  2.46                             108     0.7 8  254 235 
 GUY  SZ I         155 38.61         9.5 0.33                           254 235 
                                                                                
