 2017 12 6 0153  2.2 L   6.814 -73.177133.6  RSN 15 0.5 2.0LRSN                1
 GAP= 63        1.12       2.5     3.6  5.6 -0.7260E+00  0.6170E+01 -0.9913E+00E
 Epicentro: ZAPATOCA - SANTANDER                                               3
 ACTION:UPD 18-01-04 13:17 OP:rebc STATUS:               ID:20171206015302 L   I
 OLDACT:DUP 17-12-06 15:17 OP:leo  STATUS:               ID:20171206014745d    3
 2017-12-06-0148-00M.COL___488                                                 6
 STAT SP IPHASW D HRMM SECON CODA AMPLIT PERI AZIMU VELO AIN AR TRES W  DIS CAZ7
 BAR2 HZ EP        153 20.54                             169    0.1110 24.6 181 
 BAR2 HZ ES        153 33.36                             169   -1.2710 24.6 181 
 PAM  EZ EP        153 23.55                             148    0.3110 78.4  42 
 PAM  EE ES        153 40.32                             148    0.7010 78.4  42 
 PAM  EZ I         153 42.54        21.8 0.48            151           78.4  42 
 RUS  HZ EP        153 24.80                             141   -0.1510  102 174 
 RUS  HN ES        153 42.96                             141    0.2810  102 174 
 RUS  HZ I         153 44.04        21.2 0.32            144            102 174 
 PTB  HZ EP        153 27.56                             130   -0.39 9  145 258 
 PTB  HN ES        153 47.86                             130   -0.15 9  145 258 
 PTB  HZ I         153 51.19         7.3 0.50            131            145 258 
 OCA  HZ EP        153 28.90                             127   -0.54 9  158 354 
 OCA  HN ES        153 50.70                             127    0.04 9  158 354 
 OCA  HZ I         153 54.97        29.0 0.22            129            158 354 
 TAM  HZ EP        153 28.92                             127   -0.42 9  159 105 
 SPBC HZ EP        153 29.69                             126   -0.05 9  162 218 
 SPBC HN ES        153 51.50                             126    0.30 9  162 218 
 SPBC HZ I         153 54.04        14.6 0.20            129            162 218 
 YPLC HE ES        153 54.76                             123    0.45 9  180 151 
 YPLC HZ I         153 57.37        15.5 0.26            127            180 151 
 ZAR  HZ EP        153 33.34                             120   -0.17 9  200 292 
 ZAR  HE ES        153 58.50                             120    0.59 9  200 292 
 ZAR  HZ I         154  6.77         6.3 0.30            122            200 292 
 CHI  HZ EP        153 39.01                             114   -0.35 8  249 194 
 CHI  HE ES        154  8.47                             114    0.15 8  249 194 
 CHI  HZ I         154 11.19         3.8 0.22            117            249 194 
 DRL03HZ EP        153 43.25                             111    0.19 7  287 353 
 DRL03HN ES        154 15.69                             111    0.78 7  287 353 
 GUY2CHZ EP        153 44.74                             110   -0.35 7  299 234 
 GUY2CHN ES        154 18.85                             110    0.33 7  299 234 
 ORTC HZ EP        153 55.92                             104    0.25 6  395 216 
 ORTC HN ES        154 38.31                             104    0.95 6  395 216 
 PAL  HZ EP        153 56.50                             104   -0.26 6  404 239 
 SJC  HZ EP        153 56.69                             104   -0.35 6  406 327 
 SJC  HN ES        154 39.12                             104   -0.66 6  406 327 
                                                                                
