 2013 11 6 0749 23.6 L   6.509 -72.950  1.3  RSN 13 0.6 2.5LRSN 2.8WRSN        1
 SPEC AVERAGE  MO 13.3 ST  3.4 OM  2.1 f0 4.35 R0.4651 AL 0.00 WI 20.0 MW  2.8 3
 SPEC SD       MO  0.3 ST  5.1 OM  0.4 f0 2.24 R0.2477 AL      WI      MW  0.2 3
 GAP=120        1.53       3.8     5.5  9.0  0.5988E+01  0.2360E+02  0.3933E+01E
 Epicentro: MOGOTES - SANTANDER                                                3
 SPEC BAR2SH Z MO 13.9 ST0.312 OM  3.1 f0 1.46 R1.0644 AL-0.00 WI 20.0 MW  3.2 3
 SPEC BAR2SH Z T 74929 K 0.000 GD 27.3 VS 4.20 DE 3.20 Q0300.0 QA 0.60 VS 4.20 3
 SPEC RUS HH Z MO 12.9 ST0.627 OM  1.7 f0 3.95 R0.3934 AL-0.00 WI 20.0 MW  2.6 3
 SPEC RUS HH Z T 74943 K 0.000 GD 69.7 VS 4.20 DE 3.20 Q0300.0 QA 0.60 VS 4.20 3
 SPEC PAM SH Z MO 13.1 ST0.909 OM  1.7 f0 4.02 R0.3866 AL-0.00 WI 20.0 MW  2.7 3
 SPEC PAM SH Z T 74946 K 0.000 GD 95.9 VS 4.20 DE 3.20 Q0300.0 QA 0.60 VS 4.20 3
 SPEC BRR HH Z MO 13.0 ST  5.7 OM  1.6 f0 7.81 R0.1990 AL-0.00 WI 20.0 MW  2.6 3
 SPEC BRR HH Z T 74952 K 0.000 GD  103 VS 4.20 DE 3.20 Q0300.0 QA 0.60 VS 4.20 3
 SPEC TAM HH Z MO 13.4 ST0.467 OM  2.0 f0 2.42 R0.6421 AL-0.00 WI 20.0 MW  2.9 3
 SPEC TAM HH Z T 750 2 K 0.000 GD  113 VS 4.20 DE 3.20 Q0300.0 QA 0.60 VS 4.20 3
 SPEC SPBCHH Z MO 13.4 ST  3.8 OM  1.9 f0 5.10 R0.3047 AL-0.00 WI 20.0 MW  2.9 3
 SPEC SPBCHH Z T 750 6 K 0.000 GD  124 VS 4.20 DE 3.20 Q0300.0 QA 0.60 VS 4.20 3
 SPEC PTB HH Z MO 13.3 ST  5.3 OM  1.8 f0 6.05 R0.2569 AL-0.00 WI 20.0 MW  2.8 3
 SPEC PTB HH Z T 750 9 K 0.000 GD  129 VS 4.20 DE 3.20 Q0300.0 QA 0.60 VS 4.20 3
 SPEC OCA HH Z MO 13.5 ST  2.2 OM  2.0 f0 3.79 R0.4100 AL-0.00 WI 20.0 MW  3.0 3
 SPEC OCA HH Z T 75013 K 0.000 GD  140 VS 4.20 DE 3.20 Q0300.0 QA 0.60 VS 4.20 3
 SPEC ZAR HH Z MO 13.5 ST  1.3 OM  1.9 f0 3.32 R0.4681 AL-0.00 WI 20.0 MW  2.9 3
 SPEC ZAR HH Z T 75025 K 0.000 GD  153 VS 4.20 DE 3.20 Q0300.0 QA 0.60 VS 4.20 3
 SPEC VIL SH Z MO 13.6 ST0.377 OM  2.0 f0 1.98 R0.7848 AL-0.00 WI 20.0 MW  3.0 3
 SPEC VIL SH Z T 75045 K 0.000 GD  166 VS 4.20 DE 3.20 Q0300.0 QA 0.60 VS 4.20 3
 SPEC SML HH Z MO 13.3 ST 19.2 OM  1.7 f0 9.22 R0.1685 AL-0.00 WI 20.0 MW  2.8 3
 SPEC SML HH Z T 75034 K 0.000 GD  167 VS 4.20 DE 3.20 Q0300.0 QA 0.60 VS 4.20 3
 SPEC HEL HH Z MO 13.1 ST0.460 OM  1.5 f0 3.09 R0.5029 AL-0.00 WI 20.0 MW  2.7 3
 SPEC HEL HH Z T 75038 K 0.000 GD  169 VS 4.20 DE 3.20 Q0300.0 QA 0.60 VS 4.20 3
 SPECGUY2CHH Z MO 13.7 ST  0.2 OM  2.1 f0 1.45 R  1.07 AL-0.00 WI 20.0 MW  3.1 3
 SPECGUY2CHH Z T 75042 K       GD174.1 VS 4.20 DE 3.20 Q0300.0 QA 0.60 VS 4.20 3
 2013-11-06-0747-37M.COL___200                                                 6
 OLDACT:REG 13-11-06 07:10 OP:jn   STATUS:               ID:20131106074737     3
 ACTION:UPD 14-01-09 16:26 OP:ep   STATUS:               ID:20131106074923 L   I
 OLDACT:UP  13-11-06 10:09 OP:jn   STATUS:               ID:20131106074737     3
 STAT SP IPHASW D HRMM SECON CODA AMPLIT PERI AZIMU VELO AIN AR TRES W  DIS CAZ7
 BAR2 SZ EP        749 27.66                              47   -1.3510 27.3 290 
 BAR2 SZ I         749 35.68       387.9 1.18             47           27.3 290 
 RUS  HZ EP        749 35.39                              47   -0.3110 69.7 192 
 RUS  HE ES        749 44.78                              47   -0.3310 69.7 192 
 RUS  SZ I         749 46.19        79.6 0.28             47           69.7 192 
 PAM  SZ EP   4    749 36.81                              47   -2.86 0 95.9  17 
 PAM  SE ES   4    749 48.43                              47   -3.74 0 95.9  17 
 PAM  SZ I         749 49.24        67.6 0.16             47           95.9  17 
 BRR  HZ EP        749 40.73                              47   -0.1210  107 308 
 BRR  HN ES        749 53.81                              47   -0.4710  107 308 
 BRR  SZ I         749 54.86        77.7 0.14             47            107 308 
 TAM  HZ EP        749 44.48                              47    0.3510  128  94 
 TAM  HE ES   4    750  4.13                              47    4.02 0  128  94 
 TAM  SZ I         750  7.84        35.6 0.16             47            128  94 
 SPBC HZ EP        749 48.99                              47    0.60 9  156 233 
 SPBC HN ES        750  7.55                              47   -0.15 9  156 233 
 SPBC SZ I         750 15.58       118.4 0.22             47            156 233 
 PTB  HZ EP        749 50.56                              47    0.67 9  167 271 
 PTB  HN ES   1    750 11.24                              47    0.87 7  167 271 
 PTB  SZ I         750 12.65       120.0 0.20             47            167 271 
 OCA  HZ EP   4    749 52.87                              37   -1.12 0  196 348 
 OCA  HN ES   4    750 15.35                              37   -2.31 0  196 348 
 OCA  SZ I         750 20.62        88.2 0.44             37            196 348 
 ZAR  HZ EP        749 59.99                              37    0.97 8  237 297 
 ZAR  HN ES        750 27.14                              37    0.53 8  237 297 
 ZAR  SZ I         750 28.28        47.0 0.26             37            237 297 
 VIL  SZ EP   4    750  7.36                              37    3.15 0  278 197 
 VIL  SE ES   4    750 46.69                              37   10.84 0  278 197 
 VIL  SZ I         750 50.54        21.4 0.72             37            278 197 
 SML  HZ EP   4    750  3.13                              37   -1.48 0  282 334 
 SML  HE ES   1    750 36.34                              37   -0.22 6  282 334 
 SML  SZ I         750 40.07        58.0 0.28             37            282 334 
 HEL  HZ EP   4    750  6.46                              37    0.73 0  287 263 
 HEL  SZ I         750 43.78        16.0 0.26             37            287 263 
 GUY2CHZ EP   4    750 10.19                              36    2.42 0  303 242 
 GUY2CHN ES   4    750 43.81                              36    1.62 0  303 242 
 GUY2CSZ I         750 50.26        24.5 0.70                           303 242 
                                                                                
