 2013  4 6 0626  0.2 L   6.693 -73.247149.0  RSN  6 0.4 1.3LRSN                1
 GAP=139        0.88       6.8     5.7  7.1  0.1649E+02  0.1160E+02  0.9544E+01E
 Epicentro: BARICHARA - SANTANDER                                              3
 ACTION:UPD 13-05-22 14:36 OP:EP   STATUS:               ID:20130406062600 L   I
 2013-04-06-0620-00M.COL___245                                                 6
 STAT SP IPHASW D HRMM SECON CODA AMPLIT PERI AZIMU VELO AIN AR TRES W  DIS CAZ7
 BAR2 SZ EP        626 19.81                             175   -0.2810 13.2 147 
 BAR2 SZ ES        626 35.31                             175   -0.2710 13.2 147 
 BAR2 SZ I         626 36.47         8.9 0.58            174           13.2 147 
 GIR2 SZ ES   1    626 36.29                             163   -0.29 7 43.1   8 
 BRR  HZ EP        626 21.94                             154    0.3510 68.8 312 
 BRR  HE ES   1    626 39.12                             154    0.86 7 68.8 312 
 BRR  HZ I         626 41.72         4.2 0.20            154           68.8 312 
 RUS  HZ EP        626 23.72                             147    0.1310 90.3 168 
 RUS  HN ES   1    626 41.90                             147    0.08 7 90.3 168 
 RUS  HZ I         626 43.51         1.7 0.33            149           90.3 168 
 PTB  HZ EP        626 26.33                             135    0.0110  135 263 
 PTB  HN ES        626 46.73                             135    0.0610  135 263 
 PTB  HZ I         626 51.04         3.5 0.10            135            135 263 
 ZAR  HE ES   1    626 56.55                             124   -0.83 6  199 297 
                                                                                
