 2014  5 6 0052 38.3 L   6.784 -73.147149.1  RSN  6 0.4 1.4LRSN                1
 GAP=137        0.94       3.7     5.5  9.7  0.2630E+01  0.1725E+02 -0.2450E+00E
 Epicentro: LOS SANTOS - SANTANDER                                             3
 ACTION:UPD 15-03-16 16:55 OP:nd   STATUS:               ID:20140506005238 L   I
 OLDACT:UP  14-05-06 13:38 OP:carl STATUS:               ID:20140506004808     3
 OLDACT:REG 14-05-06 12:59 OP:carl STATUS:               ID:20140506004808     3
 2014-05-06-0048-08M.COL___239                                                 6
 STAT SP IPHASW D HRMM SECON CODA AMPLIT PERI AZIMU VELO AIN AR TRES W  DIS CAZ7
 BRR  HZ EP        053  0.24                             153    0.3810 71.9 300 
 BRR  HE ES        053 17.19                             153    0.5210 71.9 300 
 BRR  HZ I         053 22.46         4.9 0.12            154           71.9 300 
 PAM  SN ES        053 18.24                             151   -0.4010 78.9  39 
 PAM  SZ I         053 20.71         2.7 0.68            156           78.9  39 
 RUS  HZ EP     D  053  2.48                             145    0.2210 98.8 176 
 RUS  HN ES        053 20.99                             145    0.0510 98.8 176 
 RUS  HZ I         053 22.56         2.4 0.36            149           98.8 176 
 SPBC HE ES        053 28.66                             130   -0.58 9  162 219 
 SPBC HZ I         053 32.10         5.7 0.26            134            162 219 
 ZAR  HE ES        053 36.40                             123   -0.15 9  205 293 
 SML  HE ES        053 43.84                             118   -0.30 8  245 336 
                                                                                
