 2011  9 6 0544 16.7 L   6.927 -73.090143.8  RSN  7 0.3 1.5LRSN                1
 GAP=189        0.50       3.9     6.3  6.6  0.7851E+01 -0.1727E+01 -0.5799E+01E
 Epicentro: PIEDECUESTA - SANTANDER                                            3
 ACTION:UPD 12-07-13 15:55 OP:ep   STATUS:               ID:20110906054416 L   I
 2011-09-06-0542-36S.COL___171                                                 6
 STAT SP IPHASW D HRMM SECON CODA AMPLIT PERI AZIMU VELO AIN AR TRES W  DIS CAZ7
 GIR2 SZ EP   2    544 36.00                             171    0.12 5 20.3 326 
 BAR2 SZ EP   1    544 36.39                             164   -0.10 7 38.4 195 
 BAR2 SZ ES   2    544 51.87                             164   -0.06 5 38.4 195 
 BAR2 SZ I         544 53.67         7.3 0.44                          38.4 195 
 BRR  HZ EP   1    544 37.59                             152   -0.06 7 71.5 286 
 BRR  HN ES   2    544 54.64                             152    0.65 5 71.5 286 
 BRR  HZ I         544 56.71         5.9 0.17                          71.5 286 
 RUS  HZ EP   2    544 41.30                             140    0.00 5  114 180 
 RUS  HN ES   2    545  0.22                             140   -0.27 5  114 180 
 RUS  HZ I         545  1.50         3.3 0.31                           114 180 
 OCA  SZ EP   1    544 44.04                             132    0.40 7  147 350 
 OCA  SZ ES   2    545  3.96                             132   -0.70 5  147 350 
 OCA  SZ I         545 11.36         5.3 0.61                           147 350 
 ZAR  HZ EP   2    544 49.07                             122   -0.03 4  205 288 
 ZAR  HN ES   2    545 14.01                             122   -0.38 4  205 288 
 ZAR  HZ I         545 18.89         5.1 0.30                           205 288 
 PRA  HZ EP   2    545 12.02                             105    0.09 3  407 209 
                                                                                
