 2017  2 6 0636 57.1 L   6.754 -73.233144.0  RSN  6 0.5 1.4LRSN                1
 GAP=216        0.98       7.5     7.0  7.6  0.2818E+02  0.7504E+01  0.9806E+00E
 Epicentro: ZAPATOCA - SANTANDER                                               3
 ACTION:UPD 17-05-24 15:33 OP:jn   STATUS:               ID:20170206063657 L   I
 OLDACT:UP  17-02-06 18:43 OP:edw  STATUS:               ID:20170206062747     3
 OLDACT:UP  17-02-06 18:43 OP:edw  STATUS:               ID:20170206062747     3
 OLDACT:REG 17-02-06 11:59 OP:edw  STATUS:               ID:20170206062747     3
 2017-02-06-0628-00M.COL___325                                                 6
 STAT SP IPHASW D HRMM SECON CODA AMPLIT PERI AZIMU VELO AIN AR TRES W  DIS CAZ7
 BAR2 EZ EP     C  637 15.84                             172   -0.5810 18.8 163 
 BAR2 EZ ES        637 31.42                             172   -0.0810 18.8 163 
 BAR2 EZ I         637 32.26         4.1 0.52            173           18.8 163 
 BRR  HZ IP     C  637 17.43                             154   -0.3110 65.8 306 
 BRR  HN ES        637 34.31                             154    0.4510 65.8 306 
 BRR  HZ I         637 37.59         4.2 0.16            152           65.8 306 
 RUS  HZ EP        637 20.64                             145    0.2510 96.7 170 
 RUS  HN ES        637 38.89                             145    0.3310 96.7 170 
 RUS  HZ I         637 40.23         2.1 0.34            147           96.7 170 
 PTB  HZ EP        637 22.88                             134   -0.09 9  137 260 
 PTB  HN ES        637 42.78                             134   -0.39 9  137 260 
 PTB  HZ I         637 46.10         3.7 0.26            133            137 260 
 ZAR  HZ EP   2    637 29.77                             123    1.06 4  197 295 
 ZAR  HN ES   2    637 54.29                             123    0.91 4  197 295 
 ZAR  HZ I         637 59.29         3.6 0.34            123            197 295 
 CHI  HN ES   4    638  5.75                             118    3.14 0  241 193 
 URE  HZ EP   4    637 39.33                             114    2.04 0  277 294 
 URE  HN ES   4    638  7.14                             114   -1.51 0  277 294 
 URE  HZ I         638 11.04         1.9 0.18            114            277 294 
                                                                                
