 2010 11 6 0522 24.1 L   6.788 -73.132141.9  RSN 10 0.4 2.6LRSN                1
 GAP=215        0.83       5.4     5.6  6.8  0.1025E+02  0.1307E+02  0.1243E+02E
 Epicentro: LOS SANTOS - SANTANDER                                             3
 ACTION:UP  10-12-17 16:50 OP:REBC STATUS:               ID:20101106052224 L   I
 2010-11-06-0520-00M.COL___116                                                 6
 STAT SP IPHASW D HRMM SECON CODA AMPLIT PERI AZIMU VELO SNR AR TRES W  DIS CAZ7
 BAR2 SZ EP   1    522 42.85                             171    -0.4 7   22 195 
 BAR2 SZ ES   1    522 57.79                             171    -0.4 7   22 195 
 BAR2 SZ I         522 59.21       111.8 0.31                            22 195 
 BRR  HZ IP     C  522 44.92                             151     0.010   73 299 
 BRR  HZ I         522 45.18       167.1 0.14                            73 299 
 BRR  HN ES   1    523  1.94                             151     0.7 7   73 299 
 RUS  HZ EP        522 47.13                             143    -0.210   99 177 
 RUS  HE ES   1    523  5.48                             143    -0.1 7   99 177 
 RUS  HZ I         523  6.96        38.1 0.24                            99 177 
 YOP  SZ EP   1    522 53.83                             126     0.1 7  177 154 
 YOP  SN ES   1    523 17.48                             126     0.7 7  177 154 
 NOR  SZ EP   1    522 59.17                             118    -0.5 6  235 235 
 NOR  SE ES   2    523 26.76                             118    -0.7 4  235 235 
 ROSC BN ES   2    523 31.86                             116     0.3 4  252 211 
 ROSC BZ I         523 39.61        28.5 0.33                           252 211 
 HEL  HZ EP   2    523  4.15                             114    -0.1 4  273 256 
 HEL  HN ES   2    523 35.22                             114    -0.3 4  273 256 
 HEL  HZ I         523 42.69        15.5 0.23                           273 256 
 GUY  SZ EP   2    523  8.16                             112     0.6 4  302 235 
 GUY  SN ES   2    523 42.12                             112     0.6 4  302 235 
 GUY  SZ I         523 50.02        23.7 0.32                           302 235 
 RREF HZ EP        523 10.53                             110     0.4 7  322 230 
 RREF HE ES   3    523 46.79                             110     0.8 2  322 230 
 RREF HZ  AML      523 53.02        20.4 0.29                           322 230 
 PRA  HE ES   1    523 58.66                             106    -0.4 4  392 210 
                                                                                
