 2015  1 6 0443 38.9 L   7.020 -73.340  4.0  RSN  4 0.4 0.8LRSN                1
 GAP=182        0.95       3.9     4.3  8.4 -0.2326E+01  0.1900E+02 -0.1460E+02E
 Epicentro: BETULIA - SANTANDER                                                3
 ACTION:UPD 15-03-02 15:37 OP:nd   STATUS:               ID:20150106044338 L   I
 OLDACT:UP  15-01-06 15:35 OP:cam  STATUS:               ID:20150106043817     3
 OLDACT:REG 15-01-06 13:54 OP:cam  STATUS:               ID:20150106043817     3
 2015-01-06-0438-17M.COL___274                                                 6
 STAT SP IPHASW D HRMM SECON CODA AMPLIT PERI AZIMU VELO AIN AR TRES W  DIS CAZ7
 BRR  HZ EP        443 45.38                              47   -0.5410 42.2 283 
 BRR  HN ES        443 51.34                              47   -0.0310 42.2 283 
 BRR  HN I         443 51.65         5.6 0.26             47           42.2 283 
 BAR2 EZ EP        443 47.20                              47   -0.2110 50.4 160 
 PTB  HZ EP        444  0.60                              47    0.7010  134 247 
 PTB  HN ES        444 16.18                              47   -0.0810  134 247 
 PTB  HZ I         444 19.03         1.5 0.14             47            134 247 
 SML  HZ EP        444 11.19                              37    0.41 8  213 338 
 SML  HN ES        444 35.53                              37   -0.09 8  213 338 
 SML  HZ I         444 37.70         0.9 0.22             37            213 338 
                                                                                
