 2015  7 6 0203  8.9 L   6.797 -73.156142.8  RSN 19 0.4 2.1LRSN                1
 GAP=135        0.83       1.9     3.2  4.5 -0.1694E+01  0.7004E+01 -0.1028E+00E
 Epicentro: LOS SANTOS - SANTANDER                                             3
 ACTION:UPD 15-09-08 21:47 OP:cam  STATUS:               ID:20150706020308 L   I
 OLDACT:UP  15-07-06 18:22 OP:ak   STATUS:               ID:20150706015749     3
 OLDACT:REG 15-07-06 14:10 OP:spq  STATUS:               ID:20150706015749     3
 2015-07-06-0157-49M.COL___331                                                 6
 STAT SP IPHASW D HRMM SECON CODA AMPLIT PERI AZIMU VELO AIN AR TRES W  DIS CAZ7
 BAR2 EZ EP        2 3 28.17                             170    0.0310 22.9 187 
 BAR2 EZ ES        2 3 43.04                             170   -0.1310 22.9 187 
 BAR2 EZ I         2 3 45.90        21.2 0.40            168           22.9 187 
 PAM  EZ EP        2 3 31.01                             150    0.1710 78.3  40 
 PAM  EN ES        2 3 48.31                             150    0.3410 78.3  40 
 PAM  EZ I         2 3 50.68        12.4 0.54            156           78.3  40 
 RUS  HZ EP        2 3 32.12                             143   -0.2110  100 175 
 RUS  HN ES        2 3 50.51                             143   -0.1010  100 175 
 RUS  HZ I         2 3 53.69        12.8 0.40            147            100 175 
 OCA  HZ EP        2 3 37.11                             129    0.13 9  160 354 
 OCA  HE ES        2 3 59.04                             129    0.15 9  160 354 
 OCA  HZ I         2 4  3.19        40.9 0.28            132            160 354 
 ZAR  HZ EP        2 3 40.62                             122   -0.42 9  203 292 
 ZAR  HE ES        2 4  6.69                             122    0.57 9  203 292 
 ZAR  HZ I         2 4 15.02        13.9 0.40            123            203 292 
 NOR  HZ EP        2 3 43.98                             118   -0.34 8  234 234 
 NOR  HE ES        2 4 11.97                             118    0.01 8  234 234 
 NOR  HZ I         2 4 15.96        15.6 0.20            120            234 234 
 SML  HZ EP        2 3 44.59                             117   -0.73 8  244 336 
 SML  HN ES        2 4 13.11                             117   -0.63 8  244 336 
 SML  HZ I         2 4 16.13        23.5 0.10            119            244 336 
 CHI  HZ EP   1    2 3 46.15                             117   -0.20 6  248 195 
 CHI  HN ES        2 4 15.31                             117   -0.27 8  248 195 
 CHI  HZ I         2 4 21.29         4.3 0.33            120            248 195 
 ROSC BZ EP        2 3 47.36                             116    0.61 8  252 211 
 ROSC BE ES        2 4 16.01                             116   -0.27 8  252 211 
 ROSC BZ I         2 4 23.90        12.1 0.45            119            252 211 
 HEL  HZ EP        2 3 49.59                             114    0.78 8  271 256 
 HEL  HE ES        2 4 19.39                             114   -0.57 8  271 256 
 HEL  HZ I         2 4 27.41         9.3 0.36            116            271 256 
 GUY2CHZ EP        2 3 53.18                             112    0.95 7  300 235 
 GUY2CHN ES        2 4 26.16                             112    0.12 7  300 235 
 GUY2CHZ I         2 4 35.24         7.9 0.26                           300 235 
 LL2C HZ EP   1    2 3 51.73                             111   -0.62 5  307 354 
 LL2C HN ES        2 4 26.34                             111    0.08 7  307 354 
 CBOC HZ EP   1    2 3 55.96                             109    0.42 5  332 252 
 CBOC HE ES        2 4 32.02                             109    0.09 7  332 252 
 CBOC HZ I         2 4 37.61         2.5 0.35            111            332 252 
 TOL  SZ EP        2 3 57.31                             109    0.41 7  342 225 
 TOL  SN ES        2 4 34.59                             109    0.23 7  342 225 
 TOL  SZ I         2 4 39.91         4.5 0.39            111            342 225 
 MON  HZ EP   4    2 3 55.48                             108   -2.21 0  353 309 
 MON  HN ES   4    2 4 30.65                             108   -5.10 0  353 309 
 MON  HZ I         2 4 48.88         3.4 0.42            110            353 309 
 PRA  HZ EP        2 4  1.88                             106   -0.32 6  391 209 
 PRA  HN ES        2 4 43.41                             106   -0.39 6  391 209 
 PRA  HZ I         2 4 48.81         4.6 0.32            108            391 209 
 ORTC HZ EP        2 4  2.99                             106    0.40 6  395 216 
 ORTC HN ES        2 4 44.37                             106   -0.12 6  395 216 
 ORTC HZ I         2 4 51.18         4.3 0.48            108            395 216 
 PAL  HZ EP        2 4  3.59                             105   -0.22 6  405 239 
 PAL  HN ES        2 4 46.42                             105   -0.24 6  405 239 
 PAL  HZ I         2 4 51.15         2.7 0.24            107            405 239 
 SJC  HZ EP   4    2 4  2.54                             105   -1.76 0  409 327 
 SJC  HE ES   4    2 4 44.79                             105   -2.74 0  409 327 
 SJC  HZ I         2 4 47.31         2.1 0.21            108            409 327 
                                                                                
