 2017 12 6 0641 46.1 L   6.834 -73.177147.4  RSN 16 0.9 2.4LRSN                1
 GAP= 63        1.96       4.5     5.3  9.6 -0.2275E+01  0.1276E+02 -0.3294E+01E
 Epicentro: ZAPATOCA - SANTANDER                                               3
 ACTION:UPD 18-01-04 13:17 OP:rebc STATUS:               ID:20171206064146 L   I
 OLDACT:UP  17-12-06 18:06 OP:leo  STATUS:               ID:20171206063740     3
 OLDACT:REG 17-12-06 13:44 OP:leo  STATUS:               ID:20171206063740     3
 2017-12-06-0638-00M.COL___495                                                 6
 STAT SP IPHASW D HRMM SECON CODA AMPLIT PERI AZIMU VELO AIN AR TRES W  DIS CAZ7
 BAR2 EZ IP        642  5.93                             169   -0.0510 26.8 181 
 BAR2 EZ ES        642 21.08                             169   -0.4310 26.8 181 
 BAR2 EZ I         642 22.10        74.9 0.26            168           26.8 181 
 PAM  EZ EP        642  9.04                             151    0.6010 76.8  43 
 PAM  EN ES        642 26.17                             151    0.3010 76.8  43 
 PAM  EZ I         642 28.35        25.1 0.64            149           76.8  43 
 RUS  HZ EP        642 10.11                             143   -0.1810  105 174 
 RUS  HN ES        642 28.59                             143   -0.5910  105 174 
 RUS  HZ I         642 30.39        20.4 0.56            140            105 174 
 PTB  HZ EP        642 12.28                             133   -0.68 9  145 257 
 PTB  HE ES        642 34.44                             133    0.52 9  145 257 
 PTB  HZ I         642 35.23        18.5 0.48            130            145 257 
 OCA  HZ EP        642 14.48                             131    0.35 9  156 354 
 OCA  HN ES        642 36.79                             131    0.78 9  156 354 
 OCA  HZ I         642 44.37        50.8 0.22            128            156 354 
 TAM  HZ IP        642 14.35                             130    0.06 9  159 106 
 TAM  HE ES        642 36.15                             130   -0.14 9  159 106 
 SPBC HZ EP        642 14.88                             129    0.09 9  164 217 
 SPBC HN ES        642 37.20                             129    0.01 9  164 217 
 SPBC HZ I         642 41.91        44.0 0.16            126            164 217 
 YPLC HZ EP        642 16.36                             126   -0.12 9  182 151 
 YPLC HZ I         642 43.05        18.1 0.34            123            182 151 
 ZAR  HZ EP   4    642 15.60                             123   -2.57 0  199 291 
 ZAR  HE ES        642 43.83                             123    0.64 9  199 291 
 ZAR  HZ I         642 49.17        24.9 0.42            121            199 291 
 CHI  HZ EP        642 24.14                             117   -0.04 8  251 194 
 CHI  HN ES        642 53.55                             117   -0.34 8  251 194 
 CHI  HZ I         642 55.82        20.1 0.34            115            251 194 
 ROSC BE ES   4    642 57.80                             117    3.40 0  254 210 
 CVER HZ EP   4    642 24.06                             115   -2.72 0  274 201 
 URE  HZ EP        642 25.93                             114   -0.79 7  279 291 
 URE  HE ES        642 57.21                             114   -1.21 7  279 291 
 URE  HZ I         643  8.11        22.9 0.18            112            279 291 
 DRL03HZ EP        642 27.87                             114    0.57 7  285 353 
 DRL03HN ES        643  1.00                             114    1.55 7  285 353 
 GUY2CHZ EP        642 31.33                             113    1.63 7  301 234 
 GUY2CHN ES        643  4.28                             113    0.55 7  301 234 
 GUY2CHZ I         643 13.62         8.6 0.26                           301 234 
 LL6C HZ EP        642 31.07                             111   -0.33 7  321 358 
 LL6C HE ES        643  2.93                             111   -3.82 7  321 358 
 CBOC HZ EP        642 34.09                             110    1.26 7  332 251 
 CBOC HN ES        643  8.35                             110   -0.94 7  332 251 
 CBOC HZ I         643 19.67         3.4 0.40            108            332 251 
 PRA  HZ EP        642 39.92                             107    0.07 6  394 209 
 PRA  HE ES   4    643 23.67                             107    1.88 0  394 209 
 PRA  HZ I         643 26.46        10.2 0.60            105            394 209 
                                                                                
