 2016 11 6 0739 33.2 L   6.797 -73.138147.8  RSN 22 0.6 2.5LRSN                1
 GAP= 66        1.05       3.1     2.8  5.1 -0.1301E+01  0.1763E+01  0.2283E+01E
 Epicentro: LOS SANTOS - SANTANDER                                             3
 ACTION:UPD 17-10-26 21:05 OP:lp   STATUS:               ID:20161106073933 L   I
 OLDACT:UP  16-11-06 16:39 OP:dani STATUS:               ID:20161106073745     3
 OLDACT:UP  16-11-06 16:39 OP:dani STATUS:               ID:20161106073745     3
 OLDACT:UP  16-11-06 16:38 OP:dani STATUS:               ID:20161106073745     3
 OLDACT:REG 16-11-06 12:51 OP:dani STATUS:               ID:20161106073745     3
 2016-11-06-0738-00M.COL___334                                                 6
 STAT SP IPHASW D HRMM SECON CODA AMPLIT PERI AZIMU VELO AIN AR TRES W  DIS CAZ7
 BAR2 EZ EP     D  739 53.04                             171   -0.0510 23.1 192 
 BAR2 EZ ES        740  8.59                             171   -0.0010 23.1 192 
 BAR2 EZ I         740  9.73       107.0 0.16            170           23.1 192 
 BRR  HZ EP     C  739 54.88                             153    0.2410 72.2 298 
 BRR  HN ES        740 12.02                             153    0.6710 72.2 298 
 BRR  HZ I         740 15.94        57.6 0.36            144           72.2 298 
 PAM  EZ EP        739 55.94                             151    0.3110 77.1  39 
 PAM  EN ES        740 12.91                             151   -0.2110 77.1  39 
 PAM  EZ I         740 15.24        78.4 0.52            148           77.1  39 
 PTB  HZ EP        739 59.72                             133   -0.71 9  149 259 
 PTB  HN ES        740 20.96                             133   -0.69 9  149 259 
 PTB  HZ I         740 27.11        28.5 0.30            126            149 259 
 TAM  HZ EP     D  740  1.45                             131    0.48 9  154 105 
 TAM  HE ES        740 23.04                             131    0.42 9  154 105 
 SPBC HZ EP        740  2.09                             130    0.19 9  163 219 
 SPBC HN ES        740 24.35                             130    0.08 9  163 219 
 SPBC HZ I         740 28.75        69.1 0.26            125            163 219 
 ZAR  HZ EP        740  4.88                             123   -1.02 9  205 292 
 ZAR  HE ES        740 30.71                             123   -0.68 9  205 292 
 ZAR  HZ I         740 37.83        31.2 0.40            117            205 292 
 NOR  HZ EP        740  9.23                             119    0.11 8  235 235 
 NOR  HN ES        740 37.54                             119    0.41 8  235 235 
 CHI  HZ EP        740 10.99                             118   -0.03 8  249 195 
 CHI  HN ES        740 40.58                             118    0.08 8  249 195 
 CHI  HZ I         740 44.34        22.2 0.50            114            249 195 
 ROSC BZ EP   3    740 13.16                             117    1.70 2  253 211 
 ROSC BN ES        740 40.57                             117   -0.73 8  253 211 
 ROSC BZ I         740 46.91        43.5 0.45            113            253 211 
 HEL  HZ EP   3    740 14.69                             115    1.07 2  273 256 
 HEL  HN ES        740 45.53                             115    0.39 8  273 256 
 HEL  HZ I         740 51.18        15.2 0.26            110            273 256 
 URE  HZ EP   4    740 12.78                             114   -1.71 0  285 292 
 URE  HZ I         740 56.98        16.3 0.20            109            285 292 
 PTGC HZ EP        740 16.15                             112   -0.94 7  308 159 
 PTGC HN ES   3    740 49.83                             112   -1.48 2  308 159 
 PTGC HZ I         740 54.64        14.5 0.42            109            308 159 
 ELA  HZ EP   9    740 21.84                             111    1.64 0  330 230 
 ELA  HE ES        740 58.02                             111   -0.47 7  330 230 
 ELA  HZ I         741  6.07        12.8 0.62            107            330 230 
 CBOC HZ EP   3    740 21.48                             110    1.18 2  334 252 
 CBOC HN ES        740 58.02                             110    0.99 7  334 252 
 CBOC HZ I         741  5.33         4.9 0.38            106            334 252 
 ANIL HZ EP   9    740 24.35                             109    1.21 0  358 225 
 ANIL HN ES        741  3.67                             109    0.38 6  358 225 
 ARGC HZ EP        740 23.72                             109    0.70 6  360 340 
 ARGC HN ES        741  1.69                             109   -0.18 6  360 340 
 ARGC HZ I         741 13.05         5.3 0.22            105            360 340 
 PRA  HZ EP   9    740 23.53                             107   -3.29 0  392 210 
 PRA  HN ES        741  5.20                             107   -0.14 6  392 210 
 PRA  HZ I         741 11.24        16.3 0.30            104            392 210 
 ORTC HZ EP        740 27.44                             107    0.21 6  396 216 
 ORTC HN ES   4    741 10.88                             107    1.51 0  396 216 
 ORTC HZ I         741 14.40        10.0 0.22            103            396 216 
 PAL  HZ EP        740 28.63                             106    0.12 6  406 239 
 SJC  HZ EP   3    740 27.26                             106   -1.68 1  410 327 
 SJC  HN ES   4    741  8.37                             106   -4.03 0  410 327 
 SJC  HZ I         741 15.13         6.6 0.62            102            410 327 
 CRJC HZ EP   9    740 33.29                             104   -2.52 0  468   3 
 CRJC HE ES        741 21.75                             104   -0.36 5  468   3 
 CRJC HZ I         741 25.31        11.6 0.46            100            468   3 
                                                                                
