 2010  2 6 0751 51.4 L   6.799 -73.089147.8  RSN 11 0.3 3.0LRSN                1
 GAP=130        0.54       2.9     4.2  4.2 -0.4573E+01  0.6899E+01 -0.3500E+01E
 Epicentro: LOS SANTOS - SANTANDER                                             3
 ACTION:UP  10-08-24 09:47 OP:vdl  STATUS:               ID:20100206075151 L   I
 2010-02-06-0750-38S.COL___093                                                 6
 STAT SP IPHASW D HRMM SECON CODA AMPLIT PERI AZIMU VELO SNR AR TRES W  DIS CAZ7
 BAR2 SZ EP        752 11.42                             170     0.110   25 205 
 BAR2 SZ ES   1    752 26.81                             170     0.0 7   25 205 
 RUS  BZ EP        752 15.28                             144     0.010  100 180 
 RUS  BN ES   1    752 34.04                             144     0.1 7  100 180 
 RUS  BZ I         752 35.67       107.6 0.31                           100 180 
 OCA  SZ EP        752 19.97                             130     0.0 9  161 351 
 CHI  HZ EP        752 29.24                             117    -0.1 8  250 197 
 CHI  HE ES   1    752 58.55                             117    -0.5 6  250 197 
 CHI  HZ I         753  4.56        36.3 0.80                           250 197 
 HEL  HZ EP   1    752 32.51                             115     0.1 6  278 256 
 HEL  HN ES   2    753  4.30                             115     0.0 4  278 256 
 HEL  HZ I         753 10.52        47.6 0.43                           278 256 
 RREF BZ EP        752 38.38                             111     0.2 7  327 230 
 RREF BE ES   2    753 14.12                             111    -0.5 3  327 230 
 RREF BZ I         753 23.22        48.8 0.48                           327 230 
 DBB  SZ EP        752 39.17                             109    -0.5 6  346 274 
 TOL  SZ EP   1    752 40.57                             109     0.3 5  348 225 
 SDV  BZ EP        752 40.77                             109    -0.2 6  356  50 
 ANIL BZ EP   1    752 42.56                             109     0.8 5  362 225 
 ANIL BZ I         753 25.42        74.9 0.35                           362 225 
 PRA  HZ EP   1    752 45.35                             107     0.0 4  395 210 
 PRA  HN ES   2    753 27.67                             107     0.3 3  395 210 
 PRA  HZ I         753 31.67        32.3 0.47                           395 210 
                                                                                
