 2012  1 6 0913 55.4 L   6.567 -73.413116.0  RSN 15 0.3 2.2LRSN                1
 GAP= 70        0.71       2.1     2.9  4.3 -0.1482E+01  0.4395E+01  0.6471E+00E
 Epicentro: HATO - SANTANDER                                                   3
 ACTION:UP  12-02-03 08:14 OP:REBC STATUS:               ID:20120106091355 L   I
 2012-01-06-0910-00M.COL___186                                                 6
 STAT SP IPHASW D HRMM SECON CODA AMPLIT PERI AZIMU VELO SNR AR TRES W  DIS CAZ7
 BAR2 SZ EP        914 11.53                             167     0.010   26  84 
 BAR2 SZ ES   1    914 24.26                             167     0.2 7   26  84 
 BAR2 SZ I         914 25.56        64.9 0.19                            26  84 
 GIR2 SZ EP        914 12.86                             150    -0.110   62  23 
 GIR2 SZ ES   1    914 26.61                             150    -0.1 7   62  23 
 BRR  HZ EP        914 12.81                             147    -0.410   68 331 
 BRR  HN ES   1    914 27.46                             147     0.3 7   68 331 
 BRR  HZ I         914 28.08        46.5 0.17                            68 331 
 RUS  HZ EP   1    914 14.75                             142    -0.2 7   83 154 
 RUS  HN ES   1    914 30.17                             142    -0.1 7   83 154 
 RUS  HZ I         914 31.85        37.5 0.36                            83 154 
 PTB  HZ EP   2    914 16.71                             132    -0.3 5  115 269 
 PTB  HE ES   2    914 33.90                             132     0.0 5  115 269 
 PAM  SZ EP        914 17.54                             132    -0.210  116  43 
 PAM  SE ES   1    914 35.60                             132     0.5 7  116  43 
 OCA  SZ EP        914 23.92                             118    -0.3 9  185   3 
 OCA  SZ ES   1    914 47.18                             118     0.5 7  185   3 
 OCA  SZ I         914 51.88        27.4 0.40                           185   3 
 ZAR  HZ EP   1    914 24.02                             117    -0.5 7  190 303 
 ZAR  HN ES   1    914 47.47                             117     0.2 7  190 303 
 ZAR  HZ I         914 51.42        18.6 0.37                           190 303 
 NOR  SZ EP   1    914 24.99                             116    -0.2 6  196 236 
 NOR  SN ES   1    914 48.35                             116    -0.2 6  196 236 
 CHI  HZ EP        914 28.10                             114     0.0 8  217 189 
 CHI  HZ I         914 29.19        13.6 0.21                           217 189 
 CHI  HE ES   1    914 54.19                             114     0.6 6  217 189 
 HEL  HZ EP   1    914 30.40                             111     0.1 6  238 260 
 HEL  HE ES   2    914 57.52                             111    -0.1 4  238 260 
 HEL  HZ I         915  3.15        10.7 0.26                           238 260 
 GUY  SZ EP   1    914 34.32                             109     0.8 6  265 236 
 GUY  SN ES   2    915  3.13                             109    -0.2 4  265 236 
 GUY  SZ I         915 10.84        13.8 0.43                           265 236 
 RREF HZ EP   1    914 36.39                             107     0.6 6  283 229 
 RREF HN ES   2    915  7.33                             107     0.0 4  283 229 
 RREF HZ I         915 15.99         8.1 0.53                           283 229 
 PRA  HZ EP   1    914 43.27                             103    -0.4 5  355 207 
 COD  HZ EP   1    914 46.33                             102     0.7 5  373 359 
 COD  HE ES   1    915 25.21                             102     0.3 5  373 359 
                                                                                
