 2017  8 6 0313 42.3 L   6.811 -73.136150.7  RSN  6 0.4 1.2LRSN                1
 GAP=239        1.01       5.6     6.1  6.9  0.1426E+02  0.5732E+01 -0.1868E+01E
 Epicentro: LOS SANTOS - SANTANDER                                             3
 ACTION:UPD 17-09-04 20:16 OP:rebc STATUS:               ID:20170806031342 L   I
 OLDACT:UP  17-08-06 14:50 OP:osc  STATUS:               ID:20170806030741d    3
 OLDACT:DUP 17-08-06 14:40 OP:osc  STATUS:               ID:20170806030741d    3
 2017-08-06-0308-00M.COL___386                                                 6
 STAT SP IPHASW D HRMM SECON CODA AMPLIT PERI AZIMU VELO AIN AR TRES W  DIS CAZ7
 BAR2 EZ EP        314  2.49                             170   -0.0110 24.7 192 
 BAR2 EZ ES        314 17.70                             170   -0.6010 24.7 192 
 BRR  HZ EP        314  4.42                             153    0.4610 71.6 297 
 BRR  HE ES        314 21.58                             153    0.6910 71.6 297 
 RUS  HZ EP        314  6.74                             145    0.1710  102 177 
 RUS  HN ES        314 25.34                             145   -0.2010  102 177 
 RUS  HZ I         314 27.02         1.2 0.22            143            102 177 
 PTB  HZ EP        314  9.27                             133   -0.47 9  149 258 
 PTB  HE ES        314 31.01                             133   -0.17 9  149 258 
 PTB  HZ I         314 35.43         1.7 0.40            131            149 258 
 SPBC HZ EP        314 11.47                             130    0.19 9  165 219 
 SPBC HE ES        314 34.34                             130    0.42 9  165 219 
 SPBC HZ I         314 36.47         4.2 0.20            128            165 219 
 ZAR  HZ EP        314 14.76                             123   -0.32 9  205 292 
 ZAR  HN ES        314 40.35                             123   -0.33 9  205 292 
                                                                                
