 2012  6 6 0325 38.3 L   6.883 -73.405115.1  RSN  4 0.1 1.7LRSN                1
 GAP=139        0.39       2.0     2.6  4.6 -0.2080E+00  0.3180E+01 -0.2778E+01E
 Epicentro: SAN VICENTE DE CHUCURI - SANTANDER                                 3
 ACTION:UPD 12-08-06 17:47 OP:ep   STATUS:               ID:20120606032537 L   I
 2012-06-06-0320-00M.COL___201                                                 6
 STAT SP IPHASW D HRMM SECON CODA AMPLIT PERI AZIMU VELO AIN AR TRES W  DIS CAZ7
 BAR2 SZ EP        325 55.03                             159    0.1910 40.5 143 
 BAR2 SZ ES   1    326  7.80                             159    0.05 7 40.5 143 
 BAR2 SZ I         326  9.51        43.6 0.36            165           40.5 143 
 RUS  HZ EP   1    326  0.53                             132    0.08 7  115 162 
 RUS  HN ES   1    326 17.46                             132   -0.27 7  115 162 
 RUS  HZ I         326 18.70         3.2 0.19            138            115 162 
 PTB  HZ EP        326  0.49                             130    0.0210  122 252 
 PTB  HN ES   1    326 17.73                             130   -0.04 7  122 252 
 PTB  HZ I         326 22.47         3.6 0.10            132            122 252 
 OCA  HZ EP   1    326  3.19                             123   -0.21 7  150   4 
 OCA  HN ES   1    326 22.96                             123   -0.01 7  150   4 
 OCA  HZ I         326 24.40        20.7 0.18            128            150   4 
                                                                                
