 2015  1 6 0118 53.3 L   6.384 -73.748 95.0  RSN  4 0.3 1.2LRSN                1
 GAP=134        0.72       4.1     3.8  8.3  0.8273E+01 -0.9542E+01 -0.1839E+02E
 Epicentro: SANTA HELENA DEL OPON - SANTANDER                                  3
 ACTION:UPD 15-03-02 15:37 OP:nd   STATUS:               ID:20150106011853 L   I
 OLDACT:REG 15-01-06 13:44 OP:cam  STATUS:               ID:20150106011814     3
 2015-01-06-0118-14M.COL___274                                                 6
 STAT SP IPHASW D HRMM SECON CODA AMPLIT PERI AZIMU VELO AIN AR TRES W  DIS CAZ7
 PTB  HZ EP        119  9.93                             137   -0.0710 80.2 282 
 PTB  HN ES        119 22.90                             137   -0.1510 80.2 282 
 PTB  HZ I         119 25.02         3.2 0.18             47           80.2 282 
 SPBC HZ EP        119 11.22                             134    0.3910 88.6 204 
 SPBC HZ I         119 28.64         5.4 0.22             47           88.6 204 
 RUS  HZ EP        119 11.18                             133   -0.4510 91.5 126 
 RUS  HN ES        119 26.13                             133    0.1810 91.5 126 
 SML  HZ EP        119 30.58                             105   -0.12 8  270 352 
 SML  HN ES        120  0.21                             105    0.31 8  270 352 
                                                                                
