 2016  1 6 0241 19.8 L   6.009 -73.692111.6  RSN  8 0.4 1.3LRSN                1
 GAP= 81        0.98       3.0     3.2  6.5 -0.2069E+01  0.4748E+01  0.1897E+01E
 Epicentro: VELEZ - SANTANDER                                                  3
 ACTION:UPD 16-03-09 23:23 OP:cam  STATUS:               ID:20160106024119 L   I
 OLDACT:REG 16-01-06 12:14 OP:drio STATUS:               ID:20160106023744     3
 2016-01-06-0237-44M.COL___277                                                 6
 STAT SP IPHASW D HRMM SECON CODA AMPLIT PERI AZIMU VELO AIN AR TRES W  DIS CAZ7
 SPBC HZ EP        241 36.38                             151   -0.2110 57.7 227 
 SPBC HN ES        241 49.39                             151   -0.3310 57.7 227 
 SPBC HZ I         241 56.56         7.1 0.24            153           57.7 227 
 RUS  HZ EP        241 37.84                             146   -0.0110 68.6 101 
 RUS  HN ES        241 51.68                             146   -0.2910 68.6 101 
 RUS  HZ I         241 53.88         4.1 0.36            153           68.6 101 
 BAR2 EZ EP        241 38.89                             140    0.1510 85.6  41 
 BAR2 EZ ES        241 53.87                             140    0.3210 85.6  41 
 BAR2 EZ I         241 55.49        14.7 0.42            148           85.6  41 
 PTB  HZ EP        241 39.13                             134   -0.7410  103 305 
 PTB  HN ES        241 55.54                             134   -0.0310  103 305 
 PTB  HZ I         242  0.64         2.2 0.16            139            103 305 
 BRR  HZ EP        241 41.54                             129   -0.0010  121 359 
 BRR  HE ES        241 58.99                             129    0.4510  121 359 
 NOR  HZ EP        241 43.19                             125   -0.19 9  139 249 
 NOR  HE ES        242  1.80                             125   -0.01 9  139 249 
 NOR  HZ I         242  3.58         8.6 0.20            130            139 249 
 CHI  HZ EP        241 44.73                             122   -0.47 9  153 182 
 CHI  HN ES        242  5.74                             122    0.69 9  153 182 
 CHI  HZ I         242  8.61         1.2 0.26            128            153 182 
 GUY2CHZ EP        241 51.34                             114    0.45 9  205 245 
 GUY2CHE ES        242 15.72                             114    0.54 9  205 245 
 GUY2CHZ I         242 19.24         2.3 0.42                           205 245 
                                                                                
