 2017  3 6 0116 40.6 L   6.336 -73.687108.0  RSN  5 0.4 1.0LRSN                1
 GAP=159        0.53       4.3     4.4  6.7  0.1087E+02  0.1229E+02  0.6872E+01E
 Epicentro: SANTA HELENA DEL OPON - SANTANDER                                  3
 ACTION:UPD 17-05-25 18:36 OP:jn   STATUS:               ID:20170306011640 L   I
 OLDACT:UP  17-03-06 12:56 OP:and  STATUS:               ID:20170306010743     3
 OLDACT:UP  17-03-06 12:55 OP:and  STATUS:               ID:20170306010743     3
 OLDACT:UP  17-03-06 12:55 OP:and  STATUS:               ID:20170306010743     3
 OLDACT:REG 17-03-06 12:07 OP:and  STATUS:               ID:20170306010743     3
 2017-03-06-0108-00M.COL___387                                                 3
 2017-03-06-0108-00M.COL___393                                                 6
 STAT SP IPHASW D HRMM SECON CODA AMPLIT PERI AZIMU VELO AIN AR TRES W  DIS CAZ7
 BAR2 EZ EP        116 57.82                             148    0.2110 62.7  63 
 BAR2 EZ ES        117 10.95                             148    0.0910 62.7  63 
 BAR2 EZ I         117 12.00         7.2 0.16            152           62.7  63 
 RUS  HZ EP        116 59.24                             140   -0.1910 82.9 126 
 RUS  HN ES        117 14.13                             140    0.0410 82.9 126 
 RUS  HZ I         117 16.08         0.7 0.53            143           82.9 126 
 BRR  HZ EP   2    116 58.54                             139   -0.40 5 85.4 358 
 BRR  HN ES   2    117 12.62                             139   -0.60 5 85.4 358 
 PTB  HZ EP   3    116 58.34                             138   -0.84 2 88.0 285 
 PTB  HN ES   2    117 13.83                             138    0.19 5 88.0 285 
 ZAR  HZ EP   3    117  9.43                             116    0.95 2  182 315 
 ZAR  HE ES   2    117 30.52                             116    0.32 4  182 315 
 ZAR  HZ I         117 33.11         1.8 0.27            117            182 315 
                                                                                
