 2013  9 6 0055 32.5 L   6.796 -73.135149.9  RSN 10 0.3 2.0LRSN                1
 GAP=138        0.82       2.6     3.9  4.7  0.4412E+00  0.4339E+01  0.8313E+00E
 Epicentro: LOS SANTOS - SANTANDER                                             3
 ACTION:UPD 13-10-22 09:20 OP:ep   STATUS:               ID:20130906005532 L   I
 OLDACT:UP  13-09-06 08:46 OP:cam  STATUS:               ID:20130906004959     3
 OLDACT:REG 13-09-06 07:49 OP:cam  STATUS:               ID:20130906004959     3
 2013-09-06-0049-59M.COL___269                                                 6
 STAT SP IPHASW D HRMM SECON CODA AMPLIT PERI AZIMU VELO AIN AR TRES W  DIS CAZ7
 BAR2 SZ EP        055 52.53                             171   -0.1310 23.1 193 
 BAR2 SZ ES        056  8.21                             171   -0.1510 23.1 193 
 BAR2 SZ I         056  9.67        18.6 0.18            170           23.1 193 
 BRR  HZ EP        055 54.40                             153    0.2010 72.5 298 
 BRR  HN ES        056 11.88                             153    0.7810 72.5 298 
 BRR  HZ I         056 13.09        13.0 0.12            152           72.5 298 
 PAM  SZ EP   1    055 55.38                             152    0.21 7 77.0  39 
 PAM  SN ES        056 12.74                             152   -0.0810 77.0  39 
 PAM  SZ I         056 16.56         9.4 0.46            154           77.0  39 
 RUS  HZ EP        055 56.43                             145   -0.2310  100 177 
 RUS  HN ES        056 15.29                             145   -0.1810  100 177 
 RUS  HZ I         056 16.64        10.9 0.38            145            100 177 
 PTB  HZ EP        055 59.51                             133   -0.43 9  149 259 
 PTB  HN ES        056 20.76                             133   -0.56 9  149 259 
 PTB  HZ I         056 22.11        14.4 0.14            132            149 259 
 SPBC HZ EP        056  1.58                             130    0.19 9  164 219 
 SPBC HE ES   1    056 24.32                             130    0.42 7  164 219 
 SPBC HZ I         056 28.49        16.3 0.20            130            164 219 
 ZAR  HN ES   1    056 30.74                             123   -0.26 6  205 292 
 ZAR  HZ I         056 37.20        18.3 0.26            123            205 292 
 SML  HZ EP        056  9.56                             118    0.07 8  245 335 
 SML  HN ES        056 38.03                             118   -0.29 8  245 335 
 SML  HZ I         056 43.16        15.5 0.10            119            245 335 
 CHI  HZ EP        056 10.73                             118    0.28 8  249 195 
 CHI  HN ES        056 40.11                             118    0.08 8  249 195 
 CHI  HZ I         056 49.62         4.7 0.74            118            249 195 
 HEL  HZ EP   1    056 13.67                             115    0.60 6  273 256 
 GUY2CHZ EP   4    056 17.81                             113    1.40 0  302 235 
 SJC  HZ EP   4    056 26.72                             106   -1.63 0  410 327 
                                                                                
