 2015  4 6 0337 27.2 L   6.768 -73.138142.0  RSN  8 0.5 1.3LRSN                1
 GAP=157        1.16       5.1     5.5  9.4 -0.1261E+02  0.3789E+00  0.1525E+02E
 Epicentro: LOS SANTOS - SANTANDER                                             3
 ACTION:UPD 15-06-03 16:53 OP:cam  STATUS:               ID:20150406033727 L   I
 OLDACT:UP  15-04-06 16:08 OP:mh   STATUS:               ID:20150406032749     3
 OLDACT:UP  15-04-06 16:08 OP:mh   STATUS:               ID:20150406032749     3
 OLDACT:UP  15-04-06 16:08 OP:mh   STATUS:               ID:20150406032749     3
 OLDACT:REG 15-04-06 12:49 OP:mher STATUS:               ID:20150406032749     3
 2015-04-06-0327-49M.COL___261                                                 6
 STAT SP IPHASW D HRMM SECON CODA AMPLIT PERI AZIMU VELO AIN AR TRES W  DIS CAZ7
 BAR2 EZ EP        337 45.55                             172   -0.7210 20.0 194 
 BAR2 EZ I         338  4.34         5.4 0.56            169           20.0 194 
 BRR  HZ EP        337 48.50                             151    0.4510 73.7 301 
 BRR  HN ES        338  5.31                             151    0.9710 73.7 301 
 BRR  HZ I         338  8.47         2.3 0.11            155           73.7 301 
 PAM  SZ EP        337 49.42                             149    0.3110 79.6  37 
 PAM  SN ES        338  5.93                             149   -0.3010 79.6  37 
 PAM  SZ I         338  8.99         2.3 0.38            153           79.6  37 
 PTB  HZ EP        337 54.04                             131    0.20 9  148 260 
 PTB  HN ES        338 14.05                             131   -0.60 9  148 260 
 PTB  HZ I         338 21.67         3.2 0.40            133            148 260 
 SPBC HZ EP        337 55.31                             129    0.15 9  161 220 
 SPBC HE ES        338 17.09                             129    0.09 9  161 220 
 OCA  HZ EP   1    337 55.63                             128    0.10 7  164 353 
 OCA  HN ES        338 17.23                             128   -0.42 9  164 353 
 ZAR  HN ES        338 24.57                             121   -0.31 8  206 293 
 ZAR  HZ I         338 31.76         1.9 0.22            124            206 293 
 NOR  HZ EP        338  2.79                             118    0.26 8  233 235 
 NOR  HN ES        338 29.78                             118   -0.33 8  233 235 
 NOR  HZ I         338 35.33         1.4 0.16            120            233 235 
                                                                                
