 2014  8 6 0705 41.4 L   6.840 -73.167137.0  RSN  7 0.4 1.2LRSN                1
 GAP=132        0.94       4.0     5.8  8.5 -0.7551E+01  0.1868E+02  0.9565E+00E
 Epicentro: ZAPATOCA - SANTANDER                                               3
 ACTION:UPD 14-09-15 21:47 OP:nd   STATUS:               ID:20140806070541 L   I
 OLDACT:REG 14-08-06 13:26 OP:spq  STATUS:               ID:20140806065815     3
 2014-08-06-0658-15M.COL___254                                                 6
 STAT SP IPHASW D HRMM SECON CODA AMPLIT PERI AZIMU VELO AIN AR TRES W  DIS CAZ7
 BAR2 SZ ES   1    7 6 14.48                             168   -0.18 7 27.4 184 
 BAR2 SZ I         7 6 18.64         2.9 0.24            169           27.4 184 
 BRR  HZ EP        7 6  2.21                             152    0.8210 67.1 296 
 BRR  HN ES        7 6 17.31                             152    0.3410 67.1 296 
 BRR  HZ I         7 6 23.89         4.6 0.48            150           67.1 296 
 PAM  SN ES        7 6 19.12                             150   -0.0110 75.7  43 
 PAM  SZ I         7 6 21.51         4.4 0.18            155           75.7  43 
 RUS  HE ES   1    7 6 22.75                             141   -0.06 7  105 175 
 PTB  HZ EP        7 6  7.22                             130   -0.34 9  146 257 
 PTB  HN ES        7 6 27.80                             130   -0.15 9  146 257 
 PTB  HZ I         7 6 32.80         2.2 0.27            132            146 257 
 OCA  HN ES        7 6 29.31                             128   -0.53 9  156 354 
 OCA  HZ I         7 6 38.16         2.3 0.22            131            156 354 
 SPBC HZ EP   1    7 6  9.58                             127    0.12 7  165 217 
 SPBC HE ES        7 6 31.09                             127   -0.23 9  165 217 
 SPBC HZ I         7 6 40.12         1.7 0.25            130            165 217 
                                                                                
