 2016  2 6 0023 43.8 L   6.758 -73.155143.6  RSN  7 0.5 1.5LRSN                1
 GAP=137        0.82       5.6     6.0  9.0 -0.3636E+01  0.2603E+02  0.2385E+01E
 Epicentro: LOS SANTOS - SANTANDER                                             3
 ACTION:UPD 16-03-04 21:23 OP:rebc STATUS:               ID:20160206002343 L   I
 OLDACT:REG 16-02-06 13:01 OP:dnl  STATUS:               ID:20160206001750     3
 2016-02-06-0017-50M.COL___331                                                 6
 STAT SP IPHASW D HRMM SECON CODA AMPLIT PERI AZIMU VELO AIN AR TRES W  DIS CAZ7
 BAR2 EZ EP   2    024  3.07                             172   -0.03 5 18.6 189 
 BAR2 EZ ES        024 18.01                             172   -0.1310 18.6 189 
 BAR2 EZ I         024 21.72         6.3 0.27            169           18.6 189 
 PAM  EZ EP   2    024  6.11                             149    0.05 5 81.6  38 
 PAM  EN ES   2    024 22.56                             149   -0.85 5 81.6  38 
 PAM  EZ I         024 25.65         3.5 0.20            153           81.6  38 
 RUS  HZ EP   2    024  7.39                             144    0.36 5 96.1 175 
 RUS  HE ES        024 25.63                             144    0.4910 96.1 175 
 RUS  HZ I         024 27.19         2.3 0.21            145           96.1 175 
 PTB  HZ EP   2    024 10.33                             132   -0.12 5  146 261 
 PTB  HN ES   2    024 31.45                             132    0.24 5  146 261 
 PTB  HZ I         024 36.71         4.7 0.26            130            146 261 
 ZAR  HN ES   2    024 42.47                             122    0.99 4  205 293 
 ZAR  HZ I         024 48.50         6.2 0.24            121            205 293 
 NOR  HN ES        024 45.75                             118   -0.78 8  231 235 
 NOR  HZ I         024 51.71         3.1 0.20            118            231 235 
 CHI  HZ EP   2    024 21.18                             117    0.29 4  244 195 
 CHI  HE ES   2    024 49.86                             117    0.07 4  244 195 
 CHI  HZ I         024 59.11         1.4 0.40            117            244 195 
                                                                                
