 2010  7 6 0031 11.4 L   6.795 -73.108142.9  RSN  9 0.3 2.0LRSN                1
 GAP=160        0.48       2.4     4.5  4.7 -0.3474E+01  0.3641E+01  0.1414E+01E
 Epicentro: LOS SANTOS - SANTANDER                                             3
 ACTION:UPD 10-12-01 15:15 OP:pat  STATUS:               ID:20100706003111 L   I
 2010-07-06-0028-08S.COL___117                                                 6
 STAT SP IPHASW D HRMM SECON CODA AMPLIT PERI AZIMU VELO AIN AR TRES W  DIS CAZ7
 BAR2 SZ EP   1    031 30.62                             170    -0.1 7   24 200 
 BAR2 SZ ES   2    031 45.31                             170    -0.5 5   24 200 
 BRR  HZ EP   1    031 32.45                             151     0.0 7   75 297 
 BRR  HE ES   2    031 49.33                             151     0.4 5   75 297 
 BRR  HZ I         031 52.70        18.6 0.31                            75 297 
 RUS  HZ EP   1    031 34.64                             143    -0.2 7  100 178 
 RUS  HE ES   2    031 53.34                             143     0.2 5  100 178 
 RUS  HZ I         031 54.99        10.0 0.26                           100 178 
 BRI  SZ EP   1    031 35.11                             141     0.1 7  108  19 
 BRI  SZ ES   2    031 53.81                             141     0.5 5  108  19 
 GRA  SZ EP   1    031 36.38                             136     0.0 7  125  16 
 GRA  SZ ES   2    031 55.59                             136    -0.2 5  125  16 
 OCA  SZ EP   1    031 39.40                             129    -0.2 7  161 352 
 OCA  SZ ES   2    032  1.45                             129    -0.1 5  161 352 
 OCA  SZ I         032  8.90        12.9 0.50                           161 352 
 CHI  HZ EP   1    031 49.33                             116     0.3 6  249 196 
 CHI  HN ES   2    032 18.56                             116     0.2 4  249 196 
 CHI  HZ I         032 22.20         8.3 0.51                           249 196 
 HEL  HZ EP   1    031 52.29                             114     0.4 6  276 256 
 HEL  HN ES   2    032 23.08                             114    -0.4 4  276 256 
 HEL  HZ I         032 30.06         6.4 0.87                           276 256 
 PRA  HZ EP   1    032  4.71                             106    -0.3 4  394 210 
                                                                                
