 2016  4 6 0648 53.4 L   5.839 -73.685127.6  RSN 10 0.4 1.6LRSN                1
 GAP= 97        0.83       3.1     3.0  5.5 -0.2002E+01  0.3320E+01 -0.3169E+01E
 Epicentro: PUENTE NACIONAL - SANTANDER                                        3
 ACTION:UPD 16-05-05 14:19 OP:rebc STATUS:               ID:20160406064853 L   I
 OLDACT:REG 16-04-06 12:26 OP:mh   STATUS:               ID:20160406064747     3
 2016-04-06-0647-47M.COL___273                                                 6
 STAT SP IPHASW D HRMM SECON CODA AMPLIT PERI AZIMU VELO AIN AR TRES W  DIS CAZ7
 SPBC HZ EP        649 11.65                             158    0.2010 47.6 244 
 SPBC HN ES        649 25.18                             158   -0.3610 47.6 244 
 SPBC HZ I         649 31.01        13.3 0.09            161           47.6 244 
 RUS  HZ EP        649 13.37                             151    0.3210 67.0  85 
 RUS  HN ES        649 28.33                             151   -0.0610 67.0  85 
 RUS  HZ I         649 31.74         5.2 0.36            154           67.0  85 
 BAR2 EZ EP        649 15.56                             139    0.5410  100  34 
 BAR2 EZ ES        649 31.98                             139    0.1010  100  34 
 PTB  HZ EP        649 15.52                             135   -0.4310  115 312 
 PTB  HN ES        649 33.63                             135    0.0810  115 312 
 PTB  HZ I         649 37.70         6.5 0.12            138            115 312 
 CHI  HZ EP   2    649 17.44                             131   -0.72 5  134 182 
 CHI  HN ES        649 37.06                             131   -0.4110  134 182 
 CHI  HZ I         649 40.82         2.7 0.19            136            134 182 
 NOR  HZ EP        649 17.94                             130    0.2010  135 257 
 NOR  HN ES        649 37.19                             130    0.4510  135 257 
 NOR  HZ I         649 39.27        14.8 0.14            134            135 257 
 GUY2CHZ EP   2    649 24.74                             119    0.05 4  198 250 
 GUY2CHN ES   2    649 49.29                             119    0.19 4  198 250 
 GUY2CHZ I         649 56.72         2.2 0.40                           198 250 
 PAM  EZ EP   2    649 25.11                             119    0.36 4  199  33 
 PAM  EN ES   2    649 48.33                             119   -0.88 4  199  33 
 PAM  EZ I         649 54.87         1.4 0.22            123            199  33 
 ZAR  HZ EP        649 26.50                             115   -0.41 8  224 325 
 ZAR  HE ES   2    649 52.42                             115   -0.63 4  224 325 
 ZAR  HZ I         649 58.91         5.8 0.25            119            224 325 
 URE  HZ EP   4    649 38.73                             109    3.92 0  294 316 
 URE  HN ES   4    650  4.84                             109   -2.28 0  294 316 
 URE  HZ I         650  6.92         4.0 0.12            112            294 316 
                                                                                
