 2016  5 6 0805 34.5 L   6.768 -73.163149.4  RSN 10 0.4 1.9LRSN                1
 GAP=136        1.09       3.3     4.6  6.2 -0.1679E+01  0.6136E+01 -0.1422E+01E
 Epicentro: LOS SANTOS - SANTANDER                                             3
 ACTION:UPD 16-08-18 17:42 OP:cam  STATUS:               ID:20160506080534 L   I
 OLDACT:DUP 16-05-06 18:17 OP:ak   STATUS:               ID:20160506075749d    3
 OLDACT:REG 16-05-06 13:57 OP:ak   STATUS:               ID:20160506075747     3
 2016-05-06-0757-47M.COL___283                                                 6
 STAT SP IPHASW D HRMM SECON CODA AMPLIT PERI AZIMU VELO AIN AR TRES W  DIS CAZ7
 BAR2 EZ EP        8 5 54.61                             172    0.1210 19.6 186 
 BAR2 EZ ES        8 6 10.08                             172   -0.0110 19.6 186 
 BAR2 EZ I         8 6 11.49        16.3 0.38            174           19.6 186 
 BRR  HZ IP     C  8 5 56.61                             153    0.5710 71.3 302 
 BRR  HN ES        8 6 13.63                             153    0.7810 71.3 302 
 BRR  HZ I         8 6 17.37        10.2 0.14            152           71.3 302 
 PAM  EZ EP        8 5 57.71                             150    0.3810 81.3  39 
 PAM  EN ES        8 6 14.81                             150   -0.3310 81.3  39 
 PAM  EZ I         8 6 17.12        11.6 0.48            152           81.3  39 
 RUS  HZ EP        8 5 58.26                             145   -0.1110 97.2 175 
 RUS  HN ES        8 6 16.77                             145   -0.2210 97.2 175 
 PTB  HZ EP        8 6  1.48                             133   -0.06 9  145 260 
 PTB  HN ES        8 6 21.73                             133   -0.89 9  145 260 
 PTB  HZ I         8 6 26.33         8.6 0.14            134            145 260 
 SPBC HZ EP        8 6  3.42                             130    0.51 9  159 219 
 SPBC HN ES        8 6 24.99                             130   -0.07 9  159 219 
 OCA  HZ EP        8 6  3.05                             130   -0.35 9  164 354 
 OCA  HN ES        8 6 25.45                             130   -0.49 9  164 354 
 OCA  HZ I         8 6 30.23        14.4 0.28            131            164 354 
 ZAR  HZ EP        8 6  7.48                             123    0.34 9  204 293 
 ZAR  HN ES        8 6 32.78                             123    0.18 9  204 293 
 ZAR  HZ I         8 6 35.46         8.1 0.06            124            204 293 
 CHI  HN ES        8 6 41.01                             118   -0.20 8  245 195 
 SJC  HZ EP        8 6 29.54                             106   -0.87 6  411 327 
 SJC  HE ES   4    8 7 12.56                             106   -1.45 0  411 327 
 SJC  HZ I         8 7 15.13         1.3 0.22            107            411 327 
                                                                                
