 2012  1 6 0542 41.2 L   6.774 -73.126144.1  RSN 10 0.3 1.7LRSN                1
 GAP=140        0.49       2.7     3.8  4.5 -0.1573E+01  0.3684E+01  0.3576E+01E
 Epicentro: LOS SANTOS - SANTANDER                                             3
 ACTION:UP  12-02-03 08:14 OP:REBC STATUS:               ID:20120106054241 L   I
 2012-01-06-0540-00M.COL___186                                                 6
 STAT SP IPHASW D HRMM SECON CODA AMPLIT PERI AZIMU VELO SNR AR TRES W  DIS CAZ7
 BAR2 SZ EP   1    543  0.49                             171    -0.1 7   21 197 
 BAR2 SZ ES   2    543 15.46                             171    -0.2 5   21 197 
 BAR2 SZ I         543 17.16        14.4 0.38                            21 197 
 GIR2 SZ EP   1    543  0.40                             166    -0.3 7   34 348 
 GIR2 SZ ES   2    543 16.29                             166     0.3 5   34 348 
 BRR  HZ EP        543  2.35                             151     0.010   74 300 
 BRR  HZ I         543  2.48        19.3 0.17                            74 300 
 BRR  HN ES   2    543 19.43                             151     0.6 5   74 300 
 PAM  SZ EP   1    543  3.33                             150     0.1 7   78  37 
 PAM  SN ES   2    543 20.19                             150    -0.3 5   78  37 
 RUS  HZ EP   2    543  4.58                             144     0.0 5   98 177 
 RUS  HN ES   2    543 23.03                             144     0.3 5   98 177 
 RUS  HZ I         543 24.18         4.8 0.27                            98 177 
 PTB  HZ EP   2    543  7.94                             131    -0.2 5  149 260 
 PTB  HN ES   2    543 28.73                             131    -0.5 5  149 260 
 PTB  HZ I         543 35.65         0.0 0.40                           149 260 
 OCA  SZ EP   2    543 10.04                             129     0.4 5  163 353 
 OCA  SZ I         543 29.81         9.4 0.43                           163 353 
 ZAR  HZ EP   2    543 13.99                             122     0.2 4  207 293 
 ZAR  HN ES   2    543 39.13                             122    -0.2 4  207 293 
 ZAR  HZ I         543 45.42         5.3 0.33                           207 293 
 CHI  HZ EP   2    543 18.12                             117    -0.4 4  246 196 
 CHI  HN ES   2    543 47.78                             117     0.1 4  246 196 
 CHI  HZ I         544  0.87         1.7 0.58                           246 196 
 PRA  HZ EP        543 34.77                             106     0.3 6  391 210 
 PRA  HN ES        544 16.13                             106     0.1 6  391 210 
                                                                                
