 2015  3 6 0427  0.8 L   5.939 -73.809109.7  RSN  6 0.4 0.7LRSN                1
 GAP= 90        0.85       4.1     4.6  8.0  0.1093E+00  0.4739E+00 -0.5696E+01E
 Epicentro: SUCRE - SANTANDER                                                  3
 ACTION:UPD 15-04-30 16:23 OP:nd   STATUS:               ID:20150306042700 L   I
 OLDACT:DUP 15-03-06 13:40 OP:spq  STATUS:               ID:20150306041750d    3
 2015-03-06-0417-49M.COL___281                                                 6
 STAT SP IPHASW D HRMM SECON CODA AMPLIT PERI AZIMU VELO AIN AR TRES W  DIS CAZ7
 SPBC HZ EP        427 16.80                             157    0.2110 43.1 223 
 SPBC HN ES        427 29.40                             157    0.4510 43.1 223 
 SPBC HZ I         427 30.45         2.3 0.20            157           43.1 223 
 RUS  HZ EP   1    427 19.26                             142   -0.26 7 80.5  94 
 RUS  HN ES   1    427 33.85                             142   -0.31 7 80.5  94 
 RUS  HZ I         427 35.35         0.7 0.36            143           80.5  94 
 PTB  HZ EP        427 20.25                             135   -0.0110 97.7 313 
 PTB  HN ES   1    427 34.65                             135   -0.83 7 97.7 313 
 PTB  HZ I         427 37.22         1.3 0.44            137           97.7 313 
 BAR2 EZ ES   1    427 36.58                             135    0.19 7  100  44 
 BRR  HZ EP   1    427 23.63                             126    0.43 7  130   5 
 CHI  HZ EP   2    427 25.57                             123    0.27 5  145 177 
 CHI  HN ES   1    427 43.94                             123   -0.51 7  145 177 
 CHI  HZ I         427 46.60         0.7 0.18            124            145 177 
                                                                                
