 2016 10 6 0826 40.5 L   6.533 -73.519115.3  RSN 22 0.4 2.2LRSN                1
 GAP= 53        0.97       2.2     2.9  4.6 -0.1274E+01  0.3521E+01  0.9563E+00E
 Epicentro: EL CARMEN - SANTANDER                                              3
 ACTION:UPD 16-11-09 19:16 OP:rebc STATUS:               ID:20161006082640 L   I
 OLDACT:UP  16-10-06 14:54 OP:dani STATUS:               ID:20161006081743d    3
 OLDACT:UP  16-10-06 14:54 OP:dani STATUS:               ID:20161006081743d    3
 OLDACT:UP  16-10-06 14:53 OP:dani STATUS:               ID:20161006081743d    3
 OLDACT:UP  16-10-06 14:52 OP:dani STATUS:               ID:20161006081743d    3
 OLDACT:DUP 16-10-06 14:42 OP:dani STATUS:               ID:20161006081743d    3
 2016-10-06-0818-00M.COL___354                                                 6
 STAT SP IPHASW D HRMM SECON CODA AMPLIT PERI AZIMU VELO AIN AR TRES W  DIS CAZ7
 BAR2 EZ IP     C  826 57.23                             160    0.3010 37.8  80 
 BAR2 HN ES        827 10.11                             160    0.3510 37.8  80 
 BRR  HZ EP     C  826 58.05                             148   -0.0910 67.0 341 
 BRR  HE ES        827 12.14                             148    0.2310 67.0 341 
 BRR  HZ I         827 21.78        35.6 0.64            131           67.0 341 
 RUS  HZ EP        827  0.16                             141   -0.0110 85.7 146 
 RUS  HE ES        827 15.20                             141   -0.3310 85.7 146 
 RUS  HZ I         827 17.20        31.3 0.40            127           85.7 146 
 PTB  HZ IP     D  827  0.04                             135   -0.9310  104 270 
 PTB  HN ES   4    827 14.94                             135   -2.02 0  104 270 
 PTB  HZ I         827 16.06        39.7 0.40            119            104 270 
 SPBC HZ EP     D  827  2.05                             132   -0.0310  115 212 
 SPBC HN ES        827 18.78                             132   -0.1610  115 212 
 SPBC HZ I         827 23.41        38.6 0.48            117            115 212 
 PAM  EZ EP        827  3.94                             129    0.1910  127  45 
 PAM  EN ES        827 22.07                             129    0.1710  127  45 
 PAM  EZ I         827 26.45        16.5 0.38            114            127  45 
 ZAR  HZ EP        827  9.00                             118    0.28 9  182 306 
 ZAR  HE ES   4    827 32.24                             118    1.48 0  182 306 
 ZAR  HZ I         827 34.26        26.5 0.32            105            182 306 
 NOR  HZ EP        827  8.81                             118   -0.17 9  184 234 
 NOR  HN ES        827 30.89                             118   -0.33 9  184 234 
 NOR  HZ I         827 33.81        19.4 0.18            105            184 234 
 OCA  HZ EP     C  827  9.43                             117   -0.34 9  190   7 
 OCA  HN ES        827 32.51                             117   -0.11 9  190   7 
 TAM  HZ EP        827 10.05                             116    0.26 9  191  93 
 TAM  HZ I         827 36.71        15.0 0.26            105            191  93 
 ROSC BZ EP   4    827 13.94                             115    1.97 0  207 205 
 ROSC BN ES   4    827 40.67                             115    4.14 0  207 205 
 ROSC BZ I         827 43.91        14.7 0.57            104            207 205 
 CHI  HZ EP        827 13.07                             114    0.56 8  212 186 
 CHI  HE ES        827 37.75                             114    0.25 8  212 186 
 CHI  HZ I         827 47.93         8.3 0.36            103            212 186 
 HEL  HZ EP        827 14.80                             112    0.81 8  226 260 
 HEL  HN ES   4    827 38.45                             112   -1.69 0  226 260 
 HEL  HZ I         827 43.03         9.1 0.44            102            226 260 
 GUY2CHZ EP   4    827 18.05                             110    1.09 0  250 235 
 GUY2CHN ES   4    827 48.45                             110    3.03 0  250 235 
 GUY2CHZ I         827 55.23         9.5 0.34                           250 235 
 URE  HZ EP        827 17.36                             109   -0.13 8  260 301 
 URE  HN ES   4    827 44.61                             109   -1.75 0  260 301 
 URE  HZ I         827 53.94        15.5 0.35            100            260 301 
 ELA  HZ EP   4    827 22.22                             107    1.94 0  279 229 
 ELA  HN ES        827 50.81                             107   -0.52 7  279 229 
 ELA  HZ I         828  4.76         6.7 0.52             99            279 229 
 CBOC HZ EP   4    827 22.65                             107    1.99 0  286 255 
 CBOC HZ I         827 56.32         5.6 0.29             99            286 255 
 PTGC HZ EP        827 21.58                             106   -0.59 7  300 149 
 PTGC HE ES        827 54.03                             106   -0.66 7  300 149 
 PTGC HZ I         827 56.86         7.6 0.58             98            300 149 
 PRA  HZ EP        827 27.84                             103    0.15 6  347 206 
 PRA  HN ES        828  5.46                             103    0.94 6  347 206 
 PRA  HZ I         828  8.69        12.8 0.26             97            347 206 
 PAL  HZ EP        827 29.20                             102    0.46 6  355 240 
 PAL  HZ I         828 10.63         6.6 0.24             97            355 240 
 SJC  HZ EP   9    827 34.26                             100   -1.58 0  415 334 
 SJC  HE ES        828 16.89                              99   -0.56 6  415 334 
 SJC  HZ I         828 20.26         4.0 0.29             96            415 334 
 CRJC HZ EP        827 45.69                              97   -0.65 4  501   8 
 CRJC HZ I         828 40.54         7.0 0.44             94            501   8 
                                                                                
