 2017  2 6 0617 54.7 L   6.767 -73.116139.8  RSN  5 0.4 1.4LRSN                1
 GAP=238        1.05       9.5     9.8  7.7  0.7113E+02 -0.1561E+02 -0.2337E+02E
 Epicentro: LOS SANTOS - SANTANDER                                             3
 ACTION:UPD 17-05-24 15:33 OP:jn   STATUS:               ID:20170206061754 L   I
 OLDACT:UP  17-04-03 15:00 OP:nlst STATUS:               ID:20170206061754 L   3
 OLDACT:UP  17-02-06 18:39 OP:edw  STATUS:               ID:20170206060746     3
 OLDACT:UP  17-02-06 18:39 OP:edw  STATUS:               ID:20170206060746     3
 OLDACT:UP  17-02-06 18:38 OP:edw  STATUS:               ID:20170206060746     3
 OLDACT:REG 17-02-06 11:59 OP:edw  STATUS:               ID:20170206060746     3
 2017-02-06-0608-00M.COL___325                                                 6
 STAT SP IPHASW D HRMM SECON CODA AMPLIT PERI AZIMU VELO AIN AR TRES W  DIS CAZ7
 BAR2 EZ IP     D  618 13.13                             172   -0.4210 20.7 201 
 BAR2 EZ ES        618 28.36                             172    0.1010 20.7 201 
 BAR2 EZ I         618 28.73         7.5 0.26            168           20.7 201 
 BRR  HZ EP        618 15.08                             150   -0.4010 75.8 300 
 BRR  HZ IP        618 15.09                             150           75.8 300 
 BRR  HN ES        618 32.09                             150    0.4110 75.8 300 
 RUS  HZ EP        618 17.64                             144    0.0610 96.8 178 
 RUS  HN ES        618 35.53                             144    0.1010 96.8 178 
 RUS  HZ I         618 36.42         2.1 0.18            142           96.8 178 
 PTB  HZ EP   9    618 19.70                             130   -1.72 0  150 260 
 PTB  HN ES        618 40.18                             133   -0.36 9  150 260 
 PTB  HZ I         618 43.56         4.2 0.12            129            150 260 
 ZAR  HZ EP        618 28.05                             121    0.83 8  208 293 
 ZAR  HN ES        618 51.99                             121   -0.60 8  208 293 
 ZAR  HZ I         618 54.38         3.0 0.14            120            208 293 
                                                                                
