 2012 11 6 0516 25.3 L   6.781 -73.126144.6  RSN  6 0.2 1.7LRSN                1
 GAP=103        0.46       3.2     4.5  4.5  0.6882E+01 -0.1237E+02 -0.5891E+01E
 Epicentro: LOS SANTOS - SANTANDER                                             3
 ACTION:UPD 12-12-05 15:31 OP:}ep  STATUS:               ID:20121106051625 L   I
 2012-11-06-0510-00M.COL___230                                                 6
 STAT SP IPHASW D HRMM SECON CODA AMPLIT PERI AZIMU VELO AIN AR TRES W  DIS CAZ7
 BAR2 SZ EP        516 44.62                             171   -0.1710 21.7 197 
 BAR2 SZ ES        516 59.92                             171   -0.0510 21.7 197 
 BAR2 SZ I         517  1.08         9.7 0.36                          21.7 197 
 GIR2 SZ EP        516 44.67                             166   -0.2710 33.8 347 
 BRR  HZ EP        516 46.52                             151   -0.0110 74.1 299 
 BRR  HN ES        517  3.28                             151    0.2210 74.1 299 
 BRR  HN I         517  7.67        14.2 0.14                          74.1 299 
 PAM  SZ EP        516 47.46                             150    0.0110 77.7  37 
 RUS  HZ EP        516 48.92                             144    0.1110 98.3 177 
 RUS  HN ES        517  7.10                             144   -0.0210 98.3 177 
 RUS  HN I         517  8.94         6.7 0.34                          98.3 177 
 TAM  HZ IP     C  516 52.88                             131    0.20 9  152 104 
                                                                                
