 2015 12 6 0020 12.4 L   6.823 -73.135139.4  RSN 10 0.5 1.8LRSN                1
 GAP=184        1.18       3.8     5.6  7.1 -0.2759E+01  0.9729E+01  0.1233E+01E
 Epicentro: LOS SANTOS - SANTANDER                                             3
 ACTION:UPD 16-02-04 15:02 OP:cam  STATUS:               ID:20151206002012 L   I
 OLDACT:UP  15-12-06 13:30 OP:mh   STATUS:               ID:20151206001746     3
 OLDACT:UP  15-12-06 13:29 OP:mh   STATUS:               ID:20151206001746     3
 OLDACT:UP  15-12-06 13:29 OP:mh   STATUS:               ID:20151206001746     3
 OLDACT:REG 15-12-06 12:02 OP:mh   STATUS:               ID:20151206001746     3
 2015-12-06-0017-46M.COL___325                                                 6
 STAT SP IPHASW D HRMM SECON CODA AMPLIT PERI AZIMU VELO AIN AR TRES W  DIS CAZ7
 BAR2 EZ EP        020 31.21                             169   -0.0910 26.0 192 
 BAR2 EZ ES        020 45.87                             169   -0.1910 26.0 192 
 BAR2 EZ I         020 47.44        14.2 0.20            175           26.0 192 
 BRR  HZ EP     D  020 33.08                             151    0.2510 71.1 296 
 BRR  HN ES        020 48.83                             151    0.0410 71.1 296 
 BRR  HZ I         020 50.85         9.1 0.48            148           71.1 296 
 RUS  HZ EP   1    020 35.32                             142   -0.37 7  103 177 
 RUS  HN ES        020 54.21                             142    0.3410  103 177 
 RUS  HZ I         020 54.99         5.0 0.14            146            103 177 
 PTB  HZ EP        020 38.40                             130   -0.59 9  149 258 
 PTB  HN ES        020 59.04                             130   -0.70 9  149 258 
 PTB  HZ I         021  0.20         8.0 0.54            130            149 258 
 OCA  HZ EP        020 40.55                             129    0.58 9  158 353 
 OCA  HN ES        021  1.47                             129   -0.03 9  158 353 
 OCA  HZ I         021 23.36        13.3 0.46            126            158 353 
 SPBC HZ EP        020 39.68                             127   -0.98 9  166 219 
 SPBC HN ES        021  3.65                             127    0.94 9  166 219 
 SPBC HZ I         021  9.06        13.5 0.34            129            166 219 
 ZAR  HN ES        021  9.79                             121    0.35 9  204 291 
 ZAR  HZ I         021 15.16         8.8 0.47            120            204 291 
 NOR  HZ EP        020 47.62                             117   -0.39 8  237 234 
 NOR  HN ES        021 15.61                             117   -0.19 8  237 234 
 NOR  HZ I         021 20.07         6.3 0.40            118            237 234 
 GUY2CHZ EP        020 56.58                             111    0.60 7  304 235 
 GUY2CHE ES        021 30.55                             111    0.57 7  304 235 
 GUY2CHZ I         021 41.23         3.4 0.60                           304 235 
 ORTC HN ES   1    021 48.89                             105    0.34 4  398 216 
 ORTC HZ I         021 53.36         2.2 0.46            106            398 216 
                                                                                
