 2011  4 6 0934  5.0 L   6.767 -73.098141.7  RSN  7 0.2 1.8LRSN                1
 GAP=182        0.53       3.1     4.6  4.7 -0.6682E+01 -0.1385E+00  0.3523E+01E
 Epicentro: LOS SANTOS - SANTANDER                                             3
 ACTION:UP  11-06-22 15:29 OP:REBC STATUS:               ID:20110406093405 L   I
 2011-04-06-0920-00M.COL___140                                                 6
 STAT SP IPHASW D HRMM SECON CODA AMPLIT PERI AZIMU VELO SNR AR TRES W  DIS CAZ7
 BAR2 SZ EP        934 24.23                             171     0.110   22 206 
 BAR2 SZ ES   1    934 38.77                             171    -0.2 7   22 206 
 BAR2 SZ I         934 42.11        13.8 0.28                            22 206 
 GIR2 SZ EP   2    934 24.44                             165     0.1 5   36 343 
 BRR  HZ EP        934 26.01                             150    -0.110   78 299 
 BRR  HN ES   1    934 42.88                             150     0.3 7   78 299 
 GRA  SZ EP        934 30.09                             136     0.010  128  15 
 GRA  SZ ES   1    934 49.38                             136    -0.2 7  128  15 
 GRA  SZ I         934 54.38         6.8 0.48                           128  15 
 NOR  SZ EP   1    934 40.16                             117    -0.6 6  237 236 
 NOR  SE ES   2    935  8.52                             117    -0.1 4  237 236 
 CHI  HZ EP   1    934 42.66                             116     0.4 6  247 197 
 CHI  HE ES   1    935 11.26                             116     0.0 6  247 197 
 CHI  HZ I         935 17.94         4.4 0.49                           247 197 
 HEL  HZ EP   2    934 45.63                             114     0.2 4  276 257 
 HEL  HN ES   2    935 16.99                             114    -0.1 4  276 257 
 HEL  HZ I         935 22.75         4.7 0.31                           276 257 
                                                                                
