 2013 11 6 0948 32.0 L   6.848 -73.137149.8  RSN  5 0.5 1.2LRSN                1
 GAP=202        1.18       6.6     7.9 10.8  0.2180E+02  0.2524E+01 -0.3109E+02E
 Epicentro: LOS SANTOS - SANTANDER                                             3
 ACTION:UPD 14-01-09 16:26 OP:ep   STATUS:               ID:20131106094832 L   I
 OLDACT:REG 13-11-06 07:11 OP:jn   STATUS:               ID:20131106094735     3
 2013-11-06-0947-35M.COL___200                                                 6
 STAT SP IPHASW D HRMM SECON CODA AMPLIT PERI AZIMU VELO AIN AR TRES W  DIS CAZ7
 BAR2 SZ ES        949  8.31                             169    0.2810 28.7 190 
 BAR2 SZ I         949 10.06         6.4 0.70            166           28.7 190 
 RUS  HZ EP        948 56.79                             143    0.2510  106 177 
 RUS  HE ES        949 15.45                             143   -0.2210  106 177 
 RUS  HZ I         949 16.87         1.2 0.28            144            106 177 
 PTB  HZ EP        948 59.24                             133   -0.26 9  150 257 
 PTB  HN ES        949 20.32                             133   -0.61 9  150 257 
 PTB  HZ I         949 27.05         1.7 0.10            132            150 257 
 ZAR  HE ES        949 31.01                             123    0.96 9  203 291 
 SML  HZ EP        949  8.71                             119    0.31 8  239 335 
 SML  HN ES        949 36.08                             119   -0.70 8  239 335 
                                                                                
