 2013  8 6 0528 17.4 L   6.763 -73.127148.0  RSN  6 0.4 1.4LRSN                1
 GAP=141        0.81       4.1     4.5  7.1 -0.5566E+01  0.1456E+01  0.6919E+01E
 Epicentro: LOS SANTOS - SANTANDER                                             3
 ACTION:UPD 14-01-14 08:59 OP:ep   STATUS:               ID:20130806052817 L   I
 OLDACT:REG 13-08-06 07:51 OP:jn   STATUS:               ID:20130806051959     3
 2013-08-06-0519-59M.COL___268                                                 6
 STAT SP IPHASW D HRMM SECON CODA AMPLIT PERI AZIMU VELO AIN AR TRES W  DIS CAZ7
 BRR  HZ EP        528 39.00                             152   -0.0310 75.0 301 
 BRR  HN ES        528 56.30                             152    0.4110 75.0 301 
 BRR  HZ I         529  1.99         3.5 0.28            154           75.0 301 
 PAM  SZ EP        528 39.74                             151   -0.2510 79.3  36 
 PAM  SN ES        528 57.62                             151    0.0210 79.3  36 
 PAM  SZ I         528 59.39         4.7 0.48            156           79.3  36 
 RUS  HZ EP        528 41.28                             145    0.1810 96.4 177 
 RUS  HN ES        528 59.46                             145   -0.1110 96.4 177 
 RUS  HZ I         529  2.59         3.1 0.32            149           96.4 177 
 PTB  HN ES   1    529  4.98                             132   -0.99 7  149 261 
 PTB  HZ I         529  7.42         3.8 0.18            135            149 261 
 SPBC HZ EP        528 46.03                             130    0.10 9  161 220 
 SPBC HN ES   1    529  8.09                             130   -0.07 7  161 220 
 SPBC HZ I         529 13.94         4.7 0.12            133            161 220 
 NOR  HE ES   1    529 21.69                             119    0.55 6  234 236 
                                                                                
