 2013  6 6 0738 30.5 L   6.618 -73.126168.5  RSN  8 0.4 2.2LRSN                1
 GAP=185        0.77       3.6     6.4  6.6 -0.4404E+01  0.8144E+01  0.1385E+01E
 Epicentro: SAN GIL - SANTANDER                                                3
 ACTION:UPD 14-01-08 09:52 OP:ep   STATUS:               ID:20130606073830 L   I
 OLDACT:REG 13-06-06 12:37 OP:mh   STATUS:               ID:20130606073740     3
 2013-06-06-0737-40M.COL___231                                                 6
 STAT SP IPHASW D HRMM SECON CODA AMPLIT PERI AZIMU VELO AIN AR TRES W  DIS CAZ7
 BAR2 SZ ES   1    739  9.34                             178   -0.59 9 6.81 245 
 BAR2 SZ I         739 11.69        13.1 0.40            174           6.81 245 
 GIR2 SZ EP   1    738 53.46                             162    0.01 9 51.5 352 
 GIR2 SZ I         739 13.83        10.3 0.30            156           51.5 352 
 RUS  HZ EP   1    738 55.31                             154    0.02 9 80.3 177 
 RUS  HN ES   2    739 14.81                             154    0.15 6 80.3 177 
 RUS  HN I         739 16.54        30.9 0.34            152           80.3 177 
 BRR  HZ EP   1    738 55.39                             152    0.59 9 84.4 310 
 BRR  HN ES   1    739 14.50                             152    0.71 9 84.4 310 
 BRR  HN I         739 15.91        41.8 0.34            151           84.4 310 
 PTB  HZ EP   1    738 59.02                             137   -0.30 9  147 267 
 PTB  HN ES   2    739 21.38                             137   -0.46 6  147 267 
 PTB  HN I         739 23.41        23.0 0.28            137            147 267 
 NOR  HZ EP   1    739  7.18                             124    0.53 7  225 239 
 NOR  HN ES        739 34.71                             124   -0.1810  225 239 
 NOR  HN I         739 40.59        16.5 0.16            123            225 239 
 SML  HZ EP   1    739  9.72                             120   -0.75 7  263 337 
 SML  HN ES        739 41.57                             120   -0.11 9  263 337 
 SML  HN I         739 49.47        14.5 0.30            115            263 337 
 PRA  HZ EP   1    739 23.11                             111    0.13 6  376 211 
 PRA  HN ES        740  3.95                             111   -0.00 7  376 211 
 PRA  HN I         740  7.04         3.5 0.22            108            376 211 
                                                                                
