 2011  7 6 0833 56.6 L   6.777 -73.059146.6  RSN 10 0.3 2.0LRSN                1
 GAP=149        0.59       2.5     4.0  4.2 -0.3279E+01  0.3407E+01  0.1013E+01E
 Epicentro: LOS SANTOS - SANTANDER                                             3
 ACTION:UPD 12-07-25 13:58 OP:epov STATUS:               ID:20110706083356 L   I
 2011-07-06-0820-00M.COL___124                                                 6
 STAT SP IPHASW D HRMM SECON CODA AMPLIT PERI AZIMU VELO AIN AR TRES W  DIS CAZ7
 BAR2 SZ EP   1    834 16.10                             170   -0.27 7 24.6 214 
 BAR2 SZ ES   1    834 31.29                             170   -0.48 7 24.6 214 
 BAR2 SZ I         834 32.89        21.2 0.23                          24.6 214 
 PAM  SZ EP   1    834 19.08                             152    0.38 7 73.7  33 
 PAM  SN ES   1    834 36.04                             152    0.11 7 73.7  33 
 BRR  HZ EP   1    834 18.19                             149   -0.23 7 80.9 297 
 BRR  HN ES   1    834 35.31                             149   -0.12 7 80.9 297 
 BRR  HZ I         834 39.05        18.0 0.17                          80.9 297 
 RUS  HZ EP   1    834 20.22                             145   -0.03 7 97.9 182 
 RUS  HN ES   1    834 38.92                             145    0.23 7 97.9 182 
 RUS  HZ I         834 40.12         7.0 0.29                          97.9 182 
 BRI  SZ EP   1    834 20.76                             142    0.23 7  108  16 
 GRA  SZ EP   1    834 22.10                             137    0.18 7  126  13 
 GRA  SZ ES   1    834 41.79                             137    0.13 7  126  13 
 GRA  SZ I         834 46.30         7.4 0.38                           126  13 
 OCA  SZ EP   1    834 24.95                             129   -0.40 7  164 350 
 OCA  SZ ES   1    834 47.74                             129   -0.03 7  164 350 
 OCA  SZ I         834 51.74         8.5 0.28                           164 350 
 CHI  HZ EP   1    834 34.56                             117    0.17 6  249 197 
 HEL  HZ EP   1    834 37.57                             114   -0.27 6  281 257 
 HEL  HN ES   1    835 10.76                             114    0.77 6  281 257 
 HEL  HZ I         835 16.76        11.6 0.35                           281 257 
 PRA  HZ EP   1    834 49.82                             106   -0.66 4  395 211 
 PRA  HN ES   1    835 32.80                             106    0.31 4  395 211 
 PRA  HZ I         835 37.89        11.6 0.20                           395 211 
                                                                                
