 2015 12 6 1110 19.2 L   6.792 -73.173135.3  RSN  7 0.6 1.4LRSN                1
 GAP=198        1.48       6.0     8.2 10.0  0.1773E+02  0.1498E+02 -0.6069E+01E
 Epicentro: LOS SANTOS - SANTANDER                                             3
 ACTION:UPD 16-02-04 15:02 OP:cam  STATUS:               ID:20151206111019 L   I
 OLDACT:REG 15-12-06 19:47 OP:drio STATUS:               ID:20151206110748     3
 2015-12-06-1107-48M.COL___315                                                 6
 STAT SP IPHASW D HRMM SECON CODA AMPLIT PERI AZIMU VELO AIN AR TRES W  DIS CAZ7
 BAR2 EZ EP       1110 36.96                             170   -0.6210 22.1 183 
 BAR2 EZ ES       1110 51.14                             170   -0.7510 22.1 183 
 BAR2 EZ I        1110 54.24         5.8 0.24            163           22.1 183 
 BRR  HZ EP       1110 39.57                             151    0.4410 69.0 300 
 BRR  HN ES       1110 55.44                             151    0.7910 69.0 300 
 RUS  HZ EP       1110 42.03                             142    0.1110 99.9 174 
 RUS  HN ES       1111  0.36                             142    0.7510 99.9 174 
 RUS  HZ I        1111  1.98         2.0 0.38            140           99.9 174 
 PTB  HZ EP       1110 44.41                             130   -0.67 9  145 259 
 PTB  HE ES       1111  5.36                             130    0.13 9  145 259 
 PTB  HZ I        1111 10.47         2.5 0.36            128            145 259 
 SPBC HZ EP       1110 47.03                             127    0.33 9  161 218 
 SPBC HN ES       1111  7.40                             127   -0.72 9  161 218 
 SPBC HZ I        1111 18.09         7.8 0.22            125            161 218 
 ZAR  HZ EP       1110 51.57                             120    0.80 9  202 293 
 ZAR  HN ES       1111 15.17                             120   -0.19 9  202 293 
 ZAR  HZ I        1111 18.18         3.2 0.30            120            202 293 
 SML  HN ES       1111 22.77                             115   -0.58 8  243 336 
                                                                                
