 2016  1 6 1758 17.3 L   6.818 -73.166147.8  RSN 16 0.4 2.5LRSN                1
 GAP=133        0.99       2.4     3.6  4.7 -0.1495E+01  0.3893E+01  0.9059E+00E
 Epicentro: LOS SANTOS - SANTANDER                                             3
 ACTION:UPD 16-03-09 23:23 OP:cam  STATUS:               ID:20160106175817 L   I
 OLDACT:UP  16-02-01 09:16 OP:mHER STATUS:               ID:20160106175817 L   3
 OLDACT:UP  16-01-07 00:58 OP:ar   STATUS:               ID:20160106175736     3
 OLDACT:REG 16-01-06 21:15 OP:ar   STATUS:               ID:20160106175736     3
 2016-01-06-1757-36M.COL___304                                                 6
 STAT SP IPHASW D HRMM SECON CODA AMPLIT PERI AZIMU VELO AIN AR TRES W  DIS CAZ7
 BAR2 EZ EP       1758 37.17                             170   -0.0310 25.0 184 
 BAR2 EZ ES       1758 52.77                             170    0.0510 25.0 184 
 BAR2 EZ I        1758 53.77        45.6 0.14            168           25.0 184 
 BRR  HZ EP       1758 39.01                             154    0.5210 68.3 298 
 BRR  HN ES       1758 56.18                             154    1.1410 68.3 298 
 BRR  HZ I        1758 57.86        27.3 0.10            147           68.3 298 
 PAM  EZ EP       1758 40.15                             151    0.4410 77.3  42 
 PAM  EN ES       1758 57.04                             151   -0.1710 77.3  42 
 PAM  EZ I        1758 59.30        58.1 0.50            153           77.3  42 
 RUS  HZ EP       1758 41.57                             144    0.1810  103 175 
 RUS  HN ES       1758 59.90                             144   -0.3010  103 175 
 RUS  HZ I        1759  0.90        31.4 0.22            143            103 175 
 PTB  HZ EP       1758 43.91                             133   -0.35 9  146 258 
 PTB  HN ES       1759  4.93                             133   -0.37 9  146 258 
 PTB  HZ I        1759 12.22        23.8 0.30            128            146 258 
 OCA  HZ EP       1758 45.32                             131   -0.23 9  158 354 
 OCA  HN ES       1759  7.21                             131   -0.38 9  158 354 
 OCA  HZ I        1759 11.69        50.0 0.38            128            158 354 
 SPBC HZ EP       1758 46.00                             129    0.04 9  163 218 
 SPBC HN ES       1759  7.52                             129   -0.80 9  163 218 
 SPBC HZ I        1759 10.73        56.9 0.36            126            163 218 
 ZAR  HZ EP       1758 49.50                             123   -0.07 9  201 292 
 ZAR  HN ES       1759 14.57                             123   -0.19 9  201 292 
 ZAR  HZ I        1759 24.10        19.8 0.46            120            201 292 
 NOR  HZ EP       1758 53.25                             119    0.19 8  234 234 
 NOR  HN ES       1759 20.79                             119   -0.18 8  234 234 
 NOR  HZ I        1759 29.00        23.7 0.16            116            234 234 
 SML  HZ EP       1758 53.58                             118   -0.15 8  241 336 
 SML  HN ES       1759 21.58                             118   -0.57 8  241 336 
 SML  HZ I        1759 25.49        59.5 0.28            116            241 336 
 CHI  HZ EP       1758 55.33                             117    0.09 8  250 195 
 CHI  HN ES       1759 24.64                             117   -0.21 8  250 195 
 CHI  HZ I        1759 28.18        14.4 0.42            116            250 195 
 ROSC BZ EP   9   1758 57.68                             117    2.10 0  253 210 
 ROSC BN ES       1759 27.57                             117    0.02 8  253 210 
 ROSC BZ I        1759 30.71        27.2 0.35            115            253 210 
 HEL  HZ EP   4   1758 59.70                             115    2.28 0  270 255 
 HEL  HZ I        1759 26.32        19.1 0.44            113            270 255 
 HEL  HN ES       1759 29.28                             115    0.56 8  270 255 
 GUY2CHZ EP   4   1759  2.61                             113    1.70 0  301 234 
 GUY2CHE ES   4   1759 28.11                             113   -6.83 0  301 234 
 GUY2CHZ I        1759 41.42        18.1 0.34                           301 234 
 PRA  HZ EP       1759 10.89                             107   -0.06 6  393 209 
 PRA  HN ES       1759 52.80                             107   -0.01 6  393 209 
 PRA  HZ I        1759 58.98         9.0 0.26            105            393 209 
 ORTC HZ EP       1759 12.13                             107    0.82 6  396 216 
 ORTC HN ES       1759 53.71                             107    0.26 6  396 216 
 ORTC HZ I        1759 57.02        17.4 0.82            105            396 216 
                                                                                
