 2016 11 6 1310 34.2 L   6.726 -73.164126.6  RSN 11 0.5 2.1LRSN                1
 GAP=151        1.06       4.2     4.1  6.0 -0.4274E+01  0.5246E+01  0.8781E+01E
 Epicentro: VILLANUEVA - SANTANDER                                             3
 ACTION:UPD 17-10-26 21:05 OP:lp   STATUS:               ID:20161106131034 L   I
 OLDACT:UP  16-11-06 23:25 OP:cog  STATUS:               ID:20161106130748     3
 OLDACT:REG 16-11-06 20:10 OP:cog  STATUS:               ID:20161106130748     3
 2016-11-06-1308-00M.COL___346                                                 6
 STAT SP IPHASW D HRMM SECON CODA AMPLIT PERI AZIMU VELO AIN AR TRES W  DIS CAZ7
 BAR2 EZ EP       1310 51.61                             173    0.2310 15.0 188 
 BAR2 EZ ES       1311  3.95                             173   -0.8310 15.0 188 
 BRR  HZ EP       1310 53.74                             148    0.2510 73.8 305 
 BRR  HN ES       1311  9.02                             148    0.4910 73.8 305 
 BRR  HZ I        1311 11.17        25.0 0.10            146           73.8 305 
 PAM  EZ EP       1310 54.52                             144   -0.4310 85.0  37 
 PAM  EE ES       1311 11.67                             144    0.5410 85.0  37 
 PAM  EZ I        1311 13.55        21.5 0.46            146           85.0  37 
 PTB  HZ EP       1310 58.65                             128   -0.71 9  144 262 
 PTB  HN ES       1311 19.45                             128    0.46 9  144 262 
 PTB  HZ I        1311 21.59        18.3 0.22            128            144 262 
 SPBC HZ EP       1311  0.49                             126   -0.07 9  156 220 
 SPBC HN ES       1311 20.78                             126   -0.33 9  156 220 
 ZAR  HZ EP       1311  5.26                             117   -0.37 8  205 294 
 ZAR  HN ES       1311 29.89                             117   -0.26 8  205 294 
 ZAR  HZ I        1311 35.84        17.5 0.20            118            205 294 
 NOR  HZ EP       1311  7.79                             115   -0.41 8  228 236 
 NOR  HE ES       1311 35.08                             115    0.36 8  228 236 
 NOR  HZ I        1311 37.81         9.2 0.32            115            228 236 
 CHI  HZ EP       1311 10.42                             114    0.44 8  240 195 
 CHI  HE ES   3   1311 39.48                             114    1.60 2  240 195 
 ROSC BZ EP   4   1311 12.65                             113    2.19 0  245 212 
 ROSC BN ES   4   1311 34.08                             113   -4.65 0  245 212 
 HEL  HZ EP       1311 13.13                             111    0.05 8  268 257 
 HEL  HN ES       1311 43.31                             111   -0.09 8  268 257 
 PRA  HZ EP       1311 26.76                             103    0.59 6  384 210 
 PRA  HE ES   3   1312  8.90                             103    2.19 1  384 210 
 ORTC HZ EP       1311 27.37                             103    0.75 6  388 217 
 ORTC HE ES       1312  7.37                             103   -0.12 6  388 217 
 ORTC HZ I        1312 16.63         4.6 0.17            104            388 217 
                                                                                
