 2012  4 6 1113 48.9 L   6.749 -73.148147.0  RSN  6 0.3 1.3LRSN                1
 GAP=139        0.59       4.6     5.6  7.7  0.2769E+01  0.8963E+01  0.7344E+00E
 Epicentro: LOS SANTOS - SANTANDER                                             3
 ACTION:UPD 12-07-05 11:51 OP:tino STATUS:               ID:20120406111348 L   I
 2012-04-06-1110-00M.COL___196                                                 6
 STAT SP IPHASW D HRMM SECON CODA AMPLIT PERI AZIMU VELO AIN AR TRES W  DIS CAZ7
 BAR2 SZ EP       1114  8.51                             173     0.010   18 192 
 BAR2 SZ I        1114 24.63         4.7 0.50                            18 192 
 BRR  HZ EP       1114 10.46                             152     0.210   74 302 
 BRR  HE ES   2   1114 27.70                             152     0.7 5   74 302 
 PAM  SZ EP   2   1114 11.38                             149    -0.1 5   82  37 
 PAM  SN ES   2   1114 28.72                             149    -0.4 5   82  37 
 RUS  HZ EP   1   1114 12.51                             146     0.2 7   95 176 
 RUS  HN ES   1   1114 30.56                             146    -0.1 7   95 176 
 RUS  HZ I        1114 32.63         2.3 0.44                            95 176 
 PTB  HZ EP   1   1114 15.50                             132    -0.3 7  147 261 
 PTB  HN ES   2   1114 36.36                             132    -0.5 5  147 261 
 PTB  HZ I        1114 43.93         2.9 0.40                           147 261 
 CHI  HZ EP   2   1114 26.38                             118     0.3 4  243 195 
                                                                                
