 2011 11 6 1243  2.7 L   6.778 -73.129139.9  RSN  5 0.3 1.7LRSN                1
 GAP=140        0.52       3.8     4.7  5.2 -0.3845E+00 -0.1544E+01  0.2712E+01E
 Epicentro: LOS SANTOS - SANTANDER                                             3
 ACTION:UPD 12-07-13 16:08 OP:ep   STATUS:               ID:20111106124302 L   I
 2011-11-06-1239-35S.COL___175                                                 6
 STAT SP IPHASW D HRMM SECON CODA AMPLIT PERI AZIMU VELO AIN AR TRES W  DIS CAZ7
 BAR2 SZ EP       1243 21.48                             171   -0.1210 21.3 196 
 BAR2 SZ ES   1   1243 36.06                             171   -0.27 7 21.3 196 
 BAR2 SZ I        1243 37.73        14.5 0.36                          21.3 196 
 BRR  HZ EP       1243 23.23                             150   -0.1710 74.0 300 
 BRR  HN ES   1   1243 39.96                             150    0.43 7 74.0 300 
 BRR  HZ I        1243 41.03        24.5 0.44                          74.0 300 
 PAM  SZ EP       1243 24.45                             149    0.0910 78.2  37 
 PAM  SN ES   1   1243 41.20                             149   -0.04 7 78.2  37 
 RUS  HZ EP       1243 25.90                             143    0.1910 98.0 177 
 RUS  HZ I        1243 26.69         3.2 0.14                          98.0 177 
 RUS  HN ES   2   1243 43.61                             143   -0.03 5 98.0 177 
 ZAR  HE ES   3   1243 59.21                             121   -1.09 2  207 293 
 ZAR  HZ I        1244  9.12         3.5 0.52                           207 293 
                                                                                
