 2013 12 6 1637 48.9 L   6.821 -73.129151.3  RSN  7 0.2 1.5LRSN                1
 GAP=138        0.67       3.7     3.2  5.6 -0.1835E+00  0.5316E+01 -0.1294E+01E
 Epicentro: LOS SANTOS - SANTANDER                                             3
 ACTION:UPD 14-01-13 10:16 OP:ep   STATUS:               ID:20131206163748 L   I
 OLDACT:UP  13-12-06 15:48 OP:cam  STATUS:               ID:20131206163000     3
 OLDACT:UP  13-12-06 15:48 OP:cam  STATUS:               ID:20131206163000     3
 OLDACT:UP  13-12-06 15:48 OP:cam  STATUS:               ID:20131206163000     3
 OLDACT:REG 13-12-06 14:28 OP:cam  STATUS:               ID:20131206163000     3
 2013-12-06-1630-00M.COL___285                                                 6
 STAT SP IPHASW D HRMM SECON CODA AMPLIT PERI AZIMU VELO AIN AR TRES W  DIS CAZ7
 BAR2 SZ EP       1638  8.89                             170   -0.3110 25.9 193 
 BAR2 SZ ES       1638 24.92                             170   -0.1510 25.9 193 
 BAR2 SZ I        1638 25.66         6.9 0.18            169           25.9 193 
 PAM  SZ EP       1638 11.81                             153    0.3210 74.5  40 
 PAM  SE ES       1638 29.08                             153   -0.0710 74.5  40 
 PAM  SE I        1638 29.34         7.1 0.56            154           74.5  40 
 RUS  HZ EP       1638 13.52                             144    0.2210  103 177 
 RUS  HN ES       1638 32.48                             144    0.1110  103 177 
 RUS  HZ I        1638 33.66         2.2 0.44            144            103 177 
 PTB  HZ EP       1638 16.01                             133   -0.46 9  150 258 
 PTB  HN ES       1638 38.22                             133    0.20 9  150 258 
 PTB  HZ I        1638 39.64         7.6 0.40            133            150 258 
 ZAR  HN ES       1638 47.55                             123    0.15 9  205 291 
 PTGC HZ E        1637 15.22                                            310 159 
 POP2 HN E        1632 10.23                                            615 220 
                                                                                
