 2017 11 6 1638 23.7 L   6.795 -73.177150.0  RSN  6 0.4 1.5LRSN                1
 GAP=234        0.77       4.2     5.0  6.3  0.3731E+01  0.2528E+01  0.7598E+01E
 Epicentro: LOS SANTOS - SANTANDER                                             3
 ACTION:UPD 17-12-12 19:52 OP:rebc STATUS:               ID:20171106163823 L   I
 OLDACT:UP  17-11-07 00:56 OP:mg   STATUS:               ID:20171106162705     3
 OLDACT:REG 17-11-06 21:38 OP:mg   STATUS:               ID:20171106162705     3
 2017-11-06-1628-00M.COL___420                                                 6
 STAT SP IPHASW D HRMM SECON CODA AMPLIT PERI AZIMU VELO AIN AR TRES W  DIS CAZ7
 BAR2 EZ EP       1638 43.57                             171   -0.2910 22.5 182 
 BAR2 EZ ES   3   1638 57.93                             171   -1.63 2 22.5 182 
 BRR  HZ EP       1638 45.20                             155    0.0010 68.5 300 
 BRR  HN ES       1639  2.49                             155    0.5510 68.5 300 
 BRR  HZ I        1639  6.60         9.7 0.30            153           68.5 300 
 RUS  HZ EP       1638 47.93                             145    0.0410  100 174 
 RUS  HN ES       1639  6.88                             145    0.1510  100 174 
 RUS  HZ I        1639  7.41         5.5 0.23            147            100 174 
 PTB  HZ EP   1   1638 50.21                             134   -0.54 7  144 259 
 PTB  HN ES   1   1639 11.27                             134   -0.54 7  144 259 
 PTB  HZ I        1639 13.29         3.3 0.14            134            144 259 
 NOR  HZ EP       1638 59.52                             120    0.13 8  232 234 
 NOR  HE ES       1639 27.30                             120    0.10 8  232 234 
 NOR  HZ I        1639 32.35         2.3 0.22            121            232 234 
 CHI  HZ EP       1639  1.35                             119   -0.18 8  247 194 
 CHI  HN ES       1639 31.22                             119    0.22 8  247 194 
 CHI  HZ I        1639 33.25         2.1 0.29            120            247 194 
                                                                                
