 2015  2 6 1244 38.0 L   6.760 -73.177141.5  RSN  4 0.2 1.4LRSN                1
 GAP=139        0.53       3.2     3.1  5.8 -0.2978E+01  0.5200E+01 -0.1150E+01E
 Epicentro: LOS SANTOS - SANTANDER                                             3
 ACTION:UPD 15-04-30 21:22 OP:nd   STATUS:               ID:20150206124438 L   I
 OLDACT:ARG 15-02-06 20:23 OP:stll STATUS:               ID:20150206123747     3
 2015-02-06-1237-47M.COL___286                                                 6
 STAT SP IPHASW D HRMM SECON CODA AMPLIT PERI AZIMU VELO AIN AR TRES W  DIS CAZ7
 BAR2 EZ EP       1244 57.36                             172    0.3510 18.6 182 
 BAR2 EZ I        1245 17.54         3.4 0.38            169           18.6 182 
 PAM  SZ EP       1245  0.10                             148    0.0010 83.0  39 
 PAM  SZ I        1245  0.30         9.1 0.22            147           83.0  39 
 PAM  SN ES       1245 17.25                             148   -0.0910 83.0  39 
 RUS  HZ EP       1245  1.05                             144    0.0310 96.5 174 
 RUS  HE ES       1245 18.87                             144   -0.1210 96.5 174 
 PTB  HZ EP       1245  3.94                             132   -0.29 9  144 260 
 PTB  HN ES       1245 24.80                             132    0.10 9  144 260 
 PTB  HZ I        1245 27.36         2.6 0.20            130            144 260 
                                                                                
