 2015  5 6 1621 24.5 L   6.798 -73.193138.8  RSN  4 0.3 1.8LRSN                1
 GAP=135        0.75       5.1     5.7  6.0 -0.1672E+02 -0.3044E+00  0.6964E+01E
 Epicentro: ZAPATOCA - SANTANDER                                               3
 ACTION:UPD 15-09-10 22:02 OP:cam  STATUS:               ID:20150506162124 L   I
 OLDACT:REG 15-05-06 20:23 OP:stll STATUS:               ID:20150506161750     3
 2015-05-06-1617-50M.COL___285                                                 6
 STAT SP IPHASW D HRMM SECON CODA AMPLIT PERI AZIMU VELO AIN AR TRES W  DIS CAZ7
 BAR2 EZ EP       1621 43.09                             170   -0.1710 22.8 177 
 BAR2 EZ ES       1621 58.12                             170    0.2110 22.8 177 
 BAR2 EZ I        1622  0.93         9.9 0.26            168           22.8 177 
 BRR  HZ EP       1621 45.19                             153    0.5710 66.7 301 
 BRR  HN ES       1622  0.03                             153   -0.3010 66.7 301 
 PAM  SZ EP       1621 45.88                             148   -0.3010 81.0  42 
 PAM  SZ I        1621 46.18        13.4 0.22            150           81.0  42 
 PAM  SN ES       1622  3.19                             148    0.0710 81.0  42 
 SPBC HZ EP       1621 52.11                             128   -0.00 9  160 218 
 SPBC HZ I        1621 52.31        10.2 0.56            130            160 218 
 SPBC HE ES       1622 13.58                             128   -0.09 9  160 218 
                                                                                
