 2010 12 6 1619  4.0 L   6.364 -73.623112.7  RSN  6 0.5 1.5LRSN                1
 GAP=121        0.99       8.4     9.6 14.6 -0.5207E+02  0.9724E+02 -0.4701E+02E
 Epicentro: SANTA HELENA DEL OPON - SANTANDER                                  3
 ACTION:UP  11-01-14 15:23 OP:pat  STATUS:               ID:20101206161904 L   I
 2010-12-06-1617-31S.COL___135                                                 6
 STAT SP IPHASW D HRMM SECON CODA AMPLIT PERI AZIMU VELO SNR AR TRES W  DIS CAZ7
 BAR2 SZ EP       1619 21.23                             152     0.210   55  63 
 BAR2 SZ ES   1   1619 33.82                             152    -0.5 7   55  63 
 BTL  SZ EP       1619 22.64                             145     0.510   73  33 
 NOR  SZ EP       1619 29.85                             120    -0.4 9  164 238 
 NOR  SN ES   1   1619 51.07                             120     0.3 7  164 238 
 NOR  SZ I        1619 52.58         1.8 0.15                           164 238 
 CHI  HZ EP   3   1619 34.53                             116     0.8 2  192 184 
 CHI  HE ES   2   1619 56.44                             116    -0.5 4  192 184 
 CHI  HZ I        1620  0.34         4.5 1.14                           192 184 
 HEL  HZ EP   2   1619 36.72                             113     0.8 4  212 265 
 HEL  HZ I        1620  6.97         5.3 0.24                           212 265 
 MON  HZ EP       1619 50.83                             102    -0.6 6  349 320 
                                                                                
