 2011  1 6 1045 42.6 L   6.693 -73.150138.0  RSN  4 0.3 1.3LRSN                1
 GAP=298        0.43       6.7     7.4  7.1 -0.8910E+01  0.3059E+02 -0.4251E+00E
 Epicentro: VILLANUEVA - SANTANDER                                             3
 ACTION:UP  11-02-08 08:39 OP:pat  STATUS:               ID:20110106104542 L   I
 2011-01-06-1040-00M.COL___121                                                 6
 STAT SP IPHASW D HRMM SECON CODA AMPLIT PERI AZIMU VELO SNR AR TRES W  DIS CAZ7
 BAR2 SZ EP   2   1046  0.80                             175    -0.3 5   12 198 
 BAR2 SZ ES   2   1046 15.69                             175     0.2 5   12 198 
 BAR2 SZ I        1046 17.77         4.5 0.03                            12 198 
 RUS  HZ EP   2   1046  4.39                             146    -0.3 5   89 175 
 RUS  HE ES   1   1046 22.07                             146     0.1 7   89 175 
 RUS  HZ I        1046 24.24         3.2 0.26                            89 175 
 NOR  SZ EP   2   1046 17.48                             118     0.4 4  228 237 
 NOR  SE ES   2   1046 43.86                             118    -0.2 4  228 237 
 PRA  HZ EP   2   1046 34.98                             106     0.4 3  381 210 
 PRA  HE ES   2   1047 14.76                             106    -0.4 3  381 210 
                                                                                
