 2011  7 6 1101  1.4 L   6.849 -73.316126.6  RSN  5 0.1 1.5LRSN                1
 GAP=137        0.34       2.5     4.6  3.8  0.4243E+01 -0.1801E+01  0.4887E+00E
 Epicentro: ZAPATOCA - SANTANDER                                               3
 ACTION:UPD 12-07-25 13:58 OP:epov STATUS:               ID:20110706110101 L   I
 2011-07-06-1055-50S.COL___123                                                 6
 STAT SP IPHASW D HRMM SECON CODA AMPLIT PERI AZIMU VELO AIN AR TRES W  DIS CAZ7
 BTL  SZ EP   1   11 1 18.51                             176    0.01 7 9.38  34 
 BTL  SZ ES   2   11 1 32.18                             176    0.34 5 9.38  34 
 BAR2 SZ EP   1   11 1 18.91                             165   -0.05 7 31.9 153 
 BAR2 SZ ES   1   11 1 32.42                             165   -0.25 7 31.9 153 
 BAR2 SZ I        11 1 33.45        13.3 0.17                          31.9 153 
 BRR  HZ EP   1   11 1 19.48                             156    0.04 7 52.3 303 
 BRR  HE ES   1   11 1 33.48                             156   -0.03 7 52.3 303 
 BRR  HZ I        11 1 34.74        13.4 0.12                          52.3 303 
 RUS  HZ EP   1   11 1 23.97                             137   -0.01 7  109 166 
 RUS  HN ES   1   11 1 41.72                             137    0.12 7  109 166 
 RUS  HZ I        11 1 42.60         3.2 0.31                           109 166 
 GRA  SZ ES   2   11 1 43.75                             132    0.02 5  128  26 
 GRA  SZ I        11 1 46.12         5.0 0.27                           128  26 
                                                                                
