 2014  5 6 1117 41.8 L   6.810 -73.165150.7  RSN  9 0.4 2.0LRSN                1
 GAP=134        0.78       2.6     3.5  6.0 -0.1176E+00  0.5074E+01 -0.8574E+00E
 Epicentro: LOS SANTOS - SANTANDER                                             3
 ACTION:UPD 15-03-16 16:55 OP:nd   STATUS:               ID:20140506111741 L   I
 OLDACT:DUP 14-05-06 22:37 OP:mh   STATUS:               ID:20140506111001d    3
 2014-05-06-1110-00M.COL___273                                                 6
 STAT SP IPHASW D HRMM SECON CODA AMPLIT PERI AZIMU VELO AIN AR TRES W  DIS CAZ7
 PAM  SZ EP       1118  5.04                             151    0.5010 78.0  41 
 PAM  SN ES       1118 22.07                             151   -0.2310 78.0  41 
 PAM  SZ I        1118 24.96        11.8 0.63            155           78.0  41 
 RUS  HZ EP       1118  6.28                             144    0.1910  102 175 
 RUS  HN ES       1118 24.81                             144   -0.2510  102 175 
 RUS  HZ I        1118 25.85         9.0 0.36            148            102 175 
 PTB  HZ EP       1118  8.80                             133   -0.17 9  146 258 
 PTB  HN ES       1118 30.19                             133    0.00 9  146 258 
 PTB  HZ I        1118 34.37         9.7 0.22            133            146 258 
 SPBC HZ EP       1118 10.93                             130    0.33 9  163 218 
 SPBC HN ES       1118 33.10                             130    0.01 9  163 218 
 SPBC HZ I        1118 38.76        19.8 0.32            132            163 218 
 ZAR  HZ EP   4   1118 12.33                             124   -1.96 0  202 292 
 ZAR  HN ES       1118 40.11                             124    0.45 9  202 292 
 SML  HZ EP       1118 18.25                             119   -0.22 8  242 336 
 SML  HN ES       1118 46.91                             119   -0.19 8  242 336 
 SML  HZ I        1118 55.34        10.8 0.11            120            242 336 
 CHI  HZ EP       1118 19.07                             118   -0.72 8  249 195 
 CHI  HN ES   1   1118 49.86                             118    0.41 6  249 195 
 HEL  HZ EP   4   1118 23.50                             116    1.47 0  270 255 
 HEL  HN ES   4   1118 55.02                             116    1.58 0  270 255 
 HEL  HZ I        1119  2.76         4.7 0.16            117            270 255 
 URE  HZ EP   2   1118 22.89                             115    0.08 4  281 292 
 URE  HN ES   2   1118 53.96                             115   -0.87 4  281 292 
                                                                                
