 2017  7 6 1041 37.0 L   6.795 -73.085149.7  RSN  6 0.4 1.6LRSN                1
 GAP=170        1.05       7.4     5.2  8.4 -0.1401E+02  0.1025E+02  0.6379E+01E
 Epicentro: LOS SANTOS - SANTANDER                                             3
 ACTION:UPD 17-08-30 15:30 OP:rebc STATUS:               ID:20170706104137 L   I
 OLDACT:UP  17-07-07 00:13 OP:ar   STATUS:               ID:20170706103740d    3
 OLDACT:UP  17-07-07 00:13 OP:ar   STATUS:               ID:20170706103740d    3
 OLDACT:DUP 17-07-07 00:04 OP:ar   STATUS:               ID:20170706103740d    3
 OLDACT:REG 17-07-06 22:15 OP:ar   STATUS:               ID:20170706103739     3
 2017-07-06-1038-00M.COL___368                                                 6
 STAT SP IPHASW D HRMM SECON CODA AMPLIT PERI AZIMU VELO AIN AR TRES W  DIS CAZ7
 BAR2 EZ EP       1041 57.35                             170    0.2510 24.9 206 
 BAR2 EZ ES       1042 12.40                             170   -0.4110 24.9 206 
 BAR2 EZ I        1042 13.06        10.5 0.28            170           24.9 206 
 PAM  EZ EP       1041 59.01                             153   -0.3810 73.7  35 
 PAM  EN ES       1042 17.26                             153    0.3710 73.7  35 
 PAM  EZ I        1042 18.16         7.3 0.18            151           73.7  35 
 BRR  HZ EP       1041 59.24                             151    0.3510 77.4 297 
 BRR  HN ES       1042 16.14                             151    0.1410 77.4 297 
 PTB  HZ EP       1042  4.31                             132   -0.53 9  154 260 
 PTB  HN ES       1042 26.09                             132   -0.49 9  154 260 
 PTB  HZ I        1042 28.61         3.6 0.48            130            154 260 
 ZAR  HZ EP   4   1042 12.46                             122    2.13 0  210 292 
 ZAR  HN ES       1042 36.36                             122    0.01 8  210 292 
 ZAR  HZ I        1042 44.27         5.3 0.28            120            210 292 
 NOR  HN ES       1042 42.78                             119    0.83 8  240 236 
 NOR  HZ I        1042 43.14         2.2 0.16            119            240 236 
                                                                                
