 2014 12 6 1256 57.1 L   6.800 -73.163144.5  RSN  8 0.3 1.5LRSN                1
 GAP=276        0.56       4.2     3.6  4.7  0.1873E+00  0.2900E+01  0.1814E+00E
 Epicentro: LOS SANTOS - SANTANDER                                             3
 ACTION:UPD 15-02-10 17:00 OP:nd   STATUS:               ID:20141206125657 L   I
 OLDACT:REG 14-12-06 20:15 OP:spq  STATUS:               ID:20141206124744     3
 2014-12-06-1247-44M.COL___311                                                 6
 STAT SP IPHASW D HRMM SECON CODA AMPLIT PERI AZIMU VELO AIN AR TRES W  DIS CAZ7
 BAR2 SZ EP       1257 16.70                             170    0.1310 23.0 185 
 BAR2 SZ ES   1   1257 31.73                             170   -0.02 7 23.0 185 
 BAR2 SZ I        1257 33.38         5.5 0.46            165           23.0 185 
 RUS  HZ EP   1   1257 20.26                             143   -0.47 7  101 175 
 RUS  HE ES   1   1257 39.16                             143   -0.01 7  101 175 
 RUS  HZ I        1257 40.25         3.2 0.38            141            101 175 
 PTB  HZ EP       1257 23.72                             132   -0.07 9  146 259 
 PTB  HN ES       1257 44.45                             132   -0.15 9  146 259 
 PTB  HZ I        1257 46.34         2.9 0.12            130            146 259 
 SPBC HZ EP       1257 25.63                             129    0.25 9  162 218 
 SPBC HE ES       1257 47.83                             129    0.39 9  162 218 
 SPBC HZ I        1257 50.15         6.0 0.26            127            162 218 
 NOR  HZ EP       1257 32.67                             118    0.09 8  233 234 
 NOR  HN ES   1   1257 59.91                             118   -0.35 6  233 234 
 NOR  HZ I        1258  8.42         3.1 0.16            118            233 234 
 CHI  HZ EP   1   1257 34.77                             117    0.10 6  248 195 
 CHI  HE ES   1   1258  3.55                             117   -0.42 6  248 195 
 CHI  HZ I        1258  7.92         1.6 0.52            116            248 195 
 GUY2CHZ EP   4   1257 41.86                             112    1.39 0  300 235 
 GUY2CHN ES   4   1258 17.98                             112    3.69 0  300 235 
 GUY2CHZ I        1258 23.55         2.5 0.72                           300 235 
 SJC  HZ EP   4   1257 50.96                             105   -1.54 0  408 327 
 SJC  HE ES   4   1258 33.20                             105   -2.50 0  408 327 
 SJC  HZ I        1258 33.80         1.6 0.62            107            408 327 
                                                                                
