 2015 12 6 1133 57.1 L   6.775 -73.110155.0  RSN  7 0.4 1.7LRSN                1
 GAP=203        0.94       4.1     5.5  6.9  0.6879E+01 -0.1281E+00 -0.9248E+01E
 Epicentro: LOS SANTOS - SANTANDER                                             3
 2015-12-06-1127-47M.COL___315                                                 6
 OLDACT:UP  15-12-06 22:47 OP:drio STATUS:               ID:20151206112747     3
 OLDACT:UP  15-12-06 22:03 OP:drio STATUS:               ID:20151206112747     3
 OLDACT:REG 15-12-06 19:49 OP:drio STATUS:               ID:20151206112747     3
 ACTION:UPD 16-02-04 15:02 OP:cam  STATUS:               ID:20151206113357 L   I
 OLDACT:DUP 15-12-06 22:50 OP:drio STATUS:               ID:20151206112748d    3
 STAT SP IPHASW D HRMM SECON CODA AMPLIT PERI AZIMU VELO AIN AR TRES W  DIS CAZ7
 BAR2 EZ EP       1134 18.20                             172    0.3510 21.7 202 
 BAR2 EZ ES       1134 33.59                             172   -0.4210 21.7 202 
 BAR2 EZ I        1134 34.64         5.8 0.38            169           21.7 202 
 BRR  HZ EP       1134 20.18                             152    0.6310 76.0 299 
 BRR  HN ES       1134 37.62                             152    0.5810 76.0 299 
 RUS  HZ EP       1134 21.54                             146   -0.0610 97.6 178 
 RUS  HN ES       1134 40.42                             146   -0.2710 97.6 178 
 RUS  HZ I        1134 42.57         2.9 0.40            147           97.6 178 
 PTB  HZ EP       1134 25.00                             133   -0.17 9  151 260 
 PTB  HN ES       1134 46.95                             133   -0.08 9  151 260 
 PTB  HZ I        1134 51.46         4.1 0.20            132            151 260 
 SPBC HN ES       1134 49.23                             131    0.02 9  164 221 
 ZAR  HZ EP   4   1134 32.02                             124    1.35 0  209 292 
 ZAR  HE ES       1134 56.64                             124   -0.19 8  209 292 
 ZAR  HZ I        1135  3.37         7.2 0.30            123            209 292 
 SML  HZ EP       1134 34.63                             119   -0.11 8  248 335 
 SML  HN ES       1135  3.42                             119   -0.65 8  248 335 
 SML  HZ I        1135  6.12         6.9 0.10            119            248 335 
                                                                                
