 2011  6 6 1014 32.7 L   6.779 -73.117143.8  RSN  6 0.2 1.5LRSN                1
 GAP=141        0.54       3.2     4.2  4.7 -0.5444E+01  0.3372E+01  0.2489E+00E
 Epicentro: LOS SANTOS - SANTANDER                                             3
 ACTION:UP  11-07-14 19:03 OP:ep   STATUS:               ID:20110606101432 L   I
 2011-06-06-1010-58S.COL___132                                                 6
 STAT SP IPHASW D HRMM SECON CODA AMPLIT PERI AZIMU VELO SNR AR TRES W  DIS CAZ7
 BAR2 SZ EP   1   1014 51.77                             171    -0.3 7   22 199 
 BAR2 SZ ES   1   1015  6.67                             171    -0.5 7   22 199 
 BRR  HZ EP   1   1014 53.79                             151     0.0 7   75 299 
 BRR  HZ I        1014 53.92         9.6 0.17                            75 299 
 BRR  HE ES   1   1015 10.63                             151     0.3 7   75 299 
 PAM  SZ EP   1   1014 54.73                             150     0.1 7   77  37 
 PAM  SE ES   1   1015 12.07                             150     0.3 7   77  37 
 RUS  HZ EP   1   1014 56.08                             144     0.0 7   98 178 
 RUS  HE ES   1   1015 14.53                             144     0.3 7   98 178 
 RUS  HZ I        1015 15.40         5.2 0.22                            98 178 
 GRA  SZ EP   1   1014 57.76                             136    -0.1 7  127  16 
 GRA  SZ ES   2   1015 17.11                             136    -0.4 5  127  16 
 GRA  SZ I        1015 18.29         3.8 0.46                           127  16 
 NOR  SZ EP   1   1015  8.58                             118     0.2 6  236 235 
 NOR  SE ES   1   1015 36.17                             118    -0.1 6  236 235 
                                                                                
