 2014  5 6 1015 40.3 L   7.062 -73.157  0.0  RSN  4 0.3 0.9LRSN                1
 GAP=134        0.81       2.7     2.2  7.6 -0.1692E+01 -0.1480E+01  0.5898E+00E
 Epicentro: GIRON - SANTANDER                                                  3
 ACTION:UPD 15-03-16 16:55 OP:nd   STATUS:               ID:20140506101540 L   I
 OLDACT:UP  14-05-06 22:26 OP:mh   STATUS:               ID:20140506101000     3
 OLDACT:REG 14-05-06 20:24 OP:mh   STATUS:               ID:20140506101000     3
 2014-05-06-1010-00M.COL___273                                                 6
 STAT SP IPHASW D HRMM SECON CODA AMPLIT PERI AZIMU VELO AIN AR TRES W  DIS CAZ7
 PAM  SE ES       1015 59.42                              47    0.1510 59.2  59 
 RUS  HN ES       1016 18.25                              47   -0.0110  130 176 
 PTB  HZ EP   1   1016  4.58                              47   -0.39 7  155 248 
 PTB  HN ES       1016 24.52                              47    0.34 9  155 248 
 PTB  HZ I        1016 27.56         1.0 0.14            109            155 248 
 ZAR  HZ EP       1016  9.87                              37   -0.62 9  194 284 
 ZAR  HN ES       1016 34.30                              37    0.29 9  194 284 
 ZAR  HZ I        1017  0.27         2.2 0.13            105            194 284 
                                                                                
