 2011 11 6 1136 58.2 L   6.802 -73.155150.1  RSN 21 0.5 3.2LRSN                1
 GAP=113        0.75       2.5     3.5  4.6  0.9460E+00  0.6037E+01  0.2997E+01E
 Epicentro: LOS SANTOS - SANTANDER                                             3
 ACTION:UPD 12-07-13 16:08 OP:ep   STATUS:               ID:20111106113658 L   I
 2011-11-06-1135-25S.COL___175                                                 6
 STAT SP IPHASW D HRMM SECON CODA AMPLIT PERI AZIMU VELO AIN AR TRES W  DIS CAZ7
 BTL  SZ EP       1137 18.49                             173    0.2810 17.9 316 
 BAR2 SZ IP       1137 18.24                             171   -0.0710 23.4 187 
 BAR2 SZ ES   1   1137 33.25                             171   -0.77 7 23.4 187 
 BAR2 SZ I        1137 34.80       352.8 0.20                          23.4 187 
 BRR  HZ EP       1137 20.05                             154    0.3310 70.2 299 
 BRR  HE ES   1   1137 37.33                             154    0.80 7 70.2 299 
 BRR  HZ I        1137 40.88       168.4 0.28                          70.2 299 
 PAM  SZ IP       1137 21.05                             151    0.1910 77.8  40 
 PAM  SN ES   1   1137 38.40                             151   -0.16 7 77.8  40 
 RUS  HZ IP     D 1137 22.10                             144   -0.2610  101 175 
 RUS  HN ES   1   1137 40.91                             144   -0.32 7  101 175 
 RUS  HZ I        1137 42.22       130.6 0.28                           101 175 
 OCA  SZ EP       1137 26.46                             131   -0.31 9  160 353 
 OCA  SZ ES   1   1137 49.25                             131    0.16 7  160 353 
 OCA  SZ I        1137 54.23       104.3 0.30                           160 353 
 YOP  SZ IP       1137 28.88                             127    0.30 9  180 153 
 YOP  SN ES   1   1137 52.59                             127    0.28 7  180 153 
 YOP  SZ I        1137 53.53        86.7 0.32                           180 153 
 ZAR  HZ EP       1137 30.47                             123   -0.31 9  203 292 
 ZAR  HE ES   1   1137 55.70                             123   -0.52 6  203 292 
 ZAR  HZ I        1138  2.15       117.5 0.32                           203 292 
 CTAB SZ EP   3   1137 35.58                             120    1.45 2  230 210 
 CTAB SZ I        1138  9.51       137.4 0.46                           230 210 
 NOR  SZ EP       1137 34.19                             119    0.12 8  234 234 
 NOR  SN ES   2   1138  1.39                             119   -0.69 4  234 234 
 ROSC BE ES   2   1138  7.34                             117    0.97 4  252 211 
 ROSC BZ I        1138 12.95       140.1 0.55                           252 211 
 HEL  HZ EP       1137 38.66                             116    0.17 8  271 256 
 HEL  HE ES   3   1138  9.81                             116   -0.14 2  271 256 
 HEL  HZ I        1138 18.43        77.6 0.36                           271 256 
 GUY  SZ I        1138 25.87       148.2 0.44                           303 235 
 VIL  SZ EP       1137 41.86                             113    0.08 7  303 191 
 VIL  SE ES   1   1138 15.18                             113   -0.62 5  303 191 
 GUY  SZ EP       1137 41.77                             113   -0.38 7  303 235 
 RREF HZ EP       1137 44.50                             112    0.08 7  321 229 
 RREF HE ES   2   1138 21.52                             112    1.02 3  321 229 
 RREF HZ I        1138 29.72        62.9 0.62                           321 229 
 DBB  SZ EP   2   1137 46.29                             110    0.60 3  338 274 
 TOL  SZ EP   2   1137 47.36                             110    0.83 3  343 224 
 COD  HZ EP   2   1137 45.94                             110   -0.72 3  348 355 
 COD  HZ I        1138 34.87        70.2 0.66                           348 355 
 MON  HZ EP   3   1137 45.10                             109   -2.12 2  353 308 
 ANIL HZ EP   3   1137 48.25                             109    0.18 2  357 224 
 ANIL HN ES   3   1138 26.62                             109   -0.38 2  357 224 
 PRA  HZ EP       1137 51.53                             107   -0.27 6  392 209 
                                                                                
