 2014  1 6 1246 56.0 L   6.829 -73.156135.6  RSN  7 0.4 1.6LRSN                1
 GAP=134        1.00       3.6     5.1  6.6 -0.5733E+01  0.1256E+02 -0.6591E+00E
 Epicentro: LOS SANTOS - SANTANDER                                             3
 ACTION:UPD 14-03-13 09:52 OP:ep   STATUS:               ID:20140106124656 L   I
 OLDACT:REG 14-01-06 15:45 OP:stll STATUS:               ID:20140106123813     3
 2014-01-06-1238-13M.COL___231                                                 6
 STAT SP IPHASW D HRMM SECON CODA AMPLIT PERI AZIMU VELO AIN AR TRES W  DIS CAZ7
 BAR2 SZ EP       1247 14.46                             168   -0.0410 26.3 186 
 BAR2 SZ ES       1247 28.99                             168    0.0810 26.3 186 
 BAR2 SZ I        1247 31.31        16.8 0.26            170           26.3 186 
 PAM  SZ EP       1247 17.24                             149    0.1810 75.7  42 
 PAM  SZ I        1247 17.60        19.2 0.20            151           75.7  42 
 PAM  SN ES       1247 33.91                             149    0.4410 75.7  42 
 RUS  HZ EP       1247 19.14                             141    0.1110  104 176 
 RUS  HN ES       1247 36.63                             141   -0.3610  104 176 
 RUS  HZ I        1247 38.13         5.2 0.24            143            104 176 
 PTB  HZ EP       1247 22.29                             130    0.16 9  147 258 
 PTB  HN ES       1247 42.15                             130   -0.35 9  147 258 
 PTB  HZ I        1247 45.32         7.9 0.26            130            147 258 
 OCA  HZ EP       1247 22.53                             128   -0.71 9  157 353 
 OCA  HN ES       1247 44.44                             128   -0.04 9  157 353 
 OCA  HZ I        1247 47.98         8.8 0.50            129            157 353 
 CHI  HZ EP       1247 32.94                             115   -0.54 8  251 195 
 CHI  HZ I        1247 35.19         0.8 0.16            116            251 195 
 GUY2CHZ EP       1247 40.37                             110    1.09 7  302 234 
 GUY2CHN ES       1248 13.34                             110    0.32 7  302 234 
 GUY2CHZ I        1248 20.89         1.7 0.52                           302 234 
                                                                                
