 2011  5 6 1323 20.6 L   6.748 -72.807136.9  RSN  4 0.4 1.3LRSN                1
 GAP=198        0.70       8.7    44.8 23.4  0.3279E+02 -0.8439E+03 -0.5864E+02E
 Epicentro: MOLAGAVITA - SANTANDER                                             3
 ACTION:UP  11-06-29 08:51 OP:tino STATUS:               ID:20110506132320 L   I
 2011-05-06-1318-13S.COL___132                                                 6
 STAT SP IPHASW D HRMM SECON CODA AMPLIT PERI AZIMU VELO SNR AR TRES W  DIS CAZ7
 BAR2 SZ EP   2   1323 39.20                             159    -0.6 5   45 247 
 BAR2 SZ I        1323 39.73         7.2 0.32                            45 247 
 BAR2 SZ ES   2   1323 54.54                             159    -0.3 5   45 247 
 BTL  SZ EP   1   1323 40.66                             155     0.4 7   54 290 
 RUS  HZ EP   1   1323 43.27                             141    -0.1 7   99 198 
 RUS  HN ES   2   1324  1.56                             141     0.4 5   99 198 
 RUS  HZ I        1324  4.71         2.4 0.24                            99 198 
 GRA  SZ EP   2   1323 45.07                             134     0.0 5  126   0 
 GRA  SZ I        1324  0.39         3.3 0.30                           126   0 
                                                                                
