 2013 12 6 1920 23.9 L   6.806 -73.147147.7  RSN  9 0.4 2.1LRSN                1
 GAP=136        1.02       4.2     4.6  6.5 -0.3598E+00  0.8401E+01  0.8874E+01E
 Epicentro: LOS SANTOS - SANTANDER                                             3
 ACTION:UPD 14-01-13 10:16 OP:ep   STATUS:               ID:20131206192023 L   I
 OLDACT:UP  13-12-06 16:25 OP:cam  STATUS:               ID:20131206192000     3
 OLDACT:REG 13-12-06 14:54 OP:cam  STATUS:               ID:20131206192000     3
 2013-12-06-1920-00M.COL___285                                                 6
 STAT SP IPHASW D HRMM SECON CODA AMPLIT PERI AZIMU VELO AIN AR TRES W  DIS CAZ7
 BAR2 SZ EP       1920 43.68                             170   -0.0510 23.9 189 
 BAR2 SZ ES       1920 58.58                             170   -0.6510 23.9 189 
 BAR2 SZ I        1920 59.91        36.9 0.22            168           23.9 189 
 BRR  HZ EP       1920 45.37                             153    0.1810 70.7 298 
 BRR  HN ES       1921  2.88                             153    1.0510 70.7 298 
 BRR  HZ I        1921  7.92        24.9 0.28            152           70.7 298 
 PAM  SN ES       1921  3.58                             151   -0.1510 77.0  40 
 RUS  HZ EP       1920 47.76                             144   -0.0810  101 176 
 RUS  HN ES       1921  6.75                             144    0.1910  101 176 
 RUS  HZ I        1921  8.05        12.9 0.24            145            101 176 
 PTB  HZ EP       1920 50.50                             132   -0.47 9  148 259 
 PTB  HN ES       1921 11.63                             132   -0.50 9  148 259 
 PTB  HZ I        1921 13.46        15.6 0.42            133            148 259 
 SPBC HZ EP   1   1920 52.56                             129    0.02 7  164 219 
 SPBC HN ES       1921 14.98                             129    0.07 9  164 219 
 SPBC HZ I        1921 20.96        14.3 0.16            130            164 219 
 ZAR  HN ES   1   1921 21.42                             123   -0.33 6  204 292 
 NOR  HZ EP       1920 59.90                             119    0.18 8  235 234 
 NOR  HN ES       1921 27.63                             119   -0.06 8  235 234 
 NOR  HZ I        1921 33.65         7.8 0.48            120            235 234 
 CHI  HZ EP       1921  2.02                             117    0.30 8  249 195 
 CHI  HN ES       1921 31.51                             117    0.25 8  249 195 
 CHI  HZ I        1921 33.36         5.6 0.32            119            249 195 
 GUY2CHZ EP   4   1921  9.24                             113    1.66 0  301 235 
                                                                                
