 2017 12 6 1744 31.9 L   6.643 -73.469115.1  RSN  5 0.2 1.8LRSN                1
 GAP=159        1.29       7.5     5.5  9.6  0.2018E+02  0.1994E+02  0.2279E+02E
 Epicentro: EL CARMEN - SANTANDER                                              3
 ACTION:UPD 18-01-04 13:17 OP:rebc STATUS:               ID:20171206174431 L   I
 OLDACT:REG 17-12-06 20:50 OP:lv   STATUS:               ID:20171206173738     3
 2017-12-06-1738-00M.COL___491                                                 6
 STAT SP IPHASW D HRMM SECON CODA AMPLIT PERI AZIMU VELO AIN AR TRES W  DIS CAZ7
 BAR2 EZ EP       1744 48.15                             163    0.0110 32.1 100 
 BAR2 EZ ES       1745  0.59                             163   -0.2110 32.1 100 
 BAR2 EZ I        1745  1.87        56.0 0.40            159           32.1 100 
 PTB  HZ IP   9 C 1744 51.06                             133   -1.88 0  110 264 
 PTB  HN ES       1745  6.07                                   -1.3910  110 264 
 PTB  HZ I        1745  7.41         6.2 0.18            132            110 264 
 ZAR  HZ EP       1744 59.90                             118   -0.03 9  180 302 
 ZAR  HN ES       1745 22.18                             118    0.39 9  180 302 
 ZAR  HZ I        1745 24.73        10.3 0.30            116            180 302 
 YPLC HZ EP       1745  0.28                             118   -0.08 9  183 139 
 YPLC HN ES       1745 22.76                             118    0.22 9  183 139 
 YPLC HZ I        1745 24.36         8.2 0.40            115            183 139 
 GUY2CHZ EP       1745  9.49                             109   -0.25 8  262 233 
 GUY2CHN ES       1745 39.17                             109   -0.08 8  262 233 
 GUY2CHZ I        1745 46.04         1.8 0.48                           262 233 
                                                                                
