 2016  2 6 1020  8.1 L   6.781 -73.132141.2  RSN  7 0.2 1.4LRSN                1
 GAP=157        0.62       2.8     3.0  5.4 -0.3173E+01  0.3922E+01 -0.4562E+00E
 Epicentro: LOS SANTOS - SANTANDER                                             3
 OLDACT:REG 16-02-06 20:16 OP:cara STATUS:               ID:20160206101742     3
 ACTION:UPD 16-03-04 21:23 OP:rebc STATUS:               ID:20160206102008 L   I
 OLDACT:DUP 16-02-06 23:18 OP:cara STATUS:               ID:20160206101743d    3
 OLDACT:UP  16-02-06 23:17 OP:cara STATUS:               ID:20160206101742     3
 2016-02-06-1017-42M.COL___328                                                 6
 STAT SP IPHASW D HRMM SECON CODA AMPLIT PERI AZIMU VELO AIN AR TRES W  DIS CAZ7
 BAR2 EZ EP       1020 26.88                             171   -0.2910 21.7 195 
 BAR2 EZ ES       1020 42.16                             171    0.1310 21.7 195 
 BAR2 EZ I        1020 44.84         3.4 0.18            170           21.7 195 
 PAM  EZ IP       1020 30.24                             150    0.3510 78.0  38 
 PAM  EN ES       1020 46.82                             150   -0.0610 78.0  38 
 PAM  EZ I        1020 49.49         2.8 0.42            153           78.0  38 
 PTB  HN ES       1020 55.33                             131   -0.33 9  149 260 
 PTB  HZ I        1021  0.60         2.5 0.26            130            149 260 
 OCA  HN ES       1020 58.09                             128   -0.18 9  162 353 
 OCA  HZ I        1021  3.91         5.9 0.78            129            162 353 
 SPBC HZ EP       1020 36.08                             128   -0.14 9  163 220 
 SPBC HN ES       1020 58.34                             128    0.21 9  163 220 
 SPBC HZ I        1021  5.31         3.9 0.34            129            163 220 
 ZAR  HN ES       1021  6.11                             121    0.34 8  206 293 
 ZAR  HZ I        1021 13.54         1.7 0.52            121            206 293 
 GUY2CHZ EP   9   1020 53.92                             111    2.39 0  301 235 
 GUY2CHN ES       1021 27.85                                    0.07 7  301 235 
 GUY2CHZ I        1021 36.58         1.3 0.70                           301 235 
                                                                                
