 2013  3 6 1451 10.9 L   6.786 -73.149145.0  RSN  6 0.2 1.9LRSN                1
 GAP= 99        0.65       3.5     3.0  4.4 -0.6484E+00 -0.9593E+00  0.1256E+01E
 Epicentro: LOS SANTOS - SANTANDER                                             3
 ACTION:UPD 13-04-09 14:00 OP:ep   STATUS:               ID:20130306145110 L   I
 2013-03-06-1448-50M.COL___202                                                 6
 STAT SP IPHASW D HRMM SECON CODA AMPLIT PERI AZIMU VELO AIN AR TRES W  DIS CAZ7
 BAR2 SZ EP       1451 30.43                             171    0.0210 21.8 190 
 BAR2 SZ I        1451 30.55        19.0 0.40            170           21.8 190 
 BAR2 SZ ES       1451 45.40                             171   -0.2310 21.8 190 
 BRR  HZ EP       1451 32.17                             152    0.1810 71.6 300 
 BRR  HN ES       1451 48.86                             152    0.4110 71.6 300 
 BRR  HN I        1451 51.53        15.0 0.14            150           71.6 300 
 PAM  SZ EP       1451 33.28                             150    0.1610 78.8  39 
 PAM  SZ I        1451 33.39        13.7 0.18            153           78.8  39 
 PAM  SN ES       1451 50.14                             150   -0.3110 78.8  39 
 RUS  HZ EP       1451 34.54                             144    0.0710 99.1 176 
 RUS  HN ES       1451 53.00                             144    0.1410 99.1 176 
 RUS  HE I        1451 54.28        12.3 0.24            145           99.1 176 
 PTB  HZ EP       1451 37.31                             132   -0.44 9  147 259 
 PTB  HN ES       1451 58.56                             132   -0.13 9  147 259 
 PTB  HE I        1452  4.19        14.2 0.28            131            147 259 
 TAM  HZ EP       1451 38.57                             130    0.06 9  155 104 
                                                                                
