 2013  1 6 1258 55.7 L   6.705 -73.187143.6  RSN  4 0.3 1.7LRSN                1
 GAP=225        0.73       7.4     7.0  7.4  0.2560E+02  0.1079E+02  0.3924E+01E
 Epicentro: VILLANUEVA - SANTANDER                                             3
 ACTION:UPD 13-02-15 09:12 OP:ep   STATUS:               ID:20130106125855 L   I
 2013-01-06-1250-00M.COL___242                                                 6
 STAT SP IPHASW D HRMM SECON CODA AMPLIT PERI AZIMU VELO AIN AR TRES W  DIS CAZ7
 BAR2 SZ EP   1   1259 14.50                             175   -0.36 8 12.4 178 
 BAR2 SZ ES   1   1259 29.29                             175   -0.54 8 12.4 178 
 BAR2 SZ I        1259 32.37        13.8 0.28            174           12.4 178 
 BRR  HZ EP   1   1259 17.04                             151    0.35 8 73.1 308 
 BRR  HN ES   1   1259 33.51                             151    0.42 8 73.1 308 
 BRR  HZ I        1259 38.93         9.2 0.12            151           73.1 308 
 RUS  HZ EP   1   1259 18.65                             146    0.15 8 90.5 173 
 RUS  HN ES   1   1259 36.71                             146    0.41 8 90.5 173 
 RUS  HZ I        1259 38.07         6.1 0.36            152           90.5 173 
 PTB  HZ EP       1259 21.70                             133   -0.2010  142 263 
 PTB  HN ES   1   1259 42.23                             133   -0.13 7  142 263 
 PTB  HZ I        1259 46.72         5.6 0.22            135            142 263 
                                                                                
