 2010  1 6 1708 17.5 L   6.896 -73.254130.0  RSN 10 0.6 2.4LRSN                1
 GAP=143        0.95       4.1     7.6  9.0 -0.9106E+01  0.3374E+02  0.1790E+01E
 Epicentro: BETULIA - SANTANDER                                                3
 ACTION:UP  10-08-24 09:42 OP:vdl  STATUS:               ID:20100106170817 L   I
 2010-01-06-1706-53S.COL___097                                                 6
 STAT SP IPHASW D HRMM SECON CODA AMPLIT PERI AZIMU VELO SNR AR TRES W  DIS CAZ7
 GIR2 SZ IP       17 8 35.33                             170     0.210   21  18 
 GIR2 SZ ES   1   17 8 48.57                             170    -0.2 7   21  18 
 BAR2 SZ IP       17 8 35.67                             164     0.110   35 167 
 GUE  SZ EP   1   17 8 40.04                             138    -0.2 7  109  19 
 RUS  BZ EP   1   17 8 39.95                             137    -0.8 7  113 170 
 RUS  BN ES   1   17 8 59.05                             137     0.2 7  113 170 
 GRA  SZ IP       17 8 40.78                             135    -0.110  120  24 
 GRA  SZ ES   1   17 8 59.49                             135     0.3 7  120  24 
 CHI  HZ EP   1   17 8 54.60                             113    -0.7 6  256 192 
 CHI  HN ES   1   17 9 24.78                             113     0.1 6  256 192 
 CHI  HZ I        17 9 33.19        10.5 0.08                           256 192 
 HEL  HZ EP   2   17 8 57.16                             112     1.1 4  263 253 
 HEL  HZ I        17 9 35.07        21.7 0.48                           263 253 
 DBB  SZ EP   1   17 9  3.91                             107     1.0 5  327 273 
 DBB  SZ ES   1   17 9 37.21                             107    -1.2 5  327 273 
 TOL  SZ EP   2   17 9  6.15                             106     1.0 3  343 222 
 PRA  HZ EP   2   17 9 10.59                             104    -0.4 3  396 207 
 PRA  HN ES   1   17 9 53.44                             104     0.8 4  396 207 
                                                                                
