 2017  3 6 1604 53.2 L   6.795 -73.141153.1  RSN  5 0.5 1.4LRSN                1
 GAP=137        1.26       7.0     6.7  9.2 -0.4620E+01  0.6896E+01  0.2723E+01E
 Epicentro: LOS SANTOS - SANTANDER                                             3
 ACTION:UPD 17-05-25 18:37 OP:jn   STATUS:               ID:20170306160453 L   I
 OLDACT:REG 17-03-06 19:20 OP:ar   STATUS:               ID:20170306155748     3
 2017-03-06-1558-00M.COL___365                                                 6
 STAT SP IPHASW D HRMM SECON CODA AMPLIT PERI AZIMU VELO AIN AR TRES W  DIS CAZ7
 BAR2 EZ EP       16 5 13.64                             171   -0.0710 22.9 192 
 BAR2 EZ ES       16 5 29.63                             171   -0.0710 22.9 192 
 BAR2 EZ I        16 5 29.97         5.9 0.54            171           22.9 192 
 BRR  HZ EP       16 5 15.35                             153    0.1610 71.9 299 
 BRR  HE ES       16 5 33.30                             153    0.9610 71.9 299 
 PAM  EZ EP       16 5 16.51                             152    0.3010 77.5  39 
 PAM  EN ES       16 5 33.42                             152   -0.7410 77.5  39 
 PAM  EZ I        16 5 35.08         3.6 0.14            152           77.5  39 
 RUS  HZ EP       16 5 17.76                             145    0.1210100.0 176 
 RUS  HN ES       16 5 36.88                             145    0.1810100.0 176 
 RUS  HZ I        16 5 37.58         2.5 0.26            146          100.0 176 
 PTB  HZ EP       16 5 20.69                             133   -0.13 9  148 259 
 PTB  HN ES       16 5 41.53                             133   -0.82 9  148 259 
 PTB  HZ I        16 5 42.53         4.2 0.50            134            148 259 
                                                                                
