 2014 12 6 1157 29.2 L   6.792 -73.143143.8  RSN  4 0.3 1.3LRSN                1
 GAP=140        0.73       5.4     4.6  7.4 -0.7386E+01  0.4168E+01 -0.1824E+01E
 Epicentro: LOS SANTOS - SANTANDER                                             3
 ACTION:UPD 15-02-10 17:00 OP:nd   STATUS:               ID:20141206115729 L   I
 OLDACT:REG 14-12-06 20:06 OP:spq  STATUS:               ID:20141206114748     3
 2014-12-06-1147-48M.COL___311                                                 6
 STAT SP IPHASW D HRMM SECON CODA AMPLIT PERI AZIMU VELO AIN AR TRES W  DIS CAZ7
 BAR2 SZ EP   1   1157 47.91                             171   -0.63 7 22.6 191 
 BAR2 SZ ES   1   1158  3.44                             171   -0.21 7 22.6 191 
 BAR2 SZ I        1158  4.84         5.6 0.20            171           22.6 191 
 PAM  SZ EP       1157 51.59                             150    0.4010 77.8  39 
 PAM  SE ES   1   1158  8.24                             150   -0.14 7 77.8  39 
 PAM  SZ I        1158 10.50         3.0 0.38            153           77.8  39 
 RUS  HZ EP       1157 52.51                             144   -0.1410 99.7 176 
 RUS  HN ES   1   1158 11.38                             144    0.40 7 99.7 176 
 RUS  HZ I        1158 12.98         3.3 0.40            146           99.7 176 
 PTB  HZ EP   1   1157 55.83                             131   -0.15 7  148 259 
 PTB  HN ES       1158 17.07                             131    0.17 9  148 259 
 PTB  HZ I        1158 19.49         3.9 0.20            133            148 259 
                                                                                
