 2010  6 6 1839 13.4 L   6.797 -73.093148.0  RSN 13 0.7 3.1LRSN                1
 GAP=147        1.63       6.2     9.0  9.2 -0.3455E+02  0.1277E+01  0.1474E+02E
 Epicentro: LOS SANTOS - SANTANDER                                             3
 ACTION:UP  10-08-24 10:08 OP:vdl  STATUS:               ID:20100606183913 L   I
 2010-06-06-1834-58S.COL___111                                                 6
 STAT SP IPHASW D HRMM SECON CODA AMPLIT PERI AZIMU VELO SNR AR TRES W  DIS CAZ7
 BAR2 SZ IP       1839 32.84                             170    -0.510   25 204 
 BAR2 SZ ES       1839 48.13                             170    -0.810   25 204 
 GIR2 SZ EP       1839 33.94                             167     0.510   33 340 
 GIR2 SZ ES   1   1839 49.40                             167     0.4 7   33 340 
 GUE  SZ EP       1839 38.73                             140     0.410  116   9 
 GUE  SZ ES   1   1839 57.86                             140     0.2 7  116   9 
 GRA  SZ EP       1839 39.65                             137     0.910  124  15 
 GRA  SZ ES   1   1839 59.34                             137     0.8 7  124  15 
 OCA  SZ EP       1839 41.15                             130    -0.9 9  161 351 
 OCA  SZ ES       1840  4.05                             130    -0.3 9  161 351 
 OCA  SZ I        1840  9.14       237.9 0.30                           161 351 
 CHI  HZ EP       1839 50.86                             117    -0.5 8  250 196 
 CHI  HN ES   1   1840 20.71                             117    -0.3 6  250 196 
 CHI  HZ I        1840 28.01        48.0 0.41                           250 196 
 ROSC BZ EP       1839 52.42                             117     0.5 8  256 212 
 ROSC BN ES   2   1840 21.95                             117    -0.1 4  256 212 
 ROSC BZ I        1840 30.67        80.9 0.40                           256 212 
 CVER SZ EP       1839 55.56                             115     1.4 8  274 203 
 HEL  HZ EP   1   1839 54.56                             114     0.2 6  278 256 
 HEL  HN ES       1840 25.41                             114    -0.9 7  278 256 
 HEL  HZ I        1840 31.60        97.9 0.77                           278 256 
 RREF BZ EP   1   1840  0.21                             111     0.1 5  326 230 
 RREF BN ES       1840 37.65                             111     1.1 7  326 230 
 RREF BZ I        1840 45.10        70.8 0.30                           326 230 
 TOL  SZ EP       1840  1.33                             109    -0.9 6  347 225 
 TOL  SZ ES   1   1840 39.92                             109    -0.4 5  347 225 
 SDV  BZ EP   1   1840  2.27                             109    -0.8 5  356  50 
 SDV  BN ES       1840 40.76                             109    -1.0 6  356  50 
 SDV  BZ I        1840 42.76        10.6 0.41                           356  50 
 ANIL BZ EP   1   1840  4.01                             108     0.2 5  361 225 
 ANIL BZ I        1840 49.20       109.6 1.07                           361 225 
                                                                                
