 2010  5 6 1731  5.2 L   6.683 -73.075153.2  RSN  6 0.5 2.1LRSN                1
 GAP=215        0.79      10.2    14.4  9.8 -0.7466E+02 -0.3850E+02  0.7690E+01E
 Epicentro: ARATOCA - SANTANDER                                                3
 ACTION:UP  10-08-24 10:03 OP:vdl  STATUS:               ID:20100506173105 L   I
 2010-05-06-1728-38S.COL___105                                                 6
 STAT SP IPHASW D HRMM SECON CODA AMPLIT PERI AZIMU VELO SNR AR TRES W  DIS CAZ7
 BAR2 SZ EP   1   1731 25.56                             174     0.0 7   16 230 
 BAR2 SZ ES   2   1731 41.54                             174     0.1 5   16 230 
 GIR2 SZ EP   1   1731 25.98                             163    -0.2 7   46 343 
 GIR2 SZ ES   2   1731 42.34                             163    -0.2 5   46 343 
 BRR  HZ EP   1   1731 27.99                             150     0.1 7   85 304 
 BRR  HZ I        1731 28.35        23.2 0.17                            85 304 
 BRR  HE ES   2   1731 45.72                             150     0.1 5   85 304 
 BRI  SZ EP   2   1731 30.25                             140    -0.3 5  118  15 
 BRI  SZ ES   2   1731 51.09                             140     0.8 5  118  15 
 GUE  SZ EP   1   1731 30.88                             138    -0.6 7  128   7 
 GRA  SZ EP   1   1731 32.74                             136     0.8 7  136  13 
 GRA  SZ ES   2   1731 52.07                             136    -0.8 5  136  13 
                                                                                
