 2011  9 6 1644  7.5 L   6.652 -73.245149.2  RSN  4 0.3 1.9LRSN                1
 GAP=179        0.73       9.6    10.9  6.5  0.8685E+02  0.1831E+02  0.8633E+01E
 Epicentro: BARICHARA - SANTANDER                                              3
 ACTION:UPD 12-07-13 15:56 OP:ep   STATUS:               ID:20110906164407 L   I
 2011-09-06-1642-09S.COL___171                                                 6
 STAT SP IPHASW D HRMM SECON CODA AMPLIT PERI AZIMU VELO AIN AR TRES W  DIS CAZ7
 BAR2 SZ EP       1644 27.25                             176   -0.1410 9.54 134 
 BAR2 SZ ES       1644 42.45                             176   -0.4210 9.54 134 
 BAR2 SZ I        1644 43.80        19.5 0.22                          9.54 134 
 BRR  HZ EP       1644 29.15                             153    0.0410 72.1 314 
 BRR  HN ES       1644 46.39                             153    0.4510 72.1 314 
 BRR  HZ I        1644 47.49        18.3 0.11                          72.1 314 
 RUS  HZ EP   1   1644 30.98                             149    0.34 7 85.8 168 
 RUS  HN ES   1   1644 48.82                             149    0.16 7 85.8 168 
 RUS  HZ I        1644 51.09         9.2 0.25                          85.8 168 
 ZAR  HZ EP   1   1644 39.84                             123   -0.06 6  201 298 
 ZAR  HE ES   1   1645  4.71                             123   -0.43 6  201 298 
 ZAR  HZ I        1645 11.25         9.0 0.27                           201 298 
                                                                                
