 2017 10 6 1438 38.1 L   6.857 -73.082140.8  RSN  6 0.3 1.6LRSN                1
 GAP=142        0.71       3.3     3.7  5.6 -0.2463E+01  0.1131E+02 -0.8059E+00E
 Epicentro: LOS SANTOS - SANTANDER                                             3
 ACTION:UPD 17-11-07 19:29 OP:rebc STATUS:               ID:20171006143838 L   I
 OLDACT:REG 17-10-06 20:10 OP:osc  STATUS:               ID:20171006143743     3
 2017-10-06-1438-00M.COL___425                                                 6
 STAT SP IPHASW D HRMM SECON CODA AMPLIT PERI AZIMU VELO AIN AR TRES W  DIS CAZ7
 BAR2 EZ EP       1438 57.62                             167    0.2910 31.4 201 
 BAR2 EZ ES       1439 12.48                             167    0.1510 31.4 201 
 BAR2 EZ I        1439 14.18        12.2 0.18            169           31.4 201 
 PAM  EZ EP       1438 59.58                             153    0.3410 68.0  38 
 PAM  EE ES       1439 15.30                             153   -0.4410 68.0  38 
 PAM  EZ I        1439 19.94         8.4 0.30            155           68.0  38 
 RUS  HZ EP       1439  2.00                             141    0.1710  107 180 
 RUS  HN ES       1439 20.15                             141   -0.1910  107 180 
 RUS  HZ I        1439 22.21         5.6 0.30            146            107 180 
 ZAR  HZ EP       1439 10.38                             121   -0.30 8  208 290 
 ZAR  HE ES       1439 36.32                             121    0.23 8  208 290 
 ZAR  HZ I        1439 41.94         4.5 0.25            122            208 290 
 NOR  HN ES       1439 42.83                             116   -0.19 8  244 234 
 GUY2CHZ EP       1439 22.09                             111   -0.47 7  311 235 
 GUY2CHE ES       1439 57.38                             111    0.15 7  311 235 
 GUY2CHZ I        1440  4.42         1.8 0.42                           311 235 
                                                                                
