 2015  1 6 1014  6.4 L   6.646 -73.253144.8  RSN  4 0.2 1.4LRSN                1
 GAP=172        0.60       6.5     4.2  5.1  0.9434E+01  0.6074E+01  0.1541E+01E
 Epicentro: BARICHARA - SANTANDER                                              3
 ACTION:UPD 15-03-02 15:37 OP:nd   STATUS:               ID:20150106101406 L   I
 OLDACT:REG 15-01-06 22:12 OP:mh   STATUS:               ID:20150106100744     3
 2015-01-06-1007-44M.COL___277                                                 6
 STAT SP IPHASW D HRMM SECON CODA AMPLIT PERI AZIMU VELO AIN AR TRES W  DIS CAZ7
 BAR2 EZ EP       1014 25.44                             176   -0.2410 9.80 128 
 BAR2 EZ ES       1014 40.85                             176    0.1010 9.80 128 
 BAR2 EZ I        1014 47.11         3.0 0.20            172           9.80 128 
 BRR  HZ EP       1014 27.26                             152   -0.1910 71.9 315 
 BRR  HN ES       1014 44.07                             152    0.1710 71.9 315 
 BRR  HZ I        1014 46.83         4.4 0.18            154           71.9 315 
 PTB  HZ EP       1014 32.41                             135    0.4110  134 265 
 PTB  HN ES       1014 51.79                             135   -0.2110  134 265 
 PTB  HZ I        1014 58.89         2.3 0.12            136            134 265 
 ZAR  HZ EP   1   1014 38.59                             123    0.21 6  201 298 
 ZAR  HN ES       1015  3.22                             123   -0.14 9  201 298 
 ZAR  HZ I        1015  8.59         6.6 0.36            126            201 298 
                                                                                
