 2015  4 6 1647  4.5 L   6.747 -73.169138.6  RSN  6 0.4 1.9LRSN                1
 GAP=136        1.09       4.9     5.2  7.4 -0.6283E+01  0.5700E+01  0.3772E+01E
 Epicentro: LOS SANTOS - SANTANDER                                             3
 ACTION:UPD 15-06-03 16:53 OP:cam  STATUS:               ID:20150406164704 L   I
 OLDACT:REG 15-04-06 20:55 OP:carl STATUS:               ID:20150406163747     3
 2015-04-06-1637-47M.COL___267                                                 6
 STAT SP IPHASW D HRMM SECON CODA AMPLIT PERI AZIMU VELO AIN AR TRES W  DIS CAZ7
 BAR2 EZ EP       1647 23.32                             173    0.1410 17.2 185 
 BAR2 EZ ES       1647 38.05                             173    0.3210 17.2 185 
 BAR2 EZ I        1647 39.48        27.5 0.18            169           17.2 185 
 BRR  HZ EP       1647 25.30                             151    0.3510 72.0 304 
 BRR  HN ES       1647 41.45                             151    0.5710 72.0 304 
 PAM  SZ EP       1647 26.21                             147   -0.1610 83.6  38 
 PAM  SN ES       1647 42.88                             147   -0.5410 83.6  38 
 PAM  SZ I        1647 44.67        10.5 0.40            152           83.6  38 
 RUS  HZ EP       1647 27.47                             144    0.3110 95.0 174 
 RUS  HE ES       1647 44.54                             144   -0.2810 95.0 174 
 PTB  HZ EP       1647 29.96                             131   -0.62 9  144 261 
 PTB  HN ES       1647 50.41                             131   -0.50 9  144 261 
 PTB  HZ I        1647 53.65        11.6 0.12            131            144 261 
 SPBC HZ EP       1647 32.46                             128    0.57 9  157 220 
 SPBC HN ES       1647 52.98                             128   -0.25 9  157 220 
 SPBC HZ I        1648  2.03        12.1 0.20            129            157 220 
                                                                                
