 2017 11 6 1015 44.9 L   6.462 -73.690  0.0  RSN  6 0.5 1.1LRSN                1
 GAP=157        1.00       3.6     2.7  6.9 -0.5295E+01  0.7215E+01 -0.6464E+01E
 Epicentro: SANTA HELENA DEL OPON - SANTANDER                                  3
 ACTION:UPD 17-12-12 19:52 OP:rebc STATUS:               ID:20171106101544 L   I
 OLDACT:REG 17-11-06 21:01 OP:mg   STATUS:               ID:20171106100737     3
 2017-11-06-1008-00M.COL___423                                                 6
 STAT SP IPHASW D HRMM SECON CODA AMPLIT PERI AZIMU VELO AIN AR TRES W  DIS CAZ7
 BAR2 EZ EP     D 1015 54.56                              47   -0.4910 57.9  76 
 BAR2 EZ ES   3   1016  1.69                              47   -1.31 2 57.9  76 
 BAR2 EZ I        1016  2.04         5.9 0.10             47           57.9  76 
 BRR  HZ EP       1015 56.87                              47    0.0410 71.3 358 
 BRR  HN ES       1016  5.71                              47   -0.4610 71.3 358 
 BRR  HZ I        1016  6.32         5.7 0.11             47           71.3 358 
 PTB  HZ EP       1015 59.27                              47    0.3210 85.2 276 
 PTB  HN ES       1016 10.12                              47    0.1810 85.2 276 
 PTB  HZ I        1016 12.28        11.2 0.18             47           85.2 276 
 PAM  EZ EP       1016  8.62                              47   -0.07 9  146  48 
 PAM  EN ES       1016 28.24                              47    0.96 9  146  48 
 PAM  EZ I        1016 29.24         2.7 0.22             47            146  48 
 NOR  HZ EP   3   1016 11.27                              47    0.33 2  164 233 
 NOR  HN ES       1016 31.07                              47   -0.21 9  164 233 
 NOR  HZ I        1016 32.01         2.2 0.10             47            164 233 
 ZAR  HZ EP   3   1016 11.89                              47   -0.22 2  172 311 
 ZAR  HN ES   2   1016 32.80                              47   -0.57 4  172 311 
 ZAR  HZ I        1016 33.10         1.6 0.21             47            172 311 
                                                                                
