 2012  8 6 1906 17.5 L   6.548 -73.399117.1  RSN  9 0.3 2.2LRSN                1
 GAP= 82        0.55       2.4     2.2  4.6  0.2845E+00 -0.5333E-01 -0.1353E+01E
 Epicentro: HATO - SANTANDER                                                   3
 ACTION:UPD 12-09-10 11:54 OP:ep   STATUS:               ID:20120806190618dL   I
 2012-08-06-1900-00M.COL___216                                                 6
 STAT SP IPHASW D HRMM SECON CODA AMPLIT PERI AZIMU VELO AIN AR TRES W  DIS CAZ7
 BAR2 SZ EP   1   19 6 33.73                             168    0.03 7 24.4  79 
 BAR2 SZ ES   1   19 6 46.80                             168    0.44 7 24.4  79 
 BAR2 SZ I        19 6 48.54        94.1 0.33                          24.4  79 
 BRR  HZ EP   1   19 6 35.33                             147   -0.26 7 70.8 331 
 BRR  HN ES   1   19 6 49.75                             147    0.04 7 70.8 331 
 BRR  HZ I        19 6 51.24        33.3 0.17                          70.8 331 
 RUS  HZ EP   1   19 6 37.11                             143    0.14 7 80.5 154 
 RUS  HN ES   1   19 6 52.14                             143   -0.02 7 80.5 154 
 RUS  HZ I        19 6 54.30        18.6 0.26                          80.5 154 
 PAM  SZ EP   1   19 6 39.86                             132   -0.08 7  117  41 
 PAM  SE ES   1   19 6 57.27                             132   -0.19 7  117  41 
 PTB  HE ES   2   19 6 55.83                             132   -0.52 5  117 270 
 PTB  HZ I        19 6 57.69        19.7 0.12                           117 270 
 TAM  HZ EP   1   19 6 45.70                             119    0.22 7  178  94 
 TAM  HN ES   1   19 7  6.85                             119   -0.47 7  178  94 
 TAM  HZ I        19 7  7.35        23.0 0.20                           178  94 
 OCA  HZ EP   1   19 6 47.22                             118    0.64 7  187   3 
 OCA  HN ES   1   19 7  9.11                             118   -0.17 7  187   3 
 ZAR  HE ES   1   19 7  9.86                             117   -0.03 7  192 303 
 NOR  SN ES   1   19 7 10.67                             116   -0.05 6  196 236 
                                                                                
