 2012  6 6 1315 32.2 L   6.788 -73.247140.4  RSN  6 0.4 1.6LRSN                1
 GAP=228        0.79       5.8     6.2  9.2  0.1888E+02  0.2436E+02  0.1389E+02E
 Epicentro: ZAPATOCA - SANTANDER                                               3
 ACTION:UPD 12-08-06 17:47 OP:ep   STATUS:               ID:20120606131530 L   I
 2012-06-06-1310-00M.COL___201                                                 6
 STAT SP IPHASW D HRMM SECON CODA AMPLIT PERI AZIMU VELO AIN AR TRES W  DIS CAZ7
 BAR2 SZ EP   1   1315 51.27                             170    0.05 9 22.8 162 
 BAR2 SZ ES   1   1316  6.34                             170    0.32 9 22.8 162 
 BAR2 SZ I        1316  7.76        16.3 0.21            168           22.8 162 
 RUS  HN ES   1   1316 13.32                             143   -0.28 9  101 170 
 PTB  HZ EP   1   1315 58.05                             133    0.28 8  137 258 
 PTB  HN ES   1   1316 17.83                             133    0.16 8  137 258 
 PTB  HZ I        1316 21.15         3.9 0.14            134            137 258 
 ZAR  HE ES       1316 27.14                             123   -0.4510  194 294 
 NOR  SN ES   1   1316 34.06                             118    0.64 7  225 233 
 CHI  HZ EP   1   1316  9.54                             116    0.32 7  245 193 
 CHI  HN ES   1   1316 37.20                             116   -0.85 7  245 193 
 CHI  HZ I        1316 41.17         3.0 0.42            118            245 193 
                                                                                
