 2011 12 6 1203  8.6 L   6.782 -73.067139.8  RSN  6 0.3 1.5LRSN                1
 GAP=148        0.60       4.3     7.0  7.1  0.2515E+01 -0.1339E+02 -0.3257E+01E
 Epicentro: LOS SANTOS - SANTANDER                                             3
 ACTION:UPD 12-07-13 16:14 OP:ep   STATUS:               ID:20111206120308 L   I
 2011-12-06-1200-00M.COL___182                                                 6
 STAT SP IPHASW D HRMM SECON CODA AMPLIT PERI AZIMU VELO AIN AR TRES W  DIS CAZ7
 BAR2 SZ EP   1   12 3 27.23                             170   -0.27 7 24.6 211 
 BAR2 SZ ES   2   12 3 42.24                             170   -0.03 5 24.6 211 
 GIR2 SZ EP   1   12 3 27.31                             165   -0.34 7 35.6 337 
 PAM  SZ EP       12 3 30.24                             151    0.3210 73.7  33 
 BRR  HZ EP   1   12 3 29.18                             149   -0.41 7 79.8 297 
 BRR  HN ES   1   12 3 46.25                             149    0.25 7 79.8 297 
 BRR  HZ I        12 3 47.36        11.5 0.13                          79.8 297 
 RUS  HZ EP   2   12 3 31.51                             143   -0.06 5 98.4 181 
 RUS  HN ES   1   12 3 49.48                             143   -0.03 7 98.4 181 
 RUS  HZ I        12 3 50.64         3.0 0.20                          98.4 181 
 CTAU SZ EP   1   12 3 41.80                             121    0.37 6  205 212 
                                                                                
