 2017  4 6 1847 46.4 L   6.845 -73.109151.4  RSN 20 0.5 2.5LRSN                1
 GAP=114        1.13       3.2     3.7  5.2  0.6118E+00  0.6244E+01  0.2950E+01E
 Epicentro: LOS SANTOS - SANTANDER                                             3
 ACTION:UPD 17-05-30 21:09 OP:jn   STATUS:               ID:20170406184746 L   I
 OLDACT:UP  17-04-07 01:16 OP:edw  STATUS:               ID:20170406183743     3
 OLDACT:UP  17-04-07 01:15 OP:edw  STATUS:               ID:20170406183743     3
 OLDACT:REG 17-04-06 21:43 OP:ar   STATUS:               ID:20170406183743     3
 2017-04-06-1838-00M.COL___372                                                 6
 STAT SP IPHASW D HRMM SECON CODA AMPLIT PERI AZIMU VELO AIN AR TRES W  DIS CAZ7
 BAR2 EZ IP     C 1848  6.88                             169    0.0210 29.1 196 
 BAR2 EZ ES       1848 22.13                             169   -0.6610 29.1 196 
 BAR2 EZ I        1848 25.67        74.1 0.48            165           29.1 196 
 PAM  EZ EP     C 1848  9.58                             154    0.6910 71.0  40 
 PAM  EN ES       1848 26.81                             154    0.4110 71.0  40 
 PAM  EZ I        1848 28.82        34.2 0.18            159           71.0  40 
 BRR  HZ EP     D 1848  8.80                             153    0.5310 72.6 294 
 BRR  HN ES       1848 25.95                             153    0.6510 72.6 294 
 BRR  HZ I        1848 29.08        54.8 0.14            151           72.6 294 
 RUS  HZ EP     C 1848 10.79                             144   -0.2910  105 178 
 RUS  HN ES       1848 30.15                             144   -0.1510  105 178 
 RUS  HZ I        1848 31.44        42.9 0.30            144            105 178 
 PTB  HZ EP       1848 13.51                             132   -0.80 9  153 257 
 PTB  HN ES       1848 35.78                             132   -0.27 9  153 257 
 PTB  HZ I        1848 37.07        53.7 0.16            131            153 257 
 SPBC HZ EP       1848 15.84                             129   -0.12 9  170 219 
 SPBC HN ES       1848 38.91                             129   -0.09 9  170 219 
 SPBC HZ I        1848 45.14        60.8 0.28            129            170 219 
 YPLC HZ EP       1848 17.07                             127    0.19 9  179 153 
 YPLC HN ES       1848 40.09                             127   -0.54 9  179 153 
 YPLC HZ I        1848 44.22        27.6 0.24            129            179 153 
 ZAR  HZ EP       1848 19.51                             123    0.07 8  206 290 
 ZAR  HN ES       1848 45.17                             123   -0.03 8  206 290 
 ZAR  HZ I        1848 52.00        54.8 0.66            124            206 290 
 NOR  HZ EP       1848 22.54                             119   -0.61 8  241 234 
 NOR  HN ES       1848 51.79                             119    0.00 8  241 234 
 NOR  HZ I        1848 54.26        24.5 0.14            119            241 234 
 CHI  HZ EP       1848 25.23                             118    0.15 8  254 196 
 CHI  HN ES       1848 54.97                             118   -0.25 8  254 196 
 CHI  HZ I        1849  5.06         9.4 0.34            118            254 196 
 ROSC BZ EP   4   1848 27.42                             117    1.87 0  259 211 
 ROSC BN ES       1848 56.21                             117    0.15 8  259 211 
 ROSC BZ I        1849  5.47        34.5 0.40            118            259 211 
 HEL  HZ EP       1848 28.13                             115    0.63 7  277 255 
 HEL  HN ES   4   1848 58.13                             115   -1.40 0  277 255 
 HEL  HZ I        1849  6.81        27.3 0.40            116            277 255 
 URE  HZ EP       1848 26.81                             114   -1.18 7  286 291 
 URE  HN ES   4   1848 57.46                             114   -2.95 0  286 291 
 URE  HZ I        1849  8.75        26.9 0.18            115            286 291 
 ELA  HZ EP   4   1848 35.87                             111    1.63 0  335 229 
 ELA  HN ES   4   1849  4.80                             111   -6.73 0  335 229 
 ELA  HZ I        1849 19.59        11.4 0.38            111            335 229 
 CBOC HZ EP       1848 34.74                             110    0.54 7  339 252 
 CBOC HN ES       1849 11.89                             110    0.44 7  339 252 
 CBOC HZ I        1849 16.20         6.1 0.40            111            339 252 
 ANIL HZ EP   4   1848 38.89                             109    1.70 0  364 224 
 ANIL HN ES   4   1849 19.60                             109    2.82 0  364 224 
 PRA  HZ EP       1848 41.87                             107    0.99 6  398 210 
 PRA  HN ES       1849 23.55                             107    0.19 6  398 210 
 PRA  HZ I        1849 28.45         8.4 0.40            108            398 210 
 APAC HZ EP   4   1848 38.89                             107   -2.20 0  401 287 
 APAC HN ES   2   1849 23.55                             107   -0.17 3  401 287 
 ORTC HZ EP       1848 41.76                             107    0.47 6  402 216 
 ORTC HN ES       1849 24.95                             107    0.87 6  402 216 
 ORTC HZ I        1849 32.61         3.6 0.56            108            402 216 
 SJC  HZ EP       1848 40.72                             107   -1.24 6  407 326 
 SJC  HN ES   4   1849 21.80                             107   -3.47 0  407 326 
 SJC  HZ I        1849 31.00         4.6 0.58            108            407 326 
 PAL  HZ EP       1848 42.70                             106    0.22 6  412 239 
 PAL  HN ES       1849 25.70                             106   -0.50 6  412 239 
 PAL  HZ I        1849 31.51         5.4 0.26            107            412 239 
                                                                                
