 2012 12 6 1052 31.3 L   6.826 -73.180140.2  RSN  9 0.3 2.3LRSN                1
 GAP=131        0.79       2.1     3.4  4.8 -0.1884E+00  0.5952E+01 -0.2677E+00E
 Epicentro: ZAPATOCA - SANTANDER                                               3
 ACTION:UPD 13-01-04 14:26 OP:ep   STATUS:               ID:20121206105231 L   I
 2012-12-06-1050-00M.COL___232                                                 6
 STAT SP IPHASW D HRMM SECON CODA AMPLIT PERI AZIMU VELO AIN AR TRES W  DIS CAZ7
 BAR2 SZ EP       1052 50.24                             169   -0.0410 25.8 181 
 BAR2 SZ ES       1053  5.08                             169   -0.0310 25.8 181 
 BAR2 SZ I        1053  6.83        29.5 0.30                          25.8 181 
 PAM  SZ EP       1052 53.06                             150    0.1510 77.7  43 
 PAM  SN ES       1053 10.06                             150    0.2710 77.7  43 
 PAM  SN I        1053 10.75        39.7 0.48                          77.7  43 
 RUS  HZ EP       1052 54.42                             142   -0.2910  104 174 
 RUS  HN ES       1053 13.06                             142    0.0710  104 174 
 PTB  HZ EP       1052 57.10                             131   -0.39 9  145 257 
 PTB  HN ES       1053 17.89                             131   -0.06 9  145 257 
 PTB  HN I        1053 23.30        26.7 0.26                           145 257 
 OCA  HZ EP       1052 59.29                             129    0.45 9  157 354 
 OCA  HN ES       1053 19.65                             129   -0.69 9  157 354 
 OCA  HN I        1053 22.48        74.9 0.20                           157 354 
 ZAR  HZ EP       1053  3.61                             122    0.74 9  199 292 
 ZAR  HN ES       1053 27.66                             122    0.14 9  199 292 
 ZAR  HN I        1053 32.91        22.8 0.34                           199 292 
 SML  HZ EP       1053  6.78                             117   -0.35 8  240 336 
 SML  HE ES       1053 35.19                             117    0.09 8  240 336 
 SML  HE I        1053 38.03        35.8 0.10                           240 336 
 CHI  HZ EP   1   1053  8.49                             116   -0.37 6  250 194 
 CHI  HN ES       1053 38.31                             116    0.13 8  250 194 
 CHI  HN I        1053 42.87         5.0 0.22                           250 194 
 PRA  HZ EP       1053 24.70                             105    0.03 6  393 209 
 PRA  HE ES       1054  6.39                             105    0.06 6  393 209 
 PRA  HN I        1054 11.93         2.2 0.48                           393 209 
                                                                                
