 2010 11 6 1000 57.5 L   6.776 -73.065146.6  RSN  8 0.4 2.4LRSN                1
 GAP=244        0.77       5.5     6.6  6.4  0.4119E+01  0.1752E+02  0.6693E+01E
 Epicentro: LOS SANTOS - SANTANDER                                             3
 ACTION:UP  10-12-17 16:50 OP:REBC STATUS:               ID:20101106100057 L   I
 2010-11-06-1000-00M.COL___116                                                 6
 STAT SP IPHASW D HRMM SECON CODA AMPLIT PERI AZIMU VELO SNR AR TRES W  DIS CAZ7
 BAR2 SZ IP       10 1 17.34                             171     0.110   24 213 
 BAR2 SZ ES   1   10 1 32.23                             171    -0.4 7   24 213 
 BAR2 SZ I        10 1 33.82        40.5 0.22                            24 213 
 BRR  HZ EP       10 1 19.17                             150    -0.110   80 297 
 BRR  HN ES   1   10 1 36.66                             150     0.4 7   80 297 
 BRR  HZ I        10 1 40.31        37.3 0.09                            80 297 
 RUS  HZ EP       10 1 21.20                             145     0.110   98 181 
 RUS  HZ I        10 1 22.29        16.1 0.10                            98 181 
 RUS  HN ES   1   10 1 39.69                             145     0.2 7   98 181 
 NOR  SZ EP       10 1 33.33                             118    -0.6 8  241 236 
 NOR  SN ES   1   10 2  1.73                             118    -0.6 6  241 236 
 ROSC BE ES   2   10 2  5.75                             117    -0.1 4  255 213 
 ROSC BZ I        10 2 11.69        15.9 0.35                           255 213 
 HEL  HZ EP       10 1 38.90                             114     0.3 7  280 257 
 HEL  HZ I        10 2 16.02        10.8 0.28                           280 257 
 GUY  SZ EP   1   10 1 42.04                             112     0.2 5  307 236 
 GUY  SN ES   3   10 2 16.50                             112     0.1 2  307 236 
 GUY  SZ I        10 2 24.99        25.6 0.34                           307 236 
 RREF HZ EP   2   10 1 44.83                             111     0.6 3  327 231 
 RREF HN ES   3   10 2 22.18                             111     1.5 2  327 231 
 RREF HZ I        10 2 29.13        12.0 0.42                           327 231 
                                                                                
