 2011  6 6 1450 52.6 L   6.787 -73.125145.7  RSN 12 0.3 2.3LRSN                1
 GAP=140        0.58       2.6     4.3  4.1 -0.5079E+01  0.2016E+01  0.2409E+01E
 Epicentro: LOS SANTOS - SANTANDER                                             3
 ACTION:UP  11-07-14 19:03 OP:ep   STATUS:               ID:20110606145052 L   I
 2011-06-06-1448-14S.COL___132                                                 6
 STAT SP IPHASW D HRMM SECON CODA AMPLIT PERI AZIMU VELO SNR AR TRES W  DIS CAZ7
 BAR2 SZ IP       1451 12.14                             171    -0.110   23 196 
 BAR2 SZ ES   1   1451 27.21                             171    -0.3 7   23 196 
 BAR2 SZ I        1451 28.29        90.9 0.27                            23 196 
 BRR  HZ IP     C 1451 13.95                             152     0.010   74 299 
 BRR  HZ I        1451 14.19       127.7 0.13                            74 299 
 BRR  HE ES   1   1451 31.02                             152     0.5 7   74 299 
 PAM  SZ EP   1   1451 15.12                             151     0.3 7   77  38 
 PAM  SN ES   1   1451 32.07                             151    -0.1 7   77  38 
 RUS  HZ EP   1   1451 16.43                             144     0.2 7   99 177 
 RUS  HE ES   2   1451 35.02                             144     0.3 5   99 177 
 RUS  HZ I        1451 35.95        36.7 0.22                            99 177 
 BRI  SZ EP   1   1451 16.68                             141     0.1 7  109  19 
 BRI  SZ I        1451 17.77        10.0 0.15                           109  19 
 GRA  SZ EP   1   1451 17.87                             137    -0.1 7  126  16 
 GRA  SZ I        1451 19.37        15.5 0.30                           126  16 
 GRA  SZ ES   2   1451 37.32                             137    -0.3 5  126  16 
 OCA  SZ EP   1   1451 20.98                             129    -0.1 7  162 352 
 OCA  SZ ES   2   1451 42.97                             129    -0.3 5  162 352 
 OCA  SZ I        1451 49.21        32.1 0.31                           162 352 
 NOR  SZ EP   1   1451 28.25                             118    -0.2 6  236 235 
 NOR  SE ES   1   1451 56.13                             118    -0.3 6  236 235 
 NOR  SZ I        1451 59.05         3.3 0.24                           236 235 
 CHI  HZ EP   1   1451 30.38                             117     0.1 6  248 196 
 CHI  HE ES   1   1451 59.59                             117     0.0 6  248 196 
 CHI  HZ I        1452  2.11        19.3 0.42                           248 196 
 TOL  SZ EP   1   1451 41.39                             109     0.4 5  344 225 
 PRA  HZ EP   1   1451 46.76                             106     0.6 4  392 210 
 PRA  HN ES   1   1452 27.50                             106    -0.4 4  392 210 
 SJA  SZ EP   1   1451 46.53                             106    -0.6 4  399 193 
 SJA  SZ I        1452 28.86        23.6 0.46                           399 193 
                                                                                
