 2017 12 6 1857 15.6 L   6.832 -73.146139.2  RSN  9 0.6 1.9LRSN                1
 GAP=196        1.24       4.0     6.8  8.6 -0.4511E+01  0.9981E+01  0.3309E+01E
 Epicentro: LOS SANTOS - SANTANDER                                             3
 ACTION:UPD 18-01-04 13:17 OP:rebc STATUS:               ID:20171206185715 L   I
 OLDACT:REG 17-12-06 20:53 OP:lv   STATUS:               ID:20171206184743     3
 2017-12-06-1848-00M.COL___491                                                 6
 STAT SP IPHASW D HRMM SECON CODA AMPLIT PERI AZIMU VELO AIN AR TRES W  DIS CAZ7
 BAR2 EZ EP       1857 35.07                             169    0.5010 26.8 189 
 BAR2 EZ ES       1857 49.61                             169    0.2810 26.8 189 
 BAR2 EZ I        1857 51.25        17.5 0.26            167           26.8 189 
 PTB  HZ EP       1857 42.00                             130   -0.15 9  148 258 
 PTB  HN ES       1858  2.13                             130   -0.69 9  148 258 
 PTB  HZ I        1858  5.92         9.8 0.10            129            148 258 
 OCA  HZ EP       1857 42.18                             129   -0.95 9  157 353 
 OCA  HN ES       1858  4.56                             129    0.00 9  157 353 
 SPBC HZ EP       1857 44.08                             127    0.17 9  166 218 
 SPBC HN ES       1858  5.47                             127   -0.49 9  166 218 
 SPBC HZ I        1858  9.38        12.2 0.28            127            166 218 
 ZAR  HZ EP       1857 48.46                             121    0.93 9  203 291 
 ZAR  HN ES       1858 12.59                             121    0.19 9  203 291 
 ZAR  HZ I        1858 19.94         7.2 0.44            121            203 291 
 CHI  HZ EP   1   1857 53.53                             115    0.17 6  252 195 
 CHI  HN ES       1858 22.86                             115    0.08 8  252 195 
 CHI  HZ I        1858 24.80         2.2 0.44            116            252 195 
 GUY2CHZ EP   4   1858  1.80                             111    2.61 0  303 234 
 GUY2CHN ES       1858 34.07                             111    0.92 7  303 234 
 GUY2CHZ I        1858 40.39         4.0 0.32                           303 234 
 PRA  HZ EP       1858  9.15                             105   -0.16 6  395 209 
 PRA  HN ES       1858 50.20                             105   -0.96 6  395 209 
 PRA  HZ I        1858 57.30         2.1 0.26            106            395 209 
 SJC  HZ EP   4   1858 10.05                             105   -0.60 0  406 327 
 SJC  HN ES   4   1858 52.21                             105   -1.35 0  406 327 
 SJC  HZ I        1858 54.58         2.0 0.58            106            406 327 
                                                                                
