 2010 10 6 1620 46.4 L   6.727 -73.101150.9  RSN  4 0.4 1.9LRSN                1
 GAP=237        0.94       8.7    12.5 10.8  0.5933E+02 -0.2801E+02  0.7246E+00E
 Epicentro: JORDAN - SANTANDER                                                 3
 ACTION:UP  11-02-18 11:08 OP:tino STATUS:               ID:20101006162046 L   I
 2010-10-06-1616-07S.COL___123                                                 6
 STAT SP IPHASW D HRMM SECON CODA AMPLIT PERI AZIMU VELO SNR AR TRES W  DIS CAZ7
 BAR2 SZ EP       1621  6.88                             173     0.310   18 211 
 BAR2 SZ ES   2   1621 21.54                             173    -0.8 5   18 211 
 BAR2 SZ I        1621 23.98        16.4 0.33                            18 211 
 BRR  HZ EP       1621  8.67                             151     0.110   80 302 
 BRR  HZ I        1621  8.99        24.7 0.32                            80 302 
 BRR  HN ES       1621 25.92                             151     0.010   80 302 
 RUS  HZ EP       1621  9.68                             147    -0.410   92 179 
 RUS  HN ES   1   1621 29.15                             147     0.5 7   92 179 
 RUS  HZ I        1621 30.75         8.7 0.34                            92 179 
 NOR  SN ES   2   1621 50.26                             120    -0.2 4  234 237 
                                                                                
