 2013  5 6 1137 31.2 L   6.780 -73.120145.0  RSN  4 0.1 1.9LRSN                1
 GAP=141        0.34       2.8     2.0  3.8 -0.1907E+01 -0.2622E+00  0.4626E+01E
 Epicentro: LOS SANTOS - SANTANDER                                             3
 ACTION:UPD 13-06-20 09:48 OP:ep   STATUS:               ID:20130506113731 L   I
 2013-05-06-1130-00M.COL___253                                                 6
 STAT SP IPHASW D HRMM SECON CODA AMPLIT PERI AZIMU VELO AIN AR TRES W  DIS CAZ7
 BRR  HZ EP   2   1137 52.28                             151   -0.15 5 74.7 299 
 BRR  HN ES   1   1138  8.93                             151   -0.09 7 74.7 299 
 BRR  HN I        1138 12.98        26.8 0.18            148           74.7 299 
 PAM  SZ EP     C 1137 53.23                             151   -0.0610 77.4  37 
 PAM  SZ I        1137 53.43        12.0 0.20            156           77.4  37 
 PAM  SN ES       1138 10.61                             151    0.0610 77.4  37 
 RUS  HZ EP       1137 54.80                             144    0.1310 98.2 178 
 RUS  HN ES   2   1138 12.73                             144   -0.27 5 98.2 178 
 PTB  HZ EP       1137 58.23                             131   -0.05 9  150 260 
 PTB  HN ES       1138 19.51                             131    0.08 9  150 260 
 PTB  HZ I        1138 28.58         5.1 0.20            130            150 260 
                                                                                
