 2012  5 6 1621 47.4 L   6.740 -73.196154.5  RSN  4 0.2 1.3LRSN                1
 GAP=227        0.46       6.8    10.5  6.1  0.5533E+02  0.2694E+01 -0.4678E+00E
 Epicentro: VILLANUEVA - SANTANDER                                             3
 ACTION:UP  12-07-05 12:02 OP:pat  STATUS:               ID:20120506162147 L   I
 2012-05-06-1620-00M.COL___192                                                 6
 STAT SP IPHASW D HRMM SECON CODA AMPLIT PERI AZIMU VELO SNR AR TRES W  DIS CAZ7
 BAR2 SZ EP   2   1622  7.54                             174    -0.4 5   16 175 
 BAR2 SZ I        1622 24.27         4.7 0.44                            16 175 
 BRR  HZ EP       1622  9.48                             154     0.010   70 305 
 BRR  HZ I        1622 10.03         6.6 0.15                            70 305 
 BRR  HN ES   1   1622 26.68                             154     0.1 7   70 305 
 RUS  HZ EP   1   1622 11.83                             147     0.2 7   95 172 
 RUS  HN ES   1   1622 30.43                             147    -0.1 7   95 172 
 RUS  HZ I        1622 31.81         1.3 0.15                            95 172 
 PTB  HZ EP   1   1622 14.43                             135    -0.1 7  141 261 
                                                                                
