 2013  7 6 1950 26.9 L   6.759 -73.151152.9  RSN  5 0.3 2.0LRSN                1
 GAP=158        0.79       3.9     4.9  7.8 -0.1939E+01  0.3567E-01  0.2876E+01E
 Epicentro: LOS SANTOS - SANTANDER                                             3
 ACTION:UPD 13-08-12 10:35 OP:ep   STATUS:               ID:20130706195026 L   I
 OLDACT:REG 13-07-06 16:28 OP:stll STATUS:               ID:20130706194849     3
 2013-07-06-1948-49M.COL___221                                                 6
 STAT SP IPHASW D HRMM SECON CODA AMPLIT PERI AZIMU VELO AIN AR TRES W  DIS CAZ7
 GIR2 SZ EP       1950 47.56                             166   -0.0210 35.6 352 
 BRR  HZ EP       1950 49.25                             153    0.2910 73.0 302 
 BRR  HN ES       1951  6.64                             153    0.5010 73.0 302 
 BRR  HN I        1951  7.76        18.8 0.20            152           73.0 302 
 RUS  HZ EP       1950 51.30                             146    0.2010 96.1 176 
 RUS  HN ES       1951  9.80                             146   -0.1410 96.1 176 
 RUS  HN I        1951 11.50         8.1 0.44            147           96.1 176 
 GRA  SZ ES       1951 13.31                             137   -0.3610  130  17 
 PTB  HZ EP       1950 54.24                             134   -0.14 9  146 261 
 PTB  HN ES       1951 15.36                             134   -0.42 9  146 261 
 PTB  HN I        1951 20.93        21.5 0.18            133            146 261 
                                                                                
