 2013  3 6 1231 44.3 L   6.803 -73.147144.9  RSN 17 0.6 3.1LRSN                1
 GAP= 71        1.41       3.4     3.9  6.3 -0.7605E+00  0.5751E+01  0.1180E+01E
 Epicentro: LOS SANTOS - SANTANDER                                             3
 ACTION:UPD 13-04-09 14:00 OP:ep   STATUS:               ID:20130306123144 L   I
 2013-03-06-1228-53M.COL___187                                                 6
 STAT SP IPHASW D HRMM SECON CODA AMPLIT PERI AZIMU VELO AIN AR TRES W  DIS CAZ7
 BAR2 SZ IP       1232  4.17                             170    0.3010 23.6 190 
 BAR2 SZ I        1232  4.71       250.4 0.16            167           23.6 190 
 BAR2 SZ ES       1232 18.79                             170   -0.3110 23.6 190 
 BRR  HZ IP     C 1232  6.10                             152    0.7210 71.0 298 
 BRR  HE ES       1232 22.69                             152    0.9010 71.0 298 
 BRR  HN I        1232 26.97       261.3 0.16            152           71.0 298 
 PAM  SZ EP       1232  7.08                             151    0.6310 77.2  40 
 PAM  SE ES       1232 24.01                             151    0.3210 77.2  40 
 PAM  SN I        1232 25.15       376.4 0.48            156           77.2  40 
 RUS  HZ IP     C 1232  8.05                             144    0.0310  101 176 
 RUS  HN ES       1232 25.88                             144   -0.6110  101 176 
 RUS  HE I        1232 27.82       138.0 0.50            143            101 176 
 PTB  HZ EP       1232 10.76                             132   -0.47 9  148 259 
 PTB  HN ES       1232 31.60                             132   -0.60 9  148 259 
 PTB  HE I        1232 37.59       202.6 0.26            131            148 259 
 TAM  HZ EP       1232 12.51                             130    0.55 9  155 105 
 TAM  HN ES       1232 32.87                             130   -0.64 9  155 105 
 TAM  HE I        1232 35.26       204.3 0.60            133            155 105 
 OCA  HZ EP       1232 12.81                             129    0.26 9  160 353 
 OCA  HN ES       1232 33.87                             129   -0.69 9  160 353 
 OCA  HE I        1232 35.17       217.7 0.24            133            160 353 
 ZAR  HZ EP       1232 16.91                             122    0.21 9  204 292 
 ZAR  HE ES       1232 42.34                             122    0.39 9  204 292 
 SML  HZ EP       1232 20.44                             117   -0.44 8  243 335 
 SML  HN ES       1232 49.03                             117   -0.35 8  243 335 
 CHI  HZ EP       1232 22.39                             117    0.38 8  249 195 
 CHI  HE ES       1232 51.00                             117   -0.40 8  249 195 
 CHI  HN I        1233  1.35        36.9 0.54            117            249 195 
 HEL  HZ EP       1232 24.93                             115    0.43 8  272 256 
 HEL  HN ES       1232 54.65                             115   -1.18 8  272 256 
 HEL  HE I        1233  4.78        37.2 0.34            115            272 256 
 URE  HZ EP       1232 24.41                             113   -0.93 7  284 292 
 RREF HZ EP       1232 31.00                             111    0.55 7  322 229 
 RREF HN ES       1233  7.57                             111    1.15 7  322 229 
 ANIL HN ES       1233 14.09                             108    1.14 6  357 224 
 ANIL HE I        1233 26.39        65.3 0.30            109            357 224 
 SDV  BZ EP       1232 33.88                             108   -0.45 6  360  50 
 PRA  HZ EP       1232 37.83                             106   -0.02 6  392 210 
 PRA  HN ES       1233 18.47                             106   -1.12 6  392 210 
 PRA  HE I        1233 26.79        24.5 0.28            107            392 210 
 SJC  HE EP       1232 38.91                             106   -0.93 6  409 327 
                                                                                
