 2012  4 6 1422 51.5 L   6.689 -73.152137.9  RSN  5 0.3 1.4LRSN                1
 GAP=140        0.49       3.7     5.7  7.9 -0.4347E+01  0.1266E+02  0.2873E+01E
 Epicentro: VILLANUEVA - SANTANDER                                             3
 ACTION:UPD 12-07-05 11:51 OP:tino STATUS:               ID:20120406142251 L   I
 2012-04-06-1420-00M.COL___196                                                 6
 STAT SP IPHASW D HRMM SECON CODA AMPLIT PERI AZIMU VELO AIN AR TRES W  DIS CAZ7
 BAR2 SZ EP       1423 10.01                             175     0.010   11 197 
 BRR  HZ EP       1423 12.42                             149     0.210   77 307 
 BRR  HZ I        1423 12.93        13.0 0.34                            77 307 
 BRR  HE ES   3   1423 28.58                             149     0.3 2   77 307 
 RUS  HZ EP       1423 13.52                             146    -0.110   88 175 
 RUS  HN ES   2   1423 31.11                             146     0.3 5   88 175 
 RUS  HZ I        1423 32.59         1.7 0.38                            88 175 
 PAM  SZ EP       1423 13.48                             146    -0.110   88  35 
 PAM  SE ES   1   1423 30.59                             146    -0.2 7   88  35 
 PTB  HN ES   3   1423 36.98                             130    -1.0 2  145 264 
                                                                                
