 2012  8 6 1108 50.6 L   6.444 -73.762 23.3  RSN  6 0.4 1.5LRSN                1
 GAP=149        0.78       3.1     2.9  4.3  0.2847E+01  0.2094E+01 -0.2713E+01E
 Epicentro: SANTA HELENA DEL OPON - SANTANDER                                  3
 ACTION:UPD 12-09-10 11:54 OP:ep   STATUS:               ID:20120806110850 L   I
 2012-08-06-1107-44M.COL___201                                                 6
 STAT SP IPHASW D HRMM SECON CODA AMPLIT PERI AZIMU VELO AIN AR TRES W  DIS CAZ7
 BAR2 SZ EP   1   11 9  1.78                             108   -0.12 7 66.2  76 
 BAR2 SZ I        11 9  1.87        10.0 0.13                          66.2  76 
 BAR2 SZ ES   1   11 9 10.31                             108   -0.42 7 66.2  76 
 BRR  HZ EP   1   11 9  2.62                             106   -0.09 7 73.6   4 
 BRR  HZ I        11 9  3.42        30.7 0.12                          73.6   4 
 BRR  HN ES   1   11 9 12.37                             106    0.19 7 73.6   4 
 PTB  HZ EP   1   11 9  3.62                             105    0.31 7 77.5 278 
 PTB  HZ I        11 9 14.25        17.4 0.19                          77.5 278 
 RUS  HZ EP   1   11 9  6.97                             102    0.32 7 96.7 129 
 RUS  HN ES   1   11 9 18.89                             102   -0.29 7 96.7 129 
 RUS  HZ I        11 9 19.58        16.0 0.13                          96.7 129 
 PAM  SZ EP   1   11 9 14.69                              56    0.72 7  154  50 
 PAM  SN ES   1   11 9 32.36                              56    0.14 7  154  50 
 ZAR  HN ES   1   11 9 33.55                              56   -0.77 7  168 314 
                                                                                
