 2010  5 6 1348 38.7 L   6.756 -72.953144.5  RSN  7 0.4 2.3LRSN                1
 GAP=205        0.68       5.5    10.6  7.2 -0.3164E+02 -0.1522E+02  0.9893E+01E
 Epicentro: CEPITA - SANTANDER                                                 3
 ACTION:UP  10-08-24 10:03 OP:vdl  STATUS:               ID:20100506134838 L   I
 2010-05-06-1345-25S.COL___105                                                 6
 STAT SP IPHASW D HRMM SECON CODA AMPLIT PERI AZIMU VELO SNR AR TRES W  DIS CAZ7
 BAR2 SZ EP   1   1348 58.57                             167     0.2 7   31 235 
 BAR2 SZ ES   2   1349 13.30                             167    -0.4 5   31 235 
 GIR2 SZ EP   1   1348 58.67                             162     0.0 7   45 323 
 GIR2 SZ ES   2   1349 14.64                             162     0.4 5   45 323 
 BRR  HZ IP     C 1349  1.10                             146     0.010   92 295 
 BRR  HZ I        1349  1.38        62.6 0.17                            92 295 
 BRR  HE ES   2   1349 18.67                             146     0.1 5   92 295 
 GUE  SZ EP   1   1349  3.40                             139    -0.1 7  119   2 
 GUE  SZ ES   2   1349 21.89                             139    -1.0 5  119   2 
 GRA  SZ EP   1   1349  4.32                             137     0.4 7  126   8 
 GRA  SZ ES   2   1349 24.02                             137     0.5 5  126   8 
 OCA  SZ EP   1   1349  7.23                             128    -0.5 7  169 346 
 OCA  SZ ES   2   1349 30.74                             128     0.3 5  169 346 
 OCA  SZ I        1349 34.88        13.8 0.46                           169 346 
 PRA  HZ EP   1   1349 33.34                             106     0.3 4  399 213 
 PRA  HN ES   2   1350 14.98                             106    -0.4 3  399 213 
 PRA  HZ I        1350 20.26         5.7 0.71                           399 213 
                                                                                
