 2017 10 6 1102 47.0 L   6.793 -73.120146.4  RSN  7 0.4 1.5LRSN                1
 GAP=140        0.90       3.5     4.6  6.6 -0.2757E+01  0.1246E+02  0.9653E+00E
 Epicentro: LOS SANTOS - SANTANDER                                             3
 ACTION:UPD 17-11-07 19:28 OP:rebc STATUS:               ID:20171006110247 L   I
 OLDACT:REG 17-10-06 19:51 OP:osc  STATUS:               ID:20171006105246     3
 2017-10-06-1058-00M.COL___399                                                 6
 STAT SP IPHASW D HRMM SECON CODA AMPLIT PERI AZIMU VELO AIN AR TRES W  DIS CAZ7
 BAR2 EZ EP       11 3  6.58                             171   -0.1510 23.2 197 
 BAR2 EZ ES       11 3 21.82                             171   -0.2810 23.2 197 
 BAR2 EZ I        11 3 24.54        10.8 0.46            170           23.2 197 
 PAM  EZ EP       11 3  9.57                             151    0.3410 76.2  38 
 PAM  EN ES       11 3 26.88                             151    0.3210 76.2  38 
 PAM  EZ I        11 3 29.41         7.0 0.72            154           76.2  38 
 RUS  HZ EP       11 3 10.41                             144   -0.3610 99.6 178 
 RUS  HN ES       11 3 29.33                             144    0.0410 99.6 178 
 RUS  HZ I        11 3 30.61         5.2 0.26            146           99.6 178 
 SPBC HE ES       11 3 38.39                             129    0.35 9  164 220 
 ZAR  HZ EP       11 3 19.68                             122   -0.13 8  207 292 
 ZAR  HE ES       11 3 44.92                             122   -0.47 8  207 292 
 ZAR  HZ I        11 3 49.90         3.4 0.34            123            207 292 
 CHI  HZ EP       11 3 24.93                             117    0.18 8  249 196 
 CHI  HN ES       11 3 53.65                             117   -0.54 8  249 196 
 CHI  HZ I        11 3 59.91         1.5 0.50            119            249 196 
 GUY2CHE ES       11 4  5.98                             112    0.91 7  303 235 
                                                                                
