 2016  3 6 1411 24.4 L   6.820 -73.167144.6  RSN 10 0.4 1.8LRSN                1
 GAP=133        0.92       3.0     3.6  5.6 -0.1671E+01  0.7580E+01  0.5161E+00E
 Epicentro: LOS SANTOS - SANTANDER                                             3
 ACTION:UPD 16-05-13 21:21 OP:cam  STATUS:               ID:20160306141124 L   I
 OLDACT:UP  16-03-06 23:25 OP:mh   STATUS:               ID:20160306140749     3
 OLDACT:REG 16-03-06 21:13 OP:mh   STATUS:               ID:20160306140749     3
 2016-03-06-1407-49M.COL___318                                                 6
 STAT SP IPHASW D HRMM SECON CODA AMPLIT PERI AZIMU VELO AIN AR TRES W  DIS CAZ7
 BAR2 EZ EP       1411 43.93                             170   -0.0210 25.2 184 
 BAR2 EZ ES       1411 58.79                             170   -0.3910 25.2 184 
 BAR2 EZ I        1412  0.50        11.0 0.16            169           25.2 184 
 PAM  EZ IP     C 1411 46.92                             151    0.4210 77.2  42 
 PAM  EN ES       1412  4.09                             151    0.3710 77.2  42 
 PAM  EZ I        1412  6.63         6.5 0.55            155           77.2  42 
 RUS  HZ EP       1411 47.91                             143   -0.3210  103 175 
 RUS  HN ES       1412  6.81                             143    0.0110  103 175 
 RUS  HZ I        1412  7.50         5.7 0.38            147            103 175 
 PTB  HZ EP       1411 50.61                             132   -0.51 9  146 258 
 PTB  HE ES       1412 11.99                             132    0.04 9  146 258 
 PTB  HZ I        1412 18.18         6.5 0.56            132            146 258 
 OCA  HZ EP   1   1411 51.94                             130   -0.47 7  158 354 
 OCA  HE ES   1   1412 14.09                             130   -0.14 7  158 354 
 OCA  HZ I        1412 19.28        13.9 0.47            131            158 354 
 SPBC HZ EP       1411 52.88                             129    0.03 9  163 218 
 SPBC HN ES       1412 15.71                             129    0.68 9  163 218 
 SPBC HZ I        1412 20.88        13.6 0.24            130            163 218 
 ZAR  HZ EP       1411 56.77                             122    0.29 9  201 292 
 ZAR  HN ES       1412 20.98                             122   -0.50 9  201 292 
 ZAR  HZ I        1412 31.66         6.1 0.28            123            201 292 
 CHI  HZ IP       1412  1.95                             117   -0.27 8  250 195 
 CHI  HZ EP       1412  2.18                                            250 195 
 CHI  HN ES       1412 31.49                             117   -0.21 8  250 195 
 CHI  HZ I        1412 37.59         2.7 0.30            119            250 195 
 HEL  HZ EP   1   1412  4.99                             115    0.61 6  270 255 
 HEL  HN ES       1412 36.14                             115    0.59 8  270 255 
 HEL  HZ I        1412 43.80         4.5 0.38            116            270 255 
 GUY2CHZ EP   1   1412  8.63                             112    0.73 5  301 234 
 GUY2CHN ES       1412 41.31                             112   -0.51 7  301 234 
 GUY2CHN I        1412 49.15         5.6 0.38                           301 234 
 VIL  SN ES   4   1412 57.00                             112   15.05 0  305 191 
                                                                                
