 2017  1 6 1109 34.0 L   6.722 -73.182148.3  RSN  5 0.3 1.4LRSN                1
 GAP=227        0.56       4.6     4.3  5.4  0.9583E+01  0.2169E+01 -0.2675E+01E
 Epicentro: VILLANUEVA - SANTANDER                                             3
 ACTION:UPD 17-05-22 15:56 OP:jn   STATUS:               ID:20170106110934 L   I
 OLDACT:REG 17-01-06 20:36 OP:dnl  STATUS:               ID:20170106110739     3
 2017-01-06-1108-00M.COL___363                                                 6
 STAT SP IPHASW D HRMM SECON CODA AMPLIT PERI AZIMU VELO AIN AR TRES W  DIS CAZ7
 BAR2 EZ EP       11 9 53.75                             174   -0.0610 14.3 180 
 BAR2 EZ ES       1110  9.09                             174   -0.1610 14.3 180 
 BAR2 EZ I        1110  9.67         8.2 0.40            167           14.3 180 
 BRR  HZ EP       11 9 55.33                             153   -0.1810 72.4 306 
 BRR  HN ES       1110 12.51                             153    0.2410 72.4 306 
 BRR  HZ I        1110 13.16        11.0 0.76            147           72.4 306 
 RUS  HZ EP   2   11 9 58.31                             147    0.86 5 92.3 173 
 RUS  HE ES       1110 15.73                             147    0.0010 92.3 173 
 RUS  HZ I        1110 17.50         2.4 0.44            143           92.3 173 
 PTB  HZ EP   2   1110  0.27                             134   -0.44 5  142 262 
 PTB  HE ES       1110 21.54                             134    0.01 9  142 262 
 PTB  HZ I        1110 26.98         2.4 0.14            128            142 262 
 ZAR  HZ EP   4   1110  7.59                             123    0.99 0  204 295 
 ZAR  HN ES   2   1110 32.12                             123    0.10 4  204 295 
 ZAR  HZ I        1110 38.88         2.1 0.42            120            204 295 
                                                                                
