 2011  7 6 1234  8.7 L   6.797 -73.081146.1  RSN  4 0.3 1.6LRSN                1
 GAP=166        0.58       4.0     8.1  7.0  0.6362E+01 -0.2052E+02 -0.7017E+01E
 Epicentro: LOS SANTOS - SANTANDER                                             3
 ACTION:UPD 12-07-25 13:58 OP:epov STATUS:               ID:20110706123408 L   I
 2011-07-06-1233-00S.COL___118                                                 6
 STAT SP IPHASW D HRMM SECON CODA AMPLIT PERI AZIMU VELO AIN AR TRES W  DIS CAZ7
 BAR2 SZ EP   1   1234 28.09                             170   -0.32 7 25.2 206 
 BAR2 SZ ES   1   1234 43.50                             170   -0.28 7 25.2 206 
 BAR2 SZ I        1234 45.77         7.4 0.29                          25.2 206 
 BRR  HZ EP   1   1234 29.94                             150   -0.33 7 77.8 296 
 BRR  HZ I        1234 30.23        14.7 0.16                          77.8 296 
 BRR  HE ES   1   1234 47.40                             150    0.31 7 77.8 296 
 RUS  HZ EP   1   1234 32.86                             144    0.42 7100.0 180 
 RUS  HN ES   1   1234 51.02                             144    0.06 7100.0 180 
 RUS  HZ I        1234 51.97         4.7 0.29                         100.0 180 
 GRA  SZ EP   1   1234 33.89                             137    0.05 7  124  14 
 GRA  SZ I        1234 35.01         6.2 0.31                           124  14 
 GRA  SZ ES   2   1234 53.64                             137    0.19 5  124  14 
                                                                                
