 2015  6 6 1101 46.2 L   6.769 -73.156138.0  RSN 11 0.5 2.0LRSN                1
 GAP=199        1.18       3.7     5.7  7.6  0.1280E+01  0.1035E+02 -0.6009E+00E
 Epicentro: LOS SANTOS - SANTANDER                                             3
 ACTION:UPD 15-09-10 22:10 OP:cam  STATUS:               ID:20150606110146 L   I
 OLDACT:REG 15-06-06 21:04 OP:ak   STATUS:               ID:20150606105749     3
 2015-06-06-1057-49M.COL___303                                                 6
 STAT SP IPHASW D HRMM SECON CODA AMPLIT PERI AZIMU VELO AIN AR TRES W  DIS CAZ7
 BAR2 EZ IP     C 11 2  4.75                             171   -0.0910 19.8 189 
 BAR2 EZ I        11 2 20.52        44.5 0.20            173           19.8 189 
 BRR  HZ EP       11 2  6.59                             151    0.0210 71.9 301 
 BRR  HN ES       11 2 22.96                             151    0.5110 71.9 301 
 BRR  HZ I        11 2 25.13        16.7 0.21            154           71.9 301 
 RUS  HZ EP       11 2  8.78                             143   -0.1810 97.3 175 
 RUS  HE ES       11 2 27.03                             143    0.3210 97.3 175 
 RUS  HZ I        11 2 28.84        13.3 0.34            145           97.3 175 
 SPBC HZ EP       11 2 13.64                             128   -0.16 9  160 219 
 SPBC HN ES       11 2 34.55                             128   -0.78 9  160 219 
 SPBC HZ I        11 2 40.04        11.9 0.18            131            160 219 
 ZAR  HZ EP       11 2 17.87                             121   -0.33 9  204 293 
 ZAR  HN ES       11 2 43.25                             121    0.11 9  204 293 
 ZAR  HZ I        11 2 46.30        11.5 0.10            123            204 293 
 NOR  HZ EP       11 2 20.50                             117   -0.69 8  232 235 
 NOR  HN ES       11 2 48.99                             117    0.52 8  232 235 
 NOR  HZ I        11 2 50.62         7.9 0.14            119            232 235 
 SML  HZ EP       11 2 21.77                             116   -0.94 8  246 336 
 SML  HN ES       11 2 51.18                             116    0.01 8  246 336 
 SML  HZ I        11 2 57.78        11.4 0.10            117            246 336 
 HEL  HZ EP   1   11 2 26.61                             114    0.78 6  270 256 
 HEL  HN ES       11 2 55.96                             114   -0.77 8  270 256 
 HEL  HZ I        11 3  3.73         4.9 0.26            115            270 256 
 URE  HZ EP       11 2 27.77                             112    0.82 7  284 293 
 URE  HN ES   4   11 2 56.82                             112   -1.90 0  284 293 
 URE  HZ I        11 2 58.84         6.4 0.12            114            284 293 
 GUY2CHZ EP       11 2 30.07                             111    0.92 7  298 235 
 GUY2CHN ES       11 3  2.79                             111    0.15 7  298 235 
 GUY2CHZ I        11 3 10.12         5.3 0.24                           298 235 
 PRA  HZ EP       11 2 40.03                             106    0.97 6  389 210 
 PRA  HN ES       11 3 20.06                             106   -0.23 6  389 210 
 PRA  HZ I        11 3 26.96         2.7 0.38            107            389 210 
                                                                                
