 2017  6 6 1918 56.5 L   6.749 -73.164152.7  RSN  5 0.4 1.6LRSN                1
 GAP=231        0.98       6.9     6.8  9.0  0.2470E+02  0.1591E+02  0.1616E+02E
 Epicentro: LOS SANTOS - SANTANDER                                             3
 ACTION:UPD 17-09-14 16:50 OP:jn   STATUS:               ID:20170606191856 L   I
 OLDACT:UP  17-06-07 00:01 OP:dani STATUS:               ID:20170606191732     3
 OLDACT:UP  17-06-06 23:59 OP:dani STATUS:               ID:20170606191732     3
 OLDACT:REG 17-06-06 21:34 OP:osc  STATUS:               ID:20170606191732     3
 2017-06-06-1918-00M.COL___353                                                 6
 STAT SP IPHASW D HRMM SECON CODA AMPLIT PERI AZIMU VELO AIN AR TRES W  DIS CAZ7
 BRR  HE ES       1919 36.16                             153    0.5510 72.4 303 
 RUS  HZ EP       1919 20.51                             147   -0.0610 95.1 175 
 RUS  HN ES       1919 39.16                             147   -0.1910 95.1 175 
 RUS  HZ I        1919 40.33         5.4 0.46            142           95.1 175 
 PTB  HZ EP       1919 23.49                             134   -0.30 9  145 261 
 PTB  HN ES       1919 44.46                             134   -0.61 9  145 261 
 PTB  HZ I        1919 50.51         5.6 0.46            130            145 261 
 ZAR  HZ EP   4   1919 27.14                             124   -2.31 0  204 294 
 ZAR  HE ES       1919 54.96                             124   -0.19 9  204 294 
 NOR  HZ EP       1919 32.60                             121    0.47 8  230 235 
 NOR  HN ES       1920  0.42                             121    0.50 8  230 235 
 NOR  HZ I        1920  8.04         3.2 0.14            118            230 235 
                                                                                
