 2017  5 6 1627  8.5 L   5.916 -73.621123.6  RSN  5 0.4 1.5LRSN                1
 GAP=162        1.00       5.3     3.9  9.7 -0.3151E+01  0.1288E+02 -0.1354E+02E
 Epicentro: BARBOSA - SANTANDER                                                3
 ACTION:UPD 17-06-16 13:33 OP:jn   STATUS:               ID:20170506162708 L   I
 OLDACT:REG 17-05-06 21:14 OP:ar   STATUS:               ID:20170506161739     3
 2017-05-06-1618-00M.COL___370                                                 6
 STAT SP IPHASW D HRMM SECON CODA AMPLIT PERI AZIMU VELO AIN AR TRES W  DIS CAZ7
 RUS  HZ EP       1627 27.24                             153   -0.1110 59.6  92 
 RUS  HN ES       1627 41.74                             153   -0.2810 59.6  92 
 RUS  HZ I        1627 44.13         3.5 0.32            156           59.6  92 
 PTB  HZ EP   2   1627 30.49                             134   -0.28 5  115 307 
 PTB  HN ES       1627 47.80                             134   -0.3110  115 307 
 PTB  HZ I        1627 49.00         4.1 0.26            135            115 307 
 NOR  HZ EP       1627 33.19                             127   -0.26 9  144 254 
 NOR  HN ES       1627 53.64                             127    0.77 9  144 254 
 NOR  HZ I        1627 56.38         6.2 0.18            129            144 254 
 PAM  EN ES       1628  2.59                             120    0.73 9  188  33 
 ZAR  HZ EP       1627 41.42                             115   -0.15 8  222 322 
 ZAR  HN ES       1628  7.12                             115   -0.21 8  222 322 
 ZAR  HZ I        1628 12.22         4.4 0.38            116            222 322 
                                                                                
