 2011  5 6 1742 16.6 L   6.734 -73.109142.0  RSN  9 0.3 2.0LRSN                1
 GAP=144        0.52       3.2     4.8  4.3 -0.7671E+01 -0.9826E+00  0.4814E+00E
 Epicentro: JORDAN - SANTANDER                                                 3
 ACTION:UP  11-06-29 08:51 OP:tino STATUS:               ID:20110506174216 L   I
 2011-05-06-1738-49S.COL___132                                                 6
 STAT SP IPHASW D HRMM SECON CODA AMPLIT PERI AZIMU VELO SNR AR TRES W  DIS CAZ7
 BAR2 SZ EP   1   1742 35.21                             173    -0.4 7   18 208 
 BAR2 SZ ES   1   1742 50.37                             173    -0.1 7   18 208 
 BAR2 SZ I        1742 51.80        28.6 0.37                            18 208 
 BTL  SZ EP   1   1742 35.91                             169     0.1 7   27 319 
 BTL  SZ ES   2   1742 50.72                             169    -0.1 5   27 319 
 BRR  HZ IP     D 1742 37.59                             150    -0.110   78 302 
 BRR  HE ES   1   1742 54.39                             150     0.1 7   78 302 
 BRR  HZ I        1742 58.74        29.7 0.13                            78 302 
 PAM  SZ EP   2   1742 38.79                             149     0.2 5   81  34 
 PAM  SN ES   2   1742 55.68                             149    -0.1 5   81  34 
 RUS  HZ EP   2   1742 39.96                             145     0.6 5   93 178 
 RUS  HE ES   2   1742 57.44                             145     0.2 5   93 178 
 RUS  HZ I        1742 59.96         6.3 0.32                            93 178 
 BRI  SZ EP   1   1742 40.50                             139     0.0 7  114  18 
 BRI  SZ I        1742 41.14        15.3 0.06                           114  18 
 BRI  SZ ES   2   1742 59.80                             139     0.6 5  114  18 
 GRA  SZ IP       1742 41.78                             135    -0.210  132  15 
 GRA  SZ I        1742 43.07        21.2 0.19                           132  15 
 GRA  SZ ES   1   1743  1.98                             135     0.2 7  132  15 
 NOR  SN ES   2   1743 19.95                             118     0.3 4  234 237 
 PRA  HZ EP   2   1743  9.99                             106     0.5 3  388 211 
 PRA  HN ES   2   1743 50.42                             106    -0.3 3  388 211 
                                                                                
