 2017  1 6 1534 23.2 L   7.145 -73.367114.6  RSN  5 0.3 1.3LRSN                1
 GAP=238        0.63       9.3     6.0  6.9  0.4379E+02 -0.2061E+01 -0.1481E+02E
 Epicentro: LEBRIJA - SANTANDER                                                3
 ACTION:UPD 17-05-22 15:56 OP:jn   STATUS:               ID:20170106153423 L   I
 OLDACT:UP  17-01-06 23:46 OP:dnl  STATUS:               ID:20170106152747     3
 OLDACT:UP  17-01-06 23:46 OP:dnl  STATUS:               ID:20170106152747     3
 OLDACT:REG 17-01-06 20:48 OP:dnl  STATUS:               ID:20170106152747     3
 2017-01-06-1528-00M.COL___371                                                 6
 STAT SP IPHASW D HRMM SECON CODA AMPLIT PERI AZIMU VELO AIN AR TRES W  DIS CAZ7
 BRR  HZ EP       1534 39.00                             159   -0.2510 38.4 264 
 BRR  HN ES       1534 51.54                             159   -0.2310 38.4 264 
 BRR  HZ I        1534 55.19        10.1 0.30            154           38.4 264 
 BAR2 EZ EP       1534 41.24                             148    0.2610 64.5 162 
 BAR2 EZ ES       1534 54.93                             148    0.0810 64.5 162 
 BAR2 EZ I        1534 55.80         7.0 0.30            147           64.5 162 
 PTB  HZ EP   3   1534 45.61                             125   -1.23 2  138 241 
 PTB  HE ES   2   1535  5.12                             125   -0.15 5  138 241 
 PTB  HZ I        1535  8.67         2.1 0.14            124            138 241 
 RUS  HZ EP   4   1534 42.92                             124   -4.96 0  142 167 
 RUS  HN ES   4   1535  5.56                             124   -1.57 0  142 167 
 RUS  HZ I        1535  8.37         2.1 0.38            126            142 167 
 ZAR  HZ EP   4   1534 52.94                             119    2.91 0  169 283 
 ZAR  HN ES       1535 11.26                             119    0.30 9  169 283 
 ZAR  HZ I        1535 14.30         3.6 0.24            120            169 283 
                                                                                
