 2012  2 6 1706 13.8 L   6.789 -73.222145.8  RSN  6 0.4 1.6LRSN                1
 GAP=163        0.75       7.3     7.0  7.9  0.3076E+02  0.5299E+01 -0.2271E+01E
 ACTION:UP  12-03-07 16:28 OP:epov STATUS:               ID:20120206170613 L   I
 2012-02-06-1700-00M.COL___187                                                 6
 STAT SP IPHASW D HRMM SECON CODA AMPLIT PERI AZIMU VELO SNR AR TRES W  DIS CAZ7
 BAR2 SZ EP   1   17 6 33.09                             171   -0.29 7 22.2 169 
 BAR2 SZ ES   1   17 6 48.14                             171   -0.54 7 22.2 169 
 BAR2 SZ I        17 6 49.30         8.3 0.24                          22.2 169 
 GIR2 SZ EP   1   17 6 33.39                             167   -0.08 7 32.1   6 
 BRR  HZ EP   1   17 6 34.53                             155   -0.03 7 64.5 303 
 BRR  HZ I        17 6 35.17        11.4 0.42                          64.5 303 
 BRR  HN ES   1   17 6 51.33                             155    0.55 7 64.5 303 
 RUS  HZ EP   1   17 6 37.58                             144    0.07 7  100 171 
 RUS  HZ I        17 6 38.69         3.5 0.13                           100 171 
 RUS  HN ES   1   17 6 56.49                             144    0.46 7  100 171 
 PTB  HZ EP   1   17 6 40.18                             134    0.20 7  139 259 
 PTB  HE ES   2   17 6 59.48                             134   -0.95 5  139 259 
 ZAR  HN ES   1   17 7 10.29                             123    0.10 6  197 293 
                                                                                
