 2011  2 6 1921 50.6 L   6.787 -73.132142.6  RSN 15 0.4 3.4LRSN                1
 GAP=137        0.79       3.2     4.9  6.6 -0.3572E+01  0.9462E+01  0.4545E+01E
 Epicentro: LOS SANTOS - SANTANDER                                             3
 ACTION:UP  11-03-28 15:06 OP:jfem STATUS:               ID:20110206192150 L   I
 2011-02-06-1920-00M.COL___138                                                 6
 STAT SP IPHASW D HRMM SECON CODA AMPLIT PERI AZIMU VELO SNR AR TRES W  DIS CAZ7
 BTL  SZ EP   1   1922 10.85                             171     1.1 7   21 314 
 BAR2 SZ IP       1922  9.78                             171     0.010   22 195 
 BAR2 SZ I        1922 10.18       683.0 0.34                            22 195 
 BAR2 SZ ES   2   1922 24.49                             171    -0.3 5   22 195 
 GIR2 SZ EP   1   1922  9.87                             166     0.0 7   33 348 
 GIR2 SZ ES   2   1922 24.68                             166    -0.3 5   33 348 
 RUS  HZ IP     D 1922 13.57                             144    -0.310   99 177 
 RUS  HE ES   2   1922 32.02                             144    -0.1 5   99 177 
 RUS  HZ I        1922 35.38       182.7 0.43                            99 177 
 GRA  SZ IP       1922 15.61                             136     0.010  127  17 
 GRA  SZ ES   2   1922 35.45                             136     0.3 5  127  17 
 OCA  SZ EP   1   1922 18.52                             129    -0.3 7  162 353 
 OCA  SZ ES   2   1922 40.39                             129    -0.4 5  162 353 
 OCA  SZ I        1922 44.92       468.2 0.53                           162 353 
 YOP  SZ IP     D 1922 20.23                             126     0.0 9  177 154 
 YOP  SE ES   2   1922 43.91                             126     0.6 4  177 154 
 YOP  SZ I        1922 47.65       120.5 0.22                           177 154 
 NOR  SZ EP   1   1922 25.49                             118    -0.7 6  235 235 
 NOR  SN ES   2   1922 53.82                             118    -0.1 4  235 235 
 CHI  HZ EP   1   1922 27.86                             117    -0.1 6  248 196 
 CHI  HE ES   2   1922 56.81                             117    -0.4 4  248 196 
 CHI  HZ I        1923  6.70       140.2 0.47                           248 196 
 ROSC BZ EP   1   1922 29.39                             116     0.9 6  252 211 
 ROSC BN ES   2   1922 58.21                             116     0.2 4  252 211 
 ROSC BZ I        1923  5.73       274.0 0.64                           252 211 
 HEL  HZ EP   1   1922 30.67                             114    -0.1 6  273 256 
 HEL  HN ES   2   1923  2.45                             114     0.4 4  273 256 
 HEL  HZ I        1923  9.00        96.1 0.45                           273 256 
 VIL  SZ EP   1   1922 33.36                             112    -0.2 5  301 190 
 VIL  SN ES   2   1923  6.59                             112    -0.4 4  301 190 
 VIL  SZ I        1923 12.89       121.0 0.39                           301 190 
 GUY  SZ EP   1   1922 34.25                             112     0.2 5  302 235 
 GUY  SN ES   2   1923  8.76                             112     0.7 4  302 235 
 RREF HZ EP   1   1922 35.91                             110    -0.7 5  322 230 
 RREF HE ES   2   1923 12.14                             110    -0.4 3  322 230 
 RREF HZ I        1923 22.32       255.6 0.28                           322 230 
 TOL  SZ EP   1   1922 39.14                             109     0.4 5  344 225 
 TOL  SZ ES   2   1923 16.51                             109     0.3 3  344 225 
                                                                                
