 2013  7 6 1536  6.5 L   6.780 -73.152150.8  RSN  8 0.4 2.4LRSN                1
 GAP=137        1.11       4.4     4.9  6.7  0.1053E+01  0.6030E+01  0.8380E+01E
 Epicentro: LOS SANTOS - SANTANDER                                             3
 ACTION:UPD 13-08-12 10:35 OP:ep   STATUS:               ID:20130706153606 L   I
 OLDACT:REG 13-07-06 16:00 OP:stll STATUS:               ID:20130706152849     3
 2013-07-06-1528-49M.COL___221                                                 6
 STAT SP IPHASW D HRMM SECON CODA AMPLIT PERI AZIMU VELO AIN AR TRES W  DIS CAZ7
 BAR2 SZ EP       1536 26.66                             172   -0.0210 21.0 189 
 BAR2 SZ ES       1536 42.17                             172   -0.2610 21.0 189 
 BAR2 SZ I        1536 43.52        24.5 0.42            170           21.0 189 
 GIR2 SZ EP       1536 26.96                             167    0.1510 33.4 352 
 GIR2 SZ ES       1536 42.95                             167    0.2810 33.4 352 
 BRR  HZ EP       1536 28.66                             153    0.4510 71.7 300 
 BRR  HN ES       1536 46.11                             153    0.9610 71.7 300 
 BRR  HN I        1536 50.25        58.7 0.20            151           71.7 300 
 PAM  SZ EP       1536 29.04                             151   -0.3310 79.6  39 
 PAM  SN ES       1536 46.81                             151   -0.4110 79.6  39 
 PAM  SN I        1536 47.78        23.6 0.46            154           79.6  39 
 RUS  HZ EP       1536 30.87                             145    0.2910 98.4 176 
 RUS  HN ES       1536 49.02                             145   -0.3610 98.4 176 
 RUS  HN I        1536 49.97        26.6 0.30            146           98.4 176 
 PTB  HZ EP       1536 33.33                             133   -0.44 9  147 260 
 PTB  HN ES       1536 54.73                             133   -0.32 9  147 260 
 PTB  HN I        1536 56.92        28.9 0.22            132            147 260 
 ZAR  HE ES       1537  4.23                             123   -0.64 9  204 293 
 ZAR  HE I        1537 11.88        66.3 0.46            123            204 293 
 CHI  HZ EP       1536 44.74                             118    0.53 8  246 195 
 CHI  HN ES       1537 13.71                             118    0.07 8  246 195 
 CHI  HN I        1537 19.14        12.6 0.52            119            246 195 
                                                                                
