 2010 12 6 1837 15.1 L   6.794 -72.872135.1  RSN  5 0.5 1.6LRSN                1
 GAP=234        1.21      21.5    62.6 19.8 -0.1110E+04 -0.5592E+03  0.3680E+02E
 Epicentro: SAN ANDRES - SANTANDER                                             3
 ACTION:UP  11-01-14 15:23 OP:pat  STATUS:               ID:20101206183715 L   I
 2010-12-06-1834-02S.COL___134                                                 6
 STAT SP IPHASW D HRMM SECON CODA AMPLIT PERI AZIMU VELO SNR AR TRES W  DIS CAZ7
 BAR2 SZ EP       1837 33.77                             162    -0.210   41 237 
 BAR2 SZ ES   1   1837 48.60                             162    -0.1 7   41 237 
 BAR2 SZ I        1837 50.93        13.0 0.20                            41 237 
 BTL  SZ EP   1   1837 34.99                             160     0.8 7   46 288 
 GUE  SZ EP       1837 38.04                             137    -0.710  115 357 
 GRA  SZ EP       1837 39.56                             136     0.610  121   4 
 GRA  SZ ES   2   1837 57.72                             136     0.1 5  121   4 
 GRA  SZ I        1838  2.80         5.6 0.50                           121   4 
 OCA  SZ EP   2   1837 43.03                             126    -0.3 5  167 343 
                                                                                
