 2017 11 6 1419 45.5 L   6.780 -73.171139.5  RSN  7 0.3 1.4LRSN                1
 GAP=143        0.63       4.5     3.1  6.6 -0.4778E+01  0.5530E+01  0.7197E+01E
 Epicentro: LOS SANTOS - SANTANDER                                             3
 ACTION:UPD 17-12-12 19:52 OP:rebc STATUS:               ID:20171106141945 L   I
 OLDACT:UP  17-11-07 00:08 OP:mg   STATUS:               ID:20171106141741     3
 OLDACT:REG 17-11-06 21:25 OP:mg   STATUS:               ID:20171106141741     3
 2017-11-06-1418-00M.COL___417                                                 6
 STAT SP IPHASW D HRMM SECON CODA AMPLIT PERI AZIMU VELO AIN AR TRES W  DIS CAZ7
 BAR2 EZ EP   1   1420  4.30                             171    0.02 7 20.8 184 
 BAR2 EZ ES   2   1420 19.33                             171    0.36 5 20.8 184 
 BAR2 EZ I        1420 21.84         5.7 0.32            168           20.8 184 
 PAM  EZ EP       1420  6.99                             148   -0.2310 80.8  40 
 PAM  EN ES       1420 24.30                             148    0.0910 80.8  40 
 PAM  EZ I        1420 26.16         6.1 0.46            154           80.8  40 
 PTB  HZ EP   1   1420 11.23                             131   -0.40 7  145 259 
 PTB  HN ES       1420 31.68                             131   -0.37 9  145 259 
 PTB  HZ I        1420 34.03         1.7 0.08            131            145 259 
 SPBC HZ EP       1420 13.30                             128    0.15 9  160 219 
 SPBC HN ES   4   1420 35.56                             128    0.81 0  160 219 
 SPBC HZ I        1420 37.68         4.0 0.07            128            160 219 
 ZAR  HZ EP   1   1420 17.92                             121    0.60 6  202 293 
 ZAR  HN ES       1420 42.30                             121    0.12 9  202 293 
 ZAR  HZ I        1420 52.18         2.9 0.28            122            202 293 
 NOR  HN ES   1   1420 47.98                             117    0.24 6  231 235 
 NOR  HZ I        1420 54.34         3.0 0.15            118            231 235 
 CHI  HZ EP   4   1420 22.39                             116   -0.11 0  246 195 
 CHI  HN ES   4   1420 52.48                             116    1.08 0  246 195 
 CHI  HZ I        1420 58.06         1.1 0.15            117            246 195 
                                                                                
