 2017  1 6 1230  9.5 L   6.686 -73.054161.9  RSN  4 0.1 1.4LRSN                1
 GAP=239        0.42       6.5    10.0  4.8  0.5533E+02 -0.1295E+02 -0.1389E+02E
 Epicentro: ARATOCA - SANTANDER                                                3
 ACTION:UPD 17-05-22 15:56 OP:jn   STATUS:               ID:20170106123009 L   I
 OLDACT:REG 17-01-06 20:41 OP:dnl  STATUS:               ID:20170106122741     3
 2017-01-06-1228-00M.COL___366                                                 6
 STAT SP IPHASW D HRMM SECON CODA AMPLIT PERI AZIMU VELO AIN AR TRES W  DIS CAZ7
 BAR2 EZ IP     C 1230 31.14                             174    0.1410 17.5 234 
 BAR2 EZ ES   4   1230 45.97                             174   -1.79 0 17.5 234 
 BAR2 EZ I        1230 47.90         4.7 0.32            155           17.5 234 
 BRR  HZ EP       1230 33.08                             151   -0.2010 86.3 303 
 BRR  HE ES       1230 51.84                             151    0.0310 86.3 303 
 BRR  HZ I        1230 54.39         3.8 0.14            140           86.3 303 
 RUS  HZ EP   4   1230 35.58                             150    1.50 0 87.8 182 
 RUS  HE ES       1230 53.20                             150   -0.0310 87.8 182 
 RUS  HZ I        1230 54.66         1.9 0.36            141           87.8 182 
 ZAR  HZ EP       1230 44.58                             124    0.09 8  218 294 
 ZAR  HE ES   4   1231 10.24                             124   -1.53 0  218 294 
 ZAR  HZ I        1231 17.93         3.4 0.50            118            218 294 
                                                                                
