 2016  7 6 1445  3.2 L   6.807 -73.148156.0  RSN  5 0.3 1.6LRSN                1
 GAP=244        0.64       6.0     4.6  5.9  0.1608E+02  0.2564E+01 -0.5808E+01E
 Epicentro: LOS SANTOS - SANTANDER                                             3
 ACTION:UPD 17-03-29 16:47 OP:lp   STATUS:               ID:20160706144503 L   I
 OLDACT:REG 16-07-06 20:36 OP:dnl  STATUS:               ID:20160706143745     3
 2016-07-06-1437-45M.COL___322                                                 6
 STAT SP IPHASW D HRMM SECON CODA AMPLIT PERI AZIMU VELO AIN AR TRES W  DIS CAZ7
 BAR2 EZ EP       1445 24.02                             171   -0.0910 24.1 189 
 BAR2 EZ ES       1445 40.28                             171   -0.1110 24.1 189 
 BAR2 EZ I        1445 44.34         6.1 0.20            173           24.1 189 
 RUS  HZ EP       1445 28.26                             146    0.2010  101 176 
 RUS  HE ES       1445 47.58                             146    0.1610  101 176 
 RUS  HZ I        1445 48.33         2.7 0.30            152            101 176 
 PTB  HZ EP       1445 30.50                             134   -0.54 9  148 259 
 PTB  HE ES       1445 52.80                             134    0.07 9  148 259 
 PTB  HZ I        1445 57.58         6.0 0.40            136            148 259 
 SPBC HZ EP   2   1445 33.00                             131    0.43 5  164 219 
 SPBC HN ES   2   1445 55.00                             131   -0.46 5  164 219 
 ZAR  HZ EP   3   1445 37.14                             125    0.83 2  203 292 
 ZAR  HE ES       1446  2.40                             125    0.29 9  203 292 
 ZAR  HZ I        1446  8.34         8.5 0.46            126            203 292 
                                                                                
