 2010  7 6 1855 42.6 L   6.882 -73.357110.5  RSN 12 0.4 2.4LRSN                1
 GAP=115        0.95       3.5     5.9  6.4 -0.8510E+01  0.8626E+01  0.1672E+01E
 Epicentro: SAN VICENTE DE CHUCURI - SANTANDER                                 3
 ACTION:UPD 10-12-01 15:15 OP:pat  STATUS:               ID:20100706185542 L   I
 2010-07-06-1853-15S.COL___118                                                 6
 STAT SP IPHASW D HRMM SECON CODA AMPLIT PERI AZIMU VELO AIN AR TRES W  DIS CAZ7
 BAR2 SZ IP       1855 58.59                             160     0.110   37 149 
 BAR2 SZ ES   1   1856 10.66                             160    -0.3 7   37 149 
 BRR  HZ IP     D 1855 58.21                             156    -0.410   46 303 
 BRR  HE ES   1   1856 11.04                             156     0.0 7   46 303 
 BRR  HZ I        1856 12.07        82.2 0.05                            46 303 
 BTN  SZ IP       1856  1.49                             143     0.610   77  22 
 BTN  SZ ES   1   1856 15.80                             143     0.6 7   77  22 
 BRI  SZ EP   1   1856  4.00                             131     0.4 7  111  34 
 RUS  HZ EP   1   1856  3.79                             131    -0.5 7  114 164 
 RUS  HN ES   2   1856 20.76                             131    -0.4 5  114 164 
 RUS  HZ I        1856 23.61        30.0 0.28                           114 164 
 GUE  SZ EP   1   1856  3.80                             130    -0.4 7  115  24 
 GUE  SZ ES   1   1856 20.62                             130    -0.4 7  115  24 
 GRA  SZ EP   1   1856  5.16                             127     0.1 7  127  29 
 GRA  SZ ES   1   1856 23.34                             127     0.8 7  127  29 
 OCA  SZ EP       1856  6.95                             122    -0.5 9  150   2 
 OCA  SZ ES   1   1856 26.07                             122    -0.7 7  150   2 
 OCA  SZ I        1856 27.67       113.5 0.23                           150   2 
 HEL  HN ES   2   1856 47.62                             108     0.3 4  252 252 
 CHI  HZ EP   2   1856 19.14                             108     0.1 4  252 189 
 CHI  HZ I        1856 55.57        11.0 0.27                           252 189 
 HEL  HZ EP   1   1856 19.22                             108     0.2 6  252 252 
 HEL  HZ I        1856 50.41        20.0 0.38                           252 252 
 RREF HZ EP   1   1856 26.55                             104     0.4 5  311 225 
 RREF HN ES   2   1857  0.70                             104     0.5 3  311 225 
 RREF HZ I        1857  7.17         9.5 0.31                           311 225 
 PRA  HZ EP   1   1856 34.86                             100     0.0 4  389 206 
 PRA  HE ES   2   1857 15.94                             100     0.4 3  389 206 
 PRA  HZ I        1857 23.62        10.7 0.05                           389 206 
                                                                                
