 2011  7 6 1623 23.4 L   7.395 -73.233130.1  RSN  4 0.1 1.5LRSN                1
 GAP=162        0.29       2.7     3.9  4.0 -0.5981E+01 -0.3130E+01  0.6034E+00E
 ACTION:UP  12-07-25 13:58 OP:epov STATUS:               ID:20110706162323 L   I
 OLDACT:UP  12-07-12 21:12 OP:ep   STATUS:               ID:20110706162323 L   3
 OLDACT:UP  12-07-12 21:10 OP:ep   STATUS:               ID:20110706162323 L   3
 2011-07-06-1620-10S.COL___123                                                 6
 STAT SP IPHASW D HRMM SECON CODA AMPLIT PERI AZIMU VELO AIN AR TRES W  DIS CAZ7
 BRI  SZ EP   2   1623 42.45                             154    0.01 5 59.8  54 
 BRI  SZ I        1623 42.75         4.2 0.20                          59.8  54 
 BRR  HZ EP   2   1623 42.19                             153   -0.10 5 61.7 239 
 BRR  HN ES   1   1623 57.07                             153    0.03 7 61.7 239 
 BRR  HZ I        1623 57.87        15.5 0.39                          61.7 239 
 GRA  SZ EP   1   1623 43.07                             149   -0.04 7 71.9  41 
 GRA  SZ ES   1   1623 58.54                             149    0.02 7 71.9  41 
 GRA  SZ I        1624  0.73         5.2 0.26                          71.9  41 
 BAR2 SZ EP   1   1623 44.48                             144    0.10 7 89.0 176 
 BAR2 SZ ES   1   1624  0.71                             144   -0.06 7 89.0 176 
                                                                                
