 2016  2 6 1828 10.8 L   6.813 -73.119150.0  RSN 10 0.3 1.8LRSN                1
 GAP=139        0.68       2.2     2.9  4.4 -0.8568E+00  0.4486E+01 -0.5883E+00E
 Epicentro: LOS SANTOS - SANTANDER                                             3
 ACTION:UPD 16-03-04 21:23 OP:rebc STATUS:               ID:20160206182810 L   I
 OLDACT:DUP 16-02-07 02:35 OP:cara STATUS:               ID:20160206181750d    3
 2016-02-06-1817-49M.COL___334                                                 6
 STAT SP IPHASW D HRMM SECON CODA AMPLIT PERI AZIMU VELO AIN AR TRES W  DIS CAZ7
 BAR2 EZ IP       1828 31.03                             170    0.0510 25.4 196 
 BAR2 EZ ES       1828 46.77                             170    0.0510 25.4 196 
 BAR2 EZ I        1828 48.74         6.9 0.26            168           25.4 196 
 PAM  EZ EP       1828 32.86                             152   -0.4410 74.5  39 
 PAM  EN ES       1828 51.15                             152    0.3010 74.5  39 
 PAM  EZ I        1828 52.86         3.7 0.50            157           74.5  39 
 RUS  HZ EP       1828 34.82                             144   -0.2410  102 178 
 RUS  HN ES       1828 53.97                             144   -0.0110  102 178 
 RUS  HZ I        1828 54.54         4.3 0.24            146            102 178 
 PTB  HZ EP       1828 38.06                             132   -0.34 9  151 259 
 PTB  HN ES       1828 59.33                             132   -0.59 9  151 259 
 PTB  HZ I        1829  4.96         8.1 0.34            132            151 259 
 SPBC HZ EP       1828 39.95                             129    0.05 9  166 219 
 SPBC HE ES       1829  2.72                             129    0.12 9  166 219 
 SPBC HZ I        1829  8.94        12.8 0.28            130            166 219 
 ZAR  HZ EP       1828 44.05                             123    0.30 8  206 291 
 ZAR  HE ES       1829  9.56                             123    0.12 8  206 291 
 ZAR  HZ I        1829 15.48         8.0 0.52            124            206 291 
 NOR  HZ EP       1828 47.25                             119    0.13 8  238 235 
 NOR  HE ES       1829 15.72                             119    0.28 8  238 235 
 NOR  HZ I        1829 18.34         4.0 0.16            120            238 235 
 SML  HE ES       1829 16.67                             118    0.26 8  244 335 
 SML  HZ I        1829 19.00        11.3 0.10            120            244 335 
 CHI  HZ IP   4   1828 51.39                             118    2.42 0  251 196 
 CHI  HE ES       1829 19.07                             118    0.33 8  251 196 
 CHI  HZ I        1829 24.02         3.0 0.46            120            251 196 
 GUY2CHZ EP   9   1828 56.28                             113    1.32 0  304 235 
 GUY2CHN ES       1829 30.64                                   -0.09 7  304 235 
 GUY2CHZ I        1829 38.19         3.2 0.60                           304 235 
                                                                                
