 2013  6 6 1126 16.8 L   6.723 -73.215139.1  RSN  4 0.4 1.7LRSN                1
 GAP=188        1.06       5.9     7.3  9.4  0.1214E+02  0.8246E+01 -0.2456E+02E
 Epicentro: VILLANUEVA - SANTANDER                                             3
 ACTION:UPD 14-01-08 09:52 OP:ep   STATUS:               ID:20130606112616 L   I
 OLDACT:REG 13-06-06 14:57 OP:nd   STATUS:               ID:20130606111959     3
 2013-06-06-1119-59M.COL___260                                                 6
 STAT SP IPHASW D HRMM SECON CODA AMPLIT PERI AZIMU VELO AIN AR TRES W  DIS CAZ7
 BAR2 SZ EP       1126 34.51                             174   -0.9210 15.0 166 
 BAR2 SZ ES       1126 50.02                             174    0.0210 15.0 166 
 BAR2 SZ I        1126 52.20         6.9 0.30            174           15.0 166 
 RUS  HZ EP       1126 39.66                             145    0.3610 93.0 171 
 RUS  HN ES       1126 57.22                             145    0.3310 93.0 171 
 PTB  HZ EP       1126 42.11                             132   -0.24 9  139 262 
 PTB  HN ES       1127  2.36                             132    0.04 9  139 262 
 PTB  HZ I        1127  8.63         6.2 0.22            132            139 262 
 SML  HZ EP       1126 53.95                             115    0.42 8  248 338 
 SML  HN ES       1127 22.43                             115    0.22 8  248 338 
 SML  HZ I        1127 26.74         8.4 0.26            117            248 338 
                                                                                
