 2012  8 6 1931 47.2 L   6.781 -73.149142.4  RSN  6 0.4 1.8LRSN                1
 GAP=151        0.81       7.3     5.1  8.6 -0.1345E+02  0.1102E+02  0.5576E+01E
 Epicentro: LOS SANTOS - SANTANDER                                             3
 ACTION:UPD 12-09-10 11:54 OP:ep   STATUS:               ID:20120806193147 L   I
 2012-08-06-1930-00M.COL___216                                                 6
 STAT SP IPHASW D HRMM SECON CODA AMPLIT PERI AZIMU VELO AIN AR TRES W  DIS CAZ7
 BAR2 SZ EP   1   1932  6.34                             171   -0.01 7 21.2 190 
 BAR2 SZ ES   1   1932 21.05                             171   -0.27 7 21.2 190 
 BAR2 SZ I        1932 23.82        12.7 0.26                          21.2 190 
 BRR  HZ EP   1   1932  8.22                             152    0.22 7 71.9 300 
 BRR  HZ I        1932  8.42        16.6 0.17                          71.9 300 
 BRR  HE ES   1   1932 25.07                             152    0.83 7 71.9 300 
 PAM  SZ EP   1   1932  9.19                             150    0.05 7 79.2  39 
 PAM  SN ES   1   1932 26.06                             150   -0.21 7 79.2  39 
 PTB  HZ EP   1   1932 13.71                             131   -0.09 7  147 260 
 PTB  HN ES   1   1932 33.89                             131   -0.68 7  147 260 
 PTB  HZ I        1932 35.77         5.9 0.33                           147 260 
 ZAR  HE ES   1   1932 44.21                             122   -0.41 6  205 293 
 NOR  SN ES   1   1932 50.68                             118    0.54 6  233 235 
                                                                                
