 2013 12 6 1349 15.7 L   6.811 -73.147145.8  RSN 10 0.5 2.3LRSN                1
 GAP=136        1.12       3.6     4.5  6.2 -0.1244E+01  0.7737E+01 -0.9367E+00E
 Epicentro: LOS SANTOS - SANTANDER                                             3
 ACTION:UPD 14-01-13 10:16 OP:ep   STATUS:               ID:20131206134915 L   I
 OLDACT:UP  13-12-06 17:36 OP:cam  STATUS:               ID:20131206134747     3
 OLDACT:REG 13-12-06 16:46 OP:cam  STATUS:               ID:20131206134747     3
 2013-12-06-1347-47M.COL___247                                                 6
 STAT SP IPHASW D HRMM SECON CODA AMPLIT PERI AZIMU VELO AIN AR TRES W  DIS CAZ7
 BAR2 SZ IP       1349 35.33                             170   -0.0410 24.5 189 
 BAR2 SZ ES       1349 50.30                             170   -0.4110 24.5 189 
 BAR2 SZ I        1349 51.67        57.0 0.18            170           24.5 189 
 BRR  HZ IP       1349 37.10                             153    0.2710 70.5 298 
 BRR  HN ES       1349 54.17                             153    0.8710 70.5 298 
 BRR  HZ I        1349 58.13        34.4 0.32            151           70.5 298 
 PAM  SZ IP     D 1349 38.21                             151    0.3310 76.6  40 
 PAM  SN ES       1349 55.15                             151   -0.0310 76.6  40 
 PAM  SZ I        1349 55.79        22.9 0.20            154           76.6  40 
 RUS  HZ EP       1349 39.44                             143   -0.1110  102 176 
 RUS  HN ES       1349 58.11                             143   -0.0410  102 176 
 RUS  HZ I        1349 59.77        23.1 0.32            146            102 176 
 PTB  HZ EP       1349 42.11                             132   -0.58 9  148 258 
 PTB  HN ES       1350  3.17                             132   -0.56 9  148 258 
 PTB  HZ I        1350  4.43        26.5 0.32            132            148 258 
 SPBC HZ EP       1349 44.31                             129    0.02 9  164 219 
 SPBC HN ES       1350  6.65                             129    0.06 9  164 219 
 SPBC HZ I        1350 12.87        27.0 0.16            130            164 219 
 ZAR  HZ EP       1349 49.06                             122    0.96 9  203 292 
 ZAR  HE ES       1350 13.61                             122    0.25 9  203 292 
 ZAR  HZ I        1350 18.88        29.1 0.34            123            203 292 
 NOR  HZ EP       1349 51.76                             118    0.26 8  235 234 
 NOR  HE ES       1350 19.18                             118   -0.24 8  235 234 
 NOR  HZ I        1350 21.79        16.9 0.28            120            235 234 
 SML  HZ EP       1349 51.66                             118   -0.56 8  243 335 
 SML  HN ES       1350 19.81                             118   -0.88 8  243 335 
 SML  HZ I        1350 27.35        22.5 0.10            119            243 335 
 CHI  HZ EP   1   1349 53.84                             117    0.31 6  250 195 
                                                                                
