 2010  6 6 1135  7.6 L   6.910 -73.374106.0  RSN 14 0.7 2.9LRSN                1
 GAP= 95        1.66       5.3     8.2  8.7 -0.2606E+02  0.2988E+02 -0.4749E+01E
 Epicentro: SAN VICENTE DE CHUCURI - SANTANDER                                 3
 ACTION:UP  10-08-24 10:08 OP:vdl  STATUS:               ID:20100606113507 L   I
 2010-06-06-1132-16S.COL___111                                                 6
 STAT SP IPHASW D HRMM SECON CODA AMPLIT PERI AZIMU VELO SNR AR TRES W  DIS CAZ7
 GIR2 SZ EP       1135 22.89                             164     0.410   27  47 
 GIR2 SZ ES       1135 32.72                             164    -1.310   27  47 
 BAR2 SZ IP       1135 23.11                             157     0.010   41 149 
 BAR2 SZ ES       1135 35.43                             157     0.210   41 149 
 GUE  SZ EP       1135 28.85                             129     0.210  113  26 
 GUE  SZ ES   2   1135 45.89                             129     0.9 5  113  26 
 GRA  SZ EP       1135 28.97                             126    -0.510  125  30 
 GRA  SZ ES   1   1135 48.44                             126     1.8 7  125  30 
 OCA  SZ EP       1135 32.05                             121     0.3 9  147   2 
 OCA  SZ ES   1   1135 50.68                             121     0.1 7  147   2 
 HEL  HZ EP       1135 43.70                             107     0.0 8  251 252 
 HEL  HN ES   1   1136 10.64                             107    -1.2 6  251 252 
 HEL  HZ I        1136 15.46        33.1 0.78                           251 252 
 ROSC BN ES       1136 12.37                             107     0.4 8  252 205 
 ROSC BZ I        1136 21.48        35.9 0.95                           252 205 
 CHI  HZ EP   1   1135 43.29                             107    -0.9 6  255 189 
 CHI  HN ES       1136 12.79                             107     0.0 8  255 189 
 CHI  HZ I        1136 17.16        47.5 0.44                           255 189 
 CVER SZ EP       1135 47.89                             105     1.2 7  275 196 
 CVER SZ ES   2   1136 17.16                             105     0.1 4  275 196 
 RREF BZ EP       1135 51.08                             102    -0.1 7  312 225 
 RREF BN ES       1136 25.69                             102     0.6 7  312 225 
 RREF BZ I        1136 30.54        40.1 0.91                           312 225 
 DBB  SZ EP       1135 50.59                             102    -0.1 7  314 272 
 TOL  SZ EP   1   1135 52.63                             101    -1.0 5  336 220 
 ANIL BZ EP   1   1135 54.86                             100    -0.4 5  349 220 
 ANIL BZ I        1136 38.63        80.8 0.14                           349 220 
 SDV  BZ IP     C 1135 57.95                              99     0.0 6  373  54 
 SDV  BN ES       1136 35.90                              99    -1.3 6  373  54 
 SDV  BZ I        1136 40.54        21.3 1.73                           373  54 
                                                                                
