 2017  2 6 1104 53.8 L   6.756 -73.194148.7  RSN  6 0.4 1.6LRSN                1
 GAP=132        0.95       6.0     5.1  7.3  0.1174E+02 -0.1601E+01 -0.8098E+01E
 Epicentro: VILLANUEVA - SANTANDER                                             3
 ACTION:UPD 17-05-24 15:33 OP:jn   STATUS:               ID:20170206110453 L   I
 OLDACT:DUP 17-02-07 00:21 OP:ar   STATUS:               ID:20170206105745d    3
 2017-02-06-1058-00M.COL___325                                                 6
 STAT SP IPHASW D HRMM SECON CODA AMPLIT PERI AZIMU VELO AIN AR TRES W  DIS CAZ7
 BAR2 EZ EP       11 5 13.37                             173   -0.2710 18.2 176 
 BAR2 EZ ES       11 5 29.13                             173   -0.0310 18.2 176 
 BAR2 EZ I        11 5 29.72        12.5 0.22            175           18.2 176 
 BRR  HZ EP       11 5 15.28                             154    0.1710 69.2 304 
 BRR  HN ES       11 5 32.31                             154    0.5510 69.2 304 
 BRR  HZ I        11 5 36.48        10.2 0.28            152           69.2 304 
 PAM  EZ EP       11 5 16.27                             149   -0.4410 84.5  40 
 RUS  HZ EP       11 5 17.94                             146    0.4510 96.3 173 
 RUS  HN ES       11 5 35.85                             146   -0.1610 96.3 173 
 RUS  HZ I        11 5 37.37         7.5 0.22            149           96.3 173 
 PTB  HZ EP       11 5 20.82                             134    0.40 9  142 260 
 PTB  HN ES       11 5 40.72                             134   -0.50 9  142 260 
 PTB  HZ I        11 5 43.07         2.4 0.08            134            142 260 
 ZAR  HN ES       11 5 51.06                             123   -0.24 9  201 294 
 ZAR  HZ I        11 5 56.92         4.9 0.36            124            201 294 
                                                                                
