 2014  1 6 1043 37.8 L   7.435 -73.207127.5  RSN 11 0.6 1.9LRSN                1
 GAP=109        1.43       3.7     5.8  9.1  0.3243E+01  0.2449E+02  0.7743E+01E
 Epicentro: EL PLAYON - SANTANDER                                              3
 ACTION:UPD 14-03-13 09:52 OP:ep   STATUS:               ID:20140106104337 L   I
 OLDACT:DUP 14-01-06 16:50 OP:stll STATUS:               ID:20140106103806d    3
 2014-01-06-1038-05M.COL___228                                                 6
 STAT SP IPHASW D HRMM SECON CODA AMPLIT PERI AZIMU VELO AIN AR TRES W  DIS CAZ7
 PAM  SZ EP       1043 57.55                             155    0.6510 57.0 101 
 PAM  SN ES       1044 12.18                             155    0.3810 57.0 101 
 PAM  SZ I        1044 15.13         8.5 0.38            159           57.0 101 
 OCA  HZ EP       1043 58.89                             143    0.3810 89.8 352 
 OCA  HN ES       1044 14.98                             143    0.3310 89.8 352 
 OCA  HZ I        1044 18.52        11.0 0.26            147           89.8 352 
 BAR2 SZ EP       1043 58.81                             142   -0.0710 93.2 178 
 BAR2 SZ ES       1044 14.54                             142   -0.7810 93.2 178 
 BAR2 SZ I        1044 16.82        36.7 0.14            144           93.2 178 
 PTB  HZ EP       1044  5.45                             123   -0.10 9  170 234 
 PTB  HN ES       1044 27.77                             123    0.58 9  170 234 
 PTB  HZ I        1044 30.88         9.9 0.28            126            170 234 
 RUS  HZ EP       1044  5.90                             123   -0.40 9  171 175 
 RUS  HZ I        1044  6.31         2.2 0.28            127            171 175 
 RUS  HN ES       1044 27.71                             123   -0.81 9  171 175 
 SML  HZ EP       1044  5.90                             122   -0.52 9  179 328 
 SML  HN ES       1044 27.70                             122   -1.04 9  179 328 
 SML  HZ I        1044 29.96        21.1 0.10            125            179 328 
 ZAR  HZ EP       1044  7.00                             121    0.18 9  182 272 
 ZAR  HN ES       1044 30.04                             121    0.58 9  182 272 
 ZAR  HE I        1044 32.48        48.3 0.16            124            182 272 
 SPBC HZ EP       1044 11.32                             116    0.45 8  219 206 
 SPBC HN ES       1044 36.64                             116   -0.02 8  219 206 
 SPBC HZ I        1044 45.01         7.7 0.36            119            219 206 
 URE  HZ EP       1044 14.34                             112   -0.88 8  259 278 
 URE  HN ES   4   1044 42.61                             112   -1.79 0  259 278 
 URE  HZ I        1044 45.39         7.3 0.16            115            259 278 
 CHI  HZ EP       1044 21.97                             108   -0.25 7  316 191 
 CHI  HZ I        1044 24.07         1.3 0.16            110            316 191 
 CHI  HN ES       1044 57.59                             108    0.72 7  316 191 
 GUY2CHZ EP       1044 26.85                             106    1.50 7  342 224 
 GUY2CHE ES       1045  1.71                             106   -0.72 7  342 224 
 GUY2CHZ I        1045 12.74         3.0 0.60                           342 224 
                                                                                
