 2016  1 6 1013  3.6 L   6.800 -73.145148.3  RSN  6 0.4 1.6LRSN                1
 GAP=151        1.09       6.1     5.2  8.0 -0.8810E+01  0.7100E+01  0.7398E+01E
 Epicentro: LOS SANTOS - SANTANDER                                             3
 ACTION:UPD 16-03-09 23:23 OP:cam  STATUS:               ID:20160106101303 L   I
 OLDACT:REG 16-01-06 20:51 OP:ar   STATUS:               ID:20160106100735     3
 2016-01-06-1007-35M.COL___269                                                 6
 STAT SP IPHASW D HRMM SECON CODA AMPLIT PERI AZIMU VELO AIN AR TRES W  DIS CAZ7
 BAR2 EZ EP       1013 23.12                             171   -0.4710 23.4 190 
 BAR2 EZ ES       1013 38.75                             171   -0.3910 23.4 190 
 BAR2 EZ I        1013 41.15         5.0 0.26            161           23.4 190 
 BRR  HZ EP       1013 25.57                             153    0.4910 71.3 298 
 BRR  HN ES       1013 42.46                             153    0.6710 71.3 298 
 BRR  HZ I        1013 52.43         7.0 0.58            153           71.3 298 
 PAM  EZ EP       1013 26.33                             151    0.2010 77.3  39 
 PAM  EN ES       1013 43.56                             151   -0.1110 77.3  39 
 PAM  EZ I        1013 45.57         5.5 0.50            167           77.3  39 
 PTB  HZ EP       1013 30.58                             133   -0.25 9  148 259 
 PTB  HN ES       1013 51.49                             133   -0.55 9  148 259 
 PTB  HZ I        1013 57.37         3.8 0.40            133            148 259 
 SPBC HZ EP       1013 32.40                             130    0.05 9  163 219 
 SPBC HE ES       1013 55.35                             130    0.61 9  163 219 
 SPBC HZ I        1014 19.17        11.6 0.18            130            163 219 
 ZAR  HZ EP   4   1013 39.04                             123    2.77 0  204 292 
 ZAR  HN ES       1014  1.39                             123   -0.32 9  204 292 
 ZAR  HZ I        1014  7.75         3.2 0.30            127            204 292 
                                                                                
