 2013 11 6 1016  0.1 L   6.480 -73.618107.9  RSN  6 0.5 1.4LRSN                1
 GAP=136        1.13       5.0     5.1  8.1  0.9348E+01  0.7297E+01 -0.7500E+01E
 Epicentro: SANTA HELENA DEL OPON - SANTANDER                                  3
 ACTION:UPD 14-01-09 16:26 OP:ep   STATUS:               ID:20131106101600 L   I
 OLDACT:DUP 13-11-06 17:42 OP:nd   STATUS:               ID:20131106101001d    3
 2013-11-06-1010-00M.COL___273                                                 6
 STAT SP IPHASW D HRMM SECON CODA AMPLIT PERI AZIMU VELO AIN AR TRES W  DIS CAZ7
 BAR2 SZ EP       1016 16.38                             153    0.1410 49.8  76 
 BAR2 SZ ES       1016 28.43                             153   -0.4410 49.8  76 
 BAR2 SZ I        1016 29.91        17.9 0.18            156           49.8  76 
 BRR  HZ EP       1016 17.28                             144    0.1010 70.1 352 
 BRR  HN ES       1016 31.45                             144    0.9010 70.1 352 
 BRR  HZ I        1016 33.89         3.8 0.64            144           70.1 352 
 RUS  HZ EP       1016 19.49                             138    0.2610 87.9 138 
 RUS  HN ES       1016 34.10                             138   -0.0910 87.9 138 
 RUS  HZ I        1016 35.30         1.5 0.24            143           87.9 138 
 PTB  HZ EP       1016 19.19                             136    0.2010 92.9 274 
 PTB  HN ES       1016 33.12                             136   -0.6510 92.9 274 
 PTB  HZ I        1016 35.26         6.0 0.30            136           92.9 274 
 ZAR  HZ EP   2   1016 27.79                             116    0.45 4  177 309 
 ZAR  HN ES   2   1016 49.29                             116    0.67 4  177 309 
 ZAR  HZ I        1016 54.63         3.2 0.42            117            177 309 
 SML  HZ EP       1016 36.64                             107   -0.30 8  262 349 
 SML  HN ES       1017  4.96                             107   -0.75 8  262 349 
 SML  HZ I        1017  8.54         3.3 0.10            108            262 349 
                                                                                
