 2012  4 6 1958 45.3 L   7.389 -73.167132.5  RSN  4 0.1 1.5LRSN                1
 GAP=213        0.34       3.9     3.0  3.9 -0.2482E+01 -0.6996E+00  0.5766E+01E
 Epicentro: EL PLAYON - SANTANDER                                              3
 ACTION:UPD 12-07-05 11:51 OP:tino STATUS:               ID:20120406195845 L   I
 2012-04-06-1957-02M.COL___181                                                 6
 STAT SP IPHASW D HRMM SECON CODA AMPLIT PERI AZIMU VELO AIN AR TRES W  DIS CAZ7
 PAM  SZ EP       1959  4.80                             158     0.110   52  96 
 PAM  SN ES   1   1959 19.71                             158    -0.1 7   52  96 
 BRR  HZ EP       1959  4.72                             151    -0.110   68 243 
 BRR  HN ES   1   1959 20.13                             151     0.1 7   68 243 
 BRR  HZ I        1959 20.97        14.6 0.12                            68 243 
 BAR2 SZ EP   1   1959  6.43                             144     0.0 7   88 181 
 RUS  HZ EP       1959 13.57                             126     0.0 9  166 177 
 RUS  HE ES   2   1959 35.70                             126     0.0 5  166 177 
 RUS  HZ I        1959 36.74         2.2 0.26                           166 177 
                                                                                
