 2012 12 6 1309  0.2 L   6.838 -73.181139.0  RSN 15 0.6 3.0LRSN 3.3WRSN        1
 SPEC AVERAGE  MO 14.1 ST  6.6 OM  3.2 f0 3.08 R0.5122 AL 2.71 WI 12.5 MW  3.3 3
 SPEC SD       MO  0.1 ST  4.9 OM  0.9 f00.829 R0.1341 AL      WI      MW  0.1 3
 GAP= 68        1.29       3.2     3.6  6.0  0.6779E+00  0.8191E+01  0.1567E+01E
 Epicentro: ZAPATOCA - SANTANDER                                               3
 SPEC PAM SH N MO 14.2 ST  5.4 OM  2.6 f0 2.92 R0.5034 AL 3.31 WI  9.2 MW  3.4 3
 SPEC PAM SH N T13 938 K 0.000 GD  158 VS 4.20 DE 3.20 Q0300.0 QA 0.60 VS 4.20 3
 SPEC CHI HH N MO 14.0 ST  1.3 OM  2.1 f0 2.16 R0.6806 AL 2.03 WI 14.6 MW  3.2 3
 SPEC CHI HH N T1310 5 K 0.000 GD  287 VS 4.20 DE 3.20 Q0300.0 QA 0.60 VS 4.20 3
 SPEC OCA HH N MO 14.1 ST 13.1 OM  2.4 f0 4.17 R0.3525 AL 2.78 WI 13.8 MW  3.4 3
 SPEC OCA HH N T13 947 K 0.000 GD  208 VS 4.20 DE 3.20 Q0300.0 QA 0.60 VS 4.20 3
 ACTION:UPD 13-01-04 14:26 OP:ep   STATUS:               ID:20121206130900 L   I
 2012-12-06-1308-37M.COL___198                                                 6
 STAT SP IPHASW D HRMM SECON CODA AMPLIT PERI AZIMU VELO AIN AR TRES W  DIS CAZ7
 GIR2 SZ EP       13 9 19.16                             169    0.1910 26.7 357 
 GIR2 SZ ES       13 9 33.85                             169    0.2610 26.7 357 
 GIR2 SZ I        13 9 36.14       103.9 0.38                          26.7 357 
 BAR2 SZ EP       13 9 19.08                             168   -0.0410 27.1 180 
 BAR2 SZ ES       13 9 33.97                             168    0.1010 27.1 180 
 PAM  SZ EP       13 9 21.96                             150    0.2710 76.9  44 
 PAM  SN ES       13 9 38.96                             150    0.5310 76.9  44 
 PAM  SN I        13 9 39.98       263.5 0.46                          76.9  44 
 RUS  HZ EP     C 13 9 23.15                             141   -0.5010  105 174 
 RUS  HN ES       13 9 41.58                             141   -0.3410  105 174 
 RUS  HN I        13 9 43.21        91.0 0.36                           105 174 
 PTB  HZ EP     C 13 9 25.57                             131   -0.80 9  145 257 
 PTB  HN ES       13 9 46.33                             131   -0.44 9  145 257 
 PTB  HN I        13 9 48.11       109.0 0.52                           145 257 
 OCA  HZ EP       13 9 27.52                             129   -0.05 9  156 354 
 OCA  HN ES       13 9 49.06                             129    0.15 9  156 354 
 OCA  HN I        13 9 51.89       254.2 0.22                           156 354 
 TAM  HZ IP     D 13 9 27.64                             128   -0.19 9  160 106 
 TAM  HN ES       13 9 49.24                             128   -0.13 9  160 106 
 ZAR  HZ EP       13 9 32.01                             122    0.32 9  199 291 
 ZAR  HN ES       13 9 56.97                             122    0.73 9  199 291 
 ZAR  HN I        13 9 58.15       114.8 0.48                           199 291 
 SML  HZ EP       13 9 36.52                             117    0.64 8  238 336 
 SML  HN ES       1310  2.07                             117   -1.63 8  238 336 
 SML  HN I        1310 11.47        96.4 0.10                           238 336 
 CHI  HZ EP     D 13 9 37.66                             115   -0.22 8  252 194 
 CHI  HN ES       1310  6.71                             115   -0.55 8  252 194 
 CHI  HN I        1310  9.15        70.1 0.50                           252 194 
 ROSC BZ EP       13 9 38.19                             115    0.04 8  254 210 
 ROSC BN ES       1310  8.57                             115    0.82 8  254 210 
 ROSC BZ I        1310 14.10        40.4 0.45                           254 210 
 HEL  HZ EP       13 9 40.58                             114    0.79 8  269 255 
 HEL  HN ES       1310 10.66                             114    0.00 8  269 255 
 HEL  HN I        1310 18.59        29.5 0.24                           269 255 
 URE  HZ EP       13 9 40.02                             113   -0.36 7  279 291 
 URE  HN ES       1310 10.93                             113   -0.79 7  279 291 
 URE  HN I        1310 12.32        62.1 0.26                           279 291 
 DBB  SZ EP       13 9 47.84                             108    0.90 7  335 274 
 TOL  SZ EP       13 9 49.19                             108    0.95 7  344 224 
                                                                                
