 2013  4 6 1542 26.4 L   6.797 -73.121149.9  RSN 14 0.4 2.5LRSN                1
 GAP=185        0.84       2.9     4.2  5.2  0.1418E+01  0.5301E+01  0.1909E+01E
 Epicentro: LOS SANTOS - SANTANDER                                             3
 ACTION:UPD 13-05-22 14:36 OP:EP   STATUS:               ID:20130406154226 L   I
 2013-04-06-1540-00M.COL___245                                                 6
 STAT SP IPHASW D HRMM SECON CODA AMPLIT PERI AZIMU VELO AIN AR TRES W  DIS CAZ7
 BAR2 SZ EP       1542 46.57                             171    0.0810 23.6 197 
 BAR2 SZ ES   1   1543  2.03                             171   -0.16 7 23.6 197 
 BAR2 SZ I        1543  3.30        92.2 0.32            167           23.6 197 
 GIR2 SZ EP       1542 46.64                             167    0.0910 32.2 346 
 GIR2 SZ ES   2   1543  2.96                             167    0.67 5 32.2 346 
 BRR  HZ IP     C 1542 48.48                             152    0.3810 73.8 298 
 BRR  HN ES   1   1543  5.97                             152    0.91 7 73.8 298 
 BRR  HZ I        1543  9.96        38.6 0.30            149           73.8 298 
 RUS  HZ EP       1542 50.48                             145    0.0010  100 178 
 RUS  HN ES   1   1543  8.72                             145   -0.58 7  100 178 
 RUS  HZ I        1543 10.38        34.6 0.40            147            100 178 
 PTB  HZ EP       1542 53.28                             132   -0.62 9  150 259 
 PTB  HN ES   1   1543 14.55                             132   -0.84 7  150 259 
 PTB  HZ I        1543 22.03        54.2 0.44            131            150 259 
 OCA  HZ EP   1   1542 55.27                             130    0.21 7  161 352 
 OCA  HN ES   1   1543 17.51                             130    0.07 7  161 352 
 OCA  HZ I        1543 21.53        46.9 0.30            132            161 352 
 CTAU SZ EP   4   1543  2.44                             124    2.73 0  204 210 
 ZAR  HZ EP       1542 59.20                             123   -0.15 8  207 292 
 ZAR  HE ES       1543 24.89                             123   -0.20 8  207 292 
 ZAR  HZ I        1543 30.18        43.0 0.58            123            207 292 
 NOR  HZ EP       1543  2.65                             119    0.10 8  237 235 
 NOR  HE ES   1   1543 31.14                             119    0.36 6  237 235 
 NOR  HZ I        1543 35.82        30.4 0.18            120            237 235 
 SML  HZ EP   1   1543  2.94                             118   -0.44 6  245 335 
 SML  HN ES   1   1543 31.44                             118   -0.82 6  245 335 
 SML  HZ I        1543 39.22        45.5 0.30            119            245 335 
 CHI  HZ EP       1543  4.59                             118    0.26 8  249 196 
 CHI  HN ES   1   1543 33.60                             118   -0.35 6  249 196 
 CHI  HZ I        1543 39.71        12.1 0.50            120            249 196 
 HEL  HZ EP   2   1543  7.58                             115    0.51 4  275 256 
 HEL  HN ES   2   1543 39.51                             115    0.69 4  275 256 
 HEL  HZ I        1543 47.21        15.7 0.34            116            275 256 
 DBB  SZ EP       1543 14.88                             110    0.55 7  342 274 
 DBB  SZ ES   2   1543 51.69                             110   -0.05 3  342 274 
 DBB  SZ I        1543 53.11        10.0 0.52            111            342 274 
 PRA  HZ EP       1543 20.19                             107    0.04 6  393 210 
 PRA  HN ES   1   1544  2.43                             107    0.32 4  393 210 
 PRA  HZ I        1544  8.08        17.9 0.64            108            393 210 
 SJC  HZ EP   4   1543 20.85                             106   -1.42 0  411 327 
 SJC  HN ES   4   1544  1.60                             106   -4.28 0  411 327 
 SJC  HZ I        1544  7.28         6.5 0.22            108            411 327 
                                                                                
