 2012  3 6 1335 13.0 L   6.790 -73.159140.5  RSN  9 0.3 1.8LRSN                1
 GAP=135        0.68       3.1     3.5  4.9 -0.5808E+00  0.4022E+01  0.8835E+00E
 ACTION:UP  12-03-31 23:17 OP:EP   STATUS:               ID:20120306133513 L   I
 2012-03-06-1330-00M.COL___194                                                 6
 STAT SP IPHASW D HRMM SECON CODA AMPLIT PERI AZIMU VELO SNR AR TRES W  DIS CAZ7
 BAR2 SZ EP       1335 32.04                             171     0.110   22 187 
 BAR2 SZ ES   1   1335 46.74                             171     0.0 7   22 187 
 BAR2 SZ I        1335 48.57        15.6 0.38                            22 187 
 BRR  HZ EP       1335 33.83                             152     0.310   70 300 
 BRR  HE ES   1   1335 50.09                             152     0.5 7   70 300 
 BRR  HZ I        1335 54.26        18.4 0.14                            70 300 
 PAM  SZ EP       1335 34.93                             149     0.210   79  40 
 PAM  SE ES   1   1335 51.38                             149    -0.4 7   79  40 
 RUS  HZ EP   1   1335 36.16                             143     0.0 7  100 175 
 RUS  HN ES   1   1335 53.95                             143    -0.3 7  100 175 
 RUS  HZ I        1335 56.65         7.8 0.35                           100 175 
 PTB  HZ EP       1335 39.18                             131    -0.2 9  146 259 
 PTB  HN ES   1   1335 59.63                             131    -0.4 7  146 259 
 OCA  SZ EP   1   1335 40.69                             128    -0.3 7  161 354 
 ZAR  HZ EP   1   1335 44.79                             121    -0.2 6  203 293 
 ZAR  HN ES   1   1336 10.19                             121     0.2 6  203 293 
 ZAR  HZ I        1336 15.97         8.6 0.24                           203 293 
 NOR  SZ EP   1   1335 47.97                             118    -0.3 6  233 234 
 NOR  SN ES   2   1336 15.22                             118    -0.5 4  233 234 
 CHI  HZ EP   1   1335 50.66                             116     0.4 6  247 195 
 CHI  HN ES   1   1336 19.76                             116     0.4 6  247 195 
 CHI  HZ I        1336 25.13         4.4 0.33                           247 195 
                                                                                
