 2017  1 6 1914  4.6 L   6.787 -73.154144.0  RSN  9 0.4 2.1LRSN                1
 GAP=136        0.92       3.7     4.4  5.8  0.1576E+01  0.8192E+01  0.5701E+01E
 Epicentro: LOS SANTOS - SANTANDER                                             3
 ACTION:UPD 17-05-22 15:56 OP:jn   STATUS:               ID:20170106191404 L   I
 OLDACT:UP  17-01-07 00:29 OP:dnl  STATUS:               ID:20170106190742     3
 OLDACT:UP  17-01-07 00:29 OP:dnl  STATUS:               ID:20170106190742     3
 OLDACT:REG 17-01-06 21:30 OP:dnl  STATUS:               ID:20170106190742     3
 2017-01-06-1908-00M.COL___380                                                 6
 STAT SP IPHASW D HRMM SECON CODA AMPLIT PERI AZIMU VELO AIN AR TRES W  DIS CAZ7
 BAR2 EZ EP       1914 23.76                             171   -0.2110 21.8 188 
 BAR2 EZ ES       1914 38.91                             171   -0.1810 21.8 188 
 BAR2 EZ I        1914 40.01        32.3 0.24            167           21.8 188 
 BRR  HZ EP       1914 25.62                             152    0.0910 71.1 300 
 BRR  HN ES       1914 42.55                             152    0.6710 71.1 300 
 BRR  HZ I        1914 45.92        18.3 0.44            149           71.1 300 
 PAM  EZ EP       1914 26.72                             150    0.0110 79.0  39 
 PAM  EE ES       1914 44.00                             150    0.0310 79.0  39 
 PAM  EZ I        1914 45.90        18.0 0.56            157           79.0  39 
 RUS  HZ EP       1914 27.97                             144   -0.1010 99.3 175 
 RUS  HE ES       1914 46.51                             144    0.1310 99.3 175 
 RUS  HZ I        1914 48.02        11.3 0.48            145           99.3 175 
 PTB  HZ EP       1914 30.63                             132   -0.67 9  147 259 
 PTB  HN ES   2   1914 51.26                             132   -0.88 5  147 259 
 PTB  HZ I        1914 58.17        12.6 0.34            131            147 259 
 ZAR  HZ EP   2   1914 36.83                             122   -0.05 4  204 293 
 ZAR  HE ES       1915  1.74                             122   -0.33 9  204 293 
 ZAR  HZ I        1915  6.94        16.9 0.30            122            204 293 
 NOR  HZ EP   2   1914 39.98                             118   -0.06 4  233 235 
 NOR  HN ES   2   1915  8.42                             118    0.72 4  233 235 
 NOR  HZ I        1915 17.10         8.6 0.40            119            233 235 
 CHI  HZ EP       1914 41.94                             117   -0.07 8  247 195 
 CHI  HN ES       1915 11.16                             117   -0.05 8  247 195 
 CHI  HZ I        1915 14.75         9.2 0.66            118            247 195 
 GUY2CHZ EP       1914 49.02                             112    1.08 7  300 235 
 GUY2CHE ES   4   1915 25.24                             112    3.49 0  300 235 
 GUY2CHZ  IAML    1915 30.00         7.4 0.34                           300 235 
                                                                                
