 2012  9 6 1502 56.9 L   6.783 -73.109135.8  RSN  7 0.4 1.8LRSN                1
 GAP=142        0.67       5.1     5.9  7.1  0.8361E+01 -0.9890E+01 -0.4234E+01E
 Epicentro: LOS SANTOS - SANTANDER                                             3
 ACTION:UPD 12-10-22 14:17 OP:ep   STATUS:               ID:20120906150256 L   I
 2012-09-06-1500-00M.COL___218                                                 6
 STAT SP IPHASW D HRMM SECON CODA AMPLIT PERI AZIMU VELO AIN AR TRES W  DIS CAZ7
 BAR2 SZ EP       15 3 15.24                             170   -0.0410 22.6 201 
 BAR2 SZ I        15 3 15.37        11.7 0.22                          22.6 201 
 BAR2 SZ ES   1   15 3 29.21                             170   -0.43 7 22.6 201 
 GIR2 SZ EP       15 3 15.42                             165   -0.0110 34.0 344 
 GIR2 SZ ES   3   15 3 29.96                             165    0.04 2 34.0 344 
 BRR  HZ EP       15 3 17.07                             149   -0.1410 75.6 298 
 BRR  HZ I        15 3 20.69        13.8 0.34                          75.6 298 
 BRR  HE ES   1   15 3 33.67                             149    0.58 7 75.6 298 
 PAM  SZ EP       15 3 18.16                             149    0.2010 76.4  36 
 PAM  SZ I        15 3 18.38        18.0 0.22                          76.4  36 
 PAM  SN ES   3   15 3 33.02                             149   -1.40 2 76.4  36 
 RUS  HZ EP       15 3 19.44                             142   -0.0510 98.5 178 
 RUS  HZ I        15 3 20.43         6.0 0.16                          98.5 178 
 RUS  HE ES   2   15 3 37.82                             142    0.68 5 98.5 178 
 PTB  HN ES   3   15 3 43.07                             129   -0.99 2  151 260 
 PTB  HN I        15 3 45.45        11.9 0.38                           151 260 
 ZAR  HN ES   2   15 3 53.89                             120   -0.44 4  209 292 
                                                                                
