 2017  9 6 1952 37.3 L   6.794 -73.105138.0  RSN 10 0.5 1.8LRSN                1
 GAP=116        1.12       4.0     4.7  6.2 -0.2897E+00  0.7156E+01  0.7485E+01E
 Epicentro: LOS SANTOS - SANTANDER                                             3
 ACTION:UPD 17-10-05 19:09 OP:rebc STATUS:               ID:20170906195237 L   I
 OLDACT:REG 17-09-06 20:26 OP:lv   STATUS:               ID:20170906194743     3
 2017-09-06-1948-00M.COL___419                                                 6
 STAT SP IPHASW D HRMM SECON CODA AMPLIT PERI AZIMU VELO AIN AR TRES W  DIS CAZ7
 BAR2 EZ EP       1952 55.36                             170   -0.6310 23.9 201 
 BAR2 EZ ES       1953 10.24                             170   -0.3510 23.9 201 
 BAR2 EZ I        1953 12.05        13.0 0.24            166           23.9 201 
 PAM  EZ EP       1952 58.77                             150    0.2310 75.1  37 
 PAM  EE ES       1953 15.58                             150    0.4610 75.1  37 
 PAM  EZ I        1953 18.09        11.0 0.26            144           75.1  37 
 BRR  HZ EP       1952 57.63                             150   -0.2310 75.5 297 
 BRR  HN ES       1953 14.46                             150    0.5610 75.5 297 
 RUS  HZ EP       1952 59.61                             142   -0.6110 99.7 179 
 RUS  HN ES       1953 18.47                             142    0.3710 99.7 179 
 RUS  HZ I        1953 20.60         4.3 0.14            136           99.7 179 
 SPBC HZ EP       1953  4.78                             127   -0.65 9  166 220 
 SPBC HN ES       1953 27.39                             127    0.01 9  166 220 
 SPBC HZ I        1953 32.91        12.0 0.16            123            166 220 
 YPLC HZ EP       1953  6.33                             125    0.07 9  174 153 
 YPLC HZ I        1953 30.99         7.5 0.32            119            174 153 
 ZAR  HZ EP       1953  9.71                             120    0.01 8  208 292 
 ZAR  HN ES       1953 34.38                             120   -0.61 8  208 292 
 ZAR  HZ I        1953 39.95         8.2 0.36            118            208 292 
 CHI  HZ EP       1953 14.71                             115    0.08 8  249 196 
 CHI  HN ES   2   1953 43.86                             115    0.10 4  249 196 
 CHI  HZ I        1953 48.80         2.4 0.19            111            249 196 
 GUY2CHZ EP       1953 21.70                             111    0.78 7  305 235 
 GUY2CHE ES       1953 55.78                             111    0.82 7  305 235 
 GUY2CHZ I        1954  2.17         3.3 0.32                           305 235 
 PRA  HZ EP       1953 31.65                             105    0.91 6  394 210 
 PRA  HN ES       1954 12.22                             105   -0.22 6  394 210 
                                                                                
