 2013  7 6 1239 37.9 L   6.771 -73.141145.1  RSN  7 0.4 1.8LRSN                1
 GAP=159        1.10       4.0     6.1  7.2 -0.4263E+01 -0.1125E+01  0.3603E+01E
 Epicentro: LOS SANTOS - SANTANDER                                             3
 ACTION:UPD 13-08-12 10:35 OP:ep   STATUS:               ID:20130706123937 L   I
 OLDACT:REG 13-07-06 15:57 OP:stll STATUS:               ID:20130706123840     3
 2013-07-06-1238-40M.COL___224                                                 6
 STAT SP IPHASW D HRMM SECON CODA AMPLIT PERI AZIMU VELO AIN AR TRES W  DIS CAZ7
 BAR2 SZ EP       1239 57.49                             172    0.1310 20.2 193 
 BAR2 SZ ES       1240 12.94                             172    0.3810 20.2 193 
 BAR2 SZ I        1240 14.05         8.1 0.36            170           20.2 193 
 GIR2 SZ EP       1239 57.86                             166    0.3110 34.6 350 
 BRR  HZ EP       1239 59.50                             152    0.4410 73.2 301 
 BRR  HN ES       1240 16.10                             152    0.5110 73.2 301 
 BRR  HN I        1240 17.51        21.2 0.28            152           73.2 301 
 RUS  HZ EP       1240  0.96                             145   -0.3610 97.3 176 
 RUS  HN ES       1240 19.04                             145   -0.5710 97.3 176 
 RUS  HN I        1240 20.70         8.4 0.38            144           97.3 176 
 GRA  SZ EP       1240  3.29                             136   -0.0110  129  17 
 GRA  SZ ES       1240 22.64                             136   -0.4910  129  17 
 PTB  HZ EP       1240  4.37                             132   -0.40 9  148 260 
 PTB  HN ES       1240 25.10                             132   -0.66 9  148 260 
 PTB  HN I        1240 26.77        11.7 0.22            132            148 260 
 CHI  HZ EP       1240 15.55                             117    0.35 8  246 195 
 CHI  HN ES       1240 44.84                             117    0.52 8  246 195 
 CHI  HN I        1240 50.04         5.2 0.64            117            246 195 
                                                                                
