 2010 11 6 1738 52.2 L   6.863 -73.289120.4  RSN  6 0.2 1.7LRSN                1
 GAP=133        0.68       3.1     6.6  6.1  0.9107E+00 -0.1028E+02 -0.5985E+01E
 Epicentro: ZAPATOCA - SANTANDER                                               3
 ACTION:UP  10-12-17 16:50 OP:REBC STATUS:               ID:20101106173852 L   I
 2010-11-06-1736-46S.COL___127                                                 6
 STAT SP IPHASW D HRMM SECON CODA AMPLIT PERI AZIMU VELO SNR AR TRES W  DIS CAZ7
 BAR2 SZ EP       1739  9.06                             164     0.010   32 159 
 BAR2 SZ ES   1   1739 22.02                             164    -0.1 7   32 159 
 BAR2 SZ I        1739 23.63        32.4 0.29                            32 159 
 BRR  HZ EP       1739  9.54                             154    -0.110   54 300 
 BRR  HZ I        1739 14.14         9.0 0.16                            54 300 
 BRR  HN ES   1   1739 23.40                             154     0.2 7   54 300 
 RUS  HZ EP       1739 14.17                             135    -0.110  110 168 
 RUS  HN ES   1   1739 31.65                             135     0.1 7  110 168 
 GUE  SZ EP       1739 14.24                             134    -0.210  114  21 
 GRA  SZ EP       1739 15.77                             131     0.610  125  25 
 GRA  SZ I        1739 16.13         6.2 0.34                           125  25 
 GRA  SZ ES   1   1739 33.01                             131    -0.2 7  125  25 
 OCA  SZ EP       1739 17.69                             125    -0.1 9  152 359 
 OCA  SZ I        1739 41.92         9.0 0.38                           152 359 
                                                                                
