 2014  7 6 1700 48.7 L   6.545 -73.576117.8  RSN  4 0.4 1.4LRSN                1
 GAP=186        0.94       5.9     5.6  7.8 -0.3417E+01  0.4457E+01 -0.1291E+02E
 Epicentro: EL CARMEN - SANTANDER                                              3
 ACTION:UPD 15-03-16 20:41 OP:nd   STATUS:               ID:20140706170048 L   I
 OLDACT:REG 14-07-06 20:18 OP:spq  STATUS:               ID:20140706165819     3
 2014-07-06-1658-19M.COL___265                                                 6
 STAT SP IPHASW D HRMM SECON CODA AMPLIT PERI AZIMU VELO AIN AR TRES W  DIS CAZ7
 BAR2 SZ EP       17 1  5.48                             158   -0.2410 43.8  83 
 BAR2 SZ ES   1   17 1 18.75                             158   -0.24 7 43.8  83 
 BAR2 SZ I        17 1 19.59         7.8 0.20            165           43.8  83 
 BRR  HZ IP     C 17 1  7.25                             149    0.7910 63.9 346 
 BRR  HN ES       17 1 20.39                             149    0.1010 63.9 346 
 BRR  HZ I        17 1 28.56         5.8 0.52            146           63.9 346 
 PTB  HZ EP       17 1  9.08                             138    0.1610 97.4 270 
 PTB  HN ES       17 1 24.38                             138   -0.3010 97.4 270 
 PTB  HZ I        17 1 30.55         2.8 0.10            138           97.4 270 
 SML  HZ EP       17 1 24.82                             110   -0.46 8  255 348 
 SML  HN ES       17 1 53.63                             110   -0.16 8  255 348 
 SML  HZ I        17 1 59.42         2.4 0.06            113            255 348 
                                                                                
