 2013  4 6 1142 48.0 L   6.769 -73.175142.2  RSN  6 0.4 1.7LRSN                1
 GAP=232        0.73       6.1     6.2  7.6  0.1559E+02  0.8914E+01 -0.2631E+01E
 Epicentro: LOS SANTOS - SANTANDER                                             3
 ACTION:UPD 13-05-22 14:36 OP:EP   STATUS:               ID:20130406114248 L   I
 2013-04-06-1140-00M.COL___245                                                 6
 STAT SP IPHASW D HRMM SECON CODA AMPLIT PERI AZIMU VELO AIN AR TRES W  DIS CAZ7
 BAR2 SZ EP       1143  7.18                             172    0.0310 19.6 182 
 BAR2 SZ ES   1   1143 21.57                             172   -0.49 7 19.6 182 
 BAR2 SZ I        1143 24.55        20.8 0.28            169           19.6 182 
 BRR  HZ IP     D 1143  8.97                             152    0.2510 70.1 302 
 BRR  HN ES   2   1143 25.31                             152    0.44 5 70.1 302 
 RUS  HZ EP   1   1143 11.31                             144    0.12 7 97.4 174 
 RUS  HN ES   1   1143 29.54                             144    0.27 7 97.4 174 
 RUS  HZ I        1143 30.76         5.5 0.26            145           97.4 174 
 PTB  HZ EP       1143 13.78                             132   -0.57 9  144 260 
 PTB  HN ES   1   1143 34.87                             132   -0.02 7  144 260 
 PTB  HZ I        1143 39.82         4.7 0.22            132            144 260 
 ZAR  HN ES   2   1143 45.76                             122    0.71 4  202 293 
 CHI  HE ES   2   1143 54.26                             117    0.29 4  244 195 
                                                                                
