 2011  3 6 1859 42.2 L   6.779 -73.121148.4  RSN 14 0.4 2.6LRSN                1
 GAP=104        0.83       3.0     5.4  5.8 -0.6114E+01  0.8799E+01  0.3004E+00E
 Epicentro: LOS SANTOS - SANTANDER                                             3
 ACTION:UP  11-06-16 14:32 OP:jfem STATUS:               ID:20110306185942 L   I
 2011-03-06-1857-47S.COL___135                                                 6
 STAT SP IPHASW D HRMM SECON CODA AMPLIT PERI AZIMU VELO SNR AR TRES W  DIS CAZ7
 BAR2 SZ IP       19 0  2.22                             171     0.110   22 199 
 BAR2 SZ ES   1   19 0 17.36                             171    -0.2 7   22 199 
 BAR2 SZ I        19 0 19.90        74.7 0.21                            22 199 
 RUS  HZ EP       19 0  6.15                             145     0.210   98 178 
 RUS  HN ES   1   19 0 24.21                             145    -0.4 7   98 178 
 RUS  HZ I        19 0 28.38        35.4 0.47                            98 178 
 GRA  SZ EP       19 0  8.02                             137     0.310  127  16 
 GRA  SZ ES   1   19 0 28.25                             137     0.5 7  127  16 
 GRA  SZ I        19 0 30.08        52.8 0.33                           127  16 
 OCA  SZ EP   1   19 0 10.37                             130    -0.6 7  163 352 
 OCA  SZ ES   1   19 0 33.12                             130    -0.2 7  163 352 
 OCA  SZ I        19 0 38.35        96.4 0.34                           163 352 
 YOP  SZ EP   1   19 0 12.58                             127     0.5 7  176 154 
 YOP  SZ I        19 0 14.05        25.1 0.82                           176 154 
 CHI  HZ EP   1   19 0 19.71                             118    -0.1 6  247 196 
 CHI  HE ES   1   19 0 49.06                             118    -0.2 6  247 196 
 CHI  HZ I        19 0 55.61        19.6 0.43                           247 196 
 ROSC BZ EP   3   19 0 21.84                             117     1.5 2  252 212 
 ROSC BN ES   3   19 0 51.35                             117     1.2 2  252 212 
 HEL  HZ EP   1   19 0 23.33                             115     0.6 6  274 256 
 HEL  HN ES   2   19 0 54.01                             115    -0.4 4  274 256 
 HEL  HZ I        19 1  2.02        28.4 0.10                           274 256 
 VIL  SZ EP   2   19 0 25.20                             113    -0.3 4  302 192 
 VIL  SN ES   2   19 0 59.12                             113    -0.2 4  302 192 
 VIL  SZ I        19 1  9.45        16.3 0.46                           302 192 
 RREF HZ EP   1   19 0 28.92                             111     0.4 5  322 230 
 RREF HN ES   1   19 1  4.81                             111     0.2 5  322 230 
 RREF HZ I        19 1 10.78        35.6 0.14                           322 230 
 DBB  SZ EP       19 0 29.63                             110    -0.4 7  342 275 
 TOL  SZ EP   1   19 0 31.06                             110     0.5 5  344 225 
 MON  HZ EP   4   19 0 29.51                             109    -2.1 0  356 308 
 MON  HE ES   4   19 1  7.49                             109    -2.8 0  356 308 
 SDV  BZ EP       19 0 31.59                             109    -0.7 6  360  50 
 SDV  BZ I        19 0 32.79         8.4 0.48                           360  50 
 PRA  HZ EP       19 0 35.14                             107    -0.6 6  391 210 
 PRA  HE ES   1   19 1 17.28                             107    -0.2 4  391 210 
                                                                                
