 2014  3 6 1221 46.5 L   6.018 -73.882 90.8  RSN  8 0.5 1.6LRSN                1
 GAP= 98        1.36       4.6     3.5  9.5 -0.2665E+01  0.8556E+01 -0.7344E+00E
 Epicentro: EL PEON - SANTANDER                                                3
 ACTION:UPD 14-04-09 23:15 OP:nd   STATUS:               ID:20140306122146 L   I
 OLDACT:DUP 14-03-06 16:40 OP:stll STATUS:               ID:20140306121814d    3
 2014-03-06-1218-12M.COL___234                                                 6
 STAT SP IPHASW D HRMM SECON CODA AMPLIT PERI AZIMU VELO AIN AR TRES W  DIS CAZ7
 SPBC HZ IP     D 1222  1.05                             151    0.6610 45.6 208 
 SPBC HE ES       1222 11.70                             151    0.4810 45.6 208 
 SPBC SZ I        1222 18.55         6.8 0.30            156           45.6 208 
 PTB  HZ EP       1222  2.70                             133   -0.6610 85.8 312 
 PTB  HN ES       1222 16.08                             133   -0.4210 85.8 312 
 PTB  SZ I        1222 20.83         6.6 0.14            139           85.8 312 
 RUS  HZ EP       1222  4.51                             132    0.1710 89.5  99 
 RUS  HN ES       1222 18.26                             132    0.0210 89.5  99 
 RUS  SZ I        1222 20.61         8.4 0.26            142           89.5  99 
 BAR2 SZ IP     D 1222  5.18                             129    0.1910  100  51 
 BAR2 SZ ES       1222 19.54                             129    0.1310  100  51 
 BAR2 SZ I        1222 21.32        19.9 0.26            138            100  51 
 NOR  HZ EP       1222  6.37                             123   -0.4110  120 245 
 NOR  HN ES       1222 22.27                             123   -0.3210  120 245 
 NOR  HZ I        1222 25.96        16.4 0.20            130            120 245 
 CHI  HN ES       1222 28.77                             116   -1.17 9  154 174 
 HEL  HZ EP       1222 14.35                             112    0.24 9  183 276 
 HEL  HN ES       1222 35.36                             112   -0.28 9  183 276 
 HEL  SZ I        1222 39.94         8.8 0.30            117            183 276 
 GUY2CHZ EP       1222 15.11                             112    0.52 9  186 242 
 GUY2CHN ES       1222 37.46                             112    0.97 9  186 242 
 GUY2CSZ I        1222 43.05         4.9 0.60                           186 242 
                                                                                
