 2015 12 6 1128 13.0 L   6.655 -73.368123.4  RSN  4 0.1 1.8LRSN                1
 GAP=146        0.37       3.7     4.3  3.2  0.1324E+02  0.6651E+01  0.3954E+01E
 Epicentro: GALAN - SANTANDER                                                  3
 ACTION:UPD 16-02-04 15:02 OP:cam  STATUS:               ID:20151206112813 L   I
 OLDACT:REG 15-12-06 19:48 OP:drio STATUS:               ID:20151206111749     3
 2015-12-06-1117-49M.COL___315                                                 6
 STAT SP IPHASW D HRMM SECON CODA AMPLIT PERI AZIMU VELO AIN AR TRES W  DIS CAZ7
 BAR2 EZ EP       1128 29.99                             169    0.0610 21.7 109 
 BAR2 EZ ES       1128 43.07                             169   -0.0510 21.7 109 
 BAR2 EZ I        1128 44.39        15.9 0.44            173           21.7 109 
 BRR  HZ EP       1128 31.16                             151   -0.1210 62.8 323 
 BRR  HN ES       1128 45.60                             151    0.0810 62.8 323 
 BRR  HZ I        1128 46.17        21.2 0.12            151           62.8 323 
 RUS  HZ EP       1128 33.71                             142   -0.1110 90.0 160 
 RUS  HE ES       1128 50.11                             142    0.0710 90.0 160 
 ZAR  HZ EP       1128 42.69                             119    0.21 9  189 299 
 ZAR  HN ES       1129  5.33                             119   -0.13 9  189 299 
 ZAR  HZ I        1129  8.18         4.4 0.24            120            189 299 
                                                                                
