 2014  2 6 1603 37.9 L   6.812 -73.097151.9  RSN 12 0.5 2.1LRSN                1
 GAP=142        1.19       3.5     4.7  6.2 -0.1581E+01  0.8181E+01  0.1207E+01E
 Epicentro: LOS SANTOS - SANTANDER                                             3
 ACTION:UPD 14-03-10 08:08 OP:ep   STATUS:               ID:20140206160337 L   I
 OLDACT:REG 14-02-06 14:24 OP:nd   STATUS:               ID:20140206160000     3
 2014-02-06-1600-00M.COL___291                                                 6
 STAT SP IPHASW D HRMM SECON CODA AMPLIT PERI AZIMU VELO AIN AR TRES W  DIS CAZ7
 BAR2 SZ EP       16 3 58.43                             170    0.0910 26.1 201 
 BAR2 SZ ES       16 4 14.32                             170    0.0510 26.1 201 
 BAR2 SZ I        16 4 16.44        36.8 0.22            170           26.1 201 
 PAM  SZ EP       16 4  0.64                             153    0.1010 72.9  37 
 PAM  SN ES       16 4 18.58                             153    0.4010 72.9  37 
 PAM  SZ I        16 4 20.50         5.8 0.34            154           72.9  37 
 BRR  HZ EP     C 16 4  0.42                             152    0.4610 75.4 296 
 BRR  HN ES       16 4 17.61                             152    0.4510 75.4 296 
 BRR  HZ I        16 4 20.23        19.9 0.16            151           75.4 296 
 RUS  HZ EP       16 4  2.29                             145   -0.0610  102 179 
 RUS  HN ES       16 4 21.03                             145   -0.3810  102 179 
 RUS  HZ I        16 4 23.69        10.5 0.48            147            102 179 
 PTB  HZ EP       16 4  5.17                             132   -0.72 9  153 259 
 PTB  HN ES       16 4 26.89                             132   -0.82 9  153 259 
 PTB  HZ I        16 4 28.50        24.4 0.10            132            153 259 
 SPBC HZ EP       16 4  7.37                             130    0.06 9  168 220 
 SPBC HN ES       16 4 30.23                             130   -0.01 9  168 220 
 SPBC HZ I        16 4 32.86        21.2 0.18            131            168 220 
 ZAR  HZ EP       16 4 11.07                             123   -0.16 8  209 291 
 ZAR  HN ES       16 4 37.23                             123    0.02 8  209 291 
 ZAR  HZ I        16 4 43.57        22.7 0.28            123            209 291 
 NOR  HZ EP       16 4 14.36                             119   -0.20 8  240 235 
 NOR  HN ES       16 4 43.24                             119    0.10 8  240 235 
 NOR  HZ I        16 4 46.70        13.2 0.20            120            240 235 
 SML  HZ EP       16 4 15.00                             119   -0.01 8  245 334 
 SML  HN ES       16 4 43.16                             119   -0.78 8  245 334 
 SML  HZ I        16 4 52.65        18.8 0.10            119            245 334 
 CHI  HZ EP       16 4 16.57                             118    0.31 8  251 196 
 CHI  HN ES       16 4 45.35                             118   -0.82 8  251 196 
 CHI  HZ I        16 4 50.93         6.8 0.56            120            251 196 
 GUY2CHZ EP       16 4 23.08                             113    0.68 7  306 235 
 GUY2CHN ES       16 4 58.67                             113    1.58 7  306 235 
 GUY2CHZ I        16 5  3.39         8.8 0.36                           306 235 
 SJC  HZ EP   4   16 4 32.49                             107   -1.41 0  411 326 
 SJC  HN ES   4   16 5 13.46                             107   -4.11 0  411 326 
 SJC  HZ I        16 5 21.90         2.8 0.48            107            411 326 
                                                                                
