 2016  3 6 1052 23.2 L   6.828 -73.172132.0  RSN  9 0.5 1.6LRSN                1
 GAP=132        1.25       4.7     5.5 10.8 -0.6122E+01  0.3008E+02 -0.9791E+01E
 Epicentro: ZAPATOCA - SANTANDER                                               3
 ACTION:UPD 16-05-13 21:21 OP:cam  STATUS:               ID:20160306105223 L   I
 OLDACT:UP  16-03-06 22:56 OP:mh   STATUS:               ID:20160306104751     3
 OLDACT:REG 16-03-06 21:05 OP:mh   STATUS:               ID:20160306104751     3
 2016-03-06-1047-51M.COL___315                                                 6
 STAT SP IPHASW D HRMM SECON CODA AMPLIT PERI AZIMU VELO AIN AR TRES W  DIS CAZ7
 BAR2 EZ EP   1   1052 40.83                             168   -0.36 7 26.1 183 
 BAR2 EZ ES       1052 55.33                             168    0.0610 26.1 183 
 BAR2 EZ I        1052 57.14        11.0 0.69            170           26.1 183 
 PAM  EZ EP     C 1052 43.81                             148   -0.0810 76.9  43 
 PAM  EN ES       1053  0.59                             148    0.5210 76.9  43 
 PAM  EZ I        1053  2.73         8.3 0.56            150           76.9  43 
 RUS  HZ EP   1   1052 46.63                             140    0.80 7  104 175 
 RUS  HN ES       1053  3.32                             140   -0.2110  104 175 
 RUS  HZ I        1053  3.73         3.0 0.20            143            104 175 
 PTB  HZ EP   4   1052 46.44                             129   -2.39 0  146 257 
 PTB  HN ES       1053  8.39                             129   -0.46 9  146 257 
 OCA  HN ES       1053 10.33                             127   -0.78 9  157 354 
 ZAR  HZ EP       1052 54.09                             120   -0.24 9  200 292 
 ZAR  HN ES       1053 19.62                             120    0.97 9  200 292 
 ZAR  HZ I        1053 21.81         4.3 0.26            121            200 292 
 NOR  HE ES       1053 24.84                             116   -0.46 8  234 233 
 HEL  HZ EP   4   1053  5.82                             112    3.34 0  270 255 
 HEL  HN ES   1   1053 34.06                             112    0.91 6  270 255 
 HEL  HZ I        1053 36.51         2.4 0.67            114            270 255 
 URE  HZ EP   4   1053  5.34                             111    2.19 0  280 292 
 URE  HN ES   4   1053 33.11                             111   -1.25 0  280 292 
 URE  HZ I        1053 33.70         4.5 0.36            113            280 292 
                                                                                
