 2013  7 6 1143 52.2 L   6.761 -73.125152.3  RSN  7 0.4 1.7LRSN                1
 GAP=161        0.97       4.7     6.2  7.9 -0.8941E+00 -0.1302E+01 -0.1140E+02E
 Epicentro: LOS SANTOS - SANTANDER                                             3
 ACTION:UPD 13-08-12 10:35 OP:ep   STATUS:               ID:20130706114352 L   I
 OLDACT:REG 13-07-06 15:55 OP:stll STATUS:               ID:20130706113849     3
 2013-07-06-1138-49M.COL___227                                                 6
 STAT SP IPHASW D HRMM SECON CODA AMPLIT PERI AZIMU VELO AIN AR TRES W  DIS CAZ7
 BAR2 SZ EP       1144 12.84                             172    0.3210 19.7 199 
 BAR2 SZ ES       1144 28.59                             172    0.2010 19.7 199 
 BAR2 SZ I        1144 29.14         6.6 0.38            173           19.7 199 
 GIR2 SZ EP       1144 12.86                             166    0.1210 35.9 348 
 BRR  HZ IP     C 1144 14.71                             152    0.4610 75.3 301 
 BRR  HN ES       1144 31.74                             152    0.2710 75.3 301 
 BRR  HN I        1144 34.77        15.6 0.20            152           75.3 301 
 RUS  HN ES       1144 34.70                             146   -0.3610 96.2 177 
 GRA  SZ EP       1144 17.68                             138   -0.6010  129  16 
 PTB  HZ EP       1144 20.07                             133    0.27 9  149 261 
 PTB  HN ES       1144 40.76                             133   -0.60 9  149 261 
 OCA  HN ES       1144 44.00                             130   -0.22 9  165 353 
                                                                                
