 2011  3 6 1158 48.3 L   6.791 -73.027141.3  RSN  4 0.3 1.5LRSN                1
 GAP=153        0.71       6.8    26.9 10.2 -0.1171E+03 -0.1471E+03  0.7297E+01E
 Epicentro: CEPITA - SANTANDER                                                 3
 ACTION:UP  11-06-16 14:32 OP:jfem STATUS:               ID:20110306115848 L   I
 2011-03-06-1157-26S.COL___135                                                 6
 STAT SP IPHASW D HRMM SECON CODA AMPLIT PERI AZIMU VELO SNR AR TRES W  DIS CAZ7
 BAR2 SZ EP       1159  7.34                             169    -0.210   28 218 
 BAR2 SZ ES   1   1159 22.10                             169    -0.4 7   28 218 
 BAR2 SZ I        1159 23.64        11.0 0.42                            28 218 
 RUS  HZ EP   1   1159 11.76                             143     0.2 7  100 184 
 RUS  HE ES   2   1159 30.12                             143     0.4 5  100 184 
 RUS  HZ I        1159 31.28         4.0 0.24                           100 184 
 GRA  SZ EP       1159 13.17                             136     0.210  123  12 
 GRA  SZ I        1159 14.30         6.6 0.32                           123  12 
 GRA  SZ ES   2   1159 32.46                             136     0.3 5  123  12 
 SDV  BZ EP   2   1159 36.42                             108    -0.7 3  351  49 
 SDV  BZ I        1159 58.33         1.0 0.80                           351  49 
                                                                                
