 2012 11 6 1704 58.8 L   6.777 -73.081141.5  RSN  7 0.4 2.4LRSN                1
 GAP=146        0.88       4.3     5.9  6.6  0.3287E+01  0.8073E+01  0.6665E+01E
 Epicentro: LOS SANTOS - SANTANDER                                             3
 ACTION:UPD 12-12-05 15:31 OP:}ep  STATUS:               ID:20121106170458 L   I
 2012-11-06-1700-00M.COL___229                                                 6
 STAT SP IPHASW D HRMM SECON CODA AMPLIT PERI AZIMU VELO AIN AR TRES W  DIS CAZ7
 BAR2 SZ IP     D 17 5 17.83                             170   -0.0510 23.3 209 
 BAR2 SZ ES   1   17 5 32.82                             170    0.03 7 23.3 209 
 BAR2 SZ I        17 5 34.27        48.0 0.36                          23.3 209 
 GIR2 SZ ES   1   17 5 32.28                             165   -0.82 7 35.6 339 
 PAM  SZ EP       17 5 20.68                             151    0.2910 75.1  34 
 PAM  SE ES   1   17 5 37.66                             151    0.41 7 75.1  34 
 PAM  SE I        17 5 38.97        36.9 0.30                          75.1  34 
 BRR  HZ IP     C 17 5 19.69                             149   -0.2210 78.7 298 
 BRR  HN ES   1   17 5 36.52                             149    0.12 7 78.7 298 
 BRR  HN I        17 5 37.14       150.3 0.18                          78.7 298 
 RUS  HZ EP       17 5 21.90                             144    0.0010 97.8 180 
 RUS  HN ES   1   17 5 39.98                             144    0.04 7 97.8 180 
 RUS  HN I        17 5 42.40         9.5 0.36                          97.8 180 
 ZAR  HZ EP   1   17 5 30.80                             120   -0.93 6  212 292 
 ZAR  HN ES   1   17 5 58.40                             120    0.95 6  212 292 
 ZAR  HN I        17 6  1.73        31.7 0.18                           212 292 
 CHI  HZ EP   1   17 5 36.29                             116    0.10 6  248 197 
 CHI  HN ES   1   17 6  5.55                             116    0.18 6  248 197 
 CHI  HN I        17 6  8.27        24.1 0.34                           248 197 
                                                                                
