 2010  3 6 1353 35.4 L   6.778 -73.035143.1  RSN 10 0.5 2.3LRSN                1
 GAP=194        0.82       3.7     6.4  5.9  0.1161E+01  0.5460E+01  0.4286E+01E
 Epicentro: CEPITA - SANTANDER                                                 3
 ACTION:UP  10-08-24 09:52 OP:vdl  STATUS:               ID:20100306135335 L   I
 2010-03-06-1351-24S.COL___101                                                 6
 STAT SP IPHASW D HRMM SECON CODA AMPLIT PERI AZIMU VELO SNR AR TRES W  DIS CAZ7
 BAR2 SZ EP       1353 54.89                             169     0.110   26 219 
 BAR2 SZ ES   2   1354  9.40                             169    -0.5 5   26 219 
 BRR  HZ EP       1353 56.87                             148    -0.210   83 296 
 BRR  HN ES       1354 14.17                             148     0.310   83 296 
 BRR  HZ I        1354 14.50        45.9 0.15                            83 296 
 RUS  BZ EP       1353 58.71                             144     0.010   98 183 
 RUS  BN ES   1   1354 16.99                             144     0.1 7   98 183 
 RUS  BZ I        1354 18.06        17.6 0.39                            98 183 
 OCA  SZ EP       1354  3.64                             128    -0.3 9  165 349 
 OCA  SZ ES   2   1354 26.62                             128     0.4 5  165 349 
 CHI  HZ EP   1   1354 13.77                             117     0.7 6  250 198 
 CHI  HN ES   2   1354 42.21                             117    -0.3 4  250 198 
 CHI  HZ I        1354 51.64         7.0 0.62                           250 198 
 HEL  HZ EP   1   1354 17.34                             113     0.6 6  283 257 
 HEL  HN ES   2   1354 48.13                             113    -0.9 4  283 257 
 HEL  HZ I        1354 53.37         9.9 0.46                           283 257 
 RREF BZ EP   1   1354 23.09                             110     0.7 5  330 231 
 RREF BN ES   2   1354 59.50                             110     0.5 3  330 231 
 RREF BZ I        1355  7.73        11.6 0.44                           330 231 
 TOL  SZ EP       1354 24.44                             109     0.0 6  351 226 
 TOL  SZ ES   2   1355  2.60                             109     0.0 3  351 226 
 DBB  SZ EP   1   1354 23.29                             108    -0.9 5  352 275 
 PRA  HZ EP   1   1354 28.38                             106    -1.0 4  396 211 
 PRA  HN ES   2   1355 10.77                             106    -0.6 3  396 211 
 PRA  HZ I        1355 16.21         7.5 0.23                           396 211 
                                                                                
