 2011  1 6 1255 54.8 L   6.750 -73.120134.7  RSN  4 0.4 1.7LRSN                1
 GAP=301        0.73       9.5    12.7  8.6 -0.3858E+02  0.1767E+02  0.2831E+02E
 Epicentro: LOS SANTOS - SANTANDER                                             3
 ACTION:UP  11-02-08 08:39 OP:pat  STATUS:               ID:20110106125554 L   I
 2011-01-06-1240-00M.COL___121                                                 6
 STAT SP IPHASW D HRMM SECON CODA AMPLIT PERI AZIMU VELO SNR AR TRES W  DIS CAZ7
 BAR2 SZ EP       1256 13.18                             172     0.110   19 202 
 BAR2 SZ ES   1   1256 27.38                             172     0.1 7   19 202 
 BAR2 SZ I        1256 28.85        20.5 0.23                            19 202 
 RUS  HZ EP   2   1256 16.24                             143    -0.8 5   95 178 
 RUS  HN ES   2   1256 34.08                             143    -0.4 5   95 178 
 RUS  HZ I        1256 37.21         7.0 0.78                            95 178 
 NOR  SN ES   2   1256 56.74                             116    -0.5 4  234 236 
 CHI  HZ EP       1256 31.55                             115     0.1 8  244 196 
 CHI  HN ES   2   1257  0.61                             115     0.6 4  244 196 
 CHI  HZ I        1257 10.10         2.1 0.41                           244 196 
                                                                                
