 2013  1 6 1134 44.8 L   6.795 -73.142151.0  RSN  8 0.4 1.8LRSN                1
 GAP=183        0.86       4.6     6.3  7.6  0.4920E+01  0.6010E+01  0.1010E+02E
 Epicentro: LOS SANTOS - SANTANDER                                             3
 ACTION:UPD 13-02-15 09:12 OP:ep   STATUS:               ID:20130106113444 L   I
 2013-01-06-1130-00M.COL___242                                                 6
 STAT SP IPHASW D HRMM SECON CODA AMPLIT PERI AZIMU VELO AIN AR TRES W  DIS CAZ7
 BAR2 SZ EP       1135  5.00                             171   -0.0610 22.9 191 
 BAR2 SZ ES   1   1135 20.40                             171   -0.45 7 22.9 191 
 BAR2 SZ I        1135 23.61        19.4 0.18            164           22.9 191 
 BRR  HZ EP       1135  6.91                             153    0.3610 71.8 299 
 BRR  HN ES   1   1135 24.51                             153    0.99 7 71.8 299 
 BRR  HZ I        1135 30.41         8.5 0.18            149           71.8 299 
 RUS  HZ EP   1   1135  8.89                             145   -0.15 7  100 176 
 RUS  HN ES   2   1135 28.02                             145    0.08 5  100 176 
 RUS  HZ I        1135 30.14         5.7 0.26            146            100 176 
 PTB  HZ EP       1135 11.83                             133   -0.40 9  148 259 
 PTB  HN ES   1   1135 32.93                             133   -0.69 7  148 259 
 PTB  HZ I        1135 40.54         9.5 0.52            131            148 259 
 OCA  HN ES   1   1135 35.57                             131   -0.45 7  161 353 
 ZAR  HN ES   2   1135 43.66                             123    0.38 4  205 292 
 ZAR  HZ I        1135 49.38         8.5 0.52            124            205 292 
 CHI  HZ EP       1135 23.07                             118    0.31 8  248 195 
 CHI  HN ES   1   1135 52.60                             118    0.24 6  248 195 
 CHI  HZ I        1135 56.42         3.8 0.82            121            248 195 
 HEL  HZ EP   2   1135 25.47                             116    0.15 4  272 256 
 HEL  HN ES   2   1135 56.81                             116   -0.11 4  272 256 
 HEL  HZ I        1136  3.74         4.0 0.36            117            272 256 
                                                                                
