 2011  6 6 1616 21.5 L   6.768 -73.102147.1  RSN  5 0.3 1.8LRSN                1
 GAP=144        0.51       4.6     5.6  4.9 -0.5290E+01  0.7824E+01  0.1843E+01E
 Epicentro: LOS SANTOS - SANTANDER                                             3
 ACTION:UP  11-07-14 19:03 OP:ep   STATUS:               ID:20110606161621 L   I
 2011-06-06-1613-15S.COL___132                                                 6
 STAT SP IPHASW D HRMM SECON CODA AMPLIT PERI AZIMU VELO SNR AR TRES W  DIS CAZ7
 BAR2 SZ EP   1   1616 41.09                             171    -0.2 7   21 205 
 BAR2 SZ ES       1616 56.63                             171     0.010   21 205 
 BAR2 SZ I        1616 57.90        21.6 0.20                            21 205 
 PAM  SZ EP   2   1616 44.38                             151     0.5 5   77  35 
 PAM  SN ES   2   1617  0.94                             151    -0.4 5   77  35 
 BRR  HZ EP   1   1616 43.04                             151    -0.1 7   77 299 
 BRR  HE ES   2   1617  0.43                             151     0.4 5   77 299 
 BRR  HZ I        1617  3.54        13.3 0.22                            77 299 
 RUS  HZ EP   1   1616 45.08                             145     0.0 7   97 179 
 RUS  HZ I        1616 45.70         4.5 0.14                            97 179 
 RUS  HN ES   2   1617  3.87                             145     0.3 5   97 179 
 NOR  SZ EP   1   1616 57.71                             118     0.2 6  237 236 
 NOR  SN ES   2   1617 25.25                             118    -0.4 4  237 236 
                                                                                
