 2017  2 6 1115 45.8 L   6.776 -73.167143.9  RSN  5 0.5 1.7LRSN                1
 GAP=135        1.26       6.7     6.4  9.2 -0.3914E+01  0.7254E+01  0.2581E+01E
 Epicentro: LOS SANTOS - SANTANDER                                             3
 ACTION:UPD 17-05-24 15:33 OP:jn   STATUS:               ID:20170206111545 L   I
 OLDACT:REG 17-02-06 20:08 OP:and  STATUS:               ID:20170206110744     3
 2017-02-06-1108-00M.COL___322                                                 6
 STAT SP IPHASW D HRMM SECON CODA AMPLIT PERI AZIMU VELO AIN AR TRES W  DIS CAZ7
 BAR2 EZ EP       1116  5.00                             172   -0.1410 20.3 185 
 BAR2 EZ ES       1116 19.41                             172   -0.8210 20.3 185 
 BAR2 EZ I        1116 21.26        16.2 0.22            171           20.3 185 
 BRR  HZ EP       1116  6.92                             152    0.2110 70.5 301 
 BRR  HN ES       1116 23.92                             152    0.9110 70.5 301 
 PAM  EZ EP       1116  7.92                             149   -0.1110 81.0  40 
 PAM  EN ES       1116 25.24                             149   -0.1310 81.0  40 
 PAM  EZ I        1116 27.17         7.6 0.72            152           81.0  40 
 RUS  HZ EP       1116  9.55                             144    0.3710 98.1 175 
 RUS  HN ES       1116 27.87                             144    0.4510 98.1 175 
 RUS  HZ I        1116 29.54         5.4 0.34            145           98.1 175 
 PTB  HZ EP       1116 11.93                             132   -0.43 9  145 260 
 PTB  HN ES       1116 32.68                             132   -0.39 9  145 260 
 PTB  HZ I        1116 38.40         5.5 0.10            132            145 260 
                                                                                
