 2013 10 6 1126 55.4 L   6.769 -73.186142.8  RSN  6 0.4 1.6LRSN                1
 GAP=230        1.06       5.8     6.1  7.8  0.1443E+02  0.9159E+01  0.4030E+01E
 Epicentro: VILLANUEVA - SANTANDER                                             3
 ACTION:UPD 13-11-25 09:19 OP:ep   STATUS:               ID:20131006112655 L   I
 OLDACT:REG 13-10-06 16:04 OP:stll STATUS:               ID:20131006111836     3
 2013-10-06-1118-36M.COL___232                                                 6
 STAT SP IPHASW D HRMM SECON CODA AMPLIT PERI AZIMU VELO AIN AR TRES W  DIS CAZ7
 BAR2 SZ EP       1127 14.39                             172   -0.2510 19.5 179 
 BAR2 SZ ES       1127 29.32                             172   -0.3010 19.5 179 
 BAR2 SZ I        1127 30.42        15.5 0.26            168           19.5 179 
 BRR  HZ EP       1127 16.26                             153    0.1210 69.1 303 
 BRR  HZ I        1127 16.40        11.7 0.28            153           69.1 303 
 BRR  HN ES       1127 32.88                             153    0.5810 69.1 303 
 RUS  HZ EP       1127 19.21                             144    0.5310 97.6 173 
 RUS  HN ES       1127 36.51                             144   -0.3010 97.6 173 
 RUS  HZ I        1127 37.92         3.4 0.30            142           97.6 173 
 PTB  HZ EP       1127 20.99                             132   -0.71 9  143 260 
 PTB  HN ES       1127 41.78                             132   -0.41 9  143 260 
 PTB  HZ I        1127 43.26         6.5 0.10            131            143 260 
 SPBC HZ EP       1127 23.38                             129    0.20 9  158 218 
 SPBC HN ES       1127 45.34                             129    0.51 9  158 218 
 SPBC HZ I        1127 50.19         3.4 0.40            128            158 218 
 ZAR  HN ES       1127 52.35                             122    0.02 9  201 294 
                                                                                
