 2012 10 6 1622 46.8 L   7.320 -73.107  4.1  RSN  6 0.5 1.2LRSN                1
 GAP=138        0.93       3.4     3.7  9.2 -0.5316E+01 -0.1267E+02 -0.3791E+01E
 Epicentro: RIONEGRO - SANTANDER                                               3
 ACTION:UPD 12-11-22 17:02 OP:ep   STATUS:               ID:20121006162246 L   I
 2012-10-06-1620-00M.COL___222                                                 6
 STAT SP IPHASW D HRMM SECON CODA AMPLIT PERI AZIMU VELO AIN AR TRES W  DIS CAZ7
 GIR2 SZ EP       1622 51.76                              47   -0.1210 28.4 200 
 GIR2 SZ ES   3   1622 55.89                              47    0.08 2 28.4 200 
 PAM  SZ EP       1622 54.37                              47   -0.3910 45.0  87 
 PAM  SN ES   1   1623  0.53                              47   -0.40 7 45.0  87 
 PAM  SZ I        1623  1.47        13.9 0.14                          45.0  87 
 GRA  SZ EP       1622 58.95                              47    0.6310 70.8  28 
 GRA  SZ ES   1   1623  6.96                              47   -0.32 7 70.8  28 
 GRA  SZ I        1623  8.22        14.9 0.42                          70.8  28 
 BRR  HZ EP       1622 57.93                              47   -0.2410 70.9 251 
 BRR  HE ES   3   1623  5.80                              47   -1.21 2 70.9 251 
 BRR  HE E        1623  5.80                                           70.9 251 
 BAR2 SZ ES   3   1623 10.31                              47    0.14 2 80.9 186 
 BAR2 SZ I        1623 11.72         7.2 0.18                          80.9 186 
 RUS  HZ EP       1623 12.58                              47    0.71 9  158 179 
 RUS  HN ES   3   1623 30.93                              47   -0.46 2  158 179 
                                                                                
