 2011  9 6 1341 40.5 L   6.736 -73.192140.0  RSN  4 0.2 1.7LRSN                1
 GAP=227        0.38       5.8     6.7  5.8  0.3248E+02 -0.3391E+01 -0.6941E+01E
 Epicentro: VILLANUEVA - SANTANDER                                             3
 ACTION:UPD 12-07-13 15:55 OP:ep   STATUS:               ID:20110906134140 L   I
 2011-09-06-1338-10S.COL___170                                                 6
 STAT SP IPHASW D HRMM SECON CODA AMPLIT PERI AZIMU VELO AIN AR TRES W  DIS CAZ7
 BAR2 SZ EP   1   1341 59.39                             173    0.07 7 15.9 176 
 BAR2 SZ I        1342 22.51         6.7 0.40                          15.9 176 
 BRR  HZ EP   1   1342  0.86                             152   -0.15 7 70.7 306 
 BRR  HZ I        1342  1.41        13.6 0.09                          70.7 306 
 BRR  HN ES   1   1342 17.06                             152    0.06 7 70.7 306 
 RUS  HZ EP   2   1342  2.95                             145   -0.27 5 94.0 173 
 RUS  HE ES   1   1342 20.99                             145    0.06 7 94.0 173 
 ZAR  HZ EP   2   1342 12.85                             121    0.46 4  202 295 
 ZAR  HN ES   1   1342 37.16                             121   -0.10 6  202 295 
 ZAR  HZ I        1342 43.47         6.3 0.29                           202 295 
                                                                                
