 2017  1 6 1709 20.7 L   6.673 -73.191144.0  RSN  6 0.4 1.6LRSN                1
 GAP=222        0.87       6.7     6.2  7.3  0.2278E+02  0.1100E+02 -0.3120E+01E
 Epicentro: VILLANUEVA - SANTANDER                                             3
 ACTION:UPD 17-05-22 15:56 OP:jn   STATUS:               ID:20170106170920 L   I
 OLDACT:REG 17-01-06 20:54 OP:dnl  STATUS:               ID:20170106170748     3
 2017-01-06-1708-00M.COL___368                                                 6
 STAT SP IPHASW D HRMM SECON CODA AMPLIT PERI AZIMU VELO AIN AR TRES W  DIS CAZ7
 BAR2 EZ EP       17 9 39.78                             176   -0.1410 8.96 174 
 BAR2 EZ ES       17 9 54.65                             176   -0.2510 8.96 174 
 BAR2 EZ I        17 9 55.74        12.2 0.30            165           8.96 174 
 BRR  HZ EP       17 9 41.80                             151   -0.0810 75.0 310 
 BRR  HN ES       17 9 58.92                             151    0.5210 75.0 310 
 BRR  HZ I        17 9 59.43        10.1 0.34            146           75.0 310 
 RUS  HZ EP   2   17 9 44.16                             148    0.81 5 87.1 172 
 RUS  HN ES       1710  1.06                             148    0.0510 87.1 172 
 RUS  HZ I        1710  2.66         5.3 0.46            143           87.1 172 
 PTB  HZ EP       17 9 46.47                             133   -0.42 9  141 264 
 PTB  HN ES       1710  7.55                             133    0.23 9  141 264 
 PTB  HZ I        1710 11.26         5.0 0.14            128            141 264 
 ZAR  HZ EP   2   17 9 54.14                             122    0.98 4  205 296 
 ZAR  HN ES       1710 18.05                             122   -0.43 8  205 296 
 ZAR  HZ I        1710 25.26         5.1 0.16            120            205 296 
 NOR  HE ES   4   1710 24.50                             120    2.68 0  223 237 
 NOR  HZ I        1710 30.12         3.3 0.16            116            223 237 
                                                                                
