 2017  9 6 1158  6.2 L   6.713 -73.136139.0  RSN  4 0.4 1.5LRSN                1
 GAP=232        1.11      11.8    13.8  8.7  0.1358E+03  0.1539E+02 -0.3331E+01E
 Epicentro: JORDAN - SANTANDER                                                 3
 ACTION:UPD 17-10-05 19:09 OP:rebc STATUS:               ID:20170906115806 L   I
 OLDACT:REG 17-09-06 20:04 OP:lv   STATUS:               ID:20170906114743     3
 2017-09-06-1148-00M.COL___411                                                 6
 STAT SP IPHASW D HRMM SECON CODA AMPLIT PERI AZIMU VELO AIN AR TRES W  DIS CAZ7
 BAR2 EZ EP       1158 24.64                             174   -0.2610 14.3 201 
 BAR2 EZ ES       1158 39.02                             174   -0.4410 14.3 201 
 BAR2 EZ I        1158 40.92         6.3 0.21            168           14.3 201 
 BRR  HZ EP       1158 26.79                             149   -0.2410 77.2 304 
 BRR  HN ES       1158 43.99                             149    0.7510 77.2 304 
 RUS  HZ EP       1158 28.79                             145    0.1610 90.9 176 
 RUS  HN ES       1158 46.26                             145    0.1610 90.9 176 
 RUS  HZ I        1158 48.55         3.2 0.32            143           90.9 176 
 ZAR  HZ EP       1158 39.25                             120    0.48 8  209 294 
 ZAR  HN ES       1159  3.47                             120   -0.66 8  209 294 
 ZAR  HZ I        1159  5.77         4.3 0.14            120            209 294 
                                                                                
