 2012  9 6 1012 43.1 L   6.758 -73.120146.0  RSN  5 0.3 1.5LRSN                1
 GAP=142        0.69       4.5     4.7  8.0 -0.2168E+01 -0.3923E+01  0.4529E+01E
 Epicentro: LOS SANTOS - SANTANDER                                             3
 ACTION:UPD 12-10-22 14:17 OP:ep   STATUS:               ID:20120906101243 L   I
 2012-09-06-1010-00M.COL___218                                                 6
 STAT SP IPHASW D HRMM SECON CODA AMPLIT PERI AZIMU VELO AIN AR TRES W  DIS CAZ7
 BAR2 SZ EP       1013  2.65                             172   -0.0210 19.6 200 
 BAR2 SZ I        1013  3.00        13.2 0.32                          19.6 200 
 BRR  HZ EP       1013  4.60                             151    0.0710 75.9 301 
 BRR  HZ I        1013  4.79        10.3 0.30                          75.9 301 
 BRR  HN ES   1   1013 21.87                             151    0.61 7 75.9 301 
 PAM  SZ EP       1013  5.52                             150    0.0810 79.3  36 
 PAM  SN ES   1   1013 22.40                             150   -0.48 7 79.3  36 
 PAM  SZ I        1013 24.55         6.4 0.52                          79.3  36 
 RUS  HZ EP       1013  6.63                             145    0.1110 95.8 178 
 RUS  HN ES   1   1013 24.82                             145    0.02 7 95.8 178 
 RUS  HZ I        1013 26.34         1.8 0.28                          95.8 178 
 PTB  HN EP   3   1013  9.75                             131   -0.50 2  150 261 
 PTB  HN ES   1   1013 30.84                             131   -0.59 7  150 261 
                                                                                
