 2012  4 6 1008 38.8 L   6.762 -73.141149.3  RSN  7 0.3 1.7LRSN                1
 GAP=139        0.81       5.6     4.7  7.1 -0.3113E+01  0.4471E+01  0.4662E+01E
 Epicentro: LOS SANTOS - SANTANDER                                             3
 ACTION:UP  12-07-05 11:51 OP:tino STATUS:               ID:20120406100838 L   I
 2012-04-06-1007-36M.COL___169                                                 6
 STAT SP IPHASW D HRMM SECON CODA AMPLIT PERI AZIMU VELO AIN AR TRES W  DIS CAZ7
 BAR2 SZ IP       10 8 58.80                             172     0.010   19 194 
 BAR2 SZ I        10 8 59.35         7.9 0.14                            19 194 
 BAR2 SZ ES   1   10 9 14.13                             172    -0.2 7   19 194 
 BRR  HZ IP       10 9  0.75                             152     0.310   74 301 
 BRR  HN ES   1   10 9 18.12                             152     0.7 7   74 301 
 BRR  HZ I        10 9 20.38        15.4 0.14                            74 301 
 PAM  SZ EP       10 9  1.63                             150     0.110   80  37 
 PAM  SN ES   1   10 9 18.83                             150    -0.5 7   80  37 
 RUS  HZ EP       10 9  2.73                             146     0.110   96 176 
 RUS  HZ I        10 9  4.07         3.7 0.46                            96 176 
 RUS  HN ES   2   10 9 21.15                             146     0.0 5   96 176 
 PTB  HZ EP       10 9  5.70                             133    -0.3 9  148 260 
 PTB  HE ES   1   10 9 26.88                             133    -0.4 7  148 260 
 PTB  HZ I        10 9 32.69         7.3 0.42                           148 260 
 ZAR  HZ EP   2   10 9 11.58                             123    -0.1 4  206 293 
 ZAR  HE ES   2   10 9 36.82                             123    -0.5 4  206 293 
 ZAR  HZ I        10 9 43.27        10.0 0.34                           206 293 
 NOR  SE ES   2   10 9 42.75                             119     0.4 4  233 235 
                                                                                
