 2012 11 6 1452  8.0 L   6.790 -73.131140.5  RSN  7 0.4 2.2LRSN                1
 GAP=139        0.81       3.9     5.3  6.1  0.2452E+01  0.6588E+01  0.5113E+01E
 Epicentro: LOS SANTOS - SANTANDER                                             3
 ACTION:UPD 12-12-05 15:31 OP:}ep  STATUS:               ID:20121106145208 L   I
 2012-11-06-1450-00M.COL___230                                                 6
 STAT SP IPHASW D HRMM SECON CODA AMPLIT PERI AZIMU VELO AIN AR TRES W  DIS CAZ7
 BAR2 SZ IP     C 1452 26.93                             170   -0.0210 22.6 195 
 BAR2 SZ ES   1   1452 41.06                             170   -0.70 7 22.6 195 
 BAR2 SZ I        1452 45.26        18.8 0.26                          22.6 195 
 GIR2 SZ EP       1452 26.86                             166   -0.1910 32.7 348 
 GIR2 SZ ES   1   1452 42.17                             166    0.23 7 32.7 348 
 BRR  HZ IP     D 1452 28.64                             151   -0.0310 73.2 299 
 BRR  HN ES   1   1452 45.64                             151    0.83 7 73.2 299 
 BRR  HN I        1452 49.78        55.1 0.16                          73.2 299 
 PAM  SZ EP       1452 29.74                             150    0.1310 77.2  38 
 PAM  SN ES   1   1452 46.49                             150   -0.01 7 77.2  38 
 PAM  SN I        1452 47.86        31.5 0.28                          77.2  38 
 RUS  HZ EP       1452 31.04                             143   -0.0710 99.4 177 
 RUS  HN ES   1   1452 49.18                             143    0.01 7 99.4 177 
 RUS  HN I        1452 51.61        24.0 0.46                          99.4 177 
 ZAR  HZ EP   1   1452 40.75                             121    0.47 6  206 292 
 ZAR  HN ES   1   1453  4.65                             121   -0.83 6  206 292 
 ZAR  HN I        1453 10.58        26.3 0.34                           206 292 
 CHI  HZ EP   1   1452 45.17                             116   -0.14 6  248 196 
 CHI  HN ES   1   1453 14.96                             116    0.52 6  248 196 
 CHI  HN I        1453 18.51        12.2 0.30                           248 196 
                                                                                
