 2014 11 6 1009 54.8 L   6.339 -73.776 96.1  RSN  4 0.1 1.4LRSN                1
 GAP=118        0.31       1.3     1.4  3.5  0.3599E+00 -0.3593E+00  0.6967E+00E
 Epicentro: LANDAZURI - SANTANDER                                              3
 ACTION:UPD 14-12-19 15:39 OP:nd   STATUS:               ID:20141106100954 L   I
 OLDACT:UP  14-11-06 22:24 OP:cam  STATUS:               ID:20141106100817d    3
 OLDACT:DUP 14-11-06 22:22 OP:cam  STATUS:               ID:20141106100817d    3
 2014-11-06-1008-16M.COL___280                                                 6
 STAT SP IPHASW D HRMM SECON CODA AMPLIT PERI AZIMU VELO AIN AR TRES W  DIS CAZ7
 PTB  HZ EP       1010 11.48                             138    0.0210 78.5 286 
 PTB  HN ES       1010 24.39                             138   -0.0810 78.5 286 
 PTB  HN I        1010 27.80        13.6 0.16            141           78.5 286 
 SPBC HZ EP       1010 11.87                             136   -0.0510 82.7 203 
 SPBC HN ES       1010 25.38                             136    0.0910 82.7 203 
 SPBC HN I        1010 27.14        11.4 0.26            140           82.7 203 
 BRR  HN ES       1010 25.51                             135    0.0510 85.3   5 
 RUS  HZ EP       1010 13.23                             134    0.0310 91.2 123 
 RUS  HN ES       1010 27.51                             134   -0.0610 91.2 123 
 RUS  HN I        1010 29.61         2.5 0.20            138           91.2 123 
                                                                                
