 2012  1 6 1552 24.4 L   6.764 -73.158142.0  RSN  6 0.5 1.6LRSN                1
 GAP=137        0.94       8.1     8.2  9.9 -0.2637E+01 -0.1819E+02  0.1310E+02E
 Epicentro: LOS SANTOS - SANTANDER                                             3
 ACTION:UP  12-02-03 08:14 OP:REBC STATUS:               ID:20120106155224 L   I
 2012-01-06-1550-00M.COL___186                                                 6
 STAT SP IPHASW D HRMM SECON CODA AMPLIT PERI AZIMU VELO SNR AR TRES W  DIS CAZ7
 BAR2 SZ EP       1552 43.29                             172    -0.210   19 188 
 BAR2 SZ ES   1   1552 58.68                             172     0.2 7   19 188 
 BAR2 SZ I        1552 59.99         8.7 0.28                            19 188 
 GIR2 SZ ES   3   1552 57.28                             166    -1.6 2   35 354 
 BRR  HZ EP       1552 45.11                             152    -0.110   72 302 
 BRR  HN ES   1   1553  2.20                             152     0.8 7   72 302 
 BRR  HZ I        1553  9.94        28.7 0.20                            72 302 
 PAM  SZ EP       1552 46.54                             149     0.010   81  38 
 PAM  SN ES   2   1553  3.33                             149    -0.4 5   81  38 
 RUS  HZ EP       1552 47.70                             144     0.210   97 175 
 RUS  HE ES   3   1553  5.90                             144     0.3 2   97 175 
 RUS  HZ I        1553  7.13         3.8 0.20                            97 175 
 PTB  HN ES   2   1553 10.58                             132    -1.0 5  146 260 
 PTB  HZ I        1553 17.21         3.9 0.28                           146 260 
                                                                                
