 2010  6 6 1502 10.4 L   7.274 -73.423 96.0  RSN  4 0.6 1.7LRSN                1
 GAP=205        1.19       8.8    18.4 19.7  0.1353E+02  0.1675E+03  0.4421E+01E
 Epicentro: SABANA DE TORRES - SANTANDER                                       3
 ACTION:UP  10-08-24 10:08 OP:vdl  STATUS:               ID:20100606150210 L   I
 2010-06-06-1459-07S.COL___111                                                 6
 STAT SP IPHASW D HRMM SECON CODA AMPLIT PERI AZIMU VELO SNR AR TRES W  DIS CAZ7
 BAR2 SZ ES   2   15 2 41.12                             138     0.3 5   80 161 
 GUE  SZ EP       15 2 27.17                             137    -0.610   83  42 
 GUE  SZ ES   2   15 2 40.04                             137    -1.3 5   83  42 
 GRA  SZ EP       15 2 29.04                             132     0.310   96  45 
 GRA  SZ ES   1   15 2 43.85                             132     0.7 7   96  45 
 OCA  SZ EP       15 2 30.05                             128     0.210  107   6 
 OCA  SZ ES   1   15 2 45.09                             128     0.1 7  107   6 
 OCA  SZ I        15 2 47.49        11.7 0.35                           107   6 
                                                                                
