 2014  6 6 1720 24.5 L   7.213 -73.827 91.0  RSN  6 0.6 1.4LRSN                1
 GAP=135        1.43       5.5     5.5 10.1  0.1334E+02  0.1646E+01 -0.3816E+01E
 Epicentro: PUERTO WILCHES - SANTANDER                                         3
 ACTION:UPD 14-07-01 22:51 OP:nd   STATUS:               ID:20140606172024 L   I
 OLDACT:REG 14-06-06 20:40 OP:stll STATUS:               ID:20140606171817     3
 2014-06-06-1718-17M.COL___265                                                 6
 STAT SP IPHASW D HRMM SECON CODA AMPLIT PERI AZIMU VELO AIN AR TRES W  DIS CAZ7
 BRR  HZ EP       1720 37.49                             168    0.4710 17.2 133 
 BRR  HN ES       1720 47.28                             168    0.4610 17.2 133 
 BAR2 SZ EP       1720 43.56                             129    0.7110 98.9 134 
 BAR2 SZ I        1720 44.71         5.9 0.26            128           98.9 134 
 ZAR  HZ EP       1720 44.04                             123   -0.4110  118 285 
 ZAR  HN ES       1720 59.47                             123   -0.5610  118 285 
 ZAR  HZ I        1721  1.52         7.3 0.24            122            118 285 
 PAM  SN ES       1721  1.59                             122   -0.9010  125  84 
 RUS  HZ EP       1720 50.76                             114    0.31 9  168 151 
 RUS  HE ES       1721 10.02                             114   -0.69 9  168 151 
 RUS  HZ I        1721 12.62         2.1 0.30            113            168 151 
 SML  HZ EP       1720 51.58                             112    0.61 9  178 351 
 SML  HN ES       1721 11.57                             112   -0.07 9  178 351 
 SML  HZ I        1721 19.32         6.3 0.10            110            178 351 
                                                                                
