 2015  8 6 1609  4.1 L   6.815 -73.117147.1  RSN  8 0.4 1.9LRSN                1
 GAP=139        0.99       3.7     4.7  6.4  0.4734E+00  0.9170E+01 -0.1880E+01E
 Epicentro: LOS SANTOS - SANTANDER                                             3
 ACTION:UPD 15-09-15 23:00 OP:cam  STATUS:               ID:20150806160904 L   I
 OLDACT:REG 15-08-06 21:10 OP:drio STATUS:               ID:20150806160749     3
 2015-08-06-1607-49M.COL___351                                                 6
 STAT SP IPHASW D HRMM SECON CODA AMPLIT PERI AZIMU VELO AIN AR TRES W  DIS CAZ7
 BAR2 EZ EP     C 16 9 23.67                             170   -0.2410 25.7 196 
 BAR2 EZ ES       16 9 38.79                             170   -0.5910 25.7 196 
 BAR2 EZ I        16 9 43.76         7.8 0.34            169           25.7 196 
 BRR  HZ EP       16 9 25.58                             152    0.1010 73.3 296 
 BRR  HE ES       16 9 42.78                             152    0.6010 73.3 296 
 BRR  HZ I        16 9 46.10        11.4 0.32            151           73.3 296 
 PAM  EZ EP       16 9 26.55                             152    0.3210 74.1  38 
 PAM  EN ES       16 9 43.85                             152    0.3310 74.1  38 
 PAM  EZ I        16 9 45.61         6.9 0.38            156           74.1  38 
 RUS  HZ EP       16 9 28.14                             144    0.0810  102 178 
 RUS  HE ES       16 9 46.56                             144   -0.2110  102 178 
 ZAR  HE ES       1610  2.36                             122   -0.04 8  206 291 
 ZAR  HZ I        1610  7.56         8.8 0.52            124            206 291 
 NOR  HE ES       1610  8.81                             118    0.33 8  238 235 
 NOR  HZ I        1610 13.24         7.5 0.26            120            238 235 
 SML  HZ EP       16 9 40.92                             118    0.17 8  244 334 
 SML  HE ES       1610  8.42                             118   -0.94 8  244 334 
 SML  HZ I        1610 12.13        12.1 0.10            120            244 334 
 GUY2CHZ EP       16 9 47.97                             112   -0.17 7  305 235 
 GUY2CHN ES   4   1610 20.50                             112   -2.02 0  305 235 
 GUY2CHZ I        1610 30.26         4.3 0.58                           305 235 
                                                                                
