 2014  6 6 1631 13.6 L   6.807 -73.182148.6  RSN  8 0.6 1.7LRSN                1
 GAP=132        1.37       5.4     7.5  9.0  0.3370E+01 -0.9863E+00 -0.1099E+02E
 Epicentro: LOS SANTOS - SANTANDER                                             3
 ACTION:UPD 14-07-01 22:51 OP:nd   STATUS:               ID:20140606163113 L   I
 OLDACT:REG 14-06-06 20:38 OP:stll STATUS:               ID:20140606162820     3
 2014-06-06-1628-20M.COL___265                                                 6
 STAT SP IPHASW D HRMM SECON CODA AMPLIT PERI AZIMU VELO AIN AR TRES W  DIS CAZ7
 BAR2 SZ EP       1631 33.69                             171    0.1310 23.8 180 
 BAR2 SZ ES       1631 48.75                             171   -0.4010 23.8 180 
 BAR2 SZ I        1631 51.36         8.8 0.28            166           23.8 180 
 BRR  HN ES       1631 52.56                             154    1.1610 67.3 300 
 PAM  SZ EP       1631 36.60                             151    0.3810 79.4  42 
 PAM  SZ I        1631 36.80        16.7 0.20            156           79.4  42 
 RUS  HZ EP       1631 38.15                             144    0.4610  102 174 
 RUS  HE ES       1631 55.83                             144   -0.6710  102 174 
 RUS  HZ I        1631 57.28         3.6 0.30            143            102 174 
 PTB  HZ EP       1631 40.09                             134   -0.35 9  144 258 
 PTB  HN ES       1632  1.21                             134   -0.18 9  144 258 
 PTB  HZ I        1632  8.62         3.8 0.10            130            144 258 
 SPBC HN ES       1632  4.31                             130   -0.07 9  161 218 
 SPBC HZ I        1632 13.27         5.5 0.34            128            161 218 
 SML  HZ EP       1631 49.80                             118   -0.31 8  241 336 
 SML  HN ES       1632 17.74                             118   -0.86 8  241 336 
 SML  HZ I        1632 20.84         5.7 0.28            118            241 336 
 PRA  HZ EP       1632  7.68                             107    0.63 6  391 209 
 PRA  HZ I        1632  9.78         1.3 0.26            107            391 209 
                                                                                
