 2014  5 6 1217 21.2 L   7.319 -73.287132.6  RSN  6 0.2 2.1LRSN                1
 GAP=148        0.56       3.0     2.7  6.5 -0.1181E+01  0.8901E+01 -0.4189E+01E
 Epicentro: RIONEGRO - SANTANDER                                               3
 OLDACT:UP  14-05-07 00:36 OP:mh   STATUS:               ID:20140506121000     3
 OLDACT:REG 14-05-06 21:17 OP:mh   STATUS:               ID:20140506121000     3
 OLDACT:UP  14-05-07 00:43 OP:mh   STATUS:               ID:20140506121001d    3
 OLDACT:DUP 14-05-07 00:38 OP:mh   STATUS:               ID:20140506121001d    3
 OLDACT:UP  14-05-07 00:37 OP:mh   STATUS:               ID:20140506121000     3
 ACTION:UPD 15-03-16 16:55 OP:nd   STATUS:               ID:20140506121721 L   I
 OLDACT:UP  14-05-07 00:44 OP:mh   STATUS:               ID:20140506121001d    3
 2014-05-06-1210-00M.COL___273                                                 6
 STAT SP IPHASW D HRMM SECON CODA AMPLIT PERI AZIMU VELO AIN AR TRES W  DIS CAZ7
 PAM  SZ EP       1217 41.62                             152    0.3210 64.9  88 
 PAM  SN ES       1217 56.80                             152   -0.1610 64.9  88 
 PTB  HZ EP       1217 47.90                             127    0.02 9  155 236 
 PTB  HN ES       1218  8.55                             127   -0.13 9  155 236 
 PTB  SZ I        1218 14.49         8.0 0.18            129            155 236 
 ZAR  HZ EP   4   1217 51.42                             124    1.64 0  175 276 
 ZAR  HN ES   1   1218 12.44                             124    0.39 7  175 276 
 ZAR  SZ I        1218 15.71        14.1 0.10            125            175 276 
 SML  HZ EP       1217 50.58                             122   -0.29 9  185 332 
 SML  HN ES       1218 14.06                             122    0.08 9  185 332 
 SML  SZ I        1218 17.51        19.6 0.10            124            185 332 
 URE  HN ES   1   1218 26.72                             114   -0.22 6  252 281 
 SJC  HZ EP   4   1218 11.10                             106    1.34 0  353 324 
 SJC  HN ES   4   1218 47.27                             106   -0.35 0  353 324 
 SJC  SZ I        1218 50.32         7.5 1.68            108            353 324 
                                                                                
