 2011  3 6 1318 49.4 L   6.817 -73.292143.2  RSN  5 0.1 1.6LRSN                1
 GAP=168        0.32       1.6     8.6  3.5 -0.1520E+01  0.4255E+01 -0.1110E+01E
 Epicentro: ZAPATOCA - SANTANDER                                               3
 ACTION:UP  11-06-16 14:32 OP:jfem STATUS:               ID:20110306131849 L   I
 2011-03-06-1317-16S.COL___135                                                 6
 STAT SP IPHASW D HRMM SECON CODA AMPLIT PERI AZIMU VELO SNR AR TRES W  DIS CAZ7
 BAR2 SZ EP       1319  8.85                             168     0.010   28 154 
 BAR2 SZ ES   1   1319 24.03                             168     0.0 7   28 154 
 BAR2 SZ I        1319 24.86        10.7 0.18                            28 154 
 RUS  HZ EP       1319 13.28                             142     0.010  105 167 
 RUS  HZ I        1319 13.72         4.0 0.35                           105 167 
 RUS  HN ES   2   1319 31.76                             142    -0.1 5  105 167 
 GRA  SZ EP       1319 14.72                             135    -0.110  130  25 
 GRA  SZ ES   2   1319 34.89                             135     0.3 5  130  25 
 GRA  SZ I        1319 36.95         4.2 0.36                           130  25 
 OCA  SZ EP   1   1319 17.37                             130     0.1 7  157 359 
 OCA  SZ ES   1   1319 38.91                             130    -0.1 7  157 359 
 OCA  SZ I        1319 44.16         8.3 0.41                           157 359 
 CHI  HZ EP   3   1319 27.23                             117     0.4 2  247 191 
 CHI  HN ES   3   1319 56.15                             117     0.2 2  247 191 
 CHI  HZ I        1320  3.29         2.6 0.33                           247 191 
                                                                                
