 2017  9 6 1637 46.3 L   6.791 -73.156147.1  RSN  7 0.4 1.8LRSN                1
 GAP=136        0.93       3.6     4.6  5.8 -0.4722E+00  0.8082E+01  0.3290E+01E
 Epicentro: LOS SANTOS - SANTANDER                                             3
 ACTION:UPD 17-10-05 19:09 OP:rebc STATUS:               ID:20170906163746 L   I
 OLDACT:DUP 17-09-06 22:32 OP:lv   STATUS:               ID:20170906162742d    3
 2017-09-06-1628-00M.COL___420                                                 6
 STAT SP IPHASW D HRMM SECON CODA AMPLIT PERI AZIMU VELO AIN AR TRES W  DIS CAZ7
 BAR2 EZ EP       1638  5.80                             171   -0.2410 22.2 188 
 BAR2 EZ ES       1638 21.61                             171    0.1410 22.2 188 
 BAR2 EZ I        1638 23.55        11.3 0.38            173           22.2 188 
 BRR  HZ EP       1638  7.64                             153    0.1010 70.7 300 
 BRR  HZ I        1638 22.20        18.6 0.38            149           70.7 300 
 BRR  HE ES       1638 24.71                             153    0.5810 70.7 300 
 PAM  EZ EP       1638  8.70                             151   -0.0210 78.9  40 
 PAM  EE ES       1638 25.98                             151   -0.2510 78.9  40 
 PAM  EZ I        1638 27.91         9.6 0.56            149           78.9  40 
 RUS  HZ EP       1638 10.38                             144    0.2910 99.7 175 
 RUS  HN ES       1638 28.69                             144    0.0210 99.7 175 
 RUS  HZ I        1638 29.81         6.7 0.26            146           99.7 175 
 SPBC HZ EP       1638 14.35                             130   -0.39 9  162 219 
 SPBC HN ES       1638 36.22                             130   -0.72 9  162 219 
 SPBC HZ I        1638 39.35         7.1 0.23            129            162 219 
 ZAR  HZ EP       1638 18.96                             123    0.22 9  203 293 
 ZAR  HN ES       1638 43.68                             123   -0.38 9  203 293 
 ZAR  HZ I        1638 49.01         5.2 0.24            120            203 293 
 PRA  HZ EP       1638 39.93                             107    0.26 6  391 209 
 PRA  HN ES       1639 22.32                             107    0.99 6  391 209 
                                                                                
