 2014 12 6 1403  2.5 L   6.914 -73.191137.3  RSN  5 0.3 1.3LRSN                1
 GAP=125        0.65       3.6     3.8  6.5 -0.2761E+01  0.8429E+01 -0.7684E+01E
 Epicentro: BETULIA - SANTANDER                                                3
 ACTION:UPD 15-02-10 17:00 OP:nd   STATUS:               ID:20141206140302 L   I
 OLDACT:REG 14-12-06 20:19 OP:spq  STATUS:               ID:20141206135746     3
 2014-12-06-1357-46M.COL___311                                                 6
 STAT SP IPHASW D HRMM SECON CODA AMPLIT PERI AZIMU VELO AIN AR TRES W  DIS CAZ7
 BAR2 SZ ES   1   14 3 35.78                             165   -0.42 7 35.6 178 
 BAR2 SZ I        14 3 37.80         4.7 0.48            167           35.6 178 
 PAM  SZ EP       14 3 23.51                             151    0.0410 71.8  49 
 PAM  SN ES   1   14 3 39.95                             151    0.11 7 71.8  49 
 PAM  SZ I        14 3 41.36         4.1 0.32            153           71.8  49 
 RUS  HZ EP   1   14 3 26.79                             138    0.35 7  114 174 
 RUS  HE ES   1   14 3 45.20                             138    0.09 7  114 174 
 RUS  HZ I        14 3 46.58         1.6 0.34            141            114 174 
 PTB  HZ EP       14 3 28.50                             130   -0.10 9  146 254 
 PTB  HN ES       14 3 49.07                             130    0.10 9  146 254 
 PTB  HZ I        14 3 50.62         2.9 0.46            132            146 254 
 SML  HZ EP   1   14 3 36.43                             117   -0.74 6  230 335 
 SML  HN ES   1   14 4  4.69                             117    0.48 6  230 335 
 SML  HZ I        14 4  7.36         3.7 0.10            119            230 335 
                                                                                
