 2017  1 6 1039 27.9 L   6.811 -73.155137.8  RSN  4 0.2 1.3LRSN                1
 GAP=249        0.45       6.3     3.7  5.8  0.4560E+01  0.6623E+01 -0.1662E+02E
 Epicentro: LOS SANTOS - SANTANDER                                             3
 ACTION:UPD 17-05-22 15:56 OP:jn   STATUS:               ID:20170106103927 L   I
 OLDACT:REG 17-01-06 20:33 OP:dnl  STATUS:               ID:20170106103741     3
 2017-01-06-1038-00M.COL___363                                                 6
 STAT SP IPHASW D HRMM SECON CODA AMPLIT PERI AZIMU VELO AIN AR TRES W  DIS CAZ7
 BAR2 EZ EP   2   1039 46.15                             169   -0.46 5 24.4 187 
 BAR2 EZ ES       1040  1.16                             169   -0.0310 24.4 187 
 BAR2 EZ I        1040  1.88         3.9 0.34            170           24.4 187 
 BRR  HZ EP       1039 48.32                             152    0.2010 69.7 298 
 BRR  HN ES   2   1040  3.87                             152   -0.01 5 69.7 298 
 BRR  HZ I        1040  9.70         6.0 0.30            144           69.7 298 
 PTB  HZ EP   2   1039 53.92                             130   -0.25 5  147 258 
 PTB  HN ES       1040 14.74                             130    0.09 9  147 258 
 PTB  HZ I        1040 16.28         1.9 0.16            133            147 258 
 ZAR  HZ EP   2   1040  0.07                             121    0.36 4  203 292 
 ZAR  HN ES       1040 24.30                             121   -0.20 9  203 292 
 ZAR  HZ I        1040 33.13         2.0 0.44            121            203 292 
                                                                                
