 2013  3 6 1756 31.4 L   6.771 -73.144141.2  RSN  9 0.4 2.5LRSN                1
 GAP=138        1.05       3.6     4.8  6.3 -0.3144E+01  0.5892E+01  0.5979E+01E
 Epicentro: LOS SANTOS - SANTANDER                                             3
 ACTION:UPD 13-04-09 14:00 OP:ep   STATUS:               ID:20130306175631 L   I
 2013-03-06-1748-50M.COL___202                                                 6
 STAT SP IPHASW D HRMM SECON CODA AMPLIT PERI AZIMU VELO AIN AR TRES W  DIS CAZ7
 BAR2 SZ EP       1756 50.37                             171   -0.0110 20.2 192 
 BAR2 SZ ES       1757  5.12                             171   -0.1010 20.2 192 
 BAR2 SZ I        1757  7.73       100.8 0.28            167           20.2 192 
 BRR  HZ EP       1756 52.17                             151    0.0510 73.0 301 
 BRR  HN ES       1757  9.06                             151    0.7510 73.0 301 
 BRR  HE I        1757  9.67        78.5 0.48            145           73.0 301 
 PAM  SZ EP       1756 53.08                             149   -0.1610 79.8  38 
 PAM  SZ I        1756 53.46        59.7 0.22            146           79.8  38 
 PAM  SN ES       1757  9.99                             149   -0.3210 79.8  38 
 RUS  HZ EP       1756 54.33                             144   -0.1010 97.3 176 
 RUS  HN ES       1757 12.40                             144   -0.0210 97.3 176 
 RUS  HE I        1757 13.95        25.7 0.18            137           97.3 176 
 PTB  HZ EP       1756 56.99                             131   -0.94 9  147 260 
 PTB  HN ES       1757 18.01                             131   -0.63 9  147 260 
 PTB  HE I        1757 23.09        31.8 0.26            123            147 260 
 OCA  HN ES       1757 22.12                             128    0.44 9  164 353 
 OCA  HE I        1757 25.30       130.7 0.20            122            164 353 
 NOR  HZ EP       1757  6.70                             118    0.05 8  233 235 
 NOR  HE ES       1757 34.43                             118    0.26 8  233 235 
 NOR  HE I        1757 39.42        27.5 0.14            111            233 235 
 CHI  HZ EP       1757  9.07                             116    0.59 8  246 195 
 CHI  HN ES       1757 37.73                             116    0.30 8  246 195 
 CHI  HE I        1757 40.81        14.6 0.30            110            246 195 
 PRA  HZ EP       1757 24.88                             106    0.47 6  389 210 
 PRA  HE I        1758 11.89        14.5 0.22            101            389 210 
                                                                                
