 2017  5 6 1307 41.5 L   6.705 -73.178154.0  RSN  4 0.2 1.6LRSN                1
 GAP=226        0.60       5.4     5.4  5.4  0.2111E+02  0.1366E+00 -0.3389E+01E
 Epicentro: VILLANUEVA - SANTANDER                                             3
 ACTION:UPD 17-06-16 13:33 OP:jn   STATUS:               ID:20170506130741 L   I
 OLDACT:REG 17-05-06 20:53 OP:ar   STATUS:               ID:20170506125744     3
 2017-05-06-1258-00M.COL___370                                                 6
 STAT SP IPHASW D HRMM SECON CODA AMPLIT PERI AZIMU VELO AIN AR TRES W  DIS CAZ7
 BRR  HZ EP   2   13 8  3.36                             153   -0.30 5 73.9 307 
 BRR  HN ES       13 8 20.86                             153   -0.1110 73.9 307 
 RUS  HZ EP       13 8  5.31                             148   -0.0510 90.4 173 
 RUS  HN ES       13 8 24.18                             148    0.1810 90.4 173 
 RUS  HZ I        13 8 26.85         2.2 0.20            144           90.4 173 
 PTB  HZ EP       13 8  8.78                             135    0.12 9  143 263 
 PTB  HN ES       13 8 29.54                             135   -0.34 9  143 263 
 PTB  HZ I        13 8 36.49         7.0 0.36            130            143 263 
 ZAR  HZ EP       13 8 14.43                             124   -0.13 9  205 295 
 ZAR  HE ES       13 8 40.84                             124    0.47 9  205 295 
 ZAR  HZ I        13 8 45.14         6.2 0.30            123            205 295 
                                                                                
