 2010  7 6 1308 56.3 L   6.759 -73.136143.3  RSN  5 0.1 1.5LRSN                1
 GAP=157        0.33       4.8     9.7 11.7  0.1445E+02 -0.4928E+02 -0.3850E+02E
 Epicentro: LOS SANTOS - SANTANDER                                             3
 ACTION:UPD 10-12-01 15:15 OP:pat  STATUS:               ID:20100706130856 L   I
 2010-07-06-1304-45S.COL___118                                                 6
 STAT SP IPHASW D HRMM SECON CODA AMPLIT PERI AZIMU VELO AIN AR TRES W  DIS CAZ7
 BAR2 SZ EP       13 9 15.58                             172     0.110   19 196 
 BRR  HZ EP   2   13 9 17.19                             151    -0.2 5   74 301 
 BRR  HN ES   3   13 9 33.99                             151     0.2 2   74 301 
 BRR  HZ I        13 9 51.79        10.5 0.32                            74 301 
 RUS  HZ EP   2   13 9 19.57                             144     0.1 5   96 177 
 RUS  HN ES   2   13 9 37.37                             144    -0.2 5   96 177 
 RUS  HZ I        13 9 40.13         3.4 0.37                            96 177 
 BRI  SZ EP   2   13 9 20.32                             140     0.1 5  112  19 
 GRA  SZ EP   2   13 9 21.46                             135    -0.2 5  130  16 
                                                                                
