 2016  3 6 1420 43.9 L   7.414 -73.205126.0  RSN  7 0.4 1.9LRSN                1
 GAP=106        0.94       3.9     4.5  7.7 -0.8658E+00  0.1730E+02  0.2344E+01E
 Epicentro: EL PLAYON - SANTANDER                                              3
 ACTION:UPD 16-05-13 21:21 OP:cam  STATUS:               ID:20160306142043 L   I
 OLDACT:UP  16-03-06 23:34 OP:mh   STATUS:               ID:20160306141749     3
 OLDACT:REG 16-03-06 21:13 OP:mh   STATUS:               ID:20160306141749     3
 2016-03-06-1417-49M.COL___318                                                 6
 STAT SP IPHASW D HRMM SECON CODA AMPLIT PERI AZIMU VELO AIN AR TRES W  DIS CAZ7
 PAM  EZ EP       1421  2.79                             155   -0.0410 56.4  98 
 PAM  EN ES       1421 17.98                             155    0.4010 56.4  98 
 PAM  EZ I        1421 18.78        19.5 0.14            160           56.4  98 
 BAR2 EZ EP       1421  4.61                             142   -0.0810 90.9 178 
 BAR2 EZ ES       1421 20.74                             142   -0.1510 90.9 178 
 BAR2 EZ I        1421 22.12        12.4 0.10            145           90.9 178 
 OCA  HZ EP       1421  4.35                             142   -0.3110 92.1 352 
 OCA  HN ES       1421 20.86                             142    0.0310 92.1 352 
 OCA  HZ I        1421 23.23        19.9 0.18            143           92.1 352 
 PTB  HZ EP       1421 11.10                             123   -0.36 9  169 235 
 PTB  HN ES       1421 32.69                             123   -0.24 9  169 235 
 PTB  HZ I        1421 35.87        11.2 0.14            125            169 235 
 ZAR  HZ EP       1421 12.55                             121   -0.34 9  183 273 
 ZAR  HN ES       1421 36.02                             121    0.54 9  183 273 
 ZAR  HZ I        1421 40.60        12.0 0.37            122            183 273 
 CHI  HN ES   4   1422  4.46                             108    2.01 0  313 191 
 SDV  BZ EP   4   1421 34.15                             107    4.80 0  327  60 
 SDV  BN ES   4   1422  1.47                             107   -3.30 0  327  60 
 SDV  BZ I        1422  5.07         2.1 0.35            109            327  60 
 GUY2CHZ EP       1421 32.40                             106    1.14 7  340 225 
 GUY2CHN ES   4   1422  9.64                             106    1.47 0  340 225 
 GUY2CHZ I        1422 18.53         2.3 0.68                           340 225 
                                                                                
