 2013  8 6 1448 18.9 L   6.780 -73.153145.7  RSN  7 0.4 2.0LRSN                1
 GAP=183        0.82       3.8     6.1  5.6  0.6876E+01  0.7721E+01 -0.9849E+00E
 Epicentro: LOS SANTOS - SANTANDER                                             3
 ACTION:UPD 14-01-14 08:59 OP:ep   STATUS:               ID:20130806144818 L   I
 OLDACT:REG 13-08-06 15:51 OP:carl STATUS:               ID:20130806143959     3
 2013-08-06-1439-59M.COL___269                                                 6
 STAT SP IPHASW D HRMM SECON CODA AMPLIT PERI AZIMU VELO AIN AR TRES W  DIS CAZ7
 BAR2 SZ EP       1448 38.60                             171    0.1210 21.0 189 
 BAR2 SZ ES   1   1448 53.49                             171   -0.27 7 21.0 189 
 BAR2 SZ I        1448 56.91        14.1 0.44            159           21.0 189 
 GIR2 SZ EP       1448 38.74                             166    0.1110 33.4 352 
 GIR2 SZ ES   1   1448 54.17                             166    0.15 7 33.4 352 
 GIR2 SZ I        1448 55.98        13.9 0.18            166           33.4 352 
 BRR  HZ EP       1448 40.53                             152    0.4610 71.6 300 
 BRR  HN ES       1448 56.80                             152    0.2210 71.6 300 
 BRR  HN I        1448 58.90        46.9 0.22            143           71.6 300 
 RUS  HZ EP   1   1448 42.32                             144   -0.17 7 98.4 176 
 RUS  HN ES       1449  0.69                             144   -0.2010 98.4 176 
 RUS  HZ I        1449  2.14        10.1 0.28            134           98.4 176 
 PTB  HZ EP       1448 45.12                             132   -0.64 9  147 260 
 PTB  HN ES   1   1449  6.56                             132   -0.15 7  147 260 
 PTB  HZ I        1449  8.57        17.1 0.16            122            147 260 
 NOR  HZ EP       1448 55.07                             119    0.65 8  233 235 
 NOR  HE EP       1449 23.52                                            233 235 
 NOR  HZ I        1449 26.82         8.3 0.22            110            233 235 
 SML  HZ EP   1   1448 55.19                             117   -0.52 6  245 336 
 SML  HE ES       1449 24.20                             117   -0.23 8  245 336 
                                                                                
