 2015 10 6 1234 43.3 L   6.513 -73.523109.3  RSN  8 0.4 2.0LRSN                1
 GAP=136        0.99       3.6     5.4  7.7 -0.4825E+01  0.2116E+02 -0.1112E+00E
 Epicentro: EL CARMEN - SANTANDER                                              3
 ACTION:UPD 15-12-22 20:37 OP:cam  STATUS:               ID:20151006123443 L   I
 OLDACT:REG 15-10-06 21:08 OP:spq  STATUS:               ID:20151006122748     3
 2015-10-06-1227-48M.COL___318                                                 6
 STAT SP IPHASW D HRMM SECON CODA AMPLIT PERI AZIMU VELO AIN AR TRES W  DIS CAZ7
 BAR2 EZ EP     C 1234 59.04                             159   -0.0210 38.6  77 
 BAR2 EZ ES   1   1235 11.71                             159    0.32 7 38.6  77 
 BAR2 EZ I        1235 12.83        47.2 0.32            167           38.6  77 
 BRR  HZ EP       1234 59.87                             145   -0.5710 68.9 342 
 BRR  HE ES       1235 13.81                             145   -0.0410 68.9 342 
 BRR  HZ I        1235 20.27        13.4 0.18            146           68.9 342 
 SPBC HN ES       1235 20.87                             130    0.3210  113 213 
 SPBC HZ I        1235 24.62        28.0 0.10            135            113 213 
 NOR  HZ EP       1235 10.88                             116   -0.39 9  182 235 
 NOR  HN ES       1235 32.33                             116   -0.79 9  182 235 
 NOR  HZ I        1235 36.16        12.4 0.16            120            182 235 
 ZAR  HZ EP       1235 11.31                             116    0.03 9  183 306 
 ZAR  HE ES       1235 33.64                             116    0.50 9  183 306 
 ZAR  HZ I        1235 37.23        12.2 0.38            119            183 306 
 HEL  HZ EP       1235 16.76                             111    0.33 8  225 261 
 HEL  HE ES   1   1235 41.98                             111   -0.32 6  225 261 
 HEL  HZ I        1235 46.31         4.7 0.30            114            225 261 
 GUY2CHZ EP       1235 20.09                             108    0.76 8  249 235 
 GUY2CHE ES   2   1235 48.18                             108    0.71 4  249 235 
 GUY2CHZ I        1235 52.73         4.1 0.46                           249 235 
 SML  HN ES   1   1235 48.63                             107   -0.09 6  260 347 
 SML  HZ I        1235 54.29        10.3 0.10            111            260 347 
                                                                                
