 2014  2 6 1730 35.1 L   6.837 -73.102142.0  RSN  4 0.5 1.3LRSN                1
 GAP=281        1.09       8.3     8.2  8.7  0.2117E+02  0.1538E+02  0.1110E+02E
 Epicentro: LOS SANTOS - SANTANDER                                             3
 ACTION:UPD 14-03-10 08:08 OP:ep   STATUS:               ID:20140206173035 L   I
 OLDACT:REG 14-02-06 14:29 OP:nd   STATUS:               ID:20140206173000     3
 2014-02-06-1730-00M.COL___291                                                 6
 STAT SP IPHASW D HRMM SECON CODA AMPLIT PERI AZIMU VELO AIN AR TRES W  DIS CAZ7
 BAR2 SZ EP       1730 54.63                             168    0.2710 28.5 198 
 BAR2 SZ ES       1731  8.82                             168   -0.5910 28.5 198 
 BAR2 SZ I        1731 12.97         8.6 0.40            163           28.5 198 
 RUS  HZ EP       1730 59.27                             142    0.5410  104 179 
 RUS  HN ES       1731 17.40                             142    0.2110  104 179 
 RUS  HZ I        1731 18.91         2.3 0.36            140            104 179 
 PTB  HZ EP       1731  2.19                             130   -0.05 9  153 258 
 PTB  HN ES       1731 23.62                             130    0.19 9  153 258 
 PTB  HZ I        1731 31.84         2.3 0.18            126            153 258 
 CHI  HZ EP       1731 12.16                             116   -0.97 8  254 196 
 CHI  HZ I        1731 22.22         1.5 0.30            115            254 196 
 CHI  HN ES       1731 42.89                             116    0.07 8  254 196 
                                                                                
