 2010  5 6 1824 30.5 L   6.555 -73.458112.8  RSN 10 0.5 2.1LRSN                1
 GAP=125        0.83       5.4     6.8  7.8 -0.2158E+02  0.1417E+02  0.2468E+01E
 Epicentro: EL CARMEN DE CHUCURI - SANTANDER                                   3
 ACTION:UP  10-08-24 10:03 OP:vdl  STATUS:               ID:20100506182430 L   I
 2010-05-06-1822-58S.COL___105                                                 6
 STAT SP IPHASW D HRMM SECON CODA AMPLIT PERI AZIMU VELO SNR AR TRES W  DIS CAZ7
 BAR2 SZ IP     D 1824 46.64                             164     0.210   31  82 
 BAR2 SZ ES   2   1824 58.78                             164    -0.1 5   31  82 
 GIR2 SZ EP   1   1824 47.20                             148    -0.8 7   65  27 
 GIR2 SZ ES   2   1825  1.39                             148    -0.3 5   65  27 
 BRR  HZ EP   1   1824 48.23                             147     0.3 7   67 335 
 BRR  HN ES   2   1825  2.10                             147     0.5 5   67 335 
 BRR  HZ I        1825  3.29        34.4 0.13                            67 335 
 BRI  SZ EP   1   1824 55.93                             123     0.7 7  148  30 
 GUE  SZ EP   1   1824 55.67                             122    -0.3 7  153  23 
 GUE  SZ ES   2   1825 15.37                             122    -0.4 5  153  23 
 GRA  SZ EP   1   1824 56.75                             120    -0.2 7  164  26 
 OCA  SZ EP   1   1824 59.16                             116    -0.2 7  187   5 
 OCA  SZ ES   2   1825 22.18                             116     0.3 4  187   5 
 OCA  SZ I        1825 27.94        23.5 0.46                           187   5 
 HEL  HZ EP   1   1825  4.80                             111     0.1 6  233 260 
 HEL  HE ES   2   1825 30.77                             111    -0.7 4  233 260 
 HEL  HZ I        1825 35.86         6.7 0.57                           233 260 
 RREF BZ EP   1   1825 11.22                             107     0.9 6  278 229 
 RREF BN ES   2   1825 40.75                             107    -0.6 4  278 229 
 RREF BZ I        1825 46.64         5.3 0.33                           278 229 
 PRA  HZ EP   1   1825 18.07                             102    -0.2 5  352 207 
 PRA  HN ES   2   1825 55.51                             102     0.0 3  352 207 
 PRA  HZ I        1825 59.58         9.0 0.32                           352 207 
                                                                                
