 2016  7 6 1249 18.8 L   6.147 -73.662114.8  RSN  9 0.4 2.2LRSN                1
 GAP= 93        0.80       3.2     4.0  8.0  0.1358E+01  0.1768E+02  0.9555E+01E
 Epicentro: LA PAZ - SANTANDER                                                 3
 ACTION:UPD 17-03-29 16:47 OP:lp   STATUS:               ID:20160706124918 L   I
 OLDACT:REG 16-07-06 20:35 OP:dnl  STATUS:               ID:20160706124744     3
 2016-07-06-1247-44M.COL___322                                                 6
 STAT SP IPHASW D HRMM SECON CODA AMPLIT PERI AZIMU VELO AIN AR TRES W  DIS CAZ7
 RUS  HZ EP       1249 37.39                             146    0.0710 70.0 114 
 RUS  HE ES   2   1249 51.31                             146   -0.46 5 70.0 114 
 RUS  HZ I        1249 52.57        18.1 0.34            151           70.0 114 
 SPBC HZ EP   3   1249 35.90                             146   -0.92 2 71.1 220 
 SPBC HE ES   3   1249 51.48                             146    0.60 2 71.1 220 
 SPBC HZ I        1249 52.68        66.3 0.24            146           71.1 220 
 BAR2 EZ IP     D 1249 37.34                             145    0.2210 72.4  47 
 BAR2 EZ ES       1249 51.29                             145   -0.1210 72.4  47 
 BAR2 EZ I        1249 52.84       122.3 0.46            151           72.4  47 
 PTB  HZ EP     D 1249 37.99                             136   -0.7910 98.0 296 
 PTB  HN ES   2   1249 53.67                             136   -0.69 5 98.0 296 
 PTB  HZ I        1249 56.78        27.0 0.34            138           98.0 296 
 BRR  HZ EP       1249 39.48                             134    0.0110  106 357 
 BRR  HE ES       1249 56.07                             134    0.4810  106 357 
 BRR  HZ I        1250  0.19        18.3 0.18            138            106 357 
 NOR  HZ EP   2   1249 42.97                             124   -0.59 5  148 244 
 NOR  HE ES   2   1250  3.13                             124    0.26 5  148 244 
 NOR  HZ I        1250  5.26        23.7 0.18            125            148 244 
 ZAR  HZ EP       1249 48.89                             115    0.01 9  199 318 
 ZAR  HE ES       1250 12.60                             115    0.26 9  199 318 
 ZAR  HZ I        1250 14.20        29.3 0.12            118            199 318 
 GUY2CHZ EP       1249 51.13                             113   -0.06 8  214 242 
 GUY2CHN ES   3   1250 17.10                             113    0.65 2  214 242 
 GUY2CHZ I        1250 22.01         8.6 0.30                           214 242 
 PRA  HZ EP   2   1250  0.64                             105   -0.01 4  301 207 
 PRA  HE ES       1250 33.92                             105    0.63 7  301 207 
 PRA  HZ I        1250 40.78         7.0 0.30            108            301 207 
                                                                                
