 2011  9 6 1609 41.0 L   6.794 -73.382114.5  RSN  4 0.3 1.5LRSN                1
 GAP=182        0.58       7.9     8.7  6.8  0.5861E+02  0.2664E+02  0.1545E+02E
 Epicentro: SAN VICENTE DE CHUCURI - SANTANDER                                 3
 ACTION:UPD 12-07-13 15:56 OP:ep   STATUS:               ID:20110906160941 L   I
 2011-09-06-1606-39S.COL___171                                                 6
 STAT SP IPHASW D HRMM SECON CODA AMPLIT PERI AZIMU VELO AIN AR TRES W  DIS CAZ7
 BAR2 SZ EP   1   16 9 57.48                             164    0.40 7 31.4 135 
 BAR2 SZ ES   1   1610  9.54                             164   -0.12 7 31.4 135 
 BAR2 SZ I        1610 11.37         7.0 0.27                          31.4 135 
 BRR  HZ EP   1   16 9 57.38                             155   -0.17 7 50.2 314 
 BRR  HZ I        16 9 58.11        13.0 0.39                          50.2 314 
 BRR  HE ES   1   1610 10.48                             155   -0.01 7 50.2 314 
 RUS  HZ EP   2   1610  2.54                             135    0.38 5  105 162 
 RUS  HE ES   1   1610 18.55                             135   -0.15 7  105 162 
 ZAR  HZ EP   1   1610  8.47                             118   -0.51 7  180 295 
 ZAR  HE ES   1   1610 31.19                             118    0.35 7  180 295 
 ZAR  HZ I        1610 35.40         3.3 0.42                           180 295 
                                                                                
