 2012  9 6 1024  8.3 L   6.782 -73.158138.2  RSN  9 0.4 2.1LRSN                1
 GAP=136        0.75       3.4     4.2  5.9  0.1054E+01  0.7952E+01  0.6703E+01E
 Epicentro: LOS SANTOS - SANTANDER                                             3
 ACTION:UPD 12-10-22 14:17 OP:ep   STATUS:               ID:20120906102408 L   I
 2012-09-06-1020-00M.COL___218                                                 6
 STAT SP IPHASW D HRMM SECON CODA AMPLIT PERI AZIMU VELO AIN AR TRES W  DIS CAZ7
 BAR2 SZ EP       1024 26.94                             171   -0.0510 21.2 187 
 BAR2 SZ I        1024 43.37        31.6 0.18                          21.2 187 
 GIR2 SZ EP       1024 27.24                             166    0.1110 33.0 353 
 GIR2 SZ ES   1   1024 41.53                             166   -0.29 7 33.0 353 
 BRR  HZ EP       1024 28.69                             151    0.0610 71.0 300 
 BRR  HN ES   1   1024 45.04                             151    0.56 7 71.0 300 
 BRR  HZ I        1024 48.88        19.9 0.16                          71.0 300 
 PAM  SZ EP       1024 29.88                             149    0.0010 79.8  39 
 PAM  SZ I        1024 30.02        13.2 0.14                          79.8  39 
 PAM  SN ES   1   1024 46.65                             149   -0.05 7 79.8  39 
 RUS  HZ EP       1024 31.07                             143   -0.1110 98.7 175 
 RUS  HZ I        1024 32.14        11.1 0.14                          98.7 175 
 RUS  HN ES   1   1024 49.19                             143    0.16 7 98.7 175 
 PTB  HN EP       1024 33.92                             131   -0.59 9  146 259 
 PTB  HN ES   2   1024 54.53                             131   -0.41 5  146 259 
 ZAR  HZ EP       1024 40.89                             121    0.68 9  204 293 
 ZAR  HN ES   1   1025  4.62                             121   -0.48 6  204 293 
 ZAR  HZ I        1025  9.80        11.6 0.54                           204 293 
 CHI  HZ EP   2   1024 45.09                             116   -0.26 4  246 195 
 CHI  HE ES   1   1025 14.23                             116   -0.01 6  246 195 
 CHI  HN I        1025 17.43        16.1 0.30                           246 195 
 PRA  HZ EP       1025  1.11                             105   -0.18 6  390 210 
 PRA  HN ES   1   1025 43.65                             105    1.03 4  390 210 
 PRA  HN I        1025 47.64         6.1 0.42                           390 210 
                                                                                
