 2012  9 6 1928  9.0 L   6.530 -73.796101.5  RSN  3 0.4 1.3LRSN                1
 GAP=187        0.47      17.1     4.2 17.6 -0.1223E+02 -0.1036E+01  0.1612E+03E
 Epicentro: SANTA HELENA DEL OPON - SANTANDER                                  3
 ACTION:UPD 12-10-22 14:17 OP:ep   STATUS:               ID:20120906192809 L   I
 2012-09-06-1920-00M.COL___221                                                 6
 STAT SP IPHASW D HRMM SECON CODA AMPLIT PERI AZIMU VELO AIN AR TRES W  DIS CAZ7
 BRR  HZ EP   3   1928 23.98                             145   -1.15 2 64.5   8 
 BRR  HE ES   3   1928 38.31                             145    0.62 2 64.5   8 
 BAR2 SZ EP       1928 25.80                             143    0.0710 68.2  84 
 BAR2 SZ ES   3   1928 38.14                             143   -0.62 2 68.2  84 
 BAR2 SZ I        1928 39.61        12.9 0.28                          68.2  84 
 PTB  HZ EP       1928 25.79                             141    0.0010 73.1 271 
 PTB  HN ES   3   1928 38.80                             141   -0.06 2 73.1 271 
 PTB  HZ I        1928 40.53         2.3 0.14                          73.1 271 
                                                                                
