 2016  5 6 1226  7.7 L   6.788 -73.154142.2  RSN  6 0.4 1.6LRSN                1
 GAP=136        0.51       4.3     3.5  5.6 -0.8413E+01  0.4768E+01  0.3443E+00E
 Epicentro: LOS SANTOS - SANTANDER                                             3
 ACTION:UPD 16-08-18 17:42 OP:cam  STATUS:               ID:20160506122607 L   I
 OLDACT:REG 16-05-06 20:18 OP:dnl  STATUS:               ID:20160506121750     3
 2016-05-06-1217-50M.COL___290                                                 6
 STAT SP IPHASW D HRMM SECON CODA AMPLIT PERI AZIMU VELO AIN AR TRES W  DIS CAZ7
 BAR2 EZ EP   2   1226 26.55                             171   -0.36 5 21.8 188 
 BAR2 EZ ES   2   1226 41.21                             171   -0.65 5 21.8 188 
 BAR2 EZ I        1226 43.38         5.5 0.15            170           21.8 188 
 BRR  HZ EP   2   1226 28.86                             152    0.37 5 71.0 300 
 BRR  HE ES   3   1226 45.72                             152    1.04 2 71.0 300 
 BRR  HZ I        1226 50.88        11.2 0.24            154           71.0 300 
 PAM  EZ EP       1226 29.61                             150   -0.0610 79.0  39 
 PAM  EN ES       1226 46.86                             150    0.0810 79.0  39 
 PAM  EZ I        1226 48.97         6.0 0.54            156           79.0  39 
 RUS  HZ EP   2   1226 30.89                             143   -0.15 5 99.3 175 
 RUS  HE ES   2   1226 49.71                             143    0.49 5 99.3 175 
 RUS  HZ I        1226 52.23         5.2 0.38            147           99.3 175 
 PTB  HZ EP       1226 34.31                             131    0.01 9  147 259 
 PTB  HN ES       1226 54.94                             131   -0.09 9  147 259 
 PTB  HZ I        1226 56.83         5.6 0.14            135            147 259 
 SPBC HZ EP   3   1226 36.69                             128    0.89 2  162 219 
 SPBC HN ES   2   1226 57.80                             128    0.10 5  162 219 
 SPBC HZ I        1227  2.88         6.4 0.20            132            162 219 
                                                                                
