 2010  9 6 1358 36.5 L   6.838 -73.064146.4  RSN  9 0.3 2.9LRSN                1
 GAP=167        0.63       3.5     5.9  5.8 -0.6793E+01  0.4216E+01 -0.5635E-01E
 Epicentro: LOS SANTOS - SANTANDER                                             3
 ACTION:UP  11-02-18 11:00 OP:tino STATUS:               ID:20100906135836 L   I
 2010-09-06-1354-44S.COL___120                                                 6
 STAT SP IPHASW D HRMM SECON CODA AMPLIT PERI AZIMU VELO SNR AR TRES W  DIS CAZ7
 BAR2 SZ IP     D 1358 56.28                             168     0.010   30 206 
 BAR2 SZ ES   2   1359 11.45                             168    -0.4 5   30 206 
 GIR2 SZ EP   1   1358 56.10                             168    -0.1 7   30 332 
 GIR2 SZ ES   2   1359 11.83                             168     0.3 5   30 332 
 BRR  HZ IP     C 1358 57.89                             151    -0.210   78 293 
 BRR  HZ I        1358 58.13       204.9 0.14                            78 293 
 BRR  HN ES   2   1359 15.01                             151     0.1 5   78 293 
 RUS  HZ EP   1   1359  0.45                             143    -0.1 7  105 181 
 RUS  HE ES   2   1359 19.20                             143    -0.2 5  105 181 
 RUS  HZ I        1359 20.92        41.8 0.40                           105 181 
 GUE  SZ EP   1   1359  0.83                             141     0.0 7  111   8 
 GRA  SZ IP     C 1359  1.65                             138     0.410  119  14 
 GRA  SZ ES   2   1359 21.07                             138     0.5 5  119  14 
 GRA  SZ I        1359 23.24       119.0 0.35                           119  14 
 OCA  SZ EP   1   1359  4.12                             130    -0.4 7  157 350 
 OCA  SZ ES   2   1359 26.10                             130    -0.4 5  157 350 
 OCA  SZ I        1359 30.13        93.0 0.20                           157 350 
 HEL  HZ EP   1   1359 18.15                             114     0.4 6  282 255 
 HEL  HN ES   2   1359 49.82                             114    -0.2 4  282 255 
 HEL  HZ I        1359 55.54        40.6 0.38                           282 255 
 PRA  HZ EP   1   1359 30.45                             106    -0.5 4  400 210 
 PRA  HE ES   2   14 0 14.52                             106     1.1 3  400 210 
 PRA  HZ I        14 0 19.97        34.5 0.35                           400 210 
                                                                                
