 2016  2 6 1237 31.6 L   6.812 -73.145151.5  RSN  9 0.3 1.8LRSN                1
 GAP=136        0.71       2.3     3.1  4.3 -0.8425E+00  0.4150E+01 -0.5671E-01E
 Epicentro: LOS SANTOS - SANTANDER                                             3
 ACTION:UPD 16-03-04 21:23 OP:rebc STATUS:               ID:20160206123731 L   I
 OLDACT:REG 16-02-06 20:38 OP:cara STATUS:               ID:20160206122750     3
 2016-02-06-1227-50M.COL___337                                                 6
 STAT SP IPHASW D HRMM SECON CODA AMPLIT PERI AZIMU VELO AIN AR TRES W  DIS CAZ7
 BAR2 EZ IP       1237 51.69                             170   -0.2110 24.7 190 
 BAR2 EZ ES       1238  7.56                             170   -0.2110 24.7 190 
 BAR2 EZ I        1238  9.41        12.3 0.32            171           24.7 190 
 PAM  EZ IP       1237 54.54                             152    0.2310 76.3  40 
 PAM  EN ES       1238 12.55                             152    0.4810 76.3  40 
 PAM  EZ I        1238 15.11         8.3 0.24            154           76.3  40 
 RUS  HZ EP       1237 55.74                             145   -0.2310  102 176 
 RUS  HN ES       1238 14.95                             145   -0.0610  102 176 
 RUS  HZ I        1238 15.46         7.7 0.22            146            102 176 
 PTB  HZ EP   9   1237 58.14                             133   -0.89 0  148 258 
 PTB  HN ES       1238 19.48                                   -0.09 9  148 258 
 PTB  HZ I        1238 21.08         6.7 0.50            133            148 258 
 ZAR  HE ES       1238 30.12                             124    0.22 9  204 292 
 ZAR  HZ I        1238 35.23         5.5 0.26            124            204 292 
 NOR  HZ EP       1238  7.97                             120    0.25 8  236 234 
 NOR  HE ES       1238 35.83                             120   -0.09 8  236 234 
 NOR  HZ I        1238 42.03         5.6 0.16            120            236 234 
 SML  HZ EP       1238  8.09                             119   -0.29 8  242 335 
 SML  HN ES       1238 36.60                             119   -0.50 8  242 335 
 SML  HZ I        1238 40.77         9.3 0.26            119            242 335 
 CHI  HZ EP       1238 10.06                             118    0.34 8  250 195 
 CHI  HN ES       1238 39.15                             118   -0.34 8  250 195 
 CHI  HZ I        1238 42.58         2.9 0.36            119            250 195 
 GUY2CHZ EP   4   1238 17.95                             113    2.42 0  302 235 
 GUY2CHN ES       1238 50.28                             113    0.45 7  302 235 
 GUY2CHZ I        1238 57.58         2.5 0.54                           302 235 
                                                                                
