 2015  7 6 1050 54.2 L   6.560 -73.234139.4  RSN  7 0.5 1.8LRSN                1
 GAP=109        1.21       4.1     6.2  8.5 -0.4840E+01  0.2759E+02 -0.9772E+01E
 Epicentro: CABRERA - SANTANDER                                                3
 ACTION:UPD 15-09-08 21:47 OP:cam  STATUS:               ID:20150706105054 L   I
 OLDACT:REG 15-07-06 21:03 OP:ar   STATUS:               ID:20150706104746     3
 2015-07-06-1047-46M.COL___328                                                 6
 STAT SP IPHASW D HRMM SECON CODA AMPLIT PERI AZIMU VELO AIN AR TRES W  DIS CAZ7
 BAR2 EZ EP     C 1051 12.93                             177    0.0710 6.73  58 
 BAR2 EZ ES       1051 27.40                             177    0.0010 6.73  58 
 BAR2 EZ I        1051 28.86        10.2 0.44            176           6.73  58 
 RUS  HZ EP       1051 15.79                             150    0.1210 75.7 167 
 RUS  HN ES       1051 31.81                             150   -0.5810 75.7 167 
 RUS  HZ I        1051 34.89         5.2 0.36            155           75.7 167 
 PAM  EZ EP       1051 18.25                             141    0.6110  104  34 
 PAM  EN ES       1051 36.42                             141    0.5110  104  34 
 PAM  EZ I        1051 38.90         5.6 0.40            143            104  34 
 OCA  HZ EP       1051 24.29                             124   -0.29 9  186 357 
 OCA  HN ES       1051 47.48                             124   -0.77 9  186 357 
 OCA  HZ I        1051 50.69        16.9 0.20            125            186 357 
 ZAR  HZ EP       1051 25.70                             120   -0.86 8  207 300 
 ZAR  HN ES       1051 52.01                             120    0.23 8  207 300 
 ZAR  HZ I        1051 56.16        10.0 0.30            122            207 300 
 SML  HZ EP       1051 32.20                             114   -0.59 8  264 340 
 SML  HE ES       1052  3.55                             114    0.68 8  264 340 
 SML  HZ I        1052  8.81         5.0 0.10            116            264 340 
 GUY2CHZ EP       1051 35.51                             113    0.55 7  278 238 
 GUY2CHN ES       1052  7.09                             113    0.35 7  278 238 
 GUY2CHZ I        1052 12.75         2.9 0.34                           278 238 
                                                                                
