 2012 10 6 1045 12.2 L   6.765 -73.100141.4  RSN  5 0.1 1.7LRSN                1
 GAP=144        0.32       2.9     4.4  4.3  0.2635E+01  0.1361E+01  0.1771E+01E
 Epicentro: LOS SANTOS - SANTANDER                                             3
 ACTION:UPD 12-11-22 17:02 OP:ep   STATUS:               ID:20121006104512 L   I
 2012-10-06-1040-00M.COL___222                                                 6
 STAT SP IPHASW D HRMM SECON CODA AMPLIT PERI AZIMU VELO AIN AR TRES W  DIS CAZ7
 BAR2 SZ EP       1045 31.29                             171   -0.0110 21.2 205 
 BAR2 SZ I        1045 31.62        12.1 0.38                          21.2 205 
 BAR2 SZ ES   2   1045 45.97                             171   -0.20 5 21.2 205 
 GIR2 SZ EP   3   1045 31.41                             165   -0.13 2 36.2 343 
 PAM  SZ EP   2   1045 33.96                             150   -0.03 5 77.4  35 
 PAM  SN ES   2   1045 51.01                             150    0.05 5 77.4  35 
 BRR  HZ EP       1045 33.19                             150   -0.1010 77.5 299 
 BRR  HN ES   2   1045 50.03                             150    0.31 5 77.5 299 
 BRR  HN I        1045 50.70        11.6 0.24                          77.5 299 
 RUS  HZ EP       1045 35.37                             144    0.1010 96.5 179 
 RUS  HN ES   2   1045 53.17                             144   -0.06 5 96.5 179 
                                                                                
