 2012  5 6 1935 37.5 L   6.795 -73.163150.4  RSN  7 0.5 1.8LRSN                1
 GAP=135        1.08       6.6     5.8  9.3 -0.5133E+01  0.1102E+02  0.4774E+01E
 Epicentro: LOS SANTOS - SANTANDER                                             3
 ACTION:UP  12-07-05 12:02 OP:pat  STATUS:               ID:20120506193537 L   I
 2012-05-06-1930-00M.COL___192                                                 6
 STAT SP IPHASW D HRMM SECON CODA AMPLIT PERI AZIMU VELO SNR AR TRES W  DIS CAZ7
 BAR2 SZ EP   1   1935 57.61                             172    -0.1 7   23 185 
 BAR2 SZ ES   1   1936 13.59                             172     0.1 7   23 185 
 BAR2 SZ I        1936 14.40         9.8 0.32                            23 185 
 BRR  HZ EP   1   1935 59.49                             154     0.4 7   70 300 
 BRR  HN ES   1   1936 16.79                             154     0.8 7   70 300 
 BRR  HZ I        1936 19.27        18.7 0.03                            70 300 
 PAM  SZ EP       1936  0.51                             151     0.210   79  40 
 PAM  SN ES   1   1936 17.66                             151    -0.5 7   79  40 
 RUS  HZ EP   1   1936  1.48                             146    -0.2 7  100 175 
 RUS  HN ES   1   1936 20.54                             146    -0.1 7  100 175 
 RUS  HZ I        1936 23.13         3.8 0.08                           100 175 
 PTB  HZ EP   1   1936  4.32                             134    -0.4 7  146 259 
 PTB  HN ES   1   1936 24.91                             134    -1.0 7  146 259 
 PTB  HZ I        1936 31.49        10.0 0.38                           146 259 
 ZAR  HN ES   1   1936 35.27                             124    -0.3 6  202 292 
 ZAR  HZ I        1936 42.08        13.3 0.27                           202 292 
 NOR  SZ EP   1   1936 13.76                                     0.4 6  233 234 
 NOR  SN ES   1   1936 41.89                                     0.6 6  233 234 
                                                                                
