 2017  3 6 1448 20.7 L   6.788 -73.159145.4  RSN  5 0.5 1.3LRSN                1
 GAP=135        1.32       7.0     6.8  9.6 -0.4444E+01  0.7942E+01  0.3012E+01E
 Epicentro: LOS SANTOS - SANTANDER                                             3
 ACTION:UPD 17-05-25 18:36 OP:jn   STATUS:               ID:20170306144820 L   I
 OLDACT:REG 17-03-06 19:13 OP:ar   STATUS:               ID:20170306144747     3
 2017-03-06-1448-00M.COL___365                                                 6
 STAT SP IPHASW D HRMM SECON CODA AMPLIT PERI AZIMU VELO AIN AR TRES W  DIS CAZ7
 BAR2 EZ EP       1448 39.92                             171   -0.3010 21.8 187 
 BAR2 EZ ES       1448 55.58                             171    0.1210 21.8 187 
 BAR2 EZ I        1448 58.06         4.7 0.20            171           21.8 187 
 BRR  HZ EP       1448 42.71                             153    0.9710 70.6 300 
 BRR  HN ES       1448 58.74                             153    0.5710 70.6 300 
 PAM  EZ EP       1448 42.94                             150   -0.0210 79.4  40 
 PAM  EE ES       1448 59.70                             150   -0.6510 79.4  40 
 PAM  EZ I        1449  1.97         5.1 0.58            151           79.4  40 
 RUS  HZ EP       1448 44.47                             144    0.1810 99.3 175 
 RUS  HN ES       1449  2.82                             144    0.1110 99.3 175 
 RUS  HZ I        1449  3.78         2.1 0.48            145           99.3 175 
 PTB  HZ EP       1448 47.04                             132   -0.40 9  146 259 
 PTB  HN ES       1449  7.60                             132   -0.73 9  146 259 
 PTB  HZ I        1449  7.98         2.3 0.30            135            146 259 
                                                                                
