 2016  4 6 1259 44.1 L   6.800 -73.153140.0  RSN 14 0.4 2.2LRSN                1
 GAP=136        1.06       4.0     4.1  6.2 -0.1144E+01  0.1138E+02  0.1816E+01E
 Epicentro: LOS SANTOS - SANTANDER                                             3
 ACTION:UPD 16-05-05 14:19 OP:rebc STATUS:               ID:20160406125944 L   I
 OLDACT:UP  16-04-06 22:25 OP:drio STATUS:               ID:20160406125743     3
 OLDACT:UP  16-04-06 22:25 OP:drio STATUS:               ID:20160406125743     3
 OLDACT:UP  16-04-06 22:24 OP:drio STATUS:               ID:20160406125743     3
 OLDACT:REG 16-04-06 20:51 OP:drio STATUS:               ID:20160406125743     3
 2016-04-06-1257-43M.COL___276                                                 6
 STAT SP IPHASW D HRMM SECON CODA AMPLIT PERI AZIMU VELO AIN AR TRES W  DIS CAZ7
 BAR2 EZ EP       13 0  3.04                             170    0.0510 23.2 188 
 BAR2 EZ ES       13 0 16.96                             170   -0.8010 23.2 188 
 BAR2 EZ I        13 0 19.23        40.3 0.24            167           23.2 188 
 PAM  EZ EP       13 0  6.10                             149    0.4110 77.9  40 
 PAM  EN ES       13 0 23.14                             149    0.5710 77.9  40 
 PAM  EZ I        13 0 25.90        11.6 0.62            157           77.9  40 
 RUS  HZ EP       13 0  7.10                             142   -0.1410  101 176 
 RUS  HE ES       13 0 25.32                             142   -0.0110  101 176 
 RUS  HZ I        13 0 28.42        10.5 0.30            144            101 176 
 PTB  HZ EP       13 0  9.75                             131   -0.73 9  147 259 
 PTB  HN ES       13 0 30.87                             131   -0.22 9  147 259 
 PTB  HZ I        13 0 35.97        22.9 0.30            131            147 259 
 SPBC HZ EP       13 0 12.04                             128   -0.02 9  163 219 
 SPBC HE ES       13 0 34.21                             128    0.30 9  163 219 
 SPBC HZ I        13 0 41.66        28.8 0.36            129            163 219 
 ZAR  HZ EP       13 0 15.57                             121   -0.48 9  203 292 
 ZAR  HN ES       13 0 41.09                             121    0.08 9  203 292 
 ZAR  HZ I        13 0 48.92        17.8 0.32            123            203 292 
 NOR  HZ EP       13 0 19.09                             117   -0.29 8  234 234 
 NOR  HE ES   4   13 0 43.66                             117   -3.27 0  234 234 
 NOR  HZ I        13 0 49.57        13.3 0.18            119            234 234 
 CHI  HZ EP       13 0 21.54                             116    0.13 8  248 195 
 CHI  HE ES       13 0 50.99                             116    0.44 8  248 195 
 CHI  HZ I        13 0 56.65        10.0 0.34            118            248 195 
 ROSC BZ EP   4   13 0 23.51                             115    1.70 0  252 211 
 ROSC BE ES   4   13 0 52.76                             115    1.49 0  252 211 
 ROSC BZ I        13 0 57.57        18.6 0.35            117            252 211 
 HEL  HZ EP       13 0 23.78                             114   -0.11 8  271 256 
 HEL  HN ES       13 0 56.15                             114    1.19 8  271 256 
 HEL  HZ I        13 1  1.75        11.8 0.38            115            271 256 
 GUY2CHZ EP       13 0 26.99                             111   -0.33 7  300 235 
 GUY2CHN ES   4   13 1  4.07                             111    3.00 0  300 235 
 GUY2CHZ I        13 1 13.37         9.5 0.40                           300 235 
 ELA  HZ EP   4   13 0 32.57                             109    1.98 0  328 229 
 ELA  HN ES   4   13 1  8.79                             109    1.90 0  328 229 
 ELA  HZ I        13 1 16.06         6.6 0.24            111            328 229 
 CBOC HZ EP       13 0 30.85                             109    0.21 7  333 252 
 CBOC HE ES       13 1  7.24                             109    0.26 7  333 252 
 MON  HZ EP   4   13 0 30.18                             107   -2.58 0  353 308 
 MON  HE ES   4   13 1  8.69                             107   -2.07 0  353 308 
 MON  HZ I        13 1 10.76         4.4 0.36            110            353 308 
 SJC  HZ EP   4   13 0 36.15                             105   -3.23 0  409 327 
 SJC  HE ES   4   13 1 16.99                             105   -5.55 0  409 327 
                                                                                
