 2015  6 6 1601  6.1 L   6.813 -73.189145.6  RSN 10 0.3 1.9LRSN                1
 GAP=131        0.74       2.6     3.0  4.6 -0.2193E+00  0.6119E+01 -0.2921E+00E
 Epicentro: ZAPATOCA - SANTANDER                                               3
 ACTION:UPD 15-09-10 22:10 OP:cam  STATUS:               ID:20150606160106 L   I
 OLDACT:REG 15-06-06 21:49 OP:ak   STATUS:               ID:20150606155751     3
 2015-06-06-1557-51M.COL___303                                                 6
 STAT SP IPHASW D HRMM SECON CODA AMPLIT PERI AZIMU VELO AIN AR TRES W  DIS CAZ7
 BAR2 EZ EP       16 1 25.58                             170   -0.1910 24.4 178 
 BAR2 EZ ES       16 1 40.96                             170   -0.1210 24.4 178 
 BAR2 EZ I        16 1 42.62        14.9 0.30            171           24.4 178 
 BRR  HZ IP     C 16 1 27.41                             154    0.4010 66.4 299 
 BRR  HN ES       16 1 43.59                             154    0.3110 66.4 299 
 BRR  HZ I        16 1 48.00        15.2 0.22            153           66.4 299 
 PAM  SZ EP       16 1 28.53                             150    0.0710 79.4  43 
 PAM  SN ES       16 1 45.94                             150    0.0710 79.4  43 
 PAM  SZ I        16 1 48.22        11.9 0.30            154           79.4  43 
 RUS  HZ EP       16 1 29.89                             143   -0.1210  102 173 
 RUS  HN ES       16 1 48.18                             143   -0.4410  102 173 
 RUS  HZ I        16 1 49.77         5.3 0.18            147            102 173 
 SPBC HZ EP       16 1 34.52                             129    0.06 9  161 217 
 SPBC HE ES       16 1 56.99                             129    0.45 9  161 217 
 SPBC HZ I        16 1 59.97        15.9 0.12            132            161 217 
 ZAR  HZ EP   1   16 1 37.96                             123   -0.11 6  199 292 
 ZAR  HN ES       16 2  3.23                             123    0.26 9  199 292 
 ZAR  HZ I        16 2  9.44         9.8 0.26            125            199 292 
 NOR  HZ EP   1   16 1 41.76                             119    0.22 6  232 233 
 NOR  HN ES       16 2  8.80                             119   -0.35 8  232 233 
 NOR  HZ I        16 2 12.84         7.6 0.16            121            232 233 
 URE  HZ EP   1   16 1 46.96                             114    0.31 6  279 292 
 URE  HN ES   1   16 2 17.31                             114   -0.94 6  279 292 
 GUY2CHZ EP   4   16 1 51.75                             113    2.35 0  298 234 
 GUY2CHN ES       16 2 23.28                             113    0.14 7  298 234 
 GUY2CHZ I        16 2 31.81         3.5 0.42                           298 234 
 MON  HZ EP   1   16 1 54.62                             109    0.01 5  349 309 
 MON  HE ES       16 2 31.74                             109   -0.67 6  349 309 
 MON  HZ I        16 2 34.13         1.8 0.33            111            349 309 
                                                                                
