 2011  6 6 1207 15.0 L   6.821 -73.142144.0  RSN  4 0.3 1.4LRSN                1
 GAP=136        0.67       5.2     7.4  7.8  0.1051E+02 -0.1730E+02 -0.2408E+01E
 Epicentro: LOS SANTOS - SANTANDER                                             3
 ACTION:UP  11-07-14 19:03 OP:ep   STATUS:               ID:20110606120715 L   I
 2011-06-06-1204-52S.COL___132                                                 6
 STAT SP IPHASW D HRMM SECON CODA AMPLIT PERI AZIMU VELO SNR AR TRES W  DIS CAZ7
 BAR2 SZ ES   1   12 7 49.15                             169    -0.5 7   26 190 
 BAR2 SZ I        12 7 53.06         4.6 0.52                            26 190 
 BRR  HZ EP   1   12 7 35.92                             152     0.0 7   70 297 
 BRR  HE ES       12 7 52.39                             152     0.110   70 297 
 BRR  HZ I        12 7 56.78        15.6 0.40                            70 297 
 PAM  SZ EP   1   12 7 36.90                             151     0.0 7   75  40 
 PAM  SN ES   2   12 7 54.39                             151     0.4 5   75  40 
 RUS  HZ EP   1   12 7 38.72                             143    -0.1 7  103 176 
 RUS  HE ES   1   12 7 57.67                             143     0.4 7  103 176 
 RUS  HZ I        12 7 58.09         1.2 0.29                           103 176 
                                                                                
