 2017  7 6 1900 14.6 L   6.873 -73.125146.6  RSN 18 0.8 2.3LRSN                1
 GAP=111        1.75       4.9     6.3  8.5 -0.6810E+00  0.1204E+02  0.6219E+01E
 Epicentro: LOS SANTOS - SANTANDER                                             3
 ACTION:UPD 17-08-30 15:30 OP:rebc STATUS:               ID:20170706190014 L   I
 OLDACT:UP  17-07-07 02:11 OP:osc  STATUS:               ID:20170706185740d    3
 OLDACT:UP  17-07-07 02:10 OP:osc  STATUS:               ID:20170706185740d    3
 OLDACT:DUP 17-07-07 01:55 OP:osc  STATUS:               ID:20170706185740d    3
 OLDACT:UP  17-07-07 01:38 OP:osc  STATUS:               ID:20170706185739     3
 OLDACT:UP  17-07-07 01:30 OP:osc  STATUS:               ID:20170706185739     3
 OLDACT:UP  17-07-07 01:20 OP:osc  STATUS:               ID:20170706185739     3
 OLDACT:REG 17-07-06 23:18 OP:ar   STATUS:               ID:20170706185739     3
 2017-07-06-1858-00M.COL___380                                                 6
 STAT SP IPHASW D HRMM SECON CODA AMPLIT PERI AZIMU VELO AIN AR TRES W  DIS CAZ7
 BAR2 EZ EP       19 0 33.81                             167   -0.7310 31.7 191 
 BAR2 EZ ES       19 0 48.60                             167   -1.4810 31.7 191 
 BAR2 EZ I        19 0 50.11        44.2 0.34            161           31.7 191 
 PAM  EZ EP       19 0 36.95                             153    0.4610 69.8  42 
 PAM  EE ES       19 0 54.16                             153    0.6110 69.8  42 
 PAM  EZ I        19 0 56.24        27.5 0.52            144           69.8  42 
 BRR  HZ EP       19 0 36.12                             153    0.3510 69.8 292 
 BRR  HE ES       19 0 52.99                             153    0.7110 69.8 292 
 BRR  HZ I        19 0 53.73        23.3 0.30            139           69.8 292 
 PTB  HZ EP   9   19 0 40.79                             131   -1.21 0  152 256 
 PTB  HE ES       19 1  2.40                                    0.24 9  152 256 
 PTB  HZ I        19 1  8.11        12.6 0.20            117            152 256 
 YPLC HZ EP       19 0 44.46                             126   -0.61 9  183 153 
 YPLC HE ES       19 1  9.41                             126    0.59 9  183 153 
 YPLC HZ I        19 1 11.16         9.8 0.34            114            183 153 
 ZAR  HZ EP       19 0 47.59                             123    0.56 9  203 290 
 ZAR  HE ES       19 1 12.15                             123   -0.16 9  203 290 
 ZAR  HZ I        19 1 17.39        19.7 0.36            109            203 290 
 TABC EZ EP       19 0 52.38                             118    1.11 8  238 210 
 TABC EZ ES       19 1 21.24                             118    1.37 8  238 210 
 TABC EZ I        19 1 26.84        16.8 0.60            107            238 210 
 NOR  HZ EP       19 0 50.19                             118   -0.90 8  241 233 
 NOR  HE ES       19 1 18.72                             118   -0.83 8  241 233 
 NOR  HZ I        19 1 27.36        10.1 0.38            106            241 233 
 ROSC BZ EP       19 0 54.48                             116    0.82 8  261 211 
 ROSC BN ES       19 1 23.93                             116   -0.18 8  261 211 
 ROSC BZ I        19 1 28.83        23.0 0.40            104            261 211 
 HEL  HZ EP       19 0 56.27                             114    0.93 7  276 254 
 HEL  HE ES   4   19 1 29.66                             114    2.56 0  276 254 
 HEL  HZ I        19 1 32.10         8.9 0.30            103            276 254 
 URE  HZ EP   4   19 0 51.89                             114   -3.74 0  283 290 
 URE  HN ES   4   19 1 25.83                             114   -1.79 0  283 290 
 URE  HZ I        19 1 40.89         8.6 0.22            102            283 290 
 GUY2CHZ EP       19 0 59.07                             112    0.07 7  308 234 
 GUY2CHE ES   4   19 1 36.97                             112    3.36 0  308 234 
 GUY2CHZ I        19 1 40.28         9.1 0.34                           308 234 
 VIL  EE ES       19 1 32.61                             111   -1.03 7  312 192 
 LL6C HZ EP       19 0 58.71                             111   -0.73 7  317 357 
 LL6C HN ES   4   19 1 35.86                             111    1.45 0  317 357 
 ELA  HZ EP   4   19 1  4.39                             110    2.09 0  336 229 
 ELA  HN ES       19 1 38.87                             110   -0.62 7  336 229 
 ELA  HZ I        19 1 50.59         7.3 0.48             99            336 229 
 DBB  EE ES   4   19 1 37.53                             109   -2.00 0  341 273 
 ORTC HZ EP   4   19 1  7.89                             106   -1.59 0  403 216 
 ORTC HZ I        19 1 55.42         6.4 0.22             95            403 216 
 SJC  HZ EP       19 1  8.24                             106   -1.32 6  404 326 
 SJC  HE ES       19 1 52.11                             106   -0.30 6  404 326 
 SJC  HZ I        19 1 58.04         4.0 0.42             95            404 326 
 CRJC HZ EP   9   19 1 14.44                             104   -1.72 0  459   3 
 CRJC HE ES       19 2  2.44                             104   -0.01 5  459   3 
 CRJC HZ I        19 2 45.35        90.9 1.12                           459   3 
                                                                                
