 2012  4 6 1248 30.2 L   6.787 -73.168146.0  RSN  7 0.4 1.8LRSN                1
 GAP=134        0.90       5.6     5.4  8.0 -0.8755E+00  0.7852E+01 -0.2921E+00E
 Epicentro: LOS SANTOS - SANTANDER                                             3
 ACTION:UPD 12-07-05 11:51 OP:tino STATUS:               ID:20120406124830 L   I
 2012-04-06-1240-00M.COL___196                                                 6
 STAT SP IPHASW D HRMM SECON CODA AMPLIT PERI AZIMU VELO AIN AR TRES W  DIS CAZ7
 BAR2 SZ EP       1248 49.90                             171     0.010   22 184 
 BAR2 SZ I        1248 50.08        25.7 0.42                            22 184 
 BAR2 SZ ES   1   1249  4.96                             171    -0.2 7   22 184 
 BRR  HZ EP       1248 51.77                             153     0.410   70 301 
 BRR  HZ I        1249  3.60        18.3 0.52                            70 301 
 BRR  HN ES   2   1249  8.86                             153     1.1 5   70 301 
 PAM  SZ EP       1248 52.76                             150     0.110   80  40 
 PAM  SN ES   1   1249  9.53                             150    -0.6 7   80  40 
 RUS  HZ EP       1248 53.84                             144    -0.110   99 175 
 RUS  HZ I        1248 54.81         4.4 0.26                            99 175 
 RUS  HN ES   1   1249 12.65                             144     0.3 7   99 175 
 PTB  HZ EP   1   1248 56.52                             132    -0.5 7  145 259 
 PTB  HN ES   1   1249 17.33                             132    -0.5 7  145 259 
 PTB  HZ I        1249 23.18         8.6 0.26                           145 259 
 ZAR  HZ EP   2   1249  2.27                             122    -0.2 4  202 293 
 ZAR  HN ES   2   1249 27.73                             122     0.0 4  202 293 
 CHI  HZ EP   2   1249  7.97                             117     0.2 4  247 195 
 CHI  HZ I        1249 42.78         3.2 0.26                           247 195 
                                                                                
