 2017  7 6 1902  9.6 L   6.804 -73.173138.0  RSN 14 0.5 2.0LRSN                1
 GAP=109        0.92       3.4     2.9  5.1  0.1415E+01  0.5268E+01  0.4926E+01E
 Epicentro: LOS SANTOS - SANTANDER                                             3
 ACTION:UPD 17-08-30 15:30 OP:rebc STATUS:               ID:20170706190209 L   I
 OLDACT:UP  17-07-07 01:38 OP:osc  STATUS:               ID:20170706185739     3
 OLDACT:UP  17-07-07 01:30 OP:osc  STATUS:               ID:20170706185739     3
 OLDACT:UP  17-07-07 01:20 OP:osc  STATUS:               ID:20170706185739     3
 OLDACT:REG 17-07-06 23:18 OP:ar   STATUS:               ID:20170706185739     3
 2017-07-06-1858-00M.COL___380                                                 6
 STAT SP IPHASW D HRMM SECON CODA AMPLIT PERI AZIMU VELO AIN AR TRES W  DIS CAZ7
 BAR2 EZ EP       19 2 28.10                             170   -0.1810 23.4 183 
 BAR2 EZ ES       19 2 42.80                             170   -0.0710 23.4 183 
 BAR2 EZ I        19 2 43.83        44.2 0.20            168           23.4 183 
 BRR  HZ EP       19 2 29.93                             152    0.2010 68.4 299 
 BRR  HE ES       19 2 45.07                             152   -0.3810 68.4 299 
 BRR  HZ I        19 2 49.95        21.6 0.32            152           68.4 299 
 PAM  EZ EP       19 2 30.94                             149   -0.1410 79.0  41 
 PAM  EE ES       19 2 47.94                             149    0.0910 79.0  41 
 PAM  EZ I        19 2 49.96        29.3 0.48            154           79.0  41 
 PTB  HZ EP   9   19 2 34.78                             131   -0.88 0  145 258 
 PTB  HE ES       19 2 54.93                                   -0.19 9  145 258 
 PTB  HZ I        19 2 59.09         9.9 0.20            131            145 258 
 YPLC HZ EP       19 2 38.47                             124   -0.54 9  179 151 
 YPLC HE ES       19 3  2.51                             124    0.55 9  179 151 
 YPLC HZ I        19 3  5.69        11.8 0.38            126            179 151 
 ZAR  HZ EP       19 2 41.24                             121    0.01 9  201 292 
 ZAR  HE ES       19 3  6.87                             121    0.96 9  201 292 
 ZAR  HZ I        19 3 12.67        14.1 0.30            122            201 292 
 NOR  HZ EP       19 2 44.40                             117   -0.23 8  232 234 
 NOR  HN ES       19 3 12.06                             117    0.09 8  232 234 
 NOR  HZ I        19 3 17.83         6.1 0.28            118            232 234 
 HEL  HE ES   2   19 3 19.70                             113   -0.22 4  269 256 
 URE  HZ EP       19 2 50.36                             112    0.40 7  281 292 
 URE  HN ES       19 3 21.32                             112   -0.12 7  281 292 
 GUY2CHZ EP       19 2 52.93                             111    0.34 7  299 234 
 GUY2CHE ES       19 3 25.66                             111   -0.48 7  299 234 
 GUY2CHZ I        19 3 35.58         3.3 0.30                           299 234 
 ELA  HZ EP   2   19 2 54.44                             109   -1.44 3  327 229 
 ELA  HN ES   2   19 3 32.01                             109    0.01 3  327 229 
 ELA  HZ I        19 3 37.70         4.0 0.40            110            327 229 
 DBB  EE ES       19 3 32.20                             108   -0.72 7  336 274 
 ORTC HE ES       19 3 45.66                             105    0.86 6  394 216 
 ORTC HZ I        19 3 51.21         2.2 0.30            106            394 216 
 SJC  HZ EP   4   19 3  2.99                             104   -1.68 0  407 327 
 SJC  HE ES   4   19 3 44.60                             104   -3.03 0  407 327 
 SJC  HZ I        19 3 48.32         2.8 0.54            106            407 327 
                                                                                
