 2015 10 6 1819 11.5 L   6.818 -73.105144.8  RSN 11 0.4 2.1LRSN                1
 GAP=141        0.93       2.8     4.4  6.0 -0.2350E+01  0.7246E+01  0.1979E+01E
 Epicentro: LOS SANTOS - SANTANDER                                             3
 ACTION:UPD 15-12-22 20:37 OP:cam  STATUS:               ID:20151006181911 L   I
 OLDACT:REG 15-10-06 21:41 OP:spq  STATUS:               ID:20151006181751     3
 2015-10-06-1817-51M.COL___313                                                 6
 STAT SP IPHASW D HRMM SECON CODA AMPLIT PERI AZIMU VELO AIN AR TRES W  DIS CAZ7
 BAR2 EZ EP       1819 30.77                             169   -0.3010 26.3 199 
 BAR2 EZ ES   1   1819 45.81                             169   -0.53 7 26.3 199 
 BAR2 EZ I        1819 46.82        12.4 0.22            168           26.3 199 
 PAM  EN ES       1819 50.95                             152    0.5510 73.1  38 
 PAM  EZ I        1819 52.92        34.4 0.44            155           73.1  38 
 BRR  HZ EP   1   1819 33.05                             151    0.33 7 74.3 296 
 BRR  HE ES       1819 49.81                             151    0.5410 74.3 296 
 BRR  HZ I        1819 54.10        22.2 0.16            150           74.3 296 
 RUS  HZ EP   1   1819 35.60                             143    0.32 7  102 179 
 RUS  HE ES   1   1819 53.75                             143   -0.07 7  102 179 
 RUS  HZ I        1819 55.23         8.2 0.30            144            102 179 
 OCA  HZ EP       1819 39.68                             130    0.07 9  159 351 
 OCA  HN ES       1820  0.92                             130   -0.61 9  159 351 
 OCA  HZ I        1820  7.30        28.4 0.44            131            159 351 
 SPBC HZ EP   1   1819 40.31                             128   -0.03 7  168 220 
 SPBC HN ES       1820  2.17                             128   -0.66 9  168 220 
 SPBC HZ I        1820  9.51        20.9 0.22            128            168 220 
 ZAR  HZ EP   4   1819 45.72                             122    1.48 0  207 291 
 ZAR  HE ES       1820  9.51                             122   -0.26 8  207 291 
 ZAR  HZ I        1820 14.68        19.2 0.40            122            207 291 
 NOR  HZ EP   1   1819 48.12                             118    0.43 6  239 235 
 NOR  HE ES       1820 16.12                             118    0.21 8  239 235 
 NOR  HZ I        1820 18.32         6.4 0.26            118            239 235 
 SML  HZ EP   1   1819 47.74                             117   -0.35 6  244 334 
 SML  HN ES   1   1820 16.43                             117   -0.19 6  244 334 
 SML  HZ I        1820 21.12        13.8 0.24            118            244 334 
 CHI  HZ EP       1819 49.68                             117    0.20 8  252 196 
 CHI  HN ES   1   1820 18.58                             117   -0.52 6  252 196 
 CHI  HZ I        1820 29.59         4.3 0.56            117            252 196 
 GUY2CHZ EP   4   1819 57.34                             112    1.74 0  306 235 
 GUY2CHN ES       1820 30.65                             112    0.65 7  306 235 
 GUY2CHZ I        1820 38.66         4.6 0.52                           306 235 
                                                                                
