 2011 12 6 1920 15.9 L   6.796 -73.092144.2  RSN 17 0.5 2.6LRSN                1
 GAP=119        0.93       3.4     5.1  6.4 -0.4242E+01  0.7168E+01  0.6595E+01E
 Epicentro: LOS SANTOS - SANTANDER                                             3
 ACTION:UP  12-07-13 16:14 OP:ep   STATUS:               ID:20111206192016 L   I
 OLDACT:UPD 12-07-12 22:32 OP:ep   STATUS:               ID:20111206192016 L   3
 2011-12-06-1920-00M.COL___319                                                 6
 STAT SP IPHASW D HRMM SECON CODA AMPLIT PERI AZIMU VELO AIN AR TRES W  DIS CAZ7
 BAR2 SZ IP       1920 35.27                             170   -0.0910 24.7 204 
 BAR2 SZ I        1920 52.79       132.3 0.32                          24.7 204 
 GIR2 SZ EP       1920 35.38                             166   -0.0510 33.2 340 
 GIR2 SZ ES   1   1920 50.78                             166    0.12 7 33.2 340 
 PAM  SZ EP   1   1920 37.99                             151    0.25 7 74.1  36 
 PAM  SN ES   1   1920 54.95                             151    0.17 7 74.1  36 
 BRR  HZ IP     C 1920 37.18                             150   -0.0110 76.6 297 
 BRR  HN ES   1   1920 53.88                             150    0.09 7 76.6 297 
 BRR  HZ I        1920 55.77       111.7 0.10                          76.6 297 
 RUS  HZ EP   1   1920 39.12                             144   -0.32 7 99.9 179 
 RUS  HN ES   1   1920 57.36                             144   -0.44 7 99.9 179 
 RUS  HZ I        1921  0.00        26.6 0.37                          99.9 179 
 BRI  SZ EP   1   1920 39.99                             141    0.48 7  107  18 
 OCA  SZ EP   1   1920 44.20                             129    0.01 7  161 351 
 OCA  SZ I        1921  9.89        75.5 0.20                           161 351 
 YOP  SZ EP   1   1920 45.86                             126    0.33 7  176 155 
 YOP  SE ES   1   1921  7.69                             126   -0.95 7  176 155 
 YOP  SZ I        1921 11.99        29.6 0.54                           176 155 
 CTAU SZ EP   1   1920 49.07                             122    0.04 6  205 211 
 CTAB SZ EP   1   1920 52.61                             118    0.77 6  233 212 
 CTAB SZ ES   1   1921 20.58                             118    0.71 6  233 212 
 NOR  SZ EP   1   1920 51.16                             118   -0.86 6  239 235 
 NOR  SE ES   1   1921 19.37                             118   -0.84 6  239 235 
 CHI  HZ EP   1   1920 53.37                             117   -0.26 6  250 197 
 CHI  HN ES   1   1921 24.02                             117    0.95 6  250 197 
 CHI  HZ I        1921 28.69        28.4 0.24                           250 197 
 ROSC BN ES   1   1921 24.90                             116    0.78 6  256 212 
 HEL  HZ EP   1   1920 55.90                             114   -0.75 6  278 256 
 HEL  HZ I        1921 35.78        31.9 0.22                           278 256 
 RREF HN ES   1   1921 38.23                             110   -0.54 5  326 230 
 TOL  SZ EP   1   1921  5.22                             109    0.69 5  347 225 
 PRA  HZ EP   1   1921  8.78                             106   -0.88 4  395 210 
 PRA  HN ES   1   1921 52.45                             106    0.85 4  395 210 
                                                                                
