 2012 12 6 1757 52.8 L   6.776 -73.157135.7  RSN  5 0.3 1.9LRSN                1
 GAP=136        0.90       4.6     4.1  7.5 -0.7383E+00  0.1045E+02 -0.3219E+01E
 Epicentro: LOS SANTOS - SANTANDER                                             3
 ACTION:UPD 13-01-04 14:26 OP:ep   STATUS:               ID:20121206175752 L   I
 2012-12-06-1750-00M.COL___235                                                 6
 STAT SP IPHASW D HRMM SECON CODA AMPLIT PERI AZIMU VELO AIN AR TRES W  DIS CAZ7
 BAR2 SZ EP       1758 11.20                             171    0.0710 20.5 188 
 BAR2 SZ ES       1758 25.09                             171   -0.3610 20.5 188 
 BAR2 SZ I        1758 27.18        14.8 0.44                          20.5 188 
 PAM  SZ EP       1758 14.19                             148    0.0910 80.2  39 
 PAM  SN ES       1758 30.68                             148   -0.0610 80.2  39 
 PAM  SN I        1758 32.12        11.5 0.26                          80.2  39 
 RUS  HZ EP       1758 15.31                             142   -0.0310 98.0 175 
 RUS  HN ES       1758 33.45                             142    0.5010 98.0 175 
 RUS  HN I        1758 34.29         8.1 0.24                          98.0 175 
 PTB  HZ EP       1758 18.23                             130   -0.54 9  146 260 
 PTB  HN ES       1758 38.82                             130   -0.23 9  146 260 
 PTB  HN I        1758 41.37        27.3 0.36                           146 260 
 ZAR  HN ES       1758 50.01                             120    0.64 9  204 293 
                                                                                
