 2014 10 6 1328 22.1 L   6.792 -73.153138.0  RSN 12 0.6 2.2LRSN                1
 GAP=136        1.39       3.9     5.3  7.1 -0.1925E+01  0.1088E+02  0.1944E+01E
 Epicentro: LOS SANTOS - SANTANDER                                             3
 ACTION:UPD 14-11-29 23:47 OP:nd   STATUS:               ID:20141006132822 L   I
 OLDACT:DUP 14-10-07 00:45 OP:stll STATUS:               ID:20141006131749d    3
 2014-10-06-1317-48M.COL___292                                                 6
 STAT SP IPHASW D HRMM SECON CODA AMPLIT PERI AZIMU VELO AIN AR TRES W  DIS CAZ7
 BAR2 SZ IP       1328 41.00                             170    0.2010 22.4 188 
 BAR2 SZ ES       1328 55.48                             170    0.1210 22.4 188 
 BAR2 SZ I        1328 56.68        66.1 0.18            170           22.4 188 
 BRR  HZ IP     C 1328 42.95                             151    0.5410 70.9 299 
 BRR  HN ES       1328 59.02                             151    0.7810 70.9 299 
 BRR  HZ I        1329  1.52        22.4 0.16            151           70.9 299 
 PAM  SZ IP     D 1328 43.91                             149    0.3210 78.5  40 
 PAM  SZ I        1328 44.21        47.9 0.20            151           78.5  40 
 PAM  SN ES       1329  0.54                             149    0.2110 78.5  40 
 RUS  HZ EP       1328 45.02                             143   -0.0410 99.8 176 
 RUS  HN ES       1329  2.51                             143   -0.4410 99.8 176 
 RUS  HZ I        1329  5.05        19.9 0.38            144           99.8 176 
 PTB  HZ EP       1328 47.50                             131   -0.87 9  147 259 
 PTB  HE ES       1329  8.23                             131   -0.62 9  147 259 
 PTB  HZ I        1329 11.52        24.9 0.48            131            147 259 
 SPBC HZ EP       1328 49.93                             128    0.01 9  162 219 
 SPBC HZ I        1328 50.35        24.0 0.22            128            162 219 
 SPBC HN ES       1329 11.50                             128   -0.10 9  162 219 
 ZAR  HZ EP       1328 54.61                             121    0.59 9  204 292 
 ZAR  HN ES       1329 18.77                             121   -0.14 9  204 292 
 ZAR  HZ I        1329 22.24        13.7 0.14            121            204 292 
 SML  HZ EP       1328 57.48                             116   -0.89 8  244 336 
 SML  HE ES       1329 25.63                             116   -1.01 8  244 336 
 SML  HZ I        1329 30.00        11.2 0.10            117            244 336 
 CHI  HZ EP       1328 58.83                             116   -0.46 8  248 195 
 CHI  HN ES       1329 27.53                             116   -0.75 8  248 195 
 CHI  HZ I        1329 31.59         5.3 0.46            117            248 195 
 GUY2CHZ EP       1329  6.26                             111    1.01 7  300 235 
 GUY2CHN ES       1329 39.47                             111    0.58 7  300 235 
 GUY2CHZ I        1329 46.05         6.0 0.30                           300 235 
 RREF HZ EP   9   1329  4.44                             110   -3.36 0  321 229 
 RREF HN ES       1329 41.17                                    1.10 7  321 229 
 RREF HZ I        1329 46.05         4.8 0.20            110            321 229 
 TOL  SZ EP       1329 11.02                             108    1.08 7  342 225 
 TOL  SE ES       1329 47.31                             108    0.07 7  342 225 
                                                                                
