 2014  4 6 1559 19.2 L   6.808 -73.192160.3  RSN  7 0.3 1.8LRSN                1
 GAP=178        0.71       3.3     6.2  6.7 -0.1365E+01 -0.1477E+02  0.1147E+01E
 Epicentro: ZAPATOCA - SANTANDER                                               3
 ACTION:UPD 14-05-13 23:06 OP:nd   STATUS:               ID:20140406155919 L   I
 OLDACT:UP  14-04-06 20:38 OP:cam  STATUS:               ID:20140406155811     3
 OLDACT:REG 14-04-06 19:51 OP:cam  STATUS:               ID:20140406155811     3
 2014-04-06-1558-11M.COL___259                                                 6
 STAT SP IPHASW D HRMM SECON CODA AMPLIT PERI AZIMU VELO AIN AR TRES W  DIS CAZ7
 BRR  HZ EP     C 1559 41.94                             157    0.2510 66.4 300 
 BRR  HE ES       1559 59.44                             157    0.2110 66.4 300 
 BRR  HZ I        16 0  2.94         7.9 0.36            147           66.4 300 
 RUS  HZ EP   1   1559 43.94                             146   -0.55 7  102 173 
 PTB  HZ EP       1559 46.98                             136    0.00 9  143 258 
 PTB  HN ES       16 0  8.18                             136   -0.46 9  143 258 
 PTB  HZ I        16 0 15.43        10.8 0.40            130            143 258 
 OCA  HZ EP   2   1559 49.17                             133    0.62 5  159 355 
 OCA  HN ES   2   16 0 11.30                             133   -0.15 5  159 355 
 SPBC HZ EP       1559 48.97                             133    0.34 9  161 217 
 SPBC HE ES   1   16 0 11.68                             133    0.10 7  161 217 
 SPBC HZ I        16 0 16.01         5.1 0.12            129            161 217 
 ZAR  HZ EP   1   1559 51.87                             126   -0.27 6  199 292 
 ZAR  HE ES   1   16 0 18.29                             126    0.47 6  199 292 
 ZAR  HZ I        16 0 28.55         5.2 0.20            122            199 292 
 SML  HZ EP   1   1559 56.30                             121   -0.08 6  241 336 
 SML  HN ES       16 0 25.03                             121   -0.35 8  241 336 
 SML  HZ I        16 0 28.62         7.8 0.22            119            241 336 
                                                                                
