 2014  3 6 1615 38.9 L   6.214 -73.835 91.1  RSN 11 0.4 1.8LRSN                1
 GAP= 63        1.12       2.6     2.6  6.7 -0.1321E+01  0.3358E+01 -0.6648E-01E
 Epicentro: LANDAZURI - SANTANDER                                              3
 ACTION:UPD 14-04-09 23:15 OP:nd   STATUS:               ID:20140306161538 L   I
 OLDACT:REG 14-03-06 15:23 OP:stll STATUS:               ID:20140306160819     3
 2014-03-06-1608-19M.COL___244                                                 6
 STAT SP IPHASW D HRMM SECON CODA AMPLIT PERI AZIMU VELO AIN AR TRES W  DIS CAZ7
 SPBC HZ EP       1615 54.50                             141    0.2010 67.5 203 
 SPBC HN ES       1616  6.64                             141    0.3010 67.5 203 
 SPBC SZ I        1616  8.19        31.7 0.20            145           67.5 203 
 PTB  HZ IP     D 1615 54.49                             136   -0.5410 77.6 298 
 PTB  HN ES       1616  7.44                             136   -0.1910 77.6 298 
 PTB  SZ I        1616 11.51        39.0 0.12            139           77.6 298 
 BAR2 SZ IP     C 1615 56.01                             134    0.1710 83.4  60 
 BAR2 SZ ES       1616  9.37                             134    0.3010 83.4  60 
 RUS  HZ EP       1615 56.36                             132   -0.4610 90.5 113 
 RUS  HN ES       1616 10.44                             132   -0.3710 90.5 113 
 RUS  SZ I        1616 11.86        12.7 0.90            136           90.5 113 
 BRR  HZ IP     D 1615 57.39                             129    0.3710 99.7   8 
 BRR  HN ES       1616 11.85                             129    0.6810 99.7   8 
 BRR  SZ I        1616 18.67        15.1 0.38            131           99.7   8 
 NOR  HZ EP       1616  0.28                             120   -0.46 9  135 238 
 NOR  HN ES       1616 17.03                             120   -0.77 9  135 238 
 NOR  SZ I        1616 21.04         9.9 0.40            123            135 238 
 CHI  HZ EP       1616  6.00                             113    0.33 9  176 176 
 CHI  HN ES       1616 27.17                             113    0.60 9  176 176 
 CHI  SZ I        1616 32.51         8.9 2.52            115            176 176 
 PAM  SZ EP       1616  5.53                             113   -0.36 9  177  45 
 PAM  SN ES       1616 26.19                             113   -0.77 9  177  45 
 PAM  SZ I        1616 31.80         9.5 0.26            115            177  45 
 ZAR  HZ EP       1616  5.98                             112    0.21 9  181 321 
 ZAR  HE ES       1616 26.77                             112    0.01 9  181 321 
 HEL  HZ EP       1616  7.47                             111    0.50 9  188 269 
 HEL  HN ES       1616 28.91                             111    0.02 9  188 269 
 HEL  SZ I        1616 31.85         6.9 0.32            113            188 269 
 GUY2CHZ EP       1616  9.33                             110    0.57 9  202 237 
 GUY2CHN ES       1616 31.82                             110   -0.25 9  202 237 
 GUY2CSZ I        1616 38.49         5.4 0.20                           202 237 
                                                                                
