 2014 10 6 1055  7.8 L   7.407 -73.407111.9  RSN  5 0.4 1.3LRSN                1
 GAP=136        1.02       4.6     5.2  9.4 -0.5038E+01  0.1597E+02  0.6395E+01E
 Epicentro: SABANA DE TORRES - SANTANDER                                       3
 ACTION:UPD 14-11-29 23:47 OP:nd   STATUS:               ID:20141006105507 L   I
 OLDACT:REG 14-10-06 20:37 OP:stll STATUS:               ID:20141006104747     3
 2014-10-06-1047-47M.COL___289                                                 6
 STAT SP IPHASW D HRMM SECON CODA AMPLIT PERI AZIMU VELO AIN AR TRES W  DIS CAZ7
 BRR  HZ EP       1055 24.33                             155    0.4010 47.3 225 
 BRR  HZ I        1055 24.52         5.2 0.42            155           47.3 225 
 BRR  HN ES       1055 36.98                             155    0.4510 47.3 225 
 PAM  SN ES       1055 41.58                             143    0.3110 78.4  95 
 OCA  HN ES       1055 41.97                             138   -0.4310 92.5   6 
 BAR2 SZ EP       1055 27.58                             137    0.1610 93.5 165 
 BAR2 SZ I        1055 27.72         5.7 0.18            137           93.5 165 
 BAR2 SZ ES       1055 42.08                             137   -0.6710 93.5 165 
 PTB  HZ EP       1055 32.49                             122   -0.01 9  151 230 
 PTB  HN ES       1055 51.54                             122   -0.25 9  151 230 
                                                                                
