 2015  3 6 1210 59.1 L   6.753 -73.123133.6  RSN  5 0.3 1.5LRSN                1
 GAP=162        0.76       6.7     4.2  6.6  0.8638E+01 -0.4243E+01 -0.1724E+02E
 Epicentro: LOS SANTOS - SANTANDER                                             3
 ACTION:UPD 15-04-30 16:23 OP:nd   STATUS:               ID:20150306121059 L   I
 OLDACT:REG 15-03-06 20:22 OP:stll STATUS:               ID:20150306120748     3
 2015-03-06-1207-48M.COL___284                                                 6
 STAT SP IPHASW D HRMM SECON CODA AMPLIT PERI AZIMU VELO AIN AR TRES W  DIS CAZ7
 BAR2 EZ EP       1211 17.11                             171   -0.0210 18.9 200 
 BAR2 EZ ES       1211 31.16                             171   -0.0710 18.9 200 
 BAR2 EZ I        1211 32.85         5.8 0.30            171           18.9 200 
 BRR  HZ EP       1211 19.33                             149    0.1410 75.9 301 
 RUS  HZ EP       1211 21.67                             143    0.4410 95.3 177 
 RUS  HZ I        1211 22.01         3.7 0.48            144           95.3 177 
 RUS  HE ES       1211 38.34                             143   -0.1810 95.3 177 
 PTB  HZ EP       1211 24.61                             129   -0.59 9  149 261 
 PTB  HN ES       1211 45.86                             129    0.27 9  149 261 
 PTB  HZ I        1211 47.94         4.7 0.18            129            149 261 
 TAM  HZ EP       1211 25.41                             128   -0.03 9  151 103 
 TAM  HZ I        1211 25.90         9.7 0.48            130            151 103 
                                                                                
