 2011  7 6 1228 52.7 L   6.780 -73.102143.2  RSN  7 0.2 2.1LRSN                1
 GAP=164        0.41       2.0     3.5  3.4 -0.2051E+01  0.1071E+01  0.1594E+00E
 Epicentro: LOS SANTOS - SANTANDER                                             3
 ACTION:UPD 12-07-25 13:58 OP:epov STATUS:               ID:20110706122852 L   I
 2011-07-06-1227-32S.COL___123                                                 6
 STAT SP IPHASW D HRMM SECON CODA AMPLIT PERI AZIMU VELO AIN AR TRES W  DIS CAZ7
 BAR2 SZ EP   1   1229 11.94                             171   -0.02 7 22.6 203 
 BAR2 SZ ES   1   1229 27.22                             171    0.19 7 22.6 203 
 BAR2 SZ I        1229 28.01        33.0 0.26                          22.6 203 
 BRR  HZ EP   1   1229 14.01                             150    0.17 7 76.5 298 
 BRR  HN ES   1   1229 30.51                             150    0.14 7 76.5 298 
 BRR  HZ I        1229 33.99        31.4 0.23                          76.5 298 
 RUS  HZ EP   1   1229 15.99                             144    0.01 7 98.1 179 
 RUS  HN ES   1   1229 34.06                             144   -0.11 7 98.1 179 
 RUS  HZ I        1229 36.47        14.9 0.30                          98.1 179 
 GRA  SZ EP   1   1229 17.67                             136   -0.07 7  127  15 
 GRA  SZ ES   1   1229 37.08                             136   -0.22 7  127  15 
 GRA  SZ I        1229 39.90        12.6 0.50                           127  15 
 OCA  SZ EP   1   1229 21.39                             129    0.35 7  163 352 
 OCA  SZ ES   2   1229 42.66                             129   -0.52 5  163 352 
 OCA  SZ I        1229 45.42        22.6 0.20                           163 352 
 NOR  SZ EP   1   1229 28.41                             118   -0.12 6  237 236 
 NOR  SN ES   1   1229 56.24                             118   -0.27 6  237 236 
 CHI  HZ EP   1   1229 30.19                             117    0.07 6  248 196 
 CHI  HZ I        1230  6.88         7.5 0.43                           248 196 
                                                                                
