 2013  6 6 1839  7.8 L   6.790 -73.161140.3  RSN 11 0.5 2.3LRSN                1
 GAP=181        1.12       5.0     5.7  6.4  0.6607E+01  0.4844E+01 -0.7171E+01E
 Epicentro: LOS SANTOS - SANTANDER                                             3
 ACTION:UPD 14-01-08 09:52 OP:ep   STATUS:               ID:20130606183907 L   I
 OLDACT:REG 13-06-06 20:55 OP:nd   STATUS:               ID:20130606183836     3
 2013-06-06-1838-36M.COL___232                                                 6
 STAT SP IPHASW D HRMM SECON CODA AMPLIT PERI AZIMU VELO AIN AR TRES W  DIS CAZ7
 BAR2 SZ IP     D 1839 26.78                             171    0.0310 22.0 186 
 BAR2 SZ ES       1839 41.20                             171   -0.3310 22.0 186 
 BAR2 SZ I        1839 42.51        49.5 0.32            165           22.0 186 
 GIR2 SZ IP     C 1839 26.77                             166   -0.0810 32.1 354 
 GIR2 SZ ES       1839 42.17                             166    0.4610 32.1 354 
 GIR2 SZ I        1839 43.74        28.5 0.46            167           32.1 354 
 BRR  HZ IP     C 1839 28.57                             152    0.2610 70.3 300 
 BRR  HN ES       1839 44.15                             152   -0.1610 70.3 300 
 BRR  HZ I        1839 48.52        27.4 0.40            149           70.3 300 
 RUS  HZ EP       1839 30.89                             143   -0.0610 99.6 175 
 RUS  HN ES       1839 49.27                             143    0.2710 99.6 175 
 RUS  HZ I        1839 51.72        11.4 0.26            144           99.6 175 
 PTB  HZ EP       1839 33.38                             131   -0.78 9  146 259 
 PTB  HN ES       1839 54.26                             131   -0.45 9  146 259 
 PTB  HZ I        1839 56.34        31.0 0.14            131            146 259 
 OCA  HZ EP       1839 36.01                             128    0.23 9  161 354 
 OCA  HN ES   2   1839 56.75                             128   -0.86 5  161 354 
 OCA  HZ I        1839 59.84        24.3 0.22            133            161 354 
 ZAR  HZ EP       1839 40.82                             121    1.04 9  203 293 
 ZAR  HN ES       1840  5.13                             121    0.41 9  203 293 
 ZAR  HZ I        1840 10.11        31.1 0.30            123            203 293 
 SML  HZ EP       1839 43.56                             116   -0.60 8  244 336 
 SML  HN ES   4   1840 13.69                             116    1.17 0  244 336 
 SML  HZ I        1840 21.94        24.8 0.24            120            244 336 
 URE  HZ EP   4   1839 47.31                             113   -1.17 0  283 292 
 URE  HN ES   4   1840 18.40                             113   -1.81 0  283 292 
 URE  HZ I        1840 24.20        18.4 0.14            115            283 292 
 GUY2CHZ EP   4   1839 51.47                             111    0.54 0  299 235 
 GUY2CHN ES   4   1840 26.44                             111    1.87 0  299 235 
 GUY2CHZ I        1840 34.53         8.2 0.66                           299 235 
 COD  HZ EP   4   1839 46.69                             108   -9.39 0  349 355 
 COD  HN ES   4   1840  4.04                             108   -29.7 0  349 355 
 COD  HZ I        1840  5.88        11.0 0.30            112            349 355 
                                                                                
