 2014 11 6 1020  0.6 L   6.738 -73.133148.0  RSN  7 0.5 1.7LRSN                1
 GAP=234        1.13       6.2     6.5  8.5  0.3090E+01  0.5943E+01  0.3271E+01E
 Epicentro: LOS SANTOS - SANTANDER                                             3
 ACTION:UPD 14-12-19 15:39 OP:nd   STATUS:               ID:20141106102000 L   I
 OLDACT:UP  14-11-06 22:27 OP:cam  STATUS:               ID:20141106101816     3
 OLDACT:REG 14-11-06 19:35 OP:cam  STATUS:               ID:20141106101816     3
 2014-11-06-1018-16M.COL___280                                                 6
 STAT SP IPHASW D HRMM SECON CODA AMPLIT PERI AZIMU VELO AIN AR TRES W  DIS CAZ7
 BAR2 SZ EP       1020 20.33                             173   -0.0110 17.0 199 
 BRR  HZ EP       1020 22.13                             151   -0.0810 75.9 303 
 BRR  HN ES       1020 39.40                             151    0.3010 75.9 303 
 BRR  HN I        1020 40.50        13.5 0.18            151           75.9 303 
 RUS  HZ EP       1020 24.17                             146    0.1310 93.6 177 
 RUS  HE ES       1020 42.18                             146   -0.1810 93.6 177 
 PTB  HZ EP       1020 26.99                             133   -0.73 9  148 262 
 PTB  HN ES       1020 48.65                             133   -0.26 9  148 262 
 PTB  HZ I        1020 52.85         5.1 0.14            132            148 262 
 SPBC HZ EP       1020 28.68                             130   -0.14 9  159 221 
 SPBC HN ES       1020 51.56                             130    0.70 9  159 221 
 SPBC HZ I        1020 59.27         5.7 0.28            130            159 221 
 NOR  HZ EP       1020 35.92                             119   -0.20 8  232 236 
 NOR  HE ES       1021  3.38                             119   -0.48 8  232 236 
 CHI  HN ES   4   1021  8.50                             118    1.82 0  242 196 
 HEL  HZ EP       1020 42.06                             115    1.21 8  272 257 
 GUY2CHZ EP   4   1020 45.40                             113    1.44 0  298 236 
                                                                                
