 2017  2 6 1539 39.1 L   6.790 -73.166143.2  RSN  6 0.3 1.6LRSN                1
 GAP=134        0.65       3.8     3.5  5.2 -0.3007E+01  0.3154E+01 -0.1708E-01E
 Epicentro: LOS SANTOS - SANTANDER                                             3
 ACTION:UPD 17-05-24 15:33 OP:jn   STATUS:               ID:20170206153939 L   I
 OLDACT:UP  17-02-07 01:23 OP:and  STATUS:               ID:20170206153748     3
 OLDACT:UP  17-02-07 01:20 OP:and  STATUS:               ID:20170206153748     3
 OLDACT:REG 17-02-06 20:33 OP:and  STATUS:               ID:20170206153748     3
 2017-02-06-1538-00M.COL___337                                                 6
 STAT SP IPHASW D HRMM SECON CODA AMPLIT PERI AZIMU VELO AIN AR TRES W  DIS CAZ7
 BAR2 EZ IP     D 1539 58.49                             171    0.0510 22.0 185 
 BAR2 EZ ES       1540 13.31                             171   -0.1810 22.0 185 
 BAR2 EZ I        1540 14.42         9.8 0.18            173           22.0 185 
 BRR  HN ES   2   1540 17.34                             153    1.19 5 69.7 300 
 PAM  EZ EP       1540  1.41                             149    0.1810 79.7  40 
 PAM  EN ES       1540 18.30                             149   -0.1610 79.7  40 
 PAM  EZ I        1540 20.59         5.5 0.26            150           79.7  40 
 RUS  HZ EP       1540  2.69                             143    0.1110 99.7 175 
 RUS  HN ES       1540 20.93                             143    0.0710 99.7 175 
 RUS  HZ I        1540 22.40         2.9 0.20            147           99.7 175 
 PTB  HZ EP       1540  5.51                             132   -0.17 9  145 259 
 PTB  HN ES       1540 26.14                             132   -0.24 9  145 259 
 PTB  HZ I        1540 28.56         6.9 0.10            131            145 259 
 ZAR  HZ EP   9   1540 13.10                             122    1.85 0  202 293 
 ZAR  HN ES   2   1540 38.02                                   -0.12 4  202 293 
 ZAR  HZ I        1540 43.03         4.8 0.32            121            202 293 
                                                                                
