 2016  9 6 1036 46.0 L   6.764 -73.144146.2  RSN  6 0.3 1.5LRSN                1
 GAP=235        0.74       4.3     4.6  5.4  0.5530E+01  0.3503E+01  0.1874E+01E
 Epicentro: LOS SANTOS - SANTANDER                                             3
 ACTION:UPD 17-08-17 21:07 OP:lp   STATUS:               ID:20160906103646 L   I
 OLDACT:REG 16-09-06 20:59 OP:lv   STATUS:               ID:20160906102741     3
 2016-09-06-1028-00M.COL___331                                                 6
 STAT SP IPHASW D HRMM SECON CODA AMPLIT PERI AZIMU VELO AIN AR TRES W  DIS CAZ7
 BAR2 EZ EP       1037  5.41                             172   -0.2110 19.5 193 
 BAR2 EZ ES       1037 20.59                             172   -0.3310 19.5 193 
 BAR2 EZ I        1037 21.91         9.9 0.21            166           19.5 193 
 BRR  HZ EP       1037  7.11                             152   -0.2210 73.3 301 
 BRR  HN ES       1037 24.45                             152    0.4910 73.3 301 
 BRR  HZ I        1037 25.60         5.6 0.16            148           73.3 301 
 RUS  HZ EP       1037  9.83                             145    0.3110 96.6 176 
 RUS  HE ES       1037 27.96                             145    0.0910 96.6 176 
 RUS  HZ I        1037 29.40         3.2 0.28            144           96.6 176 
 PTB  HZ EP       1037 12.85                             132   -0.12 9  147 260 
 PTB  HN ES       1037 34.09                             132    0.10 9  147 260 
 PTB  HZ I        1037 39.15         2.2 0.15            130            147 260 
 SPBC HZ EP       1037 14.55                             130    0.28 9  160 220 
 SPBC HN ES       1037 36.05                             130   -0.26 9  160 220 
 SPBC HZ I        1037 41.23         4.0 0.09            128            160 220 
 ZAR  HE ES   2   1037 43.40                             122   -0.72 4  206 293 
 ZAR  HZ I        1037 48.97         3.8 0.08            121            206 293 
                                                                                
