 2012  4 6 1100 41.6 L   6.788 -73.137140.0  RSN  5 0.4 1.3LRSN                1
 GAP=138        0.94       9.0     7.2 12.7 -0.7155E+01  0.7520E+01  0.6014E+02E
 Epicentro: LOS SANTOS - SANTANDER                                             3
 ACTION:UPD 12-07-05 11:51 OP:tino STATUS:               ID:20120406110041 L   I
 2012-04-06-1100-00M.COL___196                                                 6
 STAT SP IPHASW D HRMM SECON CODA AMPLIT PERI AZIMU VELO AIN AR TRES W  DIS CAZ7
 BAR2 SZ EP       11 1  0.53                             170     0.010   22 193 
 BAR2 SZ I        11 1 18.43         4.7 0.46                            22 193 
 BRR  HZ EP       11 1  2.58                             151     0.310   73 299 
 BRR  HZ I        11 1 16.56         8.8 0.28                            73 299 
 BRR  HE ES   1   11 1 18.76                             151     0.4 7   73 299 
 PAM  SZ EP       11 1  3.38                             150     0.110   78  38 
 PAM  SN ES   1   11 1 19.60                             150    -0.5 7   78  38 
 RUS  HZ EP       11 1  4.88                             143     0.210   99 177 
 RUS  HN ES   3   11 1 22.81                             143     0.1 2   99 177 
 RUS  HZ I        11 1 24.55         1.4 0.40                            99 177 
 PTB  HZ EP       11 1  7.63                             131    -0.6 9  148 259 
 PTB  HN ES   3   11 1 27.82                             131    -1.1 2  148 259 
 PTB  HZ I        11 1 32.56         1.9 0.22                           148 259 
                                                                                
