 2011  6 6 1806 38.5 L   6.806 -73.332122.9  RSN  6 0.2 1.7LRSN                1
 GAP= 95        0.46       3.1     4.3  5.5  0.1002E+01  0.2885E+01  0.3366E+01E
 Epicentro: ZAPATOCA - SANTANDER                                               3
 ACTION:UP  11-07-14 19:03 OP:ep   STATUS:               ID:20110606180638 L   I
 2011-06-06-1804-21S.COL___132                                                 6
 STAT SP IPHASW D HRMM SECON CODA AMPLIT PERI AZIMU VELO SNR AR TRES W  DIS CAZ7
 BAR2 SZ EP   1   18 6 55.54                             166     0.0 7   29 145 
 BAR2 SZ ES   1   18 7  8.65                             166    -0.2 7   29 145 
 BAR2 SZ I        18 7  9.81        27.9 0.39                            29 145 
 BRR  HZ EP   1   18 6 55.84                             155    -0.4 7   54 308 
 BRR  HN ES   1   18 7 10.14                             155     0.1 7   54 308 
 BRR  HZ I        18 7 10.75         8.2 0.11                            54 308 
 PAM  SN ES   2   18 7 15.61                             141     0.0 5   91  50 
 RUS  HZ EP   1   18 7  0.46                             137     0.0 7  105 165 
 RUS  HE ES   2   18 7 17.83                             137     0.3 5  105 165 
 OCA  SZ ES   2   18 7 25.94                             124     0.4 5  158   0 
 OCA  SZ I        18 7 27.57         6.8 0.23                           158   0 
 NOR  SN ES   2   18 7 36.89                             115     0.1 4  219 231 
                                                                                
