 2016  2 6 1816 31.3 L   6.800 -73.188138.0  RSN  5 0.2 1.9LRSN                1
 GAP=131        0.64       3.6     3.5  5.1 -0.3043E+01  0.7425E+01 -0.4073E+01E
 Epicentro: ZAPATOCA - SANTANDER                                               3
 ACTION:UPD 16-03-04 21:23 OP:rebc STATUS:               ID:20160206181631 L   I
 OLDACT:REG 16-02-06 21:35 OP:cara STATUS:               ID:20160206180747     3
 2016-02-06-1807-47M.COL___334                                                 6
 STAT SP IPHASW D HRMM SECON CODA AMPLIT PERI AZIMU VELO AIN AR TRES W  DIS CAZ7
 BAR2 EZ EP       1816 49.88                             170   -0.1210 23.0 178 
 BAR2 EZ ES       1817  4.56                             170   -0.0110 23.0 178 
 BAR2 EZ I        1817  5.95        13.3 0.16            172           23.0 178 
 PAM  EZ IP     D 1816 52.91                             148    0.0210 80.4  42 
 PAM  EN ES       1817  9.71                             148   -0.0210 80.4  42 
 PAM  EZ I        1817 11.79        26.4 0.54            151           80.4  42 
 RUS  HZ EP       1816 53.96                             142   -0.3810  101 173 
 RUS  HN ES       1817 12.66                             142    0.3610  101 173 
 RUS  HZ I        1817 13.38        11.7 0.36            148            101 173 
 PTB  HZ EP       1816 57.27                             131    0.05 9  143 258 
 PTB  HN ES       1817 17.21                             131   -0.23 9  143 258 
 PTB  HZ I        1817 20.11        12.6 0.32            131            143 258 
 ZAR  HZ EP       1817  3.22                             121    0.42 9  200 293 
 ZAR  HN ES   4   1817 29.09                             121    1.73 0  200 293 
 ZAR  HZ I        1817 37.33         9.3 0.28            121            200 293 
                                                                                
