 2010  4 6 1628 50.6 L   6.763 -73.036146.8  RSN 10 0.4 2.4LRSN                1
 GAP=150        0.75       3.8     5.9  5.5 -0.9349E+01 -0.1604E+01  0.6987E+01E
 Epicentro: CEPITA - SANTANDER                                                 3
 ACTION:UPD 10-08-24 09:58 OP:vdl  STATUS:               ID:20100406162850 L   I
 2010-04-06-1626-47S.COL___098                                                 6
 STAT SP IPHASW D HRMM SECON CODA AMPLIT PERI AZIMU VELO AIN AR TRES W  DIS CAZ7
 BAR2 SZ IP       1629 10.30                             170    -0.110   25 221 
 BAR2 SZ ES   1   1629 25.65                             170    -0.2 7   25 221 
 BRR  HZ EP   3   1629 12.47                             149    -0.1 2   84 297 
 BRR  HZ I        1629 20.41        62.0 0.30                            84 297 
 BRR  HE ES   1   1629 29.57                             149    -0.2 7   84 297 
 OCA  SZ EP       1629 19.29                             129    -0.2 9  166 349 
 OCA  SZ ES   1   1629 43.05                             129     0.9 7  166 349 
 OCA  SZ I        1629 48.35        32.8 0.15                           166 349 
 CHI  HZ IP       1629 28.43                             117     0.1 8  248 198 
 CHI  HN ES   2   1629 58.49                             117     0.8 4  248 198 
 CHI  HZ I        1630  6.98        10.8 0.60                           248 198 
 ROSC BZ EP   1   1629 29.25                             117     0.1 6  256 214 
 ROSC BN ES   3   1629 58.70                             117    -0.4 2  256 214 
 ROSC BZ I        1630  5.65        13.7 0.32                           256 214 
 HEL  HZ EP       1629 32.01                             114     0.0 7  283 257 
 HEL  HE ES   2   1630  3.23                             114    -1.2 4  283 257 
 RREF BZ EP       1629 37.22                             111    -0.3 7  328 231 
 RREF BN ES       1630 14.52                             111     0.4 7  328 231 
 RREF BZ I        1630 21.17         9.8 0.25                           328 231 
 TOL  SZ EP   1   1629 39.93                             109     0.4 5  349 227 
 SDV  BZ EP   1   1629 39.57                             109    -0.3 5  354  48 
 PRA  HZ EP       1629 44.37                             107    -0.1 6  395 211 
 PRA  HN ES   2   1630 26.84                             107     0.4 3  395 211 
 PRA  HZ I        1630 34.68        11.0 0.51                           395 211 
                                                                                
