 2011  9 6 1207  3.1 L   6.771 -73.083148.1  RSN  5 0.1 1.7LRSN                1
 GAP=200        0.35       3.1     6.4  3.6  0.1027E+02 -0.2060E+01  0.1215E+01E
 Epicentro: LOS SANTOS - SANTANDER                                             3
 ACTION:UPD 12-07-13 15:55 OP:ep   STATUS:               ID:20110906120703 L   I
 2011-09-06-1204-06S.COL___170                                                 6
 STAT SP IPHASW D HRMM SECON CODA AMPLIT PERI AZIMU VELO AIN AR TRES W  DIS CAZ7
 BAR2 SZ EP       12 7 22.96                             171   -0.0310 22.6 209 
 BAR2 SZ ES   1   12 7 38.27                             171   -0.24 7 22.6 209 
 BAR2 SZ I        12 7 39.73        12.9 0.22                          22.6 209 
 GIR2 SZ EP   2   12 7 23.32                             166    0.13 5 36.2 340 
 BRR  HZ EP   1   12 7 24.85                             150   -0.09 7 78.8 298 
 BRR  HZ I        12 7 34.31        18.9 0.46                          78.8 298 
 BRR  HN ES   1   12 7 42.12                             150    0.14 7 78.8 298 
 RUS  HZ EP   1   12 7 26.88                             145    0.04 7 97.1 180 
 RUS  HE ES   1   12 7 45.57                             145    0.22 7 97.1 180 
 RUS  HZ I        12 7 46.94         4.9 0.28                          97.1 180 
 CHI  HZ EP   1   12 7 40.73                             118   -0.07 6  247 197 
 CHI  HZ I        12 7 43.71         2.4 0.41                           247 197 
 CHI  HN ES   2   12 8 10.10                             118   -0.10 4  247 197 
                                                                                
