 2014  8 6 1954  0.6 L   6.699 -73.196146.5  RSN  5 0.4 1.4LRSN                1
 GAP=224        0.92       5.5     6.1  7.6  0.8616E+01  0.9417E+01  0.2540E+01E
 Epicentro: VILLANUEVA - SANTANDER                                             3
 ACTION:UPD 14-09-15 21:47 OP:nd   STATUS:               ID:20140806195400 L   I
 OLDACT:DUP 14-08-06 22:17 OP:carl STATUS:               ID:20140806194821d    3
 2014-08-06-1948-19M.COL___249                                                 6
 STAT SP IPHASW D HRMM SECON CODA AMPLIT PERI AZIMU VELO AIN AR TRES W  DIS CAZ7
 BAR2 SZ ES       1954 35.07                             175   -0.3010 11.9 173 
 BRR  HZ EP       1954 21.88                             152   -0.0210 72.7 308 
 BRR  HN ES       1954 39.03                             152    0.5110 72.7 308 
 RUS  HZ EP       1954 23.97                             147    0.2910 90.0 172 
 RUS  HE ES       1954 41.48                             147   -0.2110 90.0 172 
 RUS  HZ I        1954 43.28         4.6 0.32            147           90.0 172 
 PTB  HZ EP       1954 26.62                             134   -0.34 9  140 263 
 PTB  HN ES       1954 47.12                             134   -0.42 9  140 263 
 PTB  HZ I        1954 49.95         3.4 0.16            133            140 263 
 SPBC HN ES       1954 49.88                             132    0.48 9  151 220 
                                                                                
