 2010  5 6 1308 39.0 L   6.181 -73.601122.6  RSN  6 0.2 1.8LRSN                1
 GAP=162        0.48       4.8     6.2  7.1 -0.1953E+02  0.6394E+01  0.1081E+02E
 Epicentro: LA PAZ - SANTANDER                                                 3
 ACTION:UP  10-08-24 10:03 OP:vdl  STATUS:               ID:20100506130839 L   I
 2010-05-06-1305-29S.COL___105                                                 6
 STAT SP IPHASW D HRMM SECON CODA AMPLIT PERI AZIMU VELO SNR AR TRES W  DIS CAZ7
 BAR2 SZ IP     C 13 8 57.67                             150     0.010   65  46 
 BAR2 SZ ES   2   13 9 12.08                             150    -0.1 5   65  46 
 BRR  HZ EP   1   13 9  0.19                             137     0.1 7  103 353 
 BRR  HZ I        13 9  0.93        16.0 0.06                           103 353 
 BRR  HN ES   2   13 9 16.71                             137     0.2 5  103 353 
 GIR2 SZ EP   1   13 9  0.79                             136     0.0 7  109  24 
 GIR2 SZ ES   2   13 9 17.73                             136     0.0 5  109  24 
 GUE  SZ EP   1   13 9  9.85                             118     0.1 6  197  22 
 GUE  SZ ES   2   13 9 33.30                             118    -0.3 4  197  22 
 RREF BZ EP   1   13 9 14.23                             113    -0.6 6  240 234 
 RREF BN ES   2   13 9 42.91                             113     0.2 4  240 234 
 RREF BZ I        13 9 49.47         3.0 0.50                           240 234 
 PRA  HZ EP   1   13 9 22.29                             107     0.4 5  308 208 
 PRA  HZ I        1310  0.25         4.9 0.32                           308 208 
                                                                                
