 2010  2 6 1427  5.8 L   6.798 -73.180142.9  RSN  7 0.4 2.0LRSN                1
 GAP=155        0.73       4.2    12.3  9.2 -0.2693E+02  0.4829E+02 -0.4548E+01E
 Epicentro: LOS SANTOS - SANTANDER                                             3
 ACTION:UP  10-08-24 09:47 OP:vdl  STATUS:               ID:20100206142705 L   I
 2010-02-06-1419-50S.COL___088                                                 6
 STAT SP IPHASW D HRMM SECON CODA AMPLIT PERI AZIMU VELO SNR AR TRES W  DIS CAZ7
 BAR2 SZ IP       1427 24.82                             170    -0.210   23 181 
 BAR2 SZ ES   2   1427 39.78                             170    -0.3 5   23 181 
 RUS  HZ EP   1   1427 28.87                             143    -0.4 7  101 174 
 RUS  HZ I        1427 29.52         5.3 0.33                           101 174 
 RUS  HE ES   2   1427 47.92                             143     0.4 5  101 174 
 GRA  SZ EP   1   1427 31.47                             136     0.6 7  127  19 
 GRA  SZ ES   2   1427 51.16                             136     0.7 5  127  19 
 OCA  SZ EP   1   1427 33.71                             129    -0.1 7  160 354 
 OCA  SZ ES   2   1427 55.04                             129    -0.7 5  160 354 
 CHI  HZ EP   1   1427 43.23                             116     0.1 6  247 194 
 CHI  HE ES   2   1428 12.80                             116     0.5 4  247 194 
 CHI  HZ I        1428 19.68         5.2 0.51                           247 194 
 RREF HN ES   2   1428 27.49                             110     0.4 3  319 229 
 RREF HZ I        1428 34.50         5.9 0.37                           319 229 
 PRA  HZ EP   1   1427 58.66                             106    -0.3 4  390 209 
 PRA  HE ES   2   1428 41.03                             106     0.6 3  390 209 
 PRA  HZ I        1428 45.55         6.8 0.29                           390 209 
                                                                                
