 2011  6 6 1901 57.1 L   6.781 -73.074143.4  RSN  4 0.2 1.7LRSN                1
 GAP=176        0.57       5.6     6.2  6.2 -0.1520E+02 -0.3387E+01 -0.1906E+01E
 Epicentro: LOS SANTOS - SANTANDER                                             3
 ACTION:UP  11-07-14 19:03 OP:ep   STATUS:               ID:20110606190157 L   I
 2011-06-06-1900-28S.COL___132                                                 6
 STAT SP IPHASW D HRMM SECON CODA AMPLIT PERI AZIMU VELO SNR AR TRES W  DIS CAZ7
 BAR2 SZ EP   1   19 2 16.54                             170     0.1 7   24 210 
 BAR2 SZ ES   1   19 2 31.29                             170    -0.3 7   24 210 
 BAR2 SZ I        19 2 32.91         6.6 0.13                            24 210 
 PAM  SZ EP   1   19 2 19.20                             151     0.3 7   74  34 
 PAM  SN ES   1   19 2 36.14                             151     0.2 7   74  34 
 BRR  HZ EP   1   19 2 18.42                             149    -0.1 7   79 297 
 BRR  HN ES   1   19 2 35.36                             149     0.2 7   79 297 
 BRR  HZ I        19 2 35.97        16.0 0.11                            79 297 
 GRA  SZ EP   1   19 2 21.89                             136    -0.2 7  126  14 
 GRA  SZ ES   1   19 2 41.41                             136    -0.2 7  126  14 
 GRA  SZ I        19 2 43.03         5.3 0.27                           126  14 
                                                                                
