 2014  6 6 1335 57.9 L   6.813 -73.155141.1  RSN 11 0.5 2.0LRSN                1
 GAP=135        1.27       3.5     5.1  6.8 -0.2015E+01  0.1117E+02  0.9751E+00E
 Epicentro: LOS SANTOS - SANTANDER                                             3
 ACTION:UPD 14-07-01 22:51 OP:nd   STATUS:               ID:20140606133557 L   I
 OLDACT:DUP 14-06-06 23:05 OP:stll STATUS:               ID:20140606132814d    3
 2014-06-06-1328-13M.COL___262                                                 6
 STAT SP IPHASW D HRMM SECON CODA AMPLIT PERI AZIMU VELO AIN AR TRES W  DIS CAZ7
 BAR2 SZ EP       1336 17.23                             170    0.2110 24.6 187 
 BAR2 SZ ES       1336 31.82                             170   -0.0910 24.6 187 
 BAR2 SZ I        1336 33.39        18.4 0.22            169           24.6 187 
 BRR  HZ EP       1336 19.11                             152    0.6410 69.6 298 
 BRR  HZ I        1336 19.45        15.5 0.46            150           69.6 298 
 BRR  HN ES       1336 34.80                             152    0.3010 69.6 298 
 PAM  SZ EP       1336 19.90                             150    0.2810 77.0  41 
 PAM  SZ I        1336 20.27        26.2 0.24            153           77.0  41 
 PAM  SN ES       1336 36.92                             150    0.3810 77.0  41 
 RUS  HZ EP       1336 21.17                             142   -0.1510  102 176 
 RUS  HN ES       1336 39.26                             142   -0.3210  102 176 
 RUS  HZ I        1336 40.71        10.5 0.28            143            102 176 
 PTB  HZ EP       1336 23.96                             131   -0.48 9  147 258 
 PTB  HN ES       1336 44.97                             131   -0.16 9  147 258 
 PTB  HZ I        1336 49.59         9.9 0.12            130            147 258 
 OCA  HN ES       1336 46.27                             129   -1.14 9  159 353 
 SPBC HZ EP       1336 26.11                             128    0.00 9  164 218 
 SPBC HN ES       1336 48.05                             128   -0.04 9  164 218 
 SPBC HZ I        1336 50.62        15.7 0.32            128            164 218 
 ZAR  HZ EP       1336 31.22                             121    1.31 9  203 292 
 ZAR  HN ES       1336 54.89                             121    0.03 9  203 292 
 ZAR  HZ I        1337  1.29        12.6 0.28            121            203 292 
 SML  HZ EP       1336 33.51                             117   -0.59 8  242 335 
 SML  HE ES       1337  1.92                             117   -0.40 8  242 335 
 SML  HZ I        1337  5.30        10.3 0.24            117            242 335 
 GUY2CHZ EP       1336 42.15                             111    0.84 7  301 234 
 GUY2CHN ES       1337 15.13                             111   -0.02 7  301 234 
 GUY2CHZ I        1337 23.65         5.9 0.64                           301 234 
 PRA  HZ EP       1336 50.84                             106   -0.53 6  393 209 
 PRA  HN ES       1337 32.19                             106   -0.86 6  393 209 
 PRA  HZ I        1337 39.67         3.8 0.24            106            393 209 
                                                                                
