 2016  6 6 1706 42.4 L   6.863 -73.129144.9  RSN 15 0.5 2.3LRSN                1
 GAP=135        1.10       3.2     4.5  5.3 -0.4220E+01  0.5517E+01  0.3206E+01E
 Epicentro: LOS SANTOS - SANTANDER                                             3
 ACTION:UPD 16-07-21 22:16 OP:rebc STATUS:               ID:20160606170642 L   I
 OLDACT:UP  16-06-08 16:53 OP:nlst STATUS:               ID:20160606170642 L   3
 OLDACT:UP  16-06-06 23:37 OP:edw  STATUS:               ID:20160606165742     3
 OLDACT:UP  16-06-06 23:31 OP:edw  STATUS:               ID:20160606165742     3
 OLDACT:REG 16-06-06 20:31 OP:edw  STATUS:               ID:20160606165742     3
 2016-06-06-1657-42M.COL___334                                                 6
 STAT SP IPHASW D HRMM SECON CODA AMPLIT PERI AZIMU VELO AIN AR TRES W  DIS CAZ7
 BAR2 EZ EP     D 17 7  1.84                             168   -0.2010 30.5 191 
 BAR2 EZ ES       17 7 16.87                             168   -0.5310 30.5 191 
 BAR2 EZ I        17 7 18.52        26.8 0.50                          30.5 191 
 BRR  HZ EP     D 17 7  3.60                             153    0.2710 69.9 293 
 BRR  HN ES       17 7 20.17                             153    0.4810 69.9 293 
 BRR  HZ I        17 7 21.23        31.1 0.16                          69.9 293 
 PAM  EZ EP       17 7  4.57                             153    0.4710 70.9  42 
 PAM  EE ES       17 7 21.48                             153    0.4210 70.9  42 
 PAM  EZ I        17 7 23.51        57.6 0.42                          70.9  42 
 RUS  HZ EP       17 7  6.05                             142   -0.4710  107 177 
 RUS  HN ES       17 7 25.30                             142   -0.0710  107 177 
 PTB  HZ EP   4   17 7  8.57                             131   -0.98 0  151 256 
 PTB  HN ES       17 7 30.15                             131   -0.61 9  151 256 
 PTB  HZ I        17 7 31.10        12.0 0.20                           151 256 
 OCA  HZ EP       17 7 10.05                             131    0.08 9  154 352 
 OCA  HN ES       17 7 31.15                             131   -0.36 9  154 352 
 OCA  HZ I        17 7 35.60        45.7 0.16                           154 352 
 SPBC HZ EP       17 7 11.41                             128   -0.00 9  170 218 
 SPBC HE ES       17 7 34.69                             128    0.61 9  170 218 
 SPBC HZ I        17 7 42.16        18.1 0.24                           170 218 
 NOR  HZ EP       17 7 18.49                             118   -0.14 8  240 233 
 NOR  HN ES       17 7 46.69                             118   -0.24 8  240 233 
 NOR  HZ I        17 7 49.39        10.2 0.36                           240 233 
 CHI  HZ EP       17 7 20.27                             116   -0.51 8  256 195 
 CHI  HN ES       17 7 50.54                             116   -0.22 8  256 195 
 CHI  HZ I        17 7 55.31         6.9 0.30                           256 195 
 ROSC BZ EP       17 7 21.18                             116    0.00 8  260 211 
 ROSC BN ES   4   17 7 53.86                             116    2.40 0  260 211 
 HEL  HZ EP       17 7 23.33                             114    0.41 7  276 254 
 HEL  HN ES       17 7 54.43                             114   -0.12 7  276 254 
 HEL  HZ I        17 8  1.47         7.7 0.40                           276 254 
 ANIL HZ EP       17 7 33.20                             108    0.35 6  364 224 
 ANIL HE ES   4   17 8 15.59                             108    3.36 0  364 224 
 ANIL HZ I        17 8 19.99        15.2 0.30                           364 224 
 PRA  HZ EP       17 7 36.88                             106    0.22 6  399 209 
 PRA  HN ES       17 8 18.27                             106   -0.74 6  399 209 
 PRA  HZ I        17 8 25.38        11.9 0.26                           399 209 
 ORTC HZ EP       17 7 37.53                             106    0.50 6  402 216 
 ORTC HN ES       17 8 21.55                             106    1.88 6  402 216 
 ORTC HZ I        17 8 26.81         7.7 0.38                           402 216 
 SJC  HZ EP       17 7 36.28                             106   -1.04 6  404 326 
 SJC  HE ES   4   17 8 16.63                             106   -3.57 0  404 326 
 SJC  HZ I        17 8 20.85         4.9 0.52                           404 326 
 CRJC HZ EP   4   17 7 41.73                             103   -2.26 0  461   3 
 CRJC HN ES   4   17 8 30.87                             103   -1.20 0  461   3 
                                                                                
