 2017 11 6 1845  5.6 L   6.804 -73.141143.3  RSN 23 0.6 2.8LRSN                1
 GAP= 73        1.14       3.2     2.9  5.3  0.1120E+01  0.4298E+01  0.2522E+01E
 Epicentro: LOS SANTOS - SANTANDER                                             3
 ACTION:UPD 17-12-12 19:52 OP:rebc STATUS:               ID:20171106184505 L   I
 OLDACT:UP  17-11-07 01:56 OP:mg   STATUS:               ID:20171106183747     3
 OLDACT:UP  17-11-07 01:55 OP:mg   STATUS:               ID:20171106183747     3
 OLDACT:UP  17-11-07 01:55 OP:mg   STATUS:               ID:20171106183747     3
 OLDACT:REG 17-11-06 22:22 OP:mg   STATUS:               ID:20171106183747     3
 2017-11-06-1838-00M.COL___420                                                 6
 STAT SP IPHASW D HRMM SECON CODA AMPLIT PERI AZIMU VELO AIN AR TRES W  DIS CAZ7
 BAR2 EZ IP     C 1845 24.95                             170   -0.0210 23.8 191 
 BAR2 EZ ES   1   1845 39.67                             170   -0.38 7 23.8 191 
 BAR2 EZ I        1845 41.34       193.9 0.20            166           23.8 191 
 BRR  HZ IP     C 1845 26.84                             152    0.3210 71.4 298 
 BRR  HN ES       1845 43.89                             152    1.0710 71.4 298 
 BRR  HZ I        1845 45.99        97.8 0.14            151           71.4 298 
 PAM  EZ IP     C 1845 27.82                             150    0.2810 76.8  39 
 PAM  EN ES       1845 44.87                             150    0.2310 76.8  39 
 PAM  EZ I        1845 47.56       138.9 0.46            155           76.8  39 
 RUS  HZ IP     C 1845 28.87                             143   -0.2910  101 176 
 RUS  HN ES       1845 46.85                             143   -0.6710  101 176 
 RUS  HZ I        1845 48.33        65.5 0.22            142            101 176 
 PTB  HZ EP       1845 31.70                             131   -0.74 9  148 259 
 PTB  HN ES       1845 52.54                             131   -0.82 9  148 259 
 PTB  HZ I        1845 55.09        46.3 0.15            130            148 259 
 TAM  HZ IP     D 1845 33.25                             130    0.17 9  155 105 
 TAM  HN ES   2   1845 53.14                             130   -1.35 5  155 105 
 TAM  HZ I        1845 55.53        63.1 0.26            132            155 105 
 SPBC HZ EP       1845 34.08                             128    0.09 9  164 219 
 SPBC HN ES       1845 55.73                             128   -0.39 9  164 219 
 SPBC HZ I        1845 58.46       144.7 0.26            127            164 219 
 YPLC HZ EP       1845 35.34                             126    0.09 9  177 152 
 YPLC HN ES       1845 58.77                             126    0.41 9  177 152 
 YPLC HZ I        1845 59.99        52.0 0.26            126            177 152 
 ZAR  HZ EP       1845 37.84                             122   -0.10 9  204 292 
 ZAR  HN ES       1846  3.73                             122    0.59 9  204 292 
 ZAR  HZ I        1846  9.82       120.5 0.36            122            204 292 
 TABC EZ EP   2   1845 43.12                             119    1.83 4  230 211 
 TABC EZ ES   4   1846 12.08                             119    2.97 0  230 211 
 TABC EZ I        1846 16.85        57.5 0.42            118            230 211 
 NOR  HZ IP     C 1845 41.47                             118    0.19 8  235 234 
 NOR  HN ES       1846  8.90                             118   -0.18 8  235 234 
 NOR  HZ I        1846 13.17        57.7 0.30            117            235 234 
 CHI  HZ EP       1845 43.29                             116    0.05 8  249 195 
 CHI  HN ES       1846 12.74                             116    0.16 8  249 195 
 CHI  HZ I        1846 19.58        20.7 0.45            116            249 195 
 ROSC BZ EP   9   1845 45.52                             116    1.85 0  253 211 
 ROSC BN ES       1846 14.81                             116   -0.39 8  253 211 
 ROSC BZ I        1846 22.54        82.1 0.45            115            253 211 
 URE  HZ EP       1845 45.93                             113   -0.68 7  284 292 
 URE  HE ES       1846 17.65                             113   -0.92 7  284 292 
 GUY2CHZ EP       1845 49.48                             112    0.29 7  302 235 
 GUY2CHN ES       1846 23.90                             112    0.73 7  302 235 
 GUY2CHZ I        1846 31.57        50.7 0.40                           302 235 
 PTGC HZ EP   2   1845 48.16                             111   -1.24 4  309 159 
 PTGC HN ES   3   1846 21.26                             111   -2.27 2  309 159 
 PTGC HZ I        1846 30.77        35.4 0.36            111            309 159 
 CBOC HZ EP   2   1845 53.63                             109    1.13 3  334 252 
 CBOC HN ES       1846 29.97                             109    0.90 7  334 252 
 CBOC HZ I        1846 41.97        18.4 0.39            109            334 252 
 DBB  EZ EP   1   1845 52.95                             109   -0.10 5  340 274 
 DBB  EN ES       1846 29.56                             109   -0.48 7  340 274 
 DBB  EZ I        1846 37.10        15.8 0.46            109            340 274 
 PRA  HZ EP   1   1845 59.36                             106    0.23 4  393 210 
 PRA  HN ES   1   1846 40.82                             106   -0.04 4  393 210 
 PRA  HZ I        1846 46.78        29.9 0.32            106            393 210 
 ORTC HZ EP   1   1845 59.98                             106    0.45 4  396 216 
 ORTC HN ES   1   1846 42.45                             106    0.87 4  396 216 
 ORTC HZ I        1846 51.98        16.4 0.48            106            396 216 
 APAC HZ EP   1   1845 59.13                             106   -0.64 4  399 288 
 APAC HN ES   1   1846 41.40                             106   -0.60 4  399 288 
 APAC HZ I        1846 50.31        16.3 0.29            106            399 288 
 PAL  HZ EP   1   1846  0.91                             105    0.14 4  406 239 
 PAL  HN ES   1   1846 44.65                             105    0.86 4  406 239 
 PAL  HZ I        1846 47.92        12.7 0.26            105            406 239 
 SJC  HZ EP   2   1845 59.62                             105   -1.48 3  409 327 
 SJC  HN ES   4   1846 40.84                             105   -3.53 0  409 327 
 SJC  HZ I        1846 45.34        10.9 0.30            106            409 327 
                                                                                
