 2012  2 6 1845 54.7 L   6.763 -73.173135.9  RSN 14 0.5 2.0LRSN                1
 GAP=135        0.86       3.6     4.3  6.6 -0.2990E+01  0.1246E+02  0.1240E+01E
 ACTION:UP  12-03-07 16:28 OP:epov STATUS:               ID:20120206184554 L   I
 2012-02-06-1840-00M.COL___187                                                 6
 STAT SP IPHASW D HRMM SECON CODA AMPLIT PERI AZIMU VELO SNR AR TRES W  DIS CAZ7
 BAR2 SZ EP       1846 13.06                             172   -0.0410 18.9 183 
 BAR2 SZ ES   1   1846 27.99                             172    0.58 7 18.9 183 
 BAR2 SZ I        1846 29.86        50.6 0.20                          18.9 183 
 GIR2 SZ EP   1   1846 13.19                             165   -0.16 7 35.0 356 
 BRR  HZ EP       1846 14.98                             151    0.1810 70.7 303 
 BRR  HZ I        1846 34.67        98.8 0.10                          70.7 303 
 PAM  SZ EP   1   1846 15.87                             147   -0.37 7 82.5  39 
 PAM  SN ES   1   1846 32.59                             147   -0.43 7 82.5  39 
 PAM  SZ I        1846 35.35        21.8 0.20                          82.5  39 
 RUS  HZ EP   1   1846 16.92                             143   -0.32 7 96.7 174 
 RUS  HE ES   1   1846 35.03                             143    0.23 7 96.7 174 
 RUS  HZ I        1846 36.98        24.4 0.41                          96.7 174 
 PTB  HZ EP   1   1846 19.75                             130   -0.82 7  144 260 
 PTB  HN ES   1   1846 40.47                             130   -0.25 7  144 260 
 PTB  HZ I        1846 45.11         0.1 0.11                           144 260 
 OCA  SZ EP   1   1846 23.68                             127    1.01 7  164 354 
 ZAR  HZ EP   1   1846 26.95                             120    0.51 6  203 294 
 ZAR  HN ES   1   1846 50.86                             120   -0.30 6  203 294 
 ZAR  HZ I        1846 58.22        47.6 0.26                           203 294 
 NOR  SZ EP   1   1846 28.56                             117   -0.82 6  230 235 
 NOR  SN ES   1   1846 56.87                             117    0.46 6  230 235 
 CHI  HN ES   1   1846 59.72                             115   -0.24 6  244 195 
 HEL  HZ EP   1   1846 34.49                             113    0.46 6  268 256 
 HEL  HN ES   1   1847  4.45                             113   -0.22 6  268 256 
 HEL  HZ I        1847 12.55        12.1 0.37                           268 256 
 RREF HZ EP   1   1846 39.83                             109   -0.07 5  317 230 
 TOL  SZ EP   1   1846 42.84                             108    0.81 5  338 225 
 PRA  HZ EP   1   1846 47.25                             105   -0.09 4  387 209 
 PRA  HN ES       1847 28.59                             105    0.23 6  387 209 
                                                                                
