 2012  5 6 1605 43.4 L   6.790 -73.187140.0  RSN  9 0.5 1.9LRSN                1
 GAP=132        1.15       6.6     5.6  9.1 -0.1198E+01  0.9675E+01  0.1668E+02E
 Epicentro: LOS SANTOS - SANTANDER                                             3
 ACTION:UP  12-07-05 12:02 OP:pat  STATUS:               ID:20120506160543 L   I
 2012-05-06-1600-00M.COL___192                                                 6
 STAT SP IPHASW D HRMM SECON CODA AMPLIT PERI AZIMU VELO SNR AR TRES W  DIS CAZ7
 BAR2 SZ EP       16 6  2.25                             171    -0.110   22 179 
 BAR2 SZ ES   1   16 6 17.03                             171     0.0 7   22 179 
 BAR2 SZ I        16 6 18.22        31.2 0.21                            22 179 
 BRR  HZ EP   1   16 6  4.13                             153     0.4 7   68 301 
 BRR  HN ES   1   16 6 20.69                             153     1.1 7   68 301 
 BRR  HZ I        16 6 25.27        18.2 0.15                            68 301 
 PAM  SZ EP   1   16 6  4.99                             148    -0.3 7   81  42 
 PAM  SN ES   1   16 6 22.19                             148    -0.1 7   81  42 
 RUS  HZ EP   1   16 6  6.31                             143    -0.2 7  100 173 
 RUS  HN ES   1   16 6 24.59                             143     0.0 7  100 173 
 RUS  HZ I        16 6 25.89        14.1 0.35                           100 173 
 PTB  HZ EP   1   16 6  9.13                             132    -0.4 7  143 259 
 PTB  HN ES       16 6 28.97                             132    -0.9 9  143 259 
 PTB  HZ I        16 6 32.56         7.6 0.11                           143 259 
 ZAR  HN ES   1   16 6 39.74                             122    -0.1 6  200 293 
 ZAR  HZ I        16 6 46.35         9.9 0.27                           200 293 
 NOR  SZ EP   1   16 6 18.62                             118     0.3 6  230 234 
 NOR  SN ES   1   16 6 46.40                             118     0.8 6  230 234 
 CHI  HZ EP   1   16 6 20.83                             116     0.3 6  246 194 
 CHI  HZ I        16 6 52.89         4.7 0.20                           246 194 
 PRA  HZ EP   1   16 6 37.02                             106     0.6 4  389 209 
                                                                                
