 2013 10 6 1907 44.5 L   6.530 -73.554124.7  RSN  5 0.5 1.9LRSN                1
 GAP= 96        1.18       6.2     5.1  9.5  0.2925E+01  0.1645E+02  0.1808E+02E
 Epicentro: EL CARMEN DE CHUCURI - SANTANDER                                   3
 ACTION:UPD 13-11-25 09:19 OP:ep   STATUS:               ID:20131006190744 L   I
 OLDACT:REG 13-10-06 16:24 OP:stll STATUS:               ID:20131006185844     3
 2013-10-06-1858-44M.COL___235                                                 6
 STAT SP IPHASW D HRMM SECON CODA AMPLIT PERI AZIMU VELO AIN AR TRES W  DIS CAZ7
 BAR2 SZ EP       19 8  2.05                             160   -0.1010 41.7  80 
 BAR2 SZ ES       19 8 15.74                             160   -0.2110 41.7  80 
 BAR2 SZ I        19 8 18.51        22.7 0.42            163           41.7  80 
 BRR  HZ EP       19 8  3.05                             150   -0.0110 66.2 345 
 BRR  HN ES       19 8 18.29                             150    0.7310 66.2 345 
 RUS  HZ EP       19 8  4.89                             143   -0.3110 87.6 143 
 RUS  HN ES       19 8 21.57                             143    0.1910 87.6 143 
 PTB  HZ EP       19 8  4.95                             139   -0.5210 99.8 271 
 PTB  HZ I        19 8  5.13        13.5 0.18            140           99.8 271 
 PTB  HN ES       19 8 21.23                             139   -0.6310 99.8 271 
 NOR  HZ EP       19 8 13.95                             121    0.78 9  181 234 
 NOR  HN ES       19 8 35.91                             121    0.34 9  181 234 
 NOR  HZ I        19 8 38.69         7.2 0.20            122            181 234 
                                                                                
