 2012  7 6 1853 20.4 L   6.290 -73.611111.4  RSN  5 0.4 1.2LRSN                1
 GAP=160        0.80       8.0     9.3 14.2  0.5036E+02  0.9320E+02  0.4244E+02E
 Epicentro: SANTA HELENA DEL OPON - SANTANDER                                  3
 ACTION:UPD 12-08-14 11:43 OP:ep   STATUS:               ID:20120706185320 L   I
 2012-07-06-1850-00M.COL___201                                                 6
 STAT SP IPHASW D HRMM SECON CODA AMPLIT PERI AZIMU VELO AIN AR TRES W  DIS CAZ7
 BAR2 SZ EP   1   1853 37.73                             151     0.3 7   58  55 
 BAR2 SZ ES   1   1853 50.68                             151     0.0 7   58  55 
 RUS  HZ EP   1   1853 38.77                             145     0.0 7   73 127 
 RUS  HN ES   1   1853 53.33                             145     0.2 7   73 127 
 RUS  HZ I        1853 55.05         2.8 0.13            137             73 127 
 BRR  HZ EP   1   1853 39.28                             138    -0.2 7   91 353 
 BRR  HN ES   2   1853 53.71                             138    -0.6 5   91 353 
 PTB  HZ EP   1   1853 39.53                             136    -0.5 7   97 286 
 PTB  HZ I        1853 57.64         5.2 0.20            118             97 286 
 ZAR  HE ES   1   1854 12.87                             115     0.7 7  191 314 
