 2012  3 6 1817  4.5 L   6.501 -73.626102.0  RSN  6 0.2 1.8LRSN                1
 GAP= 95        0.60       3.4     2.9  6.3  0.1142E+01  0.6732E+01  0.2463E+01E
 ACTION:UP  12-03-31 23:17 OP:EP   STATUS:               ID:20120306181704 L   I
 2012-03-06-1810-00M.COL___194                                                 6
 STAT SP IPHASW D HRMM SECON CODA AMPLIT PERI AZIMU VELO SNR AR TRES W  DIS CAZ7
 BAR2 SZ EP       1817 19.81                             152    -0.210   50  78 
 BAR2 SZ I        1817 20.05        42.0 0.23                            50  78 
 BAR2 SZ ES   1   1817 32.27                             152     0.1 7   50  78 
 BRR  HZ EP       1817 20.67                             144    -0.210   68 352 
 BRR  HZ I        1817 28.15        17.9 0.16                            68 352 
 BRR  HN ES   1   1817 33.61                             144     0.0 7   68 352 
 RUS  HZ EP   1   1817 23.61                             136     0.3 7   90 138 
 RUS  HN ES   1   1817 38.11                             136     0.1 7   90 138 
 RUS  HZ I        1817 43.52        11.0 0.67                            90 138 
 PTB  HZ EP       1817 22.69                             134    -0.110   92 273 
 PTB  HN ES   1   1817 37.35                             134     0.2 7   92 273 
 NOR  SE ES   1   1817 51.41                             115    -0.3 7  172 233 
 ZAR  HZ EP   1   1817 31.68                             115     0.5 7  175 309 
 ZAR  HZ I        1817 55.98         8.5 0.60                           175 309 
                                                                                
