 2016  7 6 1839 15.6 L   6.761 -73.166142.0  RSN  6 0.4 1.9LRSN                1
 GAP=232        0.91       6.4     6.3  7.0  0.2344E+02  0.1257E+02  0.4602E+01E
 Epicentro: LOS SANTOS - SANTANDER                                             3
 ACTION:UPD 17-03-29 16:47 OP:lp   STATUS:               ID:20160706183915 L   I
 OLDACT:REG 16-07-06 20:49 OP:dnl  STATUS:               ID:20160706183744     3
 2016-07-06-1837-44M.COL___328                                                 6
 STAT SP IPHASW D HRMM SECON CODA AMPLIT PERI AZIMU VELO AIN AR TRES W  DIS CAZ7
 BAR2 EZ EP   2   1839 34.57                             172   -0.16 5 18.7 185 
 BAR2 EZ ES       1839 49.87                             172    0.2510 18.7 185 
 BAR2 EZ I        1839 55.35        13.8 0.34            175           18.7 185 
 BRR  HZ EP       1839 36.53                             152    0.1410 71.4 302 
 BRR  HN ES       1839 52.14                             152   -0.4410 71.4 302 
 BRR  HZ I        1839 59.78        25.8 0.26            152           71.4 302 
 RUS  HZ EP       1839 38.50                             144   -0.2210 96.5 175 
 RUS  HN ES       1839 57.01                             144    0.2810 96.5 175 
 RUS  HZ I        1839 57.76         6.0 0.48            152           96.5 175 
 PTB  HZ EP       1839 41.57                             132   -0.45 9  145 260 
 PTB  HN ES       1840  2.23                             132   -0.37 9  145 260 
 PTB  HZ I        1840  6.96        11.9 0.14            136            145 260 
 ZAR  HZ EP   2   1839 47.68                             122   -0.11 4  204 294 
 ZAR  HN ES       1840 13.76                             122    0.89 9  204 294 
 ZAR  HZ I        1840 18.84        13.8 0.28            125            204 294 
 GUY2CHZ EP   2   1839 59.28                             112    0.70 4  297 235 
 GUY2CHN ES   2   1840 32.25                             112    0.18 4  297 235 
 GUY2CHZ I        1840 43.12         4.0 0.52                           297 235 
                                                                                
