 2011  3 6 1509 33.7 L   6.813 -73.242137.6  RSN  4 0.1 1.6LRSN                1
 GAP=190        0.32       4.5    19.2  8.0 -0.7796E+02  0.1184E+03 -0.2398E+02E
 Epicentro: ZAPATOCA - SANTANDER                                               3
 ACTION:UP  11-06-16 14:32 OP:jfem STATUS:               ID:20110306150932 L   I
 2011-03-06-1507-44S.COL___135                                                 6
 STAT SP IPHASW D HRMM SECON CODA AMPLIT PERI AZIMU VELO SNR AR TRES W  DIS CAZ7
 BAR2 SZ EP   3   15 9 52.55                             168     0.2 3   25 165 
 BAR2 SZ ES   3   1510  7.07                             168     0.1 3   25 165 
 BAR2 SZ I        1510  9.45        10.8 0.40                            25 165 
 RUS  HZ EP   1   15 9 56.93                             141     0.1 8  103 170 
 RUS  HN ES   2   1510 14.82                             141    -0.1 5  103 170 
 RUS  HZ I        1510 16.62         3.6 0.31                           103 170 
 GRA  SZ EP       15 9 58.45                             134     0.110  128  22 
 GRA  SZ ES   2   1510 17.45                             134    -0.2 5  128  22 
 GRA  SZ I        1510 20.70         6.0 0.25                           128  22 
 CHI  HZ EP       1510 10.71                             115    -0.1 8  248 193 
 CHI  HZ I        1510 20.95         4.5 0.52                           248 193 
 CHI  HE ES   2   1510 39.75                             115     0.0 4  248 193 
                                                                                
