 2014 12 6 1632 12.2 L   6.828 -73.149140.0  RSN 25 0.6 2.5LRSN                1
 GAP= 70        1.62       3.7     4.1  7.2 -0.1818E+01  0.9601E+01  0.5040E+01E
 Epicentro: LOS SANTOS - SANTANDER                                             3
 ACTION:UPD 15-02-10 17:01 OP:nd   STATUS:               ID:20141206163212 L   I
 OLDACT:REG 14-12-06 20:35 OP:spq  STATUS:               ID:20141206162747     3
 2014-12-06-1627-47M.COL___315                                                 6
 STAT SP IPHASW D HRMM SECON CODA AMPLIT PERI AZIMU VELO AIN AR TRES W  DIS CAZ7
 BAR2 SZ EP       1632 31.25                             169    0.0110 26.3 188 
 BAR2 SZ ES       1632 46.38                             169    0.3210 26.3 188 
 BAR2 SZ I        1632 47.46        81.5 0.28            168           26.3 188 
 BRR  HZ IP     C 1632 33.13                             152    0.4710 69.5 296 
 BRR  HN ES       1632 49.45                             152    0.8510 69.5 296 
 BRR  HZ I        1632 53.23        52.4 0.30            149           69.5 296 
 PAM  SZ IP     C 1632 34.08                             150    0.3710 75.2  41 
 PAM  SZ I        1632 34.38       135.3 0.18            154           75.2  41 
 PAM  SN ES       1632 50.92                             150    0.4610 75.2  41 
 RUS  HZ IP     D 1632 35.25                             141   -0.4010  104 176 
 RUS  HN ES       1632 53.95                             141    0.0310  104 176 
 RUS  HZ I        1632 55.40        30.4 0.46            144            104 176 
 PTB  HZ EP       1632 37.98                             130   -0.78 9  148 258 
 PTB  HN ES       1632 58.75                             130   -0.71 9  148 258 
 PTB  HZ I        1633  6.25        30.8 0.18            130            148 258 
 TAM  HZ IP     D 1632 39.71                             129    0.15 9  156 106 
 TAM  HZ I        1632 39.85        30.1 0.20            134            156 106 
 TAM  HN ES       1633  0.46                             129   -0.43 9  156 106 
 OCA  HZ EP       1632 39.36                             129   -0.44 9  157 353 
 OCA  HN ES       1633  1.16                             129   -0.15 9  157 353 
 OCA  HZ I        1633  9.72        44.4 0.22            130            157 353 
 ZAR  HZ EP       1632 44.36                             121    0.20 9  203 291 
 ZAR  HN ES       1633  8.35                             121   -0.71 9  203 291 
 ZAR  HZ I        1633 14.32        37.0 0.34            121            203 291 
 NOR  HZ EP     D 1632 47.45                             117   -0.35 8  236 234 
 NOR  HN ES       1633 14.70                             117   -0.84 8  236 234 
 NOR  HZ I        1633 23.10        24.8 0.16            117            236 234 
 SML  HZ EP       1632 47.69                             116   -0.53 8  241 335 
 SML  HE ES       1633 15.98                             116   -0.31 8  241 335 
 SML  HZ I        1633 25.75        46.1 0.10            117            241 335 
 CHI  HZ EP       1632 49.34                             115   -0.59 8  252 195 
 CHI  HN ES       1633 18.42                             115   -0.92 8  252 195 
 CHI  HZ I        1633 22.14        29.3 0.60            117            252 195 
 ROSC BZ EP       1632 51.81                             115    1.49 8  255 211 
 ROSC BE ES       1633 19.83                             115   -0.19 8  255 211 
 ROSC BZ I        1633 25.70        59.5 0.45            116            255 211 
 HEL  HZ EP       1632 52.88                             113    0.67 8  273 255 
 HEL  HN ES       1633 23.38                             113   -0.01 8  273 255 
 HEL  HZ I        1633 29.24        19.5 0.26            114            273 255 
 SOCV BZ EP   9 C 1632 54.05                             111   -0.81 0  300  57 
 SOCV BN ES       1633 24.90                                   -2.40 7  300  57 
 GUY2CHZ EP       1632 55.17                             111   -0.58 7  303 234 
 GUY2CHE ES       1633 29.85                             111    0.15 7  303 234 
 GUY2CHN ES       1633 31.12                             111            303 234 
 GUY2CHZ I        1633 37.58        18.4 0.48                           303 234 
 RREF HZ EP       1632 59.34                             109    1.01 7  324 229 
 RREF HE ES       1633 34.83                             109    0.54 7  324 229 
 RREF HZ I        1633 43.16        22.7 0.40            110            324 229 
 CBOC HZ EP       1632 59.57                             109    0.58 7  334 252 
 CBOC HE ES       1633 34.87                             109   -0.59 7  334 252 
 CBOC HZ I        1633 51.84         5.2 0.42            109            334 252 
 DBB  SZ EP       1633  0.89                             108    1.47 7  339 274 
 TOL  SZ EP       1633  0.63                             108    0.14 6  345 224 
 TOL  SE ES       1633 38.91                             108    0.78 6  345 224 
 MON  HZ EP   9   1632 58.39                             108   -2.37 0  352 308 
 MON  HN ES       1633 36.18                                   -0.07 6  352 308 
 MON  HZ I        1633 37.75         5.2 0.18            108            352 308 
 SDV  BZ EP   9 C 1633  0.87                             107   -0.99 0  359  51 
 SDV  BE ES       1633 37.27                                   -2.31 6  359  51 
 ANIL HE ES       1633 40.91                             107    0.00 6  359 224 
 ANIL HZ I        1633 51.31         6.6 0.32            108            359 224 
 ORTC HZ EP   2   1633  5.38                             105   -0.85 3  398 216 
 ORTC HN ES       1633 48.15                             105   -0.20 6  398 216 
 ORTC HZ I        1633 52.67        13.5 0.32            106            398 216 
 SJC  HZ IP   9 C 1633  5.49                             105   -1.79 0  406 327 
 SJC  HE ES       1633 46.90                                   -1.53 6  406 327 
 SJC  HZ I        1633 52.99         6.1 0.52            106            406 327 
 CRJC HZ EP   9   1633 11.59                             102   -2.62 0  465   4 
 CRJC HE ES       1633 59.09                                   -0.84 5  465   4 
 CRJC HZ I        1634  6.59        12.0 0.24            104            465   4 
                                                                                
