 2014  2 6 1720 29.8 L   6.786 -73.142144.1  RSN  9 0.5 1.9LRSN                1
 GAP=138        1.07       3.5     5.1  5.9 -0.1100E+01  0.8517E+01  0.1759E+01E
 Epicentro: LOS SANTOS - SANTANDER                                             3
 ACTION:UPD 14-03-10 08:08 OP:ep   STATUS:               ID:20140206172029 L   I
 OLDACT:REG 14-02-06 14:28 OP:nd   STATUS:               ID:20140206172000     3
 2014-02-06-1720-00M.COL___291                                                 6
 STAT SP IPHASW D HRMM SECON CODA AMPLIT PERI AZIMU VELO AIN AR TRES W  DIS CAZ7
 BAR2 SZ EP       1720 49.33                             171    0.1010 21.9 192 
 BAR2 SZ ES       1721  4.02                             171   -0.3510 21.9 192 
 BAR2 SZ I        1721  5.60        68.3 0.22            169           21.9 192 
 BRR  HZ EP     C 1720 51.14                             152    0.2810 72.3 299 
 BRR  HN ES       1721  8.27                             152    1.0010 72.3 299 
 BRR  HZ I        1721  8.91        13.3 0.38            150           72.3 299 
 PAM  SZ EP       1720 51.99                             150    0.0710 78.3  39 
 PAM  SN ES       1721  9.36                             150    0.2010 78.3  39 
 PAM  SZ I        1721 11.62         7.5 0.28            154           78.3  39 
 RUS  HZ EP       1720 53.21                             144   -0.0910 99.0 176 
 RUS  HN ES       1721 11.16                             144   -0.4610 99.0 176 
 RUS  HZ I        1721 13.06        10.1 0.48            145           99.0 176 
 PTB  HZ EP       1720 56.51                             132   -0.16 9  148 259 
 PTB  HN ES       1721 17.04                             132   -0.57 9  148 259 
 PTB  HZ I        1721 24.24         7.9 0.68            131            148 259 
 NOR  HZ EP       1721  5.87                             118    0.47 8  234 235 
 NOR  HN ES   2   1721 32.77                             118   -0.38 4  234 235 
 NOR  HZ I        1721 38.91         3.6 0.44            119            234 235 
 SML  HZ EP       1721  5.78                             117   -0.74 8  245 335 
 SML  HN ES       1721 34.56                             117   -0.59 8  245 335 
 SML  HZ I        1721 39.23        11.3 0.10            118            245 335 
 CHI  HZ EP       1721  7.43                             117    0.15 8  247 195 
 CHI  HN ES       1721 36.53                             117    0.03 8  247 195 
 CHI  HZ I        1721 40.19         3.1 0.48            118            247 195 
 GUY2CHZ EP       1721 13.97                             112    0.68 7  301 235 
 GUY2CHN ES   2   1721 47.23                             112    0.03 4  301 235 
 GUY2CHZ I        1722  1.56         2.4 0.52                           301 235 
                                                                                
