 2017  1 6 1251  7.2 L   6.266 -73.662106.0  RSN  8 0.3 1.7LRSN                1
 GAP= 67        0.68       2.8     3.1  6.6  0.3000E+01  0.8873E+01  0.8072E+01E
 Epicentro: SANTA HELENA DEL OPON - SANTANDER                                  3
 ACTION:UPD 17-05-22 15:56 OP:jn   STATUS:               ID:20170106125107 L   I
 OLDACT:UP  17-01-06 23:35 OP:dnl  STATUS:               ID:20170106124744     3
 OLDACT:UP  17-01-06 23:35 OP:dnl  STATUS:               ID:20170106124744     3
 OLDACT:REG 17-01-06 20:41 OP:dnl  STATUS:               ID:20170106124744     3
 2017-01-06-1248-00M.COL___366                                                 6
 STAT SP IPHASW D HRMM SECON CODA AMPLIT PERI AZIMU VELO AIN AR TRES W  DIS CAZ7
 BAR2 EZ IP     D 1251 23.94                             148   -0.1610 64.2  56 
 BAR2 EZ ES       1251 37.71                             148    0.4510 64.2  56 
 BAR2 EZ I        1251 38.97        30.9 0.34            151           64.2  56 
 RUS  HZ EP       1251 24.90                             143   -0.4210 76.3 123 
 RUS  HN ES       1251 39.42                             143   -0.0210 76.3 123 
 PTB  HZ EP       1251 25.67                             136   -0.3310 92.9 289 
 PTB  HN ES       1251 40.67                             136    0.0210 92.9 289 
 PTB  HZ I        1251 41.58        10.7 0.13            135           92.9 289 
 BRR  HZ EP   2   1251 25.86                             136   -0.15 5 93.2 357 
 BRR  HE ES       1251 40.69                             136    0.0410 93.2 357 
 BRR  HZ I        1251 41.78         8.6 0.28            138           93.2 357 
 NOR  HZ EP   2   1251 32.25                             120    0.19 5  155 240 
 NOR  HN ES   4   1251 53.83                             120    2.40 0  155 240 
 NOR  HZ I        1251 55.10         9.2 0.16            120            155 240 
 CHI  HZ EP   2   1251 35.84                             116    0.44 4  181 182 
 CHI  HE ES       1251 57.50                             116    0.13 9  181 182 
 CHI  HZ I        1252  2.47         2.4 0.58            116            181 182 
 ZAR  HZ EP   3   1251 35.94                             115    0.15 2  189 316 
 ZAR  HE ES   2   1251 58.27                             115    0.20 4  189 316 
 ZAR  HZ I        1252  2.11         4.9 0.40            115            189 316 
 GUY2CHZ EP   2   1251 41.11                             111    1.15 4  221 239 
 GUY2CHE ES   4   1252  9.51                             111    4.02 0  221 239 
 GUY2CHZ  IAML    1252 15.02         4.3 0.46                           221 239 
                                                                                
