 2013  3 6 1400 34.7 L   6.546 -72.925  4.0  RSN  4 0.5 1.8LRSN                1
 GAP=248        1.33       7.0    13.5 13.5  0.8055E+02  0.1384E+03  0.6194E+02E
 Epicentro: MOGOTES - SANTANDER                                                3
 ACTION:UPD 13-04-09 14:00 OP:ep   STATUS:               ID:20130306140034 L   I
 2013-03-06-1358-50M.COL___205                                                 6
 STAT SP IPHASW D HRMM SECON CODA AMPLIT PERI AZIMU VELO AIN AR TRES W  DIS CAZ7
 BAR2 SZ IP       14 0 39.13                              47   -0.7610 28.9 280 
 BAR2 SZ I        14 0 39.22       117.6 0.16             47           28.9 280 
 BAR2 SZ ES       14 0 43.36                              47   -0.6010 28.9 280 
 RUS  HZ EP       14 0 47.01                              47   -0.0210 74.3 194 
 RUS  HN ES       14 0 56.59                              47   -0.0810 74.3 194 
 RUS  HE I        14 0 58.78        19.3 0.24             47           74.3 194 
 BRR  HZ EP       14 0 51.81                              47    0.3610  107 306 
 BRR  HN ES       14 1  4.53                              47   -0.0210  107 306 
 BRR  HE I        14 1  6.10        29.3 0.18             47            107 306 
 PTB  HZ EP       14 1  1.85                              47    0.91 9  169 270 
 PTB  HN ES   1   14 1 22.26                              47    0.83 7  169 270 
 PTB  HE I        14 1 24.37        15.3 0.34             47            169 270 
                                                                                
