 2016  8 6 1909  1.5 L   5.870 -73.675120.0  RSN  5 0.2 1.0LRSN                1
 GAP=154        0.62       3.6     2.5  4.8 -0.3130E+01  0.3323E+01  0.1564E-01E
 Epicentro: PUENTE NACIONAL - SANTANDER                                        3
 ACTION:UPD 16-10-29 15:32 OP:rebc STATUS:               ID:20160806190736 L   I
 OLDACT:UPD 16-08-06 23:03 OP:AR   STATUS:               ID:20160806190736 L   3
 2016-08-06-1908-00M.COL___359                                                 6
 STAT SP IPHASW D HRMM SECON CODA AMPLIT PERI AZIMU VELO AIN AR TRES W  DIS CAZ7
 SPBC HZ EP       19 9 18.65                             156   -0.1910 50.2 241 
 SPBC HN ES       19 9 32.48                             156    0.1210 50.2 241 
 SPBC HZ I        19 9 34.73         5.6 0.42                          50.2 241 
 RUS  HZ EP       19 9 19.90                             150   -0.3810 65.5  88 
 RUS  HN ES       19 9 35.05                             150    0.1210 65.5  88 
 RUS  HZ I        19 9 35.48         1.6 0.22                          65.5  88 
 BAR2 EZ EP       19 9 22.54                             139    0.3910 96.7  34 
 BAR2 EZ ES       19 9 38.19                             139   -0.0710 96.7  34 
 PTB  HZ EP       19 9 23.14                             133   -0.1710  114 311 
 PTB  HE ES       19 9 40.29                             133   -0.0210  114 311 
 GUY2CHZ EP       19 9 32.97                             117    0.35 9  200 249 
 GUY2CHN ES       19 9 56.80                             117   -0.09 9  200 249 
 GUY2CHZ I        1910  3.18         0.9 0.36                           200 249 
                                                                                
