 2011  2 6 1901 22.4 L   6.827 -73.156145.1  RSN  5 0.2 1.4LRSN                1
 GAP=157        0.44       4.2     7.0  8.9 -0.1655E+02  0.2914E+02 -0.1157E+02E
 Epicentro: LOS SANTOS - SANTANDER                                             3
 ACTION:UP  11-03-28 15:06 OP:jfem STATUS:               ID:20110206190122 L   I
 2011-02-06-1900-00M.COL___138                                                 6
 STAT SP IPHASW D HRMM SECON CODA AMPLIT PERI AZIMU VELO SNR AR TRES W  DIS CAZ7
 BAR2 SZ IP       19 1 42.13                             170     0.110   26 187 
 BAR2 SZ I        19 1 42.66        11.3 0.37                            26 187 
 RUS  HZ EP   1   19 1 46.14                             143    -0.2 7  104 176 
 RUS  HZ I        19 1 47.01         2.5 0.10                           104 176 
 RUS  HN ES   2   19 2  4.77                             143    -0.2 5  104 176 
 GRA  SZ EP   1   19 1 47.52                             137     0.1 7  123  18 
 NOR  SZ EP   1   19 1 58.27                             118     0.1 6  236 234 
 NOR  SE ES   2   19 2 25.94                             118    -0.2 4  236 234 
 CHI  HZ EP   1   19 2  0.19                             117    -0.2 6  251 195 
 CHI  HE ES   2   19 2 30.58                             117     0.6 4  251 195 
                                                                                
