 2011 11 6 1013 35.6 L   6.805 -73.134139.7  RSN  8 0.5 1.8LRSN                1
 GAP=138        0.82       4.7     5.0  6.5  0.1291E+01  0.1208E+02  0.5630E+01E
 Epicentro: LOS SANTOS - SANTANDER                                             3
 ACTION:UPD 12-07-13 16:08 OP:ep   STATUS:               ID:20111106101335 L   I
 2011-11-06-1011-45S.COL___175                                                 6
 STAT SP IPHASW D HRMM SECON CODA AMPLIT PERI AZIMU VELO AIN AR TRES W  DIS CAZ7
 BAR2 SZ EP       1013 54.40                             170   -0.1410 24.1 193 
 BAR2 SZ ES   1   1014  8.83                             170   -0.47 7 24.1 193 
 BAR2 SZ I        1014 12.08        17.8 0.24                          24.1 193 
 BRR  HZ EP       1013 56.22                             151    0.0510 72.0 298 
 BRR  HN ES   1   1014 12.66                             151    0.46 7 72.0 298 
 BRR  HZ I        1014 16.91        11.0 0.32                          72.0 298 
 PAM  SZ EP       1013 57.30                             150    0.1710 76.2  39 
 PAM  SN ES   1   1014 14.20                             150    0.30 7 76.2  39 
 RUS  HZ EP       1013 58.39                             142   -0.4310  101 177 
 RUS  HN ES   1   1014 17.10                             142    0.19 7  101 177 
 RUS  HZ I        1014 18.33         5.6 0.42                           101 177 
 ZAR  HZ EP   3   1014  7.45                             121   -0.33 2  205 292 
 ZAR  HN ES   1   1014 32.03                             121   -0.83 6  205 292 
 HEL  HZ EP       1014 15.78                             113    0.10 8  273 256 
 HEL  HZ I        1014 52.90         3.8 0.38                           273 256 
 GUY  SZ EP       1014 19.72                             111    0.35 7  305 235 
 GUY  SZ I        1015  1.89         7.2 0.26                           305 235 
 RREF HZ EP   3   1014 21.84                             109    0.18 2  323 229 
 RREF HN ES   2   1014 59.24                             109    1.68 3  323 229 
 RREF HZ I        1015  1.62         3.5 0.26                           323 229 
                                                                                
