 2013  5 6 1316 10.1 L   6.792 -73.129147.3  RSN 18 0.5 3.2LRSN 3.5WRSN        1
 SPEC AVERAGE  MO 14.3 ST 34.2 OM  3.3 f0 4.12 R0.4508 AL 2.32 WI 34.9 MW  3.5 3
 SPEC SD       MO  0.3 ST 41.6 OM  0.9 f0 1.50 R0.2163 AL      WI      MW  0.2 3
 GAP= 72        0.99       3.0     2.8  4.6 -0.6631E-01  0.2165E+01  0.1405E-03E
 Epicentro: LOS SANTOS - SANTANDER                                             3
 SPEC TAM HH N MO 14.4 ST  1.8 OM  2.7 f0 1.81 R0.8586 AL 1.78 WI 14.5 MW  3.6 3
 SPEC TAM HH N T131659 K 0.000 GD  212 VS 4.20 DE 3.20 Q0300.0 QA 0.60 VS 4.20 3
 SPEC PTB HH N MO 14.4 ST 44.2 OM  2.7 f0 5.25 R0.2960 AL 1.82 WI 31.1 MW  3.6 3
 SPEC PTB HH N T131657 K 0.000 GD  209 VS 4.20 DE 3.20 Q0300.0 QA 0.60 VS 4.20 3
 SPEC RUS HH N MO 14.1 ST 10.7 OM  2.5 f0 4.03 R0.3856 AL 2.56 WI 27.4 MW  3.4 3
 SPEC RUS HH N T131651 K 0.000 GD  177 VS 4.20 DE 3.20 Q0300.0 QA 0.60 VS 4.20 3
 SPEC COD HH N MO 13.8 ST  2.7 OM  1.8 f0 3.37 R0.4611 AL 1.37 WI 18.3 MW  3.1 3
 SPEC COD HH N T131735 K 0.000 GD  378 VS 4.20 DE 3.20 Q0300.0 QA 0.60 VS 4.20 3
 SPEC BRR HH E MO 14.6 ST111.4 OM  3.0 f0 6.15 R0.2527 AL 4.06 WI 83.4 MW  3.7 3
 SPEC BRR HH E T131646 K 0.000 GD  164 VS 4.20 DE 3.20 Q0300.0 QA 0.60 VS 4.20 3
 ACTION:UPD 13-06-20 09:48 OP:ep   STATUS:               ID:20130506131610 L   I
 2013-05-06-1310-00M.COL___253                                                 6
 STAT SP IPHASW D HRMM SECON CODA AMPLIT PERI AZIMU VELO AIN AR TRES W  DIS CAZ7
 BAR2 SZ IP     D 1316 29.82                             171   -0.1210 22.9 195 
 BAR2 SZ ES       1316 44.89                             171   -0.5010 22.9 195 
 BAR2 SZ I        1316 46.27       567.4 0.18            168           22.9 195 
 GIR2 SZ EP       1316 29.89                             167   -0.1310 32.5 347 
 GIR2 SZ ES       1316 45.92                             167    0.3810 32.5 347 
 GIR2 SZ I        1316 48.17       117.3 0.41            167           32.5 347 
 BRR  HZ EP   1   1316 31.85                             152    0.28 7 73.2 298 
 BRR  HN ES       1316 48.62                             152    0.3410 73.2 298 
 BRR  HZ I        1316 49.73       227.2 0.14            150           73.2 298 
 PAM  SZ IP     D 1316 32.60                             151    0.1110 76.9  38 
 PAM  SZ I        1316 33.00       307.6 0.24            154           76.9  38 
 PAM  SN ES       1316 49.84                             151   -0.0810 76.9  38 
 RUS  HZ IP     C 1316 33.68                             144   -0.2910 99.6 177 
 RUS  HZ I        1316 34.72       132.2 0.10            143           99.6 177 
 RUS  HN ES       1316 52.32                             144   -0.2410 99.6 177 
 PTB  HZ EP   2   1316 36.74                             132   -0.64 5  149 259 
 PTB  HN ES       1316 57.64                             132   -0.99 9  149 259 
 PTB  HZ I        1317  4.81       183.9 0.22            130            149 259 
 TAM  HZ IP     D 1316 38.12                             131    0.37 9  153 105 
 TAM  HZ I        1316 38.28        69.8 0.18            133            153 105 
 TAM  HN ES       1316 59.78                             131    0.49 9  153 105 
 OCA  HZ EP   1   1316 39.09                             130    0.42 7  161 353 
 OCA  HN ES       1317  0.92                             130   -0.00 9  161 353 
 OCA  HZ I        1317  3.15       205.2 0.18            130            161 353 
 ZAR  HZ EP       1316 42.78                             122   -0.11 8  206 292 
 ZAR  HN ES       1317  8.66                             122    0.22 8  206 292 
 ZAR  HZ I        1317 14.10       160.8 0.18            121            206 292 
 NOR  HZ EP   1   1316 45.36                             119   -0.70 6  236 235 
 NOR  HE ES       1317 15.02                             119    0.93 8  236 235 
 NOR  HZ I        1317 19.25       226.9 0.74            118            236 235 
 SML  HZ EP   1   1316 46.40                             118   -0.62 6  245 335 
 SML  HN ES       1317 15.81                             118    0.03 8  245 335 
 SML  HZ I        1317 20.23       122.3 0.28            118            245 335 
 ROSC BZ EP   4   1316 49.65                             117    1.29 0  253 211 
 ROSC BN ES   4   1317 21.06                             117    2.88 0  253 211 
 ROSC BZ I        1317 25.93       131.7 0.40            116            253 211 
 HEL  HZ EP   1   1316 51.29                             115    0.69 6  274 256 
 HEL  HN ES       1317 22.69                             115    0.52 8  274 256 
 HEL  HZ I        1317 28.50        70.0 0.24            114            274 256 
 URE  HZ EP   4   1316 49.89                             114   -1.62 0  286 292 
 URE  HN ES   4   1317 21.50                             114   -2.28 0  286 292 
 URE  HZ I        1317 23.36       101.7 0.34            113            286 292 
 VIL  SZ EP   2   1316 53.56                             112   -0.01 4  303 192 
 VIL  SN ES   2   1317 28.14                             112    0.69 4  303 192 
 RREF HZ EP   4   1316 56.76                             111    0.32 0  323 230 
 RREF HN ES   4   1317 33.00                             111    0.44 0  323 230 
 DBB  SZ EP     C 1316 57.62                             110   -0.27 7  341 274 
 DBB  SZ ES   4   1317 33.79                             110   -1.35 0  341 274 
 COD  HZ EP   4   1316 58.01                             109   -0.68 0  349 354 
 COD  HN ES   4   1317 35.91                             109   -0.65 0  349 354 
 SDV  BZ EP     C 1316 59.45                             108   -0.68 6  360  50 
 SDV  BE ES   4   1317 37.32                             108   -1.81 0  360  50 
 PRA  HZ EP   4   1317  3.54                             107   -0.19 0  392 210 
 PRA  HN ES   4   1317 46.14                             107    0.61 0  392 210 
 PRA  HZ I        1317 52.28        95.5 0.52            106            392 210 
 PAL  HZ EP   4   1317  5.83                             106    0.35 0  407 239 
 SJC  HZ EP   4   1317  4.26                             106   -1.69 0  411 327 
 SJC  HN ES   4   1317 45.47                             106   -4.02 0  411 327 
 YOT  HZ EP   4   1317 12.69                             103   -0.63 0  473 229 
                                                                                
