 2017  3 6 1525 13.3 L   6.004 -73.690115.3  RSN  7 0.4 1.5LRSN                1
 GAP=127        1.05       4.6     3.7  7.9 -0.5728E+01  0.3741E+01 -0.3174E+01E
 Epicentro: VELEZ - SANTANDER                                                  3
 ACTION:UPD 17-05-25 18:37 OP:jn   STATUS:               ID:20170306152513 L   I
 OLDACT:UP  17-03-06 20:33 OP:ar   STATUS:               ID:20170306151745     3
 OLDACT:REG 17-03-06 19:14 OP:ar   STATUS:               ID:20170306151745     3
 2017-03-06-1518-00M.COL___365                                                 6
 STAT SP IPHASW D HRMM SECON CODA AMPLIT PERI AZIMU VELO AIN AR TRES W  DIS CAZ7
 SPBC HZ EP   2   1525 30.40                             152   -0.15 5 57.5 227 
 SPBC HN ES   2   1525 44.16                             152    0.19 5 57.5 227 
 SPBC HZ I        1525 47.94        21.2 0.30            152           57.5 227 
 RUS  HZ EP       1525 31.57                             147   -0.2310 68.4 100 
 RUS  HN ES       1525 45.99                             147   -0.2110 68.4 100 
 RUS  HZ I        1525 47.20         3.5 0.30            152           68.4 100 
 BAR2 EZ EP       1525 32.82                             141    0.1210 85.9  41 
 BAR2 EZ ES       1525 47.93                             141    0.1410 85.9  41 
 PTB  HZ EP       1525 32.93                             135   -0.8910  103 305 
 PTB  HN ES       1525 49.21                             135   -0.5810  103 305 
 PTB  HZ I        1525 52.12         5.3 0.11            137            103 305 
 BRR  HZ EP       1525 35.49                             130    0.0210  122 359 
 BRR  HE ES       1525 53.33                             130    0.6010  122 359 
 NOR  HZ EP       1525 37.52                             126    0.30 9  139 250 
 NOR  HN ES       1525 56.49                             126    0.64 9  139 250 
 NOR  HZ I        1525 59.81         9.4 0.30            128            139 250 
 PAM  EZ EP       1525 42.67                             118    0.26 9  184  37 
 PAM  EE ES       1526  5.07                             118   -0.01 9  184  37 
 PAM  EZ I        1526  6.49         3.2 0.22            122            184  37 
                                                                                
