 2013  6 6 1823 41.1 L   6.794 -73.093145.3  RSN  8 0.5 2.0LRSN                1
 GAP=199        1.11       3.8     7.1  6.6  0.5953E+01  0.4491E+01  0.1213E+01E
 Epicentro: LOS SANTOS - SANTANDER                                             3
 ACTION:UPD 14-01-08 09:52 OP:ep   STATUS:               ID:20130606182341 L   I
 OLDACT:REG 13-06-06 18:49 OP:nd   STATUS:               ID:20130606181959     3
 2013-06-06-1819-59M.COL___260                                                 6
 STAT SP IPHASW D HRMM SECON CODA AMPLIT PERI AZIMU VELO AIN AR TRES W  DIS CAZ7
 BAR2 SZ EP       1824  0.78                             170    0.0910 24.4 204 
 BAR2 SZ ES       1824 16.11                             170    0.1410 24.4 204 
 BAR2 SZ I        1824 17.42        18.8 0.32            171           24.4 204 
 GIR2 SZ EP       1824  0.71                             166   -0.0610 33.4 341 
 GIR2 SZ I        1824 17.24         9.7 0.26            166           33.4 341 
 BRR  HZ IP     D 1824  2.73                             151    0.2210 76.7 297 
 BRR  HN ES       1824 19.82                             151    0.6110 76.7 297 
 BRR  HZ I        1824 22.61        19.8 0.16            151           76.7 297 
 RUS  HZ EP       1824  4.65                             144   -0.0810 99.7 179 
 RUS  HN ES       1824 22.70                             144   -0.4710 99.7 179 
 RUS  HZ I        1824 24.76        10.3 0.34            144           99.7 179 
 PTB  HZ EP       1824  8.04                             131   -0.49 9  153 260 
 PTB  HN ES       1824 29.00                             131   -0.94 9  153 260 
 PTB  HZ I        1824 36.24        15.1 0.48            131            153 260 
 SML  HZ EP       1824 17.55                             117   -0.48 8  247 334 
 SML  HN ES       1824 47.33                             117    0.50 8  247 334 
 SML  HZ I        1824 47.66        20.4 0.10            117            247 334 
 CHI  HZ EP       1824 18.85                             117   -0.02 8  250 197 
 CHI  HN ES       1824 48.81                             117    0.48 8  250 197 
 CHI  HZ I        1824 54.06         5.5 0.26            117            250 197 
 PRA  HZ EP       1824 35.11                             106    0.24 6  394 210 
 PRA  HN ES       1825 17.92                             106    1.10 6  394 210 
 PRA  HZ I        1825 22.48         6.8 0.34            106            394 210 
                                                                                
