 2013 10 6 1028 25.7 L   6.755 -73.219138.9  RSN  4 0.3 1.6LRSN                1
 GAP=222        0.85       9.0     5.9  6.8  0.1991E+02  0.1060E+02 -0.4051E+01E
 Epicentro: VILLANUEVA - SANTANDER                                             3
 ACTION:UPD 13-11-25 09:19 OP:ep   STATUS:               ID:20131006102825 L   I
 OLDACT:DUP 13-10-06 16:55 OP:stll STATUS:               ID:20131006101837d    3
 2013-10-06-1018-36M.COL___232                                                 6
 STAT SP IPHASW D HRMM SECON CODA AMPLIT PERI AZIMU VELO AIN AR TRES W  DIS CAZ7
 BAR2 SZ EP       1028 44.52                             172    0.1210 18.4 167 
 BAR2 SZ ES       1028 59.15                             172    0.1510 18.4 167 
 BRR  HZ EP       1028 45.48                             153   -0.3810 67.0 306 
 BRR  HN ES       1029  1.51                             153   -0.0910 67.0 306 
 PTB  HZ EP       1028 50.83                             132   -0.47 9  139 260 
 PTB  HN ES       1029 11.39                             132    0.12 9  139 260 
 ZAR  HZ EP       1028 57.87                             122    0.74 9  199 294 
 ZAR  HZ I        1028 58.44         4.1 0.34            121            199 294 
 ZAR  HE ES       1029 21.61                             122   -0.05 9  199 294 
                                                                                
