 2014  9 6 1225 35.1 L   6.795 -73.178140.7  RSN  9 0.3 2.0LRSN                1
 GAP=234        0.72       3.4     4.3  4.8  0.5861E+01  0.4679E+01  0.5466E+01E
 Epicentro: LOS SANTOS - SANTANDER                                             3
 ACTION:UPD 14-10-03 23:02 OP:nd   STATUS:               ID:20140906122535 L   I
 OLDACT:UP  14-09-06 23:12 OP:mh   STATUS:               ID:20140906121820     3
 OLDACT:UP  14-09-06 23:09 OP:mh   STATUS:               ID:20140906121820     3
 OLDACT:REG 14-09-06 22:12 OP:mh   STATUS:               ID:20140906121820     3
 2014-09-06-1218-20M.COL___269                                                 6
 STAT SP IPHASW D HRMM SECON CODA AMPLIT PERI AZIMU VELO AIN AR TRES W  DIS CAZ7
 BAR2 SZ EP   1   1225 54.13                             171   -0.01 7 22.5 181 
 BAR2 SZ ES   1   1226  9.28                             171    0.31 7 22.5 181 
 BAR2 SZ I        1226 11.90        21.3 0.31            168           22.5 181 
 BRR  HZ EP       1225 55.56                             153   -0.0210 68.4 300 
 BRR  HN ES       1226 12.02                             153    0.4910 68.4 300 
 BRR  HZ I        1226 17.24        17.1 0.06            152           68.4 300 
 RUS  HZ EP   1   1225 58.05                             143   -0.33 7  100 174 
 RUS  HN ES       1226 16.09                             143   -0.4210  100 174 
 RUS  HZ I        1226 18.38         6.7 0.29            145            100 174 
 PTB  HZ EP   1   1226  0.94                             132   -0.43 7  144 259 
 PTB  HN ES       1226 21.60                             132   -0.24 9  144 259 
 PTB  HZ I        1226 23.66        10.5 0.16            132            144 259 
 SPBC HZ EP   1   1226  2.91                             128   -0.10 7  161 218 
 SPBC HN ES       1226 24.76                             128    0.02 9  161 218 
 SPBC HZ I        1226 29.67        13.5 0.22            129            161 218 
 ZAR  HN ES       1226 31.45                             122   -0.30 9  201 293 
 ZAR  HZ I        1226 37.40        10.5 0.17            123            201 293 
 CHI  HZ EP       1226 12.84                             116    0.43 8  247 194 
 CHI  HN ES   1   1226 41.62                             116    0.14 6  247 194 
 CHI  HZ I        1226 44.94         7.0 0.60            118            247 194 
 GUY2CHZ EP       1226 18.72                             112    0.56 7  298 234 
 GUY2CHN ES   4   1226 53.88                             112    2.17 0  298 234 
 GUY2CHZ I        1227  0.50         4.8 0.21                           298 234 
 PRA  HZ EP       1226 28.00                             106   -0.23 6  390 209 
 PRA  HN ES       1227  9.98                             106    0.33 6  390 209 
 PRA  HZ I        1227 15.84         6.9 0.68            108            390 209 
                                                                                
