 2017  3 6 1453 41.6 L   6.803 -73.201156.2  RSN  4 0.5 1.4LRSN                1
 GAP=145        1.22       8.0     7.4 10.3 -0.1789E+02  0.1871E+02 -0.8009E+01E
 Epicentro: ZAPATOCA - SANTANDER                                               3
 ACTION:UPD 17-05-25 18:37 OP:jn   STATUS:               ID:20170306145341 L   I
 OLDACT:DUP 17-03-06 20:21 OP:ar   STATUS:               ID:20170306144748d    3
 2017-03-06-1448-00M.COL___365                                                 6
 STAT SP IPHASW D HRMM SECON CODA AMPLIT PERI AZIMU VELO AIN AR TRES W  DIS CAZ7
 BAR2 EZ EP       1454  2.73                             171    0.2210 23.4 175 
 BAR2 EZ ES       1454 18.82                             171    0.0210 23.4 175 
 BAR2 EZ I        1454 19.18         5.2 0.22            171           23.4 175 
 PAM  EZ EP       1454  5.51                             151    0.3410 81.1  43 
 PAM  EN ES       1454 23.28                             151   -0.2610 81.1  43 
 PAM  EZ I        1454 25.09         4.4 0.56            153           81.1  43 
 RUS  HZ EP       1454  6.94                             145    0.4610  102 173 
 RUS  HN ES       1454 25.54                             145   -0.3310  102 173 
 RUS  HZ I        1454 28.15         2.3 0.32            147            102 173 
 PTB  HZ EP       1454  7.92                             135   -1.03 9  142 258 
 PTB  HN ES       1454 30.79                             135    0.53 9  142 258 
 PTB  HZ I        1454 32.77         2.9 0.40            136            142 258 
                                                                                
