 2014  7 6 1814 56.5 L   6.826 -73.127141.5  RSN 16 0.5 1.8LRSN                1
 GAP=185        1.07       2.9     4.7  6.1  0.1303E+00  0.6436E+01  0.2329E+01E
 Epicentro: LOS SANTOS - SANTANDER                                             3
 ACTION:UPD 15-03-16 20:41 OP:nd   STATUS:               ID:20140706181456 L   I
 OLDACT:REG 14-07-06 20:33 OP:spq  STATUS:               ID:20140706180818     3
 2014-07-06-1808-18M.COL___265                                                 6
 STAT SP IPHASW D HRMM SECON CODA AMPLIT PERI AZIMU VELO AIN AR TRES W  DIS CAZ7
 BAR2 SZ IP     D 1815 16.14                             169    0.4210 26.5 193 
 BAR2 SZ ES   1   1815 30.19                             169   -0.50 7 26.5 193 
 BAR2 SZ I        1815 39.07         7.8 0.22            169           26.5 193 
 BRR  HZ IP     C 1815 17.87                             152    0.6210 71.7 296 
 BRR  HN ES       1815 34.30                             152    0.8810 71.7 296 
 BRR  HZ I        1815 35.40        11.3 0.15            152           71.7 296 
 RUS  HZ EP       1815 20.13                             142    0.0610  103 177 
 RUS  HE ES       1815 38.09                             142   -0.3410  103 177 
 RUS  HZ I        1815 41.13         5.3 0.36            145            103 177 
 PTB  HZ EP       1815 22.87                             131   -0.52 9  150 258 
 PTB  HE ES       1815 43.42                             131   -0.93 9  150 258 
 PTB  HZ I        1815 45.32         8.5 0.14            132            150 258 
 OCA  HE ES   1   1815 45.14                             129   -0.77 7  158 352 
 OCA  HZ I        1815 52.00         8.2 0.11            132            158 352 
 SPBC HZ IP     D 1815 25.17                             127    0.13 9  167 219 
 SPBC HN ES       1815 47.68                             127    0.39 9  167 219 
 SPBC HZ I        1815 54.19         7.5 0.28            130            167 219 
 ZAR  HZ EP       1815 29.09                             121    0.30 9  205 291 
 ZAR  HN ES       1815 54.07                             121    0.12 9  205 291 
 ZAR  HZ I        1815 59.42         7.4 0.17            123            205 291 
 SML  HZ EP       1815 32.16                             117   -0.57 8  242 335 
 SML  HE ES       1816  0.90                             117   -0.07 8  242 335 
 SML  HZ I        1816  8.39         7.2 0.09            119            242 335 
 CHI  HZ EP       1815 34.15                             116   -0.21 8  252 195 
 CHI  HE ES   1   1816  3.77                             116   -0.09 6  252 195 
 CHI  HZ I        1816  7.01         3.9 0.32            118            252 195 
 HEL  HN ES       1816  8.49                             114    0.23 8  275 255 
 HEL  HZ I        1816 15.14         3.9 0.56            116            275 255 
 GUY2CHZ EP       1815 40.69                             111    0.37 7  304 235 
 GUY2CHN ES       1816 13.75                             111   -0.73 7  304 235 
 GUY2CHZ I        1816 24.07         3.3 0.56                           304 235 
 RREF HZ EP       1815 42.89                             110    0.01 7  325 229 
 RREF HN ES       1816 18.81                             110   -0.23 7  325 229 
 RREF HZ I        1816 26.17         2.4 0.26            112            325 229 
 TOL  SN ES       1816 22.79                             108   -0.05 6  347 225 
 TOL  SZ I        1816 30.11         5.1 0.29            110            347 225 
 PRA  HN ES       1816 32.54                             106    0.27 6  395 210 
 PRA  HZ I        1816 38.57         3.1 0.34            108            395 210 
 ORTC HN ES       1816 33.51                             105    0.52 6  399 216 
 ORTC HZ I        1816 38.86         1.9 0.28            107            399 216 
 SJC  HZ EP   4   1815 50.38                             105   -1.43 0  408 326 
 SJC  HN ES   4   1816 33.37                             105   -1.55 0  408 326 
 SJC  HZ I        1816 39.16         1.5 0.58            107            408 326 
                                                                                
