 2011  7 6 1530 18.3 L   6.774 -73.094147.9  RSN 12 0.3 2.7LRSN                1
 GAP=144        0.49       2.1     3.0  3.3 -0.3305E+01  0.2005E+01  0.6908E+00E
 Epicentro: LOS SANTOS - SANTANDER                                             3
 ACTION:UPD 12-07-25 13:58 OP:epov STATUS:               ID:20110706153018 L   I
 2011-07-06-1529-13S.COL___121                                                 6
 STAT SP IPHASW D HRMM SECON CODA AMPLIT PERI AZIMU VELO AIN AR TRES W  DIS CAZ7
 BAR2 SZ IP       1530 38.00                             171   -0.1410 22.4 206 
 BAR2 SZ ES   1   1530 53.77                             171    0.13 7 22.4 206 
 BAR2 SZ I        1530 54.43        88.5 0.35                          22.4 206 
 PAM  SZ EP   1   1530 40.87                             152    0.22 7 76.2  35 
 PAM  SE ES   2   1530 58.28                             152    0.18 5 76.2  35 
 BRR  HZ EP   1   1530 39.95                             151   -0.07 7 77.6 298 
 BRR  HE ES   1   1530 57.33                             151    0.34 7 77.6 298 
 BRR  HZ I        1531  1.63       104.3 0.15                          77.6 298 
 RUS  HZ EP   1   1530 41.80                             145   -0.22 7 97.5 179 
 RUS  HN ES   1   1531  0.51                             145   -0.03 7 97.5 179 
 RUS  HZ I        1531  2.10        60.8 0.53                          97.5 179 
 BRI  SZ IP       1530 42.56                             142    0.1310  109  17 
 BRI  SZ ES   1   1531  1.19                             142   -0.08 7  109  17 
 BRI  SZ I        1531  3.19        48.7 0.21                           109  17 
 GRA  SZ EP       1530 43.80                             137    0.0010  127  15 
 GRA  SZ ES   1   1531  3.47                             137   -0.25 7  127  15 
 GRA  SZ I        1531  6.42        70.0 0.32                           127  15 
 OCA  SZ EP   1   1530 47.19                             129    0.10 7  164 351 
 OCA  SZ ES   2   1531  9.13                             129   -0.44 5  164 351 
 OCA  SZ I        1531 13.48        70.6 0.27                           164 351 
 NOR  SZ EP   1   1530 54.11                             119   -0.35 6  238 236 
 NOR  SN ES   1   1531 22.04                             119   -0.64 6  238 236 
 CHI  HZ EP   1   1530 56.01                             118    0.05 6  247 197 
 CHI  HZ I        1531 31.59        31.0 0.61                           247 197 
 HEL  HZ EP   1   1530 59.51                             115    0.37 6  277 257 
 HEL  HN ES   1   1531 30.99                             115   -0.02 6  277 257 
 HEL  HZ I        1531 36.81        42.4 0.38                           277 257 
 TOL  SZ EP   1   1531  7.31                             110    0.46 5  346 226 
 TOL  SZ ES   1   1531 45.13                             110    0.39 5  346 226 
 PRA  HZ EP   1   1531 11.62                             107   -0.29 4  392 211 
 PRA  HE ES   2   1531 54.64                             107    0.89 3  392 211 
                                                                                
