 2012  5 6 1041 19.3 L   6.772 -73.109149.7  RSN 10 0.4 2.1LRSN                1
 GAP=142        0.96       4.7     5.2  7.2 -0.1244E+01  0.1311E+02  0.6086E+01E
 Epicentro: LOS SANTOS - SANTANDER                                             3
 ACTION:UP  12-07-05 12:02 OP:pat  STATUS:               ID:20120506104119 L   I
 2012-05-06-1040-00M.COL___192                                                 6
 STAT SP IPHASW D HRMM SECON CODA AMPLIT PERI AZIMU VELO SNR AR TRES W  DIS CAZ7
 BAR2 SZ EP       1041 39.28                             171    -0.110   21 202 
 BAR2 SZ ES   1   1041 55.21                             171     0.2 7   21 202 
 BAR2 SZ I        1041 57.30        40.9 0.28                            21 202 
 BRR  HZ EP       1041 41.26                             152     0.110   76 299 
 BRR  HE ES   1   1041 58.46                             152     0.3 7   76 299 
 BRR  HZ I        1042  2.46        26.0 0.14                            76 299 
 PAM  SZ EP       1041 42.25                             151     0.410   77  36 
 PAM  SN ES   1   1041 59.37                             151    -0.2 7   77  36 
 RUS  HZ EP   1   1041 43.14                             145     0.0 7   97 178 
 RUS  HN ES   1   1042  1.41                             145    -0.4 7   97 178 
 RUS  HZ I        1042  3.18         9.8 0.17                            97 178 
 PTB  HZ EP   1   1041 46.00                             132    -0.9 7  151 260 
 PTB  HZ I        1042 12.59        14.8 0.30                           151 260 
 ZAR  HZ EP   1   1041 52.24                             123    -0.2 6  209 293 
 ZAR  HE ES   1   1042 17.49                             123    -0.9 6  209 293 
 ZAR  HZ I        1042 23.67        16.6 0.24                           209 293 
 NOR  SZ EP   1   1041 54.95                             119    -0.4 6  236 236 
 NOR  SN ES   1   1042 23.61                             119     0.0 6  236 236 
 CHI  HZ EP   1   1041 57.18                             118     0.2 6  247 196 
 CHI  HN ES   1   1042 26.37                             118     0.0 6  247 196 
 HEL  HZ EP   1   1042  0.57                             115     0.5 6  275 257 
 HEL  HE ES   1   1042 33.02                             115     1.2 6  275 257 
 HEL  HZ I        1042 37.73         7.0 0.22                           275 257 
 PRA  HZ EP   1   1042 12.97                             107     0.1 4  391 210 
                                                                                
