 2010  9 6 1310 58.4 L   6.776 -73.071140.1  RSN  6 0.3 1.9LRSN                1
 GAP=167        0.57       3.7     8.0  6.6 -0.9804E+01 -0.4574E+01  0.1002E+01E
 Epicentro: LOS SANTOS - SANTANDER                                             3
 ACTION:UP  11-02-18 11:00 OP:tino STATUS:               ID:20100906131058 L   I
 2010-09-06-1307-24S.COL___120                                                 6
 STAT SP IPHASW D HRMM SECON CODA AMPLIT PERI AZIMU VELO SNR AR TRES W  DIS CAZ7
 BAR2 SZ EP   1   1311 17.37                             170     0.0 7   24 211 
 BAR2 SZ ES   2   1311 31.62                             170    -0.6 5   24 211 
 BRR  HZ EP   1   1311 19.18                             149    -0.3 7   80 297 
 BRR  HZ I        1311 19.65        24.1 0.15                            80 297 
 BRR  HN ES   2   1311 36.24                             149     0.3 5   80 297 
 RUS  HZ EP   1   1311 21.25                             143    -0.2 7   98 181 
 RUS  HE ES   2   1311 39.91                             143     0.6 5   98 181 
 RUS  HZ I        1311 41.14         5.5 0.41                            98 181 
 GUE  SZ EP   1   1311 22.79                             138     0.1 7  118   8 
 GRA  SZ EP   1   1311 23.29                             136     0.1 7  126  14 
 GRA  SZ ES   2   1311 42.81                             136     0.3 5  126  14 
 PRA  HZ EP   1   1311 51.90                             105    -0.1 4  394 211 
 PRA  HN ES   2   1312 34.55                             105     0.8 3  394 211 
 PRA  HZ I        1312 40.11         4.7 0.29                           394 211 
                                                                                
