 2011  6 6 1532 23.7 L   6.782 -73.131143.8  RSN  6 0.2 1.7LRSN                1
 GAP=139        0.46       3.3     4.5  5.4 -0.4287E+01 -0.4346E+01  0.1779E+01E
 Epicentro: LOS SANTOS - SANTANDER                                             3
 ACTION:UP  11-07-14 19:03 OP:ep   STATUS:               ID:20110606153223 L   I
 2011-06-06-1530-11S.COL___132                                                 6
 STAT SP IPHASW D HRMM SECON CODA AMPLIT PERI AZIMU VELO SNR AR TRES W  DIS CAZ7
 BAR2 SZ EP   1   1532 43.01                             171    -0.1 7   22 195 
 BAR2 SZ ES   2   1532 57.74                             171    -0.4 5   22 195 
 BAR2 SZ I        1532 59.03        17.1 0.30                            22 195 
 BRR  HZ EP   1   1532 44.70                             151    -0.1 7   74 299 
 BRR  HZ I        1532 44.89        13.4 0.18                            74 299 
 BRR  HN ES   1   1533  1.36                             151     0.2 7   74 299 
 PAM  SZ EP   1   1532 45.96                             150     0.2 7   78  38 
 PAM  SE ES   2   1533  3.05                             150     0.1 5   78  38 
 RUS  HZ EP   1   1532 47.32                             144     0.2 7   99 177 
 RUS  HZ I        1532 48.17         4.8 0.16                            99 177 
 RUS  HN ES   2   1533  5.33                             144     0.0 5   99 177 
 GRA  SZ EP   1   1532 48.53                             136    -0.4 7  127  16 
 GRA  SZ ES   2   1533  8.65                             136     0.1 5  127  16 
 GRA  SZ I        1533 12.71         6.1 0.29                           127  16 
 NOR  SN ES   2   1533 27.05                             118    -0.1 4  235 235 
                                                                                
