 2013 11 6 1810 10.1 L   6.798 -73.158141.7  RSN  7 0.5 2.1LRSN                1
 GAP=135        1.19       5.3     5.2  7.5  0.2308E+01  0.9273E+01 -0.7359E+01E
 Epicentro: LOS SANTOS - SANTANDER                                             3
 ACTION:UPD 14-01-09 16:26 OP:ep   STATUS:               ID:20131106181010 L   I
 OLDACT:REG 13-11-06 17:38 OP:nd   STATUS:               ID:20131106181000     3
 2013-11-06-1810-00M.COL___273                                                 6
 STAT SP IPHASW D HRMM SECON CODA AMPLIT PERI AZIMU VELO AIN AR TRES W  DIS CAZ7
 BAR2 SZ EP       1810 29.26                             170    0.0710 23.0 187 
 BAR2 SZ ES       1810 43.82                             170   -0.3010 23.0 187 
 BAR2 SZ I        1810 44.95        54.4 0.32            173           23.0 187 
 BRR  HZ IP     C 1810 31.17                             152    0.4610 70.1 299 
 BRR  HN ES       1810 47.53                             152    0.7210 70.1 299 
 BRR  HZ I        1810 48.92        28.6 0.34            150           70.1 299 
 PAM  SZ IP     C 1810 32.30                             150    0.4010 78.4  40 
 PAM  SN ES       1810 48.53                             150   -0.4110 78.4  40 
 PAM  SZ I        1810 51.29        17.2 0.68            150           78.4  40 
 RUS  HZ EP       1810 33.86                             143    0.4610  101 175 
 RUS  HN ES       1810 51.44                             143   -0.1810  101 175 
 RUS  HZ I        1810 53.69         9.6 0.36            147            101 175 
 PTB  HZ EP       1810 36.06                             131   -0.51 9  146 259 
 PTB  HN ES       1810 56.56                             131   -0.70 9  146 259 
 PTB  HZ I        1811  0.42        17.1 0.14            132            146 259 
 ZAR  HZ EP       1810 42.43                             122    0.31 9  203 292 
 ZAR  HN ES       1811  7.45                             122    0.32 9  203 292 
 ZAR  HZ I        1811 10.80        11.2 0.30            122            203 292 
 SML  HZ EP       1810 45.51                             117   -0.90 8  243 336 
 SML  HN ES   2   1811 14.42                             117   -0.35 4  243 336 
 SML  HZ I        1811 23.35        14.9 0.10            117            243 336 
                                                                                
