 2011 11 6 1539 51.4 L   6.783 -73.164148.7  RSN  6 0.4 1.7LRSN                1
 GAP=135        0.73       4.7     6.9  9.5  0.5676E+01 -0.2668E+01 -0.1500E+02E
 Epicentro: LOS SANTOS - SANTANDER                                             3
 ACTION:UPD 12-07-13 16:08 OP:ep   STATUS:               ID:20111106153951 L   I
 2011-11-06-1538-44S.COL___175                                                 6
 STAT SP IPHASW D HRMM SECON CODA AMPLIT PERI AZIMU VELO AIN AR TRES W  DIS CAZ7
 BAR2 SZ EP       1540 11.14                             171   -0.1710 21.2 186 
 BAR2 SZ I        1540 28.09         9.6 0.22                          21.2 186 
 BRR  HZ EP       1540 13.11                             153    0.3310 70.4 301 
 BRR  HZ I        1540 17.66        20.2 0.44                          70.4 301 
 BRR  HN ES   2   1540 30.28                             153    0.79 5 70.4 301 
 PAM  SZ EP       1540 14.09                             150    0.0410 80.1  40 
 PAM  SN ES   2   1540 31.34                             150   -0.41 5 80.1  40 
 RUS  HZ EP       1540 15.38                             145    0.1010 98.9 175 
 RUS  HE ES   1   1540 33.76                             145   -0.18 7 98.9 175 
 RUS  HZ I        1540 34.96         4.0 0.22                          98.9 175 
 OCA  SZ EP       1540 19.97                             130   -0.08 9  162 354 
 OCA  SZ I        1540 57.98         8.2 0.50                           162 354 
 ZAR  HE ES   2   1540 48.06                             123   -1.19 4  203 293 
                                                                                
