 2017  1 6 1559 60.0 L   6.039 -73.704120.1  RSN 10 0.5 2.2LRSN                1
 GAP= 78        1.18       3.9     4.4  9.1  0.5313E+00  0.9748E+01  0.4899E+01E
 Epicentro: VELEZ - SANTANDER                                                  3
 ACTION:UPD 17-05-22 15:56 OP:jn   STATUS:               ID:20170106155960 L   I
 OLDACT:UP  17-03-25 16:52 OP:nlst STATUS:               ID:20170106155960 L   3
 OLDACT:UP  17-01-07 00:00 OP:dnl  STATUS:               ID:20170106155533     3
 OLDACT:REG 17-01-06 20:51 OP:dnl  STATUS:               ID:20170106155533     3
 2017-01-06-1558-00M.COL___371                                                 6
 STAT SP IPHASW D HRMM SECON CODA AMPLIT PERI AZIMU VELO AIN AR TRES W  DIS CAZ7
 RUS  HZ EP       16 0 19.18                             148    0.1010 70.6 103 
 RUS  HN ES   2   16 0 33.55                             148   -0.43 5 70.6 103 
 RUS  HZ I        16 0 35.37        17.2 0.28            151           70.6 103 
 BAR2 EZ EP       16 0 20.23                             143    0.5710 84.1  43 
 BAR2 EZ ES       16 0 35.01                             143   -0.0010 84.1  43 
 BAR2 EZ I        16 0 36.68        68.8 0.38            146           84.1  43 
 PTB  HZ EP       16 0 19.66                             137   -0.9310100.0 304 
 PTB  HN ES       16 0 36.54                             137   -0.1310100.0 304 
 PTB  HZ I        16 0 37.91        35.6 0.10            138          100.0 304 
 BRR  HZ EP       16 0 22.61                             132    0.4710  118 360 
 BRR  HE ES   4   16 0 41.59                             132    2.16 0  118 360 
 BRR  HZ I        16 0 42.86        34.8 0.24            134            118 360 
 NOR  HZ EP       16 0 24.34                             127    0.14 9  139 248 
 NOR  HE ES       16 0 43.57                             127    0.47 9  139 248 
 NOR  HZ I        16 0 46.40        50.0 0.38            128            139 248 
 CHI  HZ EP       16 0 26.10                             124   -0.22 9  156 181 
 CHI  HN ES       16 0 46.41                             124   -0.46 9  156 181 
 CHI  HZ I        16 0 49.91        10.0 0.30            126            156 181 
 ZAR  HZ EP   2   16 0 31.07                             116    0.05 4  205 322 
 ZAR  HN ES       16 0 55.28                             116    0.05 9  205 322 
 ZAR  HZ I        16 0 56.77        32.3 0.20            117            205 322 
 GUY2CHZ EP       16 0 32.41                             116    0.83 9  205 244 
 GUY2CHE ES   4   16 0 58.11                             116    1.88 0  205 244 
 GUY2CHZ  IAML    16 1  2.46        13.9 0.46                           205 244 
 URE  HZ EP       16 0 38.09                             108   -1.05 7  277 313 
 URE  HN ES   4   16 1  7.65                             108   -2.04 0  277 313 
 URE  HZ I        16 1 18.22        13.7 0.16            110            277 313 
 ORTC HZ EP   2   16 0 41.02                             107    0.22 4  291 216 
 ORTC HN ES   4   16 1 14.08                             107    1.44 0  291 216 
 ORTC HZ I        16 1 17.11         8.0 0.62            109            291 216 
                                                                                
