 2013  2 6 1847  5.6 L   5.960 -73.609119.9  RSN  5 0.3 1.5LRSN                1
 GAP=119        0.69       3.0     7.4  9.6 -0.5412E+01  0.5350E+02 -0.6061E+01E
 Epicentro: BARBOSA - SANTANDER                                                3
 ACTION:UPD 13-03-12 09:31 OP:ep   STATUS:               ID:20130206184705 L   I
 2013-02-06-1840-00M.COL___240                                                 6
 STAT SP IPHASW D HRMM SECON CODA AMPLIT PERI AZIMU VELO AIN AR TRES W  DIS CAZ7
 RUS  HZ EP       1847 23.75                             152   -0.2410 58.7  97 
 RUS  HZ I        1847 24.00         3.8 0.20            159           58.7  97 
 RUS  HN ES       1847 38.04                             152   -0.2710 58.7  97 
 BAR2 SZ EP       1847 25.26                             142   -0.0510 84.3  34 
 BAR2 SZ ES   1   1847 41.24                             142    0.58 7 84.3  34 
 BAR2 SZ I        1847 41.90        13.1 0.12            149           84.3  34 
 PTB  HZ EP       1847 27.10                             133   -0.2910  114 304 
 BRR  HZ EP       1847 28.83                             130    0.2010  127 355 
 CHI  HZ EP       1847 31.35                             126    0.21 9  148 185 
 CHI  HN ES       1847 51.21                             126    0.16 9  148 185 
 CHI  HN I        1847 55.05         5.6 0.34            128            148 185 
                                                                                
