 2013  6 6 1221 45.8 L   6.716 -73.193144.9  RSN  6 0.4 1.6LRSN                1
 GAP=172        1.06       5.3     7.0  7.7  0.1333E+02 -0.1446E+01 -0.1353E+02E
 Epicentro: VILLANUEVA - SANTANDER                                             3
 ACTION:UPD 14-01-08 09:52 OP:ep   STATUS:               ID:20130606122145 L   I
 OLDACT:REG 13-06-06 15:03 OP:nd   STATUS:               ID:20130606121959     3
 2013-06-06-1219-59M.COL___260                                                 6
 STAT SP IPHASW D HRMM SECON CODA AMPLIT PERI AZIMU VELO AIN AR TRES W  DIS CAZ7
 BAR2 SZ EP       1222  5.22                             174    0.0210 13.7 175 
 BAR2 SZ ES       1222 19.63                             174   -0.6810 13.7 175 
 BAR2 SZ I        1222 21.20         8.7 0.20            174           13.7 175 
 GIR2 SZ EP       1222  5.40                             164   -0.2710 40.1 360 
 GIR2 SZ I        1222 21.71         4.9 0.14            159           40.1 360 
 BRR  HZ EP       1222  7.35                             152    0.4310 71.8 307 
 BRR  HN ES       1222 24.15                             152    0.7710 71.8 307 
 BRR  HZ I        1222 29.03        12.3 0.42            153           71.8 307 
 RUS  HZ EP       1222  9.24                             146    0.3610 91.8 172 
 RUS  HN ES       1222 26.96                             146    0.0910 91.8 172 
 RUS  HZ I        1222 28.54         5.8 0.32            149           91.8 172 
 PTB  HZ EP       1222 12.02                             133   -0.10 9  141 262 
 PTB  HN ES       1222 32.25                             133   -0.39 9  141 262 
 PTB  HZ I        1222 33.58         4.4 0.10            137            141 262 
 SML  HZ EP       1222 22.72                             116   -0.38 8  250 337 
 SML  HN ES       1222 52.11                             116   -0.07 8  250 337 
 SML  HZ I        1222 53.57         6.0 0.10            116            250 337 
                                                                                
