 2013  1 6 1018 17.8 L   6.708 -73.153140.0  RSN  4 0.4 1.0LRSN                1
 GAP=249        0.70      14.7     8.8  9.5  0.8483E+02  0.3053E+02  0.2286E+02E
 Epicentro: VILLANUEVA - SANTANDER                                             3
 ACTION:UPD 13-02-15 09:12 OP:ep   STATUS:               ID:20130106101817 L   I
 2013-01-06-1010-00M.COL___242                                                 6
 STAT SP IPHASW D HRMM SECON CODA AMPLIT PERI AZIMU VELO AIN AR TRES W  DIS CAZ7
 BAR2 SZ EP       1018 36.45                             174   -0.1410 13.2 194 
 BAR2 SZ ES   1   1018 51.07                             174   -0.16 7 13.2 194 
 BAR2 SZ I        1018 52.81         2.7 0.22            169           13.2 194 
 BRR  HE ES   2   1018 55.63                             150    0.77 5 75.9 306 
 PTB  HZ EP   1   1018 44.60                             131    0.50 7  145 263 
 PTB  HN ES   2   1019  4.52                             131   -0.08 5  145 263 
 PTB  HZ I        1019  6.32         1.0 0.36            131            145 263 
 ZAR  HN ES   1   1019 15.08                             120   -0.45 6  207 295 
                                                                                
