 2015  9 6 1357  5.5 L   6.704 -73.202144.8  RSN  4 0.4 1.6LRSN                1
 GAP=222        0.92      11.0     6.6  8.8  0.2570E+02  0.1476E+02 -0.4341E+01E
 Epicentro: VILLANUEVA - SANTANDER                                             3
 ACTION:UPD 15-10-28 16:24 OP:cam  STATUS:               ID:20150906135705 L   I
 OLDACT:UP  15-09-06 22:57 OP:mh   STATUS:               ID:20150906134748     3
 OLDACT:REG 15-09-06 21:16 OP:mh   STATUS:               ID:20150906134748     3
 2015-09-06-1347-48M.COL___358                                                 6
 STAT SP IPHASW D HRMM SECON CODA AMPLIT PERI AZIMU VELO AIN AR TRES W  DIS CAZ7
 BAR2 EZ EP       1357 24.32                             175   -0.4810 12.6 170 
 BAR2 EZ ES       1357 39.98                             175    0.0910 12.6 170 
 BAR2 EZ I        1357 41.07         8.9 0.32            171           12.6 170 
 BRR  HZ EP       1357 26.57                             152    0.0310 71.8 308 
 BRR  HN ES   1   1357 43.42                             152    0.44 7 71.8 308 
 BRR  HZ I        1357 46.95        11.9 0.40            147           71.8 308 
 PTB  HZ EP       1357 32.28                             133    0.64 9  140 263 
 PTB  HN ES       1357 51.82                             133   -0.24 9  140 263 
 PTB  HZ I        1357 59.29         3.4 0.20            131            140 263 
 ZAR  HN ES       1358  2.53                             122   -0.31 9  203 296 
 ZAR  HZ I        1358 11.11         4.7 0.52            122            203 296 
                                                                                
