 2016  2 6 1830  1.0 L   6.807 -73.134141.3  RSN  7 0.2 1.6LRSN                1
 GAP=138        0.58       2.1     3.0  4.8 -0.1235E+01  0.6441E+01 -0.2779E+01E
 Epicentro: LOS SANTOS - SANTANDER                                             3
 ACTION:UPD 16-03-04 21:23 OP:rebc STATUS:               ID:20160206183001 L   I
 OLDACT:REG 16-02-06 21:38 OP:cara STATUS:               ID:20160206182751     3
 2016-02-06-1827-51M.COL___334                                                 6
 STAT SP IPHASW D HRMM SECON CODA AMPLIT PERI AZIMU VELO AIN AR TRES W  DIS CAZ7
 BAR2 EZ IP       1830 19.94                             170   -0.1410 24.3 193 
 BAR2 EZ ES       1830 34.79                             170   -0.2010 24.3 193 
 BAR2 EZ I        1830 35.63        11.5 0.30            166           24.3 193 
 PAM  EZ IP       1830 23.00                             150    0.3810 76.0  39 
 PAM  EN ES       1830 39.63                             150    0.1110 76.0  39 
 PAM  EZ I        1830 42.05         6.1 0.52            155           76.0  39 
 RUS  HZ EP       1830 24.36                             143    0.0310  101 177 
 RUS  HN ES       1830 42.34                             143   -0.2110  101 177 
 RUS  HZ I        1830 44.04         2.5 0.46            145            101 177 
 SPBC HE ES       1830 51.62                             128    0.30 9  165 219 
 SPBC HZ I        1831  4.11         5.9 0.10            127            165 219 
 ZAR  HN ES       1830 58.50                             121    0.13 9  205 292 
 ZAR  HZ I        1831  6.89         4.7 0.26            120            205 292 
 SML  HZ EP       1830 36.90                             116   -0.43 8  244 335 
 SML  HN ES       1831  5.65                             116   -0.04 8  244 335 
 SML  HZ I        1831 13.80         8.1 0.28            117            244 335 
 GUY2CHN ES       1831 18.47                             111   -0.04 7  303 235 
 GUY2CHZ I        1831 27.54         1.7 0.46                           303 235 
                                                                                
