 2016 10 6 1732 32.8 L   6.801 -73.137140.7  RSN 11 0.3 2.0LRSN                1
 GAP=138        0.77       2.6     2.9  4.2 -0.7281E+00  0.3472E+01  0.2761E+01E
 Epicentro: LOS SANTOS - SANTANDER                                             3
 ACTION:UPD 16-11-09 19:16 OP:rebc STATUS:               ID:20161006173232 L   I
 OLDACT:UP  16-10-06 23:04 OP:lv   STATUS:               ID:20161006172743     3
 OLDACT:REG 16-10-06 20:52 OP:lv   STATUS:               ID:20161006172743     3
 2016-10-06-1728-00M.COL___332                                                 6
 STAT SP IPHASW D HRMM SECON CODA AMPLIT PERI AZIMU VELO AIN AR TRES W  DIS CAZ7
 BAR2 EZ EP       1732 51.61                             170   -0.2210 23.6 192 
 BAR2 EZ ES       1733  6.32                             170   -0.3510 23.6 192 
 BAR2 EZ I        1733  9.37        19.2 0.20            167           23.6 192 
 BRR  HZ EP       1732 53.49                             151    0.0410 71.9 298 
 BRR  HN ES       1733  9.77                             151    0.2210 71.9 298 
 BRR  HZ I        1733 14.95        12.1 0.14            151           71.9 298 
 PAM  EZ EP       1732 54.71                             150    0.2710 76.7  39 
 PAM  EE ES       1733 11.52                             150    0.2110 76.7  39 
 PAM  EZ I        1733 13.24        13.1 0.31            157           76.7  39 
 RUS  HZ EP       1732 55.98                             143   -0.0910  101 177 
 RUS  HN ES       1733 14.20                             143   -0.0110  101 177 
 RUS  HZ I        1733 16.44         9.4 0.32            145            101 177 
 PTB  HZ EP       1732 58.52                             131   -0.93 9  149 259 
 PTB  HN ES       1733 19.93                             131   -0.30 9  149 259 
 PTB  HZ I        1733 25.43        11.7 0.11            131            149 259 
 SPBC HZ EP       1733  0.86                             128   -0.13 9  164 219 
 SPBC HN ES       1733 23.48                             128    0.52 9  164 219 
 SPBC HZ I        1733 30.24        22.5 0.21            129            164 219 
 ZAR  HZ EP       1733  5.09                             121    0.08 9  205 292 
 ZAR  HN ES       1733 30.23                             121    0.10 9  205 292 
 ZAR  HZ I        1733 36.23        11.5 0.37            123            205 292 
 NOR  HZ EP       1733  8.63                             117    0.29 8  236 235 
 NOR  HN ES       1733 36.32                             117    0.28 8  236 235 
 NOR  HZ I        1733 41.01        10.8 0.30            119            236 235 
 CHI  HZ EP       1733 10.54                             116    0.27 8  249 195 
 CHI  HN ES       1733 39.32                             116   -0.17 8  249 195 
 CHI  HZ I        1733 45.54         3.6 0.31            118            249 195 
 GUY2CHZ EP   4   1733 17.78                             111    1.50 0  302 235 
 GUY2CHE ES       1733 50.34                             111    0.16 7  302 235 
 GUY2CHZ I        1734  0.30         7.8 0.54                           302 235 
 PRA  HZ EP       1733 26.11                             106   -0.11 6  393 210 
 PRA  HN ES       1734  8.06                             106    0.18 6  393 210 
 PRA  HZ I        1734 14.89         7.6 0.28            108            393 210 
                                                                                
