 2013  6 6 1419 50.4 L   6.812 -73.158143.8  RSN 14 0.5 2.7LRSN 3.3WRSN        1
 SPEC AVERAGE  MO 14.0 ST  7.2 OM  2.6 f0 3.58 R0.4515 AL 2.61 WI 15.5 MW  3.3 3
 SPEC SD       MO  0.3 ST  6.3 OM  0.4 f00.754 R0.0874 AL      WI      MW  0.2 3
 GAP= 64        1.23       3.1     3.4  5.9  0.7109E+00  0.4198E+01  0.2670E+00E
 Epicentro: LOS SANTOS - SANTANDER                                             3
 SPEC SML HH N MO 14.1 ST  5.4 OM  2.3 f0 3.21 R0.4841 AL 0.99 WI 27.9 MW  3.4 3
 SPEC SML HH N T142051 K 0.000 GD  281 VS 4.20 DE 3.20 Q0300.0 QA 0.60 VS 4.20 3
 SPEC NOR HH N MO 14.1 ST 13.0 OM  2.3 f0 4.34 R0.3581 AL 3.59 WI 20.5 MW  3.4 3
 SPEC NOR HH N T142051 K 0.000 GD  274 VS 4.20 DE 3.20 Q0300.0 QA 0.60 VS 4.20 3
 SPEC OCA HH N MO 14.5 ST 14.0 OM  2.8 f0 3.29 R0.4723 AL 2.21 WI  9.9 MW  3.6 3
 SPEC OCA HH N T142038 K 0.000 GD  214 VS 4.20 DE 3.20 Q0300.0 QA 0.60 VS 4.20 3
 SPEC TAM HH N MO 14.1 ST  3.7 OM  2.4 f0 2.88 R0.5396 AL 3.00 WI 19.1 MW  3.4 3
 SPEC TAM HH N T142035 K 0.000 GD  212 VS 4.20 DE 3.20 Q0300.0 QA 0.60 VS 4.20 3
 SPEC PTB HH N MO 13.8 ST  2.9 OM  2.1 f0 3.37 R0.4611 AL 1.83 WI 23.3 MW  3.1 3
 SPEC PTB HH N T142034 K 0.000 GD  205 VS 4.20 DE 3.20 Q0300.0 QA 0.60 VS 4.20 3
 SPEC RUS HH E MO 13.4 ST  1.2 OM  1.8 f0 3.29 R0.4723 AL 2.68 WI 12.2 MW  2.9 3
 SPEC RUS HH E T142028 K 0.000 GD  176 VS 4.20 DE 3.20 Q0300.0 QA 0.60 VS 4.20 3
 SPEC PAM SH N MO 13.9 ST  1.6 OM  2.3 f0 2.59 R0.6000 AL 3.30 WI  9.1 MW  3.2 3
 SPEC PAM SH N T142028 K 0.000 GD  163 VS 4.20 DE 3.20 Q0300.0 QA 0.60 VS 4.20 3
 SPEC BRR HH N MO 14.1 ST 19.7 OM  2.5 f0 5.12 R0.3035 AL 3.40 WI  8.2 MW  3.3 3
 SPEC BRR HH N T142027 K 0.000 GD  159 VS 4.20 DE 3.20 Q0300.0 QA 0.60 VS 4.20 3
 SPEC BAR2SH Z MO 13.6 ST  3.1 OM  2.0 f0 4.17 R0.3727 AL 2.51 WI  9.4 MW  3.0 3
 SPEC BAR2SH Z T142022 K 0.000 GD  145 VS 4.20 DE 3.20 Q0300.0 QA 0.60 VS 4.20 3
 ACTION:UPD 14-01-08 09:52 OP:ep   STATUS:               ID:20130606141950 L   I
 OLDACT:UP  13-06-06 20:05 OP:nd   STATUS:               ID:20130606141959     3
 OLDACT:REG 13-06-06 15:15 OP:nd   STATUS:               ID:20130606141959     3
 2013-06-06-1419-59M.COL___260                                                 6
 STAT SP IPHASW D HRMM SECON CODA AMPLIT PERI AZIMU VELO AIN AR TRES W  DIS CAZ7
 BAR2 SZ EP     D 1420  9.98                             170    0.1710 24.5 186 
 BAR2 SZ ES       1420 24.38                             170   -0.5810 24.5 186 
 BAR2 SZ I        1420 26.00       167.0 0.18            171           24.5 186 
 BRR  HZ IP     C 1420 11.95                             153    0.7310 69.3 298 
 BRR  HN ES       1420 28.61                             153    1.1410 69.3 298 
 BRR  HZ I        1420 33.22       125.4 0.14            152           69.3 298 
 PAM  SZ IP     D 1420 12.85                             150    0.4610 77.2  41 
 PAM  SN ES       1420 29.60                             150    0.0510 77.2  41 
 PAM  SZ I        1420 32.18        64.9 0.56            151           77.2  41 
 RUS  HZ EP       1420 13.92                             143   -0.1410  102 175 
 RUS  HE ES       1420 32.08                             143   -0.4410  102 175 
 RUS  HZ I        1420 33.20        50.8 0.26            145            102 175 
 PTB  HZ EP       1420 16.79                             132   -0.31 9  147 258 
 PTB  HN ES       1420 37.64                             132   -0.30 9  147 258 
 PTB  HZ I        1420 40.41        71.4 0.18            132            147 258 
 TAM  HZ EP       1420 18.37                             130    0.30 9  157 105 
 TAM  HN ES       1420 39.67                             130    0.01 9  157 105 
 TAM  HZ I        1420 40.83        37.6 0.22            132            157 105 
 OCA  HZ EP       1420 18.31                             129   -0.10 9  159 354 
 OCA  HN ES       1420 39.94                             129   -0.32 9  159 354 
 OCA  HZ I        1420 44.28       102.5 0.52            130            159 354 
 YOP  SZ IP     C 1420 20.66                             125    0.18 9  181 153 
 YOP  SN ES       1420 43.28                             125   -0.66 9  181 153 
 YOP  SZ I        1420 52.66        29.2 0.34            127            181 153 
 NOR  HZ EP       1420 26.47                             118    0.49 8  234 234 
 NOR  HN ES       1420 53.77                             118    0.04 8  234 234 
 NOR  HZ I        1420 55.92        30.3 0.16            119            234 234 
 SML  HZ EP       1420 26.81                             117    0.10 8  242 335 
 SML  HN ES       1420 54.77                             117   -0.27 8  242 335 
 SML  HZ I        1421  0.42        63.4 0.26            117            242 335 
 URE  HZ EP       1420 30.37                             113   -0.80 7  282 292 
 URE  HN ES       1421  1.78                             113   -1.19 7  282 292 
 URE  HZ I        1421 16.24        41.5 0.20            114            282 292 
 GUY2CHZ EP   4   1420 34.81                             112    0.94 0  301 234 
 GUY2CHN ES       1421  8.80                             112    1.01 7  301 234 
 GUY2CHZ I        1421 15.39        19.4 0.26                           301 234 
 COD  HZ EP       1420 38.24                             109   -0.28 6  347 355 
 COD  HN ES   4   1421 14.37                             109   -1.69 0  347 355 
 COD  HZ I        1421 22.23         8.4 0.54            109            347 355 
 PRA  HZ EP       1420 43.90                             106   -0.01 6  393 209 
 PRA  HN ES       1421 25.83                             106    0.18 6  393 209 
 PRA  HZ I        1421 31.82        21.3 0.44            107            393 209 
                                                                                
