 2014 11 6 1741  8.5 L   6.817 -73.647105.7  RSN  7 0.4 1.8LRSN                1
 GAP= 96        1.06       4.2     4.3  7.6 -0.5987E+01  0.7805E+01  0.5501E+01E
 Epicentro: EL CARMEN - SANTANDER                                              3
 ACTION:UPD 14-12-19 15:40 OP:nd   STATUS:               ID:20141106174108 L   I
 OLDACT:UP  14-11-06 23:44 OP:cam  STATUS:               ID:20141106173820     3
 OLDACT:REG 14-11-06 22:16 OP:cam  STATUS:               ID:20141106173820     3
 2014-11-06-1738-20M.COL___289                                                 6
 STAT SP IPHASW D HRMM SECON CODA AMPLIT PERI AZIMU VELO AIN AR TRES W  DIS CAZ7
 BRR  HZ EP       1741 23.62                             161    0.3610 32.8 347 
 BRR  HN ES       1741 34.98                             161    0.1810 32.8 347 
 BRR  HZ I        1741 46.06        18.8 0.26            161           32.8 347 
 BAR2 SZ EP       1741 25.26                             150    0.4210 57.1 116 
 BAR2 SZ ES       1741 37.27                             150   -0.3510 57.1 116 
 BAR2 SZ I        1741 38.44        33.4 0.48            158           57.1 116 
 PTB  HZ EP       1741 26.60                             135   -0.7610 94.6 251 
 PTB  HN ES   4   1741 39.73                             135   -2.37 0 94.6 251 
 PTB  HZ I        1741 41.33        18.3 0.16            140           94.6 251 
 RUS  HZ EP       1741 30.72                             128    0.4110  120 149 
 RUS  HN ES       1741 46.91                             128   -0.4410  120 149 
 RUS  HZ I        1741 49.35         8.3 0.16            136            120 149 
 PAM  SZ EP       1741 30.32                             128    0.0410  120  61 
 PAM  SE ES       1741 47.14                             128   -0.1710  120  61 
 PAM  SE I        1741 51.13        10.7 0.20            134            120  61 
 SPBC HN ES       1741 50.14                             123    0.65 9  137 200 
 NOR  HZ EP       1741 37.31                             113   -0.24 9  194 224 
 NOR  HN ES       1742  0.10                             113   -0.14 9  194 224 
 NOR  HZ I        1742  5.22         6.9 0.16            119            194 224 
                                                                                
