 2012  5 6 1612 30.1 L   6.736 -73.080145.8  RSN  5 0.2 1.7LRSN                1
 GAP=148        0.52       3.6     5.0  4.9 -0.1137E+01  0.4814E+01  0.1384E+01E
 Epicentro: JORDAN - SANTANDER                                                 3
 ACTION:UP  12-07-05 12:02 OP:pat  STATUS:               ID:20120506161230 L   I
 2012-05-06-1610-00M.COL___192                                                 6
 STAT SP IPHASW D HRMM SECON CODA AMPLIT PERI AZIMU VELO SNR AR TRES W  DIS CAZ7
 BAR2 SZ EP   1   1612 49.75                             172     0.0 7   19 215 
 BAR2 SZ ES   1   1613  5.17                             172     0.2 7   19 215 
 BAR2 SZ I        1613  6.55        16.5 0.42                            19 215 
 PAM  SZ EP   1   1612 52.57                             150     0.1 7   79  32 
 PAM  SN ES   1   1613  9.82                             150     0.0 7   79  32 
 BRR  HZ EP       1612 51.58                             150    -0.310   81 301 
 BRR  HE ES   1   1613  8.95                             150     0.1 7   81 301 
 BRR  HZ I        1613 12.84         8.5 0.10                            81 301 
 RUS  HZ EP   1   1612 53.53                             146     0.1 7   93 180 
 RUS  HN ES   1   1613 11.24                             146    -0.3 7   93 180 
 RUS  HZ I        1613 13.56         5.1 0.23                            93 180 
 NOR  SZ EP   1   1613  6.36                                     0.3 6  237 237 
                                                                                
