 2010  6 6 1455 58.7 L   6.847 -73.167149.0  RSN  5 0.5 1.8LRSN                1
 GAP=165        0.91      10.2    27.4 11.8 -0.2122E+03  0.7210E+02 -0.2470E+02E
 Epicentro: LOS SANTOS - SANTANDER                                             3
 ACTION:UP  10-08-24 10:08 OP:vdl  STATUS:               ID:20100606145558 L   I
 2010-06-06-1451-07S.COL___111                                                 6
 STAT SP IPHASW D HRMM SECON CODA AMPLIT PERI AZIMU VELO SNR AR TRES W  DIS CAZ7
 GIR2 SZ EP   2   1456 20.21                             169     1.6 5   26 353 
 BAR2 SZ EP       1456 18.64                             169    -0.210   28 184 
 BAR2 SZ ES   1   1456 34.48                             169     0.0 7   28 184 
 GUE  SZ EP       1456 23.14                             141    -0.210  112  14 
 GUE  SZ ES   1   1456 42.58                             141     0.0 7  112  14 
 GRA  SZ ES   1   1456 43.64                             139     0.1 7  122  19 
 HEL  HE ES   3   1457 10.28                             115    -0.1 2  271 255 
 HEL  HZ I        1457 17.49         3.9 0.09                           271 255 
                                                                                
