 2016 12 6 1917 57.3 L   6.583 -73.522112.2  RSN 14 0.7 2.4LRSN                1
 GAP=111        1.62       5.4     3.9  8.5 -0.3198E+01  0.5848E+01  0.1030E+02E
 Epicentro: EL CARMEN - SANTANDER                                              3
 ACTION:UPD 17-01-11 20:12 OP:rebc STATUS:               ID:20161206191757 L   I
 OLDACT:UP  16-12-06 23:13 OP:dnl  STATUS:               ID:20161206190746d    3
 OLDACT:UP  16-12-06 23:09 OP:dnl  STATUS:               ID:20161206190746d    3
 OLDACT:UP  16-12-06 23:07 OP:dnl  STATUS:               ID:20161206190746d    3
 OLDACT:DUP 16-12-06 23:02 OP:dnl  STATUS:               ID:20161206190746d    3
 2016-12-06-1908-00M.COL___361                                                 6
 STAT SP IPHASW D HRMM SECON CODA AMPLIT PERI AZIMU VELO AIN AR TRES W  DIS CAZ7
 BAR2 EZ IP     C 1918 13.60                             160    0.2410 37.6  88 
 BAR2 EZ ES       1918 26.15                             160    0.2310 37.6  88 
 BRR  HZ EP       1918 14.36                             149    0.0910 61.6 340 
 BRR  HE ES       1918 28.11                             149    0.5710 61.6 340 
 BRR  HZ I        1918 35.87        60.7 0.16            152           61.6 340 
 PTB  HZ IP     D 1918 16.51                             134   -0.9710  103 267 
 PTB  HE ES       1918 31.98                             134   -1.2710  103 267 
 PTB  HZ I        1918 38.57        45.5 0.14            135            103 267 
 PAM  EZ EP       1918 19.80                             129   -0.1710  124  47 
 PAM  EN ES       1918 37.64                             129   -0.0310  124  47 
 PAM  EZ I        1918 38.57        22.7 0.42            136            124  47 
 ZAR  HZ EP       1918 25.59                             117    0.62 9  179 304 
 ZAR  HE ES       1918 48.24                             117    1.66 9  179 304 
 ZAR  HZ I        1918 52.89        67.0 0.40            121            179 304 
 NOR  HZ EP       1918 25.44                             116   -0.49 9  187 233 
 NOR  HN ES       1918 48.39                             116    0.09 9  187 233 
 NOR  HZ I        1918 52.06        25.9 0.14            119            187 233 
 TAM  HZ EP       1918 26.35                             115   -0.15 9  192  95 
 TAM  HN ES       1918 49.14                             115   -0.16 9  192  95 
 TAM  HZ I        1918 49.97        16.4 0.48            121            192  95 
 CHI  HZ EP   4   1918 31.38                             112    1.61 0  217 186 
 CHI  HE ES   4   1918 56.86                             112    1.74 0  217 186 
 GUY2CHZ EP       1918 34.86                             109    0.89 8  253 234 
 GUY2CHE ES   4   1919  4.70                             109    2.10 0  253 234 
 GUY2CHZ I        1919  8.79        13.8 0.22                           253 234 
 URE  HZ EP       1918 33.31                             108   -0.49 8  257 300 
 URE  HE ES       1919  1.04                             108   -1.26 8  257 300 
 URE  HZ I        1919  9.01        26.0 0.16            111            257 300 
 CBOC HZ EP   4   1918 38.85                             106    1.37 0  287 254 
 CBOC HN ES       1919  9.32                             106    0.47 7  287 254 
 CBOC HZ I        1919 16.78         6.9 0.48            109            287 254 
 ANIL HE ES   4   1919 19.10                             104    4.83 0  311 222 
 ANIL HZ I        1919 23.35        19.8 0.30            107            311 222 
 LL6C HZ EP   4   1918 25.90                             102   -18.8 0  350   5 
 LL6C HN ES   4   1919  2.18                             102   -19.6 0  350   5 
 LL6C HZ I        1919 13.44         7.1 0.34            106            350   5 
 PRA  HZ EP       1918 45.31                             102    0.33 6  351 206 
 PRA  HE ES       1919 22.57                             102    0.37 6  351 206 
 PRA  HZ I        1919 27.18         6.7 0.30            105            351 206 
 CRJC HZ EP       1919  3.11                              96    0.69 4  496   8 
 CRJC HN ES       1919 52.47                              96   -0.78 4  496   8 
 CRJC HZ I        1920  1.42         9.7 0.18            100            496   8 
                                                                                
