 2011  5 6 1036 15.0 L   6.785 -73.044138.0  RSN  6 0.2 1.5LRSN                1
 GAP=170        0.52       4.6    10.0  7.1  0.1571E+02 -0.3532E+02 -0.1500E+02E
 Epicentro: LOS SANTOS - SANTANDER                                             3
 ACTION:UP  11-06-29 08:51 OP:tino STATUS:               ID:20110506103615 L   I
 2011-05-06-1034-48S.COL___132                                                 6
 STAT SP IPHASW D HRMM SECON CODA AMPLIT PERI AZIMU VELO SNR AR TRES W  DIS CAZ7
 BAR2 SZ EP   1   1036 33.82                             169     0.1 7   26 216 
 BAR2 SZ ES   2   1036 48.51                             169     0.1 5   26 216 
 BAR2 SZ I        1036 50.29        10.8 0.25                            26 216 
 BTL  SZ EP   1   1036 34.02                             168     0.2 7   29 301 
 BTL  SZ ES   2   1036 48.31                             168    -0.2 5   29 301 
 BRR  HZ IP   1   1036 35.81                             148    -0.2 7   82 296 
 BRR  HE ES   2   1036 52.63                             148     0.3 5   82 296 
 BRR  HZ I        1036 53.42         9.5 0.16                            82 296 
 RUS  HZ EP   1   1036 37.97                             143     0.1 7   99 183 
 RUS  HN ES   2   1036 55.26                             143    -0.4 5   99 183 
 RUS  HZ I        1036 58.66         2.8 0.25                            99 183 
 GRA  SZ EP   1   1036 39.64                             136     0.2 7  124  12 
 GRA  SZ I        1037  0.16         3.2 0.28                           124  12 
 OCA  SZ EP   1   1036 42.67                             127    -0.4 7  164 349 
 OCA  SZ I        1037  2.92         7.7 0.54                           164 349 
                                                                                
