 2017  7 6 1054 47.8 L   6.729 -73.194149.0  RSN  4 0.4 1.3LRSN                1
 GAP=229        1.00      11.1     7.2  8.0  0.2987E+02  0.1300E+02 -0.5090E+01E
 Epicentro: VILLANUEVA - SANTANDER                                             3
 ACTION:UPD 17-08-30 15:30 OP:rebc STATUS:               ID:20170706105447 L   I
 OLDACT:REG 17-07-06 22:16 OP:ar   STATUS:               ID:20170706104740     3
 2017-07-06-1048-00M.COL___371                                                 6
 STAT SP IPHASW D HRMM SECON CODA AMPLIT PERI AZIMU VELO AIN AR TRES W  DIS CAZ7
 BAR2 EZ EP       1055  7.30                             174   -0.4110 15.2 175 
 BAR2 EZ ES       1055 23.08                             174   -0.1410 15.2 175 
 BAR2 EZ I        1055 23.51         4.1 0.28            170           15.2 175 
 BRR  HZ EP       1055  9.30                             153   -0.0010 70.9 306 
 BRR  HN ES       1055 26.59                             153    0.5310 70.9 306 
 PTB  HZ EP       1055 15.09                             134    0.62 9  141 262 
 PTB  HN ES       1055 35.12                             134   -0.14 9  141 262 
 PTB  HZ I        1055 40.16         1.8 0.44            131            141 262 
 ZAR  HZ EP       1055 20.37                             123    0.07 9  202 295 
 ZAR  HN ES       1055 44.99                             123   -0.64 9  202 295 
 ZAR  HZ I        1055 51.39         1.9 0.28            122            202 295 
                                                                                
