 2011  6 6 1515  4.9 L   6.772 -73.123143.8  RSN  4 0.2 1.4LRSN                1
 GAP=141        0.44       5.1     6.6  7.4 -0.7679E+00  0.5707E+01 -0.7892E+01E
 Epicentro: LOS SANTOS - SANTANDER                                             3
 ACTION:UP  11-07-14 19:03 OP:ep   STATUS:               ID:20110606151504 L   I
 2011-06-06-1512-33S.COL___132                                                 6
 STAT SP IPHASW D HRMM SECON CODA AMPLIT PERI AZIMU VELO SNR AR TRES W  DIS CAZ7
 BAR2 SZ EP   2   1515 24.14                             171    -0.1 5   21 198 
 BAR2 SZ ES   2   1515 38.94                             171    -0.4 5   21 198 
 BAR2 SZ I        1515 40.67         4.4 0.23                            21 198 
 BRR  HZ EP   1   1515 25.99                             151    -0.1 7   75 300 
 BRR  HZ I        1515 26.29         5.1 0.22                            75 300 
 BRR  HN ES   2   1515 42.87                             151     0.3 5   75 300 
 PAM  SZ EP   2   1515 27.12                             150     0.1 5   78  37 
 PAM  SN ES   2   1515 44.27                             150     0.1 5   78  37 
 RUS  HN ES   2   1515 46.74                             144     0.3 5   97 177 
                                                                                
