 2017  5 6 1215 39.1 L   6.800 -73.130151.3  RSN  6 0.2 1.5LRSN                1
 GAP=138        0.64       3.0     2.8  4.7 -0.5042E+00  0.3572E+01  0.1798E+01E
 Epicentro: LOS SANTOS - SANTANDER                                             3
 ACTION:UPD 17-06-16 13:33 OP:jn   STATUS:               ID:20170506121539 L   I
 OLDACT:UP  17-05-06 23:17 OP:edw  STATUS:               ID:20170506120739     3
 OLDACT:UP  17-05-06 23:15 OP:edw  STATUS:               ID:20170506120739     3
 OLDACT:REG 17-05-06 20:24 OP:ar   STATUS:               ID:20170506120739     3
 2017-05-06-1208-00M.COL___370                                                 6
 STAT SP IPHASW D HRMM SECON CODA AMPLIT PERI AZIMU VELO AIN AR TRES W  DIS CAZ7
 BRR  HZ EP       1216  1.28                             153    0.3410 72.7 298 
 BRR  HN ES       1216 18.15                             153    0.1810 72.7 298 
 PAM  EZ EP     C 1216  2.20                             152    0.3510 76.3  39 
 PAM  EN ES       1216 19.24                             152   -0.3510 76.3  39 
 PAM  EZ I        1216 21.50         4.7 0.50            156           76.3  39 
 RUS  HZ EP       1216  3.13                             145   -0.2810  101 177 
 RUS  HN ES       1216 22.52                             145    0.1610  101 177 
 RUS  HZ I        1216 23.56         5.2 0.26            147            101 177 
 PTB  HZ EP       1216  6.53                             133   -0.16 9  149 259 
 PTB  HN ES       1216 27.93                             133   -0.27 9  149 259 
 PTB  HZ I        1216 34.57         5.4 0.44            133            149 259 
 ZAR  HZ EP       1216 11.86                             123   -0.22 8  206 292 
 ZAR  HN ES       1216 37.87                             123    0.07 8  206 292 
 ZAR  HZ I        1216 43.47         2.8 0.26            124            206 292 
 NOR  HZ EP       1216 15.34                             119    0.02 8  236 235 
 NOR  HN ES       1216 43.68                             119    0.12 8  236 235 
 NOR  HZ I        1216 49.00         2.8 0.18            121            236 235 
                                                                                
