 2012  5 6 1314 13.6 L   7.050 -73.310122.0  RSN  7 0.4 2.1LRSN                1
 GAP=139        0.91       5.2     4.3  7.6  0.7783E+00  0.1110E+02  0.4211E+01E
 Epicentro: LEBRIJA - SANTANDER                                                3
 ACTION:UP  12-07-05 12:02 OP:pat  STATUS:               ID:20120506131413 L   I
 2012-05-06-1310-00M.COL___192                                                 6
 STAT SP IPHASW D HRMM SECON CODA AMPLIT PERI AZIMU VELO SNR AR TRES W  DIS CAZ7
 BRR  HZ IP     C 1314 30.73                             159     0.010   45 278 
 BRR  HN ES   1   1314 44.12                             159    -0.1 7   45 278 
 BRR  HZ I        1314 46.38        27.6 0.11                            45 278 
 BAR2 SZ EP       1314 31.92                             155     0.410   53 164 
 BAR2 SZ ES   1   1314 45.78                             155     0.3 7   53 164 
 BAR2 SZ I        1314 46.94       127.1 0.13                            53 164 
 PAM  SZ EP   1   1314 33.10                             147    -0.1 7   75  65 
 PAM  SN ES   1   1314 48.29                             147    -0.1 7   75  65 
 RUS  HZ EP   1   1314 37.70                             130     0.0 7  130 169 
 RUS  HN ES   1   1314 56.17                             130    -0.4 7  130 169 
 RUS  HZ I        1314 58.03         5.9 0.19                           130 169 
 PTB  HZ EP       1314 37.05                             128    -0.8 9  139 246 
 PTB  HN ES   1   1314 56.57                             128    -0.2 7  139 246 
 PTB  HZ I        1315  0.61        13.6 0.16                           139 246 
 ZAR  HZ EP   1   1314 42.10                             121     0.3 7  178 286 
 ZAR  HN ES   1   1315  4.16                             121     0.4 7  178 286 
 NOR  SZ EP   1   1314 48.88                             113     0.4 6  238 226 
 NOR  SN ES   1   1315 16.22                             113     0.5 6  238 226 
                                                                                
