 2014  8 6 1255  9.1 L   6.753 -73.147142.0  RSN  8 0.5 1.8LRSN                1
 GAP=234        1.29       5.8     6.3  8.2  0.6266E+01  0.1629E+02  0.3867E+01E
 Epicentro: LOS SANTOS - SANTANDER                                             3
 ACTION:UPD 14-09-15 21:47 OP:nd   STATUS:               ID:20140806125509 L   I
 OLDACT:REG 14-08-06 21:03 OP:carl STATUS:               ID:20140806124818     3
 2014-08-06-1248-18M.COL___250                                                 6
 STAT SP IPHASW D HRMM SECON CODA AMPLIT PERI AZIMU VELO AIN AR TRES W  DIS CAZ7
 BAR2 SZ EP       1255 28.19                             172   -0.0410 18.2 192 
 BAR2 SZ ES       1255 42.40                             172   -0.7110 18.2 192 
 BAR2 SZ I        1255 44.64        19.0 0.40            173           18.2 192 
 BRR  HZ EP       1255 30.06                             151    0.0310 73.7 302 
 BRR  HE ES       1255 47.08                             151    0.7610 73.7 302 
 RUS  HZ EP       1255 31.62                             145   -0.5410 95.4 176 
 RUS  HN ES       1255 50.80                             145    0.6910 95.4 176 
 RUS  HZ I        1255 51.50         7.3 0.22            146           95.4 176 
 PTB  HZ EP       1255 35.03                             131   -0.68 9  147 261 
 PTB  HN ES       1255 55.78                             131   -0.65 9  147 261 
 PTB  HZ I        1255 58.57         6.6 0.10            132            147 261 
 SPBC HZ EP       1255 37.22                             129    0.25 9  159 220 
 SPBC HN ES       1255 58.92                             129    0.25 9  159 220 
 ZAR  HZ EP       1255 42.43                             121    0.89 8  206 293 
 ZAR  HN ES       1256  6.58                             121   -0.23 8  206 293 
 ZAR  HZ I        1256  9.29         5.1 0.24            122            206 293 
 NOR  HE ES       1256 12.08                             118    0.32 8  232 235 
 GUY2CHZ EP       1255 52.11                             112   -0.12 7  298 236 
 GUY2CHN ES       1256 25.70                             112   -0.14 7  298 236 
 GUY2CHZ I        1256 34.77         3.8 0.42                           298 236 
                                                                                
