 2014  7 6 1818 12.9 L   6.768 -73.227133.4  RSN  7 0.5 1.3LRSN                1
 GAP=188        1.16       4.5     6.3  8.7  0.3195E+01  0.1124E+02  0.6784E+00E
 Epicentro: ZAPATOCA - SANTANDER                                               3
 ACTION:UPD 15-03-16 20:41 OP:nd   STATUS:               ID:20140706181812 L   I
 OLDACT:DUP 14-07-07 00:36 OP:spq  STATUS:               ID:20140706180819d    3
 OLDACT:REG 14-07-06 20:33 OP:spq  STATUS:               ID:20140706180818     3
 2014-07-06-1808-18M.COL___265                                                 6
 STAT SP IPHASW D HRMM SECON CODA AMPLIT PERI AZIMU VELO AIN AR TRES W  DIS CAZ7
 BAR2 SZ EP       1818 31.08                             171    0.1410 20.1 166 
 BAR2 SZ ES   1   1818 44.44                             171   -0.60 7 20.1 166 
 BAR2 SZ I        1818 47.41         4.8 0.22            172           20.1 166 
 BRR  HZ EP       1818 32.81                             152    0.4610 65.4 305 
 BRR  HE ES       1818 48.02                             152    0.4810 65.4 305 
 BRR  HZ I        1818 52.31         4.3 0.33            151           65.4 305 
 RUS  HZ EP       1818 35.10                             142   -0.1410 98.1 171 
 RUS  HN ES       1818 52.27                             142   -0.4110 98.1 171 
 RUS  HZ I        1818 55.55         2.3 0.13            146           98.1 171 
 PTB  HZ EP       1818 37.55                             131   -0.41 9  138 260 
 PTB  HN ES       1818 57.23                             131   -0.31 9  138 260 
 PTB  HZ I        1819  3.51         2.8 0.14            132            138 260 
 SPBC HZ EP       1818 40.25                             128    0.62 9  155 217 
 SPBC HE ES       1819  1.21                             128    0.70 9  155 217 
 SPBC HZ I        1819  9.06         2.8 0.22            130            155 217 
 SML  HE ES       1819 16.36                             115   -0.44 8  243 338 
 SML  HZ I        1819 23.76         2.2 0.05            117            243 338 
 GUY2CHN ES       1819 26.87                             110   -0.74 7  292 234 
 GUY2CHZ I        1819 37.11         1.4 0.52                           292 234 
                                                                                
