 2014 10 6 1859 43.5 L   6.782 -73.175147.6  RSN  6 0.4 1.9LRSN                1
 GAP=134        1.05       4.4     5.3  7.0  0.7381E+00  0.6206E+01 -0.6321E+01E
 Epicentro: LOS SANTOS - SANTANDER                                             3
 ACTION:UPD 14-11-29 23:47 OP:nd   STATUS:               ID:20141006185943 L   I
 OLDACT:REG 14-10-06 21:42 OP:stll STATUS:               ID:20141006185750     3
 2014-10-06-1857-50M.COL___292                                                 6
 STAT SP IPHASW D HRMM SECON CODA AMPLIT PERI AZIMU VELO AIN AR TRES W  DIS CAZ7
 BAR2 SZ EP       19 0  3.22                             172   -0.0410 21.0 182 
 BAR2 SZ ES       19 0 18.29                             172   -0.4210 21.0 182 
 BAR2 SZ I        19 0 19.08        29.3 0.26            169           21.0 182 
 BRR  HZ EP       19 0  5.40                             153    0.7010 69.4 301 
 BRR  HZ I        19 0  5.46        24.8 0.24            150           69.4 301 
 BRR  HN ES       19 0 21.99                             153    0.7110 69.4 301 
 PAM  SZ EP       19 0  6.25                             150    0.1710 81.0  40 
 PAM  SZ I        19 0  6.45        28.5 0.24            153           81.0  40 
 PAM  SN ES       19 0 23.50                             150   -0.2310 81.0  40 
 RUS  HZ EP       19 0  7.39                             145    0.1210 98.9 174 
 RUS  HN ES       19 0 25.78                             145   -0.0610 98.9 174 
 RUS  HZ I        19 0 26.34         6.1 0.46            144           98.9 174 
 PTB  HZ EP       19 0 10.33                             133    0.07 9  144 259 
 PTB  HN ES       19 0 30.61                             133   -0.55 9  144 259 
 PTB  HZ I        19 0 38.26         6.7 0.26            131            144 259 
 SML  HZ EP       19 0 19.62                             118   -0.62 8  244 336 
 SML  HN ES       19 0 48.72                             118   -0.21 8  244 336 
                                                                                
