 2012  2 6 1251 35.6 L   6.787 -73.159138.6  RSN  6 0.4 1.9LRSN                1
 GAP=147        0.73       5.6     4.2  7.5 -0.2023E+01  0.9008E+01  0.8056E+01E
 ACTION:UP  12-03-07 16:28 OP:epov STATUS:               ID:20120206125135 L   I
 2012-02-06-1250-00M.COL___187                                                 6
 STAT SP IPHASW D HRMM SECON CODA AMPLIT PERI AZIMU VELO SNR AR TRES W  DIS CAZ7
 BAR2 SZ EP   1   1251 54.77                             171    0.46 9 21.7 187 
 BAR2 SZ ES   1   1252  8.56                             171   -0.36 9 21.7 187 
 BAR2 SZ I        1252 10.85        22.4 0.27                          21.7 187 
 BRR  HZ EP   1   1251 55.66                             151   -0.26 9 70.7 300 
 BRR  HN ES   1   1252 12.52                             151    0.73 9 70.7 300 
 BRR  HZ I        1252 17.19        17.6 0.17                          70.7 300 
 PAM  SZ EP   1   1251 57.11                             149   -0.05 9 79.4  40 
 PAM  SN ES   1   1252 13.85                             149   -0.14 9 79.4  40 
 PTB  HZ EP   1   1252  1.66                             131   -0.15 8  146 259 
 PTB  HN ES   1   1252 21.83                             131   -0.45 8  146 259 
 PTB  HZ I        1252 24.85         0.0 0.13                           146 259 
 ZAR  HN ES       1252 32.34                             121   -0.0310  203 293 
 ZAR  HZ I        1252 38.83         4.9 0.20                           203 293 
 PRA  HN ES   1   1253 10.50                             105    0.49 5  390 209 
                                                                                
