 2015  6 6 1635  4.3 L   7.487 -73.185121.6  RSN  7 0.5 1.8LRSN                1
 GAP=141        1.19       4.5     5.4  8.1  0.2420E+01  0.1953E+02 -0.9498E+00E
 Epicentro: EL PLAYON - SANTANDER                                              3
 ACTION:UPD 15-09-10 22:10 OP:cam  STATUS:               ID:20150606163504 L   I
 OLDACT:REG 15-06-06 21:51 OP:ak   STATUS:               ID:20150606162750     3
 2015-06-06-1627-50M.COL___303                                                 6
 STAT SP IPHASW D HRMM SECON CODA AMPLIT PERI AZIMU VELO AIN AR TRES W  DIS CAZ7
 PAM  SZ EP       1635 23.44                             154    0.7010 56.1 107 
 PAM  SE ES       1635 37.15                             154    0.0610 56.1 107 
 PAM  SZ I        1635 39.59         9.0 0.17            155           56.1 107 
 BRR  HZ EP       1635 23.23                             147    0.2610 71.7 234 
 BRR  HN ES       1635 37.83                             147    0.3310 71.7 234 
 BRR  HZ I        1635 39.21        13.1 0.11            146           71.7 234 
 BAR2 EZ EP       1635 25.18                             138   -0.1410 99.0 180 
 BAR2 EZ ES       1635 40.91                             138   -0.7810 99.0 180 
 BAR2 EZ I        1635 42.66        19.5 0.12            138           99.0 180 
 SML  HZ EP       1635 31.90                             121   -0.31 9  175 326 
 SML  HN ES       1635 53.15                             121   -0.80 9  175 326 
 ZAR  HZ EP       1635 33.34                             119    0.10 9  185 270 
 ZAR  HE ES       1635 56.51                             119    0.73 9  185 270 
 ZAR  HZ I        1635 57.82         8.9 0.22            120            185 270 
 GUY2CHZ EP       1635 52.99                             104    0.60 6  348 224 
 GUY2CHE ES       1636 29.09                             104   -0.77 6  348 224 
 GUY2CHZ I        1636 38.46         3.1 0.39                           348 224 
 TOL  SZ EP       1635 58.12                             102   -0.15 6  399 216 
 TOL  SN ES       1636 40.19                             102   -0.15 6  399 216 
 TOL  SZ I        1636 48.62         2.7 0.44            102            399 216 
                                                                                
