 2010  8 6 1119 18.4 L   6.774 -73.043140.7  RSN  5 0.2 1.4LRSN                1
 GAP=171        0.43       4.5     9.0  6.1 -0.1076E+02 -0.2475E+02 -0.8849E+01E
 Epicentro: LOS SANTOS - SANTANDER                                             3
 ACTION:UP  10-09-07 10:52 OP:vdl  STATUS:               ID:20100806111918 L   I
 2010-08-06-1117-11S.COL___125                                                 6
 STAT SP IPHASW D HRMM SECON CODA AMPLIT PERI AZIMU VELO SNR AR TRES W  DIS CAZ7
 BAR2 SZ EP   2   1119 37.61                             169     0.1 5   26 218 
 BAR2 SZ ES   1   1119 52.35                             169     0.0 8   26 218 
 BAR2 SZ I        1119 53.63         6.7 0.30                            26 218 
 BRR  HE ES   2   1119 56.46                             148     0.1 5   83 297 
 RUS  HN ES   3   1119 59.47                             143     0.0 3   98 183 
 RUS  HZ I        1120  1.38         3.3 0.24                            98 183 
 GUE  SZ EP       1119 42.57                             138    -0.210  118   6 
 GUE  SZ ES   2   1120  1.54                             138    -0.2 5  118   6 
 GRA  SZ EP       1119 43.41                             136     0.210  126  12 
 GRA  SZ ES   2   1120  2.82                             136     0.3 5  126  12 
 GRA  SZ I        1120  4.41         5.6 0.29                           126  12 
                                                                                
