 2017 10 6 1154  1.4 L   6.847 -73.140149.8  RSN 20 0.6 2.6LRSN                1
 GAP=111        1.12       3.3     3.9  5.8 -0.1257E+00  0.8161E+01  0.2838E+01E
 Epicentro: LOS SANTOS - SANTANDER                                             3
 ACTION:UPD 17-11-07 19:28 OP:rebc STATUS:               ID:20171006115401 L   I
 OLDACT:UP  17-10-06 21:57 OP:osc  STATUS:               ID:20171006114739     3
 OLDACT:REG 17-10-06 20:00 OP:osc  STATUS:               ID:20171006114739     3
 2017-10-06-1148-00M.COL___408                                                 6
 STAT SP IPHASW D HRMM SECON CODA AMPLIT PERI AZIMU VELO AIN AR TRES W  DIS CAZ7
 BAR2 EZ EP     D 1154 21.63                             169    0.0310 28.6 189 
 BAR2 EZ ES       1154 36.91                             169   -0.4710 28.6 189 
 BAR2 EZ I        1154 37.77       132.1 0.30            167           28.6 189 
 PAM  EZ EP       1154 24.60                             152    0.8310 73.0  42 
 PAM  EN ES       1154 41.57                             152    0.3310 73.0  42 
 PAM  EZ I        1154 43.85       116.2 0.52            156           73.0  42 
 RUS  HZ EP       1154 25.57                             143   -0.3210  106 177 
 RUS  HN ES       1154 44.57                             143   -0.4510  106 177 
 RUS  HZ I        1154 45.42        24.8 0.26            144            106 177 
 YPLC HZ EP       1154 32.04                             127    0.16 9  181 152 
 YPLC HE ES       1154 56.37                             127    0.70 9  181 152 
 YPLC HZ I        1154 58.86        25.7 0.32            129            181 152 
 ZAR  HZ EP       1154 34.27                             123    0.33 9  203 291 
 ZAR  HE ES       1154 59.38                             123    0.03 9  203 291 
 ZAR  HZ I        1155  6.45        42.5 0.38            123            203 291 
 TABC EZ EP       1154 37.73                             119   -0.14 8  235 210 
 TABC EZ ES       1155  5.95                             119   -0.39 8  235 210 
 TABC EZ I        1155 13.87        24.4 0.44            120            235 210 
 NOR  HZ EP       1154 37.68                             119   -0.04 8  238 234 
 NOR  HE ES       1155  6.60                             119    0.53 8  238 234 
 NOR  HZ I        1155 13.36        14.9 0.26            119            238 234 
 CHI  HZ EP       1154 39.79                             117   -0.07 8  254 195 
 CHI  HE ES       1155  9.08                             117   -0.80 8  254 195 
 CHI  HZ I        1155 12.69        22.4 0.44            118            254 195 
 ROSC BZ EP       1154 41.43                             117    1.20 8  258 211 
 ROSC BE ES       1155 10.61                             117    0.06 8  258 211 
 ROSC BZ I        1155 15.72        40.7 0.70            117            258 211 
 URE  HZ EP   4   1154 45.73                             114    3.24 0  283 291 
 URE  HE ES   4   1155 13.22                             114   -1.35 0  283 291 
 URE  HZ I        1155 23.37        21.6 0.30            114            283 291 
 GUY2CHZ EP   4   1154 46.99                             113    1.43 0  305 234 
 GUY2CHE ES   4   1155 22.78                             113    2.74 0  305 234 
 GUY2CHZ I        1155 28.92         9.6 0.30                           305 234 
 VIL  EZ EP       1154 45.69                             112    0.13 7  309 191 
 VIL  EE ES   4   1155 19.07                             112   -0.96 0  309 191 
 VIL  EZ I        1155 24.33        37.3 0.40            113            309 191 
 PTGC HZ EP       1154 44.78                             112   -1.15 7  313 159 
 PTGC HE ES   4   1155 17.84                             112   -2.85 0  313 159 
 PTGC HZ I        1155 23.24        21.0 0.44            113            313 159 
 DBB  EE ES       1155 26.02                             110   -0.21 7  340 273 
 PRA  HZ EP       1154 56.13                             107    0.53 6  397 209 
 PRA  HN ES       1155 37.30                             107   -0.59 6  397 209 
 PRA  HZ I        1155 40.57        17.7 0.28            107            397 209 
 APAC HE ES   3   1155 37.08                             107   -0.79 1  397 287 
 ORTC HZ EP       1154 56.20                             107    0.24 6  400 216 
 ORTC HE ES       1155 38.68                             107    0.13 6  400 216 
 ORTC HZ I        1155 45.02        13.6 0.46            107            400 216 
 SJC  HZ EP       1154 55.73                             106   -0.86 6  405 326 
 SJC  HN ES   3   1155 37.88                             106   -1.79 1  405 326 
 SJC  HZ I        1155 41.37         7.3 0.62            107            405 326 
 PAL  HE ES       1155 40.52                             106    0.05 6  409 238 
 CRJC HZ EP       1155  2.05                             104   -1.31 5  462   4 
 CRJC HE ES   4   1155 48.61                             104   -3.11 0  462   4 
 CRJC HZ I        1155 56.73        10.2 0.10            105            462   4 
                                                                                
