 2012  1 6 1233 51.2 L   6.843 -73.159142.0  RSN  8 0.5 1.7LRSN                1
 GAP=133        0.96       6.1     6.4  9.5 -0.1370E+01  0.1099E+02  0.9314E+01E
 Epicentro: LOS SANTOS - SANTANDER                                             3
 ACTION:UP  12-02-03 08:14 OP:REBC STATUS:               ID:20120106123351 L   I
 2012-01-06-1230-00M.COL___186                                                 6
 STAT SP IPHASW D HRMM SECON CODA AMPLIT PERI AZIMU VELO SNR AR TRES W  DIS CAZ7
 GIR2 SZ EP       1234 10.13                             169    -0.210   26 352 
 GIR2 SZ ES   3   1234 24.46                             169    -0.8 2   26 352 
 BAR2 SZ IP       1234 10.49                             168     0.010   28 185 
 BAR2 SZ I        1234 10.82         8.5 0.34                            28 185 
 BRR  HZ IP     C 1234 11.92                             153     0.110   68 296 
 BRR  HZ I        1234 12.03        20.7 0.52                            68 296 
 BRR  HE ES   1   1234 28.47                             153     0.7 7   68 296 
 PAM  SZ EP       1234 12.97                             152     0.110   75  43 
 PAM  SN ES   1   1234 29.55                             152    -0.2 7   75  43 
 RUS  HZ EP       1234 14.93                             142     0.010  105 175 
 RUS  HN ES   1   1234 33.94                             142     0.4 7  105 175 
 RUS  HZ I        1234 36.15         2.3 0.20                           105 175 
 PTB  HZ EP       1234 17.13                             132    -0.7 9  147 257 
 PTB  HN ES   2   1234 38.20                             132    -0.4 5  147 257 
 PTB  HZ I        1234 39.36         4.5 0.20                           147 257 
 ZAR  HZ EP   2   1234 24.52                             123     1.4 4  201 291 
 ZAR  HE ES   3   1234 48.27                             123     0.3 2  201 291 
 ZAR  HZ I        1234 53.49        15.0 0.32                           201 291 
 CHI  HZ EP   3   1234 29.86                             116     0.7 2  253 195 
 CHI  HE ES   3   1234 59.12                             116     0.3 2  253 195 
                                                                                
