 2017 11 6 1617 25.8 L   6.814 -73.141144.0  RSN 21 0.7 2.5LRSN                1
 GAP=112        1.06       2.8     3.4  4.8  0.4950E+00  0.4284E+01  0.7253E+00E
 Epicentro: LOS SANTOS - SANTANDER                                             3
 ACTION:UPD 17-12-12 19:52 OP:rebc STATUS:               ID:20171106161725 L   I
 OLDACT:UP  17-11-07 00:51 OP:mg   STATUS:               ID:20171106160739d    3
 OLDACT:DUP 17-11-07 00:41 OP:mg   STATUS:               ID:20171106160739d    3
 2017-11-06-1608-00M.COL___420                                                 6
 STAT SP IPHASW D HRMM SECON CODA AMPLIT PERI AZIMU VELO AIN AR TRES W  DIS CAZ7
 BAR2 EZ EP     D 1617 45.15                             170   -0.1010 24.9 191 
 BAR2 EZ ES       1617 59.99                             170   -0.4310 24.9 191 
 BAR2 EZ I        1618  1.68       154.9 0.22            168           24.9 191 
 BRR  HZ EP     C 1617 47.01                             152    0.2710 71.0 297 
 BRR  HN ES       1618  4.05                             152    0.9710 71.0 297 
 BRR  HZ I        1618  7.16        81.7 0.14            152           71.0 297 
 PAM  EZ EP       1617 48.01                             151    0.2810 75.8  40 
 PAM  EN ES       1618  4.71                             151   -0.1310 75.8  40 
 PAM  EZ I        1618  7.11       112.7 0.56            153           75.8  40 
 RUS  HZ EP     D 1617 49.11                             143   -0.3710  102 176 
 RUS  HN ES       1618  7.87                             143   -0.0910  102 176 
 RUS  HZ I        1618  8.74        32.2 0.28            143            102 176 
 PTB  HZ EP       1617 51.93                             131   -0.77 9  149 258 
 PTB  HN ES       1618 12.74                             131   -0.94 9  149 258 
 PTB  HZ I        1618 15.33        32.9 0.14            131            149 258 
 SPBC HZ EP       1617 54.11                             128   -0.20 9  165 219 
 SPBC HN ES       1618 16.80                             128    0.25 9  165 219 
 SPBC HZ I        1618 23.32        43.1 0.20            128            165 219 
 YPLC HZ IP     D 1617 55.53                             126   -0.04 9  178 152 
 YPLC HN ES       1618 19.31                             126    0.52 9  178 152 
 YPLC HZ I        1618 23.97        20.2 0.28            127            178 152 
 ZAR  HZ EP       1617 58.35                             122    0.23 9  204 292 
 ZAR  HN ES       1618 23.72                             122    0.38 9  204 292 
 ZAR  HZ I        1618 29.82        80.6 0.36            122            204 292 
 NOR  HZ EP       1618  1.67                             118    0.10 8  236 234 
 NOR  HN ES       1618 29.13                             118   -0.34 8  236 234 
 NOR  HZ I        1618 34.30        18.9 0.24            118            236 234 
 CHI  HZ EP   1   1618  3.32                             116   -0.26 6  250 195 
 CHI  HN ES   1   1618 32.63                             116   -0.41 6  250 195 
 CHI  HZ I        1618 36.03        10.9 0.28            117            250 195 
 ROSC BZ EP   9   1618  6.21                             116    2.21 0  254 211 
 ROSC BN ES       1618 35.65                             116   -0.35 8  254 211 
 ROSC BZ I        1618 43.03        18.2 0.34            116            254 211 
 URE  HZ EP   1   1618  6.39                             113   -0.39 6  284 292 
 URE  HN ES   3   1618 37.05                             113   -1.69 2  284 292 
 URE  HZ I        1618 41.46        25.9 0.17            114            284 292 
 GUY2CHZ EP   2   1618 10.76                             112    1.28 4  303 235 
 GUY2CHN ES   1   1618 44.18                             112    0.63 5  303 235 
 GUY2CHZ I        1618 52.66        10.1 0.36                           303 235 
 PTGC HZ EP   3   1618  7.97                             111   -1.75 2  310 159 
 PTGC HN ES   3   1618 41.65                             111   -2.32 2  310 159 
 PTGC HZ I        1618 44.40        20.9 0.35            112            310 159 
 CBOC HZ EP       1618 13.36                             109    0.60 7  335 252 
 CBOC HN ES   3   1618 46.95                             109   -2.43 2  335 252 
 DBB  EZ EP       1618 13.98                             109    0.72 7  340 274 
 DBB  EN ES   3   1618 47.83                             109   -2.44 2  340 274 
 DBB  EZ I        1618 52.04        10.6 0.54            109            340 274 
 ARGC HZ EP       1618 15.87                             108    0.63 6  358 340 
 ARGC HN ES       1618 53.27                             108   -0.54 6  358 340 
 ARGC HZ I        1618 58.55         6.1 0.15            109            358 340 
 PRA  HZ EP       1618 20.07                             106    0.62 6  394 210 
 PRA  HN ES       1619  1.10                             106   -0.19 6  394 210 
 PRA  HZ I        1619  7.15        13.5 0.24            107            394 210 
 ORTC HZ EP       1618 19.98                             106    0.14 6  397 216 
 ORTC HN ES   2   1619  2.72                             106    0.73 3  397 216 
 ORTC HZ I        1619  7.41        10.3 0.40            106            397 216 
 SJC  HZ EP   2   1618 19.96                             105   -1.23 3  408 327 
 SJC  HN ES   3   1619  0.79                             105   -3.60 1  408 327 
 SJC  HZ I        1619  5.32        11.4 0.55            106            408 327 
 CRJC HZ EP   4   1618 25.62                             103   -2.44 0  466   3 
 CRJC HN ES   4   1619 12.99                             103   -3.64 0  466   3 
 CRJC HZ I        1619 24.01         5.5 0.18            104            466   3 
                                                                                
