 2012  4 6 1404 39.2 L   6.779 -73.142148.4  RSN  5 0.3 1.4LRSN                1
 GAP=138        0.70       5.7     5.8  9.1 -0.4944E+01 -0.8657E+01  0.1740E+02E
 Epicentro: LOS SANTOS - SANTANDER                                             3
 ACTION:UPD 12-07-05 11:51 OP:tino STATUS:               ID:20120406140439 L   I
 2012-04-06-1400-00M.COL___196                                                 6
 STAT SP IPHASW D HRMM SECON CODA AMPLIT PERI AZIMU VELO AIN AR TRES W  DIS CAZ7
 BAR2 SZ EP       14 4 59.00                             172    -0.110   21 192 
 BAR2 SZ I        14 5 15.93         6.4 0.26                            21 192 
 BRR  HZ EP       14 5  0.90                             152     0.210   73 300 
 BRR  HZ I        14 5  2.47        10.7 0.12                            73 300 
 BRR  HE ES   1   14 5 17.85                             152     0.3 7   73 300 
 PAM  SZ EP       14 5  1.90                             151     0.110   79  38 
 PAM  SN ES   1   14 5 19.11                             151    -0.3 7   79  38 
 RUS  HZ EP       14 5  3.07                             145     0.010   98 176 
 RUS  HN ES   2   14 5 22.01                             145     0.3 5   98 176 
 RUS  HZ I        14 5 23.14         2.0 0.42                            98 176 
 PTB  HN ES   2   14 5 26.70                             132    -0.9 5  148 260 
                                                                                
