 2014  1 6 1853 44.0 L   6.770 -73.142139.8  RSN  5 0.5 1.2LRSN                1
 GAP=138        1.23       6.4     6.3  9.2 -0.3995E+01  0.9011E+01  0.1731E+01E
 Epicentro: LOS SANTOS - SANTANDER                                             3
 ACTION:UPD 14-03-13 09:52 OP:ep   STATUS:               ID:20140106185344 L   I
 OLDACT:REG 14-01-06 15:59 OP:stll STATUS:               ID:20140106184817     3
 2014-01-06-1848-17M.COL___246                                                 6
 STAT SP IPHASW D HRMM SECON CODA AMPLIT PERI AZIMU VELO AIN AR TRES W  DIS CAZ7
 BAR2 SZ ES       1854 16.87                             171   -0.7410 20.1 193 
 BAR2 SZ I        1854 19.40         5.8 0.16            171           20.1 193 
 BRR  HZ EP       1854  5.14                             151    0.4610 73.2 301 
 BRR  HN ES       1854 21.46                             151    0.6910 73.2 301 
 PAM  SZ EP       1854  5.82                             149    0.0410 79.7  38 
 PAM  SN ES       1854 22.48                             149   -0.2510 79.7  38 
 PAM  SZ I        1854 25.49         2.5 0.72            152           79.7  38 
 RUS  HZ EP       1854  6.89                             143   -0.0810 97.2 176 
 RUS  HN ES       1854 25.44                             143    0.5910 97.2 176 
 RUS  HZ I        1854 27.87         1.5 0.28            145           97.2 176 
 PTB  HZ EP       1854 10.07                             131   -0.45 9  148 260 
 PTB  HN ES       1854 30.81                             131   -0.36 9  148 260 
 PTB  HZ I        1854 35.80         2.3 0.14            132            148 260 
                                                                                
