 2011 11 6 1601 34.8 L   6.797 -73.087132.0  RSN  4 0.4 1.2LRSN                1
 GAP=144        0.57       4.4     6.1  7.9 -0.3327E+01  0.5549E+01  0.9105E+01E
 Epicentro: LOS SANTOS - SANTANDER                                             3
 ACTION:UPD 12-07-13 16:08 OP:ep   STATUS:               ID:20111106160134 L   I
 2011-11-06-1559-30S.COL___174                                                 6
 STAT SP IPHASW D HRMM SECON CODA AMPLIT PERI AZIMU VELO AIN AR TRES W  DIS CAZ7
 BAR2 SZ EP   2   16 1 52.64                             169   -0.19 5 25.0 205 
 BAR2 SZ ES   3   16 2  5.73                             169   -1.16 2 25.0 205 
 BAR2 SZ I        16 2  8.80         6.9 0.74                          25.0 205 
 PAM  SZ EP       16 1 55.31                             150   -0.0410 73.6  35 
 PAM  SN ES   1   16 2 11.50                             150    0.14 7 73.6  35 
 BRR  HZ EP       16 1 54.94                             148    0.0710 77.1 296 
 BRR  HN ES   2   16 2 10.56                             148    0.05 5 77.1 296 
 RUS  HZ EP       16 1 56.99                             141   -0.2110  100 180 
 RUS  HZ I        16 1 57.90         2.0 0.36                           100 180 
 RUS  HN ES   2   16 2 15.47                             141    0.81 5  100 180 
                                                                                
