 2010  6 6 1113  7.4 L   6.801 -73.001139.4  RSN  9 0.5 2.4LRSN                1
 GAP=166        1.23       6.0     9.1  7.8 -0.3376E+02 -0.1245E+02  0.8428E+01E
 Epicentro: CEPITA - SANTANDER                                                 3
 ACTION:UP  10-08-24 10:08 OP:vdl  STATUS:               ID:20100606111307 L   I
 2010-06-06-1108-57S.COL___111                                                 6
 STAT SP IPHASW D HRMM SECON CODA AMPLIT PERI AZIMU VELO SNR AR TRES W  DIS CAZ7
 BAR2 SZ EP       1113 26.47                             167     0.110   31 221 
 BAR2 SZ ES       1113 41.26                             167     0.010   31 221 
 GIR2 SZ EP       1113 26.55                             164     0.110   37 325 
 GIR2 SZ ES   2   1113 41.00                             164    -0.4 5   37 325 
 GUE  SZ EP       1113 31.40                             139     0.110  114   4 
 GUE  SZ ES       1113 50.78                             139     0.810  114   4 
 GRA  SZ IP       1113 31.37                             137    -0.310  122  10 
 GRA  SZ ES   1   1113 50.33                             137    -0.4 7  122  10 
 OCA  SZ EP       1113 34.95                             128    -0.5 9  163 348 
 OCA  SZ ES       1113 57.04                             128    -0.3 9  163 348 
 OCA  SZ I        1114  1.57        48.2 0.22                           163 348 
 ROSC BZ EP   1   1113 44.87                             115    -1.2 6  262 214 
 ROSC BZ I        1114 20.44        15.2 0.42                           262 214 
 RREF BZ EP       1113 56.06                             109     1.4 7  334 231 
 RREF BN ES   1   1114 31.75                             109     0.2 5  334 231 
 RREF BZ I        1114 34.92        10.9 1.76                           334 231 
 SDV  BZ EP       1113 56.01                             108     0.3 6  348  49 
 SDV  BZ I        1113 57.15         7.6 0.25                           348  49 
 SDV  BN ES       1114 33.40                             108    -0.1 6  348  49 
 TOL  SZ ES   2   1114 34.42                             107    -0.8 3  355 226 
                                                                                
