 2012  4 6 1657 59.5 L   6.741 -73.161147.7  RSN  4 0.4 1.3LRSN                1
 GAP=231        0.93       9.2     9.9 11.7  0.4799E+02 -0.3054E+02 -0.1575E+02E
 Epicentro: VILLANUEVA - SANTANDER                                             3
 ACTION:UPD 12-07-05 11:51 OP:tino STATUS:               ID:20120406165759 L   I
 2012-04-06-1650-00M.COL___196                                                 6
 STAT SP IPHASW D HRMM SECON CODA AMPLIT PERI AZIMU VELO AIN AR TRES W  DIS CAZ7
 BAR2 SZ EP       1658 18.84                             173    -0.410   17 188 
 BAR2 SZ ES   2   1658 33.97                             173    -0.6 5   17 188 
 BAR2 SZ I        1658 35.71         4.8 0.20                            17 188 
 BRR  HZ EP       1658 21.24                             152     0.310   73 304 
 BRR  HE ES   1   1658 37.93                             152     0.3 7   73 304 
 BRR  HZ I        1658 40.67         6.3 0.30                            73 304 
 RUS  HZ EP       1658 22.96                             146     0.010   94 175 
 RUS  HZ I        1658 24.25         1.4 0.10                            94 175 
 RUS  HN ES   1   1658 41.73                             146     0.4 7   94 175 
 PTB  HE ES   1   1658 46.96                             133    -0.3 7  145 261 
 PTB  HZ I        1658 53.02         2.5 0.50                           145 261 
                                                                                
