 2012  3 6 1807 19.4 L   6.780 -73.120140.7  RSN  5 0.4 1.3LRSN                1
 GAP=141        0.85       5.8     5.5  7.6 -0.8124E+00  0.1311E+01  0.5860E+01E
 ACTION:UP  12-03-31 23:17 OP:EP   STATUS:               ID:20120306180719 L   I
 2012-03-06-1800-00M.COL___193                                                 6
 STAT SP IPHASW D HRMM SECON CODA AMPLIT PERI AZIMU VELO SNR AR TRES W  DIS CAZ7
 BAR2 SZ EP       18 7 38.47                             171     0.110   22 198 
 BAR2 SZ ES       18 7 53.11                             171    -0.110   22 198 
 BAR2 SZ I        18 7 54.76         7.2 0.16                            22 198 
 BRR  HE ES       18 7 56.87                             150     0.410   75 299 
 PAM  SZ EP   1   18 7 41.35                             150     0.3 7   77  37 
 PAM  SN ES   1   18 7 57.33                             150    -0.6 7   77  37 
 RUS  HZ EP   1   18 7 42.67                             143     0.2 7   98 178 
 RUS  HE ES   1   18 8  0.49                             143     0.0 7   98 178 
 RUS  HZ I        18 8  2.78         2.7 0.37                            98 178 
 PTB  HZ EP   1   18 7 45.73                             130    -0.4 7  150 260 
 PTB  HE ES   1   18 8  6.54                             130    -0.5 7  150 260 
                                                                                
