 2014 10 6 1910 20.7 L   6.794 -73.161153.4  RSN  6 0.4 1.9LRSN                1
 GAP=199        1.05       4.3     6.7  7.1  0.5794E+01  0.1896E+01 -0.6625E+01E
 Epicentro: LOS SANTOS - SANTANDER                                             3
 ACTION:UPD 14-11-29 23:47 OP:nd   STATUS:               ID:20141006191020 L   I
 OLDACT:REG 14-10-06 21:43 OP:stll STATUS:               ID:20141006190750     3
 2014-10-06-1907-50M.COL___292                                                 6
 STAT SP IPHASW D HRMM SECON CODA AMPLIT PERI AZIMU VELO AIN AR TRES W  DIS CAZ7
 BAR2 SZ EP       1910 41.35                             171    0.1210 22.4 186 
 BAR2 SZ ES       1910 56.69                             171   -0.5610 22.4 186 
 BAR2 SZ I        1910 57.70        32.7 0.16            171           22.4 186 
 BRR  HZ EP       1910 43.08                             154    0.4610 70.0 300 
 BRR  HN ES       1911  0.38                             154    0.6710 70.0 300 
 RUS  HZ EP       1910 45.34                             145    0.1710  100 175 
 RUS  HN ES       1911  4.06                             145   -0.2010  100 175 
 RUS  HZ I        1911  4.77         6.9 0.28            146            100 175 
 PTB  HZ EP       1910 47.48                             134   -0.66 9  146 259 
 PTB  HN ES       1911  9.16                             134   -0.38 9  146 259 
 PTB  HZ I        1911 11.06         8.9 0.38            134            146 259 
 SPBC HZ EP       1910 49.97                             131    0.33 9  162 219 
 SPBC HN ES       1911 12.52                             131    0.30 9  162 219 
 SML  HZ EP       1910 57.45                             119   -0.30 8  244 336 
 SML  HN ES       1911 26.51                             119   -0.15 8  244 336 
                                                                                
