 2014  5 6 1823 52.0 L   6.810 -73.171143.2  RSN 10 0.4 2.3LRSN                1
 GAP=133        0.91       2.6     3.5  5.7 -0.2531E+00  0.5324E+01  0.1309E+01E
 Epicentro: LOS SANTOS - SANTANDER                                             3
 ACTION:UPD 15-03-16 16:55 OP:nd   STATUS:               ID:20140506182352 L   I
 OLDACT:REG 14-05-06 21:40 OP:mh   STATUS:               ID:20140506182000     3
 2014-05-06-1820-00M.COL___273                                                 6
 STAT SP IPHASW D HRMM SECON CODA AMPLIT PERI AZIMU VELO AIN AR TRES W  DIS CAZ7
 BRR  HZ EP       1824 12.72                             153    0.0210 68.2 299 
 BRR  HN ES   1   1824 29.45                             153    0.61 7 68.2 299 
 BRR  HZ I        1824 34.39        30.2 0.08            153           68.2 299 
 PAM  SZ EP       1824 14.24                             150    0.2510 78.3  42 
 PAM  SN ES       1824 31.45                             150    0.3010 78.3  42 
 PAM  SZ I        1824 33.90        19.6 0.41            156           78.3  42 
 RUS  HZ EP       1824 15.40                             143   -0.1910  102 175 
 RUS  HN ES       1824 33.57                             143   -0.4210  102 175 
 RUS  HZ I        1824 35.70        15.3 0.36            146            102 175 
 PTB  HZ EP       1824 18.07                             132   -0.45 9  145 258 
 PTB  HN ES       1824 39.05                             132   -0.17 9  145 258 
 PTB  HZ I        1824 41.94        17.3 0.15            133            145 258 
 SPBC HZ EP       1824 20.36                             129    0.15 9  162 218 
 SPBC HN ES       1824 42.00                             129   -0.22 9  162 218 
 SPBC HZ I        1824 48.04        26.0 0.07            131            162 218 
 ZAR  HZ EP       1824 24.54                             122    0.58 9  201 292 
 ZAR  HN ES       1824 48.76                             122   -0.14 9  201 292 
 ZAR  HZ I        1824 55.04        16.6 0.39            124            201 292 
 SML  HZ EP       1824 27.77                             117   -0.47 8  242 336 
 SML  HN ES       1824 55.84                             117   -0.67 8  242 336 
 SML  HZ I        1824 58.56        24.5 0.07            120            242 336 
 CHI  HZ EP       1824 29.76                             116    0.17 8  249 194 
 CHI  HN ES       1824 59.00                             116    0.09 8  249 194 
 CHI  HZ I        1825  4.35        11.9 0.14            119            249 194 
 HEL  HZ EP       1824 32.76                             114    0.95 8  270 255 
 HEL  HN ES       1825  3.06                             114    0.20 8  270 255 
 HEL  HZ I        1825 10.33        10.5 0.42            117            270 255 
 RREF HZ EP   4   1824 25.48                             110   -12.4 0  320 229 
 RREF HN ES   4   1825 15.96                             110    2.31 0  320 229 
 PRA  HZ EP       1824 44.92                             106   -0.46 6  392 209 
 PRA  HN ES       1825 27.14                             106    0.12 6  392 209 
 PRA  HZ I        1825 31.87        10.5 0.67            108            392 209 
 SJC  HN ES   4   1825 26.01                             105   -4.22 0  407 327 
                                                                                
