 2011  3 6 1617 22.2 L   6.795 -73.118146.0  RSN  9 0.4 2.1LRSN                1
 GAP=104        0.84       3.5     9.2  6.6 -0.1322E+02  0.8455E+01  0.7949E+00E
 Epicentro: LOS SANTOS - SANTANDER                                             3
 ACTION:UP  11-06-16 14:32 OP:jfem STATUS:               ID:20110306161722 L   I
 2011-03-06-1613-26S.COL___135                                                 6
 STAT SP IPHASW D HRMM SECON CODA AMPLIT PERI AZIMU VELO SNR AR TRES W  DIS CAZ7
 BAR2 SZ EP       1617 42.08                             170     0.210   24 198 
 BAR2 SZ ES   1   1617 57.22                             170     0.0 7   24 198 
 BAR2 SZ I        1617 58.68        38.5 0.33                            24 198 
 RUS  HZ EP       1617 45.90                             144     0.010  100 178 
 RUS  HN ES   1   1618  4.12                             144    -0.3 7  100 178 
 RUS  HZ I        1618  6.09        11.6 0.36                           100 178 
 GRA  SZ IP       1617 47.85                             137     0.410  125  16 
 GRA  SZ I        1617 49.17        24.9 0.39                           125  16 
 GRA  SZ ES   1   1618  7.68                             137     0.5 7  125  16 
 OCA  SZ EP   1   1617 50.43                             129    -0.2 7  161 352 
 OCA  SZ ES   1   1618 11.99                             129    -0.8 7  161 352 
 OCA  SZ I        1618 18.60        23.1 0.34                           161 352 
 YOP  SZ EP   2   1617 52.30                             127     0.2 4  177 154 
 YOP  SZ I        1617 53.52         8.0 0.57                           177 154 
 CHI  HZ EP       1617 59.78                             117    -0.2 8  249 196 
 CHI  HE ES   2   1618 29.37                             117     0.0 4  249 196 
 CHI  HZ I        1618 33.35         6.8 0.44                           249 196 
 HEL  HZ EP   2   1618  3.33                             115     0.6 4  275 256 
 HEL  HN ES   3   1618 34.06                             115    -0.3 2  275 256 
 HEL  HZ I        1618 45.07         4.4 0.10                           275 256 
 SDV  BZ EP   1   1618 11.15                             108    -0.9 5  358  50 
 SDV  BZ I        1618 12.37         4.5 0.25                           358  50 
 PRA  HZ EP   1   1618 16.02                             106     0.2 4  393 210 
 PRA  HN ES   1   1618 57.94                             106     0.2 4  393 210 
                                                                                
