 2012  7 6 1817 40.3 L   6.731 -73.214151.6  RSN  5 0.3 1.4LRSN                1
 GAP=220        0.59       6.2     5.6  6.9  0.2173E+02  0.1725E+01 -0.1461E+01E
 Epicentro: VILLANUEVA - SANTANDER                                             3
 ACTION:UPD 12-08-14 11:43 OP:ep   STATUS:               ID:20120706181740 L   I
 2012-07-06-1810-00M.COL___201                                                 6
 STAT SP IPHASW D HRMM SECON CODA AMPLIT PERI AZIMU VELO AIN AR TRES W  DIS CAZ7
 BAR2 SZ EP   1   1818  0.37                             174    -0.2 7   16 167 
 BAR2 SZ ES   2   1818 16.10                             174    -0.2 5   16 167 
 BAR2 SZ I        1818 19.10         4.5 0.18            172             16 167 
 BRR  HZ EP   1   1818  2.07                             154     0.1 7   69 307 
 BRR  HN ES   1   1818 19.05                             154     0.2 7   69 307 
 RUS  HZ EP   1   1818  4.64                             147     0.5 7   94 171 
 RUS  HN ES   1   1818 22.59                             147    -0.2 7   94 171 
 RUS  HZ I        1818 24.55         4.6 0.23            148             94 171 
 PTB  HZ EP   1   1818  6.65                             135    -0.4 7  139 261 
 PTB  HN ES   1   1818 28.05                             135     0.2 7  139 261 
 PTB  HZ I        1818 30.95         3.8 0.21            137            139 261 
 ZAR  HN ES   1   1818 37.86                             124    -0.2 6  200 295 
