 2010  9 6 1307  4.9 L   6.785 -73.076145.5  RSN  6 0.2 1.8LRSN                1
 GAP=167        0.45       3.3     7.4  5.6 -0.2473E+01 -0.1263E+02 -0.2037E+01E
 Epicentro: LOS SANTOS - SANTANDER                                             3
 ACTION:UP  11-02-18 11:00 OP:tino STATUS:               ID:20100906130704 L   I
 2010-09-06-1303-33S.COL___120                                                 6
 STAT SP IPHASW D HRMM SECON CODA AMPLIT PERI AZIMU VELO SNR AR TRES W  DIS CAZ7
 BAR2 SZ EP   1   13 7 24.37                             170    -0.2 7   24 209 
 BAR2 SZ ES   2   13 7 40.29                             170     0.4 5   24 209 
 BAR2 SZ I        13 7 40.50        15.9 0.30                            24 209 
 GIR2 SZ EP   1   13 7 24.50                             166    -0.2 7   35 338 
 GIR2 SZ ES   2   13 7 39.83                             166    -0.2 5   35 338 
 BRR  HZ EP   1   13 7 26.37                             150    -0.1 7   79 297 
 BRR  HZ I        13 7 26.73        21.5 0.16                            79 297 
 BRR  HE ES   2   13 7 43.41                             150     0.1 5   79 297 
 RUS  HZ EP   1   13 7 28.49                             144     0.0 7   99 180 
 RUS  HE ES   2   13 7 46.90                             144     0.0 5   99 180 
 RUS  HZ I        13 7 48.34         5.0 0.33                            99 180 
 GUE  SZ EP   1   13 7 29.93                             139     0.3 7  117   8 
 GRA  SZ EP   1   13 7 30.26                             137     0.2 7  125  14 
 GRA  SZ ES   2   13 7 49.40                             137    -0.3 5  125  14 
                                                                                
