 2016  7 6 1710 15.3 L   6.836 -73.178143.7  RSN  4 0.2 1.4LRSN                1
 GAP=243        0.46       5.7     5.5  5.9  0.1673E+02  0.6137E+01 -0.5692E+01E
 Epicentro: ZAPATOCA - SANTANDER                                               3
 ACTION:UPD 17-03-29 16:47 OP:lp   STATUS:               ID:20160706171015 L   I
 OLDACT:REG 16-07-06 20:41 OP:dnl  STATUS:               ID:20160706170745     3
 2016-07-06-1707-45M.COL___328                                                 6
 STAT SP IPHASW D HRMM SECON CODA AMPLIT PERI AZIMU VELO AIN AR TRES W  DIS CAZ7
 BAR2 EZ EP       1710 34.84                             169    0.0910 27.0 181 
 BAR2 EZ ES       1710 49.81                             169   -0.1310 27.0 181 
 BAR2 EZ I        1710 51.53         7.1 0.20            165           27.0 181 
 RUS  HZ EP   2   1710 38.93                             142   -0.23 5  105 174 
 RUS  HN ES       1710 57.94                             142    0.1610  105 174 
 RUS  HZ I        1710 58.72         3.1 0.30            143            105 174 
 PTB  HZ EP   2   1710 41.45                             132   -0.40 5  145 257 
 PTB  HN ES   2   1711  2.30                             132   -0.27 5  145 257 
 PTB  HZ I        1711  7.38         2.4 0.48            130            145 257 
 ZAR  HE ES   2   1711 12.39                             123    0.46 4  199 291 
 ZAR  HZ I        1711 15.08         3.3 0.10            122            199 291 
                                                                                
