 2014 12 6 1202 50.7 L   6.829 -73.170138.3  RSN 11 0.3 1.7LRSN                1
 GAP=132        0.75       2.7     3.3  5.5 -0.2366E+01  0.5875E+01  0.3326E+00E
 Epicentro: ZAPATOCA - SANTANDER                                               3
 ACTION:UPD 15-02-10 17:00 OP:nd   STATUS:               ID:20141206120250 L   I
 OLDACT:REG 14-12-06 20:06 OP:spq  STATUS:               ID:20141206115748     3
 2014-12-06-1157-48M.COL___311                                                 6
 STAT SP IPHASW D HRMM SECON CODA AMPLIT PERI AZIMU VELO AIN AR TRES W  DIS CAZ7
 BAR2 SZ EP       12 3  9.43                             169   -0.0410 26.2 183 
 BAR2 SZ ES   1   12 3 24.02                             169   -0.11 7 26.2 183 
 BAR2 SZ I        12 3 25.70        15.4 0.16            169           26.2 183 
 BRR  HZ EP   1   12 3 11.22                             153    0.42 7 67.3 297 
 PAM  SZ EP       12 3 12.34                             150    0.2810 76.8  43 
 PAM  SN ES       12 3 28.94                             150    0.1910 76.8  43 
 PAM  SZ I        12 3 31.26        10.4 0.46            154           76.8  43 
 RUS  HZ EP       12 3 13.55                             141   -0.4110  104 175 
 RUS  HE ES   1   12 3 32.07                             141   -0.05 7  104 175 
 RUS  HZ I        12 3 34.25         2.2 0.34            144            104 175 
 PTB  HZ EP       12 3 16.50                             131   -0.36 9  146 257 
 PTB  HN ES       12 3 36.90                             131   -0.38 9  146 257 
 PTB  HZ I        12 3 40.45         6.4 0.16            132            146 257 
 SPBC HZ EP       12 3 18.34                             127   -0.35 9  164 218 
 SPBC HN ES       12 3 40.86                             127    0.32 9  164 218 
 SPBC HZ I        12 3 46.17         6.3 0.20            129            164 218 
 ZAR  HE ES   1   12 3 46.56                             121   -0.32 6  200 292 
 ZAR  HZ I        12 3 53.72         6.7 0.44            123            200 292 
 NOR  HN ES       12 3 54.08                             117    0.63 8  234 233 
 NOR  HZ I        12 3 56.93         3.1 0.36            119            234 233 
 SML  HZ EP   1   12 3 26.05                             116   -0.40 6  240 336 
 SML  HE ES   1   12 3 54.60                             116    0.25 6  240 336 
 SML  HZ I        12 3 56.93         7.3 0.26            119            240 336 
 CHI  HZ EP   1   12 3 28.55                             115    0.32 6  251 194 
 CHI  HN ES   1   12 3 57.20                             115   -0.33 6  251 194 
 CHI  HZ I        12 4  1.35         1.9 0.28            118            251 194 
 GUY2CHZ EP   1   12 3 34.33                             111    0.42 5  301 234 
 GUY2CHN ES   1   12 4  8.15                             111    0.52 5  301 234 
 GUY2CHZ I        12 4 17.26         1.8 0.28                           301 234 
                                                                                
