 2015  1 6 1148 16.7 L   6.773 -73.186158.1  RSN  9 0.4 2.1LRSN                1
 GAP=178        1.00       3.2     5.1  7.5  0.4583E-01 -0.1474E+01 -0.3901E+01E
 Epicentro: LOS SANTOS - SANTANDER                                             3
 ACTION:UPD 15-03-02 15:37 OP:nd   STATUS:               ID:20150106114816 L   I
 OLDACT:UP  15-01-07 00:22 OP:mh   STATUS:               ID:20150106114749     3
 OLDACT:REG 15-01-06 22:17 OP:mh   STATUS:               ID:20150106114749     3
 2015-01-06-1147-49M.COL___271                                                 6
 STAT SP IPHASW D HRMM SECON CODA AMPLIT PERI AZIMU VELO AIN AR TRES W  DIS CAZ7
 BAR2 EZ EP       1148 38.04                             172    0.3010 20.0 179 
 BAR2 EZ I        1148 54.85        48.5 0.23            174           20.0 179 
 BRR  HZ EP       1148 39.57                             155    0.5110 68.9 302 
 BRR  HN ES       1148 56.23                             155   -0.2810 68.9 302 
 BRR  HZ I        1148 59.67        18.3 0.12            157           68.9 302 
 RUS  HZ EP       1148 41.83                             147    0.3310 98.0 173 
 RUS  HN ES       1149  0.44                             147   -0.4010 98.0 173 
 RUS  HZ I        1149  1.75        10.9 0.22            150           98.0 173 
 PTB  HZ EP       1148 44.73                             136    0.47 9  143 260 
 PTB  HN ES       1149  5.73                             136   -0.04 9  143 260 
 PTB  HZ I        1149 11.17        13.6 0.30            139            143 260 
 SPBC HZ EP       1148 45.39                             133   -0.31 9  158 218 
 SPBC HN ES       1149  8.22                             133   -0.10 9  158 218 
 SPBC HZ I        1149 11.45        15.2 0.20            136            158 218 
 OCA  HZ EP   1   1148 45.96                             132   -0.25 7  163 355 
 OCA  HN ES       1149  9.65                             132    0.41 9  163 355 
 OCA  HZ I        1149 17.63         8.0 0.40            132            163 355 
 ZAR  HZ EP   1   1148 49.35                             125   -0.32 6  201 293 
 ZAR  HN ES       1149 16.02                             125    0.62 9  201 293 
 ZAR  HZ I        1149 21.95        10.7 0.60            128            201 293 
 NOR  HN ES       1149 20.38                             121   -0.23 8  229 234 
 SML  HZ EP       1148 53.52                             120   -0.61 8  245 337 
 SML  HN ES       1149 22.53                             120   -0.80 8  245 337 
 SML  HZ I        1149 26.09        15.1 0.10            121            245 337 
                                                                                
