 2012  9 6 1302 44.0 L   6.723 -73.204142.0  RSN  5 0.3 1.7LRSN                1
 GAP=169        0.56       6.9     7.8  6.8  0.3573E+02  0.9198E+01  0.8516E+01E
 Epicentro: VILLANUEVA - SANTANDER                                             3
 ACTION:UPD 12-10-22 14:17 OP:ep   STATUS:               ID:20120906130244 L   I
 2012-09-06-1300-00M.COL___218                                                 6
 STAT SP IPHASW D HRMM SECON CODA AMPLIT PERI AZIMU VELO AIN AR TRES W  DIS CAZ7
 BAR2 SZ EP       13 3  2.77                             174   -0.2710 14.7 171 
 BAR2 SZ I        13 3  2.93        11.6 0.40                          14.7 171 
 BAR2 SZ ES   3   13 3 17.13                             174   -0.76 2 14.7 171 
 GIR2 SZ EP   3   13 3  2.98                             164   -0.51 2 39.3   2 
 BRR  HZ EP   3   13 3  4.92                             152    0.21 2 70.3 307 
 BRR  HN ES   1   13 3 21.27                             152    0.42 7 70.3 307 
 BRR  HN I        13 3 25.70        17.1 0.16                          70.3 307 
 RUS  HZ EP       13 3  7.05                             146    0.2110 92.8 172 
 RUS  HN ES   1   13 3 24.75                             146    0.10 7 92.8 172 
 RUS  HZ I        13 3 26.03         3.7 0.32                          92.8 172 
 PTB  HN EP       13 3  9.84                             133   -0.13 9  140 262 
 PTB  HN ES   3   13 3 29.37                             133   -0.84 2  140 262 
                                                                                
