 2013  7 6 1501 24.5 L   6.799 -73.134148.2  RSN 16 0.6 2.8LRSN                1
 GAP= 72        1.39       4.0     4.2 10.1 -0.4312E+01  0.1286E+02  0.7116E+01E
 Epicentro: LOS SANTOS - SANTANDER                                             3
 ACTION:UPD 13-08-12 10:35 OP:ep   STATUS:               ID:20130706150124 L   I
 OLDACT:UPD 13-08-08 12:03 OP:ep   STATUS:               ID:20130706150124 L   3
 OLDACT:DUP 13-07-06 18:32 OP:stll STATUS:               ID:20130706145850d    3
 2013-07-06-1458-49M.COL___221                                                 6
 STAT SP IPHASW D HRMM SECON CODA AMPLIT PERI AZIMU VELO AIN AR TRES W  DIS CAZ7
 BAR2 SZ EP       15 1 44.60                             170    0.2110 23.5 193 
 BAR2 SZ I        15 1 45.01        57.8 0.36            169           23.5 193 
 BAR2 SZ ES       15 2  0.14                             170    0.2010 23.5 193 
 GIR2 SZ EP       15 1 44.63                             167    0.1910 31.6 348 
 BRR  HZ EP       15 1 46.44                             152    0.4910 72.4 298 
 BRR  HN ES       15 2  3.33                             152    0.6310 72.4 298 
 BRR  HN I        15 2  7.24       188.1 0.16            153           72.4 298 
 PAM  SZ EP       15 1 47.39                             151    0.5010 76.6  39 
 PAM  SN ES       15 2  4.09                             151   -0.3010 76.6  39 
 PAM  SN I        15 2  5.81        59.4 0.20            154           76.6  39 
 RUS  HN ES       15 2  6.89                             144   -0.2610  100 177 
 GRA  SZ ES       15 2  9.17                             138   -0.5710  125  17 
 CAPV BZ ES       15 2 12.53                             132   -0.93 9  149  37 
 PTB  HN ES       15 2 12.54                             132   -0.49 9  149 259 
 PTB  HN I        15 2 18.14       137.8 0.48            132            149 259 
 TAM  HN ES       15 2 14.35                             131    0.48 9  154 105 
 TAM  HN I        15 2 18.66        43.5 0.42            133            154 105 
 OCA  HN ES       15 2 15.36                             130    0.13 9  160 353 
 ZAR  HE ES       15 2 22.71                             123   -0.02 8  205 292 
 ZAR  HE I        15 2 29.16       237.1 0.24            123            205 292 
 NOR  HE ES       15 2 27.71                             119   -0.81 8  236 235 
 CHI  HN ES       15 2 32.08                             117    0.21 8  249 195 
 CHI  HN I        15 2 36.67        30.0 0.36            118            249 195 
 HEL  HN ES       15 2 36.48                             115   -0.04 8  273 256 
 GUY2CHN ES       15 2 43.72                             113    1.22 7  302 235 
 PRA  HN ES       15 2 58.21                             107   -1.80 6  393 210 
 PRA  HN I        15 3  4.95        10.0 0.42            107            393 210 
                                                                                
