 2013  1 6 1030 26.5 L   6.862 -73.155145.3  RSN  6 0.5 1.5LRSN                1
 GAP=242        0.92       7.1     8.6  8.6  0.3030E+02  0.1711E+02  0.1159E+02E
 Epicentro: LOS SANTOS - SANTANDER                                             3
 ACTION:UPD 13-02-15 09:12 OP:ep   STATUS:               ID:20130106103026 L   I
 2013-01-06-1030-00M.COL___242                                                 6
 STAT SP IPHASW D HRMM SECON CODA AMPLIT PERI AZIMU VELO AIN AR TRES W  DIS CAZ7
 BAR2 SZ EP   1   1030 45.64                             168   -0.63 7 30.0 186 
 BAR2 SZ ES   1   1031  1.37                             168   -0.28 7 30.0 186 
 BAR2 SZ I        1031  3.59         7.3 0.42            162           30.0 186 
 BRR  HZ EP   1   1030 47.78                             154    0.36 7 67.2 294 
 BRR  HN ES   1   1031  4.41                             154    0.71 7 67.2 294 
 RUS  HN ES   2   1031  9.74                             142    0.10 5  108 176 
 PTB  HZ EP   1   1030 52.87                             132   -0.64 7  148 256 
 PTB  HN ES   1   1031 13.92                             132   -0.63 7  148 256 
 PTB  HZ I        1031 16.72         6.0 0.16            128            148 256 
 ZAR  HZ EP   1   1030 58.97                             123    0.37 6  201 290 
 ZAR  HN ES   1   1031 23.65                             123    0.05 6  201 290 
 ZAR  HZ I        1031 30.55         4.6 0.22            121            201 290 
 CHI  HZ EP   1   1031  5.15                             116    0.25 6  255 195 
 CHI  HN ES   1   1031 35.55                             116    0.72 6  255 195 
 CHI  HZ I        1031 40.93         1.2 0.44            115            255 195 
 MON  HN ES   4   1031 50.53                             109   -2.16 0  349 308 
                                                                                
