 2017  3 6 1854 49.5 L   6.818 -73.156146.2  RSN 30 0.6 3.3LRSN 3.8WRSN        1
 SPEC AVERAGE  MO 14.8 ST0.448 OM  2.7 f0 1.05 R2.4318 AL 0.00 WI 30.0 MW  3.8 3
 SPEC SD       MO  0.3 ST0.417 OM  0.5 f00.541 R1.3723 AL      WI      MW  0.2 3
 GAP= 64        1.12       2.8     2.9  4.8 -0.4738E+00  0.3298E+01  0.1953E+01E
 Epicentro: LOS SANTOS - SANTANDER                                             3
 SPEC CHI HH Z MO 14.9 ST0.158 OM  2.7 f00.699 R2.7525 AL-0.00 WI 30.0 MW  3.9 3
 SPEC CHI HH Z T185555 K 0.000 GD  289 VS 5.20 DE 3.50 Q0750.0 QA 1.50 VS 5.20 3
 SPEC ROSCBH Z MO 14.8 ST0.522 OM  2.6 f0 1.12 R1.7179 AL-0.00 WI 30.0 MW  3.8 3
 SPEC ROSCBH Z T185557 K 0.000 GD  293 VS 5.20 DE 3.50 Q0750.0 QA 1.50 VS 5.20 3
 SPEC URE HH Z MO 15.3 ST0.251 OM  3.1 f00.582 R3.3058 AL-0.00 WI 30.0 MW  4.2 3
 SPEC URE HH Z T185558 K 0.000 GD  317 VS 5.20 DE 3.50 Q0750.0 QA 1.50 VS 5.20 3
 SPEC VIL EH Z MO 14.6 ST0.360 OM  2.4 f0 1.10 R1.7491 AL-0.00 WI 30.0 MW  3.7 3
 SPEC VIL EH Z T1856 5 K 0.000 GD  338 VS 5.20 DE 3.50 Q0750.0 QA 1.50 VS 5.20 3
 SPEC CBOCHH Z MO 14.5 ST0.201 OM  2.2 f0 1.03 R1.8680 AL-0.00 WI 30.0 MW  3.6 3
 SPEC CBOCHH Z T185612 K 0.000 GD  363 VS 5.20 DE 3.50 Q0750.0 QA 1.50 VS 5.20 3
 SPEC ANILHH Z MO 14.5 ST  1.1 OM  2.2 f0 1.78 R1.0809 AL-0.00 WI 30.0 MW  3.6 3
 SPEC ANILHH Z T185617 K 0.000 GD  386 VS 5.20 DE 3.50 Q0750.0 QA 1.50 VS 5.20 3
 SPEC PRA HH Z MO 14.9 ST0.461 OM  2.6 f00.954 R2.0168 AL-0.00 WI 30.0 MW  3.9 3
 SPEC PRA HH Z T185620 K 0.000 GD  419 VS 5.20 DE 3.50 Q0750.0 QA 1.50 VS 5.20 3
 SPEC ORTCHH Z MO 15.4 ST0.065 OM  3.1 f00.337 R5.7092 AL-0.00 WI 30.0 MW  4.2 3
 SPEC ORTCHH Z T185625 K 0.000 GD  422 VS 5.20 DE 3.50 Q0750.0 QA 1.50 VS 5.20 3
 SPEC SJC HH Z MO 14.5 ST0.359 OM  2.2 f0 1.18 R1.6305 AL-0.00 WI 30.0 MW  3.6 3
 SPEC SJC HH Z T185622 K 0.000 GD  432 VS 5.20 DE 3.50 Q0750.0 QA 1.50 VS 5.20 3
 SPEC CRJCHH Z MO 14.3 ST  1.4 OM  1.9 f0 2.26 R0.8513 AL-0.00 WI 30.0 MW  3.5 3
 SPEC CRJCHH Z T185635 K 0.000 GD  488 VS 5.20 DE 3.50 Q0750.0 QA 1.50 VS 5.20 3
 SPEC FLO2HH Z MO 14.6 ST0.028 OM  2.1 f00.473 R4.0677 AL-0.00 WI 30.0 MW  3.7 3
 SPEC FLO2HH Z T185717 K 0.000 GD  658 VS 5.20 DE 3.50 Q0750.0 QA 1.50 VS 5.20 3
 OLDACT:UP  17-03-06 21:49 OP:ar   STATUS:               ID:20170306184745     3
 OLDACT:UP  17-03-06 21:48 OP:ar   STATUS:               ID:20170306184745     3
 OLDACT:UP  17-03-06 21:47 OP:ar   STATUS:               ID:20170306184745     3
 OLDACT:UP  17-03-06 21:46 OP:ar   STATUS:               ID:20170306184745     3
 OLDACT:UP  17-03-06 21:37 OP:ar   STATUS:               ID:20170306184745     3
 OLDACT:REG 17-03-06 21:17 OP:ar   STATUS:               ID:20170306184745     3
 ACTION:UPD 17-05-25 18:37 OP:jn   STATUS:               ID:20170306185449 L   I
 OLDACT:UP  17-03-06 21:51 OP:ar   STATUS:               ID:20170306184745     3
 2017-03-06-1848-00M.COL___359                                                 6
 STAT SP IPHASW D HRMM SECON CODA AMPLIT PERI AZIMU VELO AIN AR TRES W  DIS CAZ7
 BAR2 EZ IP     D 1855  9.07                             170   -0.1010 25.1 187 
 BAR2 EZ ES       1855 23.83                             170   -0.7210 25.1 187 
 BAR2 EZ I        1855 26.75       574.1 0.32            169           25.1 187 
 BRR  HZ IP     C 1855 10.89                             153    0.3510 69.3 298 
 BRR  HN ES       1855 27.95                             153    0.9610 69.3 298 
 BRR  HZ I        1855 31.96       272.1 0.30            153           69.3 298 
 PAM  EZ IP     C 1855 11.87                             151    0.2010 76.6  41 
 PAM  EE ES       1855 28.97                             151   -0.0210 76.6  41 
 PAM  EZ I        1855 31.15       228.5 0.58            151           76.6  41 
 PTB  HZ EP       1855 15.65                             132   -0.74 9  147 258 
 PTB  HN ES       1855 36.97                             132   -0.43 9  147 258 
 PTB  HZ I        1855 43.07       200.2 0.44            132            147 258 
 TAM  HZ IP     D 1855 17.51                             130    0.19 9  157 106 
 TAM  HZ I        1855 38.25       125.5 0.44            130            157 106 
 TAM  HN ES       1855 39.00                             130   -0.05 9  157 106 
 SPBC HZ EP       1855 17.94                             129   -0.13 9  164 218 
 SPBC HN ES       1855 40.85                             129    0.46 9  164 218 
 SPBC HZ I        1855 44.53       337.4 0.24            128            164 218 
 ZAR  HZ EP       1855 21.65                             123   -0.09 9  202 292 
 ZAR  HN ES       1855 46.97                             123    0.04 9  202 292 
 ZAR  HZ I        1855 51.84       260.6 0.38            122            202 292 
 NOR  HZ EP       1855 25.12                             118   -0.12 8  235 234 
 NOR  HN ES       1855 52.53                             118   -0.62 8  235 234 
 NOR  HZ I        1856  2.21       130.9 0.40            118            235 234 
 CHI  HZ EP       1855 27.19                             117   -0.17 8  250 195 
 CHI  HN ES       1855 56.55                             117   -0.37 8  250 195 
 CHI  HZ I        1855 59.78       143.9 0.64            116            250 195 
 ROSC BZ EP   9   1855 29.11                             117    1.39 0  254 211 
 ROSC BN ES       1855 59.27                             117    0.31 8  254 211 
 ROSC BZ I        1856  3.56       379.9 0.45            116            254 211 
 URE  HZ EP   9   1855 28.93                             114   -1.42 0  282 292 
 URE  HE ES       1856  0.33                             114   -0.49 7  282 292 
 URE  HZ I        1856  8.02       101.4 0.14            113            282 292 
 LL1C HZ EP   9   1855 35.21                             112    2.38 0  304 352 
 LL1C HN ES       1856  9.74                             112    0.70 7  304 352 
 VIL  EZ EP       1855 32.83                             112   -0.26 7  305 191 
 VIL  EN ES       1856  6.97                             112   -0.15 7  305 191 
 VIL  EZ I        1856 16.62       213.5 0.42            111            305 191 
 PTGC HZ EP   9   1855 32.19                             111   -1.40 0  311 159 
 PTGC HN ES       1856  6.03                             112   -0.58 7  311 159 
 PTGC HZ I        1856  8.29        88.0 0.32            111            311 159 
 ELA  HZ EP   4   1855 38.55                             110    2.17 0  330 229 
 ELA  HN ES   4   1856 17.26                             110    4.29 0  330 229 
 ELA  HZ I        1856 21.66        99.2 0.56            110            330 229 
 CBOC HZ EP       1855 36.69                             110    0.35 7  333 252 
 CBOC HN ES       1856 13.84                             110    0.94 7  333 252 
 CBOC HZ I        1856 23.83        25.2 0.20            110            333 252 
 DBB  EZ EP       1855 37.03                             110    0.23 7  338 274 
 DBB  EN ES       1856 12.84                             110   -0.89 7  338 274 
 DBB  EZ I        1856 13.54        50.3 0.24            109            338 274 
 ARGC HZ EP       1855 39.16                             108    0.29 6  357 340 
 ARGC HE ES       1856 17.94                             108    0.54 6  357 340 
 ARGC HZ I        1856 24.62        32.9 0.34            108            357 340 
 ANIL HZ EP       1855 40.79                             108    1.44 6  358 224 
 ANIL HN ES       1856 19.21                             108    0.94 6  358 224 
 PRA  HZ EP   9   1855 40.02                             106   -3.11 0  393 209 
 PRA  HN ES       1856 22.22                             107    0.34 6  393 209 
 PRA  HZ I        1856 28.72       119.4 0.38            106            393 209 
 ORTC HZ EP       1855 43.26                             106   -0.24 6  396 216 
 ORTC HN ES       1856 26.74                             106    1.08 6  396 216 
 ORTC HZ I        1856 30.34        80.0 0.24            106            396 216 
 APAC HZ EP       1855 42.95                             106   -0.51 6  397 288 
 APAC HN ES       1856 24.39                             106   -1.20 6  397 288 
 APAC HZ I        1856 27.88        30.3 0.26            106            397 288 
 SJC  HZ EP   4   1855 43.26                             106   -1.50 0  407 327 
 SJC  HN ES   4   1856 24.30                             106   -3.60 0  407 327 
 SJC  HZ I        1856 38.63        37.2 0.66            105            407 327 
 CRJC HZ EP   9   1855 49.33                             103   -2.41 0  466   4 
 CRJC HN ES       1856 36.97                             104   -0.94 5  466   4 
 CRJC HZ I        1856 44.10        59.2 0.30            103            466   4 
 YOT  HZ EP       1855 51.72                             103   -0.85 5  472 229 
 YOT  HN ES   4   1856 48.70                             103    6.91 0  472 229 
 SMAR HZ EP       1855 54.49                             102   -0.59 4  495 346 
 SMAR HN ES   4   1856 42.05                             102   -4.21 0  495 346 
 SMAR HZ I        1856 49.57        26.3 0.38            102            495 346 
 GARC HZ EP   4   1856  3.24                             100   -1.63 0  574 207 
 GARC HN ES   4   1857  0.63                             100   -3.06 0  574 207 
 GARC HZ I        1857  7.29        30.0 0.22            100            574 207 
 CONO HZ EP       1856 10.19                              99    0.24 3  613 216 
 CONO HN ES       1857 13.00                              99    0.26 3  613 216 
 POP2 HZ EP       1856  8.79                              99   -0.79 3  613 220 
 FLO2 HZ EP   4   1856 11.08                              99   -1.67 0  642 206 
 FLO2 HN ES       1857 18.94                              99    1.23 2  642 206 
 FLO2 HZ I        1857 23.05         4.9 0.48             98            642 206 
 SOTO HZ EP   4   1856 15.35                              99    1.75 0  644 217 
                                                                                
