 2013  4 6 1204 14.3 L   6.820 -73.141143.9  RSN 16 0.4 2.5LRSN                1
 GAP=126        0.64       2.1     3.0  4.4 -0.7578E+00  0.2422E+01  0.1002E+01E
 Epicentro: LOS SANTOS - SANTANDER                                             3
 ACTION:UPD 13-05-22 14:36 OP:EP   STATUS:               ID:20130406120414 L   I
 2013-04-06-1200-00M.COL___245                                                 6
 STAT SP IPHASW D HRMM SECON CODA AMPLIT PERI AZIMU VELO AIN AR TRES W  DIS CAZ7
 BAR2 SZ IP       12 4 33.84                             169    0.0910 25.6 190 
 BAR2 SZ ES   2   12 4 48.80                             169   -0.13 5 25.6 190 
 BAR2 SZ I        12 4 49.89       204.5 0.20            168           25.6 190 
 GIR2 SZ IP     D 12 4 33.90                             168    0.2010 29.2 349 
 GIR2 SZ ES   1   12 4 48.94                             168    0.11 7 29.2 349 
 GIR2 SZ I        12 4 51.09        51.4 0.44            165           29.2 349 
 BRR  HZ IP     D 12 4 35.70                             152    0.4910 70.6 297 
 BRR  HN ES   4   12 4 52.21                             152    0.68 0 70.6 297 
 BRR  HZ I        12 4 55.88        74.6 0.30            149           70.6 297 
 RUS  HZ EP       12 4 37.88                             143   -0.1510  103 176 
 RUS  HN ES   1   12 4 56.49                             143   -0.05 7  103 176 
 RUS  HZ I        12 4 57.43        53.2 0.30            145            103 176 
 PTB  HZ EP       12 4 40.51                             131   -0.69 9  149 258 
 PTB  HN ES   1   12 5  1.57                             131   -0.61 7  149 258 
 PTB  HZ I        12 5  3.72        39.0 0.42            130            149 258 
 OCA  HZ EP   2   12 4 42.61                             130    0.35 5  158 353 
 OCA  HN ES   1   12 5  3.85                             130   -0.23 7  158 353 
 OCA  HZ I        12 5 10.81        25.3 0.28            130            158 353 
 ZAR  HZ EP   2   12 4 46.68                             122    0.10 4  204 292 
 ZAR  HN ES   1   12 5 12.20                             122    0.43 6  204 292 
 ZAR  HZ I        12 5 17.84        48.2 0.30            121            204 292 
 NOR  HZ EP   1   12 4 50.17                             118    0.07 6  236 234 
 NOR  HN ES   1   12 5 17.98                             118   -0.05 6  236 234 
 NOR  HZ I        12 5 24.60        33.8 0.22            118            236 234 
 SML  HZ EP   1   12 4 50.47                             117   -0.15 6  242 335 
 SML  HN ES   1   12 5 19.09                             117    0.13 6  242 335 
 SML  HZ I        12 5 20.91        30.1 0.24            118            242 335 
 CHI  HZ IP     C 12 4 52.47                             116    0.33 8  251 195 
 CHI  HN ES   1   12 5 21.50                             116   -0.16 6  251 195 
 CHI  HZ I        12 5 24.57        11.2 0.42            118            251 195 
 ROSC BN ES   2   12 5 22.42                             116    0.03 4  255 211 
 HEL  HZ EP   2   12 4 54.73                             114    0.20 4  273 255 
 HEL  HN ES   2   12 5 25.57                             114   -0.34 4  273 255 
 HEL  HZ I        12 5 32.65        17.9 0.48            114            273 255 
 RREF HZ EP   1   12 5  1.02                             110    0.45 5  324 229 
 RREF HN ES   1   12 5 37.39                             110    0.74 5  324 229 
 RREF HZ I        12 5 44.05        16.2 0.44            111            324 229 
 DBB  SZ EP   2   12 5  1.69                             109   -0.05 3  340 274 
 DBB  SZ ES   2   12 5 37.70                             109   -1.04 3  340 274 
 SDV  BZ EP   1   12 5  3.49                             108   -0.57 5  359  50 
 SDV  BN ES   2   12 5 42.24                             108   -0.64 3  359  50 
 SDV  BZ I        12 5 43.66         6.2 0.30            110            359  50 
 PRA  HZ EP   1   12 5  7.98                             106   -0.03 4  394 209 
 PRA  HN ES   1   12 5 49.69                             106   -0.21 4  394 209 
 PRA  HZ I        12 5 54.94        15.9 0.28            107            394 209 
                                                                                
