 2016  9 6 1745 51.0 L   6.762 -73.141143.6  RSN  6 0.3 1.8LRSN                1
 GAP=139        0.76       3.7     3.4  5.1  0.1241E+01  0.4433E+01 -0.9107E+00E
 Epicentro: LOS SANTOS - SANTANDER                                             3
 ACTION:UPD 17-08-17 21:07 OP:lp   STATUS:               ID:20160906174551 L   I
 OLDACT:REG 16-09-06 21:22 OP:lv   STATUS:               ID:20160906173734     3
 2016-09-06-1738-00M.COL___358                                                 6
 STAT SP IPHASW D HRMM SECON CODA AMPLIT PERI AZIMU VELO AIN AR TRES W  DIS CAZ7
 BAR2 EZ EP       1746 10.18                             172   -0.1110 19.4 194 
 BAR2 EZ ES       1746 25.06                             172   -0.2710 19.4 194 
 BAR2 EZ I        1746 26.21        11.7 0.12            173           19.4 194 
 BRR  HZ EP       1746 12.06                             151    0.0110 73.7 301 
 BRR  HN ES       1746 28.87                             151    0.3910 73.7 301 
 BRR  HZ I        1746 34.15        17.1 0.29            150           73.7 301 
 PAM  EZ EP       1746 13.21                             149    0.0510 80.3  37 
 PAM  EE ES       1746 30.27                             149   -0.1710 80.3  37 
 PAM  EZ I        1746 32.27         7.8 0.40            152           80.3  37 
 RUS  HZ EP       1746 14.61                             145    0.3810 96.4 176 
 RUS  HN ES       1746 32.52                             145    0.1710 96.4 176 
 RUS  HZ I        1746 33.42         4.1 0.24            149           96.4 176 
 PTB  HZ EP       1746 17.11                             132   -0.66 9  148 260 
 PTB  HE ES       1746 38.46                             132   -0.18 9  148 260 
 PTB  HZ I        1746 41.08         9.0 0.10            132            148 260 
 ZAR  HZ EP       1746 23.72                             122    0.20 8  206 293 
 ZAR  HE ES       1746 49.08                             122    0.20 8  206 293 
 ZAR  HZ I        1746 55.17         8.8 0.18            123            206 293 
                                                                                
