 2012  4 6 1556  9.1 L   6.683 -73.228148.1  RSN  4 0.4 0.9LRSN                1
 GAP=202        0.84      10.7    13.0 16.9  0.8235E+02 -0.8735E+02 -0.3933E+02E
 Epicentro: BARICHARA - SANTANDER                                              3
 ACTION:UPD 12-07-05 11:51 OP:tino STATUS:               ID:20120406155609 L   I
 2012-04-06-1550-00M.COL___196                                                 6
 STAT SP IPHASW D HRMM SECON CODA AMPLIT PERI AZIMU VELO AIN AR TRES W  DIS CAZ7
 BAR2 SZ EP       1556 28.35                             175    -0.410   11 153 
 BRR  HZ EP       1556 30.52                             153     0.110   71 311 
 BRR  HN ES   2   1556 47.72                             153     0.6 5   71 311 
 RUS  HZ EP       1556 32.60                             147     0.410   89 170 
 RUS  HE ES   2   1556 50.10                             147    -0.2 5   89 170 
 RUS  HZ I        1556 51.72         1.4 0.26                            89 170 
 PTB  HN ES   2   1556 55.36                             134    -0.3 5  137 263 
 PTB  HZ I        1556 58.19         0.9 0.26                           137 263 
                                                                                
