 2017  1 6 1036 44.7 L   6.736 -73.186145.0  RSN  6 0.1 1.3LRSN                1
 GAP=228        0.38       3.8     2.7  3.8  0.4584E+01  0.1952E+01 -0.1611E+01E
 Epicentro: VILLANUEVA - SANTANDER                                             3
 ACTION:UPD 17-05-22 15:56 OP:jn   STATUS:               ID:20170106103644 L   I
 OLDACT:UP  17-01-06 22:24 OP:dnl  STATUS:               ID:20170106102741d    3
 OLDACT:DUP 17-01-06 21:54 OP:dnl  STATUS:               ID:20170106102741d    3
 2017-01-06-1028-00M.COL___363                                                 6
 STAT SP IPHASW D HRMM SECON CODA AMPLIT PERI AZIMU VELO AIN AR TRES W  DIS CAZ7
 BAR2 EZ EP       1037  3.99                             173   -0.1010 15.9 179 
 BAR2 EZ ES       1037 19.12                             173   -0.1110 15.9 179 
 BAR2 EZ I        1037 20.21         5.4 0.60            171           15.9 179 
 BRR  HZ EP       1037  5.79                             152    0.0510 71.1 305 
 BRR  HE ES       1037 22.35                             152    0.1810 71.1 305 
 BRR  HZ I        1037 23.95         4.7 0.40            151           71.1 305 
 RUS  HN ES   2   1037 26.22                             146    0.23 5 94.0 173 
 RUS  HZ I        1037 28.28         1.8 0.32            145           94.0 173 
 PTB  HZ EP   2   1037 11.22                             133    0.14 5  142 261 
 PTB  HN ES       1037 31.66                             133   -0.01 9  142 261 
 PTB  HZ I        1037 33.63         2.5 0.40            132            142 261 
 ZAR  HZ EP   4   1037 19.51                             122    2.57 0  203 294 
 ZAR  HN ES       1037 41.95                             122   -0.15 9  203 294 
 ZAR  HZ I        1037 47.51         1.9 0.50            122            203 294 
 GUY2CHZ EP   4   1037 29.47                             113    2.09 0  293 235 
 GUY2CHN ES   4   1038  3.67                             113    2.98 0  293 235 
 GUY2CHZ  IAML    1038 11.32         1.1 0.48                           293 235 
                                                                                
