 2017  1 6 1544 59.0 L   6.784 -73.163140.0  RSN  7 0.5 1.6LRSN                1
 GAP=135        0.88       4.7     4.3  8.3  0.4278E+01  0.3498E+01 -0.4950E+01E
 Epicentro: LOS SANTOS - SANTANDER                                             3
 ACTION:UPD 17-05-22 15:56 OP:jn   STATUS:               ID:20170106154459 L   I
 OLDACT:DUP 17-01-06 23:53 OP:dnl  STATUS:               ID:20170106153744d    3
 OLDACT:REG 17-01-06 20:50 OP:dnl  STATUS:               ID:20170106153743     3
 2017-01-06-1538-00M.COL___371                                                 6
 STAT SP IPHASW D HRMM SECON CODA AMPLIT PERI AZIMU VELO AIN AR TRES W  DIS CAZ7
 BAR2 EZ EP       1545 17.82                             171   -0.0910 21.3 186 
 BAR2 EZ ES   2   1545 31.08                             171   -1.57 5 21.3 186 
 BAR2 EZ I        1545 35.84         4.6 0.18            170           21.3 186 
 BRR  HZ EP   2   1545 19.88                             152    0.39 5 70.3 301 
 BRR  HE ES   2   1545 36.49                             152    1.02 5 70.3 301 
 BRR  HZ I        1545 41.00        14.3 0.12            152           70.3 301 
 PAM  EZ EP       1545 20.74                             149   -0.0410 80.0  40 
 PAM  EN ES   2   1545 37.67                             149   -0.09 5 80.0  40 
 PAM  EZ I        1545 39.76         8.0 0.52            155           80.0  40 
 RUS  HZ EP       1545 22.38                             143    0.2910 99.0 175 
 RUS  HN ES       1545 40.41                             143    0.3310 99.0 175 
 RUS  HZ I        1545 41.65         4.2 0.32            146           99.0 175 
 PTB  HZ EP       1545 24.81                             131   -0.50 9  145 259 
 PTB  HE ES       1545 45.75                             131   -0.07 9  145 259 
 PTB  HZ I        1545 48.05         6.4 0.16            133            145 259 
 ZAR  HZ EP   2   1545 30.84                             121   -0.13 4  203 293 
 ZAR  HE ES       1545 56.15                             121    0.26 9  203 293 
 ZAR  HZ I        1546  2.20         8.3 0.24            124            203 293 
 CHI  HZ EP   2   1545 35.91                             116   -0.25 4  246 195 
 CHI  HN ES   2   1546  4.75                             116   -0.38 4  246 195 
 CHI  HZ I        1546 13.26         2.5 0.38            119            246 195 
                                                                                
