 2011  1 6 1314 10.0 L   6.350 -73.641100.7  RSN  4 0.2 1.9LRSN                1
 GAP=157        0.40       4.1     3.7  8.3  0.3124E+01  0.2091E+02  0.1836E+02E
 Epicentro: SANTA HELENA DEL OPON - SANTANDER                                  3
 ACTION:UP  11-02-08 08:39 OP:pat  STATUS:               ID:20110106131410 L   I
 2011-01-06-1300-00M.COL___121                                                 6
 STAT SP IPHASW D HRMM SECON CODA AMPLIT PERI AZIMU VELO SNR AR TRES W  DIS CAZ7
 BAR2 SZ EP       1314 25.87                             148     0.010   57  62 
 BAR2 SZ ES   1   1314 38.35                             148     0.1 7   57  62 
 BAR2 SZ I        1314 39.91        77.4 0.15                            57  62 
 RUS  HZ EP       1314 27.83                             139    -0.110   80 129 
 RUS  HZ I        1314 28.13        14.9 0.18                            80 129 
 CHI  HZ EP   2   1314 38.87                             112    -0.1 4  190 183 
 CHI  HN ES   2   1315  1.78                             112     0.2 4  190 183 
 CHI  HZ I        1315  5.77         4.9 0.27                           190 183 
 HEL  HZ EP   1   1314 41.34                             110     0.2 6  210 265 
 HEL  HN ES   2   1315  5.02                             110    -0.3 4  210 265 
 HEL  HZ I        1315  8.71         5.2 0.57                           210 265 
                                                                                
