 2017  8 6 1913  1.3 L   6.771 -73.376116.0  RSN 13 0.8 2.0LRSN                1
 GAP= 52        1.72       4.8     4.9  8.5 -0.7336E+00  0.9602E+01  0.4225E+00E
 Epicentro: SAN VICENTE DE CHUCURI - SANTANDER                                 3
 ACTION:UPD 17-09-04 20:17 OP:rebc STATUS:               ID:20170806191301 L   I
 OLDACT:UP  17-08-06 23:06 OP:dani STATUS:               ID:20170806190740     3
 OLDACT:UP  17-08-06 23:06 OP:dani STATUS:               ID:20170806190740     3
 OLDACT:REG 17-08-06 21:20 OP:edw  STATUS:               ID:20170806190740     3
 2017-08-06-1908-00M.COL___393                                                 6
 STAT SP IPHASW D HRMM SECON CODA AMPLIT PERI AZIMU VELO AIN AR TRES W  DIS CAZ7
 BAR2 EZ EP       1913 17.58                             165    0.0710 29.2 133 
 BAR2 EZ ES       1913 29.26                             165   -0.9110 29.2 133 
 BAR2 EZ I        1913 31.73        62.2 0.26            165           29.2 133 
 BRR  HZ IP     C 1913 18.19                             154    0.0310 52.5 315 
 BRR  HE ES       1913 32.61                             154    1.2810 52.5 315 
 BRR  HZ I        1913 33.27        29.3 0.12            155           52.5 315 
 PAM  EZ EP     C 1913 21.94                             138   -0.0510 97.7  50 
 PAM  EN ES       1913 38.40                             138    0.2510 97.7  50 
 PAM  EZ I        1913 41.45        28.0 0.38            142           97.7  50 
 RUS  HZ EP       1913 21.93                             136   -0.4710  102 162 
 RUS  HN ES       1913 39.30                             136    0.4310  102 162 
 RUS  HZ I        1913 42.39         6.3 0.36            137            102 162 
 PTB  HZ EP       1913 22.34                             130   -1.1710  122 258 
 PTB  HN ES       1913 39.76                             130   -1.0910  122 258 
 PTB  HZ I        1913 45.43        20.0 0.32            131            122 258 
 TAM  HZ EP     D 1913 28.60                             119   -0.72 9  179 102 
 ZAR  HZ EP       1913 29.46                             118   -0.12 9  182 296 
 ZAR  HN ES       1913 52.45                             118    0.80 9  182 296 
 ZAR  HZ I        1913 56.33        22.3 0.26            120            182 296 
 NOR  HZ EP       1913 32.67                             114   -0.30 8  212 231 
 NOR  HN ES       1913 58.21                             114    0.52 8  212 231 
 NOR  HZ I        1914  3.71         6.1 0.12            115            212 231 
 CHI  HZ EP       1913 37.22                             111    0.68 8  240 189 
 CHI  HN ES       1914  5.54                             111    1.49 8  240 189 
 CHI  HZ I        1914  9.46         2.9 0.42            112            240 189 
 GUY2CHZ EP   3   1913 42.89                             108    1.81 2  279 232 
 DBB  EZ EP       1913 44.74                             105   -0.01 7  314 275 
 DBB  EN ES       1914 17.95                             105   -0.70 7  314 275 
 DBB  EZ I        1914 20.27         3.9 0.12            106            314 275 
 LL6C HZ EP       1913 45.54                             104   -0.72 7  328   2 
 LL6C HE ES       1914 22.39                             104    1.05 7  328   2 
 PRA  HZ EP   3   1913 54.53                             102    2.36 2  377 206 
 PRA  HN ES   3   1914 34.12                             102    2.26 2  377 206 
 PRA  HZ I        1914 39.79         5.3 0.23            103            377 206 
                                                                                
