 2012  4 6 1914 54.7 L   6.785 -73.108144.2  RSN  5 0.2 1.4LRSN                1
 GAP=142        0.59       3.9     4.8  5.3 -0.9257E+00  0.5191E+01  0.8852E+00E
 Epicentro: LOS SANTOS - SANTANDER                                             3
 ACTION:UPD 12-07-05 11:51 OP:tino STATUS:               ID:20120406191454 L   I
 2012-04-06-1910-00M.COL___196                                                 6
 STAT SP IPHASW D HRMM SECON CODA AMPLIT PERI AZIMU VELO AIN AR TRES W  DIS CAZ7
 BAR2 SZ EP   2   1915 14.10                             171    -0.1 5   23 201 
 BAR2 SZ ES   1   1915 29.31                             171     0.0 7   23 201 
 BRR  HZ EP       1915 16.03                             151     0.110   76 298 
 BRR  HE ES   1   1915 32.75                             151     0.2 7   76 298 
 BRR  HZ I        1915 36.12        11.0 0.44                            76 298 
 PAM  SZ EP       1915 17.00                             151     0.310   76  36 
 PAM  SN ES   1   1915 33.41                             151    -0.4 7   76  36 
 RUS  HZ EP       1915 18.12                             144    -0.110   99 178 
 RUS  HN ES   1   1915 36.64                             144     0.1 7   99 178 
 RUS  HZ I        1915 37.79         3.1 0.36                            99 178 
 PTB  HZ EP       1915 21.67                             131    -0.2 9  152 260 
 PTB  HZ I        1915 43.50         1.8 0.24                           152 260 
                                                                                
