 2016  6 6 1837 52.8 L   6.809 -73.165146.0  RSN 11 0.3 2.0LRSN                1
 GAP=134        0.85       2.6     3.2  5.2 -0.1071E+01  0.4511E+01  0.2571E+01E
 Epicentro: LOS SANTOS - SANTANDER                                             3
 ACTION:UPD 16-07-21 22:16 OP:rebc STATUS:               ID:20160606183752 L   I
 OLDACT:UP  16-06-07 00:27 OP:edw  STATUS:               ID:20160606182742     3
 OLDACT:UP  16-06-07 00:26 OP:edw  STATUS:               ID:20160606182742     3
 OLDACT:REG 16-06-06 20:42 OP:edw  STATUS:               ID:20160606182742     3
 2016-06-06-1827-42M.COL___334                                                 6
 STAT SP IPHASW D HRMM SECON CODA AMPLIT PERI AZIMU VELO AIN AR TRES W  DIS CAZ7
 BAR2 EZ EP       1838 12.42                             170   -0.0710 24.0 185 
 BAR2 EZ ES       1838 27.20                             170   -0.6310 24.0 185 
 BAR2 EZ I        1838 30.24        27.1 0.26                          24.0 185 
 BRR  HZ EP       1838 13.61                             153   -0.2510 68.8 299 
 BRR  HN ES       1838 31.00                             153    0.7310 68.8 299 
 BRR  HZ I        1838 35.31        15.5 0.16                          68.8 299 
 PAM  EZ EP       1838 15.32                             151    0.2310 78.0  41 
 PAM  EE ES       1838 32.39                             151   -0.0810 78.0  41 
 PAM  EZ I        1838 34.83        14.6 0.64                          78.0  41 
 RUS  HZ EP       1838 16.38                             144   -0.2910  102 175 
 RUS  HN ES       1838 35.53                             144    0.2510  102 175 
 RUS  HZ I        1838 36.33        14.2 0.32                           102 175 
 PTB  HZ EP       1838 19.20                             132   -0.43 9  146 258 
 PTB  HN ES       1838 40.18                             132   -0.36 9  146 258 
 PTB  HZ I        1838 42.77         9.2 0.16                           146 258 
 OCA  HE ES       1838 43.25                             130    0.21 9  159 354 
 SPBC HZ EP       1838 21.59                             129    0.31 9  163 218 
 SPBC HE ES       1838 43.63                             129    0.16 9  163 218 
 SPBC HZ I        1838 48.28        16.7 0.20                           163 218 
 NOR  HN ES       1838 56.29                             119    0.08 8  234 234 
 CHI  HZ EP       1838 30.68                             117    0.11 8  249 195 
 CHI  HE ES       1839  0.31                             117    0.30 8  249 195 
 CHI  HZ I        1839 10.05         4.3 0.52                           249 195 
 HEL  HE ES       1839  4.08                             115    0.03 8  270 255 
 URE  HE ES       1839  5.31                             114   -0.16 7  281 292 
 LL5C HZ EP   4   1838 45.48                             110    6.28 0  331 349 
 LL5C HE ES   4   1839  4.31                             110   -11.1 0  331 349 
                                                                                
