 2016  7 6 1031 36.3 L   6.816 -73.165148.6  RSN  5 0.3 1.5LRSN                1
 GAP=246        0.55       6.7     5.5  6.3  0.1183E+02  0.9793E+01  0.1714E+02E
 Epicentro: LOS SANTOS - SANTANDER                                             3
 ACTION:UPD 17-03-29 16:47 OP:lp   STATUS:               ID:20160706103136 L   I
 OLDACT:REG 16-07-06 20:32 OP:dnl  STATUS:               ID:20160706102744     3
 2016-07-06-1027-44M.COL___313                                                 6
 STAT SP IPHASW D HRMM SECON CODA AMPLIT PERI AZIMU VELO AIN AR TRES W  DIS CAZ7
 BAR2 EZ EP   2   1031 56.27                             171   -0.07 5 24.8 184 
 BAR2 EZ ES   2   1032 11.47                             171   -0.47 5 24.8 184 
 BAR2 EZ I        1032 13.20         3.5 0.10            172           24.8 184 
 BRR  HZ EP       1031 57.86                             154    0.2210 68.4 298 
 BRR  HE ES       1032 14.45                             154    0.1910 68.4 298 
 PTB  HZ EP       1032  3.26                             133   -0.12 9  146 258 
 PTB  HN ES   2   1032 23.89                             133   -0.58 5  146 258 
 PTB  HZ ES   2   1032 24.57                             133            146 258 
 ZAR  HZ EP   4   1032 10.85                             123    2.15 0  201 292 
 ZAR  HN ES       1032 33.80                             123   -0.13 9  201 292 
 ZAR  HZ I        1032 39.93         4.1 0.38            123            201 292 
 GUY2CHZ EP   2   1032 19.71                             113   -0.29 4  300 234 
 GUY2CHN ES   2   1032 54.82                             113    0.77 4  300 234 
 GUY2CHZ I        1033  4.57         1.5 0.52                           300 234 
                                                                                
