 2012  9 6 1924 50.7 L   6.758 -73.147144.9  RSN  7 0.3 2.4LRSN                1
 GAP=138        0.60       4.6     3.9  5.0 -0.7691E+00  0.4954E+01  0.3002E+01E
 Epicentro: LOS SANTOS - SANTANDER                                             3
 ACTION:UPD 12-10-22 14:17 OP:ep   STATUS:               ID:20120906192450 L   I
 2012-09-06-1920-00M.COL___221                                                 6
 STAT SP IPHASW D HRMM SECON CODA AMPLIT PERI AZIMU VELO AIN AR TRES W  DIS CAZ7
 BAR2 SZ IP       1925 10.29                             172    0.1210 18.8 192 
 BAR2 SZ I        1925 10.43        57.8 0.38                          18.8 192 
 BAR2 SZ ES   1   1925 25.22                             172   -0.12 7 18.8 192 
 GIR2 SZ EP       1925 10.24                             165   -0.1810 35.8 352 
 GIR2 SZ ES   3   1925 25.98                             165    0.19 2 35.8 352 
 BRR  HZ IP       1925 12.07                             152    0.1710 73.4 302 
 BRR  HZ I        1925 12.49        49.0 0.10                          73.4 302 
 BRR  HE ES   1   1925 28.97                             152    0.54 7 73.4 302 
 PAM  SZ EP       1925 13.14                             150    0.0710 81.1  38 
 PAM  SZ I        1925 13.41        64.1 0.20                          81.1  38 
 PAM  SN ES   1   1925 30.09                             150   -0.42 7 81.1  38 
 RUS  HZ EP       1925 14.22                             145    0.1610 96.0 176 
 RUS  HE ES   3   1925 32.67                             145    0.40 2 96.0 176 
 PTB  HZ EP       1925 17.23                             132   -0.30 9  147 261 
 PTB  HN ES   2   1925 37.62                             132   -0.82 5  147 261 
 PTB  HN I        1925 43.14        25.4 0.22                           147 261 
 ZAR  HZ EP       1925 23.35                             122    0.07 8  206 293 
 ZAR  HE ES   3   1925 49.10                             122    0.42 2  206 293 
                                                                                
