 2011  9 6 1933 37.0 L   6.795 -73.105142.9  RSN  5 0.3 1.7LRSN                1
 GAP=142        0.49       3.3     3.6  5.0  0.2468E+01  0.3420E+01 -0.6217E+00E
 Epicentro: LOS SANTOS - SANTANDER                                             3
 ACTION:UPD 12-07-13 15:56 OP:ep   STATUS:               ID:20110906193337 L   I
 2011-09-06-1930-26S.COL___171                                                 6
 STAT SP IPHASW D HRMM SECON CODA AMPLIT PERI AZIMU VELO AIN AR TRES W  DIS CAZ7
 BAR2 SZ EP   2   1933 56.26                             170   -0.06 5 24.0 201 
 BAR2 SZ ES   1   1934 11.10                             170   -0.27 7 24.0 201 
 BAR2 SZ I        1934 12.86        14.0 0.22                          24.0 201 
 PAM  SZ EP   1   1933 59.16                             151    0.37 7 75.0  37 
 PAM  SZ I        1933 59.39         4.9 0.12                          75.0  37 
 PAM  SN ES   1   1934 15.58                             151   -0.18 7 75.0  37 
 BRR  HZ EP   1   1933 58.14                             150    0.04 7 75.4 297 
 BRR  HE ES   1   1934 14.72                             150    0.17 7 75.4 297 
 BRR  HZ I        1934 19.61        11.8 0.29                          75.4 297 
 RUS  HZ EP   1   1934  0.36                             143   -0.07 7 99.8 179 
 RUS  HE ES   1   1934 18.85                             143    0.16 7 99.8 179 
 RUS  HZ I        1934 20.28         6.3 0.34                          99.8 179 
 ZAR  HZ EP   2   1934  9.01                             121   -0.72 4  208 292 
 ZAR  HN ES   1   1934 35.31                             121    0.06 6  208 292 
 ZAR  HZ I        1934 42.67        11.6 0.35                           208 292 
                                                                                
