 2012  9 6 1706  6.6 L   6.758 -73.160142.0  RSN  6 0.3 1.9LRSN                1
 GAP=137        0.55       7.1     5.2  7.8 -0.1456E+02  0.1005E+02  0.1466E+02E
 Epicentro: LOS SANTOS - SANTANDER                                             3
 ACTION:UPD 12-10-22 14:17 OP:ep   STATUS:               ID:20120906170606 L   I
 2012-09-06-1700-00M.COL___221                                                 6
 STAT SP IPHASW D HRMM SECON CODA AMPLIT PERI AZIMU VELO AIN AR TRES W  DIS CAZ7
 BAR2 SZ EP       17 6 25.92                             172    0.1810 18.5 188 
 BAR2 SZ I        17 6 26.09        15.8 0.40                          18.5 188 
 BAR2 SZ ES   3   17 6 40.56                             172   -0.07 2 18.5 188 
 GIR2 SZ EP   3   17 6 25.81                             165   -0.19 2 35.6 354 
 BRR  HZ EP       17 6 27.72                             152    0.2710 72.2 302 
 BRR  HN ES   2   17 6 44.10                             152    0.43 5 72.2 302 
 BRR  HN I        17 6 45.07        31.7 0.20                          72.2 302 
 PAM  SZ EP       17 6 28.78                             149    0.0310 81.9  38 
 PAM  SN ES   1   17 6 45.62                             149   -0.36 7 81.9  38 
 PAM  SN I        17 6 46.81        15.3 0.48                          81.9  38 
 RUS  HZ EP   3   17 6 30.02                             144    0.31 2 96.1 175 
 RUS  HN ES   3   17 6 47.59                             144   -0.10 2 96.1 175 
 PTB  HZ EP       17 6 32.68                             132   -0.42 9  145 260 
 PTB  HE ES   3   17 6 53.38                             132   -0.35 2  145 260 
 PTB  HN I        17 6 58.63         6.3 0.22                           145 260 
                                                                                
