 2013  2 6 1035 11.7 L   6.574 -73.590 90.0  RSN  4 0.4 1.4LRSN                1
 GAP=125        0.93       6.8     5.7 13.7  0.1680E+02  0.1318E+02  0.2955E+02E
 Epicentro: EL CARMEN DE CHUCURI - SANTANDER                                   3
 ACTION:UPD 13-03-12 09:31 OP:ep   STATUS:               ID:20130206103511 L   I
 2013-02-06-1030-00M.COL___240                                                 6
 STAT SP IPHASW D HRMM SECON CODA AMPLIT PERI AZIMU VELO AIN AR TRES W  DIS CAZ7
 BAR2 SZ EP   1   1035 26.21                             152    0.54 7 45.2  87 
 BAR2 SZ I        1035 39.75         8.4 0.22            132           45.2  87 
 BRR  HZ EP   1   1035 26.92                             144    0.57 7 60.5 347 
 BRR  HN ES   1   1035 37.24                             144   -0.55 7 60.5 347 
 BRR  HN I        1035 58.96        20.4 0.52            126           60.5 347 
 RUS  HZ EP   1   1035 29.43                             131   -0.43 7 93.9 143 
 RUS  HN ES   1   1035 44.06                             131    0.03 7 93.9 143 
 PTB  HZ EP       1035 29.05                             130   -0.3510 95.8 268 
 PTB  HN ES   1   1035 43.67                             130    0.45 7 95.8 268 
 PTB  HZ I        1035 45.61         3.1 0.18            138           95.8 268 
                                                                                
