 2015  3 6 1114 34.4 L   6.810 -73.171141.7  RSN 17 0.4 2.2LRSN                1
 GAP= 69        0.97       2.3     2.6  4.4 -0.7208E+00  0.3100E+01  0.1266E+01E
 Epicentro: LOS SANTOS - SANTANDER                                             3
 ACTION:UPD 15-04-30 16:23 OP:nd   STATUS:               ID:20150306111434 L   I
 OLDACT:DUP 15-03-06 22:30 OP:stll STATUS:               ID:20150306110749d    3
 2015-03-06-1107-48M.COL___287                                                 6
 STAT SP IPHASW D HRMM SECON CODA AMPLIT PERI AZIMU VELO AIN AR TRES W  DIS CAZ7
 BAR2 EZ IP     D 1114 53.70                             170    0.1610 24.1 183 
 BAR2 EZ ES       1115  8.65                             170    0.1610 24.1 183 
 BAR2 EZ I        1115  9.88        35.3 0.28            169           24.1 183 
 BRR  HZ IP     C 1114 55.54                             153    0.6110 68.2 299 
 BRR  HN ES       1115 11.44                             153    0.4910 68.2 299 
 BRR  HZ I        1115 15.64        25.5 0.30            151           68.2 299 
 PAM  SZ IP     D 1114 56.69                             150    0.4610 78.4  42 
 PAM  SZ I        1114 56.81        43.2 0.20            154           78.4  42 
 PAM  SN ES       1115 13.31                             150    0.0410 78.4  42 
 RUS  HZ EP       1114 57.81                             143   -0.0310  102 175 
 RUS  HN ES       1115 16.33                             143    0.2010  102 175 
 RUS  HZ I        1115 17.88        15.5 0.44            144            102 175 
 PTB  HZ EP       1115  0.39                             132   -0.40 9  145 258 
 PTB  HN ES       1115 21.02                             132   -0.37 9  145 258 
 PTB  HZ I        1115 23.44        19.1 0.16            132            145 258 
 TAM  HZ EP       1115  2.18                             129    0.15 9  158 105 
 TAM  HZ I        1115  2.35        20.5 0.38            133            158 105 
 TAM  HE ES       1115 23.02                             129   -0.56 9  158 105 
 OCA  HZ EP       1115  1.88                             129   -0.37 9  159 354 
 OCA  HN ES       1115 23.57                             129   -0.42 9  159 354 
 OCA  HZ I        1115 28.74        15.8 0.46            131            159 354 
 SPBC HZ EP       1115  2.87                             128    0.38 9  162 218 
 SPBC HE ES       1115 24.10                             128   -0.31 9  162 218 
 SPBC HZ I        1115 33.16        26.2 0.24            129            162 218 
 ZAR  HZ EP       1115  6.31                             122    0.05 9  201 292 
 ZAR  HE ES       1115 30.57                             122   -0.55 9  201 292 
 ZAR  HZ I        1115 36.98        17.8 0.42            123            201 292 
 NOR  HZ EP       1115  9.57                             118   -0.13 8  233 234 
 NOR  HN ES       1115 36.69                             118   -0.56 8  233 234 
 NOR  HZ I        1115 45.63        11.3 0.14            119            233 234 
 SML  HZ EP       1115  9.96                             117   -0.59 8  242 336 
 SML  HE ES       1115 38.89                             117    0.13 8  242 336 
 SML  HZ I        1115 42.25        22.9 0.30            118            242 336 
 CHI  HZ EP       1115 11.57                             116   -0.33 8  249 194 
 CHI  HN ES       1115 40.91                             116   -0.25 8  249 194 
 CHI  HZ I        1115 44.65        12.5 0.60            118            249 194 
 HEL  HZ EP       1115 15.07                             114    0.95 8  270 255 
 HEL  HE ES       1115 44.81                             114   -0.31 8  270 255 
 HEL  HZ I        1115 51.76        10.0 0.26            115            270 255 
 GUY2CHZ EP       1115 17.64                             112    0.02 7  300 234 
 GUY2CHE ES       1115 52.20                             112    0.86 7  300 234 
 GUY2CHZ I        1115 59.88         8.2 0.32                           300 234 
 CBOC HZ EP       1115 21.68                             109    0.81 7  331 252 
 CBOC HZ I        1115 24.61         3.6 0.18            110            331 252 
 TOL  SZ EP       1115 22.39                             109    0.05 7  342 224 
 TOL  SE ES       1115 59.92                             109    0.17 7  342 224 
 PRA  HZ EP       1115 27.48                             106   -0.24 6  392 209 
 PRA  HN ES       1116  8.76                             106   -0.55 6  392 209 
 PRA  HZ I        1116 16.17         8.0 0.26            107            392 209 
                                                                                
