 2015  3 6 1020 56.5 L   6.784 -73.156147.4  RSN  6 0.5 1.3LRSN                1
 GAP=136        1.32       6.3     6.6  9.0 -0.1043E+02  0.7822E+01  0.5910E+01E
 Epicentro: LOS SANTOS - SANTANDER                                             3
 ACTION:UPD 15-04-30 16:23 OP:nd   STATUS:               ID:20150306102056 L   I
 OLDACT:REG 15-03-06 20:17 OP:stll STATUS:               ID:20150306101748     3
 2015-03-06-1017-48M.COL___287                                                 6
 STAT SP IPHASW D HRMM SECON CODA AMPLIT PERI AZIMU VELO AIN AR TRES W  DIS CAZ7
 BAR2 EZ EP       1021 16.42                             171    0.0910 21.4 188 
 BAR2 EZ ES       1021 31.23                             171   -0.5410 21.4 188 
 BAR2 EZ I        1021 34.14         6.4 0.28            171           21.4 188 
 BRR  HZ EP       1021 18.34                             153    0.4710 71.1 300 
 BRR  HZ I        1021 18.40         7.1 0.12            154           71.1 300 
 BRR  HN ES       1021 35.51                             153    1.0110 71.1 300 
 PAM  SZ EP       1021 18.63                             150   -0.4310 79.5  39 
 PAM  SN ES       1021 36.41                             150   -0.2110 79.5  39 
 PAM  SZ I        1021 38.26         2.9 0.42            151           79.5  39 
 RUS  HZ EP       1021 20.45                             145    0.1210 98.8 175 
 RUS  HN ES       1021 39.13                             145    0.2410 98.8 175 
 RUS  HZ I        1021 40.14         2.3 0.32            146           98.8 175 
 PTB  HZ EP       1021 23.08                             133   -0.44 9  146 259 
 PTB  HN ES       1021 43.65                             133   -0.91 9  146 259 
 PTB  HZ I        1021 45.65         2.4 0.20            134            146 259 
 SPBC HZ EP       1021 25.43                             130    0.46 9  161 219 
 SPBC HZ I        1021 25.83         2.9 0.18            131            161 219 
 SPBC HN ES       1021 47.19                             130    0.05 9  161 219 
                                                                                
