 2015  1 6 1936 44.5 L   7.124 -73.369119.0  RSN 10 0.5 2.2LRSN                1
 GAP= 89        1.14       3.1     3.9  6.6 -0.8896E+00  0.7129E+01  0.6015E+00E
 Epicentro: LEBRIJA - SANTANDER                                                3
 ACTION:UPD 15-03-02 15:37 OP:nd   STATUS:               ID:20150106193644 L   I
 OLDACT:REG 15-01-06 22:43 OP:mh   STATUS:               ID:20150106192749     3
 2015-01-06-1927-49M.COL___280                                                 6
 STAT SP IPHASW D HRMM SECON CODA AMPLIT PERI AZIMU VELO AIN AR TRES W  DIS CAZ7
 BRR  HZ EP   1   1937  1.34                             161    0.25 7 37.9 267 
 BRR  HN ES       1937 14.03                             161    0.0410 37.9 267 
 BRR  HZ I        1937 19.42       102.1 0.04            161           37.9 267 
 BAR2 EZ EP       1937  3.13                             151    0.4710 62.3 161 
 BAR2 EZ ES       1937 15.99                             151   -0.7910 62.3 161 
 BAR2 EZ I        1937 18.33        70.0 0.36            154           62.3 161 
 PAM  SZ EP       1937  4.39                             145    0.3710 77.7  72 
 PAM  SN ES       1937 19.79                             145    0.5810 77.7  72 
 PAM  SZ I        1937 22.23        20.9 0.22            150           77.7  72 
 OCA  HZ EP       1937  6.77                             131   -0.5510  123   3 
 OCA  HN ES       1937 24.53                             131   -0.5510  123   3 
 OCA  HZ I        1937 31.33        22.4 0.26            135            123   3 
 PTB  HZ EP       1937  7.86                             127   -0.50 9  136 242 
 PTB  HN ES       1937 27.17                             127    0.23 9  136 242 
 PTB  HZ I        1937 28.19        30.3 0.18            130            136 242 
 RUS  HZ EP       1937  9.62                             127    0.30 9  140 167 
 RUS  HN ES   1   1937 28.44                             127   -0.21 7  140 167 
 RUS  HZ I        1937 30.01        11.8 0.36            131            140 167 
 ZAR  HZ EP   1   1937 12.38                             121    0.70 7  169 284 
 ZAR  HN ES       1937 32.89                             121    0.05 9  169 284 
 ZAR  HZ I        1937 36.41        32.9 0.43            124            169 284 
 SPBC HZ EP       1937 12.82                             119   -0.13 9  180 206 
 SPBC HN ES   4   1937 38.27                             119    3.17 0  180 206 
 SPBC HZ I        1937 41.14        21.8 0.39            123            180 206 
 SML  HZ EP   1   1937 14.90                             116   -0.15 6  201 337 
 SML  HN ES       1937 39.15                             116    0.31 9  201 337 
 NOR  HZ EP       1937 18.59                             112   -0.82 8  239 224 
 NOR  HN ES       1937 47.22                             112    0.62 8  239 224 
 NOR  HZ I        1937 51.74        13.1 0.56            115            239 224 
 URE  HZ EP   4   1937 21.42                             111    1.00 0  249 286 
 URE  HN ES   4   1937 46.77                             111   -1.62 0  249 286 
                                                                                
