 2014 11 6 1145  9.9 L   6.802 -73.178144.0  RSN  8 0.4 2.2LRSN                1
 GAP=132        1.07       4.4     5.2  6.5 -0.5037E+01  0.3310E+01  0.8173E+01E
 Epicentro: LOS SANTOS - SANTANDER                                             3
 ACTION:UPD 14-12-19 15:39 OP:nd   STATUS:               ID:20141106114509 L   I
 OLDACT:UP  14-11-06 22:36 OP:cam  STATUS:               ID:20141106113815     3
 OLDACT:UP  14-11-06 22:36 OP:cam  STATUS:               ID:20141106113815     3
 OLDACT:UP  14-11-06 22:36 OP:cam  STATUS:               ID:20141106113815     3
 OLDACT:UP  14-11-06 22:36 OP:cam  STATUS:               ID:20141106113815     3
 OLDACT:REG 14-11-06 19:38 OP:cam  STATUS:               ID:20141106113815     3
 2014-11-06-1138-15M.COL___285                                                 6
 STAT SP IPHASW D HRMM SECON CODA AMPLIT PERI AZIMU VELO AIN AR TRES W  DIS CAZ7
 BAR2 SZ EP     C 1145 29.27                             170   -0.0710 23.2 181 
 BAR2 SZ ES       1145 43.97                             170   -0.5210 23.2 181 
 BAR2 SZ I        1145 45.16        32.0 0.28            168           23.2 181 
 BRR  HZ EP       1145 31.00                             153    0.2910 68.0 300 
 BRR  HN ES       1145 47.84                             153    0.9310 68.0 300 
 BRR  HN I        1145 48.60        76.2 0.20            154           68.0 300 
 PAM  SZ EP       1145 31.95                             150   -0.1310 79.5  42 
 PAM  SN ES       1145 49.12                             150   -0.2510 79.5  42 
 PAM  SZ I        1145 51.08        32.8 0.52            154           79.5  42 
 RUS  HZ EP       1145 33.41                             143   -0.1410  101 174 
 RUS  HN ES       1145 52.58                             143    0.6110  101 174 
 RUS  HZ I        1145 53.90        14.3 0.34            143            101 174 
 PTB  HZ EP       1145 35.86                             132   -0.58 9  144 258 
 PTB  HN ES       1145 56.75                             132   -0.37 9  144 258 
 PTB  HZ I        1145 59.48        17.6 0.40            133            144 258 
 SPBC HZ EP       1145 38.14                             129    0.04 9  161 218 
 SPBC HN ES       1145 59.78                             129   -0.29 9  161 218 
 SPBC HZ I        1146  7.41        19.1 0.28            129            161 218 
 NOR  HZ EP   4   1145 45.83                             119    0.57 0  232 234 
 CHI  HZ EP       1145 47.85                             117    0.39 8  248 194 
 CHI  HN ES       1146 16.63                             117   -0.10 8  248 194 
 CHI  HZ I        1146 20.63         5.3 0.58            118            248 194 
 GUY2CHZ EP   4   1145 54.61                             112    1.47 0  298 234 
 TOL  SZ EP   4   1145 59.24                             109    1.39 0  341 224 
 PRA  HZ EP       1146  3.58                             106    0.37 6  390 209 
 SJC  HZ EP   4   1146  2.76                             106   -2.42 0  407 327 
                                                                                
