 2015  5 6 1810 20.9 L   6.750 -73.125142.2  RSN  6 0.3 1.7LRSN                1
 GAP=141        0.89       3.1     6.7  6.2 -0.2175E+01  0.2171E+01  0.4229E+01E
 Epicentro: LOS SANTOS - SANTANDER                                             3
 ACTION:UPD 15-09-10 22:02 OP:cam  STATUS:               ID:20150506181020 L   I
 OLDACT:REG 15-05-06 20:33 OP:stll STATUS:               ID:20150506180747     3
 2015-05-06-1807-47M.COL___278                                                 6
 STAT SP IPHASW D HRMM SECON CODA AMPLIT PERI AZIMU VELO AIN AR TRES W  DIS CAZ7
 BAR2 EZ IP     D 1810 40.18                             172    0.1310 18.6 200 
 BAR2 EZ ES       1810 55.20                             172    0.2510 18.6 200 
 BAR2 EZ I        1810 56.23        11.4 0.30            169           18.6 200 
 BRR  HZ EP     D 1810 42.41                             150    0.4310 75.9 301 
 BRR  HN ES       1810 58.51                             150    0.1210 75.9 301 
 BRR  HZ I        1811  2.60        22.3 0.32            147           75.9 301 
 PAM  SZ EP       1810 43.30                             149    0.3510 80.4  36 
 PAM  SZ I        1810 43.63        12.8 0.28            152           80.4  36 
 PAM  SN ES       1811  0.07                             149   -0.0610 80.4  36 
 RUS  HZ EP       1810 43.97                             145    0.0410 94.9 177 
 RUS  HZ I        1810 45.08         6.9 0.16            144           94.9 177 
 RUS  HN ES       1811  1.54                             145   -0.3210 94.9 177 
 OCA  HN ES       1811 10.99                             128   -0.83 9  166 353 
 CHI  HZ EP       1810 57.91                             117   -0.01 8  244 196 
 CHI  HN ES       1811 26.36                             117   -0.41 8  244 196 
 CHI  HZ I        1811 31.48         2.3 0.38            117            244 196 
                                                                                
