 2015 10 6 1057 50.8 L   6.663 -73.332130.2  RSN  8 0.3 1.8LRSN                1
 GAP=134        0.71       2.5     4.3  5.2 -0.3283E+00  0.4769E+01  0.5189E-01E
 Epicentro: GALAN - SANTANDER                                                  3
 ACTION:UPD 15-12-22 20:37 OP:cam  STATUS:               ID:20151006105751dL   I
 OLDACT:DUP 15-10-07 00:24 OP:spq  STATUS:               ID:20151006104751d    3
 2015-10-06-1047-49M.COL___319                                                 6
 STAT SP IPHASW D HRMM SECON CODA AMPLIT PERI AZIMU VELO AIN AR TRES W  DIS CAZ7
 BAR2 EZ EP       1058  8.59                             171    0.1010 18.3 115 
 BAR2 EZ ES   1   1058 22.24                             171   -0.02 7 18.3 115 
 BAR2 EZ I        1058 23.63        19.5 0.24            173           18.3 115 
 BRR  HZ EP       1058 10.05                             152    0.1310 64.6 320 
 BRR  HN ES       1058 25.07                             152    0.2510 64.6 320 
 BRR  HZ I        1058 29.67        13.6 0.46            152           64.6 320 
 SPBC HZ EP   1   1058 15.43                             130   -0.37 7  139 216 
 SPBC HE ES       1058 34.65                             130   -0.63 9  139 216 
 SPBC HZ I        1058 40.01        10.8 0.21            130            139 216 
 ZAR  HZ EP       1058 21.08                             120    0.06 9  192 299 
 ZAR  HE ES       1058 44.56                             120   -0.00 9  192 299 
 ZAR  HZ I        1058 48.41        12.5 0.32            121            192 299 
 NOR  HN ES   1   1058 47.77                             118   -0.16 6  209 235 
 NOR  HZ I        1058 52.96         6.2 0.19            118            209 235 
 CHI  HZ EP   1   1058 25.88                             116    0.33 6  229 191 
 CHI  HN ES   1   1058 53.18                             116    0.54 6  229 191 
 CHI  HZ I        1059  1.98         2.4 0.48            117            229 191 
 SML  HZ EP       1058 26.95                             113   -0.39 8  250 341 
 SML  HE ES   1   1058 55.81                             113   -0.02 6  250 341 
 SML  HZ I        1058 59.73         5.9 0.09            115            250 341 
 GUY2CHZ EP   4   1058 32.75                             111    1.92 0  276 235 
 GUY2CHE ES   1   1059  2.71                             111    0.68 6  276 235 
 GUY2CHZ I        1059 10.22         4.4 0.22                           276 235 
                                                                                
