 2014  2 6 1943 12.4 L   6.807 -73.144144.4  RSN 19 0.4 2.6LRSN                1
 GAP=136        0.84       2.1     3.0  4.8 -0.1349E+01  0.4872E+01  0.5927E+00E
 Epicentro: LOS SANTOS - SANTANDER                                             3
 ACTION:UPD 14-03-10 08:08 OP:ep   STATUS:               ID:20140206194312 L   I
 OLDACT:REG 14-02-06 16:03 OP:nd   STATUS:               ID:20140206194000     3
 2014-02-06-1940-00M.COL___291                                                 6
 STAT SP IPHASW D HRMM SECON CODA AMPLIT PERI AZIMU VELO AIN AR TRES W  DIS CAZ7
 BAR2 SZ EP       1943 32.06                             170    0.2010 24.1 190 
 BAR2 SZ ES   2   1943 46.82                             170   -0.23 5 24.1 190 
 BAR2 SZ I        1943 49.97       125.2 0.36            168           24.1 190 
 BRR  HZ EP       1943 33.97                             152    0.6010 71.0 298 
 BRR  HN ES   2   1943 50.09                             152    0.36 5 71.0 298 
 BRR  HZ I        1943 55.76        55.6 0.14            150           71.0 298 
 PAM  SZ EP       1943 34.88                             151    0.4710 76.7  40 
 PAM  SN ES       1943 51.52                             151   -0.0710 76.7  40 
 PAM  SZ I        1943 54.54        69.0 0.66            156           76.7  40 
 RUS  HZ EP       1943 35.92                             143   -0.1310  101 176 
 RUS  HN ES       1943 54.58                             143    0.0710  101 176 
 RUS  HZ I        1943 57.55        37.6 0.30            146            101 176 
 PTB  HZ EP       1943 39.01                             132   -0.25 9  148 259 
 PTB  HN ES       1943 59.88                             132   -0.35 9  148 259 
 PTB  HZ I        1944  2.97        44.5 0.16            132            148 259 
 OCA  HZ EP       1943 40.38                             129   -0.13 9  160 353 
 OCA  HN ES       1944  2.16                             129   -0.30 9  160 353 
 OCA  HZ I        1944  7.01        77.9 0.32            132            160 353 
 SPBC HZ EP       1943 40.94                             129    0.10 9  164 219 
 SPBC HN ES       1944  2.65                             129   -0.39 9  164 219 
 SPBC HZ I        1944  8.69        95.4 0.42            130            164 219 
 ZAR  HZ EP       1943 44.40                             122   -0.32 9  204 292 
 ZAR  HN ES       1944 10.74                             122    0.80 9  204 292 
 ZAR  HZ I        1944 16.42        41.0 0.32            123            204 292 
 NOR  HZ EP       1943 47.86                             118   -0.23 8  235 234 
 NOR  HN ES       1944 15.69                             118   -0.25 8  235 234 
 NOR  HZ I        1944 19.73        47.3 0.24            120            235 234 
 SML  HZ EP       1943 48.50                             117   -0.36 8  243 335 
 SML  HN ES       1944 16.87                             117   -0.44 8  243 335 
 SML  HZ I        1944 20.88        54.0 0.44            119            243 335 
 CHI  HZ EP       1943 50.05                             117   -0.04 8  249 195 
 CHI  HN ES   2   1944 19.25                             117   -0.25 4  249 195 
 CHI  HZ I        1944 25.01        17.7 0.28            119            249 195 
 ROSC BZ EP   4   1943 51.24                             116    0.73 0  253 211 
 ROSC BN ES   4   1944 22.12                             116    1.88 0  253 211 
 HEL  HZ EP       1943 52.94                             114    0.38 8  272 256 
 HEL  HN ES       1944 24.35                             114    0.45 8  272 256 
 HEL  HZ I        1944 31.20        30.3 0.38            116            272 256 
 URE  HZ EP   4   1943 52.01                             113   -1.36 0  284 292 
 URE  HN ES   4   1944 23.84                             113   -1.50 0  284 292 
 URE  HZ I        1944 32.42        17.1 0.26            115            284 292 
 GUY2CHZ EP   4   1943 56.40                             112    0.41 0  302 235 
 GUY2CHN ES   4   1944 31.23                             112    1.23 0  302 235 
 GUY2CHZ I        1944 38.87        22.7 0.48                           302 235 
 CBOC HZ EP       1943 59.75                             110    0.47 7  334 252 
 CBOC HN ES       1944 35.23                             110   -0.63 7  334 252 
 CBOC HZ I        1944 50.08         9.9 0.62            111            334 252 
 COD  HZ EP   4   1944  0.03                             109   -0.59 0  348 355 
 COD  HN ES   4   1944 36.53                             109   -1.71 0  348 355 
 COD  HZ I        1944 42.51         7.7 0.46            111            348 355 
 PRA  HZ EP       1944  5.63                             106   -0.31 6  393 210 
 PRA  HN ES       1944 47.53                             106   -0.19 6  393 210 
 PRA  HZ I        1944 56.68        15.1 0.30            108            393 210 
 ORTC HZ EP   4   1944  6.34                             106    0.00 0  396 216 
 ORTC HN ES       1944 49.21                             106    0.79 6  396 216 
 ORTC HZ I        1944 55.55        15.3 0.70            108            396 216 
 SJC  HZ EP   4   1944  6.25                             105   -1.58 0  409 327 
 SJC  HN ES   4   1944 46.70                             105   -4.38 0  409 327 
 SJC  HZ I        1944 55.46         8.7 0.54            107            409 327 
                                                                                
