 2016  7 6 1652  8.3 L   6.827 -73.145149.7  RSN  5 0.3 1.9LRSN                1
 GAP=245        0.62       4.4     4.4  5.5  0.8075E+01  0.5574E+01 -0.2023E+01E
 Epicentro: LOS SANTOS - SANTANDER                                             3
 ACTION:UPD 17-03-29 16:47 OP:lp   STATUS:               ID:20160706165208 L   I
 OLDACT:REG 16-07-06 20:39 OP:dnl  STATUS:               ID:20160706164745     3
 2016-07-06-1647-45M.COL___328                                                 6
 STAT SP IPHASW D HRMM SECON CODA AMPLIT PERI AZIMU VELO AIN AR TRES W  DIS CAZ7
 BAR2 EZ EP       1652 28.54                             170    0.1110 26.2 189 
 BAR2 EZ ES       1652 43.99                             170   -0.1710 26.2 189 
 BAR2 EZ I        1652 46.30        18.4 0.22            162           26.2 189 
 RUS  HZ EP       1652 32.49                             144   -0.1210  104 176 
 RUS  HN ES       1652 51.70                             144    0.0910  104 176 
 RUS  HZ I        1652 52.87         7.5 0.24            143            104 176 
 PTB  HZ EP   2   1652 35.14                             133   -0.47 5  148 258 
 PTB  HN ES   2   1652 56.53                             133   -0.42 5  148 258 
 PTB  HZ I        1653  3.80         8.3 0.42            130            148 258 
 SPBC HZ EP       1652 37.63                             129    0.34 9  165 218 
 SPBC HN ES       1652 59.83                             129   -0.09 9  165 218 
 SPBC HZ I        1653  6.86        14.3 0.12            128            165 218 
 ZAR  HZ EP   2   1652 39.98                             123   -0.88 4  203 291 
 ZAR  HN ES       1653  6.62                             123    0.33 9  203 291 
 ZAR  HZ I        1653 11.96         6.6 0.28            123            203 291 
                                                                                
