 2017  8 6 1759 23.6 L   6.765 -73.142143.0  RSN  7 0.4 1.5LRSN                1
 GAP=139        0.86       4.3     3.9  6.8  0.1411E+01  0.3385E+01 -0.5713E+00E
 Epicentro: LOS SANTOS - SANTANDER                                             3
 ACTION:UPD 17-09-04 20:17 OP:rebc STATUS:               ID:20170806175923 L   I
 OLDACT:UP  17-08-06 23:30 OP:dani STATUS:               ID:20170806175744     3
 OLDACT:REG 17-08-06 21:16 OP:edw  STATUS:               ID:20170806175744     3
 2017-08-06-1758-00M.COL___393                                                 6
 STAT SP IPHASW D HRMM SECON CODA AMPLIT PERI AZIMU VELO AIN AR TRES W  DIS CAZ7
 BAR2 EZ EP       1759 42.82                             172   -0.0110 19.6 193 
 BAR2 EZ ES       1759 58.19                             172    0.3610 19.6 193 
 BAR2 EZ I        1759 59.00         6.6 0.10            172           19.6 193 
 BRR  HZ EP       1759 44.60                             151    0.0210 73.4 301 
 BRR  HN ES       18 0  1.03                             151    0.0810 73.4 301 
 BRR  HZ I        18 0  7.96         9.9 0.24            152           73.4 301 
 PAM  EZ EP       1759 45.72                             149    0.0210 80.2  38 
 PAM  EN ES       18 0  2.65                             149   -0.2810 80.2  38 
 PAM  EZ I        18 0  3.29         5.8 0.20            153           80.2  38 
 RUS  HZ EP       1759 46.92                             144    0.1210 96.7 176 
 RUS  HN ES       18 0  4.93                             144    0.0310 96.7 176 
 RUS  HZ I        18 0  6.95         4.5 0.18            148           96.7 176 
 PTB  HZ EP   3   1759 49.20                             131   -1.11 2  147 260 
 PTB  HN ES       18 0 10.31                             131   -0.84 9  147 260 
 PTB  HZ I        18 0 13.31         4.5 0.16            133            147 260 
 ZAR  HN ES       18 0 21.93                             122    0.56 8  206 293 
 NOR  HN ES   3   18 0 27.83                             118    1.28 2  233 235 
                                                                                
