 2012  2 6 1919 15.7 L   6.772 -73.164142.9  RSN 12 0.3 2.7LRSN                1
 GAP=136        0.56       2.5     2.6  4.3 -0.1172E+00  0.3165E+01  0.3405E+01E
 ACTION:UP  12-03-07 16:28 OP:epov STATUS:               ID:20120206191915 L   I
 2012-02-06-1917-36S.COL___160                                                 6
 STAT SP IPHASW D HRMM SECON CODA AMPLIT PERI AZIMU VELO SNR AR TRES W  DIS CAZ7
 BAR2 SZ EP       1919 35.14                             172    0.1710 20.0 186 
 BAR2 SZ ES   1   1919 49.86                             172   -0.10 7 20.0 186 
 BAR2 SZ I        1919 51.89       240.5 0.17                          20.0 186 
 GIR2 SZ EP   1   1919 35.20                             166    0.04 7 34.1 354 
 BRR  HZ EP   1   1919 36.87                             152    0.29 7 71.0 301 
 BRR  HN ES   1   1919 53.31                             152    0.49 7 71.0 301 
 BRR  HZ I        1919 56.75        94.4 0.27                          71.0 301 
 PAM  SZ EP   1   1919 37.93                             149    0.05 7 81.0  39 
 PAM  SZ I        1919 38.22        75.8 0.19                          81.0  39 
 PAM  SN ES   1   1919 54.77                             149   -0.38 7 81.0  39 
 RUS  HZ EP   1   1919 38.99                             144   -0.01 7 97.7 175 
 RUS  HE ES   2   1919 56.83                             144   -0.32 5 97.7 175 
 RUS  HZ I        1919 58.99        53.3 0.29                          97.7 175 
 PTB  HZ EP   1   1919 41.79                             132   -0.46 7  145 260 
 PTB  HN ES   1   1920  2.85                             132   -0.08 7  145 260 
 ZAR  HZ EP   1   1919 47.63                             122   -0.31 6  203 293 
 ZAR  HN ES   1   1920 12.72                             122   -0.33 6  203 293 
 ZAR  HZ I        1920 19.07        41.1 0.31                           203 293 
 NOR  SZ EP   1   1919 50.94                             118    0.00 6  231 235 
 NOR  SN ES   1   1920 18.23                             118   -0.17 6  231 235 
 CHI  HZ EP   1   1919 53.04                             117    0.13 6  245 195 
 CHI  HN ES       1920 22.24                             117    0.35 8  245 195 
 CHI  HZ I        1920 26.15        25.7 0.31                           245 195 
 HEL  HZ EP   1   1919 56.09                             114    0.57 6  269 256 
 HEL  HE ES       1920 26.53                             114   -0.01 8  269 256 
 HEL  HZ I        1920 33.47        22.4 0.34                           269 256 
 VIL  SN ES   1   1920 31.56                             112   -0.55 5  300 191 
 PRA  HZ EP   1   1920  8.72                             106   -0.02 4  388 210 
                                                                                
