 2013  1 6 1425 22.4 L   6.759 -73.204137.3  RSN 10 0.4 2.5LRSN                1
 GAP=176        0.94       3.3     4.7  6.6 -0.3829E+00  0.7471E+01  0.1616E+01E
 Epicentro: VILLANUEVA - SANTANDER                                             3
 ACTION:UPD 13-02-15 09:12 OP:ep   STATUS:               ID:20130106142522 L   I
 2013-01-06-1420-00M.COL___242                                                 6
 STAT SP IPHASW D HRMM SECON CODA AMPLIT PERI AZIMU VELO AIN AR TRES W  DIS CAZ7
 BAR2 SZ IP       1425 41.24                             172    0.2810 18.6 173 
 BAR2 SZ ES   1   1425 55.30                             172   -0.10 7 18.6 173 
 BAR2 SZ I        1425 57.97       103.4 0.22            172           18.6 173 
 BRR  HZ IP     D 1425 43.11                             152    0.6210 68.1 305 
 BRR  HN ES   1   1425 59.11                             152    0.97 7 68.1 305 
 BRR  HZ I        1425 59.65        62.7 0.14            151           68.1 305 
 RUS  HZ EP       1425 45.22                             143    0.1510 96.7 172 
 RUS  HN ES   1   1426  2.05                             143   -0.69 7 96.7 172 
 RUS  HZ I        1426  4.74        32.9 0.62            145           96.7 172 
 PTB  HZ EP       1425 47.57                             132   -0.49 9  141 260 
 PTB  HE ES   1   1426  7.47                             132   -0.58 7  141 260 
 PTB  HZ I        1426 10.58        40.2 0.22            132            141 260 
 OCA  HZ EP       1425 50.54                             127    0.06 9  164 356 
 OCA  HN ES       1426 11.82                             127   -0.54 9  164 356 
 OCA  HZ I        1426 16.67        64.2 0.44            129            164 356 
 ZAR  HZ EP       1425 53.72                             121   -0.19 9  200 294 
 ZAR  HN ES   1   1426 18.38                             121   -0.08 6  200 294 
 ZAR  HZ I        1426 24.15        32.4 0.28            122            200 294 
 NOR  HZ EP   1   1425 56.86                             118    0.03 6  227 234 
 NOR  HE ES   1   1426 23.96                             118    0.31 6  227 234 
 NOR  HZ I        1426 26.01        13.6 0.20            119            227 234 
 HEL  HZ EP   1   1426  1.68                             114    0.28 6  265 256 
 HEL  HN ES   1   1426 31.39                             114   -0.41 6  265 256 
 HEL  HZ I        1426 36.90        10.4 0.64            115            265 256 
 URE  HZ EP   4   1426  1.53                             112   -1.10 0  280 293 
 URE  HE ES   4   1426 31.07                             112   -2.91 0  280 293 
 VIL  SZ EP   1   1426  4.50                             111   -0.32 5  298 191 
 VIL  SN ES   1   1426 37.81                             111   -0.08 5  298 191 
 VIL  SZ I        1426 43.27        18.9 0.42            112            298 191 
 ANIL HN ES   1   1426 49.63                             107    0.72 5  350 224 
                                                                                
