 2017  8 6 1216 41.6 L   6.782 -73.416121.4  RSN  6 0.3 1.6LRSN                1
 GAP=171        0.83       5.3     4.7  5.9  0.1628E+02  0.5749E+01  0.5218E+01E
 Epicentro: SAN VICENTE DE CHUCURI - SANTANDER                                 3
 ACTION:UPD 17-09-04 20:17 OP:rebc STATUS:               ID:20170806121641 L   I
 OLDACT:UP  17-08-06 23:06 OP:edw  STATUS:               ID:20170806120739d    3
 OLDACT:DUP 17-08-06 23:03 OP:edw  STATUS:               ID:20170806120739d    3
 OLDACT:UP  17-08-06 23:02 OP:edw  STATUS:               ID:20170806120738     3
 OLDACT:REG 17-08-06 20:31 OP:edw  STATUS:               ID:20170806120738     3
 2017-08-06-1208-00M.COL___383                                                 6
 STAT SP IPHASW D HRMM SECON CODA AMPLIT PERI AZIMU VELO AIN AR TRES W  DIS CAZ7
 BAR2 EZ IP     C 1216 58.44                             164   -0.1610 33.2 129 
 BAR2 EZ ES       1217 11.29                             164   -0.5710 33.2 129 
 BRR  HZ EP       1216 58.77                             157   -0.1110 48.6 318 
 BRR  HN ES       1217 12.89                             157    0.5310 48.6 318 
 RUS  HZ EP       1217  3.48                             137    0.0710  105 159 
 RUS  HN ES       1217 20.86                             137    0.4410  105 159 
 RUS  HZ I        1217 22.03         9.0 0.76            137            105 159 
 PTB  HZ EP     D 1217  3.69                             133   -0.2110  118 257 
 PTB  HN ES       1217 21.12                             133   -0.1710  118 257 
 PTB  HZ I        1217 26.45         4.7 0.44            129            118 257 
 ZAR  HZ EP       1217  9.93                             120    0.18 9  178 296 
 ZAR  HN ES   4   1217 33.55                             120    1.84 0  178 296 
 ZAR  HZ I        1217 37.37         5.3 0.72            119            178 296 
 YPLC HN ES       1217 34.50                             118    0.04 9  191 143 
                                                                                
