 2010  5 6 1123 50.4 L   6.746 -72.974147.2  RSN 11 0.5 3.0LRSN                1
 GAP=191        0.76       5.8     9.0  7.2 -0.3463E+02 -0.5541E+01  0.1657E+02E
 Epicentro: CEPITA - SANTANDER                                                 3
 ACTION:UP  10-08-24 10:03 OP:vdl  STATUS:               ID:20100506112350 L   I
 2010-05-06-1120-48S.COL___105                                                 6
 STAT SP IPHASW D HRMM SECON CODA AMPLIT PERI AZIMU VELO SNR AR TRES W  DIS CAZ7
 BAR2 SZ IP     D 1124 10.33                             169     0.010   29 234 
 BAR2 SZ ES   2   1124 25.26                             169    -0.6 5   29 234 
 GIR2 SZ IP     D 1124 10.41                             163    -0.210   44 327 
 GIR2 SZ ES   2   1124 26.76                             163     0.3 5   44 327 
 BRR  HZ IP     C 1124 12.87                             147     0.010   91 296 
 BRR  HZ I        1124 13.16       307.7 0.17                            91 296 
 BRR  HN ES   2   1124 30.48                             147     0.0 5   91 296 
 GUE  SZ EP   1   1124 15.07                             139    -0.5 7  120   3 
 GRA  SZ IP     C 1124 16.14                             137     0.210  127   8 
 GRA  SZ ES   2   1124 36.40                             137     0.6 5  127   8 
 CHI  HZ EP   1   1124 28.31                             117     0.1 6  249 200 
 ROSC BZ EP   1   1124 29.88                             116     0.7 6  258 215 
 ROSC BE ES   2   1125  0.57                             116     1.1 4  258 215 
 ROSC BZ I        1125  8.50        46.0 0.51                           258 215 
 HEL  HZ EP   1   1124 32.29                             114    -0.3 5  289 258 
 RREF BZ EP   1   1124 38.30                             110     0.4 5  333 232 
 RREF BN ES   2   1125 15.55                             110     0.7 3  333 232 
 RREF BZ I        1125 18.75        35.4 0.25                           333 232 
 TOL  SZ EP   1   1124 39.68                             109    -0.1 5  353 228 
 TOL  SZ ES   2   1125 17.42                             109    -0.9 3  353 228 
 PRA  HZ EP   1   1124 43.81                             107    -0.7 4  397 212 
 PRA  HE ES   2   1125 25.77                             107    -0.9 3  397 212 
 PRA  HZ I        1125 32.02        35.5 0.22                           397 212 
                                                                                
