 2016  5 6 1421  9.6 L   6.835 -73.186141.8  RSN  4 0.1 1.5LRSN                1
 GAP=147        0.40       2.6     2.5  4.4 -0.2503E+01  0.4139E+01 -0.2057E+01E
 Epicentro: ZAPATOCA - SANTANDER                                               3
 ACTION:UPD 16-08-18 17:42 OP:cam  STATUS:               ID:20160506142109 L   I
 OLDACT:REG 16-05-06 20:20 OP:dnl  STATUS:               ID:20160506141746     3
 2016-05-06-1417-46M.COL___303                                                 6
 STAT SP IPHASW D HRMM SECON CODA AMPLIT PERI AZIMU VELO AIN AR TRES W  DIS CAZ7
 BAR2 EZ EP       1421 28.63                             169   -0.1610 26.9 179 
 BAR2 EZ ES   2   1421 43.75                             169   -0.04 5 26.9 179 
 BAR2 EZ I        1421 46.67         7.0 0.72            171           26.9 179 
 PAM  EZ EP       1421 31.59                             150    0.2310 77.4  44 
 PAM  EN ES       1421 48.27                             150   -0.0910 77.4  44 
 PAM  EZ I        1421 50.66         8.1 0.46            153           77.4  44 
 RUS  HZ EP   2   1421 33.01                             142   -0.23 5  105 174 
 RUS  HN ES       1421 51.81                             142    0.1010  105 174 
 RUS  HZ I        1421 52.39         4.9 0.26            146            105 174 
 PTB  HZ EP       1421 35.82                             132   -0.06 9  144 257 
 PTB  HN ES       1421 56.47                             132    0.06 9  144 257 
 PTB  HZ I        1421 58.45         5.1 0.12            135            144 257 
                                                                                
