 2014  1 6 1232 26.9 L   6.825 -73.320126.2  RSN  4 0.6 1.3LRSN                1
 GAP=216        1.39      13.0     9.3 13.6  0.7965E+02  0.2376E+02 -0.1511E+02E
 Epicentro: ZAPATOCA - SANTANDER                                               3
 ACTION:UPD 14-03-13 09:52 OP:ep   STATUS:               ID:20140106123226 L   I
 OLDACT:REG 14-01-06 15:45 OP:stll STATUS:               ID:20140106122813     3
 2014-01-06-1228-13M.COL___231                                                 6
 STAT SP IPHASW D HRMM SECON CODA AMPLIT PERI AZIMU VELO AIN AR TRES W  DIS CAZ7
 BAR2 SZ EP       1232 44.90                             166    0.5210 29.9 149 
 BAR2 SZ ES       1232 57.67                             166   -0.3310 29.9 149 
 BAR2 SZ I        1232 59.21        19.6 0.24            164           29.9 149 
 RUS  HZ EP       1232 49.75                             138    0.4710  106 166 
 RUS  HZ I        1232 50.38         1.5 0.38            137            106 166 
 RUS  HN ES       1233  6.50                             138   -0.2110  106 166 
 PTB  HZ EP       1232 49.55                             131   -1.1010  130 256 
 PTB  HN ES       1233  9.70                             131    0.5510  130 256 
 PTB  HZ I        1233 13.06         2.4 0.10            130            130 256 
 ZAR  HN ES       1233 19.05                             120    0.08 9  185 294 
                                                                                
