 2011  5 6 1603 31.0 L   6.751 -73.123142.8  RSN  8 0.3 2.4LRSN                1
 GAP=142        0.48       3.2     4.1  5.6 -0.6802E+01  0.2971E+01  0.2912E+01E
 Epicentro: LOS SANTOS - SANTANDER                                             3
 ACTION:UP  11-06-29 08:51 OP:tino STATUS:               ID:20110506160331 L   I
 2011-05-06-1602-09S.COL___132                                                 6
 STAT SP IPHASW D HRMM SECON CODA AMPLIT PERI AZIMU VELO SNR AR TRES W  DIS CAZ7
 BRR  HZ IP     D 16 3 52.10                             150     0.010   76 301 
 BRR  HZ I        16 3 52.55       104.2 0.15                            76 301 
 BRR  HN ES   2   16 4  9.10                             150     0.5 5   76 301 
 PAM  SZ EP   1   16 3 53.14                             149     0.1 7   80  36 
 PAM  SN ES   2   16 4 10.29                             149     0.0 5   80  36 
 RUS  HZ EP   1   16 3 54.10                             145     0.1 7   95 177 
 RUS  HN ES   2   16 4 11.87                             145    -0.2 5   95 177 
 RUS  HZ I        16 4 13.85        38.8 0.42                            95 177 
 BRI  SZ EP   1   16 3 54.93                             140     0.0 7  113  19 
 BRI  SZ ES   2   16 4 13.74                             140     0.2 5  113  19 
 BRI  SZ I        16 4 15.31        45.6 0.34                           113  19 
 GRA  SZ IP       16 3 56.23                             135    -0.110  130  16 
 GRA  SZ ES   2   16 4 15.48                             135    -0.6 5  130  16 
 GRA  SZ I        16 4 17.06        33.5 0.36                           130  16 
 NOR  SZ EP   1   16 4  6.70                             118     0.3 6  234 236 
 NOR  SN ES   2   16 4 33.57                             118    -0.5 4  234 236 
 HEL  HN ES   2   16 4 42.08                             114    -0.4 4  273 257 
 HEL  HZ I        16 4 50.12         9.6 0.54                           273 257 
 PRA  HZ EP   2   16 4 24.23                             106     0.2 3  389 210 
 PRA  HN ES   2   16 5  5.16                             106    -0.2 3  389 210 
                                                                                
