 2016  9 6 1125 16.0 L   6.673 -73.035171.7  RSN 14 0.4 2.4LRSN                1
 GAP=157        1.01       3.1     3.9  5.1 -0.2199E+01  0.2260E+01  0.1448E+01E
 Epicentro: ARATOCA - SANTANDER                                                3
 ACTION:UPD 17-08-17 21:07 OP:lp   STATUS:               ID:20160906112516 L   I
 OLDACT:REG 16-09-06 21:06 OP:lv   STATUS:               ID:20160906111740     3
 2016-09-06-1118-00M.COL___337                                                 6
 STAT SP IPHASW D HRMM SECON CODA AMPLIT PERI AZIMU VELO AIN AR TRES W  DIS CAZ7
 BAR2 EZ IP     C 1125 38.48                             174   -0.2010 18.5 241 
 BAR2 EZ ES       1125 55.95                             174   -0.4210 18.5 241 
 BAR2 EZ I        1125 58.11        47.8 0.28            172           18.5 241 
 PAM  EZ EP       1125 41.18                             153   -0.1210 82.5  27 
 PAM  EN ES       1126  0.77                             153   -0.2710 82.5  27 
 PAM  EZ I        1126  2.56        13.3 0.33            155           82.5  27 
 RUS  HZ EP       1125 41.40                             152   -0.1210 86.4 184 
 RUS  HE ES       1126  1.83                             152    0.4010 86.4 184 
 RUS  HZ I        1126  2.81        29.0 0.28            154           86.4 184 
 BRR  HZ EP       1125 41.16                             151    0.2110 88.9 303 
 BRR  HN ES       1126  1.18                             151    0.7710 88.9 303 
 BRR  HZ I        1126  2.53        32.8 0.13            151           88.9 303 
 PTB  HZ EP       1125 45.35                             135   -0.68 9  158 265 
 PTB  HN ES       1126  9.10                             135   -0.37 9  158 265 
 PTB  HZ I        1126 11.72        16.8 0.21            136            158 265 
 SPBC HZ EP       1125 46.35                             135   -0.06 9  161 226 
 SPBC HN ES       1126 10.47                             135    0.34 9  161 226 
 SPBC HZ I        1126 15.25        53.3 0.18            136            161 226 
 OCA  HZ EP       1125 47.90                             132    0.08 9  176 350 
 OCA  HN ES       1126 12.79                             132    0.14 9  176 350 
 OCA  HZ I        1126 17.28        67.6 0.26            133            176 350 
 ZAR  HZ EP       1125 51.70                             125   -0.20 8  221 294 
 ZAR  HE ES       1126 20.11                             125    0.21 8  221 294 
 ZAR  HZ I        1126 27.65        19.4 0.26            126            221 294 
 NOR  HZ EP       1125 54.22                             123    0.62 8  237 239 
 NOR  HN ES       1126 22.54                             123   -0.40 8  237 239 
 NOR  HZ I        1126 24.82        18.4 0.22            124            237 239 
 CHI  HZ EP       1125 54.52                             123    0.28 8  239 199 
 CHI  HN ISg      1126 23.87                             123   -0.20 8  239 199 
 CHI  HZ I        1126 26.66         8.2 0.40            125            239 199 
 HEL  HZ EP       1125 59.25                             119    0.66 7  281 259 
 HEL  HN ES       1126 31.23                             119   -0.60 7  281 259 
 HEL  HZ I        1126 34.68         7.0 0.19            120            281 259 
 URE  HZ EP   9   1125 58.73                             117   -1.52 0  301 294 
 URE  HE ES       1126 33.06                                   -0.19 7  301 294 
 URE  HZ I        1126 34.50        20.2 0.14            118            301 294 
 GUY2CHZ EP   9   1126  2.38                             117    1.20 0  304 238 
 GUY2CHE ES       1126 38.23                                    0.60 7  304 238 
 GUY2CHZ I        1126 45.51        11.4 0.38                           304 238 
 SJC  HZ EP   9   1126 12.45                             109   -2.19 0  428 327 
 SJC  HN ES       1126 56.89                                   -1.31 5  428 327 
 SJC  HZ I        1127  1.28         8.8 0.31            110            428 327 
                                                                                
