 2017 10 6 1130 41.8 L   6.796 -73.158141.1  RSN  8 0.4 1.7LRSN                1
 GAP=135        0.82       3.1     3.8  5.4 -0.2528E+01  0.9511E+01  0.8756E+00E
 Epicentro: LOS SANTOS - SANTANDER                                             3
 ACTION:UPD 17-11-07 19:28 OP:rebc STATUS:               ID:20171006113041 L   I
 OLDACT:REG 17-10-06 19:59 OP:osc  STATUS:               ID:20171006111936     3
 2017-10-06-1128-00M.COL___408                                                 6
 STAT SP IPHASW D HRMM SECON CODA AMPLIT PERI AZIMU VELO AIN AR TRES W  DIS CAZ7
 BAR2 EZ EP       1131  0.57                             170   -0.2410 22.7 187 
 BAR2 EZ ES       1131 15.85                             170    0.1810 22.7 187 
 BAR2 EZ I        1131 17.16        13.9 0.18            170           22.7 187 
 PAM  EZ EP       1131  3.53                             150   -0.0110 78.5  40 
 PAM  EN ES       1131 20.60                             150    0.0610 78.5  40 
 PAM  EZ I        1131 22.56         6.5 0.38            154           78.5  40 
 RUS  HZ EP       1131  4.82                             143   -0.2010  100 175 
 RUS  HN ES       1131 23.26                             143    0.0910  100 175 
 RUS  HZ I        1131 24.47        12.0 0.34            145            100 175 
 SPBC HZ EP       1131 10.18                             128    0.40 9  162 219 
 SPBC HE ES       1131 31.47                             128   -0.18 9  162 219 
 SPBC HZ I        1131 34.18         9.2 0.34            129            162 219 
 ZAR  HZ EP       1131 14.09                             121    0.30 9  203 292 
 ZAR  HE ES       1131 38.50                             121   -0.27 9  203 292 
 ZAR  HZ I        1131 44.95         5.0 0.16            122            203 292 
 NOR  HZ EP       1131 16.58                             118   -0.49 8  233 234 
 NOR  HE ES       1131 44.08                             118   -0.54 8  233 234 
 NOR  HZ I        1131 51.35         3.4 0.26            119            233 234 
 CHI  HZ EP       1131 18.78                             116   -0.33 8  248 195 
 CHI  HN ES       1131 48.31                             116    0.06 8  248 195 
 CHI  HZ I        1131 52.52         2.3 0.36            118            248 195 
 GUY2CHZ EP       1131 25.67                             111    0.67 7  300 235 
 GUY2CHE ES       1131 59.54                             111    0.81 7  300 235 
 GUY2CHZ I        1132 10.75         2.2 0.54                           300 235 
                                                                                
