 2013  8 6 1659 49.6 L   6.820 -73.127142.0  RSN 12 0.5 2.0LRSN                1
 GAP=138        1.07       3.0     5.0  6.4  0.1310E+00  0.9722E+01  0.2735E+01E
 Epicentro: LOS SANTOS - SANTANDER                                             3
 ACTION:UPD 14-01-14 08:59 OP:ep   STATUS:               ID:20130806165949 L   I
 OLDACT:REG 13-08-06 15:53 OP:carl STATUS:               ID:20130806165959     3
 2013-08-06-1659-59M.COL___269                                                 6
 STAT SP IPHASW D HRMM SECON CODA AMPLIT PERI AZIMU VELO AIN AR TRES W  DIS CAZ7
 BAR2 SZ EP       17 0  8.71                             169   -0.1610 25.9 194 
 BAR2 SZ ES       17 0 23.86                             169   -0.0110 25.9 194 
 BAR2 SZ I        17 0 25.10        16.9 0.24            168           25.9 194 
 GIR2 SZ ES   1   17 0 23.08                             168   -0.69 7 29.6 346 
 GIR2 SZ I        17 0 24.82         8.7 0.42            167           29.6 346 
 BRR  HZ EP       17 0 10.58                             152    0.1610 72.0 296 
 BRR  HN ES       17 0 27.53                             152    0.8910 72.0 296 
 BRR  HN I        17 0 27.83        75.7 0.30            151           72.0 296 
 PAM  SZ IP     C 17 0 11.58                             151    0.3110 74.4  39 
 PAM  SN ES   1   17 0 28.45                             151    0.30 7 74.4  39 
 PAM  SZ I        17 0 30.11        12.0 0.18            154           74.4  39 
 RUS  HZ EP       17 0 13.18                             142    0.0110  103 177 
 RUS  HN ES       17 0 31.26                             142   -0.2710  103 177 
 RUS  HZ I        17 0 33.53        10.1 0.26            143            103 177 
 PTB  HZ EP   4   17 0 15.59                             131   -0.93 0  150 258 
 PTB  HN ES   4   17 0 36.37                             131   -1.12 0  150 258 
 PTB  HZ I        17 0 39.02        11.8 0.14            130            150 258 
 OCA  HE ES       17 0 39.40                             129    0.21 9  158 352 
 OCA  HE I        17 0 42.80        58.2 0.28            130            158 352 
 SPBC HZ EP       17 0 17.93                             128   -0.20 9  166 219 
 SPBC HN ES       17 0 39.83                             128   -0.53 9  166 219 
 SPBC HZ I        17 0 46.88        13.9 0.26            128            166 219 
 ZAR  HZ EP   1   17 0 21.57                             121   -0.38 6  205 291 
 ZAR  HN ES       17 0 46.78                             121   -0.37 9  205 291 
 ZAR  HZ I        17 0 52.42        11.2 0.34            122            205 291 
 SML  HN ES       17 0 53.37                             117   -0.87 8  243 335 
 CHI  HZ EP   1   17 0 27.32                             116   -0.10 6  251 195 
 CHI  HN ES       17 0 56.94                             116    0.06 8  251 195 
 CHI  HZ I        17 1  0.01         5.4 0.30            117            251 195 
 GUY2CHZ EP   1   17 0 34.33                             111    0.93 5  304 235 
 GUY2CHE ES       17 1  8.40                             111    0.86 7  304 235 
 GUY2CHZ I        17 1 16.77         7.2 0.48                           304 235 
                                                                                
