 2010 10 6 1528 56.5 L   6.821 -73.014149.0  RSN  4 0.2 1.8LRSN                1
 GAP=252        0.48       3.5     5.7  5.6  0.9366E+01 -0.1094E+01  0.2322E+01E
 Epicentro: CEPITA - SANTANDER                                                 3
 ACTION:UP  11-02-18 11:08 OP:tino STATUS:               ID:20101006152856 L   I
 2010-10-06-1524-38S.COL___118                                                 6
 STAT SP IPHASW D HRMM SECON CODA AMPLIT PERI AZIMU VELO SNR AR TRES W  DIS CAZ7
 BRR  HZ EP       1529 18.73                             149     0.010   83 292 
 BRR  HZ I        1529 19.00        13.7 0.21                            83 292 
 BRR  HN ES       1529 36.05                             149     0.010   83 292 
 RUS  HZ EP       1529 20.85                             144     0.110  103 184 
 RUS  HN ES       1529 39.73                             144     0.010  103 184 
 RUS  HZ I        1529 40.88         5.9 0.42                           103 184 
 CHI  HN ES   2   1530  4.58                             117    -0.6 4  255 198 
 CHI  HZ I        1530 10.31         3.5 0.82                           255 198 
 RREF HE ES   1   1530 21.75                             110     0.3 5  334 231 
 RREF HZ I        1530 27.31         3.2 0.86                           334 231 
                                                                                
