 2015  3 6 1011 53.5 L   6.836 -73.131130.7  RSN  6 0.6 1.4LRSN                1
 GAP=105        1.67       8.3     7.1 11.2 -0.4235E+01 -0.4282E+01  0.9753E+01E
 Epicentro: LOS SANTOS - SANTANDER                                             3
 ACTION:UPD 15-04-30 16:23 OP:nd   STATUS:               ID:20150306101153 L   I
 OLDACT:DUP 15-03-06 21:26 OP:stll STATUS:               ID:20150306100751d    3
 2015-03-06-1007-50M.COL___284                                                 6
 STAT SP IPHASW D HRMM SECON CODA AMPLIT PERI AZIMU VELO AIN AR TRES W  DIS CAZ7
 BAR2 EZ EP       1012 11.75                             167    0.3410 27.6 192 
 BAR2 EZ ES       1012 25.44                             167    0.0510 27.6 192 
 BAR2 EZ I        1012 28.97         5.3 0.28            166           27.6 192 
 BRR  HZ EP       1012 13.63                             150    0.6310 70.9 295 
 BRR  HE ES       1012 28.98                             150    0.7510 70.9 295 
 PAM  SZ EP       1012 14.66                             149    0.8110 73.3  41 
 PAM  SZ I        1012 14.85        14.2 0.22            151           73.3  41 
 PAM  SN ES       1012 28.55                             149   -1.1910 73.3  41 
 RUS  HZ EP       1012 16.13                             139    0.0410  104 177 
 RUS  HN ES       1012 33.84                             139    0.1210  104 177 
 RUS  HZ I        1012 36.01         2.9 0.30            140            104 177 
 PTB  HZ EP       1012 18.64                             128   -0.86 9  150 257 
 PTB  HZ I        1012 20.62         2.6 0.16            129            150 257 
 PTB  HE ES       1012 39.04                             128   -0.75 9  150 257 
 TAM  HZ EP       1012 19.76                             127   -0.20 9  155 107 
 TAM  HZ I        1012 20.26         4.9 0.20            128            155 107 
                                                                                
