 2012  9 6 1324 35.2 L   6.509 -73.594106.0  RSN  5 0.2 1.6LRSN                1
 GAP=132        0.32       6.3     5.2  5.9  0.1612E+02  0.1590E+02  0.5642E+01E
 Epicentro: SANTA HELENA DEL OPON - SANTANDER                                  3
 ACTION:UPD 12-10-22 14:17 OP:ep   STATUS:               ID:20120906132435 L   I
 2012-09-06-1320-00M.COL___218                                                 6
 STAT SP IPHASW D HRMM SECON CODA AMPLIT PERI AZIMU VELO AIN AR TRES W  DIS CAZ7
 BAR2 SZ EP       1324 51.05                             154    0.0710 46.4  79 
 BAR2 SZ I        1324 51.27        13.2 0.34                          46.4  79 
 BAR2 SZ ES   1   1325  3.25                             154   -0.06 7 46.4  79 
 BRR  HZ EP       1324 51.93                             145    0.0010 67.4 349 
 BRR  HN ES   3   1325  5.45                             145    0.46 2 67.4 349 
 GIR2 SZ EP   3   1324 52.31                             141   -0.52 2 77.0  35 
 GIR2 SZ ES   3   1325  6.42                             141   -0.18 2 77.0  35 
 RUS  HZ EP   3   1324 54.29                             137    0.04 2 88.6 140 
 PTB  HN ES   3   1325  8.70                             134   -0.29 2 95.4 272 
                                                                                
