 2012  4 6 1939  1.0 L   6.834 -73.141144.3  RSN 18 0.5 2.9LRSN                1
 GAP=103        1.24       4.1     5.4  7.5 -0.1169E+01  0.5262E+01  0.6337E+01E
 Epicentro: LOS SANTOS - SANTANDER                                             3
 ACTION:UP  12-07-05 11:51 OP:tino STATUS:               ID:20120406193901 L   I
 2012-04-06-1936-56M.COL___181                                                 6
 STAT SP IPHASW D HRMM SECON CODA AMPLIT PERI AZIMU VELO AIN AR TRES W  DIS CAZ7
 BAR2 SZ IP       1939 20.60                             169     0.110   27 190 
 BAR2 SZ I        1939 36.50       125.6 0.28                            27 190 
 BRR  HZ IP     D 1939 22.35                             153     0.510   70 296 
 BRR  HN ES   1   1939 38.97                             153     0.8 7   70 296 
 BRR  HZ I        1939 40.01       163.8 0.12                            70 296 
 PAM  SZ EP       1939 23.34                             152     0.510   74  41 
 PAM  SE ES   1   1939 39.95                             152     0.1 7   74  41 
 RUS  HZ EP       1939 24.72                             142    -0.110  104 176 
 RUS  HN ES   1   1939 43.00                             142    -0.5 7  104 176 
 RUS  HZ I        1939 45.13        99.1 0.24                           104 176 
 PTB  HZ EP       1939 27.05                             131    -0.9 9  149 257 
 PTB  HE ES   1   1939 47.90                             131    -1.1 7  149 257 
 PTB  HZ I        1939 50.66        62.8 0.14                           149 257 
 OCA  SZ EP       1939 29.08                             130     0.3 9  157 353 
 OCA  SZ ES   1   1939 49.81                             130    -0.7 7  157 353 
 YOP  SZ EP       1939 31.48                             125     0.3 9  182 154 
 YOP  SE ES   2   1939 54.63                             125    -0.2 4  182 154 
 ZAR  HZ EP       1939 33.24                             122     0.0 9  203 291 
 ZAR  HE ES   2   1939 58.58                             122     0.2 4  203 291 
 NOR  SZ EP       1939 36.73                             118    -0.2 8  237 234 
 CHI  HZ EP       1939 39.09                             116     0.1 8  252 195 
 CHI  HE ES   1   1940  8.54                             116    -0.1 6  252 195 
 CHI  HZ I        1940 11.75        40.4 0.54                           252 195 
 ROSC BZ EP   3   1939 40.63                             116     1.2 2  256 211 
 HEL  HZ EP       1939 42.28                             114     1.0 8  273 255 
 HEL  HZ I        1940 20.06        45.3 0.28                           273 255 
 VIL  SZ EP       1939 44.59                             111    -0.1 7  307 192 
 RREF HZ EP       1939 47.61                             110     0.2 7  325 229 
 COD  HZ EP       1939 47.98                             109    -0.9 7  345 354 
 COD  HZ I        1939 50.81        34.3 0.72                           345 354 
 SDV  BZ EP       1939 49.96                             108    -0.7 6  358  51 
 ANIL HZ EP       1939 51.78                             108     0.7 6  360 224 
 ANIL HZ I        1940 43.73       102.9 0.40                           360 224 
 PRA  HZ EP       1939 54.25                             106    -0.6 6  395 209 
                                                                                
