 2013  2 6 1302 29.0 L   6.772 -73.112144.7  RSN  5 0.3 1.6LRSN                1
 GAP=142        0.73       5.2     5.2  6.9  0.3246E+01  0.6124E+01  0.6726E+01E
 Epicentro: LOS SANTOS - SANTANDER                                             3
 ACTION:UPD 13-03-12 09:31 OP:ep   STATUS:               ID:20130206130229 L   I
 2013-02-06-1300-00M.COL___240                                                 6
 STAT SP IPHASW D HRMM SECON CODA AMPLIT PERI AZIMU VELO AIN AR TRES W  DIS CAZ7
 BAR2 SZ EP       13 2 48.60                             171    0.1310 21.4 202 
 BAR2 SZ ES   1   13 3  3.38                             171   -0.26 7 21.4 202 
 BAR2 SZ I        13 3  4.73        13.1 0.37            155           21.4 202 
 BRR  HZ EP       13 2 50.42                             151    0.1010 76.0 299 
 BRR  HN ES       13 3  7.29                             151    0.3510 76.0 299 
 BRR  HN I        13 3  8.25        10.4 0.39            157           76.0 299 
 PAM  SE ES   1   13 3  7.99                             151   -0.37 7 77.5  36 
 RUS  HZ EP   1   13 2 52.83                             144    0.42 7 97.3 178 
 RUS  HE ES   1   13 3 10.63                             144   -0.04 7 97.3 178 
 RUS  HE I        13 3 28.01         5.0 0.62            135           97.3 178 
 PTB  HZ EP   1   13 2 55.49                             131   -0.68 7  151 260 
 PTB  HE ES   1   13 3 17.11                             131   -0.25 7  151 260 
 PTB  HZ I        13 3 20.09         2.5 0.18            132            151 260 
                                                                                
