 2010  5 6 1826 33.7 L   6.774 -72.983140.7  RSN  9 0.5 2.2LRSN                1
 GAP=201        0.87       7.1    11.7  8.3 -0.5368E+02 -0.1203E+02  0.1725E+02E
 Epicentro: CEPITA - SANTANDER                                                 3
 ACTION:UP  10-08-24 10:03 OP:vdl  STATUS:               ID:20100506182633 L   I
 2010-05-06-1822-58S.COL___105                                                 6
 STAT SP IPHASW D HRMM SECON CODA AMPLIT PERI AZIMU VELO SNR AR TRES W  DIS CAZ7
 BAR2 SZ EP   1   1826 52.96                             167     0.1 7   30 228 
 BAR2 SZ ES   2   1827  8.34                             167     0.5 5   30 228 
 GIR2 SZ EP   1   1826 52.15                             163    -1.0 7   41 325 
 GIR2 SZ ES   2   1827  7.34                             163    -0.9 5   41 325 
 BRR  HZ EP   1   1826 55.59                             146     0.2 7   89 295 
 BRR  HN ES   2   1827 12.91                             146     0.5 5   89 295 
 BRR  HZ I        1827 15.49        26.1 0.12                            89 295 
 BRI  SZ EP   1   1826 57.56                             141     0.6 7  106  11 
 BRI  SZ ES   2   1827 15.49                             141     0.4 5  106  11 
 GUE  SZ EP   1   1826 58.02                             138     0.0 7  117   3 
 GUE  SZ ES   2   1827 16.81                             138    -0.2 5  117   3 
 GRA  SZ EP   1   1826 58.82                             136     0.4 7  124   9 
 GRA  SZ ES   2   1827 17.73                             136     0.1 5  124   9 
 OCA  SZ EP   1   1827  1.72                             127    -0.5 7  166 347 
 OCA  SZ ES   2   1827 24.30                             127    -0.1 5  166 347 
 OCA  SZ I        1827 28.19        12.5 0.29                           166 347 
 RREF BZ EP   1   1827 21.33                             109     0.3 5  334 232 
 RREF BE ES   2   1827 58.33                             109     0.4 3  334 232 
 RREF BZ I        1828  5.52         8.1 0.28                           334 232 
 PRA  HZ EP   1   1827 27.43                             105    -0.4 4  399 212 
 PRA  HZ I        1828 14.70         6.0 0.43                           399 212 
                                                                                
