 2010  7 6 1440 35.1 L   6.763 -73.068139.1  RSN 11 0.4 2.1LRSN                1
 GAP=165        0.95       4.5     8.8  8.3 -0.1963E+02  0.1570E+02  0.9462E+01E
 Epicentro: LOS SANTOS - SANTANDER                                             3
 ACTION:UPD 10-12-01 15:15 OP:pat  STATUS:               ID:20100706144035 L   I
 2010-07-06-1438-00S.COL___118                                                 6
 STAT SP IPHASW D HRMM SECON CODA AMPLIT PERI AZIMU VELO AIN AR TRES W  DIS CAZ7
 BAR2 SZ ES   2   1441  9.04                             170     0.4 5   23 214 
 BRR  HZ EP       1440 55.69                             148    -0.410   81 298 
 BRR  HN ES   2   1441 12.52                             148     0.0 5   81 298 
 BRR  HZ I        1441 16.18        21.9 0.13                            81 298 
 RUS  HZ EP   1   1440 57.98                             143     0.1 7   96 181 
 RUS  HN ES   2   1441 15.98                             143     0.3 5   96 181 
 RUS  HZ I        1441 18.15        11.5 0.25                            96 181 
 BRI  SZ EP       1440 58.34                             139    -0.110  110  16 
 BRI  SZ ES   1   1441 16.31                             139    -0.4 7  110  16 
 GUE  SZ EP   1   1440 58.68                             137    -0.7 7  119   8 
 GUE  SZ ES   1   1441 18.09                             137    -0.3 7  119   8 
 GRA  SZ EP       1441  0.59                             135     0.710  127  13 
 GRA  SZ ES   1   1441 19.51                             135     0.3 7  127  13 
 OCA  SZ ES   2   1441 26.07                             127     0.6 5  166 350 
 OCA  SZ I        1441 30.04        21.4 0.38                           166 350 
 CHI  HZ EP   1   1441 12.01                             116    -0.3 6  247 197 
 CHI  HE ES   2   1441 40.83                             116    -0.4 4  247 197 
 CHI  HZ I        1441 48.76         6.8 0.37                           247 197 
 HEL  HZ EP       1441 15.86                             113     0.1 7  279 257 
 HEL  HZ I        1441 53.25         6.7 0.39                           279 257 
 RREF HZ EP   1   1441 22.35                             109     0.9 5  326 231 
 RREF HZ I        1442  6.16         5.7 0.27                           326 231 
 PRA  HZ EP   1   1441 28.81                             105     0.3 4  393 211 
 PRA  HE ES   2   1442  9.60                             105    -0.5 3  393 211 
 PRA  HZ I        1442 16.65         6.8 0.28                           393 211 
                                                                                
