 2013  6 6 1741 45.3 L   6.790 -73.163142.5  RSN  5 0.3 1.7LRSN                1
 GAP=181        0.74       4.5     4.8  5.2  0.6095E+01  0.4214E+01  0.3786E+01E
 Epicentro: LOS SANTOS - SANTANDER                                             3
 ACTION:UPD 14-01-08 09:52 OP:ep   STATUS:               ID:20130606174145 L   I
 OLDACT:DUP 13-06-06 20:23 OP:nd   STATUS:               ID:20130606173901d    3
 2013-06-06-1739-59M.COL___260                                                 6
 STAT SP IPHASW D HRMM SECON CODA AMPLIT PERI AZIMU VELO AIN AR TRES W  DIS CAZ7
 BAR2 SZ EP       1742  4.59                             171    0.0410 22.0 186 
 BAR2 SZ ES       1742 19.25                             171   -0.2810 22.0 186 
 BAR2 SZ I        1742 21.31        14.8 0.32            168           22.0 186 
 GIR2 SZ EP       1742  4.59                             167   -0.0610 32.1 354 
 GIR2 SZ ES       1742 19.49                             167   -0.2110 32.1 354 
 GIR2 SZ I        1742 21.55        16.5 0.30            168           32.1 354 
 BRR  HZ EP       1742  6.55                             152    0.4810 70.1 300 
 BRR  HN ES       1742 22.49                             152    0.2510 70.1 300 
 BRR  HZ I        1742 23.95        21.9 0.30            151           70.1 300 
 RUS  HZ EP       1742  8.65                             143   -0.0510 99.7 175 
 RUS  HN ES       1742 27.20                             143    0.2710 99.7 175 
 RUS  HZ I        1742 28.44         3.7 0.30            144           99.7 175 
 PTB  HZ EP       1742 11.36                             132   -0.49 9  146 259 
 PTB  HN ES       1742 32.53                             132   -0.00 9  146 259 
 PTB  HZ I        1742 37.94         5.8 0.32            131            146 259 
                                                                                
