 2010  1 6 1131 27.0 L   5.879 -73.625124.9  RSN  4 0.2 1.5LRSN                1
 GAP=195        0.38       4.4    15.5 10.4 -0.5641E+02  0.1357E+03 -0.3272E+02E
 Epicentro: PUENTE NACIONAL - SANTANDER                                        3
 ACTION:UP  10-08-24 09:42 OP:vdl  STATUS:               ID:20100106113127 L   I
 2010-01-06-1120-00S.COL___096                                                 6
 STAT SP IPHASW D HRMM SECON CODA AMPLIT PERI AZIMU VELO SNR AR TRES W  DIS CAZ7
 RUS  BZ EP   1   1131 46.00                             153     0.0 8   60  88 
 RUS  BZ I        1131 46.42         8.3 0.11                            60  88 
 RUS  BE ES   2   1132  0.78                             153     0.0 5   60  88 
 BAR2 SZ EP   1   1131 47.81                             141     0.0 8   93  32 
 BAR2 SZ ES   2   1132  3.76                             141    -0.2 5   93  32 
 CHI  HZ EP   1   1131 51.76                             129    -0.2 8  139 185 
 CHI  HN ES   2   1132 11.79                             129     0.3 5  139 185 
 GIR2 SZ IP       1131 51.93                             128     0.110  141  20 
                                                                                
