 2012  8 6 1531 52.6 L   6.802 -73.141149.4  RSN 19 0.4 3.9LRSN 3.9WRSN        1
 SPEC AVERAGE  MO 15.0 ST 44.9 OM  3.9 f0 3.21 R0.4640 AL 2.54 WI 18.2 MW  3.9 3
 SPEC SD       MO  0.1 ST 13.3 OM  0.7 f00.357 R0.0497 AL      WI      MW  0.0 3
 GAP= 66        0.79       2.6     2.6  4.6  0.2198E+00  0.2540E+01  0.3056E+01E
 Epicentro: LOS SANTOS - SANTANDER                                             3
 SPEC TAM HH E MO 14.9 ST 27.4 OM  3.2 f0 2.92 R0.5034 AL 3.52 WI 11.5 MW  3.9 3
 SPEC TAM HH E T153242 K 0.000 GD  215 VS 4.20 DE 3.00 Q0230.0 QA 0.60 VS 4.20 3
 SPEC PTB HH N MO 14.9 ST 56.7 OM  3.2 f0 3.75 R0.3920 AL 2.22 WI 13.6 MW  3.9 3
 SPEC PTB HH N T153240 K 0.000 GD  210 VS 4.20 DE 3.00 Q0230.0 QA 0.60 VS 4.20 3
 SPEC RUS HH N MO 15.0 ST 62.1 OM  3.4 f0 3.49 R0.4212 AL 2.08 WI 12.4 MW  4.0 3
 SPEC RUS HH N T153234 K 0.000 GD  180 VS 4.20 DE 3.00 Q0230.0 QA 0.60 VS 4.20 3
 SPEC HEL HH E MO 15.1 ST 45.6 OM  3.2 f0 3.06 R0.4804 AL 2.66 WI 29.9 MW  4.0 3
 SPEC HEL HH E T1533 3 K 0.000 GD  311 VS 4.20 DE 3.00 Q0230.0 QA 0.60 VS 4.20 3
 SPEC CHI HH N MO 15.0 ST 32.9 OM  3.2 f0 2.81 R0.5231 AL 2.23 WI 23.7 MW  4.0 3
 SPEC CHI HH N T153258 K 0.000 GD  290 VS 4.20 DE 3.00 Q0230.0 QA 0.60 VS 4.20 3
 ACTION:UPD 12-09-10 11:54 OP:ep   STATUS:               ID:20120806153152 L   I
 2012-08-06-1530-00M.COL___216                                                 6
 STAT SP IPHASW D HRMM SECON CODA AMPLIT PERI AZIMU VELO AIN AR TRES W  DIS CAZ7
 BAR2 SZ IP       1532 12.67                             171   -0.0210 23.6 191 
 BAR2 SZ ES   1   1532 27.90                             171   -0.45 7 23.6 191 
 BAR2 SZ I        1532 30.33      1722.7 0.31                          23.6 191 
 BRR  HZ IP     D 1532 14.52                             153    0.3410 71.6 298 
 BRR  HZ I        1532 16.33      1254.7 0.11                          71.6 298 
 BRR  HN ES   1   1532 31.90                             153    0.89 7 71.6 298 
 PAM  SZ EP       1532 15.46                             152    0.2710 76.9  39 
 PAM  SN ES   1   1532 32.64                             152   -0.16 7 76.9  39 
 RUS  HZ EP   1   1532 16.49                             144   -0.25 7  101 176 
 RUS  HN ES   1   1532 35.29                             144   -0.27 7  101 176 
 RUS  HZ I        1532 38.37       470.7 0.49                           101 176 
 PTB  HZ EP   1   1532 19.29                             133   -0.65 7  148 259 
 PTB  HN ES   1   1532 40.58                             133   -0.67 7  148 259 
 PTB  HZ I        1532 46.61       967.4 0.38                           148 259 
 TAM  HZ IP     D 1532 20.84                             131    0.30 9  155 105 
 TAM  HZ I        1532 21.10      1240.2 0.22                           155 105 
 TAM  HE ES   1   1532 42.48                             131    0.16 7  155 105 
 OCA  HZ EP   1   1532 20.97                             130   -0.23 7  160 353 
 OCA  HN ES   1   1532 43.17                             130   -0.33 7  160 353 
 OCA  HZ I        1532 47.67      2760.6 0.31                           160 353 
 YOP  SZ EP       1532 23.18                             127    0.26 9  179 153 
 YOP  SZ I        1532 24.40       358.8 0.53                           179 153 
 YOP  SN ES   1   1532 46.22                             127   -0.33 7  179 153 
 ZAR  HZ EP   1   1532 24.97                             123   -0.38 6  205 292 
 ZAR  HE ES   1   1532 51.15                             123    0.27 6  205 292 
 ZAR  HZ I        1532 57.56      1046.5 0.37                           205 292 
 NOR  SZ EP   1   1532 28.43                             119   -0.19 6  235 235 
 NOR  SN ES   1   1532 57.30                             119    0.60 6  235 235 
 CHI  HZ EP   1   1532 30.38                             118   -0.18 6  249 195 
 CHI  HZ I        1532 33.45       268.1 0.36                           249 195 
 CHI  HN ES   1   1532 59.75                             118   -0.40 6  249 195 
 ROSC BE ES   2   1533  1.31                             117    0.39 4  253 211 
 ROSC BZ I        1533 10.58       767.4 0.44                           253 211 
 HEL  HZ EP   1   1532 32.61                             115   -0.47 6  273 256 
 HEL  HE ES   1   1533  4.70                             115    0.05 6  273 256 
 HEL  HZ I        1533 11.94       548.6 0.37                           273 256 
 VIL  SZ EP   1   1532 35.52                             113   -0.72 5  304 192 
 VIL  SN ES   1   1533 10.83                             113    0.57 5  304 192 
 VIL  SZ I        1533 20.40       177.5 0.39                           304 192 
 GUY  SZ EP   1   1532 37.27                             113    0.55 5  304 235 
 GUY  SZ I        1533 19.26       927.7 0.34                           304 235 
 DBB  SZ EP       1532 40.16                             110   -0.15 7  340 274 
 DBB  SZ I        1533 30.01       293.5 0.51                           340 274 
 TOL  SZ EP   1   1532 42.01                             110    0.93 5  344 225 
 TOL  SZ ES   1   1533 18.78                             110   -0.10 5  344 225 
 TOL  SZ I        1533 24.49       170.0 0.55                           344 225 
 PRA  HZ EP   1   1532 45.95                             107   -0.37 4  392 210 
 PRA  HN ES   1   1533 29.10                             107    0.90 4  392 210 
 GUA  SZ EP   1   1532 55.00                             104   -0.88 3  474 173 
                                                                                
