 2017  9 6 1009  5.4 L   6.860 -72.998126.0  RSN  4 0.3 1.2LRSN                1
 GAP=153        0.79       4.1     5.8  7.2  0.4589E+01  0.2282E+02  0.1445E+01E
 Epicentro: CEPITA - SANTANDER                                                 3
 ACTION:UPD 17-10-05 19:09 OP:rebc STATUS:               ID:20170906100905 L   I
 OLDACT:REG 17-09-06 20:00 OP:lv   STATUS:               ID:20170906100742     3
 2017-09-06-1008-00M.COL___417                                                 6
 STAT SP IPHASW D HRMM SECON CODA AMPLIT PERI AZIMU VELO AIN AR TRES W  DIS CAZ7
 BAR2 EZ EP       10 9 23.06                             163    0.0710 35.9 215 
 BAR2 EZ ES       10 9 37.09                             163    0.3510 35.9 215 
 BAR2 EZ I        10 9 39.76         9.0 0.13            170           35.9 215 
 PAM  EZ EP   4   10 9 26.05                             152    1.46 0 62.5  32 
 PAM  EZ I        10 9 36.18         2.5 0.17            141           62.5  32 
 PAM  EN ES       10 9 39.46                             152   -0.1310 62.5  32 
 RUS  HZ EP       10 9 27.52                             137   -0.2610  107 185 
 RUS  HN ES       10 9 45.15                             137   -0.1110  107 185 
 RUS  HZ I        10 9 47.30         1.8 0.26            137            107 185 
 ZAR  HZ EP       10 9 38.59                             116    0.58 8  217 289 
 ZAR  HN ES       1010  3.02                             116   -0.46 8  217 289 
 ZAR  HZ I        1010  7.13         1.8 0.32            113            217 289 
                                                                                
