 2015  6 6 1620 13.1 L   6.745 -73.031140.7  RSN  5 0.4 1.7LRSN                1
 GAP=183        0.76       6.1     5.9  6.6 -0.1852E+02  0.1769E+01  0.2027E+02E
 Epicentro: ARATOCA - SANTANDER                                                3
 ACTION:UPD 15-09-10 22:10 OP:cam  STATUS:               ID:20150606162013 L   I
 OLDACT:REG 15-06-06 21:50 OP:ak   STATUS:               ID:20150606161748     3
 2015-06-06-1617-48M.COL___303                                                 6
 STAT SP IPHASW D HRMM SECON CODA AMPLIT PERI AZIMU VELO AIN AR TRES W  DIS CAZ7
 BAR2 EZ EP       1620 32.37                             170    0.2410 23.7 225 
 BAR2 EZ ES       1620 47.17                             170    0.2010 23.7 225 
 BAR2 EZ I        1620 49.06         7.7 0.14            169           23.7 225 
 PAM  SZ EP   1   1620 34.43                             151   -0.22 7 75.3  29 
 PAM  SN ES       1620 51.36                             151   -0.1010 75.3  29 
 PAM  SZ I        1620 54.59         7.9 0.44            152           75.3  29 
 BRR  HZ EP   2   1620 35.45                             147    0.87 5 85.2 298 
 BRR  HN ES       1620 50.87                             147   -0.4610 85.2 298 
 GUY2CHZ EP       1620 57.40                             111    0.11 7  308 237 
 GUY2CHN ES       1621 32.23                             111    0.48 7  308 237 
 GUY2CHZ I        1621 38.57         2.3 0.30                           308 237 
 PRA  HZ EP   1   1621  6.08                             106   -0.52 4  393 212 
 PRA  HE ES       1621 47.87                             106   -0.45 6  393 212 
 PRA  HZ I        1621 52.46         1.8 0.26            106            393 212 
                                                                                
