 2012  5 6 1510  9.9 L   6.696 -73.226154.8  RSN  5 0.3 1.5LRSN                1
 GAP=207        0.65       7.0     6.5  8.6  0.2862E+02 -0.4282E+01 -0.6269E+01E
 Epicentro: VILLANUEVA - SANTANDER                                             3
 ACTION:UP  12-07-05 12:02 OP:pat  STATUS:               ID:20120506151009 L   I
 2012-05-06-1507-50M.COL___181                                                 6
 STAT SP IPHASW D HRMM SECON CODA AMPLIT PERI AZIMU VELO SNR AR TRES W  DIS CAZ7
 BAR2 SZ EP   1   1510 29.93                             175    -0.5 7   12 157 
 BRR  HZ EP   1   1510 31.93                             154     0.0 7   70 310 
 BRR  HE ES   1   1510 49.41                             154     0.2 7   70 310 
 BRR  HZ I        1510 51.21         6.4 0.12                            70 310 
 RUS  HZ EP   1   1510 34.15                             148     0.3 7   90 170 
 RUS  HN ES   1   1510 52.61                             148     0.1 7   90 170 
 RUS  HZ I        1510 53.73         2.4 0.32                            90 170 
 PTB  HZ EP   1   1510 36.87                             136     0.2 7  137 263 
 PTB  HN ES   1   1510 57.31                             136    -0.3 7  137 263 
 PTB  HZ I        1511  3.15         3.3 0.20                           137 263 
 ZAR  HN ES   1   1511  8.23                             125     0.1 6  201 296 
 ZAR  HZ I        1511 14.66         5.9 0.28                           201 296 
                                                                                
