 2016  6 6 1711  7.1 L   6.839 -73.181143.8  RSN  4 0.1 1.5LRSN                1
 GAP=277        0.37       3.3     2.4  3.2  0.8081E+00  0.1674E+01 -0.1372E+01E
 Epicentro: ZAPATOCA - SANTANDER                                               3
 ACTION:UPD 16-07-21 22:16 OP:rebc STATUS:               ID:20160606171107 L   I
 OLDACT:REG 16-06-06 20:33 OP:edw  STATUS:               ID:20160606170742     3
 2016-06-06-1707-42M.COL___334                                                 6
 STAT SP IPHASW D HRMM SECON CODA AMPLIT PERI AZIMU VELO AIN AR TRES W  DIS CAZ7
 BAR2 EZ EP       1711 26.65                             169    0.0910 27.3 180 
 BAR2 EZ ES       1711 41.69                             169   -0.0610 27.3 180 
 BAR2 EZ I        1711 43.22         7.1 0.22                          27.3 180 
 RUS  HZ EP       1711 30.76                             142   -0.2110  105 174 
 RUS  HN ES       1711 49.74                             142    0.1310  105 174 
 RUS  HZ I        1711 50.54         3.8 0.30                           105 174 
 PTB  HZ EP       1711 33.72                             132    0.10 9  145 257 
 PTB  HZ I        1711 50.95         4.3 0.32                           145 257 
 PTB  HE ES       1711 54.27                             132   -0.05 9  145 257 
 SPBC HZ EP       1711 35.55                             128    0.03 9  164 217 
 SPBC HE ES       1711 57.67                             128   -0.03 9  164 217 
 SPBC HZ I        1712  2.53         4.9 0.16                           164 217 
 NOR  HZ EP   4   1712 11.30                             118   28.67 0  234 233 
                                                                                
