 2012  4 6 1022 19.9 L   6.542 -73.535108.6  RSN 32 0.6 3.4LRSN                1
 GAP= 55        1.12       2.8     3.0  5.7 -0.7001E+00  0.5396E+01  0.3504E+01E
 Epicentro: EL CARMEN DE CHUCURI - SANTANDER                                   3
 ACTION:UPD 12-07-05 11:51 OP:tino STATUS:               ID:20120406102219 L   I
 2012-04-06-1020-00M.COL___196                                                 6
 STAT SP IPHASW D HRMM SECON CODA AMPLIT PERI AZIMU VELO AIN AR TRES W  DIS CAZ7
 BAR2 SZ IP       1022 36.09                             158     0.410   39  82 
 BAR2 SZ ES   1   1022 48.47                             158     0.5 7   39  82 
 BAR2 SZ I        1022 49.52      2126.7 0.54                            39  82 
 BRR  HZ IP     D 1022 36.94                             146     0.210   65 343 
 BRR  HN ES   1   1022 50.70                             146     0.8 7   65 343 
 BRR  HZ I        1022 52.15       452.5 0.40                            65 343 
 RUS  HZ IP     D 1022 39.02                             138    -0.110   87 145 
 RUS  HN ES   1   1022 54.07                             138     0.0 7   87 145 
 RUS  HZ I        1022 55.68       336.1 0.56                            87 145 
 PTB  HZ IP     C 1022 38.85                             133    -0.810  102 270 
 PTB  HN ES   1   1022 53.74                             133    -1.4 7  102 270 
 PTB  HZ I        1022 54.97       465.6 0.52                           102 270 
 PAM  SZ EP       1022 42.60                             127    -0.110  128  46 
 PAM  SE ES   1   1023  0.20                             127    -0.3 7  128  46 
 ZAR  HZ EP       1022 47.93                             116     0.4 9  180 306 
 ZAR  HN ES   1   1023  9.82                             116     0.7 7  180 306 
 ZAR  HZ I        1023 12.68       512.5 0.34                           180 306 
 YOP  SZ IP       1022 48.04                             116     0.3 9  180 137 
 YOP  SE ES   1   1023  9.08                             116    -0.3 7  180 137 
 YOP  SZ I        1023 11.28       280.5 0.50                           180 137 
 NOR  SZ IP       1022 47.51                             116    -0.4 9  183 234 
 NOR  SN ES   1   1023  9.07                             116    -0.8 7  183 234 
 OCA  SZ IP       1022 48.68                             115    -0.1 9  189   7 
 OCA  SZ ES   1   1023 11.21                             115     0.0 7  189   7 
 ROSC BZ IP   2 C 1022 52.19                             113     1.1 4  207 205 
 ROSC BZ I        1023 22.24       235.9 0.50                           207 205 
 CHI  HZ EP       1022 51.31                             112    -0.4 8  213 186 
 CHI  HN ES   1   1023 16.75                             112     0.2 6  213 186 
 CHI  HZ I        1023 23.07       123.9 0.32                           213 186 
 HEL  HZ EP       1022 52.52                             111    -0.4 8  224 260 
 HEL  HN ES   1   1023 18.61                             111    -0.1 6  224 260 
 HEL  HZ I        1023 21.53       189.7 0.34                           224 260 
 GUY  SZ EP       1022 56.87                             108     0.6 8  252 235 
 GUY  SZ I        1022 58.31       283.2 0.46                           252 235 
 GUY  SE ES   1   1023 24.82                             108     0.1 6  252 235 
 RREF HZ EP       1022 58.81                             106     0.2 8  271 228 
 RREF HZ I        1023 34.63       143.8 0.28                           271 228 
 TOL  SZ EP       1023  1.26                             105     0.3 7  293 223 
 DBB  SZ EP       1023  2.44                             104     1.0 7  300 280 
 ANIL HZ EP       1023  2.53                             104     0.0 7  307 222 
 ANIL HN ES   2   1023 35.83                             104     0.0 4  307 222 
 ANIL HZ I        1023 45.77       379.9 0.26                           307 222 
 MON  HZ EP   1   1023  4.96                             101    -1.3 5  341 317 
 MON  HN ES   3   1023 41.85                             101    -0.5 2  341 317 
 PRA  HZ EP       1023  6.48                             101    -0.5 6  347 206 
 PRA  HN ES   2   1023 44.36                             101     0.7 3  347 206 
 PAL  HZ EP       1023  8.56                             101     0.7 6  354 239 
 PAL  HZ I        1023  9.44       161.3 0.14                           354 239 
 PAL  HE ES   1   1023 45.57                             101     0.3 5  354 239 
 SJA  SZ EP       1023  9.40                             100     0.3 6  364 187 
 COD  HZ EP       1023 10.50                             100     0.2 6  375   2 
 COD  HZ I        1023 56.67       167.0 0.30                           375   2 
 SDV  B2 EP       1023 14.08                              98    -0.9 6  412  51 
 YOT  HZ EP       1023 15.28                              98    -0.7 5  421 228 
 SOL  SZ EP       1023 16.90                              97     0.0 5  430 266 
 HORQ SZ EP   2   1023 23.86                              96     0.4 2  481 226 
 MARA HZ EP       1023 23.92                              95    -0.5 4  489 213 
 MAL  SZ EP   1   1023 27.41                              95     1.3 3  506 237 
 POP2 HZ EP   2   1023 33.19                              94    -0.2 2  563 218 
 PCON HZ EP       1023 34.37                              94     0.5 3  564 214 
 SOTA HZ EP       1023 38.30                              93     0.8 3  595 215 
 SOTA HZ I        1023 55.95        11.1 0.68                           595 215 
 FLO2 HZ EP       1023 36.41                              93    -0.8 3  597 203 
 FLO2 HE ES   2   1024 36.51                              93    -1.0 1  597 203 
                                                                                
