 2011  6 6 1357 31.7 L   6.759 -73.108150.0  RSN  7 0.2 1.8LRSN                1
 GAP=143        0.50       2.9     4.0  5.0 -0.5544E+01  0.2108E+01  0.1284E+01E
 Epicentro: LOS SANTOS - SANTANDER                                             3
 ACTION:UP  11-07-14 19:03 OP:ep   STATUS:               ID:20110606135731 L   I
 2011-06-06-1355-11S.COL___132                                                 6
 STAT SP IPHASW D HRMM SECON CODA AMPLIT PERI AZIMU VELO SNR AR TRES W  DIS CAZ7
 BAR2 SZ EP   1   1357 51.59                             172    -0.2 7   20 204 
 BAR2 SZ I        1358  7.80         9.9 0.20                            20 204 
 BRR  HZ EP   1   1357 53.51                             151    -0.1 7   77 300 
 BRR  HZ I        1357 55.37        15.1 0.10                            77 300 
 BRR  HE ES   1   1358 10.94                             151     0.2 7   77 300 
 PAM  SZ EP   1   1357 54.49                             151     0.1 7   79  35 
 PAM  SN ES   1   1358 11.91                             151    -0.2 7   79  35 
 RUS  HZ EP   1   1357 55.56                             146     0.1 7   96 178 
 RUS  HE ES   1   1358 14.23                             146     0.1 7   96 178 
 RUS  HZ I        1358 15.78         7.6 0.38                            96 178 
 BRI  SZ EP   1   1357 56.24                             142     0.1 7  111  18 
 BRI  SZ I        1358 21.49         8.9 0.37                           111  18 
 GRA  SZ EP   1   1357 57.39                             137    -0.2 7  129  15 
 GRA  SZ ES   1   1358 17.90                             137     0.1 7  129  15 
 GRA  SZ I        1358 18.26         8.3 0.22                           129  15 
 NOR  SZ EP   1   1358  8.15                             119     0.4 6  235 236 
 NOR  SE ES   1   1358 35.43                             119    -0.4 6  235 236 
                                                                                
