 2017  1 6 1129 33.2 L   6.501 -73.731 98.0  RSN  6 0.4 1.4LRSN                1
 GAP=140        0.83       4.8     3.6  8.1  0.5797E+01  0.6926E+01  0.6055E+01E
 Epicentro: SANTA HELENA DEL OPON - SANTANDER                                  3
 ACTION:UPD 17-05-22 15:56 OP:jn   STATUS:               ID:20170106112933 L   I
 OLDACT:REG 17-01-06 20:36 OP:dnl  STATUS:               ID:20170106112748     3
 2017-01-06-1128-00M.COL___363                                                 6
 STAT SP IPHASW D HRMM SECON CODA AMPLIT PERI AZIMU VELO AIN AR TRES W  DIS CAZ7
 BAR2 EZ EP       1129 49.05                             146    0.0110 61.5  81 
 BAR2 EZ ES       1130  1.95                             146    0.5310 61.5  81 
 BAR2 EZ I        1130  3.09        15.3 0.22            153           61.5  81 
 BRR  HZ EP       1129 48.71                             144   -0.3910 67.0   2 
 BRR  HN ES       1130  1.33                             144   -0.2010 67.0   2 
 BRR  HZ I        1130  8.04        11.6 0.32            147           67.0   2 
 PTB  HZ EP       1129 50.01                             138   -0.1610 80.4 273 
 PTB  HE ES       1130  3.65                             138    0.2110 80.4 273 
 PTB  HZ I        1130  5.04         7.5 0.16            138           80.4 273 
 RUS  HZ EP   2   1129 52.70                             133    0.31 5 98.3 133 
 RUS  HN ES       1130  7.10                             133   -0.2910 98.3 133 
 RUS  HZ I        1130  9.54         2.0 0.48            137           98.3 133 
 NOR  HZ EP   4   1130  0.85                             117    2.38 0  163 231 
 NOR  HE ES   4   1130 21.15                             117    2.94 0  163 231 
 NOR  HZ I        1130 24.50         3.9 0.36            118            163 231 
 ZAR  HZ EP   2   1129 59.68                             117    0.97 5  166 311 
 ZAR  HE ES   4   1130 20.12                             117    1.49 0  166 311 
 ZAR  HZ I        1130 22.17         3.7 0.38            118            166 311 
                                                                                
