 2016  3 6 1618 25.8 L   6.054 -74.208  4.0  RSN 18 0.5 2.5LRSN                1
 GAP= 64        1.32       2.2     2.2  4.6 -0.5564E+00  0.2030E+01 -0.4260E+00E
 Epicentro: LA BELLEZA - SANTANDER                                             3
 ACTION:UPD 16-05-13 21:21 OP:cam  STATUS:               ID:20160306161825 L   I
 OLDACT:UP  16-03-14 10:32 OP:Ak   STATUS:               ID:20160306161825 L   3
 OLDACT:UP  16-03-07 00:54 OP:mh   STATUS:               ID:20160306161750     3
 OLDACT:UP  16-03-07 00:53 OP:mh   STATUS:               ID:20160306161750     3
 OLDACT:UP  16-03-07 00:52 OP:mh   STATUS:               ID:20160306161750     3
 OLDACT:UP  16-03-07 00:48 OP:mh   STATUS:               ID:20160306161750     3
 OLDACT:UP  16-03-07 00:48 OP:mh   STATUS:               ID:20160306161750     3
 OLDACT:UP  16-03-07 00:18 OP:mh   STATUS:               ID:20160306161750     3
 OLDACT:REG 16-03-06 21:20 OP:mh   STATUS:               ID:20160306161750     3
 2016-03-06-1617-50M.COL___324                                                 6
 STAT SP IPHASW D HRMM SECON CODA AMPLIT PERI AZIMU VELO AIN AR TRES W  DIS CAZ7
 SPBC HZ IP     C 1618 33.31                              47   -0.3010 46.9 161 
 SPBC HE ES       1618 38.89                              47   -0.8010 46.9 161 
 SPBC HZ I        1618 40.17       310.5 0.20             47           46.9 161 
 PTB  HZ IP     C 1618 35.57                              47    0.0210 60.3 333 
 PTB  HN ES       1618 43.50                              47    0.3610 60.3 333 
 PTB  HZ I        1618 43.77       472.9 0.44             47           60.3 333 
 NOR  HZ IP     C 1618 40.13                              47   -0.1310 91.1 233 
 NOR  HE ES       1618 51.20                              47   -0.3410 91.1 233 
 NOR  HZ I        1618 51.55       166.7 0.32             47           91.1 233 
 RUS  HZ EP       1618 45.24                              47   -0.7310  126  98 
 RUS  HN ES   4   1618 59.70                              47   -2.01 0  126  98 
 BAR2 EZ IP     C 1618 45.89                              47   -0.1710  128  62 
 BAR2 EZ ES       1619  1.24                              47   -0.6210  128  62 
 BAR2 EZ I        1619  2.64        77.4 0.31             47            128  62 
 ROSC BZ EP     C 1618 48.06                              47    0.8210  135 185 
 ROSC BN ES   4   1619  5.30                              47    1.35 0  135 185 
 ROSC BZ I        1619 14.05        39.6 0.40             47            135 185 
 HEL  HZ EP       1618 48.58                              47   -0.47 9  147 276 
 HEL  HE ES       1619  6.39                              47   -0.79 9  147 276 
 HEL  HZ I        1619  6.70        55.4 0.25             47            147 276 
 GUY2CHZ EP       1618 50.89                              47    0.12 9  158 234 
 GUY2CHN ES       1619  9.89                              47   -0.36 9  158 234 
 GUY2CHZ I        1619 13.23        48.4 0.34                           158 234 
 CHI  HZ EP     D 1618 52.83                              47    0.83 9  166 161 
 CHI  HN ES       1619 13.02                              47    0.58 9  166 161 
 CHI  HZ I        1619 17.22        30.6 0.48             47            166 161 
 ZAR  HZ EP   9   1618 51.09                              47   -1.76 0  174 336 
 ZAR  HN ES       1619 11.72                              47   -0.46 9  174 336 
 ZAR  HZ I        1619 12.93        43.9 0.18             47            174 336 
 CRECREZ EP   4   1618 50.57                              47   -2.95 0  175 226 
 CRECREN ES   4   1619 10.84                              47   -4.30 0  175 226 
 ELA  HZ EP       1618 55.14                              37    0.09 9  187 225 
 ELA  HN ES       1619 17.21                              37   -0.64 9  187 225 
 ELA  HZ I        1619 21.44        33.8 0.36             37            187 225 
 CBOC HZ EP   1   1618 57.23                              37    0.85 6  201 264 
 CBOC HN ES       1619 21.08                              37    0.86 9  201 264 
 CBOC HZ I        1619 25.52        19.9 0.54             37            201 264 
 ANIL HZ EP       1618 59.11                              37    0.47 8  218 218 
 ANIL HE ES       1619 24.70                              37    0.45 8  218 218 
 ANIL HZ I        1619 26.65        87.9 0.30             37            218 218 
 PAM  EZ EP   1   1618 59.59                              37    0.55 6  219  49 
 PAM  EN ES       1619 25.61                              37    0.64 8  219  49 
 PAM  EZ I        1619 27.80        89.3 0.38             37            219  49 
 VIL  SZ EP   4   1619  0.33                              37    1.33 0  222 165 
 VIL  SE ES   4   1619 28.04                              37    3.15 0  222 165 
 URE  HZ EP   4   1619  0.16                              37   -0.67 0  238 322 
 URE  HN ES   4   1619 29.36                              37    1.21 0  238 322 
 URE  HZ I        1619 32.52        19.3 0.26             37            238 322 
 OCA  HZ EP   4   1619  9.51                              37    5.67 0  261  22 
 OCA  HN ES   4   1619 39.17                              37    5.66 0  261  22 
 OCA  HZ I        1619 51.21        55.3 0.46             37            261  22 
 ORTC HZ EP       1619  4.37                              37    0.30 8  264 206 
 YOT  HZ EP   4   1619 15.12                              36    2.78 0  330 226 
 YOT  HN ES   4   1619 56.90                              36    8.26 0  330 226 
 SJC  HZ EP   2   1619 25.27                              36   -0.42 3  438 346 
 SJC  HN ES   4   1620 10.49                              36   -1.90 0  438 346 
                                                                                
