 2017  2 6 1812 31.3 L   6.852 -73.310125.7  RSN 10 0.4 2.3LRSN                1
 GAP=109        0.95       3.8     2.5  5.5  0.4379E+00  0.3206E+01  0.2383E+01E
 Epicentro: ZAPATOCA - SANTANDER                                               3
 ACTION:UPD 17-05-24 15:33 OP:jn   STATUS:               ID:20170206181834dL   I
 OLDACT:UP  17-02-08 00:18 OP:ar   STATUS:               ID:20170206181834dL   3
 OLDACT:UP  17-02-08 00:10 OP:ar   STATUS:               ID:20170206181834dL   3
 OLDACT:UP  17-02-08 00:02 OP:ar   STATUS:               ID:20170206181834dL   3
 OLDACT:DUP 17-02-07 23:54 OP:ar   STATUS:               ID:20170206181834dL   3
 OLDACT:UP  17-02-06 21:42 OP:and  STATUS:               ID:20170206180745     3
 OLDACT:UP  17-02-06 21:41 OP:and  STATUS:               ID:20170206180745     3
 OLDACT:UP  17-02-06 21:41 OP:and  STATUS:               ID:20170206180745     3
 OLDACT:UP  17-02-06 21:38 OP:and  STATUS:               ID:20170206180745     3
 OLDACT:REG 17-02-06 20:48 OP:and  STATUS:               ID:20170206180745     3
 2017-02-06-1808-00M.COL___340                                                 6
 STAT SP IPHASW D HRMM SECON CODA AMPLIT PERI AZIMU VELO AIN AR TRES W  DIS CAZ7
 BAR2 EZ IP     C 1812 48.58                             165   -0.1910 32.0 154 
 BAR2 EZ ES       1813  1.73                             165   -0.6610 32.0 154 
 BAR2 EZ I        1813  2.90       357.0 0.36            164           32.0 154 
 BRR  HZ IP     C 1812 48.94                             156   -0.3310 52.6 302 
 BRR  HN ES       1813  3.08                             156   -0.1910 52.6 302 
 BRR  HZ I        1813  4.25        65.7 0.12            155           52.6 302 
 PAM  EZ EP       1812 52.12                             144    0.0610 86.3  51 
 PAM  EN ES       1813  8.58                             144    0.3410 86.3  51 
 PAM  EZ I        1813 10.32        41.2 0.22            144           86.3  51 
 RUS  HZ EP       1812 53.59                             137   -0.2510  109 167 
 RUS  HN ES       1813 11.51                             137    0.1110  109 167 
 RUS  HZ I        1813 12.20        17.9 0.24            136            109 167 
 PTB  HZ IP   4 C 1812 53.82                             130   -1.34 0  131 255 
 PTB  HN ES       1813 14.62                             130    0.8610  131 255 
 PTB  HZ I        1813 15.65        47.7 0.38            130            131 255 
 TAM  HZ IP     D 1812 59.51                             122    0.10 9  174 105 
 TAM  HN ES       1813 21.67                             122    0.34 9  174 105 
 TAM  HZ I        1813 24.86        14.9 0.28            122            174 105 
 ZAR  HZ EP       1813  0.46                             120   -0.05 9  185 293 
 ZAR  HN ES       1813 23.63                             120    0.35 9  185 293 
 ZAR  HZ I        1813 25.49        30.6 0.18            120            185 293 
 NOR  HZ EP       1813  4.74                             115   -0.01 8  224 231 
 NOR  HE ES       1813 31.11                             115    0.29 8  224 231 
 NOR  HZ I        1813 38.34        10.8 0.14            114            224 231 
 URE  HZ EP   4   1813 10.91                             111    1.60 0  265 292 
 URE  HE ES   4   1813 37.51                             111   -1.44 0  265 292 
 CBOC HZ EP   4   1813 17.08                             107    1.40 0  318 250 
 CBOC HN ES       1813 50.09                             107   -0.20 7  318 250 
 CBOC HZ I        1813 53.15         7.3 0.28            106            318 250 
 DBB  EZ EP   4   1813 17.66                             107    1.78 0  321 273 
 DBB  EN ES       1813 49.86                             107   -0.79 7  321 273 
 DBB  EZ I        1813 52.91         6.9 0.16            106            321 273 
                                                                                
