 2012  3 6 1239 26.6 L   6.741 -73.142144.0  RSN  7 0.3 2.0LRSN                1
 GAP=140        0.92       4.9     5.1  6.9 -0.5190E+01  0.2019E+01 -0.1670E+01E
 ACTION:UP  12-03-31 23:17 OP:EP   STATUS:               ID:20120306123926 L   I
 2012-03-06-1234-48S.COL___170                                                 6
 STAT SP IPHASW D HRMM SECON CODA AMPLIT PERI AZIMU VELO SNR AR TRES W  DIS CAZ7
 BAR2 SZ EP       1239 46.13                             173     0.210   17 195 
 BAR2 SZ ES   1   1240  0.35                             173    -0.6 7   17 195 
 BAR2 SZ I        1240  1.84        22.3 0.33                            17 195 
 BRR  HZ EP       1239 48.03                             151     0.210   75 303 
 BRR  HZ I        1239 48.60        30.7 0.10                            75 303 
 BRR  HE ES       1240  4.86                             151     0.610   75 303 
 PAM  SZ EP       1239 49.10                             149     0.210   82  36 
 PAM  SE ES   1   1240  6.00                             149    -0.4 7   82  36 
 RUS  HZ EP       1239 49.94                             145     0.210   94 176 
 RUS  HE ES   1   1240  7.81                             145     0.0 7   94 176 
 RUS  HZ I        1240  9.19         8.2 0.27                            94 176 
 PTB  HZ EP       1239 52.98                             132    -0.4 9  147 261 
 PTB  HN ES   1   1240 13.81                             132    -0.4 7  147 261 
 OCA  SZ EP       1239 55.09                             128    -0.3 9  167 353 
 NOR  SN ES   1   1240 29.44                             118     0.0 6  231 236 
                                                                                
