 2011  7 6 1714 19.2 L   6.769 -73.126143.0  RSN 15 0.3 3.6LRSN                1
 GAP=140        0.60       2.3     3.7  3.4 -0.4052E+01  0.3134E+01  0.8216E+00E
 Epicentro: LOS SANTOS - SANTANDER                                             3
 ACTION:UPD 12-07-25 13:58 OP:epov STATUS:               ID:20110706171419 L   I
 2011-07-06-1712-36S.COL___123                                                 6
 STAT SP IPHASW D HRMM SECON CODA AMPLIT PERI AZIMU VELO AIN AR TRES W  DIS CAZ7
 BAR2 SZ EP   1   1714 38.47                             171   -0.01 7 20.5 198 
 BAR2 SZ ES   1   1714 53.40                             171   -0.09 7 20.5 198 
 BAR2 SZ I        1714 54.80       845.3 0.18                          20.5 198 
 BTL  SZ EP       1714 38.73                             170    0.2110 22.7 317 
 BTL  SZ ES   1   1714 53.47                             170   -0.10 7 22.7 317 
 GIR2 SZ EP   1   1714 38.54                             165   -0.15 7 35.0 348 
 GIR2 SZ ES   1   1714 54.12                             165    0.26 7 35.0 348 
 BRR  HZ EP   1   1714 40.40                             151    0.11 7 74.7 300 
 BRR  HE ES   1   1714 57.12                             151    0.40 7 74.7 300 
 BRR  HZ I        1714 58.44       768.8 0.13                          74.7 300 
 PAM  SZ EP   1   1714 41.41                             150    0.17 7 78.7  37 
 PAM  SZ I        1714 41.78       605.0 0.19                          78.7  37 
 PAM  SN ES   1   1714 58.02                             150   -0.38 7 78.7  37 
 RUS  HZ EP   1   1714 42.38                             144   -0.08 7 97.0 177 
 RUS  HN ES   1   1715  0.44                             144   -0.13 7 97.0 177 
 RUS  HZ I        1715  2.40       298.4 0.36                          97.0 177 
 BRI  SZ EP   1   1714 43.10                             140    0.05 7  111  19 
 BRI  SZ ES   1   1715  1.24                             140   -0.39 7  111  19 
 BRI  SZ I        1715  6.70       411.4 0.40                           111  19 
 GRA  SZ EP       1714 44.39                             136   -0.0710  128  16 
 GRA  SZ I        1714 45.76       650.1 0.25                           128  16 
 GRA  SZ ES   1   1715  4.04                             136   -0.09 7  128  16 
 OCA  SZ EP   1   1714 47.21                             128   -0.47 7  164 353 
 OCA  SZ ES   1   1715 10.62                             128    0.76 7  164 353 
 OCA  SZ I        1715 15.18       737.8 0.36                           164 353 
 NOR  SZ EP   1   1714 54.97                             118    0.19 6  234 235 
 NOR  SN ES   1   1715 22.10                             118   -0.41 6  234 235 
 CHI  HZ EP   1   1714 56.75                             117    0.27 6  246 196 
 CHI  HE ES   1   1715 26.15                             117    0.61 6  246 196 
 CHI  HZ I        1715 33.69       122.5 0.41                           246 196 
 HEL  HZ EP   1   1714 58.71                             114   -0.74 6  273 257 
 HEL  HZ I        1715 37.46       499.9 0.29                           273 257 
 GUY  SZ EP   1   1715  3.12                             112    0.16 5  303 236 
 GUY  SE ES   1   1715 36.70                             112   -0.37 5  303 236 
 GUY  SZ I        1715 45.64       256.3 0.39                           303 236 
 DBB  SZ EP   1   1715  6.75                             109   -0.13 5  342 275 
 PRA  HZ EP   1   1715 12.67                             106    0.23 4  390 210 
                                                                                
