 2013  9 6 1010 27.3 L   6.797 -73.108137.8  RSN 10 0.5 1.6LRSN                1
 GAP=141        0.77       3.6     4.9  6.0  0.3576E+00  0.5717E+01  0.2275E+00E
 Epicentro: LOS SANTOS - SANTANDER                                             3
 ACTION:UPD 13-10-22 09:20 OP:ep   STATUS:               ID:20130906101027 L   I
 OLDACT:REG 13-09-06 16:46 OP:mh   STATUS:               ID:20130906100959     3
 2013-09-06-1009-59M.COL___269                                                 6
 STAT SP IPHASW D HRMM SECON CODA AMPLIT PERI AZIMU VELO AIN AR TRES W  DIS CAZ7
 BAR2 SZ EP   1   1010 46.33                             170    0.35 7 24.1 200 
 BAR2 SZ ES   1   1011  0.12                             170   -0.44 7 24.1 200 
 BAR2 SZ I        1011  3.02         5.3 0.40            166           24.1 200 
 PAM  SZ EP   1   1010 48.72                             150    0.21 7 75.0  37 
 PAM  SN ES   2   1011  4.88                             150   -0.19 5 75.0  37 
 BRR  HZ EP   1   1010 48.22                             150    0.41 7 75.0 297 
 BRR  HN ES   1   1011  4.28                             150    0.46 7 75.0 297 
 BRR  HZ I        1011  8.31        10.2 0.36            147           75.0 297 
 RUS  HZ EP   1   1010 50.25                             142    0.03 7  100 178 
 RUS  HN ES   2   1011  8.01                             142   -0.11 5  100 178 
 RUS  HZ I        1011 11.55         2.8 0.22            145            100 178 
 PTB  HZ EP   1   1010 52.96                             129   -1.03 7  152 259 
 PTB  HN ES   2   1011 14.32                             129   -0.50 5  152 259 
 PTB  HZ I        1011 21.62         7.1 0.42            130            152 259 
 SPBC HZ EP   1   1010 55.34                             127   -0.08 7  166 220 
 SPBC HN ES   1   1011 17.58                             127    0.21 7  166 220 
 SPBC HZ I        1011 20.08         6.4 0.34            128            166 220 
 ZAR  HZ EP   1   1011  0.27                             120    0.63 6  208 292 
 ZAR  HN ES   1   1011 25.05                             120    0.17 6  208 292 
 ZAR  HZ I        1011 31.11         6.9 0.24            122            208 292 
 SML  HZ EP   1   1011  3.23                             115   -0.47 6  246 334 
 SML  HN ES   2   1011 31.15                             115   -0.95 4  246 334 
 CHI  HN ES   2   1011 33.66                             115   -0.13 4  249 196 
 PRA  HZ EP   1   1011 21.15                             105    0.40 4  394 210 
 PRA  HN ES   2   1012  2.19                             105   -0.27 3  394 210 
                                                                                
