 2011  2 6 1303  8.9 L   6.792 -73.116148.5  RSN  5 0.3 1.5LRSN                1
 GAP=162        0.66       5.5    11.8  8.9 -0.3918E+02  0.1365E+02  0.2474E+00E
 Epicentro: LOS SANTOS - SANTANDER                                             3
 ACTION:UP  11-03-28 15:06 OP:jfem STATUS:               ID:20110206130309 L   I
 2011-02-06-1300-00M.COL___138                                                 6
 STAT SP IPHASW D HRMM SECON CODA AMPLIT PERI AZIMU VELO SNR AR TRES W  DIS CAZ7
 BAR2 SZ EP   1   13 3 28.94                             171     0.1 7   23 199 
 BAR2 SZ ES   2   13 3 44.35                             171    -0.1 5   23 199 
 BAR2 SZ I        13 3 47.45        10.5 0.72                            23 199 
 RUS  HZ EP   1   13 3 32.18                             145    -0.7 7  100 178 
 RUS  HE ES   2   13 3 51.97                             145     0.5 5  100 178 
 RUS  HZ I        13 3 54.02         4.8 0.50                           100 178 
 GRA  SZ EP   1   13 3 34.62                             138     0.2 7  126  16 
 GRA  SZ ES   2   13 3 54.12                             138    -0.1 5  126  16 
 NOR  SN ES   2   13 4 13.21                             119     0.0 4  237 235 
 CHI  HZ EP   1   13 3 47.07                             118     0.3 6  249 196 
 CHI  HE ES   2   13 4 16.34                             118     0.1 4  249 196 
 CHI  HZ I        13 4 24.91         1.9 0.64                           249 196 
                                                                                
