 2010 12 6 1702 48.9 L   6.817 -73.174142.6  RSN 11 0.4 2.3LRSN                1
 GAP=163        0.84       4.3     7.9  6.1 -0.2151E+02  0.1441E+02  0.8986E+00E
 Epicentro: LOS SANTOS - SANTANDER                                             3
 ACTION:UP  11-01-14 15:23 OP:pat  STATUS:               ID:20101206170248 L   I
 2010-12-06-1700-31S.COL___135                                                 6
 STAT SP IPHASW D HRMM SECON CODA AMPLIT PERI AZIMU VELO SNR AR TRES W  DIS CAZ7
 BTL  SZ EP       17 3  8.26                             173     0.210   15 317 
 BAR2 SZ IP       17 3  8.04                             170    -0.210   25 182 
 BAR2 SZ ES   1   17 3 23.19                             170     0.0 7   25 182 
 BAR2 SZ I        17 3 23.97        51.5 0.19                            25 182 
 GIR2 SZ EP       17 3  8.12                             168     0.010   29 356 
 GIR2 SZ ES   1   17 3 23.11                             168     0.0 7   29 356 
 GUE  SZ EP       17 3 12.38                             139    -0.910  115  14 
 GRA  SZ EP       17 3 13.94                             137     0.110  125  19 
 GRA  SZ ES   1   17 3 33.68                             137     0.5 7  125  19 
 GRA  SZ I        17 3 35.25        35.7 0.17                           125  19 
 OCA  SZ EP       17 3 16.90                             129     0.1 9  158 354 
 OCA  SZ ES   1   17 3 38.80                             129     0.3 7  158 354 
 OCA  SZ I        17 3 41.77        26.1 0.51                           158 354 
 NOR  SZ EP       17 3 24.54                             118     0.2 8  233 234 
 NOR  SN ES   2   17 3 51.14                             118    -0.8 4  233 234 
 CHI  HZ EP   1   17 3 26.02                             116    -0.5 6  250 194 
 CHI  HN ES   2   17 3 56.05                             116     0.2 4  250 194 
 CHI  HZ I        17 4  1.53         8.4 0.47                           250 194 
 HEL  HZ EP   2   17 3 28.93                             114     0.3 4  269 255 
 HEL  HN ES   2   17 3 59.18                             114    -0.5 4  269 255 
 HEL  HZ I        17 4  6.41         9.3 0.36                           269 255 
 RREF HZ EP   1   17 3 35.33                             110     0.5 5  321 229 
 RREF HN ES   2   17 4 10.64                             110     0.1 3  321 229 
 RREF HZ I        17 4 19.02         9.0 0.31                           321 229 
 PRA  HZ EP       17 3 42.53                             106     0.2 6  392 209 
 PRA  HN ES   1   17 4 24.59                             106     0.6 4  392 209 
                                                                                
