 2012  3 6 1714 26.8 L   6.357 -73.984 82.0  RSN  4 0.3 1.7LRSN                1
 GAP=218        0.68       6.5     3.4  9.4  0.3359E+01 -0.4898E+01 -0.4117E+01E
 ACTION:UP  12-03-31 23:17 OP:EP   STATUS:               ID:20120306171426 L   I
 2012-03-06-1710-00M.COL___194                                                 6
 STAT SP IPHASW D HRMM SECON CODA AMPLIT PERI AZIMU VELO SNR AR TRES W  DIS CAZ7
 PTB  HZ EP   1   1714 40.30                             143    -0.1 7   56 291 
 PTB  HE ES   1   1714 50.94                             143     0.0 7   56 291 
 BRR  HZ EP       1714 42.82                             129    -0.410   88  20 
 BRR  HZ IP       1714 42.82                             129             88  20 
 BRR  HE ES   1   1714 55.82                             129    -0.1 7   88  20 
 BRR  HZ I        1714 57.59        21.1 0.32                            88  20 
 BAR2 SZ EP   1   1714 44.16                             128     0.3 7   92  74 
 BAR2 SZ ES   1   1714 57.43                             128     0.2 7   92  74 
 BAR2 SZ I        1714 58.84        10.0 0.15                            92  74 
 ZAR  HN ES   1   1715  9.79                             113     0.4 7  158 322 
                                                                                
