 2014 10 6 1655 15.4 L   6.781 -73.166142.9  RSN  7 0.5 1.7LRSN                1
 GAP= 99        1.26       5.9     5.4  8.5 -0.6954E+01 -0.3562E+01  0.4386E+01E
 Epicentro: LOS SANTOS - SANTANDER                                             3
 ACTION:UPD 14-11-29 23:47 OP:nd   STATUS:               ID:20141006165515 L   I
 OLDACT:REG 14-10-06 21:36 OP:stll STATUS:               ID:20141006164744     3
 2014-10-06-1647-44M.COL___292                                                 6
 STAT SP IPHASW D HRMM SECON CODA AMPLIT PERI AZIMU VELO AIN AR TRES W  DIS CAZ7
 BAR2 SZ EP       1655 34.63                             171    0.0310 20.9 185 
 BAR2 SZ I        1655 34.79        22.0 0.40            170           20.9 185 
 BAR2 SZ ES       1655 49.23                             171   -0.3810 20.9 185 
 BRR  HZ EP       1655 36.59                             152    0.4410 70.3 301 
 BRR  HE ES       1655 53.39                             152    1.0310 70.3 301 
 PAM  SZ EP       1655 37.50                             149    0.0410 80.5  40 
 PAM  SN ES       1655 54.11                             149   -0.5910 80.5  40 
 PAM  SZ I        1655 56.51        10.1 0.54            152           80.5  40 
 RUS  HZ EP       1655 38.88                             144    0.1810 98.7 175 
 RUS  HN ES       1655 57.16                             144    0.2710 98.7 175 
 RUS  HZ I        1655 58.10         5.8 0.32            144           98.7 175 
 PTB  HZ EP       1655 41.44                             132   -0.42 9  145 259 
 PTB  HN ES       1656  1.68                             132   -0.84 9  145 259 
 PTB  HZ I        1656  6.30         5.2 0.12            132            145 259 
 TAM  HZ EP       1655 43.00                             130    0.02 9  157 104 
 SPBC HN ES       1656  5.26                             129    0.08 9  160 219 
 SPBC HZ I        1656  8.83         6.9 0.16            129            160 219 
                                                                                
