 2012  5 6 1728 51.1 L   6.810 -73.105132.4  RSN  5 0.4 1.2LRSN                1
 GAP=141        0.81       5.6     5.4  9.8 -0.3000E+01  0.6454E+01  0.9819E+01E
 Epicentro: LOS SANTOS - SANTANDER                                             3
 ACTION:UP  12-07-05 12:02 OP:pat  STATUS:               ID:20120506172851 L   I
 2012-05-06-1720-00M.COL___192                                                 6
 STAT SP IPHASW D HRMM SECON CODA AMPLIT PERI AZIMU VELO SNR AR TRES W  DIS CAZ7
 BAR2 SZ EP   2   1729  8.77                             168    -0.4 5   26 200 
 BAR2 SZ I        1729 25.87         5.3 0.52                            26 200 
 PAM  SZ EP   1   1729 12.01                             149     0.3 7   74  37 
 PAM  SN ES   1   1729 27.32                             149    -0.4 7   74  37 
 BRR  HZ EP   1   1729 11.64                             149     0.6 7   75 296 
 BRR  HE ES   1   1729 26.89                             149     0.3 7   75 296 
 BRR  HZ I        1729 31.80         4.3 0.14                            75 296 
 RUS  HZ EP   1   1729 13.71                             141     0.0 7  101 179 
 RUS  HN ES   1   1729 31.39                             141     0.1 7  101 179 
 PTB  HZ EP   1   1729 16.97                             128    -0.5 7  152 259 
 PTB  HN ES   1   1729 37.83                             128    -0.2 7  152 259 
 PTB  HZ I        1729 41.00         1.1 0.18                           152 259 
                                                                                
