 2013  8 6 1556 36.2 L   6.172 -73.848 12.1  RSN  7 0.5 2.0LRSN                1
 GAP= 98        1.23       2.8     2.8  8.8 -0.3591E+00 -0.6745E+01 -0.5348E+01E
 Epicentro: LANDAZURI - SANTANDER                                              3
 ACTION:UPD 14-01-14 08:59 OP:ep   STATUS:               ID:20130806155636 L   I
 OLDACT:REG 13-08-06 15:52 OP:carl STATUS:               ID:20130806154959     3
 2013-08-06-1549-59M.COL___269                                                 6
 STAT SP IPHASW D HRMM SECON CODA AMPLIT PERI AZIMU VELO AIN AR TRES W  DIS CAZ7
 SPBC HZ IP     C 1556 46.85                              98    0.3810 62.6 203 
 SPBC HN ES   1   1556 55.48                              98    1.01 7 62.6 203 
 SPBC HZ I        1556 56.60        89.6 0.14            101           62.6 203 
 PTB  HZ IP     D 1556 48.05                              96   -0.7510 78.6 301 
 PTB  HN ES       1556 58.28                              96   -0.3410 78.6 301 
 PTB  HZ I        1556 59.43       111.4 0.10             99           78.6 301 
 BAR2 SZ IP     C 1556 50.21                              96   -0.0910 87.0  58 
 BAR2 SZ ES   1   1557  1.21                              96   -0.08 7 87.0  58 
 BAR2 SZ I        1557  3.78        25.0 0.30             98           87.0  58 
 RUS  HZ EP       1556 50.57                              96   -0.4510 90.1 110 
 RUS  HN ES   1   1557  2.07                              96   -0.51 7 90.1 110 
 RUS  HZ I        1557  3.43        26.5 0.60             98           90.1 110 
 BRR  HZ EP   1   1556 52.41                              95   -0.27 7  104   8 
 BRR  HN ES       1557  6.38                              95    0.8510  104   8 
 BRR  HZ I        1557  8.19        14.3 0.12             96            104   8 
 GIR2 SZ EP       1556 55.66                              94   -0.0610  124  36 
 GIR2 SZ ES   1   1557 11.52                              94    0.58 7  124  36 
 GIR2 SZ I        1557 12.21        40.1 0.30             95            124  36 
 PAM  SN ES       1557 25.73                              56    0.07 9  181  44 
 PAM  SN I        1557 26.70        54.7 0.20             56            181  44 
                                                                                
