 2016  4 6 1847 54.9 L   6.849 -73.158145.4  RSN 25 0.5 2.8LRSN                1
 GAP= 69        1.16       2.8     2.9  5.3 -0.1520E+01  0.3980E+01  0.6927E+00E
 Epicentro: LOS SANTOS - SANTANDER                                             3
 ACTION:UPD 16-05-05 14:19 OP:rebc STATUS:               ID:20160406184754 L   I
 OLDACT:UP  16-04-06 23:43 OP:drio STATUS:               ID:20160406183747     3
 OLDACT:UP  16-04-06 23:42 OP:drio STATUS:               ID:20160406183747     3
 OLDACT:UP  16-04-06 23:42 OP:drio STATUS:               ID:20160406183747     3
 OLDACT:UP  16-04-06 23:41 OP:drio STATUS:               ID:20160406183747     3
 OLDACT:REG 16-04-06 21:05 OP:drio STATUS:               ID:20160406183747     3
 2016-04-06-1837-47M.COL___307                                                 6
 STAT SP IPHASW D HRMM SECON CODA AMPLIT PERI AZIMU VELO AIN AR TRES W  DIS CAZ7
 BAR2 EZ EP       1848 14.73                             168    0.1010 28.6 185 
 BAR2 EZ ES       1848 29.21                             168   -0.7810 28.6 185 
 BAR2 EZ I        1848 30.97       160.5 0.22            169           28.6 185 
 PAM  EZ EP       1848 17.68                             151    0.7710 74.1  43 
 PAM  EN ES       1848 34.79                             151    0.7310 74.1  43 
 PAM  EZ I        1848 36.97       216.7 0.52            151           74.1  43 
 RUS  HZ EP       1848 18.74                             142   -0.3110  106 176 
 RUS  HE ES       1848 37.65                             142   -0.2110  106 176 
 RUS  HZ I        1848 38.54        89.2 0.22            143            106 176 
 PTB  HZ EP       1848 21.52                             132   -0.33 9  148 257 
 PTB  HN ES       1848 42.34                             132   -0.51 9  148 257 
 PTB  HZ I        1848 49.23        61.5 0.46            131            148 257 
 OCA  HZ EP       1848 22.84                             130    0.16 9  155 353 
 OCA  HE ES       1848 44.21                             130   -0.13 9  155 353 
 OCA  HZ I        1848 49.40       157.8 0.42            129            155 353 
 TAM  HZ EP       1848 23.23                             130    0.40 9  158 107 
 TAM  HZ I        1848 44.05        40.7 0.42            130            158 107 
 TAM  HE ES       1848 44.86                             130    0.27 9  158 107 
 SPBC HZ EP       1848 23.63                             128   -0.10 9  167 217 
 SPBC HN ES   4   1848 44.41                             128   -1.78 0  167 217 
 SPBC HZ I        1848 48.31       169.2 0.36            128            167 217 
 ZAR  HZ EP       1848 27.19                             123    0.18 9  201 291 
 ZAR  HE ES       1848 52.84                             123    0.80 9  201 291 
 ZAR  HZ I        1848 59.41        66.6 0.26            122            201 291 
 NOR  HZ EP       1848 30.96                             118    0.10 8  237 233 
 NOR  HN ES       1848 58.46                             118   -0.44 8  237 233 
 NOR  HZ I        1849  1.31        61.8 0.14            118            237 233 
 CHI  HZ EP       1848 32.98                             116   -0.16 8  254 195 
 CHI  HE ES       1849  2.35                             116   -0.60 8  254 195 
 CHI  HZ I        1849  5.76        55.6 0.40            116            254 195 
 ROSC BZ EP   4   1848 34.86                             116    1.40 0  257 210 
 ROSC BE ES   4   1849  1.03                             116   -2.49 0  257 210 
 ROSC BZ I        1849  9.22        72.9 0.50            116            257 210 
 HEL  HZ EP   4   1848 36.19                             115    1.06 0  272 255 
 HEL  HN ES       1849  6.18                             115   -0.31 8  272 255 
 HEL  HZ I        1849 12.39        31.3 0.26            114            272 255 
 URE  HZ EP       1848 34.49                             114   -1.13 7  281 291 
 URE  HE ES   4   1849  5.42                             114   -1.93 0  281 291 
 URE  HZ I        1849 17.50        56.0 0.22            113            281 291 
 SOCV BZ EP       1848 37.67                             112   -0.08 7  299  58 
 SOCV BE ES   4   1849  9.63                             112   -1.52 0  299  58 
 GUY2CHZ EP       1848 39.59                             112    0.83 7  303 234 
 GUY2CHE ES       1849 13.20                             112    0.26 7  303 234 
 GUY2CHZ I        1849 18.96        34.7 0.34                           303 234 
 VIL  SZ EP       1848 38.35                             111   -0.55 7  308 191 
 VIL  SE ES       1849 13.09                             111   -0.11 7  308 191 
 PTGC HZ EP   4   1848 38.01                             111   -1.39 0  314 159 
 PTGC HE ES   4   1849 11.03                             111   -3.05 0  314 159 
 PTGC HZ I        1849 13.12        57.6 0.32            111            314 159 
 LL6C HZ EP       1848 39.23                             111   -0.75 7  319 358 
 LL6C HZ ES   4   1849 13.87                             111   -1.25 0  319 358 
 LL6C HZ I        1849 20.68        23.3 0.38            110            319 358 
 ELA  HZ EP   4   1848 43.11                             110    1.05 0  332 229 
 ELA  HN ES       1849 19.58                             110    0.76 7  332 229 
 ELA  HZ I        1849 27.52        23.4 0.24            110            332 229 
 CBOC HZ EP   4   1848 43.38                             110    1.50 0  334 251 
 CBOC HN ES       1849 19.25                             110    0.75 7  334 251 
 CBOC HZ I        1849 24.36        11.0 0.36            109            334 251 
 MON  HZ EP   4   1848 41.82                             109   -1.58 0  349 308 
 MON  HN ES       1849 20.42                             109   -0.79 6  349 308 
 MON  HZ I        1849 22.22        12.8 0.16            108            349 308 
 SDV  BZ EP       1848 44.43                             108   -0.24 6  358  51 
 SDV  BN ES   4   1849 21.35                             108   -2.11 0  358  51 
 SDV  BZ I        1849 24.97        14.1 0.35            108            358  51 
 ANIL HZ EP       1848 45.53                             108    0.47 6  360 224 
 ANIL HN ES   4   1849 25.67                             108    1.50 0  360 224 
 ORTC HZ EP       1848 49.25                             106   -0.01 6  399 216 
 ORTC HN ES       1849 32.43                             106    0.79 6  399 216 
 ORTC HZ I        1849 36.09        25.6 0.32            106            399 216 
 SJC  HZ EP   4   1848 48.24                             106   -1.61 0  404 327 
 SJC  HN ES   4   1849 28.62                             106   -4.08 0  404 327 
 PAL  HZ EP       1848 49.77                             106   -0.50 6  407 238 
 PAL  HN ES       1849 34.38                             106    0.94 6  407 238 
 PAL  HZ I        1849 37.16        12.0 0.26            105            407 238 
                                                                                
