 2010  6 6 1552 13.8 L   7.195 -73.548 92.0  RSN  4 0.7 1.8LRSN                1
 GAP=224        1.68       6.8    26.4 26.0 -0.4040E+02  0.2611E+03 -0.4323E+02E
 Epicentro: SABANA DE TORRES - SANTANDER                                       3
 *GOR                                                                          3
 ACTION:UP  10-08-24 10:08 OP:vdl  STATUS:               ID:20100606155213 L   I
 2010-06-06-1547-36S.COL___111                                                 6
 STAT SP IPHASW D HRMM SECON CODA AMPLIT PERI AZIMU VELO SNR AR TRES W  DIS CAZ7
 BAR2 SZ EP       1552 29.82                             137    -0.510   78 149 
 BAR2 SZ ES       1552 43.68                             137     0.410   78 149 
 GUE  SZ ES   1   1552 45.26                             130    -1.5 7   98  44 
 GRA  SZ EP       1552 33.80                             126     0.410  112  47 
 GRA  SZ ES   1   1552 49.62                             126     0.8 7  112  47 
 OCA  SZ ES       1552 50.07                             124     0.210  118  12 
 OCA  SZ I        1552 51.36        14.8 0.52                           118  12 
                                                                                
