 2012  6 6 1841  5.7 L   6.815 -73.194141.6  RSN  9 0.3 2.3LRSN                1
 GAP=130        0.62       2.4     3.4  5.1 -0.1448E+01  0.5499E+01  0.2058E+01E
 Epicentro: ZAPATOCA - SANTANDER                                               3
 ACTION:UPD 12-08-06 17:47 OP:ep   STATUS:               ID:20120606184106 L   I
 2012-06-06-1840-00M.COL___201                                                 6
 STAT SP IPHASW D HRMM SECON CODA AMPLIT PERI AZIMU VELO AIN AR TRES W  DIS CAZ7
 BAR2 SZ EP   1   1841 24.93                             170    0.0413 24.7 177 
 BAR2 SZ ES   1   1841 39.67                             170   -0.1613 24.7 177 
 BAR2 SZ I        1841 41.70        66.5 0.30            170           24.7 177 
 PAM  SZ EP   1   1841 27.87                             149    0.2213 79.7  43 
 PAM  SZ I        1841 28.32        27.2 0.22            150           79.7  43 
 PAM  SN ES   1   1841 45.16                             149    0.4213 79.7  43 
 RUS  HZ EP   1   1841 28.94                             142   -0.3013  103 173 
 RUS  HN ES   1   1841 47.71                             142    0.1413  103 173 
 RUS  HZ I        1841 48.82        12.5 0.38            143            103 173 
 PTB  HZ EP   1   1841 31.67                             132   -0.2412  143 258 
 PTB  HN ES   1   1841 52.13                             132   -0.2012  143 258 
 PTB  HZ I        1841 54.70         9.1 0.24            132            143 258 
 OCA  HZ EP   1   1841 33.23                             129   -0.2812  158 355 
 OCA  HN ES   1   1841 54.75                             129   -0.4212  158 355 
 OCA  HZ I        1842  0.58        33.9 0.40            129            158 355 
 ZAR  HN ES   1   1842  2.57                             122    0.6011  198 292 
 NOR  SZ EP   1   1841 41.11                             118    0.2510  231 233 
 NOR  SN ES   1   1842  8.02                             118   -0.2410  231 233 
 CHI  HZ EP   1   1841 43.23                             116    0.0010  249 194 
 CHI  HN ES   1   1842 11.98                             116   -0.5010  249 194 
 CHI  HZ I        1842 15.98        10.1 0.47            117            249 194 
 PRA  HZ EP   1   1841 59.15                             106    0.17 7  391 209 
 PRA  HN ES       1842 41.18                             106    0.6710  391 209 
 PRA  HZ I        1842 48.33        22.6 0.31            106            391 209 
                                                                                
