 2016  7 6 1048 15.9 L   6.770 -73.157147.6  RSN  8 0.3 1.7LRSN                1
 GAP=234        0.57       3.2     3.5  4.2  0.2305E+01  0.3211E+01  0.2403E+01E
 Epicentro: LOS SANTOS - SANTANDER                                             3
 ACTION:UPD 17-03-29 16:47 OP:lp   STATUS:               ID:20160706104815 L   I
 OLDACT:REG 16-07-06 20:32 OP:dnl  STATUS:               ID:20160706104745     3
 2016-07-06-1047-45M.COL___310                                                 6
 STAT SP IPHASW D HRMM SECON CODA AMPLIT PERI AZIMU VELO AIN AR TRES W  DIS CAZ7
 BAR2 EZ EP       1048 35.59                             172   -0.0710 19.9 188 
 BAR2 EZ ES       1048 50.77                             172   -0.3210 19.9 188 
 BAR2 EZ I        1048 53.42        11.2 0.24            165           19.9 188 
 BRR  HZ EP       1048 37.46                             153    0.2110 71.8 301 
 BRR  HN ES       1048 54.25                             153    0.3210 71.8 301 
 RUS  HZ EP   2   1048 39.29                             145   -0.29 5 97.4 175 
 RUS  HE ES   2   1048 58.51                             145    0.45 5 97.4 175 
 RUS  HZ I        1048 59.64         4.4 0.34            142           97.4 175 
 PTB  HZ EP       1048 42.45                             133   -0.38 9  146 260 
 PTB  HN ES       1049  3.70                             133   -0.15 9  146 260 
 PTB  HZ I        1049  5.97         4.8 0.16            131            146 260 
 SPBC HZ EP   2   1048 44.33                             130    0.13 5  160 219 
 SPBC HN ES       1049  6.50                             130    0.21 9  160 219 
 SPBC HZ I        1049 13.51         7.6 0.28            128            160 219 
 ZAR  HZ EP   2   1048 48.58                             123    0.12 4  204 293 
 ZAR  HN ES       1049 13.80                             123   -0.07 9  204 293 
 ZAR  HZ I        1049 18.82         4.3 0.28            123            204 293 
 GUY2CHZ EP   4   1049  1.00                             113    1.76 0  298 235 
 GUY2CHN ES   2   1049 33.09                             113    0.02 4  298 235 
 GUY2CHZ I        1049 41.97         2.6 0.62                           298 235 
 PRA  HZ EP       1049  9.48                             107    0.43 6  389 210 
 PRA  HE ES   2   1049 50.07                             107   -0.46 3  389 210 
 PRA  HZ I        1049 57.85         2.5 0.44            107            389 210 
                                                                                
