 2013  3 6 1027 42.9 L   6.738 -73.185143.8  RSN  5 0.4 2.0LRSN                1
 GAP=228        0.96       8.6     6.7  8.0  0.3331E+02  0.1073E+02  0.1143E+02E
 Epicentro: VILLANUEVA - SANTANDER                                             3
 ACTION:UPD 13-04-09 14:00 OP:ep   STATUS:               ID:20130306102742 L   I
 2013-03-06-1018-48M.COL___184                                                 6
 STAT SP IPHASW D HRMM SECON CODA AMPLIT PERI AZIMU VELO AIN AR TRES W  DIS CAZ7
 BAR2 SZ EP       1028  2.13                             174   -0.0310 16.1 179 
 BAR2 SZ ES       1028 16.50                             174   -0.6910 16.1 179 
 BAR2 SZ I        1028 18.55        14.8 0.16            168           16.1 179 
 BRR  HZ EP       1028  3.96                             152    0.1410 71.2 305 
 BRR  HN ES       1028 20.66                             152    0.5110 71.2 305 
 BRR  HN I        1028 21.41        23.3 0.16            151           71.2 305 
 RUS  HZ EP       1028  6.14                             145    0.1610 94.1 173 
 RUS  HN ES   2   1028 25.06                             145    1.06 5 94.1 173 
 PTB  HZ EP       1028  8.92                             133   -0.28 9  142 261 
 PTB  HE ES       1028 29.53                             133   -0.20 9  142 261 
 PTB  HN I        1028 35.15        13.6 0.36            131            142 261 
 ZAR  HE ES       1028 40.28                             122    0.10 9  203 294 
                                                                                
