 2010  4 6 1149 15.4 L   6.784 -73.090146.6  RSN 10 0.3 2.4LRSN                1
 GAP=206        0.63       3.6     6.2  5.2 -0.4329E+01  0.1143E+02  0.3063E+01E
 Epicentro: LOS SANTOS - SANTANDER                                             3
 ACTION:UPD 10-08-24 09:58 OP:vdl  STATUS:               ID:20100406114915 L   I
 2010-04-06-1148-00S.COL___098                                                 6
 STAT SP IPHASW D HRMM SECON CODA AMPLIT PERI AZIMU VELO AIN AR TRES W  DIS CAZ7
 BAR2 SZ IP       1149 35.23                             170     0.110   24 206 
 BAR2 SZ ES   1   1149 50.49                             170     0.0 7   24 206 
 BRR  HZ EP       1149 37.36                             151     0.410   78 298 
 BRR  HE ES   2   1149 53.61                             151    -0.2 5   78 298 
 BRR  HZ I        1149 55.82        57.8 0.15                            78 298 
 OCA  SZ EP       1149 43.69                             130    -0.3 9  163 351 
 OCA  SZ I        1150 15.06        38.7 0.35                           163 351 
 CHI  HZ EP       1149 53.16                             117     0.0 8  249 197 
 CHI  HN ES   2   1150 22.15                             117    -0.4 4  249 197 
 CHI  HZ I        1150 26.36         8.0 0.47                           249 197 
 ROSC BZ EP   2   1149 53.57                             117    -0.2 4  254 212 
 ROSC BN ES   3   1150 23.10                             117    -0.5 2  254 212 
 ROSC BZ I        1150 33.01        13.6 0.43                           254 212 
 HEL  HZ EP       1149 56.42                             115     0.2 7  278 256 
 HEL  HN ES   2   1150 28.31                             115     0.2 4  278 256 
 HEL  HZ I        1150 33.94        10.3 0.40                           278 256 
 RREF BZ EP       1150  2.32                             111     0.4 7  325 230 
 RREF BE ES   2   1150 38.51                             111     0.2 3  325 230 
 DBB  SZ EP       1150  2.86                             109    -0.8 6  346 274 
 TOL  SZ EP       1150  4.16                             109     0.1 6  347 226 
 TOL  SZ ES   3   1150 41.44                             109    -0.5 2  347 226 
 PRA  HZ EP       1150  8.72                             107    -0.4 6  394 210 
 PRA  HE ES   2   1150 51.09                             107     0.1 3  394 210 
 PRA  HZ I        1150 55.40         8.9 0.30                           394 210 
                                                                                
