 2016  4 6 1053  8.5 L   6.745 -73.026143.0  RSN  6 0.4 1.7LRSN                1
 GAP=155        0.98       5.6     8.1  6.8 -0.2886E+02  0.1713E+02  0.1611E+01E
 Epicentro: ARATOCA - SANTANDER                                                3
 ACTION:UPD 16-05-05 14:19 OP:rebc STATUS:               ID:20160406105308 L   I
 OLDACT:REG 16-04-06 20:46 OP:drio STATUS:               ID:20160406104747     3
 2016-04-06-1047-47M.COL___273                                                 6
 STAT SP IPHASW D HRMM SECON CODA AMPLIT PERI AZIMU VELO AIN AR TRES W  DIS CAZ7
 BAR2 EZ EP       1053 27.45                             170   -0.3410 24.2 226 
 BAR2 EZ ES       1053 42.28                             170   -0.5810 24.2 226 
 BAR2 EZ I        1053 43.88        11.7 0.22            168           24.2 226 
 PAM  EZ EP       1053 30.42                             151    0.1710 75.0  29 
 PAM  EN ES       1053 47.53                             151    0.2910 75.0  29 
 PAM  EZ I        1053 48.18         5.0 0.20            154           75.0  29 
 RUS  HZ EP       1053 31.51                             145   -0.0110 94.5 184 
 RUS  HE ES       1053 50.03                             145    0.5410 94.5 184 
 RUS  HZ I        1053 51.12         3.8 0.18            145           94.5 184 
 SPBC HZ EP       1053 37.27                             128    0.11 9  167 224 
 SPBC HE ES       1053 59.18                             128   -0.36 9  167 224 
 SPBC HZ I        1054  2.96        10.3 0.60            128            167 224 
 CHI  HZ EP       1053 45.59                             117   -0.21 8  247 199 
 CHI  HE ES       1054 14.83                             117   -0.09 8  247 199 
 CHI  HZ I        1054 18.98         3.8 0.60            117            247 199 
 GUY2CHZ EP       1053 52.46                             111   -0.35 7  309 237 
 GUY2CHN ES       1054 28.42                             111    1.02 7  309 237 
 GUY2CHZ I        1054 33.83         3.1 0.54                           309 237 
                                                                                
