 2013  7 6 1627 20.4 L   6.825 -73.126144.0  RSN 16 0.5 2.8LRSN                1
 GAP= 55        1.14       2.9     3.2  5.1 -0.1209E+01  0.1909E+01  0.2687E+01E
 Epicentro: LOS SANTOS - SANTANDER                                             3
 ACTION:UPD 13-08-12 10:35 OP:ep   STATUS:               ID:20130706162720 L   I
 OLDACT:UP  13-07-08 11:28 OP:ep   STATUS:               ID:20130706162720 L   3
 OLDACT:UP  13-07-08 05:43 OP:CF   STATUS:               ID:20130706162720 L   3
 OLDACT:REG 13-07-06 16:01 OP:stll STATUS:               ID:20130706161836     3
 2013-07-06-1618-36M.COL___219                                                 6
 STAT SP IPHASW D HRMM SECON CODA AMPLIT PERI AZIMU VELO AIN AR TRES W  DIS CAZ7
 BAR2 SZ EP       1627 39.92                             169    0.0210 26.5 194 
 BAR2 SZ ES       1627 54.54                             169   -0.5610 26.5 194 
 BAR2 SZ I        1627 55.75        62.8 0.26            168           26.5 194 
 GIR2 SZ EP       1627 39.81                             168   -0.0010 29.0 345 
 GIR2 SZ ES       1627 54.21                             168   -0.7410 29.0 345 
 BRR  HZ IP     C 1627 41.61                             152    0.2010 71.9 296 
 BRR  HN ES       1627 58.34                             152    0.5510 71.9 296 
 BRR  HN I        1627 59.09       320.0 0.14            149           71.9 296 
 GRA  SZ EP       1627 45.87                             137    0.6510  122  17 
 GRA  SZ ES       1628  5.30                             137    0.7310  122  17 
 TAM  HZ IP     D 1627 48.31                             130    0.49 9  154 106 
 TAM  HN ES       1628  9.15                             130   -0.04 9  154 106 
 OCA  HZ EP       1627 47.96                             130   -0.39 9  158 352 
 OCA  HE ES       1628 10.47                             130    0.32 9  158 352 
 OCA  HE I        1628 14.36       229.2 0.28            129            158 352 
 ZAR  HZ EP       1627 52.70                             122   -0.15 9  205 291 
 ZAR  HE ES       1628 17.62                             122   -0.53 9  205 291 
 AGZ  SZ EP       1627 54.37                             120   -0.19 8  221 161 
 NOR  HZ EP       1627 55.78                             118   -0.63 8  238 234 
 NOR  HN ES       1628 23.92                             118   -0.56 8  238 234 
 NOR  HN I        1628 30.59        50.1 0.16            117            238 234 
 SML  HZ EP       1627 56.22                             117   -0.55 8  242 335 
 SML  HN ES       1628 24.87                             117   -0.26 8  242 335 
 SML  HN I        1628 28.86       120.8 0.10            116            242 335 
 CHI  HZ EP       1627 58.20                             116   -0.17 8  252 195 
 CHI  HN ES       1628 28.16                             116    0.19 8  252 195 
 CHI  HN I        1628 33.66        24.3 0.26            116            252 195 
 HEL  HZ EP       1628  1.77                             114    0.92 8  275 255 
 HEL  HN ES       1628 33.09                             114    0.70 8  275 255 
 HEL  HN I        1628 39.45        21.7 0.34            113            275 255 
 SOCV BZ EP       1628  2.49                             112   -0.51 7  298  57 
 SOCV BZ ES   4   1628 33.61                             112   -2.60 0  298  57 
 GUY2CHZ EP       1628  4.31                             112   -0.01 7  305 235 
 GUY2CHN ES       1628 39.09                             112    0.51 7  305 235 
 COD  HZ EP       1628  7.75                             109   -0.67 6  346 354 
 COD  HN ES   4   1628 43.92                             109   -1.95 0  346 354 
 COD  HN I        1628 52.62        12.2 0.78            108            346 354 
 ORTC HN ES       1628 57.57                             106    0.55 6  399 216 
                                                                                
