 2013  5 6 1323 27.0 L   6.810 -73.170147.4  RSN  5 0.3 1.6LRSN                1
 GAP=133        0.70       4.1     4.2  7.0 -0.7429E+01  0.1217E+02 -0.6093E+01E
 Epicentro: LOS SANTOS - SANTANDER                                             3
 ACTION:UPD 13-06-20 09:48 OP:ep   STATUS:               ID:20130506132327 L   I
 2013-05-06-1320-00M.COL___253                                                 6
 STAT SP IPHASW D HRMM SECON CODA AMPLIT PERI AZIMU VELO AIN AR TRES W  DIS CAZ7
 PAM  SZ EP     C 1323 49.48                             151    0.0610 78.3  42 
 PAM  SN ES       1324  6.84                             151   -0.0810 78.3  42 
 PAM  SZ I        1324  8.84        14.0 0.58            156           78.3  42 
 RUS  HZ EP   1   1323 50.40                             144   -0.58 7  102 175 
 RUS  HZ I        1323 51.36         3.0 0.46            147            102 175 
 RUS  HN ES       1324  9.96                             144    0.2610  102 175 
 PTB  HZ EP   1   1323 53.43                             133   -0.43 7  145 258 
 PTB  HN ES       1324 14.69                             133   -0.13 9  145 258 
 PTB  HZ I        1324 20.45         4.7 0.28            132            145 258 
 NOR  HZ EP   1   1324  2.76                             119    0.13 6  233 234 
 NOR  HN ES   1   1324 30.80                             119    0.36 6  233 234 
 NOR  HZ I        1324 38.38         4.4 0.54            120            233 234 
 SML  HZ EP   1   1324  4.11                             118    0.64 6  242 336 
                                                                                
