 2012 11 6 1119 14.5 L   6.779 -73.130141.1  RSN 10 0.5 2.5LRSN                1
 GAP=139        0.97       4.3     4.7  6.4  0.2306E+00  0.9028E+01  0.7349E+01E
 Epicentro: LOS SANTOS - SANTANDER                                             3
 ACTION:UPD 12-12-05 15:31 OP:}ep  STATUS:               ID:20121106111914 L   I
 2012-11-06-1117-36M.COL___190                                                 6
 STAT SP IPHASW D HRMM SECON CODA AMPLIT PERI AZIMU VELO AIN AR TRES W  DIS CAZ7
 BAR2 SZ IP       1119 33.56                             171    0.0110 21.4 196 
 BAR2 SZ ES   1   1119 47.96                             171   -0.43 7 21.4 196 
 BAR2 SZ I        1119 49.12       121.1 0.30                          21.4 196 
 GIR2 SZ IP     C 1119 33.63                             166   -0.0910 33.9 348 
 GIR2 SZ ES   1   1119 48.43                             166   -0.25 7 33.9 348 
 BRR  HZ IP     C 1119 35.49                             151    0.1710 73.8 300 
 BRR  HN ES   1   1119 52.41                             151    0.87 7 73.8 300 
 BRR  HN I        1119 56.35       120.0 0.18                          73.8 300 
 PAM  SZ EP       1119 36.45                             149    0.1610 78.2  37 
 PAM  SN ES   1   1119 53.22                             149   -0.05 7 78.2  37 
 PAM  SZ I        1119 53.97        32.2 0.38                          78.2  37 
 RUS  HZ EP       1119 37.90                             143    0.2610 98.1 177 
 RUS  HN ES   1   1119 55.73                             143    0.06 7 98.1 177 
 RUS  HN I        1119 57.73        41.3 0.44                          98.1 177 
 PTB  HZ EP       1119 40.29                             131   -0.94 9  149 260 
 PTB  HN ES   1   1120  1.04                             131   -1.01 7  149 260 
 ZAR  HZ EP       1119 46.82                             121   -0.11 8  207 293 
 ZAR  HE ES   1   1120 12.75                             121    0.55 6  207 293 
 ZAR  HE I        1120 17.06        92.7 0.18                           207 293 
 CHI  HZ EP   1   1119 52.12                             116    0.35 6  247 196 
 CHI  HN ES   1   1120 21.33                             116    0.51 6  247 196 
 HEL  HZ EP   2   1119 55.08                             114    0.46 4  273 256 
 HEL  HN ES   1   1120 26.76                             114    0.86 6  273 256 
 HEL  HN I        1120 33.39        12.6 0.56                           273 256 
 PRA  HZ EP       1120  7.54                             106   -0.21 6  391 210 
 PRA  HN ES   1   1120 49.10                             106   -0.16 4  391 210 
 PRA  HN I        1120 54.60         3.7 0.36                           391 210 
                                                                                
