 2017  5 6 1340 58.2 L   6.803 -73.195149.1  RSN  4 0.4 1.6LRSN                1
 GAP=144        1.00       5.9     5.4  9.4 -0.5684E+01  0.3681E+01  0.9016E+01E
 Epicentro: ZAPATOCA - SANTANDER                                               3
 ACTION:UPD 17-06-16 13:33 OP:jn   STATUS:               ID:20170506134058 L   I
 OLDACT:REG 17-05-06 20:56 OP:ar   STATUS:               ID:20170506133740     3
 2017-05-06-1338-00M.COL___376                                                 6
 STAT SP IPHASW D HRMM SECON CODA AMPLIT PERI AZIMU VELO AIN AR TRES W  DIS CAZ7
 PAM  EZ EP       1341 21.29                             150    0.2910 80.7  43 
 PAM  EE ES       1341 38.60                             150   -0.1510 80.7  43 
 PAM  EZ I        1341 40.51        11.9 0.48            153           80.7  43 
 RUS  HZ EP       1341 22.63                             144    0.2610  101 173 
 RUS  HN ES       1341 40.96                             144   -0.2410  101 173 
 RUS  HZ I        1341 41.67         4.6 0.24            148            101 173 
 PTB  HZ EP       1341 24.21                             134   -0.79 9  142 258 
 PTB  HN ES       1341 46.36                             134    0.48 9  142 258 
 PTB  HZ I        1341 52.27         5.2 0.42            134            142 258 
 YPLC HZ EP       1341 28.71                             127    0.15 9  180 150 
                                                                                
