 2013  1 6 1922 52.0 L   6.796 -73.156145.7  RSN  6 0.4 1.8LRSN                1
 GAP=236        0.90       7.0     6.5  8.3  0.1175E+02  0.1301E+02  0.1214E+01E
 Epicentro: LOS SANTOS - SANTANDER                                             3
 ACTION:UPD 13-02-15 09:12 OP:ep   STATUS:               ID:20130106192252 L   I
 2013-01-06-1920-00M.COL___242                                                 6
 STAT SP IPHASW D HRMM SECON CODA AMPLIT PERI AZIMU VELO AIN AR TRES W  DIS CAZ7
 BAR2 SZ EP       1923 11.52                             171   -0.0910 22.7 187 
 BAR2 SZ ES       1923 26.39                             171   -0.5110 22.7 187 
 BAR2 SZ I        1923 28.79        19.1 0.28            165           22.7 187 
 BRR  HZ EP       1923 13.59                             152    0.4910 70.5 299 
 BRR  HN ES   1   1923 30.11                             152    0.55 7 70.5 299 
 BRR  HZ I        1923 30.66        10.5 0.46            147           70.5 299 
 RUS  HZ EP   1   1923 15.52                             144   -0.20 7  100 175 
 RUS  HN ES   1   1923 34.62                             144    0.41 7  100 175 
 RUS  HZ I        1923 35.79         7.7 0.30            143            100 175 
 PTB  HZ EP   1   1923 18.72                             132   -0.13 7  147 259 
 PTB  HN ES   1   1923 39.29                             132   -0.51 7  147 259 
 PTB  HZ I        1923 44.61         5.5 0.20            128            147 259 
 ZAR  HN ES   2   1923 48.81                             122   -0.78 4  203 292 
 ZAR  HZ I        1923 57.50         5.4 0.40            120            203 292 
 NOR  HN ES   1   1923 55.74                             118    0.37 6  234 234 
 NOR  HZ I        1924  0.50         5.7 0.22            117            234 234 
                                                                                
