 2016 12 6 1003 11.8 L   6.808 -73.161145.5  RSN 20 0.4 2.5LRSN                1
 GAP=102        0.98       3.3     2.8  5.0 -0.5233E+00  0.2998E+01  0.4486E+01E
 Epicentro: LOS SANTOS - SANTANDER                                             3
 ACTION:UPD 17-01-11 20:12 OP:rebc STATUS:               ID:20161206100311 L   I
 OLDACT:UP  16-12-06 21:23 OP:dnl  STATUS:               ID:20161206095743     3
 OLDACT:UP  16-12-06 21:22 OP:dnl  STATUS:               ID:20161206095743     3
 OLDACT:UP  16-12-06 21:22 OP:dnl  STATUS:               ID:20161206095743     3
 OLDACT:REG 16-12-06 20:44 OP:dnl  STATUS:               ID:20161206095743     3
 2016-12-06-0958-00M.COL___346                                                 6
 STAT SP IPHASW D HRMM SECON CODA AMPLIT PERI AZIMU VELO AIN AR TRES W  DIS CAZ7
 BAR2 EZ EP       10 3 31.35                             170   -0.0210 24.0 186 
 BAR2 EZ ES       10 3 46.26                             170   -0.4110 24.0 186 
 BAR2 EZ I        10 3 48.38        76.6 0.30            167           24.0 186 
 BRR  HZ EP       10 3 33.08                             153    0.3110 69.3 299 
 BRR  HN ES       10 3 49.66                             153    0.5010 69.3 299 
 BRR  HZ I        10 3 53.45        32.0 0.30            151           69.3 299 
 PAM  EZ EP       10 3 34.24                             151    0.2710 77.7  41 
 PAM  EN ES       10 3 51.20                             151   -0.0910 77.7  41 
 PAM  EZ I        10 3 53.48        71.9 0.48            156           77.7  41 
 RUS  HZ EP       10 3 35.38                             143   -0.1810  102 175 
 RUS  HN ES       10 3 54.37                             143    0.2410  102 175 
 RUS  HZ I        10 3 55.07        48.0 0.26            144            102 175 
 PTB  HZ EP       10 3 37.79                             132   -0.78 9  146 258 
 PTB  HN ES       10 3 58.94                             132   -0.54 9  146 258 
 PTB  HZ I        10 4  6.01        50.3 0.80            131            146 258 
 TAM  HZ IP     D 10 3 39.71                             130    0.12 9  157 105 
 TAM  HN ES       10 4  1.51                             130    0.22 9  157 105 
 TAM  HZ I        10 4  2.27        12.0 0.28            134            157 105 
 ZAR  HZ EP       10 3 43.76                             123   -0.23 9  202 292 
 ZAR  HE ES       10 4  9.08                             123   -0.05 9  202 292 
 ZAR  HZ I        10 4 14.80        18.7 0.12            123            202 292 
 NOR  HZ EP       10 3 47.38                             118   -0.00 8  234 234 
 NOR  HE ES       10 4 15.62                             118    0.45 8  234 234 
 NOR  HZ I        10 4 19.99        23.6 0.26            119            234 234 
 CHI  HZ EP       10 3 49.49                             117    0.00 8  249 195 
 CHI  HN ES       10 4 18.32                             117   -0.60 8  249 195 
 CHI  HZ I        10 4 22.28        18.5 0.56            118            249 195 
 ROSC BZ EP   9   10 3 51.37                             117    1.52 0  253 211 
 ROSC BN ES       10 4 21.88                             117    0.79 8  253 211 
 ROSC BZ I        10 4 29.52        27.1 0.30            117            253 211 
 URE  HZ EP   4   10 3 51.02                             114   -1.58 0  282 292 
 URE  HN ES   4   10 4 22.26                             114   -2.19 0  282 292 
 URE  HZ I        10 4 34.00        17.5 0.20            114            282 292 
 PTGC HZ EP   4   10 3 54.45                             111   -1.32 0  310 158 
 PTGC HE ES   4   10 4 27.84                             111   -2.26 0  310 158 
 PTGC HZ I        10 4 32.75        21.6 0.28            113            310 158 
 LL6C HZ EP   4   10 3 37.00                             110   -20.3 0  324 358 
 LL6C HE ES   4   10 4 11.86                             110   -21.0 0  324 358 
 LL6C HZ I        10 4 26.03         9.1 0.44            112            324 358 
 CBOC HZ EP   4   10 3 59.70                             110    1.19 0  332 252 
 CBOC HE ES       10 4 35.78                             110    0.81 7  332 252 
 CBOC HZ I        10 4 40.86         5.2 0.62            110            332 252 
 ANIL HZ EP   4   10 4  2.98                             108    1.49 0  357 224 
 ANIL HN ES   4   10 4 43.61                             108    3.33 0  357 224 
 ANIL HZ I        10 4 45.76        39.9 0.28            109            357 224 
 PRA  HZ EP       10 4  4.97                             106   -0.29 6  392 209 
 PRA  HN ES       10 4 46.85                             106   -0.15 6  392 209 
 PRA  HZ I        10 4 51.78        13.3 0.76            107            392 209 
 ORTC HZ EP       10 4  5.49                             106   -0.15 6  395 216 
 ORTC HN ES       10 4 48.72                             106    1.05 6  395 216 
 ORTC HZ I        10 4 52.66        10.0 0.30            107            395 216 
 SJC  HZ EP   4   10 4  5.06                             106   -2.05 0  408 327 
 SJC  HN ES   4   10 4 46.45                             106   -3.83 0  408 327 
 SJC  HZ I        10 4 52.93         3.7 0.26            107            408 327 
 CRJC HZ EP   4   10 4 11.53                             103   -2.62 0  467   4 
 CRJC HE ES   4   10 5  0.02                             103   -2.79 0  467   4 
 CRJC HZ I        10 5  3.68        10.7 0.18            105            467   4 
 MACC HZ EP   4   10 4 18.12                             102   -2.42 0  521 188 
 MACC HE ES   4   10 5 11.48                             102   -2.71 0  521 188 
 MACC HZ I        10 5 16.39         3.6 0.70            102            521 188 
                                                                                
