 2014  2 6 1041  1.3 L   6.885 -73.294120.9  RSN  7 0.4 1.7LRSN                1
 GAP=107        1.00       3.5     4.2  8.1  0.1452E+01  0.6105E+01 -0.1216E+02E
 Epicentro: BETULIA - SANTANDER                                                3
 ACTION:UPD 14-03-10 08:07 OP:ep   STATUS:               ID:20140206104101 L   I
 OLDACT:REG 14-02-06 14:07 OP:nd   STATUS:               ID:20140206104000     3
 2014-02-06-1040-00M.COL___291                                                 6
 STAT SP IPHASW D HRMM SECON CODA AMPLIT PERI AZIMU VELO AIN AR TRES W  DIS CAZ7
 BAR2 SZ EP       1041 18.50                             163    0.2410 34.6 159 
 BAR2 SZ ES       1041 31.43                             163   -0.0710 34.6 159 
 BAR2 SZ I        1041 32.64        83.4 0.26            170           34.6 159 
 PAM  SZ EP       1041 21.92                             144    0.6410 82.8  53 
 PAM  SN ES   2   1041 37.57                             144    0.68 5 82.8  53 
 PAM  SZ I        1041 43.36         3.4 0.68            148           82.8  53 
 RUS  HZ EP       1041 23.57                             134   -0.0710  112 168 
 RUS  HN ES       1041 40.58                             134   -0.5110  112 168 
 RUS  HZ I        1041 46.82         4.9 2.00            144            112 168 
 PTB  HN ES       1041 43.55                             129    0.0510  134 254 
 PTB  HZ I        1041 45.99         5.9 0.07            135            134 254 
 OCA  HZ EP       1041 26.68                             125   -0.04 9  150 359 
 OCA  HN ES       1041 46.27                             125   -0.30 9  150 359 
 OCA  HZ I        1041 54.84         6.3 1.18            130            150 359 
 ZAR  HZ EP       1041 29.94                             119   -0.26 9  185 291 
 ZAR  HN ES       1041 53.48                             119    0.71 9  185 291 
 ZAR  HZ I        1042  1.70         3.9 0.10            124            185 291 
 SML  HZ EP       1041 34.93                             113    0.00 8  229 338 
 SML  HN ES       1042  0.41                             113   -0.77 8  229 338 
 SML  HZ I        1042  5.69         8.9 0.10            118            229 338 
                                                                                
