 2015 10 6 1836 44.4 L   6.818 -73.141145.1  RSN 17 0.4 2.4LRSN                1
 GAP= 71        0.80       2.2     2.6  4.4 -0.5044E+00  0.4145E+01  0.1506E+01E
 Epicentro: LOS SANTOS - SANTANDER                                             3
 ACTION:UPD 15-12-22 20:37 OP:cam  STATUS:               ID:20151006183644 L   I
 OLDACT:REG 15-10-06 21:41 OP:spq  STATUS:               ID:20151006182750     3
 2015-10-06-1827-50M.COL___310                                                 6
 STAT SP IPHASW D HRMM SECON CODA AMPLIT PERI AZIMU VELO AIN AR TRES W  DIS CAZ7
 BAR2 EZ IP     C 1837  3.83                             170   -0.1810 25.3 190 
 BAR2 EZ ES   1   1837 18.82                             170   -0.48 7 25.3 190 
 BAR2 EZ I        1837 22.00        31.3 0.18            169           25.3 190 
 BRR  HZ IP     C 1837  5.62                             153    0.1510 70.7 297 
 BRR  HN ES       1837 22.54                             153    0.6510 70.7 297 
 BRR  HZ I        1837 23.30        43.1 0.14            150           70.7 297 
 PAM  EZ EP       1837  6.56                             151    0.1010 75.6  40 
 PAM  EE ES       1837 23.76                             151    0.1110 75.6  40 
 PAM  EZ I        1837 24.35        34.3 0.18            154           75.6  40 
 RUS  HZ EP       1837  7.87                             143   -0.3810  103 176 
 RUS  HE ES       1837 26.42                             143   -0.4110  103 176 
 RUS  HZ I        1837 27.75        16.2 0.30            144            103 176 
 TAM  HE ES       1837 34.28                             130    0.68 9  155 106 
 TAM  HZ I        1837 36.81        22.1 0.66            133            155 106 
 OCA  HZ EP   1   1837 12.17                             130   -0.33 7  158 353 
 OCA  HE ES       1837 33.92                             130   -0.48 9  158 353 
 OCA  HZ I        1837 38.28        52.0 0.26            130            158 353 
 SPBC HZ EP       1837 12.98                             129   -0.06 9  165 219 
 SPBC HN ES       1837 35.10                             129   -0.27 9  165 219 
 SPBC HZ I        1837 42.42        30.9 0.22            128            165 219 
 ZAR  HZ EP   1   1837 17.15                             122    0.36 6  204 292 
 ZAR  HE ES       1837 42.10                             122    0.06 9  204 292 
 ZAR  HZ I        1837 47.62        39.9 0.58            122            204 292 
 NOR  HZ EP       1837 20.14                             118   -0.13 8  236 234 
 NOR  HE ES       1837 48.06                             118   -0.18 8  236 234 
 NOR  HZ I        1837 53.91        26.3 0.16            118            236 234 
 SML  HZ EP   1   1837 20.75                             117   -0.09 6  242 335 
 SML  HN ES   2   1837 48.95                             117   -0.29 4  242 335 
 SML  HZ I        1837 56.29        32.3 0.06            118            242 335 
 CHI  HZ EP       1837 22.21                             117   -0.09 8  251 195 
 CHI  HN ES   1   1837 51.92                             117    0.07 6  251 195 
 CHI  HZ I        1837 55.35         8.6 0.38            117            251 195 
 HEL  HZ EP   1   1837 25.29                             114    0.59 6  273 255 
 HEL  HE ES       1837 56.18                             114    0.06 8  273 255 
 HEL  HZ I        1838  2.10        14.8 0.30            114            273 255 
 GUY2CHZ EP       1837 28.12                             112   -0.05 7  303 235 
 GUY2CHN ES   1   1838  3.09                             112    0.80 5  303 235 
 GUY2CHZ I        1838 12.05        12.4 0.74                           303 235 
 PTGC HZ EP   4   1837 27.23                             111   -1.20 0  310 159 
 PTGC HN ES   4   1838  1.10                             111   -1.66 0  310 159 
 PTGC HZ I        1838  2.51        23.9 0.42            112            310 159 
 DBB  SZ EP       1837 31.57                             109   -0.34 7  340 274 
 DBB  SZ ES   4   1838  7.44                             109   -1.51 0  340 274 
 DBB  SZ I        1838 20.13        23.9 0.32            109            340 274 
 ANIL HZ EP   4   1837 36.26                             108    1.86 0  359 224 
 ANIL HN ES   4   1838 15.13                             108    1.75 0  359 224 
 ORTC HZ EP   1   1837 38.73                             106    0.20 4  397 216 
 ORTC HE ES       1838 21.57                             106    0.83 6  397 216 
 ORTC HZ I        1838 26.51         7.2 0.18            107            397 216 
 SJC  HZ EP   4   1837 38.01                             106   -1.79 0  408 327 
 SJC  HN ES   4   1838 19.20                             106   -3.79 0  408 327 
 SJC  HZ I        1838 27.68         3.4 0.30            106            408 327 
                                                                                
