 2013  3 6 1754 44.6 L   6.750 -73.167147.1  RSN  6 0.4 2.1LRSN                1
 GAP=136        1.12       5.9     5.8  8.0 -0.2941E+01  0.5216E+01  0.3902E+01E
 Epicentro: VILLANUEVA - SANTANDER                                             3
 ACTION:UPD 13-04-09 14:00 OP:ep   STATUS:               ID:20130306175444 L   I
 2013-03-06-1748-50M.COL___202                                                 6
 STAT SP IPHASW D HRMM SECON CODA AMPLIT PERI AZIMU VELO AIN AR TRES W  DIS CAZ7
 BAR2 SZ EP       1755  4.47                             173    0.1710 17.5 186 
 BAR2 SZ ES       1755 19.80                             173    0.1410 17.5 186 
 BAR2 SZ I        1755 20.95        51.8 0.22            171           17.5 186 
 BRR  HZ EP       1755  6.35                             152    0.3910 72.0 303 
 BRR  HN ES       1755 23.35                             152    0.7510 72.0 303 
 BRR  HE I        1755 27.09        28.7 0.20            150           72.0 303 
 PAM  SZ EP       1755  7.25                             149   -0.0710 83.1  38 
 PAM  SZ I        1755  7.52        11.3 0.20            153           83.1  38 
 PAM  SN ES       1755 24.36                             149   -0.6710 83.1  38 
 RUS  HZ EP       1755  8.32                             146    0.1910 95.3 174 
 RUS  HN ES       1755 26.43                             146   -0.0310 95.3 174 
 RUS  HE I        1755 28.28        18.5 0.18            148           95.3 174 
 PTB  HZ EP       1755 11.28                             133   -0.12 9  144 261 
 PTB  HN ES       1755 31.43                             133   -0.86 9  144 261 
 PTB  HE I        1755 38.06        17.5 0.22            132            144 261 
 CHI  HZ EP   2   1755 21.61                             118   -0.14 4  243 195 
                                                                                
