 2017 11 6 1125  2.8 L   6.857 -73.164150.9  RSN 16 0.7 2.0LRSN                1
 GAP= 77        1.05       3.8     3.4  6.8  0.6277E+00  0.3471E+01  0.8108E+01E
 Epicentro: ZAPATOCA - SANTANDER                                               3
 ACTION:UPD 17-12-12 19:52 OP:rebc STATUS:               ID:20171106112502 L   I
 OLDACT:UP  17-11-06 22:59 OP:mg   STATUS:               ID:20171106111745d    3
 OLDACT:DUP 17-11-06 22:48 OP:mg   STATUS:               ID:20171106111745d    3
 OLDACT:UP  17-11-06 22:48 OP:mg   STATUS:               ID:20171106111744d    3
 OLDACT:UP  17-11-06 22:44 OP:mg   STATUS:               ID:20171106111744d    3
 OLDACT:DUP 17-11-06 22:41 OP:mg   STATUS:               ID:20171106111744d    3
 2017-11-06-1118-00M.COL___417                                                 6
 STAT SP IPHASW D HRMM SECON CODA AMPLIT PERI AZIMU VELO AIN AR TRES W  DIS CAZ7
 BAR2 EZ EP     C 1125 22.93                             169   -0.2510 29.4 184 
 BAR2 EZ ES   2   1125 38.15                             169   -0.93 5 29.4 184 
 BAR2 EZ I        1125 39.38        19.9 0.14            167           29.4 184 
 BRR  HZ EP   1   1125 24.60                             155    0.34 7 66.6 295 
 BRR  HN ES       1125 41.71                             155    0.7110 66.6 295 
 BRR  HZ I        1125 42.97        13.5 0.12            155           66.6 295 
 PAM  EZ EP       1125 25.70                             152    0.3210 74.0  44 
 PAM  EN ES       1125 42.92                             152   -0.0610 74.0  44 
 PAM  EZ I        1125 45.77         6.2 0.25            156           74.0  44 
 PTB  HZ EP       1125 29.80                             133   -0.34 9  147 256 
 PTB  HN ES     C 1125 50.40                             133   -1.06 9  147 256 
 PTB  HZ I        1125 53.07        11.4 0.14            133            147 256 
 TAM  HE ES   1   1125 53.26                             131   -0.14 7  159 107 
 TAM  HZ I        1125 53.77        11.8 0.31            133            159 107 
 SPBC HZ EP       1125 32.19                             129    0.14 9  167 217 
 SPBC HN ES       1125 54.44                             129   -0.42 9  167 217 
 SPBC HZ I        1126  0.17        15.5 0.22            129            167 217 
 YPLC HZ EP     C 1125 33.55                             126   -0.06 9  183 152 
 YPLC HN ES       1125 57.72                             126    0.08 9  183 152 
 YPLC HZ I        1126  0.25        16.3 0.22            127            183 152 
 ZAR  HZ EP   2   1125 35.94                             124    0.77 4  200 291 
 ZAR  HN ES       1126  1.03                             124    0.62 9  200 291 
 ZAR  HZ I        1126  6.77        13.9 0.20            125            200 291 
 TABC EZ EP   3   1125 40.57                             120    1.23 2  234 209 
 NOR  HZ EP   1   1125 39.25                             119    0.19 6  237 233 
 NOR  HN ES       1126  7.32                             119   -0.02 8  237 233 
 NOR  HZ I        1126 10.61         8.0 0.32            119            237 233 
 CHI  HZ EP   1   1125 41.58                             117    0.18 6  254 194 
 CHI  HN ES   1   1126 12.00                             117    0.50 6  254 194 
 CHI  HZ I        1126 18.54         4.9 0.36            118            254 194 
 ROSC BZ EP   3   1125 43.40                             117    1.71 2  257 210 
 ROSC BN ES   4   1126 14.18                             117    2.16 0  257 210 
 ROSC BZ I        1126 16.40         8.6 0.50            117            257 210 
 URE  HN ES   2   1126 14.04                             115   -1.50 4  280 291 
 URE  HZ I        1126 18.27         6.0 0.22            116            280 291 
 GUY2CHZ EP   3   1125 49.34                             113    2.45 2  303 234 
 GUY2CHN ES   2   1126 22.89                             113    1.62 4  303 234 
 GUY2CHZ I        1126 27.34         6.1 0.32                           303 234 
 PRA  HZ EP   1   1125 57.47                             107    0.43 4  397 209 
 PRA  HN ES   1   1126 38.84                             107   -0.49 4  397 209 
 PRA  HZ I        1126 43.62         4.7 0.32            108            397 209 
 SJC  HZ EP       1125 57.25                             107   -0.55 6  403 327 
 SJC  HN ES   3   1126 37.67                             107   -3.02 1  403 327 
 SJC  HZ I        1126 41.41         2.6 0.34            108            403 327 
                                                                                
