 2010 10 6 1211 24.3 L   6.737 -73.052130.0  RSN  7 0.4 2.0LRSN                1
 GAP=186        1.14       7.2     9.3  9.0 -0.4568E+02 -0.1176E+02  0.1898E+02E
 Epicentro: ARATOCA - SANTANDER                                                3
 ACTION:UP  11-02-18 11:08 OP:tino STATUS:               ID:20101006121124 L   I
 2010-10-06-1208-03S.COL___121                                                 6
 STAT SP IPHASW D HRMM SECON CODA AMPLIT PERI AZIMU VELO SNR AR TRES W  DIS CAZ7
 BAR2 SZ EP       1211 42.34                             170     0.410   22 222 
 BAR2 SZ ES   1   1211 55.37                             170    -0.4 7   22 222 
 BAR2 SZ I        1211 58.87        52.3 0.55                            22 222 
 BRR  HZ IP     C 1211 44.24                             145    -0.310   84 299 
 BRR  HN ES       1212  0.73                             145     0.310   84 299 
 BRR  HZ I        1212  2.02        54.9 0.15                            84 299 
 GUE  SZ EP       1211 48.44                             134     0.410  122   7 
 GUE  SZ I        1212  8.82         5.0 0.29                           122   7 
 GRA  SZ EP       1211 48.22                             132    -0.310  130  12 
 GRA  SZ ES   1   1212  7.32                             132    -0.1 7  130  12 
 GRA  SZ I        1212  8.62        27.1 0.48                           130  12 
 NOR  SZ EP       1211 58.97                             114    -0.7 8  240 237 
 NOR  SN ES   1   1212 26.88                             114    -0.4 6  240 237 
 NOR  SZ I        1212 29.43         2.8 1.08                           240 237 
 CHI  HN ES   2   1212 29.72                             114     0.5 4  245 198 
 CHI  HZ I        1212 36.13         6.1 1.07                           245 198 
 RREF HZ EP   1   1212 10.99                             108     0.8 5  325 232 
 RREF HN ES       1212 46.39                             108     0.4 7  325 232 
 RREF HZ I        1212 52.46         7.0 0.03                           325 232 
                                                                                
