 2013  3 6 1003 42.3 L   6.822 -73.072142.9  RSN  5 0.4 1.8LRSN                1
 GAP=207        0.87       7.6     9.5  6.8  0.5637E+02 -0.4414E+01 -0.1332E+02E
 Epicentro: LOS SANTOS - SANTANDER                                             3
 ACTION:UPD 13-04-09 14:00 OP:ep   STATUS:               ID:20130306100342 L   I
 2013-03-06-0958-49M.COL___184                                                 6
 STAT SP IPHASW D HRMM SECON CODA AMPLIT PERI AZIMU VELO AIN AR TRES W  DIS CAZ7
 BAR2 SZ IP       10 4  1.85                             169    0.1410 28.2 206 
 BAR2 SZ ES       10 4 16.66                             169   -0.1910 28.2 206 
 BAR2 SZ I        10 4 17.75        12.9 0.22            156           28.2 206 
 BRR  HZ IP     D 10 4  3.65                             150    0.1210 77.5 294 
 BRR  HN ES       10 4 20.63                             150    0.5510 77.5 294 
 BRR  HE I        10 4 21.21        29.4 0.22            141           77.5 294 
 RUS  HZ EP       10 4  5.90                             143   -0.0510  103 181 
 RUS  HN ES       10 4 24.13                             143   -0.2510  103 181 
 RUS  HN I        10 4 25.99         5.0 0.22            137            103 181 
 ZAR  HZ EP       10 4 15.73                             121    0.45 8  211 291 
 ZAR  HN ES       10 4 40.34                             121   -0.65 8  211 291 
 ZAR  HN I        10 4 49.15         6.9 0.46            117            211 291 
 SML  HZ EP   2   10 4 18.74                             117   -0.20 4  245 333 
 SML  HE ES   2   10 4 46.56                             117   -0.94 4  245 333 
                                                                                
