 2014  3 6 1709 11.9 L   6.807 -73.190141.0  RSN  4 0.2 1.4LRSN                1
 GAP=144        0.60       3.6     3.4  5.0 -0.3842E+01  0.4858E+01 -0.1769E+01E
 Epicentro: ZAPATOCA - SANTANDER                                               3
 ACTION:UPD 14-04-09 23:15 OP:nd   STATUS:               ID:20140306170911 L   I
 OLDACT:REG 14-03-06 15:25 OP:stll STATUS:               ID:20140306170819     3
 2014-03-06-1708-19M.COL___244                                                 6
 STAT SP IPHASW D HRMM SECON CODA AMPLIT PERI AZIMU VELO AIN AR TRES W  DIS CAZ7
 BAR2 SZ EP       17 9 30.88                             170   -0.1310 23.8 178 
 BAR2 SZ I        17 9 31.08        12.0 0.34            170           23.8 178 
 BAR2 SZ ES       17 9 45.85                             170   -0.0310 23.8 178 
 PAM  SZ EP       17 9 33.81                             149   -0.0010 80.0  43 
 PAM  SN ES       17 9 50.93                             149    0.0510 80.0  43 
 PAM  SZ I        17 9 52.88         4.4 0.20            154           80.0  43 
 RUS  HZ EP       17 9 35.01                             142   -0.3110  102 173 
 RUS  HE ES       17 9 53.77                             142    0.2210  102 173 
 RUS  HZ I        17 9 56.30         2.7 0.36            146            102 173 
 PTB  HZ EP       17 9 38.51                             132    0.42 9  143 258 
 PTB  HN ES       17 9 58.29                             132   -0.20 9  143 258 
 PTB  HZ I        1710  6.30         3.2 0.38            132            143 258 
                                                                                
