 2012  4 6 1704 55.8 L   6.809 -73.167133.6  RSN  5 0.4 1.2LRSN                1
 GAP=133        0.75       6.0     6.3 11.3 -0.4235E+01  0.4155E+01  0.2408E+02E
 Epicentro: LOS SANTOS - SANTANDER                                             3
 ACTION:UPD 12-07-05 11:51 OP:tino STATUS:               ID:20120406170455 L   I
 2012-04-06-1700-00M.COL___196                                                 6
 STAT SP IPHASW D HRMM SECON CODA AMPLIT PERI AZIMU VELO AIN AR TRES W  DIS CAZ7
 BAR2 SZ EP       17 5 14.13                             169     0.110   24 184 
 BAR2 SZ I        17 5 30.19         3.6 0.16                            24 184 
 BRR  HZ EP       17 5 15.98                             151     0.410   69 299 
 BRR  HE ES   2   17 5 30.75                             151    -0.2 5   69 299 
 PAM  SZ EP   1   17 5 16.49                             148    -0.3 7   78  41 
 PAM  SN ES   1   17 5 33.13                             148    -0.1 7   78  41 
 RUS  HZ EP       17 5 18.30                             141    -0.210  102 175 
 RUS  HN ES   2   17 5 36.69                             141     0.5 5  102 175 
 PTB  HN ES   2   17 5 40.94                             129    -0.8 5  146 258 
                                                                                
