 2017 11 6 1221 58.1 L   6.695 -73.127148.4  RSN  6 0.3 1.3LRSN                1
 GAP=107        0.64       7.6     4.0  7.0 -0.7328E+01 -0.3967E+01  0.2390E+02E
 Epicentro: JORDAN - SANTANDER                                                 3
 ACTION:UPD 17-12-12 19:52 OP:rebc STATUS:               ID:20171106122158 L   I
 OLDACT:REG 17-11-06 21:16 OP:mg   STATUS:               ID:20171106121739     3
 2017-11-06-1218-00M.COL___423                                                 6
 STAT SP IPHASW D HRMM SECON CODA AMPLIT PERI AZIMU VELO AIN AR TRES W  DIS CAZ7
 BAR2 EZ EP       1222 17.90                             175    0.0410 12.9 208 
 BAR2 EZ ES   2   1222 33.47                             175    0.17 5 12.9 208 
 BAR2 EZ I        1222 34.70         5.3 0.26            173           12.9 208 
 BRR  HZ EP       1222 20.08                             150    0.1210 79.1 305 
 BRR  HN ES       1222 37.33                             150    0.2910 79.1 305 
 BRR  HZ I        1222 40.84         5.6 0.34            150           79.1 305 
 PAM  EZ EP       1222 21.13                             149    0.0610 85.5  34 
 PAM  EN ES       1222 38.68                             149   -0.3310 85.5  34 
 PAM  EZ I        1222 40.55         4.0 0.46            152           85.5  34 
 PTB  HZ EP   2   1222 24.66                             132   -0.61 5  148 263 
 PTB  HN ES   2 D 1222 45.61                             132   -0.88 5  148 263 
 PTB  HZ I        1222 49.76         1.2 0.26            133            148 263 
 TAM  HZ EP   2   1222 25.99                             132    0.45 5  151 101 
 ZAR  HE ES   2   1222 57.36                             122    0.03 4  211 295 
 ZAR  HZ I        1222 59.15         2.5 0.21            123            211 295 
                                                                                
