 2010  5 6 1503 19.4 L   6.725 -72.978147.6  RSN  8 0.3 2.5LRSN                1
 GAP=202        0.55       5.6     8.1  5.7 -0.3279E+02 -0.1127E+02  0.1471E+02E
 Epicentro: CEPITA - SANTANDER                                                 3
 ACTION:UP  10-08-24 10:03 OP:vdl  STATUS:               ID:20100506150319 L   I
 2010-05-06-1500-26S.COL___105                                                 6
 STAT SP IPHASW D HRMM SECON CODA AMPLIT PERI AZIMU VELO SNR AR TRES W  DIS CAZ7
 BAR2 SZ EP   1   15 3 39.38                             169     0.0 7   27 237 
 BAR2 SZ ES   2   15 3 54.86                             169     0.0 5   27 237 
 GIR2 SZ EP   1   15 3 39.70                             162    -0.1 7   46 329 
 GIR2 SZ ES   2   15 3 56.13                             162     0.5 5   46 329 
 BRR  HZ IP     C 15 3 41.96                             147    -0.110   92 298 
 BRR  HZ I        15 3 42.25        60.3 0.16                            92 298 
 BRR  HN ES   2   15 3 59.27                             147    -0.4 5   92 298 
 BRI  SZ EP   1   15 3 44.01                             141     0.3 7  111  10 
 BRI  SZ ES   2   15 4  2.89                             141     0.2 5  111  10 
 GUE  SZ EP   1   15 3 44.77                             138     0.0 7  122   3 
 GUE  SZ ES   2   15 4  4.30                             138    -0.2 5  122   3 
 GRA  SZ EP   1   15 3 45.16                             137     0.0 7  130   9 
 GRA  SZ ES   2   15 4  4.87                             137    -0.4 5  130   9 
 RREF BZ EP   1   15 4  7.37                             111     0.7 5  331 233 
 RREF BN ES   2   15 4 43.98                             111     0.4 3  331 233 
 RREF BZ I        15 4 51.60         9.3 0.34                           331 233 
 PRA  HZ EP       15 4 12.64                             107    -0.7 6  394 213 
                                                                                
