 2015  9 6 1655 30.2 L   6.816 -73.146144.7  RSN 22 0.5 2.7LRSN                1
 GAP=136        0.93       2.1     3.4  4.2 -0.1530E+01  0.4608E+01  0.4449E+00E
 Epicentro: LOS SANTOS - SANTANDER                                             3
 ACTION:UPD 15-10-28 16:24 OP:cam  STATUS:               ID:20150906165530 L   I
 OLDACT:UP  15-09-07 01:41 OP:mh   STATUS:               ID:20150906164750     3
 OLDACT:UP  15-09-07 01:41 OP:mh   STATUS:               ID:20150906164750     3
 OLDACT:UP  15-09-07 01:41 OP:mh   STATUS:               ID:20150906164750     3
 OLDACT:UP  15-09-07 01:37 OP:mh   STATUS:               ID:20150906164750     3
 OLDACT:UP  15-09-07 01:37 OP:mh   STATUS:               ID:20150906164750     3
 OLDACT:REG 15-09-06 21:20 OP:mh   STATUS:               ID:20150906164750     3
 2015-09-06-1647-50M.COL___355                                                 6
 STAT SP IPHASW D HRMM SECON CODA AMPLIT PERI AZIMU VELO AIN AR TRES W  DIS CAZ7
 BAR2 EZ EP     D 1655 49.76                             170    0.0710 25.1 189 
 BAR2 EZ ES       1656  4.87                             170   -0.0610 25.1 189 
 BAR2 EZ I        1656  5.75        84.6 0.24            168           25.1 189 
 BRR  HZ EP       1655 51.55                             153    0.4210 70.3 297 
 BRR  HN ES       1656  8.08                             153    0.5810 70.3 297 
 BRR  HZ I        1656 12.36        64.3 0.30            152           70.3 297 
 PAM  EZ EP       1655 52.57                             151    0.4010 76.1  40 
 PAM  EN ES       1656  9.56                             151    0.2110 76.1  40 
 PAM  EZ I        1656 10.47        55.6 0.20            151           76.1  40 
 RUS  HZ EP       1655 53.80                             143   -0.1310  102 176 
 RUS  HN ES       1656 12.44                             143   -0.0410  102 176 
 RUS  HZ I        1656 13.90        34.6 0.46            141            102 176 
 PTB  HZ EP   1   1655 56.44                             132   -0.62 7  148 258 
 PTB  HN ES   1   1656 17.26                             132   -0.78 7  148 258 
 PTB  HZ I        1656 19.09        45.1 0.40            130            148 258 
 OCA  HZ EP       1655 57.90                             130   -0.31 9  158 353 
 OCA  HN ES       1656 19.43                             130   -0.67 9  158 353 
 OCA  HZ I        1656 27.79       101.5 0.48            129            158 353 
 SPBC HZ EP   1   1655 58.62                             129   -0.08 7  165 219 
 SPBC HN ES       1656 20.97                             129    0.01 9  165 219 
 SPBC HZ I        1656 24.94        76.4 0.32            127            165 219 
 ZAR  HZ EP       1656  2.18                             122   -0.27 9  203 292 
 ZAR  HN ES       1656 27.33                             122   -0.31 9  203 292 
 ZAR  HZ I        1656 32.55        48.2 0.34            121            203 292 
 NOR  HZ EP   1   1656  5.79                             118   -0.13 6  236 234 
 NOR  HN ES   1 C 1656 33.12                             118   -0.71 6  236 234 
 NOR  HZ I        1656 40.86        24.2 0.26            117            236 234 
 SML  HZ EP   1   1656  5.83                             117   -0.71 6  242 335 
 SML  HN ES   1   1656 34.71                             117   -0.21 6  242 335 
 SML  HZ I        1656 42.80        45.5 0.22            117            242 335 
 ROSC BZ EP   4   1656  9.49                             116    1.11 0  254 211 
 ROSC BN ES   4   1656 39.68                             116    1.49 0  254 211 
 ROSC BZ I        1656 44.01        72.4 0.35            115            254 211 
 HEL  HZ EP   1   1656 11.20                             114    0.85 6  272 255 
 HEL  HN ES       1656 41.73                             114    0.02 8  272 255 
 HEL  HZ I        1656 47.59        24.3 0.28            113            272 255 
 GUY2CHZ EP   1   1656 14.01                             112    0.19 5  302 234 
 GUY2CHN ES   4   1656 50.83                             112    2.95 0  302 234 
 GUY2CHZ I        1656 55.74        23.8 0.58                           302 234 
 LL2C HZ EP   4   1656 14.21                             112    0.73 0  305 354 
 LL2C HN ES   4   1656 48.55                             112    1.27 0  305 354 
 VIL  SZ EP       1656 13.37                             112   -0.35 7  305 191 
 VIL  SN ES       1656 47.02                             112   -0.68 7  305 191 
 VIL  SZ I        1656 50.41        41.8 0.38            111            305 191 
 PTGC HZ EP   4   1656 13.06                             111   -1.09 0  310 159 
 PTGC HN ES   4   1656 45.90                             111   -2.58 0  310 159 
 PTGC HZ I        1657 10.12        31.0 0.34            110            310 159 
 LL4C HZ EP       1656 15.64                             110    0.23 7  322 352 
 LL4C HN ES       1656 51.21                             110    0.50 7  322 352 
 ELA  HZ EP   4   1656 19.35                             110    2.27 0  330 229 
 CBOC HZ EP       1656 17.55                             110    0.47 7  334 252 
 CBOC HN ES   1   1656 54.26                             110    0.58 5  334 252 
 CBOC HZ I        1656 59.61         6.4 0.26            109            334 252 
 DBB  SZ EP       1656 17.38                             109   -0.18 7  339 274 
 DBB  SZ ES   4   1656 53.29                             109   -1.25 0  339 274 
 DBB  SZ I        1656 56.08        52.3 0.26            108            339 274 
 TOL  SZ EP       1656 19.35                             109    0.85 7  345 224 
 TOL  SN ES       1656 57.05                             109    0.83 7  345 224 
 TOL  SZ I        1657  3.50        16.5 0.58            108            345 224 
 PRA  HZ EP   1   1656 23.65                             106   -0.16 4  394 209 
 PRA  HN ES       1657  5.13                             106   -0.54 6  394 209 
 PRA  HZ I        1657 11.89        24.3 0.24            105            394 209 
 ORTC HZ EP       1656 23.94                             106   -0.26 6  397 216 
 ORTC HN ES       1657  7.22                             106    0.86 6  397 216 
 ORTC HZ I        1657 10.85        14.5 0.20            105            397 216 
 ELOV BZ EP   4   1656 23.63                             106   -1.51 0  405  87 
 SJC  HZ EP   4   1656 24.00                             106   -1.50 0  408 327 
 SJC  HN ES   4   1657  4.74                             106   -3.92 0  408 327 
 SJC  HZ I        1657 19.14         6.5 0.70            105            408 327 
                                                                                
