 2014  1 6 1009 28.7 L   6.818 -73.191143.3  RSN  7 0.2 1.4LRSN                1
 GAP=130        0.50       1.8     2.3  3.8  0.3158E-01  0.2746E+01 -0.1601E+01E
 Epicentro: ZAPATOCA - SANTANDER                                               3
 ACTION:UPD 14-03-13 09:52 OP:ep   STATUS:               ID:20140106100928 L   I
 OLDACT:REG 14-01-06 15:39 OP:stll STATUS:               ID:20140106100813     3
 2014-01-06-1008-13M.COL___228                                                 6
 STAT SP IPHASW D HRMM SECON CODA AMPLIT PERI AZIMU VELO AIN AR TRES W  DIS CAZ7
 BAR2 SZ EP       10 9 48.14                             170    0.0810 25.0 178 
 BAR2 SZ ES       1010  3.16                             170   -0.0110 25.0 178 
 BAR2 SZ I        1010  4.03        11.9 0.32            170           25.0 178 
 PAM  SZ EP       10 9 51.11                             150    0.3610 79.2  43 
 PAM  SN ES       1010  7.98                             150    0.0210 79.2  43 
 PAM  SZ I        1010 10.27         4.9 0.70            152           79.2  43 
 RUS  HZ EP       10 9 52.29                             142   -0.0910  103 173 
 RUS  HN ES       1010 10.65                             142   -0.2110  103 173 
 RUS  HZ I        1010 12.72         2.1 0.18            144            103 173 
 PTB  HZ EP       10 9 55.15                             132    0.10 9  143 258 
 PTB  HN ES       1010 15.57                             132   -0.04 9  143 258 
 PTB  HZ I        1010 18.12         2.8 0.24            134            143 258 
 OCA  HN ES       1010 18.26                             129   -0.06 9  158 355 
 ZAR  HN ES       1010 25.43                             122    0.27 9  199 292 
 SML  HZ EP       1010  4.54                             117   -0.22 8  240 336 
 SML  HE ES       1010 32.55                             117   -0.33 8  240 336 
                                                                                
