 2013  7 6 1937 15.6 L   6.794 -73.114148.3  RSN 18 0.5 2.9LRSN                1
 GAP= 98        1.25       3.3     4.2  5.6 -0.5443E+01  0.2685E+01  0.2389E+01E
 Epicentro: LOS SANTOS - SANTANDER                                             3
 ACTION:UPD 13-08-12 10:35 OP:ep   STATUS:               ID:20130706193715 L   I
 OLDACT:UP  13-07-08 11:29 OP:ep   STATUS:               ID:20130706193715 L   3
 OLDACT:UP  13-07-08 11:28 OP:ep   STATUS:               ID:20130706193715 L   3
 OLDACT:UP  13-07-08 05:43 OP:CF   STATUS:               ID:20130706193715 L   3
 OLDACT:REG 13-07-06 16:27 OP:stll STATUS:               ID:20130706192849     3
 2013-07-06-1928-49M.COL___221                                                 6
 STAT SP IPHASW D HRMM SECON CODA AMPLIT PERI AZIMU VELO AIN AR TRES W  DIS CAZ7
 BAR2 SZ IP     D 1937 35.52                             171    0.0210 23.6 199 
 BAR2 SZ I        1937 35.67       102.3 0.18            169           23.6 199 
 BAR2 SZ ES       1937 50.59                             171   -0.4610 23.6 199 
 GIR2 SZ EP       1937 35.59                             167    0.0210 32.7 344 
 BRR  HZ IP     C 1937 37.37                             152    0.1910 74.6 298 
 BRR  HZ I        1937 37.65       131.7 0.24            151           74.6 298 
 BRR  HN ES       1937 54.82                             152    0.7910 74.6 298 
 PAM  SZ EP       1937 38.20                             152    0.2510 75.7  37 
 PAM  SN ES       1937 55.49                             152    0.0810 75.7  37 
 PAM  SN I        1937 56.53       241.0 0.48            155           75.7  37 
 RUS  HZ EP       1937 39.41                             144   -0.0910 99.7 178 
 RUS  HN ES       1937 58.04                             144   -0.1410 99.7 178 
 RUS  HN I        1937 59.86        87.5 0.20            145           99.7 178 
 GRA  SZ EP       1937 41.69                             138    0.6910  125  16 
 GRA  SZ ES       1938  1.27                             138    0.4310  125  16 
 CAPV BZ EP       1937 43.24                             133    0.22 9  148  37 
 CAPV BZ ES   4   1938  3.09                             133   -1.35 0  148  37 
 PTB  HZ EP       1937 42.09                             132   -0.95 9  151 259 
 PTB  HN ES       1938  3.70                             132   -0.76 9  151 259 
 PTB  HN I        1938  8.72       138.9 0.42            131            151 259 
 OCA  HZ EP       1937 44.30                             130    0.12 9  161 352 
 OCA  HN ES       1938  5.38                             130   -1.11 9  161 352 
 OCA  HN I        1938  9.13       211.1 0.24            131            161 352 
 YOP  SZ EP       1937 46.19                             127    0.61 9  177 154 
 NOR  HZ EP       1937 51.44                             119   -0.27 8  237 235 
 NOR  HN ES       1938 19.97                             119    0.08 8  237 235 
 NOR  HN I        1938 26.43       129.1 0.22            119            237 235 
 SML  HZ EP       1937 52.15                             118   -0.41 8  246 335 
 SML  HN ES   4   1938 19.83                             118   -1.58 0  246 335 
 CHI  HZ EP       1937 53.48                             117    0.04 8  249 196 
 CHI  HN ES       1938 22.67                             117   -0.31 8  249 196 
 CHI  HN I        1938 26.83        42.7 0.24            118            249 196 
 HEL  HZ EP       1937 56.92                             115    0.66 7  275 256 
 HEL  HN ES       1938 28.99                             115    0.98 7  275 256 
 HEL  HN I        1938 33.62        37.8 0.46            115            275 256 
 SOCV BZ EP       1937 57.41                             113   -1.03 7  299  56 
 SOCV BZ ES   4   1938 29.78                             113   -2.10 0  299  56 
 GUY2CHZ EP       1938  0.07                             113    0.50 7  304 235 
 GUY2CHN ES       1938 34.13                             113    0.24 7  304 235 
 DBB  SZ EP       1938  3.13                             110   -0.42 7  343 274 
 PRA  HZ EP       1938  9.67                             107    0.36 6  393 210 
 PRA  HN ES       1938 50.58                             107   -0.65 6  393 210 
 PRA  HN I        1938 56.51        12.5 0.36            107            393 210 
                                                                                
