 2014  4 6 1341 21.3 L   6.815 -73.175137.9  RSN 10 0.4 1.9LRSN                1
 GAP=132        0.77       3.3     3.7  7.3 -0.3378E+01  0.9600E+01  0.1443E+01E
 Epicentro: LOS SANTOS - SANTANDER                                             3
 ACTION:UPD 14-05-13 23:06 OP:nd   STATUS:               ID:20140406134121 L   I
 OLDACT:UP  14-04-06 20:24 OP:cam  STATUS:               ID:20140406133815     3
 OLDACT:REG 14-04-06 19:47 OP:cam  STATUS:               ID:20140406133815     3
 2014-04-06-1338-15M.COL___259                                                 6
 STAT SP IPHASW D HRMM SECON CODA AMPLIT PERI AZIMU VELO AIN AR TRES W  DIS CAZ7
 BRR  HZ IP     C 1341 41.36                             152   -0.0310 67.5 299 
 BRR  HN ES   4   1341 58.41                             152    1.35 0 67.5 299 
 BRR  HZ I        1342  2.03        25.2 0.70            141           67.5 299 
 PAM  SZ EP     C 1341 42.52                             149   -0.2210 78.3  42 
 PAM  SN ES       1341 59.60                             149    0.1410 78.3  42 
 PAM  SZ I        1342  0.93        12.9 0.36            141           78.3  42 
 RUS  HN ES   2   1342  3.10                             142    0.63 5  103 174 
 PTB  HZ EP   4   1341 46.21                             131   -1.16 0  145 258 
 PTB  HN ES       1342  7.48                             131   -0.22 9  145 258 
 PTB  HZ I        1342 10.79        11.8 0.22            120            145 258 
 OCA  HN ES   4   1342  8.94                             128   -1.34 0  158 354 
 SPBC HZ EP   1   1341 48.97                             127   -0.16 7  162 218 
 SPBC HN ES   1   1342 10.78                             127   -0.06 7  162 218 
 ZAR  HZ EP       1341 53.07                             121    0.21 9  200 292 
 ZAR  HN ES       1342 17.87                             121    0.40 9  200 292 
 NOR  HZ EP   1   1341 56.19                             117   -0.21 6  233 234 
 NOR  HN ES       1342 23.41                             117   -0.37 8  233 234 
 NOR  HZ I        1342 30.45         5.8 0.30            108            233 234 
 SML  HE ES   1   1342 24.47                             116   -0.70 6  241 336 
 CHI  HZ EP   2   1341 58.33                             115   -0.33 4  249 194 
 CHI  HN ES   2   1342 27.93                             115    0.14 4  249 194 
 CHI  HZ I        1342 30.52         2.5 0.22            107            249 194 
 HEL  HZ EP   1   1342  2.05                             113    1.24 6  269 255 
 HEL  HZ I        1342 36.80         4.3 0.32            104            269 255 
 URE  HZ EP   4   1342  3.69                             112    2.11 0  280 292 
 GUY2CHN ES   4   1342 39.95                             111    2.01 0  299 234 
                                                                                
