 2013  3 6 1220  8.5 L   6.768 -73.140144.0  RSN  5 0.4 1.9LRSN                1
 GAP=156        0.84       6.9     6.0  6.8 -0.1101E+02  0.3392E+01  0.5450E+01E
 Epicentro: LOS SANTOS - SANTANDER                                             3
 ACTION:UPD 13-04-09 14:00 OP:ep   STATUS:               ID:20130306122008 L   I
 2013-03-06-1218-53M.COL___187                                                 6
 STAT SP IPHASW D HRMM SECON CODA AMPLIT PERI AZIMU VELO AIN AR TRES W  DIS CAZ7
 BAR2 SZ EP       1220 27.51                             172   -0.3710 19.9 194 
 BAR2 SZ ES       1220 42.92                             172   -0.0510 19.9 194 
 BAR2 SZ I        1220 46.21         7.9 0.14            170           19.9 194 
 BRR  HZ EP       1220 29.92                             151    0.3010 73.5 301 
 BRR  HN ES       1220 46.39                             151    0.3210 73.5 301 
 BRR  HN I        1220 47.16        44.3 0.32            153           73.5 301 
 PAM  SZ EP       1220 30.93                             150    0.2310 79.8  38 
 PAM  SZ I        1220 31.14        16.4 0.20            153           79.8  38 
 PAM  SN ES   1   1220 47.69                             150   -0.31 7 79.8  38 
 PTB  HZ EP       1220 34.97                             132   -0.38 9  148 260 
 PTB  HN ES   2   1220 55.75                             132   -0.52 5  148 260 
 PTB  HE I        1220 58.11         7.8 0.32            133            148 260 
 CHI  HE ES   2   1221 16.04                             117    1.22 4  245 196 
                                                                                
