 2012 10 6 1827  8.9 L   6.416 -73.804 92.6  RSN  6 0.4 2.4LRSN                1
 GAP=242        0.93       5.2    10.0  9.2  0.2253E+02  0.1470E+02 -0.2764E+01E
 Epicentro: SANTA HELENA DEL OPON - SANTANDER                                  3
 ACTION:UPD 12-11-22 17:02 OP:ep   STATUS:               ID:20121006182708 L   I
 2012-10-06-1820-00M.COL___222                                                 6
 STAT SP IPHASW D HRMM SECON CODA AMPLIT PERI AZIMU VELO AIN AR TRES W  DIS CAZ7
 BAR2 SZ EP       1827 25.04                             140    0.0110 71.4  74 
 BAR2 SZ I        1827 25.59       100.5 0.10                          71.4  74 
 BAR2 SZ ES   1   1827 37.41                             140   -0.16 7 71.4  74 
 BRR  HZ EP       1827 25.15                             137   -0.0110 77.1   8 
 BRR  HN ES   1   1827 37.92                             137    0.10 7 77.1   8 
 BRR  HN I        1827 38.82       115.6 0.10                          77.1   8 
 RUS  HZ EP       1827 27.90                             130    0.1510 98.5 126 
 RUS  HN ES   1   1827 42.65                             130    0.23 7 98.5 126 
 GIR2 SZ EP       1827 26.96                             129   -0.4310 99.6  43 
 PAM  SZ EP       1827 33.38                             116   -0.68 9  159  50 
 PAM  SZ I        1827 52.99        20.2 0.20                           159  50 
 GRA  SZ EP       1827 38.67                             111    0.80 9  196  34 
 GRA  SZ ES   1   1828  0.79                             111    0.36 6  196  34 
                                                                                
