 2016  1 6 1221 51.3 L   6.827 -73.134139.6  RSN 21 0.6 2.5LRSN                1
 GAP= 71        1.26       2.8     3.1  5.4 -0.1005E+01  0.4366E+01  0.1803E+01E
 Epicentro: LOS SANTOS - SANTANDER                                             3
 ACTION:UPD 16-03-09 23:23 OP:cam  STATUS:               ID:20160106122151 L   I
 OLDACT:REG 16-01-06 20:58 OP:ar   STATUS:               ID:20160106121748     3
 2016-01-06-1217-48M.COL___265                                                 6
 STAT SP IPHASW D HRMM SECON CODA AMPLIT PERI AZIMU VELO AIN AR TRES W  DIS CAZ7
 BAR2 EZ EP     C 1222 10.26                             169    0.0310 26.5 192 
 BAR2 EZ ES       1222 24.45                             169   -0.5610 26.5 192 
 BAR2 EZ I        1222 27.48        39.8 0.26            168           26.5 192 
 BRR  HZ EP       1222 12.07                             151    0.3310 71.0 296 
 BRR  HN ES       1222 28.88                             151    1.1710 71.0 296 
 BRR  HZ I        1222 33.07        56.1 0.12            152           71.0 296 
 PAM  EZ EP     C 1222 12.99                             151    0.3510 74.3  40 
 PAM  EN ES       1222 29.84                             151    0.5310 74.3  40 
 PAM  EZ I        1222 31.99        86.0 0.50            155           74.3  40 
 RUS  HZ EP       1222 14.37                             142   -0.2610  103 177 
 RUS  HE ES       1222 32.69                             142   -0.1610  103 177 
 RUS  HZ I        1222 34.27        38.8 0.28            143            103 177 
 PTB  HZ EP       1222 17.17                             130   -0.74 9  150 258 
 PTB  HN ES       1222 37.84                             130   -0.86 9  150 258 
 PTB  HZ I        1222 40.86        39.8 0.12            131            150 258 
 TAM  HZ EP     C 1222 18.65                             129    0.23 9  155 106 
 TAM  HN ES       1222 39.92                             129    0.33 9  155 106 
 TAM  HZ I        1222 44.68        22.8 0.46            132            155 106 
 OCA  HZ EP       1222 18.94                             129    0.10 9  158 353 
 OCA  HN ES       1222 39.46                             129   -0.89 9  158 353 
 OCA  HZ I        1222 45.79        81.1 0.42            132            158 353 
 SPBC HZ EP       1222 19.39                             127   -0.21 9  166 219 
 SPBC HN ES       1222 40.96                             127   -0.74 9  166 219 
 SPBC HZ I        1222 46.64        51.2 0.30            128            166 219 
 ZAR  HZ EP       1222 23.25                             121   -0.08 9  204 291 
 ZAR  HN ES       1222 48.41                             121    0.07 9  204 291 
 ZAR  HZ I        1222 54.05        42.5 0.30            123            204 291 
 NOR  HZ EP       1222 26.73                             117   -0.22 8  237 234 
 NOR  HN ES       1222 54.76                             117   -0.02 8  237 234 
 NOR  HZ I        1222 59.97        42.4 0.18            118            237 234 
 SML  HZ EP       1222 26.50                             116   -0.82 8  242 335 
 SML  HN ES       1222 55.58                             116    0.13 8  242 335 
 SML  HZ I        1222 57.00        48.4 0.28            119            242 335 
 CHI  HZ EP       1222 28.66                             115   -0.32 8  252 195 
 CHI  HN ES       1222 58.42                             115    0.02 8  252 195 
 CHI  HZ I        1223  4.98        12.3 0.40            117            252 195 
 ROSC BZ EP   4   1222 30.57                             115    1.16 0  256 211 
 ROSC BE ES       1222 59.99                             115    0.83 8  256 211 
 ROSC BZ I        1223  6.40        25.5 0.30            117            256 211 
 HEL  HZ EP       1222 32.26                             113    0.86 8  274 255 
 HEL  HE ES       1223  2.70                             113   -0.00 8  274 255 
 HEL  HZ I        1223  8.58        13.7 0.42            115            274 255 
 URE  HZ EP   4   1222 30.37                             112   -1.69 0  284 291 
 URE  HN ES   4   1223  1.16                             112   -2.72 0  284 291 
 URE  HZ I        1223  5.82        27.7 0.14            114            284 291 
 SOCV BZ EP   4   1222 32.19                             111   -1.54 0  299  57 
 SOCV BN ES   4   1223  3.59                             111   -3.26 0  299  57 
 GUY2CHZ EP       1222 35.99                             111    1.08 7  304 234 
 GUY2CHN ES       1223  8.16                             111   -0.80 7  304 234 
 GUY2CHZ I        1223 16.69        16.8 0.38                           304 234 
 CBOC HZ EP       1222 38.55                             109    0.36 7  336 252 
 CBOC HN ES       1223 14.87                             109    0.09 7  336 252 
 CBOC HZ I        1223 24.48         5.4 0.66            110            336 252 
 DBB  SZ EP       1222 38.58                             108   -0.05 7  341 274 
 DBB  SZ ES       1223 16.22                             108    0.65 7  341 274 
 DBB  SZ I        1223 18.29        19.0 0.32            110            341 274 
 PRA  HZ EP       1222 44.95                             105   -0.01 6  395 210 
 PRA  HE ES       1223 26.50                             105   -0.34 6  395 210 
 PRA  HZ I        1223 34.34        17.4 0.30            107            395 210 
 ORTC HZ EP       1222 46.08                             105    0.73 6  399 216 
 ORTC HN ES       1223 28.37                             105    0.83 6  399 216 
 ORTC HZ I        1223 33.69        10.7 0.36            107            399 216 
 ELOV BZ EP       1222 45.11                             105   -0.81 6  404  87 
                                                                                
