 2016 12 6 1052 29.2 L   6.760 -73.148147.0  RSN  4 0.3 1.4LRSN                1
 GAP=234        0.74       6.0     6.2  6.7  0.2521E+02 -0.2793E+01 -0.7796E+01E
 Epicentro: LOS SANTOS - SANTANDER                                             3
 ACTION:UPD 17-01-11 20:12 OP:rebc STATUS:               ID:20161206105229 L   I
 OLDACT:REG 16-12-06 20:45 OP:dnl  STATUS:               ID:20161206104740     3
 2016-12-06-1048-00M.COL___346                                                 6
 STAT SP IPHASW D HRMM SECON CODA AMPLIT PERI AZIMU VELO AIN AR TRES W  DIS CAZ7
 BRR  HZ EP       1052 50.10                             152   -0.5310 73.3 302 
 BRR  HN ES       1053  7.60                             152    0.2810 73.3 302 
 BRR  HZ I        1053 18.28        13.2 0.32            153           73.3 302 
 RUS  HZ EP       1052 53.20                             145    0.4110 96.1 176 
 RUS  HE ES       1053 10.96                             145   -0.2110 96.1 176 
 RUS  HZ I        1053 11.91         2.0 0.26            159           96.1 176 
 PTB  HZ EP       1052 56.26                             132    0.05 9  147 261 
 PTB  HN ES       1053 17.19                             132   -0.06 9  147 261 
 PTB  HZ I        1053 20.31         2.3 0.14            140            147 261 
 ZAR  HZ EP       1053  1.99                             122    0.08 8  206 293 
 ZAR  HN ES       1053 27.42                             122    0.01 8  206 293 
 ZAR  HZ I        1053 33.29         3.2 0.72            128            206 293 
                                                                                
