 2013  5 6 1114 32.9 L   7.438 -73.180134.4  RSN  8 0.4 2.2LRSN                1
 GAP=135        0.90       4.6     3.8  6.3  0.1912E+01  0.5725E+01 -0.2697E+01E
 Epicentro: EL PLAYON - SANTANDER                                              3
 ACTION:UPD 13-06-20 09:48 OP:ep   STATUS:               ID:20130506111432 L   I
 2013-05-06-1110-00M.COL___253                                                 6
 STAT SP IPHASW D HRMM SECON CODA AMPLIT PERI AZIMU VELO AIN AR TRES W  DIS CAZ7
 GIR2 SZ EP       1114 51.49                             163   -0.0110 39.8 182 
 GIR2 SZ ES   2   1115  5.97                             163   -0.03 5 39.8 182 
 PAM  SZ EP       1114 53.37                             157    0.7510 54.1 102 
 PAM  SE ES       1115  8.08                             157    0.0910 54.1 102 
 PAM  SZ I        1115 10.78        21.9 0.38            160           54.1 102 
 BRR  HZ EP     D 1114 52.68                             151   -0.0310 69.2 238 
 BRR  HN ES       1115  8.08                             151   -0.0810 69.2 238 
 BRR  HZ I        1115 10.61        19.7 0.36            152           69.2 238 
 BAR2 SZ EP       1114 54.53                             143   -0.1310 93.5 180 
 BAR2 SZ ES       1115 11.07                             143   -0.5710 93.5 180 
 BAR2 SZ I        1115 12.14        22.9 0.13            145           93.5 180 
 RUS  HZ EP       1115  1.59                             125   -0.29 9  171 176 
 PTB  HZ EP       1115  1.20                             124   -0.18 9  173 235 
 PTB  HN ES       1115 24.01                             124    0.42 9  173 235 
 PTB  HZ I        1115 26.85        15.4 0.66            126            173 235 
 SML  HZ EP   2   1115  1.50                             123   -0.60 4  180 327 
 SML  HE ES   1   1115 24.16                             123   -0.71 7  180 327 
 ZAR  HN EP   1   1115  3.16                             122    0.49 7  185 272 
 ZAR  HN ES       1115 26.20                             122    0.31 9  185 272 
 ZAR  HN I        1115 27.04        71.4 0.18            124            185 272 
                                                                                
