 2012  4 6 1354 51.4 L   6.526 -73.563105.1  RSN 13 0.5 2.2LRSN                1
 GAP= 56        1.18       5.6     4.7  8.7  0.1563E+01  0.1535E+02  0.6797E+01E
 Epicentro: EL CARMEN DE CHUCURI - SANTANDER                                   3
 ACTION:UPD 12-07-05 11:51 OP:tino STATUS:               ID:20120406135451 L   I
 2012-04-06-1350-00M.COL___196                                                 6
 STAT SP IPHASW D HRMM SECON CODA AMPLIT PERI AZIMU VELO AIN AR TRES W  DIS CAZ7
 BAR2 SZ IP     C 1355  7.21                             156     0.310   43  80 
 BAR2 SZ I        1355  7.38       145.7 0.22                            43  80 
 BAR2 SZ ES   1   1355 19.44                             156     0.4 7   43  80 
 BRR  HZ EP       1355  8.06                             145     0.110   66 346 
 BRR  HZ I        1355 21.75        35.3 0.14                            66 346 
 BRR  HE ES   2   1355 21.93                             145     1.0 5   66 346 
 RUS  HZ EP       1355 10.11                             137    -0.210   88 143 
 RUS  HE ES   2   1355 25.64                             137     0.5 5   88 143 
 RUS  HZ I        1355 26.73        16.3 0.32                            88 143 
 PTB  HZ IP     C 1355  9.99                             133    -0.610   99 271 
 PTB  HN ES   1   1355 24.78                             133    -0.8 7   99 271 
 PAM  SN ES   1   1355 31.61                             124    -0.6 7  131  47 
 ZAR  HZ EP       1355 19.02                             115     0.3 9  179 307 
 ZAR  HZ I        1355 43.49        27.9 0.32                           179 307 
 NOR  SZ EP       1355 18.72                             115    -0.2 9  180 234 
 YOP  SZ EP       1355 19.08                             115     0.0 9  181 136 
 YOP  SZ I        1355 43.06        19.1 0.26                           181 136 
 OCA  SZ EP       1355 20.02                             113    -0.3 9  191   8 
 CHI  HZ EP   3   1355 23.12                             111     0.3 2  210 185 
 HEL  HZ EP       1355 24.32                             110     0.4 8  221 260 
 HEL  HZ I        1355 55.76         8.0 0.20                           221 260 
 GUY  SZ EP   3   1355 27.74                             107     0.5 2  248 235 
 DBB  SZ EP       1355 33.59                             103     1.0 7  298 281 
                                                                                
