 2017  2 6 1714 16.6 L   6.309 -73.465123.5  RSN  6 0.4 1.4LRSN                1
 GAP= 94        1.01       5.4     4.5  8.3  0.7555E+01  0.1817E+02  0.1447E+02E
 Epicentro: CONTRATACION - SANTANDER                                           3
 ACTION:UPD 17-05-24 15:33 OP:jn   STATUS:               ID:20170206171416 L   I
 OLDACT:DUP 17-02-07 00:28 OP:lv   STATUS:               ID:20170206170745d    3
 2017-02-06-1708-00M.COL___337                                                 6
 STAT SP IPHASW D HRMM SECON CODA AMPLIT PERI AZIMU VELO AIN AR TRES W  DIS CAZ7
 BAR2 EZ EP       1714 34.09                             159   -0.2110 44.3  45 
 BAR2 EZ ES       1714 48.43                             159    0.3510 44.3  45 
 BAR2 EZ I        1714 48.98         9.9 0.15            163           44.3  45 
 RUS  HZ EP       1714 35.52                             152   -0.0710 62.4 137 
 RUS  HN ES       1714 50.36                             152   -0.0210 62.4 137 
 RUS  HZ I        1714 52.16         2.5 0.12            156           62.4 137 
 PTB  HZ EP       1714 37.93                             135   -0.6910  113 283 
 PTB  HN ES       1714 55.26                             135   -0.5010  113 283 
 PTB  HZ I        1714 57.54         4.0 0.12            135            113 283 
 NOR  HZ EP       1714 45.31                             121    0.51 9  176 242 
 NOR  HN ES       1715  7.03                             121    0.27 9  176 242 
 NOR  HZ I        1715 11.92         6.0 0.26            122            176 242 
 CHI  HZ EP       1714 46.58                             120    0.05 9  188 189 
 CHI  HN ES   4   1715  8.20                             120   -1.65 0  188 189 
 CHI  HZ I        1715  9.85         2.5 0.15            122            188 189 
 ZAR  HN ES       1715 12.21                             117    0.60 9  202 310 
 ZAR  HZ I        1715 16.56         3.5 0.10            119            202 310 
                                                                                
