 2016  8 6 1217 28.7 L   6.801 -73.159152.3  RSN 14 0.4 2.7LRSN                1
 GAP= 70        0.89       2.5     2.6  4.4 -0.5199E+00  0.2254E+01 -0.2909E+00E
 Epicentro: LOS SANTOS - SANTANDER                                             3
 ACTION:UPD 16-10-29 15:32 OP:rebc STATUS:               ID:20160806120735 L   I
 OLDACT:UPD 16-08-06 21:21 OP:AR   STATUS:               ID:20160806120735 L   3
 2016-08-06-1208-00M.COL___371                                                 6
 STAT SP IPHASW D HRMM SECON CODA AMPLIT PERI AZIMU VELO AIN AR TRES W  DIS CAZ7
 BAR2 EZ EP       1217 49.03                             171   -0.0510 23.2 186 
 BAR2 EZ ES       1218  4.38                             171   -0.6210 23.2 186 
 BAR2 EZ I        1218  5.31       164.9 0.26                          23.2 186 
 BRR  HZ IP     C 1217 50.85                             154    0.3910 69.9 299 
 BRR  HN ES       1218  7.97                             154    0.5210 69.9 299 
 BRR  HZ I        1218 11.94        81.7 0.30                          69.9 299 
 PAM  EZ EP     C 1217 51.86                             152    0.2310 78.2  40 
 PAM  EE ES       1218  9.35                             152   -0.1910 78.2  40 
 PAM  EZ I        1218 11.26        94.5 0.50                          78.2  40 
 RUS  HZ EP       1217 53.06                             145   -0.0210  101 175 
 RUS  HN ES       1218 11.96                             145   -0.1610  101 175 
 RUS  HZ I        1218 13.15        36.1 0.26                           101 175 
 PTB  HZ EP       1217 56.16                             134    0.11 9  146 259 
 PTB  HE ES       1218 17.65                             134    0.24 9  146 259 
 PTB  HZ I        1218 18.92        23.2 0.18                           146 259 
 TAM  HZ IP     D 1217 57.42                             132    0.42 9  157 105 
 TAM  HN ES       1218 19.07                             132   -0.03 9  157 105 
 TAM  HZ I        1218 36.09        55.7 0.48                           157 105 
 SPBC HZ EP       1217 57.99                             131    0.39 9  162 219 
 SPBC HN ES       1218 20.33                             131    0.16 9  162 219 
 SPBC HZ I        1218 24.92       102.2 0.22                           162 219 
 ZAR  HZ EP       1218  1.54                             124    0.13 9  203 292 
 ZAR  HN ES       1218 26.87                             124   -0.08 9  203 292 
 ZAR  HZ I        1218 33.86        51.2 0.40                           203 292 
 NOR  HE ES       1218 32.55                             120   -0.20 8  234 234 
 NOR  HZ I        1218 34.74        37.6 0.26                           234 234 
 ROSC BZ EP       1218  7.20                             118    0.12 8  252 211 
 ROSC BN ES       1218 36.96                             118   -0.09 8  252 211 
 ROSC BZ I        1218 43.64        69.2 0.45                           252 211 
 URE  HZ EP       1218  9.43                             115   -0.48 7  282 292 
 URE  HN ES       1218 41.65                             115   -0.43 7  282 292 
 URE  HZ I        1218 52.97        25.2 0.22                           282 292 
 SOCV BZ EP   4   1218 11.86                             113   -0.29 0  302  57 
 SOCV BN ES   4   1218 43.56                             113   -2.51 0  302  57 
 LL6C HZ EP       1218 14.38                             112   -0.26 7  325 358 
 LL6C HN ES       1218 50.31                             112   -0.18 7  325 358 
 PRA  HZ IP       1218 20.71                             108   -1.64 6  391 209 
 PRA  HN ES       1219  4.69                             108    0.47 6  391 209 
 PRA  HZ I        1219 11.31        32.2 0.30                           391 209 
 SJC  HZ IP   4   1218 23.23                             107   -1.12 0  408 327 
 SJC  HN ES   4   1219  4.80                             107   -2.98 0  408 327 
 SJC  HZ I        1219 11.10        10.6 0.66                           408 327 
                                                                                
