 2012 10 6 1642 35.2 L   6.733 -73.125141.4  RSN  6 0.4 2.2LRSN                1
 GAP=142        0.99       5.1     9.1  8.6 -0.9508E+01 -0.7071E+01 -0.2910E+01E
 Epicentro: JORDAN - SANTANDER                                                 3
 ACTION:UPD 12-11-22 17:02 OP:ep   STATUS:               ID:20121006164235 L   I
 2012-10-06-1640-00M.COL___222                                                 6
 STAT SP IPHASW D HRMM SECON CODA AMPLIT PERI AZIMU VELO AIN AR TRES W  DIS CAZ7
 BAR2 SZ EP       1642 54.35                             173    0.1210 16.8 202 
 BAR2 SZ ES   1   1643  8.82                             173   -0.23 7 16.8 202 
 BAR2 SZ I        1643 10.62        43.6 0.18                          16.8 202 
 GIR2 SZ EP       1642 54.24                             164   -0.4010 39.0 349 
 BRR  HZ EP       1642 55.89                             150   -0.3810 76.9 303 
 BRR  HE ES   1   1643 12.96                             150    0.30 7 76.9 303 
 BRR  HN I        1643 13.56        40.1 0.22                          76.9 303 
 PAM  SZ EP       1642 57.08                             148   -0.2010 82.0  35 
 PAM  SZ I        1642 57.34        16.8 0.22                          82.0  35 
 PAM  SN ES   1   1643 13.75                             148   -0.73 7 82.0  35 
 RUS  HZ EP       1642 58.17                             145    0.1410 93.0 177 
 RUS  HN ES   1   1643 16.23                             145    0.43 7 93.0 177 
 GRA  SZ EP       1643  1.05                             134    0.3910  132  16 
 GRA  SZ ES   1   1643 21.45                             134    0.96 7  132  16 
                                                                                
