 2012  2 6 1514  3.3 L   6.689 -73.313156.5  RSN  7 0.6 1.4LRSN                1
 GAP=110        1.17       8.4     7.3 11.9  0.1062E+02  0.9359E+01 -0.3586E+01E
 ACTION:UP  12-03-07 16:28 OP:epov STATUS:               ID:20120206151403 L   I
 2012-02-06-1510-00M.COL___187                                                 6
 STAT SP IPHASW D HRMM SECON CODA AMPLIT PERI AZIMU VELO SNR AR TRES W  DIS CAZ7
 BAR2 SZ EP   1   1514 24.14                             173    0.04 7 17.9 126 
 BAR2 SZ ES   1   1514 39.45                             173   -0.89 7 17.9 126 
 BAR2 SZ I        1514 41.18         7.8 0.30                          17.9 126 
 GIR2 SZ EP       1514 24.03                             163   -0.6110 45.1  17 
 BRR  HZ EP   1   1514 26.07                             157    0.85 7 63.9 316 
 BRR  HZ I        1514 33.07         5.5 0.11                          63.9 316 
 BRR  HN ES   1   1514 42.80                             157    0.46 7 63.9 316 
 RUS  HZ EP   1   1514 28.13                             148    0.64 7 91.6 164 
 RUS  HN ES   1   1514 46.97                             148    0.58 7 91.6 164 
 RUS  HZ I        1514 48.77         2.8 0.21                          91.6 164 
 PTB  HZ EP   1   1514 28.90                             139   -0.53 7  128 263 
 PTB  HN ES   1   1514 49.99                             139    0.15 7  128 263 
 PTB  HZ I        1514 55.81                                            128 263 
 ZAR  HN ES   1   1515  0.50                             126    0.24 7  192 298 
 NOR  SN ES   1   1515  3.30                             123   -0.63 6  213 234 
                                                                                
