 2013 10 6 1234 10.1 L   6.785 -73.157146.9  RSN 10 0.3 2.0LRSN 2.6WRSN        1
 SPEC AVERAGE  MO 12.9 ST 10.9 OM  1.5 f0 10.5 R0.2266 AL 0.00 WI 20.0 MW  2.6 3
 SPEC SD       MO  0.2 ST  9.8 OM  0.7 f0 4.04 R0.1156 AL      WI      MW  0.1 3
 GAP=137        0.75       2.2     4.0  4.4 -0.3634E-01  0.2940E+00  0.1347E+01E
 Epicentro: LOS SANTOS - SANTANDER                                             3
 SPEC BAR2SH Z MO 13.1 ST 22.2 OM  1.3 f0 13.7 R0.1404 AL-0.00 WI 20.0 MW  2.7 3
 SPEC BAR2SH Z T123443 K 0.050 GD  148 VS 5.20 DE 3.20 Q0750.0 QA 1.50 VS 5.20 3
 SPEC BRR HH Z MO 13.0 ST 19.0 OM  1.1 f0 14.7 R0.1309 AL-0.00 WI 20.0 MW  2.6 3
 SPEC BRR HH Z T123446 K 0.050 GD  163 VS 5.20 DE 3.20 Q0750.0 QA 1.50 VS 5.20 3
 SPEC RUS HH Z MO 12.6 ST  1.8 OM  0.7 f0 8.88 R0.2167 AL-0.00 WI 20.0 MW  2.4 3
 SPEC RUS HH Z T123450 K 0.050 GD  177 VS 5.20 DE 3.20 Q0750.0 QA 1.50 VS 5.20 3
 SPEC PRA HH Z MO 12.9 ST0.470 OM  0.6 f0 4.60 R0.4183 AL-0.00 WI 20.0 MW  2.5 3
 SPEC PRA HH Z T123543 K 0.050 GD  416 VS 5.20 DE 3.20 Q0750.0 QA 1.50 VS 5.20 3
 ACTION:UPD 13-11-25 09:19 OP:ep   STATUS:               ID:20131006123410 L   I
 OLDACT:UP  13-10-06 18:00 OP:stll STATUS:               ID:20131006122835     3
 2013-10-06-1228-35M.COL___232                                                 6
 STAT SP IPHASW D HRMM SECON CODA AMPLIT PERI AZIMU VELO AIN AR TRES W  DIS CAZ7
 BAR2 SZ IP     C 1234 29.96                             171    0.1810 21.5 188 
 BAR2 SZ ES       1234 45.01                             171   -0.1610 21.5 188 
 BAR2 SZ I        1234 47.27        41.7 0.38            165           21.5 188 
 BRR  HZ IP     C 1234 31.71                             153    0.4010 70.9 300 
 BRR  HE ES       1234 48.14                             153    0.2510 70.9 300 
 BRR  SZ I        1234 53.82        12.2 0.14            146           70.9 300 
 RUS  HZ EP       1234 33.84                             144    0.0410 99.0 175 
 RUS  HN ES       1234 51.97                             144   -0.3610 99.0 175 
 RUS  SZ I        1234 53.41        10.1 0.38            141           99.0 175 
 PTB  HZ EP       1234 36.96                             132   -0.01 9  146 259 
 PTB  HN ES       1234 57.74                             132   -0.23 9  146 259 
 PTB  SZ I        1235  4.84        14.9 0.36            126            146 259 
 CAPV BZ EP       1234 37.74                             132    0.02 9  151  38 
 SPBC HZ EP       1234 38.90                             130    0.46 9  161 219 
 SPBC SZ I        1235  3.22        15.7 0.32            125            161 219 
 OCA  HN ES       1235  0.74                             129   -0.11 9  162 354 
 SML  HN ES       1235 15.21                             117   -0.34 8  245 336 
 CHI  HZ EP       1234 47.49                             117   -0.12 8  247 195 
 CHI  HZ I        1234 48.75         3.1 0.68            115            247 195 
 CHI  HN ES       1235 17.31                             117    0.41 8  247 195 
 PRA  HZ EP       1235  2.43                             107   -0.94 6  390 210 
 PRA  HN ES       1235 44.73                             107   -0.23 6  390 210 
 PRA  SZ I        1235 47.86         5.7 3.02            105            390 210 
                                                                                
