 2015  7 6 1110 33.2 L   6.810 -73.128144.0  RSN 11 0.4 2.3LRSN                1
 GAP=138        0.84       2.2     4.1  6.4 -0.1732E+01  0.1324E+02  0.1136E+01E
 Epicentro: LOS SANTOS - SANTANDER                                             3
 ACTION:UPD 15-09-08 21:47 OP:cam  STATUS:               ID:20150706111033 L   I
 OLDACT:REG 15-07-06 21:04 OP:ar   STATUS:               ID:20150706110746     3
 2015-07-06-1107-46M.COL___327                                                 6
 STAT SP IPHASW D HRMM SECON CODA AMPLIT PERI AZIMU VELO AIN AR TRES W  DIS CAZ7
 PAM  EZ EP     C 1110 55.24                             151    0.1810 75.3  39 
 PAM  EE ES       1111 12.49                             151    0.3410 75.3  39 
 PAM  EZ I        1111 13.09        12.1 0.36            156           75.3  39 
 RUS  HZ EP       1110 56.44                             143   -0.3610  102 177 
 RUS  HE ES       1111 15.18                             143   -0.0710  102 177 
 RUS  HZ I        1111 16.13        11.1 0.36            145            102 177 
 OCA  HZ EP       1111  0.77                             129   -0.48 9  159 352 
 OCA  HN ES       1111 23.13                             129   -0.03 9  159 352 
 OCA  HZ I        1111 25.78        34.4 0.22            132            159 352 
 ZAR  HZ EP       1111  5.91                             122    0.29 8  205 292 
 ZAR  HE ES       1111 31.00                             122    0.05 8  205 292 
 ZAR  HZ I        1111 36.00        16.9 0.34            122            205 292 
 NOR  HZ EP   2   1111  8.85                             118   -0.17 4  237 235 
 NOR  HE ES       1111 37.00                             118    0.01 8  237 235 
 NOR  HZ I        1111 42.67        16.6 0.34            118            237 235 
 SML  HZ EP       1111  8.95                             117   -0.71 8  244 335 
 SML  HE ES       1111 38.38                             117    0.25 8  244 335 
 SML  HZ I        1111 41.76        17.7 0.26            119            244 335 
 CHI  HZ EP   2   1111 10.68                             117   -0.25 4  250 196 
 CHI  HN ES       1111 40.25                             117   -0.14 8  250 196 
 CHI  HZ I        1111 45.31         9.0 0.22            118            250 196 
 GUY2CHZ EP       1111 17.80                             112    0.87 7  303 235 
 GUY2CHN ES       1111 50.15                             112   -0.92 7  303 235 
 GUY2CHZ I        1111 58.76        10.5 0.38                           303 235 
 TOL  SZ EP       1111 22.08                             109    0.50 6  346 225 
 TOL  SN ES       1111 59.63                             109    0.27 6  346 225 
 TOL  SZ I        1112  9.00         7.4 0.44            110            346 225 
 PRA  HZ EP       1111 26.96                             106    0.12 6  394 210 
 PRA  HN ES       1112  8.85                             106    0.14 6  394 210 
 PRA  HZ I        1112 14.89         9.0 0.26            107            394 210 
 ORTC HN ES       1112  9.85                             106    0.41 6  397 216 
 ORTC HZ I        1112 16.27         5.9 0.54            107            397 216 
                                                                                
