 2011 11 6 1304 52.0 L   6.722 -73.098142.7  RSN  5 0.3 1.5LRSN                1
 GAP=146        0.61       5.1     6.0  6.4 -0.3117E+01 -0.2183E+01 -0.1007E+01E
 Epicentro: JORDAN - SANTANDER                                                 3
 ACTION:UPD 12-07-13 16:08 OP:ep   STATUS:               ID:20111106130452 L   I
 2011-11-06-1302-22S.COL___175                                                 6
 STAT SP IPHASW D HRMM SECON CODA AMPLIT PERI AZIMU VELO AIN AR TRES W  DIS CAZ7
 BAR2 SZ EP       13 5 11.41                             173    0.2610 17.1 213 
 BAR2 SZ I        13 5 11.54         8.3 0.40                          17.1 213 
 BAR2 SZ ES   1   13 5 25.87                             173   -0.22 7 17.1 213 
 BTL  SZ EP   3   13 5 11.56                             168    0.17 2 28.7 319 
 BRR  HZ EP       13 5 13.24                             149   -0.1210 80.1 302 
 BRR  HZ I        13 5 13.45        10.2 0.32                          80.1 302 
 BRR  HE ES   1   13 5 30.03                             149    0.02 7 80.1 302 
 PAM  SZ EP       13 5 14.29                             149    0.1610 81.2  33 
 PAM  SE ES   1   13 5 31.22                             149   -0.17 7 81.2  33 
 RUS  HZ EP   2   13 5 13.92                             145   -0.91 5 91.7 179 
 RUS  HE ES   2   13 5 33.14                             145    0.52 5 91.7 179 
 RUS  HZ I        13 5 34.77         2.8 0.26                          91.7 179 
                                                                                
