 2016  5 6 1924 56.2 L   6.839 -73.148143.9  RSN 18 0.5 2.5LRSN                1
 GAP= 70        1.13       3.1     3.2  6.2 -0.6830E+00  0.4449E+01  0.5384E+01E
 Epicentro: LOS SANTOS - SANTANDER                                             3
 ACTION:UPD 16-08-18 17:42 OP:cam  STATUS:               ID:20160506192456 L   I
 OLDACT:UP  16-05-15 07:31 OP:ar   STATUS:               ID:20160506192456 L   3
 OLDACT:UP  16-05-06 23:27 OP:dani STATUS:               ID:20160506191750     3
 OLDACT:REG 16-05-06 20:40 OP:dnl  STATUS:               ID:20160506191750     3
 2016-05-06-1917-50M.COL___294                                                 6
 STAT SP IPHASW D HRMM SECON CODA AMPLIT PERI AZIMU VELO AIN AR TRES W  DIS CAZ7
 BAR2 EZ IP     C 1925 15.45                             169   -0.2310 27.5 188 
 BAR2 EZ I        1925 33.62        51.7 0.16            170           27.5 188 
 BRR  HZ IP     C 1925 17.23                             153    0.2210 69.1 295 
 BRR  HE ES       1925 34.27                             153    1.0210 69.1 295 
 BRR  HZ I        1925 36.66        72.1 0.18            152           69.1 295 
 PAM  EZ EP       1925 18.18                             151    0.1710 74.3  42 
 PAM  EE ES       1925 35.29                             151    0.2510 74.3  42 
 PAM  EZ I        1925 35.98        47.1 0.18            152           74.3  42 
 RUS  HZ EP       1925 19.50                             142   -0.5610  105 176 
 RUS  HE ES       1925 38.21                             142   -0.4810  105 176 
 RUS  HZ I        1925 39.53        34.3 0.26            144            105 176 
 PTB  HZ EP       1925 22.23                             131   -0.83 9  148 257 
 PTB  HN ES       1925 43.19                             131   -0.83 9  148 257 
 PTB  HZ I        1925 45.05        46.9 0.20            132            148 257 
 TAM  HZ EP       1925 23.80                             130   -0.04 9  156 106 
 TAM  HE ES       1925 45.59                             130    0.18 9  156 106 
 OCA  HZ EP       1925 23.90                             130   -0.04 9  156 353 
 OCA  HN ES       1925 45.15                             130   -0.45 9  156 353 
 OCA  HZ I        1925 53.66        50.1 0.19            130            156 353 
 SPBC HZ EP   2   1925 24.63                             128   -0.21 5  166 218 
 SPBC HN ES   2   1925 46.67                             128   -0.53 5  166 218 
 ZAR  HZ EP       1925 28.05                             122   -0.27 9  202 291 
 ZAR  HE ES       1925 53.85                             122    0.46 9  202 291 
 ZAR  HZ I        1925 59.42        53.4 0.35            123            202 291 
 NOR  HZ EP     C 1925 31.88                             118   -0.17 8  237 234 
 NOR  HE ES       1925 59.66                             118   -0.38 8  237 234 
 NOR  HZ I        1926  5.53        36.7 0.18            119            237 234 
 CHI  HZ EP       1925 33.98                             116   -0.24 8  253 195 
 CHI  HE ES       1926  4.50                             116    0.61 8  253 195 
 CHI  HZ I        1926  6.96        12.6 0.32            118            253 195 
 ROSC BZ EP       1925 34.93                             116    0.34 8  256 210 
 ROSC BN ES       1926  4.79                             116    0.24 8  256 210 
 HEL  HZ EP       1925 37.26                             114    0.86 8  273 255 
 HEL  HN ES       1926  7.54                             114   -0.22 8  273 255 
 URE  HZ EP   2   1925 36.36                             113   -0.60 4  282 291 
 URE  HE ES   4   1926  7.48                             113   -1.29 0  282 291 
 PTGC HZ EP   4 D 1925 38.86                             111   -1.56 0  313 159 
 PTGC HN ES   4   1926 12.26                             111   -2.66 0  313 159 
 PTGC HZ I        1926 14.86        20.9 0.34            112            313 159 
 ELA  HZ EP       1925 44.38                             110    1.12 7  332 229 
 ELA  HE ES   4   1926 24.42                             110    4.45 0  332 229 
 ELA  HZ I        1926 28.05        13.9 0.46            111            332 229 
 CBOC HZ EP   2   1925 43.56                             109    0.41 3  335 251 
 CBOC HN ES   2   1926 19.77                             109   -0.01 3  335 251 
 ANIL HZ EP   4   1925 47.60                             108    1.35 0  360 224 
 ANIL HE ES   4   1926 28.00                             108    2.69 0  360 224 
 PRA  HZ EP       1925 50.22                             106    0.16 6  396 209 
 PRA  HN ES       1926 32.85                             106    0.76 6  396 209 
                                                                                
