 2012  5 6 1843 46.8 L   6.792 -73.182144.0  RSN  9 0.4 2.2LRSN                1
 GAP=132        0.89       4.2     4.4  6.6 -0.3995E+00  0.6294E+01  0.5786E+01E
 Epicentro: LOS SANTOS - SANTANDER                                             3
 ACTION:UP  12-07-05 12:02 OP:pat  STATUS:               ID:20120506184346 L   I
 2012-05-06-1840-00M.COL___192                                                 6
 STAT SP IPHASW D HRMM SECON CODA AMPLIT PERI AZIMU VELO SNR AR TRES W  DIS CAZ7
 BAR2 SZ EP       1844  6.04                             171    -0.110   22 180 
 BAR2 SZ ES   1   1844 21.31                             171     0.0 7   22 180 
 BAR2 SZ I        1844 22.67        39.4 0.22                            22 180 
 BRR  HZ EP       1844  7.81                             153     0.310   68 301 
 BRR  HN ES   1   1844 24.63                             153     0.9 7   68 301 
 BRR  HZ I        1844 26.58        56.1 0.28                            68 301 
 PAM  SZ EP       1844  9.06                             149     0.110   81  41 
 PAM  SN ES   1   1844 25.97                             149    -0.4 7   81  41 
 RUS  HZ EP       1844 10.08                             144    -0.210  100 174 
 RUS  HZ I        1844 10.77        14.6 0.35                           100 174 
 RUS  HN ES   1   1844 28.60                             144    -0.1 7  100 174 
 PTB  HZ EP   1   1844 12.58                             132    -0.6 7  144 259 
 PTB  HN ES   1   1844 33.22                             132    -0.6 7  144 259 
 PTB  HZ I        1844 40.65        18.0 0.36                           144 259 
 ZAR  HZ EP   1   1844 18.69                             122    -0.1 6  201 293 
 ZAR  HN ES   1   1844 43.76                             122     0.1 6  201 293 
 ZAR  HZ I        1844 49.32        22.1 0.23                           201 293 
 NOR  SZ EP   1   1844 22.19                             119     0.2 6  231 234 
 NOR  SN ES   1   1844 49.17                             119    -0.3 6  231 234 
 CHI  HZ EP   1   1844 24.50                             117     0.3 6  247 194 
 CHI  HN ES   1   1844 53.96                             117     0.6 6  247 194 
 CHI  HZ I        1844 56.91        11.2 0.29                           247 194 
 PRA  HZ EP   1   1844 40.43                             106     0.5 4  389 209 
                                                                                
