 2015 12 6 1826 34.0 L   6.786 -73.144150.9  RSN  9 0.4 2.0LRSN                1
 GAP=137        1.04       4.0     4.3  6.2 -0.2461E+01  0.7488E+01 -0.2115E+01E
 Epicentro: LOS SANTOS - SANTANDER                                             3
 ACTION:UPD 16-02-04 15:02 OP:cam  STATUS:               ID:20151206182634 L   I
 OLDACT:REG 15-12-06 20:04 OP:drio STATUS:               ID:20151206181746     3
 2015-12-06-1817-46M.COL___323                                                 6
 STAT SP IPHASW D HRMM SECON CODA AMPLIT PERI AZIMU VELO AIN AR TRES W  DIS CAZ7
 BAR2 EZ EP     D 1826 54.34                             171    0.1510 21.8 191 
 BAR2 EZ ES       1827  9.79                             171   -0.1710 21.8 191 
 BAR2 EZ I        1827 11.01        16.7 0.20            172           21.8 191 
 BRR  HZ EP       1826 56.22                             153    0.4910 72.1 300 
 BRR  HN ES       1827 13.42                             153    0.7210 72.1 300 
 BRR  HZ I        1827 17.90        10.7 0.22            151           72.1 300 
 PAM  EZ EP       1826 57.02                             151    0.2210 78.5  39 
 PAM  EN ES       1827 14.21                             151   -0.3910 78.5  39 
 PAM  EZ I        1827 16.47        17.5 0.48            154           78.5  39 
 RUS  HZ EP       1826 58.00                             145   -0.1210 99.0 176 
 RUS  HE ES       1827 16.92                             145   -0.0310 99.0 176 
 RUS  HZ I        1827 18.37         4.8 0.34            149           99.0 176 
 PTB  HZ EP       1827  1.33                             133   -0.02 9  148 259 
 PTB  HN ES       1827 22.52                             133   -0.19 9  148 259 
 PTB  HZ I        1827 28.25        13.0 0.54            134            148 259 
 SPBC HZ EP       1827  3.44                             130    0.68 9  162 219 
 SPBC HE ES       1827 24.50                             130   -0.73 9  162 219 
 SPBC HZ I        1827 27.75        19.2 0.10            132            162 219 
 ZAR  HZ EP       1827  6.50                             123   -0.33 9  205 293 
 ZAR  HE ES       1827 32.25                             123   -0.22 9  205 293 
 ZAR  HZ I        1827 38.75        11.3 0.52            124            205 293 
 SML  HZ EP       1827 10.41                             118   -0.64 8  245 335 
 SML  HN ES   4   1827 38.48                             118   -1.50 0  245 335 
 SML  HZ I        1827 42.80        15.2 0.10            120            245 335 
 GUY2CHZ EP   4   1827 18.82                             113    1.08 0  300 235 
 GUY2CHE ES       1827 52.19                             113    0.32 7  300 235 
 GUY2CHZ I        1828  1.20         8.0 0.74                           300 235 
                                                                                
