 2016  3 6 1627 11.4 L   6.796 -73.136144.6  RSN 18 0.5 2.6LRSN                1
 GAP=138        0.98       2.8     3.6  5.4 -0.1521E+01  0.7221E+01  0.1938E+01E
 Epicentro: LOS SANTOS - SANTANDER                                             3
 ACTION:UPD 16-05-13 21:21 OP:cam  STATUS:               ID:20160306162711 L   I
 OLDACT:UP  16-03-07 00:46 OP:mh   STATUS:               ID:20160306161752d    3
 OLDACT:UP  16-03-07 00:46 OP:mh   STATUS:               ID:20160306161752d    3
 OLDACT:UP  16-03-07 00:43 OP:mh   STATUS:               ID:20160306161752d    3
 OLDACT:UP  16-03-07 00:42 OP:mh   STATUS:               ID:20160306161752d    3
 OLDACT:UP  16-03-07 00:42 OP:mh   STATUS:               ID:20160306161752d    3
 OLDACT:UP  16-03-07 00:41 OP:mh   STATUS:               ID:20160306161752d    3
 OLDACT:UP  16-03-07 00:41 OP:mh   STATUS:               ID:20160306161752d    3
 OLDACT:UP  16-03-07 00:32 OP:mh   STATUS:               ID:20160306161752d    3
 OLDACT:DUP 16-03-07 00:32 OP:mh   STATUS:               ID:20160306161752d    3
 OLDACT:REG 16-03-06 21:20 OP:mh   STATUS:               ID:20160306161750     3
 2016-03-06-1617-50M.COL___324                                                 6
 STAT SP IPHASW D HRMM SECON CODA AMPLIT PERI AZIMU VELO AIN AR TRES W  DIS CAZ7
 BAR2 EZ EP     C 1627 31.01                             170    0.0810 23.2 193 
 BAR2 EZ ES       1627 45.87                             170   -0.2610 23.2 193 
 BAR2 EZ I        1627 47.09       152.2 0.34            167           23.2 193 
 PAM  EZ EP       1627 33.89                             150    0.3810 77.0  39 
 PAM  EN ES       1627 50.96                             150    0.2410 77.0  39 
 PAM  EZ I        1627 53.36        84.2 0.66            156           77.0  39 
 RUS  HZ EP       1627 35.01                             143   -0.0310  100 177 
 RUS  HN ES       1627 53.97                             143    0.5210  100 177 
 RUS  HZ I        1627 54.36        32.4 0.28            145            100 177 
 PTB  HZ EP       1627 37.88                             131   -0.52 9  149 259 
 PTB  HN ES       1627 58.77                             131   -0.67 9  149 259 
 PTB  HZ I        1628  4.13        44.0 0.20            130            149 259 
 OCA  HZ EP   1   1627 39.04                             129   -0.67 7  161 353 
 OCA  HN ES       1628  1.65                             129   -0.11 9  161 353 
 OCA  HZ I        1628  4.71        89.4 0.20            130            161 353 
 SPBC HZ EP       1627 40.02                             129    0.13 9  164 219 
 SPBC HN ES       1628  1.63                             129   -0.45 9  164 219 
 SPBC HZ I        1628  6.59        43.5 0.42            128            164 219 
 ZAR  HZ EP       1627 43.45                             122   -0.48 8  205 292 
 ZAR  HN ES       1628  9.43                             122    0.15 8  205 292 
 ZAR  HZ I        1628 15.46        54.6 0.30            121            205 292 
 NOR  HZ EP   1   1627 47.12                             118   -0.05 6  235 235 
 NOR  HN ES       1628 15.27                             118    0.22 8  235 235 
 NOR  HZ I        1628 20.68        20.0 0.22            118            235 235 
 CHI  HZ EP       1627 49.42                             117    0.36 8  249 195 
 CHI  HN ES       1628 18.40                             117   -0.01 8  249 195 
 CHI  HZ I        1628 21.97        16.8 0.58            118            249 195 
 ROSC BZ EP   4   1627 50.91                             116    1.39 0  253 211 
 ROSC BN ES   4   1628 21.61                             116    2.39 0  253 211 
 ROSC BZ I        1628 25.34        41.5 0.35            117            253 211 
 HEL  HZ EP       1627 52.37                             114    0.67 8  273 256 
 HEL  HN ES       1628 23.38                             114    0.27 8  273 256 
 HEL  HZ I        1628 30.39        13.6 0.35            114            273 256 
 URE  HZ EP   4   1627 54.97                             113    2.39 0  285 292 
 URE  HN ES   4   1628 23.26                             113   -1.42 0  285 292 
 URE  HZ I        1628 34.82        25.4 0.32            113            285 292 
 GUY2CHZ EP       1627 55.93                             112    0.86 7  302 235 
 GUY2CHN ES   4   1628 32.04                             112    2.94 0  302 235 
 GUY2CHZ I        1628 34.82         8.9 0.38                           302 235 
 VIL  SZ EP   1   1627 54.54                             112   -0.24 5  303 192 
 VIL  SN ES   1   1628 27.53                             112   -1.06 5  303 192 
 ELA  HZ EP   4   1628  1.06                             110    2.75 0  330 230 
 ELA  HN ES   4   1628 33.54                             110   -1.32 0  330 230 
 ELA  HZ I        1628 43.56        12.2 0.44            111            330 230 
 CBOC HZ EP   1   1627 58.31                             109   -0.10 5  335 252 
 CBOC HN ES       1628 35.89                             109    0.84 7  335 252 
 ANIL HZ EP   4   1628  6.04                             108    4.79 0  358 225 
 ANIL HE ES   4   1628 42.29                             108    2.18 0  358 225 
 ANIL HZ I        1628 50.85        31.6 0.30            109            358 225 
 ORTC HZ EP       1628  4.53                             106   -0.83 6  396 216 
 ORTC HN ES       1628 47.41                             106   -0.00 6  396 216 
 ORTC HZ I        1628 52.27         9.4 0.58            107            396 216 
                                                                                
