 2013  2 6 1421 33.2 L   6.698 -73.200150.8  RSN  4 0.2 1.7LRSN                1
 GAP=222        0.59       5.6     5.8  5.4  0.1638E+02  0.4987E+01  0.2794E+01E
 Epicentro: VILLANUEVA - SANTANDER                                             3
 ACTION:UPD 13-03-12 09:31 OP:ep   STATUS:               ID:20130206142133 L   I
 2013-02-06-1420-00M.COL___240                                                 6
 STAT SP IPHASW D HRMM SECON CODA AMPLIT PERI AZIMU VELO AIN AR TRES W  DIS CAZ7
 BAR2 SZ EP   1   1421 53.03                             175   -0.28 7 11.9 171 
 BAR2 SZ ES       1422  8.66                             175   -0.2910 11.9 171 
 BAR2 SZ I        1422  9.73         8.6 0.25            172           11.9 171 
 BRR  HZ EP       1421 54.98                             153   -0.0210 72.4 309 
 BRR  HN ES       1422 12.28                             153    0.3010 72.4 309 
 BRR  HN I        1422 15.65        19.1 0.18            152           72.4 309 
 RUS  HZ EP   1   1421 56.90                             148    0.13 7 90.0 172 
 RUS  HE ES   1   1422 15.48                             148    0.35 7 90.0 172 
 RUS  HE I        1422 17.63         5.9 0.39            148           90.0 172 
 PTB  HZ EP   1   1422  0.03                             135    0.08 7  140 263 
 PTB  HN ES   1   1422 20.48                             135   -0.29 7  140 263 
 PTB  HZ I        1422 24.64         3.6 0.12            134            140 263 
                                                                                
