 2015  2 6 1806  2.4 L   6.794 -73.184142.8  RSN  4 0.2 1.6LRSN                1
 GAP=143        0.43       3.0     3.2  4.6 -0.2367E+01  0.5566E+01 -0.2935E+01E
 Epicentro: ZAPATOCA - SANTANDER                                               3
 ACTION:UPD 15-04-30 21:23 OP:nd   STATUS:               ID:20150206180602 L   I
 OLDACT:ARG 15-02-06 20:23 OP:stll STATUS:               ID:20150206175747     3
 2015-02-06-1757-47M.COL___284                                                 6
 STAT SP IPHASW D HRMM SECON CODA AMPLIT PERI AZIMU VELO AIN AR TRES W  DIS CAZ7
 BAR2 EZ EP       18 6 21.80                             171    0.1510 22.3 180 
 BAR2 EZ ES   1   18 6 36.60                             171   -0.06 7 22.3 180 
 BAR2 EZ I        18 6 37.95         6.7 0.14            172           22.3 180 
 PAM  SZ EP   1   18 6 24.13                             149   -0.37 7 80.6  42 
 PAM  SE ES   1   18 6 41.90                             149    0.17 7 80.6  42 
 PAM  SZ I        18 6 43.83        14.8 0.12            151           80.6  42 
 RUS  HZ EP   1   18 6 26.02                             143    0.18 7  100 174 
 RUS  HE ES       18 6 44.02                             143   -0.1010  100 174 
 RUS  HZ I        18 6 45.51         2.5 0.24            147            100 174 
 PTB  HZ EP       18 6 28.74                             132    0.00 9  143 259 
 PTB  HN ES   1   18 6 49.26                             132   -0.02 7  143 259 
 PTB  HZ I        18 6 51.86         6.2 0.18            134            143 259 
                                                                                
