 2012  2 6 1526 17.6 L   6.198 -73.514115.2  RSN  5 0.2 1.6LRSN                1
 GAP=120        0.48       3.8     3.1  6.4  0.1035E+01  0.8065E+01 -0.6873E+01E
 ACTION:UP  12-03-07 16:28 OP:epov STATUS:               ID:20120206152617 L   I
 2012-02-06-1520-00M.COL___187                                                 6
 STAT SP IPHASW D HRMM SECON CODA AMPLIT PERI AZIMU VELO SNR AR TRES W  DIS CAZ7
 BAR2 SZ EP   1   1526 35.20                             152    0.20 7 56.9  40 
 BAR2 SZ I        1526 52.07         8.1 0.23                          56.9  40 
 RUS  HN ES   1   1526 49.32                             151   -0.05 7 58.4 125 
 PTB  HZ EP   1   1526 38.87                             133    0.12 7  111 290 
 PTB  HN ES   1   1526 54.96                             133   -0.28 7  111 290 
 PTB  HZ I        1526 57.69         0.0 0.18                           111 290 
 NOR  SZ EP   1   1526 44.03                             121   -0.15 7  166 245 
 NOR  SN ES   1   1527  5.15                             121    0.24 7  166 245 
 ZAR  HZ EP   1   1526 48.17                             114   -0.35 6  206 314 
 ZAR  HN ES   1   1527 12.91                             114    0.28 6  206 314 
 ZAR  HZ I        1527 18.42         4.7 0.19                           206 314 
                                                                                
