 2013  6 6 1806 41.1 L   6.745 -73.182148.5  RSN  4 0.2 1.6LRSN                1
 GAP=229        0.63       5.0     4.7  5.0  0.1157E+02  0.2323E+01  0.6214E+00E
 Epicentro: VILLANUEVA - SANTANDER                                             3
 ACTION:UPD 14-01-08 09:52 OP:ep   STATUS:               ID:20130606180641 L   I
 OLDACT:REG 13-06-06 18:48 OP:nd   STATUS:               ID:20130606175959     3
 2013-06-06-1759-59M.COL___260                                                 6
 STAT SP IPHASW D HRMM SECON CODA AMPLIT PERI AZIMU VELO AIN AR TRES W  DIS CAZ7
 BAR2 SZ EP       18 7  0.63                             173   -0.3310 16.9 180 
 BAR2 SZ ES       18 7 16.16                             173   -0.2810 16.9 180 
 BAR2 SZ I        18 7 18.47         8.5 0.28            176           16.9 180 
 BRR  HZ EP       18 7  2.66                             153    0.1210 70.9 304 
 BRR  HN ES       18 7 19.55                             153    0.3010 70.9 304 
 BRR  HZ I        18 7 33.12        17.7 0.42            151           70.9 304 
 RUS  HZ EP       18 7  4.83                             146    0.0910 94.9 173 
 RUS  HN ES       18 7 23.41                             146    0.2510 94.9 173 
 RUS  HZ I        18 7 24.72         3.8 0.34            158           94.9 173 
 PTB  HZ EP       18 7  7.89                             134    0.03 9  143 261 
 PTB  HN ES       18 7 28.51                             134   -0.20 9  143 261 
 PTB  HZ I        18 7 30.94         3.5 0.36            139            143 261 
                                                                                
