 2012  6 6 1346 52.2 L   6.816 -73.182138.0  RSN  8 0.4 2.0LRSN                1
 GAP=131        0.77       3.2     4.3  7.3  0.2603E+01  0.1558E+02  0.3047E+01E
 Epicentro: ZAPATOCA - SANTANDER                                               3
 ACTION:UPD 12-08-06 17:47 OP:ep   STATUS:               ID:20120606134652 L   I
 2012-06-06-1340-00M.COL___201                                                 6
 STAT SP IPHASW D HRMM SECON CODA AMPLIT PERI AZIMU VELO AIN AR TRES W  DIS CAZ7
 BAR2 SZ EP   1   1347 10.97                             169    0.07 8 24.8 180 
 BAR2 SZ ES   1   1347 25.37                             169   -0.14 8 24.8 180 
 BAR2 SZ I        1347 27.07        23.1 0.28            169           24.8 180 
 PAM  SN ES   1   1347 30.74                             149    0.34 8 78.7  43 
 RUS  HZ EP   1   1347 15.53                             141    0.20 7  103 174 
 RUS  HN ES       1347 33.46                             141    0.0710  103 174 
 RUS  HZ I        1347 35.13        19.0 0.32            143            103 174 
 PTB  HZ EP   1   1347 17.54                             131   -0.65 7  144 258 
 PTB  HN ES   1   1347 38.44                             131   -0.04 7  144 258 
 PTB  HZ I        1347 41.06        13.2 0.18            130            144 258 
 OCA  HN ES   1   1347 40.37                             128   -0.76 7  158 354 
 ZAR  HZ EP   1   1347 24.55                             121    0.88 6  200 292 
 ZAR  HN ES       1347 48.50                             121    0.27 9  200 292 
 ZAR  HZ I        1347 55.61        13.6 0.16            121            200 292 
 CHI  HZ EP   1   1347 29.28                             115   -0.25 6  249 194 
 CHI  HZ I        1347 31.90         6.5 0.14            116            249 194 
 CHI  HN ES   1   1347 58.48                             115   -0.19 6  249 194 
 HEL  HN ES   1   1348  2.27                             113   -0.12 6  269 255 
                                                                                
