 2012  5 6 1545 32.8 L   6.783 -73.178144.0  RSN 10 0.5 2.0LRSN                1
 GAP=133        1.10       5.5     5.8  8.4  0.3310E+00  0.1134E+02  0.1498E+02E
 Epicentro: LOS SANTOS - SANTANDER                                             3
 ACTION:UP  12-07-05 12:02 OP:pat  STATUS:               ID:20120506154532 L   I
 2012-05-06-1540-00M.COL___192                                                 6
 STAT SP IPHASW D HRMM SECON CODA AMPLIT PERI AZIMU VELO SNR AR TRES W  DIS CAZ7
 BAR2 SZ EP       1545 52.04                             171    -0.110   21 181 
 BAR2 SZ ES   1   1546  7.17                             171    -0.1 7   21 181 
 BAR2 SZ I        1546  8.86        35.7 0.19                            21 181 
 BRR  HZ EP       1545 53.84                             153     0.210   69 301 
 BRR  HE ES   1   1546 10.91                             153     1.1 7   69 301 
 BRR  HZ I        1546 11.83        14.8 0.17                            69 301 
 PAM  SZ EP   1   1545 54.97                             149    -0.1 7   81  41 
 PAM  SN ES   1   1546 11.92                             149    -0.5 7   81  41 
 RUS  HZ EP       1545 55.94                             144    -0.310   99 174 
 RUS  HN ES   1   1546 14.97                             144     0.4 7   99 174 
 RUS  HZ I        1546 16.62        18.6 0.41                            99 174 
 PTB  HZ EP   1   1545 58.83                             132    -0.4 7  144 259 
 PTB  HN ES   1   1546 19.07                             132    -0.8 7  144 259 
 ZAR  HN ES   1   1546 29.93                             122     0.1 6  201 293 
 ZAR  HZ I        1546 37.26         6.9 0.48                           201 293 
 NOR  SZ EP   1   1546  8.07                             119     0.1 6  231 234 
 NOR  SN ES   1   1546 34.66                             119    -0.8 6  231 234 
 CHI  HZ EP   1   1546  9.95                             117    -0.1 6  246 194 
 CHI  HN ES   1   1546 39.61                             117     0.4 6  246 194 
 CHI  HZ I        1546 42.76         6.3 0.36                           246 194 
 RREF HZ EP   1   1546 19.57                             111     1.2 5  318 229 
 PRA  HZ EP   1   1546 26.29                             106     0.5 4  389 209 
                                                                                
