 2012  4 6 1659  1.3 L   6.137 -73.743106.0  RSN  4 0.1 1.5LRSN                1
 GAP=189        0.35       4.5     3.7  9.6  0.2771E+01  0.1047E+02  0.2137E+02E
 Epicentro: LANDAZURI - SANTANDER                                              3
 ACTION:UPD 12-07-05 11:51 OP:tino STATUS:               ID:20120406165901 L   I
 2012-04-06-1650-00M.COL___196                                                 6
 STAT SP IPHASW D HRMM SECON CODA AMPLIT PERI AZIMU VELO AIN AR TRES W  DIS CAZ7
 RUS  HZ EP   3   1659 19.46                             142     0.0 2   78 110 
 RUS  HN ES   3   1659 33.55                             142    -0.1 2   78 110 
 BAR2 SZ EP       1659 19.35                             141     0.110   80  51 
 BAR2 SZ I        1659 34.78         9.9 0.34                            80  51 
 PTB  HZ EP       1659 19.88                             137     0.010   91 299 
 BRR  HZ EP       1659 21.17                             132    -0.110  107   2 
 BRR  HZ I        1659 21.45         6.1 0.10                           107   2 
 BRR  HN ES   1   1659 37.01                             132     0.1 7  107   2 
                                                                                
