 2011  8 6 1856 42.6 L   6.760 -73.104140.8  RSN 10 0.2 2.5LRSN                1
 GAP=129        0.38       2.4     3.1  3.2 -0.2018E+01  0.4996E+00  0.2572E+01E
 Epicentro: LOS SANTOS - SANTANDER                                             3
 ACTION:UPD 12-07-25 14:06 OP:epov STATUS:               ID:20110806185642 L   I
 2011-08-06-1840-00M.COL___145                                                 6
 STAT SP IPHASW D HRMM SECON CODA AMPLIT PERI AZIMU VELO AIN AR TRES W  DIS CAZ7
 BAR2 SZ IP       1857  1.57                             171   -0.0410 20.5 205 
 BAR2 SZ ES   1   1857 16.07                             171   -0.35 7 20.5 205 
 BAR2 SZ I        1857 17.45        86.1 0.30                          20.5 205 
 BRR  HZ EP       1857  3.47                             150   -0.1510 77.4 300 
 BRR  HE ES   1   1857 20.27                             150    0.28 7 77.4 300 
 BRR  HZ I        1857 24.90        79.5 0.18                          77.4 300 
 PAM  SZ EP   1   1857  4.58                             150    0.21 7 78.1  35 
 PAM  SN ES   2   1857 21.50                             150    0.18 5 78.1  35 
 RUS  HZ EP   1   1857  5.55                             144   -0.02 7 96.0 179 
 RUS  HN ES   2   1857 23.78                             144    0.33 5 96.0 179 
 RUS  HZ I        1857 25.85        37.1 0.41                          96.0 179 
 NOR  SZ EP   1   1857 18.27                             117    0.05 6  236 236 
 NOR  SN ES   2   1857 45.62                             117   -0.35 4  236 236 
 CHI  HZ EP   1   1857 19.85                             116    0.11 6  246 196 
 CHI  HE ES   2   1857 48.67                             116   -0.01 4  246 196 
 CHI  HZ I        1857 52.35        14.1 0.41                           246 196 
 RREF HZ EP   2   1857 28.52                             110   -0.13 3  322 231 
 RREF HN ES   2   1858  4.58                             110    0.05 3  322 231 
 RREF HZ I        1858  9.78        16.6 0.46                           322 231 
 SDV  BZ EP   2   1857 31.81                             107   -0.61 3  360  49 
 SDV  BZ I        1857 32.21        10.5 0.15                           360  49 
 PRA  HZ EP   2   1857 36.17                             106    0.36 3  390 210 
 PRA  HN ES   2   1858 17.38                             106    0.09 3  390 210 
 SJA  SZ EP   2   1857 36.96                             105    0.31 3  397 194 
                                                                                
