 2014 12 6 1128 15.1 L   6.797 -73.121148.0  RSN 13 0.4 1.8LRSN                1
 GAP= 72        0.89       3.2     3.7  5.4  0.2468E+00  0.5372E+01  0.2688E+01E
 Epicentro: LOS SANTOS - SANTANDER                                             3
 ACTION:UPD 15-02-10 17:00 OP:nd   STATUS:               ID:20141206112815 L   I
 OLDACT:DUP 14-12-06 21:56 OP:spq  STATUS:               ID:20141206111745d    3
 2014-12-06-1117-44M.COL___311                                                 6
 STAT SP IPHASW D HRMM SECON CODA AMPLIT PERI AZIMU VELO AIN AR TRES W  DIS CAZ7
 BAR2 SZ EP   1   1128 34.45                             171   -0.58 7 23.6 197 
 BAR2 SZ ES   1   1128 50.16                             171   -0.40 7 23.6 197 
 BAR2 SZ I        1128 51.64         8.4 0.44            168           23.6 197 
 BRR  HZ EP       1128 36.82                             152    0.1610 73.7 298 
 BRR  HN ES       1128 54.20                             152    0.7410 73.7 298 
 BRR  HZ I        1128 54.99        12.2 0.44            150           73.7 298 
 PAM  SZ EP       1128 37.64                             152    0.1410 75.9  38 
 PAM  SN ES       1128 54.83                             152   -0.1210 75.9  38 
 PAM  SZ I        1128 56.96         8.0 0.54            156           75.9  38 
 RUS  HZ EP       1128 38.94                             144   -0.1310  100 178 
 RUS  HN ES       1128 57.74                             144    0.0010  100 178 
 RUS  HZ I        1128 58.74         6.4 0.36            145            100 178 
 PTB  HZ EP       1128 41.70                             132   -0.81 9  150 259 
 PTB  HN ES   4   1129  2.78                             132   -1.09 0  150 259 
 PTB  HZ I        1129  5.66         6.3 0.16            131            150 259 
 TAM  HZ EP   1   1128 43.05                             132    0.31 7  152 105 
 ZAR  HZ EP   1   1128 48.64                             123    0.65 6  207 292 
 ZAR  HE ES       1129 13.08                             123   -0.54 8  207 292 
 ZAR  HZ I        1129 18.63         7.9 0.42            122            207 292 
 NOR  HZ EP       1128 51.17                             119   -0.03 8  237 235 
 NOR  HN ES       1129 19.49                             119    0.15 8  237 235 
 NOR  HZ I        1129 26.01         5.0 0.22            119            237 235 
 SML  HZ EP   1   1128 51.70                             118   -0.34 6  245 335 
 SML  HN ES   1   1129 21.11                             118    0.29 6  245 335 
 SML  HZ I        1129 23.19         8.4 0.10            119            245 335 
 CHI  HZ EP       1128 53.14                             118    0.14 8  249 196 
 CHI  HN ES   1   1129 23.01                             118    0.48 6  249 196 
 CHI  HZ I        1129 26.33         2.2 0.68            118            249 196 
 HEL  HZ EP   4   1128 56.99                             115    1.25 0  275 256 
 HEL  HE ES   1   1129 27.59                             115    0.18 6  275 256 
 HEL  HZ I        1129 34.36         3.7 0.40            115            275 256 
 GUY2CHZ EP   1   1128 59.31                             113    0.24 5  303 235 
 GUY2CHN ES   4   1129 35.00                             113    1.66 0  303 235 
 GUY2CHZ I        1129 40.56         2.5 0.32                           303 235 
 SJC  HZ EP   4   1129  8.64                             106   -2.33 0  411 327 
 SJC  HE ES   4   1129 49.94                             106   -4.59 0  411 327 
 SJC  HZ I        1129 53.64         1.7 0.34            107            411 327 
                                                                                
