 2014  7 6 1737 26.3 L   6.544 -73.187126.4  RSN  5 0.4 1.3LRSN                1
 GAP=165        0.90       5.1     5.8  7.3  0.9791E+01  0.1927E+02  0.1160E+02E
 Epicentro: PINCHOTE - SANTANDER                                               3
 ACTION:UPD 15-03-16 20:41 OP:nd   STATUS:               ID:20140706173726 L   I
 OLDACT:DUP 14-07-06 23:28 OP:spq  STATUS:               ID:20140706172819d    3
 OLDACT:REG 14-07-06 20:21 OP:spq  STATUS:               ID:20140706172818     3
 2014-07-06-1728-18M.COL___265                                                 6
 STAT SP IPHASW D HRMM SECON CODA AMPLIT PERI AZIMU VELO AIN AR TRES W  DIS CAZ7
 BAR2 SZ ES   1   1737 55.90                             177   -0.78 7 5.35   6 
 BAR2 SZ I        1738  0.86         3.5 0.29            171           5.35   6 
 RUS  HZ EP       1737 46.62                             148    0.3710 72.9 171 
 RUS  HN ES       1738  1.91                             148    0.1410 72.9 171 
 RUS  HZ I        1738  9.22         3.4 0.40            149           72.9 171 
 BRR  HZ EP       1737 46.62                             144    0.2510 85.1 317 
 BRR  HN ES       1738  1.92                             144   -0.0810 85.1 317 
 BRR  HZ I        1738  8.57         5.4 0.41            148           85.1 317 
 PTB  HZ EP       1737 50.84                             129   -0.25 9  140 270 
 PTB  HN ES       1738 10.84                             129    0.45 9  140 270 
 PTB  HZ I        1738 15.36         2.1 0.16            132            140 270 
 RREF HZ EP       1738  8.64                             108   -0.60 7  300 233 
 RREF HE ES       1738 42.47                             108   -0.22 7  300 233 
 RREF HZ I        1738 53.99         1.4 0.34            112            300 233 
                                                                                
