 2016  3 6 1602 14.8 L   6.797 -73.142147.4  RSN 10 0.4 2.0LRSN                1
 GAP=137        0.93       2.9     3.7  5.4 -0.2335E+01  0.8056E+01  0.5550E+00E
 Epicentro: LOS SANTOS - SANTANDER                                             3
 ACTION:UPD 16-05-13 21:21 OP:cam  STATUS:               ID:20160306160214 L   I
 OLDACT:UP  16-03-06 23:39 OP:mh   STATUS:               ID:20160306155749     3
 OLDACT:UP  16-03-06 23:39 OP:mh   STATUS:               ID:20160306155749     3
 OLDACT:UP  16-03-06 23:39 OP:mh   STATUS:               ID:20160306155749     3
 OLDACT:UP  16-03-06 23:38 OP:mh   STATUS:               ID:20160306155749     3
 OLDACT:REG 16-03-06 21:19 OP:mh   STATUS:               ID:20160306155749     3
 2016-03-06-1557-49M.COL___324                                                 6
 STAT SP IPHASW D HRMM SECON CODA AMPLIT PERI AZIMU VELO AIN AR TRES W  DIS CAZ7
 BAR2 EZ EP       16 2 34.65                             171   -0.0110 23.1 191 
 BAR2 EZ ES       16 2 49.98                             171   -0.1410 23.1 191 
 BAR2 EZ I        16 2 51.85        17.8 0.21            168           23.1 191 
 PAM  EN EP       16 2 37.75                             151    0.5210 77.4  39 
 PAM  EE ES   1   16 2 54.26                             151   -0.43 7 77.4  39 
 PAM  EZ ES       16 2 54.96                             151    0.2710 77.4  39 
 PAM  EN I        16 2 55.64         7.4 0.20            157           77.4  39 
 RUS  HZ EP       16 2 38.66                             144   -0.0710  100 176 
 RUS  HN ES       16 2 57.32                             144   -0.0410  100 176 
 RUS  HZ I        16 2 59.63        12.4 0.48            145            100 176 
 PTB  HZ EP       16 2 41.46                             132   -0.51 9  148 259 
 PTB  HN ES       16 3  2.65                             132   -0.48 9  148 259 
 PTB  HZ I        16 3  7.36        14.9 0.42            132            148 259 
 OCA  HN EP       16 2 42.73                             130   -0.58 9  161 353 
 OCA  HE ES       16 3  5.92                             130    0.41 9  161 353 
 SPBC HZ EP       16 2 42.97                             129   -0.50 9  163 219 
 SPBC HN ES   1   16 3  5.97                             129    0.18 7  163 219 
 SPBC HZ I        16 3  7.84        20.9 0.10            129            163 219 
 ZAR  HZ EP       16 2 47.12                             123   -0.32 9  204 292 
 ZAR  HN ES       16 3 13.09                             123    0.22 9  204 292 
 ZAR  HZ I        16 3 18.50        19.1 0.38            123            204 292 
 NOR  HZ EP       16 2 50.72                             119    0.04 8  235 235 
 NOR  HE ES       16 3 18.82                             119    0.19 8  235 235 
 NOR  HZ I        16 3 27.44        13.7 0.78            119            235 235 
 CHI  HZ EP       16 2 52.73                             117    0.12 8  248 195 
 CHI  HN ES   1   16 3 22.68                             117    0.61 6  248 195 
 CHI  HZ I        16 3 27.44         6.4 0.28            119            248 195 
 HEL  HZ EP       16 2 56.00                             115    0.83 8  272 256 
 HEL  HN ES   1   16 3 27.35                             115    0.73 6  272 256 
 HEL  HZ I        16 3 33.49         5.0 0.58            116            272 256 
                                                                                
