 2015  2 6 1453 20.1 L   6.806 -73.158148.5  RSN  6 0.4 1.7LRSN                1
 GAP=135        1.06       4.3     5.7  8.2 -0.5863E+01  0.1540E+02 -0.4781E+01E
 Epicentro: LOS SANTOS - SANTANDER                                             3
 ACTION:UPD 15-04-30 21:23 OP:nd   STATUS:               ID:20150206145320 L   I
 OLDACT:ARG 15-02-06 20:23 OP:stll STATUS:               ID:20150206144749     3
 2015-02-06-1447-49M.COL___283                                                 6
 STAT SP IPHASW D HRMM SECON CODA AMPLIT PERI AZIMU VELO AIN AR TRES W  DIS CAZ7
 BAR2 EZ EP       1453 40.16                             171    0.0610 23.8 187 
 BAR2 EZ ES       1453 55.75                             171    0.0710 23.8 187 
 BAR2 EZ I        1453 58.35        11.7 0.32            171           23.8 187 
 PAM  SZ EP       1453 43.12                             151    0.4610 77.7  41 
 PAM  SN ES       1454  0.43                             151    0.2010 77.7  41 
 PAM  SZ I        1454  2.44         9.6 0.20            156           77.7  41 
 RUS  HZ EP       1453 44.19                             144   -0.0110  101 175 
 RUS  HN ES       1454  2.13                             144   -0.8510  101 175 
 RUS  HZ I        1454  5.53         5.6 0.34            148            101 175 
 PTB  HZ EP       1453 47.15                             133   -0.06 9  147 258 
 PTB  HN ES       1454  8.40                             133    0.06 9  147 258 
 PTB  HZ I        1454 15.61        12.1 0.50            134            147 258 
 SPBC HZ EP       1453 48.58                             130   -0.23 9  163 218 
 SPBC HN ES       1454 11.93                             130    0.75 9  163 218 
 SML  HN ES       1454 24.80                             118   -0.58 8  243 336 
                                                                                
