 2013  7 6 1500 47.4 L   6.814 -73.126148.4  RSN 24 0.5 2.9LRSN                1
 GAP= 49        1.26       2.4     2.9  4.8 -0.1098E+01  0.2771E+01  0.1636E+01E
 Epicentro: LOS SANTOS - SANTANDER                                             3
 ACTION:UPD 13-08-12 10:35 OP:ep   STATUS:               ID:20130706150047 L   I
 OLDACT:UP  13-07-06 18:55 OP:stll STATUS:               ID:20130706145849     3
 OLDACT:REG 13-07-06 16:00 OP:stll STATUS:               ID:20130706145849     3
 2013-07-06-1458-49M.COL___221                                                 6
 STAT SP IPHASW D HRMM SECON CODA AMPLIT PERI AZIMU VELO AIN AR TRES W  DIS CAZ7
 BAR2 SZ IP     D 15 1  7.50                             170    0.0710 25.3 194 
 BAR2 SZ I        15 1  7.64        86.2 0.42            169           25.3 194 
 BAR2 SZ ES       15 1 22.50                             170   -0.5210 25.3 194 
 GIR2 SZ EP       15 1  7.49                             168    0.0910 30.3 346 
 GIR2 SZ ES       15 1 22.99                             168    0.0110 30.3 346 
 BRR  HZ IP     C 15 1  9.33                             153    0.3810 72.5 297 
 BRR  HZ I        15 1  9.60        93.9 0.28            152           72.5 297 
 BRR  HN ES       15 1 26.62                             153    0.9010 72.5 297 
 BRR  HN I        15 1 30.11       273.4 0.18            152           72.5 297 
 PAM  SZ EP       15 1 10.22                             152    0.4310 74.8  39 
 PAM  SN ES       15 1 27.46                             152    0.2310 74.8  39 
 PAM  SN I        15 1 28.73       101.2 0.18            155           74.8  39 
 RUS  HZ IP     C 15 1 11.38                             144   -0.1710  102 177 
 RUS  HE ES       15 1 30.31                             144   -0.0510  102 177 
 RUS  HE I        15 1 33.23        66.1 0.38            145            102 177 
 GRA  SZ ES       15 1 32.84                             138    0.3510  124  17 
 CAPV BZ EP       15 1 15.26                             133    0.43 9  147  38 
 CAPV BZ ES       15 1 35.28                             133   -0.91 9  147  38 
 PTB  HZ EP       15 1 13.90                             132   -0.95 9  150 258 
 PTB  HE ES       15 1 35.67                             132   -0.55 9  150 258 
 PTB  HE I        15 1 37.09       107.6 0.32            132            150 258 
 TAM  HZ EP       15 1 15.34                             131    0.17 9  153 106 
 TAM  HN ES       15 1 37.57                             131    0.77 9  153 106 
 OCA  HZ EP       15 1 15.93                             130    0.08 9  159 352 
 OCA  HN ES       15 1 37.31                             130   -0.69 9  159 352 
 OCA  HN I        15 1 41.09       265.1 0.24            132            159 352 
 YOP  SZ EP       15 1 18.09                             127    0.38 9  179 154 
 YOP  SN ES       15 1 40.49                             127   -0.83 9  179 154 
 ZAR  HZ EP       15 1 19.94                             123   -0.27 8  206 292 
 ZAR  HE ES       15 1 45.82                             123    0.05 8  206 292 
 AGZ  SZ EP       15 1 21.69                             121   -0.04 8  220 161 
 NOR  HN EP       15 1 23.31                             119   -0.30 8  237 234 
 NOR  HE ES       15 1 52.06                             119    0.24 8  237 234 
 NOR  HE I        15 1 55.40       131.2 0.50            119            237 234 
 SML  HZ EP       15 1 23.84                             118   -0.33 8  243 335 
 SML  HE ES       15 1 53.29                             118    0.47 8  243 335 
 CHI  HZ EP       15 1 25.68                             117    0.18 8  251 196 
 CHI  HN ES       15 1 54.59                             117   -0.61 8  251 196 
 CHI  HN I        15 1 59.56        44.4 0.38            118            251 196 
 ROSC BN ES       15 1 56.82                             117    0.80 8  255 211 
 HEL  HZ EP       15 1 28.93                             115    0.87 8  275 256 
 HEL  HN ES       15 1 59.57                             115   -0.18 8  275 256 
 HEL  HN I        15 2  6.57        34.3 0.26            116            275 256 
 SOCV BZ EP       15 1 29.60                             113   -0.71 7  299  57 
 GUY2CHZ EP       15 1 32.44                             113    0.97 7  304 235 
 GUY2CHN ES       15 2  6.36                             113    0.55 7  304 235 
 RREF HZ EP       15 1 34.68                             111    0.68 7  324 229 
 RREF HN ES       15 2 10.02                             111   -0.29 7  324 229 
 RREF HZ I        15 2 18.97        29.9 0.36            112            324 229 
 DBB  SZ EP       15 1 34.87                             110   -0.39 7  342 274 
 COD  HZ EP       15 1 35.89                             109    0.12 6  347 354 
 COD  HN ES       15 2 12.57                             109   -0.91 6  347 354 
 PRA  HZ EP       15 1 41.48                             107    0.15 6  394 210 
 PRA  HN ES       15 2 21.80                             107   -1.56 6  394 210 
 PRA  HN I        15 2 27.85        15.0 0.44            108            394 210 
                                                                                
