 2017  2 6 1646 53.3 L   6.779 -73.137149.7  RSN 13 0.5 2.3LRSN                1
 GAP= 71        1.04       4.2     3.1  5.4  0.1499E+01  0.3499E+01  0.4859E+01E
 Epicentro: LOS SANTOS - SANTANDER                                             3
 ACTION:UPD 17-05-24 15:33 OP:jn   STATUS:               ID:20170206164653 L   I
 OLDACT:UP  17-02-07 02:07 OP:and  STATUS:               ID:20170206163445     3
 OLDACT:UP  17-02-07 02:06 OP:and  STATUS:               ID:20170206163445     3
 OLDACT:UP  17-02-07 02:06 OP:and  STATUS:               ID:20170206163445     3
 OLDACT:UP  17-02-07 02:04 OP:and  STATUS:               ID:20170206163445     3
 OLDACT:UP  17-02-07 02:04 OP:and  STATUS:               ID:20170206163445     3
 OLDACT:UP  17-02-07 02:04 OP:and  STATUS:               ID:20170206163445     3
 OLDACT:UP  17-02-07 02:03 OP:and  STATUS:               ID:20170206163445     3
 OLDACT:UP  17-02-07 02:01 OP:and  STATUS:               ID:20170206163445     3
 OLDACT:REG 17-02-06 20:41 OP:and  STATUS:               ID:20170206163445     3
 2017-02-06-1638-00M.COL___340                                                 6
 STAT SP IPHASW D HRMM SECON CODA AMPLIT PERI AZIMU VELO AIN AR TRES W  DIS CAZ7
 BAR2 EZ IP     D 1647 13.27                             171   -0.0610 21.3 194 
 BAR2 EZ ES       1647 28.36                             171   -0.6210 21.3 194 
 BAR2 EZ I        1647 30.77        36.0 0.20            168           21.3 194 
 BRR  HZ EP       1647 15.24                             152    0.2910 73.2 300 
 BRR  HN ES       1647 32.86                             152    0.9910 73.2 300 
 BRR  HZ I        1647 34.87        31.7 0.14            151           73.2 300 
 PAM  EZ EP     D 1647 15.96                             151   -0.0110 78.5  38 
 PAM  EN ES       1647 33.22                             151   -0.4610 78.5  38 
 PAM  EZ I        1647 35.53        33.0 0.54            156           78.5  38 
 RUS  HZ IP     D 1647 17.11                             145   -0.1310 98.2 177 
 RUS  HN ES       1647 36.01                             145    0.0710 98.2 177 
 RUS  HZ I        1647 37.53        18.0 0.20            145           98.2 177 
 PTB  HZ EP       1647 20.05                             133   -0.56 9  148 260 
 PTB  HN ES       1647 41.60                             133   -0.33 9  148 260 
 PTB  HZ I        1647 48.66        45.6 0.21            132            148 260 
 TAM  HZ IP     D 1647 21.43                             132    0.31 9  154 104 
 TAM  HN ES       1647 43.19                             132    0.35 9  154 104 
 ZAR  HZ EP       1647 25.92                             123   -0.23 8  206 293 
 ZAR  HE ES   2   1647 52.68                             123    0.87 4  206 293 
 ZAR  HZ I        1647 58.58        34.2 0.30            124            206 293 
 NOR  HZ EP       1647 29.10                             119   -0.07 8  234 235 
 NOR  HN ES       1647 57.42                             119    0.24 8  234 235 
 NOR  HZ I        1648  1.03        20.1 0.18            120            234 235 
 CHI  HZ EP       1647 31.53                             118    0.56 8  247 196 
 CHI  HN ES   2   1648  0.32                             118   -0.07 4  247 196 
 CHI  HZ I        1648  8.44         8.5 0.28            119            247 196 
 URE  HZ EP   3   1647 33.30                             114   -1.43 2  286 292 
 URE  HN ES       1648  6.52                             114   -0.55 7  286 292 
 PTGC HZ EP     C 1647 36.50                             112   -0.52 7  306 159 
 PTGC HN ES   3   1648  9.57                             112   -1.57 2  306 159 
 CBOC HZ EP       1647 41.14                             110    0.76 7  334 253 
 CBOC HN ES   4   1648 14.53                             110   -2.59 0  334 253 
 CBOC HZ I        1648 22.82         6.7 0.23            111            334 253 
 SJC  HZ EP   9   1647 47.24                             106   -2.01 0  412 327 
 SJC  HN ES   2   1648 30.11                             107   -0.80 3  412 327 
 SJC  HZ I        1648 33.41         5.9 0.38            107            412 327 
 CRJC HZ EP   4   1647 52.92                             104   -3.22 0  470   3 
 CRJC HN ES   4   1648 43.06                             104   -2.13 0  470   3 
                                                                                
