 2013  9 6 1541  5.9 L   6.752 -73.121142.6  RSN  9 0.4 2.0LRSN                1
 GAP=142        0.65       3.7     4.8  5.8 -0.7690E+01  0.9662E+01  0.1686E+01E
 Epicentro: LOS SANTOS - SANTANDER                                             3
 ACTION:UPD 13-10-22 09:20 OP:ep   STATUS:               ID:20130906154105 L   I
 OLDACT:UP  13-09-06 21:03 OP:mh   STATUS:               ID:20130906153959     3
 OLDACT:UP  13-09-06 21:02 OP:mh   STATUS:               ID:20130906153959     3
 OLDACT:REG 13-09-06 16:59 OP:mh   STATUS:               ID:20130906153959     3
 2013-09-06-1539-59M.COL___269                                                 6
 STAT SP IPHASW D HRMM SECON CODA AMPLIT PERI AZIMU VELO AIN AR TRES W  DIS CAZ7
 BAR2 SZ EP   1   1541 25.06                             172   -0.00 7 18.9 201 
 BAR2 SZ ES   1   1541 40.34                             172    0.33 7 18.9 201 
 BAR2 SZ I        1541 40.99        19.1 0.36            169           18.9 201 
 BRR  HZ EP   1   1541 26.97                             150   -0.03 7 76.2 301 
 BRR  HN ES   2   1541 44.55                             150    1.09 5 76.2 301 
 BRR  HE I        1541 48.03        28.8 0.28            148           76.2 301 
 PAM  SZ EP   1   1541 27.81                             149   -0.12 7 79.9  36 
 PAM  SN ES       1541 44.92                             149   -0.2010 79.9  36 
 PAM  SZ I        1541 47.18        14.4 0.56            153           79.9  36 
 RUS  HZ EP   1   1541 29.02                             145    0.08 7 95.1 177 
 RUS  HN ES   2   1541 46.75                             145   -0.17 5 95.1 177 
 RUS  HN I        1541 48.17        16.4 0.36            148           95.1 177 
 SPBC HZ EP   1   1541 33.74                             129   -0.19 7  161 221 
 SPBC HN ES       1541 55.54                             129   -0.26 9  161 221 
 ZAR  HZ EP   1   1541 39.00                             121    0.39 6  209 293 
 ZAR  HN ES   2   1542  3.10                             121   -1.03 4  209 293 
 ZAR  HZ I        1542  9.94        14.8 0.34            121            209 293 
 GUY2CHZ EP   4   1541 50.78                             112    1.51 0  300 236 
 GUY2CHN ES   2   1542 23.19                             112    0.09 4  300 236 
 GUY2CHZ I        1542 32.20         2.9 0.28                           300 236 
 PRA  HZ EP   1   1541 59.50                             106    0.58 4  389 210 
 PRA  HN ES   2   1542 40.66                             106    0.37 3  389 210 
 PRA  HZ I        1542 46.71         4.1 0.32            108            389 210 
 SJC  HZ EP   4   1541 59.21                             105   -2.84 0  415 327 
 SJC  HN ES   4   1542 40.86                             105   -5.00 0  415 327 
 SJC  HZ I        1542 44.73         2.0 0.26            106            415 327 
                                                                                
