 2017  8 6 1120 25.3 L   6.486 -73.850  0.0  RSN  4 0.3 0.7LRSN                1
 GAP=147        0.81       2.4     1.7  5.2  0.8338E+00 -0.9222E+00 -0.1158E+01E
 Epicentro: CIMITARRA - SANTANDER                                              3
 ACTION:UPD 17-09-04 20:17 OP:rebc STATUS:               ID:20170806112025 L   I
 OLDACT:DUP 17-08-06 22:44 OP:edw  STATUS:               ID:20170806111739d    3
 OLDACT:UP  17-08-06 22:43 OP:edw  STATUS:               ID:20170806111738     3
 OLDACT:REG 17-08-06 20:26 OP:edw  STATUS:               ID:20170806111738     3
 2017-08-06-1118-00M.COL___380                                                 6
 STAT SP IPHASW D HRMM SECON CODA AMPLIT PERI AZIMU VELO AIN AR TRES W  DIS CAZ7
 PTB  HZ EP       1120 36.86                              47    0.2110 67.3 275 
 PTB  HN ES       1120 45.55                              47    0.0210 67.3 275 
 PTB  HZ I        1120 45.80         2.2 0.16            125           67.3 275 
 BRR  HZ EP       1120 36.91                              47   -0.1910 70.4  13 
 BRR  HN ES       1120 46.34                              47    0.0110 70.4  13 
 BAR2 EZ EP       1120 38.23                              47    0.2210 74.8  81 
 BAR2 EZ ES       1120 48.04                              47    0.0910 74.8  81 
 BAR2 EZ I        1120 50.08         2.8 0.42            118           74.8  81 
 RUS  HZ EP       1120 42.50                              47   -0.6910  107 128 
 RUS  HN ES       1120 57.49                              47    0.3210  107 128 
 RUS  HZ I        1120 58.36         2.5 0.46            107            107 128 
                                                                                
