 2015  4 6 1003 45.6 L   6.795 -73.172145.8  RSN  5 0.5 1.9LRSN                1
 GAP=133        1.20       6.4     6.1  8.8 -0.3690E+01  0.6404E+01  0.2587E+01E
 Epicentro: LOS SANTOS - SANTANDER                                             3
 ACTION:UPD 15-06-03 16:53 OP:cam  STATUS:               ID:20150406100345 L   I
 OLDACT:REG 15-04-06 20:45 OP:carl STATUS:               ID:20150406095746     3
 2015-04-06-0957-46M.COL___264                                                 6
 STAT SP IPHASW D HRMM SECON CODA AMPLIT PERI AZIMU VELO AIN AR TRES W  DIS CAZ7
 BAR2 EZ EP       10 4  5.06                             171   -0.1410 22.4 183 
 BAR2 EZ ES       10 4 19.81                             171   -0.6910 22.4 183 
 BAR2 EZ I        10 4 21.40        15.1 0.26            171           22.4 183 
 BRR  HZ EP       10 4  7.02                             153    0.4110 68.9 300 
 BRR  HN ES       10 4 23.76                             153    0.7510 68.9 300 
 BRR  HZ I        10 4 24.34        11.6 0.14            154           68.9 300 
 PAM  SZ EP       10 4  8.04                             150    0.1010 79.7  41 
 PAM  SN ES       10 4 25.09                             150   -0.2910 79.7  41 
 PAM  SZ I        10 4 27.02        14.2 0.48            152           79.7  41 
 RUS  HZ EP       10 4  9.55                             144    0.2310  100 174 
 RUS  HN ES       10 4 28.27                             144    0.4410  100 174 
 RUS  HZ I        10 4 29.69        13.3 0.34            145            100 174 
 PTB  HZ EP       10 4 11.63                             133   -0.66 9  145 259 
 PTB  HN ES       10 4 32.85                             133   -0.26 9  145 259 
 PTB  HZ I        10 4 35.35        12.7 0.10            134            145 259 
                                                                                
