 2016  6 6 1155 32.8 L   6.793 -73.152147.0  RSN  9 0.3 2.0LRSN                1
 GAP=136        0.80       3.3     3.9  4.7 -0.1871E+01  0.1229E+01  0.3650E+01E
 Epicentro: LOS SANTOS - SANTANDER                                             3
 ACTION:UPD 16-07-21 22:15 OP:rebc STATUS:               ID:20160606115532 L   I
 OLDACT:UP  16-06-06 21:53 OP:edw  STATUS:               ID:20160606114744     3
 OLDACT:REG 16-06-06 20:11 OP:edw  STATUS:               ID:20160606114744     3
 2016-06-06-1147-44M.COL___325                                                 6
 STAT SP IPHASW D HRMM SECON CODA AMPLIT PERI AZIMU VELO AIN AR TRES W  DIS CAZ7
 BAR2 EZ EP       1155 52.33                             171   -0.2410 22.4 189 
 BAR2 EZ ES       1156  7.60                             171   -0.3810 22.4 189 
 BAR2 EZ I        1156  9.18        31.3 0.32                          22.4 189 
 BRR  HZ EP       1155 54.18                             153    0.1010 71.0 299 
 BRR  HN ES       1156 11.44                             153    0.7710 71.0 299 
 BRR  HZ I        1156 16.13        15.9 0.12                          71.0 299 
 PAM  EZ EP       1155 55.31                             151    0.0910 78.5  40 
 RUS  HZ EP       1155 56.56                             144   -0.0710 99.8 176 
 RUS  HN ES       1156 15.29                             144    0.0810 99.8 176 
 RUS  HZ I        1156 16.57        10.9 0.20                          99.8 176 
 PTB  HZ EP       1155 59.41                             132   -0.39 9  147 259 
 PTB  HN ES       1156 20.29                             132   -0.56 9  147 259 
 PTB  HZ I        1156 25.80         9.8 0.16                           147 259 
 SPBC HZ EP       1156  1.40                             129    0.10 9  162 219 
 SPBC HE ES       1156 23.40                             129   -0.12 9  162 219 
 SPBC HZ I        1156 27.67        15.3 0.14                           162 219 
 NOR  HZ EP       1156  8.44                             119   -0.06 8  234 235 
 NOR  HN ES       1156 36.50                             119    0.17 8  234 235 
 NOR  HZ I        1156 43.26         5.5 0.20                           234 235 
 CHI  HZ EP       1156 10.73                             117    0.26 8  248 195 
 CHI  HN ES       1156 39.97                             117    0.12 8  248 195 
 CHI  HZ I        1156 43.46         5.0 0.72                           248 195 
 PRA  HZ EP       1156 26.25                             107    0.00 6  391 210 
 PRA  HN ES       1157  8.44                             107    0.51 6  391 210 
 PRA  HZ I        1157 13.71         6.1 0.30                           391 210 
                                                                                
