 2017  8 6 1253  5.6 L   6.194 -73.564113.9  RSN  5 0.3 1.5LRSN                1
 GAP=122        0.90       4.7     3.7  8.6  0.2628E+01  0.1651E+02  0.4845E+01E
 Epicentro: LA PAZ - SANTANDER                                                 3
 ACTION:UPD 17-09-04 20:17 OP:rebc STATUS:               ID:20170806125305 L   I
 OLDACT:UP  17-08-06 23:20 OP:edw  STATUS:               ID:20170806124743     3
 OLDACT:REG 17-08-06 20:34 OP:edw  STATUS:               ID:20170806124743     3
 2017-08-06-1248-00M.COL___383                                                 6
 STAT SP IPHASW D HRMM SECON CODA AMPLIT PERI AZIMU VELO AIN AR TRES W  DIS CAZ7
 BAR2 EZ IP     C 1253 23.28                             150    0.1810 61.0  44 
 BAR2 EZ ES       1253 36.80                             150    0.0610 61.0  44 
 BAR2 EZ I        1253 38.43        21.4 0.34            156           61.0  44 
 RUS  HZ EP       1253 23.53                             149   -0.0410 62.8 122 
 RUS  HN ES       1253 37.61                             149    0.0210 62.8 122 
 RUS  HZ I        1253 40.94         4.8 0.40            152           62.8 122 
 PTB  HZ IP     C 1253 25.43                             134   -0.7510  106 291 
 PTB  HE ES       1253 41.94                             134   -0.2910  106 291 
 PTB  HZ I        1253 43.86         2.9 0.34            138            106 291 
 NOR  HZ EP       1253 31.73                             121    0.18 9  160 244 
 NOR  HN ES       1253 52.09                             121    0.31 9  160 244 
 NOR  HZ I        1253 55.36         4.8 0.14            124            160 244 
 ZAR  HN ES       1254  0.31                             114    0.53 9  203 315 
                                                                                
