 2011  8 6 1440 16.6 L   6.773 -73.067143.1  RSN  7 0.2 2.2LRSN                1
 GAP=132        0.38       2.7     3.2  3.5 -0.2358E+01 -0.5794E+00  0.1650E+01E
 Epicentro: LOS SANTOS - SANTANDER                                             3
 ACTION:UPD 12-07-25 14:06 OP:epov STATUS:               ID:20110806144016 L   I
 2011-08-06-1440-00M.COL___145                                                 6
 STAT SP IPHASW D HRMM SECON CODA AMPLIT PERI AZIMU VELO AIN AR TRES W  DIS CAZ7
 BAR2 SZ EP       1440 36.02                             170    0.1410 23.7 212 
 BAR2 SZ ES   1   1440 50.74                             170   -0.21 7 23.7 212 
 BAR2 SZ I        1440 52.15        60.9 0.22                          23.7 212 
 BRR  HZ EP       1440 38.07                             149    0.1010 80.2 297 
 BRR  HE ES   1   1440 54.79                             149    0.13 7 80.2 297 
 BRR  HZ I        1440 59.31        40.3 0.21                          80.2 297 
 RUS  HZ EP   2   1440 39.79                             144   -0.03 5 97.4 181 
 RUS  HN ES   2   1440 57.99                             144    0.03 5 97.4 181 
 RUS  HZ I        1440 59.82        25.2 0.43                          97.4 181 
 NOR  SZ EP   1   1440 52.63                             117   -0.10 6  240 236 
 NOR  SE ES   1   1441 20.44                             117   -0.49 6  240 236 
 CHI  HZ EP   2   1440 54.36                             117    0.29 4  248 197 
 CHI  HZ I        1440 56.94         6.7 0.49                           248 197 
 CHI  HN ES   2   1441 23.59                             117    0.27 4  248 197 
 SDV  BZ EP   2   1441  5.70                             108   -0.27 3  356  49 
 SDV  BZ I        1441  6.56         5.3 0.20                           356  49 
 SDV  BE ES   2   1441 44.06                             108   -0.43 3  356  49 
 PRA  HZ EP   2   1441 10.38                             106    0.17 3  394 211 
 PRA  HE ES   2   1441 51.86                             106   -0.18 3  394 211 
                                                                                
