 2013  3 6 1733 35.2 L   6.811 -73.115140.7  RSN  4 0.2 1.9LRSN                1
 GAP=140        0.54       2.8     4.1  4.4 -0.3106E+00 -0.1200E+01  0.6442E+00E
 Epicentro: LOS SANTOS - SANTANDER                                             3
 ACTION:UPD 13-04-09 14:00 OP:ep   STATUS:               ID:20130306173335 L   I
 2013-03-06-1728-50M.COL___202                                                 6
 STAT SP IPHASW D HRMM SECON CODA AMPLIT PERI AZIMU VELO AIN AR TRES W  DIS CAZ7
 BAR2 SZ EP       1733 54.06                             169   -0.2210 25.3 197 
 BAR2 SZ ES       1734  8.99                             169   -0.1610 25.3 197 
 BAR2 SZ I        1734  9.80        14.1 0.28            168           25.3 197 
 BRR  HZ EP       1733 55.70                             151   -0.2610 73.7 296 
 BRR  HN ES       1734 12.38                             151    0.2410 73.7 296 
 BRR  HE I        1734 16.05        27.7 0.16            148           73.7 296 
 PAM  SZ EP       1733 56.82                             151    0.1210 74.3  38 
 PAM  SZ I        1733 57.07        29.5 0.18            153           74.3  38 
 PAM  SN ES       1734 13.47                             151    0.0110 74.3  38 
 RUS  HZ EP       1733 58.79                             142    0.2410  102 178 
 RUS  HN ES       1734 16.77                             142    0.0210  102 178 
 RUS  HE I        1734 17.87         7.7 0.22            144            102 178 
                                                                                
