 2016  5 6 1942 51.9 L   6.800 -73.144142.5  RSN 13 0.4 2.3LRSN                1
 GAP=137        0.94       3.3     3.7  5.4 -0.1096E+01  0.4804E+01  0.5183E+01E
 Epicentro: LOS SANTOS - SANTANDER                                             3
 ACTION:UPD 16-08-18 17:42 OP:cam  STATUS:               ID:20160506194251 L   I
 OLDACT:DUP 16-05-06 23:34 OP:dnl  STATUS:               ID:20160506193751d    3
 OLDACT:REG 16-05-06 20:41 OP:dnl  STATUS:               ID:20160506193750     3
 2016-05-06-1937-50M.COL___297                                                 6
 STAT SP IPHASW D HRMM SECON CODA AMPLIT PERI AZIMU VELO AIN AR TRES W  DIS CAZ7
 BAR2 EZ EP       1943 11.01                             170   -0.0810 23.3 190 
 BAR2 EZ ES       1943 25.48                             170   -0.6110 23.3 190 
 BAR2 EZ I        1943 27.75        61.1 0.36            168           23.3 190 
 BRR  HZ EP       1943 12.67                             152    0.0110 71.4 298 
 BRR  HN ES       1943 29.78                             152    0.8910 71.4 298 
 PAM  EZ EP       1943 13.73                             150    0.0210 77.3  39 
 PAM  EN ES       1943 30.85                             150    0.0910 77.3  39 
 PAM  EZ I        1943 33.21        43.3 0.48            154           77.3  39 
 RUS  HZ EP       1943 15.12                             143   -0.1610  101 176 
 RUS  HE ES       1943 33.93                             143    0.3810  101 176 
 RUS  HZ I        1943 34.80        14.8 0.28            143            101 176 
 PTB  HZ EP   2   1943 17.93                             131   -0.64 5  148 259 
 PTB  HE ES       1943 38.72                             131   -0.69 9  148 259 
 PTB  HZ I        1943 41.84        15.7 0.16            130            148 259 
 SPBC HZ EP       1943 20.19                             128    0.08 9  163 219 
 SPBC HE ES       1943 42.51                             128    0.36 9  163 219 
 SPBC HZ I        1943 46.88        39.5 0.24            128            163 219 
 ZAR  HZ EP   2   1943 24.92                             122    0.81 4  204 292 
 ZAR  HE ES       1943 48.64                             122   -0.62 9  204 292 
 ZAR  HZ I        1943 55.81        17.0 0.20            121            204 292 
 NOR  HZ EP       1943 27.15                             118   -0.26 8  235 234 
 NOR  HN ES       1943 55.41                             118    0.27 8  235 234 
 NOR  HZ I        1944  0.94        13.1 0.36            118            235 234 
 CHI  HZ EP       1943 29.20                             116   -0.18 8  249 195 
 CHI  HN ES       1943 58.50                             116   -0.14 8  249 195 
 CHI  HZ I        1944  3.52         8.5 0.39            117            249 195 
 HEL  HZ EP   2   1943 32.82                             114    0.90 4  272 256 
 HEL  HE ES   4   1943 59.70                             114   -3.47 0  272 256 
 HEL  HZ I        1944  9.16         8.4 0.26            114            272 256 
 CBOC HZ EP   2   1943 39.30                             109    0.64 3  334 252 
 CBOC HN ES   2   1944 15.75                             109    0.59 3  334 252 
 PRA  HZ EP   2   1943 45.06                             106   -0.21 3  392 210 
 PRA  HN ES       1944 27.35                             106    0.41 6  392 210 
 PRA  HZ I        1944 33.09        12.3 0.70            106            392 210 
 ORTC HZ EP   2   1943 45.32                             106   -0.36 3  396 216 
 ORTC HE ES   4   1944 28.71                             106    1.06 0  396 216 
 ORTC HZ I        1944 32.53         5.7 0.32            106            396 216 
                                                                                
