 2010  7 6 1805 12.2 L   6.794 -73.103140.8  RSN  5 0.3 1.5LRSN                1
 GAP=160        0.68       3.6     7.4  6.6 -0.1575E+01 -0.1131E+02 -0.3125E+01E
 Epicentro: LOS SANTOS - SANTANDER                                             3
 ACTION:UPD 10-12-01 15:15 OP:pat  STATUS:               ID:20100706180512 L   I
 2010-07-06-1802-24S.COL___118                                                 6
 STAT SP IPHASW D HRMM SECON CODA AMPLIT PERI AZIMU VELO AIN AR TRES W  DIS CAZ7
 BAR2 SZ IP       18 5 31.07                             170    -0.110   24 202 
 BAR2 SZ ES   1   18 5 45.69                             170    -0.4 7   24 202 
 BRR  HZ EP       18 5 32.94                             150    -0.110   76 297 
 BRR  HN ES   1   18 5 49.53                             150     0.2 7   76 297 
 BRR  HZ I        18 5 52.13         9.7 0.22                            76 297 
 RUS  HZ EP       18 5 35.14                             143    -0.210  100 179 
 RUS  HE ES   1   18 5 54.05                             143     0.6 7  100 179 
 RUS  HZ I        18 5 55.79         3.5 0.22                           100 179 
 BRI  SZ EP   1   18 5 35.74                             141     0.2 7  107  18 
 BRI  SZ ES   1   18 5 53.60                             141    -0.1 7  107  18 
 GUE  SZ EP       18 5 36.57                             138     0.210  116  10 
                                                                                
