 2010  4 6 1443 16.5 L   6.835 -73.047141.3  RSN 11 0.5 2.5LRSN                1
 GAP=148        0.83       4.3     5.6  5.7 -0.9403E+01 -0.1965E+01  0.4522E+01E
 Epicentro: LOS SANTOS - SANTANDER                                             3
 ACTION:UPD 10-08-24 09:58 OP:vdl  STATUS:               ID:20100406144316 L   I
 2010-04-06-1441-43S.COL___098                                                 6
 STAT SP IPHASW D HRMM SECON CODA AMPLIT PERI AZIMU VELO AIN AR TRES W  DIS CAZ7
 BAR2 SZ IP       1443 35.79                             167     0.010   31 209 
 BAR2 SZ ES   1   1443 50.44                             167    -0.4 7   31 209 
 BRR  HZ IP       1443 37.90                             149     0.210   79 292 
 BRR  HZ I        1443 38.26        83.3 0.13                            79 292 
 BRR  HN ES   1   1443 54.92                             149     0.7 7   79 292 
 OCA  SZ EP       1443 44.37                             129     0.1 9  158 349 
 OCA  SZ ES   2   1444  5.41                             129    -0.5 5  158 349 
 OCA  SZ I        1444 12.20        64.1 0.14                           158 349 
 CHI  HZ EP       1443 54.86                             116     0.1 8  255 197 
 CHI  HE ES   2   1444 24.06                             116    -0.5 4  255 197 
 HEL  HZ EP       1443 57.67                             113    -0.1 7  284 256 
 HEL  HE ES   2   1444 29.63                             113    -0.4 4  284 256 
 HEL  HZ I        1444 34.90         9.8 0.38                           284 256 
 RREF BZ EP       1444  4.20                             109     0.5 7  333 230 
 RREF BN ES   2   1444 41.01                             109     0.5 3  333 230 
 RREF BZ I        1444 46.47         7.9 0.25                           333 230 
 SDV  BZ IP       1444  5.59                             108     0.4 6  350  50 
 SDV  BZ I        1444  6.34         7.4 0.08                           350  50 
 SDV  BZ ES   2   1444 42.14                             108    -0.9 3  350  50 
 DBB  SZ IP       1444  4.09                             108    -1.0 6  350 273 
 TOL  SZ EP   3   1444  6.75                             108     0.9 2  354 225 
 TOL  SZ ES   3   1444 45.07                             108     0.8 2  354 225 
 ANIL BE ES   3   1444 46.79                             107    -0.3 2  368 225 
 ANIL BZ I        1444 57.75        13.4 0.32                           368 225 
 PRA  HZ EP       1444 10.56                             105    -0.4 6  401 211 
 PRA  HN ES   2   1444 53.22                             105    -0.2 3  401 211 
 PRA  HZ I        1444 59.10         8.1 0.41                           401 211 
                                                                                
