 2017  1 6 1748 35.3 L   7.114 -73.100147.6  RSN  6 0.2 1.7LRSN                1
 GAP=138        0.44       2.7     2.5  3.6  0.1663E+01  0.3372E+01  0.1046E+01E
 Epicentro: BUCARAMANGA - SANTANDER                                            3
 ACTION:UPD 17-05-22 15:56 OP:jn   STATUS:               ID:20170106174835 L   I
 OLDACT:REG 17-01-06 20:57 OP:dnl  STATUS:               ID:20170106173743     3
 2017-01-06-1738-00M.COL___368                                                 6
 STAT SP IPHASW D HRMM SECON CODA AMPLIT PERI AZIMU VELO AIN AR TRES W  DIS CAZ7
 PAM  EZ EP   2   1748 56.58                             160    0.23 5 50.8  61 
 PAM  EE ES       1749 12.67                             160   -0.1110 50.8  61 
 PAM  EZ I        1749 14.28        10.4 0.40            153           50.8  61 
 BAR2 EZ EP       1748 56.25                             157   -0.0610 58.4 189 
 BAR2 EZ ES       1749 12.52                             157   -0.2010 58.4 189 
 BAR2 EZ I        1749 13.31        11.7 0.24            158           58.4 189 
 BRR  HZ EP       1748 56.48                             154    0.0610 67.6 269 
 BRR  HZ I        1749 13.12        13.0 0.30            148           67.6 269 
 BRR  HN ES       1749 13.13                             154    0.2110 67.6 269 
 RUS  HZ EP   2   1749  2.17                             136    0.25 5  135 179 
 RUS  HE ES       1749 22.88                             136    0.1710  135 179 
 RUS  HZ I        1749 23.64         2.8 0.18            132            135 179 
 PTB  HZ EP       1749  3.54                             129   -0.24 9  163 247 
 PTB  HE ES   2   1749 25.79                             129   -0.22 5  163 247 
 PTB  HZ I        1749 27.50         8.3 0.38            124            163 247 
 ZAR  HZ EP   4   1749 10.34                             124    3.06 0  199 282 
 ZAR  HE ES       1749 32.37                             124    0.13 9  199 282 
 ZAR  HZ I        1749 38.18         4.4 0.38            117            199 282 
                                                                                
