 2017  1 6 1437 29.2 L   6.766 -73.192146.0  RSN  4 0.4 1.4LRSN                1
 GAP=230        0.77       8.1     5.9  7.0  0.2249E+02  0.6439E+01 -0.1959E+01E
 Epicentro: LOS SANTOS - SANTANDER                                             3
 ACTION:UPD 17-05-22 15:56 OP:jn   STATUS:               ID:20170106143729 L   I
 OLDACT:DUP 17-01-06 23:37 OP:dnl  STATUS:               ID:20170106142742d    3
 2017-01-06-1428-00M.COL___377                                                 6
 STAT SP IPHASW D HRMM SECON CODA AMPLIT PERI AZIMU VELO AIN AR TRES W  DIS CAZ7
 BAR2 EZ EP       1437 49.02                             172    0.1910 19.2 177 
 BAR2 EZ ES       1438  3.62                             172   -0.4810 19.2 177 
 BAR2 EZ I        1438  5.12         4.5 0.44            166           19.2 177 
 BRR  HZ EP   3   1437 49.20                             153   -1.08 2 68.7 303 
 BRR  HE ES   2   1438  7.69                             153    1.00 5 68.7 303 
 BRR  HZ I        1438 27.39        13.3 0.36            146           68.7 303 
 RUS  HZ EP       1437 52.89                             144    0.1010 97.3 173 
 RUS  HN ES       1438 11.29                             144    0.1410 97.3 173 
 RUS  HZ I        1438 13.21         1.8 0.52            167           97.3 173 
 PTB  HZ EP       1437 55.58                             133   -0.13 9  142 260 
 PTB  HE ES       1438 16.32                             133   -0.03 9  142 260 
 PTB  HZ I        1438 18.15         2.6 0.18            139            142 260 
                                                                                
