 2010  3 6 1810 20.8 L   6.805 -73.051144.0  RSN  9 0.3 2.3LRSN                1
 GAP=193        0.55       2.3     4.9  3.7  0.1059E+01  0.1837E+01  0.1665E+01E
 Epicentro: LOS SANTOS - SANTANDER                                             3
 ACTION:UP  10-08-24 09:52 OP:vdl  STATUS:               ID:20100306181020 L   I
 2010-03-06-1807-41S.COL___101                                                 6
 STAT SP IPHASW D HRMM SECON CODA AMPLIT PERI AZIMU VELO SNR AR TRES W  DIS CAZ7
 BAR2 SZ EP       1810 40.32                             169     0.010   28 212 
 BAR2 SZ ES   1   1810 55.69                             169     0.1 7   28 212 
 BRR  HZ EP       1810 42.27                             149    -0.110   80 295 
 BRR  HE ES       1810 58.99                             149    -0.110   80 295 
 BRR  HZ I        1811  0.42        50.0 0.11                            80 295 
 RUS  BZ EP       1810 44.26                             143    -0.210  101 182 
 RUS  BN ES   1   1811  2.80                             143    -0.1 7  101 182 
 RUS  BZ I        1811  4.47        16.3 0.31                           101 182 
 OCA  SZ EP       1810 49.16                             129     0.1 9  161 349 
 OCA  SZ ES   1   1811 11.49                             129     0.3 7  161 349 
 OCA  SZ I        1811 16.53        40.7 0.38                           161 349 
 CHI  HZ EP       1810 59.08                             116     0.3 8  252 197 
 CHI  HN ES   2   1811 28.70                             116     0.3 4  252 197 
 CHI  HZ I        1811 34.16         5.0 0.32                           252 197 
 HEL  HZ EP   1   1811  2.29                             113     0.2 6  282 256 
 HEL  HZ I        1811 38.91         8.6 0.40                           282 256 
 RREF BZ EP   2   1811  8.43                             110     0.6 3  330 230 
 RREF BE ES   2   1811 45.30                             110     0.8 3  330 230 
 RREF BZ I        1811 53.67         9.1 0.27                           330 230 
 DBB  SZ EP   1   1811  8.72                             108    -0.7 5  350 274 
 PRA  HZ EP       1811 14.82                             106    -0.1 6  398 211 
 PRA  HN ES   1   1811 57.11                             106    -0.1 4  398 211 
 PRA  HZ I        1812  3.66         6.2 0.35                           398 211 
                                                                                
