 2014  8 6 1156 49.2 L   6.757 -73.192146.6  RSN  5 0.3 1.4LRSN                1
 GAP=229        0.79       6.0     5.5  5.8  0.2056E+02  0.4393E+01 -0.2549E+01E
 Epicentro: VILLANUEVA - SANTANDER                                             3
 ACTION:UPD 14-09-15 21:47 OP:nd   STATUS:               ID:20140806115649 L   I
 OLDACT:REG 14-08-06 21:02 OP:carl STATUS:               ID:20140806114812     3
 2014-08-06-1148-12M.COL___248                                                 6
 STAT SP IPHASW D HRMM SECON CODA AMPLIT PERI AZIMU VELO AIN AR TRES W  DIS CAZ7
 BAR2 SZ EP       1157  8.75                             173   -0.1010 18.2 177 
 BAR2 SZ ES       1157 23.84                             173   -0.3310 18.2 177 
 BAR2 SZ I        1157 25.18         6.4 0.22            167           18.2 177 
 BRR  HZ EP       1157 10.60                             153    0.2510 69.3 304 
 BRR  HN ES       1157 26.81                             153   -0.0210 69.3 304 
 RUS  HZ EP       1157 12.92                             145    0.1810 96.3 173 
 RUS  HN ES       1157 31.44                             145    0.3410 96.3 173 
 RUS  HZ I        1157 33.00         3.2 0.30            144           96.3 173 
 PTB  HZ EP       1157 15.31                             133   -0.41 9  142 260 
 PTB  HN ES       1157 36.18                             133   -0.22 9  142 260 
 PTB  HZ I        1157 41.62         4.7 0.18            130            142 260 
 ZAR  HZ EP       1157 21.15                             123   -0.27 9  201 294 
 ZAR  HN ES       1157 47.14                             123    0.59 9  201 294 
 ZAR  HZ I        1157 56.09         2.0 0.24            122            201 294 
                                                                                
