 2012  4 6 1725 51.4 L   6.759 -73.160148.0  RSN  5 0.4 1.7LRSN                1
 GAP=137        0.81       7.4     6.3  7.9  0.1020E+02  0.8239E+01  0.1321E+02E
 Epicentro: LOS SANTOS - SANTANDER                                             3
 ACTION:UPD 12-07-05 11:51 OP:tino STATUS:               ID:20120406172551 L   I
 2012-04-06-1720-00M.COL___196                                                 6
 STAT SP IPHASW D HRMM SECON CODA AMPLIT PERI AZIMU VELO AIN AR TRES W  DIS CAZ7
 BAR2 SZ EP       1726 11.17                             172     0.010   19 188 
 BAR2 SZ ES   1   1726 26.23                             172    -0.4 7   19 188 
 BAR2 SZ I        1726 27.42         9.8 0.44                            19 188 
 BRR  HZ EP       1726 13.05                             153     0.310   72 302 
 BRR  HZ I        1726 13.28         9.8 0.28                            72 302 
 BRR  HN ES   1   1726 30.07                             153     0.6 7   72 302 
 PAM  SN ES   2   1726 31.11                             150    -0.7 5   82  38 
 RUS  HZ EP       1726 15.15                             145     0.110   96 175 
 RUS  HN ES   2   1726 33.94                             145     0.5 5   96 175 
 PTB  HZ EP       1726 17.95                             133    -0.3 9  145 260 
 PTB  HN ES   1   1726 39.03                             133    -0.3 7  145 260 
                                                                                
