 2011 11 6 1035 44.8 L   6.816 -73.162144.3  RSN 19 0.4 2.6LRSN                1
 GAP=112        0.65       2.4     3.2  4.6  0.3422E+00  0.5535E+01  0.2063E+01E
 Epicentro: LOS SANTOS - SANTANDER                                             3
 ACTION:UPD 12-07-13 16:08 OP:ep   STATUS:               ID:20111106103544 L   I
 2011-11-06-1034-09S.COL___175                                                 6
 STAT SP IPHASW D HRMM SECON CODA AMPLIT PERI AZIMU VELO AIN AR TRES W  DIS CAZ7
 BTL  SZ EP       1036  4.40                             173    0.2410 16.2 314 
 BAR2 SZ IP       1036  4.25                             170   -0.0610 24.9 185 
 BAR2 SZ ES   2   1036 18.69                             170   -0.82 5 24.9 185 
 BAR2 SZ I        1036 21.56        75.5 0.18                          24.9 185 
 BRR  HZ IP     C 1036  6.09                             153    0.4210 68.7 298 
 BRR  HE ES   1   1036 22.58                             153    0.64 7 68.7 298 
 BRR  HZ I        1036 27.55        70.3 0.14                          68.7 298 
 PAM  SZ IP       1036  7.00                             151    0.1310 77.2  41 
 PAM  SN ES   1   1036 24.12                             151    0.05 7 77.2  41 
 RUS  HZ EP       1036  8.28                             143   -0.2910  103 175 
 RUS  HN ES   1   1036 26.97                             143   -0.13 7  103 175 
 RUS  HZ I        1036 28.30        45.5 0.26                           103 175 
 OCA  SZ EP       1036 12.75                             130   -0.08 9  158 354 
 OCA  SZ ES   1   1036 33.83                             130   -0.84 7  158 354 
 OCA  SZ I        1036 37.89        40.4 0.20                           158 354 
 YOP  SZ EP       1036 15.11                             126    0.10 9  181 153 
 YOP  SE ES   2   1036 38.55                             126    0.00 4  181 153 
 YOP  SZ I        1036 39.56        28.1 0.32                           181 153 
 ZAR  HZ EP       1036 16.71                             122   -0.22 9  202 292 
 ZAR  HN ES   2   1036 42.31                             122    0.35 4  202 292 
 ZAR  HZ I        1036 48.58        45.1 0.44                           202 292 
 CTAB SZ EP   3   1036 21.35                             119    0.80 2  231 210 
 NOR  SZ EP       1036 20.41                             118   -0.01 8  234 234 
 NOR  SN ES   2   1036 47.33                             118   -0.86 4  234 234 
 ROSC BN ES   3   1036 53.00                             116    0.35 2  253 210 
 ROSC BZ I        1037  0.87        34.6 0.35                           253 210 
 HEL  HZ EP       1036 24.97                             115    0.16 8  271 255 
 HEL  HN ES   2   1036 55.55                             115   -0.45 4  271 255 
 HEL  HZ I        1037  4.90        19.0 0.24                           271 255 
 GUY  SN ES   2   1037  2.53                             112   -0.17 4  303 235 
 GUY  SZ I        1037 10.62        24.8 0.30                           303 235 
 VIL  SZ EP   3   1036 27.10                             112   -1.24 2  305 191 
 VIL  SN ES   2   1037  2.54                             112    0.27 4  305 191 
 RREF HZ EP   2   1036 31.17                             111    0.29 3  322 229 
 RREF HZ I        1037 18.27        23.4 0.38                           322 229 
 DBB  SZ EP       1036 32.04                             109    0.03 7  337 274 
 TOL  SZ EP   3   1036 33.41                             109    0.39 2  344 224 
 MON  HZ EP   3   1036 31.46                             108   -2.01 2  351 308 
 ANIL HZ EP   2   1036 35.34                             108    0.77 3  357 224 
 ANIL HE ES   2   1037 12.97                             108   -0.41 3  357 224 
                                                                                
