 2010  8 6 1821 34.4 L   6.783 -73.079143.8  RSN  7 0.2 1.9LRSN                1
 GAP=166        0.60       3.4     7.7  5.7 -0.8872E+01 -0.3935E+01 -0.5076E+00E
 Epicentro: LOS SANTOS - SANTANDER                                             3
 ACTION:UP  10-09-07 10:52 OP:vdl  STATUS:               ID:20100806182134 L   I
 2010-08-06-1819-40S.COL___125                                                 6
 STAT SP IPHASW D HRMM SECON CODA AMPLIT PERI AZIMU VELO SNR AR TRES W  DIS CAZ7
 BAR2 SZ EP       1821 53.73                             170     0.010   24 209 
 BAR2 SZ ES   1   1822  8.77                             170    -0.1 7   24 209 
 BAR2 SZ I        1822 10.29        27.3 0.28                            24 209 
 BTL  SZ EP       1821 53.93                             170     0.110   26 306 
 BRR  HZ EP       1821 55.72                             150     0.010   79 297 
 BRR  HE ES   2   1822 12.56                             150     0.1 5   79 297 
 BRR  HZ I        1822 15.25        17.6 0.23                            79 297 
 RUS  HZ EP       1821 57.83                             144     0.110   98 180 
 RUS  HZ I        1821 58.64         5.3 0.13                            98 180 
 RUS  HN ES   2   1822 16.10                             144     0.1 5   98 180 
 GUE  SZ EP       1821 58.43                             139    -0.510  117   8 
 GRA  SZ EP       1821 59.70                             137     0.310  126  14 
 GRA  SZ ES   1   1822 19.06                             137     0.1 7  126  14 
 GRA  SZ I        1822 21.24         8.8 0.48                           126  14 
 PRA  HZ EP   1   1822 28.34                             106     0.3 4  394 211 
 PRA  HE ES   3   1823  9.47                             106    -0.5 1  394 211 
 PRA  HZ I        1823 16.23         5.0 0.27                           394 211 
                                                                                
