 2012  9 6 1524 58.8 L   6.694 -73.167136.3  RSN  4 0.3 1.6LRSN                1
 GAP=192        0.46       9.0     6.1  8.7  0.1370E+02 -0.8604E+01  0.2645E+02E
 Epicentro: VILLANUEVA - SANTANDER                                             3
 ACTION:UPD 12-10-22 14:17 OP:ep   STATUS:               ID:20120906152458 L   I
 2012-09-06-1520-00M.COL___218                                                 6
 STAT SP IPHASW D HRMM SECON CODA AMPLIT PERI AZIMU VELO AIN AR TRES W  DIS CAZ7
 BAR2 SZ EP       1525 17.00                             176   -0.1010 11.3 188 
 BAR2 SZ ES   3   1525 31.75                             176    0.37 2 11.3 188 
 GIR2 SZ ES   3   1525 32.17                             161   -0.33 2 42.7 356 
 BRR  HZ EP       1525 19.44                             148    0.2410 75.6 307 
 BRR  HN ES   1   1525 34.93                             148   -0.19 7 75.6 307 
 BRR  HN I        1525 35.93        15.5 0.16                          75.6 307 
 PTB  HZ EP   3   1525 23.71                             130   -0.91 2  144 263 
 PTB  HN ES   2   1525 44.84                             130    0.08 5  144 263 
 PTB  HN I        1525 48.15         3.2 0.30                           144 263 
                                                                                
