 2011  9 6 1021  5.5 L   6.734 -73.229145.9  RSN  5 0.2 1.4LRSN                1
 GAP=214        0.37       6.3     8.0  5.3  0.4067E+02  0.1415E+02  0.8021E+01E
 Epicentro: VILLANUEVA - SANTANDER                                             3
 ACTION:UPD 12-07-13 15:55 OP:ep   STATUS:               ID:20110906102106dL   I
 2011-09-06-1017-05S.COL___170                                                 6
 STAT SP IPHASW D HRMM SECON CODA AMPLIT PERI AZIMU VELO AIN AR TRES W  DIS CAZ7
 BAR2 SZ EP   2   1021 25.24                             173    0.18 5 16.5 162 
 BAR2 SZ ES   2   1021 40.08                             173   -0.21 5 16.5 162 
 BAR2 SZ I        1021 42.44         3.0 0.31                          16.5 162 
 BRR  HZ EP   1   1021 26.41                             154   -0.08 7 67.4 308 
 BRR  HZ I        1021 29.30        14.0 0.37                          67.4 308 
 BRR  HN ES   2   1021 43.25                             154    0.41 5 67.4 308 
 RUS  HZ EP   2   1021 28.90                             146    0.04 5 94.4 170 
 RUS  HE ES   2   1021 46.90                             146   -0.16 5 94.4 170 
 RUS  HZ I        1021 49.89         2.3 0.63                          94.4 170 
 ZAR  HZ EP   2   1021 37.15                             123   -0.27 4  199 295 
 ZAR  HE ES   2   1022  2.17                             123   -0.12 4  199 295 
 CHI  HZ EP   2   1021 42.56                             118    0.33 4  239 193 
                                                                                
