 2013  7 6 1435 15.8 L   6.789 -73.117145.1  RSN  8 0.4 2.0LRSN                1
 GAP=141        1.10       5.0     4.7  8.4 -0.5771E+01  0.9431E+01 -0.3963E+01E
 Epicentro: LOS SANTOS - SANTANDER                                             3
 ACTION:UPD 13-08-12 10:35 OP:ep   STATUS:               ID:20130706143515 L   I
 OLDACT:REG 13-07-06 15:59 OP:stll STATUS:               ID:20130706142837     3
 2013-07-06-1428-37M.COL___221                                                 6
 STAT SP IPHASW D HRMM SECON CODA AMPLIT PERI AZIMU VELO AIN AR TRES W  DIS CAZ7
 BAR2 SZ EP       1435 35.51                             171    0.1610 22.9 198 
 BAR2 SZ I        1435 35.59        11.3 0.38            170           22.9 198 
 GIR2 SZ EP       1435 35.46                             166    0.0110 33.1 345 
 BRR  HZ EP       1435 37.26                             151    0.1810 74.6 298 
 BRR  HN ES       1435 54.47                             151    0.8010 74.6 298 
 BRR  HN I        1436  0.13        22.9 0.22            150           74.6 298 
 PAM  SZ EP       1435 37.88                             151   -0.0110 76.3  37 
 PAM  SN ES       1435 54.83                             151   -0.2810 76.3  37 
 PAM  SN I        1435 57.53        23.7 0.42            155           76.3  37 
 RUS  HN ES       1435 57.71                             144   -0.0810 99.2 178 
 RUS  HN I        1435 58.84         6.3 0.18            149           99.2 178 
 GRA  SZ EP       1435 40.86                             137   -0.1510  126  16 
 GRA  SZ ES       1436  0.50                             137   -0.1710  126  16 
 PTB  HZ EP       1435 42.58                             131   -0.41 9  151 260 
 PTB  HN ES       1436  3.82                             131   -0.36 9  151 260 
 PTB  HN I        1436  8.98        12.4 0.20            133            151 260 
 ZAR  HZ EP       1435 49.53                             122    0.97 8  207 292 
 ZAR  HE ES       1436 13.37                             122   -0.74 8  207 292 
 ZAR  HE I        1436 19.31        24.5 0.28            124            207 292 
                                                                                
