 2011  1 6 1126 18.6 L   6.816 -73.134147.9  RSN  4 0.1 1.5LRSN                1
 GAP=302        0.33       5.7     6.1  5.9 -0.9602E+01  0.9026E+01  0.6632E+01E
 Epicentro: LOS SANTOS - SANTANDER                                             3
 ACTION:UP  11-02-08 08:39 OP:pat  STATUS:               ID:20110106112618 L   I
 2011-01-06-1120-00M.COL___121                                                 6
 STAT SP IPHASW D HRMM SECON CODA AMPLIT PERI AZIMU VELO SNR AR TRES W  DIS CAZ7
 BAR2 SZ EP   2   1126 38.66                             170     0.1 5   25 192 
 BAR2 SZ ES   2   1126 54.22                             170     0.1 5   25 192 
 BAR2 SZ I        1126 55.32        10.4 0.48                            25 192 
 RUS  HZ EP   2   1126 42.56                             144    -0.2 5  102 177 
 RUS  HZ I        1126 43.73         2.7 0.26                           102 177 
 RUS  HE ES   2   1127  1.37                             144    -0.1 5  102 177 
 NOR  SE ES   2   1127 22.75                             119    -0.1 4  237 234 
 CHI  HZ EP   2   1126 56.75                             117     0.1 4  251 195 
 CHI  HE ES   2   1127 26.55                             117     0.2 4  251 195 
 CHI  HZ I        1127 34.05         2.0 0.39                           251 195 
                                                                                
