 2010  4 6 1154 34.6 L   6.802 -73.037144.5  RSN  7 0.4 2.3LRSN                1
 GAP=209        0.60       3.7     8.2  5.8 -0.9652E+01  0.8371E+01 -0.3761E+00E
 Epicentro: CEPITA - SANTANDER                                                 3
 ACTION:UP  10-08-24 09:58 OP:vdl  STATUS:               ID:20100406115434 L   I
 2010-04-06-1150-29S.COL___098                                                 6
 STAT SP IPHASW D HRMM SECON CODA AMPLIT PERI AZIMU VELO AIN AR TRES W  DIS CAZ7
 BAR2 SZ IP       1154 54.28                             168     0.110   28 215 
 BAR2 SZ ES   1   1155  9.19                             168    -0.2 7   28 215 
 BRR  HZ IP       1154 56.34                             149     0.110   82 294 
 BRR  HE ES   2   1155 13.39                             149     0.3 5   82 294 
 BRR  HZ I        1155 16.76        45.6 0.13                            82 294 
 OCA  SZ EP       1155  3.04                             129     0.1 9  162 349 
 OCA  SZ ES   2   1155 24.22                             129    -0.8 5  162 349 
 CHI  HZ EP   2   1155 12.25                             116    -0.3 4  252 198 
 CHI  HN ES   2   1155 41.94                             116    -0.3 4  252 198 
 CHI  HZ I        1155 51.60         8.4 0.47                           252 198 
 HEL  HZ EP   2   1155 15.71                             113    -0.3 4  284 256 
 HEL  HN ES   3   1155 46.80                             113    -1.5 2  284 256 
 HEL  HZ I        1155 52.73         7.5 0.33                           284 256 
 RREF BZ EP   2   1155 21.73                             110     0.0 3  331 231 
 RREF BN ES   2   1155 59.35                             110     0.8 3  331 231 
 RREF BZ I        1156  5.55        10.8 0.28                           331 231 
 PRA  HZ EP   2   1155 28.81                             106     0.0 3  398 211 
 PRA  HE ES   2   1156 10.72                             106    -0.3 3  398 211 
 PRA  HZ I        1156 14.43         8.9 0.62                           398 211 
                                                                                
