 2011  6 6 1441 45.2 L   6.776 -73.106142.3  RSN  6 0.2 1.5LRSN                1
 GAP=143        0.47       3.2     6.0  5.1 -0.2693E+01 -0.2121E+01 -0.3625E+01E
 Epicentro: LOS SANTOS - SANTANDER                                             3
 ACTION:UP  11-07-14 19:03 OP:ep   STATUS:               ID:20110606144145 L   I
 2011-06-06-1441-02S.COL___132                                                 6
 STAT SP IPHASW D HRMM SECON CODA AMPLIT PERI AZIMU VELO SNR AR TRES W  DIS CAZ7
 BAR2 SZ EP   2   1442  4.16                             171    -0.2 5   22 202 
 BAR2 SZ ES   1   1442 18.86                             171    -0.4 7   22 202 
 BAR2 SZ I        1442 20.34         6.7 0.18                            22 202 
 BTL  SZ EP   1   1442  4.28                             170    -0.1 7   24 311 
 BTL  SZ ES   2   1442 19.54                             170     0.2 5   24 311 
 BRR  HZ EP   1   1442  6.16                             150    -0.1 7   76 299 
 BRR  HZ I        1442  7.98         9.9 0.12                            76 299 
 BRR  HE ES   2   1442 22.88                             150     0.2 5   76 299 
 PAM  SZ EP   1   1442  7.05                             150     0.1 7   77  36 
 PAM  SN ES   2   1442 23.91                             150    -0.1 5   77  36 
 RUS  HZ EP   2   1442  8.31                             144     0.0 5   98 179 
 RUS  HE ES   1   1442 26.77                             144     0.3 7   98 179 
 RUS  HZ I        1442 27.67         3.2 0.23                            98 179 
 GRA  SZ EP   2   1442 10.35                             136     0.2 5  127  15 
 GRA  SZ ES   2   1442 29.92                             136     0.2 5  127  15 
 GRA  SZ I        1442 30.56         4.5 0.42                           127  15 
                                                                                
