 2010  5 6 1401 24.1 L   7.388 -73.117133.0  RSN  4 0.1 1.6LRSN                1
 GAP=153        0.31       3.6     5.3  4.8 -0.1074E+02  0.2830E+00  0.3712E+01E
 Epicentro: MATANZA - SANTANDER                                                3
 ACTION:UP  10-08-24 10:03 OP:vdl  STATUS:               ID:20100506140124 L   I
 2010-05-06-1356-46S.COL___105                                                 6
 STAT SP IPHASW D HRMM SECON CODA AMPLIT PERI AZIMU VELO SNR AR TRES W  DIS CAZ7
 GUE  SZ EP   1   14 1 43.26                             157    -0.1 7   53  23 
 GUE  SZ ES   2   14 1 58.46                             157     0.0 5   53  23 
 GRA  SZ ES   2   14 1 59.18                             152     0.1 5   65  32 
 BRR  HZ EP   1   14 1 44.07                             149     0.1 7   73 245 
 BRR  HE ES   2   14 1 59.44                             149    -0.1 5   73 245 
 BRR  HZ I        14 2  0.58         8.6 0.12                            73 245 
 BAR2 SZ EP   1   14 1 45.46                             144     0.1 7   88 185 
 BAR2 SZ ES   2   14 2  1.87                             144    -0.1 5   88 185 
                                                                                
