 2017 11 6 1907 54.0 L   6.842 -73.097132.7  RSN  4 0.5 1.5LRSN                1
 GAP=141        1.31       6.6     8.0 11.3  0.2522E+01  0.3980E+02 -0.1023E+02E
 Epicentro: LOS SANTOS - SANTANDER                                             3
 ACTION:UPD 17-12-12 19:53 OP:rebc STATUS:               ID:20171106190754 L   I
 OLDACT:REG 17-11-06 22:23 OP:mg   STATUS:               ID:20171106185554     3
 2017-11-06-1858-00M.COL___420                                                 6
 STAT SP IPHASW D HRMM SECON CODA AMPLIT PERI AZIMU VELO AIN AR TRES W  DIS CAZ7
 BAR2 EZ ES       19 8 26.80                             167    0.3910 29.2 199 
 BAR2 EZ I        19 8 27.86         7.2 0.30            169           29.2 199 
 PAM  EZ EP       19 8 15.33                             151    0.9210 70.3  39 
 PAM  EN ES       19 8 29.65                             151   -0.6810 70.3  39 
 PAM  EZ I        19 8 34.31         4.5 0.46            152           70.3  39 
 RUS  HZ EP       19 8 16.29                             140   -0.5510  105 179 
 RUS  HN ES       19 8 34.69                             140    0.0410  105 179 
 RUS  HZ I        19 8 35.47         3.3 0.24            144            105 179 
 ZAR  HZ EP       19 8 25.85                             119   -0.14 8  207 290 
 ZAR  HN ES       19 8 50.89                             119   -0.04 8  207 290 
 ZAR  HZ I        19 8 56.17         9.1 0.05            120            207 290 
                                                                                
