 2013  1 6 1021 58.7 L   6.288 -73.994 28.8  RSN  6 0.3 1.3LRSN                1
 GAP=153        0.56       2.8     2.3  4.6  0.1504E+01 -0.7328E+01 -0.1192E+01E
 Epicentro: CIMITARRA - SANTANDER                                              3
 ACTION:UPD 13-02-15 09:12 OP:ep   STATUS:               ID:20130106102158 L   I
 2013-01-06-1020-00M.COL___242                                                 6
 STAT SP IPHASW D HRMM SECON CODA AMPLIT PERI AZIMU VELO AIN AR TRES W  DIS CAZ7
 PTB  HZ IP     D 1022  8.83                             108   -0.0610 58.2 299 
 PTB  HN ES   1   1022 16.84                             108    0.02 7 58.2 299 
 PTB  HZ I        1022 17.68        28.6 0.14            105           58.2 299 
 BAR2 SZ EP   1   1022 14.41                              61    0.23 7 95.8  69 
 BAR2 SZ ES   1   1022 25.94                              61   -0.30 7 95.8  69 
 BAR2 SZ I        1022 27.30         9.4 0.42             61           95.8  69 
 BRR  HZ EP       1022 14.00                              61    0.1210 95.8  19 
 BRR  HN ES   1   1022 25.91                              61    0.20 7 95.8  19 
 BRR  HZ I        1022 26.80         4.4 0.12             61           95.8  19 
 RUS  HZ EP   1   1022 15.76                              61   -0.48 7  110 113 
 RUS  HN ES   1   1022 30.15                              61    0.25 7  110 113 
 RUS  HZ I        1022 30.81         6.3 0.62             61            110 113 
 ZAR  HN ES   2   1022 40.15                              61   -0.74 5  164 324 
 HEL  HZ EP   1   1022 23.92                              61    0.28 7  170 266 
 HEL  HN ES   2   1022 43.14                              61    0.06 4  170 266 
 HEL  HZ I        1022 43.83         2.9 0.26             61            170 266 
                                                                                
