 2013  9 6 1639 39.1 L   5.771 -73.952100.1  RSN  6 0.3 1.9LRSN                1
 GAP=215        0.44       0.8    14.0  0.0  0.3620E+01  0.2794E-02  0.8620E-03E
 Epicentro: ALBANIA - SANTANDER                                                3
 ACTION:UPD 13-10-22 09:20 OP:ep   STATUS:               ID:20130906163939 L   I
 OLDACT:UP  13-09-06 21:49 OP:mh   STATUS:               ID:20130906163739     3
 OLDACT:REG 13-09-06 21:34 OP:mh   STATUS:               ID:20130906163739     3
 2013-09-06-1637-39M.COL___247                                                 6
 STAT SP IPHASW D HRMM SECON CODA AMPLIT PERI AZIMU VELO AIN AR TRES W  DIS CAZ7
 SPBC HZ EP   1   1639 46.29                             150    0.37 8 18.7 225 
 SPBC HN ES   2   1639 50.87                             150   -0.35 5 18.7 225 
 SPBC HN I        1639 51.27       114.2 0.20             47           18.7 225 
 RUS  HZ EP       1639 57.17                              47           97.2  82 
 RUS  HN ES       1640  8.60                              47           97.2  82 
 RUS  HZ I        1640 10.19         6.1 0.20             47           97.2  82 
 PTB  HZ EP   1   1639 52.23                              47            102 327 
 PTB  HN ES   2   1640  4.09                              47            102 327 
 PTB  HZ I        1640  4.66        41.6 0.10             47            102 327 
 NOR  HZ EP   1   1639 57.06                              47            104 257 
 NOR  HE ES       1640  9.30                              47            104 257 
 NOR  HZ I        1640 10.12        12.6 0.34             47            104 257 
 BRR  HZ EP   1   1640  0.87                              90    0.00 7  150  10 
 BRR  HN ES       1640 17.68                              90   -0.1410  150  10 
 BRR  HZ I        1640 20.05        14.9 0.64             47            150  10 
 GUY2CHZ EP   4   1640  8.06                              90    4.44 0  168 249 
 GUY2CHN ES   4   1640 27.01                              90    4.28 0  168 249 
 PAM  SZ EP   4   1640 14.22                              90    3.89 0  222  39 
 PAM  SN ES   4   1640 39.24                              90    4.57 0  222  39 
 PAM  SZ I        1640 42.83         5.6 0.20             37            222  39 
                                                                                
