 2014  1 6 1855 42.3 L   6.795 -73.148134.6  RSN  5 0.6 1.3LRSN                1
 GAP=136        1.52       7.7     7.5 11.2 -0.5184E+01  0.1184E+02  0.4524E+01E
 Epicentro: LOS SANTOS - SANTANDER                                             3
 ACTION:UPD 14-03-13 09:52 OP:ep   STATUS:               ID:20140106185542 L   I
 OLDACT:DUP 14-01-06 19:54 OP:stll STATUS:               ID:20140106184818d    3
 2014-01-06-1848-17M.COL___246                                                 6
 STAT SP IPHASW D HRMM SECON CODA AMPLIT PERI AZIMU VELO AIN AR TRES W  DIS CAZ7
 BAR2 SZ EP       1856  0.67                             170    0.0810 22.8 189 
 BAR2 SZ ES       1856 14.07                             170   -0.7810 22.8 189 
 BAR2 SZ I        1856 16.63         7.8 0.38            172           22.8 189 
 BRR  HZ EP       1856  2.61                             150    0.3510 71.2 299 
 BRR  HN ES       1856 18.97                             150    1.1410 71.2 299 
 BRR  HZ I        1856 20.60         4.9 0.36            152           71.2 299 
 PAM  SZ EP       1856  3.52                             148    0.1310 78.0  39 
 PAM  SN ES       1856 19.29                             148   -0.5410 78.0  39 
 PAM  SZ I        1856 22.71         3.5 0.54            150           78.0  39 
 RUS  HZ EP       1856  5.08                             141    0.1410  100 176 
 RUS  HN ES       1856 23.13                             141    0.5310  100 176 
 RUS  HZ I        1856 24.33         1.7 0.26            145            100 176 
 PTB  HZ EP       1856  7.82                             129   -0.53 9  147 259 
 PTB  HN ES       1856 27.98                             129   -0.69 9  147 259 
                                                                                
