 2010  7 6 1823 56.8 L   6.561 -73.417121.6  RSN  5 0.3 1.6LRSN                1
 GAP=178        0.84       6.5    14.8  8.8  0.3946E+02 -0.1648E+02 -0.1934E+02E
 Epicentro: HATO - SANTANDER                                                   3
 ACTION:UPD 10-12-01 15:15 OP:pat  STATUS:               ID:20100706182356 L   I
 2010-07-06-1821-23S.COL___118                                                 6
 STAT SP IPHASW D HRMM SECON CODA AMPLIT PERI AZIMU VELO AIN AR TRES W  DIS CAZ7
 BAR2 SZ EP       1824 13.61                             167     0.010   26  82 
 BAR2 SZ ES   1   1824 26.61                             167    -0.1 7   26  82 
 BRR  HZ EP   1   1824 15.05                             148    -0.2 7   69 332 
 BRR  HN ES   2   1824 29.57                             148     0.0 5   69 332 
 BRR  HZ I        1824 32.73        30.8 0.09                            69 332 
 RUS  HZ EP       1824 16.85                             144     0.010   83 153 
 RUS  HN ES   2   1824 32.43                             144    -0.1 5   83 153 
 RUS  HZ I        1824 35.05         2.9 0.26                            83 153 
 BTN  SZ EP       1824 19.55                             135     0.610  112  18 
 GUE  SZ EP       1824 22.01                             125    -0.5 9  151  21 
                                                                                
