 2010  7 6 1715 50.5 L   5.749 -73.886111.0  RSN 11 0.3 2.1LRSN                1
 GAP= 92        0.74       2.8     3.8  8.2 -0.5314E+01  0.1575E+02 -0.4898E+01E
 Epicentro: ALBANIA - SANTANDER                                                3
 ACTION:UPD 10-12-01 15:15 OP:pat  STATUS:               ID:20100706171550 L   I
 2010-07-06-1713-17S.COL___118                                                 6
 STAT SP IPHASW D HRMM SECON CODA AMPLIT PERI AZIMU VELO AIN AR TRES W  DIS CAZ7
 RUS  HZ IP     D 1716 10.20                             138     0.010   90  80 
 RUS  HN ES   1   1716 25.11                             138    -0.4 7   90  80 
 RUS  HZ I        1716 27.12         9.2 0.09                            90  80 
 ROSC BZ EP   1   1716 12.46                             132     0.6 7  111 206 
 ROSC BZ I        1716 32.88        23.3 0.75                           111 206 
 BAR2 SZ EP       1716 12.90                             129     0.310  121  40 
 BAR2 SZ ES   1   1716 29.56                             129    -0.2 7  121  40 
 CHI  HZ EP   1   1716 13.16                             128     0.0 7  125 172 
 CHI  HN ES   1   1716 30.90                             128     0.1 7  125 172 
 CHI  HZ I        1716 33.71        10.9 0.43                           125 172 
 BRR  HZ EP       1716 15.30                             122     0.0 9  151   7 
 BRR  HN ES   1   1716 34.96                             122     0.4 7  151   7 
 BRR  HZ I        1716 37.97        37.1 0.09                           151   7 
 RREF HZ EP   1   1716 19.61                             116    -0.3 7  187 240 
 RREF HN ES   1   1716 42.85                             116     0.0 7  187 240 
 RREF HZ I        1716 46.23        20.9 0.20                           187 240 
 HEL  HZ EP   1   1716 19.90                             116     0.2 7  188 285 
 HEL  HN ES   2   1716 41.61                             116    -0.8 4  188 285 
 HEL  HZ I        1716 45.67        14.3 0.58                           188 285 
 TOL  SZ EP   1   1716 21.50                             114     0.1 6  205 231 
 BRI  SZ EP   1   1716 25.57                             109    -0.7 6  249  29 
 PRA  HZ EP   1   1716 25.91                             108    -0.4 6  251 206 
 PRA  HN ES   1   1716 54.33                             108     0.0 6  251 206 
 PRA  HZ I        1716 59.06        13.5 0.32                           251 206 
 GUE  SZ EP   1   1716 27.06                             108     0.1 6  253  25 
                                                                                
