 2012  2 6 1516 40.8 L   6.777 -73.191145.6  RSN 10 0.5 2.4LRSN                1
 GAP=132        0.90       4.3     4.2  6.7 -0.1175E+01  0.8965E+01  0.1932E+01E
 ACTION:UP  12-03-07 16:28 OP:epov STATUS:               ID:20120206151640 L   I
 2012-02-06-1510-00M.COL___187                                                 6
 STAT SP IPHASW D HRMM SECON CODA AMPLIT PERI AZIMU VELO SNR AR TRES W  DIS CAZ7
 BAR2 SZ EP   1   1517  0.41                             172    0.09 7 20.4 177 
 BAR2 SZ ES   1   1517 15.39                             172   -0.18 7 20.4 177 
 BAR2 SZ I        1517 17.24        42.4 0.37                          20.4 177 
 GIR2 SZ EP   1   1517  0.53                             166    0.06 7 33.4 359 
 BRR  HZ EP       1517  2.33                             153    0.6010 68.2 302 
 BRR  HZ I        1517  2.65       100.4 0.15                          68.2 302 
 BRR  HN ES   1   1517 18.82                             153    0.74 7 68.2 302 
 PAM  SZ EP   1   1517  3.12                             149   -0.16 7 82.5  41 
 PAM  SN ES   1   1517 20.20                             149   -0.63 7 82.5  41 
 RUS  HZ EP   1   1517  4.60                             144    0.25 7 98.5 173 
 RUS  HN ES       1517 22.81                             144    0.0610 98.5 173 
 RUS  HZ I        1517 24.34        15.7 0.25                          98.5 173 
 PTB  HZ EP   1   1517  6.87                             133   -0.37 7  142 259 
 PTB  HN ES       1517 27.69                             133   -0.19 9  142 259 
 ZAR  HZ EP   1   1517 12.92                             123    0.09 6  200 293 
 ZAR  HN ES   1   1517 37.37                             123   -0.47 6  200 293 
 ZAR  HZ I        1517 45.62        24.9 0.32                           200 293 
 NOR  SZ EP   1   1517 14.93                             119   -0.96 6  229 234 
 NOR  SN ES   1   1517 42.57                             119   -0.72 6  229 234 
 HEL  HN ES   1   1517 51.89                             115    0.64 6  267 256 
 HEL  HZ I        1517 59.49         9.0 0.37                           267 256 
 PRA  HZ EP   1   1517 34.08                             107    0.35 4  387 209 
 PRA  HZ I        1517 36.11        29.7 0.18                           387 209 
 PRA  HN ES   1   1518 15.57                             107    0.52 4  387 209 
                                                                                
