 2012  1 6 1553  6.8 L   6.785 -73.155145.2  RSN 10 0.4 2.3LRSN                1
 GAP=136        0.98       4.3     5.3  6.3 -0.1416E+01  0.7859E+01  0.4357E+01E
 Epicentro: LOS SANTOS - SANTANDER                                             3
 ACTION:UP  12-02-03 08:14 OP:REBC STATUS:               ID:20120106155306 L   I
 2012-01-06-1550-00M.COL___186                                                 6
 STAT SP IPHASW D HRMM SECON CODA AMPLIT PERI AZIMU VELO SNR AR TRES W  DIS CAZ7
 BAR2 SZ EP       1553 26.32                             171     0.010   22 188 
 BAR2 SZ ES   1   1553 40.72                             171    -0.8 7   22 188 
 BAR2 SZ I        1553 42.62        63.6 0.48                            22 188 
 GIR2 SZ EP       1553 26.41                             167     0.010   33 353 
 GIR2 SZ ES   1   1553 41.84                             167     0.1 7   33 353 
 BRR  HZ EP       1553 28.23                             152     0.410   71 300 
 BRR  HN ES   1   1553 45.30                             152     1.0 7   71 300 
 BRR  HZ I        1553 49.54        49.1 0.42                            71 300 
 PAM  SZ EP       1553 29.24                             150     0.210   79  39 
 PAM  SN ES   1   1553 46.17                             150    -0.3 7   79  39 
 RUS  HZ EP       1553 30.24                             144    -0.110   99 175 
 RUS  HE ES   1   1553 48.94                             144     0.2 7   99 175 
 RUS  HZ I        1553 50.03        19.8 0.32                            99 175 
 PTB  HZ EP       1553 33.25                             132    -0.3 9  146 259 
 PTB  HN ES   2   1553 53.45                             132    -1.0 5  146 259 
 PTB  HZ I        1554  1.44        17.1 0.44                           146 259 
 OCA  SZ EP       1553 34.96                             129    -0.2 9  162 354 
 OCA  SZ I        1553 59.53        35.4 0.23                           162 354 
 ZAR  HZ EP   2   1553 39.19                             122     0.0 4  204 293 
 ZAR  HE ES   1   1554  4.24                             122    -0.2 6  204 293 
 ZAR  HZ I        1554 10.15        25.3 0.60                           204 293 
 NOR  SZ EP       1553 42.33                             119     0.0 8  233 235 
 NOR  SN ES   2   1554  9.73                             119    -0.2 4  233 235 
 CHI  HZ EP       1553 44.33                             117     0.1 8  247 195 
 CHI  HE ES   2   1554 14.56                             117     1.1 4  247 195 
 CHI  HZ I        1554 18.93        10.3 0.28                           247 195 
                                                                                
