 2014 11 6 1347 40.2 L   6.871 -73.176145.2  RSN 10 0.4 1.9LRSN                1
 GAP=129        0.99       4.1     4.5  5.8 -0.4698E+01  0.6145E+01  0.4788E+01E
 Epicentro: ZAPATOCA - SANTANDER                                               3
 ACTION:UPD 14-12-19 15:40 OP:nd   STATUS:               ID:20141106134740 L   I
 OLDACT:UP  14-11-07 00:19 OP:cam  STATUS:               ID:20141106134646     3
 OLDACT:REG 14-11-07 00:07 OP:cam  STATUS:               ID:20141106134646     3
 2014-11-06-1346-46M.COL___289                                                 6
 STAT SP IPHASW D HRMM SECON CODA AMPLIT PERI AZIMU VELO AIN AR TRES W  DIS CAZ7
 BAR2 SZ EP       1347 59.83                             167   -0.1010 30.8 181 
 BAR2 SZ ES       1348 14.89                             167   -0.4310 30.8 181 
 BAR2 SZ I        1348 16.69        28.7 0.46            163           30.8 181 
 BRR  HZ EP     C 1348  1.18                             155    0.2510 64.8 294 
 BRR  HN ES       1348 17.88                             155    0.7810 64.8 294 
 BRR  HZ I        1348 18.53        18.5 0.10            155           64.8 294 
 PAM  SZ EP       1348  2.23                             152    0.0910 73.8  45 
 PAM  SE ES       1348 19.05                             152   -0.2110 73.8  45 
 PAM  SZ I        1348 20.21        22.2 0.24            158           73.8  45 
 RUS  HZ EP       1348  4.19                             142   -0.3010  109 175 
 RUS  HE ES       1348 23.80                             142    0.3710  109 175 
 RUS  HZ I        1348 24.53         5.8 0.26            140            109 175 
 PTB  HZ EP       1348  6.40                             132   -0.58 9  146 256 
 PTB  HN ES       1348 27.26                             132   -0.61 9  146 256 
 PTB  HZ I        1348 30.66        12.6 0.24            132            146 256 
 SPBC HZ EP       1348  9.36                             128    0.31 9  167 216 
 SPBC HE ES       1348 31.93                             128    0.38 9  167 216 
 SPBC HZ I        1348 39.64        10.4 0.22            127            167 216 
 NOR  HZ EP   4   1348 14.75                             118   -1.36 0  237 232 
 NOR  HE ES       1348 44.00                             118   -0.12 8  237 232 
 NOR  HZ I        1348 49.68         8.5 0.22            118            237 232 
 CHI  HZ EP   1   1348 18.85                             116    0.25 6  255 194 
 CHI  HN ES       1348 48.27                             116   -0.28 8  255 194 
 CHI  HZ I        1348 59.02         1.9 0.30            116            255 194 
 HEL  HZ EP       1348 20.03                             115   -0.22 8  271 254 
 GUY2CHZ EP       1348 24.60                             112    0.61 7  303 233 
 TOL  SZ EP   4   1348 30.47                             109    1.66 0  347 223 
                                                                                
