 2010  4 6 1543 47.0 L   6.776 -73.064137.8  RSN  6 0.3 2.2LRSN                1
 GAP=207        0.38       4.9     6.5  5.8  0.5569E+01  0.8110E+01  0.6493E+01E
 Epicentro: LOS SANTOS - SANTANDER                                             3
 ACTION:UPD 10-08-24 09:58 OP:vdl  STATUS:               ID:20100406154347 L   I
 2010-04-06-1541-21S.COL___098                                                 6
 STAT SP IPHASW D HRMM SECON CODA AMPLIT PERI AZIMU VELO AIN AR TRES W  DIS CAZ7
 BAR2 SZ IP       1544  5.85                             170     0.110   24 213 
 BAR2 SZ ES   2   1544 20.13                             170    -0.2 5   24 213 
 BRR  HZ IP       1544  7.89                             148     0.010   80 297 
 BRR  HZ I        1544  8.24        33.6 0.10                            80 297 
 BRR  HN ES   2   1544 24.33                             148     0.1 5   80 297 
 OCA  SZ ES   3   1544 36.14                             127    -0.9 2  164 350 
 OCA  SZ I        1544 41.21        24.3 0.26                           164 350 
 CHI  HZ EP   3   1544 23.63                             115    -0.7 2  249 197 
 CHI  HE ES   3   1544 53.03                             115    -0.3 2  249 197 
 HEL  HZ EP   3   1544 28.40                             112     0.6 2  280 257 
 HEL  HZ I        1544 29.05         7.5 0.45                           280 257 
 HEL  HN ES   3   1544 59.13                             112    -0.4 2  280 257 
 RREF BZ EP   2   1544 33.35                             109    -0.1 3  327 231 
 RREF BN ES   3   1545  9.64                             109     0.0 2  327 231 
 RREF BZ I        1545 18.11         5.7 0.32                           327 231 
                                                                                
