 2017 12 6 1935 14.5 L   6.827 -73.166141.7  RSN 26 0.6 2.7LRSN                1
 GAP= 64        1.43       3.1     3.5  6.5  0.2878E+00  0.7530E+01  0.1408E+01E
 Epicentro: LOS SANTOS - SANTANDER                                             3
 ACTION:UPD 18-01-04 13:17 OP:rebc STATUS:               ID:20171206193514 L   I
 OLDACT:REG 17-12-06 20:54 OP:lv   STATUS:               ID:20171206192744     3
 2017-12-06-1928-00M.COL___491                                                 6
 STAT SP IPHASW D HRMM SECON CODA AMPLIT PERI AZIMU VELO AIN AR TRES W  DIS CAZ7
 BAR2 EZ IP     C 1935 33.85                             169    0.1210 26.0 184 
 BAR2 EZ ES       1935 47.67                             169   -1.0410 26.0 184 
 BAR2 EZ I        1935 50.51       163.4 0.20            166           26.0 184 
 PAM  EZ EP       1935 36.71                             150    0.4410 76.6  42 
 PAM  EN ES       1935 54.03                             150    0.8110 76.6  42 
 PAM  EZ I        1935 55.91        83.6 0.58            154           76.6  42 
 PTB  HZ EP       1935 40.78                             131   -0.25 9  146 258 
 PTB  HN ES       1936  1.48                             131   -0.22 9  146 258 
 PTB  HZ I        1936  9.27        65.4 0.34            128            146 258 
 OCA  HZ EP       1935 41.91                             129   -0.31 9  157 354 
 OCA  HN ES       1936  4.45                             129    0.63 9  157 354 
 TAM  HZ IP     C 1935 42.05                             129   -0.12 9  158 106 
 TAM  HE EP       1935 42.07                             129   -0.10 9  158 106 
 TAM  HN ES       1936  2.63                             129   -1.10 9  158 106 
 TAM  HZ I        1936  2.88        31.7 0.36            131            158 106 
 TAM  HE ES       1936  4.03                             129    0.30 9  158 106 
 TAM  HE I        1936  5.24       100.7 0.60            131            158 106 
 SPBC HZ IP     C 1935 42.83                             128    0.01 9  164 218 
 SPBC HN ES       1936  3.75                             128   -1.13 9  164 218 
 SPBC HZ I        1936  9.39       102.3 0.28            125            164 218 
 YPLC HZ IP     C 1935 44.13                             125   -0.27 9  181 151 
 YPLC HN ES       1936  8.18                             125    0.48 9  181 151 
 YPLC HZ I        1936  9.53        36.9 0.36            125            181 151 
 ZAR  HZ EP       1935 46.30                             122   -0.08 9  201 292 
 ZAR  HE ES       1936 12.64                             122    1.41 9  201 292 
 ZAR  HZ I        1936 18.54        65.2 0.42            120            201 292 
 CHI  HZ EP       1935 52.08                             116   -0.18 8  251 194 
 CHI  HN ES       1936 22.31                             116    0.62 8  251 194 
 CHI  HZ I        1936 26.96        20.0 0.28            115            251 194 
 ROSC BZ EP       1935 53.84                             116    1.25 8  254 210 
 ROSC BN ES   4   1936 25.52                             116    3.24 0  254 210 
 ROSC BZ I        1936 31.90        69.0 0.35            114            254 210 
 CVER HZ EP       1935 55.19                             114    0.29 8  274 202 
 CVER HN ES       1936 26.29                             114   -0.11 8  274 202 
 CVER HZ I        1936 34.77        30.5 0.40            113            274 202 
 URE  HZ EP       1935 53.89                             113   -1.16 7  281 292 
 URE  HZ I        1936 33.55        34.4 0.16            111            281 292 
 DRL03HZ EP       1935 56.19                             113    0.61 7  286 353 
 DRL03HE ES   4   1936 28.91                             113    1.31 0  286 353 
 GUY2CHZ EP       1935 58.44                             111    0.49 7  301 234 
 GUY2CHN ES   4   1936 33.79                             111    1.98 0  301 234 
 GUY2CHZ I        1936 40.35        37.8 0.36                           301 234 
 VIL  EZ EP       1935 58.34                             111    0.29 7  306 191 
 VIL  EN ES   4   1936 29.57                             111   -2.43 0  306 191 
 VIL  EZ I        1936 47.58        24.3 0.28            110            306 191 
 PTGC HZ IP   9 D 1935 56.90                             110   -1.72 0  312 158 
 PTGC HN ES       1936 30.31                                   -0.98 7  312 158 
 PTGC HZ I        1936 34.69        16.2 0.30            110            312 158 
 LL6C HZ EP       1935 58.66                             110   -1.05 7  322 358 
 LL6C HN ES   4   1936 33.10                             110   -1.84 0  322 358 
 LL6C HZ I        1936 38.39        10.6 0.30            109            322 358 
 DBB  HZ EP       1936  1.54                             109   -0.02 7  337 274 
 DBB  HN ES   4   1936 36.94                             109   -1.31 0  337 274 
 DBB  HZ I        1936 44.25        13.9 0.18            108            337 274 
 ARGC HN ES       1936 41.36                             108   -0.55 6  356 341 
 ARGC HZ I        1936 49.87        15.6 0.28            107            356 341 
 PRA  HZ EP       1936  7.59                             106   -0.50 6  394 209 
 PRA  HN ES       1936 50.22                             106    0.35 6  394 209 
 PRA  HZ I        1936 56.36        26.7 0.26            105            394 209 
 APAC HZ EP       1936  7.91                             106   -0.32 6  395 288 
 APAC HN ES       1936 49.63                             106   -0.48 6  395 288 
 APAC HZ I        1936 54.61        10.3 0.62            105            395 288 
 ORTC HZ EP       1936  8.78                             106    0.33 6  397 216 
 ORTC HN ES       1936 51.43                             106    0.93 6  397 216 
 ORTC HZ I        1936 57.78        18.0 0.60            105            397 216 
 SJC  HZ EP   4   1936  7.74                             105   -1.78 0  405 327 
 SJC  HN ES   4   1936 49.41                             105   -3.00 0  405 327 
 SJC  HZ I        1936 53.43        15.4 0.42            104            405 327 
 PAL  HZ EP       1936  9.52                             105    0.00 6  405 239 
 PAL  HN ES   4   1936 53.98                             105    1.57 0  405 239 
 PAL  HZ I        1936 59.02        11.6 0.38            104            405 239 
 VALLCHZ EP   4   1936 10.99                             105    1.31 0  407 359 
 VALLCHN ES   4   1936 51.24                             105   -1.46 0  407 359 
 CRJC HZ EP   4   1936 13.23                             103   -3.35 0  465   4 
 CRJC HN ES   4   1937  2.27                             103   -2.70 0  465   4 
 CRJC HZ I        1937  4.81        10.0 0.14            103            465   4 
 SMAR HZ EP       1936 19.10                             102   -0.79 4  494 346 
 SMAR HN ES   4   1937  6.65                             102   -4.21 0  494 346 
 CAP2 HZ EP   4   1936 19.32                             101   -1.88 0  504 294 
 CAP2 HN ES   4   1937  8.08                             101   -5.13 0  504 294 
                                                                                
