 2014 11 6 1511 43.3 L   6.820 -73.161138.8  RSN  4 0.4 1.6LRSN                1
 GAP=144        0.94       5.4     5.7 10.4 -0.1543E+02  0.1259E+02  0.2830E+01E
 Epicentro: LOS SANTOS - SANTANDER                                             3
 ACTION:UPD 14-12-19 15:40 OP:nd   STATUS:               ID:20141106151143 L   I
 OLDACT:UP  14-11-06 23:27 OP:cam  STATUS:               ID:20141106150817     3
 OLDACT:REG 14-11-06 19:54 OP:cam  STATUS:               ID:20141106150817     3
 2014-11-06-1508-17M.COL___283                                                 6
 STAT SP IPHASW D HRMM SECON CODA AMPLIT PERI AZIMU VELO AIN AR TRES W  DIS CAZ7
 PAM  SZ EP     D 1512  4.88                             150    0.1610 76.8  42 
 PAM  SN ES       1512 21.56                             150    0.1210 76.8  42 
 PAM  SZ I        1512 23.61         5.0 0.64            155           76.8  42 
 RUS  HZ EP   1   1512  6.28                             142   -0.24 7  103 175 
 RUS  HN ES       1512 24.31                             142   -0.3410  103 175 
 RUS  HZ I        1512 26.54         3.4 0.32            145            103 175 
 PTB  HN ES       1512 29.67                             131   -0.40 9  146 258 
 PTB  HN I        1512 35.44         7.2 0.34            132            146 258 
 SPBC HZ EP       1512 11.16                             127   -0.15 9  164 218 
 SPBC HN ES       1512 33.97                             127    0.80 9  164 218 
 SPBC HN I        1512 39.89        10.9 0.26            130            164 218 
                                                                                
