 2013  2 6 1756 19.6 L   6.767 -73.115141.6  RSN  4 0.1 1.6LRSN                1
 GAP=142        0.46       2.4     3.6  3.7 -0.1496E+00 -0.9073E+00  0.2950E+00E
 Epicentro: LOS SANTOS - SANTANDER                                             3
 ACTION:UPD 13-03-12 09:31 OP:ep   STATUS:               ID:20130206175619 L   I
 2013-02-06-1750-00M.COL___240                                                 6
 STAT SP IPHASW D HRMM SECON CODA AMPLIT PERI AZIMU VELO AIN AR TRES W  DIS CAZ7
 BAR2 SZ EP       1756 38.54                             171   -0.1710 20.8 201 
 BAR2 SZ I        1756 38.65        10.6 0.42            171           20.8 201 
 BAR2 SZ ES       1756 53.32                             171   -0.2710 20.8 201 
 BRR  HZ EP       1756 40.53                             150   -0.0810 75.9 300 
 BRR  HE ES       1756 57.14                             150    0.1710 75.9 300 
 PAM  SZ IP       1756 41.51                             150    0.0610 78.1  36 
 PAM  SZ I        1756 41.62         6.0 0.18            150           78.1  36 
 PAM  SN ES       1756 58.53                             150    0.0610 78.1  36 
 RUS  HZ EP       1756 42.74                             144    0.0410 96.8 178 
 RUS  HN ES       1757  0.87                             144    0.1810 96.8 178 
                                                                                
