 2017 10 6 1501 54.1 L   6.874 -73.083151.0  RSN 22 0.6 2.7LRSN                1
 GAP=115        0.91       2.4     3.5  4.4  0.4339E+00  0.2920E+01 -0.1018E+01E
 Epicentro: PIEDECUESTA - SANTANDER                                            3
 ACTION:UPD 17-11-07 19:29 OP:rebc STATUS:               ID:20171006150154 L   I
 OLDACT:UP  17-10-06 22:35 OP:osc  STATUS:               ID:20171006145743     3
 OLDACT:UP  17-10-06 22:34 OP:osc  STATUS:               ID:20171006145743     3
 OLDACT:REG 17-10-06 20:12 OP:osc  STATUS:               ID:20171006145743     3
 2017-10-06-1458-00M.COL___440                                                 6
 STAT SP IPHASW D HRMM SECON CODA AMPLIT PERI AZIMU VELO AIN AR TRES W  DIS CAZ7
 BAR2 EZ EP       15 2 15.01                             167    0.4510 33.0 199 
 BAR2 EZ ES       15 2 30.73                             167    0.1910 33.0 199 
 BAR2 EZ I        15 2 31.66       134.5 0.20            165           33.0 199 
 PAM  EZ EP   9   15 2 17.86                             155    1.59 0 66.7  39 
 PAM  EN ES       15 2 35.19                             155    0.0210 66.7  39 
 PAM  EZ I        15 2 37.20        46.6 0.56            158           66.7  39 
 RUS  HZ EP       15 2 18.98                             143    0.0610  109 180 
 RUS  HE ES       15 2 37.72                             143   -0.5710  109 180 
 RUS  HZ I        15 2 39.08        39.0 0.28            144            109 180 
 SPBC HZ EP       15 2 23.80                             128   -0.19 9  174 219 
 SPBC HE ES       15 2 46.91                             128   -0.42 9  174 219 
 SPBC HZ I        15 2 50.84        73.1 0.22            128            174 219 
 YPLC HZ EP       15 2 25.43                             127    0.78 9  181 155 
 YPLC HE ES       15 2 48.51                             127    0.01 9  181 155 
 YPLC HZ I        15 2 52.20        25.7 0.22            129            181 155 
 ZAR  HZ EP       15 2 27.49                             123    0.25 8  208 289 
 ZAR  HE ES       15 2 52.90                             123   -0.20 8  208 289 
 ZAR  HZ I        15 2 58.39        55.3 0.42            122            208 289 
 TABC EZ EP   3   15 2 32.63                             119    1.37 2  240 211 
 TABC EZ ES       15 3  1.04                             119    0.78 8  240 211 
 TABC EZ I        15 3  7.23        46.1 0.42            119            240 211 
 NOR  HZ EP       15 2 31.11                             118   -0.11 8  245 234 
 NOR  HE ES   4   15 2 58.87                             118   -1.33 0  245 234 
 NOR  HZ I        15 3  8.34        18.5 0.21            118            245 234 
 CHI  HZ EP       15 2 33.23                             117    0.11 8  258 196 
 CHI  HE ES       15 3  2.61                             117   -0.96 8  258 196 
 CHI  HZ I        15 3  5.98        26.5 0.64            118            258 196 
 ROSC BZ EP   4   15 2 35.02                             117    1.39 0  263 211 
 ROSC BE ES       15 3  5.25                             117    0.76 8  263 211 
 ROSC BZ I        15 3  9.66        65.4 0.40            117            263 211 
 GUY2CHZ EP   3   15 2 40.13                             112    1.03 2  312 234 
 GUY2CHE ES       15 3 14.00                             112   -0.22 7  312 234 
 GUY2CHZ I        15 3 21.25        21.2 0.34                           312 234 
 VIL  EZ EP       15 2 38.61                             112   -0.19 7  313 193 
 VIL  EE ES       15 3 13.69                             112    0.01 7  313 193 
 VIL  EZ I        15 3 22.68        44.8 0.42            113            313 193 
 PTGC HZ EP       15 2 38.10                             112   -0.66 7  314 160 
 PTGC HE ES   3   15 3 11.52                             112   -2.09 2  314 160 
 ELA  HZ EP   9   15 2 45.01                             111    2.65 0  340 229 
 ELA  HE ES       15 3 22.41                             111   -0.26 7  340 229 
 ELA  HZ I        15 3 27.69        17.2 0.56            111            340 229 
 DBB  EN ES   2   15 3 19.00                             110   -1.28 3  346 273 
 DBB  EZ I        15 3 24.31         9.3 0.14            110            346 273 
 ARGC HE ES       15 3 22.64                             109    0.88 6  354 339 
 ANIL HE ES   3   15 3 27.48                             109    2.19 2  368 224 
 PRA  HZ EP       15 2 48.96                             107   -0.05 6  403 210 
 PRA  HE ES       15 3 31.97                             107    0.12 6  403 210 
 PRA  HZ I        15 3 37.20        28.5 0.34            107            403 210 
 ORTC HZ EP       15 2 49.40                             107   -0.02 6  406 216 
 ORTC HE ES       15 3 32.59                             107   -0.01 6  406 216 
 ORTC HZ I        15 3 36.36        12.9 0.24            107            406 216 
 SJC  HZ EP       15 2 49.17                             107   -0.30 6  406 326 
 SJC  HE ES   3   15 3 30.85                             107   -1.83 1  406 326 
 SJC  HZ I        15 3 44.80         8.9 0.70            107            406 326 
 PAL  HZ EP       15 2 50.66                             106    0.06 5  416 239 
 PAL  HN ES       15 3 34.23                             106   -0.46 5  416 239 
 PAL  HZ I        15 3 41.94        20.5 0.10            106            416 239 
 CRJC HZ EP       15 2 55.35                             104   -0.37 5  459   3 
 CRJC HE ES       15 3 43.27                             104   -0.53 5  459   3 
 CRJC HZ I        15 3 47.94        13.4 0.72            105            459   3 
                                                                                
