 2012  4 6 1417  2.8 L   6.774 -73.150146.5  RSN  6 0.3 1.7LRSN                1
 GAP=137        0.50       3.7     3.9  4.9 -0.8747E+00 -0.1100E+01  0.2294E+01E
 Epicentro: LOS SANTOS - SANTANDER                                             3
 ACTION:UPD 12-07-05 11:51 OP:tino STATUS:               ID:20120406141702 L   I
 2012-04-06-1410-00M.COL___196                                                 6
 STAT SP IPHASW D HRMM SECON CODA AMPLIT PERI AZIMU VELO AIN AR TRES W  DIS CAZ7
 BAR2 SZ EP       1417 22.32                             172    -0.110   20 190 
 BAR2 SZ ES   1   1417 37.68                             172    -0.1 7   20 190 
 BAR2 SZ I        1417 38.51         9.4 0.38                            20 190 
 BRR  HZ EP       1417 24.14                             152     0.110   72 301 
 BRR  HZ I        1417 24.31        17.0 0.16                            72 301 
 BRR  HN ES   1   1417 40.98                             152     0.3 7   72 301 
 PAM  SZ EP       1417 25.13                             150    -0.110   80  39 
 PAM  SN ES   1   1417 42.63                             150    -0.1 7   80  39 
 RUS  HZ EP       1417 26.55                             145     0.210   98 176 
 RUS  HN ES   2   1417 44.72                             145    -0.1 5   98 176 
 RUS  HZ I        1417 45.92         3.4 0.28                            98 176 
 PTB  HE ES   2   1417 50.15                             132    -0.6 5  147 260 
 ZAR  HZ EP   3   1417 35.40                             122     0.1 2  205 293 
 ZAR  HN ES   3   1417 59.78                             122    -0.9 2  205 293 
 ZAR  HZ I        1418  7.08         5.3 0.46                           205 293 
                                                                                
