 2016  1 6 1608 14.5 L   6.814 -73.157142.0  RSN 19 0.5 2.5LRSN                1
 GAP=134        1.19       2.8     4.0  5.4 -0.1341E+01  0.6095E+01  0.2843E+01E
 Epicentro: LOS SANTOS - SANTANDER                                             3
 ACTION:UPD 16-03-09 23:23 OP:cam  STATUS:               ID:20160106160814 L   I
 OLDACT:REG 16-01-06 21:10 OP:ar   STATUS:               ID:20160106160751     3
 2016-01-06-1607-51M.COL___284                                                 6
 STAT SP IPHASW D HRMM SECON CODA AMPLIT PERI AZIMU VELO AIN AR TRES W  DIS CAZ7
 BAR2 EZ EP       16 8 33.53                             170   -0.1510 24.6 187 
 BAR2 EZ ES       16 8 48.61                             170   -0.0510 24.6 187 
 BAR2 EZ I        16 8 49.76        47.1 0.44            168           24.6 187 
 BRR  HZ EP       16 8 35.38                             152    0.2710 69.4 298 
 BRR  HN ES       16 8 52.11                             152    0.9010 69.4 298 
 BRR  HZ I        16 8 56.12        44.8 0.24            148           69.4 298 
 PAM  EZ EP       16 8 36.50                             150    0.2310 77.1  41 
 PAM  EN ES       16 8 53.44                             150    0.1710 77.1  41 
 PAM  EZ I        16 8 55.74        48.8 0.48            155           77.1  41 
 RUS  HZ EP       16 8 37.62                             143   -0.3510  102 175 
 RUS  HN ES       16 8 56.61                             143    0.3110  102 175 
 RUS  HZ I        16 8 57.28        40.7 0.26            146            102 175 
 PTB  HZ EP       16 8 40.06                             131   -0.99 9  147 258 
 PTB  HN ES       16 9  1.35                             131   -0.43 9  147 258 
 PTB  HZ I        16 9  8.21        48.3 0.62            130            147 258 
 OCA  HZ EP       16 8 42.60                             129    0.26 9  159 354 
 OCA  HN ES       16 9  3.49                             129   -0.58 9  159 354 
 OCA  HZ I        16 9 11.93        52.5 0.32            131            159 354 
 SPBC HZ EP       16 8 42.56                             128   -0.16 9  164 218 
 SPBC HN ES       16 9  4.73                             128   -0.03 9  164 218 
 SPBC HZ I        16 9 11.56        56.5 0.24            129            164 218 
 ZAR  HE ES       16 9 11.31                             122   -0.16 9  202 292 
 ZAR  HZ I        16 9 16.82        32.7 0.42            122            202 292 
 NOR  HZ EP       16 8 49.70                             118   -0.27 8  235 234 
 NOR  HN ES       16 9 17.99                             118    0.33 8  235 234 
 NOR  HZ I        16 9 22.20        27.5 0.26            119            235 234 
 SML  HZ EP       16 8 50.41                             117   -0.28 8  242 335 
 SML  HN ES       16 9 18.44                             117   -0.49 8  242 335 
 SML  HZ I        16 9 21.95        27.4 0.28            118            242 335 
 CHI  HZ EP       16 8 51.67                             116   -0.42 8  250 195 
 CHI  HN ES       16 9 20.97                             116   -0.46 8  250 195 
 CHI  HZ I        16 9 25.03        27.4 0.66            119            250 195 
 ROSC BZ EP       16 8 53.17                             116    0.71 8  253 211 
 ROSC BN ES   4   16 9 24.79                             116    2.70 0  253 211 
 ROSC BZ I        16 9 27.92        46.8 0.35            118            253 211 
 HEL  HZ EP       16 8 54.78                             114    0.38 8  271 255 
 HEL  HN ES       16 9 24.65                             114   -0.90 8  271 255 
 HEL  HZ I        16 9 31.13        16.9 0.40            115            271 255 
 URE  HN ES   4   16 9 23.96                             113   -2.95 0  282 292 
 URE  HZ I        16 9 38.53        21.0 0.26            114            282 292 
 GUY2CHZ EP       16 8 58.79                             112    0.90 7  301 234 
 GUY2CHE ES   4   16 9 35.72                             112    3.96 0  301 234 
 GUY2CHZ I        16 9 37.69        14.2 0.36                           301 234 
 VIL  SZ EP       16 8 57.91                             111    0.05 7  305 191 
 VIL  SN ES       16 9 31.04                             111   -0.66 7  305 191 
 CBOC HZ EP       16 9  1.97                             109    0.82 7  333 252 
 CBOC HE ES       16 9 38.41                             109    0.85 7  333 252 
 CBOC HZ I        16 9 53.02         6.9 0.74            110            333 252 
 PRA  HZ EP       16 9  8.60                             106    0.65 6  393 209 
 PRA  HN ES       16 9 48.71                             106   -0.95 6  393 209 
 PRA  HZ I        16 9 50.70         6.2 0.24            108            393 209 
 PAL  HZ EP       16 9 10.52                             105    1.04 6  405 239 
 PAL  HN ES       16 9 52.99                             105    0.62 6  405 239 
 PAL  HZ I        16 9 55.81         6.3 0.30            107            405 239 
                                                                                
