 2017 12 6 1608 32.6 L   6.825 -73.172141.9  RSN 15 0.5 2.2LRSN                1
 GAP=108        1.00       2.7     3.6  5.7 -0.7958E+00  0.4251E+01  0.2021E+01E
 Epicentro: ZAPATOCA - SANTANDER                                               3
 ACTION:UPD 18-01-04 13:17 OP:rebc STATUS:               ID:20171206160832 L   I
 OLDACT:REG 17-12-06 20:43 OP:lv   STATUS:               ID:20171206160742     3
 2017-12-06-1608-00M.COL___485                                                 6
 STAT SP IPHASW D HRMM SECON CODA AMPLIT PERI AZIMU VELO AIN AR TRES W  DIS CAZ7
 BAR2 EZ IP     D 16 8 51.64                             169   -0.1210 25.7 183 
 BAR2 EZ ES       16 9  6.17                             169   -0.5810 25.7 183 
 BAR2 EZ I        16 9 10.88        18.7 0.14            168           25.7 183 
 PAM  EZ EP       16 8 54.39                             150    0.0510 77.2  42 
 PAM  EN ES       16 9 11.90                             150    0.5610 77.2  42 
 PAM  EZ I        16 9 13.72        53.6 0.54            155           77.2  42 
 PTB  HZ EP       16 8 58.40                             132   -0.59 9  145 258 
 PTB  HN ES       16 9 19.04                             132   -0.58 9  145 258 
 PTB  HZ I        16 9 25.51         8.2 0.48            132            145 258 
 OCA  HZ EP   4   16 8 58.88                             129   -1.39 0  157 354 
 OCA  HN ES       16 9 22.04                             129    0.15 9  157 354 
 OCA  HZ I        16 9 25.92        48.3 0.16            132            157 354 
 SPBC HZ EP       16 9  0.65                             128   -0.14 9  164 218 
 SPBC HN ES       16 9 23.08                             128    0.27 9  164 218 
 SPBC HZ I        16 9 25.07        24.7 0.42            129            164 218 
 YPLC HZ EP       16 9  1.93                             125   -0.51 9  181 151 
 YPLC HN ES       16 9 26.16                             125    0.40 9  181 151 
 YPLC HZ I        16 9 26.83        14.6 0.28            128            181 151 
 ZAR  HZ EP       16 9  4.30                             122   -0.06 9  200 292 
 ZAR  HN ES       16 9 30.01                             122    0.84 9  200 292 
 ZAR  HZ I        16 9 34.38        13.1 0.34            123            200 292 
 DRL03HZ EP       16 9 13.24                             113   -0.39 7  286 353 
 DRL03HN ES       16 9 45.78                             113    0.11 7  286 353 
 GUY2CHZ EP   9   16 9 17.12                             112    1.23 0  300 234 
 GUY2CHN ES       16 9 51.02                                    0.09 7  300 234 
 GUY2CHZ I        16 9 58.47         7.8 0.70                           300 234 
 LL6C HN ES       16 9 51.51                                   -0.62 7  322 358 
 DRL02HZ EP   9   16 9 15.94                             110   -1.82 0  322 358 
 DRL02HN ES       16 9 51.34                                    0.14 7  322 358 
 LL6C HZ EP   9   16 9 16.87                             110   -0.89 0  322 358 
 ELA  HN ES   4   16 9 57.36                             110    1.79 0  329 229 
 ELA  HZ I        1610  4.38         7.5 0.42            111            329 229 
 PRA  HZ EP       16 9 26.56                             106    0.51 6  393 209 
 PRA  HE ES       1610  8.52                             106    0.74 6  393 209 
 PRA  HZ I        1610 11.55         5.6 0.44            107            393 209 
 ORTC HZ EP       16 9 26.13                             106   -0.27 6  396 216 
 ORTC HN ES       1610  9.04                             106    0.64 6  396 216 
 ORTC HZ I        1610 16.52         3.6 0.34            107            396 216 
 SJC  HZ EP   4   16 9 25.87                             105   -1.66 0  405 327 
 SJC  HN ES   4   1610  6.70                             105   -3.71 0  405 327 
 SJC  HZ I        1610 11.24         4.4 0.48            107            405 327 
                                                                                
