 2013  5 6 1355 58.8 L   6.796 -73.166148.9  RSN  4 0.1 1.7LRSN                1
 GAP=142        0.38       4.0     3.3  4.0 -0.6512E+01  0.3523E+01 -0.3860E+01E
 Epicentro: LOS SANTOS - SANTANDER                                             3
 ACTION:UPD 13-06-20 09:48 OP:ep   STATUS:               ID:20130506135558 L   I
 2013-05-06-1350-00M.COL___253                                                 6
 STAT SP IPHASW D HRMM SECON CODA AMPLIT PERI AZIMU VELO AIN AR TRES W  DIS CAZ7
 BAR2 SZ EP   1   1356 18.78                             171   -0.00 7 22.6 185 
 BAR2 SZ ES       1356 34.41                             171    0.0310 22.6 185 
 BAR2 SZ I        1356 36.48        12.4 0.22            170           22.6 185 
 PAM  SZ EP       1356 21.64                             151    0.1910 79.2  41 
 PAM  SZ I        1356 21.90        12.4 0.42            154           79.2  41 
 PAM  SN ES   1   1356 38.91                             151   -0.21 7 79.2  41 
 RUS  HZ EP   2   1356 22.66                             144   -0.17 5  100 175 
 RUS  HN ES   2   1356 41.59                             144    0.01 5  100 175 
 RUS  HZ I        1356 42.55         4.2 0.42            147            100 175 
 PTB  HZ EP   1   1356 25.59                             133   -0.23 7  145 259 
 PTB  HN ES   1   1356 46.98                             133    0.09 7  145 259 
 PTB  HZ I        1356 52.61         9.1 0.46            132            145 259 
                                                                                
