 2013  6 6 1655 38.3 L   6.725 -73.180145.5  RSN  4 0.3 1.9LRSN                1
 GAP=228        0.80       6.2     6.0  6.4  0.1831E+02  0.4413E+01  0.1377E+01E
 Epicentro: VILLANUEVA - SANTANDER                                             3
 ACTION:UPD 14-01-08 09:52 OP:ep   STATUS:               ID:20130606165538 L   I
 OLDACT:REG 13-06-06 18:42 OP:nd   STATUS:               ID:20130606164959     3
 2013-06-06-1649-59M.COL___260                                                 6
 STAT SP IPHASW D HRMM SECON CODA AMPLIT PERI AZIMU VELO AIN AR TRES W  DIS CAZ7
 BAR2 SZ EP       1655 57.68                             174   -0.1010 14.7 181 
 BAR2 SZ ES       1656 12.41                             174   -0.5510 14.7 181 
 BAR2 SZ I        1656 13.91        28.1 0.18            175           14.7 181 
 BRR  HZ EP       1655 59.53                             152    0.0110 72.4 306 
 BRR  HN ES       1656 16.51                             152    0.4710 72.4 306 
 BRR  HZ I        1656 20.86        14.0 0.42            152           72.4 306 
 RUS  HZ EP       1656  1.65                             146    0.1510 92.7 173 
 RUS  HN ES       1656 19.87                             146    0.3010 92.7 173 
 RUS  HZ I        1656 21.36         9.6 0.34            149           92.7 173 
 PTB  HZ EP       1656  4.62                             133   -0.19 9  143 262 
 PTB  HN ES       1656 25.34                             133   -0.13 9  143 262 
 PTB  HZ I        1656 27.79        10.4 0.28            134            143 262 
                                                                                
