 2015  7 6 1014 28.3 L   6.799 -73.079147.9  RSN 15 0.5 2.3LRSN                1
 GAP=125        1.09       2.7     4.1  6.1 -0.4588E+00  0.9080E+01  0.2275E+01E
 Epicentro: LOS SANTOS - SANTANDER                                             3
 ACTION:UPD 15-09-08 21:47 OP:cam  STATUS:               ID:20150706101428 L   I
 OLDACT:REG 15-07-06 20:57 OP:ar   STATUS:               ID:20150706100749     3
 2015-07-06-1007-49M.COL___331                                                 6
 STAT SP IPHASW D HRMM SECON CODA AMPLIT PERI AZIMU VELO AIN AR TRES W  DIS CAZ7
 BAR2 EZ EP     D 1014 48.49                             170    0.2310 25.6 207 
 BAR2 EZ ES       1015  3.24                             170   -0.5710 25.6 207 
 BAR2 EZ I        1015  4.79        60.2 0.20            169           25.6 207 
 PAM  EZ EP       1014 51.24                             153    0.7210 73.0  35 
 PAM  EN ES       1015  8.17                             153    0.3410 73.0  35 
 PAM  EZ I        1015 10.73        26.9 0.42            153           73.0  35 
 RUS  HZ EP       1014 52.48                             144    0.2110  100 180 
 RUS  HE ES       1015 11.44                             144    0.5010  100 180 
 OCA  HZ EP       1014 56.49                             130   -0.42 9  161 351 
 OCA  HN ES       1015 19.12                             130   -0.09 9  161 351 
 OCA  HZ I        1015 28.17        28.3 0.28            129            161 351 
 ZAR  HZ EP       1015  1.44                             122   -0.18 8  211 291 
 ZAR  HN ES       1015 27.23                             122   -0.36 8  211 291 
 ZAR  HZ I        1015 31.73        14.3 0.26            121            211 291 
 NOR  HZ EP       1015  4.86                             118    0.04 8  241 236 
 NOR  HN ES       1015 32.85                             118   -0.44 8  241 236 
 NOR  HZ I        1015 36.95        11.8 0.20            118            241 236 
 SML  HZ EP       1015  4.89                             118   -0.53 8  247 334 
 SML  HN ES       1015 34.19                             118   -0.17 8  247 334 
 SML  HZ I        1015 37.11        15.4 0.10            117            247 334 
 CHI  HN ES       1015 35.51                             117   -0.51 8  251 197 
 CHI  HZ I        1015 38.34         7.9 0.32            118            251 197 
 HEL  HE ES       1015 41.54                             114    0.03 7  279 256 
 HEL  HZ I        1015 47.35         8.4 0.30            114            279 256 
 URE  HN ES   4   1015 39.55                             113   -3.44 0  291 291 
 URE  HZ I        1015 50.04        18.0 0.84            113            291 291 
 PTGC HZ EP       1015 11.57                             112   -0.41 7  306 160 
 PTGC HN ES       1015 45.07                             112   -0.95 7  306 160 
 PTGC HZ I        1015 47.11        17.4 0.44            114            306 160 
 GUY2CHZ EP   2   1015 14.46                             112    1.75 4  307 236 
 GUY2CHE ES       1015 48.19                             112    0.86 7  307 236 
 GUY2CHZ I        1015 54.60         7.0 0.46                           307 236 
 TOL  SZ EP       1015 18.12                             109    0.86 6  349 226 
 TOL  SN ES       1015 55.72                             109    0.29 6  349 226 
 TOL  SZ I        1016  0.65         5.9 0.70            110            349 226 
 MON  HZ EP   4   1015 16.15                             109   -1.94 0  360 308 
 MON  HN ES   4   1015 55.62                             109   -1.28 0  360 308 
 MON  HZ I        1016  9.55         3.0 0.46            108            360 308 
 PRA  HZ EP       1015 22.63                             107    0.29 6  396 211 
 PRA  HN ES       1016  4.01                             107   -0.47 6  396 211 
 PRA  HZ I        1016  7.28         7.3 0.56            107            396 211 
                                                                                
