 2010  9 6 1802 12.8 L   6.749 -73.025134.4  RSN  5 0.5 1.4LRSN                1
 GAP=173        1.22       9.9    19.9 20.8  0.9341E+02 -0.2670E+03 -0.1193E+03E
 Epicentro: CEPITA - SANTANDER                                                 3
 ACTION:UP  11-02-18 11:00 OP:tino STATUS:               ID:20100906180212 L   I
 2010-09-06-1758-48S.COL___120                                                 6
 STAT SP IPHASW D HRMM SECON CODA AMPLIT PERI AZIMU VELO SNR AR TRES W  DIS CAZ7
 BAR2 SZ EP   1   18 2 31.46                             168     0.4 7   25 225 
 BAR2 SZ ES   2   18 2 46.08                             168     0.7 5   25 225 
 BAR2 SZ I        18 2 48.16         7.6 0.22                            25 225 
 BRR  HZ EP   1   18 2 33.30                             145    -0.4 7   86 298 
 BRR  HE ES   1   18 2 50.02                             145     0.1 7   86 298 
 BRR  HZ I        18 2 53.28         9.3 0.49                            86 298 
 RUS  HZ EP   1   18 2 35.86                             142     0.8 7   95 184 
 RUS  HN ES   1   18 2 51.51                             142    -0.9 7   95 184 
 RUS  HZ I        18 2 55.08         1.7 0.21                            95 184 
 GUE  SZ EP   1   18 2 36.41                             136    -0.4 7  120   5 
 GRA  SZ EP   1   18 2 37.26                             133     0.0 7  128  11 
 GRA  SZ I        18 2 58.12         3.9 0.28                           128  11 
                                                                                
