 2012  1 6 1358  3.8 L   6.769 -73.133148.0  RSN  4 0.1 1.7LRSN                1
 GAP=236        0.34       7.0     4.5  8.4  0.4843E+00  0.6609E+01 -0.9498E+01E
 Epicentro: LOS SANTOS - SANTANDER                                             3
 ACTION:UP  12-02-03 08:14 OP:REBC STATUS:               ID:20120106135803 L   I
 2012-01-06-1350-00M.COL___186                                                 6
 STAT SP IPHASW D HRMM SECON CODA AMPLIT PERI AZIMU VELO SNR AR TRES W  DIS CAZ7
 BAR2 SZ EP       1358 23.72                             172     0.110   20 196 
 BRR  HZ EP       1358 25.31                             152     0.010   74 300 
 BRR  HZ I        1358 25.53         9.7 0.34                            74 300 
 BRR  HE ES   3   1358 42.21                             152     0.0 2   74 300 
 RUS  HN ES   3   1358 45.68                             146    -0.3 2   97 177 
 PTB  HZ EP       1358 30.95                             133    -0.1 9  149 260 
 PTB  HE ES   2   1358 52.45                             133     0.2 5  149 260 
                                                                                
