 2010  6 6 1703 56.6 L   6.811 -73.117139.6  RSN 12 0.6 3.1LRSN                1
 GAP=146        1.58       6.1     9.2 10.0 -0.3118E+02  0.2295E+02  0.3797E+01E
 Epicentro: LOS SANTOS - SANTANDER                                             3
 ACTION:UP  10-08-24 10:08 OP:vdl  STATUS:               ID:20100606170356 L   I
 2010-06-06-1701-11S.COL___111                                                 6
 STAT SP IPHASW D HRMM SECON CODA AMPLIT PERI AZIMU VELO SNR AR TRES W  DIS CAZ7
 BAR2 SZ IP       17 4 15.38                             169    -0.210   25 197 
 BAR2 SZ ES       17 4 30.05                             169    -0.310   25 197 
 GIR2 SZ EP       17 4 16.52                             167     1.010   31 344 
 GUE  SZ EP       17 4 19.39                             138    -1.210  115  11 
 GUE  SZ ES   1   17 4 39.02                             138    -0.3 7  115  11 
 GRA  SZ IP       17 4 22.41                             136     1.310  124  16 
 GRA  SZ ES   2   17 4 41.14                             136     0.9 5  124  16 
 OCA  SZ EP       17 4 24.01                             128    -0.4 9  159 352 
 OCA  SZ ES       17 4 46.16                             128     0.1 9  159 352 
 OCA  SZ I        17 4 49.97       265.7 0.45                           159 352 
 CHI  HZ EP       17 4 34.19                             115     0.0 8  251 196 
 CHI  HN ES   1   17 5  3.16                             115    -0.4 6  251 196 
 CHI  HZ I        17 5  6.22        34.5 0.16                           251 196 
 HEL  HZ EP       17 4 37.09                             113     0.2 7  275 256 
 HEL  HE ES       17 5  7.88                             113    -0.4 7  275 256 
 HEL  HZ I        17 5 15.26        71.0 0.68                           275 256 
 RREF BN ES       17 5 19.04                             109     0.1 7  325 230 
 RREF BZ I        17 5 27.37        47.6 0.14                           325 230 
 DBB  SZ EP       17 4 43.85                             108    -0.4 7  343 274 
 TOL  SZ EP       17 4 45.60                             108     0.6 6  347 225 
 TOL  SZ ES   2   17 5 22.01                             108    -0.7 3  347 225 
 SDV  BZ IP       17 4 45.26                             107    -0.8 6  357  50 
 SDV  BZ I        17 5 25.47        48.7 0.76                           357  50 
 ANIL BZ EP       17 4 46.91                             107     0.4 6  360 225 
 ANIL BN ES   2   17 5 26.32                             107     0.8 3  360 225 
 ANIL BZ I        17 5 29.30        65.9 0.27                           360 225 
                                                                                
