 2017  4 6 1949 27.2 L   6.787 -73.093145.5  RSN  9 0.5 1.7LRSN                1
 GAP=144        1.15       4.3     5.6  6.8  0.1338E+01  0.6259E+01  0.5980E+01E
 Epicentro: LOS SANTOS - SANTANDER                                             3
 ACTION:UPD 17-05-30 21:09 OP:jn   STATUS:               ID:20170406194927 L   I
 OLDACT:UP  17-04-07 00:51 OP:edw  STATUS:               ID:20170406194745     3
 OLDACT:UP  17-04-07 00:49 OP:edw  STATUS:               ID:20170406194745     3
 OLDACT:REG 17-04-06 21:46 OP:ar   STATUS:               ID:20170406194745     3
 2017-04-06-1948-00M.COL___357                                                 6
 STAT SP IPHASW D HRMM SECON CODA AMPLIT PERI AZIMU VELO AIN AR TRES W  DIS CAZ7
 BAR2 EZ EP       1949 46.82                             170    0.0710 23.7 205 
 BAR2 EZ ES       1950  2.20                             170    0.1510 23.7 205 
 BAR2 EZ I        1950  2.54        13.0 0.30            168           23.7 205 
 PAM  EZ EP       1949 49.85                             151    0.6610 75.0  35 
 PAM  EE ES       1950  5.72                             151   -0.6610 75.0  35 
 PAM  EZ I        1950 11.20         6.1 0.40            153           75.0  35 
 BRR  HZ EP       1949 48.70                             150    0.0910 77.0 297 
 BRR  HN ES       1950  5.78                             150    0.4410 77.0 297 
 RUS  HZ EP       1949 51.13                             144    0.3710 98.9 179 
 RUS  HN ES       1950  8.52                             144   -0.6510 98.9 179 
 RUS  HZ I        1950 10.11         4.9 0.26            143           98.9 179 
 PTB  HZ EP   9   1949 53.54                             131   -1.05 0  153 260 
 PTB  HN ES       1950 14.69                             131   -0.26 9  153 260 
 PTB  HZ I        1950 18.04         6.3 0.44            129            153 260 
 SPBC HZ EP   4   1949 54.21                             128   -1.67 0  166 221 
 ZAR  HZ EP       1949 59.91                             121   -0.28 8  210 292 
 ZAR  HN ES       1950 25.68                             121   -0.28 8  210 292 
 ZAR  HZ I        1950 31.73         7.2 0.28            120            210 292 
 NOR  HZ EP   4   1949 59.01                             118   -4.28 0  239 236 
 NOR  HN ES   4   1950 32.26                             118    0.78 0  239 236 
 NOR  HZ I        1950 35.18         3.3 0.28            117            239 236 
 CHI  HZ EP       1950  4.30                             117   -0.56 8  249 197 
 CHI  HN ES       1950 35.04                             117    0.77 8  249 197 
 CHI  HZ I        1950 42.34         1.9 0.44            116            249 197 
 PRA  HZ EP   4   1950 22.67                             106    1.81 0  394 210 
 PRA  HN ES       1951  2.14                             106   -0.61 6  394 210 
 PRA  HZ I        1951  8.68         1.5 0.38            106            394 210 
                                                                                
