 2017  5 6 1130  8.2 L   6.839 -73.123147.6  RSN 22 0.5 2.8LRSN                1
 GAP=113        1.20       3.5     3.8  5.8  0.2197E+01  0.4629E+01  0.4547E+01E
 Epicentro: LOS SANTOS - SANTANDER                                             3
 ACTION:UPD 17-06-16 13:33 OP:jn   STATUS:               ID:20170506113008 L   I
 OLDACT:UP  17-05-06 22:01 OP:edw  STATUS:               ID:20170506112744     3
 OLDACT:UP  17-05-06 21:59 OP:edw  STATUS:               ID:20170506112744     3
 OLDACT:REG 17-05-06 20:21 OP:ar   STATUS:               ID:20170506112744     3
 2017-05-06-1128-00M.COL___370                                                 6
 STAT SP IPHASW D HRMM SECON CODA AMPLIT PERI AZIMU VELO AIN AR TRES W  DIS CAZ7
 BRR  HZ IP     D 1130 29.81                             153    0.2310 71.5 294 
 BRR  HE ES       1130 46.87                             153    0.6210 71.5 294 
 BRR  HZ I        1130 47.36       127.5 0.30            149           71.5 294 
 PAM  EZ EP       1130 30.72                             152    0.3810 72.4  40 
 PAM  EN ES       1130 47.88                             152    0.2810 72.4  40 
 PAM  EZ I        1130 49.36        99.8 0.36            156           72.4  40 
 RUS  HZ IP     D 1130 32.11                             143   -0.3410  105 178 
 RUS  HN ES       1130 50.61                             143   -0.7510  105 178 
 RUS  HZ I        1130 52.66       160.1 0.32            141            105 178 
 PTB  HZ EP   9 D 1130 34.49                             132   -1.15 0  151 257 
 PTB  HN ES       1130 55.91                             132    0.03 9  151 257 
 PTB  HZ I        1130 57.30        70.6 0.32            129            151 257 
 SPBC HZ EP       1130 36.95                             129   -0.38 9  168 219 
 SPBC HN ES       1130 59.40                             129   -0.64 9  168 219 
 SPBC HZ I        1131  2.50       106.2 0.72            126            168 219 
 YPLC HZ EP       1130 38.55                             126    0.15 9  179 153 
 YPLC HN ES       1131  2.04                             126    0.09 9  179 153 
 YPLC HZ I        1131  6.20        50.6 0.50            126            179 153 
 ZAR  HZ EP       1130 40.79                             123   -0.07 9  205 291 
 ZAR  HN ES       1131  6.05                             123   -0.28 9  205 291 
 ZAR  HZ I        1131 11.86       110.0 0.32            121            205 291 
 TABC EZ EP   4   1130 45.97                             119    1.36 0  235 211 
 TABC EZ ES   4   1131 16.40                             119    3.40 0  235 211 
 TABC EZ I        1131 17.70        58.3 0.50            117            235 211 
 NOR  HZ EP   9   1130 44.06                             118   -0.49 0  239 234 
 NOR  HN ES       1131 12.04                             118   -0.36 8  239 234 
 NOR  HZ I        1131 15.21        34.5 0.16            116            239 234 
 CHI  HZ EP       1130 46.49                             117   -0.06 8  254 195 
 CHI  HN ES       1131 16.51                             117    0.07 8  254 195 
 CHI  HZ I        1131 22.61        22.1 0.70            115            254 195 
 ROSC BZ EP   4   1130 48.19                             116    1.20 0  258 211 
 ROSC BN ES   4   1131 18.79                             116    1.56 0  258 211 
 ROSC BZ I        1131 24.92        51.9 0.35            115            258 211 
 HEL  HZ EP       1130 48.86                             115   -0.06 7  276 255 
 HEL  HN ES       1131 19.88                             115   -0.78 7  276 255 
 HEL  HZ I        1131 27.43        28.2 0.28            113            276 255 
 VIL  HZ EP       1130 51.96                             112   -0.30 7  308 192 
 VIL  EE ES       1131 27.11                             112    0.50 7  308 192 
 PTGC HZ EP       1130 51.70                             112   -0.81 7  312 159 
 PTGC HN ES   4   1131 25.15                             112   -1.91 0  312 159 
 PTGC HZ I        1131 27.48        19.9 0.26            111            312 159 
 LL6C HN EP   4   1130 33.04                             111   -20.5 0  321 357 
 LL6C HN ES   4   1131  6.71                             111   -22.1 0  321 357 
 RECRCHZ EP   4   1130 56.87                             111    2.43 0  323 230 
 RECRCHN ES   4   1131 34.23                             111    3.74 0  323 230 
 ELA  HZ EP   4   1130 58.25                             110    2.56 0  334 229 
 ELA  HN ES       1131 34.33                             110    1.61 7  334 229 
 ELA  HZ I        1131 41.54        20.8 0.32            109            334 229 
 CBOC HZ EP       1130 56.10                             110    0.46 7  337 252 
 CBOC HN ES   4   1131 31.19                             110   -1.44 0  337 252 
 CBOC HZ I        1131 40.73         8.9 0.26            108            337 252 
 DBB  EZ EP       1130 55.93                             110   -0.10 7  342 273 
 DBB  EZ I        1131 17.95        44.4 0.12            108            342 273 
 DBB  EN ES   4   1131 32.16                             110   -1.16 0  342 273 
 ANIL HZ EP       1130 59.70                             108    1.04 6  362 224 
 ANIL HN ES   4   1131 39.70                             108    1.70 0  362 224 
 ANIL HZ I        1131 42.92        64.1 0.36            107            362 224 
 APAC HZ EP       1131  1.87                             106   -0.73 6  399 287 
 APAC HN ES       1131 44.81                             106   -0.20 6  399 287 
 APAC HZ I        1131 48.09        14.5 0.32            105            399 287 
 ORTC HZ EP       1131  2.80                             106    0.01 6  400 216 
 ORTC HN ES       1131 46.11                             106    0.76 6  400 216 
 ORTC HZ I        1131 52.55        14.3 0.64            105            400 216 
 SJC  HZ EP   9   1131  1.83                             106   -1.75 0  407 326 
 SJC  HN ES       1131 43.39                             106   -1.62 6  407 326 
 SJC  HZ I        1131 47.05         7.5 0.62            105            407 326 
 CAP2 HZ EP   4   1131 11.71                             102   -3.79 0  508 293 
 CAP2 HN ES   4   1132  3.13                             102   -4.85 0  508 293 
 CAP2 HZ I        1132  7.44        10.3 0.14            101            508 293 
                                                                                
