 2016  3 6 1704 52.9 L   6.821 -73.176140.4  RSN  9 0.5 1.8LRSN                1
 GAP=132        1.13       3.9     4.8  7.9 -0.5674E+01  0.1233E+02 -0.2392E+01E
 Epicentro: ZAPATOCA - SANTANDER                                               3
 ACTION:UPD 16-05-13 21:22 OP:cam  STATUS:               ID:20160306170452 L   I
 OLDACT:UP  16-03-07 01:05 OP:mh   STATUS:               ID:20160306165750     3
 OLDACT:REG 16-03-06 21:22 OP:mh   STATUS:               ID:20160306165750     3
 2016-03-06-1657-50M.COL___325                                                 6
 STAT SP IPHASW D HRMM SECON CODA AMPLIT PERI AZIMU VELO AIN AR TRES W  DIS CAZ7
 BAR2 EZ EP       17 5 12.16                             169    0.2410 25.4 182 
 BAR2 EZ ES       17 5 26.58                             169   -0.1910 25.4 182 
 BAR2 EZ I        17 5 29.50         6.8 0.28            170           25.4 182 
 PAM  EZ EP     C 17 5 14.94                             150    0.3710 77.8  43 
 PAM  EN ES       17 5 31.89                             150    0.4210 77.8  43 
 PAM  EZ I        17 5 34.16        12.0 0.50            153           77.8  43 
 RUS  HZ EP       17 5 16.33                             142    0.0110  103 174 
 RUS  HN ES   1   17 5 34.31                             142   -0.28 7  103 174 
 RUS  HZ I        17 5 35.29         3.8 0.22            146            103 174 
 PTB  HZ EP   1   17 5 19.00                             131   -0.17 7  145 258 
 PTB  HN ES       17 5 39.12                             131   -0.54 9  145 258 
 PTB  HZ I        17 5 41.43         6.4 0.18            132            145 258 
 OCA  HZ EP       17 5 20.01                             129   -0.52 9  158 354 
 OCA  HN ES       17 5 41.46                             129   -0.63 9  158 354 
 OCA  HZ I        17 5 45.06        17.8 0.24            131            158 354 
 SPBC HZ EP       17 5 20.54                             128   -0.42 9  163 218 
 SPBC HE ES       17 5 43.47                             128    0.61 9  163 218 
 SPBC HZ I        17 5 48.22         6.9 0.20            130            163 218 
 ZAR  HZ EP   1   17 5 25.04                             122    0.47 6  200 292 
 ZAR  HN ES       17 5 50.20                             122    0.91 9  200 292 
 ZAR  HZ I        17 5 56.66        12.0 0.42            123            200 292 
 NOR  HZ EP   1   17 5 28.71                             117    0.54 6  233 234 
 NOR  HN ES       17 5 55.10                             117   -0.59 8  233 234 
 NOR  HZ I        17 5 58.98         4.9 0.20            120            233 234 
 GUY2CHZ EP   4   17 5 37.63                             111    1.53 0  300 234 
 GUY2CHN ES   4   17 6 12.38                             111    2.58 0  300 234 
 GUY2CHZ I        17 6 21.22         2.4 0.68                           300 234 
                                                                                
