 2016  1 6 1240 23.7 L   6.867 -73.134147.0  RSN 20 0.5 2.8LRSN                1
 GAP= 69        1.14       2.6     3.0  5.0 -0.3559E+00  0.4185E+01  0.1423E+01E
 Epicentro: LOS SANTOS - SANTANDER                                             3
 ACTION:UPD 16-03-09 23:23 OP:cam  STATUS:               ID:20160106124023 L   I
 OLDACT:UP  16-01-06 23:27 OP:ar   STATUS:               ID:20160106123748     3
 OLDACT:UP  16-01-06 23:23 OP:ar   STATUS:               ID:20160106123748     3
 OLDACT:REG 16-01-06 20:58 OP:ar   STATUS:               ID:20160106123748     3
 2016-01-06-1237-48M.COL___265                                                 6
 STAT SP IPHASW D HRMM SECON CODA AMPLIT PERI AZIMU VELO AIN AR TRES W  DIS CAZ7
 BAR2 EZ EP     C 1240 43.55                             168   -0.0810 30.8 190 
 BAR2 EZ ES       1240 58.66                             168   -0.5310 30.8 190 
 BAR2 EZ I        1240 59.50       163.5 0.24            167           30.8 190 
 BRR  HZ IP     D 1240 45.15                             153    0.3010 69.2 293 
 BRR  HN ES       1241  2.09                             153    0.7310 69.2 293 
 BRR  HZ I        1241 11.68        46.6 0.30            153           69.2 293 
 PAM  EZ EP       1240 46.05                             153    0.3910 71.0  43 
 PAM  EN ES       1241  3.11                             153    0.3110 71.0  43 
 PAM  EZ I        1241  5.04       194.7 0.46            158           71.0  43 
 RUS  HZ EP       1240 47.70                             142   -0.3810  108 177 
 RUS  HN ES       1241  6.72                             142   -0.4010  108 177 
 RUS  HZ I        1241  7.66        48.7 0.42            145            108 177 
 PTB  HZ EP       1240 50.17                             132   -0.83 9  151 256 
 PTB  HN ES       1241 11.65                             132   -0.66 9  151 256 
 PTB  HZ I        1241 17.02        60.8 0.46            133            151 256 
 OCA  HZ EP       1240 51.17                             131   -0.25 9  153 352 
 OCA  HN ES       1241 12.57                             131   -0.49 9  153 352 
 OCA  HZ I        1241 17.81       105.1 0.30            135            153 352 
 TAM  HZ IP     C 1240 51.87                             131    0.34 9  156 108 
 TAM  HN ES       1241 13.62                             131    0.36 9  156 108 
 TAM  HZ I        1241 17.58        23.6 0.20            136            156 108 
 SPBC HZ EP       1240 52.65                             128   -0.24 9  170 218 
 SPBC HE ES       1241 15.87                             128    0.19 9  170 218 
 SPBC HZ I        1241 22.91        85.1 0.38            130            170 218 
 ZAR  HZ EP   4   1240 57.61                             123    1.56 0  203 290 
 ZAR  HN ES       1241 21.62                             123    0.32 9  203 290 
 ZAR  HZ I        1241 26.71        73.9 0.34            125            203 290 
 SML  HZ EP       1240 59.11                             118   -0.60 8  238 334 
 SML  HE ES       1241 28.21                             118    0.39 8  238 334 
 SML  HZ I        1241 30.74        32.1 0.14            121            238 334 
 NOR  HZ EP       1241  0.12                             118    0.07 8  240 233 
 NOR  HN ES       1241 28.61                             118    0.18 8  240 233 
 NOR  HZ I        1241 34.04        40.1 0.20            120            240 233 
 CHI  HZ EP       1241  2.02                             117   -0.23 8  256 195 
 CHI  HN ES       1241 32.56                             117    0.22 8  256 195 
 CHI  HZ I        1241 37.54        18.7 0.32            119            256 195 
 ROSC BZ EP   4   1241  4.12                             116    1.50 0  260 210 
 ROSC BN ES   4   1241 35.61                             116    2.61 0  260 210 
 ROSC BZ I        1241 41.77        38.1 0.35            119            260 210 
 HEL  HZ EP       1241  5.41                             115    1.11 8  275 254 
 HEL  HE ES       1241 35.05                             115   -0.93 8  275 254 
 HEL  HZ I        1241 42.82        27.3 0.46            117            275 254 
 URE  HZ EP       1241  4.66                             114    0.02 7  282 290 
 URE  HN ES   4   1241 34.37                             114   -2.22 0  282 290 
 URE  HZ I        1241 43.99        40.3 0.18            116            282 290 
 GUY2CHZ EP       1241  8.65                             112    0.71 7  307 234 
 GUY2CHN ES       1241 43.46                             112    0.99 7  307 234 
 GUY2CHZ I        1241 52.24        30.4 0.34                           307 234 
 VIL  SZ EP       1241  8.07                             112    0.08 7  311 192 
 VIL  SN ES       1241 42.11                             112   -0.45 7  311 192 
 DBB  SZ EP       1241 11.74                             110    0.45 7  340 273 
 DBB  SZ ES       1241 48.72                             110    0.29 7  340 273 
 DBB  SZ I        1241 51.80        74.5 0.55            112            340 273 
 ORTC HZ EP       1241 18.42                             106   -0.00 6  402 216 
 ORTC HN ES       1242  1.23                             106    0.11 6  402 216 
 ORTC HZ I        1242  6.55        17.3 0.42            108            402 216 
 SJC  HZ EP       1241 17.53                             106   -1.11 6  404 326 
 SJC  HN ES   4   1241 59.03                             106   -2.48 0  404 326 
 SJC  HZ I        1242  2.32        17.7 0.58            108            404 326 
                                                                                
