 2017 10 6 1740 57.1 L   6.783 -73.114146.0  RSN  6 0.2 1.8LRSN                1
 GAP=141        0.55       2.6     2.9  4.3 -0.1746E+01  0.6669E+01 -0.7753E+00E
 Epicentro: LOS SANTOS - SANTANDER                                             3
 ACTION:UPD 17-11-07 19:29 OP:rebc STATUS:               ID:20171006174057 L   I
 OLDACT:REG 17-10-06 20:36 OP:osc  STATUS:               ID:20171006173743     3
 2017-10-06-1738-00M.COL___440                                                 6
 STAT SP IPHASW D HRMM SECON CODA AMPLIT PERI AZIMU VELO AIN AR TRES W  DIS CAZ7
 BAR2 EZ EP       1741 16.40                             171   -0.3110 22.4 200 
 BAR2 EZ ES       1741 32.27                             171    0.2510 22.4 200 
 BAR2 EZ I        1741 32.84        17.5 0.16            170           22.4 200 
 PAM  EZ EP       1741 19.21                             151   -0.0610 76.7  37 
 PAM  EN ES       1741 36.55                             151   -0.0310 76.7  37 
 PAM  EZ I        1741 38.56        11.9 0.50            154           76.7  37 
 RUS  HZ EP       1741 20.59                             145   -0.1010 98.5 178 
 RUS  HE ES       1741 39.22                             145    0.1010 98.5 178 
 RUS  HZ I        1741 40.14         7.5 0.20            147           98.5 178 
 ZAR  HZ EP       1741 30.41                             122    0.47 8  208 292 
 ZAR  HN ES       1741 55.39                             122   -0.19 8  208 292 
 ZAR  HZ I        1742  0.90         4.8 0.14            122            208 292 
 NOR  HZ EP       1741 33.11                             118    0.11 8  236 235 
 NOR  HE ES       1742  0.80                             118   -0.23 8  236 235 
 NOR  HZ I        1742  7.33         4.9 0.14            119            236 235 
 GUY2CHZ EP   4   1741 42.27                             112    1.38 0  303 235 
 GUY2CHN ES       1742 15.11                             112    0.04 7  303 235 
 GUY2CHZ I        1742 21.09         2.2 0.38                           303 235 
 SJC  HZ EP   4   1741 50.99                             106   -2.06 0  413 327 
 SJC  HE ES   4   1742 33.69                             106   -3.03 0  413 327 
                                                                                
