 2010  3 6 1045 30.6 L   6.807 -73.017145.5  RSN 13 0.5 2.8LRSN                1
 GAP=135        0.95       3.9     5.8  5.9 -0.7083E+01 -0.1732E+01  0.6850E+01E
 Epicentro: CEPITA - SANTANDER                                                 3
 ACTION:UP  10-08-24 09:52 OP:vdl  STATUS:               ID:20100306104530 L   I
 2010-03-06-1041-46S.COL___101                                                 6
 STAT SP IPHASW D HRMM SECON CODA AMPLIT PERI AZIMU VELO SNR AR TRES W  DIS CAZ7
 BAR2 SZ IP       1045 50.41                             168     0.010   30 218 
 BAR2 SZ ES   1   1046  5.25                             168    -0.6 7   30 218 
 BRR  HZ EP       1045 52.31                             148    -0.210   84 293 
 BRR  HN ES       1046  9.91                             148     0.310   84 293 
 BRR  HZ I        1046 11.97       132.4 0.13                            84 293 
 RUS  BZ EP       1045 54.22                             144    -0.210  101 184 
 RUS  BN ES   2   1046 13.33                             144     0.4 5  101 184 
 OCA  SZ EP       1045 58.94                             129    -0.1 9  162 348 
 OCA  SZ ES   1   1046 21.79                             129     0.5 7  162 348 
 OCA  SZ I        1046 25.64        89.0 0.36                           162 348 
 CHI  HZ EP       1046  8.48                             117    -0.4 8  253 198 
 CHI  HN ES   2   1046 38.67                             117     0.0 4  253 198 
 CHI  HZ I        1046 41.06        17.2 0.53                           253 198 
 ROSC BZ EP   1   1046 10.52                             116     0.9 6  261 214 
 ROSC BZ I        1046 46.61        32.5 0.43                           261 214 
 HEL  HZ EP   1   1046 11.72                             113    -0.7 6  286 256 
 HEL  HN ES   2   1046 44.24                             113    -0.7 4  286 256 
 HEL  HZ I        1046 49.55        16.1 0.25                           286 256 
 RREF BZ EP       1046 18.21                             110     0.1 7  333 231 
 RREF BE ES   1   1046 55.02                             110     0.0 5  333 231 
 RREF BZ I        1047  2.79        34.0 0.28                           333 231 
 SDV  BZ EP       1046 19.76                             109     0.4 6  349  49 
 TOL  SZ EP       1046 20.64                             109     0.5 6  354 226 
 TOL  SZ ES   2   1046 58.26                             109    -0.4 3  354 226 
 DBB  SZ EP   1   1046 18.49                             108    -1.2 5  354 274 
 ANIL BZ EP       1046 22.30                             108     0.6 6  368 226 
 ANIL BE ES       1047  1.95                             108     0.5 6  368 226 
 ANIL BZ I        1047  4.42        51.8 0.32                           368 226 
 PRA  HZ EP   1   1046 24.19                             106    -0.9 4  400 211 
 PRA  HN ES   2   1047  7.69                             106     0.2 3  400 211 
 PRA  HZ I        1047 11.94        25.2 0.32                           400 211 
                                                                                
