 2012 11 6 1321 21.7 L   6.809 -73.090151.0  RSN 16 0.5 3.1LRSN 3.4WRSN        1
 SPEC AVERAGE  MO 14.2 ST 18.3 OM  2.7 f0 4.21 R0.3681 AL 2.34 WI 15.4 MW  3.4 3
 SPEC SD       MO  0.2 ST 17.8 OM  0.4 f0 1.01 R0.0813 AL      WI      MW  0.1 3
 GAP= 74        1.02       3.1     3.6  5.5 -0.2753E+01  0.3374E+01  0.1664E+01E
 Epicentro: LOS SANTOS - SANTANDER                                             3
 SPEC ROSCBH Z MO 14.4 ST 11.9 OM  2.5 f0 3.32 R0.4428 AL 2.31 WI 18.0 MW  3.5 3
 SPEC ROSCBH Z T132230 K 0.000 GD  298 VS 4.20 DE 3.20 Q0230.0 QA 0.60 VS 4.20 3
 SPEC TAM HH N MO 14.2 ST 10.5 OM  2.5 f0 3.57 R0.4118 AL 2.92 WI  7.9 MW  3.4 3
 SPEC TAM HH N T132211 K 0.000 GD  212 VS 4.20 DE 3.20 Q0230.0 QA 0.60 VS 4.20 3
 SPEC RUS HH N MO 13.8 ST  7.6 OM  2.1 f0 4.59 R0.3203 AL 1.24 WI  9.4 MW  3.1 3
 SPEC RUS HH N T1322 3 K 0.000 GD  181 VS 4.20 DE 3.20 Q0230.0 QA 0.60 VS 4.20 3
 SPEC PRA HH N MO 14.2 ST 22.5 OM  2.2 f0 4.60 R0.3196 AL 1.54 WI 20.9 MW  3.4 3
 SPEC PRA HH N T132257 K 0.000 GD  423 VS 4.20 DE 3.20 Q0230.0 QA 0.60 VS 4.20 3
 SPEC PAM SH N MO 13.8 ST 15.2 OM  2.2 f0 5.50 R0.2673 AL 3.28 WI  7.1 MW  3.2 3
 SPEC PAM SH N T1322 1 K 0.000 GD  167 VS 4.20 DE 3.20 Q0230.0 QA 0.60 VS 4.20 3
 SPEC COD HH N MO 14.3 ST  6.5 OM  2.3 f0 2.92 R0.5034 AL 1.79 WI 21.0 MW  3.5 3
 SPEC COD HH N T132245 K 0.000 GD  379 VS 4.20 DE 3.20 Q0230.0 QA 0.60 VS 4.20 3
 SPEC HEL HH N MO 14.1 ST  8.2 OM  2.2 f0 3.62 R0.4061 AL 1.87 WI 19.1 MW  3.3 3
 SPEC HEL HH N T132235 K 0.000 GD  316 VS 4.20 DE 3.20 Q0230.0 QA 0.60 VS 4.20 3
 SPEC CHI HH N MO 14.4 ST 15.6 OM  2.5 f0 3.66 R0.4016 AL 2.46 WI 19.9 MW  3.5 3
 SPEC CHI HH N T132227 K 0.000 GD  292 VS 4.20 DE 3.20 Q0230.0 QA 0.60 VS 4.20 3
 SPEC BRR HH N MO 14.3 ST 66.8 OM  2.7 f0 6.12 R0.2402 AL 3.68 WI 15.1 MW  3.5 3
 SPEC BRR HH N T1322 1 K 0.000 GD  169 VS 4.20 DE 3.20 Q0230.0 QA 0.60 VS 4.20 3
 ACTION:UPD 12-12-05 15:31 OP:}ep  STATUS:               ID:20121106132121 L   I
 2012-11-06-1320-00M.COL___230                                                 6
 STAT SP IPHASW D HRMM SECON CODA AMPLIT PERI AZIMU VELO AIN AR TRES W  DIS CAZ7
 BAR2 SZ IP       1321 41.87                             170   -0.1410 26.1 203 
 BAR2 SZ ES   1   1321 57.18                             170   -0.68 7 26.1 203 
 BAR2 SZ I        1321 59.69       356.2 0.40                          26.1 203 
 PAM  SZ IP     D 1321 44.70                             153    0.4910 72.8  36 
 PAM  SN ES   1   1322  2.19                             153    0.41 7 72.8  36 
 PAM  SZ I        1322  3.79        71.7 0.60                          72.8  36 
 BRR  HZ IP     C 1321 43.81                             152    0.1210 76.2 296 
 BRR  HN ES   1   1322  1.27                             152    0.42 7 76.2 296 
 BRR  HN I        1322  1.70       508.2 0.26                          76.2 296 
 RUS  HZ EP       1321 45.77                             145   -0.2510  101 180 
 RUS  HN ES   1   1322  4.19                             145   -0.81 7  101 180 
 RUS  HN I        1322  6.33       180.6 0.16                           101 180 
 TAM  HZ EP       1321 50.06                             133    0.77 9  149 106 
 TAM  HN ES   1   1322 10.98                             133    0.17 7  149 106 
 TAM  HN I        1322 12.59       244.0 0.44                           149 106 
 OCA  HZ EP       1321 50.00                             131   -0.40 9  160 351 
 OCA  HN ES   1   1322 13.75                             131    0.95 7  160 351 
 ZAR  HZ EP       1321 54.44                             123   -0.59 8  209 291 
 ZAR  HN ES   1   1322 20.18                             123   -0.85 6  209 291 
 ZAR  HN I        1322 27.09       175.8 0.24                           209 291 
 CHI  HZ EP       1321 59.84                             118   -0.14 8  251 196 
 CHI  HN ES   1   1322 29.19                             118   -0.64 6  251 196 
 CHI  HN I        1322 35.86       117.1 0.42                           251 196 
 ROSC BZ EP       1322  0.89                             117    0.34 8  257 212 
 ROSC BN ES   1   1322 31.70                             117    0.85 6  257 212 
 ROSC BZ I        1322 39.97        86.9 0.45                           257 212 
 HEL  HZ EP   1   1322  3.49                             115    0.63 6  278 256 
 HEL  HN ES   1   1322 35.58                             115    0.61 6  278 256 
 HEL  HN I        1322 40.32        45.5 0.32                           278 256 
 RREF HZ EP       1322  8.80                             111    0.13 7  327 230 
 RREF HN ES   1   1322 46.09                             111    0.77 5  327 230 
 RREF HZ I        1322 50.31        38.4 0.26                           327 230 
 COD  HZ EP       1322  9.75                             110   -0.49 6  348 354 
 COD  HN ES   2   1322 47.54                             110   -0.56 3  348 354 
 COD  HN I        1322 53.01        34.9 0.34                           348 354 
 TOL  SZ EP   1   1322 11.33                             110    0.58 5  349 225 
 TOL  SZ ES   2   1322 48.83                             110   -0.17 3  349 225 
 SDV  BZ EP       1322 11.11                             109   -0.22 6  355  50 
 SDV  BN ES   1   1322 49.07                             109   -0.97 5  355  50 
 ANIL HZ EP       1322 12.47                             109    0.18 6  362 225 
 ANIL HE ES   1   1322 51.59                             109   -0.16 5  362 225 
 PRA  HZ EP       1322 15.21                             107   -0.65 6  396 210 
 PRA  HN ES   1   1322 57.39                             107   -0.72 4  396 210 
 PRA  HN I        1323  2.89        49.8 0.66                           396 210 
                                                                                
