 2014  1 6 1303 39.0 L   6.836 -73.194137.2  RSN  6 0.4 1.3LRSN                1
 GAP=129        0.93       4.9     5.4 12.5 -0.2172E+01 -0.3282E+00 -0.3282E+02E
 Epicentro: ZAPATOCA - SANTANDER                                               3
 ACTION:UPD 14-03-13 09:52 OP:ep   STATUS:               ID:20140106130339 L   I
 OLDACT:UP  14-01-06 18:21 OP:stll STATUS:               ID:20140106125814d    3
 OLDACT:DUP 14-01-06 18:13 OP:stll STATUS:               ID:20140106125814d    3
 2014-01-06-1258-13M.COL___231                                                 6
 STAT SP IPHASW D HRMM SECON CODA AMPLIT PERI AZIMU VELO AIN AR TRES W  DIS CAZ7
 PAM  SZ EP       13 4  0.29                             149   -0.0910 78.0  44 
 PAM  SZ I        13 4  1.08         4.2 0.20            154           78.0  44 
 RUS  HZ EP       13 4  2.08                             141   -0.2110  105 173 
 RUS  HN ES       13 4 20.60                             141    0.1710  105 173 
 RUS  HZ I        13 4 21.48         1.8 0.44            149            105 173 
 PTB  HZ EP       13 4  5.24                             131    0.34 9  143 257 
 PTB  HN ES       13 4 24.53                             131   -0.55 9  143 257 
 PTB  HZ I        13 4 33.34         3.6 0.40            134            143 257 
 SPBC HN ES       13 4 29.24                             127    0.65 9  163 217 
 SML  HZ EP       13 4 14.68                             116    0.14 8  238 336 
 CHI  HN ES       13 4 45.30                             115   -0.51 8  251 194 
                                                                                
