 2012  1 6 1151 34.8 L   6.551 -73.621102.0  RSN  6 0.2 1.8LRSN                1
 GAP=129        0.37       5.6     3.0  7.1 -0.8197E+01  0.7997E+01 -0.1950E+02E
 Epicentro: EL CARMEN DE CHUCURI - SANTANDER                                   3
 ACTION:UP  12-02-03 08:14 OP:REBC STATUS:               ID:20120106115134 L   I
 2012-01-06-1150-00M.COL___186                                                 6
 STAT SP IPHASW D HRMM SECON CODA AMPLIT PERI AZIMU VELO SNR AR TRES W  DIS CAZ7
 BAR2 SZ EP       1151 50.35                             152     0.010   49  85 
 BAR2 SZ ES   2   1152  2.55                             152     0.1 5   49  85 
 BAR2 SZ I        1152  3.85        21.4 0.40                            49  85 
 BRR  HZ EP   2   1151 51.02                             146     0.2 5   62 351 
 GIR2 SZ EP       1151 51.75                             140    -0.210   75  39 
 PTB  HZ EP       1151 53.24                             134     0.010   92 269 
 PTB  HE ES   3   1152  7.42                             134    -0.1 2   92 269 
 RUS  HZ EP   3   1151 53.76                             134    -0.3 2   94 141 
 RUS  HN ES   3   1152  8.92                             134    -0.1 2   94 141 
 PAM  SZ EP       1151 58.03                             123     0.210  134  49 
 PAM  SE ES   3   1152 15.27                             123    -0.5 2  134  49 
                                                                                
