 2013 12 6 1709 56.1 L   6.741 -73.111140.9  RSN  4 0.2 1.7LRSN                1
 GAP=171        0.43       4.2     3.0  3.9 -0.1730E+01  0.3502E+00 -0.8950E+00E
 Epicentro: JORDAN - SANTANDER                                                 3
 ACTION:UPD 14-01-13 10:16 OP:ep   STATUS:               ID:20131206170956 L   I
 OLDACT:UP  13-12-06 17:38 OP:cam  STATUS:               ID:20131206170747     3
 OLDACT:REG 13-12-06 16:55 OP:cam  STATUS:               ID:20131206170747     3
 2013-12-06-1707-47M.COL___247                                                 6
 STAT SP IPHASW D HRMM SECON CODA AMPLIT PERI AZIMU VELO AIN AR TRES W  DIS CAZ7
 BAR2 SZ EP       1710 15.20                             172    0.1310 18.2 206 
 BAR2 SZ ES       1710 29.68                             172   -0.1710 18.2 206 
 BAR2 SZ I        1710 30.75        18.1 0.18            174           18.2 206 
 BRR  HZ EP       1710 17.10                             149   -0.0310 77.8 301 
 BRR  HN ES       1710 33.70                             149    0.1710 77.8 301 
 PAM  SZ EP       1710 18.03                             149    0.0410 80.3  34 
 PAM  SN ES       1710 35.00                             149   -0.0610 80.3  34 
 PAM  SZ I        1710 37.16         6.4 0.54            148           80.3  34 
 ZAR  HN ES   2   1710 53.98                             120   -0.46 4  210 293 
                                                                                
