 2013  2 6 1424 21.1 L   6.768 -73.157143.6  RSN  7 0.4 2.1LRSN                1
 GAP=137        0.94       3.6     5.3  5.9  0.1998E+00  0.5001E+01  0.1564E+01E
 Epicentro: LOS SANTOS - SANTANDER                                             3
 ACTION:UPD 13-03-12 09:31 OP:ep   STATUS:               ID:20130206142421 L   I
 2013-02-06-1419-49M.COL___194                                                 6
 STAT SP IPHASW D HRMM SECON CODA AMPLIT PERI AZIMU VELO AIN AR TRES W  DIS CAZ7
 BAR2 SZ EP       1424 40.48                             172    0.0710 19.6 188 
 BAR2 SZ ES       1424 55.29                             172   -0.1710 19.6 188 
 BAR2 SZ I        1424 56.58        39.0 0.28            169           19.6 188 
 BRR  HZ EP       1424 42.20                             152    0.1410 71.9 301 
 BRR  HN ES       1424 59.24                             152    0.8410 71.9 301 
 BRR  HN I        1425  0.00        83.1 0.14            151           71.9 301 
 PAM  SZ EP       1424 43.33                             149    0.0210 80.9  39 
 PAM  SN ES       1425  0.41                             149   -0.2210 80.9  39 
 PAM  SZ I        1425  1.92        18.0 0.40            153           80.9  39 
 RUS  HZ EP       1424 44.51                             144    0.1110 97.1 175 
 RUS  HE ES       1425  2.26                             144   -0.3010 97.1 175 
 RUS  HE I        1425  4.53        15.5 0.33            144           97.1 175 
 PTB  HZ EP   1   1424 47.23                             132   -0.50 7  146 260 
 PTB  HE ES   1   1425  7.69                             132   -0.80 7  146 260 
 PTB  HZ I        1425 13.71        17.2 0.40            131            146 260 
 CHI  HZ EP       1424 58.87                             117    0.59 8  245 195 
 CHI  HN ES   1   1425 27.32                             117    0.05 6  245 195 
 CHI  HZ I        1425 31.72         4.4 0.50            117            245 195 
 SML  HZ EP   1   1424 57.59                             117   -0.32 6  246 336 
 SML  HN ES   1   1425 26.18                             117   -0.43 6  246 336 
                                                                                
