 2013 12 6 1220 22.3 L   6.807 -73.121149.0  RSN  8 0.4 2.0LRSN                1
 GAP=203        0.91       3.7     4.9  5.7  0.4484E+01  0.4339E+01 -0.1913E+01E
 Epicentro: LOS SANTOS - SANTANDER                                             3
 ACTION:UPD 14-01-13 10:16 OP:ep   STATUS:               ID:20131206122022 L   I
 OLDACT:REG 13-12-06 14:19 OP:cam  STATUS:               ID:20131206122000     3
 2013-12-06-1220-00M.COL___285                                                 6
 STAT SP IPHASW D HRMM SECON CODA AMPLIT PERI AZIMU VELO AIN AR TRES W  DIS CAZ7
 BAR2 SZ EP     C 1220 42.39                             170    0.0110 24.7 196 
 BAR2 SZ ES       1220 58.14                             170    0.1210 24.7 196 
 BAR2 SZ I        1220 58.97        21.9 0.28            169           24.7 196 
 BRR  HZ EP       1220 44.39                             152    0.4510 73.2 297 
 BRR  HN ES       1221  1.13                             152    0.3310 73.2 297 
 RUS  HZ EP       1220 46.27                             144   -0.1810  101 178 
 RUS  HN ES       1221  5.06                             144   -0.2010  101 178 
 RUS  HZ I        1221  6.19         5.3 0.40            146            101 178 
 PTB  HZ EP       1220 49.31                             132   -0.50 9  151 259 
 PTB  HN ES       1221 10.60                             132   -0.65 9  151 259 
 PTB  HZ I        1221 16.28        13.9 0.38            131            151 259 
 SPBC HZ EP       1220 51.39                             129    0.09 9  166 220 
 ZAR  HZ EP   2   1220 55.15                             123   -0.06 4  206 292 
 ZAR  HN ES       1221 21.04                             123    0.18 8  206 292 
 ZAR  HZ I        1221 26.90        11.8 0.46            122            206 292 
 NOR  HZ EP       1220 58.55                             119    0.02 8  237 235 
 NOR  HE ES       1221 27.35                             119    0.58 8  237 235 
 NOR  HZ I        1221 29.89         8.7 0.18            119            237 235 
 SML  HZ EP       1220 59.66                             118    0.48 8  244 335 
 SML  HN ES       1221 27.26                             118   -0.67 8  244 335 
 SML  HZ I        1221 31.93        14.5 0.10            118            244 335 
 GUY2CHZ EP   4   1221  7.91                             113    1.52 0  304 235 
 PRA  HZ EP   4   1221 15.96                             107   -0.24 0  394 210 
 SJC  HZ EP   4   1221 17.18                             106   -0.91 0  410 327 
                                                                                
