 2012  7 6 1615 43.9 L   5.900 -73.635120.6  RSN  7 0.3 1.8LRSN                1
 GAP= 94        0.64       2.7     3.3  7.3 -0.3362E+00  0.6820E+01  0.2761E+01E
 Epicentro: PUENTE NACIONAL - SANTANDER                                        3
 ACTION:UPD 12-08-14 11:42 OP:ep   STATUS:               ID:20120706161543 L   I
 2012-07-06-1610-00M.COL___201                                                 6
 STAT SP IPHASW D HRMM SECON CODA AMPLIT PERI AZIMU VELO AIN AR TRES W  DIS CAZ7
 RUS  HZ EP   1   1616  2.60                             152     0.1 7   61  91 
 RUS  HN ES   1   1616 17.23                             152     0.3 7   61  91 
 RUS  HZ I        1616 18.09         8.7 0.25            148             61  91 
 BAR2 SZ EP   1   1616  4.25                             140     0.1 7   92  33 
 BAR2 SZ ES   1   1616 20.18                             140     0.2 7   92  33 
 BAR2 SZ I        1616 21.42        21.1 0.35            138             92  33 
 PTB  HN ES   1   1616 22.75                             133    -0.2 7  115 308 
 BRR  HZ EP   1   1616  7.53                             128     0.0 7  134 356 
 BRR  HZ I        1616 11.37        25.6 0.34            127            134 356 
 BRR  HE ES   1   1616 25.48                             128    -0.5 7  134 356 
 CHI  HZ EP   1   1616  8.68                             127    -0.1 7  141 184 
 CHI  HN ES   1   1616 27.78                             127    -0.4 7  141 184 
 CHI  HZ I        1616 31.57         4.6 0.28            125            141 184 
 NOR  SZ EP   1   1616  8.67                             127     0.3 7  142 255 
 NOR  SN ES   1   1616 27.80                             127     0.3 7  142 255 
 ZAR  HN ES   2   1616 42.96                             114     0.4 4  222 323 
