 2010  2 6 1022  9.0 L   6.788 -72.942144.0  RSN  7 0.4 1.8LRSN                1
 GAP=203        0.70       4.5    11.3  8.2 -0.1729E+02  0.3566E+02  0.1293E+00E
 Epicentro: CEPITA - SANTANDER                                                 3
 ACTION:UP  10-08-24 09:47 OP:vdl  STATUS:               ID:20100206102209 L   I
 2010-02-06-1018-11S.COL___093                                                 6
 STAT SP IPHASW D HRMM SECON CODA AMPLIT PERI AZIMU VELO SNR AR TRES W  DIS CAZ7
 BAR2 SZ EP   1   1022 28.72                             166     0.0 7   34 231 
 BAR2 SZ ES   2   1022 43.48                             166    -0.6 5   34 231 
 RUS  BZ EP   1   1022 32.63                             144     0.1 7  100 189 
 RUS  BE ES   2   1022 51.51                             144     0.6 5  100 189 
 RUS  BZ I        1022 52.58         7.1 0.24                           100 189 
 OCA  SZ EP   1   1022 37.23                             128    -0.5 7  166 345 
 OCA  SZ ES   2   1023  0.64                             128     0.6 5  166 345 
 CHI  HZ EP   1   1022 46.94                             116    -0.3 6  254 200 
 CHI  HZ I        1022 47.81         2.6 0.48                           254 200 
 CHI  HE ES   2   1023 16.61                             116    -0.4 4  254 200 
 RREF BZ EP   1   1022 57.76                             109     0.8 5  338 232 
 RREF BN ES   2   1023 34.35                             109     0.0 3  338 232 
 RREF BZ I        1023 37.17         3.3 0.24                           338 232 
 TOL  SZ EP   1   1022 59.48                             108     0.5 5  359 227 
 TOL  SZ ES   2   1023 37.32                             108    -0.6 3  359 227 
 PRA  HZ EP   1   1023  3.26                             106    -0.4 4  402 212 
 PRA  HE ES   2   1023 46.06                             106    -0.3 3  402 212 
 PRA  HZ I        1023 54.59         2.7 0.31                           402 212 
                                                                                
