 2016  3 6 1015 38.3 L   6.172 -73.771 99.3  RSN 18 0.5 2.1LRSN                1
 GAP= 66        1.26       2.8     2.8  6.7 -0.2187E+01  0.5008E+01 -0.8834E+00E
 Epicentro: LANDAZURI - SANTANDER                                              3
 ACTION:UPD 16-05-13 21:21 OP:cam  STATUS:               ID:20160306101538 L   I
 OLDACT:UP  16-03-14 19:23 OP:cam  STATUS:               ID:20160306101538 L   3
 OLDACT:UP  16-03-14 19:22 OP:cam  STATUS:               ID:20160306101538 L   3
 OLDACT:UP  16-03-14 10:32 OP:Ak   STATUS:               ID:20160306101538 L   3
 OLDACT:UP  16-03-06 22:01 OP:mh   STATUS:               ID:20160306100751     3
 OLDACT:REG 16-03-06 21:05 OP:mh   STATUS:               ID:20160306100751     3
 2016-03-06-1007-51M.COL___315                                                 6
 STAT SP IPHASW D HRMM SECON CODA AMPLIT PERI AZIMU VELO AIN AR TRES W  DIS CAZ7
 SPBC HZ EP       1015 54.22                             144   -0.2310 66.4 210 
 SPBC HN ES       1016  7.31                             144    0.2710 66.4 210 
 SPBC HZ I        1016  8.07        55.0 0.26            141           66.4 210 
 BAR2 EZ IP     D 1015 55.93                             138    0.2310 80.0  54 
 BAR2 EZ ES       1016  9.82                             138    0.5410 80.0  54 
 BAR2 EZ I        1016 11.30        75.7 0.17            137           80.0  54 
 RUS  HZ EP     D 1015 55.85                             138   -0.3810 82.2 112 
 RUS  HN ES       1016 10.57                             138    0.3510 82.2 112 
 RUS  HZ I        1016 10.90        12.4 0.16            135           82.2 112 
 PTB  HZ IP     C 1015 54.91                             136   -0.9910 86.0 298 
 PTB  HN ES       1016  8.71                             136   -0.9210 86.0 298 
 PTB  HZ I        1016  9.58        41.5 0.18            134           86.0 298 
 NOR  HZ EP       1016  0.32                             122   -0.75 9  139 241 
 NOR  HN ES       1016 18.04                             122   -0.79 9  139 241 
 NOR  HZ I        1016 20.80        25.5 0.28            119            139 241 
 ROSC BZ EP   9   1016  5.49                             118    1.80 0  159 202 
 ROSC BN ES       1016 25.15                             118   -0.14 9  159 202 
 ROSC BZ I        1016 27.78        13.8 0.35            116            159 202 
 CHI  HZ EP       1016  4.31                             116   -0.64 9  171 179 
 CHI  HE ES       1016 25.92                             116    0.18 9  171 179 
 CHI  HZ I        1016 33.10                             114            171 179 
 PAM  EZ EP       1016  5.69                             116    0.13 9  175  42 
 PAM  EN ES       1016 26.68                             116   -0.15 9  175  42 
 PAM  EN I        1016 31.70        11.5 0.38            114            175  42 
 ZAR  HZ EP     C 1016  6.45                             113   -0.06 9  189 321 
 ZAR  HN ES       1016 29.47                             113    0.95 9  189 321 
 ZAR  HZ I        1016 33.20        23.0 0.16            112            189 321 
 HEL  HZ EP   1   1016  7.18                             113   -0.40 6  195 271 
 HEL  HN ES       1016 30.85                             113    0.42 9  195 271 
 HEL  HZ I        1016 34.85         7.5 0.36            111            195 271 
 GUY2CHZ EP       1016  8.68                             112   -0.27 8  205 239 
 GUY2CHN ES       1016 33.66                             112    0.81 8  205 239 
 GUY2CHZ I        1016 38.57        13.0 0.64                           205 239 
 VIL  SZ EP   4   1016  6.28                             109   -4.85 0  228 178 
 VIL  SE ES   1   1016 37.06                             109    0.32 6  228 178 
 ELA  HZ EP       1016 12.18                             109    0.13 8  232 231 
 ELA  HN ES       1016 38.92                             109    0.55 8  232 231 
 ELA  HZ I        1016 43.73         6.6 0.71            107            232 231 
 OCA  HN ES       1016 38.35                             109    0.30 8  234  12 
 OCA  HZ I        1016 44.19        17.4 0.26            107            234  12 
 CBOC HZ EP       1016 14.13                             107    0.31 8  250 262 
 CBOC HN ES       1016 42.12                             107    0.60 8  250 262 
 CBOC HZ I        1016 43.28         3.9 0.44            106            250 262 
 ANIL HZ EP   4   1016 14.78                             107   -0.24 0  259 224 
 ANIL HE ES   1   1016 44.06                             107    0.40 6  259 224 
 ANIL HZ I        1016 52.76        17.6 0.40            105            259 224 
 URE  HZ EP   4   1016 13.40                             107   -1.54 0  262 312 
 URE  HN ES   4   1016 35.82                             107   -7.69 0  262 312 
 URE  HZ I        1016 43.55         9.6 0.24            105            262 312 
 ORTC HZ EP       1016 19.37                             104   -0.04 7  299 213 
 ORTC HE ES   1   1016 52.27                             104    0.79 5  299 213 
 ORTC HZ I        1016 57.44         3.8 0.34            103            299 213 
                                                                                
