 2011 11 6 1229  2.2 L   6.777 -73.122143.2  RSN  4 0.1 1.5LRSN                1
 GAP=141        0.35       3.2     3.8  5.2  0.2695E+00 -0.5193E+01  0.9790E+00E
 Epicentro: LOS SANTOS - SANTANDER                                             3
 ACTION:UPD 12-07-13 16:08 OP:ep   STATUS:               ID:20111106122902 L   I
 2011-11-06-1226-44S.COL___175                                                 6
 STAT SP IPHASW D HRMM SECON CODA AMPLIT PERI AZIMU VELO AIN AR TRES W  DIS CAZ7
 BAR2 SZ EP       1229 21.53                             171    0.0210 21.5 198 
 BAR2 SZ I        1229 39.14         5.4 0.32                          21.5 198 
 BRR  HZ EP       1229 23.15                             151   -0.1510 74.7 299 
 BRR  HZ I        1229 29.90        22.8 0.42                          74.7 299 
 BRR  HE ES   1   1229 39.83                             151    0.10 7 74.7 299 
 PAM  SZ EP       1229 24.26                             150    0.0710 77.8  37 
 PAM  SN ES   2   1229 41.24                             150   -0.08 5 77.8  37 
 RUS  HZ EP   2   1229 25.74                             144    0.21 5 97.9 177 
 RUS  HE ES   2   1229 43.58                             144   -0.12 5 97.9 177 
 RUS  HZ I        1229 45.18         2.0 0.26                          97.9 177 
                                                                                
