 2010  8 6 1215 21.6 L   6.787 -73.093145.4  RSN  8 0.2 2.1LRSN                1
 GAP=165        0.47       1.9     4.9  3.7 -0.2253E+01 -0.1128E+01  0.6246E+00E
 Epicentro: LOS SANTOS - SANTANDER                                             3
 ACTION:UP  10-09-07 10:52 OP:vdl  STATUS:               ID:20100806121521 L   I
 2010-08-06-1212-00S.COL___125                                                 6
 STAT SP IPHASW D HRMM SECON CODA AMPLIT PERI AZIMU VELO SNR AR TRES W  DIS CAZ7
 BAR2 SZ EP       1215 41.25                             170     0.010   24 205 
 BAR2 SZ ES   1   1215 56.30                             170    -0.2 7   24 205 
 BAR2 SZ I        1215 58.78        33.5 0.39                            24 205 
 BRR  HZ EP       1215 43.04                             150     0.010   77 297 
 BRR  HN ES   1   1216  0.00                             150     0.2 7   77 297 
 BRR  HZ I        1216  1.53        20.2 0.22                            77 297 
 RUS  HZ EP       1215 45.31                             144     0.110   99 179 
 RUS  HE ES   1   1216  3.56                             144    -0.1 7   99 179 
 RUS  HZ I        1216  5.36        12.5 0.57                            99 179 
 GUE  SZ EP       1215 46.19                             139    -0.110  117   9 
 GRA  SZ EP   2   1215 47.06                             137     0.3 5  126  15 
 GRA  SZ I        1215 52.57        19.6 0.50                           126  15 
 GRA  SZ ES   1   1216  6.79                             137     0.3 7  126  15 
 OCA  SZ EP   1   1215 49.81                                    -0.3 7  162 351 
 OCA  SZ ES   2   1216 11.93                             129    -0.4 5  162 351 
 OCA  SZ I        1216 15.28        21.7 0.28                           162 351 
 CHI  HZ EP   1   1215 59.47                             117     0.2 6  249 197 
 CHI  HE ES   1   1216 28.51                             117    -0.2 6  249 197 
 CHI  HZ I        1216 33.90         6.2 0.40                           249 197 
 PRA  HZ EP   1   1216 15.44                             106     0.1 4  394 210 
 PRA  HN ES   2   1216 57.47                             106     0.3 3  394 210 
 PRA  HZ I        1217  1.86         8.8 0.57                           394 210 
                                                                                
