 2011 11 6 1329 44.3 L   6.733 -73.111140.2  RSN  6 0.3 1.6LRSN                1
 GAP=144        0.56       3.5     4.5  4.9  0.1068E+01 -0.3989E+00 -0.2119E+01E
 Epicentro: JORDAN - SANTANDER                                                 3
 ACTION:UPD 12-07-13 16:08 OP:ep   STATUS:               ID:20111106132944 L   I
 2011-11-06-1326-56S.COL___175                                                 6
 STAT SP IPHASW D HRMM SECON CODA AMPLIT PERI AZIMU VELO AIN AR TRES W  DIS CAZ7
 BAR2 SZ IP       1330  3.11                             173   -0.0110 17.5 207 
 BAR2 SZ I        1330  3.39         8.0 0.10                          17.5 207 
 BAR2 SZ ES   1   1330 17.45                             173   -0.37 7 17.5 207 
 BRR  HZ EP       1330  5.00                             149   -0.2410 78.2 302 
 BRR  HN ES   1   1330 22.06                             149    0.47 7 78.2 302 
 BRR  HZ I        1330 24.82        13.2 0.36                          78.2 302 
 PAM  SZ EP       1330  6.27                             148    0.1510 81.0  34 
 PAM  SN ES   1   1330 23.04                             148   -0.12 7 81.0  34 
 RUS  HZ EP       1330  6.89                             145   -0.0310 93.0 178 
 RUS  HE ES   2   1330 25.09                             145    0.49 5 93.0 178 
 RUS  HZ I        1330 27.00         2.8 0.48                          93.0 178 
 OCA  SZ EP       1330 12.99                             127    0.09 9  168 352 
 OCA  SZ I        1330 38.70         7.5 0.33                           168 352 
 ZAR  HN ES   2   1330 42.21                             120   -0.36 4  210 294 
 ZAR  HZ I        1330 48.66         4.6 0.36                           210 294 
                                                                                
