 2017  8 6 1505  2.0 L   6.782 -73.134147.9  RSN 10 0.2 1.7LRSN                1
 GAP=139        0.72       2.7     3.2  4.1 -0.1012E+01  0.8615E+00  0.2061E+01E
 Epicentro: LOS SANTOS - SANTANDER                                             3
 ACTION:UPD 17-09-04 20:17 OP:rebc STATUS:               ID:20170806150502 L   I
 OLDACT:UP  17-08-07 00:09 OP:edw  STATUS:               ID:20170806145746     3
 OLDACT:UP  17-08-07 00:06 OP:edw  STATUS:               ID:20170806145746     3
 OLDACT:REG 17-08-06 20:58 OP:edw  STATUS:               ID:20170806145746     3
 2017-08-06-1458-00M.COL___392                                                 6
 STAT SP IPHASW D HRMM SECON CODA AMPLIT PERI AZIMU VELO AIN AR TRES W  DIS CAZ7
 BAR2 EZ EP     C 15 5 21.63                             171   -0.2210 21.7 194 
 BAR2 EZ ES       15 5 37.26                             171   -0.0810 21.7 194 
 BAR2 EZ I        15 5 38.02        12.8 0.20            168           21.7 194 
 BRR  HZ EP       15 5 23.38                             152   -0.1210 73.3 299 
 BRR  HN ES       15 5 40.53                             152    0.2710 73.3 299 
 PAM  EZ EP       15 5 24.56                             150    0.0810 78.1  38 
 PAM  EN ES       15 5 41.97                             150   -0.0510 78.1  38 
 PAM  EZ I        15 5 43.93        10.1 0.52            154           78.1  38 
 RUS  HZ EP       15 5 25.81                             144   -0.0110 98.5 177 
 RUS  HN ES       15 5 44.25                             144   -0.1410 98.5 177 
 RUS  HZ I        15 5 45.60        12.5 0.28            143           98.5 177 
 PTB  HZ EP   9   15 5 28.60                             132   -0.63 0  149 260 
 PTB  HN ES       15 5 49.00                             133   -0.84 9  149 260 
 PTB  HZ I        15 5 54.02         2.9 0.30            130            149 260 
 SPBC HZ EP   9   15 5 30.38                             129   -0.22 0  163 220 
 SPBC HN ES       15 5 52.28                             130   -0.41 9  163 220 
 SPBC HZ I        15 5 58.37        10.5 0.32            128            163 220 
 ZAR  HN ES       15 6  0.34                             122   -0.02 8  206 293 
 ZAR  HZ I        15 6  4.93         4.7 0.58            122            206 293 
 NOR  HZ EP       15 5 37.84                             118   -0.01 8  235 235 
 NOR  HN ES       15 6  6.20                             118    0.39 8  235 235 
 NOR  HZ I        15 6  8.42         4.5 0.24            118            235 235 
 CHI  HZ EP       15 5 39.77                             117    0.12 8  247 196 
 CHI  HN ES       15 6  8.96                             117   -0.06 8  247 196 
 CHI  HZ I        15 6 18.96         2.6 0.44            117            247 196 
 GUY2CHE ES   4   15 6 23.88                             112    4.09 0  301 235 
 GUY2CHZ I        15 6 27.77         3.1 0.26                           301 235 
 SJC  HZ EP   4   15 5 55.45                             105   -2.46 0  412 327 
 SJC  HN ES   4   15 6 36.50                             105   -5.02 0  412 327 
                                                                                
