 2015 12 6 1006 29.0 L   6.812 -73.162144.0  RSN 21 0.4 2.6LRSN                1
 GAP= 70        0.90       2.1     2.4  4.0 -0.9614E+00  0.3013E+01  0.8408E+00E
 Epicentro: LOS SANTOS - SANTANDER                                             3
 ACTION:UPD 16-02-04 15:02 OP:cam  STATUS:               ID:20151206100629 L   I
 OLDACT:UP  15-12-06 21:17 OP:drio STATUS:               ID:20151206095748d    3
 OLDACT:REG 15-12-06 20:33 OP:drio STATUS:               ID:20151206095748d    3
 2015-12-06-0957-47M.COL___319                                                 6
 STAT SP IPHASW D HRMM SECON CODA AMPLIT PERI AZIMU VELO AIN AR TRES W  DIS CAZ7
 BAR2 EZ IP     C 10 6 48.45                             170   -0.0210 24.5 185 
 BAR2 EZ ES       10 7  3.97                             170    0.3310 24.5 185 
 BAR2 EZ I        10 7  4.71        95.5 0.12            168           24.5 185 
 BRR  HZ IP     C 10 6 50.35                             153    0.4810 69.0 298 
 BRR  HN ES       10 7  6.79                             153    0.6810 69.0 298 
 BRR  HZ I        10 7 10.41        47.2 0.18            150           69.0 298 
 PAM  EZ EP       10 6 51.40                             151    0.3310 77.5  41 
 PAM  EN ES       10 7  8.34                             151    0.0910 77.5  41 
 PAM  EZ I        10 7  9.04        42.6 0.32            155           77.5  41 
 RUS  HZ EP       10 6 52.30                             143   -0.4210  102 175 
 RUS  HN ES       10 7 10.89                             143   -0.3110  102 175 
 RUS  HZ I        10 7 16.18        13.4 0.14            145            102 175 
 PTB  HZ EP       10 6 55.27                             132   -0.45 9  146 258 
 PTB  HN ES       10 7 16.18                             132   -0.36 9  146 258 
 PTB  HZ I        10 7 22.01        49.6 0.30            131            146 258 
 TAM  HZ IP     C 10 6 56.70                             130   -0.06 9  157 105 
 TAM  HN ES       10 7 18.25                             130   -0.14 9  157 105 
 TAM  HZ I        10 7 18.77        26.8 0.38            135            157 105 
 OCA  HZ EP       10 6 57.07                             130    0.01 9  159 354 
 OCA  HN ES       10 7 18.51                             130   -0.41 9  159 354 
 OCA  HZ I        10 7 22.38        50.1 0.22            131            159 354 
 SPBC HZ EP       10 6 57.29                             129   -0.10 9  163 218 
 SPBC HN ES       10 7 19.37                             129   -0.14 9  163 218 
 SPBC HZ I        10 7 22.58        63.9 0.22            129            163 218 
 ZAR  HZ EP       10 7  1.43                             122    0.29 9  202 292 
 ZAR  HN ES       10 7 26.42                             122    0.24 9  202 292 
 ZAR  HZ I        10 7 32.61        61.0 0.34            122            202 292 
 NOR  HZ EP       10 7  4.81                             118    0.22 8  234 234 
 NOR  HN ES       10 7 32.11                             118   -0.21 8  234 234 
 NOR  HZ I        10 7 35.38        37.7 0.26            118            234 234 
 SML  HZ EP       10 7  4.81                             117   -0.53 8  242 336 
 SML  HN ES       10 7 33.36                             117   -0.31 8  242 336 
 SML  HZ I        10 7 40.07        37.5 0.10            118            242 336 
 ROSC BZ EP   4   10 7  8.45                             116    1.37 0  253 211 
 ROSC BE ES       10 7 36.88                             116    0.12 8  253 211 
 ROSC BZ I        10 7 46.08        32.9 0.35            117            253 211 
 HEL  HZ EP   4   10 7 10.20                             115    1.20 0  271 255 
 HEL  HN ES       10 7 39.64                             115   -0.54 8  271 255 
 HEL  HZ I        10 7 48.88        15.9 0.28            115            271 255 
 URE  HZ EP       10 7  9.29                             113   -0.48 7  282 292 
 URE  HE ES   4   10 7 39.83                             113   -1.72 0  282 292 
 URE  HZ I        10 7 53.19        32.5 0.32            114            282 292 
 GUY2CHZ EP       10 7 13.24                             112    0.75 7  301 234 
 GUY2CHN ES       10 7 45.60                             112   -0.78 7  301 234 
 GUY2CHZ I        10 7 54.98        32.4 0.38                           301 234 
 SOCV BZ EP   4   10 7 10.29                             112   -1.79 0  302  57 
 SOCV BN ES   4   10 7 42.15                             112   -3.51 0  302  57 
 ELA  HZ EP   4   10 7 18.14                             110    2.38 0  329 229 
 ELA  HN ES       10 7 52.49                             110    0.29 7  329 229 
 ELA  HZ I        10 8  0.93        14.5 0.56            111            329 229 
 DBB  SZ EP       10 7 16.28                             109    0.06 7  338 274 
 DBB  SZ ES   4   10 7 51.97                             109   -1.06 0  338 274 
 DBB  SZ I        10 8  7.96        37.3 0.52            110            338 274 
 ANIL HZ EP       10 7 19.72                             108    0.98 6  357 224 
 ANIL HN ES       10 7 57.07                             108   -0.44 6  357 224 
 ANIL HZ I        10 8  7.76        39.9 0.28            109            357 224 
 PRA  HZ EP       10 7 22.29                             106   -0.24 6  392 209 
 PRA  HN ES       10 8  4.41                             106    0.15 6  392 209 
 PRA  HZ I        10 8 11.67        14.9 0.68            107            392 209 
 ORTC HZ EP       10 7 23.09                             106    0.19 6  395 216 
 ORTC HE ES       10 8  5.21                             106    0.30 6  395 216 
 ORTC HZ I        10 8 12.31         9.9 0.36            107            395 216 
 PAL  HZ EP       10 7 24.22                             106    0.18 6  405 239 
 PAL  HN ES       10 8  7.98                             106    1.04 6  405 239 
 PAL  HZ I        10 8  9.60         6.2 0.42            106            405 239 
                                                                                
