 2017 12 6 1451 32.6 L   6.747 -73.181137.3  RSN  8 0.4 2.0LRSN                1
 GAP=215        1.00       4.5     4.3  6.5  0.7069E+01  0.5827E+01  0.6242E+01E
 Epicentro: VILLANUEVA - SANTANDER                                             3
 ACTION:UPD 18-01-04 13:17 OP:rebc STATUS:               ID:20171206145132 L   I
 OLDACT:REG 17-12-06 20:39 OP:lv   STATUS:               ID:20171206144745     3
 2017-12-06-1448-00M.COL___480                                                 6
 STAT SP IPHASW D HRMM SECON CODA AMPLIT PERI AZIMU VELO AIN AR TRES W  DIS CAZ7
 BAR2 EZ EP       1451 50.94                             173   -0.1910 17.1 180 
 BAR2 EZ ES       1452  5.57                             173    0.0110 17.1 180 
 BAR2 EZ I        1452  8.75        23.5 0.46            167           17.1 180 
 PTB  HZ EP       1451 57.87                             131   -0.60 9  143 261 
 PTB  HN ES       1452 19.00                             131    0.38 9  143 261 
 PTB  HZ I        1452 21.63         5.1 0.24            132            143 261 
 SPBC HZ EP       1451 59.79                             128   -0.03 9  156 219 
 SPBC HN ES       1452 20.59                             128   -0.43 9  156 219 
 SPBC HZ I        1452 28.81        14.1 0.22            129            156 219 
 YPLC HZ EP       1452  1.08                             125   -0.43 9  174 149 
 YPLC HN ES       1452 24.81                             125    0.78 9  174 149 
 YPLC HZ I        1452 26.32        13.6 0.28            128            174 149 
 ZAR  HZ EP       1452  4.46                             121    0.05 9  203 294 
 ZAR  HE ES       1452 29.42                             121    0.23 9  203 294 
 ZAR  HZ I        1452 34.25        12.3 0.32            123            203 294 
 CHI  HZ EP       1452  9.55                             116    0.41 8  242 195 
 CHI  HN ES       1452 37.03                             116   -0.58 8  242 195 
 CHI  HZ I        1452 44.65         3.8 0.32            118            242 195 
 GUY2CHZ EP       1452 15.85                             111    0.74 7  295 235 
 GUY2CHE ES       1452 48.18                             111   -0.06 7  295 235 
 GUY2CHZ I        1452 57.08         4.6 0.40                           295 235 
 PRA  HZ EP       1452 24.55                             105   -0.49 6  385 209 
 PRA  HN ES       1453  6.52                             105    0.60 6  385 209 
 PRA  HZ I        1453 13.12         4.5 0.28            107            385 209 
                                                                                
