 2011  6 6 1445  4.6 L   6.774 -73.153145.9  RSN  7 0.3 2.3LRSN                1
 GAP=137        0.56       3.4     5.2  5.5 -0.2157E+01  0.3942E+01  0.9702E+00E
 Epicentro: LOS SANTOS - SANTANDER                                             3
 ACTION:UP  11-07-14 19:03 OP:ep   STATUS:               ID:20110606144504 L   I
 2011-06-06-1443-00S.COL___126                                                 6
 STAT SP IPHASW D HRMM SECON CODA AMPLIT PERI AZIMU VELO SNR AR TRES W  DIS CAZ7
 BAR2 SZ EP   1   1445 24.04                             172    -0.2 7   20 189 
 BAR2 SZ ES   2   1445 38.92                             172    -0.6 5   20 189 
 BAR2 SZ I        1445 41.70        38.5 0.34                            20 189 
 BRR  HZ EP   1   1445 25.83                             152     0.0 7   72 301 
 BRR  HE ES   1   1445 42.82                             152     0.4 7   72 301 
 BRR  HZ I        1445 46.67        44.1 0.22                            72 301 
 PAM  SZ EP   1   1445 27.04                             150     0.0 7   80  39 
 PAM  SN ES   2   1445 44.31                             150    -0.2 5   80  39 
 RUS  HZ EP   2   1445 28.16                             145     0.0 5   98 175 
 RUS  HE ES   1   1445 46.93                             145     0.3 7   98 175 
 RUS  HZ I        1445 47.86        25.4 0.25                            98 175 
 OCA  SZ EP   2   1445 33.28                             129     0.1 5  163 354 
 OCA  SZ ES   2   1445 55.28                             129    -0.2 5  163 354 
 OCA  SZ I        1445 59.04        18.8 0.38                           163 354 
 NOR  SZ EP   1   1445 40.13                             119     0.0 6  232 235 
 NOR  SN ES   2   1446  7.27                             119    -0.5 4  232 235 
 CHI  HZ EP   2   1445 42.13                             118     0.1 4  246 195 
 CHI  HZ I        1446 14.86        13.5 0.36                           246 195 
                                                                                
