 2012  3 6 1218 49.6 L   6.773 -73.141141.5  RSN 15 0.3 3.0LRSN                1
 GAP=115        0.77       2.4     2.8  4.0 -0.1617E-01  0.2883E+01  0.2306E+01E
 ACTION:UP  12-03-31 23:17 OP:EP   STATUS:               ID:20120306121849 L   I
 2012-03-06-1214-48S.COL___159                                                 6
 STAT SP IPHASW D HRMM SECON CODA AMPLIT PERI AZIMU VELO SNR AR TRES W  DIS CAZ7
 BAR2 SZ IP     D 1219  8.91                             171     0.210   21 193 
 BAR2 SZ ES       1219 23.35                             171    -0.210   21 193 
 BAR2 SZ I        1219 25.18       352.7 0.30                            21 193 
 BRR  HZ IP     C 1219 10.77                             151     0.310   73 300 
 BRR  HZ I        1219 11.13       184.7 0.15                            73 300 
 BRR  HN ES       1219 27.30                             151     0.610   73 300 
 PAM  SZ EP       1219 11.69                             149     0.210   79  38 
 PAM  SN ES       1219 28.10                             149    -0.510   79  38 
 RUS  HZ EP       1219 12.82                             144     0.110   98 176 
 RUS  HN ES       1219 30.68                             144    -0.110   98 176 
 PTB  HZ EP       1219 15.64                             131    -0.6 9  148 260 
 PTB  HE ES   1   1219 36.81                             131    -0.2 7  148 260 
 OCA  SZ EP       1219 17.74                             128    -0.2 9  163 353 
 YOP  SZ EP       1219 19.44                             126     0.3 9  176 153 
 YOP  SN ES   1   1219 42.23                             126     0.2 7  176 153 
 YOP  SZ I        1219 47.68        66.7 0.83                           176 153 
 ZAR  HZ EP   1   1219 21.58                             121    -0.4 6  206 293 
 ZAR  HE ES   1   1219 47.00                             121    -0.2 6  206 293 
 ZAR  HZ I        1219 52.77       147.2 0.29                           206 293 
 NOR  SZ EP       1219 25.04                             118     0.1 8  233 235 
 NOR  SN ES       1219 52.65                             118     0.1 8  233 235 
 CHI  HZ EP       1219 27.07                             116     0.3 8  246 195 
 CHI  HE ES       1219 55.54                             116    -0.3 8  246 195 
 CHI  HZ I        1220  3.66        39.9 0.46                           246 195 
 HEL  HZ EP   1   1219 29.94                             114     0.3 6  272 256 
 HEL  HN ES   1   1220  0.90                             114     0.1 6  272 256 
 HEL  HZ I        1220  8.08        56.2 0.28                           272 256 
 VIL  SZ EP   2   1219 32.33                             111    -0.2 4  301 192 
 VIL  SN ES   1   1220  5.83                             111    -0.2 5  301 192 
 VIL  SZ I        1220 12.72        36.1 0.54                           301 192 
 RREF HZ EP   1   1219 35.62                             110     0.2 5  320 230 
 RREF HN ES   1   1220 11.17                             110     0.0 5  320 230 
 RREF HZ I        1220 17.17        59.1 0.42                           320 230 
 TOL  SZ EP   1   1219 37.38                             109    -0.2 5  342 225 
 PRA  HZ EP   1   1219 42.38                             106    -0.4 4  390 210 
 PRA  HE ES   1   1220 24.03                             106    -0.1 4  390 210 
                                                                                
