 2012  8 6 1359 10.7 L   7.344 -73.113 14.8  RSN  5 0.2 1.1LRSN                1
 GAP=202        0.43       2.6     1.5  3.1 -0.1117E+01  0.1667E+01  0.9975E+00E
 Epicentro: RIONEGRO - SANTANDER                                               3
 ACTION:UPD 12-09-10 11:54 OP:ep   STATUS:               ID:20120806135910 L   I
 2012-08-06-1356-49M.COL___211                                                 6
 STAT SP IPHASW D HRMM SECON CODA AMPLIT PERI AZIMU VELO AIN AR TRES W  DIS CAZ7
 PAM  SZ EP   1   1359 18.92                             105   -0.01 7 45.7  91 
 PAM  SN ES   1   1359 25.25                             105   -0.11 7 45.7  91 
 BRR  HZ EP   1   1359 22.47                              99    0.29 7 71.1 248 
 BRR  HZ I        1359 22.79         6.5 0.13                          71.1 248 
 BRR  HE ES   1   1359 30.84                              99   -0.31 7 71.1 248 
 BAR2 SZ ES   1   1359 34.98                              98    0.09 7 83.5 185 
 BAR2 SZ I        1359 35.25         5.6 0.26                          83.5 185 
 RUS  HE ES   2   1359 55.04                              56   -0.13 5  161 179 
 RUS  HZ I        1359 59.49         1.9 0.44                           161 179 
 PTB  HZ EP   1   1359 36.89                              56    0.23 7  173 239 
 PTB  HN ES   1   1359 56.82                              56   -0.11 7  173 239 
 PTB  HZ I        1359 58.25         2.9 0.25                           173 239 
                                                                                
