 2013  2 6 1712 29.7 L   6.786 -73.140146.2  RSN 12 0.3 2.9LRSN                1
 GAP= 72        0.67       2.3     2.3  3.8 -0.4768E-02  0.2188E+01  0.1100E+01E
 Epicentro: LOS SANTOS - SANTANDER                                             3
 ACTION:UPD 13-03-12 09:31 OP:ep   STATUS:               ID:20130206171229 L   I
 2013-02-06-1710-00M.COL___240                                                 6
 STAT SP IPHASW D HRMM SECON CODA AMPLIT PERI AZIMU VELO AIN AR TRES W  DIS CAZ7
 BAR2 SZ IP       1712 49.44                             171    0.0710 21.9 192 
 BAR2 SZ I        1712 50.00       156.1 0.18            167           21.9 192 
 BAR2 SZ ES       1713  4.74                             171    0.0410 21.9 192 
 BRR  HZ IP     C 1712 51.32                             152    0.3410 72.4 299 
 BRR  HE ES   1   1713  8.24                             152    0.67 7 72.4 299 
 BRR  HN I        1713  9.57       184.6 0.35            151           72.4 299 
 PAM  SZ IP     D 1712 52.20                             151    0.1710 78.2  38 
 PAM  SZ I        1712 52.48       191.1 0.26            155           78.2  38 
 PAM  SE ES       1713  9.06                             151   -0.3710 78.2  38 
 RUS  HZ IP     C 1712 53.29                             144   -0.1110 99.0 176 
 RUS  HE ES       1713 11.56                             144   -0.3110 99.0 176 
 RUS  HE I        1713 13.14       192.3 0.51            142           99.0 176 
 PTB  HZ EP       1712 56.14                             132   -0.60 9  148 259 
 PTB  HN ES   1   1713 17.61                             132   -0.21 7  148 259 
 TAM  HZ IP     C 1712 57.58                             131    0.24 9  154 104 
 TAM  HZ I        1712 57.95       131.9 0.35            132            154 104 
 TAM  HN ES       1713 18.96                             131    0.08 9  154 104 
 ZAR  HZ EP   1   1713  2.17                             122   -0.13 6  205 292 
 ZAR  HE ES   1   1713 27.93                             122    0.21 6  205 292 
 ZAR  HZ I        1713 34.49        74.5 0.37            122            205 292 
 NOR  HZ EP   1   1713  5.18                             119   -0.25 6  234 235 
 NOR  HE ES   1   1713 33.25                             119   -0.03 6  234 235 
 NOR  HZ I        1713 35.75        47.5 0.29            117            234 235 
 SML  HZ EP   1   1713  6.43                             117   -0.11 6  245 335 
 SML  HN ES   1   1713 35.07                             117   -0.20 6  245 335 
 CHI  HZ EP       1713  7.41                             117    0.12 8  247 195 
 CHI  HE ES       1713 36.60                             117    0.00 8  247 195 
 CHI  HZ I        1713 47.06        23.8 0.35            116            247 195 
 ROSC BZ EP   1   1713  8.07                             117    0.32 6  252 211 
 ROSC BN ES   4   1713 38.45                             117    1.04 0  252 211 
 ROSC BZ I        1713 44.44        49.0 0.49            116            252 211 
 ANIL HZ EP   1   1713 19.21                             108   -0.25 5  357 225 
 ANIL HN ES   1   1713 59.11                             108    0.86 5  357 225 
                                                                                
