 2013 10 6 1632 50.0 L   6.762 -73.122150.8  RSN  5 0.7 1.9LRSN                1
 GAP=259        1.53      14.4    11.5 11.8 -0.4229E+02  0.1947E+02  0.6155E+02E
 Epicentro: LOS SANTOS - SANTANDER                                             3
 ACTION:UPD 13-11-25 09:19 OP:ep   STATUS:               ID:20131006163250 L   I
 OLDACT:REG 13-10-06 16:17 OP:stll STATUS:               ID:20131006162848     3
 2013-10-06-1628-48M.COL___235                                                 6
 STAT SP IPHASW D HRMM SECON CODA AMPLIT PERI AZIMU VELO AIN AR TRES W  DIS CAZ7
 BAR2 SZ EP       1633 10.40                             172    0.2710 19.9 199 
 BAR2 SZ ES       1633 25.55                             172   -0.3110 19.9 199 
 BAR2 SZ I        1633 28.80        16.1 0.46            169           19.9 199 
 BRR  HZ EP       1633 11.90                             152    0.0110 75.5 300 
 BRR  HN ES       1633 29.18                             152    0.1810 75.5 300 
 BRR  HZ I        1633 34.79        15.6 0.50            152           75.5 300 
 PTB  HZ EP       1633 17.34                             133   -0.16 9  150 261 
 PTB  HN ES       1633 38.72                             133   -0.26 9  150 261 
 PTB  HZ I        1633 41.06         7.6 0.16            134            150 261 
 NOR  HZ EP       1633 27.25                             119    1.30 8  234 236 
 NOR  HN ES       1633 54.40                             119    0.37 8  234 236 
 NOR  HZ I        1634  0.66         4.4 0.16            121            234 236 
 GUY2CHE EP     D 1633 32.02                             113   -1.75 7  301 236 
                                                                                
