 2017  2 6 1837  8.5 L   6.777 -73.132147.8  RSN 13 0.4 2.4LRSN                1
 GAP= 98        1.08       4.4     3.6  5.9 -0.1863E+01  0.3312E+01  0.6728E+01E
 Epicentro: LOS SANTOS - SANTANDER                                             3
 ACTION:UPD 17-05-24 15:33 OP:jn   STATUS:               ID:20170206183708 L   I
 OLDACT:DUP 17-02-07 00:51 OP:lv   STATUS:               ID:20170206182745d    3
 2017-02-06-1828-00M.COL___340                                                 6
 STAT SP IPHASW D HRMM SECON CODA AMPLIT PERI AZIMU VELO AIN AR TRES W  DIS CAZ7
 BAR2 EZ EP       1837 28.25                             171   -0.0310 21.2 195 
 BAR2 EZ ES       1837 43.45                             171   -0.3010 21.2 195 
 BAR2 EZ I        1837 46.14        81.8 0.40            165           21.2 195 
 BRR  HZ EP       1837 30.17                             152    0.2110 73.7 300 
 BRR  HN ES       1837 47.57                             152    0.8310 73.7 300 
 PAM  EZ EP       1837 31.14                             151    0.2010 78.4  38 
 PAM  EN ES       1837 48.43                             151   -0.0510 78.4  38 
 PAM  EZ I        1837 50.53        37.7 0.51            157           78.4  38 
 RUS  HZ EP       1837 32.14                             145   -0.0810 98.0 177 
 RUS  HN ES       1837 51.07                             145    0.3210 98.0 177 
 RUS  HZ I        1837 53.73        31.2 0.40            141           98.0 177 
 PTB  HZ EP       1837 34.87                             132   -0.81 9  149 260 
 PTB  HN ES       1837 56.36                             132   -0.55 9  149 260 
 PTB  HZ I        1837 58.05        36.6 0.32            131            149 260 
 TAM  HZ EP       1837 36.39                             131    0.29 9  153 104 
 TAM  HN ES       1837 56.97                             131   -0.69 9  153 104 
 TAM  HZ I        1837 57.07        24.4 0.38            133            153 104 
 NOR  HZ EP       1837 44.15                             119   -0.13 8  234 235 
 NOR  HN ES       1838 12.08                             119   -0.14 8  234 235 
 NOR  HZ I        1838 16.12        31.1 0.25            118            234 235 
 CHI  HZ EP       1837 46.53                             118    0.49 8  247 196 
 CHI  HN ES       1838 15.49                             118    0.12 8  247 196 
 CHI  HZ I        1838 24.06        10.5 0.13            117            247 196 
 ROSC BZ EP   4   1837 48.37                             117    1.84 0  251 212 
 ROSC BN ES   4   1838 21.16                             117    4.92 0  251 212 
 ROSC BZ I        1838 24.28        31.6 0.55            116            251 212 
 ELA  HZ EP   4   1837 58.22                             111    2.89 0  329 230 
 ELA  HN ES   4   1838 34.81                             111    2.91 0  329 230 
 ELA  HZ I        1838 48.01        14.6 0.60            110            329 230 
 DBB  EZ EP       1837 55.93                             110   -0.27 7  341 275 
 DBB  EN ES   4   1838 31.78                             110   -1.67 0  341 275 
 DBB  EZ I        1838 36.18         6.8 0.12            110            341 275 
 ORTC HZ EP       1838  3.30                             107    0.99 6  394 217 
 ORTC HN ES   4   1838 43.24                             107   -1.08 0  394 217 
 ORTC HZ I        1838 51.46        12.2 0.41            106            394 217 
 SJC  HZ EP   4   1838  2.47                             106   -1.95 0  412 327 
 SJC  HN ES   4   1838 43.75                             106   -4.33 0  412 327 
 SJC  HZ I        1838 48.25         4.9 0.25            107            412 327 
                                                                                
