 2017  8 6 1953 22.0 L   6.762 -73.096137.6  RSN  4 0.3 1.2LRSN                1
 GAP=145        0.84       4.3     6.4  7.1 -0.5876E+00 -0.3217E+01  0.3967E+00E
 Epicentro: LOS SANTOS - SANTANDER                                             3
 ACTION:UPD 17-09-04 20:17 OP:rebc STATUS:               ID:20170806195322 L   I
 OLDACT:REG 17-08-06 21:22 OP:edw  STATUS:               ID:20170806194747     3
 2017-08-06-1948-00M.COL___387                                                 6
 STAT SP IPHASW D HRMM SECON CODA AMPLIT PERI AZIMU VELO AIN AR TRES W  DIS CAZ7
 BAR2 EZ ES       1953 54.48                             171   -0.5810 21.1 207 
 PAM  EZ EP       1953 43.34                             149    0.0410 77.4  34 
 PAM  EN ES       1954  0.09                             149    0.1410 77.4  34 
 PAM  EZ I        1954  2.15         3.4 0.62            150           77.4  34 
 BRR  HZ EP       1953 42.33                             149   -0.3110 78.1 299 
 BRR  HN ES       1953 59.15                             149    0.3710 78.1 299 
 BRR  HZ I        1954  0.32         5.0 0.38            150           78.1 299 
 RUS  HZ IP       1953 44.60                             143    0.0210 96.2 179 
 RUS  HN ES       1954  2.55                             143    0.3210 96.2 179 
 RUS  HZ I        1954  3.91         1.9 0.42            145           96.2 179 
                                                                                
