 2013 11 6 1514  2.3 L   6.797 -73.189144.7  RSN  6 0.4 1.7LRSN                1
 GAP=131        1.09       4.5     5.4  7.3  0.7861E+00  0.6773E+01 -0.6751E+01E
 Epicentro: ZAPATOCA - SANTANDER                                               3
 ACTION:UPD 14-01-09 16:26 OP:ep   STATUS:               ID:20131106151402 L   I
 OLDACT:REG 13-11-06 17:25 OP:nd   STATUS:               ID:20131106151000     3
 2013-11-06-1510-00M.COL___273                                                 6
 STAT SP IPHASW D HRMM SECON CODA AMPLIT PERI AZIMU VELO AIN AR TRES W  DIS CAZ7
 BAR2 SZ EP       1514 21.97                             171    0.1910 22.7 178 
 BAR2 SZ ES       1514 37.24                             171    0.2610 22.7 178 
 BAR2 SZ I        1514 39.75        13.5 0.30            162           22.7 178 
 BRR  HZ EP       1514 23.87                             154    0.7710 67.2 301 
 BRR  HN ES       1514 39.65                             154    0.3210 67.2 301 
 BRR  HZ I        1515 21.26        19.2 0.36            145           67.2 301 
 PAM  SZ EP       1514 24.76                             149    0.1710 80.7  42 
 PAM  SN ES       1514 41.74                             149   -0.2610 80.7  42 
 PAM  SZ I        1514 44.18         5.8 0.48            157           80.7  42 
 RUS  HZ EP       1514 26.14                             143    0.2010  101 173 
 RUS  HN ES       1514 43.62                             143   -0.7810  101 173 
 RUS  HZ I        1514 48.03         2.8 0.60            155            101 173 
 PTB  HZ EP       1514 28.54                             133   -0.20 9  143 259 
 PTB  HN ES       1514 49.21                             133   -0.16 9  143 259 
 PTB  HZ I        1514 55.86         5.5 0.26            133            143 259 
 SML  HZ EP       1514 38.58                             117   -0.09 8  242 336 
 SML  HN ES       1515  6.28                             117   -0.77 8  242 336 
 SML  HZ I        1515 13.38        11.4 0.10            122            242 336 
                                                                                
