 2017 12 6 1036 51.5 L   6.751 -73.154139.9  RSN  5 0.2 1.4LRSN                1
 GAP=242        0.65       4.2     3.9  5.2  0.6370E+01  0.4418E+01 -0.4283E+01E
 Epicentro: LOS SANTOS - SANTANDER                                             3
 ACTION:UPD 18-01-04 13:17 OP:rebc STATUS:               ID:20171206103651 L   I
 OLDACT:REG 17-12-06 20:26 OP:lv   STATUS:               ID:20171206102740     3
 2017-12-06-1028-00M.COL___480                                                 6
 STAT SP IPHASW D HRMM SECON CODA AMPLIT PERI AZIMU VELO AIN AR TRES W  DIS CAZ7
 BAR2 EZ EP       1037 10.31                             172   -0.0210 17.9 190 
 BAR2 EZ ES       1037 24.90                             172   -0.1110 17.9 190 
 BAR2 EZ I        1037 26.06         5.0 0.36            171           17.9 190 
 RUS  HZ EP       1037 14.03                             144   -0.2710 95.3 175 
 RUS  HN ES       1037 32.39                             144    0.3210 95.3 175 
 RUS  HZ I        1037 33.35         2.3 0.38            146           95.3 175 
 PTB  HZ EP       1037 18.18                             131    0.34 9  146 261 
 PTB  HN ES       1037 38.64                             131    0.27 9  146 261 
 PTB  HZ I        1037 39.28         2.3 0.26            130            146 261 
 SPBC HZ EP       1037 19.05                             129   -0.06 9  158 220 
 SPBC HN ES       1037 40.30                             129   -0.34 9  158 220 
 SPBC HZ I        1037 44.69         4.2 0.26            129            158 220 
 ZAR  HZ EP       1037 23.87                             121    0.16 8  205 294 
 ZAR  HN ES       1037 48.51                             121   -0.32 8  205 294 
 ZAR  HZ I        1037 55.60         3.2 0.30            121            205 294 
                                                                                
