 2013  6 6 1948 14.7 L   6.775 -73.140151.8  RSN  9 0.3 2.3LRSN                1
 GAP=183        0.75       2.5     3.7  4.6  0.3207E+00  0.2719E+01 -0.2216E+01E
 Epicentro: LOS SANTOS - SANTANDER                                             3
 ACTION:UPD 14-01-08 09:52 OP:ep   STATUS:               ID:20130606194814 L   I
 OLDACT:REG 13-06-06 19:00 OP:nd   STATUS:               ID:20130606194000     3
 2013-06-06-1940-00M.COL___257                                                 6
 STAT SP IPHASW D HRMM SECON CODA AMPLIT PERI AZIMU VELO AIN AR TRES W  DIS CAZ7
 BAR2 SZ EP       1948 35.01                             172    0.0210 20.7 193 
 BAR2 SZ ES       1948 50.78                             172   -0.0510 20.7 193 
 BAR2 SZ I        1948 52.11        35.9 0.20            172           20.7 193 
 BRR  HZ IP     C 1948 37.06                             153    0.4710 73.1 300 
 BRR  HN ES       1948 53.54                             153   -0.1310 73.1 300 
 BRR  HZ I        1948 59.16        29.1 0.32            151           73.1 300 
 RUS  HZ EP       1948 38.94                             146    0.1010 97.8 176 
 RUS  HN ES       1948 57.80                             146    0.1310 97.8 176 
 RUS  HZ I        1948 58.67        21.1 0.28            149           97.8 176 
 PTB  HZ EP       1948 41.63                             133   -0.52 9  148 260 
 PTB  HN ES       1949  3.02                             133   -0.56 9  148 260 
 PTB  HZ I        1949  5.20        31.1 0.34            134            148 260 
 OCA  HZ EP       1948 43.43                             130   -0.30 9  163 353 
 OCA  HN ES       1949  6.37                             130   -0.01 9  163 353 
 OCA  HZ I        1949  9.23        16.1 0.20            132            163 353 
 ZAR  HZ EP       1948 47.71                             123    0.02 8  206 293 
 ZAR  HN ES       1949 13.78                             123    0.35 8  206 293 
 ZAR  HZ I        1949 19.19        28.3 0.30            124            206 293 
 NOR  HZ EP       1948 50.67                             120    0.02 8  234 235 
 NOR  HN ES       1949 19.10                             120    0.40 8  234 235 
 NOR  HZ I        1949 23.35        21.8 0.20            121            234 235 
 SML  HZ EP       1948 51.73                             118   -0.22 8  246 335 
 SML  HN ES       1949 21.40                             118    0.39 8  246 335 
 SML  HZ I        1949 25.49        23.8 0.22            120            246 335 
 GUY2CHZ EP   4   1949  0.01                             113    1.56 0  300 235 
 GUY2CHN ES   4   1949 35.04                             113    2.45 0  300 235 
 GUY2CHZ I        1949 40.91         9.6 0.52                           300 235 
                                                                                
