 2013 10 6 1158 21.1 L   6.790 -73.150149.3  RSN  8 0.4 1.7LRSN                1
 GAP=138        0.93       4.1     4.4  6.1  0.2039E+01 -0.2056E+01 -0.7042E+01E
 Epicentro: LOS SANTOS - SANTANDER                                             3
 ACTION:UPD 13-11-25 09:19 OP:ep   STATUS:               ID:20131006115821 L   I
 OLDACT:REG 13-10-06 16:06 OP:stll STATUS:               ID:20131006114836     3
 2013-10-06-1148-36M.COL___232                                                 6
 STAT SP IPHASW D HRMM SECON CODA AMPLIT PERI AZIMU VELO AIN AR TRES W  DIS CAZ7
 BAR2 SZ EP       1158 41.23                             171    0.1110 22.1 189 
 BAR2 SZ ES       1158 56.47                             171   -0.2710 22.1 189 
 BAR2 SZ I        1158 57.76        11.4 0.34            168           22.1 189 
 BRR  HZ EP       1158 43.09                             153    0.4710 71.3 300 
 BRR  HN ES       1158 59.97                             153    0.5510 71.3 300 
 RUS  HZ EP       1158 44.68                             145   -0.4210 99.5 176 
 RUS  HN ES       1159  3.65                             145   -0.1910 99.5 176 
 PTB  HZ EP       1158 48.24                             133   -0.04 9  147 259 
 PTB  HN ES       1159  9.09                             133   -0.40 9  147 259 
 PTB  HZ I        1159 14.48         4.2 0.42            131            147 259 
 CAPV BZ EP       1158 48.91                             132    0.04 9  150  38 
 SPBC HZ EP       1158 50.29                             130    0.55 9  162 219 
 SPBC HE ES       1159 12.35                             130    0.25 9  162 219 
 SPBC HZ I        1159 17.10         5.7 0.22            128            162 219 
 ZAR  HN ES       1159 18.80                             123   -0.44 9  204 292 
 SML  HZ EP       1158 57.63                             118   -0.37 8  245 336 
                                                                                
