 2013 12 6 2301 55.4 L   6.801 -73.166145.6  RSN  5 0.3 1.6LRSN                1
 GAP=134        0.73       3.0     4.4  7.7 -0.3613E+01  0.1702E+02 -0.6841E+01E
 Epicentro: LOS SANTOS - SANTANDER                                             3
 ACTION:UPD 14-01-13 10:16 OP:ep   STATUS:               ID:20131206230155 L   I
 OLDACT:UP  13-12-07 01:11 OP:mh   STATUS:               ID:20131206230000     3
 OLDACT:REG 13-12-06 23:33 OP:mh   STATUS:               ID:20131206230000     3
 2013-12-06-2300-00M.COL___285                                                 6
 STAT SP IPHASW D HRMM SECON CODA AMPLIT PERI AZIMU VELO AIN AR TRES W  DIS CAZ7
 PAM  SZ EP   1   23 2 17.94                             150    0.29 7 78.8  41 
 PAM  SE ES       23 2 35.29                             150    0.2710 78.8  41 
 RUS  HZ EP       23 2 18.97                             144   -0.1510  101 175 
 RUS  HN ES       23 2 37.33                             144   -0.3110  101 175 
 RUS  HZ I        23 2 39.42         3.3 0.22            147            101 175 
 PTB  HZ EP   1   23 2 21.84                             132   -0.28 7  146 259 
 PTB  HN ES   1   23 2 42.94                             132   -0.04 7  146 259 
 PTB  HZ I        23 2 47.64         3.1 0.06            132            146 259 
 NOR  HE ES       23 2 59.16                             119    0.56 8  233 234 
 NOR  HZ I        23 3  2.84         3.4 0.11            120            233 234 
 SML  HZ EP       23 2 32.03                             117    0.16 8  243 336 
 SML  HN ES       23 2 59.90                             117   -0.45 8  243 336 
 SML  HZ I        23 3  3.59         8.5 0.07            119            243 336 
                                                                                
