 2016 12 6 2230 41.2 L   6.793 -73.168147.6  RSN  8 0.3 1.9LRSN                1
 GAP=134        0.66       2.8     2.7  4.1 -0.2417E+00  0.3497E+01  0.9533E+00E
 Epicentro: LOS SANTOS - SANTANDER                                             3
 ACTION:UPD 17-01-11 20:12 OP:rebc STATUS:               ID:20161206223041 L   I
 OLDACT:UP  16-12-07 05:52 OP:dani STATUS:               ID:20161206222744     3
 OLDACT:UP  16-12-07 05:52 OP:dani STATUS:               ID:20161206222744     3
 OLDACT:REG 16-12-07 03:12 OP:dani STATUS:               ID:20161206222744     3
 2016-12-06-2228-00M.COL___367                                                 6
 STAT SP IPHASW D HRMM SECON CODA AMPLIT PERI AZIMU VELO AIN AR TRES W  DIS CAZ7
 BAR2 EZ EP       2231  0.97                             171   -0.0410 22.3 184 
 BAR2 EZ ES       2231 16.35                             171   -0.1210 22.3 184 
 BAR2 EZ I        2231 18.53        12.2 0.25            166           22.3 184 
 BRR  HZ EP       2231  2.66                             153    0.2310 69.4 300 
 BRR  HE ES       2231 19.11                             153    0.1110 69.4 300 
 BRR  HZ I        2231 23.36        15.4 0.17            152           69.4 300 
 PAM  EZ EP       2231  3.61                             150   -0.1010 79.5  41 
 PAM  EN ES       2231 21.47                             150    0.1810 79.5  41 
 RUS  HZ EP       2231  5.42                             144    0.3510  100 175 
 RUS  HE ES       2231 23.48                             144   -0.2310  100 175 
 PTB  HZ EP       2231  7.52                             133   -0.55 9  145 259 
 PTB  HN ES       2231 28.70                             133   -0.34 9  145 259 
 PTB  HZ I        2231 35.60         8.5 0.40            132            145 259 
 ZAR  HZ EP       2231 13.46                             123   -0.08 9  202 293 
 ZAR  HN ES       2231 38.87                             123    0.09 9  202 293 
 ZAR  HZ I        2231 44.15        10.9 0.37            124            202 293 
 NOR  HZ EP       2231 16.79                             119    0.03 8  232 234 
 NOR  HN ES       2231 45.04                             119    0.53 8  232 234 
 NOR  HZ I        2231 50.07         5.9 0.18            119            232 234 
 CHI  HZ EP   3   2231 18.28                             118   -0.56 2  247 195 
 CHI  HN ES   2   2231 48.42                             118    0.21 4  247 195 
 CHI  HZ I        2231 58.19         3.1 0.30            118            247 195 
 GUY2CHZ EP   4   2231 26.86                             113    2.26 0  299 235 
                                                                                
