 2010  7 6 2109 15.5 L   6.816 -73.126143.5  RSN 20 0.5 3.6LRSN                1
 GAP=127        0.90       2.9     5.1  5.8 -0.5326E+01  0.8936E+01  0.3280E+01E
 Epicentro: LOS SANTOS - SANTANDER                                             3
 ACTION:UPD 10-12-01 15:15 OP:pat  STATUS:               ID:20100706210915 L   I
 2010-07-06-2107-24S.COL___118                                                 6
 STAT SP IPHASW D HRMM SECON CODA AMPLIT PERI AZIMU VELO AIN AR TRES W  DIS CAZ7
 BAR2 SZ IP       21 9 34.87                             169    -0.110   26 194 
 BAR2 SZ ES   2   21 9 49.29                             169    -0.8 5   26 194 
 BAR2 SZ I        21 9 50.95       939.9 0.29                            26 194 
 BRR  HZ IP     D 21 9 36.76                             152     0.310   72 297 
 BRR  HE ES   2   21 9 53.27                             152     0.4 5   72 297 
 BRR  HZ I        21 9 58.12      1114.4 0.18                            72 297 
 BTN  SZ IP       21 9 37.15                             150    -0.110   78   2 
 BTN  SZ ES   2   21 9 53.49                             150    -0.8 5   78   2 
 RUS  HZ IP     C 21 9 38.77                             143    -0.410  102 177 
 RUS  HE ES   1   21 9 57.19                             143    -0.4 7  102 177 
 RUS  HZ I        21 9 58.66       442.5 0.42                           102 177 
 BRI  SZ IP       21 9 39.48                             141     0.510  106  20 
 BRI  SZ ES   1   21 9 57.78                             141     0.4 7  106  20 
 GRA  SZ IP       21 9 40.77                             137     0.410  123  17 
 GRA  SZ ES   1   21 9 59.97                             137     0.2 7  123  17 
 OCA  SZ IP       21 9 43.37                             129    -0.1 9  159 352 
 OCA  SZ ES   1   2110  5.10                             129    -0.3 7  159 352 
 OCA  SZ I        2110  8.89       562.7 0.31                           159 352 
 CHI  HZ EP       21 9 53.02                             116    -0.3 8  251 196 
 CHI  HE ES   2   2110 22.87                             116     0.0 4  251 196 
 ROSC BZ EP       21 9 54.59                             116     0.8 8  255 211 
 ROSC BN ES   2   2110 23.62                             116     0.0 4  255 211 
 ROSC BZ I        2110 32.77       133.7 0.40                           255 211 
 HEL  HZ EP   2   21 9 55.87                             114     0.0 4  275 256 
 HEL  HZ I        2110 33.28       180.5 0.57                           275 256 
 CVER SZ EP   1   21 9 56.32                             114     0.3 6  275 203 
 HEL  HE ES   3   2110 27.56                             114     0.2 2  275 256 
 GUY  HZ EP   1   21 9 59.34                             111     0.0 5  304 235 
 GUY  HN ES   2   2110 33.81                             111     0.3 4  304 235 
 RREF HZ EP   2   2110  2.09                             110     0.2 3  325 229 
 RREF HE ES   2   2110 38.91                             110     0.9 3  325 229 
 RREF HZ I        2110 47.66       184.5 0.48                           325 229 
 DBB  SZ EP       2110  3.13                             109     0.0 7  341 274 
 TOL  SZ EP       2110  4.18                             109     0.2 6  346 225 
 MON  HZ IP   2   2110  2.69                             108    -1.8 3  353 308 
 MON  HE ES   1   2110 41.47                             108    -1.2 5  353 308 
 MON  HZ I        2110 42.05        69.9 0.24                           353 308 
 SDV  BZ EP       2110  4.55                             108    -0.6 6  358  50 
 SDV  BZ I        2110  5.39       104.5 0.38                           358  50 
 ANIL HZ EP       2110  6.06                             108     0.5 6  360 225 
 ANIL HE ES   2   2110 44.71                             108     0.1 3  360 225 
 ANIL HZ I        2110 53.00       283.7 0.34                           360 225 
 PRA  HZ EP       2110  8.50                             106    -0.8 6  395 210 
 PRA  HE ES   2   2110 51.40                             106     0.2 3  395 210 
 PRA  HZ I        2110 57.81       165.9 0.35                           395 210 
 SOTA HZ EP   2   2110 39.91                              98     0.1 1  646 217 
 SOTA HE ES   3   2111 45.60                              98     0.0 1  646 217 
                                                                                
