 2013  1 6 2013 24.1 L   6.728 -73.193149.7  RSN  4 0.3 1.3LRSN                1
 GAP=226        0.70       7.6     7.8  9.0  0.3148E+02  0.3745E+01  0.3481E+01E
 Epicentro: VILLANUEVA - SANTANDER                                             3
 ACTION:UPD 13-02-15 09:12 OP:ep   STATUS:               ID:20130106201324 L   I
 2013-01-06-2010-00M.COL___242                                                 6
 STAT SP IPHASW D HRMM SECON CODA AMPLIT PERI AZIMU VELO AIN AR TRES W  DIS CAZ7
 BAR2 SZ ES   1   2013 59.16                             174   -0.51 7 15.0 176 
 BRR  HZ EP   1   2013 45.48                             153   -0.21 7 71.1 306 
 BRR  HN ES   1   2014  3.03                             153    0.52 7 71.1 306 
 BRR  HZ I        2014  5.07         3.8 0.46            152           71.1 306 
 RUS  HZ EP   1   2013 47.87                             147    0.12 7 93.2 173 
 RUS  HN ES   1   2014  6.44                             147    0.26 7 93.2 173 
 RUS  HZ I        2014  7.13         2.3 0.30            148           93.2 173 
 PTB  HN ES   1   2014 11.48                             134   -0.20 7  141 262 
 PTB  HZ I        2014 14.24         2.5 0.19            134            141 262 
                                                                                
