 2010  1 6 2006 44.0 L   6.833 -73.198141.7  RSN  5 0.3 2.0LRSN                1
 GAP=172        0.50       5.2    16.4  8.3 -0.1303E+02  0.6881E+02  0.1142E+02E
 Epicentro: ZAPATOCA - SANTANDER                                               3
 ACTION:UP  10-08-24 09:42 OP:vdl  STATUS:               ID:20100106200644 L   I
 2010-01-06-2000-00S.COL___096                                                 6
 STAT SP IPHASW D HRMM SECON CODA AMPLIT PERI AZIMU VELO SNR AR TRES W  DIS CAZ7
 BAR2 SZ ES   2   20 7 17.61                             169    -0.6 5   27 177 
 GIR2 SZ EP   2   20 7  3.21                             169     0.1 5   27   1 
 GIR2 SZ ES   2   20 7 18.33                             169     0.3 5   27   1 
 RUS  BZ EP   2   20 7  7.74                             142     0.0 5  105 173 
 RUS  BE ES   1   20 7 26.33                             142     0.2 7  105 173 
 RUS  BZ I        20 7 27.02        14.8 0.18                           105 173 
 CHI  HZ EP   2   20 7 21.37                             116    -0.4 4  251 194 
 CHI  HE ES   2   20 7 51.13                             116     0.0 4  251 194 
 CHI  HZ I        20 7 54.33         6.6 0.47                           251 194 
 PRA  HN ES   2   20 8 19.48                             106     0.3 3  392 209 
                                                                                
