 2012  4 6 2223 28.2 L   6.760 -73.137151.5  RSN  8 0.4 1.8LRSN                1
 GAP=183        0.93       4.4     6.5  8.8 -0.2576E+00  0.5438E+01  0.1957E+00E
 Epicentro: LOS SANTOS - SANTANDER                                             3
 ACTION:UPD 12-07-05 11:51 OP:tino STATUS:               ID:20120406222328 L   I
 2012-04-06-2220-00M.COL___196                                                 6
 STAT SP IPHASW D HRMM SECON CODA AMPLIT PERI AZIMU VELO AIN AR TRES W  DIS CAZ7
 BAR2 SZ EP   2   2223 48.52                             172     0.1 5   19 195 
 BAR2 SZ ES   1   2224  3.80                             172    -0.4 7   19 195 
 BAR2 SZ I        2224  5.35        11.0 0.25                            19 195 
 BRR  HZ EP   1   2223 50.45                             152     0.3 7   74 301 
 BRR  HE ES   1   2224  7.91                             152     0.7 7   74 301 
 BRR  HZ I        2224  9.50        17.0 0.18                            74 301 
 RUS  HZ EP   1   2223 52.45                             146     0.2 7   96 176 
 RUS  HN ES   2   2224 11.01                             146     0.1 5   96 176 
 PTB  HZ EP   1   2223 54.88                             133    -0.8 7  148 261 
 PTB  HN ES   1   2224 16.36                             133    -0.7 7  148 261 
 PTB  HZ I        2224 23.86         6.7 0.28                           148 261 
 OCA  SZ EP   1   2223 57.56                             130     0.2 7  165 353 
 OCA  SZ ES   1   2224 19.82                             130    -0.3 7  165 353 
 ZAR  HZ EP   2   2224  0.97                             123    -0.3 4  207 293 
 ZAR  HN ES   1   2224 27.44                             123     0.4 6  207 293 
 ZAR  HZ I        2224 37.37         6.8 0.47                           207 293 
 NOR  SN ES   1   2224 32.56                             120     0.5 6  233 235 
 CHI  HN ES   1   2224 35.16                             119     0.0 6  245 196 
 CHI  HZ I        2224 45.37         3.6 0.32                           245 196 
                                                                                
