 2012  7 6 2035 54.4 L   6.772 -73.142143.9  RSN 11 0.4 2.2LRSN                1
 GAP=138        0.96       4.4     4.8  7.0 -0.1738E+01  0.7310E+01  0.9127E+01E
 Epicentro: LOS SANTOS - SANTANDER                                             3
 ACTION:UPD 12-08-14 11:43 OP:ep   STATUS:               ID:20120706203554 L   I
 2012-07-06-2030-00M.COL___201                                                 6
 STAT SP IPHASW D HRMM SECON CODA AMPLIT PERI AZIMU VELO AIN AR TRES W  DIS CAZ7
 BAR2 SZ IP       2036 13.83                             172     0.110   20 193 
 BAR2 SZ ES   1   2036 28.56                             172    -0.3 7   20 193 
 BAR2 SZ I        2036 30.18        52.5 0.18            162             20 193 
 BRR  HZ IP     C 2036 15.68                             152     0.210   73 301 
 BRR  HN ES   1   2036 32.56                             152     0.7 7   73 301 
 BRR  HZ I        2036 35.05        36.7 0.18            140             73 301 
 PAM  SZ EP       2036 16.67                             150     0.110   80  38 
 PAM  SZ I        2036 16.93        15.7 0.22            149             80  38 
 PAM  SN ES   1   2036 33.72                             150    -0.1 7   80  38 
 RUS  HZ EP       2036 17.72                             144     0.010   97 176 
 RUS  HN ES   1   2036 36.08                             144     0.1 7   97 176 
 RUS  HZ I        2036 37.79        12.2 0.34            135             97 176 
 PTB  HZ EP       2036 20.56                             132    -0.7 9  148 260 
 PTB  HN ES   1   2036 41.50                             132    -0.6 7  148 260 
 PTB  HZ I        2036 45.55        11.1 0.44            120            148 260 
 ZAR  HN ES   1   2036 52.02                             122    -0.2 6  206 293 
 NOR  SZ EP       2036 30.31                             118     0.4 8  233 235 
 NOR  SE ES   1   2036 58.15                             118     0.6 6  233 235 
 CHI  HZ EP   1   2036 31.17                             117    -0.5 6  246 195 
 CHI  HN ES   1   2037  0.70                             117    -0.1 6  246 195 
 CHI  HZ I        2037  8.25         7.7 0.32            109            246 195 
 ROSC BE ES   2   2037  1.09                             116    -0.5 4  250 211 
 ROSC BZ I        2037 14.23        13.4 0.30            108            250 211 
 HEL  HZ EP   3   2036 35.87                             114     1.4 2  272 256 
 HEL  HZ I        2037 11.77         6.6 0.44            106            272 256 
 PRA  HZ EP       2036 47.79                             106     0.2 6  389 210 
 PRA  HN ES   2   2037 30.25                             106     1.2 3  389 210 
 PRA  HZ I        2037 36.34        19.8 0.38            100            389 210 
