 2014  8 6 2351 56.9 L   6.821 -73.138144.4  RSN 10 0.4 1.9LRSN                1
 GAP=136        1.06       3.5     4.7  6.7 -0.1881E+01  0.9311E+01 -0.2455E+01E
 Epicentro: LOS SANTOS - SANTANDER                                             3
 ACTION:UPD 14-09-15 21:47 OP:nd   STATUS:               ID:20140806235156 L   I
 OLDACT:UP  14-08-07 03:53 OP:mh   STATUS:               ID:20140806234817     3
 OLDACT:REG 14-08-07 03:17 OP:mh   STATUS:               ID:20140806234817     3
 2014-08-06-2348-17M.COL___263                                                 6
 STAT SP IPHASW D HRMM SECON CODA AMPLIT PERI AZIMU VELO AIN AR TRES W  DIS CAZ7
 BAR2 SZ EP       2352 16.65                             169    0.2310 25.8 191 
 BAR2 SZ ES       2352 31.73                             169    0.0910 25.8 191 
 BAR2 SZ I        2352 32.53        19.9 0.28            172           25.8 191 
 BRR  HZ EP   1   2352 18.41                             152    0.53 7 70.9 297 
 BRR  HN ES       2352 34.78                             152    0.5310 70.9 297 
 BRR  HZ I        2352 40.54        12.8 0.20            150           70.9 297 
 PAM  SZ EP       2352 19.56                             151    0.7310 75.0  40 
 PAM  SN ES       2352 35.74                             151   -0.1910 75.0  40 
 PAM  SZ I        2352 39.82        12.4 0.30            153           75.0  40 
 RUS  HZ EP   1   2352 20.86                             143    0.17 7  103 177 
 RUS  HN ES       2352 38.69                             143   -0.5510  103 177 
 RUS  HZ I        2352 42.51         5.7 0.42            148            103 177 
 PTB  HZ EP   1   2352 23.15                             131   -0.73 7  149 258 
 PTB  HN ES       2352 44.47                             131   -0.45 9  149 258 
 PTB  HZ I        2352 47.14         9.0 0.10            132            149 258 
 OCA  HN ES       2352 45.98                             130   -0.75 9  158 353 
 OCA  HZ I        2352 53.87        13.9 0.27            130            158 353 
 SPBC HZ EP       2352 25.55                             128    0.03 9  166 219 
 SPBC HN ES   4   2352 47.44                             128   -0.41 0  166 219 
 ZAR  HZ EP   1   2352 29.03                             122   -0.22 6  204 291 
 ZAR  HN ES   1   2352 55.19                             122    0.71 6  204 291 
 ZAR  HZ I        2353  1.05        10.6 0.06            123            204 291 
 NOR  HN ES       2353  0.96                             118    0.20 8  237 234 
 NOR  HZ I        2353  4.91         7.5 0.20            120            237 234 
 SML  HZ EP       2352 33.01                             117   -0.25 8  242 335 
 SML  HN ES       2353  1.53                             117   -0.08 8  242 335 
 SML  HZ I        2353 10.83        17.0 0.07            118            242 335 
                                                                                
