 2011 10 6 2110 39.5 L   6.808 -73.132142.5  RSN  7 0.2 1.8LRSN                1
 GAP=138        0.47       3.4     3.3  4.5  0.1098E-01 -0.1583E+00  0.2372E+01E
 Epicentro: LOS SANTOS - SANTANDER                                             3
 ACTION:UPD 12-07-13 16:02 OP:ep   STATUS:               ID:20111006211039 L   I
 2011-10-06-2100-00M.COL___171                                                 6
 STAT SP IPHASW D HRMM SECON CODA AMPLIT PERI AZIMU VELO AIN AR TRES W  DIS CAZ7
 BAR2 SZ EP       2110 58.68                             170   -0.1210 24.5 193 
 BAR2 SZ I        2110 59.34         9.4 0.16                          24.5 193 
 BAR2 SZ ES   1   2111 13.64                             170   -0.18 7 24.5 193 
 GIR2 SZ EP       2110 58.66                             167   -0.1410 30.7 347 
 BRR  HZ EP       2111  0.33                             152   -0.0510 72.1 297 
 BRR  HZ I        2111  0.82        18.3 0.15                          72.1 297 
 BRR  HE ES       2111 16.90                             152    0.2610 72.1 297 
 PAM  SZ EP   1   2111  1.65                             151    0.35 7 75.7  39 
 PAM  SN ES   1   2111 18.15                             151   -0.13 7 75.7  39 
 RUS  HZ EP   1   2111  3.24                             143    0.21 7  101 177 
 RUS  HN ES   2   2111 21.38                             143    0.03 5  101 177 
 ZAR  HN ES   2   2111 36.61                             121   -0.50 4  205 292 
 ZAR  HZ I        2111 42.04         5.8 0.40                           205 292 
 NOR  SE ES   2   2111 43.14                             118    0.00 4  236 234 
                                                                                
