 2011  7 6 2342 12.9 L   6.820 -73.153143.9  RSN  9 0.5 1.9LRSN                1
 GAP=146        0.99       6.5     7.8  7.3 -0.2708E+02  0.1353E+02  0.4480E+01E
 Epicentro: LOS SANTOS - SANTANDER                                             3
 ACTION:UPD 12-07-25 13:58 OP:epov STATUS:               ID:20110706234212 L   I
 2011-07-06-2340-00M.COL___123                                                 6
 STAT SP IPHASW D HRMM SECON CODA AMPLIT PERI AZIMU VELO AIN AR TRES W  DIS CAZ7
 BTL  SZ EP       2342 32.60                             172    0.4010 16.7 311 
 BAR2 SZ EP       2342 32.09                             170   -0.2710 25.4 187 
 BAR2 SZ ES   1   2342 47.00                             170   -0.54 7 25.4 187 
 BAR2 SZ I        2342 48.60        16.4 0.48                          25.4 187 
 BRR  HZ EP       2342 34.14                             152    0.3810 69.4 297 
 BRR  HN ES   1   2342 50.61                             152    0.59 7 69.4 297 
 BRR  HZ I        2342 54.93        18.3 0.14                          69.4 297 
 PAM  SZ EP       2342 34.93                             151    0.0710 76.2  41 
 PAM  SN ES   1   2342 52.14                             151    0.16 7 76.2  41 
 BRI  SZ EP       2342 36.57                             142    0.0910  107  22 
 BRI  SZ ES   2   2342 54.64                             142   -0.23 5  107  22 
 OCA  SZ EP       2342 40.50                             130   -0.35 9  158 353 
 OCA  SZ ES   2   2343  0.97                             130   -1.68 5  158 353 
 OCA  SZ I        2343  6.75        11.3 0.20                           158 353 
 NOR  SZ EP       2342 48.16                             118   -0.44 8  235 234 
 NOR  SN ES   2   2343 15.91                             118   -0.53 4  235 234 
 HEL  HZ EP       2342 53.72                             114    0.72 8  272 255 
 PRA  HZ EP       2343  6.21                             106   -0.34 6  394 209 
                                                                                
