 2016  9 6 2137 40.4 L   6.791 -73.151150.4  RSN 17 0.4 2.5LRSN                1
 GAP=100        0.98       3.4     2.9  5.2 -0.7240E+00  0.3137E+01  0.2786E+01E
 Epicentro: LOS SANTOS - SANTANDER                                             3
 ACTION:UPD 17-08-17 21:07 OP:lp   STATUS:               ID:20160906213740 L   I
 OLDACT:UP  16-09-07 03:07 OP:drio STATUS:               ID:20160906212736     3
 OLDACT:UP  16-09-07 03:06 OP:drio STATUS:               ID:20160906212736     3
 OLDACT:UP  16-09-07 03:06 OP:drio STATUS:               ID:20160906212736     3
 OLDACT:REG 16-09-07 02:49 OP:drio STATUS:               ID:20160906212736     3
 2016-09-06-2128-00M.COL___358                                                 6
 STAT SP IPHASW D HRMM SECON CODA AMPLIT PERI AZIMU VELO AIN AR TRES W  DIS CAZ7
 BAR2 EZ IP     C 2138  0.51                             171   -0.1010 22.2 189 
 BAR2 EZ ES       2138 16.34                             171    0.0110 22.2 189 
 BAR2 EZ I        2138 17.24        67.0 0.24            169           22.2 189 
 BRR  HZ EP     C 2138  2.41                             153    0.3210 71.2 299 
 BRR  HE ES       2138 19.94                             153    0.9710 71.2 299 
 BRR  HZ I        2138 26.01        51.2 0.34            148           71.2 299 
 PAM  EZ IP     C 2138  3.28                             151    0.0610 78.5  39 
 PAM  EE ES       2138 20.88                             151   -0.1010 78.5  39 
 PAM  EZ I        2138 22.77        39.2 0.62            154           78.5  39 
 RUS  HZ EP       2138  4.33                             145   -0.2510 99.6 176 
 RUS  HE ES       2138 22.89                             145   -0.5210 99.6 176 
 RUS  HZ I        2138 26.77        18.3 0.52            146           99.6 176 
 PTB  HZ EP       2138  7.08                             133   -0.64 9  147 259 
 PTB  HN ES       2138 28.63                             133   -0.37 9  147 259 
 PTB  HZ I        2138 30.59        42.9 0.36            130            147 259 
 TAM  HZ EP       2138  8.60                             131    0.08 9  155 105 
 TAM  HE ES       2138 30.52                             131    0.11 9  155 105 
 SPBC HZ EP       2138  9.39                             130    0.20 9  162 219 
 SPBC HN ES       2138 31.47                             130   -0.14 9  162 219 
 SPBC HZ I        2138 34.32        67.3 0.28            129            162 219 
 ZAR  HZ EP       2138 13.21                             123    0.03 9  204 292 
 ZAR  HE ES       2138 37.90                             123   -0.81 9  204 292 
 ZAR  HZ I        2138 45.58        52.9 0.30            121            204 292 
 NOR  HZ EP       2138 16.48                             120    0.15 8  234 235 
 NOR  HE ES       2138 44.64                             120    0.32 8  234 235 
 NOR  HZ I        2138 52.24        23.3 0.26            118            234 235 
 CHI  HZ EP       2138 18.51                             118    0.23 8  248 195 
 CHI  HN ES       2138 47.73                             118   -0.06 8  248 195 
 CHI  HZ I        2138 57.56        14.5 0.50            118            248 195 
 ROSC BZ EP   4   2138 21.54                             118    2.85 0  252 211 
 ROSC BN ES   4   2138 50.87                             118    2.34 0  252 211 
 ROSC BZ I        2138 54.10        32.2 0.40            117            252 211 
 HEL  HZ EP   4   2138 22.53                             116    1.72 0  271 256 
 HEL  HN ES   4   2138 53.57                             116    1.28 0  271 256 
 HEL  HZ I        2139  4.39        13.3 0.22            114            271 256 
 URE  HE ES   4   2138 51.51                             114   -2.41 0  284 292 
 URE  HZ I        2139  4.76        25.1 0.28            113            284 292 
 GUY2CHZ EP   4   2138 25.75                             113    1.60 0  300 235 
 GUY2CHN ES   4   2139  2.97                             113    4.73 0  300 235 
 GUY2CHZ I        2139  8.44        14.3 0.40                           300 235 
 ELA  HZ EP   4   2138 30.26                             111    2.89 0  328 230 
 ELA  HN ES       2139  4.76                             111    0.79 7  328 230 
 ELA  HZ I        2139 12.96        14.7 0.44            111            328 230 
 DBB  EZ EP       2138 28.20                             110    0.15 7  339 274 
 DBB  EZ ES   4   2139  1.99                             110   -3.20 0  339 274 
 DBB  EZ I        2139  8.82         9.4 0.76            109            339 274 
 SJC  HZ EP   4   2138 34.70                             106   -1.52 0  410 327 
 SJC  HE ES   4   2139 15.86                             106   -3.87 0  410 327 
 SJC  HZ I        2139 32.89         4.7 0.48            106            410 327 
                                                                                
