 2013  2 6 2323  7.1 L   6.774 -73.128151.2  RSN  9 0.5 2.3LRSN 2.8WRSN        1
 SPEC AVERAGE  MO 13.3 ST  5.0 OM  1.9 f0 4.64 R0.3534 AL 2.32 WI 18.0 MW  2.8 3
 SPEC SD       MO  0.2 ST  5.4 OM  0.6 f0 1.33 R0.1341 AL      WI      MW  0.1 3
 GAP=140        1.14       3.7     5.4  7.1  0.3934E+00  0.5443E+01  0.1015E+01E
 Epicentro: LOS SANTOS - SANTANDER                                             3
 SPEC ZAR HH N MO 13.6 ST 15.6 OM  1.8 f0 6.54 R0.2248 AL 3.20 WI 20.3 MW  3.0 3
 SPEC ZAR HH N T2324 5 K 0.000 GD  256 VS 4.20 DE 3.20 Q0300.0 QA 0.60 VS 4.20 3
 SPEC PTB HH N MO 13.3 ST  3.0 OM  1.6 f0 4.68 R0.3141 AL 1.35 WI 14.3 MW  2.8 3
 SPEC PTB HH N T232355 K 0.000 GD  212 VS 4.20 DE 3.20 Q0300.0 QA 0.60 VS 4.20 3
 SPEC PAM SH Z MO 13.3 ST  2.6 OM  0.9 f0 4.53 R0.3245 AL 2.01 WI 15.5 MW  2.8 3
 SPEC PAM SH Z T232330 K 0.000 GD  170 VP 7.60 DE 3.20 Q0300.0 QA 0.60 VS 4.20 3
 SPEC CHI HH N MO 13.1 ST0.218 OM  1.2 f0 2.40 R0.6125 AL 2.10 WI 11.5 MW  2.6 3
 SPEC CHI HH N T232413 K 0.000 GD  288 VS 4.20 DE 3.20 Q0300.0 QA 0.60 VS 4.20 3
 SPEC BRR HH N MO 13.3 ST  3.7 OM  1.7 f0 5.05 R0.2911 AL 2.96 WI 28.5 MW  2.8 3
 SPEC BRR HH N T232345 K 0.000 GD  168 VS 4.20 DE 3.20 Q0300.0 QA 0.60 VS 4.20 3
 ACTION:UPD 13-03-12 09:31 OP:ep   STATUS:               ID:20130206232307 L   I
 2013-02-06-2318-52M.COL___181                                                 6
 STAT SP IPHASW D HRMM SECON CODA AMPLIT PERI AZIMU VELO AIN AR TRES W  DIS CAZ7
 BAR2 SZ IP       2323 27.39                             172    0.0610 20.9 197 
 BAR2 SZ I        2323 27.71        33.3 0.32            170           20.9 197 
 BAR2 SZ ES   1   2323 43.06                             172   -0.05 7 20.9 197 
 BRR  HZ IP     C 2323 29.25                             152    0.2410 74.4 300 
 BRR  HN ES       2323 46.92                             152    0.8210 74.4 300 
 BRR  HN I        2323 47.63        50.3 0.18            151           74.4 300 
 PAM  SZ EP       2323 30.16                             151    0.2110 78.4  37 
 PAM  SZ I        2323 30.37        22.6 0.20            154           78.4  37 
 PAM  SN ES       2323 47.38                             151   -0.3910 78.4  37 
 RUS  HZ EP       2323 31.18                             146    0.0110 97.5 177 
 RUS  HN ES       2323 49.45                             146   -0.5010 97.5 177 
 RUS  HN I        2323 50.54        13.7 0.34            145           97.5 177 
 PTB  HZ EP       2323 34.05                             133   -0.59 9  149 260 
 PTB  HN ES       2323 55.54                             133   -0.58 9  149 260 
 PTB  HN I        2324  0.62        38.0 0.28            132            149 260 
 OCA  HZ EP   2   2323 36.31                             130    0.19 5  163 353 
 OCA  HN ES       2323 59.21                             130    0.45 9  163 353 
 OCA  HN I        2324  1.20        65.4 0.24            131            163 353 
 ZAR  HN ES   1   2324  6.40                             123    0.38 6  207 293 
 CHI  HZ EP       2323 45.53                             118    0.68 8  246 196 
 CHI  HN ES   1   2324 15.03                             118    0.73 6  246 196 
 CHI  HN I        2324 19.32         5.7 0.50            118            246 196 
 SML  HZ EP       2323 43.87                             118   -0.54 8  247 335 
 SML  HE ES   1   2324 12.59                             118   -0.92 6  247 335 
                                                                                
