 2012  2 6 2156 41.3 L   6.786 -73.147145.4  RSN 13 0.4 2.9LRSN                1
 GAP=114        0.75       2.5     3.0  4.5  0.3231E-01  0.4424E+01  0.2120E+01E
 ACTION:UP  12-03-07 16:28 OP:epov STATUS:               ID:20120206215641 L   I
 2012-02-06-2150-00M.COL___188                                                 6
 STAT SP IPHASW D HRMM SECON CODA AMPLIT PERI AZIMU VELO SNR AR TRES W  DIS CAZ7
 BAR2 SZ IP       2157  0.90                             171    0.0410 21.8 190 
 BAR2 SZ ES   1   2157 15.83                             171   -0.29 7 21.8 190 
 BAR2 SZ I        2157 17.78       183.8 0.27                          21.8 190 
 GIR2 SZ EP       2157  0.99                             167    0.0110 32.8 351 
 GIR2 SZ ES   1   2157 16.12                             167   -0.20 7 32.8 351 
 BRR  HZ IP     C 2157  2.79                             152    0.3410 71.8 300 
 BRR  HN ES   1   2157 19.85                             152    0.91 7 71.8 300 
 BRR  HZ I        2157 21.65       134.3 0.47                          71.8 300 
 PAM  SZ EP       2157  3.70                             150    0.1410 78.7  39 
 PAM  SE ES       2157 20.70                             150   -0.2210 78.7  39 
 RUS  HZ EP       2157  4.75                             144   -0.1610 99.1 176 
 RUS  HN ES       2157 23.49                             144    0.1610 99.1 176 
 RUS  HZ I        2157 26.26       104.2 0.49                          99.1 176 
 PTB  HZ EP       2157  7.57                             132   -0.63 9  147 259 
 PTB  HE ES   1   2157 28.91                             132   -0.27 7  147 259 
 OCA  SZ EP   1   2157  9.76                             129    0.03 7  162 353 
 OCA  SZ ES       2157 31.88                             129   -0.02 9  162 353 
 YOP  SZ EP   1   2157 11.52                             126    0.33 7  178 153 
 YOP  SE ES   1   2157 34.46                             126   -0.05 7  178 153 
 YOP  SZ I        2157 36.92        48.8 0.24                           178 153 
 ZAR  HZ EP   1   2157 13.19                             122   -0.58 6  204 293 
 ZAR  HE ES   1   2157 38.86                             122   -0.23 6  204 293 
 ZAR  HZ I        2157 46.43        82.1 0.33                           204 293 
 NOR  SZ EP   1   2157 16.78                             118   -0.12 6  234 235 
 NOR  SE ES   1   2157 44.37                             118   -0.30 6  234 235 
 HEL  HZ EP   1   2157 22.22                             115    0.78 6  272 256 
 HEL  HE ES   1   2157 53.28                             115    0.54 6  272 256 
 HEL  HZ I        2157 59.14        45.4 0.27                           272 256 
 TOL  SZ EP   1   2157 30.10                             109    0.69 5  342 225 
 PRA  HZ EP   1   2157 34.50                             106   -0.15 4  391 210 
 PRA  HN ES   1   2158 15.97                             106   -0.28 4  391 210 
                                                                                
