 2011  7 6 2149 33.6 L   6.701 -73.253142.1  RSN  4 0.5 1.5LRSN                1
 GAP=151        1.16      21.3    35.0 18.1  0.5971E+03  0.3806E+02  0.6737E+02E
 Epicentro: BARICHARA - SANTANDER                                              3
 ACTION:UPD 12-07-25 13:58 OP:epov STATUS:               ID:20110706214933 L   I
 2011-07-06-2148-20S.COL___139                                                 6
 STAT SP IPHASW D HRMM SECON CODA AMPLIT PERI AZIMU VELO AIN AR TRES W  DIS CAZ7
 BAR2 SZ EP       2149 51.98                             174   -0.6610 14.4 147 
 BAR2 SZ ES   2   2150  6.91                             174   -0.58 5 14.4 147 
 BAR2 SZ I        2150  8.39         5.8 0.14                          14.4 147 
 BTL  SZ EP       2149 53.61                             169    0.8110 24.1 356 
 BRR  HZ EP       2149 53.82                             153   -0.3410 67.7 312 
 BRR  HN ES   2   2150 10.59                             153    0.40 5 67.7 312 
 BRR  HZ I        2150 13.57        10.8 0.66                          67.7 312 
 RUS  HZ EP       2149 56.54                             146    0.2010 91.4 168 
 RUS  HZ I        2149 57.20         3.6 0.16                          91.4 168 
 RUS  HN ES   3   2150 14.51                             146    0.44 2 91.4 168 
                                                                                
