 2011  2 6 2223 30.6 L   6.786 -73.053148.0  RSN 10 0.5 2.0LRSN                1
 GAP=133        1.00       4.6     9.3  7.3 -0.2062E+02 -0.3762E+01  0.7940E+01E
 Epicentro: LOS SANTOS - SANTANDER                                             3
 ACTION:UP  11-03-28 15:06 OP:jfem STATUS:               ID:20110206222330 L   I
 2011-02-06-2220-07S.COL___137                                                 6
 STAT SP IPHASW D HRMM SECON CODA AMPLIT PERI AZIMU VELO SNR AR TRES W  DIS CAZ7
 BAR2 SZ EP       2223 50.26                             170    -0.310   26 214 
 BAR2 SZ I        2224  6.46        24.6 0.24                            26 214 
 BTL  SZ EP   3   2223 52.06                             169     1.4 2   28 302 
 BTL  SZ ES   1   2224  7.24                             169     1.0 7   28 302 
 GIR2 SZ EP       2223 50.60                             166    -0.110   36 334 
 GIR2 SZ ES   2   2224  5.35                             166    -1.0 5   36 334 
 RUS  HZ IP     C 2223 54.35                             145    -0.110   99 182 
 RUS  HN ES   2   2224 12.29                             145    -0.8 5   99 182 
 RUS  HZ I        2224 14.33         8.1 0.49                            99 182 
 GRA  SZ EP       2223 56.35                             138     0.410  125  13 
 GRA  SZ I        2223 57.59        14.2 0.28                           125  13 
 GRA  SZ ES   1   2224 15.96                             138     0.2 7  125  13 
 OCA  SZ EP       2223 59.25                             130    -0.2 9  163 350 
 OCA  SZ ES   1   2224 21.30                             130    -0.5 7  163 350 
 OCA  SZ I        2224 25.66        16.5 0.19                           163 350 
 NOR  SZ EP       2224  7.02                             118    -0.3 8  242 236 
 NOR  SN ES   3   2224 35.29                             118    -0.6 2  242 236 
 CHI  HZ IP     D 2224  8.69                             117     0.1 8  250 198 
 CHI  HN ES   2   2224 38.92                             117     0.7 4  250 198 
 CHI  HZ I        2224 43.87         5.9 0.32                           250 198 
 RREF HZ EP   1   2224 18.34                             111     0.7 5  329 231 
 RREF HN ES   2   2224 54.95                             111     0.6 3  329 231 
 SDV  BZ IP     C 2224 20.09                             109     0.1 6  354  49 
                                                                                
