 2017  5 6 2008 24.6 L   6.814 -73.165149.2  RSN 10 0.5 2.1LRSN                1
 GAP=110        1.24       4.3     4.4  7.6  0.3077E+01  0.5283E+01  0.8429E+01E
 Epicentro: LOS SANTOS - SANTANDER                                             3
 ACTION:UPD 17-06-16 13:33 OP:jn   STATUS:               ID:20170506200824 L   I
 OLDACT:UP  17-05-07 05:56 OP:dani STATUS:               ID:20170506195743     3
 OLDACT:REG 17-05-07 05:30 OP:dani STATUS:               ID:20170506195743     3
 2017-05-06-1958-00M.COL___370                                                 6
 STAT SP IPHASW D HRMM SECON CODA AMPLIT PERI AZIMU VELO AIN AR TRES W  DIS CAZ7
 BRR  HZ EP       20 8 46.32                             154    0.2910 68.6 298 
 BRR  HN ES       20 9  3.52                             154    0.8210 68.6 298 
 BRR  HZ I        20 9  5.05        15.3 0.32            153           68.6 298 
 PAM  EZ EP       20 8 47.38                             151    0.1410 77.5  41 
 PAM  EE ES       20 9  4.60                             151   -0.2510 77.5  41 
 PAM  EZ I        20 9  6.64        28.0 0.50            155           77.5  41 
 RUS  HZ EP       20 8 48.50                             144   -0.3610  102 175 
 RUS  HE ES       20 9  7.49                             144   -0.2610  102 175 
 RUS  HZ I        20 9  8.19        15.3 0.22            146            102 175 
 PTB  HZ EP       20 8 51.01                             133   -0.73 9  146 258 
 PTB  HN ES       20 9 12.09                             133   -0.79 9  146 258 
 PTB  HZ I        20 9 19.48         9.3 0.54            133            146 258 
 YPLC HZ EP       20 8 54.45                             127   -0.47 9  179 151 
 YPLC HN ES       20 9 18.87                             127    0.33 9  179 151 
 YPLC HZ I        20 9 19.78        20.8 0.32            130            179 151 
 ZAR  HZ EP       20 8 56.80                             123   -0.26 9  202 292 
 ZAR  HN ES       20 9 22.47                             123    0.13 9  202 292 
 ZAR  HZ I        20 9 29.09        10.3 0.26            124            202 292 
 TABC EZ EP       20 9  1.98                             120    1.34 8  230 210 
 NOR  HZ EP       20 9  0.57                             119    0.07 8  234 234 
 NOR  HN ES       20 9 28.52                             119    0.06 8  234 234 
 NOR  HZ I        20 9 29.78         9.1 0.16            120            234 234 
 CHI  HZ EP       20 9  2.81                             118    0.17 8  250 195 
 CHI  HE ES       20 9 32.38                             118    0.10 8  250 195 
 CHI  HZ I        20 9 36.55         5.8 0.47            119            250 195 
 ROSC BZ EP   9   20 9  5.12                             117    2.13 0  253 210 
 ROSC BN ES       20 9 34.57                                   -0.46 8  253 210 
                                                                                
