 2015 11 6 2319 34.2 L   6.556 -73.477116.7  RSN  7 0.4 1.5LRSN                1
 GAP= 86        0.88       3.3     3.7  6.4  0.3496E-01  0.8988E+01 -0.3420E+01E
 Epicentro: EL CARMEN - SANTANDER                                              3
 ACTION:UPD 15-12-28 16:09 OP:cam  STATUS:               ID:20151106231934 L   I
 OLDACT:UP  15-11-07 09:46 OP:mh   STATUS:               ID:20151106231748d    3
 OLDACT:DUP 15-11-07 09:40 OP:mh   STATUS:               ID:20151106231748d    3
 2015-11-06-2317-47M.COL___316                                                 6
 STAT SP IPHASW D HRMM SECON CODA AMPLIT PERI AZIMU VELO AIN AR TRES W  DIS CAZ7
 BAR2 EZ ES       2320  3.57                             163    0.1110 32.8  83 
 BRR  HZ EP       2319 51.70                             148   -0.2810 66.2 337 
 BRR  HN ES       2320  5.75                             148   -0.0810 66.2 337 
 BRR  HZ I        2320 40.64        11.0 0.38            147           66.2 337 
 RUS  HZ EP   1   2319 53.82                             142   -0.19 7 85.3 149 
 RUS  HN ES       2320  9.04                             142   -0.4210 85.3 149 
 RUS  HZ I        2320 10.65         2.7 0.40            168           85.3 149 
 PAM  EZ EP       2319 57.71                             131    0.6010  122  45 
 PAM  EN ES       2320 15.25                             131    0.2710  122  45 
 PAM  EZ I        2320 16.72         3.5 0.30            145            122  45 
 ZAR  HN ES       2320 25.28                             118    0.18 9  184 304 
 GUY2CHN ES       2320 40.84                             110    0.48 8  256 235 
 SML  HZ EP       2320 10.21                             109   -0.67 8  257 345 
 SML  HN ES   1   2320 39.32                             109   -0.17 6  257 345 
 SML  HZ I        2320 45.37         5.4 0.24            120            257 345 
                                                                                
