 2012  1 6 2222 34.7 L   6.801 -73.145141.5  RSN  5 0.2 1.7LRSN                1
 GAP=137        0.56       3.3     3.7  5.6 -0.1834E+01  0.2777E+00  0.6041E+01E
 Epicentro: LOS SANTOS - SANTANDER                                             3
 ACTION:UP  12-02-03 08:14 OP:REBC STATUS:               ID:20120106222234 L   I
 2012-01-06-2220-00M.COL___186                                                 6
 STAT SP IPHASW D HRMM SECON CODA AMPLIT PERI AZIMU VELO SNR AR TRES W  DIS CAZ7
 BRR  HZ EP       2222 55.65                             151     0.310   71 298 
 BRR  HE ES   1   2223 11.73                             151     0.2 7   71 298 
 BRR  HE I        2223 15.77        28.6 0.17                            71 298 
 PAM  SZ EP       2222 56.49                             150     0.110   77  40 
 PAM  SN ES   1   2223 13.06                             150    -0.3 7   77  40 
 RUS  HZ EP   1   2222 58.03                             143     0.0 7  101 176 
 RUS  HN ES   1   2223 16.16                             143    -0.1 7  101 176 
 RUS  HZ I        2223 18.49         3.7 0.28                           101 176 
 PTB  HZ EP   1   2223  1.07                             131    -0.2 7  148 259 
 PTB  HN ES   1   2223 21.84                             131    -0.2 7  148 259 
 CHI  HZ EP       2223 11.94                             116    -0.2 8  249 195 
 CHI  HN ES   2   2223 41.84                             116     0.5 4  249 195 
 CHI  HZ I        2223 48.46         2.4 0.37                           249 195 
                                                                                
