 2011 11 6 2234 42.1 L   6.775 -73.112140.1  RSN  5 0.3 1.6LRSN                1
 GAP=142        0.44       4.4     4.7  6.3  0.4598E+01  0.7221E+01 -0.1379E+01E
 Epicentro: LOS SANTOS - SANTANDER                                             3
 ACTION:UPD 12-07-13 16:08 OP:ep   STATUS:               ID:20111106223442 L   I
 2011-11-06-2232-29S.COL___175                                                 6
 STAT SP IPHASW D HRMM SECON CODA AMPLIT PERI AZIMU VELO AIN AR TRES W  DIS CAZ7
 BAR2 SZ EP   2   2235  0.84                             171   -0.20 5 21.7 201 
 BAR2 SZ ES   2   2235 15.24                             171   -0.55 5 21.7 201 
 BAR2 SZ I        2235 16.63        11.3 0.10                          21.7 201 
 BRR  HZ EP   2   2235  2.96                             150    0.03 5 75.8 299 
 BRR  HE ES   2   2235 19.65                             150    0.48 5 75.8 299 
 BRR  HZ I        2235 20.70        11.8 0.30                          75.8 299 
 PAM  SZ EP   2   2235  3.96                             150    0.23 5 77.2  36 
 PAM  SN ES   2   2235 20.52                             150   -0.06 5 77.2  36 
 RUS  HZ EP   2   2235  5.05                             143   -0.06 5 97.7 178 
 RUS  HN ES   2   2235 23.39                             143    0.35 5 97.7 178 
 RUS  HZ I        2235 24.85         4.2 0.41                          97.7 178 
 ZAR  HZ EP   2   2235 14.52                             120   -0.15 4  209 292 
 ZAR  HN ES   2   2235 39.91                             120   -0.16 4  209 292 
 ZAR  HZ I        2235 44.77         4.0 0.42                           209 292 
                                                                                
