 2016  6 6 2103 16.0 L   6.790 -73.113148.0  RSN  7 0.4 1.8LRSN                1
 GAP=141        1.14       5.4     5.5  7.3 -0.9699E+01  0.7933E+01  0.5394E+01E
 Epicentro: LOS SANTOS - SANTANDER                                             3
 ACTION:UPD 16-07-21 22:16 OP:rebc STATUS:               ID:20160606210316 L   I
 OLDACT:REG 16-06-07 03:21 OP:ar   STATUS:               ID:20160606205742     3
 2016-06-06-2057-42M.COL___334                                                 6
 STAT SP IPHASW D HRMM SECON CODA AMPLIT PERI AZIMU VELO AIN AR TRES W  DIS CAZ7
 BAR2 EZ EP       21 3 35.80                             171   -0.0810 23.1 199 
 BAR2 EZ ES       21 3 50.81                             171   -0.5910 23.1 199 
 BAR2 EZ I        21 3 53.43        12.4 0.28                          23.1 199 
 BRR  HZ EP       21 3 37.95                             152    0.3610 74.9 298 
 BRR  HZ I        21 3 48.66        14.9 0.28                          74.9 298 
 BRR  HN ES       21 3 55.06                             152    0.6210 74.9 298 
 PAM  EZ EP       21 3 38.59                             152    0.2310 76.0  37 
 PAM  EN ES       21 3 55.82                             152    0.0110 76.0  37 
 PAM  EZ I        21 3 57.87         8.2 0.18                          76.0  37 
 RUS  HZ EP       21 3 39.74                             145   -0.1310 99.3 178 
 RUS  HN ES       21 3 58.57                             145    0.0810 99.3 178 
 RUS  HZ I        21 3 59.62         4.6 0.38                          99.3 178 
 PTB  HZ EP       21 3 42.87                             132   -0.57 9  151 260 
 PTB  HN ES       21 4  3.94                             132   -0.91 9  151 260 
 PTB  HZ I        21 4 11.14         9.3 0.46                           151 260 
 SPBC HZ EP       21 3 44.77                             129   -0.02 9  165 220 
 SPBC HN ES       21 4  7.85                             129    0.59 9  165 220 
 SPBC HZ I        21 4 13.27        12.9 0.12                           165 220 
 NOR  HZ EP       21 3 51.97                             119   -0.12 8  237 235 
 NOR  HN ES       21 4 20.86                             119    0.61 8  237 235 
 NOR  HZ I        21 4 25.00         6.3 0.32                           237 235 
                                                                                
