 2014  5 6 2315 27.6 L   6.801 -73.154148.1  RSN 11 0.6 1.9LRSN                1
 GAP=135        1.24       4.0     5.7  7.9 -0.1008E+01  0.7993E+01  0.6589E+01E
 Epicentro: LOS SANTOS - SANTANDER                                             3
 OLDACT:REG 14-05-07 05:33 OP:spq  STATUS:               ID:20140506230821     3
 ACTION:UPD 15-03-16 16:55 OP:nd   STATUS:               ID:20140506231527 L   I
 OLDACT:UP  14-05-07 08:41 OP:spq  STATUS:               ID:20140506230821     3
 OLDACT:UP  14-05-07 08:40 OP:spq  STATUS:               ID:20140506230821     3
 2014-05-06-2308-21M.COL___229                                                 6
 STAT SP IPHASW D HRMM SECON CODA AMPLIT PERI AZIMU VELO AIN AR TRES W  DIS CAZ7
 BRR  HZ EP       2315 49.25                             153    0.2510 70.3 299 
 BRR  HN ES       2316  6.74                             153    1.0810 70.3 299 
 BRR  HZ I        2316  9.17         7.3 0.23            151           70.3 299 
 PAM  SZ EP       2315 50.13                             151   -0.0210 77.9  40 
 PAM  SE ES       2316  7.61                             151   -0.0810 77.9  40 
 PAM  SZ I        2316  9.14        13.9 0.60            154           77.9  40 
 RUS  HZ EP       2315 51.79                             144    0.1510  101 176 
 RUS  HE ES       2316 10.26                             144   -0.1010  101 176 
 RUS  SZ I        2316 10.66         7.0 0.70            146            101 176 
 PTB  HZ EP       2315 54.19                             133   -0.53 9  147 259 
 PTB  HN ES       2316 15.18                             133   -0.66 9  147 259 
 PTB  SZ I        2316 17.39         7.1 0.12            132            147 259 
 OCA  HE ES   1   2316 17.96                             130   -0.37 7  160 353 
 SPBC HZ EP   1   2315 55.79                             130   -0.49 7  163 219 
 SPBC HN ES   1   2316 18.31                             130   -0.30 7  163 219 
 SPBC SZ I        2316 21.75        11.0 0.12            130            163 219 
 ZAR  HZ EP   1   2316  0.92                             123    0.77 6  203 292 
 ZAR  HN ES   1   2316 25.50                             123   -0.01 6  203 292 
 ZAR  SZ I        2316 30.93         5.1 0.10            123            203 292 
 SML  HZ EP   1   2316  3.83                             118   -0.52 6  243 335 
 SML  HN ES   1   2316 32.22                             118   -0.77 6  243 335 
 SML  SZ I        2316 37.71        13.9 0.08            118            243 335 
 CHI  HZ EP       2316  5.59                             118    0.13 8  248 195 
 CHI  HN ES   1   2316 33.96                             118   -0.99 6  248 195 
 CHI  SZ I        2316 40.13         5.8 2.52            118            248 195 
 SOCV BZ EP   4   2316  9.61                             113   -1.28 0  302  57 
 SOCV BE ES   4   2316 40.76                             113   -3.85 0  302  57 
 RREF HZ EP   1   2316 15.56                             111    1.74 5  321 229 
 RREF HE ES   4   2316 52.11                             111    2.28 0  321 229 
 RREF SZ I        2316 54.14         4.9 1.60            112            321 229 
 PRA  HZ EP       2316 22.14                             107    0.94 6  392 209 
 PRA  HE ES   1   2317  2.64                             107   -0.33 4  392 209 
                                                                                
