 2010  8 6 2338 31.0 L   6.774 -73.078148.0  RSN  4 0.2 1.5LRSN                1
 GAP=172        0.40       5.6    10.2  8.4  0.3804E+02 -0.4361E+02 -0.2262E+02E
 Epicentro: LOS SANTOS - SANTANDER                                             3
 ACTION:UP  10-09-07 10:52 OP:vdl  STATUS:               ID:20100806233830 L   I
 2010-08-06-2336-21S.COL___125                                                 6
 STAT SP IPHASW D HRMM SECON CODA AMPLIT PERI AZIMU VELO SNR AR TRES W  DIS CAZ7
 BAR2 SZ EP       2338 50.93                             171     0.010   23 210 
 BAR2 SZ I        2338 51.05         8.7 0.32                            23 210 
 BAR2 SZ ES   3   2339  5.95                                    -0.5 2   23 210 
 BRR  HZ EP       2338 52.89                             151     0.010   79 298 
 BRR  HZ I        2338 53.60        15.6 0.23                            79 298 
 BRR  HN ES   2   2339  9.80                             151    -0.1 5   79 298 
 RUS  HZ EP   1   2338 54.54                             146    -0.2 7   98 180 
 RUS  HN ES   2   2339 13.57                             146     0.3 5   98 180 
 RUS  HZ I        2339 15.38         1.5 0.10                            98 180 
 GUE  SZ EP   2   2338 56.07                             140     0.0 5  118   8 
                                                                                
