 2012  1 6 2218 24.0 L   6.738 -73.249143.6  RSN  4 0.1 1.8LRSN                1
 GAP=220        0.35       3.7     5.8  4.8  0.1332E+02 -0.1816E+01  0.7933E+00E
 Epicentro: VILLANUEVA - SANTANDER                                             3
 ACTION:UP  12-02-03 08:14 OP:REBC STATUS:               ID:20120106221824 L   I
 2012-01-06-2215-00S.COL___179                                                 6
 STAT SP IPHASW D HRMM SECON CODA AMPLIT PERI AZIMU VELO SNR AR TRES W  DIS CAZ7
 BRR  HZ EP       2218 44.59                             154    -0.110   66 309 
 BRR  HZ I        2218 44.91        23.5 0.57                            66 309 
 BRR  HN ES       2219  0.77                             154     0.110   66 309 
 RUS  HE ES   1   2219  5.24                             145     0.0 7   95 169 
 PTB  HN ES   2   2219  9.67                             134    -0.1 5  135 261 
 CHI  HZ EP   2   2219  0.82                             118     0.2 4  239 193 
 CHI  HZ I        2219 19.83         2.3 0.68                           239 193 
                                                                                
