 2016  8 6 2000 36.4 L   6.774 -73.167143.8  RSN  7 0.2 1.5LRSN                1
 GAP=135        0.60       2.8     2.5  4.3 -0.1969E+00  0.2842E+01  0.9617E+00E
 Epicentro: LOS SANTOS - SANTANDER                                             3
 ACTION:UPD 16-10-29 15:32 OP:rebc STATUS:               ID:20160806200036 L   I
 OLDACT:REG 16-08-07 02:37 OP:ak   STATUS:               ID:20160806195731     3
 2016-08-06-1958-00M.COL___365                                                 6
 STAT SP IPHASW D HRMM SECON CODA AMPLIT PERI AZIMU VELO AIN AR TRES W  DIS CAZ7
 BAR2 EZ EP       20 0 55.39                             172   -0.3110 20.1 185 
 BAR2 EZ ES       20 1 10.63                             172   -0.1610 20.1 185 
 BAR2 EZ I        20 1 13.57        10.0 0.28                          20.1 185 
 BRR  HZ EP       20 0 56.95                             152   -0.3210 70.6 302 
 BRR  HN ES       20 1 13.49                             152   -0.0910 70.6 302 
 BRR  HZ I        20 1 15.41        12.8 0.48                          70.6 302 
 PAM  EZ EP       20 0 58.55                             149   -0.0610 81.1  40 
 PAM  EN ES       20 1 16.25                             149    0.3010 81.1  40 
 PAM  EZ I        20 1 17.88         3.6 0.62                          81.1  40 
 RUS  HZ EP       20 0 59.90                             144    0.1710 97.9 175 
 RUS  HN ES       20 1 18.17                             144    0.2110 97.9 175 
 RUS  HZ I        20 1 19.81         2.9 0.36                          97.9 175 
 PTB  HZ EP   2   20 1  2.77                             132   -0.15 5  145 260 
 PTB  HN ES       20 1 23.42                             132   -0.20 9  145 260 
 PTB  HZ I        20 1 30.71         3.1 0.15                           145 260 
 ZAR  HZ EP   2   20 1  8.81                             122    0.23 4  203 293 
 ZAR  HN ES       20 1 34.16                             122    0.46 9  203 293 
 ZAR  HZ I        20 1 39.12         2.7 0.23                           203 293 
 GUY2CHZ EP   2   20 1 19.34                             112   -0.14 4  298 235 
 GUY2CHN ES       20 1 53.32                             112    0.22 7  298 235 
 GUY2CHZ I        20 2  3.14         1.3 0.32                           298 235 
                                                                                
