 2011  7 6 2115  3.6 L   6.759 -73.102144.0  RSN  9 0.3 2.0LRSN                1
 GAP=144        0.45       2.6     3.9  4.7 -0.3560E+01  0.4216E+01 -0.3799E+01E
 Epicentro: LOS SANTOS - SANTANDER                                             3
 ACTION:UPD 12-07-25 13:58 OP:epov STATUS:               ID:20110706211503 L   I
 2011-07-06-2113-09S.COL___139                                                 6
 STAT SP IPHASW D HRMM SECON CODA AMPLIT PERI AZIMU VELO AIN AR TRES W  DIS CAZ7
 BAR2 SZ EP       2115 22.83                             171   -0.1710 20.5 206 
 BAR2 SZ ES   2   2115 37.96                             171   -0.15 5 20.5 206 
 BAR2 SZ I        2115 40.18        20.3 0.36                          20.5 206 
 GIR2 SZ EP       2115 23.06                             165   -0.2010 36.8 344 
 BRR  HZ EP       2115 25.07                             150    0.0910 77.6 300 
 BRR  HN ES   2   2115 41.81                             150    0.19 5 77.6 300 
 BRR  HZ I        2115 42.99        24.1 0.22                          77.6 300 
 PAM  SZ EP       2115 25.84                             150    0.1310 78.1  35 
 PAM  SN ES   3   2115 43.50                             150    0.58 2 78.1  35 
 RUS  HZ EP       2115 26.93                             145    0.0510 95.8 179 
 RUS  HN ES   1   2115 44.97                             145   -0.04 7 95.8 179 
 RUS  HZ I        2115 46.53         7.1 0.28                          95.8 179 
 BRI  SZ EP       2115 27.71                             140    0.1410  111  18 
 OCA  SZ EP       2115 32.07                             128   -0.23 9  165 352 
 OCA  SZ I        2115 59.04        19.9 0.23                           165 352 
 NOR  SZ EP       2115 39.73                             118    0.31 8  236 236 
 NOR  SN ES   2   2116  7.13                             118   -0.19 4  236 236 
 RREF HN ES   3   2116 24.44                             110   -1.36 2  323 231 
 RREF HZ I        2116 33.28         5.5 0.40                           323 231 
                                                                                
