 2016  8 6 2242 54.9 L   6.668 -73.170143.1  RSN  5 0.4 1.3LRSN                1
 GAP=139        1.06       5.7     4.9  9.5 -0.7695E+00  0.1137E+02 -0.4751E+01E
 Epicentro: VILLANUEVA - SANTANDER                                             3
 ACTION:UPD 16-10-29 15:32 OP:rebc STATUS:               ID:20160806224254 L   I
 OLDACT:REG 16-08-07 02:44 OP:ak   STATUS:               ID:20160806223737     3
 2016-08-06-2238-00M.COL___368                                                 6
 STAT SP IPHASW D HRMM SECON CODA AMPLIT PERI AZIMU VELO AIN AR TRES W  DIS CAZ7
 BRR  HZ EP       2243 16.26                             150    0.1210 77.2 309 
 BRR  HN ES       2243 32.80                             150    0.1210 77.2 309 
 BRR  HZ I        2243 34.08         5.3 0.12                          77.2 309 
 RUS  HZ EP   2   2243 17.99                             148    0.57 5 86.3 174 
 RUS  HN ES       2243 35.10                             148    0.1310 86.3 174 
 RUS  HZ I        2243 36.96         2.9 0.40                          86.3 174 
 PAM  EZ EP       2243 16.97                             146   -0.7410 90.6  35 
 PAM  EN ES       2243 35.69                             146    0.2110 90.6  35 
 PAM  EZ I        2243 37.16         2.5 0.22                          90.6  35 
 PTB  HZ EP       2243 21.66                             132    0.41 9  143 264 
 PTB  HN ES       2243 41.00                             132   -0.77 9  143 264 
 PTB  HZ I        2243 46.06         3.0 0.14                           143 264 
 ZAR  HZ EP   2   2243 27.53                             121   -0.04 4  208 296 
 ZAR  HN ES       2243 53.51                             121    0.48 8  208 296 
 ZAR  HZ I        2243 58.60         3.3 0.23                           208 296 
                                                                                
