 2016  4 6 2303 38.9 L   6.804 -73.163144.0  RSN  9 0.4 1.9LRSN                1
 GAP=134        0.75       3.4     3.4  5.2  0.8498E+00  0.5694E+01  0.1975E+01E
 Epicentro: LOS SANTOS - SANTANDER                                             3
 ACTION:UPD 16-05-05 14:19 OP:rebc STATUS:               ID:20160406230338 L   I
 OLDACT:DUP 16-04-07 07:35 OP:ak   STATUS:               ID:20160406225747d    3
 OLDACT:REG 16-04-07 06:18 OP:ak   STATUS:               ID:20160406225746     3
 2016-04-06-2257-46M.COL___313                                                 6
 STAT SP IPHASW D HRMM SECON CODA AMPLIT PERI AZIMU VELO AIN AR TRES W  DIS CAZ7
 BAR2 EZ EP       23 3 58.28                             170   -0.0810 23.5 185 
 BAR2 EZ ES       23 4 13.71                             170    0.2010 23.5 185 
 BAR2 EZ I        23 4 14.89        18.1 0.24            167           23.5 185 
 PAM  EZ EP   2   23 4  1.12                             150    0.10 5 78.3  41 
 PAM  EE ES   2   23 4 18.65                             150    0.40 5 78.3  41 
 RUS  HZ EP       23 4  2.23                             143   -0.3310  101 175 
 RUS  HN ES       23 4 21.13                             143    0.1510  101 175 
 RUS  HZ I        23 4 22.02         6.6 0.18            144            101 175 
 PTB  HZ EP       23 4  5.04                             132   -0.56 9  146 259 
 PTB  HN ES       23 4 25.79                             132   -0.60 9  146 259 
 PTB  HZ I        23 4 28.17         7.8 0.22            131            146 259 
 SPBC HZ EP   2   23 4  6.82                             129   -0.40 5  162 218 
 SPBC HN ES       23 4 29.23                             129   -0.05 9  162 218 
 SPBC HZ I        23 4 32.61        12.5 0.12            128            162 218 
 ZAR  HZ EP   2   23 4 11.78                             122    0.71 4  202 292 
 ZAR  HN ES       23 4 36.61                             122    0.48 9  202 292 
 ZAR  HZ I        23 4 41.67         7.9 0.23            122            202 292 
 NOR  HZ EP       23 4 14.43                             118    0.01 8  233 234 
 NOR  HE ES       23 4 42.30                             118    0.20 8  233 234 
 NOR  HZ I        23 4 51.70         5.0 0.14            118            233 234 
 CHI  HZ EP       23 4 16.52                             117   -0.01 8  249 195 
 CHI  HN ES       23 4 46.10                             117    0.25 8  249 195 
 CHI  HZ I        23 4 49.34         6.9 0.64            117            249 195 
 GUY2CHZ EP   2   23 4 23.03                             112    0.71 4  300 234 
 GUY2CHE ES       23 4 56.56                             112    0.41 7  300 234 
 GUY2CHZ I        23 5  4.59         4.9 0.38                           300 234 
                                                                                
