 2014 10 6 2356 18.9 L   6.791 -73.143151.2  RSN  6 0.4 1.7LRSN                1
 GAP=137        0.98       4.2     5.2  7.7  0.8490E+00  0.3775E+01 -0.5366E+01E
 Epicentro: LOS SANTOS - SANTANDER                                             3
 ACTION:UPD 14-11-29 23:47 OP:nd   STATUS:               ID:20141006235618 L   I
 OLDACT:UP  14-10-07 04:27 OP:cam  STATUS:               ID:20141006235000     3
 OLDACT:REG 14-10-07 03:31 OP:cam  STATUS:               ID:20141006235000     3
 2014-10-06-2350-00M.COL___252                                                 6
 STAT SP IPHASW D HRMM SECON CODA AMPLIT PERI AZIMU VELO AIN AR TRES W  DIS CAZ7
 BAR2 SZ EP   1   2356 39.45                             171    0.27 7 22.4 191 
 BRR  HZ EP     C 2356 41.10                             153    0.4110 71.9 299 
 BRR  HE ES       2356 58.16                             153    0.4810 71.9 299 
 BRR  HZ I        2356 58.66        11.9 0.12            154           71.9 299 
 PAM  SZ EP     D 2356 42.28                             151    0.5310 78.0  39 
 PAM  SE ES       2356 59.14                             151   -0.4210 78.0  39 
 PAM  SZ I        2357  0.58         4.6 0.14            153           78.0  39 
 RUS  HZ EP       2356 43.30                             145    0.1610 99.6 176 
 RUS  HN ES       2357  1.63                             145   -0.4010 99.6 176 
 RUS  HZ I        2357  4.40         3.7 0.30            146           99.6 176 
 PTB  HZ EP   1   2356 45.97                             133   -0.37 7  148 259 
 PTB  HN ES       2357  7.52                             133   -0.21 9  148 259 
 PTB  HZ I        2357  9.42         6.8 0.14            134            148 259 
 SML  HZ EP       2356 55.37                             118   -0.59 8  245 335 
 SML  HE ES       2357 24.56                             118   -0.29 8  245 335 
 SML  HZ I        2357 26.16         6.4 0.10            120            245 335 
                                                                                
