 2012  2 6 2148 31.9 L   7.005 -72.955  4.1  RSN  6 0.5 1.3LRSN                1
 GAP=149        1.08       3.0     3.6  7.4 -0.4878E+01 -0.5365E+01  0.2266E+01E
 ACTION:UP  12-03-07 16:28 OP:epov STATUS:               ID:20120206214831 L   I
 2012-02-06-2140-00M.COL___188                                                 6
 STAT SP IPHASW D HRMM SECON CODA AMPLIT PERI AZIMU VELO SNR AR TRES W  DIS CAZ7
 GIR2 SZ EP       2148 36.39                              47   -0.3910 27.6 287 
 PAM  SZ EP       2148 40.18                              47    0.1810 46.5  37 
 PAM  SN ES       2148 46.01                              47   -0.3510 46.5  37 
 BAR2 SZ EP       2148 40.60                              47    0.0010 52.1 209 
 BAR2 SZ ES   1   2148 46.43                              47   -0.98 7 52.1 209 
 BAR2 SZ I        2148 50.08        15.8 0.53                          52.1 209 
 BRR  HZ EP       2148 45.90                              47    0.6610 84.4 278 
 BRR  HZ I        2148 52.53        15.9 0.39                          84.4 278 
 BRR  HN ES   1   2148 55.63                              47   -0.04 7 84.4 278 
 RUS  HZ EP   1   2148 52.54                              47    0.81 7  124 187 
 RUS  HZ I        2148 53.59         4.0 0.08                           124 187 
 RUS  HN ES   1   2149  7.29                              47    0.07 7  124 187 
 PTB  HZ EP       2148 58.81                              47    0.01 9  174 253 
                                                                                
