 2012 12 6 2123 17.9 L   6.790 -73.176143.7  RSN  9 0.2 2.2LRSN                1
 GAP=133        0.50       2.2     2.5  3.5 -0.6726E+00  0.2798E+01  0.1210E+01E
 Epicentro: LOS SANTOS - SANTANDER                                             3
 ACTION:UPD 13-01-04 14:26 OP:ep   STATUS:               ID:20121206212317 L   I
 2012-12-06-2120-00M.COL___242                                                 6
 STAT SP IPHASW D HRMM SECON CODA AMPLIT PERI AZIMU VELO AIN AR TRES W  DIS CAZ7
 BAR2 SZ EP       2123 37.03                             171   -0.2610 21.9 182 
 BAR2 SZ ES       2123 52.42                             171    0.0310 21.9 182 
 BAR2 SZ I        2123 54.16        42.3 0.24                          21.9 182 
 GIR2 SZ EP   1   2123 37.58                             167    0.19 7 32.0 357 
 PAM  SZ EP       2123 40.19                             149    0.0710 80.4  41 
 PAM  SN ES       2123 57.46                             149    0.0410 80.4  41 
 PAM  SZ I        2123 59.84         9.2 0.47                          80.4  41 
 RUS  HZ EP       2123 41.50                             144    0.0710 99.8 174 
 RUS  HE ES       2123 59.69                             144   -0.0610 99.8 174 
 RUS  HE I        2124  0.77        37.2 0.58                          99.8 174 
 PTB  HZ EP       2123 44.09                             132   -0.33 9  144 259 
 PTB  HE ES       2124  4.91                             132   -0.16 9  144 259 
 PTB  HZ I        2124  7.49        33.9 0.16                           144 259 
 ZAR  HE ES   1   2124 15.44                             122    0.48 6  201 293 
 ZAR  HZ I        2124 21.17        28.8 0.36                           201 293 
 CHI  HZ EP   1   2123 55.11                             117   -0.21 6  247 194 
 CHI  HN ES   1   2124 24.98                             117    0.51 6  247 194 
 HEL  HZ EP   1   2123 57.79                             115    0.13 6  269 256 
 HEL  HZ I        2124 37.53        10.1 0.45                           269 256 
 PRA  HZ EP       2124 11.26                             106    0.17 6  389 209 
 PRA  HE ES   1   2124 52.70                             106    0.16 4  389 209 
                                                                                
