 2014  7 6 2226 40.2 L   6.805 -73.140139.5  RSN 14 0.5 2.2LRSN                1
 GAP=137        1.17       3.0     4.3  6.1 -0.1946E+01  0.9519E+01  0.7782E+00E
 Epicentro: LOS SANTOS - SANTANDER                                             3
 ACTION:UPD 15-03-16 20:41 OP:nd   STATUS:               ID:20140706222640 L   I
 OLDACT:REG 14-07-07 05:03 OP:carl STATUS:               ID:20140706221806     3
 2014-07-06-2218-06M.COL___262                                                 6
 STAT SP IPHASW D HRMM SECON CODA AMPLIT PERI AZIMU VELO AIN AR TRES W  DIS CAZ7
 BAR2 SZ EP       2226 58.96                             170   -0.1510 24.0 191 
 BAR2 SZ ES       2227 13.45                             170   -0.3910 24.0 191 
 BAR2 SZ I        2227 14.49        40.8 0.16            170           24.0 191 
 BRR  HZ EP       2227  0.93                             151    0.2210 71.4 298 
 BRR  HN ES       2227 17.50                             151    0.8110 71.4 298 
 BRR  HZ I        2227 19.38        32.7 0.14            150           71.4 298 
 PAM  SZ EP       2227  2.06                             150    0.3410 76.6  39 
 PAM  SN ES       2227 18.97                             150    0.4810 76.6  39 
 PAM  SZ I        2227 21.16        45.5 0.54            153           76.6  39 
 RUS  HZ EP       2227  3.08                             142   -0.3210  101 176 
 RUS  HN ES       2227 21.17                             142   -0.3110  101 176 
 RUS  HZ I        2227 22.97        12.0 0.32            145            101 176 
 PTB  HZ EP       2227  6.05                             130   -0.70 9  148 259 
 PTB  HN ES       2227 26.71                             130   -0.73 9  148 259 
 PTB  HZ I        2227 29.92        26.2 0.24            131            148 259 
 OCA  HZ EP       2227  8.60                             128    0.60 9  160 353 
 OCA  HN ES       2227 29.17                             128   -0.50 9  160 353 
 OCA  HZ I        2227 32.49        30.2 0.38            130            160 353 
 ZAR  HZ EP       2227 12.08                             121   -0.22 9  204 292 
 ZAR  HN ES       2227 37.24                             121   -0.08 9  204 292 
 ZAR  HZ I        2227 43.22        17.0 0.34            121            204 292 
 SML  HZ EP       2227 15.69                             116   -0.78 8  243 335 
 SML  HE ES       2227 44.63                             116   -0.12 8  243 335 
 SML  HZ I        2227 46.91        17.1 0.24            117            243 335 
 CHI  HN ES       2227 47.09                             116    0.23 8  249 195 
 HEL  HZ EP       2227 20.77                             113    0.57 8  273 256 
 HEL  HE ES       2227 51.34                             113   -0.04 8  273 256 
 HEL  HZ I        2228  0.27         6.3 0.52            114            273 256 
 GUY2CHZ EP       2227 24.16                             111    0.52 7  302 235 
 GUY2CHN ES       2227 58.49                             111    0.99 7  302 235 
 GUY2CHZ I        2228  4.43         8.4 0.26                           302 235 
 RREF HN ES       2228  2.62                             110    0.57 7  323 229 
 PRA  HZ EP       2227 33.50                             105   -0.13 6  393 210 
 PRA  HN ES       2228 14.82                             105   -0.46 6  393 210 
 PRA  HZ I        2228 17.88         3.8 0.26            107            393 210 
 SJC  HZ EP   4   2227 33.94                             105   -1.63 0  409 327 
 SJC  HN ES   4   2228 14.49                             105   -4.24 0  409 327 
 SJC  HZ I        2228 18.28         3.6 0.50            106            409 327 
                                                                                
