 2012  7 6 2047 19.7 L   6.726 -73.120151.3  RSN  5 0.4 1.7LRSN                1
 GAP=143        0.99      13.6     7.8 12.2 -0.5558E+02 -0.1297E+02  0.6486E+02E
 Epicentro: JORDAN - SANTANDER                                                 3
 ACTION:UPD 12-08-14 11:43 OP:ep   STATUS:               ID:20120706204719 L   I
 2012-07-06-2040-00M.COL___201                                                 6
 STAT SP IPHASW D HRMM SECON CODA AMPLIT PERI AZIMU VELO AIN AR TRES W  DIS CAZ7
 BAR2 SZ EP       2047 39.94                             174     0.110   16 205 
 BAR2 SZ I        2047 40.14         9.4 0.20            171             16 205 
 BAR2 SZ ES   3   2047 54.96                             174    -0.6 2   16 205 
 BRR  HZ IP     D 2047 42.05                             151     0.310   78 303 
 BRR  HZ I        2047 42.22        22.0 0.16            152             78 303 
 BRR  HN ES   1   2047 59.63                             151     0.6 7   78 303 
 PAM  SZ EP       2047 42.92                             150     0.210   82  34 
 PAM  SN ES   1   2048  0.07                             150    -0.7 7   82  34 
 PAM  SZ I        2048  2.28         4.3 0.60            155             82  34 
 RUS  HN ES   3   2048  2.98                             147     1.1 2   92 177 
 PTB  HZ EP       2047 46.85                             133    -0.4 9  149 262 
 PTB  HN ES   1   2048  8.34                             133    -0.4 7  149 262 
 PTB  HZ I        2048 13.93         6.8 0.28            134            149 262 
