 2013 12 6 2031  2.1 L   6.766 -73.167146.8  RSN  8 0.5 1.9LRSN                1
 GAP=135        1.02       5.2     5.2  8.9 -0.5592E+01  0.6234E+01  0.1424E+02E
 Epicentro: LOS SANTOS - SANTANDER                                             3
 ACTION:UPD 14-01-13 10:16 OP:ep   STATUS:               ID:20131206203102 L   I
 OLDACT:REG 13-12-06 23:28 OP:mh   STATUS:               ID:20131206203000     3
 2013-12-06-2030-00M.COL___285                                                 6
 STAT SP IPHASW D HRMM SECON CODA AMPLIT PERI AZIMU VELO AIN AR TRES W  DIS CAZ7
 BAR2 SZ EP       2031 22.67                             172    0.9010 19.3 185 
 BAR2 SZ I        2031 39.32        27.9 0.25            168           19.3 185 
 BRR  HZ EP   1   2031 23.28                             153   -0.06 7 71.0 302 
 BRR  HN ES       2031 40.42                             153    0.5110 71.0 302 
 BRR  HZ I        2031 44.37        11.1 0.22            156           71.0 302 
 PAM  SZ EP   1   2031 24.39                             150   -0.29 7 81.8  39 
 PAM  SE ES       2031 41.97                             150   -0.3310 81.8  39 
 RUS  HZ EP   1   2031 25.56                             145   -0.14 7 97.0 174 
 RUS  HN ES   1   2031 43.75                             145   -0.35 7 97.0 174 
 PTB  HZ EP   1   2031 28.16                             133   -0.71 7  145 260 
 PTB  HN ES   1   2031 48.94                             133   -0.82 7  145 260 
 PTB  HZ I        2031 51.87         7.1 0.23            133            145 260 
 SPBC HZ EP       2031 30.29                             130    0.03 9  159 219 
 SPBC HN ES       2031 52.18                             130   -0.04 9  159 219 
 SPBC HZ I        2031 58.76        10.6 0.22            129            159 219 
 ZAR  HN ES   1   2031 59.81                             123   -0.02 6  203 293 
 NOR  HZ EP   1   2031 37.66                             119    0.21 6  231 235 
 NOR  HN ES   2   2032  5.59                             119    0.57 4  231 235 
 NOR  HZ I        2032 13.41         5.2 0.16            119            231 235 
                                                                                
