 2012  7 6 2353 51.7 L   6.114 -73.729103.2  RSN  5 0.2 1.6LRSN                1
 GAP=192        0.48       4.3     3.9  6.9  0.1118E+02  0.8620E+01  0.3798E+01E
 Epicentro: BOLIVAR - SANTANDER                                                3
 ACTION:UPD 12-08-14 11:43 OP:ep   STATUS:               ID:20120706235351 L   I
 2012-07-06-2350-00M.COL___200                                                 6
 STAT SP IPHASW D HRMM SECON CODA AMPLIT PERI AZIMU VELO AIN AR TRES W  DIS CAZ7
 RUS  HZ EP       2354  9.58                             141     0.110   76 109 
 RUS  HZ I        2354  9.77         5.4 0.16            141             76 109 
 RUS  HN ES   2   2354 23.63                             141     0.3 5   76 109 
 BAR2 SZ EP       2354  9.37                             139    -0.110   80  49 
 BAR2 SZ I        2354 24.61        21.5 0.16            139             80  49 
 PTB  HZ EP   2   2354  9.97                             134    -0.3 5   93 300 
 PTB  HE ES   2   2354 24.58                             134    -0.2 5   93 300 
 PTB  HZ I        2354 29.01         3.9 0.10            138             93 300 
 BRR  HZ EP       2354 11.61                             129    -0.210  110   1 
 BRR  HN ES   1   2354 27.43                             129     0.0 7  110   1 
 BRR  HZ I        2354 29.09         7.2 0.24            130            110   1 
 ZAR  HZ EP       2354 21.15                             112     0.2 9  197 321 
 ZAR  HN ES   1   2354 44.10                             112     0.3 6  197 321 
 ZAR  HZ I        2354 46.15         7.8 0.30            114            197 321 
