 2014 10 6 2211 28.8 L   6.807 -73.135147.1  RSN 11 0.4 2.3LRSN                1
 GAP=138        0.97       2.8     3.9  5.1 -0.3247E+00  0.5461E+01  0.9068E+00E
 Epicentro: LOS SANTOS - SANTANDER                                             3
 ACTION:UPD 14-11-29 23:47 OP:nd   STATUS:               ID:20141006221128 L   I
 OLDACT:UP  14-10-07 04:21 OP:cam  STATUS:               ID:20141006221000     3
 OLDACT:REG 14-10-07 03:25 OP:cam  STATUS:               ID:20141006221000     3
 2014-10-06-2210-00M.COL___252                                                 6
 STAT SP IPHASW D HRMM SECON CODA AMPLIT PERI AZIMU VELO AIN AR TRES W  DIS CAZ7
 BAR2 SZ EP     C 2211 48.70                             170    0.1210 24.3 192 
 BAR2 SZ ES       2212  3.48                             170   -0.5510 24.3 192 
 BAR2 SZ I        2212  6.40        35.0 0.28            169           24.3 192 
 BRR  HZ EP     C 2211 50.69                             153    0.5910 71.9 298 
 BRR  HE ES       2212  7.05                             153    0.3110 71.9 298 
 BRR  HZ I        2212 12.75        21.5 0.20            151           71.9 298 
 PAM  SZ EP     C 2211 51.48                             151    0.4310 76.1  39 
 PAM  SN ES       2212  8.79                             151    0.3710 76.1  39 
 PAM  SZ I        2212 10.86        33.9 0.20            156           76.1  39 
 RUS  HZ EP     D 2211 52.57                             144   -0.1310  101 177 
 RUS  HE ES       2212 11.03                             144   -0.3310  101 177 
 RUS  HZ I        2212 12.50        14.2 0.40            147            101 177 
 PTB  HZ EP       2211 55.53                             132   -0.43 9  149 259 
 PTB  HN ES       2212 16.92                             132   -0.25 9  149 259 
 PTB  HZ I        2212 22.36        34.3 0.22            133            149 259 
 SPBC HZ EP       2211 57.61                             129    0.12 9  164 219 
 SPBC HN ES       2212 20.38                             129    0.48 9  164 219 
 SPBC HZ I        2212 26.65        44.5 0.36            131            164 219 
 ZAR  HZ EP       2212  1.38                             123   -0.01 9  205 292 
 ZAR  HE ES       2212 26.76                             123   -0.07 9  205 292 
 ZAR  HZ I        2212 32.93        29.0 0.62            124            205 292 
 SML  HZ EP       2212  4.90                             118   -0.55 8  244 335 
 SML  HN ES       2212 33.53                             118   -0.53 8  244 335 
 SML  HZ I        2212 38.31        27.3 0.10            120            244 335 
 CHI  HZ EP       2212  6.74                             117    0.09 8  250 195 
 CHI  HN ES       2212 35.70                             117   -0.50 8  250 195 
 CHI  HZ I        2212 41.94         8.4 0.28            120            250 195 
 GUY2CHZ EP       2212 12.14                             112   -0.46 7  303 235 
 GUY2CHN ES       2212 47.49                             112    0.71 7  303 235 
 GUY2CHZ I        2212 55.45        22.1 0.78                           303 235 
 PRA  HZ EP   1   2212 23.21                             107    0.73 4  393 210 
                                                                                
