 2012  4 6 2215 49.9 L   6.674 -73.275134.9  RSN  7 0.4 1.5LRSN                1
 GAP= 97        0.83       5.1     5.4  9.0  0.6871E+01  0.6632E+01 -0.5184E+01E
 Epicentro: GALAN - SANTANDER                                                  3
 ACTION:UPD 12-07-05 11:51 OP:tino STATUS:               ID:20120406221549 L   I
 2012-04-06-2210-00M.COL___195                                                 6
 STAT SP IPHASW D HRMM SECON CODA AMPLIT PERI AZIMU VELO AIN AR TRES W  DIS CAZ7
 BAR2 SZ EP   1   2216  8.06                             174     0.0 7   14 131 
 BAR2 SZ I        2216  8.41         8.0 0.23                            14 131 
 BAR2 SZ ES   2   2216 22.07                             174    -0.2 5   14 131 
 BRR  HZ EP   1   2216 10.02                             152     0.3 7   68 315 
 BRR  HE ES   1   2216 25.71                             152     0.5 7   68 315 
 RUS  HZ EP   1   2216 11.98                             145     0.2 7   89 166 
 RUS  HN ES   1   2216 28.88                             145     0.1 7   89 166 
 RUS  HZ I        2216 30.29         6.6 0.28                            89 166 
 PAM  SN ES   2   2216 29.57                             142    -0.3 5   97  41 
 PTB  HZ EP   2   2216 13.78                             133    -0.7 5  131 264 
 PTB  HN ES   1   2216 32.97                             133    -0.7 7  131 264 
 PTB  HZ I        2216 38.12         3.4 0.15                           131 264 
 OCA  SZ EP   2   2216 18.66                             125     0.0 4  173 358 
 OCA  SZ ES   2   2216 40.33                             125    -0.8 4  173 358 
 ZAR  HZ EP   2   2216 21.15                             121     0.2 4  197 297 
 ZAR  HN ES   1   2216 45.54                             121     0.4 6  197 297 
 ZAR  HZ I        2216 49.01         5.2 0.54                           197 297 
                                                                                
