 2013  4 6 2030 48.0 L   6.799 -73.171146.7  RSN  6 0.4 2.3LRSN                1
 GAP=235        0.83       5.4     6.6  7.1  0.2155E+02  0.1267E+02  0.7320E+01E
 Epicentro: LOS SANTOS - SANTANDER                                             3
 ACTION:UPD 13-05-22 14:36 OP:EP   STATUS:               ID:20130406203048 L   I
 2013-04-06-2030-00M.COL___245                                                 6
 STAT SP IPHASW D HRMM SECON CODA AMPLIT PERI AZIMU VELO AIN AR TRES W  DIS CAZ7
 BAR2 SZ ES   1   2031 22.64                             171   -0.47 7 22.9 183 
 BRR  HZ EP       2031  9.16                             154    0.0610 68.7 300 
 BRR  HN ES       2031 26.05                             154    0.4810 68.7 300 
 BRR  HN I        2031 26.61        50.6 0.50            149           68.7 300 
 RUS  HZ EP   2   2031 11.40                             144   -0.44 5  101 174 
 RUS  HN ES       2031 30.47                             144    0.0210  101 174 
 RUS  HN I        2031 31.43        18.4 0.36            142            101 174 
 PTB  HZ EP   1   2031 14.33                             133   -0.45 7  145 259 
 PTB  HN ES       2031 35.17                             133   -0.51 9  145 259 
 PTB  HN I        2031 40.29        22.1 0.48            130            145 259 
 ZAR  HZ EP   2   2031 20.63                             123    0.40 4  201 292 
 ZAR  HN ES       2031 45.48                             123    0.11 9  201 292 
 ZAR  HN I        2031 50.16        19.5 0.36            122            201 292 
 CHI  HZ EP   1   2031 25.77                             117    0.12 6  248 195 
 CHI  HN ES   1   2031 55.85                             117    0.82 6  248 195 
 CHI  HN I        2031 57.43        10.7 0.30            117            248 195 
                                                                                
