 2011 10 6 2033 48.5 L   6.959 -73.348105.1  RSN  4 0.3 1.6LRSN                1
 GAP=134        0.60       7.9     4.5  8.8  0.3964E+01  0.6688E+01 -0.1750E+02E
 Epicentro: BETULIA - SANTANDER                                                3
 ACTION:UPD 12-07-13 16:02 OP:ep   STATUS:               ID:20111006203348 L   I
 2011-10-06-2020-00M.COL___171                                                 6
 STAT SP IPHASW D HRMM SECON CODA AMPLIT PERI AZIMU VELO AIN AR TRES W  DIS CAZ7
 BRR  HZ EP       2034  3.69                             156   -0.0510 43.5 292 
 BRR  HZ I        2034  3.93        26.3 0.21                          43.5 292 
 BRR  HE ES   2   2034 15.95                             156    0.35 5 43.5 292 
 BAR2 SZ EP   1   2034  3.85                             156   -0.28 7 44.4 156 
 BAR2 SZ ES   2   2034 16.47                             156    0.17 5 44.4 156 
 BAR2 SZ I        2034 17.44        10.3 0.37                          44.4 156 
 PAM  SZ EP   1   2034  7.57                             139    0.51 7 83.0  59 
 PAM  SN ES   2   2034 20.83                             139   -0.68 5 83.0  59 
 ZAR  HZ EP   2   2034 15.62                             115   -0.05 4  177 290 
 ZAR  HZ I        2034 15.97         3.5 0.15                           177 290 
 ZAR  HN ES   2   2034 36.68                             115   -0.16 4  177 290 
                                                                                
