 2012  3 6 2201 15.6 L   6.782 -73.145143.4  RSN 10 0.3 2.1LRSN                1
 GAP=137        0.72       3.7     4.0  5.8  0.1391E+00  0.6249E+01  0.5410E+01E
 ACTION:UP  12-03-31 23:17 OP:EP   STATUS:               ID:20120306220115 L   I
 2012-03-06-2200-00M.COL___191                                                 6
 STAT SP IPHASW D HRMM SECON CODA AMPLIT PERI AZIMU VELO SNR AR TRES W  DIS CAZ7
 BAR2 SZ ES   1   22 1 49.42                             171    -0.5 7   21 191 
 BAR2 SZ I        22 1 51.18        33.5 0.24                            21 191 
 BRR  HZ EP       22 1 36.70                             152     0.210   72 300 
 BRR  HE ES   1   22 1 53.52                             152     0.6 7   72 300 
 PAM  SZ EP   1   22 1 37.74                             150     0.1 7   79  39 
 PAM  SZ I        22 1 38.01        22.1 0.18                            79  39 
 PAM  SN ES   1   22 1 54.69                             150    -0.2 7   79  39 
 RUS  HZ EP   1   22 1 38.87                             144    -0.1 7   99 176 
 RUS  HN ES   1   22 1 57.31                             144     0.1 7   99 176 
 RUS  HZ I        22 1 58.90        15.5 0.25                            99 176 
 PTB  HZ EP   1   22 1 41.74                             131    -0.6 7  147 260 
 PTB  HN ES   1   22 2  3.23                             131     0.0 7  147 260 
 ZAR  HE ES   1   22 2 13.02                             122    -0.2 6  205 293 
 ZAR  HZ I        22 2 19.33        14.4 0.19                           205 293 
 NOR  SN ES   1   22 2 18.41                             118    -0.3 6  234 235 
 CHI  HZ EP   1   22 1 53.05                             117     0.1 6  247 195 
 CHI  HN ES   1   22 2 22.46                             117     0.4 6  247 195 
 CHI  HZ I        22 2 29.68         6.1 0.50                           247 195 
 HEL  HZ EP   1   22 1 55.65                             114     0.0 6  272 256 
 HEL  HZ I        22 2 32.13         5.0 0.41                           272 256 
 PRA  HZ EP   1   22 2  8.97                             106     0.2 4  390 210 
                                                                                
