 2012  7 6 2053  8.7 L   6.757 -73.130152.0  RSN  7 0.5 1.9LRSN                1
 GAP=141        0.99       6.5     6.3  9.3 -0.4445E+01  0.5383E+01  0.5082E+01E
 Epicentro: LOS SANTOS - SANTANDER                                             3
 ACTION:UPD 12-08-14 11:43 OP:ep   STATUS:               ID:20120706205308 L   I
 2012-07-06-2050-00M.COL___201                                                 6
 STAT SP IPHASW D HRMM SECON CODA AMPLIT PERI AZIMU VELO AIN AR TRES W  DIS CAZ7
 BAR2 SZ IP       2053 29.13                             173     0.110   19 198 
 BAR2 SZ ES   2   2053 44.78                             173    -0.1 5   19 198 
 BAR2 SZ I        2053 46.05        18.7 0.34            173             19 198 
 BRR  HZ IP     C 2053 31.06                             152     0.310   75 301 
 BRR  HZ I        2053 31.25        35.0 0.14            154             75 301 
 BRR  HN ES   1   2053 48.57                             152     0.6 7   75 301 
 PAM  SZ EP       2053 32.01                             151     0.210   80  36 
 PAM  SN ES   1   2053 49.18                             151    -0.6 7   80  36 
 PAM  SZ I        2053 51.68         8.0 0.62            153             80  36 
 RUS  HZ EP       2053 32.89                             146     0.110   96 177 
 RUS  HN ES   1   2053 51.53                             146     0.0 7   96 177 
 RUS  HZ I        2053 53.42         7.4 0.40            148             96 177 
 PTB  HZ EP       2053 35.83                             133    -0.5 9  149 261 
 PTB  HN ES   1   2053 57.07                             133    -0.7 7  149 261 
 PTB  HZ I        2053 59.31         6.1 0.18            135            149 261 
 CHI  HE ES   3   2054 16.64                             119     1.0 2  244 196 
 HEL  HN ES   3   2054 22.67                             116     1.7 2  273 257 
