 2013  8 6 2335  1.8 L   7.439 -73.186133.6  RSN 13 0.3 2.5LRSN                1
 GAP=107        0.85       2.3     3.2  4.1  0.2717E+00  0.4013E+01 -0.8275E-01E
 Epicentro: EL PLAYON - SANTANDER                                              3
 ACTION:UPD 14-01-14 08:59 OP:ep   STATUS:               ID:20130806233501 L   I
 OLDACT:UP  13-08-06 23:38 OP:cam  STATUS:               ID:20130806232959     3
 OLDACT:REG 13-08-06 22:25 OP:cam  STATUS:               ID:20130806232959     3
 2013-08-06-2329-59M.COL___267                                                 6
 STAT SP IPHASW D HRMM SECON CODA AMPLIT PERI AZIMU VELO AIN AR TRES W  DIS CAZ7
 GIR2 SZ EP       2335 20.39                             162    0.0810 39.9 181 
 GIR2 SZ ES       2335 34.60                             162   -0.1510 39.9 181 
 GIR2 SZ I        2335 36.42        51.2 0.31            161           39.9 181 
 PAM  SZ EP       2335 21.89                             157    0.4310 54.8 102 
 PAM  SN ES       2335 37.03                             157    0.2310 54.8 102 
 PAM  SZ I        2335 39.35       167.6 0.84            160           54.8 102 
 BRR  HZ EP       2335 21.60                             151    0.1010 68.7 238 
 BRR  HE ES       2335 37.08                             151    0.2210 68.7 238 
 BRR  HZ I        2335 42.48        40.8 0.14            150           68.7 238 
 OCA  HZ EP       2335 23.18                             144    0.0910 89.6 351 
 OCA  HN ES       2335 40.01                             144    0.3210 89.6 351 
 OCA  HZ I        2335 42.11        51.3 0.38            148           89.6 351 
 BAR2 SZ EP       2335 23.44                             143   -0.0610 93.7 180 
 BAR2 SZ ES       2335 40.08                             143   -0.3410 93.7 180 
 BAR2 SZ I        2335 41.38        47.9 0.17            144           93.7 180 
 RUS  HZ EP       2335 30.63                             125   -0.11 9  171 176 
 RUS  HN ES       2335 52.81                             125   -0.51 9  171 176 
 RUS  HZ I        2336  0.20         8.1 0.38            126            171 176 
 PTB  HZ EP       2335 30.26                             124    0.08 9  172 235 
 PTB  HN ES       2335 52.13                             124   -0.18 9  172 235 
 PTB  HZ I        2335 55.39        33.4 0.40            126            172 235 
 SML  HZ EP       2335 30.49                             123   -0.41 9  179 327 
 SML  HE ES       2335 52.63                             123   -0.97 9  179 327 
 SML  HZ I        2335 53.97        73.2 0.26            126            179 327 
 ZAR  HZ EP       2335 31.65                             122    0.20 9  185 272 
 ZAR  HN ES       2335 55.17                             122    0.59 9  185 272 
 ZAR  HZ I        2335 56.21        55.7 0.18            124            185 272 
 COD  HZ EP       2335 41.37                             112   -0.19 7  277 354 
 NOR  HZ EP       2335 42.06                             111    0.29 7  279 222 
 NOR  HE ES       2336 12.65                             111   -0.30 7  279 222 
 NOR  HZ I        2336 20.08        22.2 0.16            113            279 222 
 HEL  HZ EP       2335 44.09                             110    0.24 7  293 242 
 CHI  HZ EP       2335 46.82                             109    0.26 7  317 191 
                                                                                
