 2012  5 6 2038 37.2 L   6.744 -73.113149.5  RSN  4 0.2 1.6LRSN                1
 GAP=170        0.59       7.7     4.6  7.0  0.2213E+01  0.4763E+01 -0.4152E+01E
 Epicentro: JORDAN - SANTANDER                                                 3
 ACTION:UP  12-07-05 12:02 OP:pat  STATUS:               ID:20120506203837 L   I
 2012-05-06-2030-00M.COL___192                                                 6
 STAT SP IPHASW D HRMM SECON CODA AMPLIT PERI AZIMU VELO SNR AR TRES W  DIS CAZ7
 BAR2 SZ EP   1   2038 56.92                             173    -0.3 7   18 204 
 BAR2 SZ ES   1   2039 12.82                             173     0.0 7   18 204 
 BAR2 SZ I        2039 15.82         7.3 0.14                            18 204 
 BRR  HZ EP   1   2038 59.43                             151     0.3 7   77 301 
 BRR  HZ I        2039  1.56         9.2 0.12                            77 301 
 BRR  HN ES   1   2039 16.44                             151     0.2 7   77 301 
 PAM  SZ EP   1   2039  0.13                             151     0.1 7   80  35 
 PAM  SN ES   1   2039 17.57                             151    -0.2 7   80  35 
 PAM  SZ I        2039 19.81         5.3 0.29                            80  35 
 ZAR  HN ES   1   2039 36.11                             122    -0.3 6  210 293 
                                                                                
