 2013  7 6 2031 14.8 L   6.764 -73.156139.1  RSN  9 0.4 1.8LRSN                1
 GAP=137        0.91       3.7     4.3  6.9 -0.1566E+01  0.5701E+01  0.2592E+01E
 Epicentro: LOS SANTOS - SANTANDER                                             3
 ACTION:UPD 13-08-12 10:35 OP:ep   STATUS:               ID:20130706203114 L   I
 OLDACT:REG 13-07-07 00:23 OP:carl STATUS:               ID:20130706202959     3
 2013-07-06-2029-59M.COL___266                                                 6
 STAT SP IPHASW D HRMM SECON CODA AMPLIT PERI AZIMU VELO AIN AR TRES W  DIS CAZ7
 BAR2 SZ ES   1   2031 48.10                             172   -0.05 7 19.2 189 
 BAR2 SZ I        2031 49.55        18.2 0.66            171           19.2 189 
 GIR2 SZ EP       2031 33.58                             165   -0.1910 35.1 353 
 GIR2 SZ ES       2031 48.14                             165   -0.4510 35.1 353 
 GIR2 SZ I        2031 49.71         9.0 0.10            166           35.1 353 
 BRR  HZ IP     C 2031 35.32                             151    0.0510 72.2 302 
 BRR  HN ES   1   2031 52.07                             151    0.81 7 72.2 302 
 BRR  HN I        2031 52.72        24.7 0.28            152           72.2 302 
 PAM  SZ EP       2031 36.27                             148   -0.2610 81.2  38 
 PAM  SN ES   1   2031 53.31                             148   -0.19 7 81.2  38 
 PAM  SZ I        2031 55.71        14.5 0.46            151           81.2  38 
 RUS  HZ EP   1   2031 37.63                             143    0.03 7 96.7 175 
 RUS  HN ES   1   2031 55.91                             143    0.52 7 96.7 175 
 RUS  HZ I        2031 56.80         3.9 0.22            145           96.7 175 
 PTB  HN ES       2032  1.25                             131   -0.28 9  146 260 
 PTB  HN I        2032  6.06        13.2 0.34            132            146 260 
 OCA  HN ES       2032  5.62                             127    0.70 9  164 354 
 ZAR  HE ES       2032 11.54                             121   -0.33 9  205 293 
 PRA  HE ES       2032 49.18                             105    0.37 6  388 210 
                                                                                
