 2012  5 6 2319 26.3 L   6.780 -73.121148.3  RSN  9 0.4 2.1LRSN                1
 GAP=141        0.82       4.1     4.2  6.2 -0.1874E+00  0.8695E+01  0.4476E+01E
 Epicentro: LOS SANTOS - SANTANDER                                             3
 ACTION:UP  12-07-05 12:02 OP:pat  STATUS:               ID:20120506231926 L   I
 2012-05-06-2317-47M.COL___184                                                 6
 STAT SP IPHASW D HRMM SECON CODA AMPLIT PERI AZIMU VELO SNR AR TRES W  DIS CAZ7
 BAR2 SZ EP   1   2319 46.26                             171     0.1 7   22 198 
 BAR2 SZ I        2319 46.56        27.5 0.18                            22 198 
 BAR2 SZ ES   1   2320  2.00                             171     0.3 7   22 198 
 BRR  HZ EP       2319 48.18                             152     0.310   75 299 
 BRR  HZ I        2319 49.79        35.3 0.12                            75 299 
 BRR  HN ES   1   2320  5.32                             152     0.6 7   75 299 
 PAM  SZ EP   1   2319 48.95                             151     0.2 7   77  37 
 PAM  SN ES   1   2320  5.81                             151    -0.5 7   77  37 
 PAM  SZ I        2320  8.43        15.5 0.23                            77  37 
 RUS  HZ EP   1   2319 50.16                             145     0.0 7   98 178 
 RUS  HN ES   1   2320  8.41                             145    -0.3 7   98 178 
 RUS  HZ I        2320 10.68        12.8 0.45                            98 178 
 PTB  HZ EP   1   2319 52.96                             132    -0.7 7  150 260 
 PTB  HE ES   1   2320 14.60                             132    -0.4 7  150 260 
 PTB  HZ I        2320 20.18        18.7 0.44                           150 260 
 ZAR  HZ EP   1   2319 59.09                             122    -0.1 6  207 292 
 ZAR  HN ES   1   2320 24.57                             122    -0.4 6  207 292 
 ZAR  HZ I        2320 30.76        28.0 0.36                           207 292 
 NOR  SZ EP   1   2320  2.20                             119    -0.1 6  236 235 
 NOR  SN ES   1   2320 30.11                             119    -0.2 6  236 235 
 CHI  HZ EP   1   2320  3.88                             118    -0.1 6  247 196 
 CHI  HN ES   1   2320 33.61                             118     0.2 6  247 196 
 CHI  HZ I        2320 37.78         7.6 0.35                           247 196 
 HEL  HZ EP   1   2320  7.44                             115     0.6 6  274 256 
 HEL  HN ES   1   2320 38.88                             115     0.4 6  274 256 
 HEL  HZ I        2320 45.25         9.1 0.27                           274 256 
                                                                                
