 2015  3 6 2127  8.2 L   6.835 -73.184142.0  RSN 10 0.4 2.2LRSN                1
 GAP=130        0.80       3.1     3.5  4.9 -0.1918E+01  0.4871E+01  0.8491E+00E
 Epicentro: ZAPATOCA - SANTANDER                                               3
 ACTION:UPD 15-04-30 16:23 OP:nd   STATUS:               ID:20150306212708 L   I
 OLDACT:REG 15-03-07 04:29 OP:mh   STATUS:               ID:20150306211747     3
 2015-03-06-2117-47M.COL___284                                                 6
 STAT SP IPHASW D HRMM SECON CODA AMPLIT PERI AZIMU VELO AIN AR TRES W  DIS CAZ7
 BAR2 EZ EP       2127 27.63                             169    0.1510 26.9 180 
 BAR2 EZ ES   1   2127 42.21                             169   -0.29 7 26.9 180 
 BAR2 EZ I        2127 43.67        37.3 0.12            169           26.9 180 
 BRR  HZ EP       2127 29.01                             154    0.3610 65.6 297 
 BRR  HN ES       2127 44.98                             154    0.3910 65.6 297 
 BRR  HZ I        2127 50.33        23.7 0.32            150           65.6 297 
 PAM  SZ EP   1   2127 30.43                             150    0.39 7 77.3  44 
 PAM  SN ES   1   2127 47.13                             150    0.08 7 77.3  44 
 PAM  SZ I        2127 48.07        14.9 0.32            155           77.3  44 
 RUS  HZ EP       2127 31.55                             142   -0.3710  105 174 
 RUS  HN ES   1   2127 50.20                             142   -0.20 7  105 174 
 RUS  HZ I        2127 51.88        12.5 0.26            146            105 174 
 PTB  HZ EP       2127 34.27                             132   -0.31 9  144 257 
 PTB  HN ES       2127 54.94                             132   -0.19 9  144 257 
 PTB  HZ I        2128  1.19        28.3 0.64            132            144 257 
 SPBC HZ EP       2127 36.51                             128    0.03 9  164 217 
 SPBC HN ES   4   2127 57.01                             128   -1.50 0  164 217 
 NOR  HZ EP       2127 43.66                             118    0.05 8  234 233 
 NOR  HN ES       2128 11.29                             118    0.08 8  234 233 
 NOR  HZ I        2128 17.47        16.8 0.24            120            234 233 
 SML  HZ EP       2127 43.27                             117   -0.79 8  238 336 
 SML  HN ES       2128 11.90                             117   -0.12 8  238 336 
 SML  HZ I        2128 18.55        16.4 0.22            119            238 336 
 HEL  HZ EP       2127 48.48                             114    0.58 8  269 255 
 HEL  HN ES       2128 18.43                             114   -0.41 8  269 255 
 HEL  HZ I        2128 26.18         8.8 0.42            116            269 255 
 GUY2CHZ EP   1   2127 52.17                             112    0.65 5  300 234 
 GUY2CHN ES   1   2128 25.67                             112    0.37 5  300 234 
 GUY2CHZ I        2128 33.90        13.5 0.44                           300 234 
                                                                                
