 2012  1 6 2106  4.8 L   6.767 -73.143144.6  RSN 10 0.2 2.0LRSN                1
 GAP=138        0.55       2.2     2.8  3.9 -0.1287E+01  0.1780E+01  0.1960E+01E
 Epicentro: LOS SANTOS - SANTANDER                                             3
 ACTION:UP  12-02-03 08:14 OP:REBC STATUS:               ID:20120106210604 L   I
 2012-01-06-2100-00M.COL___185                                                 6
 STAT SP IPHASW D HRMM SECON CODA AMPLIT PERI AZIMU VELO SNR AR TRES W  DIS CAZ7
 BAR2 SZ EP       21 6 24.15                             172     0.010   20 193 
 BAR2 SZ ES   1   21 6 39.14                             172    -0.2 7   20 193 
 BAR2 SZ I        21 6 41.00        20.0 0.22                            20 193 
 GIR2 SZ EP   1   21 6 24.26                             166    -0.1 7   35 351 
 BRR  HZ EP       21 6 26.08                             152     0.210   73 301 
 BRR  HZ I        21 6 39.85        25.5 0.37                            73 301 
 BRR  HN ES   1   21 6 42.86                             152     0.5 7   73 301 
 PAM  SZ EP       21 6 26.95                             150    -0.110   80  38 
 PAM  SN ES       21 6 44.16                             150    -0.210   80  38 
 RUS  HZ EP       21 6 28.12                             145     0.010   97 176 
 RUS  HE ES       21 6 46.56                             145     0.210   97 176 
 RUS  HZ I        21 6 48.58        12.4 0.37                            97 176 
 PTB  HZ EP   1   21 6 31.13                             132    -0.5 7  147 260 
 PTB  HN ES       21 6 52.27                             132    -0.3 9  147 260 
 OCA  SZ ES   1   21 6 55.90                             129     0.3 7  164 353 
 NOR  SZ EP   1   21 6 40.23                             118     0.0 6  233 235 
 NOR  SE ES   1   21 7  7.88                             118     0.0 6  233 235 
 CHI  HZ EP       21 6 42.08                             117     0.1 8  245 195 
 CHI  HN ES   1   21 7 11.02                             117     0.0 6  245 195 
 CHI  HZ I        21 7 17.52         5.9 0.55                           245 195 
 PRA  HZ EP   1   21 6 58.32                             106     0.4 4  389 210 
                                                                                
