 2011  9 6 2001 35.4 L   6.745 -73.088137.5  RSN  4 0.3 2.0LRSN                1
 GAP=147        0.68       4.6     6.9  7.6 -0.6283E+00 -0.3730E+01  0.1557E+00E
 Epicentro: JORDAN - SANTANDER                                                 3
 ACTION:UPD 12-07-13 15:56 OP:ep   STATUS:               ID:20110906200135 L   I
 2011-09-06-2000-32S.COL___170                                                 6
 STAT SP IPHASW D HRMM SECON CODA AMPLIT PERI AZIMU VELO AIN AR TRES W  DIS CAZ7
 BAR2 SZ ES   1   20 2  7.98                             171   -0.52 7 19.8 212 
 BAR2 SZ I        20 2 10.41        31.4 0.15                          19.8 212 
 PAM  SZ EP   1   20 1 56.84                             149   -0.02 7 78.5  33 
 PAM  SN ES   1   20 2 13.72                             149    0.15 7 78.5  33 
 BRR  HZ EP   1   20 1 55.81                             148   -0.43 7 79.8 300 
 BRR  HN ES   1   20 2 12.88                             148    0.42 7 79.8 300 
 BRR  HZ I        20 2 17.20        20.3 0.24                          79.8 300 
 RUS  HZ EP   1   20 1 58.15                             144    0.22 7 94.2 180 
 RUS  HN ES   1   20 2 15.64                             144    0.17 7 94.2 180 
 RUS  HZ I        20 2 18.10        13.4 0.23                          94.2 180 
                                                                                
