 2011  6 6 2128 26.3 L   6.787 -73.109146.6  RSN 10 0.2 1.8LRSN                1
 GAP=142        0.61       2.7     4.1  4.0 -0.5441E+01  0.4149E+01  0.9061E+00E
 Epicentro: LOS SANTOS - SANTANDER                                             3
 ACTION:UP  11-07-14 19:03 OP:ep   STATUS:               ID:20110606212826 L   I
 2011-06-06-2126-33S.COL___132                                                 6
 STAT SP IPHASW D HRMM SECON CODA AMPLIT PERI AZIMU VELO SNR AR TRES W  DIS CAZ7
 BTL  SZ EP   1   2128 46.17                             171     0.1 7   23 310 
 BAR2 SZ EP       2128 46.09                             171     0.110   23 201 
 BAR2 SZ ES       2129  1.21                             171    -0.210   23 201 
 BAR2 SZ I        2129  2.51        35.9 0.12                            23 201 
 BRR  HZ EP       2128 47.85                             151     0.110   75 298 
 BRR  HE ES   1   2129  4.84                             151     0.3 7   75 298 
 BRR  HZ I        2129  7.33        18.9 0.15                            75 298 
 PAM  SZ EP       2128 48.84                             151     0.310   76  37 
 PAM  SZ I        2128 49.24         8.6 0.20                            76  37 
 PAM  SE ES       2129  5.83                             151     0.010   76  37 
 RUS  HZ EP   1   2128 50.10                             144     0.1 7   99 178 
 RUS  HE ES   1   2129  8.64                             144     0.1 7   99 178 
 RUS  HZ I        2129 10.06        11.5 0.38                            99 178 
 GRA  SZ EP   1   2128 51.26                             137    -0.4 7  126  16 
 GRA  SZ ES   1   2129 11.10                             137    -0.3 7  126  16 
 GRA  SZ I        2129 12.51        10.8 0.26                           126  16 
 OCA  SZ EP   1   2128 54.91                             129     0.0 7  162 352 
 NOR  SZ EP       2129  2.13                             118    -0.2 8  237 235 
 NOR  SN ES   1   2129 29.96                             118    -0.5 6  237 235 
 NOR  SZ I        2129 35.37         1.7 0.33                           237 235 
 CHI  HZ EP       2129  3.90                             117    -0.1 8  248 196 
 CHI  HE ES   1   2129 33.35                             117    -0.1 6  248 196 
 CHI  HZ I        2129 40.70         5.8 0.40                           248 196 
 RREF HN ES   1   2129 49.49                             111     0.6 5  324 230 
                                                                                
