 2011  9 6 2134 10.2 L   6.785 -73.118146.7  RSN 10 0.4 3.0LRSN                1
 GAP=141        0.80       3.6     5.4  5.9  0.1749E+01  0.1116E+02  0.3808E+01E
 Epicentro: LOS SANTOS - SANTANDER                                             3
 ACTION:UPD 12-07-13 15:56 OP:ep   STATUS:               ID:20110906213410 L   I
 2011-09-06-2133-14S.COL___171                                                 6
 STAT SP IPHASW D HRMM SECON CODA AMPLIT PERI AZIMU VELO AIN AR TRES W  DIS CAZ7
 BAR2 SZ IP       2134 30.05                             171    0.0810 22.5 198 
 BAR2 SZ ES   1   2134 45.13                             171   -0.23 7 22.5 198 
 BAR2 SZ I        2134 46.87       175.1 0.35                          22.5 198 
 BRR  HZ IP     C 2134 31.96                             152    0.2710 74.7 298 
 BRR  HZ I        2134 32.28       453.5 0.13                          74.7 298 
 BRR  HN ES   1   2134 49.14                             152    0.72 7 74.7 298 
 PAM  SZ EP   1   2134 32.86                             151    0.34 7 76.7  37 
 PAM  SN ES   1   2134 49.91                             151    0.01 7 76.7  37 
 RUS  HZ EP   1   2134 34.11                             144    0.15 7 98.8 178 
 RUS  HE ES   1   2134 51.91                             144   -0.55 7 98.8 178 
 RUS  HZ I        2134 53.98        79.1 0.23                          98.8 178 
 OCA  SZ EP   1   2134 38.08                             129   -0.73 7  162 352 
 OCA  SZ ES   1   2135  1.01                             129   -0.09 7  162 352 
 OCA  SZ I        2135  6.54       194.1 0.25                           162 352 
 ZAR  HZ EP   1   2134 42.40                             122   -0.71 6  208 292 
 ZAR  HN ES   1   2135  8.21                             122   -0.53 6  208 292 
 ZAR  HZ I        2135 15.26       114.6 0.31                           208 292 
 CHI  HZ EP   1   2134 47.98                             117    0.06 6  248 196 
 CHI  HZ I        2134 50.18        26.3 0.14                           248 196 
 HEL  HZ EP   1   2134 51.53                             115    0.74 6  275 256 
 HEL  HZ I        2135 28.46        55.4 0.32                           275 256 
 TOL  SZ EP   1   2134 58.75                             109    0.09 5  345 225 
 PRA  HZ EP   1   2135  4.08                             107    0.27 4  392 210 
 PRA  HN ES   2   2135 45.15                             107   -0.44 3  392 210 
                                                                                
