 2011  2 6 2143  0.5 L   6.813 -73.260145.3  RSN  5 0.1 1.5LRSN                1
 GAP=151        0.33       2.4     5.2  7.2 -0.7984E+01  0.1414E+02 -0.4825E+01E
 Epicentro: ZAPATOCA - SANTANDER                                               3
 ACTION:UP  11-03-28 15:06 OP:jfem STATUS:               ID:20110206214301 L   I
 2011-02-06-2141-29S.COL___137                                                 6
 STAT SP IPHASW D HRMM SECON CODA AMPLIT PERI AZIMU VELO SNR AR TRES W  DIS CAZ7
 BAR2 SZ EP   2   2143 20.40                             169     0.3 5   26 161 
 BAR2 SZ I        2143 36.35         9.2 0.25                            26 161 
 RUS  HZ EP       2143 24.34                             143    -0.110  104 169 
 RUS  HN ES   2   2143 43.06                             143     0.0 5  104 169 
 RUS  HZ I        2143 44.04         2.5 0.23                           104 169 
 GRA  SZ EP       2143 26.00                             136     0.010  129  23 
 GRA  SZ ES   2   2143 45.70                             136    -0.1 5  129  23 
 GRA  SZ I        2143 47.03         4.7 0.26                           129  23 
 NOR  SZ EP   2   2143 35.13                             119    -0.1 4  226 232 
 NOR  SE ES   2   2144  2.26                             119     0.0 4  226 232 
 CHI  HE ES   1   2144  7.35                             117     0.1 6  247 192 
 CHI  HZ I        2144 11.42         3.1 0.42                           247 192 
                                                                                
