 2010  9 6 2031 37.7 L   6.569 -73.466114.0  RSN 12 0.5 2.1LRSN                1
 GAP= 76        1.03       4.8     9.7  8.9 -0.1545E+02  0.3438E+02 -0.2615E+01E
 Epicentro: EL CARMEN DE CHUCURI - SANTANDER                                   3
 ACTION:UP  11-02-18 11:00 OP:tino STATUS:               ID:20100906203137 L   I
 2010-09-06-2027-40S.COL___120                                                 6
 STAT SP IPHASW D HRMM SECON CODA AMPLIT PERI AZIMU VELO SNR AR TRES W  DIS CAZ7
 BAR2 SZ IP       2031 54.15                             164     0.410   31  85 
 BAR2 SZ ES   1   2032  6.35                             164     0.1 7   31  85 
 BAR2 SZ I        2032  8.01       166.6 0.39                            31  85 
 GIR2 SZ EP   2   2031 55.63                             149     0.4 5   64  28 
 GIR2 SZ ES   2   2032  9.31                             149     0.4 5   64  28 
 BRR  HN ES   2   2032  8.75                             148     0.0 5   65 335 
 RUS  HZ EP       2031 57.18                             141    -0.110   86 150 
 RUS  HZ I        2031 57.76         8.6 0.29                            86 150 
 RUS  HE ES   2   2032 12.12                             141    -0.5 5   86 150 
 GUE  SZ IP       2032  2.06                             124    -1.0 9  152  23 
 GUE  SZ I        2032  9.75        12.7 0.07                           152  23 
 GRA  SZ EP   1   2032  4.76                             121     0.7 7  163  27 
 GRA  SZ I        2032 29.55        18.5 0.32                           163  27 
 OCA  SZ EP   2   2032  6.48                             118     0.1 4  185   5 
 OCA  SZ ES   2   2032 29.36                             118     0.5 4  185   5 
 OCA  SZ I        2032 36.62        20.9 0.31                           185   5 
 CHI  HZ EP   2   2032 10.22                             114     0.0 4  217 188 
 CHI  HN ES   2   2032 35.84                             114     0.3 4  217 188 
 CHI  HZ I        2032 40.67         4.8 0.38                           217 188 
 HEL  HZ EP   2   2032 11.56                             112    -0.3 4  232 260 
 HEL  HZ I        2032 43.47         6.6 0.31                           232 260 
 GUY  SZ EP   2   2032 15.52                             109     0.6 4  258 235 
 GUY  SZ I        2032 39.05        35.9 0.27                           258 235 
 RREF HN ES   2   2032 48.10                             108    -0.6 4  278 229 
 RREF HZ I        2032 53.59         8.7 0.08                           278 229 
 PRA  HZ EP   2   2032 25.32                             103    -0.3 3  353 207 
 PRA  HN ES   2   2033  3.45                             103     0.5 3  353 207 
 PRA  HZ I        2033  7.56         8.4 0.29                           353 207 
                                                                                
