 2013 12 6 2228 37.4 L   6.791 -73.157148.7  RSN  9 0.4 2.2LRSN                1
 GAP=136        1.09       3.7     4.5  6.8 -0.1887E+01  0.7670E+01 -0.2083E+01E
 Epicentro: LOS SANTOS - SANTANDER                                             3
 ACTION:UPD 14-01-13 10:16 OP:ep   STATUS:               ID:20131206222837 L   I
 OLDACT:UP  13-12-07 01:56 OP:mh   STATUS:               ID:20131206222750     3
 OLDACT:REG 13-12-07 01:53 OP:mh   STATUS:               ID:20131206222750     3
 2013-12-06-2227-50M.COL___253                                                 6
 STAT SP IPHASW D HRMM SECON CODA AMPLIT PERI AZIMU VELO AIN AR TRES W  DIS CAZ7
 BAR2 SZ EP   1   2228 57.28                             171   -0.08 7 22.2 187 
 BAR2 SZ ES   1   2229 12.42                             171   -0.51 7 22.2 187 
 BRR  HZ EP       2228 59.40                             153    0.5710 70.6 300 
 BRR  HN ES       2229 16.28                             153    0.7310 70.6 300 
 BRR  HZ I        2229 18.35        21.1 0.11            152           70.6 300 
 PAM  SZ EP       2229  0.36                             151    0.3410 78.9  40 
 PAM  SN ES       2229 17.67                             151    0.0110 78.9  40 
 PAM  SZ I        2229 21.76        10.3 0.27            155           78.9  40 
 RUS  HZ EP       2229  1.20                             145   -0.1810 99.7 175 
 RUS  HN ES       2229 19.66                             145   -0.4210 99.7 175 
 PTB  HZ EP       2229  4.12                             133   -0.36 9  146 259 
 PTB  HN ES       2229 24.66                             133   -0.94 9  146 259 
 PTB  HZ I        2229 31.11        23.9 0.06            134            146 259 
 SPBC HZ EP       2229  6.21                             130    0.23 9  162 219 
 SPBC HN ES       2229 28.88                             130    0.61 9  162 219 
 SPBC HZ I        2229 33.01        20.1 0.07            131            162 219 
 ZAR  HZ EP   1   2229  9.80                             123   -0.15 6  203 293 
 ZAR  HN ES       2229 35.57                             123    0.22 9  203 293 
 ZAR  HZ I        2229 41.45        15.2 0.31            124            203 293 
 NOR  HZ EP   1   2229 13.29                             119    0.16 6  233 234 
 NOR  HN ES       2229 41.10                             119    0.10 8  233 234 
 NOR  HZ I        2229 48.28        14.8 0.10            121            233 234 
 SML  HZ EP       2229 13.98                             118   -0.25 8  244 336 
 SML  HN ES       2229 42.38                             118   -0.58 8  244 336 
                                                                                
