 2014  9 6 2238 36.1 L   6.827 -73.190142.6  RSN 32 0.6 3.0LRSN 3.4WRSN        1
 SPEC AVERAGE  MO 14.2 ST  1.1 OM  2.3 f0 2.07 R1.1181 AL 0.00 WI 60.0 MW  3.4 3
 SPEC SD       MO  0.3 ST0.895 OM  0.4 f00.896 R0.5162 AL      WI      MW  0.2 3
 GAP= 68        1.97       4.0     4.7  8.1 -0.1220E+01  0.1109E+02  0.7169E+01E
 Epicentro: ZAPATOCA - SANTANDER                                               3
     155.0      78.0    -164.0  8.0 11.0  4.0  0.2  0.2           RSN FPFIT    F
 SPEC BAR2SH Z MO 14.3 ST  2.5 OM  2.4 f0 2.79 R0.6896 AL-0.00 WI 60.0 MW  3.5 3
 SPEC BAR2SH Z T2239 9 K 0.000 GD  144 VS 5.20 DE 3.50 Q0750.0 QA 1.50 VS 5.20 3
 SPEC RUS HH Z MO 14.3 ST0.342 OM  2.3 f0 1.45 R1.3269 AL-0.00 WI 60.0 MW  3.5 3
 SPEC RUS HH Z T223916 K 0.000 GD  176 VS 5.20 DE 3.50 Q0750.0 QA 1.50 VS 5.20 3
 SPEC SPBCHH Z MO 14.4 ST  2.0 OM  2.4 f0 2.27 R0.8476 AL-0.00 WI 60.0 MW  3.6 3
 SPEC SPBCHH Z T223924 K 0.000 GD  216 VS 5.20 DE 3.50 Q0750.0 QA 1.50 VS 5.20 3
 SPEC ZAR HH Z MO 13.9 ST  2.6 OM  1.8 f0 3.76 R0.5117 AL-0.00 WI 60.0 MW  3.2 3
 SPEC ZAR HH Z T223931 K 0.000 GD  244 VS 5.20 DE 3.50 Q0750.0 QA 1.50 VS 5.20 3
 SPEC NOR HH Z MO 13.9 ST  1.5 OM  1.8 f0 3.04 R0.6329 AL-0.00 WI 60.0 MW  3.2 3
 SPEC NOR HH Z T223937 K 0.000 GD  273 VS 5.20 DE 3.50 Q0750.0 QA 1.50 VS 5.20 3
 SPEC SML HH Z MO 14.5 ST  1.6 OM  2.3 f0 2.08 R0.9250 AL-0.00 WI 60.0 MW  3.6 3
 SPEC SML HH Z T223938 K 0.000 GD  278 VS 5.20 DE 3.50 Q0750.0 QA 1.50 VS 5.20 3
 SPEC HEL HH Z MO 14.1 ST0.173 OM  1.9 f0 1.31 R1.4687 AL-0.00 WI 60.0 MW  3.3 3
 SPEC HEL HH Z T223943 K 0.000 GD  303 VS 5.20 DE 3.50 Q0750.0 QA 1.50 VS 5.20 3
 SPECGUY2CHH Z MO 14.5 ST  0.1 OM  2.3 f00.829 R  2.32 AL-0.00 WI 60.0 MW  3.6 3
 SPECGUY2CHH Z T223951 K       GD331.2 VS 5.20 DE 3.50 Q0750.0 QA 1.50 VS 5.20 3
 SPEC MON HH Z MO 14.6 ST0.148 OM  2.3 f00.852 R2.2582 AL-0.00 WI 60.0 MW  3.7 3
 SPEC MON HH Z T223959 K 0.000 GD  376 VS 5.20 DE 3.50 Q0750.0 QA 1.50 VS 5.20 3
 SPEC ARGCHH Z MO 14.0 ST0.909 OM  1.7 f0 2.46 R0.7821 AL-0.00 WI 60.0 MW  3.3 3
 SPEC ARGCHH Z T2240 1 K 0.000 GD  382 VS 5.20 DE 3.50 Q0750.0 QA 1.50 VS 5.20 3
 SPEC ORTCHH Z MO 14.4 ST0.236 OM  2.1 f0 1.12 R1.7179 AL-0.00 WI 60.0 MW  3.6 3
 SPEC ORTCHH Z T2240 9 K 0.000 GD  419 VS 5.20 DE 3.50 Q0750.0 QA 1.50 VS 5.20 3
 SPEC MACCHH Z MO 14.0 ST0.332 OM  1.6 f0 1.69 R1.1385 AL-0.00 WI 60.0 MW  3.3 3
 SPEC MACCHH Z T224028 K 0.000 GD  542 VS 5.20 DE 3.50 Q0750.0 QA 1.50 VS 5.20 3
 OLDACT:REG 14-09-07 06:33 OP:stll STATUS:               ID:20140906223818     3
 ACTION:UPD 14-10-03 23:02 OP:nd   STATUS:               ID:20140906223836 L   I
 OLDACT:UP  14-09-07 09:01 OP:stll STATUS:               ID:20140906223818     3
 2014-09-06-2238-18M.COL___262                                                 6
 STAT SP IPHASW D HRMM SECON CODA AMPLIT PERI AZIMU VELO AIN AR TRES W  DIS CAZ7
 BAR2 SZ IP       2238 55.67                             169    0.2210 26.0 178 
 BAR2 SZ ES       2239 10.86                             169    0.3410 26.0 178 
 BAR2 SZ I        2239 12.22       487.3 0.16            170           26.0 178 
 BRR  HZ IP     C 2238 57.49                             154    0.8510 65.5 298 
 BRR  HZ I        2238 57.72       205.0 0.26            146           65.5 298 
 BRR  HN ES       2239 13.47                             154    0.8510 65.5 298 
 PAM  SZ IP     C 2238 58.39                             150    0.3110 78.4  44 
 PAM  SZ I        2238 58.80       429.1 0.22            150           78.4  44 
 PAM  SN ES       2239 15.37                             150    0.1710 78.4  44 
 RUS  HZ IP     D 2238 59.58                             142   -0.2610  104 173 
 RUS  HE ES       2239 17.73                             142   -0.5910  104 173 
 RUS  HZ I        2239 19.55       260.7 0.28            144            104 173 
 PTB  HZ EP       2239  2.24                             132   -0.24 9  144 257 
 PTB  HN ES       2239 22.92                             132   -0.10 9  144 257 
 PTB  HZ I        2239 29.09        97.3 0.32            127            144 257 
 OCA  HZ EP     D 2239  3.79                             129   -0.09 9  157 355 
 OCA  HN ES       2239 25.04                             129   -0.48 9  157 355 
 OCA  HZ I        2239 35.47        85.1 0.24            126            157 355 
 TAM  HZ IP     C 2239  3.95                             129   -0.14 9  161 106 
 TAM  HZ I        2239  4.06       154.4 0.20            131            161 106 
 TAM  HN ES       2239 25.42                             129   -0.47 9  161 106 
 SPBC HZ EP       2239  4.51                             128    0.17 9  163 217 
 SPBC HE ES       2239 25.82                             128   -0.52 9  163 217 
 SPBC HZ I        2239 29.30       245.1 0.30            126            163 217 
 ZAR  HZ EP       2239  8.09                             122    0.29 9  198 292 
 ZAR  HE ES       2239 32.72                             122    0.22 9  198 292 
 ZAR  HZ I        2239 39.30        89.1 0.38            118            198 292 
 NOR  HZ EP       2239 11.45                             118   -0.01 8  233 233 
 NOR  HE ES       2239 39.09                             118    0.08 8  233 233 
 NOR  HZ I        2239 45.32        84.4 0.18            116            233 233 
 SML  HZ EP       2239 11.83                             117   -0.25 8  239 336 
 SML  HN ES       2239 39.60                             117   -0.51 8  239 336 
 SML  HZ I        2239 48.68        98.9 0.10            114            239 336 
 CHI  HZ EP     D 2239 13.23                             116   -0.62 8  250 194 
 CHI  HZ I        2239 14.50        69.0 0.28            115            250 194 
 CHI  HN ES       2239 42.96                             116   -0.31 8  250 194 
 ROSC BZ EP     D 2239 15.26                             116    1.15 8  253 210 
 ROSC BN ES       2239 44.85                             116    1.13 8  253 210 
 ROSC BZ I        2239 50.68       116.0 0.40            114            253 210 
 HEL  HZ EP       2239 16.61                             114    0.85 8  268 255 
 HEL  HN ES       2239 45.39                             114   -1.27 8  268 255 
 HEL  HZ I        2239 54.60        43.2 0.24            112            268 255 
 URE  HZ EP       2239 15.91                             113   -0.52 7  278 292 
 URE  HN ES       2239 46.94                             113   -0.92 7  278 292 
 URE  HZ I        2239 57.20        79.4 0.24            110            278 292 
 GUY2CHZ EP       2239 20.08                             112    0.72 7  299 234 
 GUY2CHN ES       2239 53.23                             112    0.16 7  299 234 
 GUY2CHZ I        2240  3.20        45.7 0.66                           299 234 
 VIL  SZ EP       2239 19.10                             111   -0.55 7  305 191 
 VIL  SN ES       2239 52.74                             111   -0.84 7  305 191 
 VIL  SZ I        2239 55.94        68.1 0.34            110            305 191 
 CBOC HZ EP       2239 22.96                             109    0.45 7  330 251 
 CBOC HN ES       2239 57.92                             109   -0.75 7  330 251 
 CBOC HZ I        2240 15.34        19.0 0.56            107            330 251 
 DBB  SZ EP   2   2239 23.61                             109    0.70 3  334 274 
 DBB  SZ I        2240  3.08       108.8 0.36            107            334 274 
 TOL  SZ EP       2239 24.89                             109    0.76 7  342 224 
 TOL  SE ES       2240  1.94                             109    0.38 7  342 224 
 MON  HZ EP   9 C 2239 22.70                             108   -1.67 0  348 308 
 MON  HN ES       2240  0.65                                    0.34 6  348 308 
 MON  HZ I        2240 17.67        26.4 0.70            106            348 308 
 ARGC HZ EP   9   2239 25.79                             108    0.62 0  355 341 
 ARGC HN ES       2240  3.36                                   -0.67 6  355 341 
 ARGC HZ I        2240 14.11        37.8 0.38            106            355 341 
 ANIL HZ EP       2239 26.42                             108    0.73 6  356 224 
 ANIL HE ES       2240  4.87                             108    0.54 6  356 224 
 ANIL HZ I        2240 12.12        14.3 0.38            106            356 224 
 SDV  BZ EP   9   2239 25.17                             107   -1.11 0  362  51 
 SDV  BZ I        2239 25.90        33.0 0.25            107            362  51 
 SDV  BN ES       2240  2.04                                   -2.24 6  362  51 
 PRA  HZ EP       2239 28.59                             106   -1.00 6  392 209 
 PRA  HN ES       2240 11.08                             106   -0.19 6  392 209 
 PRA  HZ I        2240 17.62        67.6 0.46            105            392 209 
 ORTC HZ EP     C 2239 29.80                             106   -0.11 6  395 215 
 ORTC HN ES       2240 10.95                             106   -0.90 6  395 215 
 ORTC HZ I        2240 19.17        46.7 0.60            105            395 215 
 PAL  HZ EP       2239 31.26                             105    0.36 6  403 238 
 SJC  HZ IP   9 C 2239 29.78                             105   -1.22 0  404 327 
 SJC  HE ES       2240 10.09                                   -2.48 6  404 327 
 SJC  HZ I        2240 15.24        19.6 0.50            104            404 327 
 YOT  HZ EP       2239 38.62                             103   -0.29 5  470 228 
 YOT  HZ I        2239 41.23         5.9 0.62            101            470 228 
 YOT  HN ES       2240 27.68                             103   -0.18 5  470 228 
 SMAR HZ EP   9   2239 40.76                             102   -0.69 0  493 347 
 SMAR HN ES       2240 27.01                                   -4.69 4  493 347 
 MACC HZ EP   9 C 2239 42.52                             101   -2.53 0  523 188 
 MACC HN ES       2240 30.42                                   -5.84 4  523 188 
 URI  HZ EP   9   2239 45.96                             100   -2.90 0  555  14 
 URI  HN ES       2240 36.56                                   -6.12 4  555  14 
 URI  HZ I        2240 48.49         5.3 0.42             99            555  14 
                                                                                
