 2017  3 6 2306  0.5 L   6.771 -73.113142.9  RSN 16 0.4 2.3LRSN                1
 GAP= 97        0.89       2.9     2.6  4.3 -0.9673E-01  0.3266E+01  0.2817E+01E
 Epicentro: LOS SANTOS - SANTANDER                                             3
 ACTION:UPD 17-05-25 18:37 OP:jn   STATUS:               ID:20170306230600 L   I
 OLDACT:DUP 17-03-07 06:31 OP:lv   STATUS:               ID:20170306225748d    3
 2017-03-06-2258-00M.COL___367                                                 6
 STAT SP IPHASW D HRMM SECON CODA AMPLIT PERI AZIMU VELO AIN AR TRES W  DIS CAZ7
 BAR2 EZ IP     C 23 6 19.72                             171   -0.0310 21.1 201 
 BAR2 EZ ES       23 6 34.33                             171   -0.4310 21.1 201 
 BAR2 EZ I        23 6 35.71       101.2 0.16            171           21.1 201 
 BRR  HZ EP       23 6 21.64                             150    0.0210 75.9 299 
 BRR  HN ES       23 6 38.38                             150    0.2910 75.9 299 
 BRR  HZ I        23 6 40.27        35.0 0.17            147           75.9 299 
 PAM  EZ EP       23 6 22.64                             150    0.2010 77.8  36 
 PAM  EN ES       23 6 39.48                             150   -0.0710 77.8  36 
 PAM  EZ I        23 6 42.45        29.9 0.49            145           77.8  36 
 RUS  HZ EP       23 6 23.73                             144    0.0010 97.1 178 
 RUS  HN ES       23 6 41.94                             144    0.1010 97.1 178 
 RUS  HZ I        23 6 43.17        22.9 0.29            140           97.1 178 
 PTB  HZ EP       23 6 26.63                             131   -0.88 9  151 260 
 PTB  HN ES   4   23 6 47.06                             131   -1.51 0  151 260 
 PTB  HZ I        23 6 50.55        52.4 0.12            126            151 260 
 TAM  HZ IP     D 23 6 28.09                             131    0.53 9  151 104 
 TAM  HN ES       23 6 48.77                             131    0.11 9  151 104 
 TAM  HZ I        23 6 49.97        20.3 0.32            125            151 104 
 SPBC HZ EP       23 6 28.68                             128   -0.09 9  163 221 
 SPBC HN ES       23 6 50.89                             128    0.08 9  163 221 
 SPBC HZ I        23 6 54.45        25.2 0.11            124            163 221 
 ZAR  HZ EP       23 6 33.00                             121   -0.24 8  209 293 
 ZAR  HN ES       23 6 58.61                             121   -0.16 8  209 293 
 ZAR  HZ I        23 7  3.87        26.8 0.27            117            209 293 
 NOR  HZ EP       23 6 35.80                             118   -0.38 8  236 236 
 NOR  HN ES       23 7  4.29                             118    0.28 8  236 236 
 NOR  HZ I        23 7  7.88        16.4 0.27            114            236 236 
 CHI  HZ EP       23 6 37.92                             117    0.11 8  246 196 
 CHI  HN ES       23 7  6.92                             117    0.01 8  246 196 
 CHI  HZ I        23 7 14.78         5.9 0.23            113            246 196 
 ROSC BZ EP   4   23 6 39.98                             116    1.61 0  252 212 
 ROSC BN ES   4   23 7 13.23                             116    5.32 0  252 212 
 ROSC BZ I        23 7 16.67        17.7 0.45            112            252 212 
 HEL  HZ EP       23 6 41.73                             114    0.86 8  275 257 
 HEL  HN ES   4   23 7 11.24                             114   -1.12 0  275 257 
 HEL  HZ I        23 7 18.71        15.2 0.32            110            275 257 
 PTGC HZ EP       23 6 43.01                             111   -0.73 7  304 159 
 PTGC HN ES   4   23 7 15.83                             111   -1.64 0  304 159 
 PTGC HZ I        23 7 18.32        12.1 0.25            107            304 159 
 CBOC HZ EP       23 6 48.38                             109    0.80 7  336 253 
 CBOC HN ES       23 7 24.86                             109    0.56 7  336 253 
 CBOC HZ I        23 7 26.91         4.1 0.21            106            336 253 
 DBB  EZ EP       23 6 47.90                             109   -0.41 7  343 275 
 DBB  EN ES   4   23 7 23.10                             109   -2.49 0  343 275 
 DBB  EZ I        23 7 27.46         5.9 0.17            105            343 275 
 PRA  HZ EP       23 6 53.66                             106   -0.15 6  391 210 
 PRA  HN ES       23 7 35.15                             106   -0.23 6  391 210 
 PRA  HZ I        23 7 38.32         5.5 0.24            103            391 210 
 SJC  HN ES   4   23 7 35.92                             105   -4.30 0  414 327 
                                                                                
