 2014  8 6 2323  1.1 L   6.821 -73.141152.5  RSN  7 0.4 1.9LRSN                1
 GAP=202        0.98       4.3     6.3  7.5  0.6137E+01 -0.6410E+01 -0.3526E+01E
 Epicentro: LOS SANTOS - SANTANDER                                             3
 ACTION:UPD 14-09-15 21:47 OP:nd   STATUS:               ID:20140806232301 L   I
 OLDACT:REG 14-08-07 03:16 OP:mh   STATUS:               ID:20140806231816     3
 2014-08-06-2318-16M.COL___263                                                 6
 STAT SP IPHASW D HRMM SECON CODA AMPLIT PERI AZIMU VELO AIN AR TRES W  DIS CAZ7
 BRR  HZ EP       2323 23.38                             154    0.3910 70.6 297 
 BRR  HZ I        2323 35.40        12.4 0.06            153           70.6 297 
 BRR  HN ES       2323 40.58                             154    0.5410 70.6 297 
 RUS  HZ EP       2323 25.63                             145   -0.0910  103 176 
 RUS  HN ES   1   2323 44.61                             145   -0.29 7  103 176 
 PTB  HZ EP       2323 28.58                             133   -0.18 9  149 258 
 PTB  HN ES       2323 49.54                             133   -0.76 9  149 258 
 PTB  HZ I        2323 57.05        10.3 0.54            134            149 258 
 SPBC HZ EP       2323 30.45                             130    0.08 9  165 219 
 SPBC HN ES   1   2323 52.71                             130   -0.46 7  165 219 
 SPBC HZ I        2324  1.18        11.0 0.53            132            165 219 
 ZAR  HZ EP       2323 33.82                             124   -0.18 9  204 291 
 ZAR  HN ES       2323 59.79                             124    0.16 9  204 291 
 ZAR  HZ I        2324  6.13         4.2 0.05            125            204 291 
 NOR  HZ EP       2323 37.85                             120    0.39 8  237 234 
 NOR  HN ES   1   2324  6.59                             120    0.79 6  237 234 
 SML  HZ EP       2323 38.09                             119    0.14 8  242 335 
 SML  HN ES   1   2324  5.74                             119   -0.92 6  242 335 
 SML  HZ I        2324  9.94         6.1 0.10            121            242 335 
                                                                                
