 2013  7 6 2144 28.7 L   6.837 -73.177137.4  RSN  5 0.4 2.2LRSN                1
 GAP=237        1.04       8.2     7.2 11.6 -0.3994E+01  0.3620E+02 -0.1974E+02E
 Epicentro: ZAPATOCA - SANTANDER                                               3
 ACTION:UPD 13-08-12 10:35 OP:ep   STATUS:               ID:20130706214428 L   I
 OLDACT:DUP 13-07-07 02:30 OP:carl STATUS:               ID:20130706213960d    3
 2013-07-06-2139-59M.COL___266                                                 6
 STAT SP IPHASW D HRMM SECON CODA AMPLIT PERI AZIMU VELO AIN AR TRES W  DIS CAZ7
 BAR2 SZ EP       2144 47.22                             168   -0.2110 27.1 181 
 BAR2 SZ ES   1   2145  2.24                             168    0.21 7 27.1 181 
 BRR  HZ EP       2144 49.18                             153    0.5010 66.2 297 
 RUS  HN ES       2145 10.04                             141   -0.1110  105 174 
 RUS  HN I        2145 10.67        22.7 0.20            142            105 174 
 PTB  HN ES       2145 14.55                             131   -0.56 9  145 257 
 PTB  HZ I        2145 16.79        23.5 0.12            131            145 257 
 NOR  HZ EP       2145  3.48                             117   -0.46 8  234 233 
 NOR  HE ES       2145 32.15                             117    0.75 8  234 233 
                                                                                
