 2010 10 6 2254 47.2 L   6.899 -73.408162.7  RSN  7 0.4 2.2LRSN                1
 GAP=123        0.58       7.0    10.6  8.9 -0.5786E+02 -0.1927E+02  0.2521E+02E
 Epicentro: SAN VICENTE DE CHUCURI - SANTANDER                                 3
 ACTION:UP  11-02-18 11:08 OP:tino STATUS:               ID:20101006225447 L   I
 2010-10-06-2251-16S.COL___123                                                 6
 STAT SP IPHASW D HRMM SECON CODA AMPLIT PERI AZIMU VELO SNR AR TRES W  DIS CAZ7
 BTL  SZ EP       2255  8.61                             174    -0.110   16  82 
 BRR  HZ EP   1   2255  9.17                             165     0.3 7   41 305 
 BRR  HZ I        2255  9.39        30.7 0.12                            41 305 
 BRR  HE ES   2   2255 26.39                             165     0.5 5   41 305 
 GUE  SZ EP   2   2255 13.53                             143     0.1 5  116  27 
 OCA  SZ EP   1   2255 15.80                             136     0.0 7  149   4 
 OCA  SZ ES   2   2255 37.55                             136    -0.6 5  149   4 
 OCA  SZ I        2255 42.99        10.1 0.21                           149   4 
 NOR  SZ EP   2   2255 22.77                             124     0.4 4  219 228 
 NOR  SE ES   2   2255 49.01                             124    -0.7 4  219 228 
 RREF HZ EP   1   2255 32.84                             115     0.3 5  308 224 
 RREF HE ES   2   2256  7.78                             115    -0.2 4  308 224 
 RREF HZ I        2256 18.47         5.7 0.62                           308 224 
 PRA  HZ EP   2   2255 40.77                             109    -0.1 3  388 205 
 PRA  HN ES   2   2256 22.56                             109    -0.3 3  388 205 
 PRA  HZ I        2256 29.32        13.6 0.18                           388 205 
                                                                                
