 2017 12 6 2130 39.8 L   6.775 -73.178139.6  RSN  6 0.4 1.8LRSN                1
 GAP=141        0.91       3.8     4.2  6.5 -0.2950E+01  0.7806E+01  0.3727E+01E
 Epicentro: LOS SANTOS - SANTANDER                                             3
 ACTION:UPD 18-01-04 13:17 OP:rebc STATUS:               ID:20171206213039 L   I
 OLDACT:UP  17-12-07 06:20 OP:dani STATUS:               ID:20171206212741     3
 OLDACT:REG 17-12-07 03:42 OP:dani STATUS:               ID:20171206212741     3
 2017-12-06-2128-00M.COL___478                                                 6
 STAT SP IPHASW D HRMM SECON CODA AMPLIT PERI AZIMU VELO AIN AR TRES W  DIS CAZ7
 BAR2 EZ EP       2130 58.51                             171   -0.0710 20.2 181 
 BAR2 EZ ES       2131 12.99                             171   -0.2710 20.2 181 
 PAM  EZ EP       2131  1.65                             148    0.0610 81.8  40 
 PAM  EN ES       2131 18.83                             148    0.2010 81.8  40 
 PAM  EZ I        2131 19.29         8.0 0.42            156           81.8  40 
 PTB  HZ EP       2131  5.27                             131   -0.58 9  144 260 
 PTB  HN ES       2131 25.69                             131   -0.51 9  144 260 
 PTB  HZ I        2131 32.22         8.2 0.12            132            144 260 
 SPBC HZ EP       2131  7.40                             128    0.04 9  159 219 
 SPBC HE ES       2131 29.24                             128    0.35 9  159 219 
 SPBC HZ I        2131 36.43        18.3 0.10            129            159 219 
 ZAR  HZ EP       2131 11.57                             121    0.00 9  202 293 
 ZAR  HE ES       2131 37.09                             121    0.71 9  202 293 
 CHI  HZ EP       2131 16.48                             116   -0.24 8  245 195 
 CHI  HN ES       2131 46.10                             116    0.54 8  245 195 
 CHI  HZ I        2131 52.51         2.6 0.30            118            245 195 
                                                                                
