 2014  4 6 2027 15.4 L   6.781 -73.143150.0  RSN  5 0.4 1.6LRSN                1
 GAP=138        0.87       3.9     5.4  9.1 -0.6149E+01  0.2284E+02 -0.1020E+02E
 Epicentro: LOS SANTOS - SANTANDER                                             3
 ACTION:UPD 14-05-13 23:06 OP:nd   STATUS:               ID:20140406202715 L   I
 OLDACT:REG 14-04-07 04:00 OP:mh   STATUS:               ID:20140406201806     3
 2014-04-06-2018-06M.COL___259                                                 6
 STAT SP IPHASW D HRMM SECON CODA AMPLIT PERI AZIMU VELO AIN AR TRES W  DIS CAZ7
 PAM  SZ EP       2027 37.68                             151   -0.5110 78.8  38 
 PAM  SN ES   1   2027 56.23                             151    0.29 7 78.8  38 
 PAM  SZ I        2027 59.73         4.9 0.22            154           78.8  38 
 RUS  HZ EP   1   2027 39.91                             145    0.45 7 98.4 176 
 RUS  HN ES       2027 58.28                             145    0.0810 98.4 176 
 RUS  HZ I        2028  0.19         3.9 0.33            151           98.4 176 
 PTB  HZ EP       2027 42.18                             133   -0.57 9  148 260 
 PTB  HN ES   1   2028  3.80                             133   -0.25 7  148 260 
 PTB  HZ I        2028  5.30         3.7 0.13            135            148 260 
 NOR  HZ EP       2027 51.37                             120    0.06 8  234 235 
 NOR  HE ES       2028 19.59                             120    0.29 8  234 235 
 NOR  HZ I        2028 26.33         2.4 0.12            122            234 235 
 SML  HZ EP   1   2027 53.24                             118    0.71 6  246 335 
 SML  HE ES       2028 21.69                             118    0.23 8  246 335 
 SML  HZ I        2028 29.07         6.0 0.10            120            246 335 
 GUY2CHN ES   4   2028 38.49                             113    5.27 0  300 235 
                                                                                
