 2017  3 6 2314 57.2 L   6.758 -73.108141.0  RSN  7 0.3 1.6LRSN                1
 GAP=143        0.75       3.2     3.2  5.5 -0.6840E+00  0.3792E+01 -0.6349E-01E
 Epicentro: LOS SANTOS - SANTANDER                                             3
 ACTION:UPD 17-05-25 18:37 OP:jn   STATUS:               ID:20170306231457 L   I
 OLDACT:REG 17-03-07 05:58 OP:lv   STATUS:               ID:20170306230744     3
 2017-03-06-2308-00M.COL___367                                                 6
 STAT SP IPHASW D HRMM SECON CODA AMPLIT PERI AZIMU VELO AIN AR TRES W  DIS CAZ7
 BAR2 EZ EP       2315 16.29                             171    0.0810 20.1 204 
 BAR2 EZ ES       2315 30.56                             171   -0.4710 20.1 204 
 BAR2 EZ I        2315 31.79        13.0 0.08            170           20.1 204 
 BRR  HZ EP       2315 18.16                             150   -0.0410 77.1 300 
 BRR  HN ES       2315 35.03                             150    0.4610 77.1 300 
 PAM  EZ EP       2315 19.12                             150    0.1310 78.5  35 
 PAM  EN ES       2315 36.02                             150    0.0410 78.5  35 
 PAM  EZ I        2315 38.15         5.9 0.45            152           78.5  35 
 RUS  HZ EP       2315 20.24                             144    0.0910 95.8 178 
 RUS  HN ES       2315 37.98                             144   -0.0710 95.8 178 
 RUS  HZ I        2315 39.38         3.9 0.14            145           95.8 178 
 PTB  HZ EP       2315 23.69                             130   -0.41 9  151 261 
 PTB  HN ES       2315 44.82                             130   -0.26 9  151 261 
 PTB  HZ I        2315 46.99         4.5 0.16            130            151 261 
 SPBC HN ES       2315 47.66                             128    0.50 9  162 221 
 SPBC HZ I        2315 53.02         4.2 0.11            128            162 221 
 ZAR  HN ES       2315 55.40                             120   -0.07 8  210 293 
 ZAR  HZ I        2316  0.64         6.4 0.12            120            210 293 
                                                                                
