 2014  4 6 2226 32.4 L   6.786 -73.144149.4  RSN  9 0.3 1.8LRSN                1
 GAP=137        0.73       2.8     3.2  5.0 -0.2056E+01  0.3228E+01 -0.1088E+01E
 Epicentro: LOS SANTOS - SANTANDER                                             3
 ACTION:UPD 14-05-13 23:06 OP:nd   STATUS:               ID:20140406222632 L   I
 OLDACT:UP  14-04-07 04:52 OP:mh   STATUS:               ID:20140406221806     3
 OLDACT:REG 14-04-07 04:05 OP:mh   STATUS:               ID:20140406221806     3
 2014-04-06-2218-06M.COL___259                                                 6
 STAT SP IPHASW D HRMM SECON CODA AMPLIT PERI AZIMU VELO AIN AR TRES W  DIS CAZ7
 BRR  HZ EP     C 2226 54.29                             153    0.3010 72.2 300 
 BRR  HN ES       2227 11.38                             153    0.5510 72.2 300 
 BRR  HZ I        2227 16.17        13.9 0.09            151           72.2 300 
 PAM  SZ EP       2226 55.16                             151    0.1010 78.5  39 
 PAM  SN ES       2227 12.51                             151   -0.2210 78.5  39 
 PAM  SZ I        2227 15.13         7.9 0.53            154           78.5  39 
 RUS  HZ EP   1   2226 56.45                             145    0.06 7 99.0 176 
 RUS  HN ES   1   2227 15.02                             145   -0.08 7 99.0 176 
 RUS  HZ I        2227 17.31         5.0 0.39            149           99.0 176 
 PTB  HZ EP       2226 59.31                             133   -0.34 9  148 259 
 PTB  HN ES       2227 20.44                             133   -0.47 9  148 259 
 PTB  HZ I        2227 23.64         6.9 0.11            133            148 259 
 OCA  HZ EP       2227  1.50                             130    0.37 9  162 353 
 OCA  HN ES   1   2227 22.93                             130   -0.62 7  162 353 
 OCA  HZ I        2227 29.79         6.9 0.15            132            162 353 
 ZAR  HZ EP       2227  5.32                             123    0.16 9  205 293 
 ZAR  HN ES       2227 30.83                             123    0.11 9  205 293 
 ZAR  HZ I        2227 36.61         8.3 0.26            124            205 293 
 NOR  HZ EP   1   2227  8.16                             119   -0.10 6  234 235 
 NOR  HN ES       2227 36.21                             119   -0.02 8  234 235 
 NOR  HZ I        2227 40.59         4.1 0.20            121            234 235 
 SML  HZ EP       2227  9.20                             118   -0.19 8  245 335 
 SML  HN ES       2227 38.15                             118   -0.10 8  245 335 
 SML  HZ I        2227 46.20        10.4 0.08            120            245 335 
 GUY2CHZ EP   4   2227  7.69                             113   -8.40 0  300 235 
 GUY2CHN ES   4   2227 53.73                             113    3.56 0  300 235 
 RREF HZ EP   4   2227 21.04                             112    2.44 0  321 230 
 RREF HN ES   4   2227 56.50                             112    1.87 0  321 230 
 RREF HZ I        2228  4.05         2.6 0.27            113            321 230 
                                                                                
