 2016  3 6 2201 49.7 L   6.783 -73.175135.2  RSN  9 0.2 1.6LRSN                1
 GAP=134        0.37       2.2     1.9  3.7 -0.1537E+01  0.1381E+01  0.2086E+01E
 Epicentro: LOS SANTOS - SANTANDER                                             3
 ACTION:UPD 16-05-13 21:22 OP:cam  STATUS:               ID:20160306220149 L   I
 OLDACT:REG 16-03-07 03:23 OP:dnl  STATUS:               ID:20160306215748     3
 2016-03-06-2157-48M.COL___325                                                 6
 STAT SP IPHASW D HRMM SECON CODA AMPLIT PERI AZIMU VELO AIN AR TRES W  DIS CAZ7
 BAR2 EZ EP   2   22 2  7.79                             171   -0.19 5 21.1 182 
 BAR2 EZ ES   2   22 2 22.13                             171   -0.13 5 21.1 182 
 BAR2 EZ I        22 2 23.71         6.9 0.10            167           21.1 182 
 PAM  EZ EP     C 22 2 10.95                             148   -0.0510 80.9  40 
 PAM  EN ES       22 2 27.66                             148    0.0310 80.9  40 
 PAM  EZ I        22 2 29.85         7.6 0.46            154           80.9  40 
 RUS  HZ EP       22 2 12.34                             142    0.0710 99.0 174 
 RUS  HE ES   2   22 2 30.17                             142    0.27 5 99.0 174 
 RUS  HZ I        22 2 32.40         5.4 0.28            143           99.0 174 
 PTB  HZ EP   2   22 2 15.10                             130   -0.36 5  144 259 
 PTB  HN ES       22 2 35.52                             130   -0.05 9  144 259 
 PTB  HZ I        22 2 39.24         5.6 0.16            131            144 259 
 SPBC HZ EP   4   22 2 18.71                             127    1.68 0  160 219 
 SPBC HE ES   2   22 2 38.73                             127    0.36 5  160 219 
 SPBC HZ I        22 2 44.74         8.7 0.16            128            160 219 
 ZAR  HZ EP   2   22 2 21.24                             120    0.04 4  202 293 
 ZAR  HN ES   2   22 2 45.89                             120    0.09 4  202 293 
 ZAR  HZ I        22 2 51.76         6.7 0.24            122            202 293 
 NOR  HZ EP   2   22 2 24.39                             117   -0.00 4  231 234 
 NOR  HN ES   2   22 2 51.15                             117   -0.33 4  231 234 
 NOR  HZ I        22 2 54.81         3.6 0.28            118            231 234 
 CHI  HZ EP   2   22 2 26.56                             115    0.06 4  246 195 
 CHI  HE ES   2   22 2 54.61                             115   -0.63 4  246 195 
 CHI  HZ I        22 3  3.23         1.7 0.34            117            246 195 
 GUY2CHZ EP   2   22 2 32.91                             110    0.53 4  297 235 
 GUY2CHN ES   2   22 3  6.15                             110    0.46 4  297 235 
 GUY2CHZ I        22 3 14.42         1.7 0.26                           297 235 
                                                                                
