 2017  1 6 2206  6.6 L   6.750 -73.090142.8  RSN 12 0.4 2.2LRSN                1
 GAP=126        0.93       3.2     3.8  4.9  0.1735E+01  0.2591E+01  0.4739E+01E
 Epicentro: LOS SANTOS - SANTANDER                                             3
 ACTION:UPD 17-05-22 15:56 OP:jn   STATUS:               ID:20170106220606 L   I
 OLDACT:UP  17-01-07 05:16 OP:edw  STATUS:               ID:20170106215747d    3
 OLDACT:DUP 17-01-07 05:10 OP:edw  STATUS:               ID:20170106215747d    3
 OLDACT:UP  17-01-07 05:09 OP:edw  STATUS:               ID:20170106215746     3
 OLDACT:UP  17-01-07 05:08 OP:edw  STATUS:               ID:20170106215746     3
 OLDACT:REG 17-01-07 04:18 OP:edw  STATUS:               ID:20170106215746     3
 2017-01-06-2158-00M.COL___386                                                 6
 STAT SP IPHASW D HRMM SECON CODA AMPLIT PERI AZIMU VELO AIN AR TRES W  DIS CAZ7
 BAR2 EZ EP       22 6 25.78                             172   -0.0110 20.2 210 
 BAR2 EZ ES       22 6 40.50                             172   -0.2810 20.2 210 
 BAR2 EZ I        22 6 41.94        35.9 0.16            170           20.2 210 
 PAM  EZ EP     D 22 6 28.72                             150    0.2010 78.2  34 
 PAM  EN ES       22 6 45.68                             150    0.0310 78.2  34 
 PAM  EZ I        22 6 48.55        23.7 0.36            153           78.2  34 
 BRR  HZ EP       22 6 27.76                             149   -0.1210 79.2 300 
 BRR  HN ES       22 6 44.80                             149    0.2910 79.2 300 
 BRR  HZ I        22 6 49.38        46.3 0.10            149           79.2 300 
 RUS  HZ EP     C 22 6 29.64                             145    0.0210 94.8 180 
 RUS  HN ES       22 6 47.73                             145    0.1310 94.8 180 
 RUS  HZ I        22 6 49.20        39.4 0.32            146           94.8 180 
 PTB  HZ EP   9   22 6 32.44                             130   -1.33 0  153 261 
 PTB  HN ES       22 6 53.41                             130   -0.24 9  153 261 
 PTB  HZ I        22 6 55.89        19.0 0.16            131            153 261 
 ZAR  HZ EP       22 6 40.29                             121    0.65 8  212 293 
 ZAR  HN ES       22 7  4.79                             121   -0.64 8  212 293 
 ZAR  HZ I        22 7 10.58        26.3 0.30            121            212 293 
 NOR  HZ EP       22 6 42.34                             118    0.00 8  237 236 
 NOR  HN ES       22 7  9.86                             118   -0.38 8  237 236 
 NOR  HZ I        22 7 11.55        11.5 0.26            118            237 236 
 CHI  HZ EP       22 6 43.94                             117    0.22 8  245 197 
 CHI  HN ES       22 7 13.63                             117    0.94 8  245 197 
 CHI  HZ I        22 7 18.90         3.9 0.36            118            245 197 
 URE  HZ EP   2   22 6 47.59                             112   -0.78 4  292 292 
 URE  HN ES   4   22 7 18.36                             112   -2.62 0  292 292 
 URE  HZ I        22 7 22.03        10.6 0.06            113            292 292 
 PTGC HZ EP       22 6 48.83                             111   -0.64 7  301 159 
 PTGC HN ES       22 7 22.11                             111   -0.81 7  301 159 
 GUY2CHZ EP   4   22 6 51.55                             112    1.29 0  303 236 
 GUY2CHE ES   4   22 7 25.69                             112    1.35 0  303 236 
 GUY2CHZ  IAML    22 7 30.34         6.3 0.29                           303 236 
 LL6C HZ EP   4   22 6 32.77                             109   -20.0 0  331 357 
 ORTC HZ EP       22 7  0.54                             106    0.24 6  395 217 
 ORTC HN ES   4   22 7 44.11                             106    1.90 0  395 217 
 ORTC HZ I        22 7 47.28         4.7 0.28            107            395 217 
 SJC  HZ EP   4 D 22 7  0.74                             105   -2.24 0  417 327 
 SJC  HN ES   4   22 7 41.79                             105   -5.18 0  417 327 
                                                                                
