 2017  1 6 2227  6.9 L   6.797 -73.087144.0  RSN  6 0.4 1.5LRSN                1
 GAP=144        1.09       5.6     5.7  7.8  0.5507E+01 -0.1919E+01 -0.2708E+01E
 Epicentro: LOS SANTOS - SANTANDER                                             3
 ACTION:UPD 17-05-22 15:56 OP:jn   STATUS:               ID:20170106222706 L   I
 OLDACT:UP  17-01-07 05:27 OP:edw  STATUS:               ID:20170106221744     3
 OLDACT:UP  17-01-07 05:27 OP:edw  STATUS:               ID:20170106221744     3
 OLDACT:REG 17-01-07 04:19 OP:edw  STATUS:               ID:20170106221744     3
 2017-01-06-2218-00M.COL___386                                                 6
 STAT SP IPHASW D HRMM SECON CODA AMPLIT PERI AZIMU VELO AIN AR TRES W  DIS CAZ7
 BAR2 EZ EP       2227 26.05                             170   -0.3510 25.0 205 
 BAR2 EZ ES       2227 41.56                             170   -0.0110 25.0 205 
 BAR2 EZ I        2227 42.36         6.2 0.14            172           25.0 205 
 PAM  EZ EP       2227 29.35                             152    0.6010 73.7  35 
 PAM  EN ES       2227 45.49                             152   -0.2710 73.7  35 
 PAM  EZ I        2227 50.82         7.3 0.30            152           73.7  35 
 BRR  HZ IP     D 2227 28.49                             150    0.2410 77.1 296 
 BRR  HN ES       2227 45.19                             150    0.3210 77.1 296 
 RUS  HZ EP       2227 30.56                             144    0.0810  100 180 
 RUS  HN ES       2227 48.72                             144   -0.1210  100 180 
 RUS  HZ I        2227 50.69         3.0 0.32            147            100 180 
 PTB  HZ EP   9   2227 31.84                             131   -2.51 0  154 259 
 PTB  HN ES       2227 54.03                             133    0.81 9  154 259 
 PTB  HZ I        2227 57.11         4.7 0.20            132            154 259 
 ZAR  HZ EP   4   2227 41.82                             121    1.90 0  210 292 
 ZAR  HN ES       2228  4.93                             121   -0.70 8  210 292 
 ZAR  HZ I        2228  9.07         3.7 0.12            122            210 292 
                                                                                
