 2015 12 6 2126  8.8 L   6.681 -73.173140.0  RSN  4 0.3 1.4LRSN                1
 GAP=150        0.72       6.7     3.7  7.2 -0.8891E+01  0.9820E+01 -0.1319E+02E
 Epicentro: VILLANUEVA - SANTANDER                                             3
 ACTION:UPD 16-02-04 15:03 OP:cam  STATUS:               ID:20151206212608 L   I
 OLDACT:UP  15-12-07 08:36 OP:ak   STATUS:               ID:20151206211751d    3
 OLDACT:DUP 15-12-07 08:33 OP:ak   STATUS:               ID:20151206211751d    3
 OLDACT:REG 15-12-07 06:56 OP:ak   STATUS:               ID:20151206211750     3
 2015-12-06-2117-50M.COL___326                                                 6
 STAT SP IPHASW D HRMM SECON CODA AMPLIT PERI AZIMU VELO AIN AR TRES W  DIS CAZ7
 BAR2 EZ EP       2126 27.17                             176   -0.4110 9.88 186 
 BAR2 EZ ES       2126 42.27                             176    0.0810 9.88 186 
 BAR2 EZ I        2126 44.56         5.0 0.18            174           9.88 186 
 PAM  EZ EP       2126 31.72                             146    0.4710 89.7  36 
 PAM  EN ES       2126 48.55                             146   -0.1710 89.7  36 
 PAM  EZ I        2126 49.09         3.1 0.32            147           89.7  36 
 PTB  HZ EP   2   2126 35.26                             132    0.38 5  143 264 
 PTB  HN ES       2126 55.25                             132    0.06 9  143 264 
 PTB  HZ I        2126 58.55         4.2 0.05            131            143 264 
 ZAR  HZ EP   2   2126 40.49                             121   -0.69 4  207 296 
 ZAR  HE ES       2127  6.43                             121    0.02 8  207 296 
 ZAR  HZ I        2127 12.85         3.5 0.10            121            207 296 
                                                                                
