 2010  3 6 2318 40.0 L   6.338 -73.624109.7  RSN 10 0.3 1.9LRSN                1
 GAP= 69        0.51       2.8     3.7  6.8  0.1445E+01  0.1792E+02  0.7601E+01E
 Epicentro: SANTA HELENA DEL OPON - SANTANDER                                  3
 ACTION:UP  10-08-24 09:52 OP:vdl  STATUS:               ID:20100306231839 L   I
 2010-03-06-2315-30S.COL___101                                                 6
 STAT SP IPHASW D HRMM SECON CODA AMPLIT PERI AZIMU VELO SNR AR TRES W  DIS CAZ7
 BAR2 SZ EP       2318 56.96                             151     0.210   56  60 
 BAR2 SZ ES   1   2319  9.93                             151     0.1 7   56  60 
 RUS  BZ EP       2318 58.48                             142    -0.110   78 129 
 RUS  BE ES   2   2319 12.62                             142    -0.4 5   78 129 
 RUS  BZ I        2319 15.77        12.4 0.25                            78 129 
 BRR  HZ EP       2318 58.30                             139    -0.210   86 353 
 BRR  HZ I        2318 58.60        20.1 0.11                            86 353 
 BRR  HN ES   2   2319 13.10                             139     0.2 5   86 353 
 CHI  HZ EP   1   2319  9.06                             115    -0.2 7  189 184 
 CHI  HN ES   2   2319 32.14                             115     0.0 4  189 184 
 CHI  HZ I        2319 34.82         5.2 0.24                           189 184 
 HEL  HZ EP   1   2319 11.71                             112     0.0 6  211 266 
 HEL  HE ES   2   2319 36.00                             112    -0.4 4  211 266 
 HEL  HZ I        2319 39.41        12.9 0.30                           211 266 
 RREF BZ EP   2   2319 15.99                             109    -0.2 4  248 230 
 RREF BN ES   2   2319 44.53                             109     0.0 4  248 230 
 RREF BZ I        2319 49.26         4.3 0.28                           248 230 
 TOL  SZ EP   1   2319 19.14                             107     0.8 6  270 224 
 TOL  SZ ES   3   2319 48.51                             107     0.2 2  270 224 
 ANIL BE ES   3   2319 51.38                             105     0.3 2  284 224 
 ANIL BZ I        2319 57.65         9.6 0.28                           284 224 
 DBB  SZ EP   1   2319 20.92                             105    -0.2 5  296 285 
 PRA  HZ EP   2   2319 23.83                             103    -0.3 3  322 206 
 PRA  HE ES   2   2319 58.72                             103     0.1 3  322 206 
 PRA  HZ I        2320  4.63         4.8 0.25                           322 206 
                                                                                
