 2012  8 6 2152 56.5 L   6.805 -73.164143.5  RSN 20 0.5 2.7LRSN 3.3WRSN        1
 SPEC AVERAGE  MO 14.1 ST 11.5 OM  3.1 f0 3.39 R0.4501 AL 2.12 WI 40.2 MW  3.3 3
 SPEC SD       MO  0.3 ST 11.1 OM  0.9 f00.668 R0.0825 AL      WI      MW  0.2 3
 GAP= 70        0.70       2.9     3.0  4.7  0.6458E+00  0.3674E+01  0.4712E+00E
 Epicentro: LOS SANTOS - SANTANDER                                             3
 SPEC OCA HH N MO 14.4 ST 27.1 OM  2.7 f0 4.28 R0.3435 AL 2.14 WI 28.4 MW  3.5 3
 SPEC OCA HH N T215345 K 0.000 GD  214 VS 4.20 DE 3.00 Q0230.0 QA 0.60 VS 4.20 3
 SPEC RUS HH Z MO 13.6 ST  1.4 OM  2.0 f0 2.92 R0.5034 AL 2.23 WI 27.7 MW  3.0 3
 SPEC RUS HH Z T215338 K 0.000 GD  175 VS 4.20 DE 3.00 Q0230.0 QA 0.60 VS 4.20 3
 SPEC HEL HH N MO 14.0 ST  2.6 OM  2.1 f0 2.74 R0.5365 AL 1.75 WI 65.4 MW  3.2 3
 SPEC HEL HH N T2154 6 K 0.000 GD  305 VS 4.20 DE 3.00 Q0230.0 QA 0.60 VS 4.20 3
 SPEC CHI HH N MO 14.0 ST  3.5 OM  2.2 f0 2.88 R0.5104 AL 2.22 WI 36.3 MW  3.3 3
 SPEC CHI HH N T2154 2 K 0.000 GD  287 VS 4.20 DE 3.00 Q0230.0 QA 0.60 VS 4.20 3
 SPEC BRR HH N MO 14.4 ST 22.7 OM  2.8 f0 4.12 R0.3568 AL 2.24 WI 43.4 MW  3.5 3
 SPEC BRR HH N T215333 K 0.000 GD  159 VS 4.20 DE 3.00 Q0230.0 QA 0.60 VS 4.20 3
 ACTION:UPD 12-09-10 11:54 OP:ep   STATUS:               ID:20120806215256 L   I
 2012-08-06-2150-00M.COL___216                                                 6
 STAT SP IPHASW D HRMM SECON CODA AMPLIT PERI AZIMU VELO AIN AR TRES W  DIS CAZ7
 BAR2 SZ EP       2153 16.00                             170    0.1610 23.7 185 
 BAR2 SZ ES   1   2153 30.58                             170   -0.37 7 23.7 185 
 BAR2 SZ I        2153 32.55        94.8 0.56                          23.7 185 
 BRR  HZ EP       2153 17.81                             153    0.5410 69.1 299 
 BRR  HN ES   2   2153 34.59                             153    1.11 5 69.1 299 
 BRR  HZ I        2153 38.52        71.3 0.52                          69.1 299 
 PAM  SZ EP       2153 18.72                             150    0.2110 78.2  41 
 PAM  SZ I        2153 19.03        69.1 0.20                          78.2  41 
 PAM  SN ES   3   2153 35.69                             150    0.00 2 78.2  41 
 RUS  HZ EP       2153 19.97                             143   -0.0910  101 175 
 RUS  HN ES   1   2153 38.47                             143    0.01 7  101 175 
 RUS  HZ I        2153 39.82        71.6 0.32                           101 175 
 PTB  HZ EP       2153 22.40                             132   -0.69 9  146 258 
 PTB  HN ES   2   2153 43.53                             132   -0.32 5  146 258 
 TAM  HZ IP     C 2153 24.38                             130    0.21 9  157 105 
 TAM  HZ I        2153 24.71        86.7 0.22                           157 105 
 TAM  HN ES   2   2153 44.84                             130   -0.94 5  157 105 
 OCA  HZ EP       2153 24.23                             129   -0.31 9  159 354 
 OCA  HN ES   3   2153 45.52                             129   -0.90 2  159 354 
 OCA  HZ I        2153 51.39        59.6 0.12                           159 354 
 ZAR  HZ EP       2153 28.26                             122   -0.30 9  202 292 
 ZAR  HN ES   1   2153 53.64                             122    0.05 6  202 292 
 ZAR  HZ I        2154  2.66        25.6 0.22                           202 292 
 NOR  SZ EP       2153 32.13                             118    0.19 8  233 234 
 CHI  HZ EP       2153 34.23                             117    0.17 8  249 195 
 CHI  HZ I        2153 34.74        25.4 0.18                           249 195 
 CHI  HN ES   1   2154  3.08                             117   -0.29 6  249 195 
 ROSC BZ EP   3   2153 35.58                             116    1.16 2  252 211 
 ROSC BE ES   3   2154  4.38                             116    0.37 2  252 211 
 ROSC BZ I        2154 14.29        32.1 0.40                           252 211 
 HEL  HZ EP       2153 36.62                             114    0.24 8  270 256 
 HEL  HZ I        2154 16.14        19.2 0.38                           270 256 
 URE  HZ EP   3   2153 36.20                             113   -1.00 2  282 292 
 URE  HZ I        2154 16.35        24.1 0.24                           282 292 
 GUY  SZ EP   3   2153 40.66                             112    0.56 2  302 235 
 GUY  SN ES   3   2154 14.58                             112    0.46 2  302 235 
 GUY  SZ I        2154 22.21        43.5 0.32                           302 235 
 VIL  SZ EP   3   2153 39.37                             112   -0.44 2  304 191 
 VIL  SE ES   3   2154 13.86                             112    0.24 2  304 191 
 VIL  SZ I        2154 16.47        14.3 0.44                           304 191 
 DBB  SZ EP       2153 43.47                             109   -0.16 7  337 274 
 TOL  SZ EP   2   2153 45.83                             109    1.30 3  343 224 
 SDV  BZ EP   3   2153 45.89                             108   -0.68 2  362  50 
 PRA  HZ EP       2153 49.60                             106   -0.26 6  392 209 
 PRA  HN ES   3   2154 31.29                             106   -0.22 1  392 209 
 PRA  HZ I        2154 38.10        19.2 0.28                           392 209 
 SJA  SZ EP   3   2153 52.92                             106    1.95 1  400 193 
 SJA  SZ ES   3   2154 32.78                             106   -0.70 1  400 193 
 SJA  SZ I        2154 39.32        33.7 0.28                           400 193 
                                                                                
