 2014  9 6 2222  6.0 L   6.793 -73.201136.8  RSN  8 0.4 1.7LRSN                1
 GAP=130        1.05       3.1     4.8  6.3 -0.2899E+01  0.6373E+01 -0.3752E+01E
 Epicentro: ZAPATOCA - SANTANDER                                               3
 ACTION:UPD 14-10-03 23:02 OP:nd   STATUS:               ID:20140906222206 L   I
 OLDACT:REG 14-09-07 06:32 OP:stll STATUS:               ID:20140906221818     3
 2014-09-06-2218-18M.COL___262                                                 6
 STAT SP IPHASW D HRMM SECON CODA AMPLIT PERI AZIMU VELO AIN AR TRES W  DIS CAZ7
 BAR2 SZ ES       2222 39.05                             170    0.0910 22.3 175 
 BAR2 SZ I        2222 41.08         6.3 0.42            171           22.3 175 
 BRR  HZ EP       2222 26.74                             153    0.8710 66.3 302 
 BRR  HZ I        2222 29.10        11.7 0.28            152           66.3 302 
 BRR  HN ES       2222 41.85                             153    0.4510 66.3 302 
 PAM  SZ EP       2222 27.59                             148    0.0610 81.9  42 
 PAM  SN ES       2222 44.10                             148   -0.2510 81.9  42 
 PAM  SZ I        2222 46.67        13.3 0.58            151           81.9  42 
 RUS  HZ EP       2222 28.80                             142   -0.0410  100 173 
 RUS  HE ES       2222 46.51                             142   -0.1710  100 173 
 RUS  HZ I        2222 48.60         5.5 0.24            144            100 173 
 PTB  HZ EP       2222 32.06                             131    0.41 9  142 259 
 PTB  HN ES       2222 51.34                             131   -0.35 9  142 259 
 PTB  HZ I        2222 56.83         6.1 0.10            132            142 259 
 SPBC HZ EP       2222 33.29                             128   -0.08 9  159 217 
 SPBC HN ES       2222 54.28                             128   -0.47 9  159 217 
 SPBC HZ I        2223  0.40        10.8 0.72            129            159 217 
 OCA  HZ EP       2222 34.09                             127    0.48 9  160 355 
 OCA  HN ES       2222 54.66                             127   -0.51 9  160 355 
 OCA  HZ I        2222 59.29         9.5 0.22            129            160 355 
 SML  HZ EP       2222 41.28                             116   -0.63 8  242 337 
 SML  HE ES       2223  9.66                             116   -0.28 8  242 337 
                                                                                
