 2016  5 6 2322  3.2 L   6.779 -73.144151.4  RSN 12 0.4 2.2LRSN                1
 GAP=138        1.04       2.9     4.2  5.5 -0.2450E+01  0.7022E+01 -0.1654E+01E
 Epicentro: LOS SANTOS - SANTANDER                                             3
 ACTION:UPD 16-08-18 17:42 OP:cam  STATUS:               ID:20160506232203 L   I
 OLDACT:REG 16-05-07 05:02 OP:ar   STATUS:               ID:20160506231750     3
 2016-05-06-2317-50M.COL___294                                                 6
 STAT SP IPHASW D HRMM SECON CODA AMPLIT PERI AZIMU VELO AIN AR TRES W  DIS CAZ7
 BAR2 EZ EP       2322 23.55                             172    0.0810 21.1 192 
 BAR2 EZ ES       2322 38.61                             172   -0.6710 21.1 192 
 BAR2 EZ I        2322 41.37        34.7 0.26            169           21.1 192 
 BRR  HZ EP       2322 25.35                             153    0.3110 72.5 300 
 BRR  HN ES       2322 42.80                             153    0.7310 72.5 300 
 BRR  HZ I        2322 47.01        18.6 0.28            150           72.5 300 
 PAM  EZ EP       2322 26.23                             151    0.1110 79.1  38 
 PAM  EN ES       2322 43.83                             151   -0.1710 79.1  38 
 PAM  EZ I        2322 44.73        11.7 0.16            157           79.1  38 
 RUS  HZ EP       2322 27.42                             146    0.0710 98.2 176 
 RUS  HN ES       2322 46.32                             146    0.1310 98.2 176 
 RUS  HZ I        2322 48.88        17.4 0.40            148           98.2 176 
 PTB  HZ EP       2322 30.38                             133   -0.23 9  147 260 
 PTB  HN ES       2322 51.10                             133   -0.89 9  147 260 
 PTB  HZ I        2322 58.62        28.5 0.34            132            147 260 
 SPBC HZ EP       2322 32.52                             131    0.54 9  161 220 
 SPBC HN ES       2322 54.35                             131   -0.08 9  161 220 
 SPBC HZ I        2323  0.94        27.5 0.24            131            161 220 
 OCA  HZ EP       2322 32.06                             130   -0.11 9  163 353 
 OCA  HN ES       2322 55.18                             130    0.41 9  163 353 
 OCA  HZ I        2322 58.86        26.4 0.46            133            163 353 
 ZAR  HZ EP       2322 36.27                             123    0.14 9  205 293 
 ZAR  HN ES       2323  2.33                             123    0.52 9  205 293 
 ZAR  HZ I        2323  8.65        13.6 0.16            124            205 293 
 NOR  HZ EP       2322 39.22                             120    0.08 8  233 235 
 NOR  HN ES       2323  7.40                             120    0.23 8  233 235 
 NOR  HZ I        2323 11.19        14.2 0.16            121            233 235 
 SML  HZ EP       2322 39.93                             118   -0.46 8  246 335 
 SML  HE ES       2323  9.09                             118   -0.30 8  246 335 
 SML  HZ I        2323 11.55        18.2 0.24            120            246 335 
 URE  HZ EP       2322 43.78                             115   -0.89 7  285 292 
 URE  HN ES   4   2323 15.17                             115   -1.84 0  285 292 
 URE  HZ I        2323 26.76         9.4 0.18            115            285 292 
 ORTC HZ EP   4   2322 59.26                             107    2.15 0  394 216 
 ORTC HN ES       2323 39.29                             107    0.13 6  394 216 
 ORTC HZ I        2323 47.16         5.4 0.54            109            394 216 
                                                                                
