 2016  6 6 2120 23.9 L   6.795 -73.138145.5  RSN 15 0.5 2.2LRSN                1
 GAP= 72        1.22       3.7     3.7  5.9 -0.2711E+01  0.4627E+01  0.3778E+01E
 Epicentro: LOS SANTOS - SANTANDER                                             3
 ACTION:UPD 16-07-21 22:16 OP:rebc STATUS:               ID:20160606212023 L   I
 OLDACT:UP  16-06-07 04:17 OP:ar   STATUS:               ID:20160606211748     3
 OLDACT:REG 16-06-07 03:21 OP:ar   STATUS:               ID:20160606211748     3
 2016-06-06-2117-48M.COL___334                                                 6
 STAT SP IPHASW D HRMM SECON CODA AMPLIT PERI AZIMU VELO AIN AR TRES W  DIS CAZ7
 BAR2 EZ EP       2120 43.21                             171   -0.3210 22.9 192 
 BAR2 EZ ES       2120 58.12                             171   -0.6910 22.9 192 
 BAR2 EZ I        2121  1.03        25.1 0.52                          22.9 192 
 BRR  HZ EP       2120 45.28                             152    0.1610 72.2 299 
 BRR  HN ES       2121  2.55                             152    0.9110 72.2 299 
 BRR  HZ I        2121  6.97        20.8 0.26                          72.2 299 
 PAM  EZ EP     C 2120 46.07                             151   -0.0510 77.3  39 
 PAM  EN ES       2121  3.44                             151    0.0210 77.3  39 
 PAM  EZ I        2121  5.42        16.9 0.48                          77.3  39 
 RUS  HZ EP       2120 47.25                             144   -0.3710 99.9 177 
 RUS  HN ES       2121  6.45                             144    0.3610 99.9 177 
 RUS  HZ I        2121  7.47         9.9 0.20                          99.9 177 
 PTB  HZ EP       2120 50.27                             132   -0.68 9  148 259 
 PTB  HN ES       2121 11.42                             132   -0.60 9  148 259 
 PTB  HZ I        2121 17.14        18.9 0.54                           148 259 
 TAM  HZ EP       2120 51.84                             131    0.33 9  154 105 
 TAM  HZ I        2121 12.22        13.7 0.30                           154 105 
 TAM  HN ES       2121 13.07                             131    0.06 9  154 105 
 OCA  HZ EP       2120 53.27                             129    0.98 9  161 353 
 OCA  HN ES       2121 13.89                             129   -0.52 9  161 353 
 OCA  HZ I        2121 18.48        33.0 0.16                           161 353 
 SPBC HZ EP       2120 52.30                             129   -0.13 9  163 219 
 SPBC HN ES       2121 14.99                             129    0.34 9  163 219 
 SPBC HZ I        2121 20.00        31.7 0.12                           163 219 
 NOR  HZ EP       2120 59.54                             118   -0.15 8  235 235 
 NOR  HN ES       2121 28.05                             118    0.47 8  235 235 
 NOR  HZ I        2121 30.77        13.7 0.34                           235 235 
 CHI  HZ EP       2121  1.30                             117   -0.29 8  248 195 
 CHI  HN ES   4   2121 29.92                             117   -1.03 0  248 195 
 HEL  HZ EP       2121  4.96                             115    0.74 8  273 256 
 HEL  HN ES       2121 35.77                             115    0.14 8  273 256 
 HEL  HZ I        2121 41.76         6.7 0.34                           273 256 
 URE  HZ EP       2121  4.31                             113   -0.80 7  285 292 
 URE  HN ES   4   2121 35.39                             113   -1.83 0  285 292 
 URE  HZ I        2121 38.90         9.2 0.12                           285 292 
 ANIL HZ EP   4   2121 15.05                             108    1.29 0  358 225 
 ANIL HN ES   4   2121 54.82                             108    2.21 0  358 225 
 ANIL HZ I        2121 57.03        16.5 0.38                           358 225 
 PRA  HZ EP       2121 17.70                             106    0.26 6  392 210 
 PRA  HN ES       2121 58.29                             106   -0.88 6  392 210 
 PRA  HZ I        2122  4.95         4.8 0.28                           392 210 
 ORTC HZ EP       2121 17.79                             106   -0.07 6  395 216 
 ORTC HN ES       2122  0.89                             106    0.98 6  395 216 
 ORTC HZ I        2122  7.93         4.6 0.24                           395 216 
                                                                                
