 2017  5 6 2054  6.3 L   6.736 -73.141147.3  RSN  5 0.4 1.5LRSN                1
 GAP=140        0.71       4.8     4.9  6.4  0.1207E+02 -0.1070E+01 -0.6676E+01E
 Epicentro: LOS SANTOS - SANTANDER                                             3
 ACTION:UPD 17-06-16 13:33 OP:jn   STATUS:               ID:20170506205406 L   I
 OLDACT:UP  17-05-07 06:10 OP:dani STATUS:               ID:20170506204742     3
 OLDACT:UP  17-05-07 06:10 OP:dani STATUS:               ID:20170506204742     3
 OLDACT:REG 17-05-07 05:32 OP:dani STATUS:               ID:20170506204742     3
 2017-05-06-2048-00M.COL___370                                                 6
 STAT SP IPHASW D HRMM SECON CODA AMPLIT PERI AZIMU VELO AIN AR TRES W  DIS CAZ7
 BRR  HZ EP       2054 27.69                             151   -0.1610 75.3 303 
 BRR  HN ES       2054 44.50                             151   -0.1610 75.3 303 
 BRR  HZ I        2054 48.73         9.1 0.15            149           75.3 303 
 PAM  EZ EP       2054 29.00                             149   -0.0010 82.6  36 
 PAM  EZ I        2054 47.17         3.2 0.30            137           82.6  36 
 RUS  HZ EP       2054 29.89                             146    0.1810 93.5 176 
 RUS  HN ES       2054 48.09                             146    0.1210 93.5 176 
 RUS  HZ I        2054 49.21         3.3 0.41            153           93.5 176 
 PTB  HZ EP     D 2054 32.88                             132   -0.45 9  147 262 
 PTB  HN ES   3   2054 52.96                             132   -1.46 2  147 262 
 PTB  HZ I        2054 56.10         5.1 0.27            138            147 262 
 ZAR  HZ EP       2054 39.42                             122    0.24 8  207 294 
 ZAR  HE ES       2055  5.29                             122    0.46 8  207 294 
 ZAR  HZ I        2055 11.99         3.4 0.18            122            207 294 
                                                                                
