 2015  3 6 2314 44.0 L   6.762 -73.167143.8  RSN 10 0.5 1.7LRSN                1
 GAP=136        1.16       3.3     5.5  8.0 -0.2500E+01  0.4652E+01  0.3314E+01E
 Epicentro: LOS SANTOS - SANTANDER                                             3
 ACTION:UPD 15-04-30 16:23 OP:nd   STATUS:               ID:20150306231444 L   I
 OLDACT:UP  15-03-07 08:05 OP:mh   STATUS:               ID:20150306230744     3
 OLDACT:UP  15-03-07 08:00 OP:mh   STATUS:               ID:20150306230744     3
 OLDACT:REG 15-03-07 04:32 OP:mh   STATUS:               ID:20150306230744     3
 2015-03-06-2307-44M.COL___283                                                 6
 STAT SP IPHASW D HRMM SECON CODA AMPLIT PERI AZIMU VELO AIN AR TRES W  DIS CAZ7
 BAR2 EZ EP   1   2315  3.70                             172    0.36 7 18.8 185 
 BAR2 EZ I        2315 20.13        12.9 0.48            169           18.8 185 
 BRR  HZ EP       2315  5.33                             152    0.3610 71.3 302 
 BRR  HZ I        2315 18.33        13.5 0.40            150           71.3 302 
 BRR  HN ES       2315 22.07                             152    0.7710 71.3 302 
 PAM  SZ EP       2315  6.55                             149    0.2210 82.2  39 
 PAM  SN ES       2315 23.40                             149   -0.3210 82.2  39 
 PAM  SZ I        2315 25.85         6.6 0.58            151           82.2  39 
 RUS  HZ EP       2315  7.16                             145   -0.1410 96.6 174 
 RUS  HN ES       2315 24.77                             145   -0.6810 96.6 174 
 RUS  HZ I        2315 29.90         2.5 0.40            143           96.6 174 
 PTB  HZ EP       2315  9.78                             132   -0.77 9  145 260 
 PTB  HN ES       2315 30.83                             132   -0.41 9  145 260 
 PTB  HZ I        2315 38.74         6.2 0.26            130            145 260 
 SPBC HZ EP       2315 12.62                             129    0.70 9  158 219 
 SPBC HN ES       2315 33.77                             129    0.09 9  158 219 
 SPBC HZ I        2315 41.56         9.3 0.24            127            158 219 
 OCA  HN ES       2315 35.09                             128    0.28 9  164 354 
 CHI  HZ EP       2315 21.08                             117   -0.02 8  244 195 
 CHI  HN ES       2315 50.38                             117    0.36 8  244 195 
 CHI  HZ I        2315 56.89         2.9 0.24            116            244 195 
 SML  HZ EP   1   2315 20.46                             117   -0.40 6  247 336 
 SML  HN ES       2315 49.01                             117   -0.57 8  247 336 
 SML  HZ I        2315 54.04         7.2 0.20            116            247 336 
 RREF HZ EP   4   2315 31.99                             111    2.43 0  317 230 
 RREF HN ES   4   2316  6.86                             111    1.78 0  317 230 
 RREF HZ I        2316 15.93         3.2 0.28            109            317 230 
                                                                                
