 2016  5 6 2152 41.0 L   6.803 -73.178143.1  RSN 10 0.3 1.8LRSN                1
 GAP=132        0.83       2.6     3.3  4.8 -0.8221E+00  0.4136E+01 -0.2461E+00E
 Epicentro: LOS SANTOS - SANTANDER                                             3
 ACTION:UPD 16-08-18 17:42 OP:cam  STATUS:               ID:20160506215241 L   I
 OLDACT:UP  16-05-07 06:18 OP:ar   STATUS:               ID:20160506214750     3
 OLDACT:REG 16-05-07 04:58 OP:ar   STATUS:               ID:20160506214750     3
 2016-05-06-2147-50M.COL___297                                                 6
 STAT SP IPHASW D HRMM SECON CODA AMPLIT PERI AZIMU VELO AIN AR TRES W  DIS CAZ7
 BAR2 EZ EP       2153  0.32                             170    0.0510 23.3 181 
 BAR2 EZ ES       2153 15.21                             170   -0.1310 23.3 181 
 BAR2 EZ I        2153 16.31        15.3 0.22            171           23.3 181 
 BRR  HZ EP       2153  1.70                             153    0.0610 67.9 300 
 BRR  HN ES       2153 18.38                             153    0.6110 67.9 300 
 BRR  HZ I        2153 23.45        15.9 0.32            150           67.9 300 
 PAM  EZ EP       2153  2.89                             150   -0.1410 79.5  42 
 PAM  EN ES       2153 19.86                             150   -0.3810 79.5  42 
 PAM  EZ I        2153 22.69         7.2 0.32            153           79.5  42 
 RUS  HZ EP       2153  4.83                             143    0.3310  101 174 
 RUS  HN ES       2153 23.14                             143    0.2810  101 174 
 RUS  HZ I        2153 24.00         6.6 0.26            147            101 174 
 PTB  HZ EP       2153  7.07                             132   -0.33 9  144 258 
 PTB  HN ES       2153 27.45                             132   -0.57 9  144 258 
 PTB  HZ I        2153 33.14         8.1 0.32            132            144 258 
 SPBC HZ EP       2153  9.28                             129    0.21 9  161 218 
 SPBC HN ES       2153 30.44                             129   -0.55 9  161 218 
 SPBC HZ I        2153 35.39         8.0 0.42            130            161 218 
 ZAR  HZ EP   4   2153 14.41                             122    1.53 0  201 292 
 ZAR  HN ES       2153 37.79                             122    0.02 9  201 292 
 ZAR  HZ I        2153 43.52         7.9 0.60            122            201 292 
 NOR  HZ EP       2153 16.40                             118    0.16 8  232 234 
 NOR  HE ES       2153 44.06                             118    0.30 8  232 234 
 NOR  HZ I        2153 49.59         4.8 0.22            120            232 234 
 SML  HZ EP       2153 16.95                             117   -0.30 8  242 336 
 SML  HN ES       2153 45.97                             117    0.42 8  242 336 
 SML  HZ I        2153 54.25         8.1 0.10            118            242 336 
 CHI  HZ EP   2   2153 17.95                             117   -0.50 4  248 194 
 CHI  HE ES   2   2153 48.15                             117    0.47 4  248 194 
                                                                                
