 2017  5 6 2249 49.1 L   6.388 -73.517111.4  RSN  5 0.4 1.1LRSN                1
 GAP=100        0.87       3.9     4.2  9.8 -0.4041E+01  0.1937E+02 -0.1728E+01E
 Epicentro: CONTRATACION - SANTANDER                                           3
 OLDACT:REG 17-05-07 05:40 OP:dani STATUS:               ID:20170506224308     3
 ACTION:UPD 17-06-16 13:33 OP:jn   STATUS:               ID:20170506224949 L   I
 OLDACT:UP  17-05-07 07:07 OP:dani STATUS:               ID:20170506224309d    3
 OLDACT:UP  17-05-07 07:07 OP:dani STATUS:               ID:20170506224309d    3
 OLDACT:UP  17-05-07 07:07 OP:dani STATUS:               ID:20170506224309d    3
 OLDACT:UP  17-05-07 07:06 OP:dani STATUS:               ID:20170506224309d    3
 OLDACT:UP  17-05-07 07:05 OP:dani STATUS:               ID:20170506224309d    3
 OLDACT:UP  17-05-07 07:05 OP:dani STATUS:               ID:20170506224309d    3
 OLDACT:DUP 17-05-07 07:00 OP:dani STATUS:               ID:20170506224309d    3
 2017-05-06-2248-00M.COL___364                                                 6
 STAT SP IPHASW D HRMM SECON CODA AMPLIT PERI AZIMU VELO AIN AR TRES W  DIS CAZ7
 RUS  HZ EP       2250  7.18                             145   -0.2610 72.8 139 
 RUS  HN ES       2250 21.89                             145    0.1210 72.8 139 
 RUS  HZ I        2250 23.69         1.3 0.21            151           72.8 139 
 BRR  HZ EP       2250  7.32                             141   -0.1310 82.4 345 
 BRR  HN ES   1   2250 22.47                             141    0.67 7 82.4 345 
 BRR  HZ I        2250 25.08         4.9 0.26            144           82.4 345 
 PTB  HZ EP       2250  9.53                             133    0.1510  105 279 
 PTB  HN ES   2   2250 23.91                             133   -1.32 5  105 279 
 PAM  EE ES       2250 31.80                             125   -0.19 9  139  41 
 NOR  HZ EP       2250 16.77                             118    0.34 9  175 239 
 NOR  HN ES       2250 37.73                             118   -0.05 9  175 239 
 NOR  HZ I        2250 38.81         2.1 0.54            122            175 239 
 ZAR  HE ES   4   2250 43.42                             115    2.49 0  192 310 
                                                                                
