 2017  4 6 2355 22.4 L   6.804 -73.184148.5  RSN  5 0.2 1.7LRSN                1
 GAP=132        0.46       2.6     2.5  3.9 -0.8259E+00 -0.2091E+00  0.9954E+00E
 Epicentro: ZAPATOCA - SANTANDER                                               3
 ACTION:UPD 17-05-30 21:09 OP:jn   STATUS:               ID:20170406235522 L   I
 OLDACT:REG 17-04-07 06:01 OP:dnl  STATUS:               ID:20170406234719     3
 2017-04-06-2348-00M.COL___368                                                 6
 STAT SP IPHASW D HRMM SECON CODA AMPLIT PERI AZIMU VELO AIN AR TRES W  DIS CAZ7
 BAR2 EZ EP   2   2355 42.28                             171   -0.12 5 23.4 180 
 BAR2 EZ ES       2355 57.81                             171   -0.1510 23.4 180 
 BAR2 EZ I        2356  0.09        15.1 0.42            170           23.4 180 
 BRR  HZ EP   2   2355 44.03                             154    0.36 5 67.3 300 
 BRR  HN ES       2356  0.44                             154    0.2110 67.3 300 
 BRR  HZ I        2356  0.89        11.5 0.50            153           67.3 300 
 PAM  EZ EP       2355 45.16                             151    0.0710 79.8  42 
 PAM  EE ES       2356  2.64                             151   -0.1110 79.8  42 
 PAM  EZ I        2356  4.43        11.3 0.52            153           79.8  42 
 RUS  HZ EP       2355 46.37                             144   -0.1510  101 174 
 RUS  HN ES       2356  5.54                             144    0.2410  101 174 
 RUS  HZ I        2356  6.15         7.7 0.34            145            101 174 
 PTB  HZ EP   2   2355 49.21                             133   -0.06 5  144 258 
 PTB  HN ES       2356 10.02                             133   -0.18 9  144 258 
 PTB  HZ I        2356 15.65         3.9 0.16            133            144 258 
                                                                                
