 2014  6 6 2049  2.4 L   6.548 -73.530112.0  RSN 15 0.5 2.1LRSN                1
 GAP= 63        1.06       3.2     3.8  6.3 -0.2857E+01  0.9904E+01 -0.5172E+00E
 Epicentro: EL CARMEN DE CHUCURI - SANTANDER                                   3
 ACTION:UPD 14-07-01 22:51 OP:nd   STATUS:               ID:20140606204902 L   I
 OLDACT:UP  14-06-07 03:53 OP:cam  STATUS:               ID:20140606204649     3
 OLDACT:UP  14-06-07 03:53 OP:cam  STATUS:               ID:20140606204649     3
 OLDACT:REG 14-06-07 03:37 OP:cam  STATUS:               ID:20140606204649     3
 2014-06-06-2046-49M.COL___268                                                 6
 STAT SP IPHASW D HRMM SECON CODA AMPLIT PERI AZIMU VELO AIN AR TRES W  DIS CAZ7
 BAR2 SZ IP     C 2049 18.83                             159    0.3110 38.7  83 
 BAR2 SZ ES       2049 31.15                             159    0.0610 38.7  83 
 BRR  HZ EP       2049 19.55                             147   -0.0510 65.0 342 
 BRR  HE ES       2049 33.69                             147    0.6710 65.0 342 
 BRR  HZ I        2049 39.21        28.4 0.14            143           65.0 342 
 RUS  HZ EP       2049 22.25                             139    0.3110 87.7 146 
 RUS  HN ES       2049 37.15                             139   -0.0310 87.7 146 
 RUS  HZ I        2049 39.72        16.3 0.60            132           87.7 146 
 PTB  HZ EP     D 2049 21.67                             134   -0.8510  102 270 
 PTB  HN ES   4   2049 36.63                             134   -1.58 0  102 270 
 PTB  HZ I        2049 37.97        28.3 0.18            128            102 270 
 SPBC HZ EP       2049 23.53                             131   -0.2910  116 211 
 SPBC HN ES       2049 39.94                             131   -0.5910  116 211 
 SPBC HZ I        2049 43.04        34.5 0.58            124            116 211 
 PAM  SZ EP       2049 25.28                             128   -0.1210  127  46 
 PAM  SN ES   1   2049 42.71                             128   -0.62 7  127  46 
 PAM  SZ I        2049 47.45        14.2 0.20            122            127  46 
 ZAR  HZ EP       2049 30.63                             117    0.37 9  180 306 
 ZAR  HE ES   4   2049 53.93                             117    1.94 0  180 306 
 ZAR  HZ I        2049 55.18        36.5 0.54            112            180 306 
 NOR  HZ EP       2049 30.52                             117   -0.21 9  184 234 
 NOR  HN ES       2049 52.46                             117   -0.37 9  184 234 
 NOR  HZ I        2049 56.77        16.7 0.20            112            184 234 
 CHI  HZ EP   1   2049 35.17                             113    0.72 6  213 186 
 CHI  HN ES   1   2050  0.33                             113    0.89 6  213 186 
 CHI  HZ I        2050  5.84         6.2 0.22            108            213 186 
 HEL  HZ EP   4   2049 34.74                             112   -0.94 0  225 260 
 HEL  HN ES       2050  1.94                             112    0.31 8  225 260 
 HEL  HZ I        2050  7.21        10.3 0.52            108            225 260 
 GUY2CHZ EP   4   2049 39.93                             109    1.17 0  250 234 
 GUY2CHN ES   4   2050  8.49                             109    1.37 0  250 234 
 GUY2CHZ I        2050 13.45         7.4 0.26                           250 234 
 SML  HZ EP       2049 38.70                             108   -0.13 8  256 347 
 SML  HE ES   4   2050  8.69                             108    1.45 0  256 347 
 SML  HZ I        2050 12.66        37.7 0.26            105            256 347 
 URE  HZ EP   4   2049 37.95                             108   -1.13 0  258 301 
 URE  HN ES   4   2050  6.64                             108   -1.05 0  258 301 
 URE  HZ I        2050  9.49        13.8 0.16            105            258 301 
 RREF HZ EP   1   2049 42.07                             107    0.67 6  271 228 
 PRA  HZ EP   1   2049 49.79                             102    0.14 5  348 206 
 PRA  HZ I        2050 29.66         5.8 0.28            101            348 206 
                                                                                
