 2011 12 6 2204  3.0 L   6.774 -73.104142.8  RSN 11 0.4 2.2LRSN                1
 GAP=143        0.74       4.0     5.4  5.0 -0.3539E+01  0.8680E+01  0.7090E+01E
 Epicentro: LOS SANTOS - SANTANDER                                             3
 ACTION:UPD 12-07-13 16:14 OP:ep   STATUS:               ID:20111206220403 L   I
 2011-12-06-2200-00M.COL___183                                                 6
 STAT SP IPHASW D HRMM SECON CODA AMPLIT PERI AZIMU VELO AIN AR TRES W  DIS CAZ7
 BAR2 SZ EP       22 4 22.14                             171   -0.1010 21.9 203 
 BAR2 SZ ES   1   22 4 36.82                             171   -0.43 7 21.9 203 
 BAR2 SZ I        22 4 38.89        43.2 0.22                          21.9 203 
 GIR2 SZ EP       22 4 22.30                             165   -0.1210 35.1 344 
 GIR2 SZ ES   1   22 4 37.45                             165   -0.13 7 35.1 344 
 BRR  HZ EP       22 4 24.02                             150   -0.1210 76.6 299 
 BRR  HN ES   1   22 4 40.87                             150    0.24 7 76.6 299 
 BRR  HZ I        22 4 43.05        24.3 0.14                          76.6 299 
 PAM  SZ EP       22 4 25.14                             150    0.2810 76.8  36 
 PAM  SN ES   1   22 4 41.78                             150   -0.13 7 76.8  36 
 RUS  HZ EP       22 4 26.28                             144    0.0510 97.5 179 
 RUS  HN ES   1   22 4 45.07                             144    0.71 7 97.5 179 
 RUS  HZ I        22 4 46.58        19.7 0.44                          97.5 179 
 OCA  SZ EP   3   22 4 31.88                             128    0.48 2  164 352 
 NOR  SZ EP       22 4 38.22                             118   -0.56 8  237 236 
 CHI  HZ EP       22 4 39.98                             117   -0.39 8  247 196 
 CHI  HZ I        22 5 12.95         8.2 0.38                           247 196 
 HEL  HZ EP       22 4 44.19                             114    0.71 7  276 257 
 HEL  HZ I        22 5 19.97         8.0 0.46                           276 257 
 RREF HZ EP   1   22 4 49.76                             110    0.56 5  323 230 
 RREF HN ES   2   22 5 24.95                             110   -0.29 3  323 230 
 RREF HZ I        22 5 33.89        10.9 0.66                           323 230 
 PRA  HZ EP       22 4 56.13                             106   -0.26 6  392 210 
 PRA  HN ES   2   22 5 38.15                             106    0.10 3  392 210 
                                                                                
