 2011  5 6 2331 27.5 L   6.723 -73.479112.2  RSN  5 0.2 1.6LRSN                1
 GAP=174        0.54       3.0     6.2  5.8  0.3196E+01 -0.8490E+01 -0.1546E+01E
 Epicentro: EL CARMEN DE CHUCURI - SANTANDER                                   3
 ACTION:UP  11-06-29 08:51 OP:tino STATUS:               ID:20110506233127 L   I
 2011-05-06-2329-26S.COL___133                                                 6
 STAT SP IPHASW D HRMM SECON CODA AMPLIT PERI AZIMU VELO SNR AR TRES W  DIS CAZ7
 BTL  SZ IP       2331 43.58                             163     0.210   32  47 
 BTL  SZ ES   2   2331 55.80                             163     0.0 5   32  47 
 BAR2 SZ EP   1   2331 43.11                             161    -0.5 7   36 114 
 BAR2 SZ I        2331 43.96        14.4 0.29                            36 114 
 BAR2 SZ ES   2   2331 55.73                             161    -0.3 5   36 114 
 BRR  HZ EP   1   2331 43.68                             154    -0.2 7   50 329 
 BRR  HN ES   1   2331 56.71                             154     0.1 7   50 329 
 BRR  HZ I        2332  2.73        19.6 0.06                            50 329 
 RUS  HZ EP   1   2331 48.49                             135     0.2 7  102 154 
 RUS  HE ES   1   2332  4.53                             135     0.1 7  102 154 
 RUS  HZ I        2332  5.54         3.7 0.27                           102 154 
 GRA  SZ EP   1   2331 52.13                             123    -0.1 7  149  30 
 GRA  SZ ES   1   2332 11.71                             123     0.1 7  149  30 
 GRA  SZ I        2332 12.46         5.2 0.34                           149  30 
                                                                                
