 2017  5 6 2032 38.3 L   6.785 -73.128143.6  RSN 10 0.5 2.2LRSN                1
 GAP=139        0.85       3.4     3.7  5.4 -0.1753E+01  0.3385E+01  0.2875E+01E
 Epicentro: LOS SANTOS - SANTANDER                                             3
 ACTION:UPD 17-06-16 13:33 OP:jn   STATUS:               ID:20170506203238 L   I
 OLDACT:UP  17-05-07 06:04 OP:dani STATUS:               ID:20170506202737     3
 OLDACT:UP  17-05-07 06:02 OP:dani STATUS:               ID:20170506202737     3
 OLDACT:UP  17-05-07 06:02 OP:dani STATUS:               ID:20170506202737     3
 OLDACT:UP  17-05-07 06:01 OP:dani STATUS:               ID:20170506202737     3
 OLDACT:REG 17-05-07 05:31 OP:dani STATUS:               ID:20170506202737     3
 2017-05-06-2028-00M.COL___370                                                 6
 STAT SP IPHASW D HRMM SECON CODA AMPLIT PERI AZIMU VELO AIN AR TRES W  DIS CAZ7
 BRR  HZ EP       2032 59.27                             151   -0.0910 73.7 299 
 BRR  HN ES       2033 16.00                             151    0.2210 73.7 299 
 BRR  HZ I        2033 19.62        20.1 0.44            150           73.7 299 
 PAM  EZ EP       2033  0.44                             150    0.1610 77.5  38 
 PAM  EN ES       2033 17.29                             150   -0.1510 77.5  38 
 PAM  EZ I        2033 19.62        22.8 0.54            156           77.5  38 
 RUS  HZ EP       2033  1.41                             144   -0.3010 98.8 177 
 RUS  HN ES       2033 20.09                             144    0.1310 98.8 177 
 RUS  HZ I        2033 21.74        13.9 0.46            145           98.8 177 
 PTB  HZ EP   9   2033  3.94                             131   -1.29 0  149 260 
 PTB  HN ES       2033 24.96                             131    0.01 9  149 260 
 PTB  HZ I        2033 31.54        15.9 0.28            131            149 260 
 SPBC HZ EP       2033  6.50                             129   -0.12 9  163 220 
 SPBC HN ES       2033 28.71                             129   -0.01 9  163 220 
 ZAR  HZ EP       2033 11.79                             122    0.94 8  206 292 
 ZAR  HE ES       2033 35.59                             122   -0.66 8  206 292 
 ZAR  HZ I        2033 40.64        17.2 0.38            122            206 292 
 TABC EZ EP   3   2033 15.52                             119    1.65 2  230 211 
 TABC EZ ES   4   2033 44.44                             119    2.82 0  230 211 
 TABC EZ I        2033 46.51        17.7 0.68            120            230 211 
 NOR  HZ EP       2033 13.58                             118   -0.39 8  235 235 
 NOR  HN ES       2033 42.15                             118    0.36 8  235 235 
 NOR  HZ I        2033 50.80         9.7 0.38            119            235 235 
 DBB  EN ES   3   2034  1.33                             109   -1.74 2  342 275 
 ORTC HZ EP       2033 31.85                             106   -0.27 6  395 217 
 ORTC HN ES   3   2034 15.48                             106    1.38 1  395 217 
 ORTC HZ I        2034 18.85         6.3 0.24            107            395 217 
                                                                                
