 2013 10 6 2351 31.8 L   6.786 -73.171144.9  RSN 10 0.3 2.0LRSN                1
 GAP=134        0.84       3.0     3.7  5.2 -0.2385E+01  0.3649E+01  0.2741E+01E
 Epicentro: LOS SANTOS - SANTANDER                                             3
 ACTION:UPD 13-11-25 09:19 OP:ep   STATUS:               ID:20131006235131 L   I
 OLDACT:REG 13-10-06 22:27 OP:jn   STATUS:               ID:20131006234959     3
 2013-10-06-2349-59M.COL___273                                                 6
 STAT SP IPHASW D HRMM SECON CODA AMPLIT PERI AZIMU VELO AIN AR TRES W  DIS CAZ7
 BAR2 SZ EP       2351 51.24                             171   -0.0110 21.4 183 
 BAR2 SZ ES       2352  6.62                             171    0.1710 21.4 183 
 BAR2 SZ I        2352  7.44        69.6 0.36            172           21.4 183 
 BRR  HZ EP       2351 53.04                             153    0.3210 69.6 301 
 BRR  HN ES       2352  9.69                             153    0.6110 69.6 301 
 BRR  HZ I        2352 15.07        21.7 0.16            149           69.6 301 
 PAM  SZ EP       2351 54.15                             150    0.0810 80.4  40 
 PAM  SN ES       2352 11.42                             150   -0.0510 80.4  40 
 PAM  SZ I        2352 13.09         8.6 0.64            151           80.4  40 
 RUS  HZ EP       2351 55.18                             144   -0.1510 99.2 174 
 RUS  HN ES       2352 13.35                             144   -0.3710 99.2 174 
 RUS  HZ I        2352 14.85        12.9 0.32            148           99.2 174 
 PTB  HZ EP       2351 58.01                             132   -0.37 9  145 259 
 PTB  HN ES       2352 18.47                             132   -0.68 9  145 259 
 PTB  HZ I        2352 21.17        11.0 0.50            131            145 259 
 SPBC HN ES   1   2352 22.07                             129    0.20 7  160 219 
 SPBC HZ I        2352 25.08        17.6 0.28            130            160 219 
 OCA  HN ES       2352 21.86                             129   -0.38 9  162 354 
 OCA  HZ I        2352 29.73        12.7 0.24            129            162 354 
 ZAR  HN ES   2   2352 29.08                             122    0.03 4  202 293 
 ZAR  HZ I        2352 35.89        13.5 0.24            122            202 293 
 NOR  HZ EP       2352  7.37                             119    0.27 8  232 234 
 NOR  HE ES       2352 34.88                             119    0.22 8  232 234 
 NOR  HZ I        2352 41.48         5.6 0.32            119            232 234 
 CHI  HZ EP       2352  9.50                             117    0.33 8  246 195 
                                                                                
