 2012 12 6 2243 26.1 L   6.799 -73.199138.9  RSN  8 0.3 2.3LRSN                1
 GAP=130        0.58       2.4     2.6  4.1 -0.1906E+00  0.3065E+01  0.1825E+01E
 Epicentro: ZAPATOCA - SANTANDER                                               3
 ACTION:UPD 13-01-04 14:26 OP:ep   STATUS:               ID:20121206224326 L   I
 2012-12-06-2240-00M.COL___242                                                 6
 STAT SP IPHASW D HRMM SECON CODA AMPLIT PERI AZIMU VELO AIN AR TRES W  DIS CAZ7
 BAR2 SZ EP       2243 44.85                             170   -0.0510 22.9 176 
 BAR2 SZ ES       2243 59.88                             170    0.3110 22.9 176 
 BAR2 SZ I        2244  1.23        52.6 0.31                          22.9 176 
 GIR2 SZ EP       2243 44.99                             167    0.0310 31.0   1 
 PAM  SZ EP       2243 47.96                             148    0.1110 81.3  43 
 PAM  SN ES       2244  4.64                             148   -0.1710 81.3  43 
 PAM  SZ I        2244  7.09        26.0 0.49                          81.3  43 
 RUS  HZ EP       2243 49.16                             142   -0.0610  101 173 
 RUS  HN ES       2244  7.17                             142   -0.0810  101 173 
 RUS  HN I        2244  9.60        42.6 0.32                           101 173 
 PTB  HZ EP       2243 52.04                             132    0.05 9  142 258 
 PTB  HN ES       2244 12.14                             132   -0.05 9  142 258 
 PTB  HZ I        2244 17.66        16.7 0.18                           142 258 
 ZAR  HN ES       2244 21.94                             122   -0.15 9  199 293 
 ZAR  HZ I        2244 29.29        15.2 0.35                           199 293 
 CHI  HZ EP       2244  3.51                             116    0.25 8  247 194 
 CHI  HN ES   1   2244 31.44                             116   -0.79 6  247 194 
 PRA  HZ EP   1   2244 18.89                             105   -0.16 4  389 209 
 PRA  HN ES   1   2245  1.19                             105    0.85 4  389 209 
 PRA  HZ I        2245  7.51        11.2 0.36                           389 209 
                                                                                
