 2016  3 6 2039 15.5 L   6.787 -73.187146.1  RSN  9 0.4 1.8LRSN                1
 GAP=132        0.61       3.5     4.7  6.8 -0.5998E+01  0.9013E+01  0.1642E+01E
 Epicentro: ZAPATOCA - SANTANDER                                               3
 ACTION:UPD 16-05-13 21:22 OP:cam  STATUS:               ID:20160306203915 L   I
 OLDACT:REG 16-03-07 03:21 OP:dnl  STATUS:               ID:20160306203749     3
 2016-03-06-2037-49M.COL___325                                                 6
 STAT SP IPHASW D HRMM SECON CODA AMPLIT PERI AZIMU VELO AIN AR TRES W  DIS CAZ7
 BAR2 EZ ES   2   2039 50.23                             171   -0.26 5 21.6 179 
 BAR2 EZ I        2039 51.64        27.9 0.36            169           21.6 179 
 PAM  EZ EP     C 2039 38.27                             149    0.2410 81.4  41 
 PAM  EN ES       2039 55.41                             149   -0.1710 81.4  41 
 PAM  EZ I        2039 57.91        12.8 0.66            155           81.4  41 
 RUS  HZ EP   2   2039 39.26                             144    0.01 5 99.6 173 
 RUS  HN ES   2   2039 58.25                             144    0.50 5 99.6 173 
 RUS  HZ I        2039 59.06         5.3 0.28            147           99.6 173 
 PTB  HZ EP   3   2039 42.08                             133   -0.03 2  143 259 
 PTB  HE ES   2   2040  2.97                             133    0.14 5  143 259 
 PTB  HZ I        2040  8.91         8.1 0.17            131            143 259 
 SPBC HZ EP   2   2039 42.43                             130   -1.26 5  159 218 
 SPBC HN ES   2   2040  5.79                             130    0.14 5  159 218 
 SPBC HZ I        2040  9.18         7.8 0.20            130            159 218 
 OCA  HZ EP   2   2039 43.45                             129   -0.51 5  161 355 
 OCA  HN ES   2   2040  6.49                             129    0.36 5  161 355 
 OCA  HZ I        2040  9.41        14.7 0.16            131            161 355 
 ZAR  HZ EP   3   2039 48.29                             123    0.66 2  200 293 
 ZAR  HE ES   2   2040 12.64                             123   -0.02 4  200 293 
 ZAR  HZ I        2040 20.06         8.5 0.30            122            200 293 
 CHI  HZ EP   2   2039 53.70                             117    0.72 4  246 194 
 CHI  HE ES   2   2040 22.00                             117   -0.19 4  246 194 
 CHI  HZ I        2040 27.84         2.6 0.28            119            246 194 
 GUY2CHZ EP   4   2040  2.47                             113    3.82 0  297 234 
 GUY2CHZ I        2040 40.88         2.1 0.52                           297 234 
                                                                                
