 2012 12 6 2200 46.6 L   6.727 -73.169141.9  RSN  8 0.3 2.1LRSN                1
 GAP=137        0.71       2.9     3.5  4.6 -0.3610E+00  0.4458E+01  0.3195E+01E
 Epicentro: VILLANUEVA - SANTANDER                                             3
 ACTION:UPD 13-01-04 14:26 OP:ep   STATUS:               ID:20121206220046 L   I
 2012-12-06-2200-00M.COL___242                                                 6
 STAT SP IPHASW D HRMM SECON CODA AMPLIT PERI AZIMU VELO AIN AR TRES W  DIS CAZ7
 BAR2 SZ EP       22 1  5.73                             174    0.1310 14.9 186 
 BAR2 SZ ES   1   22 1 20.67                             174    0.23 7 14.9 186 
 BAR2 SZ I        22 1 22.86        47.0 0.27                          14.9 186 
 GIR2 SZ EP       22 1  6.13                             164    0.1010 39.0 356 
 GIR2 SZ ES       22 1 21.71                             164    0.5110 39.0 356 
 PAM  SZ EP       22 1  9.02                             147    0.1310 85.3  37 
 PAM  SN ES   1   22 1 25.40                             147   -0.88 7 85.3  37 
 PAM  SZ I        22 1 28.66        19.0 0.42                          85.3  37 
 RUS  HZ EP       22 1  9.55                             145    0.1610 92.7 174 
 RUS  HN ES       22 1 26.83                             145   -0.3510 92.7 174 
 RUS  HN I        22 1 30.78        19.6 0.31                          92.7 174 
 PTB  HZ EP       22 1 12.72                             132   -0.17 9  144 262 
 PTB  HE ES       22 1 33.29                             132   -0.11 9  144 262 
 PTB  HZ I        22 1 34.70        18.4 0.13                           144 262 
 ZAR  HZ EP   1   22 1 19.03                             121    0.16 6  205 295 
 ZAR  HN ES   1   22 1 43.68                             121   -0.38 6  205 295 
 ZAR  HZ I        22 1 50.74        14.3 0.40                           205 295 
 CHI  HZ EP       22 1 23.11                             117   -0.04 8  240 195 
 CHI  HN ES   1   22 1 51.69                             117    0.03 6  240 195 
 PRA  HZ EP   1   22 1 38.98                             106   -0.02 4  384 210 
 PRA  HN ES   1   22 2 20.11                             106    0.23 4  384 210 
                                                                                
