 2014  6 6 2153 39.4 L   6.786 -73.050146.3  RSN  5 0.5 2.0LRSN                1
 GAP=209        1.11       5.5     9.8 11.5  0.1879E+02  0.1865E+02 -0.1578E+01E
 Epicentro: LOS SANTOS - SANTANDER                                             3
 ACTION:UPD 14-07-01 22:51 OP:nd   STATUS:               ID:20140606215339 L   I
 OLDACT:UP  14-06-07 03:13 OP:cam  STATUS:               ID:20140606215000     3
 OLDACT:UP  14-06-07 03:12 OP:cam  STATUS:               ID:20140606215000     3
 OLDACT:UP  14-06-07 03:12 OP:cam  STATUS:               ID:20140606215000     3
 OLDACT:REG 14-06-07 02:51 OP:cam  STATUS:               ID:20140606215000     3
 2014-06-06-2150-00M.COL___276                                                 6
 STAT SP IPHASW D HRMM SECON CODA AMPLIT PERI AZIMU VELO AIN AR TRES W  DIS CAZ7
 BRR  HN ES       2154 18.64                             149    0.4810 81.3 296 
 BRR  HN I        2154 18.88        12.7 0.20            148           81.3 296 
 RUS  HZ EP       2154  3.56                             144    0.5310 98.9 182 
 RUS  HN ES       2154 20.94                             144   -0.5610 98.9 182 
 PTB  HZ EP       2154  7.38                             130    0.09 9  158 260 
 PTB  HN ES   4   2154 27.35                             130   -1.73 0  158 260 
 NOR  HN ES       2154 44.28                             118   -0.21 8  242 236 
 SML  HE ES       2154 45.12                             117   -0.63 8  250 333 
 SML  HE I        2154 51.31         9.1 0.10            115            250 333 
                                                                                
