 2014 10 6 2057 60.0 L   6.800 -73.212147.8  RSN  7 0.4 2.1LRSN                1
 GAP=128        0.97       3.5     4.6  6.0 -0.1955E+01  0.5596E+01 -0.2835E+01E
 Epicentro: ZAPATOCA - SANTANDER                                               3
 ACTION:UPD 14-11-29 23:47 OP:nd   STATUS:               ID:20141006205760 L   I
 OLDACT:UP  14-10-07 03:59 OP:cam  STATUS:               ID:20141006205000     3
 OLDACT:REG 14-10-07 03:13 OP:cam  STATUS:               ID:20141006205000     3
 2014-10-06-2050-00M.COL___252                                                 6
 STAT SP IPHASW D HRMM SECON CODA AMPLIT PERI AZIMU VELO AIN AR TRES W  DIS CAZ7
 BAR2 SZ EP       2058 19.56                             171   -0.2910 23.2 172 
 BAR2 SZ ES       2058 35.68                             171    0.3310 23.2 172 
 BAR2 SZ I        2058 36.57        27.1 0.40            172           23.2 172 
 BRR  HZ EP       2058 21.48                             155    0.4710 64.9 302 
 BRR  HN ES       2058 37.89                             155    0.4810 64.9 302 
 BRR  HN I        2058 43.29        36.4 0.18            152           64.9 302 
 PAM  SZ EP       2058 22.61                             150   -0.0910 82.3  43 
 PAM  SN ES       2058 40.12                             150   -0.3110 82.3  43 
 PAM  SN I        2058 40.78        20.0 0.46            154           82.3  43 
 RUS  HZ EP       2058 23.88                             144   -0.1010  101 172 
 RUS  HN ES       2058 42.54                             144   -0.1710  101 172 
 RUS  HZ I        2058 43.33         7.4 0.26            148            101 172 
 PTB  HZ EP       2058 26.69                             134    0.22 9  141 258 
 PTB  HN ES       2058 46.24                             134   -0.90 9  141 258 
 PTB  HZ I        2058 52.12        11.1 0.30            134            141 258 
 SPBC HZ EP       2058 28.68                             130    0.47 9  159 217 
 SPBC HE ES       2058 50.27                             130    0.04 9  159 217 
 SPBC HZ I        2058 53.28        14.3 0.48            132            159 217 
 SML  HZ EP       2058 36.20                             118   -0.20 8  241 337 
 SML  HN ES       2059  4.77                             118   -0.04 8  241 337 
 SML  HZ I        2059  7.55        14.4 0.10            120            241 337 
 GUY2CHZ EP   4   2058 45.07                             113    2.06 0  295 234 
                                                                                
