 2015 11 6 2301 16.6 L   6.740 -73.181128.4  RSN  5 0.5 1.4LRSN                1
 GAP=135        1.12       5.2     6.1  9.3 -0.4971E+01  0.2907E+02  0.7223E-01E
 Epicentro: VILLANUEVA - SANTANDER                                             3
 ACTION:UPD 15-12-28 16:09 OP:cam  STATUS:               ID:20151106230116 L   I
 OLDACT:UP  15-11-07 09:06 OP:mh   STATUS:               ID:20151106225748     3
 OLDACT:REG 15-11-07 04:38 OP:mh   STATUS:               ID:20151106225748     3
 2015-11-06-2257-48M.COL___316                                                 6
 STAT SP IPHASW D HRMM SECON CODA AMPLIT PERI AZIMU VELO AIN AR TRES W  DIS CAZ7
 BAR2 EZ ES       23 1 46.92                             172   -0.6210 16.4 181 
 BAR2 EZ I        23 1 51.26         5.5 0.30            172           16.4 181 
 PAM  EZ EP       23 1 37.05                             145   -0.4310 84.9  39 
 PAM  EN ES       23 1 54.14                             145    0.3610 84.9  39 
 PAM  EZ I        23 1 56.48         4.9 0.46            150           84.9  39 
 RUS  HZ EP       23 1 38.02                             142   -0.1510 94.4 173 
 RUS  HN ES       23 1 55.66                             142    0.6410 94.4 173 
 RUS  HZ I        23 1 59.56         3.8 0.32            147           94.4 173 
 ZAR  HN ES       23 2 12.64                             118    0.41 9  203 294 
 ZAR  HZ I        23 2 19.23         4.0 0.44            121            203 294 
 SML  HN ES   4   23 2 17.67                             113   -3.35 0  248 337 
 GUY2CHZ EP       23 1 58.95                             109    0.32 7  294 235 
 GUY2CHN ES       23 2 30.92                             109   -0.52 7  294 235 
 GUY2CHZ I        23 2 40.65         2.3 0.32                           294 235 
                                                                                
