 2016  7 6 2031 24.5 L   6.780 -73.085141.7  RSN  6 0.4 1.5LRSN                1
 GAP=242        0.74       5.3     5.0  7.1  0.1147E+02  0.7999E+01 -0.5145E+01E
 Epicentro: LOS SANTOS - SANTANDER                                             3
 ACTION:UPD 17-03-29 16:47 OP:lp   STATUS:               ID:20160706203124 L   I
 OLDACT:REG 16-07-07 03:49 OP:ak   STATUS:               ID:20160706202748     3
 2016-07-06-2027-48M.COL___328                                                 6
 STAT SP IPHASW D HRMM SECON CODA AMPLIT PERI AZIMU VELO AIN AR TRES W  DIS CAZ7
 BAR2 EZ EP   2   2031 43.74                             170    0.05 5 23.4 207 
 BAR2 EZ ES       2031 58.34                             170   -0.2810 23.4 207 
 BAR2 EZ I        2032  1.43         5.6 0.14            169           23.4 207 
 BRR  HZ EP   2   2031 46.68                             149    1.01 5 78.1 298 
 RUS  HZ EP       2031 47.44                             143   -0.2810 98.2 180 
 RUS  HN ES       2032  6.20                             143    0.3910 98.2 180 
 RUS  HZ I        2032  7.71         4.1 0.34            148           98.2 180 
 PTB  HZ EP   2   2031 51.57                             130   -0.19 5  154 260 
 PTB  HN ES       2032 12.60                             130   -0.38 9  154 260 
 PTB  HZ I        2032 19.52         3.2 0.22            131            154 260 
 SPBC HZ EP   2   2031 52.90                             127   -0.09 5  166 221 
 SPBC HN ES       2032 15.33                             127    0.15 9  166 221 
 SPBC HZ I        2032 16.18         4.2 0.33            130            166 221 
 ZAR  HZ EP   2   2031 57.29                             120   -0.17 4  211 292 
 ZAR  HN ES       2032 23.42                             120    0.28 8  211 292 
 ZAR  HZ I        2032 29.29         7.4 0.21            122            211 292 
                                                                                
