 2011 12 6 2052 41.1 L   6.780 -73.118148.3  RSN  5 0.2 1.7LRSN                1
 GAP=141        0.55       3.7     5.5  6.4 -0.2920E+00 -0.1867E+01  0.2606E+01E
 Epicentro: LOS SANTOS - SANTANDER                                             3
 ACTION:UPD 12-07-13 16:14 OP:ep   STATUS:               ID:20111206205241 L   I
 2011-12-06-2050-00M.COL___183                                                 6
 STAT SP IPHASW D HRMM SECON CODA AMPLIT PERI AZIMU VELO AIN AR TRES W  DIS CAZ7
 BAR2 SZ EP       2053  0.97                             171    0.0010 22.0 199 
 BAR2 SZ I        2053 17.29         9.8 0.18                          22.0 199 
 GIR2 SZ EP       2053  0.84                             166   -0.2710 34.0 346 
 BRR  HZ EP       2053  2.90                             152    0.2010 74.9 299 
 BRR  HZ I        2053  8.92        10.9 0.44                          74.9 299 
 BRR  HN ES   1   2053 19.51                             152   -0.06 7 74.9 299 
 PAM  SZ EP       2053  3.81                             151    0.2710 77.2  37 
 PAM  SE ES   1   2053 20.94                             151   -0.13 7 77.2  37 
 RUS  HZ EP       2053  4.67                             145   -0.2310 98.2 178 
 RUS  HE ES   1   2053 23.75                             145    0.26 7 98.2 178 
 RUS  HZ I        2053 24.69         5.5 0.22                          98.2 178 
                                                                                
