 2012  8 6 2335 22.0 L   6.782 -73.139146.0  RSN  8 0.4 1.8LRSN                1
 GAP= 99        0.68       3.5     3.9  4.9 -0.2064E+01 -0.2251E+00  0.5417E+01E
 Epicentro: LOS SANTOS - SANTANDER                                             3
 ACTION:UPD 12-09-10 11:54 OP:ep   STATUS:               ID:20120806233522 L   I
 2012-08-06-2330-00M.COL___216                                                 6
 STAT SP IPHASW D HRMM SECON CODA AMPLIT PERI AZIMU VELO AIN AR TRES W  DIS CAZ7
 BAR2 SZ EP       2335 41.60                             171   -0.0510 21.5 193 
 BAR2 SZ ES   1   2335 56.82                             171   -0.13 7 21.5 193 
 BAR2 SZ I        2336  0.58        15.2 0.42                          21.5 193 
 BRR  HZ EP       2335 43.29                             152    0.0010 72.8 300 
 BRR  HZ I        2335 44.98        15.5 0.48                          72.8 300 
 BRR  HN ES   1   2336  0.61                             152    0.73 7 72.8 300 
 PAM  SZ EP       2335 44.31                             151   -0.0210 78.4  38 
 PAM  SZ I        2335 44.56        12.6 0.18                          78.4  38 
 PAM  SN ES   1   2336  1.61                             151   -0.11 7 78.4  38 
 RUS  HZ EP       2335 45.39                             144   -0.2610 98.5 176 
 RUS  HN ES   1   2336  4.35                             144    0.27 7 98.5 176 
 RUS  HZ I        2336  6.75         7.4 0.50                          98.5 176 
 PTB  HZ EP       2335 48.77                             132   -0.28 9  148 260 
 PTB  HN ES   2   2336  9.30                             132   -0.82 5  148 260 
 PTB  HZ I        2336 15.55         5.0 0.22                           148 260 
 TAM  HZ EP       2335 49.69                             131    0.09 9  154 104 
 TAM  HZ I        2335 53.24        11.2 0.60                           154 104 
 CHI  HZ EP       2335 59.61                             117    0.06 8  247 195 
 CHI  HN ES   1   2336 28.68                             117   -0.14 6  247 195 
 CHI  HZ I        2336 38.79         3.4 0.48                           247 195 
 PRA  HZ EP       2336 16.08                             107    0.68 6  391 210 
 PRA  HN ES   3   2336 58.67                             107    1.64 1  391 210 
 PRA  HZ I        2337  6.03         3.1 0.42                           391 210 
                                                                                
