 2014  2 6 2341 36.6 L   6.810 -73.130142.0  RSN 15 0.4 2.1LRSN                1
 GAP=138        1.00       2.5     3.8  5.0 -0.1376E+01  0.5726E+01  0.1996E+01E
 Epicentro: LOS SANTOS - SANTANDER                                             3
 OLDACT:DUP 14-02-07 03:52 OP:stll STATUS:               ID:20140206233810d    3
 ACTION:UPD 14-03-10 08:08 OP:ep   STATUS:               ID:20140206234136 L   I
 OLDACT:UP  14-02-07 05:11 OP:stll STATUS:               ID:20140206234136 L   3
 OLDACT:UP  14-02-07 04:28 OP:stll STATUS:               ID:20140206233810d    3
 2014-02-06-2338-09M.COL___243                                                 6
 STAT SP IPHASW D HRMM SECON CODA AMPLIT PERI AZIMU VELO AIN AR TRES W  DIS CAZ7
 BAR2 SZ EP       2341 55.87                             170    0.0210 24.7 193 
 BAR2 SZ ES       2342 10.95                             170    0.1210 24.7 193 
 BAR2 SZ I        2342 13.44        33.9 0.48            168           24.7 193 
 BRR  HZ EP       2341 57.97                             152    0.5310 72.2 297 
 BRR  HN ES       2342 14.26                             152    0.5910 72.2 297 
 BRR  SZ I        2342 19.56        14.3 0.16            153           72.2 297 
 PAM  SZ EP       2341 58.71                             151    0.3710 75.5  39 
 PAM  SN ES       2342 15.37                             151    0.1010 75.5  39 
 PAM  SZ I        2342 17.84        17.6 0.66            155           75.5  39 
 RUS  HZ EP       2341 59.89                             143   -0.2010  102 177 
 RUS  HN ES       2342 17.84                             143   -0.5510  102 177 
 RUS  SZ I        2342 23.13         9.2 1.28            144            102 177 
 PTB  HN ES       2342 23.67                             131   -0.74 9  150 259 
 OCA  HN ES       2342 25.94                             129   -0.43 9  159 352 
 SPBC HZ EP       2342  4.92                             128   -0.11 9  165 219 
 SPBC HE ES       2342 27.33                             128    0.15 9  165 219 
 SPBC SZ I        2342 30.94        14.5 0.36            129            165 219 
 ZAR  HZ EP       2342  9.56                             121    0.60 8  205 292 
 ZAR  HN ES       2342 34.06                             121   -0.12 8  205 292 
 ZAR  SZ I        2342 36.53        13.3 0.16            124            205 292 
 NOR  HZ EP       2342 11.99                             117   -0.38 8  237 234 
 NOR  HN ES       2342 39.85                             117   -0.39 8  237 234 
 NOR  SZ I        2342 43.52         6.9 0.12            119            237 234 
 SML  HZ EP       2342 12.10                             117   -0.93 8  243 335 
 SML  HE ES       2342 41.30                             117   -0.11 8  243 335 
 SML  SZ I        2342 44.02        18.1 0.08            120            243 335 
 CHI  HZ EP       2342 14.06                             116   -0.23 8  250 195 
 CHI  HN ES       2342 43.91                             116    0.25 8  250 195 
 CHI  SZ I        2342 49.32         4.6 0.42            118            250 195 
 GUY2CHZ EP       2342 20.83                             111    0.53 7  303 235 
 GUY2CHN ES   4   2342 56.56                             111    2.20 0  303 235 
 GUY2CSZ I        2343  2.66         9.8 0.40                           303 235 
 RREF BZ EP       2342 23.21                             110    0.37 7  324 229 
 RREF BN ES       2342 59.60                             110    0.71 7  324 229 
 RREF SZ I        2343  5.50         6.6 1.08            112            324 229 
 ANIL BN ES       2343  5.72                             108    0.28 6  359 225 
 PRA  HZ EP       2342 30.34                             106    0.11 6  394 210 
 PRA  HN ES       2343 11.59                             106   -0.45 6  394 210 
 PRA  SZ I        2343 20.91         6.0 2.56            108            394 210 
                                                                                
