 2010  4 6 2048 57.5 L   6.850 -72.968132.6  RSN  4 0.2 1.9LRSN                1
 GAP=213        0.42       2.9     9.8  6.1 -0.8070E+00 -0.2221E+02  0.2068E+01E
 Epicentro: CEPITA - SANTANDER                                                 3
 ACTION:UPD 10-08-24 09:58 OP:vdl  STATUS:               ID:20100406204857 L   I
 2010-04-06-2046-44S.COL___098                                                 6
 STAT SP IPHASW D HRMM SECON CODA AMPLIT PERI AZIMU VELO AIN AR TRES W  DIS CAZ7
 BAR2 SZ EP   1   2049 15.78                             165    -0.2 7   37 220 
 BAR2 SZ ES   2   2049 30.44                             165     0.1 5   37 220 
 BRR  HZ EP   1   2049 17.98                             149    -0.3 7   87 289 
 BRR  HE ES   2   2049 34.63                             149     0.1 5   87 289 
 BRR  HZ I        2049 38.93        27.1 0.16                            87 289 
 OCA  SZ EP   1   2049 24.86                             129     0.2 7  158 346 
 OCA  SZ ES   2   2049 45.84                             129     0.1 5  158 346 
 CHI  HZ EP   1   2049 35.78                             114     0.1 6  260 199 
 CHI  HE ES   2   2050  5.84                             114     0.3 4  260 199 
 CHI  HZ I        2050 10.80         2.7 0.38                           260 199 
                                                                                
