 2011  5 6 2130 42.2 L   6.500 -73.123162.2  RSN 16 0.3 3.1LRSN                1
 GAP=150        0.58       2.3     3.5  3.4 -0.4338E+01  0.1619E+01  0.1652E+01E
 Epicentro: VALLE DE SAN JOSE - SANTANDER                                      3
 ACTION:UP  11-06-29 08:51 OP:tino STATUS:               ID:20110506213042 L   I
 2011-05-06-2129-00S.COL___133                                                 6
 STAT SP IPHASW D HRMM SECON CODA AMPLIT PERI AZIMU VELO SNR AR TRES W  DIS CAZ7
 BAR2 SZ IP       2131  3.66                             176     0.010   12 327 
 BAR2 SZ I        2131  3.89       468.0 0.09                            12 327 
 BAR2 SZ ES   1   2131 20.16                             176    -0.2 7   12 327 
 BTL  SZ EP   1   2131  4.64                             163     0.1 7   49 341 
 BTL  SZ ES   1   2131 21.83                             163    -0.1 7   49 341 
 GIR2 SZ EP   1   2131  4.93                             157    -0.1 7   64 353 
 GIR2 SZ ES   1   2131 22.78                             157    -0.1 7   64 353 
 RUS  HZ EP       2131  6.05                             157     0.410   67 176 
 RUS  HZ I        2131  6.49       105.4 0.15                            67 176 
 RUS  HN ES   1   2131 24.13                             157     0.1 7   67 176 
 BRR  HZ EP   1   2131  6.60                             149     0.1 7   94 316 
 BRR  HN ES   1   2131 25.86                             149     0.5 7   94 316 
 BRR  HZ I        2131 28.98       200.5 0.18                            94 316 
 PAM  SZ EP   1   2131  7.85                             146     0.0 7  104  27 
 PAM  SN ES   1   2131 27.71                             146    -0.1 7  104  27 
 BRI  SZ EP   1   2131 10.07                             137     0.0 7  139  15 
 BRI  SZ ES   1   2131 31.86                             137     0.0 7  139  15 
 BRI  SZ I        2131 33.32        75.7 0.36                           139  15 
 GRA  SZ IP       2131 11.42                             134    -0.2 9  157  13 
 GRA  SZ ES   1   2131 34.39                             134    -0.1 7  157  13 
 GRA  SZ I        2131 35.19        65.6 0.44                           157  13 
 OCA  SZ EP   1   2131 14.85                             127    -0.1 7  194 354 
 OCA  SZ ES   1   2131 40.36                             127    -0.1 7  194 354 
 OCA  SZ I        2131 43.96        94.4 0.41                           194 354 
 NOR  SZ EP   1   2131 17.02                             124    -0.4 6  219 242 
 NOR  SN ES   1   2131 44.51                             124    -0.3 6  219 242 
 ROSC BZ EP   1   2131 19.04                             123     0.5 6  226 216 
 ROSC BN ES   1   2131 46.39                             123    -0.5 6  226 216 
 ROSC BZ I        2131 57.60        90.0 0.66                           226 216 
 HEL  HZ EP   1   2131 22.45                             118    -0.5 6  268 263 
 HEL  HN ES   1   2131 54.89                             118     0.2 6  268 263 
 HEL  HZ I        2132  5.06        77.7 0.36                           268 263 
 RREF HZ EP   1   2131 27.35                             115     0.3 5  303 234 
 RREF HZ I        2132 11.23        62.9 0.61                           303 234 
 TOL  SZ EP   1   2131 29.30                             114     0.5 5  323 229 
 PRA  HZ EP   1   2131 33.49                             111     0.3 5  365 212 
 PRA  HE ES   1   2132 12.92                             111    -0.1 5  365 212 
 SJA  SZ EP   1   2131 33.13                             110    -0.6 5  368 194 
 SJA  SZ I        2132 16.46        55.9 0.40                           368 194 
                                                                                
