 2013  4 6 2301  3.2 L   6.716 -73.195157.5  RSN  4 0.1 2.0LRSN                1
 GAP=225        0.39       3.3     3.4  4.2  0.5946E+01 -0.2554E+01 -0.1523E+01E
 Epicentro: VILLANUEVA - SANTANDER                                             3
 ACTION:UPD 13-05-22 14:36 OP:EP   STATUS:               ID:20130406230103 L   I
 2013-04-06-2300-00M.COL___245                                                 6
 STAT SP IPHASW D HRMM SECON CODA AMPLIT PERI AZIMU VELO AIN AR TRES W  DIS CAZ7
 BAR2 SZ EP   1   23 1 23.84                             175   -0.26 7 13.7 174 
 BRR  HZ EP       23 1 25.61                             154   -0.0510 71.7 307 
 BRR  HN ES       23 1 43.27                             154    0.1010 71.7 307 
 BRR  HN I        23 1 44.16        13.3 0.24            151           71.7 307 
 RUS  HZ EP       23 1 27.67                             149    0.1210 91.8 172 
 RUS  HN ES       23 1 46.52                             149   -0.0110 91.8 172 
 PTB  HZ EP   1   23 1 30.70                             136    0.14 7  141 262 
 PTB  HN ES       23 1 51.79                             136   -0.10 9  141 262 
 PTB  HN I        23 1 57.28        13.4 0.34            132            141 262 
                                                                                
