 2016  6 6 2342 46.2 L   6.820 -73.148141.3  RSN  9 0.5 1.8LRSN                1
 GAP=135        1.28       4.2     5.9  7.5 -0.8608E+01  0.7967E+01  0.2905E+01E
 Epicentro: LOS SANTOS - SANTANDER                                             3
 ACTION:UPD 16-07-21 22:16 OP:rebc STATUS:               ID:20160606234246 L   I
 OLDACT:UP  16-06-07 04:32 OP:ar   STATUS:               ID:20160606233745     3
 OLDACT:REG 16-06-07 03:29 OP:ar   STATUS:               ID:20160606233745     3
 2016-06-06-2337-45M.COL___334                                                 6
 STAT SP IPHASW D HRMM SECON CODA AMPLIT PERI AZIMU VELO AIN AR TRES W  DIS CAZ7
 BAR2 EZ EP       2343  5.57                             169    0.2210 25.5 189 
 BAR2 EZ ES       2343 19.62                             169   -0.6510 25.5 189 
 BAR2 EZ I        2343 21.04         7.8 0.34                          25.5 189 
 BRR  HZ EP       2343  7.23                             152    0.4310 70.0 297 
 BRR  HE ES       2343 23.85                             152    0.9910 70.0 297 
 BRR  HZ I        2343 28.20        13.1 0.32                          70.0 297 
 PAM  EZ EP       2343  8.17                             150    0.3210 75.8  41 
 PAM  EN ES       2343 25.05                             150    0.3210 75.8  41 
 PAM  EZ I        2343 27.07         8.9 0.50                          75.8  41 
 RUS  HZ EP       2343  9.39                             142   -0.3010  103 176 
 RUS  HN ES       2343 28.07                             142    0.0710  103 176 
 RUS  HZ I        2343 29.16         4.9 0.28                           103 176 
 PTB  HZ EP       2343 12.31                             131   -0.53 9  148 258 
 PTB  HN ES       2343 33.27                             131   -0.33 9  148 258 
 PTB  HZ I        2343 35.01         7.0 0.28                           148 258 
 OCA  HZ EP       2343 13.59                             129   -0.37 9  158 353 
 OCA  HN ES       2343 34.82                             129   -0.78 9  158 353 
 OCA  HZ I        2343 39.91        18.4 0.50                           158 353 
 SPBC HZ EP       2343 14.92                             128    0.40 9  165 218 
 SPBC HN ES       2343 35.96                             128   -0.65 9  165 218 
 SPBC HZ I        2343 41.48        11.2 0.48                           165 218 
 NOR  HZ EP   4   2343 25.54                             117    3.74 0  236 234 
 NOR  HN ES       2343 50.17                             117    0.60 8  236 234 
 NOR  HZ I        2343 55.88         5.1 0.18                           236 234 
 PRA  HZ EP       2343 40.49                             106    0.70 6  394 209 
 PRA  HN ES       2344 21.28                             106   -0.31 6  394 209 
 PRA  HZ I        2344 30.68         2.5 0.26                           394 209 
                                                                                
