 2011  4 6 2221 45.1 L   6.770 -73.098147.9  RSN  6 0.3 1.8LRSN                1
 GAP=170        0.57       5.4     6.2  5.4 -0.1773E+02 -0.4846E+01  0.8568E+01E
 Epicentro: LOS SANTOS - SANTANDER                                             3
 ACTION:UP  11-06-22 15:29 OP:REBC STATUS:               ID:20110406222145 L   I
 2011-04-06-2220-14S.COL___138                                                 6
 STAT SP IPHASW D HRMM SECON CODA AMPLIT PERI AZIMU VELO SNR AR TRES W  DIS CAZ7
 BAR2 SZ EP   1   2222  4.53                             171    -0.413   22 205 
 BAR2 SZ ES   1   2222 20.58                             171     0.213   22 205 
 BAR2 SZ I        2222 21.25        14.9 0.19                            22 205 
 BRR  HZ EP   1   2222  7.02                             151     0.213   77 299 
 BRR  HN ES   1   2222 23.80                             151     0.113   77 299 
 BRR  HZ I        2222 24.89        22.1 0.37                            77 299 
 PAM  SZ EP   1   2222  7.58                             151     0.113   77  35 
 PAM  SN ES   2   2222 24.77                             151    -0.2 9   77  35 
 GRA  SZ EP   1   2222 10.47                             137    -0.212  127  15 
 GRA  SZ I        2222 32.46         4.7 0.35                           127  15 
 NOR  SN ES   2   2222 48.64                             119    -0.7 7  237 236 
 PRA  HZ EP       2222 39.03                             107     0.410  392 210 
 PRA  HE ES   2   2223 20.16                             107    -0.2 5  392 210 
                                                                                
