 2011  9 6 2002 29.8 L   6.805 -73.133147.3  RSN 10 0.4 3.1LRSN                1
 GAP=115        0.84       3.5     5.0  5.9  0.5704E+01  0.7321E+01  0.4021E+01E
 Epicentro: LOS SANTOS - SANTANDER                                             3
 ACTION:UPD 12-07-13 15:56 OP:ep   STATUS:               ID:20110906200229 L   I
 2011-09-06-2000-32S.COL___170                                                 6
 STAT SP IPHASW D HRMM SECON CODA AMPLIT PERI AZIMU VELO AIN AR TRES W  DIS CAZ7
 BAR2 SZ EP       20 2 49.65                             170    0.0210 24.2 193 
 BAR2 SZ ES   1   20 3  4.64                             170   -0.46 7 24.2 193 
 BAR2 SZ I        20 3  8.37       441.6 0.53                          24.2 193 
 BRR  HZ EP       20 2 51.61                             152    0.4410 72.2 298 
 BRR  HE ES   1   20 3  8.61                             152    0.77 7 72.2 298 
 BRR  HZ I        20 3 12.92       127.8 0.18                          72.2 298 
 PAM  SZ EP       20 2 52.39                             151    0.2910 76.1  39 
 PAM  SN ES   1   20 3  9.40                             151   -0.10 7 76.1  39 
 RUS  HZ EP       20 2 53.60                             144   -0.1410  101 177 
 RUS  HE ES   1   20 3 12.25                             144   -0.16 7  101 177 
 RUS  HZ I        20 3 14.32       154.3 0.41                           101 177 
 OCA  SZ EP   1   20 2 57.95                             130   -0.25 7  160 353 
 OCA  SZ ES   1   20 3 20.08                             130   -0.26 7  160 353 
 OCA  SZ I        20 3 25.72       160.6 0.38                           160 353 
 YOP  SE EP   1   20 2 59.29                             127   -0.65 7  179 154 
 YOP  SE ES   1   20 3 23.66                             127    0.21 7  179 154 
 ZAR  HZ EP       20 3  2.47                             122    0.01 9  205 292 
 ZAR  HN ES   1   20 3 26.96                             122   -0.97 6  205 292 
 ZAR  HZ I        20 3 36.78       141.7 0.43                           205 292 
 CHI  HZ EP   1   20 3  8.00                             117    0.32 6  250 195 
 CHI  HZ I        20 3 44.31       104.9 0.41                           250 195 
 TOL  SZ EP   1   20 3 18.91                             109    0.63 5  345 225 
 PRA  HZ EP   1   20 3 23.17                             107   -0.34 4  393 210 
                                                                                
