 2015 11 6 2257 20.9 L   6.813 -73.244144.6  RSN  4 0.3 1.6LRSN                1
 GAP=167        0.89       4.0     9.3  8.2  0.4385E+01  0.3074E+02 -0.7404E+01E
 Epicentro: ZAPATOCA - SANTANDER                                               3
 ACTION:UPD 15-12-28 16:09 OP:cam  STATUS:               ID:20151106225720 L   I
 OLDACT:UP  15-11-07 10:10 OP:mh   STATUS:               ID:20151106225546     3
 OLDACT:REG 15-11-07 09:55 OP:mh   STATUS:               ID:20151106225546     3
 2015-11-06-2255-46M.COL___316                                                 6
 STAT SP IPHASW D HRMM SECON CODA AMPLIT PERI AZIMU VELO AIN AR TRES W  DIS CAZ7
 BAR2 EZ EP       2257 41.03                             170    0.6410 25.4 164 
 BAR2 EZ ES       2257 55.70                             170    0.0810 25.4 164 
 BAR2 EZ I        2257 57.02         6.7 0.36            174           25.4 164 
 PAM  EZ EP       2257 43.58                             149    0.2510 83.7  46 
 PAM  EN ES       2258  0.63                             149   -0.2410 83.7  46 
 PAM  EZ I        2258  2.89         3.9 0.20            151           83.7  46 
 RUS  HZ EP       2257 44.14                             143   -0.5610  103 170 
 RUS  HN ES       2258  3.23                             143   -0.0610  103 170 
 SML  HZ EP   1   2257 56.83                             118    0.03 6  238 338 
 SML  HN ES       2258 24.62                             118   -0.21 8  238 338 
 SML  HZ I        2258 31.67         5.2 0.10            118            238 338 
                                                                                
