 2016 10 6 2212 56.4 L   6.747 -73.141132.5  RSN  4 0.1 1.7LRSN                1
 GAP=139        0.40       2.0     1.9  4.3 -0.1647E+00  0.3197E+01 -0.1472E+01E
 Epicentro: LOS SANTOS - SANTANDER                                             3
 ACTION:UPD 16-11-09 19:16 OP:rebc STATUS:               ID:20161006221256 L   I
 OLDACT:REG 16-10-07 03:02 OP:edw  STATUS:               ID:20161006220745     3
 2016-10-06-2208-00M.COL___354                                                 6
 STAT SP IPHASW D HRMM SECON CODA AMPLIT PERI AZIMU VELO AIN AR TRES W  DIS CAZ7
 PAM  EZ EP       2213 17.26                             147   -0.2310 81.7  37 
 PAM  EZ ES       2213 34.06                             147    0.1110 81.7  37 
 PAM  EZ I        2213 36.39         8.3 0.42            148           81.7  37 
 RUS  HZ EP       2213 18.50                             143    0.1010 94.6 176 
 RUS  HN ES       2213 35.57                             143   -0.0110 94.6 176 
 PTB  HZ ES       2213 42.33                             129   -0.09 9  147 261 
 PTB  HZ I        2213 44.19         5.9 0.12            130            147 261 
 ZAR  HZ EP       2213 28.42                             119    0.13 8  207 294 
 ZAR  HZ ES       2213 53.21                             119    0.03 8  207 294 
 ZAR  HZ I        2214  1.00         5.0 0.50            120            207 294 
                                                                                
