 2013 12 6 2156 34.3 L   6.789 -73.070144.1  RSN  4 0.1 1.8LRSN                1
 GAP=244        0.35       2.3     4.8  3.2  0.4548E+01 -0.1399E+01  0.2173E+01E
 Epicentro: LOS SANTOS - SANTANDER                                             3
 ACTION:UPD 14-01-13 10:16 OP:ep   STATUS:               ID:20131206215634 L   I
 OLDACT:REG 13-12-06 23:30 OP:mh   STATUS:               ID:20131206215000     3
 2013-12-06-2150-00M.COL___285                                                 6
 STAT SP IPHASW D HRMM SECON CODA AMPLIT PERI AZIMU VELO AIN AR TRES W  DIS CAZ7
 BAR2 SZ EP       2156 53.86                             170    0.0510 25.1 210 
 BAR2 SZ ES   1   2157  8.93                             170   -0.06 7 25.1 210 
 BAR2 SZ I        2157 10.09        26.2 0.21            155           25.1 210 
 BRR  HZ EP       2156 55.71                             150   -0.0810 79.2 296 
 BRR  HN ES       2157 12.56                             150    0.0410 79.2 296 
 BRR  HZ I        2157 17.69        14.3 0.29            140           79.2 296 
 RUS  HZ EP       2156 57.98                             144    0.1510 99.1 181 
 RUS  HN ES   1   2157 16.03                             144   -0.11 7 99.1 181 
 RUS  HZ I        2157 17.97         8.5 0.27            139           99.1 181 
 CHI  HZ EP       2157 11.89                             117   -0.19 8  250 197 
 CHI  HN ES       2157 41.60                             117    0.09 8  250 197 
 CHI  HZ I        2157 48.93         2.2 0.31            115            250 197 
                                                                                
