 2014  9 6 2207 14.1 L   6.774 -73.189142.1  RSN  6 0.3 1.7LRSN                1
 GAP=132        0.86       4.4     4.6  6.1 -0.4645E+00  0.2106E+00 -0.5387E+00E
 Epicentro: LOS SANTOS - SANTANDER                                             3
 ACTION:UPD 14-10-03 23:02 OP:nd   STATUS:               ID:20140906220714 L   I
 OLDACT:REG 14-09-07 06:31 OP:stll STATUS:               ID:20140906215819     3
 2014-09-06-2158-19M.COL___263                                                 6
 STAT SP IPHASW D HRMM SECON CODA AMPLIT PERI AZIMU VELO AIN AR TRES W  DIS CAZ7
 BAR2 SZ EP       22 7 33.23                             172   -0.0010 20.2 178 
 BAR2 SZ ES       22 7 47.81                             172   -0.3410 20.2 178 
 BAR2 SZ I        22 7 50.93         9.1 0.24            167           20.2 178 
 BRR  HZ EP       22 7 35.10                             153    0.4010 68.5 303 
 BRR  HN ES       22 7 51.17                             153    0.4010 68.5 303 
 PAM  SZ EP       22 7 36.04                             148   -0.2210 82.6  41 
 RUS  HZ EP       22 7 37.57                             144    0.2510 98.2 173 
 RUS  HE ES       22 7 55.41                             144   -0.0310 98.2 173 
 RUS  HZ I        22 7 56.82         4.7 0.28            142           98.2 173 
 PTB  HZ EP       22 7 40.19                             132   -0.11 9  142 260 
 PTB  HN ES       22 8  0.17                             132   -0.55 9  142 260 
 PTB  HZ I        22 8  3.53         8.4 0.18            131            142 260 
 SPBC HZ EP       22 7 41.50                             129   -0.33 9  158 218 
 SPBC HN ES       22 8  3.93                             129    0.48 9  158 218 
 SPBC HZ I        22 8 11.66         7.3 0.14            128            158 218 
                                                                                
