 2017 11 6 2059 27.4 L   5.990 -73.672119.4  RSN  8 0.4 1.5LRSN                1
 GAP=109        1.04       3.3     3.7  6.4 -0.2013E+01  0.6504E+01  0.6711E+00E
 Epicentro: VELEZ - SANTANDER                                                  3
 ACTION:UPD 17-12-12 19:53 OP:rebc STATUS:               ID:20171106205927 L   I
 OLDACT:REG 17-11-07 03:25 OP:dhb  STATUS:               ID:20171106205742     3
 2017-11-06-2058-00M.COL___420                                                 6
 STAT SP IPHASW D HRMM SECON CODA AMPLIT PERI AZIMU VELO AIN AR TRES W  DIS CAZ7
 SPBC HZ EP       2059 45.22                             152    0.1310 57.9 230 
 SPBC HN ES       2059 59.60                             152    0.7210 57.9 230 
 SPBC HZ I        21 0  2.26        17.5 0.22            153           57.9 230 
 RUS  HZ EP       2059 46.29                             149    0.1410 66.1  99 
 RUS  HN ES       21 0  0.47                             149   -0.3010 66.1  99 
 RUS  HZ I        21 0  4.52         4.4 0.38            152           66.1  99 
 BAR2 EZ EP       2059 47.38                             142    0.2210 85.9  39 
 BAR2 HE ES       21 0  2.38                             142   -0.1810 85.9  39 
 BAR2 EZ I        21 0  3.80        20.9 0.48            145           85.9  39 
 PTB  HZ EP       2059 47.75                             135   -0.7210  106 305 
 PTB  HN ES       21 0  4.33                             135   -0.5610  106 305 
 PTB  HZ I        21 0  5.29         2.6 0.22            138            106 305 
 BRR  HZ EP       2059 50.12                             131    0.1010  124 358 
 BRR  HE ES       21 0  7.73                             131    0.0710  124 358 
 BRR  HZ I        21 0 11.94         5.9 0.40            133            124 358 
 NOR  HZ EP       2059 51.63                             127   -0.09 9  141 250 
 NOR  HE ES       21 0 10.94                             127    0.25 9  141 250 
 NOR  HZ I        21 0 13.11         3.9 0.56            129            141 250 
 ZAR  HZ EP       2059 59.63                             115    0.50 8  212 322 
 ZAR  HN ES       21 0 23.98                             115    0.12 8  212 322 
 ZAR  HZ I        21 0 26.99         2.8 0.28            117            212 322 
 PRA  HZ EP       21 0  8.04                             108    0.48 7  285 208 
 PRA  HN ES       21 0 38.02                             108   -0.85 7  285 208 
 PRA  HZ I        21 0 43.82         2.3 0.26            110            285 208 
                                                                                
