 2014 10 6 2030 16.0 L   6.817 -73.162148.9  RSN  9 0.3 2.0LRSN                1
 GAP=134        0.88       2.8     4.3  5.1 -0.1135E+01  0.3732E+01  0.3754E+00E
 Epicentro: LOS SANTOS - SANTANDER                                             3
 ACTION:UPD 14-11-29 23:47 OP:nd   STATUS:               ID:20141006203016 L   I
 OLDACT:UP  14-10-07 03:43 OP:cam  STATUS:               ID:20141006203000     3
 OLDACT:REG 14-10-07 03:12 OP:cam  STATUS:               ID:20141006203000     3
 2014-10-06-2030-00M.COL___252                                                 6
 STAT SP IPHASW D HRMM SECON CODA AMPLIT PERI AZIMU VELO AIN AR TRES W  DIS CAZ7
 BAR2 SZ EP       2030 36.01                             170   -0.0510 24.9 185 
 BAR2 SZ ES       2030 51.39                             170   -0.3010 24.9 185 
 BAR2 SZ I        2030 53.73        27.4 0.26            170           24.9 185 
 BRR  HZ EP       2030 37.75                             154    0.3710 68.8 298 
 BRR  HE ES       2030 54.49                             154    0.4510 68.8 298 
 BRR  HN I        2030 55.52        33.1 0.26            151           68.8 298 
 PAM  SZ EP     C 2030 38.78                             151    0.2210 77.1  41 
 PAM  SE ES       2030 56.14                             151    0.0110 77.1  41 
 PAM  SZ I        2030 58.17        17.9 0.52            154           77.1  41 
 RUS  HZ EP       2030 40.20                             144   -0.0210  103 175 
 RUS  HE ES       2030 58.75                             144   -0.3510  103 175 
 RUS  HZ I        2030 59.72         5.2 0.48            146            103 175 
 PTB  HZ EP       2030 42.63                             133   -0.50 9  146 258 
 PTB  HN ES       2031  3.70                             133   -0.57 9  146 258 
 PTB  HZ I        2031  9.70        11.9 0.22            132            146 258 
 SPBC HZ EP       2030 44.88                             130    0.09 9  164 218 
 SPBC HN ES       2031  7.99                             130    0.75 9  164 218 
 SPBC HZ I        2031 11.96        15.6 0.18            130            164 218 
 SML  HZ EP       2030 52.25                             118   -0.32 8  241 335 
 SML  HN ES       2031 21.08                             118    0.01 8  241 335 
 SML  HZ I        2031 28.21        12.7 0.10            119            241 335 
 CHI  HZ EP       2030 54.14                             118    0.10 8  250 195 
 CHI  HN ES       2031 23.73                             118    0.04 8  250 195 
 CHI  HZ I        2031 27.44         3.6 0.40            119            250 195 
 GUY2CHZ EP   4   2031  1.10                             113    1.37 0  301 234 
 GUY2CHE ES   4   2031 37.03                             113    3.20 0  301 234 
 GUY2CHZ I        2031 42.81         6.8 0.72                           301 234 
                                                                                
