 2016  1 6 2019 47.4 L   6.796 -73.317140.3  RSN  9 0.5 1.7LRSN                1
 GAP= 98        0.91       5.0     6.2  8.5 -0.4411E+00  0.1853E+02 -0.1205E+02E
 Epicentro: ZAPATOCA - SANTANDER                                               3
 ACTION:UPD 16-03-09 23:23 OP:cam  STATUS:               ID:20160106201947 L   I
 OLDACT:DUP 16-01-07 03:36 OP:dnl  STATUS:               ID:20160106200749d    3
 OLDACT:REG 16-01-07 02:57 OP:dnl  STATUS:               ID:20160106200748     3
 2016-01-06-2007-48M.COL___286                                                 6
 STAT SP IPHASW D HRMM SECON CODA AMPLIT PERI AZIMU VELO AIN AR TRES W  DIS CAZ7
 BAR2 EZ EP       2020  7.05                             169    0.6310 27.0 147 
 BAR2 EZ ES       2020 21.61                             169    0.3310 27.0 147 
 BAR2 EZ I        2020 23.77        15.7 0.13            167           27.0 147 
 PAM  EZ EP     C 2020  9.75                             146   -0.1310 90.8  49 
 PAM  EN ES   2   2020 26.50                             146   -0.94 5 90.8  49 
 PAM  EZ I        2020 29.22         7.7 0.56            157           90.8  49 
 RUS  HZ EP   2   2020 11.24                             142    0.46 5  103 165 
 RUS  HE ES       2020 28.57                             142   -0.4710  103 165 
 RUS  HZ I        2020 30.84         5.1 0.32            146            103 165 
 PTB  HZ EP       2020 12.08                             135   -0.1410  129 257 
 PTB  HN ES   2   2020 32.11                             135    0.49 5  129 257 
 PTB  HZ I        2020 42.30         5.6 0.17            131            129 257 
 SPBC HE ES   4   2020 31.63                             130   -3.77 0  152 214 
 SPBC HZ I        2020 42.55         7.0 0.14            130            152 214 
 ZAR  HE ES   2   2020 40.89                             124   -0.44 4  187 294 
 ZAR  HZ I        2020 51.73         5.9 0.19            123            187 294 
 SML  HZ EP   2   2020 23.24                             117    0.31 4  237 339 
 SML  HE ES   2   2020 50.14                             117   -0.54 4  237 339 
 SML  HZ I        2020 54.34         9.4 0.10            119            237 339 
 CHI  HZ EP   2   2020 24.72                             116    0.47 4  244 191 
 CHI  HN ES   2   2020 51.85                             116   -1.18 4  244 191 
 CHI  HZ I        2020 58.64         2.5 0.57            119            244 191 
 GUY2CHE ES   4   2020 59.01                             112   -2.42 0  286 233 
 GUY2CHZ I        2021 18.98         1.6 0.70                           286 233 
                                                                                
