 2013  8 6 2132 24.0 L   6.813 -73.147152.2  RSN 13 0.4 2.2LRSN                1
 GAP=136        1.02       2.8     4.1  4.8 -0.9966E+00  0.5388E+01  0.1273E+01E
 Epicentro: LOS SANTOS - SANTANDER                                             3
 ACTION:UPD 14-01-14 08:59 OP:ep   STATUS:               ID:20130806213224 L   I
 OLDACT:UP  13-08-06 23:05 OP:cam  STATUS:               ID:20130806212959     3
 OLDACT:REG 13-08-06 22:19 OP:cam  STATUS:               ID:20130806212959     3
 2013-08-06-2129-59M.COL___270                                                 6
 STAT SP IPHASW D HRMM SECON CODA AMPLIT PERI AZIMU VELO AIN AR TRES W  DIS CAZ7
 BAR2 SZ EP       2132 44.36                             170   -0.0210 24.7 189 
 BAR2 SZ ES       2132 59.69                             170   -0.6310 24.7 189 
 BAR2 SZ I        2133  0.94        21.1 0.15            169           24.7 189 
 GIR2 SZ EP       2132 44.50                             168    0.1410 29.9 350 
 GIR2 SZ ES       2133  0.31                             168    0.0510 29.9 350 
 BRR  HZ EP     C 2132 46.25                             154    0.4910 70.4 298 
 BRR  HN ES       2133  3.67                             154    0.9010 70.4 298 
 BRR  HZ I        2133  8.92        19.6 0.14            150           70.4 298 
 PAM  SZ EP       2132 47.20                             152    0.4010 76.3  40 
 PAM  SE ES       2133  4.53                             152   -0.0810 76.3  40 
 PAM  SZ I        2133  6.52        23.8 0.54            155           76.3  40 
 RUS  HZ EP       2132 48.31                             145   -0.1310  102 176 
 RUS  HN ES       2133  7.26                             145   -0.2810  102 176 
 RUS  HZ I        2133  9.57        16.9 0.48            147            102 176 
 PTB  HZ EP       2132 50.76                             133   -0.71 9  148 258 
 PTB  HN ES       2133 12.59                             133   -0.34 9  148 258 
 PTB  HZ I        2133 18.18        18.5 0.44            132            148 258 
 OCA  HN ES   4   2133 16.50                             131    1.49 0  159 353 
 SPBC HZ EP       2132 53.39                             130    0.34 9  164 219 
 SPBC HN ES       2133 15.72                             130   -0.02 9  164 219 
 SPBC HZ I        2133 20.31        28.9 0.22            130            164 219 
 ZAR  HZ EP       2132 56.04                             124   -0.72 9  203 292 
 ZAR  HN ES       2133 22.70                             124    0.35 9  203 292 
 ZAR  HZ I        2133 29.23        17.9 0.26            123            203 292 
 NOR  HZ EP       2133  0.38                             120    0.23 8  235 234 
 NOR  HE ES       2133 28.37                             120   -0.00 8  235 234 
 NOR  HZ I        2133 32.59        16.5 0.20            120            235 234 
 SML  HZ EP       2133  0.76                             119   -0.05 8  242 335 
 SML  HN ES       2133 29.24                             119   -0.31 8  242 335 
 SML  HZ I        2133 36.47        21.0 0.10            119            242 335 
 CHI  HZ EP       2133  2.54                             118    0.38 8  250 195 
 CHI  HZ I        2133  5.09         6.5 0.24            120            250 195 
 CHI  HN ES       2133 31.95                             118   -0.01 8  250 195 
 PRA  HZ EP       2133 18.48                             107    0.64 6  393 209 
 PRA  HE ES       2133 59.92                             107    0.05 6  393 209 
 PRA  HZ I        2134  4.35         6.7 0.34            108            393 209 
 SJC  HZ EP       2133 18.64                             107   -0.95 6  408 327 
 SJC  HN ES   4   2134  1.32                             107   -1.66 0  408 327 
 SJC  HZ I        2134  7.67         3.6 0.50            107            408 327 
                                                                                
