 2011  9 6 2106 39.1 L   6.815 -73.132139.4  RSN  6 0.4 2.2LRSN                1
 GAP=138        0.83       4.3     7.1  7.3  0.1098E+01  0.6066E+01 -0.5560E+01E
 Epicentro: LOS SANTOS - SANTANDER                                             3
 ACTION:UPD 12-07-13 15:56 OP:ep   STATUS:               ID:20110906210639 L   I
 2011-09-06-2102-45S.COL___170                                                 6
 STAT SP IPHASW D HRMM SECON CODA AMPLIT PERI AZIMU VELO AIN AR TRES W  DIS CAZ7
 BAR2 SZ EP   1   21 6 58.15                             169    0.12 7 25.3 193 
 BAR2 SZ ES   1   21 7 12.60                             169   -0.18 7 25.3 193 
 BAR2 SZ I        21 7 14.64        25.3 0.45                          25.3 193 
 BRR  HZ EP   1   21 6 59.99                             151    0.37 7 71.8 297 
 BRR  HN ES   1   21 7 16.14                             151    0.53 7 71.8 297 
 BRR  HZ I        21 7 18.93        29.4 0.12                          71.8 297 
 PAM  SZ EP       21 7  1.07                             150    0.5510 75.1  39 
 PAM  SE ES   1   21 7 16.90                             150   -0.31 7 75.1  39 
 RUS  HZ EP   1   21 7  2.27                             142   -0.10 7  102 177 
 RUS  HN ES   1   21 7 20.14                             142   -0.36 7  102 177 
 RUS  HZ I        21 7 22.72        11.7 0.22                           102 177 
 OCA  SZ EP   1   21 7  6.63                             128   -0.17 7  159 353 
 OCA  SZ ES   1   21 7 27.80                             128   -0.59 7  159 353 
 OCA  SZ I        21 7 32.83        33.7 0.23                           159 353 
 ZAR  HZ EP   1   21 7 10.65                             121   -0.59 6  205 292 
 ZAR  HZ I        21 7 42.34        19.8 0.50                           205 292 
                                                                                
