 2017  5 6 2253 13.6 L   6.822 -73.175149.1  RSN 24 0.5 3.0LRSN 3.6WRSN        1
 SPEC AVERAGE  MO 14.5 ST 44.6 OM  2.8 f0 1.93 R1.5818 AL 0.00 WI 30.0 MW  3.6 3
 SPEC SD       MO  0.2 ST132.7 OM  0.5 f0 2.20 R0.5959 AL      WI      MW  0.2 3
 GAP=108        0.98       2.6     3.1  5.0  0.7199E+00  0.2987E+01  0.1584E+01E
 Epicentro: ZAPATOCA - SANTANDER                                               3
 SPEC BRR HH Z MO 14.1 ST  1.2 OM  2.2 f0 2.41 R0.7983 AL-0.00 WI 30.0 MW  3.4 3
 SPEC BRR HH Z T225350 K 0.000 GD  163 VS 5.20 DE 3.50 Q0750.0 QA 1.50 VS 5.20 3
 SPEC PAM EH Z MO 14.4 ST0.264 OM  2.5 f0 1.16 R1.6586 AL-0.00 WI 30.0 MW  3.6 3
 SPEC PAM EH Z T225352 K 0.000 GD  168 VS 5.20 DE 3.50 Q0750.0 QA 1.50 VS 5.20 3
 SPEC RUS HH Z MO 14.7 ST0.236 OM  2.7 f00.935 R2.0578 AL-0.00 WI 30.0 MW  3.7 3
 SPEC RUS HH Z T225354 K 0.000 GD  181 VS 5.20 DE 3.50 Q0750.0 QA 1.50 VS 5.20 3
 SPEC YPLCHN Z MO 15.1 ST442.5 OM  3.0 f0 8.40 R0.2290 AL-0.00 WI 30.0 MW  4.0 3
 SPEC YPLCHN Z T2254 6 K 0.000 GD  234 VS 5.20 DE 3.50 Q0750.0 QA 1.50 VS 5.20 3
 SPEC TABCEH Z MO 14.7 ST0.207 OM  2.5 f00.908 R2.1189 AL-0.00 WI 30.0 MW  3.7 3
 SPEC TABCEH Z T225416 K 0.000 GD  274 VS 5.20 DE 3.50 Q0750.0 QA 1.50 VS 5.20 3
 SPEC CHI HH Z MO 14.5 ST0.246 OM  2.3 f0 1.10 R1.7491 AL-0.00 WI 30.0 MW  3.6 3
 SPEC CHI HH Z T225419 K 0.000 GD  291 VS 5.20 DE 3.50 Q0750.0 QA 1.50 VS 5.20 3
 SPEC ROSCBH Z MO 14.6 ST0.210 OM  2.4 f00.964 R1.9959 AL-0.00 WI 30.0 MW  3.7 3
 SPEC ROSCBH Z T225420 K 0.000 GD  293 VS 5.20 DE 3.50 Q0750.0 QA 1.50 VS 5.20 3
 SPEC VIL EH Z MO 14.4 ST0.141 OM  2.2 f00.938 R2.0512 AL-0.00 WI 30.0 MW  3.6 3
 SPEC VIL EH Z T225429 K 0.000 GD  339 VS 5.20 DE 3.50 Q0750.0 QA 1.50 VS 5.20 3
 SPEC ANILHH Z MO 14.4 ST0.513 OM  2.1 f0 1.49 R1.2913 AL-0.00 WI 30.0 MW  3.5 3
 SPEC ANILHH Z T225442 K 0.000 GD  386 VS 5.20 DE 3.50 Q0750.0 QA 1.50 VS 5.20 3
 SPEC SJC HH Z MO 14.3 ST0.150 OM  2.0 f0 1.03 R1.8680 AL-0.00 WI 30.0 MW  3.5 3
 SPEC SJC HH Z T225447 K 0.000 GD  431 VS 5.20 DE 3.50 Q0750.0 QA 1.50 VS 5.20 3
 OLDACT:UP  17-05-07 06:54 OP:dani STATUS:               ID:20170506224308     3
 OLDACT:UP  17-05-07 06:53 OP:dani STATUS:               ID:20170506224308     3
 OLDACT:UP  17-05-07 06:53 OP:dani STATUS:               ID:20170506224308     3
 OLDACT:UP  17-05-07 06:53 OP:dani STATUS:               ID:20170506224308     3
 OLDACT:REG 17-05-07 05:40 OP:dani STATUS:               ID:20170506224308     3
 ACTION:UPD 17-06-16 13:33 OP:jn   STATUS:               ID:20170506225313 L   I
 OLDACT:UP  17-05-07 06:57 OP:dani STATUS:               ID:20170506224308     3
 OLDACT:UP  17-05-07 06:57 OP:dani STATUS:               ID:20170506224308     3
 OLDACT:UP  17-05-07 06:56 OP:dani STATUS:               ID:20170506224308     3
 2017-05-06-2248-00M.COL___364                                                 6
 STAT SP IPHASW D HRMM SECON CODA AMPLIT PERI AZIMU VELO AIN AR TRES W  DIS CAZ7
 BRR  HZ IP     C 2253 35.32                             154    0.4110 67.1 298 
 BRR  HN ES       2253 52.38                             154    0.8610 67.1 298 
 BRR  HZ I        2253 56.59       157.6 0.16            152           67.1 298 
 PAM  EZ EP       2253 36.43                             151    0.2210 77.7  43 
 PAM  EN ES       2253 53.65                             151   -0.1810 77.7  43 
 PAM  EZ I        2253 55.74       383.9 0.52            154           77.7  43 
 RUS  HZ EP     D 2253 37.49                             144   -0.4010  103 174 
 RUS  HN ES       2253 56.31                             144   -0.5210  103 174 
 RUS  HZ I        2253 57.43       120.7 0.30            145            103 174 
 PTB  HZ EP       2253 40.24                             133   -0.38 9  145 258 
 PTB  HN ES       2254  1.24                             133   -0.44 9  145 258 
 PTB  HZ I        2254  3.24        66.6 0.36            132            145 258 
 SPBC HZ EP       2253 42.48                             130    0.12 9  163 218 
 SPBC HN ES       2254  4.56                             130   -0.23 9  163 218 
 SPBC HZ I        2254  6.98       163.2 0.28            130            163 218 
 YPLC HZ IP     D 2253 43.95                             127   -0.07 9  181 151 
 YPLC HN ES       2254  7.97                             127    0.23 9  181 151 
 YPLC HZ I        2254  8.88       152.9 0.28            129            181 151 
 ZAR  HZ EP       2253 45.98                             124    0.10 9  200 292 
 ZAR  HN ES       2254 10.45                             124   -0.59 9  200 292 
 ZAR  HZ I        2254 18.31       127.2 0.38            123            200 292 
 TABC EZ EP   3   2253 51.08                             120    1.46 2  230 210 
 TABC EZ ES       2254 18.34                             120    0.64 8  230 210 
 TABC EZ I        2254 24.19        82.3 0.32            120            230 210 
 NOR  HZ EP       2253 49.61                             119    0.20 8  233 233 
 NOR  HE ES       2254 17.82                             119    0.49 8  233 233 
 NOR  HZ I        2254 18.87        51.0 0.18            119            233 233 
 CHI  HZ EP       2253 51.74                             118    0.07 8  250 194 
 CHI  HN ES       2254 20.72                             118   -0.63 8  250 194 
 CHI  HZ I        2254 24.54        71.0 0.46            118            250 194 
 ROSC BZ EP   3   2253 53.32                             117    1.35 2  253 210 
 ROSC BN ES       2254 22.17                             117    0.29 8  253 210 
 ROSC BZ I        2254 27.35       110.6 0.45            118            253 210 
 HEL  HZ EP       2253 54.16                             116    0.44 8  270 255 
 HEL  HE ES   3   2254 23.97                             116   -1.03 2  270 255 
 HEL  HZ I        2254 32.54        40.4 0.39            116            270 255 
 VIL  EZ EP       2253 57.24                             113   -0.15 7  305 191 
 VIL  HN ES       2254 31.49                             113   -0.04 7  305 191 
 VIL  EZ I        2254 34.21        97.3 0.38            113            305 191 
 PTGC HZ IP   3 C 2253 56.77                             112   -1.25 2  312 158 
 PTGC HE ES   4   2254 29.95                             112   -2.70 0  312 158 
 PTGC HZ I        2254 34.97        92.1 0.30            113            312 158 
 ELA  HZ EP   4   2254  3.08                             111    2.57 0  328 229 
 ELA  HE ES   3   2254 38.26                             111    1.17 2  328 229 
 ELA  HZ I        2254 46.59        33.7 0.30            111            328 229 
 CBOC HZ EP       2254  1.34                             111    0.94 7  331 252 
 CBOC HN ES   3   2254 35.99                             111   -0.90 2  331 252 
 CBOC HZ I        2254 43.61                             111            331 252 
 DBB  EZ EP       2254  0.98                             110    0.15 7  336 274 
 DBB  EN ES       2254 36.64                             110   -1.02 7  336 274 
 DBB  EZ I        2254 38.71        17.8 0.16            110            336 274 
 ARGC HZ EP   9   2254  4.65                             109    1.64 0  356 341 
 ARGC HN ES       2254 43.24                             109    0.07 6  356 341 
 ARGC HZ I        2254 53.83        23.9 0.37            110            356 341 
 ANIL HZ EP   9   2254  4.69                             109    1.20 0  357 224 
 ANIL HN ES       2254 44.36                             109    0.77 6  357 224 
 SJC  HZ EP       2254  7.77                             106   -1.07 6  405 327 
 SJC  HN ES   4   2254 48.87                             106   -3.04 0  405 327 
 SJC  HZ I        2254 53.27        20.5 0.62            107            405 327 
 SMAR HZ EP       2254 19.63                             103    0.43 4  494 347 
 SMAR HN ES   4   2255  6.88                             103   -3.47 0  494 347 
 SMAR HZ I        2255 10.13        16.2 0.20            103            494 347 
 URI  HZ EP   4   2254 24.10                             101   -2.40 0  555  13 
 URI  HE ES   4   2255 18.69                             101   -4.66 0  555  13 
 URI  HZ I        2255 24.04         4.1 0.34            102            555  13 
 GARC HZ EP   3   2254 27.71                             101   -1.32 1  573 207 
 FLO2 HZ EP       2254 36.24                              99   -0.66 2  641 205 
                                                                                
