 2017 11 6 2222 56.5 L   6.836 -73.116136.0  RSN  4 0.3 1.2LRSN                1
 GAP=247        0.85       8.2     6.5  7.7  0.3400E+02  0.2144E+01 -0.2115E+02E
 Epicentro: LOS SANTOS - SANTANDER                                             3
 ACTION:UPD 17-12-12 19:53 OP:rebc STATUS:               ID:20171106222256 L   I
 OLDACT:DUP 17-11-07 04:39 OP:dhb  STATUS:               ID:20171106221742d    3
 OLDACT:REG 17-11-07 03:30 OP:dhb  STATUS:               ID:20171106221741     3
 2017-11-06-2218-00M.COL___423                                                 6
 STAT SP IPHASW D HRMM SECON CODA AMPLIT PERI AZIMU VELO AIN AR TRES W  DIS CAZ7
 BAR2 EZ EP       2223 14.77                             168   -0.2810 28.0 195 
 BAR2 EZ ES       2223 29.50                             168   -0.0310 28.0 195 
 BAR2 EZ I        2223 32.38         4.1 0.26            169           28.0 195 
 RUS  HZ EP       2223 19.28                             141   -0.3010  104 178 
 RUS  HE ES       2223 38.08                             141    0.4810  104 178 
 RUS  HZ I        2223 39.41         2.8 0.36            145            104 178 
 PTB  HZ EP       2223 22.89                             129   -0.17 9  152 258 
 PTB  HE ES       2223 43.50                             129   -0.28 9  152 258 
 PTB  HZ I        2223 46.44         0.9 0.30            131            152 258 
 ZAR  HZ EP       2223 29.13                             120    0.65 8  206 291 
 ZAR  HN ES       2223 53.53                             120    0.09 8  206 291 
 ZAR  HZ I        2223 58.91         2.8 0.32            122            206 291 
                                                                                
