 2013  7 6 2227  8.4 L   6.764 -73.194141.4  RSN  4 0.2 1.2LRSN                1
 GAP=132        0.59       3.4     3.4  6.1 -0.2323E+01  0.9700E+01 -0.3468E+01E
 Epicentro: VILLANUEVA - SANTANDER                                             3
 ACTION:UPD 13-08-12 10:35 OP:ep   STATUS:               ID:20130706222708 L   I
 OLDACT:REG 13-07-07 01:11 OP:carl STATUS:               ID:20130706221959     3
 2013-07-06-2219-59M.COL___266                                                 6
 STAT SP IPHASW D HRMM SECON CODA AMPLIT PERI AZIMU VELO AIN AR TRES W  DIS CAZ7
 PAM  SZ EP   1   2227 30.45                             148   -0.14 7 83.9  41 
 PAM  SN ES       2227 47.87                             148   -0.0110 83.9  41 
 RUS  HZ EP       2227 31.46                             144   -0.0510 97.1 173 
 RUS  HN ES       2227 49.66                             144    0.1610 97.1 173 
 RUS  HZ I        2227 51.29         1.9 0.28            147           97.1 173 
 PTB  HZ EP       2227 34.18                             132   -0.32 9  142 260 
 PTB  HN ES       2227 54.74                             132   -0.09 9  142 260 
 PTB  HZ I        2228  0.98         2.8 0.38            133            142 260 
 ZAR  HZ EP       2227 40.71                             122    0.47 9  201 294 
                                                                                
