 2011 11 6 2108 11.5 L   6.798 -73.103151.4  RSN  5 0.2 1.5LRSN                1
 GAP=142        0.34       3.2     3.9  5.6  0.2620E+01  0.9074E+00  0.5516E+00E
 Epicentro: LOS SANTOS - SANTANDER                                             3
 ACTION:UPD 12-07-13 16:08 OP:ep   STATUS:               ID:20111106210811 L   I
 2011-11-06-2105-54S.COL___175                                                 6
 STAT SP IPHASW D HRMM SECON CODA AMPLIT PERI AZIMU VELO AIN AR TRES W  DIS CAZ7
 PAM  SZ EP   2   21 8 34.44                             153    0.30 5 74.6  37 
 PAM  SN ES   2   21 8 51.59                             153   -0.23 5 74.6  37 
 BRR  HZ EP   2   21 8 33.59                             152    0.11 5 75.5 297 
 BRR  HN ES   2   21 8 50.86                             152    0.22 5 75.5 297 
 BRR  HZ I        21 8 52.52         8.5 0.57                          75.5 297 
 RUS  HZ EP   1   21 8 35.69                             145   -0.07 7  100 179 
 RUS  HN ES   2   21 8 54.68                             145   -0.02 5  100 179 
 RUS  HZ I        21 8 55.94         1.4 0.21                           100 179 
 OCA  SZ EP   2   21 8 40.24                             131   -0.07 5  161 351 
 OCA  SZ I        21 9  6.33         4.8 0.49                           161 351 
 ZAR  HN ES   2   21 9 10.50                             123   -0.21 4  209 292 
 ZAR  HZ I        21 9 15.10         3.6 0.10                           209 292 
                                                                                
