 2017  7 6 2157  6.9 L   6.752 -73.129134.6  RSN  8 0.2 1.9LRSN                1
 GAP=115        0.61       2.6     2.1  5.8  0.1098E+00  0.7126E+00  0.5746E+01E
 Epicentro: LOS SANTOS - SANTANDER                                             3
 ACTION:UPD 17-08-30 15:30 OP:rebc STATUS:               ID:20170706215706 L   I
 OLDACT:REG 17-07-07 03:18 OP:dhb  STATUS:               ID:20170706214743     3
 2017-07-06-2148-00M.COL___377                                                 6
 STAT SP IPHASW D HRMM SECON CODA AMPLIT PERI AZIMU VELO AIN AR TRES W  DIS CAZ7
 BAR2 EZ EP       2157 25.17                             172    0.0310 18.6 198 
 BAR2 EZ I        2157 40.77        19.4 0.26            170           18.6 198 
 BRR  HZ IP     C 2157 27.24                             149    0.0910 75.4 301 
 BRR  HN ES       2157 42.92                             149    0.0010 75.4 301 
 BRR  HZ I        2157 49.54        18.0 0.22            151           75.4 301 
 PAM  EZ IP     D 2157 28.04                             148   -0.1310 80.4  36 
 PAM  EN ES       2157 44.85                             148    0.1110 80.4  36 
 PAM  EZ I        2157 47.30        14.5 0.22            152           80.4  36 
 PTB  HZ EP       2157 32.73                             129   -0.37 9  149 261 
 PTB  HN ES       2157 53.03                             129   -0.48 9  149 261 
 PTB  HZ I        2157 56.10        10.4 0.12            131            149 261 
 SPBC HE ES       2157 55.82                             127    0.14 9  160 221 
 SPBC HZ I        2158  2.78         6.7 0.15            128            160 221 
 YPLC HZ EP       2157 35.55                             125    0.16 9  171 151 
 YPLC HN ES       2157 57.49                             125   -0.10 9  171 151 
 YPLC HZ I        2158  1.98        12.1 0.28            127            171 151 
 ZAR  HZ EP   4   2157 40.60                             119    1.53 0  208 293 
 ZAR  HN ES       2158  4.48                             119    0.34 8  208 293 
 ZAR  HZ I        2158 10.40        11.8 0.26            122            208 293 
 NOR  HZ EP   4   2157 42.37                             116    0.49 0  233 236 
 NOR  HN ES       2158  9.48                             116    0.35 8  233 236 
 NOR  HZ I        2158 16.44         4.9 0.20            118            233 236 
                                                                                
