 2014  3 6 2140 14.6 L   6.837 -73.145144.3  RSN 10 0.5 1.9LRSN                1
 GAP=135        1.07       3.5     4.2  6.1 -0.8635E+00  0.7091E+01  0.4194E+01E
 Epicentro: LOS SANTOS - SANTANDER                                             3
 ACTION:UPD 14-04-09 23:15 OP:nd   STATUS:               ID:20140306214014 L   I
 OLDACT:UP  14-03-06 22:15 OP:cam  STATUS:               ID:20140306213819     3
 OLDACT:REG 14-03-06 21:47 OP:cam  STATUS:               ID:20140306213819     3
 2014-03-06-2138-19M.COL___232                                                 6
 STAT SP IPHASW D HRMM SECON CODA AMPLIT PERI AZIMU VELO AIN AR TRES W  DIS CAZ7
 BAR2 SZ EP       2140 34.00                             169   -0.2010 27.3 189 
 BAR2 SZ ES       2140 49.17                             169   -0.2710 27.3 189 
 BAR2 SZ I        2140 50.37        22.6 0.42            168           27.3 189 
 BRR  HZ EP       2140 35.91                             153    0.3710 69.4 296 
 BRR  HN ES       2140 52.50                             153    0.6610 69.4 296 
 BRR  HZ I        2140 57.21        15.1 0.44            152           69.4 296 
 PAM  SZ EP     C 2140 36.91                             151    0.3810 74.3  42 
 PAM  SN ES       2140 53.83                             151    0.2410 74.3  42 
 PAM  SZ I        2140 55.46         9.3 0.16            156           74.3  42 
 RUS  HZ EP       2140 38.53                             142   -0.0310  105 176 
 RUS  HE ES   1   2140 56.62                             142   -0.59 7  105 176 
 RUS  HZ I        2140 58.25         6.3 0.46            144            105 176 
 PTB  HZ EP       2140 40.90                             131   -0.68 9  149 257 
 PTB  HN ES       2141  1.92                             131   -0.67 9  149 257 
 PTB  HZ I        2141  6.71         9.2 0.10            132            149 257 
 ZAR  HN ES       2141 12.03                             122    0.06 9  203 291 
 NOR  HZ EP       2140 50.51                             118   -0.05 8  237 234 
 NOR  HN ES       2141 19.10                             118    0.54 8  237 234 
 NOR  HZ I        2141 24.31         6.4 0.16            119            237 234 
 SML  HZ EP   1   2140 50.27                             118   -0.53 6  240 335 
 SML  HE ES       2141 18.42                             118   -0.57 8  240 335 
 SML  HZ I        2141 21.91        17.3 0.10            119            240 335 
 CHI  HZ EP       2140 52.57                             116   -0.13 8  253 195 
 CHI  HN ES       2141 22.44                             116    0.07 8  253 195 
 CHI  HZ I        2141 29.51         3.9 0.36            118            253 195 
 GUY2CHZ EP       2140 59.45                             112    0.99 7  304 234 
 GUY2CHE ES       2141 32.80                             112    0.16 7  304 234 
 GUY2CHZ I        2141 41.99         4.0 0.54                           304 234 
                                                                                
