 2017 10 6 2107 32.4 L   6.812 -73.154138.8  RSN  8 0.4 2.4LRSN                1
 GAP=135        0.98       3.9     4.8  6.6 -0.4176E+01  0.1171E+02  0.4518E+01E
 Epicentro: LOS SANTOS - SANTANDER                                             3
 ACTION:UPD 17-11-07 19:29 OP:rebc STATUS:               ID:20171006210732 L   I
 OLDACT:UP  17-10-07 04:24 OP:dani STATUS:               ID:20171006205743d    3
 OLDACT:UP  17-10-07 04:24 OP:dani STATUS:               ID:20171006205743d    3
 OLDACT:UP  17-10-07 04:23 OP:dani STATUS:               ID:20171006205743d    3
 OLDACT:DUP 17-10-07 04:20 OP:dani STATUS:               ID:20171006205743d    3
 OLDACT:UP  17-10-07 04:18 OP:dani STATUS:               ID:20171006205742     3
 OLDACT:REG 17-10-07 03:40 OP:dani STATUS:               ID:20171006205742     3
 2017-10-06-2058-00M.COL___441                                                 6
 STAT SP IPHASW D HRMM SECON CODA AMPLIT PERI AZIMU VELO AIN AR TRES W  DIS CAZ7
 BAR2 EZ IP     C 21 7 50.91                             169   -0.2810 24.5 187 
 BAR2 EZ ES       21 8  6.02                             169    0.1610 24.5 187 
 BAR2 EZ I        21 8  8.43        71.2 0.40            168           24.5 187 
 PAM  EZ EP     C 21 7 53.71                             150   -0.1110 76.9  41 
 PAM  EN ES       21 8 10.81                             150    0.2710 76.9  41 
 PAM  EZ I        21 8 11.51        23.5 0.18            154           76.9  41 
 RUS  HZ EP       21 7 55.34                             142   -0.2110  102 176 
 RUS  HN ES       21 8 13.30                             142   -0.3210  102 176 
 RUS  HZ I        21 8 14.57        56.8 0.32            143            102 176 
 SPBC HZ EP       21 7 60.00                             127   -0.39 9  164 218 
 SPBC HN ES       21 8 22.21                             127   -0.03 9  164 218 
 SPBC HZ I        21 8 24.59        53.9 0.17            128            164 218 
 ZAR  HN ES       21 8 29.29                             121    0.22 9  203 292 
 ZAR  HZ I        21 8 34.84        34.8 0.21            121            203 292 
 NOR  HZ EP       21 8  7.45                             117   -0.26 8  235 234 
 NOR  HN ES       21 8 34.89                             117   -0.38 8  235 234 
 CHI  HZ EP       21 8  9.64                             115   -0.17 8  250 195 
 CHI  HN ES       21 8 39.89                             115    0.88 8  250 195 
 CHI  HZ I        21 8 43.69         8.5 0.26            117            250 195 
 ROSC BZ EP       21 8 11.26                             115    1.07 8  253 211 
 ROSC BE ES   4   21 8 43.50                             115    3.80 0  253 211 
 ROSC BZ I        21 8 46.94        16.2 0.26            116            253 211 
                                                                                
