 2012 10 6 2201 19.4 L   6.775 -73.140146.8  RSN  5 0.3 1.9LRSN                1
 GAP=138        0.59       3.9     4.8  5.7  0.1878E+01  0.1504E+00 -0.1870E+00E
 Epicentro: LOS SANTOS - SANTANDER                                             3
 ACTION:UPD 12-11-22 17:02 OP:ep   STATUS:               ID:20121006220119 L   I
 2012-10-06-2200-00M.COL___222                                                 6
 STAT SP IPHASW D HRMM SECON CODA AMPLIT PERI AZIMU VELO AIN AR TRES W  DIS CAZ7
 BAR2 SZ ES   1   22 1 54.00                             172   -0.51 7 20.7 193 
 BRR  HZ EP       22 1 40.77                             152   -0.0410 73.1 300 
 BRR  HN ES   1   22 1 57.71                             152    0.24 7 73.1 300 
 BRR  HN I        22 1 59.63        22.0 0.20                          73.1 300 
 PAM  SZ EP       22 1 41.99                             150    0.1210 79.2  38 
 PAM  SE ES   1   22 1 59.38                             150    0.01 7 79.2  38 
 PAM  SE I        22 2  1.38         9.0 0.50                          79.2  38 
 RUS  HZ EP       22 1 42.92                             145   -0.1810 97.8 176 
 RUS  HN ES   1   22 2  2.00                             145    0.46 7 97.8 176 
 ZAR  HN ES   2   22 2 17.54                             122   -0.07 4  206 293 
 ZAR  HN I        22 2 23.26         7.4 0.26                           206 293 
                                                                                
