 2011  3 6 2128  4.3 L   6.801 -73.177144.6  RSN  7 0.2 1.9LRSN                1
 GAP=145        0.53       2.3     9.1  5.4 -0.4763E+01  0.1563E+01  0.5326E+00E
 Epicentro: LOS SANTOS - SANTANDER                                             3
 ACTION:UP  11-06-16 14:32 OP:jfem STATUS:               ID:20110306212804 L   I
 2011-03-06-2126-49S.COL___135                                                 6
 STAT SP IPHASW D HRMM SECON CODA AMPLIT PERI AZIMU VELO SNR AR TRES W  DIS CAZ7
 BAR2 SZ EP       2128 23.72                             170    -0.110   23 182 
 BAR2 SZ ES   2   2128 39.20                             170     0.2 5   23 182 
 BAR2 SZ I        2128 39.87        18.4 0.34                            23 182 
 RUS  HZ EP       2128 28.17                             143     0.210  101 174 
 RUS  HN ES   1   2128 46.02                             143    -0.4 7  101 174 
 RUS  HZ I        2128 47.61        10.9 0.25                           101 174 
 GRA  SZ EP       2128 29.55                             136     0.010  127  19 
 GRA  SZ I        2128 30.90        12.1 0.37                           127  19 
 GRA  SZ ES   1   2128 49.25                             136     0.1 7  127  19 
 OCA  SZ EP   1   2128 32.06                             129    -0.4 7  160 354 
 OCA  SZ ES   2   2128 54.72                             129     0.3 5  160 354 
 OCA  SZ I        2128 59.27        15.5 0.13                           160 354 
 YOP  SZ EP       2128 34.47                             126     0.0 9  181 152 
 YOP  SZ I        2128 59.00         6.1 0.75                           181 152 
 CHI  HZ EP   2   2128 41.75                             117    -0.1 4  248 194 
 CHI  HN ES   2   2129 11.47                             117     0.3 4  248 194 
 CHI  HZ I        2129 17.01         4.5 0.30                           248 194 
 PRA  HZ EP   2   2128 57.72                             106     0.1 3  390 209 
                                                                                
