 2016  7 6 2134 21.7 L   6.727 -73.177150.0  RSN  6 0.3 1.6LRSN                1
 GAP=228        0.76       5.0     4.8  6.1  0.1153E+02  0.1237E+02  0.7698E+01E
 Epicentro: VILLANUEVA - SANTANDER                                             3
 ACTION:UPD 17-03-29 16:47 OP:lp   STATUS:               ID:20160706213421 L   I
 OLDACT:DUP 16-07-07 04:09 OP:ak   STATUS:               ID:20160706212746d    3
 OLDACT:REG 16-07-07 03:53 OP:ak   STATUS:               ID:20160706212745     3
 2016-07-06-2127-45M.COL___328                                                 6
 STAT SP IPHASW D HRMM SECON CODA AMPLIT PERI AZIMU VELO AIN AR TRES W  DIS CAZ7
 BAR2 EZ EP   2   2134 41.54                             174   -0.18 5 14.9 182 
 BAR2 EZ ES       2134 57.22                             174   -0.1010 14.9 182 
 BAR2 EZ I        2134 57.99        11.5 0.18            175           14.9 182 
 BRR  HZ EP   2   2134 43.56                             153    0.16 5 72.5 305 
 BRR  HE ES       2135  0.75                             153    0.4410 72.5 305 
 BRR  HZ I        2135  4.14         6.1 0.23            151           72.5 305 
 RUS  HZ EP       2134 45.61                             147    0.2610 92.9 174 
 RUS  HN ES       2135  3.65                             147   -0.1410 92.9 174 
 RUS  HZ I        2135  5.64         4.3 0.20            150           92.9 174 
 PTB  HZ EP       2134 47.96                             134   -0.65 9  143 262 
 PTB  HN ES       2135  9.49                             134   -0.09 9  143 262 
 PTB  HZ I        2135 12.87         5.8 0.18            134            143 262 
 ZAR  HZ EP   2   2134 54.96                             123    0.52 4  204 295 
 ZAR  HN ES       2135 19.74                             123   -0.23 9  204 295 
 ZAR  HZ I        2135 26.46         4.6 0.10            124            204 295 
 GUY2CHZ EP   2   2135  4.77                             114    0.08 4  294 236 
 GUY2CHN ES       2135 38.70                             114    0.49 7  294 236 
 GUY2CHZ I        2135 48.35         2.3 0.30                           294 236 
                                                                                
