 2016  9 6 2149  7.1 L   6.797 -73.144147.6  RSN 11 0.4 2.2LRSN                1
 GAP=137        0.92       3.5     3.8  5.1 -0.2714E+01  0.5308E+01  0.2973E+01E
 Epicentro: LOS SANTOS - SANTANDER                                             3
 ACTION:UPD 17-08-17 21:07 OP:lp   STATUS:               ID:20160906214907 L   I
 OLDACT:UP  16-09-07 03:12 OP:drio STATUS:               ID:20160906214728     3
 OLDACT:REG 16-09-07 02:49 OP:drio STATUS:               ID:20160906214728     3
 2016-09-06-2148-00M.COL___358                                                 6
 STAT SP IPHASW D HRMM SECON CODA AMPLIT PERI AZIMU VELO AIN AR TRES W  DIS CAZ7
 BAR2 EZ EP       2149 26.79                             171   -0.2010 23.1 191 
 BAR2 EZ ES       2149 42.04                             171   -0.4210 23.1 191 
 BAR2 EZ I        2149 44.58        30.4 0.24            168           23.1 191 
 BRR  HZ EP       2149 28.62                             153    0.1110 71.5 299 
 BRR  HE ES       2149 45.69                             153    0.5210 71.5 299 
 BRR  HZ I        2149 48.72        32.9 0.40            149           71.5 299 
 PAM  EZ EP       2149 29.87                             151    0.3110 77.5  39 
 PAM  EE ES       2149 47.13                             151    0.0910 77.5  39 
 PAM  EZ I        2149 49.23        15.7 0.50            157           77.5  39 
 RUS  HZ EP       2149 30.77                             144   -0.2810  100 176 
 RUS  HE ES       2149 49.75                             144    0.0510  100 176 
 RUS  HZ I        2149 51.50        10.7 0.32            147            100 176 
 PTB  HZ EP       2149 33.52                             132   -0.76 9  148 259 
 PTB  HE ES       2149 55.17                             132   -0.27 9  148 259 
 PTB  HZ I        2150  1.92        15.4 0.36            131            148 259 
 SPBC HZ EP       2149 35.79                             129    0.02 9  163 219 
 SPBC HE ES       2149 58.43                             129    0.33 9  163 219 
 SPBC HZ I        2150  3.97        29.0 0.22            130            163 219 
 ZAR  HZ EP       2149 39.48                             123   -0.26 9  204 292 
 ZAR  HE ES   4   2150  3.73                             123   -1.44 0  204 292 
 ZAR  HZ I        2150 14.87        16.8 0.30            123            204 292 
 NOR  HZ EP       2149 43.08                             119    0.10 8  235 235 
 NOR  HE ES       2150 10.36                             119   -0.57 8  235 235 
 NOR  HZ I        2150 17.67        13.7 0.16            120            235 235 
 CHI  HZ EP       2149 44.90                             118   -0.02 8  248 195 
 CHI  HE ES       2150 14.91                             118    0.53 8  248 195 
 CHI  HZ I        2150 20.62         6.9 0.30            120            248 195 
 HEL  HZ EP   4   2149 49.26                             115    1.79 0  272 256 
 HEL  HE ES       2150 19.48                             115    0.56 8  272 256 
 HEL  HZ I        2150 25.53        12.5 0.40            116            272 256 
 GUY2CHZ EP       2149 51.42                             113    0.58 7  301 235 
 GUY2CHE ES   4   2150 26.93                             113    2.01 0  301 235 
 GUY2CHZ I        2150 37.01         8.2 0.46                           301 235 
                                                                                
