 2017  9 6 2330 28.2 L   6.765 -73.113148.1  RSN 10 0.3 1.8LRSN                1
 GAP=123        0.70       2.3     2.9  4.1  0.4218E+00  0.2598E+01  0.2582E+01E
 Epicentro: LOS SANTOS - SANTANDER                                             3
 ACTION:UPD 17-10-05 19:09 OP:rebc STATUS:               ID:20170906233028 L   I
 OLDACT:UP  17-09-07 06:18 OP:edw  STATUS:               ID:20170906232743     3
 OLDACT:UP  17-09-07 06:15 OP:edw  STATUS:               ID:20170906232743     3
 OLDACT:UP  17-09-07 06:13 OP:edw  STATUS:               ID:20170906232743     3
 OLDACT:REG 17-09-07 03:41 OP:edw  STATUS:               ID:20170906232743     3
 2017-09-06-2328-00M.COL___426                                                 6
 STAT SP IPHASW D HRMM SECON CODA AMPLIT PERI AZIMU VELO AIN AR TRES W  DIS CAZ7
 BAR2 EZ EP       2330 47.93                             172   -0.1610 20.6 202 
 BAR2 EZ ES       2331  3.37                             172   -0.2210 20.6 202 
 BAR2 EZ I        2331  4.15        11.6 0.14            168           20.6 202 
 BRR  HZ EP       2330 49.62                             151   -0.3010 76.3 300 
 BRR  HN ES       2331  7.17                             151    0.3310 76.3 300 
 PAM  EZ EP       2330 50.93                             151    0.1910 78.2  36 
 PAM  EZ ES       2331  8.45                             151    0.1510 78.2  36 
 PAM  EZ I        2331  8.67         7.9 0.18            155           78.2  36 
 RUS  HZ EP       2330 51.83                             145   -0.1010 96.6 178 
 RUS  HN ES       2331 10.53                             145    0.1110 96.6 178 
 RUS  HZ I        2331 11.64         5.0 0.28            145           96.6 178 
 SPBC HZ EP       2330 57.13                             130    0.28 9  163 221 
 SPBC HN ES       2331 19.16                             130   -0.02 9  163 221 
 SPBC HZ I        2331 23.10         9.0 0.38            129            163 221 
 ZAR  HZ EP       2331  1.42                             122    0.09 8  209 293 
 ZAR  HN ES       2331 26.61                             122   -0.53 8  209 293 
 ZAR  HZ I        2331 32.08         7.0 0.18            122            209 293 
 NOR  HZ EP       2331  4.07                             119   -0.11 8  235 236 
 NOR  HE ES       2331 32.28                             119    0.06 8  235 236 
 NOR  HZ I        2331 37.30         4.3 0.22            118            235 236 
 CHI  HZ EP       2331  6.48                             118    0.71 8  246 196 
 CHI  HE ES       2331 35.08                             118    0.03 8  246 196 
 CHI  HZ I        2331 40.52         2.8 0.42            118            246 196 
 GUY2CHZ EP   3   2331 13.03                             113    0.99 2  302 236 
 GUY2CHE ES   4   2331 49.42                             113    3.21 0  302 236 
 GUY2CHZ I        2331 54.30         2.4 0.54                           302 236 
 PTGC HZ EP   2   2331 11.16                             112   -0.48 4  304 159 
 PTGC HE ES       2331 44.90                             112   -0.60 7  304 159 
 PTGC HZ I        2331 45.43         7.7 0.36            113            304 159 
                                                                                
