 2010  9 6 2210 36.0 L   6.752 -73.178150.6  RSN  4 0.3 1.4LRSN                1
 GAP=155        0.82       6.8    12.8 10.7  0.3679E+02 -0.1526E+02 -0.4831E+01E
 Epicentro: VILLANUEVA - SANTANDER                                             3
 ACTION:UP  11-02-18 11:00 OP:tino STATUS:               ID:20100906221036 L   I
 2010-09-06-2206-46S.COL___120                                                 6
 STAT SP IPHASW D HRMM SECON CODA AMPLIT PERI AZIMU VELO SNR AR TRES W  DIS CAZ7
 BAR2 SZ EP   1   2210 55.46                             173    -0.7 7   18 182 
 BAR2 SZ ES   2   2211 11.52                             173    -0.3 5   18 182 
 BAR2 SZ I        2211 13.89         5.3 0.34                            18 182 
 BRR  HZ IP     D 2210 57.91                             153     0.210   71 304 
 BRR  HZ I        2210 59.37         9.2 0.09                            71 304 
 BRR  HN ES   1   2211 14.44                             153    -0.1 7   71 304 
 RUS  HZ EP   1   2210 59.89                             146     0.0 7   96 174 
 RUS  HN ES   1   2211 18.84                             146     0.3 7   96 174 
 RUS  HZ I        2211 20.41         2.3 0.37                            96 174 
 GRA  SZ ES   2   2211 22.93                             137     0.3 5  132  18 
 GRA  SZ I        2211 24.23         4.1 0.24                           132  18 
                                                                                
