 2011 10 6 2008 11.4 L   6.805 -73.024143.3  RSN  8 0.2 1.8LRSN                1
 GAP=152        0.48       3.1     4.5  4.2  0.5419E+01 -0.4205E+01 -0.4591E+01E
 Epicentro: CEPITA - SANTANDER                                                 3
 ACTION:UPD 12-07-13 16:02 OP:ep   STATUS:               ID:20111006200811 L   I
 2011-10-06-2000-00M.COL___171                                                 6
 STAT SP IPHASW D HRMM SECON CODA AMPLIT PERI AZIMU VELO AIN AR TRES W  DIS CAZ7
 BAR2 SZ EP       20 8 30.88                             168    0.0110 29.3 217 
 BAR2 SZ ES       20 8 46.03                             168   -0.0310 29.3 217 
 BAR2 SZ I        20 8 48.66        12.8 0.23                          29.3 217 
 BTL  SZ EP       20 8 31.20                             168    0.3110 29.7 295 
 GIR2 SZ EP   2   20 8 31.06                             165    0.15 5 35.6 328 
 PAM  SZ EP   2   20 8 32.73                             153   -0.15 5 69.1  31 
 PAM  SN ES   2   20 8 49.09                             153   -0.54 5 69.1  31 
 BRR  HZ EP       20 8 32.89                             148   -0.1110 83.0 294 
 BRR  HE ES       20 8 50.00                             148    0.1410 83.0 294 
 BRR  HZ I        20 8 54.15        15.1 0.34                          83.0 294 
 RUS  HZ EP   1   20 8 34.82                             143   -0.13 7  101 184 
 RUS  HN ES       20 8 53.28                             143   -0.0410  101 184 
 OCA  SZ EP   1   20 8 39.77                             129    0.10 7  162 348 
 OCA  SZ I        20 9  7.16         7.6 0.33                           162 348 
 ZAR  HE ES   2   20 9 10.50                             120   -0.66 4  216 291 
 ZAR  HZ I        20 9 16.25         5.4 0.41                           216 291 
                                                                                
