 2017  3 6 2210 55.1 L   6.829 -73.249140.8  RSN  4 0.3 1.0LRSN                1
 GAP=150        0.71       4.0     3.9  7.9 -0.6786E+01  0.7927E+01 -0.2746E+01E
 Epicentro: ZAPATOCA - SANTANDER                                               3
 ACTION:UPD 17-05-25 18:37 OP:jn   STATUS:               ID:20170306221055 L   I
 OLDACT:REG 17-03-07 05:56 OP:lv   STATUS:               ID:20170306220728     3
 2017-03-06-2208-00M.COL___367                                                 6
 STAT SP IPHASW D HRMM SECON CODA AMPLIT PERI AZIMU VELO AIN AR TRES W  DIS CAZ7
 PAM  EZ EP       2211 17.29                             148    0.1610 82.9  47 
 PAM  EN ES       2211 34.08                             148   -0.2310 82.9  47 
 PAM  EZ I        2211 36.72         1.9 0.20            148           82.9  47 
 RUS  HZ EP       2211 18.81                             141    0.1110  105 170 
 RUS  HN ES       2211 37.34                             141    0.2210  105 170 
 PTB  HZ EP       2211 20.53                             133   -0.18 9  137 257 
 PTB  HN ES       2211 41.04                             133    0.34 9  137 257 
 SPBC HN ES       2211 43.94                             129   -0.48 9  159 215 
                                                                                
