 2010  8 6 2106 20.7 L   6.794 -73.058142.0  RSN  4 0.2 1.5LRSN                1
 GAP=169        0.49       5.3    10.4 12.3  0.2198E+02 -0.9929E+02 -0.3290E+02E
 Epicentro: LOS SANTOS - SANTANDER                                             3
 ACTION:UP  10-09-07 10:52 OP:vdl  STATUS:               ID:20100806210620 L   I
 2010-08-06-2104-03S.COL___124                                                 6
 STAT SP IPHASW D HRMM SECON CODA AMPLIT PERI AZIMU VELO SNR AR TRES W  DIS CAZ7
 BRR  HZ EP   1   21 6 41.68                             150    -0.3 7   80 296 
 BRR  HZ I        21 6 54.83        16.5 0.49                            80 296 
 BRR  HE ES   1   21 6 58.70                             150     0.2 7   80 296 
 RUS  HZ EP   2   21 6 44.33                             144     0.4 5  100 182 
 RUS  HN ES   2   21 7  2.01                             144    -0.2 5  100 182 
 RUS  HZ I        21 7  3.26         2.7 0.43                           100 182 
 GUE  SZ EP   1   21 6 44.93                             139     0.0 7  116   7 
 GUE  SZ I        21 7  6.39         1.9 0.16                           116   7 
 GRA  SZ EP   1   21 6 45.45                             137     0.0 7  124  13 
 GRA  SZ I        21 7  6.65         7.1 0.45                           124  13 
                                                                                
