 2011  9 6 2108 20.9 L   6.759 -73.052132.4  RSN  4 0.4 1.6LRSN                1
 GAP=151        0.87       5.8     8.6  9.9 -0.1708E+01 -0.6085E+01  0.8753E+00E
 Epicentro: LOS SANTOS - SANTANDER                                             3
 ACTION:UPD 12-07-13 15:56 OP:ep   STATUS:               ID:20110906210820 L   I
 2011-09-06-2104-45S.COL___171                                                 6
 STAT SP IPHASW D HRMM SECON CODA AMPLIT PERI AZIMU VELO AIN AR TRES W  DIS CAZ7
 BAR2 SZ ES   1   21 8 53.74                             169    0.73 7 23.4 218 
 BAR2 SZ I        21 8 55.71        13.1 0.19                          23.4 218 
 PAM  SZ EP   1   21 8 42.02                             149    0.44 7 75.0  31 
 PAM  SE ES   1   21 8 57.25                             149   -0.45 7 75.0  31 
 BRR  HZ EP   1   21 8 41.09                             146   -0.27 7 82.5 298 
 BRR  HZ I        21 8 44.14         9.9 0.29                          82.5 298 
 BRR  HN ES   1   21 8 57.21                             146   -0.10 7 82.5 298 
 RUS  HZ EP   1   21 8 43.20                             142    0.18 7 95.9 182 
 RUS  HN ES   1   21 8 59.74                             142   -0.53 7 95.9 182 
 RUS  HZ I        21 9  3.78         4.0 0.27                          95.9 182 
                                                                                
