 2017  9 6 2219 58.1 L   6.789 -73.082132.0  RSN  4 0.3 1.2LRSN                1
 GAP=174        0.79       5.8     9.0  6.7 -0.3857E+02  0.1560E+02 -0.2607E+01E
 Epicentro: LOS SANTOS - SANTANDER                                             3
 ACTION:UPD 17-10-05 19:09 OP:rebc STATUS:               ID:20170906221958 L   I
 OLDACT:REG 17-09-07 03:34 OP:edw  STATUS:               ID:20170906221742     3
 2017-09-06-2218-00M.COL___426                                                 6
 STAT SP IPHASW D HRMM SECON CODA AMPLIT PERI AZIMU VELO AIN AR TRES W  DIS CAZ7
 BAR2 EZ ES       2220 30.36                             169    0.2210 24.4 207 
 PAM  EZ EP       2220 19.19                             149    0.5310 74.1  35 
 PAM  EN ES       2220 34.26                             149   -0.4410 74.1  35 
 PAM  EZ I        2220 39.13         4.1 0.48            151           74.1  35 
 RUS  HZ EP       2220 20.31                             141   -0.1110 99.1 180 
 RUS  HN ES       2220 37.83                             141    0.0110 99.1 180 
 RUS  HZ I        2220 40.18         1.3 0.36            144           99.1 180 
 SPBC HZ EP       2220 25.64                             125   -0.30 9  167 221 
 SPBC HN ES       2220 47.69                             125    0.04 9  167 221 
 SPBC HZ I        2220 49.91         3.7 0.10            128            167 221 
                                                                                
