 2016  4 6 2259 39.9 L   6.796 -73.113146.0  RSN  9 0.3 1.9LRSN                1
 GAP=141        0.80       3.2     3.4  5.0 -0.2003E+01  0.5799E+01  0.2240E+01E
 Epicentro: LOS SANTOS - SANTANDER                                             3
 ACTION:UPD 16-05-05 14:19 OP:rebc STATUS:               ID:20160406225939 L   I
 OLDACT:REG 16-04-07 06:18 OP:ak   STATUS:               ID:20160406225746     3
 2016-04-06-2257-46M.COL___313                                                 6
 STAT SP IPHASW D HRMM SECON CODA AMPLIT PERI AZIMU VELO AIN AR TRES W  DIS CAZ7
 BAR2 EZ EP       2259 59.84                             170    0.2310 23.8 199 
 BAR2 EZ ES       23 0 15.28                             170    0.3310 23.8 199 
 BAR2 EZ I        23 0 16.47        10.3 0.26            168           23.8 199 
 PAM  EZ EP       23 0  2.24                             152    0.1710 75.4  37 
 PAM  EN ES       23 0 19.08                             152   -0.2510 75.4  37 
 PAM  EZ I        23 0 22.05        10.7 0.23            156           75.4  37 
 RUS  HZ EP       23 0  3.39                             144   -0.2810  100 178 
 RUS  HN ES       23 0 22.34                             144    0.1610  100 178 
 RUS  HZ I        23 0 23.98         6.2 0.46            147            100 178 
 PTB  HZ EP       23 0  6.76                             131   -0.49 9  151 259 
 PTB  HE ES       23 0 28.19                             131   -0.35 9  151 259 
 PTB  HZ I        23 0 35.53         8.8 0.34            132            151 259 
 SPBC HZ EP       23 0  8.44                             129   -0.21 9  165 220 
 SPBC HN ES       23 0 30.50                             129   -0.54 9  165 220 
 SPBC HZ I        23 0 35.81        15.6 0.18            130            165 220 
 ZAR  HZ EP   2   23 0 12.72                             122   -0.05 4  208 292 
 ZAR  HE ES       23 0 38.74                             122    0.37 8  208 292 
 ZAR  HZ I        23 0 43.35         8.4 0.38            123            208 292 
 NOR  HZ EP       23 0 15.72                             118   -0.26 8  237 235 
 NOR  HE ES       23 0 44.58                             118    0.50 8  237 235 
 NOR  HZ I        23 0 51.03         5.9 0.34            120            237 235 
 CHI  HZ EP       23 0 17.82                             117    0.10 8  249 196 
 CHI  HN ES       23 0 47.31                             117    0.13 8  249 196 
 CHI  HZ I        23 0 51.17         3.8 0.48            119            249 196 
 GUY2CHZ EP       23 0 24.59                             112    0.72 7  304 235 
 GUY2CHE ES       23 0 58.25                             112    0.12 7  304 235 
 GUY2CHZ I        23 1  6.42         4.7 0.76                           304 235 
                                                                                
