 2016  9 6 2318  8.5 L   6.542 -73.318131.2  RSN  4 0.4 1.2LRSN                1
 GAP=110        1.05       7.2     6.9  8.7  0.2344E+02  0.1616E+02  0.8699E+01E
 Epicentro: HATO - SANTANDER                                                   3
 ACTION:UPD 17-08-17 21:07 OP:lp   STATUS:               ID:20160906231808 L   I
 OLDACT:REG 16-09-07 02:51 OP:drio STATUS:               ID:20160906230731     3
 2016-09-06-2308-00M.COL___358                                                 6
 STAT SP IPHASW D HRMM SECON CODA AMPLIT PERI AZIMU VELO AIN AR TRES W  DIS CAZ7
 BAR2 EZ EP       2318 26.47                             173    0.2210 15.9  70 
 BAR2 EZ ES       2318 39.56                             173   -0.5310 15.9  70 
 BAR2 EZ I        2318 40.55         6.0 0.20            175           15.9  70 
 BRR  HZ EP       2318 28.58                             148    0.1610 76.2 325 
 BRR  HN ES       2318 44.18                             148    0.2310 76.2 325 
 RUS  HZ EP       2318 29.45                             148    0.3210 76.4 160 
 RUS  HN ES       2318 45.29                             148    0.0710 76.4 160 
 RUS  HZ I        2318 47.28         3.4 0.20            147           76.4 160 
 PTB  HZ EP       2318 31.48                             133   -0.8310  126 270 
 PTB  HN ES       2318 51.20                             133    0.3210  126 270 
 PTB  HZ I        2318 58.28         1.7 0.42            130            126 270 
                                                                                
