 2012  2 6 2107  2.6 L   6.759 -73.129149.9  RSN  7 0.3 1.8LRSN                1
 GAP=188        0.57       4.3     4.0  5.9  0.4535E+01  0.3921E+01 -0.4795E+00E
 ACTION:UP  12-03-07 16:28 OP:epov STATUS:               ID:20120206210702 L   I
 2012-02-06-2100-00M.COL___188                                                 6
 STAT SP IPHASW D HRMM SECON CODA AMPLIT PERI AZIMU VELO SNR AR TRES W  DIS CAZ7
 BAR2 SZ EP   1   21 7 22.49                             172   -0.17 7 19.3 198 
 BAR2 SZ ES   1   21 7 37.99                             172   -0.31 7 19.3 198 
 BAR2 SZ I        21 7 41.36        10.9 0.46                          19.3 198 
 GIR2 SZ EP   1   21 7 22.87                             166   -0.03 7 36.1 349 
 BRR  HZ EP   1   21 7 24.64                             152    0.22 7 75.1 301 
 BRR  HZ I        21 7 29.27        18.5 0.42                          75.1 301 
 BRR  HN ES   1   21 7 41.96                             152    0.53 7 75.1 301 
 RUS  HZ EP   1   21 7 26.74                             146    0.30 7 95.9 177 
 RUS  HE ES   1   21 7 44.93                             146   -0.10 7 95.9 177 
 RUS  HZ I        21 7 47.16         5.5 0.53                          95.9 177 
 PTB  HZ EP   1   21 7 29.73                             133   -0.27 7  149 261 
 PTB  HE ES   1   21 7 51.31                             133   -0.06 7  149 261 
 ZAR  HE ES   1   21 8  1.06                             123   -0.41 6  208 293 
 NOR  SE ES   1   21 8  6.67                             119    0.24 6  234 236 
                                                                                
