 2015  2 6 2128 10.2 L   6.804 -73.155145.4  RSN  8 0.2 1.8LRSN                1
 GAP=166        0.53       3.2     4.2  4.0 -0.8932E+01  0.6369E+01 -0.6097E+00E
 Epicentro: LOS SANTOS - SANTANDER                                             3
 ACTION:UPD 15-04-30 21:23 OP:nd   STATUS:               ID:20150206212810 L   I
 OLDACT:UP  15-02-07 05:57 OP:spq  STATUS:               ID:20150206211745d    3
 OLDACT:DUP 15-02-07 05:45 OP:spq  STATUS:               ID:20150206211745d    3
 2015-02-06-2117-44M.COL___290                                                 6
 STAT SP IPHASW D HRMM SECON CODA AMPLIT PERI AZIMU VELO AIN AR TRES W  DIS CAZ7
 BAR2 EZ EP       2128 29.71                             170   -0.1210 23.6 187 
 BAR2 EZ ES   1   2128 45.29                             170    0.17 7 23.6 187 
 BAR2 EZ I        2128 46.24        22.1 0.18            167           23.6 187 
 PAM  SZ EP       2128 32.44                             151    0.0010 77.7  40 
 PAM  SN ES       2128 49.90                             151    0.1510 77.7  40 
 PAM  SZ I        2128 51.90         8.6 0.54            155           77.7  40 
 RUS  HZ EP       2128 33.81                             144   -0.1810  101 175 
 RUS  HN ES       2128 52.44                             144   -0.0810  101 175 
 RUS  HZ I        2128 53.57        12.1 0.26            143            101 175 
 SPBC HZ EP       2128 38.76                             129    0.08 9  163 219 
 SPBC HN ES       2129  0.53                             129   -0.34 9  163 219 
 SPBC HZ I        2129  3.40        20.0 0.28            128            163 219 
 NOR  HZ EP   1   2128 45.75                             118   -0.13 6  234 234 
 NOR  HN ES       2129 13.74                             118    0.05 8  234 234 
 NOR  HZ I        2129 20.66         5.0 0.14            118            234 234 
 CHI  HZ EP       2128 47.84                             117   -0.09 8  249 195 
 CHI  HN ES   1   2129 18.01                             117    0.68 6  249 195 
 CHI  HZ I        2129 27.01         3.2 0.42            117            249 195 
 GUY2CHZ EP   4   2128 56.28                             112    2.52 0  301 235 
 GUY2CHN ES   4   2129 29.91                             112    2.20 0  301 235 
 GUY2CHZ I        2129 37.36         2.6 0.64                           301 235 
 TOL  SZ EP       2128 58.84                             109    0.41 7  343 224 
 TOL  SN ES   4   2129 37.80                             109    1.78 0  343 224 
 TOL  SZ I        2129 41.62         2.2 0.34            109            343 224 
                                                                                
