 2012  1 6 2135 47.6 L   6.764 -73.292150.7  RSN  4 0.1 1.6LRSN                1
 GAP=217        0.31       3.1     3.0  3.7  0.5618E+01  0.1279E-01 -0.3734E+00E
 Epicentro: ZAPATOCA - SANTANDER                                               3
 ACTION:UP  12-02-03 08:14 OP:REBC STATUS:               ID:20120106213547 L   I
 2012-01-06-2130-00M.COL___186                                                 6
 STAT SP IPHASW D HRMM SECON CODA AMPLIT PERI AZIMU VELO SNR AR TRES W  DIS CAZ7
 BRR  HZ EP       2136  8.64                             157     0.010   60 309 
 BRR  HZ I        2136 17.53        15.8 0.29                            60 309 
 BRR  HE ES   1   2136 25.12                             157     0.0 7   60 309 
 RUS  HZ EP   1   2136 11.78                             145     0.1 7   99 167 
 RUS  HE ES   1   2136 30.52                             145     0.0 7   99 167 
 RUS  HZ I        2136 32.87         2.0 0.35                            99 167 
 PTB  HZ EP       2136 13.44                             137    -0.110  131 259 
 PTB  HN ES   1   2136 33.70                             137     0.0 7  131 259 
 ZAR  HN ES   1   2136 43.65                             125     0.1 7  191 295 
 ZAR  HZ I        2136 49.96         5.8 0.56                           191 295 
                                                                                
