 2011  8 6 2012 52.4 L   7.391 -73.169134.4  RSN  8 0.4 2.5LRSN                1
 GAP=117        0.81       4.3     7.4  7.6  0.2954E+00 -0.1720E+02 -0.1122E+02E
 Epicentro: EL PLAYON - SANTANDER                                              3
 ACTION:UPD 12-07-25 14:06 OP:epov STATUS:               ID:20110806201252 L   I
 2011-08-06-2000-00M.COL___145                                                 6
 STAT SP IPHASW D HRMM SECON CODA AMPLIT PERI AZIMU VELO AIN AR TRES W  DIS CAZ7
 BRR  HZ IP     D 2013 12.38                             152    0.2310 67.7 242 
 BRR  HZ I        2013 12.89       174.3 0.10                          67.7 242 
 BRR  HN ES   1   2013 27.38                             152   -0.15 7 67.7 242 
 BAR2 SZ EP       2013 14.27                             145    0.4510 88.4 181 
 BAR2 SZ ES   1   2013 30.62                             145    0.11 7 88.4 181 
 BAR2 SZ I        2013 31.86       141.7 0.12                          88.4 181 
 RUS  HZ EP   1   2013 20.65                             126   -0.23 7  166 177 
 RUS  HN ES   1   2013 42.14                             126   -0.95 7  166 177 
 RUS  HZ I        2013 44.53        12.8 0.26                           166 177 
 NOR  SZ EP   1   2013 32.61                             112    0.48 6  276 223 
 COD  HZ EP   1   2013 32.53                             111   -0.31 6  283 354 
 CHI  HZ EP   2   2013 37.04                             109    0.39 3  312 192 
 CHI  HN ES       2014 10.98                             109   -0.17 7  312 192 
 CHI  HZ I        2014 19.25         6.5 0.33                           312 192 
 SDV  BZ EP       2013 38.04                             108    0.15 7  325  59 
 SDV  BZ I        2014 16.45         9.7 0.47                           325  59 
 SJC  HZ EP   1   2013 40.30                             106   -0.90 5  355 322 
                                                                                
