 2017  9 6 2239 12.4 L   6.838 -73.155151.0  RSN 32 0.6 2.9LRSN                1
 GAP= 64        1.25       3.0     3.3  5.1 -0.1577E-01  0.4486E+01  0.9212E+00E
 Epicentro: LOS SANTOS - SANTANDER                                             3
 ACTION:UPD 17-10-05 19:09 OP:rebc STATUS:               ID:20170906223912 L   I
 OLDACT:UP  17-09-07 05:57 OP:edw  STATUS:               ID:20170906223747     3
 OLDACT:UP  17-09-07 05:56 OP:edw  STATUS:               ID:20170906223747     3
 OLDACT:REG 17-09-07 03:37 OP:edw  STATUS:               ID:20170906223747     3
 2017-09-06-2238-00M.COL___426                                                 6
 STAT SP IPHASW D HRMM SECON CODA AMPLIT PERI AZIMU VELO AIN AR TRES W  DIS CAZ7
 BAR2 EZ IP     C 2239 32.72                             170   -0.0610 27.3 186 
 BAR2 EZ ES       2239 48.51                             170   -0.1410 27.3 186 
 BAR2 EZ I        2239 50.20       208.8 0.28            167           27.3 186 
 BRR  HZ IP     C 2239 34.53                             154    0.5410 68.3 296 
 BRR  HN ES       2239 51.71                             154    0.8910 68.3 296 
 BRR  HZ I        2239 54.77       194.7 0.28            151           68.3 296 
 PAM  EZ EP       2239 35.63                             152    0.5710 74.9  42 
 PAM  EN ES       2239 53.10                             152    0.3810 74.9  42 
 PAM  EZ I        2239 54.97        95.3 0.50            158           74.9  42 
 RUS  HZ EP     C 2239 36.65                             144   -0.3510  105 176 
 RUS  HN ES       2239 55.75                             144   -0.4210  105 176 
 RUS  HZ I        2239 57.21        95.7 0.52            145            105 176 
 TAM  HZ IP     D 2239 41.21                             131    0.49 9  157 106 
 TAM  HN ES       2240  2.23                             131   -0.56 9  157 106 
 TAM  HZ I        2240  3.58        45.6 0.30            137            157 106 
 SPBC HZ EP       2239 41.47                             130   -0.11 9  166 218 
 SPBC HN ES       2240  3.43                             130   -0.89 9  166 218 
 SPBC HZ I        2240 10.82       158.5 0.22            129            166 218 
 YPLC HZ EP       2239 43.59                             127    0.57 9  181 152 
 YPLC HN ES       2240  6.40                             127   -0.47 9  181 152 
 YPLC HZ I        2240  8.14       130.2 0.28            130            181 152 
 ZAR  HZ EP       2239 45.02                             124    0.06 9  202 291 
 ZAR  HE ES       2240 10.44                             124    0.10 9  202 291 
 ZAR  HZ I        2240 21.03       116.8 0.44            124            202 291 
 TABC EZ EP       2239 50.26                             120    1.44 8  233 210 
 TABC EZ ES       2240 17.27                             120    0.06 8  233 210 
 TABC EZ I        2240 24.46        94.0 0.40            121            233 210 
 NOR  HZ EP       2239 48.59                             119   -0.05 8  236 233 
 NOR  HN ES       2240 15.93                             119   -0.95 8  236 233 
 NOR  HZ I        2240 21.46        73.7 0.24            119            236 233 
 CHI  HZ EP       2239 50.98                             118    0.15 8  252 195 
 CHI  HN ES       2240 20.79                             118    0.01 8  252 195 
 CHI  HZ I        2240 23.55        58.8 0.34            119            252 195 
 ROSC BZ EP   4   2239 52.53                             118    1.36 0  256 210 
 ROSC BN ES   4   2240 20.45                             118   -0.94 0  256 210 
 ROSC BZ I        2240 29.03        92.7 0.40            118            256 210 
 HEL  HZ EP   4   2239 54.67                             116    1.75 0  272 255 
 HEL  HN ES       2240 24.17                             116   -0.33 8  272 255 
 HEL  HZ I        2240 32.08        50.7 0.60            116            272 255 
 URE  HZ EP       2239 52.88                             115   -0.60 7  281 291 
 URE  HN ES   4   2240 23.84                             115   -1.66 0  281 291 
 URE  HZ I        2240 37.30        81.3 0.16            115            281 291 
 GUY2CHZ EP       2239 57.02                             113    0.56 7  303 234 
 GUY2CHN ES   4   2240 34.88                             113    4.07 0  303 234 
 GUY2CHZ I        2240 37.95        42.6 0.64                           303 234 
 VIL  EZ EP       2239 56.50                             113   -0.03 7  307 191 
 VIL  EN ES       2240 30.80                             113   -0.13 7  307 191 
 VIL  EZ I        2240 34.19        53.5 0.26            114            307 191 
 PTGC HZ EP       2239 55.99                             112   -1.02 7  313 159 
 PTGC HN ES   4   2240 29.11                             112   -2.67 0  313 159 
 PTGC HZ I        2240 30.66        57.7 0.24            114            313 159 
 LL6C HZ EP       2239 57.94                             112    0.06 7  321 358 
 LL6C HZ ES   4   2240 33.97                             112    0.65 0  321 358 
 ELA  HZ EP   4   2240  1.59                             111    1.86 0  331 229 
 ELA  HN ES   4   2240 37.92                             111    1.30 0  331 229 
 ELA  HZ I        2240 52.17        30.2 0.48            112            331 229 
 CBOC HZ EP   4   2240  1.47                             111    1.87 0  334 251 
 CBOC HN ES   3   2240 36.05                             111   -0.35 2  334 251 
 DBB  EZ EP       2240  0.49                             110    0.52 7  338 274 
 DBB  EN ES   4   2240 34.97                             110   -2.08 0  338 274 
 DBB  EZ I        2240 38.88        24.8 0.18            111            338 274 
 ARGC HZ EP   2   2240  1.93                             109    0.14 3  355 340 
 ARGC HN ES   4   2240 45.66                             109    5.36 0  355 340 
 ANIL HZ EP   4   2240  4.10                             109    1.40 0  360 224 
 ANIL HN ES   4   2240 43.75                             109    1.84 0  360 224 
 PRA  HZ EP       2240  6.72                             107    0.22 6  395 209 
 PRA  HN ES       2240 48.25                             107   -0.43 6  395 209 
 PRA  HZ I        2240 56.53        38.8 0.40            108            395 209 
 APAC HZ EP   4   2240  4.94                             107   -1.59 0  396 287 
 APAC HN ES       2240 48.34                             107   -0.39 6  396 287 
 APAC HZ I        2240 53.52        16.6 0.34            108            396 287 
 ORTC HZ EP       2240  7.15                             107    0.29 6  398 216 
 ORTC HN ES       2240 50.35                             107    1.04 6  398 216 
 ORTC HZ I        2240 56.54        26.6 0.46            108            398 216 
 SJC  HZ EP       2240  6.40                             107   -1.29 6  405 327 
 SJC  HN ES   4   2240 47.17                             107   -3.62 0  405 327 
 SJC  HZ I        2240 57.81        11.1 0.46            108            405 327 
 VALLCHZ EP       2240  6.44                             107   -1.31 6  406 358 
 VALLCHN ES   4   2240 48.73                             107   -2.18 0  406 358 
 PAL  HZ EP       2240  8.48                             107    0.56 6  407 238 
 PAL  HN ES   4   2240 43.82                             107   -7.37 0  407 238 
 PAL  HZ I        2240 56.79        17.9 0.72            107            407 238 
 YOT  HZ EP   4   2240 16.92                             104    1.06 0  474 228 
 YOT  HE ES       2241  5.66                             104    0.33 5  474 228 
 GUA  EN ES   4   2241  1.25                             104   -4.76 0  478 173 
 SMAR HZ EP       2240 16.59                             103   -1.34 4  493 346 
 SMAR HN ES   4   2241  5.90                             103   -3.11 0  493 346 
 SMAR HZ I        2241  9.77         9.3 0.16            104            493 346 
 MACC HZ EP   4   2240 20.18                             102   -1.57 0  525 188 
 MACC HN ES   4   2241  9.84                             102   -5.97 0  525 188 
 MACC HZ I        2241 18.40         8.6 0.50            103            525 188 
 URI  HZ EP   4   2240 23.50                             101   -1.59 0  553  13 
 URI  HN ES   4   2241 18.11                             101   -3.66 0  553  13 
 URI  HZ I        2241 23.18         3.2 0.38            103            553  13 
                                                                                
