 2017  9 6 2329 10.4 L   6.793 -73.132147.5  RSN  9 0.3 1.6LRSN                1
 GAP=139        0.79       2.9     3.7  4.6 -0.4129E+00  0.5479E+01  0.2640E+01E
 Epicentro: LOS SANTOS - SANTANDER                                             3
 ACTION:UPD 17-10-05 19:09 OP:rebc STATUS:               ID:20170906232910 L   I
 OLDACT:UP  17-09-07 06:33 OP:edw  STATUS:               ID:20170906232744d    3
 OLDACT:UP  17-09-07 06:32 OP:edw  STATUS:               ID:20170906232744d    3
 OLDACT:DUP 17-09-07 06:20 OP:edw  STATUS:               ID:20170906232744d    3
 OLDACT:UP  17-09-07 06:18 OP:edw  STATUS:               ID:20170906232743     3
 OLDACT:UP  17-09-07 06:15 OP:edw  STATUS:               ID:20170906232743     3
 OLDACT:UP  17-09-07 06:13 OP:edw  STATUS:               ID:20170906232743     3
 OLDACT:REG 17-09-07 03:41 OP:edw  STATUS:               ID:20170906232743     3
 2017-09-06-2328-00M.COL___426                                                 6
 STAT SP IPHASW D HRMM SECON CODA AMPLIT PERI AZIMU VELO AIN AR TRES W  DIS CAZ7
 BAR2 EZ EP       2329 29.69                             171   -0.5110 22.9 194 
 BAR2 EZ ES       2329 45.57                             171   -0.0910 22.9 194 
 BAR2 EZ I        2329 46.49         8.5 0.24            167           22.9 194 
 BRR  HZ EP       2329 31.70                             152   -0.1010 72.9 298 
 BRR  HN ES       2329 48.93                             152    0.4210 72.9 298 
 BRR  HZ I        2330  0.26         9.5 0.34            149           72.9 298 
 PAM  EZ EP       2329 32.76                             151    0.0210 77.0  38 
 PAM  EN ES       2329 50.21                             151    0.0110 77.0  38 
 PAM  EZ I        2329 51.71         3.2 0.24            158           77.0  38 
 RUS  HZ EP       2329 34.05                             144   -0.1810 99.8 177 
 RUS  HN ES       2329 53.07                             144    0.2310 99.8 177 
 RUS  HZ I        2329 53.79         5.1 0.20            148           99.8 177 
 SPBC HZ EP       2329 39.24                             129    0.20 9  164 220 
 SPBC HN ES       2330  0.99                             129   -0.41 9  164 220 
 SPBC HZ I        2330  8.09         6.1 0.18            131            164 220 
 ZAR  HZ EP       2329 43.28                             122    0.18 8  206 292 
 ZAR  HN ES       2330  8.42                             122   -0.21 8  206 292 
 ZAR  HZ I        2330 13.46         3.4 0.34            124            206 292 
 NOR  HZ EP       2329 46.84                             119    0.56 8  236 235 
 NOR  HN ES   1   2330 13.74                             119   -0.56 6  236 235 
 NOR  HZ I        2330 21.84         2.1 0.20            120            236 235 
 CHI  HZ EP       2329 47.76                             117   -0.37 8  248 196 
 CHI  HE ES       2330 18.17                             117    0.59 8  248 196 
 CHI  HZ I        2330 20.81         2.3 0.38            121            248 196 
 GUY2CHZ EP       2329 54.35                             113    0.20 7  302 235 
 GUY2CHN ES   4   2330 32.36                             113    4.06 0  302 235 
 GUY2CHZ I        2330 37.83         1.8 0.54                           302 235 
 PTGC HN ES   4   2330 26.31                             112   -2.01 0  307 159 
                                                                                
