 2014  8 6 2152 42.9 L   6.817 -73.176142.1  RSN 16 0.5 2.7LRSN                1
 GAP=132        0.93       2.9     3.6  5.7 -0.1687E+01  0.4722E+01  0.3112E+01E
 Epicentro: ZAPATOCA - SANTANDER                                               3
 ACTION:UPD 14-09-15 21:47 OP:nd   STATUS:               ID:20140806215242 L   I
 OLDACT:UP  14-08-07 03:35 OP:mh   STATUS:               ID:20140806214812     3
 OLDACT:UP  14-08-07 03:34 OP:mh   STATUS:               ID:20140806214812     3
 OLDACT:REG 14-08-07 03:12 OP:mh   STATUS:               ID:20140806214812     3
 2014-08-06-2148-12M.COL___263                                                 6
 STAT SP IPHASW D HRMM SECON CODA AMPLIT PERI AZIMU VELO AIN AR TRES W  DIS CAZ7
 BRR  HZ EP     C 2153  3.94                             153    0.5210 67.4 299 
 BRR  HN ES   1   2153 20.05                             153    0.61 7 67.4 299 
 BRR  HZ I        2153 24.71        74.6 0.30            151           67.4 299 
 PAM  SZ EP       2153  4.96                             150    0.2010 78.2  42 
 PAM  SN ES       2153 22.14                             150    0.3210 78.2  42 
 PAM  SZ I        2153 22.97        50.5 0.16            156           78.2  42 
 RUS  HZ EP     D 2153  6.09                             142   -0.3410  103 174 
 RUS  HN ES   1   2153 24.45                             142   -0.35 7  103 174 
 RUS  HZ I        2153 25.94        32.4 0.32            144            103 174 
 PTB  HZ EP       2153  8.85                             132   -0.44 9  145 258 
 PTB  HN ES       2153 29.14                             132   -0.74 9  145 258 
 PTB  HZ I        2153 31.56        47.4 0.18            131            145 258 
 SPBC HZ EP       2153 10.93                             128   -0.11 9  163 218 
 SPBC HN ES       2153 33.00                             128   -0.01 9  163 218 
 SPBC HZ I        2153 39.73        53.1 0.32            129            163 218 
 ZAR  HZ EP       2153 14.96                             122    0.26 9  200 292 
 ZAR  HN ES       2153 39.24                             122   -0.28 9  200 292 
 ZAR  HZ I        2153 44.91        35.0 0.38            123            200 292 
 NOR  HZ EP       2153 18.33                             118    0.10 8  233 234 
 NOR  HN ES   1   2153 45.71                             118   -0.08 6  233 234 
 NOR  HZ I        2153 53.61        24.9 0.28            119            233 234 
 SML  HZ EP       2153 18.46                             117   -0.52 8  241 336 
 SML  HN ES   1   2153 46.59                             117   -0.54 6  241 336 
 SML  HZ I        2153 55.36        63.0 0.26            119            241 336 
 CHI  HZ EP   1   2153 20.27                             116   -0.21 6  250 194 
 CHI  HN ES   1   2153 49.48                             116   -0.33 6  250 194 
 CHI  HZ I        2153 55.00        31.1 0.29            118            250 194 
 ROSC BZ EP   4   2153 22.21                             116    1.42 0  253 210 
 ROSC BN ES   4   2153 51.36                             116    1.00 0  253 210 
 ROSC BZ I        2153 56.36        70.8 0.45            117            253 210 
 HEL  HZ EP   1   2153 23.63                             114    1.03 6  269 255 
 HEL  HN ES       2153 54.00                             114    0.42 8  269 255 
 HEL  HZ I        2154  0.39        24.0 0.38            115            269 255 
 URE  HZ EP   4   2153 21.22                             113   -2.13 0  280 292 
 URE  HN ES   4   2153 52.62                             113   -2.30 0  280 292 
 GUY2CHZ EP       2153 26.17                             112    0.03 7  300 234 
 GUY2CHN ES   1   2154  0.07                             112    0.20 5  300 234 
 GUY2CHZ I        2154 14.68        13.9 0.56                           300 234 
 TOL  SZ EP   4   2153 31.48                             109    0.60 0  342 224 
 TOL  SN ES   4   2154  9.56                             109    1.25 0  342 224 
 TOL  SZ I        2154 17.94        43.4 0.50            110            342 224 
 ANIL HZ EP   1   2153 33.36                             108    0.93 5  356 224 
 ANIL HN ES   4   2154 12.84                             108    1.76 0  356 224 
 PRA  HZ EP   1   2153 36.05                             106   -0.23 4  392 209 
 PRA  HN ES   2   2154 17.15                             106   -0.77 3  392 209 
 PRA  HZ I        2154 21.83        27.7 0.26            107            392 209 
 ORTC HZ EP       2153 36.28                             106   -0.35 6  395 216 
 ORTC HN ES       2154 19.62                             106    1.08 6  395 216 
 ORTC HZ I        2154 24.64        11.7 0.25            107            395 216 
 SJC  HZ EP   4   2153 35.70                             105   -2.24 0  406 327 
 SJC  HN ES   4   2154 17.05                             105   -3.82 0  406 327 
                                                                                
