 2014  7 6 2245 30.2 L   6.805 -73.213151.1  RSN  5 0.3 1.5LRSN                1
 GAP=195        0.83       4.3     5.7  7.0  0.1200E+02 -0.6758E+01 -0.1100E+02E
 Epicentro: ZAPATOCA - SANTANDER                                               3
 ACTION:UPD 15-03-16 20:41 OP:nd   STATUS:               ID:20140706224530 L   I
 OLDACT:REG 14-07-07 05:04 OP:carl STATUS:               ID:20140706223818     3
 2014-07-06-2238-18M.COL___261                                                 6
 STAT SP IPHASW D HRMM SECON CODA AMPLIT PERI AZIMU VELO AIN AR TRES W  DIS CAZ7
 BRR  HZ EP       2245 51.75                             156    0.1410 64.5 301 
 BRR  HN ES       2246  8.42                             156    0.1410 64.5 301 
 RUS  HZ EP       2245 55.16                             144    0.5510  102 172 
 RUS  HN ES       2246 13.23                             144   -0.3910  102 172 
 RUS  HZ I        2246 14.91         1.9 0.68            144            102 172 
 PTB  HZ EP       2245 57.15                             135    0.14 9  141 258 
 PTB  HN ES       2246 17.60                             135   -0.30 9  141 258 
 PTB  HZ I        2246 24.61         2.9 0.36            132            141 258 
 ZAR  HZ EP       2246  1.94                             125   -0.38 9  197 293 
 ZAR  HE ES       2246 27.71                             125    0.37 9  197 293 
 ZAR  HZ I        2246 33.70         4.1 0.12            123            197 293 
 SML  HZ EP       2246  6.34                             119   -0.45 8  240 337 
 SML  HE ES       2246 35.28                             119   -0.02 8  240 337 
 SML  HZ I        2246 37.33         7.0 0.26            119            240 337 
                                                                                
