 2013  9 6 2047  0.2 L   7.307 -74.141  4.0  RSN  5 0.5 1.3LRSN                1
 GAP=164        1.32       4.7     2.6  7.7  0.1678E+01 -0.1142E+01  0.9268E+01E
 Epicentro: PUERTO WILCHES - SANTANDER                                         3
 ACTION:UPD 13-10-22 09:20 OP:ep   STATUS:               ID:20130906204700 L   I
 OLDACT:DUP 13-09-07 02:29 OP:nd   STATUS:               ID:20130906203960d    3
 2013-09-06-2039-59M.COL___269                                                 6
 STAT SP IPHASW D HRMM SECON CODA AMPLIT PERI AZIMU VELO AIN AR TRES W  DIS CAZ7
 BRR  HZ EP       2047  8.61                              47   -0.1310 52.2 115 
 BRR  HN ES       2047 15.24                              47   -0.1410 52.2 115 
 BRR  HZ I        2047 21.69        10.9 0.48             47           52.2 115 
 ZAR  HZ EP       2047 13.48                              47    0.2510 81.8 285 
 ZAR  HN ES       2047 23.15                              47   -0.2210 81.8 285 
 ZAR  HZ I        2047 24.18        14.4 0.12             47           81.8 285 
 PTB  HZ EP       2047 14.65                              47   -0.0910 91.7 202 
 PTB  HN ES       2047 25.56                              47   -0.5010 91.7 202 
 PTB  HZ I        2047 26.11         6.0 0.20             47           91.7 202 
 PAM  SZ EP       2047 26.12                              47    0.67 9  159  89 
 PAM  SN ES       2047 44.12                              47   -1.00 9  159  89 
 PAM  SZ I        2047 48.39         8.8 0.30             47            159  89 
 RUS  HZ EP       2047 31.41                              37    0.92 9  195 143 
 RUS  HN ES       2047 54.65                              37    0.56 9  195 143 
 RUS  HZ I        2047 56.78         2.7 0.26             37            195 143 
                                                                                
