 2015  4 6 2316 30.8 L   6.801 -73.193141.8  RSN 11 0.3 2.1LRSN                1
 GAP= 69        0.71       2.4     2.4  3.7 -0.1454E+01  0.2257E+01 -0.6921E-02E
 Epicentro: ZAPATOCA - SANTANDER                                               3
 ACTION:UPD 15-06-03 16:53 OP:cam  STATUS:               ID:20150406231630 L   I
 OLDACT:REG 15-04-07 03:11 OP:fm   STATUS:               ID:20150406230749     3
 2015-04-06-2307-49M.COL___264                                                 6
 STAT SP IPHASW D HRMM SECON CODA AMPLIT PERI AZIMU VELO AIN AR TRES W  DIS CAZ7
 BAR2 EZ EP       2316 50.06                             170    0.1310 23.1 177 
 BAR2 EZ ES       2317  4.87                             170    0.0110 23.1 177 
 BAR2 EZ I        2317  7.52        22.3 0.26            171           23.1 177 
 BRR  HZ EP       2316 51.91                             153    0.6710 66.6 301 
 BRR  HE ES       2317  7.56                             153    0.3510 66.6 301 
 BRR  HZ I        2317 13.79        14.5 0.14            153           66.6 301 
 PAM  SZ EP       2316 52.90                             149    0.1210 80.8  42 
 PAM  SN ES       2317  9.66                             149   -0.2910 80.8  42 
 PAM  SZ I        2317 12.23        27.0 0.42            154           80.8  42 
 RUS  HZ EP       2316 54.21                             143    0.0310  101 173 
 RUS  HE ES       2317 12.49                             143    0.0510  101 173 
 RUS  HZ I        2317 13.83        18.4 0.24            146            101 173 
 PTB  HZ EP       2316 56.81                             132   -0.15 9  143 258 
 PTB  HE ES       2317 17.31                             132   -0.07 9  143 258 
 PTB  HZ I        2317 19.88        15.8 0.14            133            143 258 
 SPBC HZ EP       2316 58.81                             129    0.14 9  160 218 
 SPBC HN ES       2317 19.87                             129   -0.56 9  160 218 
 SPBC HZ I        2317 23.64        25.1 0.40            131            160 218 
 TAM  HZ EP       2316 58.48                             129   -0.14 9  160 105 
 NOR  HZ EP       2317  5.78                             118   -0.05 8  230 234 
 NOR  HE ES       2317 32.84                             118   -0.33 8  230 234 
 NOR  HZ I        2317 40.01        18.2 0.20            120            230 234 
 SML  HZ EP       2317  6.47                             117   -0.48 8  242 336 
 SML  HN ES       2317 34.83                             117   -0.33 8  242 336 
 HEL  HZ EP       2317 10.41                             114    0.18 8  267 256 
 HEL  HE ES       2317 40.98                             114   -0.02 8  267 256 
 HEL  HZ I        2317 48.12         9.7 0.30            116            267 256 
 GUY2CHZ EP       2317 14.06                             112    0.33 7  297 234 
 GUY2CHN ES       2317 47.38                             112    0.15 7  297 234 
 GUY2CHZ I        2318  0.27         9.1 0.56                           297 234 
                                                                                
