 2017  1 6 2237 48.7 L   6.800 -73.137132.5  RSN  5 0.3 1.4LRSN                1
 GAP=239        0.86       6.6     6.7  6.8  0.2939E+02  0.1004E+02  0.1546E+01E
 Epicentro: LOS SANTOS - SANTANDER                                             3
 ACTION:UPD 17-05-22 15:56 OP:jn   STATUS:               ID:20170106223748 L   I
 OLDACT:UP  17-01-07 05:34 OP:edw  STATUS:               ID:20170106222751d    3
 OLDACT:UP  17-01-07 05:33 OP:edw  STATUS:               ID:20170106222751d    3
 OLDACT:DUP 17-01-07 05:31 OP:edw  STATUS:               ID:20170106222751d    3
 OLDACT:REG 17-01-07 04:20 OP:edw  STATUS:               ID:20170106222750     3
 2017-01-06-2228-00M.COL___386                                                 6
 STAT SP IPHASW D HRMM SECON CODA AMPLIT PERI AZIMU VELO AIN AR TRES W  DIS CAZ7
 BAR2 EZ ES       2238 20.26                             169   -0.5610 23.5 192 
 BRR  HZ EP       2238  8.76                             150    0.2710 72.1 298 
 BRR  HE ES       2238 24.37                             150    0.4510 72.1 298 
 BRR  HZ I        2238 29.27         9.2 0.20            150           72.1 298 
 RUS  HZ EP       2238 11.10                             141   -0.0710  101 177 
 RUS  HN ES       2238 28.97                             141    0.2710  101 177 
 RUS  HZ I        2238 30.38         3.8 0.22            145            101 177 
 PTB  HZ EP       2238 14.48                             129   -0.24 9  149 259 
 PTB  HN ES       2238 35.15                             129    0.14 9  149 259 
 PTB  HZ I        2238 36.74         1.9 0.21            131            149 259 
 ZAR  HZ EP   2   2238 20.78                             119    0.36 4  205 292 
 ZAR  HN ES       2238 44.69                             119   -0.47 9  205 292 
 ZAR  HZ I        2238 48.49         3.3 0.08            121            205 292 
                                                                                
