 2016  7 6 2344 20.5 L   6.390 -73.747 97.7  RSN  6 0.5 1.5LRSN                1
 GAP= 78        1.18       4.4     4.1  9.5  0.4280E+01  0.7257E+01 -0.5926E+01E
 Epicentro: SANTA HELENA DEL OPON - SANTANDER                                  3
 ACTION:UPD 17-03-29 16:47 OP:lp   STATUS:               ID:20160706234420 L   I
 OLDACT:DUP 16-07-07 04:25 OP:ak   STATUS:               ID:20160706233744d    3
 2016-07-06-2337-43M.COL___328                                                 6
 STAT SP IPHASW D HRMM SECON CODA AMPLIT PERI AZIMU VELO AIN AR TRES W  DIS CAZ7
 BAR2 EZ EP       2344 36.41                             144   -0.3010 66.3  70 
 BAR2 EZ ES       2344 49.70                             144    0.3710 66.3  70 
 BAR2 EZ I        2344 50.48        18.2 0.40            147           66.3  70 
 BRR  HZ EP       2344 37.21                             138   -0.1810 79.3   3 
 BRR  HN ES       2344 50.54                             138   -0.0110 79.3   3 
 BRR  HZ I        2344 51.69         5.3 0.17            140           79.3   3 
 PTB  HZ EP       2344 37.23                             138   -0.2510 80.2 282 
 PTB  HN ES       2344 49.87                             138   -0.8410 80.2 282 
 PTB  HZ I        2344 53.85         9.8 0.16            139           80.2 282 
 SPBC HN ES       2344 52.88                             135    0.6010 89.2 204 
 RUS  HZ EP       2344 38.72                             134   -0.4110 91.8 127 
 RUS  HN ES       2344 53.75                             134    0.0910 91.8 127 
 ZAR  HZ EP       2344 47.30                             115    0.47 9  173 315 
 ZAR  HN ES       2345  8.05                             115    0.69 9  173 315 
                                                                                
