 2010  5 6 2300 28.1 L   6.773 -73.002150.3  RSN 13 0.6 2.5LRSN                1
 GAP=187        1.20       6.3    10.6  9.1 -0.4083E+02 -0.1442E+01  0.1441E+02E
 Epicentro: CEPITA - SANTANDER                                                 3
 ACTION:UP  10-08-24 10:03 OP:vdl  STATUS:               ID:20100506230028 L   I
 2010-05-06-2256-40S.COL___105                                                 6
 STAT SP IPHASW D HRMM SECON CODA AMPLIT PERI AZIMU VELO SNR AR TRES W  DIS CAZ7
 BAR2 SZ IP       23 0 48.38                             169     0.010   28 225 
 BAR2 SZ ES   1   23 1  3.85                             169    -0.3 7   28 225 
 GIR2 SZ EP   2   23 0 47.40                             165    -1.1 5   40 328 
 BRR  HZ IP     C 23 0 50.98                             149     0.410   87 295 
 BRR  HZ I        23 0 51.23        97.4 0.15                            87 295 
 BRR  HN ES   1   23 1  8.40                             149     0.2 7   87 295 
 BRI  SZ IP       23 0 52.92                             143     0.710  107  12 
 BRI  SZ ES   2   23 1 10.86                             143    -0.3 5  107  12 
 GUE  SZ IP       23 0 52.12                             140    -1.110  117   4 
 GRA  SZ IP       23 0 54.19                             138     0.610  125  10 
 GRA  SZ ES   1   23 1 14.03                             138     0.4 7  125  10 
 OCA  SZ EP   1   23 0 56.87                             130    -0.4 7  166 348 
 OCA  SZ ES   1   23 1 19.78                             130    -0.2 7  166 348 
 OCA  SZ I        23 1 23.68        38.5 0.32                           166 348 
 CHI  HZ EP   2   23 1  6.21                             118     0.0 4  250 199 
 CHI  HZ I        23 1  9.05         9.0 0.40                           250 199 
 CHI  HN ES   2   23 1 35.67                             118    -0.3 4  250 199 
 HEL  HZ EP   2   23 1 10.07                             114    -0.1 4  287 257 
 HEL  HZ I        23 1 48.05        13.2 0.39                           287 257 
 RREF BZ EP   1   23 1 15.54                             111     0.0 5  332 232 
 RREF BN ES   1   23 1 52.93                             111     0.3 5  332 232 
 RREF BZ I        23 2  0.58        13.7 0.27                           332 232 
 TOL  SZ EP   1   23 1 18.59                             110     1.0 5  353 227 
 DBB  SZ EP   1   23 1 16.78                             109    -0.8 5  356 275 
 PRA  HZ EP   1   23 1 21.84                             107    -0.5 4  398 212 
 PRA  HZ I        23 1 23.96         7.6 0.27                           398 212 
 PRA  HE ES   1   23 2  4.69                             107    -0.1 4  398 212 
                                                                                
