 2015 11 6 2318  7.6 L   6.808 -73.140146.0  RSN  9 0.4 2.0LRSN                1
 GAP=137        0.97       3.5     4.5  5.9  0.7789E+00  0.9228E+01 -0.1162E+01E
 Epicentro: LOS SANTOS - SANTANDER                                             3
 ACTION:UPD 15-12-28 16:09 OP:cam  STATUS:               ID:20151106231807 L   I
 OLDACT:UP  15-11-07 09:21 OP:mh   STATUS:               ID:20151106230748     3
 OLDACT:UP  15-11-07 09:21 OP:mh   STATUS:               ID:20151106230748     3
 OLDACT:REG 15-11-07 04:38 OP:mh   STATUS:               ID:20151106230748     3
 2015-11-06-2307-48M.COL___316                                                 6
 STAT SP IPHASW D HRMM SECON CODA AMPLIT PERI AZIMU VELO AIN AR TRES W  DIS CAZ7
 BAR2 EZ EP       2318 27.15                             170   -0.1610 24.3 191 
 BAR2 EZ ES       2318 42.33                             170   -0.3310 24.3 191 
 BAR2 EZ I        2318 43.40        21.6 0.34            170           24.3 191 
 BRR  HZ EP       2318 29.19                             153    0.3710 71.4 298 
 BRR  HN ES       2318 45.98                             153    0.6310 71.4 298 
 BRR  HZ I        2318 49.85        21.3 0.46            148           71.4 298 
 PAM  EZ EP       2318 30.17                             151    0.3610 76.3  40 
 PAM  EN ES       2318 47.18                             151    0.0710 76.3  40 
 PAM  EZ I        2318 49.43        20.1 0.50            153           76.3  40 
 RUS  HZ EP       2318 31.16                             144   -0.3110  101 176 
 RUS  HN ES       2318 50.11                             144    0.0610  101 176 
 RUS  HZ I        2318 50.70         6.6 0.26            148            101 176 
 SPBC HZ EP       2318 36.11                             129   -0.14 9  164 219 
 SPBC HN ES   1   2318 58.26                             129   -0.32 7  164 219 
 SPBC HZ I        2319  0.69        16.3 0.40            130            164 219 
 ZAR  HZ EP   1   2318 40.56                             122    0.43 6  204 292 
 ZAR  HN ES       2319  4.82                             122   -0.65 9  204 292 
 ZAR  HZ I        2319 11.59         7.9 0.36            122            204 292 
 SML  HZ EP       2318 43.46                             118   -0.76 8  243 335 
 SML  HN ES       2319 12.52                             118   -0.24 8  243 335 
 SML  HZ I        2319 21.55        13.9 0.10            118            243 335 
 HEL  HZ EP   1   2318 48.92                             115    0.96 6  273 256 
 HEL  HN ES   1   2319 19.84                             115    0.44 6  273 256 
 HEL  HZ I        2319 26.16         4.0 0.64            115            273 256 
 GUY2CHZ EP   1   2318 51.62                             112    0.25 5  302 235 
 GUY2CHN ES   4   2319 28.00                             112    2.52 0  302 235 
 GUY2CHZ I        2319 31.31         3.6 0.34                           302 235 
                                                                                
