 2015  5 6 2301  1.6 L   6.820 -73.133145.9  RSN  6 0.4 1.7LRSN                1
 GAP=137        0.94       4.1     5.1  6.4  0.5935E+01  0.7400E+01 -0.4570E+01E
 Epicentro: LOS SANTOS - SANTANDER                                             3
 ACTION:UPD 15-09-10 22:02 OP:cam  STATUS:               ID:20150506230101 L   I
 OLDACT:REG 15-05-07 02:57 OP:ak   STATUS:               ID:20150506225749     3
 2015-05-06-2257-49M.COL___285                                                 6
 STAT SP IPHASW D HRMM SECON CODA AMPLIT PERI AZIMU VELO AIN AR TRES W  DIS CAZ7
 BAR2 EZ EP       23 1 21.29                             169    0.0110 25.8 192 
 BAR2 EZ ES       23 1 36.13                             169   -0.5110 25.8 192 
 BAR2 EZ I        23 1 37.64        11.4 0.17            170           25.8 192 
 BRR  HZ EP       23 1 23.02                             152    0.2610 71.4 296 
 BRR  HN ES       23 1 40.03                             152    0.7610 71.4 296 
 BRR  HZ I        23 1 46.20        10.6 0.33            150           71.4 296 
 PAM  SZ EP       23 1 23.93                             152    0.2710 74.8  40 
 PAM  SN ES       23 1 40.75                             152   -0.1310 74.8  40 
 PAM  SZ I        23 1 43.11         6.0 0.28            155           74.8  40 
 RUS  HZ EP       23 1 25.30                             143   -0.2010  103 177 
 RUS  HN ES       23 1 44.18                             143    0.0210  103 177 
 RUS  HZ I        23 1 45.49         3.4 0.29            148            103 177 
 ZAR  HZ EP       23 1 34.39                             122    0.30 9  205 291 
 ZAR  HN ES       23 1 58.88                             122   -0.55 9  205 291 
 ZAR  HZ I        23 2  5.69         6.0 0.27            123            205 291 
 SML  HZ EP   1   23 1 37.97                             118   -0.09 6  242 335 
 SML  HN ES       23 2  6.10                             118   -0.42 8  242 335 
 SML  HZ I        23 2 10.00         8.3 0.07            119            242 335 
                                                                                
