 2017  9 6 2220  5.1 L   6.765 -73.042148.2  RSN  6 0.4 1.6LRSN                1
 GAP=154        0.81       4.9     6.9  5.9 -0.2233E+02  0.9486E+01  0.3117E+01E
 Epicentro: LOS SANTOS - SANTANDER                                             3
 ACTION:UPD 17-10-05 19:09 OP:rebc STATUS:               ID:20170906222005 L   I
 OLDACT:DUP 17-09-07 04:21 OP:edw  STATUS:               ID:20170906221743d    3
 OLDACT:REG 17-09-07 03:34 OP:edw  STATUS:               ID:20170906221742     3
 2017-09-06-2218-00M.COL___426                                                 6
 STAT SP IPHASW D HRMM SECON CODA AMPLIT PERI AZIMU VELO AIN AR TRES W  DIS CAZ7
 BAR2 EZ ES       2220 40.52                             170   -0.0510 24.6 219 
 PAM  EZ EP       2220 27.45                             152    0.1210 73.9  31 
 PAM  EN ES       2220 44.57                             152   -0.1410 73.9  31 
 PAM  EZ I        2220 46.78         5.6 0.48            155           73.9  31 
 RUS  HZ EP       2220 29.05                             145    0.2810 96.6 183 
 RUS  HN ES       2220 47.66                             145    0.3910 96.6 183 
 RUS  HZ I        2220 50.06         6.9 0.40            143           96.6 183 
 SPBC HZ EP       2220 33.76                             129   -0.42 9  168 223 
 SPBC HN ES       2220 56.48                             129   -0.41 9  168 223 
 SPBC HZ I        2220 59.63         5.1 0.24            129            168 223 
 ZAR  HE ES   4   2220 59.50                             121   -5.81 0  216 292 
 CHI  HZ EP       2220 42.83                             118   -0.01 8  248 198 
 CHI  HE ES       2221 11.86                             118   -0.46 8  248 198 
 CHI  HZ I        2221 21.68         1.5 0.38            117            248 198 
 GUY2CHZ EP   3   2220 49.47                             112   -0.13 2  308 237 
 GUY2CHE ES       2221 25.09                             112    0.75 7  308 237 
 GUY2CHZ I        2221 28.47         2.5 0.62                           308 237 
                                                                                
