 2017  8 6 2204 48.7 L   6.763 -73.138141.3  RSN 11 0.4 1.9LRSN                1
 GAP=139        0.93       3.2     3.6  5.3 -0.1186E+01  0.5421E+01  0.3219E+01E
 Epicentro: LOS SANTOS - SANTANDER                                             3
 ACTION:UPD 17-09-04 20:17 OP:rebc STATUS:               ID:20170806220448 L   I
 OLDACT:REG 17-08-07 02:49 OP:lv   STATUS:               ID:20170806215736     3
 2017-08-06-2158-00M.COL___393                                                 6
 STAT SP IPHASW D HRMM SECON CODA AMPLIT PERI AZIMU VELO AIN AR TRES W  DIS CAZ7
 BAR2 EZ EP       22 5  7.60                             172   -0.1310 19.5 195 
 BAR2 EZ ES       22 5 22.24                             172   -0.3310 19.5 195 
 BAR2 EZ I        22 5 23.78        17.3 0.12            171           19.5 195 
 BRR  HZ EP       22 5  9.59                             151    0.0510 74.0 301 
 BRR  HN ES       22 5 26.25                             151    0.4610 74.0 301 
 PAM  EZ EP       22 5 10.58                             149   -0.0410 80.0  37 
 PAM  EN ES       22 5 27.37                             149   -0.3310 80.0  37 
 PAM  EZ I        22 5 29.59        17.3 0.45            152           80.0  37 
 RUS  HZ EP       22 5 12.06                             144    0.3310 96.5 176 
 RUS  HN ES       22 5 29.88                             144    0.2010 96.5 176 
 RUS  HZ I        22 5 31.63         9.2 0.22            145           96.5 176 
 PTB  HZ EP       22 5 14.86                             131   -0.47 9  148 260 
 PTB  HN ES       22 5 36.14                             131    0.05 9  148 260 
 PTB  HZ I        22 5 38.84         7.7 0.23            132            148 260 
 SPBC HZ EP       22 5 17.09                             128    0.47 9  161 220 
 SPBC HN ES       22 5 38.39                             128   -0.01 9  161 220 
 SPBC HZ I        22 5 42.46         6.7 0.08            129            161 220 
 ZAR  HZ EP       22 5 20.44                             121   -0.68 8  206 293 
 ZAR  HE ES       22 5 46.93                             121    0.54 8  206 293 
 ZAR  HZ I        22 5 51.77         6.7 0.14            122            206 293 
 NOR  HZ EP       22 5 24.65                             118    0.64 8  233 235 
 NOR  HN ES       22 5 51.21                             118   -0.33 8  233 235 
 CHI  HZ EP       22 5 25.94                             116    0.18 8  245 196 
 CHI  HE ES       22 5 54.58                             116   -0.08 8  245 196 
 CHI  HZ I        22 5 58.37         3.1 0.13            118            245 196 
 GUY2CHZ EP   4   22 5 34.49                             112    2.56 0  300 236 
 GUY2CHN ES       22 6  4.88                             112   -0.77 7  300 236 
 SJC  HZ EP   4   22 5 42.16                             105   -2.43 0  413 327 
 SJC  HN ES   4   22 6 23.04                             105   -5.13 0  413 327 
 SJC  HZ I        22 6 27.27         4.5 0.30            106            413 327 
                                                                                
