 2012  3 6 2209 47.9 L   6.783 -73.148144.0  RSN  5 0.4 1.8LRSN                1
 GAP=137        0.76       5.2     5.0  9.0  0.3261E+01  0.9862E+01  0.5824E+01E
 ACTION:UP  12-03-31 23:17 OP:EP   STATUS:               ID:20120306220947 L   I
 2012-03-06-2210-00M.COL___192                                                 6
 STAT SP IPHASW D HRMM SECON CODA AMPLIT PERI AZIMU VELO SNR AR TRES W  DIS CAZ7
 BRR  HZ EP   1   2210  9.08                             152     0.2 7   72 300 
 BRR  HN ES   1   2210 25.74                             152     0.5 7   72 300 
 PAM  SZ EP   1   2210 10.04                             150     0.0 7   79  39 
 PAM  SN ES   1   2210 26.88                             150    -0.4 7   79  39 
 PAM  SZ I        2210 28.97        11.4 0.50                            79  39 
 RUS  HZ EP   1   2210 11.63                             144     0.3 7   99 176 
 RUS  HN ES   1   2210 29.62                             144     0.0 7   99 176 
 RUS  HZ I        2210 31.47         9.0 0.30                            99 176 
 PTB  HZ EP   1   2210 14.32                             132    -0.3 7  147 260 
 PTB  HN ES   2   2210 34.66                             132    -0.9 5  147 260 
 ZAR  HN ES   1   2210 45.64                             122     0.1 6  205 293 
 ZAR  HZ I        2210 50.90         8.9 0.23                           205 293 
                                                                                
