 2010  8 6 2234 15.9 L   6.793 -73.069151.4  RSN  4 0.1 1.5LRSN                1
 GAP=239        0.38       9.8    17.2 10.9  0.1464E+03 -0.1212E+03 -0.7017E+02E
 Epicentro: LOS SANTOS - SANTANDER                                             3
 *RUS-BRR-BAR2                                                                 3
 ACTION:UP  10-09-07 10:52 OP:vdl  STATUS:               ID:20100806223416 L   I
 2010-08-06-2231-50S.COL___124                                                 6
 STAT SP IPHASW D HRMM SECON CODA AMPLIT PERI AZIMU VELO SNR AR TRES W  DIS CAZ7
 BTL  SZ EP   1   2234 36.28                             170     0.0 7   26 302 
 BAR2 SZ EP   2   2234 36.18                             170     0.0 5   26 210 
 BAR2 SZ I        2234 53.10         6.9 0.12                            26 210 
 BRR  HZ EP       2234 38.01                             151    -0.110   79 296 
 BRR  HZ I        2234 38.25        12.5 0.29                            79 296 
 BRR  HE ES   2   2234 55.55                             151     0.1 5   79 296 
 RUS  HZ EP   2   2234 40.40                             145     0.3 5  100 181 
 RUS  HE ES   2   2234 58.85                             145    -0.2 5  100 181 
 RUS  HZ I        2234 59.98         2.6 0.40                           100 181 
                                                                                
