 2011 12 6 2123 34.9 L   6.766 -73.090144.5  RSN  5 0.3 1.4LRSN                1
 GAP=145        0.48       4.8     4.7  5.0 -0.3718E+01 -0.2001E+01  0.2198E+01E
 Epicentro: LOS SANTOS - SANTANDER                                             3
 ACTION:UPD 12-07-13 16:14 OP:ep   STATUS:               ID:20111206212334 L   I
 2011-12-06-2120-00M.COL___183                                                 6
 STAT SP IPHASW D HRMM SECON CODA AMPLIT PERI AZIMU VELO AIN AR TRES W  DIS CAZ7
 BAR2 SZ EP       2123 54.24                             172   -0.1410 21.7 208 
 BAR2 SZ ES   1   2124  9.33                             172   -0.22 7 21.7 208 
 BAR2 SZ I        2124 11.10         7.6 0.46                          21.7 208 
 GIR2 SZ EP   3   2123 53.63                             164   -0.98 2 36.5 342 
 GIR2 SZ ES   3   2124  9.50                             164   -0.46 2 36.5 342 
 PAM  SZ EP       2123 57.24                             150    0.2610 76.7  34 
 PAM  SN ES   1   2124 14.27                             150    0.10 7 76.7  34 
 BRR  HZ EP       2123 56.27                             150   -0.1110 78.5 299 
 BRR  HE ES   1   2124 13.33                             150    0.23 7 78.5 299 
 BRR  HZ I        2124 15.74         8.7 0.54                          78.5 299 
 RUS  HZ EP   2   2123 58.24                             145   -0.04 5 96.5 180 
 RUS  HZ I        2124  2.31         1.7 0.36                          96.5 180 
 RUS  HN ES   3   2124 16.94                             145    0.46 2 96.5 180 
                                                                                
