 2017  6 6 2119 10.3 L   6.184 -73.715104.5  RSN  7 0.5 1.6LRSN                1
 GAP=156        1.20       4.4     3.8  8.5  0.6894E+01 -0.2641E+01 -0.5221E+01E
 Epicentro: LANDAZURI - SANTANDER                                              3
 ACTION:UPD 17-09-14 16:50 OP:jn   STATUS:               ID:20170606211910 L   I
 OLDACT:UP  17-06-07 04:47 OP:ar   STATUS:               ID:20170606211735     3
 OLDACT:REG 17-06-07 03:46 OP:ar   STATUS:               ID:20170606211735     3
 2017-06-06-2118-00M.COL___365                                                 6
 STAT SP IPHASW D HRMM SECON CODA AMPLIT PERI AZIMU VELO AIN AR TRES W  DIS CAZ7
 SPBC HZ EP       2119 27.26                             143   -0.0010 70.9 214 
 SPBC HE ES       2119 40.73                             143    0.2210 70.9 214 
 SPBC HZ I        2119 42.91        14.1 0.24            143           70.9 214 
 RUS  HZ EP       2119 28.31                             141    0.0310 76.9 115 
 RUS  HN ES       2119 42.82                             141    0.5010 76.9 115 
 RUS  HZ I        2119 43.45         6.5 0.32            141           76.9 115 
 PTB  HZ EP       2119 28.01                             135   -0.7510 91.0 296 
 PTB  HN ES       2119 42.45                             135   -0.7310 91.0 296 
 PTB  HZ I        2119 43.04         6.5 0.30            135           91.0 296 
 NOR  HZ EP       2119 34.13                             121    0.11 9  145 242 
 NOR  HE ES       2119 52.56                             121    0.02 9  145 242 
 NOR  HZ I        2119 54.52         6.4 0.16            121            145 242 
 YPLC HZ EP       2119 37.19                             116    0.32 9  172 120 
 YPLC HN ES       2119 56.85                             116   -0.77 9  172 120 
 YPLC HZ I        2120  0.06        14.4 0.44            116            172 120 
 CHI  HZ EP       2119 37.23                             116   -0.12 9  172 181 
 CHI  HE ES       2119 58.79                             116    0.32 9  172 181 
 CHI  HZ I        2120  2.22         4.3 0.28            116            172 181 
 ZAR  HZ EP       2119 39.19                             113    0.12 9  192 319 
 ZAR  HN ES       2120  2.50                             113    0.96 9  192 319 
 ZAR  HZ I        2120  7.06         8.6 0.44            113            192 319 
                                                                                
