 2017 10 6 2312 44.5 L   6.955 -72.969139.0  RSN  4 0.4 1.3LRSN                1
 GAP=151        0.83       6.2     6.1 10.1  0.1348E+02  0.3390E+01 -0.2941E+02E
 Epicentro: SANTA BARBARA - SANTANDER                                          3
 ACTION:UPD 17-11-07 19:29 OP:rebc STATUS:               ID:20171006231244 L   I
 OLDACT:UP  17-10-07 05:03 OP:dani STATUS:               ID:20171006225712d    3
 OLDACT:DUP 17-10-07 05:01 OP:dani STATUS:               ID:20171006225712d    3
 OLDACT:UP  17-10-07 04:59 OP:dani STATUS:               ID:20171006225710     3
 OLDACT:REG 17-10-07 03:54 OP:dani STATUS:               ID:20171006225710     3
 2017-10-06-2308-00M.COL___438                                                 6
 STAT SP IPHASW D HRMM SECON CODA AMPLIT PERI AZIMU VELO AIN AR TRES W  DIS CAZ7
 BAR2 EZ EP   1   2313  4.76                             160    0.70 7 46.5 210 
 BAR2 EZ ES   1   2313 19.64                             160    0.34 7 46.5 210 
 PAM  EZ EP       2313  4.36                             159   -0.3010 51.9  35 
 RUS  HZ EP       2313  9.23                             137    0.2310  118 186 
 RUS  HN ES       2313 27.66                             137   -0.4210  118 186 
 RUS  HZ I        2313 28.91         2.8 0.40            138            118 186 
 ZAR  HZ EP       2313 17.91                             119    0.01 8  217 286 
 ZAR  HN ES       2313 43.78                             119   -0.15 8  217 286 
 ZAR  HZ I        2313 48.02         2.3 0.12            119            217 286 
                                                                                
