 2016  4 6 2100 22.8 L   6.782 -73.148149.1  RSN  8 0.4 1.9LRSN                1
 GAP=137        0.85       4.4     4.2  6.0 -0.8148E+01  0.9741E+01 -0.1372E+01E
 Epicentro: LOS SANTOS - SANTANDER                                             3
 ACTION:UPD 16-05-05 14:19 OP:rebc STATUS:               ID:20160406210022 L   I
 OLDACT:REG 16-04-07 06:11 OP:ak   STATUS:               ID:20160406205748     3
 2016-04-06-2057-48M.COL___311                                                 6
 STAT SP IPHASW D HRMM SECON CODA AMPLIT PERI AZIMU VELO AIN AR TRES W  DIS CAZ7
 BAR2 EZ EP       21 0 42.50                             171   -0.2510 21.4 190 
 BAR2 EZ ES       21 0 58.44                             171    0.1010 21.4 190 
 BAR2 EZ I        21 1  0.42        14.8 0.20            171           21.4 190 
 PAM  EZ EP       21 0 45.83                             151    0.4010 79.1  39 
 PAM  EN ES       21 1  3.12                             151    0.0110 79.1  39 
 PAM  EZ I        21 1  5.23        13.3 0.54            155           79.1  39 
 RUS  HZ EP       21 0 46.41                             145   -0.2910 98.7 176 
 RUS  HN ES       21 1  5.25                             145   -0.1310 98.7 176 
 RUS  HZ I        21 1  9.08         5.8 0.28            150           98.7 176 
 PTB  HZ EP       21 0 49.26                             133   -0.68 9  147 260 
 PTB  HN ES       21 1 10.95                             133   -0.19 9  147 260 
 PTB  HZ I        21 1 18.26        14.0 0.32            134            147 260 
 SPBC HZ EP       21 0 51.54                             130    0.18 9  162 219 
 SPBC HE ES       21 1 14.13                             130    0.47 9  162 219 
 SPBC HZ I        21 1 16.87        13.9 0.14            133            162 219 
 ZAR  HZ EP   2   21 0 55.41                             123   -0.06 4  205 293 
 ZAR  HE ES   2   21 1 21.56                             123    0.57 4  205 293 
 ZAR  HZ I        21 1 26.87        11.7 0.40            125            205 293 
 NOR  HZ EP       21 0 59.03                             119    0.49 8  233 235 
 NOR  HE ES       21 1 26.02                             119   -0.43 8  233 235 
 NOR  HZ I        21 1 30.27         5.9 0.16            122            233 235 
 GUY2CHZ EP   4   21 1  8.19                             113    1.82 0  300 235 
 GUY2CHN ES       21 1 40.85                             113    0.46 7  300 235 
 GUY2CHZ I        21 1 50.17         2.9 0.40                           300 235 
                                                                                
