 2017 11 6 2337 18.8 L   6.855 -73.142150.0  RSN 24 0.8 2.9LRSN                1
 GAP= 65        1.52       3.8     3.6  6.2  0.1112E+01  0.5974E+01  0.2250E+01E
 Epicentro: LOS SANTOS - SANTANDER                                             3
 ACTION:UPD 17-12-12 19:53 OP:rebc STATUS:               ID:20171106233718 L   I
 OLDACT:UP  17-11-07 05:14 OP:dhb  STATUS:               ID:20171106232744d    3
 OLDACT:DUP 17-11-07 05:04 OP:dhb  STATUS:               ID:20171106232744d    3
 OLDACT:DUP 17-11-07 04:58 OP:dhb  STATUS:               ID:20171106232743d    3
 OLDACT:UP  17-11-07 04:57 OP:dhb  STATUS:               ID:20171106232742     3
 OLDACT:UP  17-11-07 04:57 OP:dhb  STATUS:               ID:20171106232742     3
 OLDACT:REG 17-11-07 03:35 OP:dhb  STATUS:               ID:20171106232742     3
 2017-11-06-2328-00M.COL___423                                                 6
 STAT SP IPHASW D HRMM SECON CODA AMPLIT PERI AZIMU VELO AIN AR TRES W  DIS CAZ7
 BAR2 EZ IP     C 2337 39.15                             169    0.0610 29.3 189 
 BAR2 EZ ES       2337 54.52                             169   -0.3910 29.3 189 
 BAR2 EZ I        2337 56.89       284.1 0.34            167           29.3 189 
 BRR  HZ IP     D 2337 40.99                             154    0.6910 68.9 294 
 BRR  HN ES       2337 57.89                             154    0.8310 68.9 294 
 BRR  HZ I        2338  0.72       105.2 0.26            155           68.9 294 
 PAM  EZ IP     D 2337 41.93                             153    0.7210 72.6  42 
 PAM  EE ES       2337 58.78                             153    0.1010 72.6  42 
 PAM  EZ I        2338  1.49       118.9 0.66            151           72.6  42 
 RUS  HZ EP       2337 43.00                             143   -0.4210  107 176 
 RUS  HN ES       2338  1.81                             143   -0.8010  107 176 
 RUS  HZ I        2338  4.50       116.1 0.32            141            107 176 
 PTB  HZ EP       2337 45.90                             133   -0.39 9  149 257 
 PTB  HN ES       2338  7.03                             133   -0.68 9  149 257 
 PTB  HZ I        2338  8.42        63.3 0.42            132            149 257 
 TAM  HZ IP     D 2337 47.36                             131    0.41 9  156 107 
 TAM  HZ I        2338  8.17        38.9 0.30            129            156 107 
 TAM  HE ES       2338  8.95                             131    0.05 9  156 107 
 SPBC HZ IP     C 2337 48.07                             129   -0.04 9  168 218 
 SPBC HE ES       2338 10.54                             129   -0.42 9  168 218 
 SPBC HZ I        2338 16.61       108.4 0.34            128            168 218 
 YPLC HZ EP       2337 49.41                             127   -0.01 9  182 152 
 YPLC HN ES       2338 13.37                             127    0.08 9  182 152 
 YPLC HZ I        2338 14.21        99.3 0.28            125            182 152 
 ZAR  HZ EP       2337 52.09                             123    0.73 9  202 291 
 ZAR  HE ES       2338 17.70                             123    0.96 9  202 291 
 ZAR  HZ I        2338 24.32        81.2 0.30            123            202 291 
 TABC EZ EP       2337 56.35                             120    0.96 8  235 210 
 TABC EZ ES       2338 24.84                             120    0.91 8  235 210 
 TABC EZ I        2338 28.41        73.8 0.42            118            235 210 
 NOR  HZ EP       2337 54.98                             119   -0.23 8  239 233 
 NOR  HN ES       2338 22.97                             119   -0.63 8  239 233 
 NOR  HZ I        2338 29.40        76.4 0.30            118            239 233 
 CHI  HZ EP       2337 57.15                             117   -0.25 8  255 195 
 CHI  HE ES       2338 26.22                             117   -1.27 8  255 195 
 CHI  HZ I        2338 30.64        27.8 0.28            116            255 195 
 ROSC BZ IP     C 2337 58.90                             117    1.14 8  258 210 
 ROSC BN ES       2338 29.21                             117    1.08 8  258 210 
 ROSC BZ I        2338 36.84        78.8 0.35            116            258 210 
 URE  HZ EP       2337 59.26                             114   -0.63 7  282 291 
 URE  HE ES       2338 30.63                             114   -1.30 7  282 291 
 URE  HZ I        2338 42.00        43.4 0.20            114            282 291 
 GUY2CHZ EP   9   2338  4.36                             113    1.30 0  305 234 
 GUY2CHE ES       2338 39.67                             113    0.80 7  305 234 
 GUY2CHZ I        2338 45.70        77.2 0.38                           305 234 
 PTGC HZ EP       2338  2.06                             112   -1.43 7  314 159 
 PTGC HE ES   4   2338 34.89                             112   -3.44 0  314 159 
 PTGC HZ I        2338 59.71        37.1 0.56            110            314 159 
 CBOC HZ EP       2338  6.99                             110    0.82 7  336 251 
 CBOC HE ES       2338 42.40                             110   -0.71 7  336 251 
 DBB  HZ EP       2338  6.81                             110    0.34 7  339 273 
 DBB  EN ES       2338 42.15                             110   -1.49 7  339 273 
 DBB  HZ I        2338 45.99        15.1 0.42            109            339 273 
 APAC HZ IP     D 2338 13.10                             107    0.12 6  397 287 
 APAC HE ES       2338 56.00                             107    0.76 6  397 287 
 APAC HZ I        2339  0.52        10.0 0.72            106            397 287 
 PRA  HZ EP       2338 12.61                             107   -0.51 6  397 209 
 PRA  HE ES       2338 54.75                             107   -0.73 6  397 209 
 PRA  HZ I        2339  1.62        35.1 0.26            106            397 209 
 ORTC HZ EP       2338 13.90                             107    0.42 6  401 216 
 ORTC HE ES       2338 57.00                             107    0.88 6  401 216 
 ORTC HZ I        2339  2.21        23.8 0.44            106            401 216 
 SJC  HZ EP       2338 13.47                             106   -0.49 6  404 326 
 SJC  HN ES   3   2338 54.48                             106   -2.49 1  404 326 
 SJC  HZ I        2338 58.16        12.5 0.34            106            404 326 
 PAL  HZ EP       2338 14.85                             106    0.32 6  409 238 
 PAL  HE ES       2338 58.16                             106    0.18 6  409 238 
 PAL  HZ I        2339  3.76        22.4 0.50            105            409 238 
 CRJC HZ EP       2338 19.54                             104   -1.18 5  462   4 
 CRJC HN ES   3   2339  6.14                             104   -2.87 1  462   4 
 CRJC HZ I        2339 15.41        15.7 0.16            103            462   4 
                                                                                
