 2011 12 6 2117 21.9 L   6.737 -73.118144.9  RSN  6 0.3 1.9LRSN                1
 GAP=143        0.63       3.8     4.9  5.3 -0.4260E+01  0.5173E+01  0.1994E+01E
 Epicentro: JORDAN - SANTANDER                                                 3
 ACTION:UPD 12-07-13 16:14 OP:ep   STATUS:               ID:20111206211722 L   I
 2011-12-06-2110-00M.COL___183                                                 6
 STAT SP IPHASW D HRMM SECON CODA AMPLIT PERI AZIMU VELO AIN AR TRES W  DIS CAZ7
 BAR2 SZ EP       2117 41.30                             173   -0.0710 17.5 204 
 BAR2 SZ ES   1   2117 56.23                             173   -0.29 7 17.5 204 
 BAR2 SZ I        2117 57.21        20.8 0.28                          17.5 204 
 GIR2 SZ EP       2117 41.88                             164    0.1410 38.7 348 
 BRR  HZ EP       2117 43.27                             150   -0.0910 77.4 302 
 BRR  HN ES   1   2118  0.44                             150    0.37 7 77.4 302 
 BRR  HZ I        2118  1.53        17.5 0.12                          77.4 302 
 PAM  SZ EP       2117 44.29                             149    0.0010 81.1  35 
 PAM  SN ES   1   2118  1.51                             149   -0.22 7 81.1  35 
 RUS  HZ EP       2117 45.55                             146    0.4410 93.5 178 
 RUS  HN ES   1   2118  3.04                             146   -0.14 7 93.5 178 
 RUS  HZ I        2118  4.72        13.1 0.58                          93.5 178 
 NOR  SZ EP       2117 57.00                             118   -0.47 8  233 236 
 NOR  SE ES   2   2118 25.43                             118    0.25 4  233 236 
                                                                                
