 2011  1 6 2347 43.3 L   6.804 -73.207140.0  RSN  5 0.3 1.5LRSN                1
 GAP=159        0.70       4.2    19.4  7.5 -0.3457E+02  0.3895E+02 -0.1332E+02E
 Epicentro: ZAPATOCA - SANTANDER                                               3
 ACTION:UP  11-02-08 08:39 OP:pat  STATUS:               ID:20110106234743 L   I
 2011-01-06-2340-00M.COL___137                                                 6
 STAT SP IPHASW D HRMM SECON CODA AMPLIT PERI AZIMU VELO SNR AR TRES W  DIS CAZ7
 BTL  SZ ES   3   2348 16.00                             173    -0.8 2   14 332 
 BAR2 SZ EP       2348  2.33                             170     0.110   24 174 
 BAR2 SZ I        2348  2.78        11.4 0.07                            24 174 
 BAR2 SZ ES   1   2348 17.48                             170     0.4 7   24 174 
 RUS  HZ EP       2348  6.74                             143     0.110  102 172 
 RUS  HN ES   1   2348 24.32                             143    -0.4 7  102 172 
 RUS  HZ I        2348 25.89         4.9 0.47                           102 172 
 GRA  SZ EP       2348  8.01                             136    -0.210  128  20 
 GRA  SZ ES   1   2348 27.84                             136     0.2 7  128  20 
 GRA  SZ I        2348 29.30         3.6 0.53                           128  20 
 OCA  SZ EP       2348 10.97                             129    -0.1 9  159 356 
 OCA  SZ I        2348 40.77         4.6 0.58                           159 356 
                                                                                
