 2010  7 6 2311 25.0 L   6.817 -72.966139.0  RSN  5 0.3 1.5LRSN                1
 GAP=179        0.69      10.0    17.0 11.3  0.1311E+03 -0.1128E+03 -0.4780E+02E
 Epicentro: CEPITA - SANTANDER                                                 3
 ACTION:UPD 10-12-01 15:15 OP:pat  STATUS:               ID:20100706231125 L   I
 2010-07-06-2309-11S.COL___117                                                 6
 STAT SP IPHASW D HRMM SECON CODA AMPLIT PERI AZIMU VELO AIN AR TRES W  DIS CAZ7
 BAR2 SZ EP       2311 44.59                             167     0.510   35 224 
 BAR2 SZ I        2311 45.00         9.8 0.39                            35 224 
 BAR2 SZ ES   2   2311 58.73                             167    -0.3 5   35 224 
 BRR  HZ EP       2311 46.46                             147    -0.110   89 291 
 BRR  HE ES   1   2312  3.18                             147    -0.1 7   89 291 
 BRR  HZ I        2312  6.09        12.7 0.69                            89 291 
 RUS  HZ EP       2311 47.98                             143    -0.310  103 187 
 RUS  HE ES   2   2312  6.41                             143     0.0 5  103 187 
 RUS  HZ I        2312  9.26         2.0 0.26                           103 187 
 GUE  SZ EP   3   2311 48.60                             139    -0.1 2  112   2 
 GRA  SZ EP   3   2311 48.72                             136    -0.4 2  119   9 
                                                                                
