 2014  8 6 2231 54.3 L   6.804 -73.157147.3  RSN  9 0.4 2.1LRSN                1
 GAP=135        0.81       2.9     3.6  6.3 -0.7771E+00  0.6180E+01  0.1545E+01E
 Epicentro: LOS SANTOS - SANTANDER                                             3
 ACTION:UPD 14-09-15 21:47 OP:nd   STATUS:               ID:20140806223154 L   I
 OLDACT:UP  14-08-07 03:42 OP:mh   STATUS:               ID:20140806222821     3
 OLDACT:REG 14-08-07 03:13 OP:mh   STATUS:               ID:20140806222821     3
 2014-08-06-2228-21M.COL___266                                                 6
 STAT SP IPHASW D HRMM SECON CODA AMPLIT PERI AZIMU VELO AIN AR TRES W  DIS CAZ7
 PAM  SZ EP       2232 17.05                             151    0.3310 77.8  40 
 PAM  SN ES       2232 34.09                             151   -0.1110 77.8  40 
 PAM  SZ I        2232 36.96        23.0 0.51            152           77.8  40 
 RUS  HZ EP       2232 18.31                             144    0.0610  101 175 
 RUS  HN ES       2232 37.06                             144    0.1310  101 175 
 RUS  HZ I        2232 38.68        17.7 0.40            147            101 175 
 PTB  HZ EP   1   2232 21.49                             133    0.18 7  147 259 
 PTB  HN ES       2232 41.99                             133   -0.38 9  147 259 
 PTB  HZ I        2232 44.11        12.8 0.42            133            147 259 
 SPBC HZ EP       2232 23.38                             129    0.49 9  163 219 
 SPBC HN ES   1   2232 45.10                             129   -0.08 7  163 219 
 SPBC HZ I        2232 49.82        25.2 0.40            131            163 219 
 ZAR  HN ES       2232 52.17                             123    0.15 9  203 292 
 NOR  HZ EP       2232 29.88                             119   -0.17 8  234 234 
 NOR  HN ES   1   2232 58.68                             119    0.75 6  234 234 
 NOR  HZ I        2233  1.95                             120            234 234 
 SML  HZ EP   1   2232 31.10                             118    0.17 6  243 336 
 SML  HN ES   1   2232 58.85                             118   -0.64 6  243 336 
 SML  HZ I        2233  9.14        16.7 0.24            119            243 336 
 CHI  HZ EP       2232 31.40                             117   -0.71 8  249 195 
 CHI  HN ES   1   2233  1.02                             117   -0.57 6  249 195 
 CHI  HZ I        2233  5.58         7.2 0.55            119            249 195 
 GUY2CHZ EP   4   2232 39.33                             113    1.42 0  300 235 
 GUY2CHN ES   4   2233 14.87                             113    2.95 0  300 235 
 GUY2CHZ I        2233 20.92         5.0 0.36                           300 235 
                                                                                
