 2010  7 6 2049 58.7 L   6.804 -73.060132.9  RSN  7 0.5 1.7LRSN                1
 GAP=165        1.02       5.3    12.0 14.7 -0.1740E+02 -0.8756E+02  0.1781E+02E
 Epicentro: LOS SANTOS - SANTANDER                                             3
 ACTION:UPD 10-12-01 15:15 OP:pat  STATUS:               ID:20100706204958 L   I
 2010-07-06-2047-24S.COL___117                                                 6
 STAT SP IPHASW D HRMM SECON CODA AMPLIT PERI AZIMU VELO AIN AR TRES W  DIS CAZ7
 BAR2 SZ EP       2050 16.39                             168    -0.510   27 210 
 BAR2 SZ I        2050 32.41        16.9 0.26                            27 210 
 BRR  HZ EP   1   2050 18.71                             147    -0.3 7   80 295 
 BRR  HN ES   1   2050 35.32                             147     0.5 7   80 295 
 BRR  HZ I        2050 37.87        18.2 0.14                            80 295 
 RUS  HZ EP       2050 21.27                             141     0.110  101 181 
 RUS  HN ES   2   2050 38.76                             141     0.0 5  101 181 
 RUS  HZ I        2050 40.73         4.4 0.30                           101 181 
 BRI  SZ EP       2050 21.53                             139     0.510  105  16 
 BRI  SZ ES   2   2050 39.38                             139     0.8 5  105  16 
 BRI  SZ I        2050 48.11         8.7 0.34                           105  16 
 GUE  SZ EP   3   2050 21.33                             137    -0.7 2  114   7 
 GUE  SZ ES   2   2050 39.50                             137    -0.8 5  114   7 
 GRA  SZ EP       2050 22.71                             134     0.210  123  13 
 GRA  SZ ES   2   2050 40.24                             134    -0.9 5  123  13 
 OCA  SZ ES   2   2050 46.75                             126    -0.7 5  161 350 
                                                                                
