 2011  2 6 2251 21.9 L   6.769 -72.703 96.7  RSN  5 0.5 1.4LRSN                1
 GAP=209        1.16       8.6    42.4 40.4 -0.1526E+03 -0.1554E+04  0.1128E+03E
 Epicentro: CONCEPCION - SANTANDER                                             3
 ACTION:UP  11-03-28 15:06 OP:jfem STATUS:               ID:20110206225122 L   I
 2011-02-06-2240-00M.COL___138                                                 6
 STAT SP IPHASW D HRMM SECON CODA AMPLIT PERI AZIMU VELO SNR AR TRES W  DIS CAZ7
 BAR2 SZ EP       2251 36.56                             147    -0.810   57 250 
 BAR2 SZ ES   2   2251 49.46                             147     0.1 5   57 250 
 BAR2 SZ I        2251 51.31        38.2 0.29                            57 250 
 GIR2 SZ EP   2   2251 36.59                             144    -1.1 5   64 302 
 BTL  SZ EP       2251 38.29                             144     0.410   65 285 
 BTL  SZ ES   2   2251 50.79                             144     0.5 5   65 285 
 RUS  HZ EP       2251 42.08                             129     0.410  106 203 
 RUS  HN ES   3   2251 57.01                             129    -0.2 2  106 203 
 RUS  HZ I        2252  1.96         1.4 0.36                           106 203 
 GRA  SZ EP       2251 43.27                             124     0.210  124 355 
 GRA  SZ I        2251 44.81         5.6 0.37                           124 355 
 GRA  SZ ES   3   2251 59.31                             124    -0.3 2  124 355 
                                                                                
