 2017  8 6 2308 24.4 L   6.789 -73.172145.9  RSN  5 0.2 1.2LRSN                1
 GAP=134        0.56       2.7     2.8  4.5 -0.1976E+01  0.8936E+00  0.2178E+01E
 Epicentro: LOS SANTOS - SANTANDER                                             3
 ACTION:UPD 17-09-04 20:17 OP:rebc STATUS:               ID:20170806230824 L   I
 OLDACT:DUP 17-08-07 04:59 OP:lv   STATUS:               ID:20170806225740d    3
 2017-08-06-2258-00M.COL___393                                                 6
 STAT SP IPHASW D HRMM SECON CODA AMPLIT PERI AZIMU VELO AIN AR TRES W  DIS CAZ7
 BRR  HZ EP       23 8 45.74                             153    0.2910 69.2 301 
 BRR  HN ES       23 9  1.86                             153   -0.0110 69.2 301 
 PAM  EZ EP       23 8 46.72                             150   -0.0810 80.2  41 
 PAM  EE ES       23 9  4.27                             150    0.0010 80.2  41 
 PAM  EZ I        23 9  6.65         3.5 0.10            150           80.2  41 
 RUS  HZ EP       23 8 48.27                             144    0.1810 99.6 174 
 RUS  HN ES       23 9  6.40                             144   -0.1710 99.6 174 
 RUS  HZ I        23 9  7.79         2.2 0.23            145           99.6 174 
 PTB  HZ EP       23 8 50.61                             133   -0.48 9  145 259 
 PTB  HN ES       23 9 11.96                             133    0.05 9  145 259 
 PTB  HZ I        23 9 12.61         2.6 0.05            135            145 259 
 SPBC HZ EP       23 8 52.73                             130    0.09 9  160 218 
 SPBC HN ES       23 9 14.78                             130    0.11 9  160 218 
                                                                                
