 2014  2 6 2225 35.8 L   6.793 -73.151140.7  RSN  8 0.5 1.7LRSN                1
 GAP=136        1.16       4.8     5.3  7.1 -0.4686E+01  0.7273E+01  0.1051E+02E
 Epicentro: LOS SANTOS - SANTANDER                                             3
 ACTION:UPD 14-03-10 08:08 OP:ep   STATUS:               ID:20140206222535 L   I
 OLDACT:REG 14-02-06 23:18 OP:stll STATUS:               ID:20140206221818     3
 2014-02-06-2218-18M.COL___242                                                 6
 STAT SP IPHASW D HRMM SECON CODA AMPLIT PERI AZIMU VELO AIN AR TRES W  DIS CAZ7
 BAR2 SZ EP       2225 55.50                             171    0.6710 22.4 189 
 BAR2 SZ ES       2226  9.77                             171    0.1210 22.4 189 
 BAR2 SZ I        2226 11.24        20.6 0.28            164           22.4 189 
 BRR  HZ EP       2225 56.72                             152    0.3010 71.0 299 
 BRR  HN ES       2226 13.02                             152    0.5410 71.0 299 
 BRR  HZ I        2226 16.56        11.4 0.28            146           71.0 299 
 PAM  SZ EP       2225 57.64                             149    0.0810 78.4  40 
 PAM  SZ I        2225 57.77        11.8 0.14            151           78.4  40 
 PAM  SN ES       2226 14.21                             149   -0.3110 78.4  40 
 RUS  HZ EP       2225 58.69                             143   -0.3310 99.8 176 
 RUS  HZ I        2225 59.42         3.3 0.10            137           99.8 176 
 RUS  HN ES       2226 16.69                             143   -0.4310 99.8 176 
 PTB  HZ EP       2226  1.62                             131   -0.69 9  147 259 
 PTB  HN ES       2226 22.13                             131   -0.84 9  147 259 
 PTB  HZ I        2226 26.88         6.0 0.16            124            147 259 
 SPBC HZ EP       2226  3.68                             128   -0.16 9  162 219 
 SPBC HZ I        2226 30.72         9.7 0.20            122            162 219 
 NOR  HZ EP       2226 11.20                             117    0.04 8  234 235 
 NOR  HN ES       2226 39.30                             117    0.58 8  234 235 
 NOR  HZ I        2226 46.42         4.9 0.18            112            234 235 
 CHI  HZ EP       2226 13.26                             116    0.12 8  248 195 
 CHI  HN ES       2226 42.79                             116    0.54 8  248 195 
 CHI  HZ I        2226 49.72         2.8 0.42            112            248 195 
                                                                                
