 2016  8 6 2300 24.4 L   6.784 -73.174147.6  RSN  5 0.4 1.5LRSN                1
 GAP=134        0.94       5.1     4.8  6.9 -0.2295E+01  0.3859E+01  0.1470E+01E
 Epicentro: LOS SANTOS - SANTANDER                                             3
 ACTION:UPD 16-10-29 15:32 OP:rebc STATUS:               ID:20160806230024 L   I
 OLDACT:REG 16-08-07 02:45 OP:ak   STATUS:               ID:20160806225741     3
 2016-08-06-2258-00M.COL___362                                                 6
 STAT SP IPHASW D HRMM SECON CODA AMPLIT PERI AZIMU VELO AIN AR TRES W  DIS CAZ7
 BAR2 EZ EP       23 0 43.86                             171   -0.3110 21.2 182 
 BAR2 EZ ES       23 0 59.57                             171   -0.0510 21.2 182 
 BAR2 EZ I        23 1  0.82                                           21.2 182 
 BRR  HZ EP       23 0 46.03                             153    0.4210 69.3 301 
 BRR  HN ES       23 1  2.77                             153    0.5910 69.3 301 
 BRR  HZ I        23 1  6.68         6.1 0.23                          69.3 301 
 PAM  EZ EP       23 0 47.04                             150    0.0610 80.8  40 
 PAM  EN ES       23 1  4.20                             150   -0.4210 80.8  40 
 PAM  EZ I        23 1  6.27         9.5 0.50                          80.8  40 
 RUS  HZ EP       23 0 48.49                             145    0.3010 99.0 174 
 RUS  HN ES       23 1  6.87                             145    0.1010 99.0 174 
 RUS  HZ I        23 1  7.93         4.9 0.36                          99.0 174 
 PTB  HZ EP       23 0 50.91                             133   -0.26 9  144 259 
 PTB  HN ES       23 1 11.56                             133   -0.52 9  144 259 
 PTB  HZ I        23 1 13.83         2.9 0.14                           144 259 
                                                                                
