 2014  9 6 2034  9.2 L   6.221 -73.025174.0  RSN  4 0.7 1.6LRSN                1
 GAP=213        1.63      12.8    19.8 14.8 -0.1362E+03 -0.5884E+02  0.6534E+02E
 Epicentro: COROMORO - SANTANDER                                               3
 ACTION:UPD 14-10-03 23:02 OP:nd   STATUS:               ID:20140906203409 L   I
 OLDACT:DUP 14-09-07 07:43 OP:stll STATUS:               ID:20140906202921d    3
 2014-09-06-2029-20M.COL___262                                                 6
 STAT SP IPHASW D HRMM SECON CODA AMPLIT PERI AZIMU VELO AIN AR TRES W  DIS CAZ7
 RUS  HZ EP       2034 33.45                             168    0.5210 36.8 190 
 RUS  HN ES       2034 52.04                             168    0.6310 36.8 190 
 RUS  HZ I        2034 53.71         5.3 0.22            167           36.8 190 
 BAR2 SZ EP       2034 32.17                             165   -0.6010 44.6 337 
 BAR2 SZ ES       2034 50.66                             165   -0.4810 44.6 337 
 BAR2 SZ I        2034 51.91         7.3 0.36            168           44.6 337 
 SPBC HE ES       2035  0.03                             141    0.5310  132 242 
 CHI  HZ EP       2034 43.59                             130    0.48 9  193 204 
 CHI  HZ I        2034 44.12         3.8 0.32            131            193 204 
 CHI  HE ES       2035  8.34                             130   -1.21 9  193 204 
                                                                                
