 2017  4 6 2314 46.6 L   6.786 -73.171142.0  RSN  9 0.6 1.9LRSN                1
 GAP=134        1.35       5.0     5.5  8.3 -0.4916E+00  0.1085E+02  0.1322E+02E
 Epicentro: LOS SANTOS - SANTANDER                                             3
 ACTION:UPD 17-05-30 21:09 OP:jn   STATUS:               ID:20170406231446 L   I
 OLDACT:REG 17-04-07 05:59 OP:dnl  STATUS:               ID:20170406230649     3
 2017-04-06-2308-00M.COL___368                                                 6
 STAT SP IPHASW D HRMM SECON CODA AMPLIT PERI AZIMU VELO AIN AR TRES W  DIS CAZ7
 BAR2 EZ EP       2315  5.31                             171   -0.4010 21.5 183 
 BAR2 EZ ES       2315 20.96                             171    0.3210 21.5 183 
 BAR2 EZ I        2315 23.30        26.9 0.26            169           21.5 183 
 BRR  HZ EP       2315  7.46                             153    0.2410 69.5 301 
 BRR  HN ES       2315 24.33                             153    1.0110 69.5 301 
 BRR  HZ I        2315 26.94        21.7 0.30            152           69.5 301 
 PAM  EZ EP       2315  8.41                             150   -0.1610 80.4  40 
 PAM  EN ES       2315 25.46                             150   -0.2710 80.4  40 
 PAM  EZ I        2315 27.66        12.5 0.42            154           80.4  40 
 RUS  HZ EP       2315  9.46                             144   -0.4010 99.3 174 
 RUS  HN ES       2315 28.11                             144    0.0810 99.3 174 
 RUS  HZ I        2315 29.38        13.2 0.34            144           99.3 174 
 PTB  HZ EP       2315 12.39                             132   -0.57 9  145 259 
 PTB  HN ES       2315 32.97                             132   -0.56 9  145 259 
 PTB  HZ I        2315 34.31         7.3 0.16            132            145 259 
 ZAR  HZ EP   2   2315 20.92                             122    2.36 4  202 293 
 ZAR  HN ES       2315 43.45                             122   -0.07 9  202 293 
 ZAR  HZ I        2315 48.69         8.7 0.26            123            202 293 
 NOR  HZ EP   2   2315 22.00                             118    0.26 4  232 234 
 NOR  HE ES       2315 48.26                             118   -0.92 8  232 234 
 NOR  HZ I        2315 57.35         6.6 0.18            119            232 234 
 CHI  HZ EP       2315 23.81                             117   -0.02 8  246 195 
 CHI  HN ES       2315 53.70                             117    0.82 8  246 195 
 CHI  HZ I        2315 59.26         4.2 0.36            118            246 195 
 PRA  HZ EP       2315 39.47                             106   -0.18 6  389 209 
 PRA  HN ES       2316 21.95                             106    0.90 6  389 209 
 PRA  HZ I        2316 27.81         4.6 0.36            107            389 209 
                                                                                
