 2013  7 6 2216 43.8 L   6.833 -73.147146.2  RSN 14 0.5 2.3LRSN                1
 GAP= 70        1.04       3.1     3.9  6.3 -0.8803E+00  0.4261E+01  0.2941E+01E
 Epicentro: LOS SANTOS - SANTANDER                                             3
 ACTION:UPD 13-08-12 10:35 OP:ep   STATUS:               ID:20130706221643 L   I
 OLDACT:REG 13-07-07 01:10 OP:carl STATUS:               ID:20130706220959     3
 2013-07-06-2209-59M.COL___266                                                 6
 STAT SP IPHASW D HRMM SECON CODA AMPLIT PERI AZIMU VELO AIN AR TRES W  DIS CAZ7
 BAR2 SZ EP       2217  3.66                             169    0.1110 26.9 188 
 BAR2 SZ ES   1   2217 18.21                             169   -0.75 7 26.9 188 
 BAR2 SZ I        2217 20.47        50.4 0.28            167           26.9 188 
 GIR2 SZ EP       2217  3.62                             169    0.2010 27.6 349 
 BRR  HZ IP     D 2217  5.36                             153    0.4710 69.4 296 
 BRR  HE ES   1   2217 22.42                             153    1.08 7 69.4 296 
 BRR  HZ I        2217 25.24        45.7 0.38            151           69.4 296 
 PAM  SZ EP       2217  6.44                             152    0.5410 74.7  41 
 PAM  SN ES   1   2217 23.36                             152    0.23 7 74.7  41 
 PAM  SZ I        2217 25.31        73.5 0.50            157           74.7  41 
 RUS  HZ EP       2217  7.71                             143   -0.1410  104 176 
 RUS  HN ES   1   2217 26.42                             143   -0.20 7  104 176 
 RUS  HZ I        2217 28.26        11.9 0.46            145            104 176 
 PTB  HZ EP       2217 10.13                             132   -0.72 9  148 257 
 PTB  HN ES   1   2217 31.22                             132   -0.73 7  148 257 
 PTB  HZ I        2217 36.82        33.7 0.32            132            148 257 
 TAM  HZ IP     C 2217 12.07                             130    0.46 9  156 106 
 OCA  HZ EP   1   2217 11.06                             130   -0.74 7  157 353 
 OCA  HN ES       2217 33.05                             130   -0.59 9  157 353 
 OCA  HZ I        2217 37.26        30.0 0.38            133            157 353 
 ZAR  HZ EP   1   2217 16.12                             123    0.00 6  203 291 
 ZAR  HE ES   1   2217 41.72                             123    0.40 6  203 291 
 ZAR  HZ I        2217 47.21        27.1 0.20            123            203 291 
 NOR  HZ EP       2217 19.92                             118    0.15 8  237 234 
 NOR  HN ES   1   2217 47.59                             118   -0.23 6  237 234 
 NOR  HZ I        2217 54.06        16.0 0.26            119            237 234 
 SML  HZ EP       2217 19.65                             118   -0.43 8  240 335 
 SML  HE ES       2217 48.16                             118   -0.22 8  240 335 
 CHI  HZ EP   1   2217 21.95                             117    0.05 6  252 195 
 CHI  HN ES   1   2217 51.36                             117   -0.26 6  252 195 
 CHI  HZ I        2217 55.28         5.9 0.22            119            252 195 
 HEL  HZ EP   2   2217 25.13                             115    1.01 4  273 255 
 HEL  HN ES       2217 56.17                             115    0.61 8  273 255 
 HEL  HZ I        2218  3.20        14.5 0.24            116            273 255 
 PRA  HZ EP       2217 37.36                             106   -0.34 6  395 209 
 PRA  HN ES       2218 19.73                             106   -0.01 6  395 209 
 PRA  HZ I        2218 27.19         9.2 0.34            108            395 209 
                                                                                
