 2017  8 6 2002 14.2 L   6.751 -73.166144.0  RSN  5 0.2 1.5LRSN                1
 GAP=136        0.63       3.3     2.9  5.2 -0.2567E+00  0.4644E+01 -0.1649E+01E
 Epicentro: LOS SANTOS - SANTANDER                                             3
 ACTION:UPD 17-09-04 20:17 OP:rebc STATUS:               ID:20170806200214 L   I
 OLDACT:REG 17-08-07 02:33 OP:lv   STATUS:               ID:20170806195739     3
 2017-08-06-1958-00M.COL___393                                                 6
 STAT SP IPHASW D HRMM SECON CODA AMPLIT PERI AZIMU VELO AIN AR TRES W  DIS CAZ7
 BAR2 EZ EP       20 2 33.69                             173    0.1610 17.7 186 
 BAR2 EZ ES       20 2 48.75                             173    0.1510 17.7 186 
 BAR2 EZ I        20 2 50.55         7.5 0.08            172           17.7 186 
 PAM  EZ EP       20 2 36.51                             149   -0.0810 83.0  38 
 PAM  EN ES       20 2 53.85                             149   -0.1910 83.0  38 
 PAM  EZ I        20 2 55.62         5.3 0.41            152           83.0  38 
 RUS  HZ EP       20 2 37.47                             145    0.0510 95.4 175 
 RUS  HN ES       20 2 55.60                             145    0.0810 95.4 175 
 RUS  HZ I        20 2 56.76         3.5 0.25            148           95.4 175 
 PTB  HZ EP       20 2 40.63                             132   -0.12 9  145 261 
 PTB  HN ES       20 3  1.00                             132   -0.45 9  145 261 
 PTB  HZ I        20 3  7.25         3.5 0.08            132            145 261 
 ZAR  HN ES       20 3 12.23                             122    0.46 9  204 294 
 ZAR  HZ I        20 3 17.21         6.0 0.16            123            204 294 
                                                                                
