 2015 11 6 2048 10.5 L   6.922 -73.105153.1  RSN  4 0.3 1.9LRSN                1
 GAP=189        0.81       9.0     4.7  7.7 -0.9452E+01  0.7617E+01  0.3328E+02E
 Epicentro: PIEDECUESTA - SANTANDER                                            3
 ACTION:UPD 15-12-28 16:09 OP:cam  STATUS:               ID:20151106204810 L   I
 OLDACT:UP  15-11-07 06:38 OP:mh   STATUS:               ID:20151106204749     3
 OLDACT:UP  15-11-07 06:33 OP:mh   STATUS:               ID:20151106204749     3
 OLDACT:UP  15-11-07 06:32 OP:mh   STATUS:               ID:20151106204749     3
 OLDACT:REG 15-11-07 04:06 OP:mh   STATUS:               ID:20151106204749     3
 2015-11-06-2047-49M.COL___316                                                 6
 STAT SP IPHASW D HRMM SECON CODA AMPLIT PERI AZIMU VELO AIN AR TRES W  DIS CAZ7
 PAM  EZ EP       2048 33.00                             156    0.2410 64.3  44 
 PAM  EN ES       2048 50.22                             156    0.0610 64.3  44 
 PAM  EZ I        2048 52.33         6.3 0.62            141           64.3  44 
 BRR  HZ EP       2048 31.73                             154   -0.6110 70.1 287 
 BRR  HN ES       2048 49.38                             154   -0.0310 70.1 287 
 BRR  HZ I        2049 48.25        40.1 0.62            131           70.1 287 
 ZAR  HZ EP       2048 43.78                             124    0.43 9  204 288 
 ZAR  HN ES       2049  9.00                             124    0.00 9  204 288 
 ZAR  HZ I        2049 13.98         7.4 0.26            124            204 288 
 GUY2CHZ EP       2048 55.44                             113   -0.27 7  313 233 
 GUY2CHN ES   1   2049 31.61                             113    0.60 5  313 233 
 GUY2CHZ I        2049 36.05         4.0 0.34                           313 233 
                                                                                
