 2012 12 6 2105 21.4 L   6.778 -73.166142.9  RSN  7 0.2 2.1LRSN                1
 GAP=135        0.50       2.9     2.5  4.2 -0.9125E+00  0.3292E+01  0.3397E+00E
 Epicentro: LOS SANTOS - SANTANDER                                             3
 ACTION:UPD 13-01-04 14:26 OP:ep   STATUS:               ID:20121206210521 L   I
 2012-12-06-2100-00M.COL___242                                                 6
 STAT SP IPHASW D HRMM SECON CODA AMPLIT PERI AZIMU VELO AIN AR TRES W  DIS CAZ7
 BAR2 SZ EP       21 5 40.85                             171    0.2410 20.7 185 
 BAR2 SZ ES   1   21 5 55.14                             171   -0.47 7 20.7 185 
 BAR2 SZ I        21 5 58.54        39.2 0.32                          20.7 185 
 GIR2 SZ EP   1   21 5 40.97                             166    0.20 7 33.4 355 
 PAM  SZ EP       21 5 43.49                             149    0.0010 80.6  40 
 PAM  SN ES       21 6  0.72                             149   -0.0110 80.6  40 
 PAM  SZ I        21 6  2.39         6.9 0.20                          80.6  40 
 RUS  HZ EP       21 5 44.69                             144    0.0010 98.4 175 
 RUS  HE ES   1   21 6  3.02                             144    0.15 7 98.4 175 
 RUS  HE I        21 6  4.69        18.3 0.14                          98.4 175 
 PTB  HZ EP       21 5 47.69                             132   -0.18 9  145 260 
 PTB  HN ES       21 6  8.63                             132    0.10 9  145 260 
 PTB  HZ I        21 6 14.71        17.7 0.20                           145 260 
 ZAR  HZ EP   1   21 5 53.11                             122   -0.41 6  203 293 
 ZAR  HE ES   1   21 6 18.82                             122    0.24 6  203 293 
 ZAR  HZ I        21 6 24.90        15.9 0.26                           203 293 
 PRA  HZ EP   1   21 6 14.30                             106   -0.13 4  389 209 
 PRA  HZ I        21 7  3.70         6.9 0.66                           389 209 
                                                                                
