 2016  1 6 2103 39.1 L   6.529 -73.526111.7  RSN 14 0.4 2.2LRSN                1
 GAP= 66        0.89       2.4     3.6  5.4 -0.2365E+01  0.8437E+01 -0.3772E+01E
 Epicentro: EL CARMEN - SANTANDER                                              3
 ACTION:UPD 16-03-09 23:23 OP:cam  STATUS:               ID:20160106210339 L   I
 OLDACT:REG 16-01-07 02:59 OP:dnl  STATUS:               ID:20160106205748     3
 2016-01-06-2057-48M.COL___286                                                 6
 STAT SP IPHASW D HRMM SECON CODA AMPLIT PERI AZIMU VELO AIN AR TRES W  DIS CAZ7
 BAR2 EZ EP     D 21 3 55.64                             159    0.4910 38.6  80 
 BAR2 EZ ES       21 4  7.43                             159   -0.2610 38.6  80 
 BRR  HZ EP   2   21 3 56.69                             147    0.31 5 67.2 342 
 BRR  HN ES       21 4  9.70                             147   -0.1910 67.2 342 
 BRR  HZ I        21 4 11.18        26.2 0.14            144           67.2 342 
 RUS  HZ EP       21 3 58.54                             140    0.1110 85.7 145 
 RUS  HE ES       21 4 13.81                             140    0.2810 85.7 145 
 PTB  HZ IP     D 21 3 58.43                             134   -0.7710  103 271 
 PTB  HN ES   4   21 4 12.93                             134   -1.98 0  103 271 
 PTB  HZ I        21 4 14.79        30.7 0.08            132            103 271 
 SPBC HZ EP       21 4  0.42                             131    0.0910  114 212 
 SPBC HE ES       21 4 17.30                             131    0.4010  114 212 
 SPBC HZ I        21 4 19.52        34.0 0.06            130            114 212 
 PAM  EZ EP       21 4  1.81                             128   -0.3510  128  45 
 PAM  EE ES       21 4 20.09                             128   -0.0810  128  45 
 PAM  EZ I        21 4 21.70        17.8 0.17            127            128  45 
 ZAR  HZ EP       21 4  7.69                             117    0.60 9  182 306 
 ZAR  HE ES   2   21 4 28.89                             117   -0.05 4  182 306 
 ZAR  HZ I        21 4 32.34        22.9 0.18            115            182 306 
 NOR  HZ EP       21 4  7.18                             117   -0.11 9  183 234 
 NOR  HE ES   2   21 4 28.36                             117   -0.94 4  183 234 
 NOR  HZ I        21 4 33.03        11.5 0.18            115            183 234 
 OCA  HZ EP       21 4  7.78                             116   -0.46 9  190   7 
 OCA  HN ES       21 4 30.98                             116   -0.01 9  190   7 
 OCA  HZ I        21 4 38.59        53.9 0.23            114            190   7 
 GUY2CHZ EP   4   21 4 16.71                             109    1.39 0  250 235 
 GUY2CHE ES   4   21 4 45.03                             109    1.44 0  250 235 
 GUY2CHZ I        21 4 50.43         7.3 0.46                           250 235 
 SML  HZ EP       21 4 15.72                             108   -0.02 8  258 347 
 SML  HE ES       21 4 44.82                             108    0.48 8  258 347 
 SML  HZ I        21 4 48.70        30.2 0.07            107            258 347 
 URE  HN ES   4   21 4 42.42                             108   -2.22 0  260 302 
 URE  HZ I        21 4 46.95        14.0 0.18            107            260 302 
 PRA  HZ EP   4   21 4 27.66                             102    1.55 0  346 206 
 PRA  HN ES   2   21 5  2.03                             102   -0.76 3  346 206 
 PRA  HZ I        21 5  8.53        11.2 0.25            101            346 206 
 LL6C HZ EP   2   21 4 27.46                             101    0.23 3  356   5 
 LL6C HE ES   2   21 5  5.99                             101    1.19 3  356   5 
                                                                                
