 2013  6 6 2243 30.0 L   6.781 -73.132141.2  RSN 14 0.6 2.5LRSN                1
 GAP= 72        1.35       3.5     3.6  6.1 -0.2638E+01  0.3906E+01  0.2943E+01E
 Epicentro: LOS SANTOS - SANTANDER                                             3
 ACTION:UPD 14-01-08 09:53 OP:ep   STATUS:               ID:20130606224330 L   I
 OLDACT:UP  13-06-07 01:16 OP:stll STATUS:               ID:20130606223849     3
 OLDACT:REG 13-06-06 22:40 OP:stll STATUS:               ID:20130606223849     3
 2013-06-06-2238-49M.COL___232                                                 6
 STAT SP IPHASW D HRMM SECON CODA AMPLIT PERI AZIMU VELO AIN AR TRES W  DIS CAZ7
 BAR2 SZ IP     C 2243 49.20                             171    0.1310 21.6 195 
 BAR2 SZ ES       2244  4.07                             171    0.1410 21.6 195 
 BAR2 SZ I        2244  5.40        43.7 0.16            169           21.6 195 
 GIR2 SZ EP       2243 49.22                             166    0.0010 33.6 348 
 GIR2 SZ ES       2244  4.14                             166   -0.0510 33.6 348 
 BRR  HZ IP     D 2243 51.04                             151    0.2310 73.5 299 
 BRR  HN ES       2244  7.99                             151    0.9610 73.5 299 
 BRR  HE I        2244  8.61       187.4 0.22            150           73.5 299 
 PAM  SZ EP       2243 52.12                             150    0.3210 78.1  38 
 PAM  SZ I        2243 52.32        83.1 0.22            152           78.1  38 
 PAM  SN ES       2244  9.22                             150    0.4410 78.1  38 
 RUS  HZ EP       2243 53.21                             143    0.0410 98.4 177 
 RUS  HN ES       2244 11.16                             143   -0.0610 98.4 177 
 RUS  HE I        2244 12.91        39.4 0.20            143           98.4 177 
 GRA  SZ EP       2243 55.04                             136    0.0410  127  17 
 GRA  SZ ES       2244 14.35                             136   -0.1210  127  17 
 PTB  HZ EP       2243 56.22                             131   -0.50 9  149 260 
 PTB  HN ES       2244 16.79                             131   -0.75 9  149 260 
 PTB  HE I        2244 18.73        33.9 0.24            130            149 260 
 CAPV BZ IP     D 2243 57.19                             131    0.07 9  150  37 
 CAPV BZ ES       2244 17.93                             131   -0.33 9  150  37 
 TAM  HZ IP     D 2243 57.53                             130    0.37 9  153 104 
 TAM  HZ I        2243 57.92        18.6 0.40            131            153 104 
 TAM  HN ES       2244 18.08                             130   -0.25 9  153 104 
 OCA  HZ EP       2243 57.86                             128   -0.34 9  163 353 
 OCA  HN ES       2244 19.23                             128   -0.94 9  163 353 
 OCA  HE I        2244 22.68        97.4 0.22            129            163 353 
 ZAR  HZ EP       2244  2.21                             121   -0.19 8  206 293 
 ZAR  HN ES       2244 27.61                             121   -0.04 8  206 293 
 ZAR  HE I        2244 33.79        98.4 0.16            121            206 293 
 CHI  HZ EP       2244  7.56                             116    0.26 8  247 196 
 CHI  HN ES       2244 34.82                             116   -1.55 8  247 196 
 CHI  HE I        2244 41.78        13.0 0.44            116            247 196 
 HEL  HZ EP       2244 11.37                             114    1.26 8  273 256 
 HEL  HN ES       2244 40.76                             114   -0.62 8  273 256 
 HEL  HE I        2244 48.45        18.1 0.44            113            273 256 
 GUY2CHZ EP       2244 13.60                             111    0.18 7  301 235 
 GUY2CHE ES       2244 48.65                             111    1.37 7  301 235 
 GUY2CHN I        2244 57.97         8.6 0.62                           301 235 
                                                                                
