 2017 10 6 2142 42.7 L   6.812 -73.112140.0  RSN  5 0.5 1.4LRSN                1
 GAP=140        1.16       5.4     7.1  9.5 -0.2606E-01  0.3198E+02 -0.7695E-01E
 Epicentro: LOS SANTOS - SANTANDER                                             3
 ACTION:UPD 17-11-07 19:29 OP:rebc STATUS:               ID:20171006214242 L   I
 OLDACT:UP  17-10-07 04:37 OP:dani STATUS:               ID:20171006213750     3
 OLDACT:REG 17-10-07 03:47 OP:dani STATUS:               ID:20171006213750     3
 2017-10-06-2138-00M.COL___441                                                 6
 STAT SP IPHASW D HRMM SECON CODA AMPLIT PERI AZIMU VELO AIN AR TRES W  DIS CAZ7
 BAR2 EZ EP       2143  1.28                             169   -0.4510 25.5 198 
 BAR2 EZ ES       2143 16.98                             169    0.4510 25.5 198 
 BAR2 EZ I        2143 19.38         5.8 0.15            170           25.5 198 
 PAM  EZ EP       2143  4.08                             151   -0.0610 74.0  38 
 PAM  EN ES       2143 21.29                             151    0.4610 74.0  38 
 PAM  EZ I        2143 23.37         6.5 0.72            154           74.0  38 
 RUS  HZ EP       2143  5.65                             143   -0.3710  102 178 
 RUS  HN ES       2143 23.79                             143   -0.3810  102 178 
 RUS  HZ I        2143 24.84         3.2 0.39            147            102 178 
 ZAR  HZ EP       2143 15.15                             121    0.03 8  207 291 
 ZAR  HN ES       2143 40.11                             121   -0.26 8  207 291 
 ZAR  HZ I        2143 45.54         2.9 0.17            122            207 291 
 PRA  HN ES       2144 19.82                             106    1.53 6  395 210 
                                                                                
