 2010  3 6 2237 20.4 L   7.155 -74.120  8.0  RSN  5 0.5 1.7LRSN                1
 GAP=221        0.78      22.4     5.6 22.4  0.6612E+02  0.9063E+02  0.4541E+03E
 Epicentro: BARRANCABERMEJA - SANTANDER                                        3
 ACTION:UP  10-08-24 09:52 OP:vdl  STATUS:               ID:20100306223720 L   I
 2010-03-06-2234-41S.COL___101                                                 6
 STAT SP IPHASW D HRMM SECON CODA AMPLIT PERI AZIMU VELO SNR AR TRES W  DIS CAZ7
 BRR  HZ IP       2237 28.00                              94     0.110   45  97 
 BRR  HZ I        2237 28.15        60.6 0.14                            45  97 
 BRR  HE ES   2   2237 33.79                              94     0.0 5   45  97 
 BAR2 SZ EP   2   2237 38.69                              92    -0.9 5  121 121 
 RUS  BZ EP       2237 48.78                              56     0.3 9  181 141 
 RUS  BZ I        2237 49.37         8.6 0.22                           181 141 
 RUS  BN ES   2   2238  9.89                              56    -0.5 4  181 141 
 HEL  HZ EP       2237 49.24                              56    -0.1 9  189 236 
 HEL  HN ES   3   2238 10.59                              56    -1.4 2  189 236 
 HEL  HZ I        2238 11.90         5.2 0.25                           189 236 
 RREF BZ EP   2   2238  1.88                              56     0.3 4  284 209 
 RREF BN ES   2   2238 34.50                              56     0.8 4  284 209 
 RREF BZ I        2238 39.88         3.7 0.17                           284 209 
                                                                                
