 2016  8 6 2143 51.8 L   6.805 -73.139145.9  RSN  9 0.4 1.8LRSN                1
 GAP=137        0.84       3.6     3.4  5.4 -0.8361E+00  0.5290E+01  0.1674E+01E
 Epicentro: LOS SANTOS - SANTANDER                                             3
 ACTION:UPD 16-10-29 15:32 OP:rebc STATUS:               ID:20160806214351 L   I
 OLDACT:REG 16-08-07 02:41 OP:ak   STATUS:               ID:20160806212828     3
 2016-08-06-2138-00M.COL___368                                                 6
 STAT SP IPHASW D HRMM SECON CODA AMPLIT PERI AZIMU VELO AIN AR TRES W  DIS CAZ7
 BAR2 EZ EP       2144 11.39                             170   -0.0310 24.0 192 
 BAR2 EZ ES       2144 26.53                             170   -0.2210 24.0 192 
 BAR2 EZ I        2144 27.92        10.2 0.15                          24.0 192 
 BRR  HZ EP       2144 13.18                             152    0.2310 71.6 298 
 BRR  HN ES       2144 29.72                             152    0.2510 71.6 298 
 BRR  HZ I        2144 30.96        14.4 0.07                          71.6 298 
 PAM  EZ EP       2144 14.31                             151    0.3810 76.5  39 
 PAM  EN ES       2144 31.20                             151   -0.0310 76.5  39 
 PAM  EZ I        2144 33.29        11.1 0.54                          76.5  39 
 RUS  HZ EP       2144 15.21                             144   -0.3510  101 177 
 RUS  HN ES       2144 34.11                             144   -0.0110  101 177 
 RUS  HZ I        2144 35.23         4.1 0.38                           101 177 
 PTB  HZ EP       2144 18.19                             132   -0.62 9  149 259 
 PTB  HN ES       2144 39.32                             132   -0.60 9  149 259 
 PTB  HZ I        2144 41.81         7.8 0.13                           149 259 
 SPBC HZ EP       2144 20.47                             129    0.12 9  164 219 
 SPBC HN ES       2144 43.24                             129    0.59 9  164 219 
 SPBC HZ I        2144 47.52         5.5 0.06                           164 219 
 ZAR  HZ EP   2   2144 24.36                             122    0.09 4  205 292 
 ZAR  HN ES       2144 49.54                             122   -0.08 9  205 292 
 ZAR  HZ I        2144 54.56         9.1 0.48                           205 292 
 HEL  HZ EP   2   2144 31.63                             115   -0.45 4  273 256 
 HEL  HN ES       2145  4.05                             115    0.53 8  273 256 
 HEL  HZ I        2145  7.99         4.2 0.36                           273 256 
 GUY2CHZ EP   2   2144 35.85                             112    0.37 4  302 235 
 GUY2CHN ES   4   2145 11.29                             112    1.71 0  302 235 
 GUY2CHZ I        2145 18.24         3.2 0.38                           302 235 
                                                                                
