 2015  2 6 2227  4.7 L   6.800 -73.132148.0  RSN 20 0.4 2.5LRSN                1
 GAP= 72        0.99       2.6     2.9  4.7 -0.5106E+00  0.2914E+01  0.1865E+01E
 Epicentro: LOS SANTOS - SANTANDER                                             3
 ACTION:UPD 15-04-30 21:23 OP:nd   STATUS:               ID:20150206222704 L   I
 OLDACT:REG 15-02-07 05:28 OP:spq  STATUS:               ID:20150206221749     3
 2015-02-06-2217-49M.COL___293                                                 6
 STAT SP IPHASW D HRMM SECON CODA AMPLIT PERI AZIMU VELO AIN AR TRES W  DIS CAZ7
 BAR2 EZ EP     D 2227 24.50                             171   -0.1510 23.6 194 
 BAR2 EZ ES   1   2227 39.89                             171   -0.28 7 23.6 194 
 BAR2 EZ I        2227 42.21        55.7 0.28            168           23.6 194 
 BRR  HZ EP       2227 26.51                             153    0.3010 72.5 298 
 BRR  HE ES       2227 43.82                             153    0.8710 72.5 298 
 BRR  HZ I        2227 46.13        39.4 0.18            152           72.5 298 
 PAM  SZ EP     C 2227 27.23                             152    0.0910 76.5  39 
 PAM  SE ES       2227 44.57                             152   -0.0510 76.5  39 
 PAM  SZ I        2227 46.69        51.1 0.20            152           76.5  39 
 RUS  HZ EP       2227 28.40                             144   -0.3110  100 177 
 RUS  HN ES       2227 47.25                             144   -0.1510  100 177 
 RUS  HZ I        2227 48.36        20.1 0.38            142            100 177 
 PTB  HZ EP       2227 31.17                             132   -0.85 9  149 259 
 PTB  HE ES       2227 52.79                             132   -0.51 9  149 259 
 PTB  HZ I        2227 58.40        52.1 0.20            131            149 259 
 TAM  HZ EP     D 2227 32.65                             131    0.18 9  154 105 
 TAM  HZ I        2227 53.47        26.8 0.34            130            154 105 
 TAM  HN ES       2227 54.40                             131    0.31 9  154 105 
 OCA  HZ EP       2227 33.02                             130   -0.23 9  160 353 
 OCA  HN ES       2227 55.27                             130   -0.21 9  160 353 
 OCA  HZ I        2228  0.39        32.4 0.28            129            160 353 
 SPBC HZ EP       2227 33.41                             129   -0.09 9  164 219 
 SPBC HE ES       2227 56.07                             129    0.14 9  164 219 
 SPBC HZ I        2228  1.35        72.1 0.12            127            164 219 
 ZAR  HZ EP       2227 37.11                             123   -0.36 8  205 292 
 ZAR  HN ES       2228  3.06                             123    0.05 8  205 292 
 ZAR  HZ I        2228  8.95        43.1 0.26            122            205 292 
 NOR  HZ EP       2227 40.38                             119   -0.35 8  236 235 
 NOR  HE ES       2228  9.06                             119    0.26 8  236 235 
 NOR  HZ I        2228 12.25        29.7 0.22            117            236 235 
 SML  HZ EP       2227 41.21                             118   -0.35 8  244 335 
 SML  HE ES   1   2228 10.56                             118    0.28 6  244 335 
 SML  HZ I        2228 14.26        56.6 0.10            117            244 335 
 CHI  HZ EP       2227 42.54                             118   -0.06 8  249 195 
 CHI  HN ES       2228 11.56                             118   -0.58 8  249 195 
 CHI  HZ I        2228 17.84        11.6 0.28            116            249 195 
 ROSC BZ EP       2227 43.97                             117    0.91 8  253 211 
 ROSC BN ES   4   2228 16.13                             117    3.18 0  253 211 
 ROSC BZ I        2228 22.27        34.8 0.45            115            253 211 
 HEL  HZ EP   4   2227 46.70                             115    1.47 0  273 256 
 HEL  HE ES   1   2228 17.41                             115    0.61 6  273 256 
 HEL  HZ I        2228 23.21        17.7 0.36            114            273 256 
 GUY2CHZ EP       2227 49.57                             113    0.98 7  302 235 
 GUY2CHE ES   4   2228 25.39                             113    2.60 0  302 235 
 GUY2CHZ I        2228 31.40        29.4 0.76                           302 235 
 PTGC HZ EP   4   2227 47.34                             112   -1.30 0  308 159 
 RREF HN ES   4   2228 29.24                             111    1.97 0  323 230 
 RREF HZ I        2228 33.87        24.1 0.30            110            323 230 
 TOL  SZ EP       2227 53.93                             110    0.73 7  345 225 
 TOL  SN ES   4   2228 33.18                             110    2.18 0  345 225 
 TOL  SZ I        2228 38.47        17.9 0.40            108            345 225 
 ANIL HZ EP   1   2227 54.80                             109    0.05 5  358 225 
 ANIL HE ES   4   2228 35.70                             109    1.95 0  358 225 
 ANIL HZ I        2228 38.61         5.0 0.34            108            358 225 
 ORTC HZ EP       2227 58.50                             107   -0.34 6  396 216 
 ORTC HN ES   4   2228 42.03                             107    1.00 0  396 216 
 ORTC HZ I        2228 47.48        10.4 0.44            105            396 216 
 PAL  HZ EP       2228  0.02                             106   -0.10 6  407 239 
 PAL  HN ES   4   2228 44.20                             106    0.88 0  407 239 
 PAL  HZ I        2228 48.96         5.6 0.44            105            407 239 
                                                                                
