 2017  2 6 2058 19.7 L   6.817 -73.155146.2  RSN 11 0.3 2.1LRSN                1
 GAP=135        0.75       2.7     2.8  4.4  0.1052E+01  0.4711E+01  0.3100E+01E
 Epicentro: LOS SANTOS - SANTANDER                                             3
 ACTION:UPD 17-05-24 15:33 OP:jn   STATUS:               ID:20170206205819 L   I
 OLDACT:REG 17-02-07 01:54 OP:lv   STATUS:               ID:20170206204748     3
 2017-02-06-2048-00M.COL___334                                                 6
 STAT SP IPHASW D HRMM SECON CODA AMPLIT PERI AZIMU VELO AIN AR TRES W  DIS CAZ7
 BAR2 EZ EP       2058 39.19                             170   -0.2610 25.1 187 
 BAR2 EZ ES       2058 54.69                             170   -0.1410 25.1 187 
 BAR2 EZ I        2058 56.10        54.4 0.23            169           25.1 187 
 BRR  HN ES       2058 57.82                             153    0.5410 69.4 298 
 PAM  EZ EP       2058 42.43                             151    0.4910 76.6  41 
 PAM  EN ES       2058 59.23                             151   -0.0410 76.6  41 
 PAM  EZ I        2059  1.63        29.1 0.56            155           76.6  41 
 RUS  HZ EP       2058 43.43                             143   -0.2310  103 176 
 RUS  HN ES       2059  1.98                             143   -0.3610  103 176 
 RUS  HZ I        2059  3.10        12.2 0.28            145            103 176 
 PTB  HZ EP       2058 46.56                             132   -0.11 9  147 258 
 PTB  HN ES       2059  7.51                             132   -0.19 9  147 258 
 PTB  HZ I        2059 13.87        11.8 0.17            132            147 258 
 ZAR  HZ EP       2058 51.86                             123   -0.17 9  202 292 
 ZAR  HN ES       2059 17.03                             123   -0.20 9  202 292 
 ZAR  HZ I        2059 24.25        18.1 0.27            123            202 292 
 NOR  HZ EP       2058 55.64                             119    0.13 8  235 234 
 NOR  HN ES       2059 24.14                             119    0.71 8  235 234 
 NOR  HZ I        2059 26.56         6.7 0.25            119            235 234 
 CHI  HZ EP       2058 57.68                             117    0.06 8  250 195 
 CHI  HN ES       2059 27.46                             117    0.28 8  250 195 
 CHI  HZ I        2059 30.45         9.8 0.64            118            250 195 
 URE  HN ES       2059 32.41                             114   -0.13 7  282 292 
 DBB  EN ES       2059 43.54                             110   -0.49 7  338 274 
 DBB  EZ I        2059 44.33         4.5 0.26            111            338 274 
 ORTC HZ EP       2059 13.92                             106    0.15 6  396 216 
 ORTC HN ES       2059 55.95                             106    0.02 6  396 216 
 ORTC HZ I        21 0  1.03         4.4 0.37            107            396 216 
                                                                                
