 2017 11 6 2219 21.7 L   6.825 -73.095138.0  RSN  7 0.4 1.2LRSN                1
 GAP=142        1.11       5.0     4.7  7.5 -0.8989E+00  0.1140E+02  0.5521E-01E
 Epicentro: LOS SANTOS - SANTANDER                                             3
 ACTION:UPD 17-12-12 19:53 OP:rebc STATUS:               ID:20171106221921 L   I
 OLDACT:REG 17-11-07 03:30 OP:dhb  STATUS:               ID:20171106221741     3
 2017-11-06-2218-00M.COL___423                                                 6
 STAT SP IPHASW D HRMM SECON CODA AMPLIT PERI AZIMU VELO AIN AR TRES W  DIS CAZ7
 BAR2 EZ EP       2219 40.52                             168   -0.0010 27.5 201 
 BAR2 EZ ES       2219 54.93                             168   -0.2510 27.5 201 
 BAR2 EZ I        2219 59.14         2.9 0.30            170           27.5 201 
 PAM  EZ EP       2219 43.40                             151    0.6210 71.7  37 
 PAM  EN ES       2219 58.53                             151   -0.6710 71.7  37 
 PAM  EZ I        2220  2.08         2.0 0.16            150           71.7  37 
 BRR  HZ EP       2219 42.38                             150    0.1110 75.0 295 
 BRR  HZ I        2219 56.14         6.4 0.45            146           75.0 295 
 BRR  HN ES       2219 59.02                             150    0.7310 75.0 295 
 RUS  HZ EP       2219 44.82                             141   -0.0910  103 179 
 RUS  HE ES       2220  3.28                             141    0.2810  103 179 
 RUS  HZ I        2220  4.59         2.6 0.30            144            103 179 
 PTB  HZ EP       2219 47.87                             129   -0.77 9  154 258 
 PTB  HN ES       2220  9.54                             129   -0.10 9  154 258 
 PTB  HZ I        2220 13.23         1.5 0.18            128            154 258 
 ZAR  HZ EP       2219 54.48                             120    0.36 8  208 291 
 ZAR  HN ES       2220 19.06                             120   -0.33 8  208 291 
 ZAR  HZ I        2220 27.64         1.7 0.30            119            208 291 
 NOR  HN ES       2220 25.75                             116    0.00 8  241 235 
                                                                                
