 2014  1 6 2354 33.8 L   6.793 -73.182156.5  RSN  6 0.5 1.3LRSN                1
 GAP=197        0.98       6.5     7.7 11.0  0.2756E+01 -0.2518E+01  0.1536E+02E
 Epicentro: LOS SANTOS - SANTANDER                                             3
 ACTION:UPD 14-03-13 09:52 OP:ep   STATUS:               ID:20140106235433 L   I
 OLDACT:REG 14-01-06 21:52 OP:mh   STATUS:               ID:20140106235000     3
 2014-01-06-2350-00M.COL___285                                                 6
 STAT SP IPHASW D HRMM SECON CODA AMPLIT PERI AZIMU VELO AIN AR TRES W  DIS CAZ7
 BRR  HZ EP       2354 56.51                             155    0.5210 68.0 301 
 BRR  HN ES       2355 13.23                             155   -0.0410 68.0 301 
 BRR  HZ I        2355 20.13         1.7 0.15            153           68.0 301 
 RUS  HZ EP   1   2354 58.90                             146    0.27 7  100 174 
 RUS  HN ES   2   2355 17.61                             146   -0.36 5  100 174 
 PTB  HZ EP       2355  0.55                             135   -0.79 9  144 259 
 PTB  HN ES   1   2355 22.38                             135   -0.41 7  144 259 
 PTB  HZ I        2355 28.39         2.2 0.16            137            144 259 
 ZAR  HN ES   1   2355 32.64                             125    0.39 6  201 293 
 ZAR  HZ I        2355 38.47         2.9 0.10            128            201 293 
 NOR  HE ES       2355 38.31                             121    0.42 8  231 234 
 SML  HN ES   2   2355 39.45                             120   -0.50 4  243 336 
                                                                                
