 2010  4 6 2323 32.9 L   6.801 -73.041150.1  RSN  5 0.2 1.9LRSN                1
 GAP=263        0.39       4.2     7.1  5.2  0.7700E+01  0.1429E+02  0.1045E+02E
 Epicentro: LOS SANTOS - SANTANDER                                             3
 ACTION:UPD 10-08-24 09:58 OP:vdl  STATUS:               ID:20100406232333 L   I
 2010-04-06-2321-02S.COL___098                                                 6
 STAT SP IPHASW D HRMM SECON CODA AMPLIT PERI AZIMU VELO AIN AR TRES W  DIS CAZ7
 BAR2 SZ EP   1   2323 53.01                             169    -0.110   28 214 
 BAR2 SZ ES   2   2324  9.18                             169     0.2 7   28 214 
 BRR  HZ EP   1   2323 55.18                             152     0.110   82 295 
 BRR  HE ES   2   2324 12.18                             152    -0.3 7   82 295 
 CHI  HZ EP   1   2324 11.03                             118    -0.2 8  252 198 
 CHI  HN ES   2   2324 41.26                             118     0.2 5  252 198 
 CHI  HZ I        2324 46.28         3.3 0.34                           252 198 
 HEL  HZ EP       2324 14.67                             115     0.110  283 256 
 PRA  HZ EP   1   2324 27.51                             107     0.3 6  398 211 
 PRA  HN ES   2   2325  9.13                             107    -0.5 4  398 211 
 PRA  HZ I        2325 14.81         3.4 0.66                           398 211 
                                                                                
