 2013  6 6 2333 28.7 L   6.566 -73.107171.0  RSN  5 0.5 1.8LRSN                1
 GAP=226        1.18       9.1     9.8  8.6  0.4090E+02  0.1190E+02  0.1683E+02E
 Epicentro: SAN GIL - SANTANDER                                                3
 ACTION:UPD 14-01-08 09:53 OP:ep   STATUS:               ID:20130606233328 L   I
 OLDACT:REG 13-06-06 22:51 OP:stll STATUS:               ID:20130606232850     3
 2013-06-06-2328-50M.COL___232                                                 6
 STAT SP IPHASW D HRMM SECON CODA AMPLIT PERI AZIMU VELO AIN AR TRES W  DIS CAZ7
 BAR2 SZ EP       2333 50.62                             177   -0.6010 8.83 289 
 BAR2 SZ ES       2334  8.35                             177   -0.4210 8.83 289 
 BAR2 SZ I        2334  9.82         5.7 0.38            177           8.83 289 
 RUS  HZ EP       2333 53.84                             156    0.3110 74.5 178 
 RUS  HN ES       2334 12.94                             156    0.0610 74.5 178 
 RUS  HE I        2334 15.14         7.2 0.36            157           74.5 178 
 BRR  HZ EP       2333 53.79                             151    0.1410 89.8 312 
 BRR  HN ES       2334 13.89                             151    0.7910 89.8 312 
 BRR  HE I        2334 16.04        17.8 0.20            152           89.8 312 
 PTB  HZ EP       2333 57.47                             137   -0.51 9  149 269 
 PTB  HN ES       2334 20.53                             137   -0.26 9  149 269 
 CHI  HZ EP       2334  6.10                             125    0.57 8  225 198 
                                                                                
