 2011  2 6 2206 45.7 L   6.660 -73.118147.2  RSN  5 0.2 1.4LRSN                1
 GAP=208        0.57       4.7     8.7  5.3 -0.3422E+01  0.5826E+01  0.8921E+01E
 Epicentro: VILLANUEVA - SANTANDER                                             3
 ACTION:UP  11-03-28 15:06 OP:jfem STATUS:               ID:20110206220646 L   I
 2011-02-06-2200-00M.COL___138                                                 6
 STAT SP IPHASW D HRMM SECON CODA AMPLIT PERI AZIMU VELO SNR AR TRES W  DIS CAZ7
 BAR2 SZ ES       22 7 20.53                                    -0.110   10 224 
 BAR2 SZ I        22 7 22.41         7.4 0.13                            10 224 
 BTL  SZ EP       22 7  5.92                             167     0.210   33 330 
 BTL  SZ ES   1   22 7 21.22                             167    -0.2 7   33 330 
 RUS  HZ EP       22 7  8.43                             149    -0.110   85 177 
 RUS  HN ES   1   22 7 26.76                             149     0.4 7   85 177 
 RUS  HZ I        22 7 28.59         3.0 0.42                            85 177 
 NOR  SN ES   2   22 7 48.62                             119     0.3 4  229 238 
 CHI  HZ EP   1   22 7 21.95                             119     0.0 6  235 197 
 CHI  HN ES   2   22 7 49.67                             119    -0.6 4  235 197 
 CHI  HZ I        22 7 57.49         1.9 0.62                           235 197 
                                                                                
