 2014 11 6 2005  7.2 L   6.814 -73.155145.2  RSN 12 0.4 1.9LRSN                1
 GAP=135        0.85       3.8     3.8  5.4 -0.3986E+01  0.2875E+01  0.6407E+01E
 Epicentro: LOS SANTOS - SANTANDER                                             3
 ACTION:UPD 14-12-19 15:40 OP:nd   STATUS:               ID:20141106200507 L   I
 OLDACT:DUP 14-11-07 07:50 OP:spq  STATUS:               ID:20141106195747d    3
 2014-11-06-1957-45M.COL___292                                                 6
 STAT SP IPHASW D HRMM SECON CODA AMPLIT PERI AZIMU VELO AIN AR TRES W  DIS CAZ7
 BAR2 SZ EP       20 5 26.75                             170   -0.0710 24.7 187 
 BAR2 SZ ES   1   20 5 41.51                             170   -0.60 7 24.7 187 
 BAR2 SZ I        20 5 44.09        30.6 0.24            166           24.7 187 
 BRR  HZ EP       20 5 28.56                             153    0.3310 69.5 298 
 BRR  HN ES       20 5 45.10                             153    0.5010 69.5 298 
 BRR  HZ I        20 5 45.25        21.4 0.36            153           69.5 298 
 PAM  SZ EP       20 5 29.64                             151    0.2810 76.9  41 
 PAM  SN ES       20 5 46.41                             151   -0.2110 76.9  41 
 PAM  SZ I        20 5 48.98        12.7 0.58            157           76.9  41 
 RUS  HZ EP       20 5 30.84                             143   -0.2110  102 176 
 RUS  HE ES       20 5 49.96                             143    0.3410  102 176 
 RUS  HZ I        20 5 51.32         9.5 0.14            142            102 176 
 PTB  HZ EP       20 5 33.34                             132   -0.75 9  147 258 
 PTB  HE ES       20 5 54.61                             132   -0.42 9  147 258 
 PTB  HZ I        20 5 59.28        10.3 0.14            132            147 258 
 SPBC HZ EP       20 5 35.56                             129   -0.18 9  164 218 
 SPBC HN ES   1   20 5 58.10                             129    0.13 7  164 218 
 SPBC HZ I        20 6  4.95        11.5 0.40            128            164 218 
 NOR  HZ EP   1   20 5 43.25                             118    0.32 6  235 234 
 NOR  HN ES       20 6 10.75                             118   -0.03 8  235 234 
 NOR  HZ I        20 6 17.99         5.4 0.16            119            235 234 
 CHI  HZ EP       20 5 45.16                             117    0.13 8  250 195 
 CHI  HN ES   1   20 6 14.46                             117   -0.06 6  250 195 
 CHI  HZ I        20 6 18.01         3.0 0.48            117            250 195 
 GUY2CHZ EP   4   20 5 52.17                             112    1.35 0  301 234 
 GUY2CHN ES   1   20 6 25.71                             112    0.90 5  301 234 
 GUY2CHZ I        20 6 32.86         3.7 0.60                           301 234 
 TOL  SZ EP   1   20 5 55.80                             109    0.30 5  344 224 
 TOL  SE ES   4   20 6 34.60                             109    1.44 0  344 224 
 TOL  SZ I        20 6 40.34         8.4 0.47            110            344 224 
 PRA  HZ EP   1   20 6  0.81                             106   -0.02 4  393 209 
 PRA  HN ES   4   20 6 41.22                             106   -1.41 0  393 209 
 PRA  HZ I        20 6 49.72         3.1 0.32            107            393 209 
 SJC  HZ EP   4   20 6  0.84                             106   -1.71 0  407 327 
 SJC  HN ES   4   20 6 41.68                             106   -4.02 0  407 327 
 SJC  HZ I        20 6 45.53         1.9 0.32            107            407 327 
                                                                                
