 2011  2 6 2036 18.4 L   6.703 -73.062141.2  RSN  9 0.5 2.2LRSN                1
 GAP=169        1.08       5.6    11.2 10.0 -0.2688E+02  0.1986E+02  0.8942E+01E
 Epicentro: ARATOCA - SANTANDER                                                3
 ACTION:UP  11-03-28 15:06 OP:jfem STATUS:               ID:20110206203618 L   I
 2011-02-06-2020-00M.COL___138                                                 6
 STAT SP IPHASW D HRMM SECON CODA AMPLIT PERI AZIMU VELO SNR AR TRES W  DIS CAZ7
 BAR2 SZ IP       2036 37.32                             172    -0.110   18 228 
 BAR2 SZ ES   2   2036 52.06                             172    -0.1 5   18 228 
 BAR2 SZ I        2036 54.83        38.1 0.38                            18 228 
 BTL  SZ ES   2   2036 52.98                             166     0.2 5   33 316 
 GIR2 SZ EP   2   2036 37.28                             162    -0.7 5   44 341 
 GIR2 SZ ES   3   2036 53.14                             162    -0.1 2   44 341 
 RUS  HZ EP       2036 41.22                             146     0.310   90 182 
 GRA  SZ EP       2036 43.01                             134    -0.910  134  12 
 GRA  SZ I        2037  3.72        15.6 0.42                           134  12 
 OCA  SZ EP       2036 47.98                             126     0.5 9  172 351 
 OCA  SZ ES   1   2037 11.04                             126     0.8 7  172 351 
 OCA  SZ I        2037 14.94        21.8 0.32                           172 351 
 NOR  SZ EP       2036 53.73                             117    -0.3 8  237 238 
 NOR  SN ES   2   2037 21.41                             117    -0.5 4  237 238 
 CHI  HZ EP       2036 55.48                             117     0.5 8  241 198 
 RREF HZ EP       2037  4.47                             110     0.1 7  322 232 
 RREF HN ES   2   2037 40.12                             110    -0.1 3  322 232 
 RREF HZ I        2037 45.21        10.8 0.33                           322 232 
                                                                                
