 2015  3 6 2017 21.4 L   6.573 -73.388122.7  RSN  8 0.5 2.1LRSN                1
 GAP=112        1.15       4.2     4.0  8.1  0.1611E+01 -0.1404E+01 -0.3990E+01E
 Epicentro: HATO - SANTANDER                                                   3
 ACTION:UPD 15-04-30 16:23 OP:nd   STATUS:               ID:20150306201721 L   I
 OLDACT:REG 15-03-07 04:28 OP:mh   STATUS:               ID:20150306200746     3
 2015-03-06-2007-46M.COL___289                                                 6
 STAT SP IPHASW D HRMM SECON CODA AMPLIT PERI AZIMU VELO AIN AR TRES W  DIS CAZ7
 BRR  HZ EP       2017 40.78                             149    0.8210 69.0 329 
 BRR  HE ES       2017 54.55                             149    0.1110 69.0 329 
 BRR  HZ I        2017 57.54        23.0 0.14            147           69.0 329 
 RUS  HZ EP       2017 42.10                             144    0.5310 82.5 156 
 RUS  HN ES   1   2017 56.98                             144   -0.32 7 82.5 156 
 RUS  HZ I        2018  0.64        11.0 0.50            139           82.5 156 
 PAM  SZ EP       2017 43.61                             135   -0.4610  114  42 
 PAM  SN ES       2018  2.13                             135    0.3810  114  42 
 PAM  SZ I        2018  5.26        15.2 0.38            130            114  42 
 PTB  HZ EP       2017 43.33                             133   -0.4710  118 268 
 PTB  HN ES       2018  0.79                             133   -0.4810  118 268 
 PTB  HZ I        2018  8.39        18.9 0.30            130            118 268 
 TAM  HZ EP       2017 49.70                             121    0.07 9  177  95 
 TAM  HZ I        2018 10.86        15.2 0.38            116            177  95 
 TAM  HN ES   1   2018 11.08                             121   -0.57 7  177  95 
 OCA  HZ EP   1   2017 49.82                             120   -0.70 7  184   2 
 OCA  HN ES       2018 13.02                             120   -0.22 9  184   2 
 OCA  HZ I        2018 16.24        25.2 0.14            116            184   2 
 ZAR  HZ EP       2017 51.86                             119    0.76 9  192 302 
 SML  HZ EP       2017 58.05                             111   -0.37 8  258 343 
 SML  HN ES       2018 27.32                             111    0.02 8  258 343 
 SML  HZ I        2018 37.68        19.6 0.26            108            258 343 
                                                                                
