 2014  1 6 2338 35.6 L   6.730 -73.111149.0  RSN 10 0.4 1.9LRSN                1
 GAP=144        0.89       3.0     4.6  6.0 -0.1914E+01  0.7877E+01 -0.1996E+01E
 Epicentro: JORDAN - SANTANDER                                                 3
 ACTION:UPD 14-03-13 09:52 OP:ep   STATUS:               ID:20140106233835 L   I
 OLDACT:UP  14-01-07 05:33 OP:mh   STATUS:               ID:20140106233747     3
 OLDACT:UP  14-01-07 05:32 OP:mh   STATUS:               ID:20140106233747     3
 OLDACT:UP  14-01-07 05:32 OP:mh   STATUS:               ID:20140106233747     3
 OLDACT:REG 14-01-07 05:23 OP:mh   STATUS:               ID:20140106233747     3
 2014-01-06-2337-47M.COL___249                                                 6
 STAT SP IPHASW D HRMM SECON CODA AMPLIT PERI AZIMU VELO AIN AR TRES W  DIS CAZ7
 BAR2 SZ EP   1   2338 55.55                             173    0.01 7 17.1 207 
 BAR2 SZ ES   1   2339 10.91                             173   -0.17 7 17.1 207 
 BAR2 SZ I        2339 11.55        24.3 0.11            167           17.1 207 
 BRR  HZ IP     C 2338 57.64                             151    0.1010 78.4 302 
 BRR  HN ES       2339 14.77                             151    0.1310 78.4 302 
 BRR  HZ I        2339 17.74        11.8 0.09            143           78.4 302 
 PAM  SZ EP     C 2338 58.72                             150    0.3010 81.3  34 
 PAM  SN ES   1   2339 15.63                             150   -0.58 7 81.3  34 
 PAM  SZ I        2339 18.18        10.2 0.46            150           81.3  34 
 RUS  HZ EP       2338 59.54                             147    0.3910 92.7 178 
 RUS  HN ES       2339 17.21                             147   -0.2910 92.7 178 
 RUS  HZ I        2339 19.20         8.0 0.28            143           92.7 178 
 PTB  HZ EP   1   2339  2.37                             132   -0.71 7  150 262 
 PTB  HZ I        2339 27.40        10.9 0.11            125            150 262 
 SPBC HN ES   1   2339 26.55                             130    0.32 7  160 222 
 OCA  HE ES       2339 28.41                             129    0.57 9  168 352 
 ZAR  HZ EP   1   2339  8.79                             122   -0.17 6  211 294 
 ZAR  HN ES   1   2339 34.71                             122   -0.24 6  211 294 
 ZAR  HZ I        2339 40.77        12.7 0.34            116            211 294 
 NOR  HZ EP       2339 11.77                             119    0.36 8  233 237 
 NOR  HN ES       2339 39.31                             119   -0.02 8  233 237 
 NOR  HZ I        2339 46.00         5.0 0.14            114            233 237 
 SML  HZ EP       2339 12.43                             117   -0.94 8  252 335 
 SML  HN ES   1   2339 42.95                             117    0.14 6  252 335 
 SML  HZ I        2339 48.23        12.7 0.10            113            252 335 
                                                                                
