 2013  2 6 2127 58.1 L   6.796 -73.141143.0  RSN  6 0.4 1.7LRSN                1
 GAP=137        0.91       4.8     4.7  7.6 -0.2106E+01  0.2259E+01  0.9127E+01E
 Epicentro: LOS SANTOS - SANTANDER                                             3
 ACTION:UPD 13-03-12 09:31 OP:ep   STATUS:               ID:20130206212758 L   I
 2013-02-06-2118-42M.COL___193                                                 6
 STAT SP IPHASW D HRMM SECON CODA AMPLIT PERI AZIMU VELO AIN AR TRES W  DIS CAZ7
 BAR2 SZ EP       2128 17.54                             170    0.1810 23.0 191 
 BRR  HZ EP       2128 19.05                             152    0.1010 71.8 299 
 BRR  HN ES       2128 35.89                             152    0.6410 71.8 299 
 BRR  HN I        2128 39.17        16.0 0.20            151           71.8 299 
 PAM  SZ EP       2128 20.01                             150    0.0210 77.4  39 
 PAM  SZ I        2128 20.29        10.9 0.18            155           77.4  39 
 PAM  SN ES       2128 36.71                             150   -0.3810 77.4  39 
 RUS  HZ EP       2128 21.71                             143    0.2010  100 176 
 RUS  HN ES       2128 39.60                             143   -0.2110  100 176 
 RUS  HN I        2128 42.11         3.3 0.42            145            100 176 
 PTB  HZ EP       2128 24.32                             131   -0.52 9  148 259 
 PTB  HN ES       2128 45.39                             131   -0.34 9  148 259 
 PTB  HN I        2128 50.77         7.7 0.32            132            148 259 
 CHI  HZ EP   1   2128 36.16                             117    0.58 6  248 195 
                                                                                
