 2011  4 6 2041  8.7 L   6.766 -73.124137.5  RSN  7 0.2 2.0LRSN                1
 GAP=162        0.41       4.3     4.7  4.6 -0.1537E+02  0.1706E+01  0.2417E+01E
 Epicentro: LOS SANTOS - SANTANDER                                             3
 ACTION:UP  11-06-22 15:29 OP:REBC STATUS:               ID:20110406204108 L   I
 2011-04-06-2039-26S.COL___138                                                 6
 STAT SP IPHASW D HRMM SECON CODA AMPLIT PERI AZIMU VELO SNR AR TRES W  DIS CAZ7
 BAR2 SZ EP   1   2041 27.20                             171    -0.1 7   20 198 
 BAR2 SZ ES   2   2041 41.70                             171    -0.1 5   20 198 
 BAR2 SZ I        2041 43.11        28.2 0.10                            20 198 
 GIR2 SZ EP   2   2041 27.52                             165     0.0 5   35 348 
 GIR2 SZ ES   2   2041 42.03                             165    -0.2 5   35 348 
 BRR  HZ EP   1   2041 29.26                             150     0.1 7   75 300 
 BRR  HZ I        2041 29.76        26.8 0.06                            75 300 
 BRR  HE ES   2   2041 45.39                             150     0.2 5   75 300 
 PAM  SZ EP   1   2041 30.28                             149     0.1 7   79  37 
 PAM  SE ES   1   2041 46.97                             149     0.1 7   79  37 
 GRA  SZ EP   1   2041 33.33                             134    -0.1 7  129  16 
 GRA  SZ ES   1   2041 52.72                             134    -0.1 7  129  16 
 GRA  SZ I        2041 53.67        13.5 0.29                           129  16 
 NOR  SN ES   1   2042 11.15                             117    -0.3 6  234 236 
 RREF HN ES   2   2042 30.87                             109     0.8 3  321 230 
 RREF HZ I        2042 40.28         3.4 0.22                           321 230 
                                                                                
