 2014 12 6 2105 31.7 L   6.817 -73.132143.5  RSN 15 0.5 2.3LRSN                1
 GAP=137        1.14       3.4     4.3  6.9 -0.2942E+01  0.7815E+01  0.1890E+01E
 Epicentro: LOS SANTOS - SANTANDER                                             3
 ACTION:UPD 15-02-10 17:01 OP:nd   STATUS:               ID:20141206210531 L   I
 OLDACT:UP  14-12-07 06:16 OP:mh   STATUS:               ID:20141206205748d    3
 OLDACT:UP  14-12-07 06:16 OP:mh   STATUS:               ID:20141206205748d    3
 OLDACT:UP  14-12-07 06:15 OP:mh   STATUS:               ID:20141206205748d    3
 OLDACT:UP  14-12-07 06:14 OP:mh   STATUS:               ID:20141206205748d    3
 OLDACT:UP  14-12-07 06:14 OP:mh   STATUS:               ID:20141206205748d    3
 OLDACT:DUP 14-12-07 05:49 OP:mh   STATUS:               ID:20141206205748d    3
 OLDACT:UP  14-12-07 05:45 OP:mh   STATUS:               ID:20141206205747d    3
 OLDACT:DUP 14-12-07 05:45 OP:mh   STATUS:               ID:20141206205747d    3
 2014-12-06-2057-46M.COL___315                                                 6
 STAT SP IPHASW D HRMM SECON CODA AMPLIT PERI AZIMU VELO AIN AR TRES W  DIS CAZ7
 BRR  HZ EP       21 5 52.30                             152   -0.3610 71.7 297 
 BRR  HN ES       21 6  9.89                             152    0.9010 71.7 297 
 BRR  HZ I        21 6 14.11        37.3 0.12            150           71.7 297 
 PAM  SZ EP       21 5 54.09                             151    0.5310 75.0  40 
 PAM  SN ES       21 6 10.90                             151    0.3110 75.0  40 
 PAM  SZ I        21 6 13.66        41.6 0.54            155           75.0  40 
 RUS  HZ EP     C 21 5 55.20                             143   -0.1910  102 177 
 RUS  HN ES       21 6 13.19                             143   -0.6510  102 177 
 RUS  HZ I        21 6 14.78        14.4 0.53            146            102 177 
 PTB  HZ EP       21 5 58.30                             131   -0.38 9  150 258 
 PTB  HN ES       21 6 19.25                             131   -0.45 9  150 258 
 PTB  HZ I        21 6 22.30        24.2 0.20            131            150 258 
 OCA  HZ EP       21 5 59.86                             129    0.16 9  159 353 
 OCA  HN ES       21 6 20.98                             129   -0.55 9  159 353 
 OCA  HZ I        21 6 24.76        30.5 0.19            132            159 353 
 SPBC HZ EP   1   21 6  0.04                             128   -0.24 7  166 219 
 SPBC HN ES   4   21 6 20.96                             128   -1.60 0  166 219 
 ZAR  HZ EP   1   21 6  4.73                             122    0.63 6  205 291 
 ZAR  HN ES       21 6 29.58                             122    0.23 9  205 291 
 ZAR  HZ I        21 6 34.86        30.7 0.40            123            205 291 
 NOR  HZ EP   1   21 6  7.87                             118    0.30 6  237 234 
 NOR  HN ES       21 6 35.82                             118    0.28 8  237 234 
 NOR  HZ I        21 6 40.19        14.5 0.20            119            237 234 
 SML  HZ EP       21 6  7.71                             117   -0.40 8  243 335 
 SML  HN ES       21 6 36.16                             117   -0.33 8  243 335 
 SML  HZ I        21 6 40.80        21.0 0.10            119            243 335 
 HEL  HZ EP       21 6 12.81                             114    0.77 8  274 256 
 HEL  HN ES       21 6 42.49                             114   -0.99 8  274 256 
 HEL  HZ I        21 6 49.95         9.5 0.42            115            274 256 
 GUY2CHZ EP   1   21 6 15.92                             112    0.43 5  303 235 
 GUY2CHN ES   1   21 6 49.97                             112    0.34 5  303 235 
 GUY2CHZ I        21 6 58.44         7.2 0.62                           303 235 
 VIL  SZ EP   1   21 6 15.50                             111    0.22 5  305 192 
 VIL  SN ES   4   21 6 47.63                             111   -1.63 0  305 192 
 RREF HZ EP   4   21 6 18.08                             110    0.04 0  324 229 
 RREF HN ES   4   21 6 55.29                             110    1.12 0  324 229 
 RREF HZ I        21 7  2.38         8.6 0.24            112            324 229 
 TOL  SZ EP   4   21 6 15.85                             109   -4.32 0  346 225 
 TOL  SN ES   1   21 6 58.76                             109    0.81 5  346 225 
 TOL  SZ I        21 7  3.31        12.8 0.46            110            346 225 
 MON  HZ EP   4   21 6 18.90                             108   -1.74 0  354 308 
 SJC  HZ EP   4   21 6 25.69                             105   -1.44 0  408 327 
 SJC  HN ES   4   21 7  6.88                             105   -3.46 0  408 327 
 SJC  HZ I        21 7 11.38         3.7 0.48            107            408 327 
                                                                                
