 2016  6 6 2340 11.3 L   7.037 -73.417 44.3  RSN  4 0.2 1.8LRSN                1
 GAP=120        0.61       3.6     3.7 17.1 -0.1058E+02  0.5288E+02 -0.5312E+02E
 Epicentro: SAN VICENTE DE CHUCURI - SANTANDER                                 3
 ACTION:UPD 16-07-21 22:16 OP:rebc STATUS:               ID:20160606234010 L   I
 OLDACT:UP  16-06-08 16:53 OP:nlst STATUS:               ID:20160606234010 L   3
 OLDACT:DUP 16-06-07 04:33 OP:ar   STATUS:               ID:20160606233746d    3
 OLDACT:UP  16-06-07 04:32 OP:ar   STATUS:               ID:20160606233745     3
 OLDACT:REG 16-06-07 03:29 OP:ar   STATUS:               ID:20160606233745     3
 2016-06-06-2337-45M.COL___334                                                 6
 STAT SP IPHASW D HRMM SECON CODA AMPLIT PERI AZIMU VELO AIN AR TRES W  DIS CAZ7
 BAR2 EZ EP       2340 22.33                             118    0.3810 55.6 152 
 BAR2 EZ ES       2340 30.26                             118   -0.0310 55.6 152 
 BAR2 EZ I        2340 30.88        48.8 0.12                          55.6 152 
 PAM  EZ EP       2340 25.67                             104   -0.1110 86.1  67 
 PAM  EN ES       2340 36.84                             104   -0.2710 86.1  67 
 PAM  EZ I        2340 37.22        31.0 0.16                          86.1  67 
 PTB  HZ EP       2340 30.07                              96   -0.1510  127 244 
 PTB  HE ES       2340 44.86                              96   -0.1610  127 244 
 OCA  HZ EP       2340 31.47                              95    0.3410  133   5 
 OCA  HN ES       2340 46.64                              95    0.0010  133   5 
 OCA  HZ I        2340 49.47        12.7 0.16                           133   5 
                                                                                
