 2016  3 6 2350 31.9 L   6.769 -73.129144.0  RSN 13 0.5 2.1LRSN                1
 GAP=104        1.01       4.3     3.6  6.5 -0.3116E+01  0.6191E+01 -0.3278E+01E
 Epicentro: LOS SANTOS - SANTANDER                                             3
 ACTION:UPD 16-05-13 21:22 OP:cam  STATUS:               ID:20160306235031 L   I
 OLDACT:REG 16-03-07 03:28 OP:dnl  STATUS:               ID:20160306234751     3
 2016-03-06-2347-51M.COL___319                                                 6
 STAT SP IPHASW D HRMM SECON CODA AMPLIT PERI AZIMU VELO AIN AR TRES W  DIS CAZ7
 BAR2 EZ EP     C 2350 51.32                             172    0.1010 20.4 197 
 BAR2 EZ ES   2   2351  5.84                             172   -0.49 5 20.4 197 
 BAR2 EZ I        2351  8.45        19.8 0.24            169           20.4 197 
 PAM  EZ IP     C 2350 54.32                             150    0.3410 78.9  37 
 PAM  EE ES       2351 11.35                             150    0.1110 78.9  37 
 PAM  EZ I        2351 12.01        14.7 0.20            154           78.9  37 
 RUS  HZ EP       2350 55.15                             145   -0.0410 97.0 177 
 RUS  HN ES       2351 13.66                             145    0.2810 97.0 177 
 RUS  HZ I        2351 14.35        10.7 0.50            145           97.0 177 
 PTB  HZ EP       2350 58.16                             131   -0.64 9  149 260 
 PTB  HN ES       2351 19.12                             131   -0.69 9  149 260 
 PTB  HZ I        2351 21.39        14.4 0.10            130            149 260 
 TAM  HZ EP   2   2350 59.55                             131    0.40 5  152 104 
 TAM  HE ES   2   2351 20.89                             131    0.45 5  152 104 
 TAM  HZ I        2351 21.80        10.5 0.14            135            152 104 
 SPBC HZ EP       2351  0.25                             129    0.16 9  162 220 
 SPBC HN ES       2351 22.02                             129   -0.08 9  162 220 
 SPBC HZ I        2351 28.29        17.3 0.07            128            162 220 
 ZAR  HZ EP       2351  4.78                             122    0.27 8  207 293 
 ZAR  HE ES       2351 30.47                             122    0.50 8  207 293 
 ZAR  HZ I        2351 36.10        26.3 0.28            121            207 293 
 NOR  HZ EP       2351  7.74                             118    0.30 8  234 235 
 NOR  HN ES   2   2351 34.51                             118   -0.68 4  234 235 
 NOR  HZ I        2351 41.64        11.2 0.20            118            234 235 
 HEL  HZ EP   2   2351 12.63                             114    0.53 4  273 257 
 HEL  HE ES   2   2351 42.72                             114   -0.76 4  273 257 
 HEL  HZ I        2351 50.21         6.9 0.34            114            273 257 
 URE  HZ EP   3   2351 12.12                             113   -1.07 2  287 292 
 URE  HN ES   2   2351 46.48                             113    1.06 4  287 292 
 URE  HZ I        2351 51.75        12.8 0.10            113            287 292 
 GUY2CHZ EP   2   2351 15.74                             112    0.40 4  301 236 
 GUY2CHE ES   4   2351 50.60                             112    1.35 0  301 236 
 GUY2CHZ I        2351 58.68         7.1 0.40                           301 236 
 SOCV BZ EP       2351 13.38                             112   -1.49 7  302  56 
 SOCV BN ES   4   2351 44.55                             112   -3.86 0  302  56 
 CBOC HZ EP       2351 19.30                             110    0.51 7  334 253 
 CBOC HE ES   4   2351 54.17                             110   -1.22 0  334 253 
 CBOC HZ I        2352  7.26         2.0 0.30            110            334 253 
                                                                                
