 2011 10 6 2123 56.5 L   6.784 -73.119138.4  RSN  7 0.2 1.8LRSN                1
 GAP=141        0.47       2.7     3.0  3.7 -0.3518E+00  0.2313E+01  0.1770E+01E
 Epicentro: LOS SANTOS - SANTANDER                                             3
 ACTION:UPD 12-07-13 16:02 OP:ep   STATUS:               ID:20111006212356 L   I
 2011-10-06-2123-39S.COL___166                                                 6
 STAT SP IPHASW D HRMM SECON CODA AMPLIT PERI AZIMU VELO AIN AR TRES W  DIS CAZ7
 BAR2 SZ EP       2124 15.27                             170    0.0210 22.3 198 
 BAR2 SZ ES       2124 30.02                             170    0.1610 22.3 198 
 BAR2 SZ I        2124 31.42        16.9 0.25                          22.3 198 
 BRR  HZ EP       2124 17.33                             150    0.2410 74.6 299 
 BRR  HN ES       2124 33.05                             150   -0.0710 74.6 299 
 BRR  HZ I        2124 39.88        25.7 0.47                          74.6 299 
 PAM  SZ EP   1   2124 18.09                             150    0.15 7 77.0  37 
 PAM  SN ES   1   2124 34.13                             150   -0.51 7 77.0  37 
 RUS  HZ EP   1   2124 19.52                             143    0.10 7 98.7 178 
 RUS  HN ES   1   2124 37.23                             143   -0.04 7 98.7 178 
 RUS  HZ I        2124 38.85         8.1 0.33                          98.7 178 
 ZAR  HE ES   2   2124 54.01                             120   -0.06 4  207 292 
 ZAR  HZ I        2125  2.13         4.2 0.24                           207 292 
 NOR  SZ EP   1   2124 31.84                             117   -0.15 6  236 235 
 NOR  SN ES   1   2124 59.44                             117   -0.21 6  236 235 
 PRA  HZ EP   2   2124 49.31                             105   -0.48 3  392 210 
                                                                                
