 2016 11 6 2141 54.0 L   6.770 -73.168137.6  RSN  4 0.2 1.6LRSN                1
 GAP=145        0.54       4.6     2.8  4.7 -0.4440E+01  0.6082E+01 -0.5600E+01E
 Epicentro: LOS SANTOS - SANTANDER                                             3
 ACTION:UPD 17-10-26 21:05 OP:lp   STATUS:               ID:20161106214154 L   I
 OLDACT:UP  16-11-07 03:46 OP:cara STATUS:               ID:20161106213744     3
 OLDACT:REG 16-11-07 02:53 OP:cara STATUS:               ID:20161106213744     3
 2016-11-06-2138-00M.COL___340                                                 6
 STAT SP IPHASW D HRMM SECON CODA AMPLIT PERI AZIMU VELO AIN AR TRES W  DIS CAZ7
 BAR2 EZ EP       2142 12.60                             171    0.0310 19.7 185 
 BAR2 EZ ES       2142 27.10                             171    0.0410 19.7 185 
 BAR2 EZ I        2142 30.91        11.5 0.44            174           19.7 185 
 PAM  EZ IP       2142 15.50                             148   -0.1110 81.5  39 
 PAM  EE ES       2142 32.48                             148    0.0110 81.5  39 
 PAM  EZ I        2142 34.31         5.6 0.66            150           81.5  39 
 PTB  HZ EP       2142 20.36                             131    0.34 9  145 260 
 PTB  HN ES       2142 40.05                             131   -0.27 9  145 260 
 PTB  HZ I        2142 42.46         3.9 0.26            132            145 260 
 ZAR  HZ EP       2142 25.54                             121   -0.27 9  203 293 
 ZAR  HN ES       2142 50.84                             121    0.21 9  203 293 
 ZAR  HZ I        2142 59.26         4.6 0.50            122            203 293 
                                                                                
