 2012  3 6 2324 22.2 L   6.782 -73.166140.7  RSN  8 0.3 1.9LRSN                1
 GAP=135        0.75       4.6     4.6  6.6  0.1544E+01  0.1072E+02  0.2234E+01E
 ACTION:UP  12-03-31 23:17 OP:EP   STATUS:               ID:20120306232422 L   I
 2012-03-06-2320-00M.COL___194                                                 6
 STAT SP IPHASW D HRMM SECON CODA AMPLIT PERI AZIMU VELO SNR AR TRES W  DIS CAZ7
 BAR2 SZ EP   1   2324 41.14                             171    -0.1 7   21 185 
 BAR2 SZ ES   1   2324 56.05                             171     0.0 7   21 185 
 BAR2 SZ I        2324 57.82        35.8 0.36                            21 185 
 BRR  HZ EP   1   2324 42.94                             152     0.1 7   70 301 
 PAM  SZ EP   1   2324 43.97                             149    -0.1 7   80  40 
 PAM  SN ES   1   2325  1.15                             149     0.0 7   80  40 
 PAM  SZ I        2325  3.81         9.6 0.36                            80  40 
 RUS  HZ EP   1   2324 45.16                             143    -0.2 7   99 175 
 RUS  HN ES   1   2325  3.72                             143     0.3 7   99 175 
 RUS  HZ I        2325  5.36        12.0 0.25                            99 175 
 PTB  HZ EP   1   2324 47.91                             131    -0.7 7  145 259 
 PTB  HN ES   1   2325  9.04                             131    -0.1 7  145 259 
 ZAR  HZ EP   1   2324 55.08                             121     0.8 6  203 293 
 ZAR  HE ES   1   2325 19.09                             121    -0.1 6  203 293 
 ZAR  HZ I        2325 26.21        19.7 0.31                           203 293 
 CHI  HZ EP   1   2324 59.17                             116    -0.2 6  246 195 
 CHI  HZ I        2325 33.64         3.0 0.39                           246 195 
 PRA  HZ EP   1   2325 15.80                             106     0.5 4  389 209 
                                                                                
