 2015  4 6 2015 44.8 L   6.860 -73.321123.2  RSN  7 0.4 1.9LRSN                1
 GAP=100        1.02       4.2     4.0  6.3 -0.4211E+01  0.9322E+01 -0.4049E+01E
 Epicentro: BETULIA - SANTANDER                                                3
 ACTION:UPD 15-06-03 16:53 OP:cam  STATUS:               ID:20150406201544 L   I
 OLDACT:REG 15-04-07 03:03 OP:fm   STATUS:               ID:20150406200749     3
 2015-04-06-2007-49M.COL___270                                                 6
 STAT SP IPHASW D HRMM SECON CODA AMPLIT PERI AZIMU VELO AIN AR TRES W  DIS CAZ7
 BAR2 EZ EP       2016  2.13                             164    0.1510 33.3 153 
 BAR2 EZ ES       2016 15.69                             164    0.2810 33.3 153 
 BAR2 EZ I        2016 16.27        61.7 0.26            166           33.3 153 
 BRR  HZ EP       2016  2.46                             156    0.0810 51.1 302 
 BRR  HN ES       2016 16.20                             156    0.0910 51.1 302 
 BRR  HZ I        2016 17.41        34.3 0.12            154           51.1 302 
 PAM  SZ EP       2016  5.69                             143    0.3810 86.8  52 
 PAM  SN ES       2016 20.87                             143   -0.4510 86.8  52 
 PAM  SZ I        2016 24.15         5.7 0.36            145           86.8  52 
 PTB  HZ EP       2016  7.37                             130   -0.9710  130 254 
 PTB  HE ES       2016 26.28                             130   -0.4410  130 254 
 PTB  HZ I        2016 29.60         8.8 0.10            130            130 254 
 ZAR  HZ EP       2016 13.97                             120    0.31 9  184 292 
 ZAR  HN ES       2016 36.77                             120    0.57 9  184 292 
 ZAR  HZ I        2016 39.27         8.1 0.44            120            184 292 
 NOR  HZ EP       2016 18.42                             115    0.38 8  223 230 
 NOR  HE ES       2016 44.01                             115    0.03 8  223 230 
 NOR  HZ I        2016 49.95         4.4 0.52            115            223 230 
 SML  HZ EP       2016 18.51                             114   -0.20 8  230 339 
 SML  HN ES       2016 45.06                             114   -0.12 8  230 339 
 SML  HZ I        2016 50.06         9.2 0.30            114            230 339 
                                                                                
