 2011 10 6 2101 42.4 L   6.787 -73.106143.7  RSN  7 0.3 1.8LRSN                1
 GAP=142        0.65       3.0     4.9  5.4  0.2422E+01  0.6058E+00  0.7921E+00E
 Epicentro: LOS SANTOS - SANTANDER                                             3
 ACTION:UPD 12-07-13 16:02 OP:ep   STATUS:               ID:20111006210142 L   I
 2011-10-06-2057-13S.COL___166                                                 6
 STAT SP IPHASW D HRMM SECON CODA AMPLIT PERI AZIMU VELO AIN AR TRES W  DIS CAZ7
 BAR2 SZ EP   1   21 2  1.78                             170    0.00 7 23.1 201 
 BAR2 SZ ES   1   21 2 16.49                             170   -0.40 7 23.1 201 
 BAR2 SZ I        21 2 19.48        18.4 0.19                          23.1 201 
 BRR  HZ EP       21 2  3.55                             151   -0.0510 75.7 298 
 BRR  HZ I        21 2  3.79        29.6 0.09                          75.7 298 
 BRR  HE ES       21 2 20.62                             151    0.5010 75.7 298 
 PAM  SZ EP   1   21 2  4.59                             151    0.28 7 75.8  36 
 PAM  SN ES   1   21 2 21.48                             151    0.09 7 75.8  36 
 RUS  HZ EP       21 2  6.06                             144    0.2210 99.0 179 
 RUS  HE ES   1   21 2 23.77                             144   -0.34 7 99.0 179 
 RUS  HZ I        21 2 25.45         5.6 0.47                          99.0 179 
 OCA  SZ EP   2   21 2 10.74                             129   -0.01 5  162 352 
 OCA  SZ ES       21 2 32.52                             129   -0.33 9  162 352 
 ZAR  HZ EP   2   21 2 14.80                             121   -0.40 4  209 292 
 ZAR  HE ES   2   21 2 40.14                             121   -0.63 4  209 292 
 ZAR  HZ I        21 2 45.35         5.6 0.12                           209 292 
 CHI  HZ EP   2   21 2 19.96                             117   -0.01 4  248 196 
 CHI  HZ I        21 2 20.44         3.1 0.14                           248 196 
                                                                                
