 2013  7 6 2144 24.0 L   6.553 -73.498121.4  RSN  8 0.5 2.1LRSN                1
 GAP= 86        1.25       5.2     5.3 12.0 -0.5812E+01  0.3482E+02 -0.1384E+02E
 Epicentro: EL CARMEN DE CHUCURI - SANTANDER                                   3
 ACTION:UPD 13-08-12 10:35 OP:ep   STATUS:               ID:20130706214424 L   I
 OLDACT:REG 13-07-07 01:10 OP:carl STATUS:               ID:20130706213959     3
 2013-07-06-2139-59M.COL___266                                                 6
 STAT SP IPHASW D HRMM SECON CODA AMPLIT PERI AZIMU VELO AIN AR TRES W  DIS CAZ7
 BAR2 SZ IP     C 2144 41.36                             163    0.2810 35.2  83 
 BAR2 SZ ES   1   2144 53.71                             163   -0.68 7 35.2  83 
 BRR  HZ EP       2144 42.19                             150   -0.0510 65.6 339 
 GIR2 SZ IP     C 2144 42.82                             149    0.2810 67.2  30 
 RUS  HZ EP       2144 44.56                             143    0.2110 86.3 148 
 RUS  HE ES       2145  0.21                             143    0.0110 86.3 148 
 PTB  HZ EP       2144 44.21                             136   -1.0410  106 269 
 PAM  SZ EP       2144 47.89                             132    0.4110  124  45 
 PAM  SN ES       2145  5.68                             132   -0.0910  124  45 
 PAM  SZ I        2145  8.22        18.6 0.18            135            124  45 
 ZAR  HZ EP       2144 52.12                             120   -0.58 9  183 305 
 ZAR  HE ES       2145 15.76                             120    0.70 9  183 305 
 ZAR  HZ I        2145 17.87        22.6 0.34            121            183 305 
 NOR  HZ EP       2144 52.89                             119   -0.34 9  187 234 
 NOR  HN ES       2145 16.73                             119    0.71 9  187 234 
 NOR  HZ I        2145 18.43        12.5 0.16            121            187 234 
                                                                                
