 2015  5 7 0659 45.2 L   6.821 -73.130142.9  RSN 14 0.5 1.8LRSN                1
 GAP=137        1.20       2.9     4.8  6.0 -0.1850E+01  0.9991E+01  0.6638E+00E
 Epicentro: LOS SANTOS - SANTANDER                                             3
 ACTION:UPD 15-09-10 22:02 OP:cam  STATUS:               ID:20150507065945 L   I
 OLDACT:REG 15-05-07 13:39 OP:drio STATUS:               ID:20150507065746     3
 2015-05-07-0657-46M.COL___285                                                 6
 STAT SP IPHASW D HRMM SECON CODA AMPLIT PERI AZIMU VELO AIN AR TRES W  DIS CAZ7
 BAR2 EZ EP        7 0  4.39                             169   -0.1710 25.9 193 
 BAR2 EZ ES        7 0 18.76                             169   -0.8910 25.9 193 
 BAR2 EZ I         7 0 22.75        10.2 0.30            167           25.9 193 
 BRR  HZ EP        7 0  6.28                             152    0.1910 71.7 296 
 BRR  HN ES        7 0 23.22                             152    0.8510 71.7 296 
 BRR  HZ I         7 0 27.99         8.6 0.26            151           71.7 296 
 PAM  SZ EP        7 0  7.06                             151    0.1010 74.5  40 
 PAM  SN ES        7 0 24.38                             151    0.4610 74.5  40 
 PAM  SZ I         7 0 25.51         7.3 0.16            157           74.5  40 
 RUS  HZ EP        7 0  8.28                             143   -0.5710  103 177 
 RUS  HN ES        7 0 27.59                             143    0.3010  103 177 
 RUS  HZ I         7 0 29.58         5.2 0.40            145            103 177 
 OCA  HZ EP        7 0 13.48                             129    0.36 9  158 352 
 OCA  HN ES        7 0 34.69                             129   -0.18 9  158 352 
 OCA  HZ I         7 0 39.65        12.0 0.20            133            158 352 
 SPBC HZ EP        7 0 13.41                             128   -0.37 9  166 219 
 SPBC HN ES        7 0 35.94                             128   -0.11 9  166 219 
 SPBC HZ I         7 0 41.69        11.6 0.28            129            166 219 
 ZAR  HZ EP        7 0 17.73                             122    0.17 9  205 291 
 ZAR  HN ES        7 0 42.57                             122   -0.21 9  205 291 
 ZAR  HZ I         7 0 48.86         6.1 0.50            123            205 291 
 NOR  HZ EP        7 0 22.10                             118    1.02 8  237 234 
 NOR  HN ES        7 0 48.17                             118   -0.88 8  237 234 
 NOR  HZ I         7 0 53.70         6.8 0.30            119            237 234 
 SML  HZ EP        7 0 21.37                             117   -0.17 8  242 335 
 SML  HN ES        7 0 49.23                             117   -0.64 8  242 335 
 SML  HZ I         7 0 51.51         9.4 0.10            120            242 335 
 CHI  HZ EP        7 0 22.64                             116   -0.41 8  251 195 
 CHI  HN ES        7 0 52.90                             116    0.34 8  251 195 
 CHI  HZ I         7 1  1.38         2.2 0.28            119            251 195 
 HEL  HZ EP   4    7 0 26.65                             114    1.11 0  274 255 
 HEL  HN ES        7 0 57.23                             114    0.25 8  274 255 
 HEL  HZ I         7 1  3.04         4.2 0.36            116            274 255 
 GUY2CHZ EP        7 0 29.80                             111    0.79 7  304 235 
 GUY2CHN ES   4    7 1  5.84                             111    2.68 0  304 235 
 GUY2CHZ I         7 1 10.65         3.6 0.58                           304 235 
 MON  HZ EP        7 0 33.48                             108   -0.62 6  354 308 
 MON  HN ES   4    7 1 10.73                             108   -1.50 0  354 308 
 MON  HZ I         7 1 12.44         1.2 0.50            110            354 308 
 ORTC HZ EP        7 0 39.57                             106    0.19 6  398 216 
 ORTC HN ES        7 1 22.02                             106    0.40 6  398 216 
 ORTC HZ I         7 1 28.09         1.8 0.48            108            398 216 
                                                                                
