 2013  6 7 0005  6.1 L   6.786 -73.172138.9  RSN  8 0.3 2.0LRSN                1
 GAP=198        0.57       3.4     4.9  5.3  0.7110E+01  0.4409E+01 -0.2562E+01E
 Epicentro: LOS SANTOS - SANTANDER                                             3
 ACTION:UPD 14-01-08 09:53 OP:ep   STATUS:               ID:20130607000506 L   I
 OLDACT:REG 13-06-07 08:12 OP:mh   STATUS:               ID:20130607000000     3
 2013-06-07-0000-00M.COL___257                                                 6
 STAT SP IPHASW D HRMM SECON CODA AMPLIT PERI AZIMU VELO AIN AR TRES W  DIS CAZ7
 BAR2 SZ EP   1    0 5 25.04                             171    0.13 7 21.4 183 
 BAR2 SZ I         0 5 43.08         5.0 0.18            172           21.4 183 
 BRR  HZ EP   1    0 5 26.89                             152    0.43 7 69.5 301 
 BRR  HN ES   1    0 5 42.11                             152   -0.19 7 69.5 301 
 BRR  HN I         0 5 45.86        30.4 0.24            151           69.5 301 
 RUS  HZ EP   1    0 5 28.94                             143   -0.19 7 99.2 174 
 RUS  HN ES        0 5 47.09                             143    0.0410 99.2 174 
 RUS  HN I         0 5 48.03        11.7 0.22            144           99.2 174 
 PTB  HZ EP   1    0 5 31.75                             131   -0.52 7  145 259 
 PTB  HN ES   2    0 5 52.68                             131    0.03 5  145 259 
 PTB  HZ I         0 5 59.96         6.8 0.28            131            145 259 
 ZAR  HZ EP   1    0 5 37.87                             121   -0.07 6  202 293 
 ZAR  HE ES   2    0 6  3.46                             121    0.73 4  202 293 
 ZAR  HE I         0 6  9.10        27.4 0.20            121            202 293 
 NOR  HZ EP   1    0 5 40.82                             117   -0.31 6  231 234 
 NOR  HN ES   2    0 6  8.36                             117   -0.06 4  231 234 
 NOR  HN I         0 6 14.43        16.0 0.16            118            231 234 
 SML  HZ EP   1    0 5 42.30                             116   -0.12 6  244 336 
 SML  HN ES   2    0 6 10.84                             116    0.12 4  244 336 
 SML  HN I         0 6 13.37        21.2 0.10            116            244 336 
 PRA  HZ EP   1    0 5 59.91                             105    0.80 4  389 209 
                                                                                
