 2017  4 7 0946 53.1 L   6.791 -73.117150.0  RSN  8 0.5 1.5LRSN                1
 GAP=122        0.89       4.2     4.7  5.7  0.4930E+01 -0.2613E+01  0.2952E+01E
 Epicentro: LOS SANTOS - SANTANDER                                             3
 ACTION:UPD 17-05-30 21:09 OP:jn   STATUS:               ID:20170407094653 L   I
 OLDACT:UP  17-04-07 17:57 OP:and  STATUS:               ID:20170407093722d    3
 OLDACT:UP  17-04-07 17:57 OP:and  STATUS:               ID:20170407093722d    3
 OLDACT:UP  17-04-07 17:56 OP:and  STATUS:               ID:20170407093722d    3
 OLDACT:UP  17-04-07 17:56 OP:and  STATUS:               ID:20170407093722d    3
 OLDACT:DUP 17-04-07 17:53 OP:and  STATUS:               ID:20170407093722d    3
 OLDACT:UP  17-04-07 17:53 OP:and  STATUS:               ID:20170407093721     3
 OLDACT:UP  17-04-07 17:53 OP:and  STATUS:               ID:20170407093721     3
 OLDACT:UP  17-04-07 17:52 OP:and  STATUS:               ID:20170407093721     3
 OLDACT:UP  17-04-07 17:50 OP:and  STATUS:               ID:20170407093721     3
 OLDACT:REG 17-04-07 12:48 OP:and  STATUS:               ID:20170407093721     3
 2017-04-07-0938-00M.COL___359                                                 6
 STAT SP IPHASW D HRMM SECON CODA AMPLIT PERI AZIMU VELO AIN AR TRES W  DIS CAZ7
 BAR2 EZ IP     D  947 13.22                             171    0.0310 23.1 198 
 BAR2 EZ ES        947 28.35                             171   -0.5410 23.1 198 
 BAR2 EZ I         947 30.93         8.4 0.28            168           23.1 198 
 BRR  HZ EP        947 14.92                             152    0.0710 74.5 298 
 BRR  HN ES        947 32.21                             152    0.3610 74.5 298 
 BRR  HZ I         947 42.40         6.9 0.32            149           74.5 298 
 PAM  EZ IP     D  947 16.05                             152    0.4010 76.2  37 
 PAM  EN ES        947 33.01                             152   -0.2710 76.2  37 
 PAM  EZ I         947 35.30         6.1 0.46            156           76.2  37 
 RUS  HZ EP        947 17.28                             145    0.1410 99.4 178 
 RUS  HN ES        947 36.38                             145    0.4610 99.4 178 
 RUS  HZ I         947 37.01         4.4 0.34            146           99.4 178 
 PTB  HZ EP   9    947 20.04                             132   -0.60 0  151 259 
 PTB  HE ES        947 41.26                             133   -0.29 9  151 259 
 PTB  HZ I         947 44.50         2.5 0.16            131            151 259 
 ZAR  HZ EP   3    947 27.54                             123    1.42 2  207 292 
 ZAR  HN ES        947 51.39                             123   -0.53 8  207 292 
 ZAR  HZ I         947 56.80         3.4 0.28            123            207 292 
 CHI  HZ EP   3    947 31.35                             118    0.37 2  248 196 
 CHI  HN ES   3    948  1.91                             118    1.36 2  248 196 
 CHI  HZ I         948  6.83         1.5 0.32            119            248 196 
 PTGC HZ EP        947 36.31                             112   -0.55 7  307 159 
 PTGC HN ES   2    948 10.10                             112   -0.93 4  307 159 
                                                                                
