 2017  7 7 0622 33.7 L   6.803 -73.146148.0  RSN 14 0.4 2.0LRSN                1
 GAP=101        1.04       3.9     2.8  5.6 -0.3869E-01  0.2763E+01  0.5894E+01E
 Epicentro: LOS SANTOS - SANTANDER                                             3
 ACTION:UPD 17-08-30 15:30 OP:rebc STATUS:               ID:20170707062233 L   I
 OLDACT:UP  17-07-07 17:33 OP:ar   STATUS:               ID:20170707061738     3
 OLDACT:UP  17-07-07 17:33 OP:ar   STATUS:               ID:20170707061738     3
 OLDACT:UP  17-07-07 17:32 OP:ar   STATUS:               ID:20170707061738     3
 OLDACT:UP  17-07-07 17:30 OP:ar   STATUS:               ID:20170707061738     3
 OLDACT:REG 17-07-07 13:15 OP:ar   STATUS:               ID:20170707061738     3
 2017-07-07-0618-00M.COL___374                                                 6
 STAT SP IPHASW D HRMM SECON CODA AMPLIT PERI AZIMU VELO AIN AR TRES W  DIS CAZ7
 BAR2 EZ EP        622 53.33                             170   -0.2710 23.7 190 
 BAR2 EZ ES        623  8.56                             170   -0.5710 23.7 190 
 BAR2 EZ I         623  9.78        49.7 0.20            168           23.7 190 
 BRR  HZ IP     C  622 55.17                             153    0.1010 71.0 298 
 BRR  HN ES        623 12.61                             153    0.8610 71.0 298 
 BRR  HZ I         623 13.38        12.3 0.38            151           71.0 298 
 PAM  EZ EP        622 56.20                             151    0.0710 77.1  40 
 PAM  EN ES        623 13.64                             151    0.0110 77.1  40 
 PAM  EZ I         623 15.84        11.3 0.58            154           77.1  40 
 PTB  HZ EP        623  0.43                             133   -0.42 9  148 259 
 PTB  HE ES        623 21.98                             133   -0.04 9  148 259 
 PTB  HZ I         623 23.39         7.8 0.16            131            148 259 
 TAM  HZ IP     C  623  1.56                             131   -0.00 9  155 105 
 TAM  HN ES        623 23.54                             131    0.24 9  155 105 
 SPBC HZ EP        623  2.34                             130   -0.05 9  163 219 
 SPBC HN ES        623 24.75                             130   -0.02 9  163 219 
 SPBC HZ I         623 26.98        29.5 0.20            128            163 219 
 YPLC HZ EP        623  3.31                             127   -0.38 9  177 151 
 YPLC HE ES        623 27.41                             127    0.33 9  177 151 
 ZAR  HZ EP        623  5.86                             123   -0.40 9  204 292 
 ZAR  HN ES        623 31.72                             123    0.05 9  204 292 
 ZAR  HZ I         623 38.27         5.5 0.12            122            204 292 
 NOR  HZ EP        623  9.52                             119   -0.05 8  235 234 
 NOR  HN ES        623 36.88                             119   -0.67 8  235 234 
 NOR  HZ I         623 40.43         7.0 0.14            118            235 234 
 ROSC BZ EP   4    623 14.13                             117    2.16 0  253 211 
 ROSC BN ES   4    623 45.73                             117    3.91 0  253 211 
 ROSC BZ I         623 48.96        10.8 0.40            117            253 211 
 GUY2CHZ EP   9    623 20.20                             113    2.78 0  301 235 
 GUY2CHE ES        623 55.07                             112    0.76 7  301 235 
 GUY2CHZ I         623 57.95         4.7 0.52                           301 235 
 PTGC HZ EP   4    623 16.23                             112   -1.46 0  309 159 
 PTGC HN ES   4    623 48.01                             112   -4.00 0  309 159 
 PTGC HZ I         623 51.19         5.8 0.38            112            309 159 
 CBOC HZ EP        623 21.70                             110    0.99 7  334 252 
 CBOC HN ES        623 57.01                             110   -0.37 7  334 252 
 CBOC HZ I         624 10.87         1.3 0.50            110            334 252 
 ORTC HZ EP        623 28.24                             107    0.52 6  396 216 
 ORTC HN ES        624 10.97                             107    1.11 6  396 216 
 ORTC HZ I         624 16.68         3.9 0.40            107            396 216 
                                                                                
