 2011  2 7 0441 12.2 L   6.223 -72.848  0.5  RSN  5 0.4 1.2LRSN                1
 GAP=208        0.84       3.1    11.7  8.2 -0.5036E+01  0.1742E+02  0.2335E+01E
 Epicentro: ONZAGA - SANTANDER                                                 3
 ACTION:UP  11-03-28 15:06 OP:jfem STATUS:               ID:20110207044113 L   I
 2011-02-07-0438-23S.COL___138                                                 6
 STAT SP IPHASW D HRMM SECON CODA AMPLIT PERI AZIMU VELO SNR AR TRES W  DIS CAZ7
 RUS  HZ EP   1    441 20.16                              47    -0.4 7   45 216 
 RUS  HN ES   2    441 26.75                              47    -0.4 5   45 216 
 RUS  HZ I         441 28.42        12.7 0.50                            45 216 
 BAR2 SZ EP   1    441 21.70                              47    -0.2 7   55 318 
 BAR2 SZ I         441 22.41         9.1 0.14                            55 318 
 BAR2 SZ ES   2    441 29.77                              47     0.4 5   55 318 
 BTL  SZ EP        441 27.09                                     0.010   90 329 
 GRA  SZ ES   2    442  3.53                              37    -0.2 4  184   2 
 GRA  SZ I         442  6.73         4.4 0.38                           184   2 
 CHI  HZ EP   1    441 44.59                              37     0.9 6  202 209 
 CHI  HN ES   2    442  8.37                              37     0.1 4  202 209 
 CHI  HZ I         442 19.66         1.8 0.28                           202 209 
                                                                                
