 2017  7 7 0327 49.6 L   6.789 -73.161139.9  RSN  8 0.5 1.9LRSN                1
 GAP=111        1.37       5.4     4.8  8.4  0.1292E+01  0.7713E+01  0.1161E+02E
 Epicentro: LOS SANTOS - SANTANDER                                             3
 ACTION:UPD 17-08-30 15:30 OP:rebc STATUS:               ID:20170707032749 L   I
 OLDACT:UP  17-07-07 15:59 OP:ar   STATUS:               ID:20170707031727     3
 OLDACT:REG 17-07-07 13:01 OP:ar   STATUS:               ID:20170707031727     3
 2017-07-07-0318-00M.COL___374                                                 6
 STAT SP IPHASW D HRMM SECON CODA AMPLIT PERI AZIMU VELO AIN AR TRES W  DIS CAZ7
 BAR2 EZ EP        328  8.17                             171   -0.3710 21.9 186 
 BAR2 EZ ES        328 23.19                             171   -0.0910 21.9 186 
 BAR2 EZ I         328 23.98        24.6 0.22            169           21.9 186 
 BRR  HZ EP        328 10.01                             152   -0.1010 70.3 300 
 BRR  HN ES        328 26.97                             152    0.9010 70.3 300 
 BRR  HZ I         328 30.20        13.4 0.30            152           70.3 300 
 PAM  EZ EP        328 11.18                             149   -0.1810 79.4  40 
 PAM  EN ES        328 27.75                             149   -0.5510 79.4  40 
 PAM  EZ I         328 30.15        12.1 0.44            153           79.4  40 
 PTB  HZ EP        328 15.15                             131   -0.81 9  146 259 
 PTB  HN ES        328 35.83                             131   -0.66 9  146 259 
 PTB  HZ I         328 38.34         5.4 0.18            132            146 259 
 SPBC HZ EP        328 18.27                             128    0.76 9  161 219 
 SPBC HN ES        328 39.11                             128   -0.13 9  161 219 
 SPBC HZ I         328 44.08        15.3 0.26            129            161 219 
 YPLC HZ EP        328 18.98                             125   -0.01 9  177 151 
 YPLC HN ES        328 42.71                             125    0.82 9  177 151 
 YPLC HZ I         328 46.23         5.2 0.32            127            177 151 
 ZAR  HZ EP        328 22.21                             121    0.61 9  203 293 
 ZAR  HN ES        328 47.24                             121    0.72 9  203 293 
 ZAR  HZ I         328 52.15        11.5 0.34            123            203 293 
 NOR  HZ EP        328 24.54                             117   -0.27 8  233 234 
 NOR  HN ES        328 51.82                             117   -0.43 8  233 234 
 NOR  HZ I         328 58.34         6.2 0.16            118            233 234 
                                                                                
