 2016  9 7 0538 34.1 L   6.814 -73.105148.6  RSN 22 0.5 2.5LRSN                1
 GAP= 54        1.14       2.8     3.2  5.0 -0.2775E+01  0.8061E+00  0.1304E+01E
 Epicentro: LOS SANTOS - SANTANDER                                             3
 ACTION:UPD 17-08-17 21:07 OP:lp   STATUS:               ID:20160907053834 L   I
 OLDACT:UP  16-09-07 15:39 OP:dani STATUS:               ID:20160907053734     3
 OLDACT:UP  16-09-07 15:39 OP:dani STATUS:               ID:20160907053734     3
 OLDACT:UP  16-09-07 15:34 OP:dani STATUS:               ID:20160907053734     3
 OLDACT:UP  16-09-07 15:34 OP:dani STATUS:               ID:20160907053734     3
 OLDACT:REG 16-09-07 12:58 OP:dani STATUS:               ID:20160907053734     3
 2016-09-07-0538-00M.COL___358                                                 6
 STAT SP IPHASW D HRMM SECON CODA AMPLIT PERI AZIMU VELO AIN AR TRES W  DIS CAZ7
 BAR2 EZ EP     D  538 54.10                             170    0.0210 25.9 199 
 BAR2 EZ ES        539  8.90                             170   -0.7910 25.9 199 
 BAR2 EZ I         539 10.92        76.8 0.32            169           25.9 199 
 PAM  EZ EP        538 57.05                             153    0.7110 73.4  38 
 PAM  EE ES        539 14.34                             153    0.6210 73.4  38 
 PAM  EZ I         539 16.38        62.5 0.44            154           73.4  38 
 BRR  HZ EP     C  538 55.93                             152    0.2310 74.5 296 
 BRR  HN ES        539 13.18                             152    0.6110 74.5 296 
 BRR  HZ I         539 16.90        34.5 0.36            150           74.5 296 
 RUS  HZ EP        538 58.04                             144   -0.1410  102 179 
 RUS  HN ES        539 17.00                             144    0.0110  102 179 
 RUS  HZ I         539 18.57        43.8 0.40            145            102 179 
 TAM  HZ EP     D  539  2.39                             132    0.79 9  151 106 
 PTB  HZ EP        539  0.97                             132   -0.71 9  152 259 
 PTB  HE ES        539 23.15                             132   -0.07 9  152 259 
 PTB  HZ I         539 23.89        26.7 0.14            131            152 259 
 OCA  HZ EP        539  2.20                             130   -0.30 9  159 351 
 OCA  HE ES        539 24.43                             130   -0.26 9  159 351 
 OCA  HZ I         539 29.17        56.9 0.22            131            159 351 
 SPBC HZ EP        539  3.07                             129   -0.08 9  167 220 
 SPBC HN ES        539 25.42                             129   -0.43 9  167 220 
 SPBC HZ I         539 29.69        72.6 0.36            129            167 220 
 ZAR  HZ EP        539  6.67                             122   -0.39 8  208 291 
 ZAR  HE ES        539 32.25                             122   -0.55 8  208 291 
 ZAR  HZ I         539 38.84        20.3 0.28            122            208 291 
 NOR  HZ EP        539  9.97                             119   -0.47 8  239 235 
 NOR  HE ES        539 38.95                             119    0.14 8  239 235 
 NOR  HZ I         539 41.52        20.3 0.20            119            239 235 
 CHI  HZ EP        539 12.28                             117    0.08 8  251 196 
 CHI  HN ES        539 41.71                             117   -0.24 8  251 196 
 CHI  HZ I         539 44.97        14.0 0.54            118            251 196 
 ROSC BZ EP   4    539 13.85                             117    1.12 0  256 212 
 ROSC BE ES        539 43.38                             117    0.49 8  256 212 
 ROSC BZ I         539 51.61        32.1 0.40            117            256 212 
 HEL  HZ EP        539 15.57                             115    0.63 7  277 256 
 HEL  HN ES   4    539 45.37                             115   -1.45 0  277 256 
 HEL  HZ I         539 53.15        17.8 0.26            115            277 256 
 SOCV BZ EP        539 16.78                             113    0.06 7  297  57 
 SOCV BE ES        539 49.17                             113   -0.82 7  297  57 
 GUY2CHZ EP        539 18.98                             112    0.67 7  306 235 
 GUY2CHE ES        539 52.79                             112   -0.03 7  306 235 
 GUY2CHZ I         540  0.33        12.1 0.32                           306 235 
 PTGC HZ EP        539 17.11                             112   -0.91 7  309 160 
 PTGC HN ES   4    539 50.58                             112   -1.73 0  309 160 
 PTGC HZ I         539 55.30         9.8 0.42            113            309 160 
 ELA  HZ EP   4    539 22.70                             110    1.17 0  334 230 
 ELA  HN ES        539 58.73                             110    0.17 7  334 230 
 ELA  HZ I         540  5.53        12.7 0.36            111            334 230 
 CBOC HZ EP        539 22.55                             110    0.92 7  338 252 
 ARGC HZ EP   4    539 25.22                             109    1.39 0  359 340 
 ARGC HN ES        540  2.65                             109   -0.01 6  359 340 
 ARGC HZ I         540 12.66         5.4 0.22            109            359 340 
 ANIL HZ EP   9    539 25.70                             109    1.24 0  362 225 
 ANIL HN ES        540  5.71                             108    0.70 6  362 225 
 PAL  HZ EP        539 29.78                             106   -0.07 6  410 239 
 SJC  HZ EP   4    539 28.29                             106   -1.56 0  410 326 
 SJC  HN ES   4    540  9.57                             106   -3.80 0  410 326 
 SJC  HZ I         540 16.59         5.1 0.26            106            410 326 
                                                                                
