 2012  8 7 0339 37.1 L   6.766 -73.122135.6  RSN  5 0.3 1.8LRSN                1
 GAP=141        0.65       4.0     4.0  5.7 -0.1481E+01  0.2948E+01  0.9181E+00E
 Epicentro: LOS SANTOS - SANTANDER                                             3
 ACTION:UPD 12-09-10 11:54 OP:ep   STATUS:               ID:20120807033937 L   I
 2012-08-07-0334-41M.COL___210                                                 6
 STAT SP IPHASW D HRMM SECON CODA AMPLIT PERI AZIMU VELO AIN AR TRES W  DIS CAZ7
 BAR2 SZ EP        339 55.42                             171   -0.0310 20.3 199 
 BAR2 SZ ES   1    340  9.57                             171   -0.19 7 20.3 199 
 BAR2 SZ I         340 12.14        19.6 0.26                          20.3 199 
 BRR  HZ EP        339 57.53                             149    0.1110 75.3 300 
 BRR  HN ES   1    340 13.90                             149    0.64 7 75.3 300 
 BRR  HZ I         340 18.55        21.0 0.14                          75.3 300 
 PAM  SZ EP        339 58.39                             148    0.0510 78.7  36 
 PAM  SN ES   1    340 14.49                             148   -0.40 7 78.7  36 
 RUS  HZ EP        339 59.62                             143    0.0410 96.7 177 
 RUS  HN ES   1    340 17.30                             143    0.20 7 96.7 177 
 RUS  HZ I         340 20.08        13.8 0.04                          96.7 177 
 PTB  HZ EP        340  3.39                             129   -0.05 9  150 260 
 PTB  HN ES   1    340 23.42                             129   -0.56 7  150 260 
 PTB  HZ I         340 26.07         5.3 0.16                           150 260 
                                                                                
