 2011  9 7 0400 25.3 L   6.795 -73.033142.1  RSN 12 0.2 2.2LRSN                1
 GAP=194        0.33       1.8     2.8  3.8  0.1234E+00  0.2653E+01  0.1161E+01E
 Epicentro: CEPITA - SANTANDER                                                 3
 ACTION:UPD 12-07-13 15:56 OP:ep   STATUS:               ID:20110907040025 L   I
 2011-09-07-0359-31S.COL___171                                                 6
 STAT SP IPHASW D HRMM SECON CODA AMPLIT PERI AZIMU VELO AIN AR TRES W  DIS CAZ7
 BAR2 SZ IP        4 0 44.70                             168    0.1510 27.9 216 
 BAR2 SZ ES   2    4 0 59.45                             168   -0.15 5 27.9 216 
 BAR2 SZ I         4 1  0.62        49.6 0.29                          27.9 216 
 BRR  HZ EP        4 0 46.63                             148   -0.0810 82.6 295 
 BRR  HZ I         4 0 46.99        81.5 0.09                          82.6 295 
 BRR  HE ES   2    4 1  3.65                             148    0.21 5 82.6 295 
 RUS  HZ EP   1    4 0 48.66                             143    0.06 7100.0 183 
 RUS  HN ES   2    4 1  6.76                             143   -0.06 5100.0 183 
 RUS  HZ I         4 1  7.90        17.1 0.27                         100.0 183 
 OCA  SZ EP   2    4 0 53.40                             128   -0.12 5  163 349 
 OCA  SZ ES   2    4 1 15.58                             128    0.01 5  163 349 
 OCA  SZ I         4 1 17.36        20.6 0.43                           163 349 
 ZAR  HZ EP   2    4 0 58.80                             120    0.10 4  216 291 
 ZAR  HN ES   2    4 1 24.49                             120   -0.30 4  216 291 
 ZAR  HZ I         4 1 29.07        16.0 0.11                           216 291 
 NOR  SE ES   2    4 1 30.21                             117   -0.20 4  245 236 
 CHI  HZ EP   2    4 1  2.79                             116   -0.30 4  252 198 
 CHI  HN ES   2    4 1 32.14                             116   -0.46 4  252 198 
 CHI  HZ I         4 1 37.98         7.3 0.26                           252 198 
 ROSC BN ES   2    4 1 34.39                             115    0.42 4  259 213 
 ROSC BZ I         4 1 41.04        11.5 0.50                           259 213 
 HEL  HZ EP   2    4 1  6.98                             113    0.35 4  284 257 
 HEL  HE ES   2    4 1 38.60                             113   -0.30 4  284 257 
 HEL  HZ I         4 1 43.98         5.8 0.21                           284 257 
 RREF HN ES   2    4 1 49.45                             110    0.45 3  331 231 
 RREF HZ I         4 1 52.93         8.4 0.44                           331 231 
 PRA  HZ EP   2    4 1 19.13                             106   -0.21 3  398 211 
 PRA  HN ES   2    4 2  1.77                             106    0.25 3  398 211 
 SJA  SZ ES   2    4 2  2.34                             105   -0.32 3  403 195 
                                                                                
