 2015  3 7 0518  9.8 L   6.861 -73.299128.4  RSN  4 0.4 0.7LRSN                1
 GAP=216        0.90       7.6     6.4  8.8  0.1614E+02  0.9892E+01  0.5730E+01E
 Epicentro: BETULIA - SANTANDER                                                3
 ACTION:UPD 15-04-30 16:23 OP:nd   STATUS:               ID:20150307051809 L   I
 OLDACT:DUP 15-03-07 16:40 OP:spq  STATUS:               ID:20150307050740d    3
 2015-03-07-0507-39M.COL___284                                                 6
 STAT SP IPHASW D HRMM SECON CODA AMPLIT PERI AZIMU VELO AIN AR TRES W  DIS CAZ7
 BAR2 EZ EP        518 27.84                             165    0.2910 32.4 157 
 BAR2 EZ ES   1    518 40.85                             165   -0.58 7 32.4 157 
 BRR  HZ EP        518 28.31                             156    0.2710 53.1 301 
 BRR  HN ES        518 42.30                             156   -0.0010 53.1 301 
 BRR  HZ I         518 43.53         2.3 0.40            156           53.1 301 
 RUS  HN ES   1    518 50.60                             137    0.21 7  110 167 
 RUS  HZ I         518 51.49         0.4 0.16            138            110 167 
 PTB  HZ EP        518 33.32                             131   -0.6410  133 255 
 PTB  HN ES        518 53.09                             131    0.2610  133 255 
 PTB  HZ I         518 55.27         1.2 0.00            131            133 255 
                                                                                
