 2013  8 7 0224 49.1 L   6.810 -73.384124.3  RSN  8 0.4 1.6LRSN                1
 GAP= 94        0.98       4.8     4.0  7.6  0.2668E+01  0.8766E+01 -0.6356E+00E
 Epicentro: SAN VICENTE DE CHUCURI - SANTANDER                                 3
 ACTION:UPD 14-01-14 08:59 OP:ep   STATUS:               ID:20130807022449 L   I
 OLDACT:REG 13-08-07 07:28 OP:carl STATUS:               ID:20130807021959     3
 2013-08-07-0219-59M.COL___269                                                 6
 STAT SP IPHASW D HRMM SECON CODA AMPLIT PERI AZIMU VELO AIN AR TRES W  DIS CAZ7
 BAR2 SZ EP   1    225  6.37                             164   -0.05 7 32.9 137 
 BAR2 SZ ES   1    225 20.45                             164    0.52 7 32.9 137 
 BAR2 SZ I         225 20.77        27.1 0.26            171           32.9 137 
 GIR2 SZ EP        225  6.13                             163   -0.2710 36.4  35 
 GIR2 SZ ES   1    225 19.40                             163   -0.50 7 36.4  35 
 GIR2 SZ I         225 23.69        11.2 0.38            166           36.4  35 
 BRR  HZ EP        225  6.88                             157    0.1610 48.9 312 
 BRR  HN ES   1    225 21.24                             157    0.79 7 48.9 312 
 BRR  HZ I         225 26.64         5.3 0.12            156           48.9 312 
 PAM  SZ EP   1    225 10.05                             140   -0.36 7 95.6  52 
 PAM  SN ES   1    225 26.82                             140   -0.21 7 95.6  52 
 PAM  SZ I         225 28.26         6.7 0.22            147           95.6  52 
 RUS  HZ EP   1    225 11.66                             137    0.34 7  107 162 
 RUS  HE ES        225 28.78                             137    0.1410  107 162 
 RUS  HZ I         225 30.08         1.6 0.24            144            107 162 
 PTB  HZ EP        225 11.94                             132   -0.0610  122 256 
 PTB  HN ES        225 29.04                             132   -0.8310  122 256 
 PTB  HZ I         225 33.72         6.9 0.30            135            122 256 
 OCA  HN ES   4    225 34.63                             125   -1.67 0  158   3 
 OCA  HN I         225 36.07        27.7 0.34            129            158   3 
 ZAR  HZ EP   1    225 18.24                             121    0.63 7  179 295 
 ZAR  HN ES        225 40.16                             121    0.31 9  179 295 
 ZAR  HZ I         225 46.91         5.3 0.30            124            179 295 
                                                                                
