 2012  4 7 0856 53.4 L   6.807 -73.179139.7  RSN 10 0.3 2.0LRSN                1
 GAP=132        0.73       3.2     4.1  6.0 -0.2366E+01  0.1049E+02 -0.2993E+00E
 Epicentro: LOS SANTOS - SANTANDER                                             3
 ACTION:UPD 12-07-05 11:51 OP:tino STATUS:               ID:20120407085653 L   I
 2012-04-07-0850-00M.COL___196                                                 6
 STAT SP IPHASW D HRMM SECON CODA AMPLIT PERI AZIMU VELO AIN AR TRES W  DIS CAZ7
 BAR2 SZ EP        857 12.35                             170     0.110   24 181 
 BAR2 SZ ES   1    857 27.02                             170     0.0 7   24 181 
 BAR2 SZ I         857 28.43        39.3 0.29                            24 181 
 BRR  HZ EP        857 14.14                             153     0.510   68 299 
 BRR  HZ I         857 31.82        33.9 0.11                            68 299 
 PAM  SZ EP   1    857 15.31                             149     0.3 7   79  42 
 PAM  SN ES   1    857 32.18                             149     0.2 7   79  42 
 PAM  SZ I         857 34.39        10.9 0.46                            79  42 
 RUS  HZ EP   1    857 16.39                             142    -0.2 7  102 174 
 RUS  HN ES   1    857 34.33                             142    -0.4 7  102 174 
 RUS  HZ I         857 36.87        11.3 0.30                           102 174 
 PTB  HZ EP   1    857 19.14                             131    -0.4 7  144 258 
 PTB  HN ES   1    857 39.99                             131     0.1 7  144 258 
 PTB  HZ I         857 41.57         8.9 0.12                           144 258 
 OCA  SZ EP   1    857 20.62                             128    -0.5 7  159 354 
 OCA  SZ ES   1    857 42.36                             128    -0.4 7  159 354 
 ZAR  HZ EP   1    857 25.21                             121     0.2 6  200 292 
 ZAR  HN ES   1    857 49.38                             121    -0.4 6  200 292 
 ZAR  HZ I         857 56.49        16.4 0.29                           200 292 
 NOR  SZ EP   1    857 28.60                             117     0.1 6  232 234 
 NOR  SN ES   1    857 56.34                             117     0.5 6  232 234 
 HEL  HZ EP   1    857 33.08                             114     0.2 6  269 255 
 HEL  HZ I         858 11.41         8.2 0.35                           269 255 
 PRA  HZ EP   1    857 46.70                             105     0.1 4  391 209 
 PRA  HN ES   1    858 27.48                             105    -0.6 4  391 209 
                                                                                
