 2015 11 7 0605 41.9 L   7.350 -73.453 99.3  RSN  9 0.5 1.5LRSN                1
 GAP= 87        1.08       3.5     3.9  7.4 -0.7497E+00  0.1093E+02 -0.1227E+01E
 Epicentro: SABANA DE TORRES - SANTANDER                                       3
 ACTION:UPD 15-12-28 16:09 OP:cam  STATUS:               ID:20151107060541 L   I
 OLDACT:DUP 15-11-07 21:30 OP:cara STATUS:               ID:20151107055748d    3
 OLDACT:REG 15-11-07 14:07 OP:cara STATUS:               ID:20151107055747     3
 2015-11-07-0557-47M.COL___307                                                 6
 STAT SP IPHASW D HRMM SECON CODA AMPLIT PERI AZIMU VELO AIN AR TRES W  DIS CAZ7
 BRR  HZ EP        6 5 55.69                             157   -0.5710 39.2 227 
 BRR  HN ES        6 6  7.21                             157   -0.2410 39.2 227 
 BRR  HZ I         6 6  8.69         4.4 0.20            155           39.2 227 
 PAM  EZ EP        6 5 59.70                             138   -0.2310 83.2  91 
 PAM  EE ES        6 6 14.41                             138    0.4210 83.2  91 
 PAM  EZ I         6 6 14.96         5.0 0.26            140           83.2  91 
 BAR2 EZ EP   2    6 6  0.87                             136    0.80 5 89.0 160 
 BAR2 EZ ES        6 6 13.92                             136   -0.3210 89.0 160 
 OCA  HZ EP        6 6  0.33                             132   -0.5610 99.4   9 
 OCA  HN ES        6 6 16.13                             132    0.4310 99.4   9 
 OCA  HZ I         6 6 18.25        18.3 0.18            130           99.4   9 
 ZAR  HZ EP        6 6  6.34                             119   -0.09 9  156 276 
 ZAR  HN ES        6 6 26.39                             119    0.84 9  156 276 
 ZAR  HZ I         6 6 30.08         4.2 0.14            116            156 276 
 SML  HZ EP   4    6 6  6.98                             116   -1.46 0  174 337 
 SML  HN ES   4    6 6 30.89                             116    1.75 0  174 337 
 SML  HZ I         6 6 34.58         9.4 0.10            114            174 337 
 SPBC HZ EP        6 6 11.81                             112    0.37 9  200 200 
 SPBC HN ES        6 6 34.70                             112    0.22 9  200 200 
 SPBC HZ I         6 6 38.35         3.4 0.20            112            200 200 
 URE  HZ EP        6 6 15.17                             109   -0.10 8  234 281 
 URE  HN ES   2    6 6 40.48                             109   -0.82 4  234 281 
 URE  HZ I         6 6 47.11         2.8 0.20            107            234 281 
 MON  HZ EP   4    6 6 20.37                             105   -1.59 0  290 303 
 MON  HZ I         6 6 27.94         0.8 0.60            104            290 303 
 MON  HN ES   4    6 6 52.42                             105   -0.78 0  290 303 
                                                                                
