 2013  8 7 0719 44.6 L   6.804 -73.143152.1  RSN  7 0.5 1.5LRSN                1
 GAP=183        1.15       4.6     8.2  9.2  0.9291E+01  0.7001E+01 -0.5025E+01E
 Epicentro: LOS SANTOS - SANTANDER                                             3
 ACTION:UPD 14-01-14 08:59 OP:ep   STATUS:               ID:20130807071944 L   I
 OLDACT:REG 13-08-07 07:36 OP:carl STATUS:               ID:20130807071959     3
 2013-08-07-0719-59M.COL___270                                                 6
 STAT SP IPHASW D HRMM SECON CODA AMPLIT PERI AZIMU VELO AIN AR TRES W  DIS CAZ7
 BAR2 SZ EP        720  5.14                             171    0.1810 23.8 191 
 BAR2 SZ ES        720 20.57                             171   -0.3010 23.8 191 
 BAR2 SZ I         720 22.79         4.9 0.30            173           23.8 191 
 GIR2 SZ ES        720 21.24                             168    0.3510 30.9 350 
 GIR2 SZ I         720 23.34         4.2 0.24            166           30.9 350 
 BRR  HZ EP        720  6.91                             154    0.5210 71.2 298 
 BRR  HE ES   1    720 24.46                             154    1.03 7 71.2 298 
 BRR  HE I         720 26.95         9.1 0.20            153           71.2 298 
 RUS  HZ EP        720  9.15                             145    0.1810  101 176 
 RUS  HE ES        720 27.54                             145   -0.4610  101 176 
 RUS  HZ I         720 30.60         2.4 0.40            148            101 176 
 PTB  HN ES        720 33.16                             133   -0.39 9  148 259 
 OCA  HE ES        720 35.19                             131   -0.57 9  160 353 
 SML  HN ES        720 49.97                             119   -0.37 8  243 335 
 SML  HN I         720 57.70         8.1 0.10            119            243 335 
                                                                                
