 2012  3 7 0148 55.8 L   6.480 -73.840 87.3  RSN  4 0.4 1.5LRSN                1
 GAP=148        0.97       7.7     4.6 12.5 -0.7467E+01 -0.1499E+02  0.4554E+02E
 ACTION:UP  12-03-31 23:17 OP:EP   STATUS:               ID:20120307014855 L   I
 2012-03-07-0140-00M.COL___194                                                 6
 STAT SP IPHASW D HRMM SECON CODA AMPLIT PERI AZIMU VELO SNR AR TRES W  DIS CAZ7
 PTB  HZ EP        149 10.92                             139     0.010   68 276 
 PTB  HE ES        149 22.50                             139    -0.110   68 276 
 BRR  HZ EP        149 11.03                             137     0.010   71  12 
 BRR  HZ I         149 11.26        12.1 0.11                            71  12 
 BRR  HE ES        149 23.16                             137     0.210   71  12 
 BAR2 SZ EP   1    149 10.77                             137    -0.9 7   74  80 
 BAR2 SZ ES   1    149 23.84                             137    -0.1 7   74  80 
 BAR2 SZ I         149 25.86         8.7 0.25                            74  80 
 RUS  HZ EP   1    149 15.61                             126     0.7 7  106 128 
                                                                                
