 2011 11 7 0541 25.0 L   6.818 -73.332117.6  RSN  5 0.4 1.6LRSN                1
 GAP=129        0.84       5.1     5.1  7.9  0.7916E+01  0.1034E+02 -0.4349E+00E
 Epicentro: ZAPATOCA - SANTANDER                                               3
 ACTION:UPD 12-07-13 16:08 OP:ep   STATUS:               ID:20111107054125 L   I
 2011-11-07-0539-46S.COL___175                                                 6
 STAT SP IPHASW D HRMM SECON CODA AMPLIT PERI AZIMU VELO AIN AR TRES W  DIS CAZ7
 BAR2 SZ EP        541 41.92                             165    0.4410 29.9 146 
 BAR2 SZ I         541 42.12        32.7 0.12                          29.9 146 
 BAR2 SZ ES   1    541 54.10                             165   -0.21 7 29.9 146 
 BRR  HZ EP        541 42.06                             154   -0.0610 52.8 307 
 BRR  HZ I         541 42.32        22.9 0.12                          52.8 307 
 BRR  HN ES   1    541 55.37                             154   -0.06 7 52.8 307 
 PAM  SZ EP   1    541 45.87                             140    0.54 7 90.6  50 
 PAM  SZ I         541 47.76         3.6 0.15                          90.6  50 
 PAM  SN ES   1    542  0.80                             140   -0.36 7 90.6  50 
 RUS  HZ EP   1    541 45.83                             135   -0.76 7  106 165 
 RUS  HN ES   1    542  3.69                             135    0.29 7  106 165 
 RUS  HZ I         542  5.75         3.3 0.28                           106 165 
 ZAR  HZ EP   1    541 53.24                             118   -0.44 7  184 294 
 ZAR  HN ES   1    542 16.30                             118    0.28 7  184 294 
 ZAR  HZ I         542 18.50         5.5 0.20                           184 294 
                                                                                
