 2016  6 7 0651 50.8 L   6.804 -73.118144.4  RSN  7 0.4 1.5LRSN                1
 GAP=140        1.07       4.8     5.8  8.5 -0.8967E+01  0.1045E+02 -0.3287E+01E
 Epicentro: LOS SANTOS - SANTANDER                                             3
 ACTION:UPD 16-07-21 22:16 OP:rebc STATUS:               ID:20160607065150 L   I
 OLDACT:UP  16-06-08 21:41 OP:rebc STATUS:               ID:20160607065150 L   3
 OLDACT:UP  16-06-08 21:40 OP:rebc STATUS:               ID:20160607065150 L   3
 OLDACT:UP  16-06-08 20:46 OP:nlst STATUS:               ID:20160607065150 L   3
 OLDACT:UP  16-06-07 18:49 OP:dani STATUS:               ID:20160607064747     3
 OLDACT:REG 16-06-07 13:21 OP:dani STATUS:               ID:20160607064747     3
 2016-06-07-0647-47M.COL___319                                                 6
 STAT SP IPHASW D HRMM SECON CODA AMPLIT PERI AZIMU VELO AIN AR TRES W  DIS CAZ7
 BAR2 EZ EP        652 10.26                             170   -0.0110 24.5 197 
 BAR2 EZ ES        652 25.00                             170   -0.4810 24.5 197 
 BAR2 EZ I         652 28.59         3.8 0.18                          24.5 197 
 BRR  HZ EP        652 12.15                             151    0.2210 73.7 297 
 BRR  HN ES        652 28.87                             151    0.4510 73.7 297 
 BRR  HZ I         652 33.10         5.6 0.23                          73.7 297 
 PAM  EZ EP        652 13.13                             151    0.4110 75.1  38 
 PAM  EN ES        652 30.07                             151    0.2410 75.1  38 
 PAM  EZ I         652 32.17         6.6 0.58                          75.1  38 
 RUS  HE ES   1    652 32.92                             143    0.06 7  101 178 
 PTB  HZ EP        652 17.71                             131   -0.22 9  151 259 
 PTB  HE ES        652 39.50                             131    0.41 9  151 259 
 PTB  HZ I         652 40.06         4.1 0.18                           151 259 
 OCA  HN ES        652 40.11                             129   -0.86 9  160 352 
 SPBC HN ES   1    652 41.05                             128   -0.67 7  165 220 
 SPBC HZ I         652 45.67         4.1 0.24                           165 220 
                                                                                
