 2012  1 7 0258 12.9 L   6.741 -73.064142.7  RSN  9 0.3 2.0LRSN                1
 GAP=150        0.55       2.8     5.0  4.3  0.1086E+00  0.2195E+01  0.3786E+00E
 Epicentro: JORDAN - SANTANDER                                                 3
 ACTION:UP  12-02-03 08:14 OP:REBC STATUS:               ID:20120107025812 L   I
 2012-01-07-0250-00M.COL___186                                                 6
 STAT SP IPHASW D HRMM SECON CODA AMPLIT PERI AZIMU VELO SNR AR TRES W  DIS CAZ7
 BAR2 SZ EP   1    258 32.05                             171    -0.1 7   21 218 
 BAR2 SZ ES   1    258 47.05                             171    -0.1 7   21 218 
 BAR2 SZ I         258 49.76        23.0 0.36                            21 218 
 GIR2 SZ EP   1    258 32.15                             164    -0.4 7   40 339 
 GIR2 SZ ES   2    258 48.00                             164     0.2 5   40 339 
 PAM  SZ EP        258 34.74                             150    -0.110   77  31 
 PAM  SN ES   2    258 52.30                             150     0.4 5   77  31 
 BRR  HZ EP   1    258 34.02                             148    -0.4 7   82 300 
 BRR  HE ES   1    258 51.31                             148     0.1 7   82 300 
 BRR  HZ I         258 54.94        26.9 0.16                            82 300 
 RUS  HZ EP   1    258 35.98                             145     0.1 7   94 181 
 RUS  HN ES   1    258 53.90                             145     0.1 7   94 181 
 OCA  SZ EP   2    258 42.25                             128     0.5 5  168 350 
 OCA  SZ ES   2    259  4.75                             128     0.5 5  168 350 
 OCA  SZ I         259  8.85        13.9 0.19                           168 350 
 ZAR  HZ EP   1    258 46.17                             120    -0.1 6  215 293 
 ZAR  HZ I         259 15.69        10.3 0.57                           215 293 
 CHI  HZ EP   1    258 50.25                             117     0.2 6  245 198 
 CHI  HE ES   2    259 19.32                             117     0.3 4  245 198 
 CHI  HZ I         259 29.49         4.0 0.42                           245 198 
 HEL  HZ EP   2    258 54.28                             114     0.5 4  279 258 
 HEL  HZ I         259 31.61         4.6 0.48                           279 258 
                                                                                
