 2017  6 7 0057 54.9 L   6.836 -73.072142.4  RSN  6 0.3 1.5LRSN                1
 GAP=248        0.73       4.0     5.1  6.6  0.7763E+01  0.4894E+01  0.4216E+01E
 Epicentro: LOS SANTOS - SANTANDER                                             3
 ACTION:UPD 17-09-14 16:50 OP:jn   STATUS:               ID:20170607005754 L   I
 OLDACT:UP  17-06-07 14:21 OP:edw  STATUS:               ID:20170607005740     3
 OLDACT:UP  17-06-07 14:21 OP:edw  STATUS:               ID:20170607005740     3
 OLDACT:REG 17-06-07 11:43 OP:edw  STATUS:               ID:20170607005740     3
 2017-06-07-0058-00M.COL___371                                                 6
 STAT SP IPHASW D HRMM SECON CODA AMPLIT PERI AZIMU VELO AIN AR TRES W  DIS CAZ7
 BRR  HZ EP        058 16.15                             150    0.0910 76.8 293 
 BRR  HN ES        058 32.12                             150   -0.4110 76.8 293 
 RUS  HZ EP        058 18.77                             142    0.1310  104 181 
 RUS  HE ES        058 37.40                             142    0.2810  104 181 
 RUS  HZ I         058 38.64         5.8 0.32            143            104 181 
 PTB  HN ES   4    058 41.75                             129   -2.16 0  157 258 
 PTB  HZ I         058 47.24         2.9 0.36            130            157 258 
 SPBC HZ EP        058 23.86                             127   -0.12 9  171 220 
 SPBC HN ES        058 46.40                             127   -0.23 9  171 220 
 ZAR  HN ES        058 53.95                             121    0.51 8  210 290 
 NOR  HZ EP        058 31.01                             117   -0.43 8  244 235 
 NOR  HN ES        059  0.09                             117    0.17 8  244 235 
 NOR  HZ I         059  0.45         2.2 0.20            118            244 235 
                                                                                
