 2016  6 7 0208 26.2 L   6.777 -73.165146.0  RSN  5 0.6 1.4LRSN                1
 GAP=234        1.33       7.8     8.4 11.6  0.8290E+01  0.3539E+01  0.1737E+02E
 Epicentro: LOS SANTOS - SANTANDER                                             3
 ACTION:UPD 16-07-21 22:16 OP:rebc STATUS:               ID:20160607020826 L   I
 OLDACT:UP  16-06-07 15:03 OP:dani STATUS:               ID:20160607020741     3
 OLDACT:REG 16-06-07 12:32 OP:dani STATUS:               ID:20160607020741     3
 2016-06-07-0207-41M.COL___334                                                 6
 STAT SP IPHASW D HRMM SECON CODA AMPLIT PERI AZIMU VELO AIN AR TRES W  DIS CAZ7
 BRR  HZ EP        2 8 46.89                             153   -0.4810 70.7 301 
 BRR  HN ES        2 9  4.46                             153    0.5910 70.7 301 
 BRR  HZ I         2 9  6.32         3.2 0.14                          70.7 301 
 RUS  HZ EP        2 8 49.60                             145   -0.2310 98.2 175 
 RUS  HE ES        2 9  8.29                             145    0.0510 98.2 175 
 RUS  HZ I         2 9  8.75         2.7 0.18                          98.2 175 
 PTB  HE ES        2 9 13.19                             133   -0.66 9  145 260 
 PTB  HZ I         2 9 15.40         3.0 0.30                           145 260 
 SPBC HZ EP        2 8 54.09                             130   -0.34 9  160 219 
 SPBC HN ES        2 9 16.59                             130    0.16 9  160 219 
 SPBC HZ I         2 9 20.71         5.6 0.10                           160 219 
 NOR  HZ EP        2 9  2.94                             119    1.31 8  231 235 
 NOR  HN ES        2 9 29.14                             119   -0.10 8  231 235 
 NOR  HZ I         2 9 33.16         2.9 0.24                           231 235 
                                                                                
