 2012  1 7 0415 35.4 L   6.786 -73.131151.7  RSN  8 0.3 1.7LRSN                1
 GAP=139        0.72       4.7     5.1  6.1  0.3517E+00  0.5838E+01  0.7765E+01E
 Epicentro: LOS SANTOS - SANTANDER                                             3
 ACTION:UP  12-02-03 08:14 OP:REBC STATUS:               ID:20120107041535 L   I
 2012-01-07-0410-00M.COL___186                                                 6
 STAT SP IPHASW D HRMM SECON CODA AMPLIT PERI AZIMU VELO SNR AR TRES W  DIS CAZ7
 BAR2 SZ EP        415 55.58                             171    -0.110   22 195 
 BAR2 SZ ES   1    416 11.45                             171    -0.1 7   22 195 
 BAR2 SZ I         416 12.36         9.5 0.37                            22 195 
 GIR2 SZ EP   1    415 55.64                             167    -0.2 7   33 348 
 GIR2 SZ ES   2    416 11.42                             167    -0.3 5   33 348 
 BRR  HZ IP     C  415 57.45                             153     0.110   73 299 
 BRR  HZ I         415 57.76        27.4 0.19                            73 299 
 BRR  HN ES   1    416 15.24                             153     0.8 7   73 299 
 PAM  SZ EP   1    415 58.50                             152     0.2 7   78  38 
 PAM  SE ES   1    416 15.85                             152    -0.2 7   78  38 
 RUS  HZ EP   1    415 59.83                             145     0.2 7   99 177 
 RUS  HE ES   2    416 18.35                             145    -0.2 5   99 177 
 RUS  HZ I         416 19.45         4.0 0.24                            99 177 
 PTB  HZ EP   1    416  2.57                             133    -0.4 7  149 260 
 PTB  HN ES   2    416 23.91                             133    -0.6 5  149 260 
 ZAR  HZ EP   2    416  8.32                             123    -0.1 4  206 292 
 ZAR  HE ES   2    416 33.83                             123    -0.4 4  206 292 
 ZAR  HZ I         416 40.75         5.8 0.39                           206 292 
 CHI  HZ EP   1    416 13.67                             118     0.3 6  248 196 
 CHI  HZ I         416 16.27         2.1 0.47                           248 196 
 CHI  HN ES   2    416 43.10                             118     0.2 4  248 196 
                                                                                
