 2010  4 7 0400 10.9 L   6.846 -73.002149.6  RSN  8 0.5 2.3LRSN                1
 GAP=224        0.67       4.4     6.8  5.7 -0.8747E+01 -0.7373E+00  0.7476E+01E
 Epicentro: CEPITA - SANTANDER                                                 3
 ACTION:UPD 10-08-24 09:58 OP:vdl  STATUS:               ID:20100407040011 L   I
 2010-04-07-0358-38S.COL___097                                                 6
 STAT SP IPHASW D HRMM SECON CODA AMPLIT PERI AZIMU VELO AIN AR TRES W  DIS CAZ7
 BAR2 SZ EP        4 0 31.05                             166    -0.210   35 216 
 BAR2 SZ ES   1    4 0 47.19                             166     0.0 7   35 216 
 BRR  HZ IP     C  4 0 33.16                             151     0.010   84 290 
 BRR  HE ES        4 0 50.41                             151    -0.210   84 290 
 BRR  HZ I         4 0 52.85        31.7 0.09                            84 290 
 OCA  SZ EP   1    4 0 39.39                             131     0.1 7  158 347 
 OCA  SZ ES   2    4 1  2.46                             131     1.0 5  158 347 
 ROSC BZ EP   1    4 0 50.69                             116     0.1 6  266 213 
 ROSC BE ES   2    4 1 22.48                             116     0.9 4  266 213 
 ROSC BZ I         4 1 28.96        15.4 0.48                           266 213 
 HEL  HZ EP   2    4 0 53.09                             114    -0.1 4  289 256 
 HEL  HE ES   2    4 1 26.21                             114     0.1 4  289 256 
 HEL  HZ I         4 1 29.61         6.8 0.37                           289 256 
 RREF BZ EP   1    4 0 59.58                             110     0.6 5  337 230 
 RREF BE ES   1    4 1 36.39                             110    -0.1 5  337 230 
 RREF BZ I         4 1 39.58         9.4 0.15                           337 230 
 MON  HZ EP   3    4 0 59.19                             109    -1.9 2  362 306 
 MON  HZ I         4 1 51.64         5.4 0.68                           362 306 
 PRA  HZ EP   2    4 1  6.10                             106     0.1 3  404 211 
 PRA  HE ES   2    4 1 48.47                             106    -0.5 3  404 211 
 PRA  HZ I         4 1 52.64         6.9 0.23                           404 211 
                                                                                
