 2011  2 7 0930 20.8 L   6.802 -73.067135.1  RSN  4 0.3 1.6LRSN                1
 GAP=167        0.57       3.7    17.2  8.3 -0.1283E+02 -0.1795E+02 -0.9316E+01E
 Epicentro: LOS SANTOS - SANTANDER                                             3
 ACTION:UP  11-03-28 15:06 OP:jfem STATUS:               ID:20110207093020 L   I
 2011-02-07-0920-00M.COL___138                                                 6
 STAT SP IPHASW D HRMM SECON CODA AMPLIT PERI AZIMU VELO SNR AR TRES W  DIS CAZ7
 BAR2 SZ EP   1    930 39.17                             168     0.0 8   27 209 
 BAR2 SZ ES   2    930 53.46                             168    -0.1 5   27 209 
 BAR2 SZ I         930 55.12        11.2 0.30                            27 209 
 RUS  HZ EP   1    930 43.50                             141     0.0 8  101 181 
 RUS  HN ES   2    931  1.23                             141     0.0 5  101 181 
 RUS  HZ I         931  2.35         3.3 0.21                           101 181 
 GRA  SZ IP        930 45.10                             135     0.210  123  14 
 GRA  SZ I         930 46.40         6.9 0.35                           123  14 
 GRA  SZ ES   2    931  3.24                             135    -0.4 5  123  14 
 OCA  SZ EP   1    930 48.00                             127    -0.4 7  161 350 
 OCA  SZ ES   2    931 10.37                             127     0.5 5  161 350 
 OCA  SZ I         931 14.44         9.5 0.47                           161 350 
                                                                                
