 2010  1 7 0731  0.5 L   6.769 -73.132138.0  RSN  4 0.4 1.9LRSN                1
 GAP=203        0.62       6.5    56.4 11.6  0.7284E+02  0.7157E+01 -0.1552E+02E
 Epicentro: LOS SANTOS - SANTANDER                                             3
 ACTION:UP  10-08-24 09:42 OP:vdl  STATUS:               ID:20100107073100 L   I
 2010-01-07-0729-03S.COL___097                                                 6
 STAT SP IPHASW D HRMM SECON CODA AMPLIT PERI AZIMU VELO SNR AR TRES W  DIS CAZ7
 BAR2 SZ IP        731 19.02                             171    -0.210   20 196 
 BAR2 SZ ES   2    731 34.16                             171     0.4 5   20 196 
 GIR2 SZ EP   2    731 19.24                             165    -0.2 5   35 349 
 GIR2 SZ ES   3    731 34.18                             165     0.1 2   35 349 
 OCA  SZ EP   2    731 29.51                             126     0.9 5  164 353 
 OCA  SZ ES   2    731 50.03                             126    -0.5 5  164 353 
 OCA  SZ I         731 54.03         9.8 0.31                           164 353 
 CHI  HN ES   3    732  6.26                             115    -0.1 2  246 196 
                                                                                
