 2015  9 7 0257 11.8 L   6.307 -73.545115.1  RSN 20 0.5 2.4LRSN                1
 GAP= 80        1.22       2.4     3.1  5.4 -0.2202E+01  0.5274E+01  0.7161E+00E
 Epicentro: CONTRATACION - SANTANDER                                           3
 ACTION:UPD 15-10-28 16:24 OP:cam  STATUS:               ID:20150907025711 L   I
 OLDACT:REG 15-09-07 12:28 OP:mh   STATUS:               ID:20150907024743     3
 2015-09-07-0247-43M.COL___352                                                 6
 STAT SP IPHASW D HRMM SECON CODA AMPLIT PERI AZIMU VELO AIN AR TRES W  DIS CAZ7
 BAR2 EZ EP        257 29.07                             155    0.2410 51.0  52 
 BAR2 EZ ES        257 42.25                             155    0.1310 51.0  52 
 BAR2 EZ I         257 43.86        71.1 0.46            148           51.0  52 
 RUS  HZ EP        257 29.96                             147   -0.2810 68.6 132 
 RUS  HN ES        257 44.39                             147   -0.2510 68.6 132 
 BRR  HZ EP     C  257 31.11                             139   -0.0310 90.3 348 
 BRR  HE ES        257 46.82                             139    0.5910 90.3 348 
 BRR  HZ I         257 47.89        39.4 0.12            131           90.3 348 
 SPBC HZ EP        257 31.38                             138   -0.1010 93.1 219 
 SPBC HN ES        257 46.90                             138    0.0510 93.1 219 
 SPBC HZ I         257 49.24        93.7 0.30            129           93.1 219 
 PTB  HZ EP     C  257 31.56                             135   -0.7510  104 284 
 PTB  HZ I         257 31.71        51.8 0.16            126            104 284 
 PTB  HN ES        257 48.48                             135    0.1710  104 284 
 PAM  EZ EP        257 36.89                             124   -0.15 9  147  39 
 PAM  EN ES        257 56.99                             124    0.25 9  147  39 
 PAM  EZ I         257 59.23        13.9 0.14            116            147  39 
 NOR  HZ EP        257 38.14                             120   -0.46 9  168 241 
 NOR  HN ES        257 58.69                             120   -0.83 9  168 241 
 NOR  HZ I         258  3.58        68.5 0.36            113            168 241 
 CHI  HZ EP        257 40.99                             117   -0.06 9  187 186 
 CHI  HN ES        258  3.52                             117   -0.36 9  187 186 
 CHI  HZ I         258  6.58        12.0 0.32            110            187 186 
 ZAR  HZ EP        257 41.52                             116    0.02 9  196 312 
 ZAR  HE ES        258  3.79                             116   -0.88 9  196 312 
 ZAR  HZ I         258 12.07        39.4 0.34            109            196 312 
 OCA  HZ EP        257 44.43                             113    0.58 8  215   7 
 OCA  HN ES        258  9.79                             113    0.94 8  215   7 
 OCA  HZ I         258 17.07        41.5 0.30            107            215   7 
 HEL  HZ EP        257 44.90                             113    0.23 8  220 267 
 HEL  HN ES        258 10.05                             113   -0.27 8  220 267 
 HEL  HZ I         258 15.33        14.5 0.18            107            220 267 
 GUY2CHZ EP        257 47.08                             111    0.63 8  234 239 
 GUY2CHN ES        258 13.54                             111    0.05 8  234 239 
 GUY2CHZ I         258 23.36        34.9 0.42                           234 239 
 VIL  SZ EP        257 46.80                             110   -0.22 8  243 184 
 VIL  SZ I         258 21.66        17.8 0.34            105            243 184 
 ELA  HZ EP        257 50.20                             109    0.71 8  260 232 
 ELA  HN ES        258 18.60                             109   -0.31 8  260 232 
 ELA  HZ I         258 31.77        18.2 0.62            104            260 232 
 TOL  SZ EP        257 50.90                             108    0.11 8  274 226 
 TOL  SN ES        258 22.48                             108    1.26 8  274 226 
 TOL  SZ I         258 29.21        20.9 0.54            103            274 226 
 CBOC HZ EP        257 51.71                             107    0.69 7  278 260 
 CBOC HE ES        258 22.24                             107    0.62 7  278 260 
 CBOC HZ I         258 26.00         6.1 0.48            103            278 260 
 SML  HZ EP        257 51.21                             107   -0.09 7  282 348 
 SML  HN ES        258 20.79                             107   -1.33 7  282 348 
 SML  HZ I         258 28.72        20.8 0.10            103            282 348 
 DBB  SZ EP        257 54.01                             105   -0.11 7  305 285 
 DBB  SZ I         258 32.08        18.4 0.38            102            305 285 
 PRA  HZ EP        257 55.41                             104   -0.80 7  323 207 
 PRA  HN ES        258 31.10                             104    0.25 7  323 207 
 PRA  HZ I         258 38.52        15.6 0.26            101            323 207 
 ORTC HZ EP        257 55.94                             104   -0.55 7  325 216 
 ORTC HZ I         257 58.15        15.1 0.22            101            325 216 
 ORTC HN ES        258 32.28                             104    0.93 7  325 216 
                                                                                
