 2013 12 7 0847 54.5 L   6.787 -73.147144.6  RSN 11 0.5 1.9LRSN                1
 GAP=137        1.17       3.0     4.6  6.1 -0.1713E+01  0.6509E+01 -0.1774E+00E
 Epicentro: LOS SANTOS - SANTANDER                                             3
 ACTION:UPD 14-01-13 10:16 OP:ep   STATUS:               ID:20131207084754 L   I
 OLDACT:REG 13-12-07 08:25 OP:carl STATUS:               ID:20131207084000     3
 2013-12-07-0840-00M.COL___285                                                 6
 STAT SP IPHASW D HRMM SECON CODA AMPLIT PERI AZIMU VELO AIN AR TRES W  DIS CAZ7
 BAR2 SZ IP     D  848 13.98                             171    0.0310 21.9 190 
 BAR2 SZ ES        848 28.71                             171   -0.4210 21.9 190 
 BAR2 SZ I         848 29.89        39.7 0.38            168           21.9 190 
 BRR  HZ EP        848 15.95                             152    0.4010 71.8 300 
 BRR  HN ES        848 32.66                             152    0.6910 71.8 300 
 BRR  HZ I         848 34.50        11.8 0.12            149           71.8 300 
 PAM  SZ EP        848 16.99                             150    0.3310 78.6  39 
 PAM  SN ES        848 33.72                             150   -0.2210 78.6  39 
 PAM  SZ I         848 36.00        14.6 0.50            149           78.6  39 
 RUS  HZ EP        848 17.95                             144   -0.0710 99.1 176 
 RUS  HN ES        848 36.64                             144    0.2610 99.1 176 
 RUS  HZ I         848 37.48         7.3 0.30            140           99.1 176 
 PTB  HZ EP        848 20.98                             132   -0.35 9  147 259 
 PTB  HN ES        848 41.64                             132   -0.61 9  147 259 
 PTB  HZ I         848 42.62         9.4 0.32            128            147 259 
 OCA  HZ EP        848 23.98                             129    1.13 9  162 353 
 OCA  HE ES        848 44.30                             129   -0.66 9  162 353 
 OCA  HZ I         848 48.86         8.4 0.28            126            162 353 
 SPBC HZ EP        848 23.12                             129    0.33 9  162 219 
 SPBC HN ES        848 44.96                             129    0.11 9  162 219 
 SPBC HZ I         848 46.50        11.6 0.12            125            162 219 
 ZAR  HZ EP        848 27.00                             122    0.10 9  204 293 
 ZAR  HN ES        848 52.47                             122    0.29 9  204 293 
 ZAR  HZ I         848 58.27         7.9 0.28            119            204 293 
 NOR  HZ EP        848 30.15                             118    0.10 8  234 235 
 NOR  HN ES        848 58.01                             118    0.23 8  234 235 
 NOR  HZ I         849  4.20         5.5 0.18            115            234 235 
 SML  HZ EP        848 30.42                             117   -0.77 8  245 335 
 SML  HN ES        848 59.35                             117   -0.46 8  245 335 
 SML  HZ I         849  3.04         9.2 0.10            114            245 335 
 CHI  HZ EP        848 31.26                             117   -0.71 8  247 195 
 CHI  HN ES        849  0.86                             117   -0.34 8  247 195 
 CHI  HZ I         849  7.48         2.7 0.22            114            247 195 
                                                                                
