 2014  4 7 0032 10.7 L   6.842 -73.167142.0  RSN 22 0.5 2.4LRSN                1
 GAP= 69        1.19       2.8     3.5  5.9 -0.2669E+01  0.1696E+01  0.2788E+01E
 Epicentro: LOS SANTOS - SANTANDER                                             3
 OLDACT:REG 14-04-07 12:11 OP:stll STATUS:               ID:20140407002806     3
 ACTION:UPD 14-05-13 23:06 OP:nd   STATUS:               ID:20140407003210 L   I
 OLDACT:UP  14-04-08 06:30 OP:CF   STATUS:               ID:20140407003210 L   3
 OLDACT:UP  14-04-07 14:28 OP:stll STATUS:               ID:20140407002806     3
 2014-04-07-0028-06M.COL___259                                                 6
 STAT SP IPHASW D HRMM SECON CODA AMPLIT PERI AZIMU VELO AIN AR TRES W  DIS CAZ7
 BRR  HZ IP   9 D  032 32.18                             154    0.97 0 67.0 296 
 BRR  HN ES        032 49.35                                    1.1810 67.0 296 
 PAM  SZ EP     D  032 33.08                             151    0.6810 75.5  43 
 PAM  SN ES        032 50.00                             151    0.6710 75.5  43 
 PAM  HZ I         032 52.01        56.7 0.60            140           75.5  43 
 RUS  HZ EP        032 34.19                             142   -0.2510  105 175 
 RUS  HN ES        032 53.05                             142    0.0910  105 175 
 RUS  HZ I         032 55.35        31.1 0.50            131            105 175 
 PTB  HZ EP        032 37.08                             132   -0.16 9  146 257 
 PTB  HN ES        032 57.84                             132   -0.11 9  146 257 
 PTB  HZ I         033  3.78        26.4 0.50            121            146 257 
 OCA  HZ EP        032 38.52                             130    0.26 9  155 354 
 OCA  HN ES        032 59.04                             130   -0.72 9  155 354 
 OCA  HZ I         033  5.16        26.5 0.32            119            155 354 
 TAM  HZ IP     D  032 38.46                             130    0.05 9  159 106 
 SPBC HZ EP        032 39.18                             128    0.06 9  165 217 
 SPBC HN ES        033  1.04                             128   -0.25 9  165 217 
 SPBC HZ I         033  6.74        44.5 0.30            118            165 217 
 ZAR  HZ EP        032 42.86                             123    0.36 9  200 291 
 ZAR  HN ES        033  7.31                             123    0.00 9  200 291 
 ZAR  HZ I         033 15.38        15.3 0.34            112            200 291 
 NOR  HZ EP        032 46.17                             118   -0.13 8  236 233 
 NOR  HN ES        033 13.33                             118   -0.74 8  236 233 
 NOR  HZ I         033 18.42        18.4 0.24            108            236 233 
 SML  HZ EP        032 46.29                             118   -0.27 8  239 335 
 SML  HN ES        033 13.83                             118   -0.69 8  239 335 
 SML  HZ I         033 18.45        33.7 0.08            108            239 335 
 CHI  HZ EP        032 48.40                             116   -0.22 8  252 194 
 CHI  HN ES        033 17.64                             116   -0.55 8  252 194 
 CHI  HZ I         033 25.79         9.4 0.58            107            252 194 
 ROSC BZ EP   4    032 49.75                             116    0.83 0  256 210 
 ROSC BN ES   4    033 22.09                             116    3.35 0  256 210 
 ROSC BZ I         033 23.10        16.8 0.40            106            256 210 
 HEL  HZ EP   1    032 51.64                             115    1.04 6  271 255 
 HEL  HN ES        033 21.70                             115   -0.03 8  271 255 
 HEL  HZ I         033 28.54        14.0 0.28            105            271 255 
 SOCV BZ EP        032 52.69                             112   -0.83 7  301  58 
 SOCV BN ES   4    033 23.28                             112   -3.64 0  301  58 
 GUY2CHZ EP   4    032 55.60                             112    1.37 0  302 234 
 GUY2CHN ES        033 29.14                             112    0.96 7  302 234 
 GUY2CHZ I         033 35.62        13.4 0.76                           302 234 
 VIL  SN ES   1    033 27.94                             111   -0.56 5  307 191 
 RREF HZ EP        032 57.66                             110    0.83 7  323 228 
 RREF HN ES        033 32.42                             110   -0.39 7  323 228 
 RREF HZ I         033 41.21        21.1 0.26            102            323 228 
 TOL  SZ EP        033  0.01                             109    1.01 7  345 224 
 TOL  HZ I         033 42.47         8.0 0.40            100            345 224 
 SDV  BZ EP   4    032 59.12                             108   -1.35 0  359  51 
 SDV  BZ I         033 40.11         8.8 1.95             99            359  51 
 ANIL HZ EP        033  0.60                             108    0.04 6  359 224 
 ANIL HN ES        033 40.12                             108    0.67 6  359 224 
 ANIL HZ I         033 43.90        26.1 0.24             99            359 224 
 PRA  HZ EP        033  4.26                             106   -0.17 6  395 209 
 PRA  HE ES        033 46.01                             106   -0.33 6  395 209 
 PRA  HZ I         033 52.07         6.5 1.32             97            395 209 
 ORTC HZ EP        033  4.67                             106   -0.10 6  398 216 
 ORTC HN ES        033 46.93                             106   -0.02 6  398 216 
 ORTC HZ I         033 53.74         6.6 0.42             97            398 216 
                                                                                
