 2017 11 7 0301 17.1 L   5.964 -74.020  0.4  RSN  6 0.6 1.0LRSN                1
 GAP=146        1.48       3.1     4.3  8.4 -0.5358E+01  0.1789E+01 -0.3239E+01E
 Epicentro: LA BELLEZA - SANTANDER                                             3
 ACTION:UPD 17-12-12 19:53 OP:rebc STATUS:               ID:20171107030117 L   I
 OLDACT:REG 17-11-07 12:50 OP:dnl  STATUS:               ID:20171107025742     3
 2017-11-07-0258-00M.COL___420                                                 6
 STAT SP IPHASW D HRMM SECON CODA AMPLIT PERI AZIMU VELO AIN AR TRES W  DIS CAZ7
 SPBC HZ EP        3 1 23.42                              47   -0.1910 35.0 190 
 SPBC HN ES        3 1 28.38                              47   -0.3010 35.0 190 
 SPBC HZ I         3 1 29.14         8.6 0.24             47           35.0 190 
 PTB  HZ EP        3 1 29.35                              47   -0.9910 79.9 323 
 PTB  HE ES        3 1 41.31                              47    0.6610 79.9 323 
 PTB  HZ I         3 1 41.81         4.2 0.20             47           79.9 323 
 NOR  HZ EP        3 1 34.75                              47    0.7210  104 245 
 NOR  HN ES        3 1 47.09                              47   -0.1310  104 245 
 NOR  HZ I         3 1 47.43         3.5 0.42             47            104 245 
 BRR  HZ EP   2    3 1 37.69                              47   -0.37 5  131  15 
 BRR  HN ES        3 1 53.55                              47   -0.8410  131  15 
 BRR  HZ I         3 1 56.62         2.9 0.46             47            131  15 
 GUY2CHZ EP   2    3 1 45.48                              47    1.01 5  170 241 
 GUY2CHN ES        3 2  5.66                              47   -0.14 9  170 241 
 GUY2CHZ I         3 2  9.57         1.3 0.26                           170 241 
 PAM  EZ EP        3 1 50.73                              37    0.82 8  211  44 
 PAM  EN ES        3 2 16.09                              37    0.60 8  211  44 
 PAM  EZ I         3 2 18.17         2.2 0.40             37            211  44 
                                                                                
