 2014  8 7 0000 33.0 L   6.806 -73.174144.7  RSN  8 0.5 1.7LRSN                1
 GAP=198        1.27       4.7     6.4  8.4  0.4224E+01  0.9074E+01 -0.6423E+01E
 Epicentro: LOS SANTOS - SANTANDER                                             3
 ACTION:UPD 14-09-15 21:47 OP:nd   STATUS:               ID:20140807000033 L   I
 OLDACT:REG 14-08-07 12:17 OP:carl STATUS:               ID:20140807000005     3
 2014-08-07-0000-05M.COL___266                                                 6
 STAT SP IPHASW D HRMM SECON CODA AMPLIT PERI AZIMU VELO AIN AR TRES W  DIS CAZ7
 BAR2 SZ EP        0 0 52.69                             170    0.1510 23.6 182 
 BAR2 SZ ES        0 1  7.06                             170   -0.7010 23.6 182 
 BAR2 SZ I         0 1  8.61        11.2 0.26            168           23.6 182 
 BRR  HZ EP        0 0 54.43                             153    0.5410 68.1 299 
 BRR  HN ES        0 1 10.81                             153    0.6410 68.1 299 
 RUS  HZ EP        0 0 57.14                             143    0.4010  101 174 
 RUS  HN ES        0 1 15.32                             143    0.0810  101 174 
 RUS  HZ I         0 1 17.04         5.7 0.22            143            101 174 
 PTB  HZ EP        0 0 59.43                             132   -0.21 9  145 258 
 PTB  HN ES        0 1 21.08                             132    0.68 9  145 258 
 PTB  HZ I         0 1 22.83         8.2 0.18            131            145 258 
 SPBC HN ES        0 1 22.42                             129   -0.94 9  162 218 
 SPBC HZ I         0 1 29.40         6.9 0.36            128            162 218 
 ZAR  HN ES        0 1 29.85                             122   -0.23 9  201 292 
 ZAR  HZ I         0 1 36.60         4.0 0.28            122            201 292 
 NOR  HZ EP        0 1  8.39                             118   -0.07 8  232 234 
 NOR  HN ES        0 1 36.13                             118    0.03 8  232 234 
 NOR  HZ I         0 1 38.19         3.8 0.14            118            232 234 
 SML  HZ EP        0 1  9.45                             117    0.06 8  242 336 
 SML  HN ES        0 1 36.86                             117   -0.89 8  242 336 
                                                                                
