 2017  8 7 0650 33.4 L   5.922 -73.647124.3  RSN  5 0.3 0.8LRSN                1
 GAP=145        0.81       4.0     3.8  6.8 -0.7667E+00  0.4886E+01 -0.5227E+01E
 Epicentro: BARBOSA - SANTANDER                                                3
 ACTION:UPD 17-09-04 20:17 OP:rebc STATUS:               ID:20170807065033 L   I
 OLDACT:REG 17-08-07 12:54 OP:dhb  STATUS:               ID:20170807064743     3
 2017-08-07-0648-00M.COL___390                                                 6
 STAT SP IPHASW D HRMM SECON CODA AMPLIT PERI AZIMU VELO AIN AR TRES W  DIS CAZ7
 SPBC HZ EP        650 51.44                             154   -0.0910 55.7 238 
 SPBC HE ES        651  5.85                             154    0.2110 55.7 238 
 SPBC HZ I         651  7.35         1.5 0.04            154           55.7 238 
 RUS  HZ EP        650 52.98                             152    0.5010 62.5  93 
 RUS  HN ES        651  7.07                             152   -0.2710 62.5  93 
 RUS  HZ I         651  9.80         0.9 0.23            160           62.5  93 
 BAR2 EZ ES        651  9.74                             142   -0.2610 90.2  35 
 BAR2 EZ I         651 10.66         3.3 0.15            146           90.2  35 
 PTB  HZ EP        650 55.03                             135   -0.4610  113 307 
 PTB  HN ES        651 12.65                             135   -0.0410  113 307 
 PTB  HZ I         651 22.93         0.4 0.07            136            113 307 
 BRR  HZ EP        650 57.15                             130    0.0110  131 357 
 BRR  HE ES        651 16.03                             130    0.4010  131 357 
 BRR  HZ I         651 16.56         2.5 0.40            133            131 357 
                                                                                
