 2016 12 7 0456 33.8 L   6.701 -73.202145.7  RSN  5 0.2 1.4LRSN                1
 GAP=221        0.65       4.9     4.5  4.8  0.1350E+02  0.3685E+01 -0.1217E+01E
 Epicentro: VILLANUEVA - SANTANDER                                             3
 ACTION:UPD 17-01-11 20:12 OP:rebc STATUS:               ID:20161207045633 L   I
 OLDACT:REG 16-12-07 12:41 OP:ar   STATUS:               ID:20161207044742     3
 2016-12-07-0448-00M.COL___358                                                 6
 STAT SP IPHASW D HRMM SECON CODA AMPLIT PERI AZIMU VELO AIN AR TRES W  DIS CAZ7
 BAR2 EZ EP        456 52.93                             175   -0.2710 12.2 170 
 BAR2 EZ ES        457  8.03                             175   -0.3410 12.2 170 
 BAR2 EZ I         457 13.62         7.4 0.52            174           12.2 170 
 BRR  HZ EP        456 55.00                             152    0.0510 72.1 309 
 BRR  HE ES        457 11.80                             152    0.3210 72.1 309 
 RUS  HZ EP        456 56.81                             147    0.0210 90.3 172 
 RUS  HN ES        457 15.11                             147    0.3610 90.3 172 
 RUS  HZ I         457 16.38         3.9 0.26            150           90.3 172 
 PTB  HZ EP        456 59.83                             134   -0.18 9  140 263 
 PTB  HN ES        457 20.31                             134   -0.18 9  140 263 
 PTB  HZ I         457 24.74         3.0 0.14            135            140 263 
 ZAR  HZ EP        457  6.34                             122    0.27 9  203 296 
 ZAR  HE ES        457 31.25                             122   -0.02 9  203 296 
 ZAR  HZ I         457 39.66         3.2 0.48            124            203 296 
                                                                                
