 2014  2 7 0838 25.2 L   6.807 -73.274122.0  RSN  4 0.3 1.4LRSN                1
 GAP=223        0.66       6.6     4.9  7.3  0.2088E+02  0.7825E+00 -0.1512E+02E
 Epicentro: ZAPATOCA - SANTANDER                                               3
 ACTION:UPD 14-03-10 08:08 OP:ep   STATUS:               ID:20140207083825 L   I
 OLDACT:UP  14-02-07 13:34 OP:mh   STATUS:               ID:20140207083748     3
 OLDACT:REG 14-02-07 09:20 OP:mh   STATUS:               ID:20140207083748     3
 2014-02-07-0837-48M.COL___224                                                 6
 STAT SP IPHASW D HRMM SECON CODA AMPLIT PERI AZIMU VELO AIN AR TRES W  DIS CAZ7
 BAR2 SZ EP   1    838 41.47                             167   -0.54 8 25.8 157 
 BAR2 SZ ES   1    838 55.33                             167    0.18 8 25.8 157 
 BAR2 SZ I         838 56.65        38.0 0.35            166           25.8 157 
 RUS  HZ EP        838 46.79                             137   -0.1010  103 168 
 RUS  HN ES        839  4.02                             137    0.1910  103 168 
 RUS  HZ I         839  6.52         1.4 0.22            138            103 168 
 PTB  HZ EP   1    838 48.89                             129   -0.09 7  134 257 
 PTB  HN ES        839  7.44                             129   -0.1210  134 257 
 PTB  HZ I         839  9.44         3.1 0.15            130            134 257 
 ZAR  HZ EP   1    838 55.42                             119    0.68 7  191 294 
 ZAR  HN ES   1    839 17.76                             119   -0.05 7  191 294 
                                                                                
