 2016  5 7 0120 43.1 L   6.064 -73.767112.5  RSN  4 0.3 1.0LRSN                1
 GAP=113        0.82       5.1     3.8  9.1  0.4000E+00 -0.8156E+01 -0.9223E+01E
 Epicentro: EL PENON - SANTANDER                                               3
 ACTION:UPD 16-08-18 17:42 OP:cam  STATUS:               ID:20160507012043 L   I
 OLDACT:REG 16-05-07 15:00 OP:ak   STATUS:               ID:20160507011750     3
 2016-05-07-0117-50M.COL___294                                                 6
 STAT SP IPHASW D HRMM SECON CODA AMPLIT PERI AZIMU VELO AIN AR TRES W  DIS CAZ7
 SPBC HZ EP   2    120 59.44                             151   -0.49 5 56.7 217 
 SPBC HN ES        121 13.51                             151    0.4210 56.7 217 
 SPBC HZ I         121 17.52         2.3 0.16            152           56.7 217 
 RUS  HZ EP        121  1.94                             143    0.0310 78.0 104 
 RUS  HE ES        121 16.14                             143   -0.4710 78.0 104 
 RUS  HZ I         121 17.49         1.6 0.30            146           78.0 104 
 BAR2 EZ EP        121  2.48                             140    0.2310 87.1  48 
 BAR2 EZ ES        121 17.43                             140    0.2110 87.1  48 
 BAR2 EZ I         121 18.70         3.5 0.29            145           87.1  48 
 PTB  HN ES        121 17.18                             137   -0.2910 92.7 305 
                                                                                
