 2012 12 7 0930 18.7 L   6.806 -73.144149.9  RSN 10 0.4 1.9LRSN                1
 GAP=136        0.81       3.2     4.5  6.1 -0.1406E+00  0.1087E+02  0.8012E+00E
 Epicentro: LOS SANTOS - SANTANDER                                             3
 ACTION:UPD 13-01-04 14:26 OP:ep   STATUS:               ID:20121207093018 L   I
 2012-12-07-0930-00M.COL___242                                                 6
 STAT SP IPHASW D HRMM SECON CODA AMPLIT PERI AZIMU VELO AIN AR TRES W  DIS CAZ7
 BAR2 SZ EP   1    930 38.75                             170   -0.11 7 24.0 190 
 BAR2 SZ ES   1    930 54.95                             170    0.38 7 24.0 190 
 BAR2 SZ I         930 55.00        17.9 0.14                          24.0 190 
 GIR2 SZ EP   1    930 38.94                             168    0.08 7 30.6 350 
 GIR2 SZ ES   1    930 54.18                             168   -0.40 7 30.6 350 
 GIR2 SZ I         930 55.51        13.7 0.12                          30.6 350 
 PAM  SZ EP   1    930 41.72                             152    0.39 7 76.7  40 
 PAM  SN ES   1    930 59.52                             152    0.55 7 76.7  40 
 RUS  HZ EP   1    930 42.73                             144   -0.19 7  101 176 
 RUS  HZ I         930 59.65        23.7 0.56                           101 176 
 RUS  HN ES   1    931  1.32                             144   -0.48 7  101 176 
 PTB  HZ EP   1    930 45.51                             133   -0.54 7  148 259 
 PTB  HE ES   1    931  6.63                             133   -0.75 7  148 259 
 PTB  HZ I         931 12.44         6.1 0.18                           148 259 
 OCA  HN ES   1    931  9.30                             131   -0.27 7  160 353 
 OCA  HZ I         931 13.39         6.3 0.24                           160 353 
 ZAR  HZ EP   1    930 51.52                             123    0.09 6  204 292 
 ZAR  HE ES   1    931 17.42                             123    0.48 6  204 292 
 ZAR  HZ I         931 23.97         7.1 0.44                           204 292 
 SML  HZ EP   1    930 55.45                             118   -0.07 6  243 335 
 SML  HE ES   1    931 24.04                             118   -0.18 6  243 335 
 SML  HZ I         931 27.83        16.0 0.10                           243 335 
 CHI  HZ EP   1    930 56.80                             118    0.08 6  249 195 
 CHI  HN ES   1    931 26.91                             118    0.54 6  249 195 
 CHI  HZ I         931 34.07         2.5 0.18                           249 195 
 HEL  HZ EP   1    930 58.97                             115   -0.21 6  272 256 
 HEL  HE ES   1    931 31.83                             115    1.08 6  272 256 
 HEL  HZ I         931 38.26         6.4 0.24                           272 256 
                                                                                
