 2013  9 7 0652 21.9 L   6.758 -73.161153.1  RSN  5 0.3 1.3LRSN                1
 GAP=232        0.77       5.1     5.7  6.5  0.8742E+01  0.3566E+01  0.3011E+01E
 Epicentro: LOS SANTOS - SANTANDER                                             3
 ACTION:UPD 13-10-22 09:20 OP:ep   STATUS:               ID:20130907065221 L   I
 OLDACT:UP  13-09-07 12:23 OP:cam  STATUS:               ID:20130907064960d    3
 OLDACT:UP  13-09-07 12:23 OP:cam  STATUS:               ID:20130907064960d    3
 OLDACT:DUP 13-09-07 12:17 OP:cam  STATUS:               ID:20130907064960d    3
 OLDACT:UP  13-09-07 12:17 OP:cam  STATUS:               ID:20130907064959     3
 OLDACT:REG 13-09-07 10:53 OP:cam  STATUS:               ID:20130907064959     3
 2013-09-07-0649-59M.COL___269                                                 6
 STAT SP IPHASW D HRMM SECON CODA AMPLIT PERI AZIMU VELO AIN AR TRES W  DIS CAZ7
 BAR2 SZ EP   1    652 42.05                             173   -0.27 7 18.5 187 
 BAR2 SZ ES   1    652 58.24                             173   -0.02 7 18.5 187 
 BRR  HZ EP        652 43.79                             153   -0.1010 72.1 302 
 BRR  HN ES        653  1.46                             153    0.4210 72.1 302 
 BRR  HZ I         653  3.60         4.3 0.24            153           72.1 302 
 RUS  HZ EP   1    652 46.29                             147    0.22 7 96.1 175 
 RUS  HE ES        653  4.66                             147   -0.2610 96.1 175 
 RUS  HZ I         653  5.53         2.1 0.36            147           96.1 175 
 PTB  HZ EP   1    652 48.84                             134   -0.41 7  145 260 
 PTB  HN ES        653 10.16                             134   -0.43 9  145 260 
 PTB  HZ I         653 11.46         2.3 0.14            134            145 260 
 SPBC HZ EP        652 50.99                             132    0.45 9  159 220 
 SPBC HN ES   1    653 13.24                             132    0.36 7  159 220 
 SPBC HZ I         653 15.60         4.6 0.28            132            159 220 
                                                                                
