 2012  7 7 0538  4.2 L   6.985 -73.521108.7  RSN  6 0.4 1.6LRSN                1
 GAP=130        1.11       6.3     6.0  8.6  0.1778E+02  0.5794E+01  0.8795E+00E
 Epicentro: SAN VICENTE DE CHUCURI - SANTANDER                                 3
 ACTION:UPD 12-08-14 11:43 OP:ep   STATUS:               ID:20120707053804 L   I
 2012-07-07-0530-00M.COL___201                                                 6
 STAT SP IPHASW D HRMM SECON CODA AMPLIT PERI AZIMU VELO AIN AR TRES W  DIS CAZ7
 BRR  HZ EP        538 19.33                             166     0.310   25 303 
 BRR  HE ES        538 30.90                             166     0.210   25 303 
 BRR  HZ I         538 31.82        18.2 0.17            164             25 303 
 BAR2 SZ EP        538 21.52                             150     0.610   57 139 
 BAR2 SZ I         538 21.81        20.2 0.08            151             57 139 
 BAR2 SZ ES        538 33.47                             150    -0.410   57 139 
 PTB  HZ EP        538 25.09                             130     0.010  115 245 
 PTB  HN ES   1    538 40.98                             130    -0.5 7  115 245 
 RUS  HZ EP   1    538 27.51                             126     0.3 7  130 158 
 RUS  HN ES        538 45.00                             126    -0.210  130 158 
 RUS  HZ I         538 47.67         2.7 0.20            126            130 158 
 OCA  HZ EP   1    538 27.08                             123    -0.7 7  140   9 
 ZAR  HE ES   1    538 49.10                             120    -0.1 7  158 291 
 ZAR  HZ I         538 53.62         5.9 0.19            119            158 291 
