 2015  9 7 0357 27.5 L   6.554 -73.487111.1  RSN 15 0.6 1.9LRSN                1
 GAP= 77        1.27       3.1     4.8  6.9 -0.1485E+01  0.1726E+02  0.8820E+00E
 Epicentro: EL CARMEN - SANTANDER                                              3
 ACTION:UPD 15-10-28 16:24 OP:cam  STATUS:               ID:20150907035727 L   I
 OLDACT:UP  15-09-07 20:08 OP:ar   STATUS:               ID:20150907034745     3
 OLDACT:REG 15-09-07 12:30 OP:mh   STATUS:               ID:20150907034745     3
 2015-09-07-0347-45M.COL___346                                                 6
 STAT SP IPHASW D HRMM SECON CODA AMPLIT PERI AZIMU VELO AIN AR TRES W  DIS CAZ7
 BAR2 EZ EP        357 43.29                             162    0.0210 33.9  83 
 BAR2 EZ ES        357 56.14                             162    0.5210 33.9  83 
 BRR  HZ EP        357 44.19                             147   -0.4410 66.1 338 
 BRR  HE ES        357 58.24                             147    0.2110 66.1 338 
 BRR  HZ I         358  4.58        15.4 0.18            144           66.1 338 
 RUS  HZ EP        357 46.33                             140   -0.4210 85.7 149 
 RUS  HN ES        358  2.30                             140    0.5010 85.7 149 
 PTB  HZ IP   4 C  357 46.27                             133   -1.65 0  107 269 
 PTB  HN ES   4    358  0.79                             133   -3.10 0  107 269 
 PTB  HZ I         358  3.52        14.2 0.26            131            107 269 
 SPBC HZ EP        357 48.51                             129   -0.5910  119 213 
 SPBC HN ES        358  4.99                             129   -0.9910  119 213 
 SPBC HZ I         358  6.10        26.7 0.12            129            119 213 
 ZAR  HZ EP        357 55.70                             116    0.05 9  184 304 
 ZAR  HN ES        358 18.02                             116    0.37 9  184 304 
 ZAR  HZ I         358 20.17        17.3 0.16            115            184 304 
 OCA  HZ EP        357 55.47                             116   -0.76 9  187   6 
 OCA  HN ES        358 18.56                             116   -0.12 9  187   6 
 OCA  HZ I         358 25.42        22.7 0.20            115            187   6 
 NOR  HZ EP        357 57.10                             116    0.89 9  188 234 
 NOR  HN ES   4    358 16.71                             116   -1.92 0  188 234 
 NOR  HZ I         358 19.05        10.0 0.32            115            188 234 
 HEL  HZ EP        358  1.08                             111   -0.16 8  229 260 
 HEL  HN ES        358 26.50                             111   -1.09 8  229 260 
 HEL  HZ I         358 29.77         7.0 0.48            110            229 260 
 GUY2CHZ EP        358  5.20                             108    0.93 8  255 235 
 GUY2CHN ES   2    358 33.99                             108    1.00 4  255 235 
 GUY2CHZ I         358 36.90         5.6 0.34                           255 235 
 SML  HZ EP        358  4.46                             108    0.55 8  257 345 
 SML  HE ES   2    358 32.48                             108    0.14 4  257 345 
 SML  HZ I         358 38.51        13.0 0.24            107            257 345 
 CBOC HZ EP        358  8.41                             105    0.43 7  290 255 
 CBOC HZ IPg  2    358  8.47                             105    0.49 4  290 255 
 CBOC HN ES   2    358 39.89                             105    0.30 4  290 255 
 CBOC HZ I         358 42.62         1.7 0.30            105            290 255 
 TOL  SN ES   2    358 41.84                             105    0.21 4  298 223 
 TOL  SZ I         358 47.66         3.0 0.30            104            298 223 
 PRA  HZ EP        358 14.23                             102   -0.77 6  350 206 
 PRA  HE ES        358 52.88                             102    0.80 6  350 206 
 PRA  HZ I         358 58.20         2.0 0.22            101            350 206 
 ORTC HZ EP        358 15.46                             102    0.32 6  352 214 
 ORTC HE ES        358 52.44                             102    0.10 6  352 214 
 ORTC HZ I         359  5.76         1.9 0.46            101            352 214 
                                                                                
