 2017  5 7 0922 55.4 L   6.768 -73.019134.8  RSN  4 0.3 1.0LRSN                1
 GAP=155        0.70       3.5     4.0  6.3  0.2565E+01  0.7146E+01  0.1202E+01E
 Epicentro: CEPITA - SANTANDER                                                 3
 ACTION:UPD 17-06-16 13:33 OP:jn   STATUS:               ID:20170507092255 L   I
 OLDACT:DUP 17-05-07 16:55 OP:ar   STATUS:               ID:20170507091512d    3
 2017-05-07-0918-00M.COL___358                                                 6
 STAT SP IPHASW D HRMM SECON CODA AMPLIT PERI AZIMU VELO AIN AR TRES W  DIS CAZ7
 PAM  EZ EP        923 16.05                             150   -0.0910 72.4  29 
 PAM  EE ES        923 32.54                             150    0.2110 72.4  29 
 PAM  EZ I         923 34.99         2.6 0.52            151           72.4  29 
 BRR  HZ EP   2    923 16.63                             146    0.36 5 85.3 296 
 BRR  HE ES        923 32.09                             146   -0.4710 85.3 296 
 BRR  HZ I         923 32.30         3.2 0.30            147           85.3 296 
 RUS  HZ EP        923 17.63                             142   -0.1810 97.1 184 
 RUS  HN ES        923 35.50                             142    0.1910 97.1 184 
 RUS  HZ I         923 37.55         0.8 0.52            143           97.1 184 
 ZAR  HZ EP        923 28.59                             118   -0.08 8  218 292 
 ZAR  HN ES        923 55.08                             118    0.45 8  218 292 
 ZAR  HZ I         923 56.41         1.1 0.20            119            218 292 
                                                                                
