 2013  3 7 0719 33.1 L   6.789 -73.146145.9  RSN 24 0.5 4.0LRSN 3.9WRSN        1
 SPEC AVERAGE  MO 15.0 ST 32.8 OM  3.5 f0 2.51 R0.6363 AL 2.01 WI 23.7 MW  3.9 3
 SPEC SD       MO  0.3 ST 42.0 OM  0.4 f00.783 R0.1742 AL      WI      MW  0.2 3
 GAP= 71        0.96       2.3     2.9  4.4 -0.3766E+00  0.3400E+01  0.8827E+00E
 Epicentro: LOS SANTOS - SANTANDER                                             3
 SPEC VIL SH Z MO 15.3 ST 10.0 OM  3.4 f0 1.51 R0.9735 AL 1.76 WI 26.0 MW  4.2 3
 SPEC VIL SH Z T 72049 K 0.000 GD  335 VS 4.20 DE 3.20 Q0300.0 QA 0.60 VS 4.20 3
 SPEC PRA HH Z MO 15.1 ST 27.2 OM  3.1 f0 2.47 R0.5951 AL 1.90 WI 32.3 MW  4.0 3
 SPEC PRA HH Z T 721 4 K 0.000 GD  417 VS 4.20 DE 3.20 Q0300.0 QA 0.60 VS 4.20 3
 SPEC ZAR HH Z MO 14.9 ST 14.1 OM  3.1 f0 2.35 R0.6255 AL 1.47 WI 29.6 MW  3.9 3
 SPEC ZAR HH Z T 72026 K 0.000 GD  250 VS 4.20 DE 3.20 Q0300.0 QA 0.60 VS 4.20 3
 SPEC ROSCBH Z MO 15.3 ST 28.3 OM  3.4 f0 2.24 R0.6562 AL 2.78 WI 21.2 MW  4.1 3
 SPEC ROSCBH Z T 72042 K 0.000 GD  291 VS 4.20 DE 3.20 Q0300.0 QA 0.60 VS 4.20 3
 SPEC TAM HH Z MO 14.6 ST  4.4 OM  2.9 f0 1.96 R0.7500 AL 1.55 WI 17.8 MW  3.7 3
 SPEC TAM HH Z T 72020 K 0.000 GD  212 VS 4.20 DE 3.20 Q0300.0 QA 0.60 VS 4.20 3
 SPEC PAM SH Z MO 14.7 ST  4.3 OM  3.1 f0 1.81 R0.8122 AL 1.64 WI 18.2 MW  3.8 3
 SPEC PAM SH Z T 72011 K 0.000 GD  165 VS 4.20 DE 3.20 Q0300.0 QA 0.60 VS 4.20 3
 SPEC HEL HH Z MO 15.1 ST 19.7 OM  3.2 f0 2.27 R0.6476 AL 1.83 WI 35.1 MW  4.0 3
 SPEC HEL HH Z T 72041 K 0.000 GD  308 VS 4.20 DE 3.20 Q0300.0 QA 0.60 VS 4.20 3
 SPEC CHI HH Z MO 14.8 ST 15.1 OM  2.9 f0 2.68 R0.5485 AL 2.36 WI 36.7 MW  3.8 3
 SPEC CHI HH Z T 72038 K 0.000 GD  286 VS 4.20 DE 3.20 Q0300.0 QA 0.60 VS 4.20 3
 SPEC BRR HH Z MO 14.7 ST 52.9 OM  3.1 f0 4.22 R0.3483 AL 1.91 WI  9.9 MW  3.7 3
 SPEC BRR HH Z T 72010 K 0.000 GD  162 VS 4.20 DE 3.20 Q0300.0 QA 0.60 VS 4.20 3
 SPEC BAR2SH Z MO 15.4 ST151.9 OM  3.8 f0 3.62 R0.4061 AL 2.86 WI 10.4 MW  4.2 3
 SPEC BAR2SH Z T 720 6 K 0.000 GD  147 VS 4.20 DE 3.20 Q0300.0 QA 0.60 VS 4.20 3
 ACTION:UPD 13-04-09 14:00 OP:ep   STATUS:               ID:20130307071933 L   I
 2013-03-07-0714-50M.COL___197                                                 6
 STAT SP IPHASW D HRMM SECON CODA AMPLIT PERI AZIMU VELO AIN AR TRES W  DIS CAZ7
 BAR2 SZ IP        719 53.05                             171    0.3510 22.1 190 
 BAR2 SZ ES        720  7.21                             171   -0.8010 22.1 190 
 BAR2 SZ I         720  9.26      5785.3 0.23            168           22.1 190 
 BRR  HZ IP     C  719 54.97                             152    0.7010 71.7 299 
 BRR  HN ES   1    720 10.87                             152    0.07 7 71.7 299 
 BRR  HN I         720 12.66      4786.5 0.37            150           71.7 299 
 PAM  SZ EP     D  719 55.89                             150    0.5210 78.3  39 
 PAM  SZ I         719 56.33      1517.9 0.24            154           78.3  39 
 PAM  SN ES        720 12.91                             150    0.1610 78.3  39 
 RUS  HZ IP     C  719 56.84                             144    0.0810 99.4 176 
 RUS  HE ES        720 14.97                             144   -0.2610 99.4 176 
 RUS  HE I         720 17.48      2448.8 0.31            143           99.4 176 
 PTB  HZ EP     D  719 59.59                             132   -0.44 9  147 259 
 PTB  HE ES   1    720 20.90                             132   -0.16 7  147 259 
 PTB  HZ I         720 28.67      1020.8 0.33            130            147 259 
 TAM  HZ IP     C  720  1.31                             130    0.57 9  155 105 
 TAM  HZ I         720  1.69      1185.5 0.32            133            155 105 
 TAM  HN ES        720 22.44                             130    0.12 9  155 105 
 OCA  HZ EP        720  1.29                             129   -0.22 9  161 353 
 OCA  HE ES   1    720 22.87                             129   -0.82 7  161 353 
 OCA  HZ I         720 30.21       717.3 0.48            130            161 353 
 CTAU SZ IP   4    720  7.85                             123    1.90 0  202 210 
 ZAR  HZ EP        720  5.76                             122    0.18 9  204 292 
 ZAR  HN ES        720 31.24                             122    0.32 9  204 292 
 ZAR  HZ I         720 37.44      1252.3 0.46            121            204 292 
 CTAB SZ EP   4    720 11.24                             119    2.51 0  229 211 
 SML  HZ EP        720  9.28                             117   -0.55 8  245 335 
 SML  HN ES   1    720 39.10                             117    0.61 6  245 335 
 CHI  HZ EP     C  720 10.77       345.6 0.50            117    0.11 8  247 195 
 CHI  HN ES        720 39.73                             117   -0.24 8  247 195 
 CHI  HZ I         720 48.76       345.6 0.50            117            247 195 
 ROSC BZ IP   4 C  720 12.66                             117    1.57 0  252 211 
 ROSC BE ES        720 41.46                             117    0.72 8  252 211 
 ROSC BZ I         720 47.75       920.7 0.43            116            252 211 
 HEL  HZ EP     C  720 13.13                             115   -0.13 8  272 256 
 HEL  HE ES   1    720 44.72                             115    0.11 6  272 256 
 HEL  HZ I         720 53.19       573.9 0.47            114            272 256 
 URE  HZ EP        720 13.87                             113   -0.33 7  284 292 
 VIL  SZ EP        720 16.02                             112   -0.35 7  302 192 
 VIL  SN ES        720 49.57                             112   -0.56 7  302 192 
 VIL  SZ I         720 53.13       443.8 0.51            112            302 192 
 RREF HZ EP        720 19.38                             111    0.24 7  321 230 
 RREF HN ES   1    720 55.75                             111    0.69 5  321 230 
 ANIL HN EP   1    720 23.94                             108    1.15 5  356 225 
 SDV  BZ EP     D  720 22.36                             108   -0.86 6  361  50 
 PRA  HZ EP        720 26.07                             106   -0.41 6  391 210 
 PRA  HE ES        721  7.63                             106   -0.50 6  391 210 
 PRA  HZ I         721 13.90       405.2 0.68            106            391 210 
 YOT  HZ EP        720 35.62                             103   -0.41 5  471 229 
 GUA  SZ EP   4    720 34.55                             103   -1.55 0  473 173 
 GUA  SE ES   4    721 23.09                             103   -2.16 0  473 173 
 GUA  SZ I         721 29.03       205.6 0.36            103            473 173 
 SMAR HZ EP        720 38.92                             102   -0.17 4  498 346 
 PCON HZ EP        720 53.48                              99    0.14 3  611 216 
 POP2 HZ EP   1    720 52.83                              99   -0.15 2  612 220 
 FLO2 HZ EP     D  720 55.35                              99   -0.72 2  639 206 
 FLO2 HZ I         722 38.74        33.6 0.76             99            639 206 
                                                                                
