 2015  8 7 0502 12.6 L   6.852 -72.974142.5  RSN  7 0.4 1.8LRSN                1
 GAP=200        0.91       3.3     7.8  6.1  0.5673E+01  0.9555E+00 -0.4512E+01E
 Epicentro: CEPITA - SANTANDER                                                 3
 ACTION:UPD 15-09-15 23:00 OP:cam  STATUS:               ID:20150807050212 L   I
 OLDACT:UP  15-08-07 17:56 OP:mh   STATUS:               ID:20150807045737d    3
 OLDACT:DUP 15-08-07 17:49 OP:mh   STATUS:               ID:20150807045737d    3
 2015-08-07-0457-36M.COL___358                                                 6
 STAT SP IPHASW D HRMM SECON CODA AMPLIT PERI AZIMU VELO AIN AR TRES W  DIS CAZ7
 BAR2 EZ EP        5 2 32.44                             165    0.2810 36.9 219 
 BAR2 EZ ES        5 2 47.21                             165   -0.2410 36.9 219 
 BAR2 EZ I         5 2 48.84        10.6 0.20            168           36.9 219 
 BRR  HZ EP        5 2 34.23                             147   -0.0710 86.3 289 
 BRR  HN ES        5 2 51.56                             147    0.3110 86.3 289 
 BRR  HZ I         5 2 54.84        10.3 0.57            148           86.3 289 
 RUS  HZ EP        5 2 36.33                             141   -0.1410  107 187 
 RUS  HN ES        5 2 55.04                             141   -0.0710  107 187 
 RUS  HZ I         5 2 56.02         3.3 0.26            146            107 187 
 OCA  HZ EP        5 2 40.34                             129   -0.07 9  158 346 
 OCA  HN ES        5 3  2.44                             129    0.31 9  158 346 
 OCA  HZ I         5 3  6.75        22.8 0.46            130            158 346 
 SML  HZ EP        5 2 50.07                             116    0.68 8  247 331 
 SML  HN ES        5 3 17.14                             116   -0.97 8  247 331 
 SML  HZ I         5 3 24.42         7.1 0.24            118            247 331 
 URE  HN ES   4    5 3 22.94                             112   -5.61 0  300 290 
 GUY2CHZ EP        5 2 57.78                             110   -0.40 7  320 236 
 GUY2CHN ES   1    5 3 34.11                             110    0.35 5  320 236 
 MON  HZ EP   4    5 2 59.86                             107   -2.94 0  365 306 
 MON  HN ES   4    5 3 37.90                             107   -4.08 0  365 306 
 MON  HZ I         5 3 39.73         1.4 0.56            109            365 306 
                                                                                
