 2016  2 7 0302 10.3 L   6.774 -73.225144.9  RSN  8 0.3 1.5LRSN                1
 GAP=124        0.55       2.3     3.3  5.0 -0.1144E+01  0.7185E+01 -0.1989E+01E
 Epicentro: ZAPATOCA - SANTANDER                                               3
 ACTION:UPD 16-03-04 21:23 OP:rebc STATUS:               ID:20160207030210 L   I
 OLDACT:REG 16-02-07 11:42 OP:dnl  STATUS:               ID:20160207025745     3
 2016-02-07-0257-45M.COL___334                                                 6
 STAT SP IPHASW D HRMM SECON CODA AMPLIT PERI AZIMU VELO AIN AR TRES W  DIS CAZ7
 BAR2 EZ EP   2    3 2 29.86                             171    0.12 5 20.7 167 
 BAR2 EZ ES        3 2 44.66                             171   -0.2710 20.7 167 
 BAR2 EZ I         3 2 47.10         5.4 0.15            167           20.7 167 
 PAM  EZ EP   2    3 2 32.92                             148    0.04 5 85.3  43 
 PAM  EN ES        3 2 50.40                             148   -0.1210 85.3  43 
 PAM  EZ I         3 2 52.19         6.0 0.46            152           85.3  43 
 RUS  HZ EP   2    3 2 33.97                             144    0.17 5 98.8 171 
 RUS  HE ES        3 2 52.46                             144    0.3110 98.8 171 
 RUS  HZ I         3 2 55.34         2.7 0.31            141           98.8 171 
 PTB  HZ EP   2    3 2 36.74                             133    0.40 5  139 259 
 PTB  HE ES        3 2 56.73                             133    0.05 9  139 259 
 PTB  HZ I         3 3  1.42         5.1 0.10            130            139 259 
 SPBC HZ EP   2    3 2 38.46                             130    0.48 5  156 217 
 SPBC HE ES   2    3 2 59.54                             130   -0.05 5  156 217 
 SPBC HZ I         3 3  8.21         5.4 0.24            127            156 217 
 NOR  HZ EP   2    3 2 44.31                             119   -0.70 4  226 234 
 NOR  HN ES   4    3 3  9.10                             119   -3.01 0  226 234 
 NOR  HZ I         3 3 16.28         3.3 0.34            117            226 234 
 SML  HZ EP   2    3 2 46.54                             117   -0.20 4  243 337 
 SML  HN ES        3 3 15.27                             117    0.07 8  243 337 
 SML  HZ I         3 3 17.87         5.9 0.10            117            243 337 
 CHI  HZ EP   2    3 2 47.67                             117    0.29 4  244 193 
 CHI  HE ES   2    3 3 15.27                             117   -1.06 4  244 193 
 CHI  HZ I         3 3 25.37         1.1 0.32            115            244 193 
                                                                                
