 2014 10 7 0226 40.4 L   6.718 -73.221148.1  RSN  5 0.2 1.4LRSN                1
 GAP=222        0.49       3.4     4.2  5.1  0.7477E+01  0.3015E+01  0.1767E+01E
 Epicentro: VILLANUEVA - SANTANDER                                             3
 ACTION:UPD 14-11-29 23:47 OP:nd   STATUS:               ID:20141007022640 L   I
 OLDACT:REG 14-10-07 12:52 OP:fm   STATUS:               ID:20141007021737     3
 2014-10-07-0217-37M.COL___289                                                 6
 STAT SP IPHASW D HRMM SECON CODA AMPLIT PERI AZIMU VELO AIN AR TRES W  DIS CAZ7
 BRR  HZ EP   1    227  1.56                             154   -0.13 7 69.2 308 
 BRR  HN ES        227 18.39                             154    0.1010 69.2 308 
 BRR  HZ I         227 21.17         5.3 0.20            152           69.2 308 
 RUS  HZ EP   1    227  4.12                             147    0.30 7 92.6 170 
 RUS  HN ES        227 21.94                             147   -0.1510 92.6 170 
 RUS  HZ I         227 24.84         2.3 0.32            148           92.6 170 
 PTB  HZ EP   1    227  6.24                             135   -0.45 7  138 262 
 PTB  HN ES   1    227 27.21                             135    0.01 7  138 262 
 PTB  HZ I         227 30.41         3.2 0.18            134            138 262 
 SPBC HZ EP   1    227  8.22                             132    0.28 7  151 219 
 SPBC HN ES   1    227 29.47                             132    0.05 7  151 219 
 SPBC HZ I         227 33.18         2.9 0.70            132            151 219 
 ZAR  HN ES   1    227 37.72                             123    0.03 6  200 295 
 ZAR  HZ I         227 43.58         2.8 0.30            124            200 295 
                                                                                
