 2017  2 7 0956 15.6 L   6.556 -73.212134.5  RSN  4 0.4 0.9LRSN                1
 GAP=129        0.85       8.3     6.3  7.8  0.1077E+02  0.1473E+02  0.6670E+01E
 Epicentro: PINCHOTE - SANTANDER                                               3
 ACTION:UPD 17-05-24 15:33 OP:jn   STATUS:               ID:20170207095615 L   I
 OLDACT:DUP 17-02-07 18:45 OP:edw  STATUS:               ID:20170207094744d    3
 OLDACT:UP  17-02-07 18:45 OP:edw  STATUS:               ID:20170207094743d    3
 OLDACT:DUP 17-02-07 18:43 OP:edw  STATUS:               ID:20170207094743d    3
 2017-02-07-0948-00M.COL___319                                                 6
 STAT SP IPHASW D HRMM SECON CODA AMPLIT PERI AZIMU VELO AIN AR TRES W  DIS CAZ7
 BAR2 EZ EP        956 33.84                             178    0.2410 5.16  40 
 BAR2 EZ ES        956 47.87                             178    0.2110 5.16  40 
 BAR2 EZ I         956 50.65         2.3 0.40            178           5.16  40 
 RUS  HN ES   2    956 51.99                             149   -0.72 5 74.8 169 
 BRR  HZ EP        956 35.69                             147   -0.5210 82.2 318 
 BRR  HN ES        956 52.34                             147    0.0210 82.2 318 
 PTB  HZ EP        956 41.13                             132    0.43 9  138 269 
 PTB  HN ES        957  0.12                             132   -0.18 9  138 269 
 PTB  HZ I         957  3.65         0.8 0.58            133            138 269 
                                                                                
