 2016 11 7 0519 43.8 L   6.810 -73.156147.4  RSN 12 0.4 2.0LRSN                1
 GAP=146        0.90       3.3     3.8  4.9 -0.2081E+01  0.3809E+01  0.4890E+01E
 Epicentro: LOS SANTOS - SANTANDER                                             3
 ACTION:UPD 17-10-26 21:05 OP:lp   STATUS:               ID:20161107051943 L   I
 OLDACT:REG 16-11-07 13:00 OP:lv   STATUS:               ID:20161107050328d    3
 2016-11-07-0518-00M.COL___325                                                 6
 STAT SP IPHASW D HRMM SECON CODA AMPLIT PERI AZIMU VELO AIN AR TRES W  DIS CAZ7
 BAR2 EZ EP        520  3.40                             170   -0.2610 24.2 187 
 BAR2 EZ ES        520 18.80                             170   -0.3410 24.2 187 
 BAR2 EZ I         520 22.68        12.6 0.18            169           24.2 187 
 BRR  HZ IP     C  520  5.17                             153    0.1110 69.7 298 
 BRR  HN ES        520 22.34                             153    0.7110 69.7 298 
 BRR  HZ I         520 25.54        14.4 0.21            143           69.7 298 
 PAM  EZ EP        520  6.36                             151    0.1510 77.3  41 
 PAM  EN ES        520 23.54                             151   -0.1310 77.3  41 
 PAM  EZ I         520 24.80         6.9 0.39            148           77.3  41 
 PTB  HZ EP        520 10.52                             133   -0.32 9  147 258 
 PTB  HN ES        520 31.44                             133   -0.47 9  147 258 
 PTB  HZ I         520 36.34         8.9 0.31            126            147 258 
 SPBC HZ EP        520 12.51                             129    0.06 9  163 218 
 SPBC HN ES        520 34.95                             129    0.16 9  163 218 
 SPBC HZ I         520 39.48        12.7 0.14            125            163 218 
 ZAR  HZ EP        520 16.43                             123    0.21 9  203 292 
 ZAR  HE ES        520 41.67                             123    0.18 9  203 292 
 ZAR  HZ I         520 47.80         8.2 0.15            117            203 292 
 NOR  HZ EP        520 19.52                             119   -0.09 8  234 234 
 NOR  HN ES        520 47.43                             119   -0.09 8  234 234 
 NOR  HZ I         520 52.37         5.4 0.21            115            234 234 
 CHI  HZ EP        520 21.64                             117   -0.05 8  249 195 
 CHI  HN ES        520 51.22                             117   -0.00 8  249 195 
 CHI  HZ I         520 56.06         3.9 0.42            115            249 195 
 ROSC BZ EP        520 23.03                             117    0.97 8  253 211 
 ROSC BE ES   4    520 53.69                             117    1.80 0  253 211 
 ROSC BZ I         520 58.10         8.2 0.42            114            253 211 
 URE  HZ EP        520 23.93                             114   -0.87 7  282 292 
 URE  HZ I         521  5.64         6.6 0.18            109            282 292 
 PRA  HZ EP        520 37.57                             107    0.13 6  392 209 
 PRA  HE ES        521 19.18                             107   -0.08 6  392 209 
 PRA  HZ I         521 23.69         2.6 0.30            104            392 209 
 MACC HZ EP   4    520 29.89                             102   -22.8 0  521 188 
 MACC HN ES   4    521 23.53                             102   -22.8 0  521 188 
 MACC HZ I         521 29.45         4.5 0.40            100            521 188 
                                                                                
