 2010  8 7 0215 34.4 L   6.796 -73.099140.8  RSN 17 0.4 3.1LRSN                1
 GAP=164        0.92       3.1     6.3  5.7 -0.5790E+01  0.1483E+02  0.9807E+00E
 Epicentro: LOS SANTOS - SANTANDER                                             3
 ACTION:UP  10-09-07 10:52 OP:vdl  STATUS:               ID:20100807021534 L   I
 2010-08-07-0214-10S.COL___125                                                 6
 STAT SP IPHASW D HRMM SECON CODA AMPLIT PERI AZIMU VELO SNR AR TRES W  DIS CAZ7
 BTL  SZ IP        215 53.70                             170     0.310   23 306 
 BAR2 SZ IP        215 53.62                             170     0.110   24 203 
 BAR2 SZ ES   1    216  8.14                             170    -0.2 7   24 203 
 BAR2 SZ I         216  9.60       153.5 0.22                            24 203 
 GIR2 SZ EP        215 53.66                             166     0.110   33 342 
 BRR  HZ IP     C  215 55.42                             150     0.110   76 297 
 BRR  HE ES   1    216 12.24                             150     0.6 7   76 297 
 BRR  HZ I         216 15.98       208.3 0.28                            76 297 
 RUS  HZ IP     C  215 57.66                             143     0.010  100 179 
 RUS  HN ES        216 15.30                             143    -0.410  100 179 
 RUS  HZ I         216 18.10        86.4 0.26                           100 179 
 GRA  SZ IP        215 59.36                             136     0.210  125  15 
 GRA  SZ ES   1    216 18.11                             136    -0.3 7  125  15 
 GRA  SZ I         216 19.95        97.4 0.34                           125  15 
 OCA  SZ EP        216  2.05                             128    -0.4 9  161 351 
 OCA  SZ ES   2    216 23.71                             128    -0.6 5  161 351 
 OCA  SZ I         216 27.00       147.7 0.28                           161 351 
 CHI  HZ EP   1    216 11.95                             116     0.0 6  250 196 
 CHI  HE ES   1    216 40.76                             116    -0.5 6  250 196 
 CHI  HZ I         216 48.54        51.9 0.40                           250 196 
 ROSC BZ EP        216 13.52                             115     1.0 8  255 212 
 ROSC BN ES   2    216 42.55                             115     0.3 4  255 212 
 ROSC BZ I         216 48.31        96.9 0.95                           255 212 
 CVER SZ EP        216 15.26                             114     0.6 8  274 203 
 CVER SZ I         216 57.64        70.1 0.73                           274 203 
 HEL  HZ EP        216 14.52                             113    -0.4 7  277 256 
 HEL  HZ I         216 52.77        61.5 0.40                           277 256 
 GUY  SZ EP        216 18.16                             111    -0.1 7  305 235 
 GUY  SE ES   2    216 52.31                             111    -0.2 4  305 235 
 GUY  SZ I         217  1.42        98.7 0.09                           305 235 
 RREF HZ EP        216 20.62                             110    -0.1 7  325 230 
 RREF HE ES   2    216 57.09                             110     0.2 3  325 230 
 RREF HZ I         217  3.51        43.4 0.07                           325 230 
 DBB  SZ EP        216 21.88                             108    -0.4 7  345 274 
 TOL  SZ EP   3    216 23.39                             108     0.5 2  347 225 
 ANIL HZ EP   1    216 24.35                             107    -0.1 5  361 225 
 ANIL HE ES   2    217  3.26                             107    -0.2 3  361 225 
 ANIL HZ I         217 11.01        98.1 1.03                           361 225 
 PRA  HZ EP        216 27.24                             106    -0.8 6  394 210 
 PRA  HE ES   2    217  9.73                             106    -0.1 3  394 210 
 PRA  HZ I         217 16.12        76.0 0.23                           394 210 
                                                                                
