 2016  6 7 0604 50.4 L   6.766 -73.073149.8  RSN 10 0.4 1.8LRSN                1
 GAP=148        1.09       3.6     5.9  7.1 -0.8602E+01 -0.9127E+00  0.5484E+01E
 Epicentro: LOS SANTOS - SANTANDER                                             3
 ACTION:UPD 16-07-21 22:16 OP:rebc STATUS:               ID:20160607060450 L   I
 OLDACT:UP  16-06-07 18:13 OP:dani STATUS:               ID:20160607055742d    3
 OLDACT:DUP 16-06-07 18:05 OP:dani STATUS:               ID:20160607055742d    3
 OLDACT:UP  16-06-07 18:05 OP:dani STATUS:               ID:20160607055741     3
 OLDACT:UP  16-06-07 17:58 OP:dani STATUS:               ID:20160607055741     3
 OLDACT:REG 16-06-07 13:14 OP:dani STATUS:               ID:20160607055741     3
 2016-06-07-0557-41M.COL___319                                                 6
 STAT SP IPHASW D HRMM SECON CODA AMPLIT PERI AZIMU VELO AIN AR TRES W  DIS CAZ7
 BAR2 EZ EP     D  6 5 10.43                             171   -0.1310 22.7 212 
 BAR2 EZ I         6 5 27.68         7.9 0.20                          22.7 212 
 PAM  EZ EP        6 5 13.67                             152    0.6710 75.6  33 
 PAM  EN ES        6 5 30.99                             152    0.4010 75.6  33 
 PAM  EZ I         6 5 33.62        11.6 0.54                          75.6  33 
 BRR  HZ EP        6 5 12.49                             151   -0.0610 80.1 298 
 BRR  HE ES        6 5 29.93                             151    0.1410 80.1 298 
 BRR  HZ I         6 5 34.81        11.4 0.14                          80.1 298 
 RUS  HZ EP        6 5 14.18                             145   -0.1410 96.6 181 
 RUS  HE ES        6 5 32.83                             145   -0.1110 96.6 181 
 RUS  HZ I         6 5 33.74         6.9 0.34                          96.6 181 
 PTB  HZ EP   9    6 5 17.31                             132   -1.10 0  155 261 
 PTB  HE ES        6 5 38.36                             131   -0.76 9  155 261 
 PTB  HZ I         6 5 43.28         6.8 0.35                           155 261 
 OCA  HZ EP        6 5 19.33                             130   -0.20 9  165 351 
 OCA  HN ES        6 5 41.44                             130   -0.78 9  165 351 
 OCA  HZ I         6 5 43.53        15.6 0.26                           165 351 
 SPBC HZ EP        6 5 19.24                             129   -0.24 9  166 222 
 SPBC HE ES        6 5 41.99                             129   -0.14 9  166 222 
 SPBC HZ I         6 5 43.38         8.5 0.30                           166 222 
 NOR  HE ES        6 5 55.92                             119    0.60 8  239 236 
 CHI  HZ EP   4    6 5 30.43                             118    2.20 0  247 197 
 CHI  HN ES        6 5 57.27                             118   -0.42 8  247 197 
 CHI  HZ I         6 6  5.06         1.9 0.38                           247 197 
 HEL  HE ES   4    6 6  5.10                             115    1.34 0  279 257 
 PRA  HZ EP        6 5 43.78                             107   -0.42 6  393 211 
 PRA  HE ES        6 6 27.22                             107    1.09 6  393 211 
 PRA  HZ I         6 6 32.61         2.1 0.30                           393 211 
 ORTC HE ES   4    6 6 29.31                             107    2.26 0  397 217 
                                                                                
