 2011  4 7 0931 46.1 L   6.750 -73.152140.4  RSN  9 0.4 1.8LRSN                1
 GAP=174        0.80       3.6     5.9  5.5 -0.1265E+02  0.6359E+01  0.2615E+01E
 Epicentro: LOS SANTOS - SANTANDER                                             3
 ACTION:UP  11-06-22 15:29 OP:REBC STATUS:               ID:20110407093146 L   I
 2011-04-07-0930-12S.COL___136                                                 6
 STAT SP IPHASW D HRMM SECON CODA AMPLIT PERI AZIMU VELO SNR AR TRES W  DIS CAZ7
 BAR2 SZ EP   1    932  4.67                             172    -0.3 7   18 191 
 BAR2 SZ ES        932 19.51                             172    -0.210   18 191 
 BAR2 SZ I         932 21.26        15.4 0.20                            18 191 
 BRR  HZ EP   1    932  6.13                             151    -0.6 7   73 303 
 BRR  HZ I         932 11.99        24.5 0.42                            73 303 
 BRR  HN ES   1    932 22.87                             151     0.0 7   73 303 
 GRA  SZ EP        932 11.39                             134     0.110  131  17 
 GRA  SZ ES        932 31.51                             134     0.510  131  17 
 GRA  SZ I         932 32.72         5.7 0.36                           131  17 
 OCA  SZ EP   1    932 13.91                             127    -0.6 7  166 354 
 OCA  SZ ES   1    932 36.54                             127    -0.1 7  166 354 
 OCA  SZ I         932 38.52         8.9 0.32                           166 354 
 NOR  SZ EP   1    932 20.43                             118    -0.6 6  231 235 
 NOR  SN ES   1    932 48.46                             118     0.1 6  231 235 
 CHI  HZ EP   1    932 23.07                             116     0.2 6  243 195 
 CHI  HN ES   1    932 51.82                             116     0.3 6  243 195 
 CHI  HZ I         932 59.44         2.7 0.42                           243 195 
 HEL  HZ EP   1    932 26.27                             114     0.5 6  270 257 
 HEL  HN ES   2    932 57.34                             114     0.6 4  270 257 
 HEL  HZ I         933  5.65         3.3 0.26                           270 257 
 RREF HZ EP   1    932 31.60                             110     0.1 5  318 230 
 RREF HN ES        933  7.03                             110     0.1 7  318 230 
 RREF HZ I         933 19.05         3.6 0.44                           318 230 
 PRA  HZ EP   1    932 39.40                             106     0.6 4  387 210 
 PRA  HN ES   2    933 19.95                             106     0.0 3  387 210 
                                                                                
