 2011  2 7 0020  4.0 L   6.789 -73.077145.7  RSN  5 0.4 1.6LRSN                1
 GAP=166        0.79       5.3     8.6 10.4 -0.2031E+02  0.2811E+02 -0.1905E+02E
 Epicentro: LOS SANTOS - SANTANDER                                             3
 ACTION:UP  11-03-28 15:06 OP:jfem STATUS:               ID:20110207002004 L   I
 2011-02-07-0014-47S.COL___137                                                 6
 STAT SP IPHASW D HRMM SECON CODA AMPLIT PERI AZIMU VELO SNR AR TRES W  DIS CAZ7
 BAR2 SZ EP   1    020 23.74                             170     0.1 7   25 208 
 BAR2 SZ ES   2    020 38.25                             170    -0.7 5   25 208 
 RUS  HZ EP        020 27.88                             144     0.310   99 180 
 RUS  HN ES   1    020 46.18                             144     0.1 7   99 180 
 RUS  HZ I         020 47.83         5.2 0.25                            99 180 
 GRA  SZ EP        020 28.75                             137    -0.410  125  14 
 OCA  SZ ES   2    020 55.62                             129     0.9 5  163 351 
 OCA  SZ I         020 58.81         7.2 0.27                           163 351 
 NOR  SZ EP   1    020 40.29                             118     0.0 6  240 236 
 NOR  SN ES   1    021  8.36                             118    -0.3 6  240 236 
                                                                                
