 2017  7 7 0423 46.7 L   6.812 -73.118142.9  RSN 25 0.6 2.6LRSN                1
 GAP= 67        1.35       3.3     3.6  5.8 -0.3637E+00  0.4505E+01  0.1190E+01E
 Epicentro: LOS SANTOS - SANTANDER                                             3
 ACTION:UPD 17-08-30 15:30 OP:rebc STATUS:               ID:20170707042346 L   I
 OLDACT:UP  17-07-07 17:12 OP:ar   STATUS:               ID:20170707041745     3
 OLDACT:UP  17-07-07 17:10 OP:ar   STATUS:               ID:20170707041745     3
 OLDACT:UP  17-07-07 17:09 OP:ar   STATUS:               ID:20170707041745     3
 OLDACT:UP  17-07-07 17:03 OP:ar   STATUS:               ID:20170707041745     3
 OLDACT:REG 17-07-07 13:07 OP:ar   STATUS:               ID:20170707041745     3
 2017-07-07-0418-00M.COL___380                                                 6
 STAT SP IPHASW D HRMM SECON CODA AMPLIT PERI AZIMU VELO AIN AR TRES W  DIS CAZ7
 BAR2 EZ IP     D  424  5.71                             169   -0.3010 25.3 196 
 BAR2 EZ ES        424 20.88                             169   -0.2010 25.3 196 
 BAR2 EZ I         424 22.66        87.5 0.22            169           25.3 196 
 BRR  HZ EP        424  7.62                             151   -0.0310 73.3 297 
 BRR  HN ES        424 24.53                             151    0.5410 73.3 297 
 BRR  HZ I         424 28.35        49.5 0.12            149           73.3 297 
 PAM  EZ EP        424  8.60                             152    0.1810 74.5  38 
 PAM  EE ES        424 25.28                             152   -0.1010 74.5  38 
 PAM  EZ I         424 27.47       150.8 0.50            152           74.5  38 
 PTB  HZ EP        424 12.81                             131   -0.91 9  151 259 
 PTB  HN ES        424 35.56                             131    0.76 9  151 259 
 PTB  HZ I         424 36.29        41.3 0.52            129            151 259 
 TAM  HZ IP     D  424 14.08                             131    0.18 9  153 106 
 SPBC HZ EP        424 14.78                             128   -0.47 9  166 220 
 SPBC HN ES        424 36.99                             128   -0.53 9  166 220 
 SPBC HZ I         424 39.89        65.0 0.18            127            166 220 
 YPLC HZ EP        424 16.19                             126   -0.06 9  177 152 
 YPLC HN ES        424 39.83                             126    0.53 9  177 152 
 YPLC HZ I         424 42.44        93.4 0.28            127            177 152 
 ZAR  HZ EP        424 19.13                             122   -0.06 8  206 291 
 ZAR  HN ES        424 44.93                             122    0.39 8  206 291 
 ZAR  HZ I         424 53.97        42.4 0.32            120            206 291 
 TABC EZ EP        424 23.96                             118    1.40 8  233 211 
 TABC EZ ES   4    424 53.68                             118    3.15 0  233 211 
 TABC EZ I         424 54.83        38.1 0.44            118            233 211 
 NOR  HZ EP        424 22.11                             118   -0.49 8  238 235 
 NOR  HN ES   4    424 49.39                             118   -1.22 0  238 235 
 NOR  HZ I         424 56.83        30.1 0.18            117            238 235 
 ROSC BZ EP   9    424 26.14                             116    1.19 0  255 211 
 ROSC BE ES        424 56.90                                    0.92 8  255 211 
 ROSC BZ I         425  5.20        27.3 0.50            116            255 211 
 HEL  HZ EP        424 28.09                             114    0.97 7  275 256 
 HEL  HN ES        424 57.96                             114   -0.69 7  275 256 
 HEL  HZ I         425  4.47        21.9 0.54            113            275 256 
 GUY2CHZ EP        424 31.04                             112    0.51 7  304 235 
 GUY2CHN ES   4    425  6.56                             112    1.83 0  304 235 
 GUY2CHZ I         425 11.97        19.2 0.36                           304 235 
 VIL  EZ EP        424 29.65                             111   -0.54 7  305 192 
 VIL  HN ES        425  3.16                             111   -0.96 7  305 192 
 VIL  EZ I         425 12.14        24.0 0.38            112            305 192 
 PTGC HZ EP   4    424 29.05                             111   -1.38 0  309 159 
 PTGC HN ES   4    425  1.93                             111   -2.62 0  309 159 
 PTGC HZ I         425  4.55        34.0 0.32            112            309 159 
 LL6C HZ EP        424 30.97                             110   -1.17 7  324 357 
 LL6C HN ES        425  6.99                             110   -0.59 7  324 357 
 ELA  HZ EP   9    424 36.35                             110    2.57 0  332 230 
 ELA  HN ES        425 13.74                             110    0.66 7  332 230 
 ELA  HZ I         425 17.10        17.3 0.62            109            332 230 
 CBOC HZ EP        424 34.28                             109    0.42 7  337 252 
 CBOC HN ES        425 10.10                             109   -0.56 7  337 252 
 CBOC HZ I         425 12.44         6.0 0.46            109            337 252 
 DBB  EZ EP        424 35.21                             109    0.82 7  342 274 
 DBB  EN ES        425 10.42                             109   -1.17 7  342 274 
 DBB  EZ I         425 14.43        15.0 0.36            108            342 274 
 ARGC HZ EP        424 36.67                             108    0.45 6  359 340 
 ARGC HN ES        425 15.74                             108    0.90 6  359 340 
 ARGC HZ I         425 53.35         9.3 0.40            108            359 340 
 ORTC HZ EP        424 41.08                             106    0.23 6  398 216 
 ORTC HN ES        425 24.01                             106    0.92 6  398 216 
 ORTC HZ I         425 28.81        10.1 0.50            106            398 216 
 APAC HZ EP        424 40.23                             106   -0.84 6  401 288 
 APAC HN ES        425 24.16                             106    0.67 6  401 288 
 APAC HZ I         425 24.70         8.4 0.42            105            401 288 
 PAL  HZ EP        424 41.94                             105   -0.20 6  409 239 
 PAL  HN ES        425 25.58                             105    0.19 6  409 239 
 PAL  HZ I         425 30.61        13.3 0.34            105            409 239 
 SJC  HZ EP   4 D  424 40.67                             105   -1.56 0  410 327 
 SJC  HN ES   4    425 21.59                             105   -3.95 0  410 327 
 SJC  HZ I         425 25.44        15.5 0.44            105            410 327 
 CRJC HZ EP   4    424 46.59                             103   -2.35 0  466   3 
 CRJC HN ES   4    425 32.74                             103   -4.74 0  466   3 
 YOT  HN ES   4    425 40.88                             103    1.45 0  475 229 
 GUA  EZ EP   4    424 48.81                             103   -1.07 0  475 173 
 GUA  EE ES   4    425 36.89                             103   -2.27 0  475 173 
 GUA  EZ I         425 41.64        12.0 0.24            103            475 173 
 URI  HZ EP   4    424 56.66                             100   -2.74 0  555  13 
 URI  HE ES   4    425 40.05                             100   -16.1 0  555  13 
                                                                                
