 2016  3 7 0935 54.9 L   6.800 -73.142141.4  RSN  9 0.2 1.9LRSN                1
 GAP=137        0.61       2.3     2.5  3.7 -0.9377E+00  0.3568E+01  0.7211E+00E
 Epicentro: LOS SANTOS - SANTANDER                                             3
 ACTION:UPD 16-05-13 21:22 OP:cam  STATUS:               ID:20160307093554 L   I
 OLDACT:REG 16-03-07 14:09 OP:cara STATUS:               ID:20160307092746     3
 2016-03-07-0927-46M.COL___315                                                 6
 STAT SP IPHASW D HRMM SECON CODA AMPLIT PERI AZIMU VELO AIN AR TRES W  DIS CAZ7
 BAR2 EZ IP        936 13.70                             170   -0.2710 23.4 191 
 BAR2 EZ ES        936 29.21                             170    0.3410 23.4 191 
 BAR2 EZ I         936 29.61        18.8 0.42            170           23.4 191 
 PAM  EZ IP     C  936 16.73                             150    0.1310 77.2  39 
 PAM  EN ES        936 33.63                             150    0.0810 77.2  39 
 PAM  EZ I         936 35.85        24.1 0.50            153           77.2  39 
 RUS  HZ EP        936 17.88                             143   -0.3010  101 176 
 RUS  HN ES        936 36.18                             143   -0.1910  101 176 
 RUS  HZ I         936 37.18         8.3 0.34            145            101 176 
 PTB  HZ EP        936 21.66                             131    0.15 9  148 259 
 PTB  HN ES        936 41.96                             131   -0.33 9  148 259 
 PTB  HZ I         936 43.90        12.3 0.26            131            148 259 
 SPBC HZ EP        936 22.75                             128   -0.30 9  163 219 
 SPBC HN ES        936 44.88                             128   -0.15 9  163 219 
 SPBC HZ I         936 50.13         9.3 0.22            129            163 219 
 ZAR  HZ EP        936 27.31                             121    0.24 9  204 292 
 ZAR  HN ES        936 52.05                             121   -0.13 9  204 292 
 ZAR  HZ I         937  0.52        10.7 0.46            122            204 292 
 NOR  HZ IP        936 30.40                             117    0.03 8  235 235 
 NOR  HE ES        936 58.43                             117    0.36 8  235 235 
 NOR  HZ I         937  0.18         6.0 0.14            118            235 235 
 CHI  HZ EP        936 32.32                             116   -0.01 8  249 195 
 CHI  HN ES        937  2.02                             116    0.47 8  249 195 
 CHI  HZ I         937  7.86         1.6 0.34            118            249 195 
 GUY2CHZ EP        936 38.37                             111    0.06 7  301 235 
 GUY2CHE ES        937 12.38                             111    0.19 7  301 235 
 GUY2CHZ I         937 20.42         3.0 0.30                           301 235 
                                                                                
