 2010  6 7 0120 39.5 L   6.414 -73.452100.0  RSN  5 0.6 1.6LRSN                1
 GAP=175        1.26      12.5    26.2 31.1 -0.2285E+03  0.4512E+03 -0.1102E+03E
 Epicentro: CHIMA - SANTANDER                                                  3
 ACTION:UP  10-08-24 10:08 OP:vdl  STATUS:               ID:20100607012039 L   I
 2010-06-07-0119-21S.COL___111                                                 6
 STAT SP IPHASW D HRMM SECON CODA AMPLIT PERI AZIMU VELO SNR AR TRES W  DIS CAZ7
 BAR2 SZ EP   1    120 54.26                             160     0.1 8   36  57 
 GUE  SZ IP        121  4.73                             117    -1.010  167  20 
 GRA  SZ EP   1    121  7.55                             115     0.9 7  178  24 
 GRA  SZ ES   1    121 28.25                             115     0.4 7  178  24 
 OCA  SZ EP   1    121  9.89                             111     0.4 7  202   4 
 OCA  SZ ES   1    121 32.74                             111    -0.1 7  202   4 
 OCA  SZ I         121 39.26         6.6 0.22                           202   4 
 RREF BZ EP   1    121 17.90                             105     0.1 6  268 232 
 RREF BZ I         121 51.16         1.6 0.21                           268 232 
                                                                                
