 2011  7 7 0418 40.1 L   6.734 -73.131145.7  RSN  6 0.3 1.5LRSN                1
 GAP=161        0.53       4.8     9.1  5.7  0.2105E+02 -0.2383E+02 -0.1149E+02E
 Epicentro: JORDAN - SANTANDER                                                 3
 *PAM-BAR2-GRA-BRR-RUS                                                         3
 ACTION:UPD 12-07-25 13:58 OP:epov STATUS:               ID:20110707041732 L   I
 2011-07-07-0417-32S.COL___140                                                 6
 STAT SP IPHASW D HRMM SECON CODA AMPLIT PERI AZIMU VELO AIN AR TRES W  DIS CAZ7
 BAR2 SZ EP        418 59.31                             173   -0.3410 16.7 200 
 BAR2 SZ ES   1    419 14.84                             173   -0.02 7 16.7 200 
 BAR2 SZ I         419 16.22         4.5 0.13                          16.7 200 
 BTL  SZ EP   1    418 59.99                             170    0.19 7 25.3 323 
 BTL  SZ ES   1    419 15.15                             170    0.01 7 25.3 323 
 GIR2 SZ EP   1    418 59.82                             164   -0.20 7 38.7 350 
 BRR  HZ EP   1    419  1.47                             151   -0.11 7 76.3 303 
 BRR  HZ I         419  1.68        11.8 0.14                          76.3 303 
 BRR  HN ES   1    419 18.44                             151    0.15 7 76.3 303 
 RUS  HZ EP   2    419  4.09                             146    0.72 5 93.2 177 
 RUS  HE ES   1    419 21.53                             146    0.05 7 93.2 177 
 GRA  SZ EP   1    419  6.16                             135    0.24 7  132  16 
 GRA  SZ I         419 25.85         3.9 0.41                           132  16 
                                                                                
