 2014  5 7 0653 26.0 L   6.806 -73.158145.5  RSN 13 0.4 2.3LRSN                1
 GAP= 70        0.82       2.2     2.4  5.2 -0.3649E+00  0.3998E+01  0.1705E+01E
 Epicentro: LOS SANTOS - SANTANDER                                             3
 ACTION:UPD 15-03-16 16:55 OP:nd   STATUS:               ID:20140507065326 L   I
 OLDACT:REG 14-05-07 12:45 OP:carl STATUS:               ID:20140507064820     3
 2014-05-07-0648-20M.COL___220                                                 6
 STAT SP IPHASW D HRMM SECON CODA AMPLIT PERI AZIMU VELO AIN AR TRES W  DIS CAZ7
 PAM  SZ EP        653 48.49                             151    0.2710 77.7  41 
 PAM  SN ES        654  5.88                             151    0.3410 77.7  41 
 PAM  SZ I         654  7.86        30.9 0.58            156           77.7  41 
 RUS  HZ EP        653 49.53                             143   -0.2610  101 175 
 RUS  HN ES        654  8.36                             143    0.0110  101 175 
 PTB  HZ EP        653 52.58                             132   -0.27 9  147 258 
 PTB  HN ES        654 13.38                             132   -0.40 9  147 258 
 PTB  HZ I         654 16.61        21.6 0.10            132            147 258 
 TAM  HZ IP     D  653 53.87                             130    0.06 9  157 105 
 TAM  HN ES        654 15.49                             130   -0.00 9  157 105 
 OCA  HN ES        654 16.30                             130    0.08 9  159 354 
 SPBC HZ EP        653 54.58                             129    0.12 9  163 218 
 SPBC HN ES        654 16.55                             129   -0.10 9  163 218 
 SPBC HZ I         654 19.41        40.1 0.22            129            163 218 
 ZAR  HN ES        654 23.71                             122    0.26 9  203 292 
 ZAR  HZ I         654 29.88        16.8 0.32            124            203 292 
 SML  HZ EP        654  1.73                             117   -0.76 8  242 336 
 SML  HN ES        654 30.50                             117   -0.44 8  242 336 
 CHI  HZ EP        654  3.64                             117   -0.09 8  249 195 
 CHI  HN ES        654 32.63                             117   -0.52 8  249 195 
 CHI  HZ I         654 41.51         7.2 0.52            118            249 195 
 ROSC BZ EP   4    654  5.25                             117    1.15 0  253 211 
 ROSC BN ES   4    654 37.35                             117    3.53 0  253 211 
 HEL  HZ EP        654  6.62                             115    0.54 8  271 256 
 HEL  HN ES        654 37.59                             115    0.26 8  271 256 
 HEL  HZ I         654 46.12         9.8 0.40            116            271 256 
 URE  HZ EP   4    654  6.24                             114   -0.65 0  282 292 
 URE  HN ES   4    654 36.85                             114   -1.93 0  282 292 
 RREF HZ EP        654 12.56                             111    0.49 7  321 229 
 RREF HN ES        654 48.67                             111    0.67 7  321 229 
 RREF HZ I         654 57.73         9.5 0.34            112            321 229 
 CBOC HZ EP        654 13.60                             110    0.81 7  333 252 
 CBOC HN ES        654 48.93                             110   -0.34 7  333 252 
 PRA  HZ EP        654 19.14                             106   -0.37 6  392 209 
 PRA  HE ES        655  1.09                             106   -0.15 6  392 209 
 PRA  HZ I         655  9.86         6.0 0.64            108            392 209 
                                                                                
