 2016 10 7 0432 29.9 L   6.774 -73.162134.0  RSN  7 0.4 1.3LRSN                1
 GAP=136        0.84       3.8     3.9  7.7 -0.3691E+01  0.1192E+02 -0.6778E+01E
 Epicentro: LOS SANTOS - SANTANDER                                             3
 ACTION:UPD 16-11-09 19:17 OP:rebc STATUS:               ID:20161007043229 L   I
 OLDACT:REG 16-10-07 12:48 OP:dnl  STATUS:               ID:20161007042744     3
 2016-10-07-0428-00M.COL___348                                                 6
 STAT SP IPHASW D HRMM SECON CODA AMPLIT PERI AZIMU VELO AIN AR TRES W  DIS CAZ7
 BAR2 EZ EP        432 48.06                             171   -0.0110 20.2 186 
 BAR2 EZ ES        433  2.17                             171   -0.0610 20.2 186 
 BAR2 EZ I         433  3.85         4.4 0.20            171           20.2 186 
 BRR  HZ EP        432 50.10                             150    0.3010 71.1 301 
 BRR  HE ES   4    433  6.99                             150    1.69 0 71.1 301 
 BRR  HZ I         433 13.43         6.6 0.32            148           71.1 301 
 PAM  EZ EP        432 51.05                             147   -0.0610 80.8  39 
 PAM  EN ES        433  7.33                             147   -0.3210 80.8  39 
 PAM  EZ I         433  8.67         2.5 0.34            152           80.8  39 
 RUS  HZ EP   2    432 52.55                             142    0.23 5 97.8 175 
 RUS  HN ES        433 10.35                             142    0.5510 97.8 175 
 RUS  HZ I         433 11.40         1.7 0.20            149           97.8 175 
 PTB  HZ EP   2    432 55.01                             129   -0.72 5  145 260 
 PTB  HN ES        433 15.60                             129   -0.27 9  145 260 
 PTB  HZ I         433 18.28         3.1 0.16            131            145 260 
 SPBC HZ EP   2    432 57.03                             127   -0.18 5  160 219 
 SPBC HN ES        433 17.99                             127   -0.50 9  160 219 
 SPBC HZ I         433 21.33         2.4 0.50            131            160 219 
 ZAR  HZ EP   4    433  2.84                             120    1.28 0  203 293 
 ZAR  HN ES        433 26.78                             120    0.53 9  203 293 
 ZAR  HZ I         433 33.23         2.7 0.22            122            203 293 
                                                                                
