 2012  6 7 0141 29.6 L   6.764 -73.198147.3  RSN  5 0.4 1.5LRSN                1
 GAP=239        0.82       7.1     8.2 11.3  0.3232E+02  0.4337E+02  0.9746E+01E
 Epicentro: VILLANUEVA - SANTANDER                                             3
 ACTION:UPD 12-08-06 17:47 OP:ep   STATUS:               ID:20120607014128 L   I
 2012-06-07-0140-00M.COL___201                                                 6
 STAT SP IPHASW D HRMM SECON CODA AMPLIT PERI AZIMU VELO AIN AR TRES W  DIS CAZ7
 BAR2 SZ EP   1    141 49.03                             172   -0.34 7 19.1 175 
 BAR2 SZ ES   1    142  4.34                             172   -0.42 7 19.1 175 
 BAR2 SZ I         142  6.97         9.2 0.26            173           19.1 175 
 RUS  HN ES        142 12.24                             145    0.4910 97.2 173 
 PTB  HZ EP   1    141 56.51                             134    0.36 7  141 260 
 PTB  HN ES   1    142 16.55                             134   -0.29 7  141 260 
 PTB  HZ I         142 18.81         2.8 0.10            136            141 260 
 ZAR  HN ES   1    142 27.13                             123    0.25 6  200 294 
 CHI  HN ES   1    142 35.31                             118   -0.56 6  243 194 
                                                                                
