 2017  5 7 0432 11.4 L   6.531 -73.719 91.1  RSN 23 0.6 2.6LRSN                1
 GAP= 79        1.46       3.1     3.0  7.4  0.5134E+00  0.4592E+01  0.3025E+01E
 Epicentro: SANTA HELENA DEL OPON - SANTANDER                                  3
 ACTION:UPD 17-06-16 13:33 OP:jn   STATUS:               ID:20170507043211 L   I
 OLDACT:UP  17-05-07 15:49 OP:ar   STATUS:               ID:20170507042740d    3
 OLDACT:UP  17-05-07 15:42 OP:ar   STATUS:               ID:20170507042740d    3
 OLDACT:UP  17-05-07 15:41 OP:ar   STATUS:               ID:20170507042740d    3
 OLDACT:DUP 17-05-07 15:32 OP:ar   STATUS:               ID:20170507042740d    3
 2017-05-07-0428-00M.COL___361                                                 6
 STAT SP IPHASW D HRMM SECON CODA AMPLIT PERI AZIMU VELO AIN AR TRES W  DIS CAZ7
 BRR  HZ IP     C  432 26.51                             142    0.0910 63.7   1 
 BRR  HN ES        432 39.64                             142    1.5110 63.7   1 
 BRR  HZ I         432 40.77       104.1 0.12            144           63.7   1 
 PTB  HZ IP     C  432 27.02                             135   -0.9010 81.6 271 
 PTB  HN ES        432 39.98                             135   -0.8010 81.6 271 
 PTB  HZ I         432 40.67        99.4 0.16            133           81.6 271 
 RUS  HZ IP     D  432 29.42                             129   -0.8010 99.7 135 
 RUS  HN ES        432 44.27                             129   -0.6210 99.7 135 
 RUS  HZ I         432 45.92        44.6 0.48            129           99.7 135 
 SPBC HZ EP        432 29.55                             127   -0.6310  105 202 
 SPBC HE ES        432 44.89                             127    0.0710  105 202 
 SPBC HZ I         432 48.38       141.5 0.62            125            105 202 
 PAM  EZ IP     C  432 34.39                             118   -0.37 9  144  52 
 PAM  EE ES        432 52.87                             118   -0.10 9  144  52 
 PAM  EZ I         432 53.87       120.4 0.22            119            144  52 
 ZAR  HZ EP        432 36.47                             114   -0.00 9  165 310 
 ZAR  HN ES   4    433  1.02                             114    5.01 0  165 310 
 ZAR  HZ I         433  2.72        90.0 0.28            114            165 310 
 NOR  HZ EP        432 35.80                             114   -0.91 9  166 230 
 NOR  HN ES        432 56.25                             114   -0.19 9  166 230 
 NOR  HZ I         432 57.01        54.7 0.34            113            166 230 
 TABC EZ EP        432 38.95                             113    0.57 9  176 198 
 TABC EZ ES   4    433  2.07                             113    2.67 0  176 198 
 TABC EZ I         433  2.67        56.0 0.38            112            176 198 
 YPLC HZ EP        432 39.33                             110   -0.59 9  194 130 
 YPLC HE ES        433  3.08                             110    0.93 9  194 130 
 YPLC HZ I         433  3.98        38.8 0.26            110            194 130 
 ROSC BZ EP        432 41.64                             110    0.82 9  199 200 
 ROSC BN ES   4    433  6.78                             110    3.03 0  199 200 
 ROSC BZ I         433 13.18        22.8 0.25            109            199 200 
 HEL  HZ EP        432 41.10                             110   -0.30 9  204 259 
 HEL  HE ES        433  5.22                             110    0.43 9  204 259 
 HEL  HZ I         433  9.19        35.3 0.22            109            204 259 
 CHI  HZ EP        432 42.25                             109    0.03 8  210 180 
 CHI  HE ES        433  6.93                             109    0.69 8  210 180 
 CHI  HZ I         433 13.43        21.6 0.48            108            210 180 
 ELA  HZ EP        432 49.47                             105    0.96 8  262 225 
 ELA  HN ES        433 17.57                             105    0.12 8  262 225 
 ELA  HZ I         433 21.58        24.3 0.48            104            262 225 
 CBOC HZ EP        432 48.21                             105   -0.10 8  264 254 
 CBOC HN ES        433 17.30                             105    0.21 8  264 254 
 CBOC HZ I         433 24.42        12.3 0.44            104            264 254 
 VIL  EZ EP        432 48.05                             104   -0.59 8  268 179 
 VIL  EE ES        433 18.49                             104    0.81 8  268 179 
 VIL  EZ I         433 26.04        49.5 0.28            104            268 179 
 DBB  EZ EP        432 50.44                             104    0.29 7  281 281 
 DBB  EE ES        433 20.38                             104    0.03 7  281 281 
 DBB  EZ I         433 22.72        25.0 0.14            103            281 281 
 ANIL HZ EP   4    432 53.36                             103    1.49 0  293 220 
 ANIL HN ES   4    433 26.86                             103    3.43 0  293 220 
 PTGC HZ EP   9    432 51.87                             102   -1.96 0  312 146 
 PTGC HN ES        433 24.66                             102   -0.29 7  312 146 
 PTGC HZ I         433 27.87        23.7 0.24            102            312 146 
 PAL  HZ EP        432 57.17                             101    0.33 7  336 238 
 PAL  HN ES   4    433 29.57                             101   -2.69 0  336 238 
 PAL  HZ I         433 43.50         8.8 0.48            101            336 238 
 ORTC HZ EP        432 56.93                             101    0.18 7  336 210 
 ORTC HN ES   4    433 35.01                             101    2.90 0  336 210 
 ORTC HZ I         433 40.23        29.5 0.54            101            336 210 
 APAC HZ EP        432 57.99                             100   -0.48 6  350 296 
 APAC HE ES        433 35.80                             100    0.63 6  350 296 
 APAC HZ I         433 37.34        15.1 0.36            100            350 296 
 ARGC HZ EP        433  2.05                             100    0.89 6  372 351 
 ARGC HN ES   4    433 45.14                             100    5.19 0  372 351 
 ARGC HZ I         433 50.55        10.3 0.32            100            372 351 
 SJC  HZ EP        433  4.74                              99   -0.51 6  405 337 
 SJC  HN ES   4    433 45.14                              99   -2.11 0  405 337 
 SJC  HZ I         433 48.99        13.9 0.72             99            405 337 
 MACC HZ EP   4    433 12.46                              97   -2.49 0  485 182 
 MACC HN ES   4    434  0.70                              97   -3.80 0  485 182 
 MACC HZ I         434  5.01        11.6 0.20             97            485 182 
                                                                                
