 2015  1 7 0117 37.5 L   5.759 -73.924104.9  RSN 10 0.4 2.0LRSN                1
 GAP= 89        1.09       2.9     3.0  6.2 -0.3987E+00  0.2677E+01 -0.2041E+01E
 Epicentro: ALBANIA - SANTANDER                                                3
 ACTION:UPD 15-03-02 15:37 OP:nd   STATUS:               ID:20150107011737 L   I
 OLDACT:REG 15-01-07 17:03 OP:cam  STATUS:               ID:20150107011649     3
 2015-01-07-0116-49M.COL___280                                                 6
 STAT SP IPHASW D HRMM SECON CODA AMPLIT PERI AZIMU VELO AIN AR TRES W  DIS CAZ7
 SPBC HZ IP     D  117 52.18                             168    0.2310 20.3 234 
 SPBC HN ES        118  3.85                             168    0.6410 20.3 234 
 SPBC HZ I         118  4.76        99.4 0.20            169           20.3 234 
 RUS  HZ EP        117 57.07                             135    0.1110 94.2  81 
 RUS  HN ES        118 11.81                             135   -0.3210 94.2  81 
 RUS  HZ I         118 13.04         8.2 0.14            137           94.2  81 
 PTB  HZ EP        117 56.41                             131   -0.8110  104 326 
 PTB  HE ES        118 11.68                             131   -0.9210  104 326 
 PTB  HZ I         118 14.10        22.4 0.80            132            104 326 
 NOR  HZ EP        117 57.62                             131    0.1210  107 258 
 NOR  HN ES        118 12.97                             131   -0.1210  107 258 
 NOR  HZ I         118 15.31        52.6 0.36            132            107 258 
 BAR2 EZ EP        117 59.60                             126    0.2910  123  42 
 BAR2 EZ ES        118 16.20                             126   -0.1210  123  42 
 BAR2 EZ I         118 18.39        42.6 0.56            128            123  42 
 CHI  HZ EP        117 59.75                             126   -0.1310  127 170 
 CHI  HN ES        118 17.07                             126   -0.2610  127 170 
 CHI  HZ I         118 20.93         9.4 0.28            128            127 170 
 BRR  HZ EP        118  1.82                             120    0.01 9  151   9 
 BRR  HN ES        118 21.57                             120    0.80 9  151   9 
 BRR  HZ I         118 24.19        14.6 0.16            121            151   9 
 RREF HZ EP   4    118  6.55                             115    0.32 0  184 239 
 HEL  HZ EP        118  6.25                             115    0.37 9  184 285 
 HEL  HN ES        118 28.31                             115    0.30 9  184 285 
 HEL  HZ I         118 29.83         8.7 0.58            116            184 285 
 ZAR  HZ EP        118  9.05                             110   -0.18 8  218 332 
 ZAR  HE ES        118 34.10                             110    0.13 8  218 332 
 ZAR  HZ I         118 39.90        12.4 0.26            111            218 332 
 CBOC HZ EP   4    118 11.45                             109    0.42 0  232 273 
 TAM  HZ EP   4    118 12.50                             107   -0.23 0  248  72 
 ORTC HZ EP        118 13.34                             107    0.13 8  252 216 
                                                                                
