 2016  1 7 0749 24.6 L   6.402 -73.737 94.6  RSN 14 0.5 1.5LRSN                1
 GAP= 75        1.27       3.0     3.4  7.1 -0.1348E+01  0.8204E+01  0.1017E+01E
 Epicentro: SANTA HELENA DEL OPON - SANTANDER                                  3
 ACTION:UPD 16-03-09 23:23 OP:cam  STATUS:               ID:20160107074924 L   I
 OLDACT:UP  16-02-01 09:16 OP:mHER STATUS:               ID:20160107074924 L   3
 OLDACT:REG 16-01-07 12:42 OP:drio STATUS:               ID:20160107074750     3
 2016-01-07-0747-50M.COL___268                                                 6
 STAT SP IPHASW D HRMM SECON CODA AMPLIT PERI AZIMU VELO AIN AR TRES W  DIS CAZ7
 BAR2 EZ EP        749 40.43                             143    0.0510 64.8  71 
 BAR2 EZ ES        749 52.92                             143    0.2410 64.8  71 
 BAR2 EZ I         749 55.01        22.9 0.38            147           64.8  71 
 BRR  HZ EP        749 41.05                             137   -0.0410 78.0   2 
 BRR  HE ES        749 54.71                             137    0.7710 78.0   2 
 BRR  HZ I         749 57.01         5.7 0.32            139           78.0   2 
 PTB  HZ EP        749 40.49                             136   -0.8810 81.0 281 
 PTB  HE ES        749 54.17                             136   -0.2710 81.0 281 
 PTB  HZ I         749 54.65         9.3 0.16            135           81.0 281 
 SPBC HZ EP        749 42.48                             133    0.1410 90.9 204 
 SPBC HN ES        749 56.66                             133    0.4910 90.9 204 
 SPBC HZ I         749 58.80        14.1 0.22            133           90.9 204 
 RUS  HZ EP        749 42.63                             133   -0.3210 91.7 128 
 RUS  HN ES        749 56.88                             133   -0.3810 91.7 128 
 RUS  HZ I         749 59.33         2.9 0.36            136           91.7 128 
 PAM  EZ EP   4    749 50.85                             117    1.52 0  155  48 
 PAM  EN ES   4    750  7.61                             117   -1.00 0  155  48 
 PAM  EZ I         750  9.16         4.6 0.26            120            155  48 
 NOR  HZ EP        749 48.13                             117   -0.80 9  156 234 
 NOR  HN ES        750  6.99                             117   -0.91 9  156 234 
 NOR  HZ I         750 11.78         9.6 0.14            117            156 234 
 ZAR  HZ EP        749 50.63                             114   -0.13 9  173 314 
 ZAR  HE ES        750 11.21                             114    0.06 9  173 314 
 ZAR  HZ I         750 16.02         6.7 0.20            115            173 314 
 HEL  HZ EP        749 54.66                             111    0.39 9  200 263 
 HEL  HE ES        750 17.82                             111    0.42 9  200 263 
 HEL  HZ I         750 20.60         4.0 0.38            111            200 263 
 OCA  HZ EP        749 54.45                             110   -0.54 8  208  13 
 OCA  HE ES        750 18.81                             110    0.13 8  208  13 
 GUY2CHZ EP        749 57.39                             109    0.34 8  222 234 
 GUY2CHN ES   4    750 23.54                             109    1.19 0  222 234 
 GUY2CHZ I         750 30.40         3.2 0.34                           222 234 
 CBOC HZ EP        750  1.86                             106    0.90 8  259 257 
 CBOC HN ES   4    750 27.43                             106   -1.88 0  259 257 
 CBOC HZ I         750 42.97         1.0 0.54            106            259 257 
 SML  HZ EP   9    750  0.79                             105   -1.02 0  268 352 
 SML  HE ES        750 29.16                             105   -0.64 8  268 352 
 SML  HZ I         750 34.25         4.5 0.26            106            268 352 
 PRA  HZ EP        750  9.19                             102    0.64 7  323 203 
 PRA  HE ES        750 43.53                             102    0.72 7  323 203 
 PRA  HZ I         750 48.14         1.9 0.44            103            323 203 
                                                                                
