 2012  1 7 0953 15.7 L   6.765 -73.146151.2  RSN  8 0.4 1.7LRSN                1
 GAP=138        0.91       5.1     5.4  6.9  0.2673E+01  0.9142E+01  0.6217E+01E
 Epicentro: LOS SANTOS - SANTANDER                                             3
 ACTION:UP  12-02-03 08:15 OP:REBC STATUS:               ID:20120107095315 L   I
 2012-01-07-0950-00M.COL___186                                                 6
 STAT SP IPHASW D HRMM SECON CODA AMPLIT PERI AZIMU VELO SNR AR TRES W  DIS CAZ7
 BAR2 SZ EP   1    953 35.85                             172    -0.1 7   19 192 
 BAR2 SZ ES   1    953 50.86                             172    -0.9 7   19 192 
 BAR2 SZ I         953 52.03        12.0 0.39                            19 192 
 GIR2 SZ EP   1    953 35.93                             166    -0.2 7   35 351 
 GIR2 SZ ES   1    953 52.41                             166     0.3 7   35 351 
 BRR  HZ IP     C  953 37.60                             153     0.010   73 301 
 BRR  HZ I         953 37.90        21.3 0.18                            73 301 
 BRR  HN ES   1    953 55.58                             153     1.0 7   73 301 
 PAM  SZ EP   1    953 38.75                             151     0.0 7   80  38 
 PAM  SN ES   1    953 56.54                             151    -0.1 7   80  38 
 RUS  HZ EP   1    953 39.97                             146     0.2 7   97 176 
 RUS  HE ES   1    953 58.62                             146     0.1 7   97 176 
 RUS  HZ I         953 59.63         3.4 0.28                            97 176 
 PTB  HZ EP   1    953 42.80                             133    -0.3 7  147 260 
 PTB  HN ES   1    954  4.06                             133    -0.4 7  147 260 
 ZAR  HZ EP   1    953 48.89                             123     0.2 6  205 293 
 ZAR  HE ES   1    954 14.07                             123    -0.3 6  205 293 
 ZAR  HZ I         954 20.82         6.1 0.30                           205 293 
 CHI  HZ EP   1    953 53.46                             119     0.1 6  245 195 
 CHI  HZ I         953 55.82         1.4 0.48                           245 195 
 CHI  HN ES   2    954 23.46                             119     0.8 4  245 195 
                                                                                
