 2014  2 7 0547  2.2 L   6.798 -73.151141.1  RSN  9 0.5 1.8LRSN                1
 GAP=136        0.94       4.8     4.5  7.0 -0.5659E+01  0.1365E+02  0.1391E+01E
 Epicentro: LOS SANTOS - SANTANDER                                             3
 ACTION:UPD 14-03-10 08:08 OP:ep   STATUS:               ID:20140207054702 L   I
 OLDACT:UP  14-02-07 12:24 OP:mh   STATUS:               ID:20140207054000     3
 OLDACT:REG 14-02-07 08:50 OP:mh   STATUS:               ID:20140207054000     3
 2014-02-07-0540-00M.COL___291                                                 6
 STAT SP IPHASW D HRMM SECON CODA AMPLIT PERI AZIMU VELO AIN AR TRES W  DIS CAZ7
 BAR2 SZ EP   1    547 21.24                             170   -0.05 7 23.0 189 
 BAR2 SZ ES   1    547 36.76                             170    0.60 7 23.0 189 
 BAR2 SZ I         547 38.33        12.1 0.32            167           23.0 189 
 PAM  SZ EP   1    547 23.98                             150    0.00 7 77.9  40 
 PAM  SN ES        547 40.81                             150   -0.1310 77.9  40 
 PAM  SZ I         547 42.99        14.0 0.56            156           77.9  40 
 RUS  HZ EP   1    547 25.32                             143   -0.19 7  100 176 
 RUS  HN ES   1    547 43.99                             143    0.32 7  100 176 
 RUS  HZ I         547 46.00         9.3 0.32            145            100 176 
 PTB  HZ EP   1    547 28.22                             131   -0.54 7  147 259 
 PTB  HN ES        547 48.97                             131   -0.49 9  147 259 
 PTB  HZ I         547 51.90         5.8 0.19            131            147 259 
 SPBC HZ EP        547 29.88                             128   -0.44 9  163 219 
 SPBC HN ES   1    547 51.87                             128   -0.37 7  163 219 
 SPBC HZ I         547 58.78         9.6 0.18            129            163 219 
 ZAR  HZ EP        547 34.88                             121    0.55 9  204 292 
 ZAR  HN ES   1    547 59.34                             121   -0.02 6  204 292 
 ZAR  HZ I         548  6.63         4.2 0.11            123            204 292 
 NOR  HZ EP        547 37.18                             117   -0.45 8  234 234 
 NOR  HN ES        548  5.81                             117    0.57 8  234 234 
 NOR  HZ I         548 11.40         4.1 0.15            119            234 234 
 HEL  HZ EP   1    547 43.41                             114    1.27 6  271 256 
 HEL  HN ES   1    548 13.28                             114    0.01 6  271 256 
 HEL  HZ I         548 21.01         3.9 0.31            115            271 256 
 PRA  HZ EP   1    547 56.06                             106    0.52 4  392 210 
 PRA  HN ES   4    548 40.47                             106    3.35 0  392 210 
 PRA  HZ I         548 43.98         2.8 0.27            108            392 210 
                                                                                
