 2017 11 7 0412 20.8 L   6.801 -73.188144.5  RSN 10 0.4 1.5LRSN                1
 GAP=108        0.92       3.4     3.4  6.3 -0.1869E-01  0.2831E+01  0.7471E+01E
 Epicentro: ZAPATOCA - SANTANDER                                               3
 ACTION:UPD 17-12-12 19:53 OP:rebc STATUS:               ID:20171107041220 L   I
 OLDACT:UP  17-11-07 14:14 OP:dnl  STATUS:               ID:20171107040746     3
 OLDACT:UP  17-11-07 14:14 OP:dnl  STATUS:               ID:20171107040746     3
 OLDACT:REG 17-11-07 12:57 OP:dnl  STATUS:               ID:20171107040746     3
 2017-11-07-0408-00M.COL___411                                                 6
 STAT SP IPHASW D HRMM SECON CODA AMPLIT PERI AZIMU VELO AIN AR TRES W  DIS CAZ7
 BAR2 EZ EP        412 40.09                             170   -0.2010 23.1 178 
 BAR2 EZ ES        412 54.87                             170   -0.6110 23.1 178 
 BAR2 EZ I         412 57.86         7.0 0.46            168           23.1 178 
 BRR  HZ EP        412 41.83                             154    0.2410 67.0 300 
 BRR  HE ES        412 58.41                             154    0.6110 67.0 300 
 BRR  HZ I         413  1.54         5.5 0.38            152           67.0 300 
 PAM  EZ IP     D  412 43.03                             150   -0.0410 80.4  42 
 PAM  EN ES        413  0.23                             150   -0.2110 80.4  42 
 PAM  EZ I         413  2.23         3.6 0.44            155           80.4  42 
 PTB  HZ EP   2    412 46.71                             133   -0.55 5  143 258 
 PTB  HE ES        413  8.39                             133    0.50 9  143 258 
 PTB  HZ I         413  8.85         2.3 0.18            132            143 258 
 SPBC HZ EP   2    412 48.65                             129   -0.30 5  160 218 
 SPBC HE ES        413 11.06                             129    0.17 9  160 218 
 SPBC HZ I         413 17.95         5.1 0.34            129            160 218 
 YPLC HZ EP   2    412 51.10                             126    0.35 4  179 150 
 YPLC HN ES        413 14.61                             126    0.50 9  179 150 
 YPLC HZ I         413 15.57         4.6 0.26            127            179 150 
 ZAR  HZ EP   2    412 52.15                             123   -0.57 4  200 293 
 ZAR  HE ES        413 17.49                             123   -0.12 9  200 293 
 ZAR  HZ I         413 25.83         2.5 0.46            123            200 293 
 NOR  HZ EP   2    412 56.48                             119    0.41 4  231 234 
 NOR  HN ES        413 22.67                             119   -0.90 8  231 234 
 NOR  HZ I         413 31.98         2.3 0.16            119            231 234 
 CHI  HZ EP        412 58.62                             117    0.29 8  248 194 
 CHI  HN ES        413 27.39                             117   -0.20 8  248 194 
 CHI  HZ I         413 33.34         1.2 0.26            117            248 194 
 PRA  HZ EP   2    413 14.18                             106    0.15 3  390 209 
 PRA  HE ES   4    413 53.71                             106   -1.84 0  390 209 
 PRA  HZ I         413 59.74         1.0 0.24            107            390 209 
                                                                                
