 2014 10 7 0202 17.3 L   6.809 -73.145149.0  RSN  9 0.6 1.7LRSN                1
 GAP=183        1.21       4.8     8.6 10.6  0.9921E+01 -0.2812E+01 -0.7774E+01E
 Epicentro: LOS SANTOS - SANTANDER                                             3
 ACTION:UPD 14-11-29 23:47 OP:nd   STATUS:               ID:20141007020217 L   I
 OLDACT:REG 14-10-07 12:50 OP:fm   STATUS:               ID:20141007015746     3
 2014-10-07-0157-46M.COL___292                                                 6
 STAT SP IPHASW D HRMM SECON CODA AMPLIT PERI AZIMU VELO AIN AR TRES W  DIS CAZ7
 BRR  HZ EP   1    2 2 39.32                             153    0.57 7 70.8 298 
 BRR  HN ES        2 2 56.42                             153    0.9210 70.8 298 
 BRR  HZ I         2 2 57.92         5.7 0.28            149           70.8 298 
 RUS  HZ EP        2 2 41.79                             144    0.3810  102 176 
 RUS  HN ES        2 2 59.58                             144   -0.6610  102 176 
 RUS  HZ I         2 3  2.00         2.6 0.28            142            102 176 
 PTB  HZ EP   1    2 2 45.11                             133    0.58 7  148 258 
 PTB  HN ES   1    2 3  5.40                             133   -0.39 7  148 258 
 PTB  HZ I         2 3  8.16         5.5 0.12            129            148 258 
 OCA  HN ES   1    2 3  7.25                             131   -0.70 7  159 353 
 SPBC HN ES   1    2 3  8.04                             130   -0.55 7  164 219 
 SPBC HZ I         2 3 14.72         3.7 0.26            127            164 219 
 ZAR  HN ES   1    2 3 14.98                             123   -0.37 6  204 292 
 ZAR  HZ I         2 3 18.40         5.3 0.10            121            204 292 
 SML  HZ EP   1    2 2 54.18                             118    0.20 6  243 335 
 SML  HE ES   1    2 3 21.83                             118   -0.79 6  243 335 
 SML  HZ I         2 3 23.50         6.1 0.10            118            243 335 
 PRA  HZ EP   4    2 3 12.98                             107    1.96 0  393 210 
 PRA  HN ES   1    2 3 53.16                             107    0.22 4  393 210 
 PRA  HZ I         2 3 59.76         1.7 0.64            106            393 210 
 SJC  HZ EP   1    2 3 12.04                             106   -0.81 4  408 327 
 SJC  HN ES   4    2 3 52.78                             106   -3.41 0  408 327 
 SJC  HZ I         2 3 57.72         1.7 0.68            106            408 327 
                                                                                
