 2010  2 7 0910 23.1 L   6.878 -73.136144.8  RSN  6 0.4 1.7LRSN                1
 GAP=197        0.73       3.8    10.0  8.9 -0.1338E+01  0.3668E+02  0.4177E+01E
 Epicentro: LOS SANTOS - SANTANDER                                             3
 ACTION:UP  10-08-24 09:47 OP:vdl  STATUS:               ID:20100207091023 L   I
 2010-02-07-0859-52S.COL___088                                                 6
 STAT SP IPHASW D HRMM SECON CODA AMPLIT PERI AZIMU VELO SNR AR TRES W  DIS CAZ7
 BAR2 SZ EP        910 43.02                             167     0.210   32 189 
 BAR2 SZ ES   2    910 57.62                             167    -0.6 5   32 189 
 OCA  SZ EP        910 50.85                             131     0.3 9  152 352 
 OCA  SZ ES   1    911 11.78                             131    -0.2 7  152 352 
 CHI  HZ EP        911  1.38                             116    -0.3 8  257 195 
 CHI  HZ I         911  3.59         2.0 0.19                           257 195 
 CHI  HE ES   2    911 32.29                             116     0.5 4  257 195 
 HEL  HE ES   2    911 35.79                             114     0.6 4  275 254 
 MON  HZ EP        911 10.99                             109    -0.5 6  348 307 
 MON  HZ I         911 53.64         1.4 0.95                           348 307 
 PRA  HZ EP   1    911 17.54                             106     0.0 4  400 209 
 PRA  HZ I         912  3.33         2.4 0.48                           400 209 
                                                                                
