 2017  6 7 0028  8.4 L   6.697 -73.228149.5  RSN  5 0.3 1.3LRSN                1
 GAP=219        0.59       3.6     4.2  6.7  0.5125E+01 -0.3065E+01 -0.1394E+01E
 Epicentro: VILLANUEVA - SANTANDER                                             3
 ACTION:UPD 17-09-14 16:50 OP:jn   STATUS:               ID:20170607002808 L   I
 OLDACT:UP  17-06-07 14:10 OP:edw  STATUS:               ID:20170607002731     3
 OLDACT:UP  17-06-07 14:08 OP:edw  STATUS:               ID:20170607002731     3
 OLDACT:REG 17-06-07 11:42 OP:edw  STATUS:               ID:20170607002731     3
 2017-06-07-0028-00M.COL___371                                                 6
 STAT SP IPHASW D HRMM SECON CODA AMPLIT PERI AZIMU VELO AIN AR TRES W  DIS CAZ7
 BRR  HZ IP     D  028 29.74                             153   -0.1710 70.1 310 
 BRR  HE ES        028 46.77                             153    0.1010 70.1 310 
 BRR  HZ I         028 48.32         6.9 0.44            155           70.1 310 
 RUS  HZ EP        028 32.20                             147    0.3610 90.4 170 
 RUS  HE ES        028 49.84                             147   -0.2710 90.4 170 
 RUS  HZ I         028 51.97         2.8 0.28            147           90.4 170 
 PTB  HZ EP   2    028 34.37                             135   -0.37 5  137 263 
 PTB  HN ES        028 55.43                             135    0.16 9  137 263 
 PTB  HZ I         028 56.78         1.9 0.46            135            137 263 
 SPBC HZ EP   4    028 34.27                             132   -1.60 0  149 219 
 SPBC HN ES        028 57.29                             132    0.01 9  149 219 
 SPBC HZ I         029  1.85         3.2 0.22            132            149 219 
 ZAR  HE ES   2    029  5.41                             123   -0.52 4  200 296 
                                                                                
