 2012  8 7 0002 38.2 L   6.789 -73.152146.2  RSN  5 0.4 1.6LRSN                1
 GAP=136        0.82       5.8     5.6  9.4 -0.2084E+01  0.1577E+01  0.1192E+02E
 Epicentro: LOS SANTOS - SANTANDER                                             3
 ACTION:UPD 12-09-10 11:54 OP:ep   STATUS:               ID:20120807000238 L   I
 2012-08-07-0000-00M.COL___216                                                 6
 STAT SP IPHASW D HRMM SECON CODA AMPLIT PERI AZIMU VELO AIN AR TRES W  DIS CAZ7
 BAR2 SZ EP   1    0 2 57.67                             171   -0.19 7 22.0 189 
 BAR2 SZ I         0 3 14.21         9.8 0.20                          22.0 189 
 BRR  HZ EP   1    0 2 59.75                             153    0.35 7 71.1 300 
 BRR  HE ES   1    0 3 16.61                             153    0.68 7 71.1 300 
 BRR  HZ I         0 3 17.27        17.3 0.65                          71.1 300 
 PAM  SZ EP   1    0 3  0.73                             150    0.18 7 78.8  39 
 PAM  SE ES   1    0 3 17.41                             150   -0.57 7 78.8  39 
 RUS  HZ EP        0 3  1.94                             144    0.0210 99.4 176 
 RUS  HZ I         0 3  3.06         2.4 0.19                          99.4 176 
 RUS  HN ES   1    0 3 20.60                             144    0.19 7 99.4 176 
 PTB  HZ EP   1    0 3  5.04                             132   -0.08 7  147 259 
 PTB  HN ES   1    0 3 25.40                             132   -0.71 7  147 259 
 PTB  HZ I         0 3 31.92         4.7 0.30                           147 259 
                                                                                
