 2015  2 7 0914 14.9 L   6.799 -73.150149.2  RSN  9 0.5 1.7LRSN                1
 GAP=136        1.20       3.8     5.8  7.1 -0.3477E+01  0.1014E+02 -0.1567E+01E
 Epicentro: LOS SANTOS - SANTANDER                                             3
 ACTION:UPD 15-04-30 21:23 OP:nd   STATUS:               ID:20150207091414 L   I
 OLDACT:DUP 15-02-08 01:00 OP:cam  STATUS:               ID:20150207090747d    3
 OLDACT:UP  15-02-08 00:59 OP:cam  STATUS:               ID:20150207090746     3
 OLDACT:REG 15-02-07 12:44 OP:stll STATUS:               ID:20150207090746     3
 2015-02-07-0907-46M.COL___286                                                 6
 STAT SP IPHASW D HRMM SECON CODA AMPLIT PERI AZIMU VELO AIN AR TRES W  DIS CAZ7
 BAR2 EZ EP        914 34.96                             171    0.0110 23.1 189 
 BAR2 EZ ES        914 50.12                             171   -0.4710 23.1 189 
 BAR2 EZ I         914 53.96         7.8 0.22            170           23.1 189 
 BRR  HZ EP        914 36.93                             153    0.5210 70.8 299 
 BRR  HE ES        914 54.12                             153    0.9310 70.8 299 
 BRR  HZ I         914 58.61         4.4 0.50            152           70.8 299 
 PAM  SZ EP        914 37.84                             151    0.3210 77.8  40 
 PAM  SN ES        914 55.13                             151   -0.0210 77.8  40 
 PAM  SZ I         914 57.02         7.2 0.56            156           77.8  40 
 RUS  HZ EP        914 38.47                             145   -0.5310  100 176 
 RUS  HN ES        914 57.96                             145    0.1810  100 176 
 RUS  HZ I         914 59.18         2.7 0.40            148            100 176 
 PTB  HZ EP        914 41.66                             133   -0.46 9  147 259 
 PTB  HN ES        915  3.12                             133   -0.22 9  147 259 
 PTB  HZ I         915  7.59         6.6 0.16            134            147 259 
 OCA  HN ES        915  5.66                             130   -0.14 9  160 353 
 SPBC HZ EP        914 43.96                             130    0.32 9  163 219 
 SPBC HN ES        915  5.44                             130   -0.61 9  163 219 
 SPBC HZ I         915 11.53         7.6 0.10            132            163 219 
 SML  HZ EP        914 51.51                             118   -0.21 8  244 335 
 SML  HN ES        915 19.86                             118   -0.58 8  244 335 
 SML  HZ I         915 24.48         6.4 0.10            121            244 335 
 GUY2CHZ EP        914 59.62                             113    0.99 7  301 235 
 GUY2CHE ES   4    915 34.38                             113    1.65 0  301 235 
 GUY2CHZ I         915 41.91         3.7 0.72                           301 235 
                                                                                
