 2014  5 7 0332 37.7 L   6.838 -73.216148.2  RSN  5 0.4 1.5LRSN                1
 GAP=149        1.00       4.9     5.5  8.6 -0.1012E+02  0.8133E+01  0.6623E+01E
 Epicentro: ZAPATOCA - SANTANDER                                               3
 ACTION:UPD 15-03-16 16:55 OP:nd   STATUS:               ID:20140507033237 L   I
 OLDACT:REG 14-05-07 12:40 OP:carl STATUS:               ID:20140507032813     3
 2014-05-07-0328-13M.COL___217                                                 6
 STAT SP IPHASW D HRMM SECON CODA AMPLIT PERI AZIMU VELO AIN AR TRES W  DIS CAZ7
 PAM  SZ EP        333  0.91                             151    0.5710 79.5  46 
 PAM  SN ES        333 17.80                             151   -0.1710 79.5  46 
 PAM  SZ I         333 20.06         4.2 0.52            157           79.5  46 
 RUS  HZ EP        333  1.83                             143   -0.2610  106 172 
 RUS  HN ES        333 20.93                             143   -0.1610  106 172 
 RUS  HZ I         333 21.76         3.8 0.34            146            106 172 
 PTB  HZ EP        333  3.44                             134   -0.87 9  141 257 
 PTB  HN ES        333 25.27                             134    0.23 9  141 257 
 PTB  HZ I         333 33.04         3.7 0.26            134            141 257 
 SPBC HZ EP        333  6.74                             130    0.44 9  162 216 
 SPBC HN ES        333 28.81                             130    0.24 9  162 216 
 SPBC HZ I         333 35.08         6.0 0.28            131            162 216 
 CHI  HZ EP        333 15.85                             117    0.04 8  251 193 
 CHI  HN ES        333 45.50                             117   -0.01 8  251 193 
 CHI  HZ I         333 51.67         1.7 0.30            120            251 193 
                                                                                
