 2010  3 7 0519 35.6 L   6.821 -73.043137.5  RSN 11 0.5 2.2LRSN                1
 GAP=133        1.05       3.9     6.5  6.2 -0.3509E+01  0.3388E+01  0.1899E+01E
 Epicentro: LOS SANTOS - SANTANDER                                             3
 ACTION:UP  10-08-24 09:52 OP:vdl  STATUS:               ID:20100307051935 L   I
 2010-03-07-0516-39S.COL___101                                                 6
 STAT SP IPHASW D HRMM SECON CODA AMPLIT PERI AZIMU VELO SNR AR TRES W  DIS CAZ7
 BAR2 SZ EP        519 54.52                             167     0.110   30 211 
 BAR2 SZ ES   1    520  8.34                             167    -0.7 7   30 211 
 BRR  HZ EP        519 56.38                             148    -0.110   80 293 
 BRR  HN ES        520 13.12                             148     0.410   80 293 
 BRR  HZ I         520 16.77        21.6 0.25                            80 293 
 RUS  BZ EP        519 58.60                             141    -0.110  103 182 
 RUS  BN ES        520 17.17                             141     0.410  103 182 
 RUS  BZ I         520 18.92        17.6 0.15                           103 182 
 OCA  SZ EP   1    520  3.32                             128     0.1 7  160 349 
 OCA  SZ ES   1    520 24.55                             128    -0.3 7  160 349 
 OCA  SZ I         520 30.63        18.9 0.26                           160 349 
 CHI  HN ES   1    520 42.43                             115    -0.6 6  254 197 
 HEL  HZ EP   1    520 16.79                             112     0.1 6  284 256 
 HEL  HZ I         520 53.06         9.1 0.12                           284 256 
 RREF BZ EP        520 22.98                             109     0.4 7  332 230 
 RREF BN ES        520 58.75                             109    -0.5 7  332 230 
 RREF BZ I         521  6.14         6.7 0.44                           332 230 
 SDV  BZ IP        520 24.26                             107     0.1 6  350  49 
 SDV  BZ I         520 25.28         5.6 0.18                           350  49 
 DBB  SZ EP   1    520 22.88                             107    -1.2 5  351 274 
 TOL  SZ EP        520 25.70                             107     1.0 6  353 226 
 TOL  SZ ES   2    521  3.87                             107     0.9 3  353 226 
 PRA  HZ EP        520 29.33                             105    -0.5 6  400 211 
 PRA  HN ES   2    521 11.76                             105    -0.3 3  400 211 
 PRA  HZ I         521 16.42         4.7 0.63                           400 211 
                                                                                
