 2017 11 7 0630 29.2 L   6.828 -73.154143.1  RSN 17 0.5 2.1LRSN                1
 GAP=110        1.16       3.6     3.6  5.8  0.8518E+00  0.5794E+01  0.5432E+01E
 Epicentro: LOS SANTOS - SANTANDER                                             3
 ACTION:UPD 17-12-12 19:53 OP:rebc STATUS:               ID:20171107063029 L   I
 OLDACT:UP  17-11-07 15:26 OP:dnl  STATUS:               ID:20171107062738     3
 OLDACT:UP  17-11-07 15:26 OP:dnl  STATUS:               ID:20171107062738     3
 OLDACT:UP  17-11-07 15:25 OP:dnl  STATUS:               ID:20171107062738     3
 OLDACT:REG 17-11-07 13:27 OP:dnl  STATUS:               ID:20171107062738     3
 2017-11-07-0628-00M.COL___405                                                 6
 STAT SP IPHASW D HRMM SECON CODA AMPLIT PERI AZIMU VELO AIN AR TRES W  DIS CAZ7
 BAR2 EZ EP        630 48.34                             169   -0.1910 26.2 187 
 BAR2 EZ ES        631  3.27                             169   -0.3710 26.2 187 
 BAR2 EZ I         631  4.96        16.2 0.16            169           26.2 187 
 BRR  HZ IP     D  630 50.15                             153    0.2610 68.9 297 
 BRR  HN ES        631  5.32                             153   -0.7410 68.9 297 
 BRR  HZ I         631  8.34        11.3 0.10            150           68.9 297 
 PAM  EZ EP        630 51.34                             151    0.3510 75.7  42 
 PAM  EE ES        631  8.59                             151    0.5710 75.7  42 
 PAM  EZ I         631 10.62        20.7 0.40            153           75.7  42 
 PTB  HZ EP        630 55.13                             131   -0.75 9  147 258 
 PTB  HE ES        631 16.97                             131    0.24 9  147 258 
 PTB  HZ I         631 19.01        11.0 0.12            130            147 258 
 SPBC HZ EP        630 57.32                             128   -0.31 9  165 218 
 SPBC HE ES        631 19.42                             128   -0.41 9  165 218 
 SPBC HZ I         631 21.91        26.8 0.40            128            165 218 
 YPLC HZ EP        630 58.75                             125   -0.32 9  180 152 
 YPLC HE ES        631 23.24                             125    0.84 9  180 152 
 YPLC HZ I         631 25.59         8.9 0.26            127            180 152 
 ZAR  HZ EP        631  0.36                             122   -0.87 9  202 291 
 ZAR  HE ES        631 26.60                             122    0.37 9  202 291 
 ZAR  HZ I         631 33.91        10.8 0.28            121            202 291 
 NOR  HZ EP        631  4.53                             118   -0.32 8  236 234 
 NOR  HE ES        631 33.09                             118    0.41 8  236 234 
 NOR  HZ I         631 39.85        10.7 0.24            118            236 234 
 CHI  HZ EP        631  6.62                             116   -0.39 8  251 195 
 CHI  HE ES        631 36.61                             116    0.08 8  251 195 
 CHI  HZ I         631 39.38         8.3 0.48            117            251 195 
 ROSC BZ EP   9    631  8.53                             116    1.16 0  255 210 
 ROSC BN ES        631 38.90                             117    0.57 8  255 210 
 ROSC BZ I         631 42.18        16.1 0.40            116            255 210 
 URE  HZ EP        631 10.22                             113    0.34 7  282 291 
 URE  HE ES        631 42.22                             113    0.59 7  282 291 
 URE  HZ I         631 50.03         8.8 0.20            113            282 291 
 GUY2CHZ EP        631 12.90                             112    0.14 7  302 234 
 GUY2CHE ES        631 47.29                             112    0.52 7  302 234 
 GUY2CHZ I         631 55.72         4.8 0.46                           302 234 
 PTGC HZ EP   4    631 11.64                             111   -1.62 0  312 159 
 PTGC HN ES   4    631 45.05                             111   -2.61 0  312 159 
 PTGC HZ I         631 46.58         8.0 0.60            112            312 159 
 CBOC HZ EP        631 16.70                             109    0.73 7  334 252 
 CBOC HN ES        631 53.19                             109    0.71 7  334 252 
 CBOC HZ I         632  0.58         1.7 0.44            109            334 252 
 PRA  HZ EP        631 22.14                             106   -0.71 6  394 209 
 PRA  HN ES        632  4.79                             106    0.07 6  394 209 
 PRA  HZ I         632  8.59         4.3 0.40            106            394 209 
 ORTC HZ EP   4    631 17.94                             106   -5.28 0  397 216 
 ORTC HE ES   4    632  6.41                             106    1.03 0  397 216 
 ORTC HZ I         632  9.18         3.8 0.40            106            397 216 
 SJC  HZ EP   4    631 22.67                             105   -1.61 0  406 327 
 SJC  HN ES   4    632  3.75                             105   -3.51 0  406 327 
 SJC  HZ I         632 15.86         2.0 0.32            106            406 327 
                                                                                
