 2017  6 7 0548 45.0 L   6.784 -73.155150.6  RSN 11 0.4 2.0LRSN                1
 GAP=211        0.98       3.9     4.4  6.5  0.6262E+01 -0.4907E+01  0.5449E+00E
 Epicentro: LOS SANTOS - SANTANDER                                             3
 ACTION:UPD 17-09-14 16:50 OP:jn   STATUS:               ID:20170607054845 L   I
 OLDACT:UP  17-06-07 16:13 OP:edw  STATUS:               ID:20170607054745     3
 OLDACT:UP  17-06-07 16:12 OP:edw  STATUS:               ID:20170607054745     3
 OLDACT:REG 17-06-07 12:05 OP:edw  STATUS:               ID:20170607054745     3
 2017-06-07-0548-00M.COL___365                                                 6
 STAT SP IPHASW D HRMM SECON CODA AMPLIT PERI AZIMU VELO AIN AR TRES W  DIS CAZ7
 BRR  HZ IP     D  549  6.75                             153    0.0810 71.2 300 
 BRR  HN ES        549 23.86                             153    0.2810 71.2 300 
 BRR  HZ I         549 27.70        11.6 0.28            150           71.2 300 
 RUS  HZ EP        549  8.91                             145   -0.2010 98.9 175 
 RUS  HN ES        549 27.56                             145   -0.3610 98.9 175 
 RUS  HZ I         549 28.80        17.0 0.36            144           98.9 175 
 PTB  HZ EP   9    549 11.59                             133   -0.66 0  146 259 
 PTB  HN ES        549 32.14                             134   -0.71 9  146 259 
 PTB  HZ I         549 35.22         7.6 0.18            130            146 259 
 SPBC HZ EP        549 13.89                             131    0.20 9  161 219 
 SPBC HN ES        549 35.65                             131   -0.42 9  161 219 
 SPBC HZ I         549 42.80        12.9 0.22            128            161 219 
 YPLC HZ EP        549 15.30                             128    0.25 9  176 151 
 YPLC HE ES        549 39.05                             128    0.56 9  176 151 
 YPLC HZ I         549 40.27        17.5 0.26            129            176 151 
 ZAR  HZ EP        549 17.71                             123   -0.03 9  204 293 
 ZAR  HN ES        549 43.35                             123    0.08 9  204 293 
 ZAR  HZ I         549 54.96         9.9 0.10            122            204 293 
 NOR  HZ EP   4    549 23.20                             120    2.38 0  233 235 
 NOR  HN ES        549 48.38                             120   -0.38 8  233 235 
 NOR  HZ I         549 54.52         7.9 0.20            118            233 235 
 CHI  HZ EP        549 22.49                             118   -0.27 8  247 195 
 CHI  HE ES        549 52.32                             118    0.11 8  247 195 
 CHI  HZ I         549 58.34         4.2 0.58            118            247 195 
 ROSC BZ EP   4    549 24.59                             118    1.42 0  251 211 
 ROSC BE ES        549 53.72                             118    0.78 8  251 211 
 ROSC BZ I         549 59.56         8.5 0.45            117            251 211 
 HEL  HE ES   4    549 55.07                             116   -1.68 0  271 256 
 PTGC HZ EP        549 28.08                             112   -0.85 7  307 158 
 PTGC HE ES   4    550  1.13                             112   -2.07 0  307 158 
 PTGC HZ I         550  6.34         5.3 0.34            113            307 158 
 ELA  HN ES   4    550  6.68                             111   -1.70 0  327 230 
 CBOC HE ES   4    550  6.82                             111   -1.75 0  332 252 
 SJC  HZ EP   4    549 39.15                             106   -1.68 0  410 327 
 SJC  HN ES   4    550 19.68                             106   -4.70 0  410 327 
 SJC  HZ I         550 27.72         1.3 0.34            106            410 327 
                                                                                
