 2015  2 7 0112 54.5 L   6.769 -73.112141.4  RSN 11 0.6 1.7LRSN                1
 GAP=122        1.43       5.4     5.3  7.3 -0.1023E+02  0.5995E+01  0.6329E+01E
 Epicentro: LOS SANTOS - SANTANDER                                             3
 ACTION:UPD 15-04-30 21:23 OP:nd   STATUS:               ID:20150207011254 L   I
 OLDACT:DUP 15-02-07 14:20 OP:stll STATUS:               ID:20150207010744d    3
 2015-02-07-0107-43M.COL___287                                                 6
 STAT SP IPHASW D HRMM SECON CODA AMPLIT PERI AZIMU VELO AIN AR TRES W  DIS CAZ7
 BAR2 EZ EP        113 13.78                             171    0.2410 21.1 202 
 BAR2 EZ ES        113 28.50                             171    0.0910 21.1 202 
 BAR2 EZ I         113 31.56        11.8 0.22            167           21.1 202 
 BRR  HZ EP        113 15.47                             150    0.0210 76.1 299 
 BRR  HN ES        113 32.05                             150    0.2410 76.1 299 
 BRR  HZ I         113 35.80         8.2 0.14            150           76.1 299 
 PAM  SZ EP        113 16.66                             150    0.4010 77.8  36 
 PAM  SZ I         113 16.94        20.9 0.20            156           77.8  36 
 PAM  SN ES        113 33.18                             150   -0.0710 77.8  36 
 RUS  HZ EP        113 17.73                             144    0.1910 97.0 178 
 RUS  HN ES        113 35.88                             144    0.3510 97.0 178 
 RUS  HZ I         113 38.06         4.5 0.46            144           97.0 178 
 PTB  HZ EP        113 20.37                             130   -1.01 9  151 260 
 PTB  HN ES        113 41.14                             130   -1.23 9  151 260 
 PTB  HZ I         113 47.70         6.5 0.26            131            151 260 
 SPBC HZ EP        113 22.72                             128    0.09 9  163 221 
 SPBC HN ES        113 44.47                             128   -0.11 9  163 221 
 SPBC HZ I         113 53.47         9.7 0.36            129            163 221 
 NOR  HZ EP        113 29.95                             117   -0.13 8  236 236 
 NOR  HE ES        113 57.18                             117   -0.67 8  236 236 
 NOR  HZ I         114  5.31         3.3 0.26            119            236 236 
 CHI  HZ EP        113 32.12                             116    0.43 8  246 196 
 CHI  HN ES        114  0.09                             116   -0.63 8  246 196 
 CHI  HZ I         114  6.67         3.8 0.30            118            246 196 
 HEL  HZ EP        113 35.20                             114    0.41 8  275 257 
 HEL  HN ES        114  8.20                             114    1.96 8  275 257 
 HEL  HZ I         114 12.39         3.0 0.28            115            275 257 
 SOCV BZ EP        113 36.64                             111   -0.55 7  300  56 
 GUY2CHZ EP        113 37.97                             111   -0.05 7  302 236 
 GUY2CHE ES        114 12.20                             111    0.22 7  302 236 
 GUY2CHZ I         114 20.19         3.4 0.60                           302 236 
                                                                                
