 2013  7 7 0314 40.5 L   5.884 -73.856104.4  RSN  9 0.5 2.1LRSN                1
 GAP=126        1.13       4.2     3.8  8.1 -0.6005E+01  0.1630E+00 -0.1112E+01E
 Epicentro: SUCRE - SANTANDER                                                  3
 ACTION:UPD 13-08-12 10:36 OP:ep   STATUS:               ID:20130707031440 L   I
 OLDACT:UP  13-07-08 05:43 OP:CF   STATUS:               ID:20130707031440 L   3
 OLDACT:REG 13-07-07 07:45 OP:stll STATUS:               ID:20130707030835     3
 2013-07-07-0308-35M.COL___224                                                 6
 STAT SP IPHASW D HRMM SECON CODA AMPLIT PERI AZIMU VELO AIN AR TRES W  DIS CAZ7
 RUS  HZ EP        314 59.03                             138   -0.1210 85.5  89 
 RUS  HN ES        315 13.69                             138   -0.0310 85.5  89 
 RUS  HN I         315 15.15         7.6 0.22            138           85.5  89 
 PTB  HZ EP   4    314 58.42                             133   -1.18 0 98.4 318 
 PTB  HN ES        315 13.68                             133   -0.8410 98.4 318 
 PTB  HN I         315 14.59        31.6 0.24            132           98.4 318 
 BAR2 SZ EP        315  0.59                             130   -0.2010  108  44 
 BAR2 SZ ES        315 16.81                             130    0.1810  108  44 
 NOR  HZ EP        315  1.76                             127    0.3110  118 253 
 NOR  HN ES        315 18.16                             127    0.3510  118 253 
 NOR  HN I         315 20.24        39.5 0.18            127            118 253 
 BRR  HZ IP     C  315  2.60                             123   -0.63 9  136   7 
 BRR  HN ES        315 21.83                             123    0.86 9  136   7 
 GIR2 SZ EP        315  4.79                             120   -0.17 9  151  29 
 GRA  SZ EP        315 15.82                             107   -0.28 8  250  28 
 GRA  SZ ES        315 43.78                             107   -0.10 8  250  28 
 ORTC HZ EP        315 18.21                             105    0.22 8  267 215 
 ORTC HN ES   4    315 49.22                             105    1.97 0  267 215 
 OCA  HN ES        315 48.18                             105    0.72 8  267  13 
 OCA  HN I         315 54.14        22.3 0.22            105            267  13 
                                                                                
