 2014  6 7 0936 33.1 L   6.831 -73.130140.6  RSN  4 0.1 1.2LRSN                1
 GAP=246        0.44       4.3     3.7  6.2  0.1092E+02 -0.6670E+01 -0.1280E+02E
 Epicentro: LOS SANTOS - SANTANDER                                             3
 ACTION:UPD 14-07-01 22:51 OP:nd   STATUS:               ID:20140607093633 L   I
 OLDACT:REG 14-06-07 13:32 OP:fm   STATUS:               ID:20140607092807     3
 2014-06-07-0928-07M.COL___253                                                 6
 STAT SP IPHASW D HRMM SECON CODA AMPLIT PERI AZIMU VELO AIN AR TRES W  DIS CAZ7
 RUS  HZ EP        936 56.69                             142    0.0610  104 177 
 RUS  HN ES        937 14.93                             142   -0.0310  104 177 
 RUS  HZ I         937 16.52         2.1 0.22            145            104 177 
 PTB  HZ EP        936 59.61                             130   -0.30 9  150 258 
 PTB  HN ES        937 20.72                             130   -0.07 9  150 258 
 PTB  HZ I         937 28.01         1.8 0.32            130            150 258 
 SPBC HZ EP        937  1.77                             127    0.16 9  167 219 
 SPBC HN ES        937 23.86                             127    0.04 9  167 219 
 SPBC HZ I         937 29.73         3.2 0.30            129            167 219 
 ZAR  HN ES        937 30.53                             121    0.17 9  204 291 
 ZAR  HZ I         937 37.98         1.6 0.26            123            204 291 
                                                                                
