 2017  6 7 0033 27.2 L   6.723 -73.202150.0  RSN  4 0.1 1.0LRSN                1
 GAP=225        0.44       3.7     3.7  5.2  0.9536E+01 -0.2388E+01 -0.3013E+01E
 Epicentro: VILLANUEVA - SANTANDER                                             3
 ACTION:UPD 17-09-14 16:50 OP:jn   STATUS:               ID:20170607003327 L   I
 OLDACT:DUP 17-06-07 14:12 OP:edw  STATUS:               ID:20170607002732d    3
 OLDACT:UP  17-06-07 14:10 OP:edw  STATUS:               ID:20170607002731     3
 OLDACT:UP  17-06-07 14:08 OP:edw  STATUS:               ID:20170607002731     3
 OLDACT:REG 17-06-07 11:42 OP:edw  STATUS:               ID:20170607002731     3
 2017-06-07-0028-00M.COL___371                                                 6
 STAT SP IPHASW D HRMM SECON CODA AMPLIT PERI AZIMU VELO AIN AR TRES W  DIS CAZ7
 BRR  HZ IP     D  033 48.58                             153   -0.2010 70.6 307 
 BRR  HN ES        034  5.64                             153    0.0310 70.6 307 
 BRR  HZ I         034 10.32         4.7 0.38            156           70.6 307 
 RUS  HZ EP        033 50.94                             147    0.1010 92.8 172 
 RUS  HN ES        034  9.31                             147    0.0410 92.8 172 
 RUS  HZ I         034 10.30         0.8 0.32            153           92.8 172 
 PTB  HN ES        034 14.50                             135   -0.14 9  140 262 
 ZAR  HE ES        034 25.27                             124    0.23 9  202 295 
                                                                                
