 2016 10 7 0250 37.7 L   6.783 -73.156139.4  RSN  5 0.4 1.4LRSN                1
 GAP=235        0.86       4.8     6.1  8.0  0.4855E+01  0.9627E+01  0.6014E+01E
 Epicentro: LOS SANTOS - SANTANDER                                             3
 ACTION:UPD 16-11-09 19:17 OP:rebc STATUS:               ID:20161007025037 L   I
 OLDACT:REG 16-10-07 12:40 OP:dnl  STATUS:               ID:20161007024744     3
 2016-10-07-0248-00M.COL___354                                                 6
 STAT SP IPHASW D HRMM SECON CODA AMPLIT PERI AZIMU VELO AIN AR TRES W  DIS CAZ7
 BRR  HZ EP        250 58.50                             151    0.3510 71.2 300 
 BRR  HN ES        251 14.36                             151    0.2510 71.2 300 
 BRR  HZ I         251 15.91         6.1 0.10            152           71.2 300 
 RUS  HZ EP   2    251  0.57                             143   -0.12 5 98.8 175 
 RUS  HE ES        251 18.45                             143   -0.1810 98.8 175 
 RUS  HZ I         251 20.61         5.0 0.18            144           98.8 175 
 PTB  HZ EP        251  3.41                             131   -0.60 9  146 259 
 PTB  HN ES        251 24.07                             131   -0.47 9  146 259 
 PTB  HZ I         251 28.33         2.2 0.12            132            146 259 
 SPBC HZ EP        251  5.70                             128    0.20 9  161 219 
 SPBC HN ES        251 27.33                             128    0.14 9  161 219 
 SPBC HZ I         251 31.23         4.4 0.10            129            161 219 
 GUY2CHZ EP   4    251 22.33                             111    1.55 0  299 235 
 GUY2CHN ES        251 54.92                             111    0.52 7  299 235 
 GUY2CHZ I         252  3.11         1.4 0.50                           299 235 
                                                                                
