 2015  6 7 0353 32.1 L   6.763 -73.120138.8  RSN  6 0.2 1.5LRSN                1
 GAP=237        0.53       2.9     3.7  3.7  0.8223E+00  0.4745E+01  0.2115E+01E
 Epicentro: LOS SANTOS - SANTANDER                                             3
 ACTION:UPD 15-09-10 22:10 OP:cam  STATUS:               ID:20150607035332 L   I
 OLDACT:REG 15-06-07 14:04 OP:ak   STATUS:               ID:20150607034750     3
 2015-06-07-0347-50M.COL___300                                                 6
 STAT SP IPHASW D HRMM SECON CODA AMPLIT PERI AZIMU VELO AIN AR TRES W  DIS CAZ7
 BAR2 EZ EP        353 50.89                             171    0.0410 20.1 200 
 BAR2 EZ ES        354  5.10                             171   -0.3610 20.1 200 
 BAR2 EZ I         354  7.32        12.2 0.16            168           20.1 200 
 BRR  HZ EP        353 52.99                             150    0.2010 75.7 300 
 BRR  HN ES        354  8.95                             150    0.0410 75.7 300 
 BRR  HZ I         354 13.70         4.5 0.20            149           75.7 300 
 RUS  HZ EP        353 54.74                             143   -0.1410 96.3 178 
 RUS  HN ES        354 12.84                             143    0.2110 96.3 178 
 RUS  HZ I         354 14.71         3.0 0.32            146           96.3 178 
 SPBC HZ EP        354  0.08                             128    0.12 9  162 221 
 SPBC HN ES        354 21.87                             128    0.19 9  162 221 
 SPBC HZ I         354 26.72         5.1 0.12            129            162 221 
 HEL  HZ EP   1    354 12.29                             113    0.10 6  274 257 
 GUY2CHZ EP        354 15.07                             111   -0.34 7  301 236 
 GUY2CHN ES        354 48.98                             111   -0.20 7  301 236 
 GUY2CHZ I         354 57.69         1.6 0.38                           301 236 
                                                                                
