 2016 10 7 0412 33.3 L   6.793 -73.116148.5  RSN 12 0.5 1.9LRSN                1
 GAP=141        1.02       3.2     4.6  6.3 -0.3771E+01  0.9857E+01  0.5033E-01E
 Epicentro: LOS SANTOS - SANTANDER                                             3
 ACTION:UPD 16-11-09 19:17 OP:rebc STATUS:               ID:20161007041233 L   I
 OLDACT:UP  16-10-07 15:00 OP:dnl  STATUS:               ID:20161007040743     3
 OLDACT:REG 16-10-07 12:47 OP:dnl  STATUS:               ID:20161007040743     3
 2016-10-07-0408-00M.COL___348                                                 6
 STAT SP IPHASW D HRMM SECON CODA AMPLIT PERI AZIMU VELO AIN AR TRES W  DIS CAZ7
 BAR2 EZ EP        412 53.21                             171   -0.0310 23.4 198 
 BAR2 EZ ES        413  8.64                             171   -0.1710 23.4 198 
 BAR2 EZ I         413 10.74        14.4 0.22            169           23.4 198 
 BRR  HZ EP        412 55.23                             152    0.3210 74.5 298 
 BRR  HE ES        413 12.47                             152    0.6810 74.5 298 
 BRR  HZ I         413 18.75        14.3 0.70            149           74.5 298 
 PAM  EZ EP   2    412 56.27                             152    0.56 5 75.9  37 
 PAM  EN ES        413 13.52                             152    0.3210 75.9  37 
 PAM  EZ I         413 15.52        12.3 0.54            156           75.9  37 
 RUS  HZ EP   2    412 57.17                             145   -0.06 5 99.6 178 
 RUS  HE ES        413 15.26                             145   -0.6610 99.6 178 
 RUS  HZ I         413 17.51         4.5 0.18            148           99.6 178 
 PTB  HZ EP   2    412 59.87                             132   -0.88 5  151 259 
 PTB  HN ES        413 21.44                             132   -0.74 9  151 259 
 PTB  HZ I         413 28.59        12.4 0.32            132            151 259 
 OCA  HZ EP        413  1.76                             130   -0.16 9  161 352 
 OCA  HE ES        413 24.00                             130   -0.26 9  161 352 
 OCA  HZ I         413 29.21        17.7 0.22            132            161 352 
 SPBC HZ EP        413  2.21                             129    0.08 9  165 220 
 SPBC HN ES        413 24.70                             129    0.06 9  165 220 
 SPBC HZ I         413 27.73        15.4 0.10            131            165 220 
 ZAR  HZ EP        413  5.68                             122   -0.57 8  207 292 
 ZAR  HE ES   2    413 31.58                             122   -0.39 4  207 292 
 ZAR  HZ I         413 39.55         8.0 0.30            123            207 292 
 CHI  HZ EP   2    413 10.88                             118   -0.27 4  249 196 
 CHI  HN ES        413 41.36                             118    0.68 8  249 196 
 CHI  HZ I         413 48.92         1.8 0.38            120            249 196 
 HEL  HZ EP   4    413 15.52                             115    1.55 0  275 256 
 HEL  HE ES        413 46.44                             115    0.74 8  275 256 
 HEL  HZ I         413 52.11         4.2 0.28            116            275 256 
 GUY2CHZ EP   2    413 18.06                             113    0.79 4  303 235 
 GUY2CHN ES        413 51.71                             113    0.13 7  303 235 
 GUY2CHZ I         414  0.47         3.2 0.38                           303 235 
 SJC  HZ EP   4    413 27.55                             106   -1.67 0  412 327 
 SJC  HN ES   4    414  8.40                             106   -4.46 0  412 327 
 SJC  HZ I         414 13.52         1.8 0.58            108            412 327 
                                                                                
