 2016 10 7 0625 15.9 L   6.813 -73.133148.2  RSN 15 0.5 1.9LRSN                1
 GAP=120        1.00       3.1     4.0  5.9 -0.5315E+00  0.1845E+01  0.3835E+01E
 Epicentro: LOS SANTOS - SANTANDER                                             3
 ACTION:UPD 16-11-09 19:17 OP:rebc STATUS:               ID:20161007062515 L   I
 OLDACT:UP  16-10-07 16:08 OP:dnl  STATUS:               ID:20161007061742d    3
 OLDACT:UP  16-10-07 16:08 OP:dnl  STATUS:               ID:20161007061742d    3
 OLDACT:DUP 16-10-07 15:55 OP:dnl  STATUS:               ID:20161007061742d    3
 2016-10-07-0618-00M.COL___342                                                 6
 STAT SP IPHASW D HRMM SECON CODA AMPLIT PERI AZIMU VELO AIN AR TRES W  DIS CAZ7
 BAR2 EZ EP        625 35.95                             170    0.1010 25.0 193 
 BAR2 EZ ES        625 50.88                             170   -0.5310 25.0 193 
 BAR2 EZ I         625 52.32        18.2 0.24            169           25.0 193 
 BRR  HZ EP        625 37.93                             153    0.6010 71.7 297 
 BRR  HN ES        625 55.06                             153    1.0110 71.7 297 
 BRR  HZ I         625 59.30         8.0 0.32            150           71.7 297 
 PAM  EZ EP   2    625 39.12                             152    0.87 5 75.4  39 
 PAM  EE ES   2    625 55.19                             152   -0.50 5 75.4  39 
 PAM  EZ I         625 58.25        14.6 0.52            154           75.4  39 
 RUS  HZ EP   2    625 40.22                             144    0.24 5  102 177 
 RUS  HN ES        625 58.90                             144    0.1410  102 177 
 RUS  HZ I         625 59.85         9.9 0.24            145            102 177 
 PTB  HZ EP   2    625 42.63                             132   -0.57 5  149 258 
 PTB  HN ES        626  3.75                             132   -0.75 9  149 258 
 PTB  HZ I         626  6.79         7.3 0.16            131            149 258 
 OCA  HZ EP   2    625 43.73                             130   -0.55 5  159 353 
 OCA  HN ES        626  5.91                             130   -0.51 9  159 353 
 OCA  HZ I         626  9.28        13.8 0.46            131            159 353 
 SPBC HZ EP        625 44.94                             129    0.18 9  165 219 
 SPBC HN ES        626  7.17                             129   -0.11 9  165 219 
 SPBC HZ I         626 13.55        12.5 0.10            129            165 219 
 ZAR  HZ EP   2    625 48.67                             123    0.10 4  205 292 
 ZAR  HN ES        626 13.93                             123   -0.13 9  205 292 
 ZAR  HZ I         626 19.72         3.9 0.18            122            205 292 
 NOR  HZ EP   2    625 52.06                             119    0.09 4  237 234 
 NOR  HE ES        626 19.81                             119   -0.30 8  237 234 
 NOR  HZ I         626 22.64         5.6 0.16            119            237 234 
 CHI  HZ EP        625 54.21                             117    0.30 8  250 195 
 CHI  HN ES        626 23.41                             117   -0.15 8  250 195 
 CHI  HZ I         626 27.05         4.0 0.64            118            250 195 
 ROSC BZ EP   4    625 56.38                             117    2.03 0  255 211 
 ROSC BN ES        626 24.74                             117    0.39 8  255 211 
 ROSC BZ I         626 29.91         6.1 0.50            117            255 211 
 HEL  HZ EP   3    625 56.47                             115    0.06 2  274 256 
 HEL  HN ES        626 28.09                             115    0.07 8  274 256 
 HEL  HZ I         626 34.14         3.9 0.28            115            274 256 
 URE  HN ES   4    626 27.24                             114   -2.11 0  285 292 
 URE  HZ I         626 36.34         3.6 0.40            114            285 292 
 GUY2CHZ EP   9    626  0.98                             113    1.15 0  303 235 
 GUY2CHN ES        626 35.45                             113    0.20 7  303 235 
 GUY2CHZ I         626 42.36         3.3 0.34                           303 235 
 PTGC HZ EP        625 59.28                             112   -0.67 7  310 159 
 PTGC HN ES   4    626 32.71                             112   -1.61 0  310 159 
 PTGC HZ I         626 34.58         4.4 0.44            113            310 159 
                                                                                
