 2015  7 7 0820  8.1 L   6.778 -73.115154.9  RSN 10 0.4 1.8LRSN                1
 GAP=167        0.75       2.5     4.0  5.7  0.2337E+01  0.3074E+01  0.1333E+01E
 Epicentro: LOS SANTOS - SANTANDER                                             3
 ACTION:UPD 15-09-08 21:47 OP:cam  STATUS:               ID:20150707082008 L   I
 OLDACT:REG 15-07-07 13:23 OP:spq  STATUS:               ID:20150707081744     3
 2015-07-07-0817-44M.COL___327                                                 6
 STAT SP IPHASW D HRMM SECON CODA AMPLIT PERI AZIMU VELO AIN AR TRES W  DIS CAZ7
 BAR2 EZ EP        820 28.80                             172    0.0310 21.9 200 
 BAR2 EZ ES   1    820 44.92                             172   -0.00 7 21.9 200 
 BAR2 EZ I         820 47.14        10.2 0.30            169           21.9 200 
 RUS  HZ EP        820 33.12                             146    0.5710 98.0 178 
 RUS  HE ES   1    820 51.44                             146   -0.21 7 98.0 178 
 RUS  HZ I         820 54.19         5.2 0.40            146           98.0 178 
 OCA  HZ EP        820 37.33                             131   -0.03 9  163 352 
 OCA  HE ES        821  0.46                             131    0.25 9  163 352 
 OCA  HZ I         821  4.42         7.7 0.24            133            163 352 
 ZAR  HE ES        821  7.11                             124   -0.53 8  208 292 
 ZAR  HZ I         821 12.79         5.3 0.30            124            208 292 
 SML  HZ EP        820 45.51                             119   -0.10 8  247 335 
 SML  HE ES        821 14.77                             119   -0.12 8  247 335 
 SML  HZ I         821 18.45         5.9 0.07            120            247 335 
 HEL  HZ EP   1    820 48.36                             116   -0.70 6  275 256 
 HEL  HN ES   1    821 21.18                             116    0.14 6  275 256 
 HEL  HZ I         821 27.70         2.9 0.36            116            275 256 
 GUY2CHZ EP   4    820 54.33                             114    2.05 0  303 236 
 GUY2CHE ES   1    821 27.17                             114    0.41 5  303 236 
 GUY2CHZ I         821 37.47         2.8 0.48                           303 236 
 PTGC HZ EP        820 51.69                             113   -0.27 7  305 159 
 PTGC HE ES   1    821 25.43                             113   -0.77 5  305 159 
 PTGC HZ I         821 32.82         7.7 0.62            114            305 159 
 TOL  SZ EP   4    820 58.88                             111    2.09 0  344 225 
 TOL  SN ES   4    821 37.87                             111    3.08 0  344 225 
 TOL  SZ I         821 41.25         1.9 0.20            111            344 225 
 PRA  HZ EP        821  2.50                             108    0.62 6  392 210 
 PRA  HN ES   1    821 44.18                             108    0.33 4  392 210 
 PRA  HZ I         821 49.00         3.7 0.84            108            392 210 
                                                                                
