 2014  4 7 0208 26.3 L   7.442 -73.227131.1  RSN  5 0.4 1.6LRSN                1
 GAP=133        1.06       4.7     5.7  8.3 -0.6907E+01  0.1531E+02 -0.5247E+01E
 Epicentro: EL PLAYON - SANTANDER                                              3
 2014-04-07-0208-06M.COL___256                                                 6
 ACTION:UPD 14-05-13 23:06 OP:nd   STATUS:               ID:20140407020826 L   I
 OLDACT:UP  14-04-08 06:31 OP:CF   STATUS:               ID:20140407020826 L   3
 OLDACT:REG 14-04-07 12:29 OP:stll STATUS:               ID:20140407020806     3
 STAT SP IPHASW D HRMM SECON CODA AMPLIT PERI AZIMU VELO AIN AR TRES W  DIS CAZ7
 PAM  SZ EP        2 8 46.08                             155    0.1310 59.4 101 
 PAM  SN ES        2 9  0.80                             155   -0.4510 59.4 101 
 PAM  HZ I         2 9  2.58         7.5 0.42            160           59.4 101 
 BRR  HZ EP        2 8 45.82                             152    0.2610 65.1 235 
 BRR  HN ES        2 9  0.62                             152    0.0710 65.1 235 
 BRR  HZ I         2 9  4.62         5.5 0.49            152           65.1 235 
 OCA  HZ EP        2 8 46.99                             144   -0.3210 88.7 353 
 OCA  HN ES        2 9  4.34                             144    0.6710 88.7 353 
 OCA  HZ I         2 9  6.54         6.6 0.22            147           88.7 353 
 PTB  HZ EP        2 8 54.82                             124    0.63 9  169 234 
 PTB  HN ES        2 9 15.43                             124   -0.49 9  169 234 
 PTB  HZ I         2 9 20.49         4.8 0.22            127            169 234 
 SML  HZ EP        2 8 54.69                             123   -0.30 9  177 328 
 SML  HN ES   1    2 9 16.82                             123   -0.53 7  177 328 
 SML  HZ I         2 9 18.52        11.2 0.08            126            177 328 
                                                                                
