 2015  4 7 0233 51.2 L   6.846 -73.293128.3  RSN 12 0.5 2.6LRSN                1
 GAP=106        1.12       3.0     4.2  6.2  0.1378E+00  0.7504E+01  0.1235E+01E
 Epicentro: ZAPATOCA - SANTANDER                                               3
 ACTION:UPD 15-06-03 16:53 OP:cam  STATUS:               ID:20150407023351 L   I
 OLDACT:UP  15-04-07 19:50 OP:mh   STATUS:               ID:20150407022746     3
 OLDACT:REG 15-04-07 19:20 OP:mh   STATUS:               ID:20150407022746     3
 2015-04-07-0227-46M.COL___264                                                 6
 STAT SP IPHASW D HRMM SECON CODA AMPLIT PERI AZIMU VELO AIN AR TRES W  DIS CAZ7
 BAR2 EZ EP        234  9.42                             166    0.4910 30.6 156 
 BAR2 EZ ES        234 22.46                             166   -0.2910 30.6 156 
 BAR2 EZ I         234 23.63       165.2 0.32            165           30.6 156 
 BRR  HZ EP        234  9.83                             155    0.2910 54.6 302 
 BRR  HN ES        234 23.66                             155   -0.1910 54.6 302 
 BRR  HZ I         234 25.17        79.3 0.14            154           54.6 302 
 PAM  SZ EP   1    234 12.50                             145    0.37 7 85.3  50 
 PAM  SN ES        234 28.83                             145    0.3710 85.3  50 
 PAM  SZ I         234 31.27                             146           85.3  50 
 RUS  HZ EP   1    234 14.67                             138    0.80 7  108 168 
 RUS  HN ES        234 31.29                             138   -0.2610  108 168 
 PTB  HZ EP     C  234 14.77                             131   -0.6410  133 255 
 PTB  HE ES        234 34.48                             131    0.1910  133 255 
 PTB  HZ  AMPG     234 37.17      1397.6 0.07                           133 255 
 OCA  HZ EP   1    234 17.29                             126   -0.32 7  154 359 
 OCA  HN ES   1    234 37.38                             126   -0.82 7  154 359 
 OCA  HZ I         234 40.33        76.3 0.36            126            154 359 
 SPBC HZ EP   1    234 18.11                             126    0.24 7  158 213 
 SPBC HN ES   1    234 38.58                             126   -0.09 7  158 213 
 SPBC HZ I         234 44.10        48.9 0.14            125            158 213 
 ZAR  HZ EP   1    234 21.01                             121    0.25 7  187 293 
 ZAR  HN ES        234 44.81                             121    0.99 9  187 293 
 ZAR  HZ I         234 46.83        48.8 0.28            120            187 293 
 SML  HZ EP   1    234 25.40                             115   -0.28 6  233 338 
 SML  HN ES        234 51.76                             115   -0.81 8  233 338 
 SML  HZ I         234 56.95        73.4 0.42            114            233 338 
 HEL  HZ EP   4    234 30.28                             112    1.33 0  258 254 
 HEL  HN ES   4    234 59.94                             112    1.55 0  258 254 
 HEL  HZ I         235  4.02        11.0 0.54            111            258 254 
 URE  HZ EP   4    234 36.14                             111    6.60 0  267 292 
 URE  HN ES   4    234 57.55                             111   -1.89 0  267 292 
 GUY2CHZ EP   1    234 33.56                             109    0.66 5  291 232 
 GUY2CHN ES   1    235  4.76                             109   -0.66 5  291 232 
 GUY2CHZ I         235 10.46        12.6 0.58                           291 232 
 VIL  SZ EP        234 34.03                             108   -0.10 7  306 188 
 VIL  SN ES        235  6.88                             108   -0.73 7  306 188 
 VIL  SZ I         235 16.39        13.6 0.26            108            306 188 
                                                                                
