 2011  5 7 0219 44.0 L   6.850 -72.973143.4  RSN  5 0.4 1.3LRSN                1
 GAP=177        0.98       5.9    15.7 10.4 -0.1982E+02 -0.6292E+02 -0.3858E+01E
 Epicentro: CEPITA - SANTANDER                                                 3
 *BAR2-BTL-BRR                                                                 3
 ACTION:UP  11-06-29 08:51 OP:tino STATUS:               ID:20110507021726 L   I
 2011-05-07-0217-26S.COL___133                                                 6
 STAT SP IPHASW D HRMM SECON CODA AMPLIT PERI AZIMU VELO SNR AR TRES W  DIS CAZ7
 BTL  SZ EP   1    220  4.03                             166     0.5 7   33 283 
 BTL  SZ ES   1    220 19.37                             166     0.5 7   33 283 
 BAR2 SZ I         220 13.59         5.5 0.49                            37 219 
 BAR2 SZ ES        220 18.74                             165    -0.310   37 219 
 BRR  HZ EP   2    220  5.89                             147     0.1 5   87 289 
 BRR  HE ES   2    220 22.29                             147    -0.5 5   87 289 
 BRR  HZ I         220 23.79         6.9 0.47                            87 289 
 RUS  HZ EP   1    220  8.30                             142     0.4 7  107 187 
 RUS  HZ I         220 14.67         1.0 0.76                           107 187 
 RUS  HE ES   1    220 26.40                             142    -0.2 7  107 187 
 GRA  SZ EP   1    220  7.49                             139    -0.7 7  116   9 
 GRA  SZ ES   1    220 27.31                             139     0.2 7  116   9 
 GRA  SZ I         220 30.06         2.8 0.31                           116   9 
                                                                                
