 2012  7 7 0110 38.5 L   6.760 -73.202148.8  RSN  4 0.4 1.3LRSN                1
 GAP=228        1.06      15.1    17.2 12.1  0.2144E+03 -0.1200E+00 -0.1670E+02E
 Epicentro: VILLANUEVA - SANTANDER                                             3
 ACTION:UPD 12-08-14 11:43 OP:ep   STATUS:               ID:20120707011038 L   I
 2012-07-07-0110-00M.COL___201                                                 6
 STAT SP IPHASW D HRMM SECON CODA AMPLIT PERI AZIMU VELO AIN AR TRES W  DIS CAZ7
 BAR2 SZ EP   1    110 58.45                             172     0.0 7   19 173 
 BAR2 SZ ES   1    111 13.19                             172    -0.7 7   19 173 
 BAR2 SZ I         111 14.23         3.6 0.31            163             19 173 
 BRR  HZ EP        110 59.82                             154     0.010   68 304 
 BRR  HZ I         111  2.14         6.9 0.22            146             68 304 
 BRR  HN ES   1    111 17.15                             154     0.7 7   68 304 
 RUS  HZ EP   1    111  2.32                             145     0.0 7   97 172 
 RUS  HN ES   1    111 21.11                             145     0.3 7   97 172 
 RUS  HZ I         111 22.25         2.1 0.23            141             97 172 
 ZAR  HN ES   1    111 35.46                             123    -0.4 6  200 294 
 ZAR  HZ I         111 42.47         2.4 0.07            119            200 294 
