 2012  4 7 0120 54.4 L   6.795 -73.182144.2  RSN  5 0.4 1.3LRSN                1
 GAP=132        1.06       7.4     7.8 11.2  0.1316E+02  0.1016E+02 -0.2721E+00E
 Epicentro: LOS SANTOS - SANTANDER                                             3
 ACTION:UPD 12-07-05 11:51 OP:tino STATUS:               ID:20120407012054 L   I
 2012-04-07-0120-00M.COL___196                                                 6
 STAT SP IPHASW D HRMM SECON CODA AMPLIT PERI AZIMU VELO AIN AR TRES W  DIS CAZ7
 BAR2 SZ EP   1    121 13.83                             171     0.0 7   22 180 
 BAR2 SZ ES   1    121 28.64                             171    -0.4 7   22 180 
 BAR2 SZ I         121 29.91         4.6 0.23                            22 180 
 BRR  HZ EP   1    121 15.58                             153     0.3 7   68 301 
 BRR  HE ES   1    121 32.32                             153     0.9 7   68 301 
 BRR  HZ I         121 35.44         4.7 0.19                            68 301 
 PAM  SZ EP   1    121 16.73                             150     0.1 7   80  42 
 PAM  SZ I         121 16.92         4.3 0.14                            80  42 
 PAM  SN ES   1    121 33.73                             150    -0.3 7   80  42 
 RUS  HZ EP   1    121 18.12                             144     0.1 7  100 174 
 RUS  HZ I         121 19.07         2.3 0.19                           100 174 
 RUS  HN ES   1    121 36.36                             144    -0.1 7  100 174 
 ZAR  HE ES   1    121 50.51                             123    -0.8 6  201 293 
 ZAR  HZ I         121 57.27         3.0 0.24                           201 293 
                                                                                
