 2013 12 7 0516  2.0 L   6.317 -73.617111.5  RSN  5 0.4 1.3LRSN                1
 GAP= 86        1.08       4.8     4.6  9.9  0.1226E+01  0.9367E+01  0.7831E+01E
 Epicentro: SANTA HELENA DEL OPON - SANTANDER                                  3
 ACTION:UPD 14-01-13 10:16 OP:ep   STATUS:               ID:20131207051602 L   I
 OLDACT:REG 13-12-07 08:20 OP:carl STATUS:               ID:20131207051000     3
 2013-12-07-0510-00M.COL___285                                                 6
 STAT SP IPHASW D HRMM SECON CODA AMPLIT PERI AZIMU VELO AIN AR TRES W  DIS CAZ7
 BAR2 SZ EP        516 19.03                             151    0.0410 56.9  58 
 BAR2 SZ ES        516 32.17                             151   -0.0810 56.9  58 
 BAR2 SZ I         516 33.61        12.2 0.44            157           56.9  58 
 RUS  HZ EP        516 20.39                             144   -0.1810 75.5 128 
 RUS  HN ES        516 34.72                             144   -0.3410 75.5 128 
 RUS  HZ I         516 36.03         2.8 0.18            147           75.5 128 
 BRR  HZ EP   4    516 22.54                             139    1.70 0 88.0 353 
 BRR  HN ES        516 36.14                             139    0.6110 88.0 353 
 SPBC HZ EP        516 21.55                             138    0.4910 89.1 214 
 SPBC HN ES        516 36.37                             138    0.4510 89.1 214 
 SPBC HZ I         516 39.87         4.4 0.18            140           89.1 214 
 PTB  HZ EP        516 21.15                             136   -0.3710 96.0 285 
 PTB  HE ES        516 36.14                             136   -0.6110 96.0 285 
 PTB  HZ I         516 38.79         5.9 0.26            139           96.0 285 
                                                                                
