 2010  9 7 0034 44.1 L   7.246 -73.615 88.8  RSN 11 0.4 2.1LRSN                1
 GAP=155        1.07       4.3     7.2  8.5 -0.1282E+02  0.4857E+01  0.6082E+01E
 Epicentro: SABANA DE TORRES - SANTANDER                                       3
 ACTION:UP  11-02-18 11:00 OP:tino STATUS:               ID:20100907003444 L   I
 2010-09-07-0032-23S.COL___120                                                 6
 STAT SP IPHASW D HRMM SECON CODA AMPLIT PERI AZIMU VELO SNR AR TRES W  DIS CAZ7
 BRR  HZ IP        034 55.98                             167    -0.410   19 215 
 BRR  HN ES   1    035  6.33                             167     0.3 7   19 215 
 GIR2 SZ IP        034 58.15                             148     0.110   50 112 
 BTL  SZ IP        034 58.31                             147    -0.110   53 133 
 BAR2 SZ EP   2    035  1.17                             132     0.1 5   87 147 
 BAR2 SZ I         035 17.88        26.0 0.39                            87 147 
 GUE  SZ EP        035  3.42                             127     0.910  100  50 
 GUE  SZ I         035 19.87        45.3 0.05                           100  50 
 OCA  SZ EP        035  3.30                             123    -0.410  115  17 
 OCA  SZ ES   1    035 18.67                             123    -0.4 7  115  17 
 OCA  SZ I         035 21.81        44.6 0.42                           115  17 
 RUS  HZ EP   1    035  8.59                             114    -0.6 7  161 158 
 RUS  HN ES   1    035 28.58                             114    -0.2 7  161 158 
 RUS  HZ I         035 30.14        10.3 0.18                           161 158 
 CHI  HZ EP   2    035 23.67                             102    -0.5 4  290 183 
 CHI  HZ I         036  3.42         4.3 0.27                           290 183 
 GUY  SZ EP   1    035 25.52                             102     0.5 5  296 221 
 GUY  SN ES   1    035 57.45                             102     0.5 5  296 221 
 GUY  SZ I         036  2.59        23.4 0.35                           296 221 
 RREF HZ EP   1    035 28.73                             101     0.3 5  322 217 
 RREF HN ES   2    036  3.12                             101     0.0 3  322 217 
 RREF HZ I         036  6.19         6.5 0.49                           322 217 
 PRA  HZ EP   2    035 38.74                              98    -0.3 3  415 200 
 PRA  HE ES   1    036 21.65                              98    -0.2 4  415 200 
 PRA  HZ I         036 30.12         3.9 0.23                           415 200 
                                                                                
