 2017  2 7 0002 33.1 L   6.802 -73.145151.6  RSN 24 0.4 2.9LRSN                1
 GAP= 71        0.78       2.6     2.4  3.7  0.2293E+00  0.2876E+01  0.1236E+01E
 Epicentro: LOS SANTOS - SANTANDER                                             3
 ACTION:UPD 17-05-24 15:33 OP:jn   STATUS:               ID:20170207000233 L   I
 OLDACT:UP  17-04-03 16:41 OP:nlst STATUS:               ID:20170207000233 L   3
 OLDACT:UP  17-02-07 13:19 OP:edw  STATUS:               ID:20170206235959     3
 OLDACT:UP  17-02-07 13:17 OP:edw  STATUS:               ID:20170206235959     3
 OLDACT:REG 17-02-07 12:10 OP:edw  STATUS:               ID:20170206235959     3
 2017-02-07-0000-15M.COL___337                                                 6
 STAT SP IPHASW D HRMM SECON CODA AMPLIT PERI AZIMU VELO AIN AR TRES W  DIS CAZ7
 BAR2 EZ IP     C  0 2 53.27                             171   -0.1410 23.6 190 
 BAR2 EZ ES        0 3  8.86                             171   -0.4110 23.6 190 
 BAR2 EZ I         0 3 12.01       294.7 0.78            169           23.6 190 
 BRR  HZ IP     C  0 2 55.20                             153    0.3410 71.2 298 
 BRR  HN ES        0 3 12.69                             153    0.8510 71.2 298 
 BRR  HZ I         0 3 15.08       126.4 0.22            151           71.2 298 
 PAM  EZ EP     D  0 2 56.08                             152    0.1810 77.2  40 
 PAM  EN ES        0 3 13.77                             152    0.0610 77.2  40 
 PAM  EZ I         0 3 18.07       125.7 0.42            151           77.2  40 
 RUS  HZ IP     C  0 2 57.09                             145   -0.3310  101 176 
 RUS  HE ES        0 3 16.20                             145   -0.2110  101 176 
 RUS  HZ I         0 3 19.46       103.3 0.24            142            101 176 
 PTB  HZ EP   9    0 2 59.76                             133   -0.78 0  148 259 
 PTB  HN ES        0 3 21.01                             134   -0.17 9  148 259 
 PTB  HZ I         0 3 22.94       133.5 0.26            130            148 259 
 TAM  HZ IP     D  0 3  1.41                             132    0.19 9  155 105 
 TAM  HZ I         0 3 22.28        68.4 0.38            129            155 105 
 TAM  HN ES        0 3 23.14                             132   -0.03 9  155 105 
 ZAR  HZ EP        0 3  5.61                             124   -0.30 9  204 292 
 ZAR  HN ES        0 3 31.22                             124   -0.30 9  204 292 
 ZAR  HZ I         0 3 38.69       121.4 0.38            121            204 292 
 NOR  HZ EP        0 3  9.03                             120   -0.14 8  235 234 
 NOR  HN ES   4    0 3 36.53                             120   -0.80 0  235 234 
 NOR  HZ I         0 3 41.57        91.5 0.24            117            235 234 
 CHI  HZ EP        0 3 11.19                             118    0.06 8  249 195 
 CHI  HN ES        0 3 40.36                             118   -0.45 8  249 195 
 CHI  HZ I         0 3 45.34        29.5 0.26            115            249 195 
 ROSC BZ EP   4    0 3 13.02                             118    1.47 0  253 211 
 ROSC BN ES   4    0 3 43.00                             118    1.45 0  253 211 
 ROSC BZ I         0 3 49.27       131.2 0.45            115            253 211 
 URE  HZ EP   4    0 3 12.99                             115   -1.45 0  284 292 
 URE  HN ES   4    0 3 44.58                             115   -2.11 0  284 292 
 URE  HZ I         0 3 56.74        70.7 0.24            112            284 292 
 LL1C HZ EP   2    0 3 16.27                             113   -0.65 4  306 352 
 LL1C HN ES   4    0 3 53.08                             113    1.97 0  306 352 
 PTGC HZ IP   4 C  0 3 16.08                             113   -1.14 0  309 159 
 PTGC HN ES   4    0 3 49.05                             113   -2.60 0  309 159 
 PTGC HZ I         0 3 52.80        23.1 0.24            110            309 159 
 ELA  HZ EP   4    0 3 22.28                             111    2.08 0  329 229 
 ELA  HE ES        0 3 57.24                             111    0.28 7  329 229 
 ELA  HZ I         0 4  8.49        32.2 0.54            109            329 229 
 CBOC HZ EP   2    0 3 21.00                             111    0.74 3  334 252 
 CBOC HN ES        0 3 56.43                             111   -0.62 7  334 252 
 CBOC HZ I         0 4  6.26        15.9 0.54            109            334 252 
 DBB  EZ EP        0 3 20.95                             110    0.15 7  340 274 
 DBB  EN ES   4    0 3 55.84                             110   -2.19 0  340 274 
 DBB  EZ I         0 3 59.85        23.3 0.48            108            340 274 
 ANIL HZ EP   4    0 3 24.64                             109    1.50 0  358 224 
 ANIL HN ES   4    0 4  4.38                             109    2.20 0  358 224 
 ANIL HZ I         0 4 12.63       133.0 0.32            107            358 224 
 ARGC HZ EP   2    0 3 22.97                             109    0.03 3  359 340 
 ARGC HN ES   2    0 4  0.99                             109   -0.84 3  359 340 
 ARGC HZ I         0 4  6.78        17.3 0.30            107            359 340 
 ORTC HZ EP   2    0 3 28.15                             107    0.92 3  396 216 
 ORTC HN ES        0 4 10.30                             107    0.84 6  396 216 
 ORTC HZ I         0 4 15.97        31.6 0.42            105            396 216 
 APAC HZ EP        0 3 27.27                             107   -0.20 6  398 288 
 APAC HN ES        0 4 10.06                             107    0.16 6  398 288 
 APAC HZ I         0 4 14.68        23.7 0.66            105            398 288 
 PAL  HZ EP        0 3 28.81                             107    0.35 6  406 239 
 PAL  HN ES   4    0 4  9.66                             107   -1.99 0  406 239 
 PAL  HZ I         0 4 13.29        12.1 0.38            105            406 239 
 SJC  HZ EP   4    0 3 27.45                             107   -1.37 0  409 327 
 SJC  HN ES   4    0 4  8.96                             107   -3.34 0  409 327 
 SJC  HZ I         0 4 13.33        18.2 0.34            105            409 327 
 VALLCHZ EP   4    0 3 26.52                             106   -2.37 0  410 358 
 VALLCHE ES   4    0 4  9.68                             106   -2.75 0  410 358 
 CRJC HZ EP   4    0 3 33.39                             104   -2.33 0  467   4 
 CRJC HN ES   4    0 4 19.25                             104   -5.33 0  467   4 
 CRJC HZ I         0 4 28.46        20.7 0.34            102            467   4 
 YOT  HZ EP   2    0 3 35.55                             104   -0.76 2  472 229 
 YOT  HE ES   2    0 4 26.40                             104    0.77 2  472 229 
 YOT  HZ I         0 4 38.97         3.0 0.38            102            472 229 
 URI  HZ EP   4    0 3 43.58                             101   -2.61 0  556  13 
 URI  HN ES   4    0 4 38.98                             101   -4.23 0  556  13 
                                                                                
