 2011 11 7 0733 39.9 L   6.744 -73.110147.6  RSN  4 0.2 1.4LRSN                1
 GAP=144        0.50       3.6     3.8  5.8  0.3031E+01  0.5832E+01  0.5472E+00E
 Epicentro: JORDAN - SANTANDER                                                 3
 ACTION:UPD 12-07-13 16:08 OP:ep   STATUS:               ID:20111107073339 L   I
 2011-11-07-0732-32S.COL___175                                                 6
 STAT SP IPHASW D HRMM SECON CODA AMPLIT PERI AZIMU VELO AIN AR TRES W  DIS CAZ7
 BRR  HZ EP   1    734  1.80                             151    0.13 7 77.7 301 
 BRR  HN ES   1    734 18.72                             151    0.10 7 77.7 301 
 BRR  HZ I         734 23.13        10.6 0.14                          77.7 301 
 PAM  SZ EP   1    734  2.93                             150    0.42 7 79.9  35 
 PAM  SN ES   1    734 19.80                             150   -0.31 7 79.9  35 
 PAM  SZ I         734 21.80         3.5 0.65                          79.9  35 
 RUS  HZ EP   1    734  3.26                             146   -0.17 7 94.2 178 
 RUS  HN ES   1    734 21.81                             146    0.06 7 94.2 178 
 RUS  HZ I         734 23.57         2.0 0.34                          94.2 178 
 ZAR  HZ EP   1    734 12.82                             122   -0.32 6  210 293 
 ZAR  HN ES   1    734 39.04                             122    0.01 6  210 293 
                                                                                
