 2012  7 7 0139 49.9 L   6.751 -73.146146.0  RSN  9 0.2 2.0LRSN                1
 GAP=139        0.61       2.9     3.3  4.3  0.1786E+01  0.1187E+01  0.7273E+00E
 Epicentro: LOS SANTOS - SANTANDER                                             3
 ACTION:UPD 12-08-14 11:43 OP:ep   STATUS:               ID:20120707013949 L   I
 2012-07-07-0140-00M.COL___201                                                 6
 STAT SP IPHASW D HRMM SECON CODA AMPLIT PERI AZIMU VELO AIN AR TRES W  DIS CAZ7
 BAR2 SZ EP        140  9.43                             173     0.010   18 193 
 BAR2 SZ ES   1    140 24.41                             173    -0.3 7   18 193 
 BAR2 SZ I         140 26.27        53.3 0.23            170             18 193 
 BRR  HZ EP        140 11.37                             152     0.110   74 302 
 BRR  HN ES        140 28.30                             152     0.410   74 302 
 BRR  HZ I         140 31.34        22.2 0.21            150             74 302 
 PAM  SZ EP        140 12.32                             150    -0.110   82  37 
 RUS  HZ EP        140 13.32                             145     0.010   95 176 
 RUS  HE ES        140 31.50                             145     0.010   95 176 
 RUS  HZ I         140 33.37        10.9 0.36            146             95 176 
 PTB  HZ EP        140 16.61                             132    -0.2 9  147 261 
 PTB  HE ES   1    140 37.42                             132    -0.4 7  147 261 
 PTB  HZ I         140 40.09         6.2 0.24            132            147 261 
 ZAR  HZ EP   1    140 22.36                             122    -0.2 6  206 294 
 ZAR  HN ES   1    140 48.01                             122     0.0 6  206 294 
 ZAR  HZ I         140 53.38         7.5 0.54            123            206 294 
 NOR  SE ES   1    140 52.92                             119     0.0 6  232 236 
 CHI  HZ EP   1    140 27.38                             118     0.3 6  243 195 
 CHI  HN ES   1    140 56.46                             118     0.4 6  243 195 
 CHI  HZ I         141  0.37         4.6 0.53            119            243 195 
 PRA  HZ EP   1    140 42.68                             107    -0.2 4  387 210 
