 2012 11 7 0102  1.0 L   6.783 -73.059138.7  RSN  4 0.2 1.8LRSN                1
 GAP=206        0.63       4.6     9.1  5.1  0.2610E+02 -0.8111E+01 -0.8789E+00E
 Epicentro: LOS SANTOS - SANTANDER                                             3
 ACTION:UPD 12-12-05 15:31 OP:}ep  STATUS:               ID:20121107010201 L   I
 2012-11-07-0100-00M.COL___230                                                 6
 STAT SP IPHASW D HRMM SECON CODA AMPLIT PERI AZIMU VELO AIN AR TRES W  DIS CAZ7
 BAR2 SZ EP        1 2 19.76                             169   -0.0310 25.1 213 
 BAR2 SZ ES        1 2 34.83                             169    0.3610 25.1 213 
 BAR2 SZ I         1 2 36.06        11.8 0.16                          25.1 213 
 GIR2 SZ EP        1 2 20.05                             165    0.1110 35.9 336 
 GIR2 SZ ES        1 2 34.49                             165   -0.2510 35.9 336 
 BRR  HZ EP        1 2 21.72                             148   -0.2110 80.5 296 
 BRR  HN ES        1 2 38.38                             148    0.0910 80.5 296 
 BRR  HN I         1 2 43.26        13.7 0.16                          80.5 296 
 RUS  HZ EP        1 2 24.10                             143    0.2210 98.5 182 
 RUS  HN ES        1 2 41.45                             143   -0.3010 98.5 182 
                                                                                
