 2014  6 7 0349 49.1 L   6.811 -73.157135.1  RSN 18 0.5 2.3LRSN                1
 GAP=135        0.97       2.5     4.2  5.4 -0.2375E+01  0.1042E+02 -0.2756E+00E
 Epicentro: LOS SANTOS - SANTANDER                                             3
 ACTION:UPD 14-07-01 22:51 OP:nd   STATUS:               ID:20140607034949 L   I
 OLDACT:REG 14-06-07 13:05 OP:fm   STATUS:               ID:20140607034810     3
 2014-06-07-0348-10M.COL___253                                                 6
 STAT SP IPHASW D HRMM SECON CODA AMPLIT PERI AZIMU VELO AIN AR TRES W  DIS CAZ7
 BAR2 SZ EP        350  7.32                             169   -0.1110 24.4 187 
 BAR2 SZ ES        350 21.71                             169   -0.0510 24.4 187 
 BAR2 SZ I         350 23.21        51.4 0.16            168           24.4 187 
 PAM  SZ EP        350 10.33                             149    0.1810 77.3  41 
 PAM  SN ES   1    350 26.83                             149    0.24 7 77.3  41 
 PAM  SZ I         350 29.46        40.4 0.48            154           77.3  41 
 RUS  HZ EP        350 11.73                             141   -0.1510  102 175 
 RUS  HN ES        350 29.90                             141    0.2210  102 175 
 RUS  HZ I         350 30.59        31.6 0.30            145            102 175 
 OCA  HZ EP        350 16.19                             127   -0.25 9  159 354 
 OCA  HN ES        350 37.48                             127   -0.30 9  159 354 
 OCA  HZ I         350 43.37        25.1 0.18            129            159 354 
 SPBC HZ EP        350 16.29                             126   -0.49 9  163 218 
 SPBC HE ES        350 38.15                             126   -0.25 9  163 218 
 SPBC HZ I         350 43.93        25.5 0.26            128            163 218 
 ZAR  HE ES        350 45.71                             120    0.40 9  202 292 
 ZAR  HZ I         350 51.30        22.7 0.36            121            202 292 
 NOR  HZ EP        350 23.83                             116   -0.33 8  234 234 
 NOR  HN ES        350 51.13                             116   -0.41 8  234 234 
 NOR  HZ I         350 56.82        17.3 0.22            117            234 234 
 SML  HZ EP        350 24.19                             115   -0.74 8  242 335 
 SML  HE ES        350 53.31                             115    0.40 8  242 335 
 SML  HZ I         351  2.08        27.2 0.10            117            242 335 
 ROSC BZ EP        350 27.20                             114    0.53 8  253 211 
 ROSC BN ES        350 56.61                             114    0.61 8  253 211 
 ROSC BZ I         351  4.91        12.3 0.40            116            253 211 
 HEL  HZ EP        350 29.46                             113    0.81 8  271 255 
 HEL  HN ES        350 59.09                             113   -0.44 8  271 255 
 HEL  HZ I         351  6.15        10.2 0.30            114            271 255 
 GUY2CHZ EP        350 32.67                             110    0.51 7  301 234 
 GUY2CHN ES   4    351  4.39                             110   -1.39 0  301 234 
 GUY2CHZ I         351 12.79         6.5 0.44                           301 234 
 PTGC HZ EP   4    350 30.43                             109   -2.22 0  310 159 
 PTGC HN ES   4    351  3.56                             109   -3.08 0  310 159 
 PTGC HZ I         351  5.78        11.6 0.40            113            310 159 
 RREF HZ EP        350 35.66                             109    0.91 7  322 229 
 RREF HN ES   4    351 11.60                             109    1.22 0  322 229 
 RREF HZ I         351 15.81         6.8 0.24            110            322 229 
 CBOC HZ EP        350 35.76                             108    0.30 7  333 252 
 CBOC HN ES   4    351  9.81                             108   -1.84 0  333 252 
 CBOC HZ I         351 15.68         4.0 0.28            109            333 252 
 TOL  SZ EP        350 37.28                             107    0.37 7  343 224 
 TOL  SN ES   4    351 11.39                             107   -2.84 0  343 224 
 TOL  SZ I         351 19.79        13.1 0.24            109            343 224 
 SDV  BN ES   4    351 14.81                             106   -2.68 0  361  50 
 PRA  HZ EP   1    350 41.81                             105   -0.48 4  392 209 
 PRA  HN ES        351 22.94                             105   -0.86 6  392 209 
 PRA  HZ I         351 29.15         5.8 0.26            106            392 209 
 ORTC HZ EP        350 41.97                             104   -0.70 6  396 216 
 ORTC HN ES   4    351 28.28                             104    3.80 0  396 216 
 ORTC HZ I         351 28.38         3.5 0.30            106            396 216 
 SJC  HZ EP   4    350 42.32                             104   -1.77 0  408 327 
 SJC  HN ES   4    351 23.48                             104   -3.53 0  408 327 
 SJC  HZ I         351 27.87         5.4 0.52            106            408 327 
                                                                                
