 2011  7 7 0604 40.4 L   6.718 -73.098146.4  RSN 10 0.5 1.8LRSN                1
 GAP=162        0.87       4.8     6.7  5.9 -0.6663E+01  0.5304E+01 -0.3588E+00E
 Epicentro: JORDAN - SANTANDER                                                 3
 ACTION:UPD 12-07-25 13:58 OP:epov STATUS:               ID:20110707060440 L   I
 2011-07-07-0600-00M.COL___123                                                 6
 STAT SP IPHASW D HRMM SECON CODA AMPLIT PERI AZIMU VELO AIN AR TRES W  DIS CAZ7
 BAR2 SZ EP   1    6 5  0.18                             173    0.21 7 16.7 214 
 BAR2 SZ ES   1    6 5 14.54                             173   -0.71 7 16.7 214 
 BAR2 SZ I         6 5 17.22        11.8 0.31                          16.7 214 
 BTL  SZ EP   1    6 5  0.53                             168    0.31 7 29.1 320 
 BTL  SZ ES   1    6 5 15.35                             168   -0.34 7 29.1 320 
 GIR2 SZ EP   1    6 5  0.53                             163    0.09 7 41.3 345 
 GIR2 SZ ES   1    6 5 15.78                             163   -0.30 7 41.3 345 
 BRR  HZ EP        6 5  2.34                             150    0.2010 80.4 302 
 BRR  HZ I         6 5  2.63        29.4 0.15                          80.4 302 
 BRR  HN ES   1    6 5 20.04                             150    0.93 7 80.4 302 
 RUS  HZ EP   2    6 5  4.05                             147    0.50 5 91.3 179 
 RUS  HN ES   2    6 5 21.99                             147    0.37 5 91.3 179 
 BRI  SZ EP        6 5  4.95                             140    0.0810  115  17 
 BRI  SZ I         6 5  5.78         4.7 0.14                           115  17 
 OCA  SZ EP   1    6 5  8.86                             128   -0.80 7  170 352 
 OCA  SZ ES   2    6 5 32.85                             128    0.35 5  170 352 
 OCA  SZ I         6 5 38.01         6.8 0.33                           170 352 
 NOR  SZ EP   1    6 5 15.32                             119   -0.75 6  234 237 
 NOR  SN ES   1    6 5 43.80                             119   -0.10 6  234 237 
 MON  HN ES   1    6 6  9.29                             108   -0.38 5  363 309 
 PRA  HZ EP   1    6 5 33.71                             107    0.40 4  387 211 
                                                                                
