 2012  2 7 0710 21.7 L   6.708 -73.203149.9  RSN  5 0.4 1.4LRSN                1
 GAP=222        0.72       7.2     6.8  9.4  0.3004E+02 -0.6884E+01 -0.1096E+02E
 ACTION:UP  12-03-07 16:28 OP:epov STATUS:               ID:20120207071021 L   I
 2012-02-07-0710-00M.COL___187                                                 6
 STAT SP IPHASW D HRMM SECON CODA AMPLIT PERI AZIMU VELO AIN AR TRES W  DIS CAZ7
 BAR2 SZ EP   1    710 41.50                             175   -0.20 7 13.0 170 
 BAR2 SZ I         710 57.80         3.8 0.15                          13.0 170 
 BRR  HZ EP        710 43.30                             153   -0.0510 71.5 308 
 BRR  HN ES   1    711  0.04                             153   -0.16 7 71.5 308 
 BRR  HZ I         711  1.01         8.3 0.10                          71.5 308 
 RUS  HZ EP   1    710 45.12                             147   -0.12 7 91.1 172 
 RUS  HN ES   1    711  4.01                             147    0.43 7 91.1 172 
 RUS  HZ I         711  5.80         1.9 0.25                          91.1 172 
 PTB  HZ EP   1    710 48.42                             135    0.08 7  140 262 
 PTB  HN ES   1    711  8.55                             135   -0.55 7  140 262 
 ZAR  HE ES   1    711 20.43                             123    0.76 6  202 295 
 ZAR  HZ I         711 25.03         3.6 0.17                           202 295 
                                                                                
