 2012  8 7 0219 58.9 L   6.734 -73.200152.0  RSN  4 0.3 1.3LRSN                1
 GAP=226        0.61       6.6     6.5  8.1  0.2144E+02 -0.6559E+01 -0.4133E+01E
 Epicentro: VILLANUEVA - SANTANDER                                             3
 ACTION:UPD 12-09-10 11:54 OP:ep   STATUS:               ID:20120807021958 L   I
 2012-08-07-0220-00M.COL___216                                                 6
 STAT SP IPHASW D HRMM SECON CODA AMPLIT PERI AZIMU VELO AIN AR TRES W  DIS CAZ7
 BAR2 SZ EP   1    220 19.34                             174    0.18 7 15.8 173 
 BAR2 SZ I         220 35.16         4.9 0.20                          15.8 173 
 BRR  HZ EP   1    220 20.22                             154   -0.44 7 70.0 306 
 BRR  HZ I         220 21.47         6.4 0.16                          70.0 306 
 BRR  HN ES   1    220 37.81                             154    0.17 7 70.0 306 
 RUS  HZ EP   1    220 23.24                             147    0.42 7 94.0 172 
 RUS  HN ES   1    220 41.17                             147   -0.30 7 94.0 172 
 PTB  HZ EP   1    220 25.60                             135   -0.16 7  141 261 
 PTB  HN ES   1    220 46.83                             135    0.12 7  141 261 
 PTB  HZ I         220 48.79         1.5 0.41                           141 261 
                                                                                
