 2016  4 7 0829 48.2 L   6.769 -73.172144.6  RSN  8 0.3 1.4LRSN                1
 GAP=135        0.49       3.2     3.0  5.1 -0.2505E+01  0.4948E+01  0.4610E+01E
 Epicentro: LOS SANTOS - SANTANDER                                             3
 ACTION:UPD 16-05-05 14:19 OP:rebc STATUS:               ID:20160407082948 L   I
 OLDACT:REG 16-04-07 12:53 OP:dnl  STATUS:               ID:20160407082745     3
 2016-04-07-0827-45M.COL___300                                                 6
 STAT SP IPHASW D HRMM SECON CODA AMPLIT PERI AZIMU VELO AIN AR TRES W  DIS CAZ7
 BAR2 EZ EP   2    830  7.63                             172    0.03 5 19.6 183 
 BAR2 EZ ES   2    830 22.50                             172   -0.24 5 19.6 183 
 BAR2 EZ I         830 24.70         4.1 0.20            171           19.6 183 
 PAM  EZ EP   2    830 10.82                             149    0.28 5 81.9  40 
 PAM  EN ES        830 27.84                             149   -0.1510 81.9  40 
 PAM  EZ I         830 32.19         1.8 0.20            154           81.9  40 
 RUS  HZ EP   2    830 11.67                             144    0.08 5 97.4 174 
 RUS  HE ES   2    830 29.96                             144    0.11 5 97.4 174 
 RUS  HZ I         830 31.28         2.9 0.29            146           97.4 174 
 PTB  HZ EP        830 14.47                             132   -0.26 9  144 260 
 PTB  HN ES        830 35.69                             132    0.24 9  144 260 
 PTB  HZ I         830 38.33         4.3 0.17            133            144 260 
 SPBC HZ EP        830 16.44                             129    0.28 9  159 219 
 SPBC HE ES   2    830 37.52                             129   -0.47 5  159 219 
 SPBC HZ I         830 43.67         5.8 0.24            131            159 219 
 ZAR  HZ EP   2    830 19.84                             122   -0.56 4  203 293 
 ZAR  HN ES   2    830 45.94                             122    0.40 4  203 293 
 ZAR  HZ I         830 51.94         4.2 0.19            124            203 293 
 CHI  HZ EP   2    830 25.73                             117    0.36 4  245 195 
 CHI  HE ES   2    830 54.47                             117    0.09 4  245 195 
 CHI  HZ I         831  0.41         1.2 0.09            119            245 195 
 GUY2CHZ EP   3    830 31.44                             112    0.20 2  297 235 
 GUY2CHN ES   2    831  4.12                             112   -0.71 4  297 235 
 GUY2CHZ I         831 13.18         1.8 0.64                           297 235 
                                                                                
