 2013  7 7 0806 26.7 L   6.814 -73.100151.2  RSN 12 0.4 2.1LRSN                1
 GAP= 69        0.99       3.3     4.5  6.1 -0.1518E+01  0.6328E+00  0.6833E+01E
 Epicentro: LOS SANTOS - SANTANDER                                             3
 ACTION:UPD 13-08-12 10:36 OP:ep   STATUS:               ID:20130707080626 L   I
 OLDACT:DUP 13-07-07 12:59 OP:stll STATUS:               ID:20130707075845d    3
 2013-07-07-0758-44M.COL___224                                                 6
 STAT SP IPHASW D HRMM SECON CODA AMPLIT PERI AZIMU VELO AIN AR TRES W  DIS CAZ7
 BAR2 SZ EP        8 6 46.83                             170   -0.1910 26.1 200 
 BAR2 SZ ES        8 7  2.70                             170   -0.1810 26.1 200 
 BAR2 SZ I         8 7  4.47        10.0 0.28            169           26.1 200 
 GIR2 SZ EP        8 6 46.97                             168   -0.0310 31.1 341 
 PAM  SZ EP        8 6 49.64                             153    0.4110 73.0  37 
 PAM  SN ES        8 7  6.83                             153    0.0110 73.0  37 
 PAM  SN I         8 7  7.88        16.5 0.48            155           73.0  37 
 BRR  HZ EP        8 6 48.73                             152    0.0910 75.0 296 
 BRR  HN ES        8 7  6.12                             152    0.3610 75.0 296 
 BRR  HN I         8 7  8.64        32.7 0.18            152           75.0 296 
 RUS  HZ EP        8 6 50.73                             145   -0.3310  102 179 
 GRA  SZ EP        8 6 52.05                             139   -0.1310  123  15 
 GRA  SZ ES        8 7 12.00                             139   -0.0710  123  15 
 CAPV BZ EP        8 6 54.82                             134    0.67 9  145  37 
 TAM  HE ES        8 7 15.76                             133   -0.24 9  151 106 
 PTB  HZ EP        8 6 53.70                             132   -0.87 9  153 259 
 OCA  HN ES        8 7 17.57                             131   -0.13 9  159 351 
 OCA  HN I         8 7 20.96        36.9 0.30            132            159 351 
 AGZ  SZ EP        8 7  0.70                             121   -0.35 8  219 161 
 CHI  HZ EP        8 7  5.40                             118    0.41 8  251 196 
 CHI  HN ES        8 7 35.71                             118    0.84 8  251 196 
 CHI  HN I         8 7 38.43         6.7 0.22            119            251 196 
                                                                                
