 2014 12 7 0737 55.4 L   7.200 -73.083153.5  RSN  6 0.3 1.3LRSN                1
 GAP=110        0.65       3.4     3.8  5.3 -0.1100E+01  0.5959E+01 -0.2131E+01E
 Epicentro: BUCARAMANGA - SANTANDER                                            3
 ACTION:UPD 15-02-10 17:01 OP:nd   STATUS:               ID:20141207073755 L   I
 OLDACT:DUP 14-12-07 19:17 OP:spq  STATUS:               ID:20141207072744d    3
 2014-12-07-0727-42M.COL___312                                                 6
 STAT SP IPHASW D HRMM SECON CODA AMPLIT PERI AZIMU VELO AIN AR TRES W  DIS CAZ7
 PAM  SZ EP        738 16.99                             163    0.0610 45.1  70 
 PAM  SE ES        738 33.65                             163   -0.0710 45.1  70 
 PAM  SZ I         738 34.93         2.8 0.28            167           45.1  70 
 BAR2 SZ EP   1    738 17.53                             155   -0.04 7 68.1 189 
 BAR2 SZ ES   1    738 34.72                             155   -0.14 7 68.1 189 
 BAR2 SZ I         738 36.41         3.8 0.22            158           68.1 189 
 BRR  HZ EP        738 17.62                             154    0.2910 70.2 262 
 BRR  HE ES   1    738 34.98                             154    0.54 7 70.2 262 
 BRR  HZ I         738 41.35         2.5 0.44            154           70.2 262 
 RUS  HZ EP   1    738 23.81                             135    0.44 7  145 180 
 RUS  HN ES   1    738 44.66                             135   -0.53 7  145 180 
 PTB  HZ EP        738 24.93                             130    0.04 9  168 244 
 PTB  HN ES        738 47.63                             130   -0.26 9  168 244 
 PTB  HZ I         738 48.97         2.2 0.16            132            168 244 
 SML  HZ EP   1    738 28.37                             123   -0.36 6  208 328 
 SML  HE ES   1    738 54.45                             123   -0.28 6  208 328 
 SML  HZ I         738 56.30         2.4 0.10            126            208 328 
                                                                                
