 2014  9 7 0251  0.8 L   6.728 -73.164142.3  RSN  4 0.4 1.2LRSN                1
 GAP=137        0.98       7.7    11.9  9.6  0.4490E+02 -0.4728E+02 -0.2095E+02E
 Epicentro: VILLANUEVA - SANTANDER                                             3
 ACTION:UPD 14-10-03 23:03 OP:nd   STATUS:               ID:20140907025100 L   I
 OLDACT:REG 14-09-07 12:50 OP:mh   STATUS:               ID:20140907024807     3
 2014-09-07-0248-07M.COL___265                                                 6
 STAT SP IPHASW D HRMM SECON CODA AMPLIT PERI AZIMU VELO AIN AR TRES W  DIS CAZ7
 BAR2 SZ ES        251 34.48                             174   -0.2310 15.1 188 
 BAR2 SZ I         251 38.20         2.5 0.33            176           15.1 188 
 BRR  HZ EP        251 22.10                             151    0.4210 73.6 305 
 BRR  HN ES        251 37.81                             151   -0.1810 73.6 305 
 BRR  HZ I         251 42.28         4.6 0.37            152           73.6 305 
 PAM  SZ EP        251 23.22                             148    0.1410 84.9  37 
 RUS  HZ EP        251 23.08                             145   -0.5410 92.8 174 
 RUS  HN ES   1    251 42.14                             145    0.69 7 92.8 174 
                                                                                
