 2016  9 7 0541 51.0 L   6.801 -73.155149.5  RSN  9 0.4 2.0LRSN                1
 GAP=135        0.90       3.0     3.9  5.6 -0.1407E+01  0.3016E+01  0.1602E+00E
 Epicentro: LOS SANTOS - SANTANDER                                             3
 ACTION:UPD 17-08-17 21:07 OP:lp   STATUS:               ID:20160907054151 L   I
 OLDACT:UP  16-09-07 15:46 OP:dani STATUS:               ID:20160907053735d    3
 OLDACT:DUP 16-09-07 15:34 OP:dani STATUS:               ID:20160907053735d    3
 OLDACT:UP  16-09-07 15:34 OP:dani STATUS:               ID:20160907053734     3
 OLDACT:REG 16-09-07 12:58 OP:dani STATUS:               ID:20160907053734     3
 2016-09-07-0538-00M.COL___358                                                 6
 STAT SP IPHASW D HRMM SECON CODA AMPLIT PERI AZIMU VELO AIN AR TRES W  DIS CAZ7
 BAR2 EZ EP        542 10.96                             171   -0.0810 23.3 188 
 BAR2 EZ ES        542 26.53                             171   -0.1710 23.3 188 
 BAR2 EZ I         542 27.64        27.7 0.16            170           23.3 188 
 BRR  HZ EP     C  542 12.78                             153    0.3210 70.3 299 
 BRR  HN ES        542 29.95                             153    0.7110 70.3 299 
 BRR  HZ I         542 30.50        19.3 0.10            152           70.3 299 
 PAM  EZ EP        542 13.90                             151    0.2910 77.9  40 
 PAM  EE ES        542 31.18                             151   -0.0910 77.9  40 
 PAM  EZ I         542 33.17        21.4 0.50            153           77.9  40 
 RUS  HZ EP        542 14.91                             145   -0.1810  101 175 
 RUS  HN ES        542 34.03                             145    0.1110  101 175 
 RUS  HZ I         542 35.51         5.6 0.30            145            101 175 
 PTB  HZ EP        542 17.81                             133   -0.34 9  147 259 
 PTB  HN ES        542 38.68                             133   -0.68 9  147 259 
 PTB  HZ I         542 45.39         5.1 0.18            132            147 259 
 OCA  HZ EP        542 19.32                             131   -0.22 9  160 353 
 OCA  HE ES        542 41.35                             131   -0.49 9  160 353 
 OCA  HZ I         542 50.69        13.2 0.44            131            160 353 
 SPBC HZ EP        542 19.93                             130    0.23 9  163 219 
 SPBC HN ES        542 42.01                             130   -0.10 9  163 219 
 SPBC HZ I         542 46.64        14.2 0.36            130            163 219 
 ZAR  HE ES        542 49.44                             123    0.47 9  203 292 
 ZAR  HZ I         542 51.91        20.1 0.10            123            203 292 
 CHI  HZ EP   2    542 29.50                             118    0.65 4  248 195 
 CHI  HE ES   2    542 58.62                             118    0.21 4  248 195 
 CHI  HZ I         543  5.39         4.2 0.38            118            248 195 
                                                                                
