 2017  7 7 0452 49.4 L   7.066 -73.178146.1  RSN  7 0.6 1.9LRSN                1
 GAP=230        1.35       7.7     6.4  9.7  0.1997E+02  0.5170E+00  0.1222E+02E
 Epicentro: GIRON - SANTANDER                                                  3
 ACTION:UPD 17-08-30 15:30 OP:rebc STATUS:               ID:20170707045249 L   I
 OLDACT:UP  17-07-07 17:20 OP:ar   STATUS:               ID:20170707044736     3
 OLDACT:REG 17-07-07 13:09 OP:ar   STATUS:               ID:20170707044736     3
 2017-07-07-0448-00M.COL___380                                                 6
 STAT SP IPHASW D HRMM SECON CODA AMPLIT PERI AZIMU VELO AIN AR TRES W  DIS CAZ7
 BAR2 EZ EP        453  9.77                             159   -0.2310 52.4 181 
 BAR2 EZ ES        453 25.57                             159   -0.5010 52.4 181 
 BAR2 EZ I         453 27.16        54.4 0.28            154           52.4 181 
 BRR  HZ IP     C  453  9.96                             157    0.0110 59.2 274 
 BRR  HN ES        453 26.75                             157    0.7610 59.2 274 
 BRR  HZ I         453 27.64        14.5 0.14            152           59.2 274 
 PTB  HZ EP        453 16.21                             131   -0.65 9  153 248 
 PTB  HN ES        453 37.87                             131   -0.41 9  153 248 
 PTB  HZ I         453 39.73         4.3 0.40            128            153 248 
 SPBC HZ EP        453 20.78                             125    0.73 9  185 212 
 SPBC HE ES        453 44.75                             125    0.79 9  185 212 
 SPBC HZ I         453 50.69         7.5 0.24            123            185 212 
 ZAR  HZ EP   2    453 19.60                             124   -0.98 4  191 284 
 ZAR  HE ES        453 44.96                             124    0.06 9  191 284 
 ZAR  HZ I         453 50.70         6.7 0.12            123            191 284 
 YPLC HZ EP        453 22.77                             122    0.76 9  205 154 
 YPLC HN ES        453 46.93                             122   -0.53 9  205 154 
 YPLC HZ I         453 50.36         7.6 0.26            122            205 154 
 NOR  HN ES        453 55.47                             117   -0.56 8  250 228 
 NOR  HZ I         454  3.14         6.2 0.80            115            250 228 
                                                                                
