 2013  5 7 0439 23.4 L   6.774 -73.145143.0  RSN  6 0.3 1.3LRSN                1
 GAP=138        0.68       4.3     4.3  5.4 -0.1115E+01  0.3607E+01  0.3555E+01E
 Epicentro: LOS SANTOS - SANTANDER                                             3
 ACTION:UPD 13-06-20 09:48 OP:ep   STATUS:               ID:20130507043923 L   I
 2013-05-07-0437-39M.COL___225                                                 6
 STAT SP IPHASW D HRMM SECON CODA AMPLIT PERI AZIMU VELO AIN AR TRES W  DIS CAZ7
 BAR2 SZ EP        439 42.70                             171    0.0510 20.5 192 
 BAR2 SZ ES   1    439 57.35                             171   -0.31 7 20.5 192 
 BAR2 SZ I         440  8.85         4.3 0.48            169           20.5 192 
 GIR2 SZ EP        439 42.91                             166    0.0710 34.1 351 
 GIR2 SZ ES   1    439 57.92                             166   -0.07 7 34.1 351 
 GIR2 SZ I         439 59.38         3.8 0.54            172           34.1 351 
 BRR  HZ EP        439 44.64                             151    0.2910 72.7 301 
 BRR  HN ES   1    440  1.29                             151    0.61 7 72.7 301 
 PAM  SZ EP   1    439 45.52                             150    0.05 7 79.6  38 
 PAM  SN ES   1    440  2.23                             150   -0.44 7 79.6  38 
 PAM  SZ I         440  4.08         3.8 0.20            157           79.6  38 
 RUS  HZ EP        439 46.71                             144    0.0310 97.7 176 
 RUS  HN ES   1    440  5.11                             144    0.28 7 97.7 176 
 RUS  HZ I         440  7.24         1.3 0.42            146           97.7 176 
 PTB  HZ EP        439 49.74                             131   -0.37 9  147 260 
 PTB  HN ES   1    440 10.56                             131   -0.38 7  147 260 
 PTB  HZ I         440 12.68         4.9 0.16            137            147 260 
                                                                                
