 2016 11 7 0323 25.0 L   6.695 -73.170151.4  RSN  4 0.1 1.2LRSN                1
 GAP=239        0.32       3.7     2.3  2.9  0.3289E+01  0.1619E+01  0.7287E+00E
 Epicentro: VILLANUEVA - SANTANDER                                             3
 ACTION:UPD 17-10-26 21:05 OP:lp   STATUS:               ID:20161107032325 L   I
 OLDACT:DUP 16-11-07 16:26 OP:lv   STATUS:               ID:20161107031744d    3
 2016-11-07-0318-00M.COL___337                                                 6
 STAT SP IPHASW D HRMM SECON CODA AMPLIT PERI AZIMU VELO AIN AR TRES W  DIS CAZ7
 BAR2 EZ EP        323 45.04                             175   -0.1010 11.4 187 
 BAR2 EZ ES        324  0.93                             175    0.0810 11.4 187 
 BAR2 EZ I         324  2.73         4.6 0.26            174           11.4 187 
 BRR  HZ EP        323 47.02                             152    0.0210 75.3 307 
 BRR  HN ES        324  4.10                             152   -0.0410 75.3 307 
 BRR  HZ I         324  6.38         2.7 0.38            150           75.3 307 
 PTB  HZ EP        323 52.12                             134    0.08 9  143 263 
 PTB  HN ES        324 13.07                             134   -0.06 9  143 263 
 PTB  HZ I         324 16.65         1.8 0.14            134            143 263 
 ZAR  HE ES        324 23.86                             123    0.04 8  206 295 
 ZAR  HZ I         324 29.45         1.7 0.15            123            206 295 
                                                                                
