 2017  4 7 0709  1.0 L   6.777 -73.116137.6  RSN  8 0.2 1.4LRSN                1
 GAP=141        0.46       2.3     2.7  3.0 -0.3201E+01  0.1732E+01  0.1165E+00E
 Epicentro: LOS SANTOS - SANTANDER                                             3
 ACTION:UPD 17-05-30 21:09 OP:jn   STATUS:               ID:20170407070901 L   I
 OLDACT:UP  17-04-07 16:24 OP:and  STATUS:               ID:20170407070509     3
 OLDACT:UP  17-04-07 16:23 OP:and  STATUS:               ID:20170407070509     3
 OLDACT:UP  17-04-07 16:23 OP:and  STATUS:               ID:20170407070509     3
 OLDACT:UP  17-04-07 16:22 OP:and  STATUS:               ID:20170407070509     3
 OLDACT:UP  17-04-07 16:21 OP:and  STATUS:               ID:20170407070509     3
 OLDACT:REG 17-04-07 12:39 OP:and  STATUS:               ID:20170407070509     3
 2017-04-07-0707-00M.COL___359                                                 6
 STAT SP IPHASW D HRMM SECON CODA AMPLIT PERI AZIMU VELO AIN AR TRES W  DIS CAZ7
 BAR2 EZ IP     D  7 9 19.41                             171   -0.1910 21.7 200 
 BAR2 EZ ES        7 9 33.96                             171   -0.1510 21.7 200 
 BAR2 EZ I         7 9 35.19         3.7 0.11            171           21.7 200 
 BRR  HZ EP        7 9 21.55                             150    0.0410 75.4 299 
 BRR  HN ES   2    7 9 38.10                             150    0.59 5 75.4 299 
 PAM  EZ IP     C  7 9 22.44                             149    0.1010 77.4  36 
 PAM  EN ES        7 9 38.89                             149   -0.1010 77.4  36 
 PAM  EZ I         7 9 41.41         6.0 0.46            150           77.4  36 
 RUS  HZ EP        7 9 23.70                             143   -0.0310 97.8 178 
 RUS  HN ES        7 9 41.69                             143    0.2110 97.8 178 
 RUS  HZ I         7 9 42.86         3.4 0.34            147           97.8 178 
 PTB  HZ EP   9    7 9 26.53                             129   -1.03 0  151 260 
 PTB  HN ES        7 9 47.17                             131   -0.09 9  151 260 
 PTB  HZ I         7 9 49.03         2.3 0.16            129            151 260 
 SPBC HZ EP        7 9 28.81                             127   -0.07 9  163 220 
 SPBC HN ES        7 9 50.69                             127    0.05 9  163 220 
 SPBC HZ I         7 9 52.70         4.0 0.34            128            163 220 
 ZAR  HE ES   3    7 9 58.84                             120    0.27 2  208 292 
 ZAR  HZ I         710  6.57         2.2 0.22            119            208 292 
 NOR  HZ EP        7 9 36.66                             116    0.27 8  236 235 
 NOR  HN ES        710  3.69                             116   -0.31 8  236 235 
 URE  HE ES   4    710 11.60                             111   -2.62 0  288 292 
 PTGC HZ EP   4    7 9 42.77                             110   -1.30 0  305 159 
                                                                                
