 2011  5 7 0447 57.4 L   6.786 -73.116141.4  RSN 14 0.3 2.8LRSN                1
 GAP=141        0.54       2.1     3.7  3.4 -0.3051E+01  0.9879E+00  0.2098E+01E
 Epicentro: LOS SANTOS - SANTANDER                                             3
 ACTION:UP  11-06-29 08:51 OP:tino STATUS:               ID:20110507044757 L   I
 2011-05-07-0444-28S.COL___133                                                 6
 STAT SP IPHASW D HRMM SECON CODA AMPLIT PERI AZIMU VELO SNR AR TRES W  DIS CAZ7
 BTL  SZ EP   1    448 16.58                             171     0.1 7   22 311 
 BTL  SZ ES   2    448 31.24                             171    -0.1 5   22 311 
 BAR2 SZ IP        448 16.50                             170     0.010   23 199 
 BAR2 SZ ES   1    448 31.13                             170    -0.2 7   23 199 
 GIR2 SZ EP   1    448 16.53                             166     0.0 7   33 345 
 GIR2 SZ ES   1    448 31.13                             166    -0.4 7   33 345 
 BRR  HZ IP     C  448 18.37                             151     0.110   75 298 
 BRR  HE ES   1    448 34.96                             151     0.4 7   75 298 
 BRR  HZ I         448 39.70       124.7 0.13                            75 298 
 PAM  SZ EP   1    448 19.48                             150     0.4 7   77  37 
 PAM  SN ES   2    448 35.97                             150     0.0 5   77  37 
 RUS  HZ EP   1    448 20.58                             143     0.0 7   99 178 
 RUS  HZ I         448 21.77        51.8 0.19                            99 178 
 RUS  HN ES   2    448 38.88                             143     0.2 5   99 178 
 BRI  SZ EP   2    448 21.06                             140     0.2 5  109  19 
 BRI  SZ ES   1    448 39.49                             140     0.3 7  109  19 
 BRI  SZ I         448 41.15        77.6 0.40                           109  19 
 GRA  SZ IP        448 22.37                             136     0.110  126  16 
 GRA  SZ ES   1    448 41.51                             136    -0.2 7  126  16 
 GRA  SZ I         448 42.80        77.8 0.36                           126  16 
 OCA  SZ EP   1    448 25.20                             128    -0.3 7  162 352 
 OCA  SZ ES   1    448 46.92                             128    -0.6 7  162 352 
 OCA  SZ I         448 51.49        76.5 0.35                           162 352 
 NOR  SZ EP   1    448 33.26                             117     0.2 6  237 235 
 NOR  SN ES   2    449  0.97                             117     0.1 4  237 235 
 HEL  HZ EP   2    448 37.85                             113     0.2 4  275 256 
 HEL  HN ES   2    449  9.21                             113     0.1 4  275 256 
 HEL  HZ I         449 14.98        38.2 0.34                           275 256 
 VIL  SZ EP        448 40.37                             111    -0.1 7  303 192 
 VIL  SN ES        449 13.91                             111    -0.2 7  303 192 
 VIL  SZ I         449 24.35        23.0 0.41                           303 192 
 RREF HZ EP   2    448 43.32                             110    -0.2 3  323 230 
 RREF HZ I         449 28.86        52.2 0.17                           323 230 
 PRA  HZ EP   1    448 50.25                             106    -0.5 4  392 210 
 PRA  HN ES   2    449 32.29                             106    -0.1 3  392 210 
                                                                                
