 2017 12 7 0106  9.8 L   6.795 -73.165146.7  RSN 12 0.5 2.1LRSN                1
 GAP=110        1.24       3.7     4.2  6.9  0.1978E+01  0.5015E+01  0.1554E+01E
 Epicentro: LOS SANTOS - SANTANDER                                             3
 ACTION:UPD 18-01-04 13:17 OP:rebc STATUS:               ID:20171207010609 L   I
 OLDACT:UP  17-12-07 16:02 OP:leo  STATUS:               ID:20171207005744d    3
 OLDACT:DUP 17-12-07 15:50 OP:leo  STATUS:               ID:20171207005744d    3
 OLDACT:UP  17-12-07 15:45 OP:leo  STATUS:               ID:20171207005743     3
 OLDACT:UP  17-12-07 15:42 OP:leo  STATUS:               ID:20171207005743     3
 OLDACT:REG 17-12-07 12:32 OP:leo  STATUS:               ID:20171207005743     3
 2017-12-07-0058-00M.COL___482                                                 6
 STAT SP IPHASW D HRMM SECON CODA AMPLIT PERI AZIMU VELO AIN AR TRES W  DIS CAZ7
 BAR2 EZ EP        1 6 29.33                             171   -0.1710 22.5 185 
 BAR2 EZ ES        1 6 44.21                             171   -0.6810 22.5 185 
 BAR2 EZ I         1 6 47.07        19.8 0.24            164           22.5 185 
 PAM  EZ EP        1 6 32.37                             150    0.1710 79.2  40 
 PAM  EN ES        1 6 49.47                             150   -0.2210 79.2  40 
 PAM  EZ I         1 6 52.26        15.1 0.54            152           79.2  40 
 PTB  HZ EP        1 6 36.11                             133   -0.50 9  146 259 
 PTB  HN ES        1 6 57.25                             133   -0.30 9  146 259 
 PTB  HZ I         1 7  2.15        10.0 0.22            127            146 259 
 OCA  HZ EP        1 6 38.94                             130    0.75 9  161 354 
 OCA  HN ES        1 7  0.50                             130    0.15 9  161 354 
 OCA  HZ I         1 7  3.33        23.2 0.16            128            161 354 
 SPBC HZ EP        1 6 38.32                             130    0.15 9  161 219 
 SPBC HN ES        1 7  0.58                             130    0.25 9  161 219 
 SPBC HZ I         1 7  6.39        18.6 0.10            124            161 219 
 YPLC HZ EP        1 6 39.77                             127    0.08 9  177 151 
 YPLC HN ES        1 7  4.09                             127    1.06 9  177 151 
 YPLC HZ I         1 7  4.71        13.5 0.26            122            177 151 
 ZAR  HZ EP        1 6 41.85                             123   -0.24 9  202 293 
 ZAR  HN ES        1 7  7.92                             123    0.62 9  202 293 
 ZAR  HZ I         1 7 15.30        14.6 0.52            119            202 293 
 CHI  HZ EP        1 6 47.61                             117    0.21 8  248 195 
 CHI  HZ I         1 7 26.95         3.3 0.38            113            248 195 
 URE  HZ EP        1 6 49.72                             114   -0.96 7  282 292 
 URE  HE ES        1 7 23.24                             114    0.64 7  282 292 
 URE  HZ I         1 7 30.64         7.7 0.30            110            282 292 
 DRL03HZ EP        1 6 51.21                             113   -0.25 7  289 353 
 DRL03HN ES   4    1 7 26.56                             113    2.59 0  289 353 
 GUY2CHZ EP   4    1 6 54.40                             113    1.21 0  299 235 
 GUY2CHN ES   4    1 7 28.71                             113    1.66 0  299 235 
 GUY2CHZ I         1 7 34.07        11.7 0.88                           299 235 
 PTGC HZ EP        1 6 52.74                             112   -0.96 7  309 158 
 PTGC HN ES   4    1 7 25.46                             112   -2.51 0  309 158 
                                                                                
