 2016 11 7 0516 22.7 L   6.846 -73.139149.4  RSN 25 0.5 2.7LRSN                1
 GAP= 66        1.13       3.2     3.5  5.5 -0.1982E+01  0.4414E+01  0.4238E+01E
 Epicentro: LOS SANTOS - SANTANDER                                             3
 ACTION:UPD 17-10-26 21:05 OP:lp   STATUS:               ID:20161107051622 L   I
 OLDACT:UP  16-11-07 17:32 OP:lv   STATUS:               ID:20161107050329d    3
 OLDACT:DUP 16-11-07 17:17 OP:lv   STATUS:               ID:20161107050329d    3
 2016-11-07-0508-00M.COL___334                                                 6
 STAT SP IPHASW D HRMM SECON CODA AMPLIT PERI AZIMU VELO AIN AR TRES W  DIS CAZ7
 BAR2 HZ EP     C  516 42.66                             169   -0.2010 28.4 190 
 BAR2 HZ ES        516 57.71                             169   -0.8810 28.4 190 
 BAR2 HZ I         516 59.19       150.0 0.20            165           28.4 190 
 BRR  HZ EP     C  516 44.41        93.9 0.14            153    0.2810 69.6 295 
 BRR  HE ES        517  1.42                             153    0.5610 69.6 295 
 BRR  HZ I         517  2.17        93.9 0.14            151           69.6 295 
 PAM  HZ EP     D  516 45.53                             153    0.4910 73.1  42 
 PAM  HN ES        517  2.43                             153   -0.0410 73.1  42 
 PAM  HZ I         517  4.91        81.7 0.42            158           73.1  42 
 PTB  HZ EP        516 49.52                             132   -0.58 9  150 257 
 PTB  HN ES   4    517 10.21                             132   -1.28 0  150 257 
 PTB  HZ I         517 13.88        69.1 0.13            131            150 257 
 TAM  HZ IP     D  516 51.08                             131    0.37 9  156 107 
 TAM  HN ES        517 12.75                             131    0.18 9  156 107 
 TAM  HZ I         517 13.33        41.3 0.30            135            156 107 
 SPBC HZ EP        516 51.66                             129   -0.22 9  168 218 
 SPBC HN ES        517 14.01                             129   -0.64 9  168 218 
 SPBC HZ I         517 17.07        66.7 0.15            128            168 218 
 ZAR  HZ EP        516 55.13                             123   -0.11 9  203 291 
 ZAR  HN ES        517 20.86                             123    0.22 9  203 291 
 ZAR  HZ I         517 26.86        53.0 0.22            123            203 291 
 NOR  HZ EP        516 58.95                             119   -0.05 8  238 234 
 NOR  HE ES        517 27.07                             119   -0.26 8  238 234 
 NOR  HZ I         517 32.84        57.3 0.18            118            238 234 
 CHI  HZ EP        517  1.01                             117   -0.12 8  254 195 
 CHI  HN ES        517 30.76                             117   -0.36 8  254 195 
 CHI  HZ I         517 38.28        21.1 0.35            117            254 195 
 ROSC BZ EP   4    517  2.62                             117    1.11 0  257 211 
 ROSC BN ES        517 32.89                             117    1.09 8  257 211 
 ROSC BZ I         517 39.58        49.5 0.41            117            257 211 
 URE  HZ EP   4    517  2.70                             114   -1.10 0  283 291 
 URE  HE ES   4    517 34.25                             114   -1.62 0  283 291 
 URE  HZ I         517 45.45        36.2 0.18            114            283 291 
 VIL  EZ EP        517  6.67                             112   -0.17 7  308 192 
 VIL  EN ES        517 41.30                             112    0.01 7  308 192 
 VIL  EZ I         517 44.73        35.4 0.44            113            308 192 
 PTGC HZ EP   4    517  6.06                             112   -1.15 0  313 159 
 PTGC HN ES   4    517 39.45                             112   -2.49 0  313 159 
 PTGC HZ I         517 41.22        19.6 0.18            113            313 159 
 LL6C HZ EP   9    516 47.96                             111   -20.0 0  320 357 
 LL6C HN ES        517 24.79                                    1.51 7  320 357 
 LL6C HZ I         517 26.74         7.4 0.33            113            320 357 
 ELA  HZ EP   4    517 11.64                             111    1.51 0  333 229 
 ELA  HE ES   4    517 51.75                             111    4.62 0  333 229 
 ELA  HZ I         517 59.21        21.9 0.42            111            333 229 
 CBOC HZ EP        517 10.73                             110    0.72 7  336 251 
 CBOC HE ES   4    517 48.26                             110    1.34 0  336 251 
 CBOC HZ I         517 56.07        11.7 0.29            110            336 251 
 ARGC HZ EP   4    517 12.99                             109    1.04 0  355 340 
 ARGC HE ES   4    517 52.19                             109    1.80 0  355 340 
 ARGC HZ I         518  1.57         6.5 0.25            110            355 340 
 ANIL HZ EP   9    517 14.29                             109    1.19 0  361 224 
 ANIL HN ES        517 53.93                                    0.31 6  361 224 
 PRA  HZ EP        517 16.30                             107   -0.58 6  397 209 
 PRA  HN ES        517 59.04                             107   -0.12 6  397 209 
 PRA  HZ I         518  3.46        29.2 0.30            107            397 209 
 ORTC HZ EP        517 18.32                             107    1.07 6  400 216 
 ORTC HE ES        518  0.63                             107    0.81 6  400 216 
 ORTC HZ I         518  5.34        20.5 0.16            107            400 216 
 SJC  HZ EP        517 17.03                             106   -0.88 6  405 326 
 SJC  HN ES   4    517 57.94                             106   -3.05 0  405 326 
 SJC  HZ I         518  1.47        10.7 0.30            107            405 326 
 PAL  HZ EP        517 18.54                             106    0.20 6  409 239 
 PAL  HN ES        518  1.78                             106    0.02 6  409 239 
 PAL  HZ I         518  7.05         9.6 0.35            106            409 239 
 CRJC HZ EP   4    517 23.36                             104   -1.32 0  463   3 
 CRJC HN ES        518 12.57                             104   -0.47 5  463   3 
 CRJC HZ I         518 15.86        11.2 0.16            105            463   3 
 GUA  EZ EP   9    517 25.80                             103   -0.72 0  479 173 
 GUA  EN ES        518 16.13                                    0.54 5  479 173 
 GUA  EZ I         518 17.92        12.3 0.10            104            479 173 
 BBAC HZ EP        517 53.69                              98    0.22 1  702 221 
 BBAC HN ES   4    519  3.07                              98   -1.22 0  702 221 
 BBAC HZ I         519  8.79         1.0 0.29             98            702 221 
                                                                                
