 2011 10 7 0449  3.3 L   6.757 -73.129135.0  RSN  4 0.4 0.8LRSN                1
 GAP=188        0.63       7.3    16.9  9.3  0.5503E+02 -0.3012E+02  0.1646E+02E
 Epicentro: LOS SANTOS - SANTANDER                                             3
 ACTION:UPD 12-07-13 16:02 OP:ep   STATUS:               ID:20111007044903 L   I
 2011-10-07-0440-00M.COL___171                                                 6
 STAT SP IPHASW D HRMM SECON CODA AMPLIT PERI AZIMU VELO AIN AR TRES W  DIS CAZ7
 BAR2 SZ ES   2    449 35.53                             172   -0.23 5 19.1 198 
 BAR2 SZ I         449 35.82         2.1 0.33                          19.1 198 
 GIR2 SZ EP   1    449 22.23                             164    0.41 7 36.3 349 
 GIR2 SZ ES   1    449 36.11                             164   -0.18 7 36.3 349 
 BRR  HE ES   2    449 39.30                             149    0.01 5 75.2 301 
 BRR  HZ I         449 40.49         1.8 0.10                          75.2 301 
 RUS  HZ EP   1    449 25.22                             143   -0.39 7 95.7 177 
 RUS  HE ES   2    449 43.63                             143    0.59 5 95.7 177 
 RUS  HZ I         449 45.10         0.8 0.31                          95.7 177 
                                                                                
