 2015 11 7 0403 47.7 L   6.584 -73.435118.0  RSN 10 0.3 1.6LRSN                1
 GAP= 82        0.74       3.0     3.2  5.4  0.1755E+01  0.1033E+02  0.3211E+01E
 Epicentro: HATO - SANTANDER                                                   3
 ACTION:UPD 15-12-28 16:09 OP:cam  STATUS:               ID:20151107040347 L   I
 OLDACT:REG 15-11-07 13:49 OP:cara STATUS:               ID:20151107035735     3
 2015-11-07-0357-35M.COL___316                                                 6
 STAT SP IPHASW D HRMM SECON CODA AMPLIT PERI AZIMU VELO AIN AR TRES W  DIS CAZ7
 BAR2 EZ EP        4 4  4.38                             166    0.2010 28.0  88 
 BAR2 EZ ES        4 4 16.76                             166   -0.2310 28.0  88 
 BRR  HZ EP     C  4 4  5.06                             149   -0.5410 65.4 332 
 BRR  HN ES        4 4 19.61                             149    0.0910 65.4 332 
 BRR  HZ I         4 4 28.69         8.5 0.24            149           65.4 332 
 RUS  HZ EP        4 4  7.56                             142   -0.1510 85.8 153 
 RUS  HN ES        4 4 23.64                             142    0.3510 85.8 153 
 RUS  HZ I         4 4 25.67         2.8 0.26            150           85.8 153 
 PAM  EZ EP   2    4 4 10.75                             133    0.49 5  117  44 
 PAM  EE ES   2    4 4 27.65                             133   -0.17 5  117  44 
 PAM  EZ I         4 4 31.54         5.6 0.18            137            117  44 
 OCA  HN ES   2    4 4 39.39                             119    0.47 4  183   4 
 ZAR  HZ EP        4 4 16.24                             118   -0.40 9  187 303 
 ZAR  HE ES        4 4 39.74                             118    0.56 9  187 303 
 ZAR  HZ I         4 4 40.61        10.6 0.62            122            187 303 
 HEL  HZ EP        4 4 22.66                             112    0.12 8  236 259 
 HEL  HE ES        4 4 49.54                             112   -0.14 8  236 259 
 HEL  HZ I         4 4 54.03         2.6 0.26            116            236 259 
 SML  HZ EP   4    4 4 24.71                             110    0.44 0  255 344 
 SML  HN ES   4    4 4 53.97                             110    1.21 0  255 344 
 SML  HZ I         4 4 58.34         7.7 0.10            114            255 344 
 GUY2CHZ EP        4 4 25.75                             110    0.15 8  261 235 
 GUY2CHE ES        4 4 54.98                             110   -0.15 8  261 235 
 GUY2CHZ I         4 4 58.95         1.5 0.22                           261 235 
 URE  HE ES   4    4 4 52.81                             109   -2.09 0  265 299 
 MON  HZ EP   4    4 4 33.62                             104   -1.24 0  346 315 
 MON  HE ES   4    4 5 10.63                             104   -0.97 0  346 315 
 MON  HZ I         4 5 11.85         1.7 0.22            107            346 315 
                                                                                
