 2011 12 7 0030 22.4 L   6.775 -73.096146.0  RSN 20 0.4 3.3LRSN                1
 GAP=105        0.85       2.7     4.0  4.2 -0.3175E+01  0.3824E+01  0.2664E+01E
 Epicentro: LOS SANTOS - SANTANDER                                             3
 ACTION:UPD 12-07-13 16:14 OP:ep   STATUS:               ID:20111207003022 L   I
 2011-12-07-0030-00M.COL___181                                                 6
 STAT SP IPHASW D HRMM SECON CODA AMPLIT PERI AZIMU VELO AIN AR TRES W  DIS CAZ7
 BAR2 SZ EP        030 42.40                             171    0.3210 22.4 205 
 BAR2 SZ ES        030 57.21                             171   -0.1810 22.4 205 
 BAR2 SZ I         031  0.39       601.2 0.33                          22.4 205 
 GIR2 SZ EP        030 42.49                             166    0.2410 35.2 342 
 PAM  SZ IP     D  030 45.22                             151    0.6110 76.3  35 
 PAM  SN ES        031  1.00                             151   -0.9010 76.3  35 
 BRR  HZ IP     C  030 44.26                             150    0.2910 77.3 298 
 BRR  HE ES        031  1.02                             150    0.2610 77.3 298 
 BRR  HE I         031  1.97      1287.4 0.23                          77.3 298 
 RUS  HZ EP        030 46.31                             145    0.3110 97.6 179 
 RUS  HE ES        031  4.14                             145   -0.2410 97.6 179 
 BRI  SZ EP   1    030 46.76                             141    0.35 7  109  18 
 BRI  SZ ES   1    031  5.35                             141    0.24 7  109  18 
 OCA  SZ EP        030 50.90                             129   -0.19 9  164 351 
 OCA  SZ ES   1    031 12.88                             129   -0.56 7  164 351 
 OCA  SZ I         031 17.23       195.5 0.35                           164 351 
 YOP  SZ EP   1    030 52.49                             127    0.47 7  174 155 
 YOP  SZ I         031 17.70       157.4 0.36                           174 155 
 NOR  SZ EP        030 58.23                             118   -0.26 8  238 236 
 NOR  SE ES   1    031 26.51                             118   -0.10 6  238 236 
 CHI  HZ EP        031  0.34                             117    0.32 8  247 197 
 CHI  HZ I         031 35.42       111.7 0.34                           247 197 
 HEL  HZ EP   1    031  3.07                             114   -0.11 6  277 257 
 HEL  HN ES   2    031 34.86                             114   -0.09 4  277 257 
 VIL  SZ EP   1    031  5.62                             112   -0.07 5  302 193 
 VIL  SN ES   1    031 38.83                             112   -0.60 5  302 193 
 VIL  SZ I         031 45.19        54.9 0.38                           302 193 
 GUY  SZ EP   1    031  6.84                             112    0.19 5  306 236 
 GUY  SN ES   2    031 41.46                             112    0.32 4  306 236 
 GUY  SZ I         031 48.69       205.9 0.42                           306 236 
 RREF HZ EP   1    031  8.22                             110   -0.64 5  324 230 
 DBB  SZ EP   1    031 10.12                             109   -0.45 5  345 275 
 TOL  SZ EP   1    031 11.73                             109    0.81 5  345 226 
 SDV  BZ EP   1    031 11.60                             108   -0.61 5  358  49 
 SDV  BZ I         031 12.85        31.1 0.27                           358  49 
 PRA  HZ EP        031 15.49                             106   -0.52 6  392 210 
 PRA  HE ES   1    031 57.70                             106   -0.09 4  392 210 
 SJA  SZ EP   1    031 15.93                             106   -0.90 4  399 194 
 PAL  HZ EP   1    031 17.72                             106   -0.27 4  409 240 
 PAL  HN ES   1    032  1.00                             106   -0.32 4  409 240 
                                                                                
