 2016  2 7 0329 59.4 L   6.878 -73.387118.3  RSN  5 0.2 1.7LRSN                1
 GAP=152        0.35       2.1    10.2  5.1  0.8043E+01  0.3790E+02  0.3726E+00E
 Epicentro: SAN VICENTE DE CHUCURI - SANTANDER                                 3
 ACTION:UPD 16-03-04 21:23 OP:rebc STATUS:               ID:20160207032959 L   I
 OLDACT:UP  16-02-12 15:51 OP:nlst STATUS:               ID:20160207032959 L   3
 OLDACT:REG 16-02-07 11:43 OP:dnl  STATUS:               ID:20160207032749     3
 2016-02-07-0327-49M.COL___331                                                 6
 STAT SP IPHASW D HRMM SECON CODA AMPLIT PERI AZIMU VELO AIN AR TRES W  DIS CAZ7
 BAR2 EZ EP   2    330 16.58                             161    0.32 5 38.8 144 
 BAR2 EZ ES        330 29.46                             161    0.0610 38.8 144 
 BAR2 EZ I         330 31.12        45.8 0.22            167           38.8 144 
 RUS  HZ EP   2    330 21.57                             133   -0.16 5  114 163 
 RUS  HE ES   2    330 38.74                             133   -0.40 5  114 163 
 RUS  HZ I         330 40.15         4.0 0.30            139            114 163 
 OCA  HZ EP   1    330 24.91                             124    0.13 7  151   3 
 OCA  HE ES   2    330 44.32                             124   -0.24 5  151   3 
 OCA  HZ I         330 50.44        13.6 0.25            127            151   3 
 SML  HZ EP   1    330 32.55                             113   -0.08 6  226 340 
 SML  HE ES   2    330 58.44                             113   -0.09 4  226 340 
 SML  HZ I         331  2.60         7.6 0.08            115            226 340 
 CHI  HZ EP   2    330 36.23                             110    0.15 4  252 189 
 CHI  HN ES   2    331  4.71                             110    0.03 4  252 189 
 CHI  HZ I         331  7.94         1.1 0.38            113            252 189 
                                                                                
