 2017 12 7 0857 30.5 L   6.811 -73.129149.3  RSN 23 0.9 2.5LRSN                1
 GAP= 67        1.62       3.4     4.0  7.6 -0.2166E+00  0.9611E+01  0.3281E+01E
 Epicentro: LOS SANTOS - SANTANDER                                             3
 ACTION:UPD 18-01-04 13:17 OP:rebc STATUS:               ID:20171207085730 L   I
 OLDACT:UP  17-12-07 18:05 OP:leo  STATUS:               ID:20171207084742     3
 OLDACT:REG 17-12-07 13:42 OP:leo  STATUS:               ID:20171207084742     3
 2017-12-07-0848-00M.COL___470                                                 6
 STAT SP IPHASW D HRMM SECON CODA AMPLIT PERI AZIMU VELO AIN AR TRES W  DIS CAZ7
 BAR2 EZ EP        857 50.51                             170   -0.1010 24.9 194 
 BAR2 EZ ES        858  6.11                             170   -0.1610 24.9 194 
 BAR2 EZ I         858  7.41        64.8 0.46            168           24.9 194 
 PAM  EZ EP        857 53.37                             152    0.3710 75.3  39 
 PAM  EN ES        858 10.84                             152    0.3210 75.3  39 
 PAM  EZ I         858 12.74        27.7 0.56            157           75.3  39 
 PTB  HZ EP        857 57.11                             132   -0.85 9  150 259 
 PTB  HN ES        858 18.57                             132   -0.80 9  150 259 
 PTB  HZ I         858 22.03        25.1 0.12            132            150 259 
 TAM  HZ IP        857 58.64                             132    0.29 9  154 106 
 TAM  HN ES        858 19.60                             132   -0.45 9  154 106 
 OCA  HZ EP        857 59.32                             131    0.30 9  159 352 
 OCA  HN ES        858 21.98                             131    0.73 9  159 352 
 OCA  HZ I         858 26.39        78.4 0.24            133            159 352 
 SPBC HZ EP        857 59.58                             129    0.09 9  165 219 
 SPBC HN ES        858 22.05                             129   -0.03 9  165 219 
 SPBC HZ I         858 28.68        57.6 0.20            130            165 219 
 YPLC HZ IP        858  0.72                             127    0.13 9  177 152 
 YPLC HN ES        858 24.88                             127    0.83 9  177 152 
 YPLC HZ I         858 25.57        20.9 0.26            130            177 152 
 ZAR  HZ EP        858  3.24                             123   -0.09 8  205 292 
 ZAR  HN ES        858 28.35                             123   -0.57 8  205 292 
 ZAR  HZ I         858 34.44        38.8 0.44            124            205 292 
 CHI  HZ EP        858  8.57                             118   -0.03 8  250 196 
 CHI  HN ES        858 37.81                             118   -0.48 8  250 196 
 CHI  HZ I         858 43.79        14.2 0.30            119            250 196 
 ROSC BZ EP   4    858 10.59                             117    1.54 0  255 211 
 ROSC HN ES   4    858 43.24                             117    4.14 0  255 211 
 ROSC BZ I         858 44.11        29.3 0.40            119            255 211 
 CVER HZ EP   4    858 12.50                             115    1.24 0  274 203 
 URE  HZ EP   2    858 10.39                             114   -1.52 4  285 292 
 URE  HN ES   4    858 41.83                             114   -2.36 0  285 292 
 URE  HZ I         858 51.50        23.3 0.20            115            285 292 
 DRL03HZ EP        858 12.81                             114    0.61 7  288 352 
 DRL03HN ES        858 45.41                             114    0.71 7  288 352 
 GUY2CHZ EP        858 15.25                             113    0.71 7  303 235 
 GUY2CHN ES        858 48.38                             113   -0.50 7  303 235 
 GUY2CHZ I         858 57.56        13.9 0.44                           303 235 
 PTGC HZ EP        858 13.34                             112   -1.25 7  309 159 
 PTGC HN ES        858 46.78                             112   -2.18 7  309 159 
 DRL02HZ EP   2    858 15.58                             111   -0.67 3  324 357 
 DRL02HE ES   2    858 51.07                             111   -0.84 3  324 357 
 ELA  HZ EP        858 18.76                             111    0.98 7  331 230 
 ELA  HN ES        858 55.52                             111    0.89 7  331 230 
 ELA  HZ I         859  2.53        10.8 0.28            112            331 230 
 CBOC HZ EP        858 18.56                             110    0.73 7  336 252 
 CBOC HN ES        858 54.54                             110   -0.19 7  336 252 
 CBOC HZ I         859  6.30         5.9 0.72            112            336 252 
 DBB  HZ EP        858 18.08                             110   -0.27 7  341 274 
 DBB  EN ES        858 54.89                             110   -0.76 7  341 274 
 DBB  HZ I         858 56.45        13.3 0.16            111            341 274 
 ANIL HZ EP        858 22.78                             109    2.07 6  359 225 
 ANIL HN ES   2    859  0.35                             109    0.49 3  359 225 
 PRA  HZ EP        858 24.22                             107   -0.18 6  394 210 
 PRA  HE ES        859  6.70                             107    0.29 6  394 210 
 PRA  HZ I         859 12.21        13.8 0.40            108            394 210 
 ORTC HZ EP        858 24.67                             107   -0.14 6  397 216 
 ORTC HN ES        859  8.04                             107    0.90 6  397 216 
 ORTC HZ I         859 12.00         8.3 0.68            108            397 216 
 PAL  HZ EP        858 25.99                             106   -0.07 6  408 239 
 PAL  HN ES        859 11.97                             106    2.59 6  408 239 
 PAL  HZ I         859 14.97         4.9 0.50            108            408 239 
 SJC  HZ EP        858 24.37                             106   -1.84 6  409 327 
 SJC  HN ES        859  8.04                             106   -1.60 6  409 327 
 SJC  HZ I         859 10.18         4.1 0.46            108            409 327 
                                                                                
