 2012  7 7 0709 52.2 L   6.802 -73.186141.9  RSN  5 0.3 1.3LRSN                1
 GAP=179        0.75       4.7     6.9  8.7  0.2949E+01  0.1233E+02 -0.7284E+01E
 Epicentro: ZAPATOCA - SANTANDER                                               3
 ACTION:UPD 12-08-14 11:43 OP:ep   STATUS:               ID:20120707070951 L   I
 2012-07-07-0710-00M.COL___201                                                 6
 STAT SP IPHASW D HRMM SECON CODA AMPLIT PERI AZIMU VELO AIN AR TRES W  DIS CAZ7
 BAR2 SZ EP   1    710 11.35                             170     0.0 7   23 179 
 BAR2 SZ ES   1    710 26.11                             170    -0.2 7   23 179 
 BAR2 SZ I         710 28.35         4.0 0.22            169             23 179 
 BRR  HZ EP        710 13.16                             153     0.510   67 300 
 BRR  HZ I         710 13.86         6.7 0.12            152             67 300 
 BRR  HN ES   1    710 28.84                             153     0.2 7   67 300 
 RUS  HE ES   1    710 33.79                             143    -0.1 7  101 174 
 PTB  HZ EP   1    710 17.96                             132    -0.5 7  143 258 
 PTB  HN ES   1    710 38.80                             132    -0.1 7  143 258 
 PTB  HZ I         710 41.91         1.6 0.11            132            143 258 
 OCA  HN ES   1    710 41.57                             129    -0.3 7  160 355 
