 2013  2 7 0231 14.4 L   6.775 -73.187138.6  RSN  4 0.3 1.6LRSN                1
 GAP=231        0.54       6.9    10.2  5.9  0.5554E+02  0.5058E+01 -0.4564E+01E
 Epicentro: LOS SANTOS - SANTANDER                                             3
 ACTION:UPD 13-03-12 09:31 OP:ep   STATUS:               ID:20130207023114 L   I
 2013-02-07-0230-00M.COL___240                                                 6
 STAT SP IPHASW D HRMM SECON CODA AMPLIT PERI AZIMU VELO AIN AR TRES W  DIS CAZ7
 BAR2 SZ EP   1    231 32.68                             171   -0.40 7 20.2 179 
 BAR2 SZ ES        231 47.64                             171   -0.0310 20.2 179 
 BAR2 SZ I         231 48.74        11.3 0.36            167           20.2 179 
 BRR  HZ EP        231 34.65                             152    0.0410 68.7 302 
 BRR  HN ES   2    231 50.84                             152    0.45 5 68.7 302 
 BRR  HN I         231 51.97        10.1 0.36            148           68.7 302 
 RUS  HZ EP   1    231 37.63                             143    0.38 7 98.2 173 
 RUS  HN ES        231 55.04                             143   -0.0510 98.2 173 
 RUS  HN I         231 56.04         3.3 0.32            142           98.2 173 
 ZAR  HN ES   2    232 10.45                             121   -0.29 4  201 293 
 ZAR  HN I         232 14.01         6.5 0.48            120            201 293 
                                                                                
