 2012  2 7 0947 26.3 L   5.954 -73.769110.0  RSN  6 0.3 1.4LRSN                1
 GAP=155        0.52       3.5     3.0  7.6 -0.1751E+01  0.6424E+01  0.6134E+01E
 ACTION:UP  12-03-07 16:28 OP:epov STATUS:               ID:20120207094726 L   I
 2012-02-07-0940-00M.COL___187                                                 6
 STAT SP IPHASW D HRMM SECON CODA AMPLIT PERI AZIMU VELO AIN AR TRES W  DIS CAZ7
 RUS  HZ EP   1    947 44.65                             143   -0.12 7 76.2  95 
 RUS  HN ES   2    947 58.83                             143   -0.35 5 76.2  95 
 RUS  HZ I         947 59.62         1.9 0.33                          76.2  95 
 BAR2 SZ EP        947 46.07                             136    0.1010 95.9  43 
 BAR2 SZ ES   1    948  1.59                             136    0.27 7 95.9  43 
 BAR2 SZ I         948  3.00        22.9 0.46                          95.9  43 
 PTB  HE ES   2    948  0.75                             135   -0.64 5 99.9 310 
 BRR  HZ EP   1    947 48.33                             127   -0.23 7  128   3 
 BRR  HN ES   1    948  6.03                             127    0.09 7  128   3 
 BRR  HZ I         948  9.43         4.6 0.17                           128   3 
 NOR  SZ EP        947 48.77                             127   -0.0310  129 251 
 NOR  SE ES   2    948  6.99                             127    0.63 5  129 251 
 ZAR  HN ES   2    948 21.37                             113    0.10 4  208 325 
                                                                                
