 2010  8 7 0522 22.5 L   6.682 -73.184147.1  RSN  4 0.1 1.1LRSN                1
 GAP=192        0.35       7.9     9.5  4.7  0.5485E+02  0.2226E+00  0.9983E+01E
 Epicentro: VILLANUEVA - SANTANDER                                             3
 ACTION:UP  10-09-07 10:52 OP:vdl  STATUS:               ID:20100807052222 L   I
 2010-08-07-0520-52S.COL___125                                                 6
 STAT SP IPHASW D HRMM SECON CODA AMPLIT PERI AZIMU VELO SNR AR TRES W  DIS CAZ7
 BAR2 SZ EP   1    522 42.17                             176     0.1 7   10 180 
 BAR2 SZ I         522 42.70         2.8 0.15                            10 180 
 BTL  SZ EP        522 42.29                             169    -0.110   28 341 
 BTL  SZ ES   1    522 57.95                             169     0.1 7   28 341 
 BRR  HZ EP        522 43.91                             152    -0.110   75 309 
 BRR  HZ I         522 44.17         4.8 0.13                            75 309 
 BRR  HE ES   1    523  0.83                             152     0.1 7   75 309 
 RUS  HZ EP   2    522 45.71                             148     0.2 5   88 173 
 RUS  HZ I         522 47.13         1.1 0.32                            88 173 
 RUS  HN ES   3    523  3.14                             148    -0.3 2   88 173 
                                                                                
