 2017  9 7 0407 41.7 L   5.838 -73.739125.0  RSN  4 0.5 1.1LRSN                1
 GAP=119        0.87       4.3     5.7  9.1  0.4947E+01  0.1472E+02 -0.8569E+01E
 Epicentro: JESUS MARIA - SANTANDER                                            3
 ACTION:UPD 17-10-05 19:09 OP:rebc STATUS:               ID:20170907040741 L   I
 OLDACT:REG 17-09-07 12:51 OP:dnl  STATUS:               ID:20170907035739     3
 2017-09-07-0358-00M.COL___420                                                 6
 STAT SP IPHASW D HRMM SECON CODA AMPLIT PERI AZIMU VELO AIN AR TRES W  DIS CAZ7
 SPBC HZ EP        4 7 59.62                             160    0.3510 42.2 241 
 SPBC HE ES        4 8 13.14                             160    0.2010 42.2 241 
 SPBC HZ I         4 8 13.99         3.8 0.18            158           42.2 241 
 RUS  HZ EP   2    4 8  2.07                             148    0.58 5 72.9  85 
 RUS  HN ES        4 8 16.81                             148   -0.0910 72.9  85 
 RUS  HZ I         4 8 17.80         1.3 0.32            148           72.9  85 
 CHI  HZ EP   2    4 8  5.36                             130   -0.91 5  134 180 
 CHI  HN ES        4 8 25.18                             130   -0.2310  134 180 
 CHI  HZ I         4 8 28.97         1.5 0.58            129            134 180 
 ZAR  HZ EP   2    4 8 15.70                             115    0.95 4  221 326 
 ZAR  HN ES        4 8 39.99                             115   -0.52 8  221 326 
 ZAR  HZ I         4 8 45.44         1.9 0.42            114            221 326 
                                                                                
