 2015  7 7 0223 56.4 L   6.824 -73.120140.0  RSN  9 0.4 1.9LRSN                1
 GAP=139        0.85       3.1     4.4  7.2 -0.9152E+00  0.1510E+02 -0.6078E+00E
 Epicentro: LOS SANTOS - SANTANDER                                             3
 ACTION:UPD 15-09-08 21:47 OP:cam  STATUS:               ID:20150707022356 L   I
 OLDACT:DUP 15-07-07 15:28 OP:spq  STATUS:               ID:20150707021751d    3
 2015-07-07-0217-49M.COL___333                                                 6
 STAT SP IPHASW D HRMM SECON CODA AMPLIT PERI AZIMU VELO AIN AR TRES W  DIS CAZ7
 BAR2 EZ EP        224 15.39                             169   -0.0610 26.6 195 
 BAR2 EZ ES   1    224 29.96                             169   -0.32 7 26.6 195 
 BAR2 EZ I         224 31.52        31.1 0.16            168           26.6 195 
 PAM  EZ EP        224 18.15                             151    0.3310 73.5  39 
 PAM  EN ES        224 35.08                             151    0.5910 73.5  39 
 PAM  EZ I         224 37.32        15.8 0.64            155           73.5  39 
 RUS  HZ EP        224 19.65                             142   -0.1710  103 178 
 RUS  HE ES   1    224 37.74                             142   -0.32 7  103 178 
 RUS  HZ I         224 38.75         4.2 0.18            146            103 178 
 OCA  HZ EP        224 23.51                             129   -0.58 9  158 352 
 OCA  HN ES        224 45.34                             129   -0.32 9  158 352 
 OCA  HZ I         224 49.61        14.3 0.16            130            158 352 
 ZAR  HZ EP   1    224 28.86                             121    0.17 6  206 291 
 ZAR  HE ES        224 53.89                             121    0.05 8  206 291 
 ZAR  HZ I         224 59.19        10.1 0.38            122            206 291 
 SML  HN ES   1    225  0.70                             116   -0.13 6  242 334 
 SML  HZ I         225  5.10        10.4 0.26            118            242 334 
 HEL  HZ EP   4    224 37.92                             113    1.17 0  275 255 
 HEL  HE ES   1    225  9.05                             113    0.87 6  275 255 
 HEL  HZ I         225 15.80         3.0 0.44            115            275 255 
 GUY2CHZ EP   1    224 40.74                             111    0.51 5  305 235 
 GUY2CHE ES   1    225 14.15                             111   -0.23 5  305 235 
 GUY2CHZ I         225 22.67         2.1 0.44                           305 235 
 SJC  HN ES   4    225 31.46                             105   -3.40 0  409 326 
 SJC  HZ I         225 35.22         3.2 0.52            106            409 326 
                                                                                
