 2012  6 7 0743 33.4 L   6.777 -73.045150.5  RSN  5 0.4 1.8LRSN                1
 GAP=282        0.84       8.7     6.6  8.2  0.1605E+02  0.2341E+02  0.1216E-02E
 Epicentro: LOS SANTOS - SANTANDER                                             3
 ACTION:UPD 12-08-06 17:47 OP:ep   STATUS:               ID:20120607074331 L   I
 2012-06-07-0740-00M.COL___201                                                 6
 STAT SP IPHASW D HRMM SECON CODA AMPLIT PERI AZIMU VELO AIN AR TRES W  DIS CAZ7
 BAR2 SZ EP   1    743 54.26                             170    0.60 7 25.5 217 
 BAR2 SZ ES   1    744  9.32                             170   -0.13 7 25.5 217 
 BAR2 SZ I         744 12.31         8.9 0.19            164           25.5 217 
 RUS  HZ EP   1    743 57.08                             145   -0.37 7 97.9 182 
 RUS  HN ES        744 16.35                             145    0.1510 97.9 182 
 RUS  HZ I         744 19.15         3.0 0.26            146           97.9 182 
 PTB  HZ EP   1    744  1.20                             131   -0.53 7  158 261 
 PTB  HN ES   1    744 23.17                             131   -0.64 7  158 261 
 PTB  HZ I         744 29.66         5.0 0.18            130            158 261 
 HEL  HZ EP   1    744 15.11                             115    0.10 6  282 257 
 HEL  HE ES        744 48.16                             115    0.72 7  282 257 
 HEL  HZ I         744 54.03         3.5 0.22            116            282 257 
 PRA  HZ EP   1    744 27.55                             107    0.04 4  395 211 
 PRA  HZ I         744 29.97         7.8 0.18            109            395 211 
 PRA  HN ES   1    745  9.24                             107   -0.46 4  395 211 
                                                                                
