 2016  6 7 0440 48.7 L   6.765 -73.177146.0  RSN  5 0.4 1.2LRSN                1
 GAP=231        1.08       6.1     6.8  9.3  0.5475E+01  0.5688E+01  0.5306E+01E
 Epicentro: LOS SANTOS - SANTANDER                                             3
 ACTION:UPD 16-07-21 22:16 OP:rebc STATUS:               ID:20160607044048 L   I
 OLDACT:UP  16-06-08 20:46 OP:nlst STATUS:               ID:20160607044048 L   3
 OLDACT:UP  16-06-07 16:30 OP:dani STATUS:               ID:20160607043741     3
 OLDACT:REG 16-06-07 13:03 OP:dani STATUS:               ID:20160607043741     3
 2016-06-07-0437-41M.COL___331                                                 6
 STAT SP IPHASW D HRMM SECON CODA AMPLIT PERI AZIMU VELO AIN AR TRES W  DIS CAZ7
 BRR  HZ EP        441  9.74                             153   -0.0910 70.2 303 
 BRR  HE ES        441 26.68                             153    0.3810 70.2 303 
 BRR  HZ I         441 29.56         2.2 0.21                          70.2 303 
 RUS  HZ EP        441 11.87                             145   -0.3610 97.0 174 
 RUS  HE ES        441 30.55                             145   -0.0210 97.0 174 
 RUS  HZ I         441 31.73         2.2 0.42                          97.0 174 
 PTB  HZ EP        441 14.97                             133   -0.35 9  144 260 
 PTB  HE ES        441 35.66                             133   -0.42 9  144 260 
 PTB  HZ I         441 39.23         2.4 0.32                           144 260 
 SPBC HE ES        441 39.05                             130    0.46 9  158 219 
 NOR  HZ EP        441 24.89                             119    0.98 8  230 235 
 NOR  HN ES        441 50.95                             119   -0.41 8  230 235 
 NOR  HZ I         441 53.39         2.6 0.23                           230 235 
                                                                                
