 2010  9 7 0540 59.8 L   6.798 -73.098146.0  RSN  7 0.4 1.9LRSN                1
 GAP=198        0.66       5.3     8.2  8.4  0.1775E+02 -0.1562E+00  0.5824E+01E
 Epicentro: LOS SANTOS - SANTANDER                                             3
 ACTION:UP  11-02-18 11:00 OP:tino STATUS:               ID:20100907054059 L   I
 2010-09-07-0539-19S.COL___120                                                 6
 STAT SP IPHASW D HRMM SECON CODA AMPLIT PERI AZIMU VELO SNR AR TRES W  DIS CAZ7
 BAR2 SZ EP   1    541 19.60                             170     0.1 7   25 202 
 BAR2 SZ I         541 35.95        15.6 0.41                            25 202 
 GIR2 SZ EP   2    541 18.69                             167    -0.9 5   33 341 
 BRR  HZ EP        541 21.31                             151     0.110   76 297 
 BRR  HE ES   1    541 38.07                             151     0.1 7   76 297 
 BRR  HZ I         541 39.01        17.8 0.10                            76 297 
 RUS  HZ EP   1    541 23.57                             144     0.0 7  100 179 
 RUS  HN ES   1    541 42.19                             144     0.1 7  100 179 
 RUS  HZ I         541 44.33         7.3 0.21                           100 179 
 CHI  HZ EP   2    541 38.04                             117     0.4 4  250 196 
 CHI  HZ I         541 40.09         2.3 0.39                           250 196 
 CHI  HE ES   2    542  6.39                             117    -0.8 4  250 196 
 HEL  HE ES   2    542 12.25                             114    -0.1 4  277 256 
 HEL  HZ I         542 19.78         5.6 0.36                           277 256 
 PRA  HZ EP   2    541 54.11                             106     0.5 3  394 210 
 PRA  HZ I         542 40.36         3.4 0.69                           394 210 
                                                                                
