 2016 12 7 0504 48.8 L   6.788 -73.130155.2  RSN  6 0.4 1.4LRSN                1
 GAP=139        0.98       5.1     4.5  6.6  0.2526E+01  0.6956E+01 -0.1484E+01E
 Epicentro: LOS SANTOS - SANTANDER                                             3
 ACTION:UPD 17-01-11 20:12 OP:rebc STATUS:               ID:20161207050448 L   I
 OLDACT:UP  16-12-07 16:42 OP:ar   STATUS:               ID:20161207045643     3
 OLDACT:REG 16-12-07 12:42 OP:ar   STATUS:               ID:20161207045643     3
 2016-12-07-0457-00M.COL___358                                                 6
 STAT SP IPHASW D HRMM SECON CODA AMPLIT PERI AZIMU VELO AIN AR TRES W  DIS CAZ7
 BAR2 EZ EP        5 5  9.48                             171   -0.0110 22.4 195 
 BAR2 EZ ES        5 5 25.51                             171   -0.1610 22.4 195 
 BRR  HZ EP        5 5 10.60                             153   -0.4410 73.3 299 
 BRR  HN ES        5 5 29.10                             153    0.6810 73.3 299 
 PAM  EZ EP        5 5 12.36                             152    0.3910 77.4  38 
 PAM  EN ES        5 5 29.65                             152   -0.4310 77.4  38 
 PAM  EZ I         5 5 31.28         2.3 0.16            155           77.4  38 
 RUS  HZ EP        5 5 13.85                             146    0.5110 99.1 177 
 RUS  HN ES        5 5 32.46                             146   -0.0510 99.1 177 
 RUS  HZ I         5 5 33.18         2.9 0.36            148           99.1 177 
 PTB  HZ EP        5 5 16.41                             134   -0.21 9  149 259 
 PTB  HE ES        5 5 38.01                             134   -0.35 9  149 259 
 PTB  HZ I         5 5 45.00         3.3 0.52            133            149 259 
 ZAR  HZ EP        5 5 21.74                             124   -0.29 8  206 292 
 ZAR  HN ES        5 5 48.31                             124    0.31 8  206 292 
 ZAR  HZ I         5 5 53.81         4.0 0.25            124            206 292 
                                                                                
