 2011 11 7 0149  1.6 L   6.579 -73.434124.2  RSN  7 0.4 1.7LRSN                1
 GAP=107        0.79       4.6     4.1  7.2  0.1626E+01  0.9870E+01 -0.4783E+01E
 Epicentro: HATO - SANTANDER                                                   3
 ACTION:UPD 12-07-13 16:08 OP:ep   STATUS:               ID:20111107014901 L   I
 2011-11-07-0147-13S.COL___175                                                 6
 STAT SP IPHASW D HRMM SECON CODA AMPLIT PERI AZIMU VELO AIN AR TRES W  DIS CAZ7
 BAR2 SZ EP   1    149 18.90                             167    0.17 7 27.8  87 
 BAR2 SZ ES   1    149 32.09                             167   -0.02 7 27.8  87 
 BAR2 SZ I         149 34.23        22.6 0.25                          27.8  87 
 BRR  HZ EP   1    149 20.34                             150    0.24 7 66.0 332 
 BRR  HZ I         149 28.55        21.8 0.12                          66.0 332 
 BRR  HN ES   1    149 35.07                             150    0.51 7 66.0 332 
 RUS  HZ EP   1    149 22.63                             144    0.54 7 85.3 153 
 RUS  HN ES   1    149 37.71                             144   -0.39 7 85.3 153 
 RUS  HZ I         149 40.35         4.6 0.19                          85.3 153 
 PAM  SZ EP   1    149 24.74                             134    0.12 7  117  44 
 PAM  SN ES   1    149 42.07                             134   -0.54 7  117  44 
 OCA  SZ EP   1    149 30.17                             120   -0.57 7  184   4 
 ZAR  HZ EP   1    149 31.32                             120    0.45 7  187 303 
 ZAR  HZ I         149 32.68         4.8 0.08                           187 303 
 ZAR  HN ES   1    149 53.56                             120   -0.17 7  187 303 
 HEL  HN ES   1    150  3.39                             114   -0.64 6  236 260 
 HEL  HZ I         150  9.78         2.7 0.26                           236 260 
                                                                                
