 2016 10 7 0935 26.8 L   6.814 -73.146144.0  RSN 14 0.4 2.2LRSN                1
 GAP=136        1.01       3.0     3.7  5.7 -0.2618E+01  0.7730E+01 -0.5077E+00E
 Epicentro: LOS SANTOS - SANTANDER                                             3
 ACTION:UPD 16-11-09 19:17 OP:rebc STATUS:               ID:20161007093526 L   I
 OLDACT:UP  16-10-07 17:21 OP:dani STATUS:               ID:20161007092745d    3
 OLDACT:DUP 16-10-07 17:12 OP:dani STATUS:               ID:20161007092745d    3
 2016-10-07-0928-00M.COL___339                                                 6
 STAT SP IPHASW D HRMM SECON CODA AMPLIT PERI AZIMU VELO AIN AR TRES W  DIS CAZ7
 BAR2 EZ EP        935 46.16                             170   -0.1110 24.9 189 
 BAR2 EZ ES        936  1.53                             170    0.0910 24.9 189 
 BAR2 EZ I         936  3.97        54.5 0.30            169           24.9 189 
 PAM  EZ EP        935 48.99                             151    0.2210 76.2  40 
 PAM  EN ES        936  6.10                             151    0.2010 76.2  40 
 PAM  EZ I         936  9.43        18.0 0.46            155           76.2  40 
 RUS  HZ EP        935 50.42                             143   -0.0910  102 176 
 RUS  HN ES        936  9.09                             143    0.1010  102 176 
 RUS  HZ I         936 10.04        16.8 0.40            147            102 176 
 PTB  HZ EP        935 53.01                             132   -0.66 9  148 258 
 PTB  HE ES        936 14.69                             132    0.08 9  148 258 
 PTB  HZ I         936 21.00        15.8 0.22            132            148 258 
 OCA  HZ EP        935 54.22                             130   -0.63 9  159 353 
 OCA  HE ES        936 16.72                             130    0.01 9  159 353 
 OCA  HZ I         936 24.67        36.4 0.22            132            159 353 
 SPBC HZ EP        935 55.13                             129   -0.16 9  164 219 
 SPBC HN ES        936 17.42                             129   -0.09 9  164 219 
 SPBC HZ I         936 24.88        27.2 0.26            130            164 219 
 ZAR  HZ EP        935 59.49                             122    0.40 9  203 292 
 ZAR  HE ES        936 24.37                             122    0.11 9  203 292 
 ZAR  HZ I         936 29.47        22.9 0.34            123            203 292 
 NOR  HE ES        936 30.02                             118   -0.38 8  236 234 
 CHI  HZ EP        936  4.46                             117   -0.12 8  250 195 
 CHI  HE ES        936 33.92                             117   -0.11 8  250 195 
 CHI  HZ I         936 37.27         8.2 0.40            120            250 195 
 ROSC BZ EP   9    936  6.37                             116    1.38 0  254 211 
 ROSC BN ES        936 37.00                             117    0.86 8  254 211 
 ROSC BZ I         936 40.82        24.4 0.45            119            254 211 
 HEL  HZ EP        936  8.24                             115    1.26 8  272 255 
 HEL  HN ES        936 38.49                             115    0.18 8  272 255 
 HEL  HZ I         936 45.31         4.2 0.20            116            272 255 
 GUY2CHZ EP        936 11.11                             112    0.67 7  302 235 
 GUY2CHE ES   4    936 43.63                             112   -0.84 0  302 235 
 GUY2CHZ I         936 52.38         8.6 0.34                           302 235 
 PTGC HZ EP   4    936  9.31                             111   -1.45 0  310 159 
 CBOC HN ES        936 49.54                             110   -0.75 7  334 252 
 CBOC HZ I         937  1.14         2.8 0.22            111            334 252 
 ANIL HE ES   4    936 57.75                             108    2.18 0  358 224 
 SJC  HZ EP   4    936 19.82                             106   -2.35 0  408 327 
 SJC  HN ES   4    937  1.65                             106   -3.69 0  408 327 
 SJC  HZ I         937 10.38         4.4 0.45            107            408 327 
 CRJC HZ EP   4    936 26.53                             103   -2.55 0  466   4 
                                                                                
