 2011 10 7 0745 47.7 L   6.779 -73.136144.6  RSN 17 0.4 3.2LRSN                1
 GAP=139        0.79       3.0     4.3  4.6 -0.4023E+01  0.5560E+01  0.2496E+01E
 Epicentro: LOS SANTOS - SANTANDER                                             3
 ACTION:UPD 12-07-13 16:02 OP:ep   STATUS:               ID:20111007074547 L   I
 2011-10-07-0740-00M.COL___172                                                 6
 STAT SP IPHASW D HRMM SECON CODA AMPLIT PERI AZIMU VELO AIN AR TRES W  DIS CAZ7
 BAR2 SZ EP        746  7.11                             171   -0.0210 21.2 194 
 BAR2 SZ ES   1    746 21.77                             171   -0.53 7 21.2 194 
 BAR2 SZ I         746 25.09       291.9 0.38                          21.2 194 
 GIR2 SZ EP        746  7.15                             166   -0.1310 33.8 349 
 GIR2 SZ ES   1    746 23.14                             166    0.57 7 33.8 349 
 BRR  HZ IP     C  746  8.93                             152    0.1110 73.3 300 
 BRR  HE ES   1    746 25.53                             152    0.22 7 73.3 300 
 BRR  HZ I         746 29.94       151.2 0.20                          73.3 300 
 PAM  SZ EP        746  9.84                             150    0.0010 78.6  38 
 PAM  SZ I         746 10.12       117.9 0.20                          78.6  38 
 PAM  SE ES   1    746 27.05                             150   -0.08 7 78.6  38 
 RUS  HZ EP        746 10.97                             144   -0.1710 98.1 177 
 RUS  HE ES   1    746 29.42                             144   -0.02 7 98.1 177 
 RUS  HZ I         746 32.55        91.0 0.34                          98.1 177 
 BRI  SZ EP        746 11.62                             141    0.0210  110  20 
 OCA  SZ EP        746 15.83                             129   -0.30 9  163 353 
 OCA  SZ ES   1    746 38.69                             129    0.36 7  163 353 
 OCA  SZ I         746 43.34       145.0 0.39                           163 353 
 ZAR  HZ EP   1    746 19.68                             122   -0.56 6  206 293 
 ZAR  HZ I         746 51.64       116.2 0.37                           206 293 
 NOR  SZ EP   1    746 22.89                             118   -0.39 6  234 235 
 NOR  SN ES   1    746 51.12                             118    0.06 6  234 235 
 CHI  HZ EP   1    746 25.01                             117   -0.08 6  247 196 
 CHI  HZ I         746 28.00        54.6 0.40                           247 196 
 ROSC BZ EP   1    746 26.69                             117    1.12 6  251 212 
 ROSC BZ I         747  5.15       181.8 0.40                           251 212 
 HEL  HZ EP   1    746 28.27                             114    0.39 6  273 256 
 HEL  HN ES   1    746 58.23                             114   -1.01 6  273 256 
 HEL  HZ I         747  6.10        97.9 0.31                           273 256 
 VIL  SZ EP   1    746 30.44                             112   -0.36 5  301 192 
 GUY  SZ EP   1    746 32.37                             112    0.93 5  303 236 
 GUY  SZ I         747 13.78       170.4 0.30                           303 236 
 RREF HZ EP        746 34.22                             111    0.53 7  321 230 
 PRA  HZ EP   1    746 40.47                             106   -0.51 4  390 210 
 PRA  HZ I         746 42.99       191.8 0.18                           390 210 
 PRA  HE ES   1    747 22.98                             106    0.43 4  390 210 
 PAL  HZ EP   2    746 42.29                             106   -0.47 3  405 239 
                                                                                
