 2017  4 7 0327 58.4 L   6.832 -73.113148.4  RSN  6 0.5 1.2LRSN                1
 GAP=139        0.76       4.0     4.0  6.3  0.2270E+01 -0.1040E+01  0.6785E+00E
 Epicentro: LOS SANTOS - SANTANDER                                             3
 ACTION:UPD 17-05-30 21:09 OP:jn   STATUS:               ID:20170407032758 L   I
 OLDACT:UP  17-04-07 15:09 OP:and  STATUS:               ID:20170407031743d    3
 OLDACT:UP  17-04-07 15:09 OP:and  STATUS:               ID:20170407031743d    3
 OLDACT:DUP 17-04-07 15:04 OP:and  STATUS:               ID:20170407031743d    3
 2017-04-07-0318-00M.COL___365                                                 6
 STAT SP IPHASW D HRMM SECON CODA AMPLIT PERI AZIMU VELO AIN AR TRES W  DIS CAZ7
 PAM  EZ IP     D  328 20.88                             153    0.3110 72.3  39 
 PAM  EN ES        328 37.65                             153   -0.2310 72.3  39 
 PAM  EZ I         328 38.58         2.7 0.26            155           72.3  39 
 BRR  HZ EP        328 20.06                             152    0.1710 72.9 295 
 BRR  HN ES        328 36.98                             152    0.3110 72.9 295 
 RUS  HZ EP        328 22.68                             143    0.0710  104 178 
 RUS  HN ES        328 41.18                             143   -0.3510  104 178 
 RUS  HZ I         328 42.85         1.2 0.38            142            104 178 
 PTB  HZ EP   9    328 25.43                             132   -0.50 0  152 258 
 PTB  HN ES        328 46.98                             132    0.05 9  152 258 
 PTB  HZ I         328 49.52         1.8 0.18            129            152 258 
 SPBC HE ES   3    328 51.81                             129    1.51 2  168 219 
 SPBC HZ I         328 54.71         2.0 0.14            127            168 219 
 ZAR  HZ EP   3    328 29.43                             122   -1.76 2  206 291 
 ZAR  HN ES        328 56.42                             122   -0.38 8  206 291 
 ZAR  HZ I         329  1.98         3.3 0.44            121            206 291 
                                                                                
