 2011 11 7 0921 52.6 L   6.761 -73.095142.5  RSN  5 0.3 1.4LRSN                1
 GAP=145        0.54       2.9     6.1  5.5  0.1247E+01 -0.5410E+01 -0.2783E+01E
 Epicentro: LOS SANTOS - SANTANDER                                             3
 ACTION:UPD 12-07-13 16:08 OP:ep   STATUS:               ID:20111107092152 L   I
 2011-11-07-0920-42S.COL___175                                                 6
 STAT SP IPHASW D HRMM SECON CODA AMPLIT PERI AZIMU VELO AIN AR TRES W  DIS CAZ7
 BAR2 SZ EP   1    922 11.40                             171   -0.43 7 21.1 207 
 BAR2 SZ ES   1    922 26.42                             171   -0.38 7 21.1 207 
 BAR2 SZ I         922 28.11        12.7 0.24                          21.1 207 
 PAM  SZ EP   1    922 14.70                             150    0.19 7 77.4  34 
 PAM  SZ I         922 15.11         4.0 0.17                          77.4  34 
 PAM  SN ES   1    922 31.71                             150    0.14 7 77.4  34 
 BRR  HN ES   1    922 30.70                             150    0.30 7 78.2 299 
 RUS  HZ EP   1    922 15.85                             144    0.11 7 96.1 179 
 RUS  HN ES   1    922 33.97                             144    0.20 7 96.1 179 
 RUS  HZ I         922 35.26         2.4 0.25                          96.1 179 
 OCA  SZ EP   1    922 21.15                             128   -0.02 7  165 351 
 OCA  SZ ES   1    922 43.27                             128   -0.16 7  165 351 
                                                                                
