 2016  6 7 0911 25.7 L   6.814 -73.194144.3  RSN 13 0.4 2.2LRSN                1
 GAP=130        0.89       2.8     4.0  5.3 -0.3486E+01  0.6332E+01  0.1206E+01E
 Epicentro: ZAPATOCA - SANTANDER                                               3
 ACTION:UPD 16-07-21 22:16 OP:rebc STATUS:               ID:20160607091125 L   I
 OLDACT:UP  16-06-07 18:21 OP:dani STATUS:               ID:20160607090740     3
 OLDACT:UP  16-06-07 18:21 OP:dani STATUS:               ID:20160607090740     3
 OLDACT:REG 16-06-07 13:42 OP:dani STATUS:               ID:20160607090740     3
 2016-06-07-0907-40M.COL___319                                                 6
 STAT SP IPHASW D HRMM SECON CODA AMPLIT PERI AZIMU VELO AIN AR TRES W  DIS CAZ7
 BAR2 EZ EP        911 45.13                             170   -0.0110 24.5 177 
 BAR2 EZ ES        911 59.83                             170   -0.5110 24.5 177 
 BAR2 EZ I         912  1.35        61.0 0.36                          24.5 177 
 BRR  HZ EP        911 46.96                             154    0.6010 65.8 300 
 BRR  HE ES   4    912  4.05                             154    1.55 0 65.8 300 
 BRR  HZ I         912  8.46        25.6 0.26                          65.8 300 
 PAM  EZ EP        911 48.10                             150    0.2310 79.8  43 
 PAM  EN ES        912  5.50                             150    0.3110 79.8  43 
 PAM  EZ I         912  7.63        30.6 0.62                          79.8  43 
 RUS  HZ EP        911 49.35                             143   -0.0710  103 173 
 RUS  HE ES        912  7.84                             143   -0.1110  103 173 
 RUS  HZ I         912  8.62        13.6 0.24                           103 173 
 PTB  HZ EP        911 52.01                             133   -0.06 9  143 258 
 PTB  HN ES        912 12.87                             133    0.21 9  143 258 
 PTB  HZ I         912 18.52        21.2 0.14                           143 258 
 OCA  HZ EP        911 53.22                             130   -0.45 9  158 355 
 OCA  HN ES        912 15.44                             130   -0.07 9  158 355 
 OCA  HZ I         912 19.03        41.1 0.20                           158 355 
 SPBC HZ EP        911 52.92                             129   -0.93 9  161 217 
 SPBC HE ES        912 16.17                             129    0.33 9  161 217 
 SPBC HZ I         912 20.42        18.9 0.20                           161 217 
 CHI  HZ EP        912  3.70                             117    0.40 8  249 194 
 CHI  HN ES        912 32.81                             117    0.16 8  249 194 
 CHI  HZ I         912 36.12         5.4 0.64                           249 194 
 HEL  HZ EP   4    912  7.20                             115    1.92 0  267 255 
 HEL  HE ES        912 35.99                             115   -0.18 8  267 255 
 HEL  HZ I         912 44.35         6.8 0.30                           267 255 
 URE  HZ EP   4    912  5.29                             114   -0.76 0  278 292 
 URE  HN ES   4    912 36.10                             114   -1.45 0  278 292 
 PTGC HZ EP   4    912  8.26                             111   -1.58 0  312 158 
 PTGC HN ES   4    912 41.62                             111   -2.68 0  312 158 
 PTGC HZ I         912 43.01         4.7 0.34                           312 158 
 PRA  HZ EP        912 18.84                             106   -0.15 6  391 209 
 PRA  HE ES        913  0.88                             106    0.30 6  391 209 
 PRA  HZ I         913  6.41         8.5 0.30                           391 209 
 ORTC HZ EP        912 19.50                             106    0.18 6  394 215 
 ORTC HN ES   4    913  2.24                             106    1.08 0  394 215 
 ORTC HZ I         913  8.77         3.3 0.60                           394 215 
 SJC  HZ EP   4    912 19.02                             106   -1.67 0  405 327 
 SJC  HN ES   4    913  0.46                             106   -3.15 0  405 327 
 SJC  HZ I         913  8.32         3.6 0.20                           405 327 
                                                                                
