 2017  4 7 0157 54.7 L   6.752 -73.135148.0  RSN  6 0.3 1.2LRSN                1
 GAP=140        0.61       4.1     4.1  5.8  0.4509E+01  0.5609E+01 -0.5441E+01E
 Epicentro: LOS SANTOS - SANTANDER                                             3
 ACTION:UPD 17-05-30 21:09 OP:jn   STATUS:               ID:20170407015754 L   I
 OLDACT:UP  17-04-07 14:18 OP:and  STATUS:               ID:20170407014453d    3
 OLDACT:UP  17-04-07 14:18 OP:and  STATUS:               ID:20170407014453d    3
 OLDACT:UP  17-04-07 14:18 OP:and  STATUS:               ID:20170407014453d    3
 OLDACT:UP  17-04-07 14:18 OP:and  STATUS:               ID:20170407014453d    3
 OLDACT:DUP 17-04-07 14:14 OP:and  STATUS:               ID:20170407014453d    3
 OLDACT:DUP 17-04-07 14:06 OP:and  STATUS:               ID:20170407014451d    3
 2017-04-07-0148-00M.COL___368                                                 6
 STAT SP IPHASW D HRMM SECON CODA AMPLIT PERI AZIMU VELO AIN AR TRES W  DIS CAZ7
 BAR2 EZ EP        158 14.47                             172   -0.0510 18.5 197 
 BAR2 EZ ES        158 29.93                             172   -0.0510 18.5 197 
 PAM  EZ IP   2 D  158 17.83                             150    0.46 5 80.8  36 
 RUS  HZ EP        158 18.36                             146    0.0510 95.3 177 
 RUS  HN ES        158 36.58                             146   -0.1410 95.3 177 
 RUS  HZ I         158 37.71         3.0 0.30            146           95.3 177 
 PTB  HZ EP        158 21.53                             132   -0.36 9  148 261 
 PTB  HN ES   3    158 41.89                             132   -1.19 2  148 261 
 PTB  HZ I         158 45.75         1.7 0.28            132            148 261 
 SPBC HN ES        158 45.58                             130    0.38 9  160 221 
 ZAR  HN ES        158 53.48                             122    0.18 8  207 293 
                                                                                
