 2017 10 7 0942 13.3 L   6.855 -73.170142.5  RSN 14 0.5 2.1LRSN                1
 GAP= 93        0.96       3.3     3.1  5.5  0.1855E+01  0.4383E+01 -0.2362E+01E
 Epicentro: ZAPATOCA - SANTANDER                                               3
 ACTION:UPD 17-11-07 19:29 OP:rebc STATUS:               ID:20171007094213 L   I
 OLDACT:UP  17-10-07 17:34 OP:dhb  STATUS:               ID:20171007093747     3
 OLDACT:REG 17-10-07 13:16 OP:dhb  STATUS:               ID:20171007093747     3
 2017-10-07-0938-00M.COL___429                                                 6
 STAT SP IPHASW D HRMM SECON CODA AMPLIT PERI AZIMU VELO AIN AR TRES W  DIS CAZ7
 BAR2 EZ EP        942 32.69                             168    0.0410 29.1 183 
 BAR2 EZ ES        942 47.98                             168    0.2210 29.1 183 
 BAR2 EZ I         942 48.65        50.3 0.32            161           29.1 183 
 RUS  HZ EP        942 36.94                             142   -0.2510  107 175 
 RUS  HN ES        942 55.30                             142   -0.5310  107 175 
 RUS  HZ I         942 56.93        21.3 0.54            132            107 175 
 TAM  HZ EP        942 41.05                             129   -0.06 9  159 107 
 TAM  HE ES        943  2.82                             129    0.01 9  159 107 
 SPBC HZ EP        942 41.64                             128   -0.20 9  166 217 
 SPBC HN ES        943  4.04                             128   -0.06 9  166 217 
 SPBC HZ I         943  8.56        21.2 0.25            119            166 217 
 YPLC HZ IP     D  942 43.22                             125   -0.29 9  183 151 
 YPLC HN ES        943  7.58                             125    0.50 9  183 151 
 YPLC HZ I         943 10.42         6.4 0.28            117            183 151 
 ZAR  HZ EP        942 45.63                             122    0.61 9  199 291 
 ZAR  HE ES        943 10.56                             122    0.78 9  199 291 
 ZAR  HZ I         943 15.91        15.1 0.20            115            199 291 
 NOR  HZ EP        942 49.11                             118    0.13 8  236 233 
 NOR  HN ES        943 16.53                             118   -0.29 8  236 233 
 NOR  HZ I         943 20.71         8.4 0.18            110            236 233 
 CHI  HZ EP        942 51.24                             116   -0.14 8  254 194 
 CHI  HE ES        943 20.76                             116   -0.32 8  254 194 
 CHI  HZ I         943 24.78         8.5 0.34            109            254 194 
 URE  HZ EP        942 53.05                             113   -0.61 7  279 291 
 URE  HN ES   2    943 23.77                             113   -1.38 4  279 291 
 GUY2CHZ EP        942 57.92                             112    1.02 7  303 234 
 GUY2CHE ES   4    943 33.64                             112    2.72 0  303 234 
 GUY2CHZ I         943 40.49         7.1 0.28                           303 234 
 PRA  HZ EP        943  6.91                             106   -0.25 6  396 209 
 PRA  HE ES        943 49.13                             106   -0.06 6  396 209 
 PRA  HZ I         943 53.15         6.8 0.48            100            396 209 
 ORTC HZ EP        943  8.31                             106    0.82 6  399 215 
 ORTC HZ I         943 55.61         3.0 0.19            100            399 215 
 SJC  HZ EP   2    943  6.83                             105   -1.13 3  403 327 
 SJC  HN ES        943 50.02                             105   -0.59 6  403 327 
 SJC  HZ I         943 52.43         2.4 0.26            100            403 327 
 URI  HZ EP        943 26.20                             100    0.62 4  551  13 
 URI  HN ES   4    944 31.29                             100    9.33 0  551  13 
 URI  HZ I         944 34.45         0.9 0.38             96            551  13 
                                                                                
