 2015  2 7 0126 47.1 L   6.801 -73.153141.0  RSN 21 0.6 2.1LRSN                1
 GAP= 71        1.41       3.2     3.9  6.2 -0.1939E+01  0.6842E+01  0.3098E+01E
 Epicentro: LOS SANTOS - SANTANDER                                             3
 ACTION:UPD 15-04-30 21:23 OP:nd   STATUS:               ID:20150207012647 L   I
 OLDACT:REG 15-02-07 12:27 OP:stll STATUS:               ID:20150207011743     3
 2015-02-07-0117-43M.COL___293                                                 6
 STAT SP IPHASW D HRMM SECON CODA AMPLIT PERI AZIMU VELO AIN AR TRES W  DIS CAZ7
 BAR2 EZ EP        127  6.30                             170    0.1110 23.3 188 
 BAR2 EZ ES        127 20.67                             170   -0.3810 23.3 188 
 BAR2 EZ I         127 22.83        70.1 0.16            167           23.3 188 
 BRR  HZ IP     D  127  8.12                             152    0.3910 70.4 299 
 BRR  HN ES        127 25.14                             152    1.3610 70.4 299 
 BRR  HZ I         127 29.41        21.8 0.28            143           70.4 299 
 PAM  SZ IP     D  127  9.06                             150    0.1810 77.9  40 
 PAM  SZ I         127  9.39        39.5 0.24            148           77.9  40 
 PAM  SN ES        127 26.29                             150    0.4610 77.9  40 
 RUS  HZ EP        127 10.16                             143   -0.2810  101 176 
 RUS  HE ES        127 28.09                             143   -0.5110  101 176 
 RUS  HZ I         127 30.13        23.8 0.22            139            101 176 
 PTB  HZ EP        127 12.80                             131   -0.84 9  147 259 
 PTB  HN ES        127 33.21                             131   -1.11 9  147 259 
 PTB  HZ I         127 37.43        16.2 0.38            123            147 259 
 TAM  HZ EP     D  127 14.50                             129   -0.02 9  156 105 
 TAM  HZ I         127 14.66        10.3 0.36            127            156 105 
 TAM  HN ES        127 35.77                             129   -0.11 9  156 105 
 OCA  HZ EP        127 15.02                             128   -0.04 9  160 353 
 OCA  HN ES        127 37.23                             128    0.39 9  160 353 
 OCA  HZ I         127 39.66        14.9 0.24            123            160 353 
 SPBC HZ EP        127 15.24                             128    0.01 9  163 219 
 SPBC HN ES        127 37.02                             128   -0.12 9  163 219 
 SPBC HZ I         127 38.49        32.3 0.26            122            163 219 
 ZAR  HZ EP        127 18.88                             121   -0.31 9  203 292 
 ZAR  HN ES        127 44.15                             121   -0.04 9  203 292 
 ZAR  HZ I         127 49.58        18.6 0.42            115            203 292 
 NOR  HZ EP        127 22.27                             117   -0.26 8  234 234 
 NOR  HE ES        127 49.80                             117   -0.33 8  234 234 
 NOR  HZ I         127 54.84        11.9 0.22            112            234 234 
 SML  HZ EP        127 22.97                             116   -0.48 8  243 335 
 SML  HN ES        127 50.80                             116   -0.97 8  243 335 
 CHI  HZ EP        127 24.28                             116   -0.28 8  249 195 
 CHI  HZ I         127 24.61         7.6 0.40            112            249 195 
 CHI  HN ES        127 53.31                             116   -0.44 8  249 195 
 ROSC BZ EP        127 25.79                             116    0.83 8  252 211 
 ROSC BN ES        127 55.54                             116    1.08 8  252 211 
 ROSC BZ I         128  0.47        17.3 0.50            111            252 211 
 HEL  HZ EP        127 27.61                             114    0.59 8  271 256 
 HEL  HZ I         128  7.98         4.7 0.34            109            271 256 
 GUY2CHZ EP        127 30.77                             111    0.31 7  301 235 
 GUY2CHN ES        128  3.94                             111   -0.30 7  301 235 
 GUY2CHZ I         128 18.53         6.5 0.50                           301 235 
 SOCV BZ EP   9    127 28.71                             111   -1.34 0  302  57 
 SOCV BN ES        128  1.00                                   -1.18 7  302  57 
 CBOC HZ EP        127 33.72                             109   -0.05 7  333 252 
 CBOC HZ I         128 21.13         2.6 0.28            104            333 252 
 TOL  SZ EP        127 35.65                             108    0.50 7  343 225 
 TOL  SN ES        128 13.06                             108    0.47 7  343 225 
 ANIL HZ EP        127 38.01                             108    1.31 6  357 224 
 ANIL HN ES        128 16.55                             108    1.19 6  357 224 
 ANIL HZ I         128 22.74         1.8 0.34            104            357 224 
 ORTC HZ EP        127 40.12                             106   -0.73 6  395 216 
 ORTC HE ES        128 21.66                             106   -1.08 6  395 216 
 ORTC HZ I         128 29.25         4.6 0.56            102            395 216 
 CRJC HZ EP   9    127 46.36                             103   -3.14 0  468   4 
 CRJC HN ES        128 34.26                                   -0.74 5  468   4 
                                                                                
