 2013  4 7 0804 37.5 L   6.792 -73.156144.4  RSN  5 0.3 1.5LRSN                1
 GAP=236        0.67       4.3     5.6  7.4  0.1546E+02  0.8385E+01  0.7358E+01E
 Epicentro: LOS SANTOS - SANTANDER                                             3
 ACTION:UPD 13-05-22 14:36 OP:EP   STATUS:               ID:20130407080437 L   I
 2013-04-07-0800-00M.COL___245                                                 6
 STAT SP IPHASW D HRMM SECON CODA AMPLIT PERI AZIMU VELO AIN AR TRES W  DIS CAZ7
 BRR  HZ EP   1    8 4 58.71                             152    0.25 7 70.6 300 
 BRR  HN ES        8 5 14.94                             152    0.1210 70.6 300 
 BRR  HN I         8 5 19.72         7.6 0.16            151           70.6 300 
 RUS  HZ EP   1    8 5  0.68                             144   -0.38 7 99.8 175 
 RUS  HN ES        8 5 19.41                             144   -0.0310 99.8 175 
 RUS  HN I         8 5 21.34         4.2 0.50            144           99.8 175 
 PTB  HZ EP   1    8 5  3.99                             132   -0.24 7  146 259 
 PTB  HN ES        8 5 24.69                             132   -0.40 9  146 259 
 PTB  HN I         8 5 25.79         3.5 0.32            131            146 259 
 ZAR  HN ES        8 5 35.19                             122    0.24 9  203 292 
 ZAR  HN I         8 5 42.47         3.5 0.14            122            203 292 
 CHI  HE ES        8 5 44.70                             117    0.45 8  248 195 
 CHI  HE I         8 5 49.88         1.8 0.34            117            248 195 
                                                                                
