 2012  8 7 0040 56.9 L   6.749 -73.140141.2  RSN 12 0.4 2.5LRSN                1
 GAP= 73        0.97       3.8     3.8  5.4 -0.1593E+01  0.3083E+01  0.5264E+01E
 Epicentro: LOS SANTOS - SANTANDER                                             3
 ACTION:UPD 12-09-10 11:54 OP:ep   STATUS:               ID:20120807004056 L   I
 2012-08-07-0040-00M.COL___216                                                 6
 STAT SP IPHASW D HRMM SECON CODA AMPLIT PERI AZIMU VELO AIN AR TRES W  DIS CAZ7
 BAR2 SZ IP        041 16.14                             172    0.2310 17.9 195 
 BAR2 SZ ES        041 29.98                             172   -0.7410 17.9 195 
 BAR2 SZ I         041 33.99        72.3 0.37                          17.9 195 
 BRR  HZ IP     C  041 18.09                             150    0.3010 74.6 302 
 BRR  HN ES        041 34.92                             150    0.8710 74.6 302 
 BRR  HZ I         041 36.54        49.5 0.32                          74.6 302 
 PAM  SZ EP        041 19.01                             149    0.1010 81.4  37 
 PAM  SN ES        041 35.85                             149   -0.2110 81.4  37 
 RUS  HZ EP        041 20.01                             144    0.1910 94.9 176 
 RUS  HE ES   1    041 37.77                             144    0.09 7 94.9 176 
 PTB  HZ EP        041 22.85                             131   -0.64 9  147 261 
 PTB  HN ES   1    041 43.71                             131   -0.50 7  147 261 
 PTB  HZ I         041 48.53        23.0 0.11                           147 261 
 TAM  HZ EP        041 24.28                             130    0.22 9  153 103 
 OCA  HZ EP   1    041 24.60                             127   -0.83 7  166 353 
 OCA  HZ I         041 50.47        58.9 0.26                           166 353 
 ZAR  HZ EP   1    041 29.89                             121    0.52 6  207 294 
 ZAR  HN ES   1    041 54.62                             121   -0.05 6  207 294 
 ZAR  HZ I         042  0.15        43.6 0.46                           207 294 
 NOR  SZ EP        041 32.07                             118   -0.03 8  232 236 
 NOR  SN ES   1    041 59.70                             118    0.16 6  232 236 
 CHI  HZ EP   1    041 33.77                             117   -0.03 6  243 196 
 CHI  HN ES   1    042  2.93                             117    0.37 6  243 196 
 CHI  HZ I         042  9.56        12.8 0.34                           243 196 
 HEL  HZ EP   1    041 36.44                             114   -0.39 6  271 257 
 HEL  HZ I         042 17.67        13.9 0.41                           271 257 
 PRA  HZ EP        041 49.69                             106   -0.06 6  387 210 
 PRA  HN ES   1    042 31.01                             106    0.05 4  387 210 
                                                                                
