 2017  8 7 0259 17.1 L   5.981 -73.580122.3  RSN 11 0.4 1.4LRSN                1
 GAP= 71        0.86       2.4     2.3  4.8  0.4504E+00  0.3091E+01  0.8999E+00E
 Epicentro: GUEPSA - SANTANDER                                                 3
 ACTION:UPD 17-09-04 20:17 OP:rebc STATUS:               ID:20170807025917 L   I
 OLDACT:REG 17-08-07 12:18 OP:dhb  STATUS:               ID:20170807025737     3
 2017-08-07-0258-00M.COL___393                                                 6
 STAT SP IPHASW D HRMM SECON CODA AMPLIT PERI AZIMU VELO AIN AR TRES W  DIS CAZ7
 RUS  HZ IP     C  259 35.98                             154    0.3710 55.9 100 
 RUS  HE ES        259 50.28                             154    0.2610 55.9 100 
 RUS  HZ I         259 51.56         5.0 0.34            156           55.9 100 
 SPBC HZ IP     D  259 35.53                             150   -0.0510 65.5 236 
 SPBC HE ES        259 49.83                             150   -0.1410 65.5 236 
 SPBC HZ I         259 52.14        13.2 0.10            152           65.5 236 
 BAR2 EZ EP        259 36.27                             145   -0.5210 80.6  33 
 BAR2 EZ ES        259 52.52                             145    0.4010 80.6  33 
 PTB  HZ EP   2    259 38.19                             134   -1.04 5  115 303 
 PTB  HN ES        259 56.39                             134   -0.0710  115 303 
 PTB  HZ I         259 57.72         4.0 0.18            136            115 303 
 BRR  HZ IP     C  259 40.22                             131    0.0810  125 353 
 BRR  HN ES        259 58.10                             131    0.0110  125 353 
 BRR  HZ I         3 0  2.56         3.4 0.23            133            125 353 
 YPLC HZ IP     D  259 42.69                             126    0.30 9  148 116 
 YPLC HE ES        3 0  1.38                             126   -0.70 9  148 116 
 YPLC HZ I         3 0  5.88         4.4 0.30            128            148 116 
 NOR  HZ IP     C  259 42.42                             126   -0.16 9  150 252 
 NOR  HE ES        3 0  2.69                             126    0.26 9  150 252 
 NOR  HZ I         3 0  4.16         4.9 0.26            128            150 252 
 CHI  HZ EP        259 43.10                             126    0.01 9  150 186 
 CHI  HN ES        3 0  3.22                             126   -0.12 9  150 186 
 CHI  HZ I         3 0  4.99         1.6 0.18            128            150 186 
 GUY2CHZ EP        259 50.61                             116    0.67 8  215 247 
 GUY2CHE ES   2    3 0 15.32                             116   -0.21 4  215 247 
 GUY2CHZ I         3 0 22.34         2.3 0.30                           215 247 
 ZAR  HZ EP        259 49.85                             115    0.06 8  219 320 
 ZAR  HN ES        3 0 14.92                             115   -0.35 8  219 320 
 ZAR  HZ I         3 0 16.86         2.1 0.11            117            219 320 
 CBOC HZ EP        259 56.15                             110    0.41 8  270 267 
 CBOC HN ES        3 0 25.48                             110   -0.37 8  270 267 
 CBOC HZ I         3 0 27.61         1.3 0.52            111            270 267 
                                                                                
