 2010  8 7 0259 43.8 L   6.810 -73.020145.0  RSN  5 0.4 1.4LRSN                1
 GAP=173        0.67       6.7    11.5 10.2  0.1078E+02 -0.3864E+02 -0.2011E+02E
 Epicentro: CEPITA - SANTANDER                                                 3
 ACTION:UP  10-09-07 10:52 OP:vdl  STATUS:               ID:20100807025943 L   I
 2010-08-07-0257-02S.COL___125                                                 6
 STAT SP IPHASW D HRMM SECON CODA AMPLIT PERI AZIMU VELO SNR AR TRES W  DIS CAZ7
 BAR2 SZ EP   3    3 0  3.42                             170    -0.1 2   30 217 
 BAR2 SZ ES   3    3 0 18.55                             170    -0.3 2   30 217 
 BAR2 SZ I         3 0 21.21         6.6 0.30                            30 217 
 BTL  SZ EP        3 0  3.42                             170    -0.110   30 294 
 BTL  SZ ES   2    3 0 18.65                             170    -0.2 5   30 294 
 BRR  HZ EP        3 0  5.31                             150    -0.310   83 293 
 BRR  HN ES   2    3 0 23.10                             150     0.5 5   83 293 
 BRR  HZ I         3 0 26.52         6.0 0.09                            83 293 
 RUS  HZ EP   2    3 0  7.76                             144     0.2 5  102 184 
 RUS  HN ES   2    3 0 26.17                             144     0.1 5  102 184 
 RUS  HZ I         3 0 27.11         2.9 0.31                           102 184 
 GRA  SZ EP   1    3 0  9.16                             137     0.6 7  121  11 
 GRA  SZ ES   3    3 0 26.83                                    -1.1 2  121  11 
 GRA  SZ I         3 0 33.71         2.9 0.29                           121  11 
                                                                                
