 2017  9 7 0248 50.2 L   7.034 -73.353118.1  RSN  5 0.5 1.1LRSN                1
 GAP=143        1.22       6.5     7.4 13.5 -0.6552E+01  0.1543E+02  0.3249E+02E
 Epicentro: BETULIA - SANTANDER                                                3
 ACTION:UPD 17-10-05 19:09 OP:rebc STATUS:               ID:20170907024849 L   I
 OLDACT:UP  17-09-08 15:19 OP:nlst STATUS:               ID:20170907024849 L   3
 OLDACT:DUP 17-09-07 13:16 OP:dnl  STATUS:               ID:20170907023741d    3
 2017-09-07-0238-00M.COL___420                                                 6
 STAT SP IPHASW D HRMM SECON CODA AMPLIT PERI AZIMU VELO AIN AR TRES W  DIS CAZ7
 BRR  HZ IP     C  249  6.39                             160   -0.3310 40.5 282 
 BRR  HE ES        249 19.34                             160   -0.2810 40.5 282 
 BRR  HZ I         249 19.95         5.9 0.14            162           40.5 282 
 BAR2 EZ EP   2    249  7.68                             154    0.05 5 52.3 159 
 BAR2 EZ ES        249 21.22                             154   -0.0210 52.3 159 
 BAR2 EZ I         249 22.14         5.4 0.14            152           52.3 159 
 PAM  EN ES        249 25.47                             144    0.5410 79.7  65 
 RUS  HZ EP   2    249 13.25                             129   -0.67 5  130 167 
 RUS  HN ES        249 31.82                             129   -0.6110  130 167 
 RUS  HZ I         249 35.81         0.9 0.20            128            130 167 
 SPBC HE ES        249 40.10                             120    0.99 9  172 208 
                                                                                
