 2010  4 7 0712 52.5 L   6.824 -73.040150.3  RSN  8 0.4 2.4LRSN                1
 GAP=162        0.82       5.4     7.5  8.2 -0.2375E+02 -0.2871E+02  0.2467E+02E
 Epicentro: CEPITA - SANTANDER                                                 3
 ACTION:UPD 10-08-24 09:58 OP:vdl  STATUS:               ID:20100407071252 L   I
 2010-04-07-0711-24S.COL___097                                                 6
 STAT SP IPHASW D HRMM SECON CODA AMPLIT PERI AZIMU VELO AIN AR TRES W  DIS CAZ7
 BAR2 SZ IP        713 12.35                                    -0.410   30 212 
 BRR  HZ EP        713 14.45                             153    -0.210   81 293 
 BRR  HE ES        713 32.21                             153     0.310   81 293 
 BRR  HZ I         713 33.26        23.0 0.14                            81 293 
 OCA  SZ EP        713 20.84                             133    -0.2 9  159 349 
 OCA  SZ ES   1    713 43.57                             133     0.2 7  159 349 
 OCA  SZ I         713 47.54        43.1 0.30                           159 349 
 ROSC BZ EP        713 32.46                             117     0.7 8  261 213 
 ROSC BE ES   2    714  2.12                             117    -0.3 4  261 213 
 ROSC BZ I         714  6.47        10.6 0.57                           261 213 
 HEL  HZ EP        713 34.29                             116     0.1 7  284 256 
 HEL  HN ES   2    714  6.01                             116    -0.8 4  284 256 
 HEL  HZ I         714 10.46        10.3 0.31                           284 256 
 RREF BZ EP        713 39.71                             112    -0.3 7  332 230 
 RREF BN ES   2    714 17.31                             112     0.2 3  332 230 
 RREF BZ I         714 24.00        13.3 0.41                           332 230 
 SDV  BZ EP        713 41.81                             110     0.4 6  350  49 
 PRA  HZ EP   2    713 47.12                             107     0.0 3  400 211 
 PRA  HE ES   2    714 30.19                             107     0.5 3  400 211 
 PRA  HZ I         714 33.86        11.6 0.34                           400 211 
                                                                                
