 2015  5 7 0840 40.1 L   6.811 -73.103145.2  RSN 28 0.6 3.1LRSN                1
 GAP= 56        1.23       2.4     3.1  5.0 -0.1553E+01  0.2786E+01  0.2902E+00E
 Epicentro: LOS SANTOS - SANTANDER                                             3
 ACTION:UPD 15-09-10 22:02 OP:cam  STATUS:               ID:20150507084040 L   I
 OLDACT:REG 15-05-07 14:41 OP:ar   STATUS:               ID:20150507083751d    3
 2015-05-07-0837-49M.COL___285                                                 6
 STAT SP IPHASW D HRMM SECON CODA AMPLIT PERI AZIMU VELO AIN AR TRES W  DIS CAZ7
 BAR2 EZ IP     C  840 59.68                             170   -0.0210 25.8 200 
 BAR2 EZ ES        841 14.27                             170   -0.7310 25.8 200 
 BAR2 EZ I         841 15.43       155.4 0.32            168           25.8 200 
 PAM  SZ EP        841  2.61                             152    0.6010 73.5  37 
 PAM  SN ES        841 19.55                             152    0.4310 73.5  37 
 PAM  SZ I         841 21.49       438.9 0.54            147           73.5  37 
 BRR  HZ EP     D  841  1.57                             151    0.1910 74.8 296 
 BRR  HE ES        841 18.42                             151    0.4210 74.8 296 
 BRR  HZ I         841 22.21       178.3 0.50            146           74.8 296 
 RUS  HZ EP     C  841  3.67                             143   -0.1910  102 179 
 RUS  HN ES        841 22.07                             143   -0.3310  102 179 
 TAM  HZ IP     C  841  8.04                             131    0.71 9  151 106 
 TAM  HN ES        841 29.53                             131    0.95 9  151 106 
 OCA  HZ IP     D  841  7.98                             130   -0.32 9  160 351 
 OCA  HE ES        841 29.77                             130   -0.53 9  160 351 
 OCA  HZ I         841 33.73       382.9 0.22            124            160 351 
 SPBC HZ EP     D  841  8.74                             128   -0.18 9  167 220 
 SPBC HN ES        841 30.94                             128   -0.47 9  167 220 
 SPBC HZ I         841 35.94       157.6 0.34            123            167 220 
 ZAR  HZ EP        841 12.59                             122   -0.31 8  208 291 
 ZAR  HE ES        841 39.24                             122    0.74 8  208 291 
 ZAR  HZ I         841 43.62       133.3 0.30            116            208 291 
 NOR  HZ EP        841 16.25                             118   -0.02 8  239 235 
 NOR  HN ES        841 43.88                             118   -0.62 8  239 235 
 NOR  HZ I         841 48.64        64.9 0.32            113            239 235 
 SML  HZ EP        841 15.96                             117   -0.82 8  245 334 
 SML  HE ES        841 46.11                             117    0.72 8  245 334 
 SML  HZ I         841 47.88       121.1 0.20            112            245 334 
 CHI  HZ EP        841 17.91                             117   -0.11 8  251 196 
 CHI  HE ES        841 47.40                             117   -0.21 8  251 196 
 CHI  HZ I         841 51.31        42.7 0.44            112            251 196 
 ROSC BZ EP        841 19.70                             116    1.14 8  256 212 
 ROSC BN ES        841 48.97                             116    0.40 8  256 212 
 ROSC BZ I         841 55.70       108.9 0.50            112            256 212 
 HEL  HZ EP        841 20.67                             114   -0.14 7  277 256 
 HEL  HN ES     D  841 51.92                             114   -0.66 7  277 256 
 HEL  HZ I         841 56.63        48.5 0.28            109            277 256 
 URE  HZ EP   4    841 20.14                             113   -1.43 0  288 291 
 URE  HN ES   4    841 52.02                             113   -1.90 0  288 291 
 URE  HZ I         842  4.49        83.4 0.22            108            288 291 
 VIL  SZ EP        841 23.20                             112   -0.53 7  306 192 
 VIL  SE ES        841 57.60                             112   -0.17 7  306 192 
 VIL  SZ I         842  7.00        51.5 0.32            107            306 192 
 GUY2CHZ EP        841 24.67                             112    0.48 7  306 235 
 GUY2CHE ES   1    841 58.25                             112   -0.33 5  306 235 
 GUY2CHZ I         842  4.53        50.6 0.26                           306 235 
 LL2C HZ EP        841 23.40                             112   -0.16 7  306 353 
 LL2C HN ES   4    841 59.80                             112    2.33 0  306 353 
 LL2C HZ I         842  5.61       100.7 0.20            107            306 353 
 PTGC HZ EP     D  841 22.89                             111   -0.97 7  308 160 
 PTGC HE ES   4    841 56.43                             111   -1.57 0  308 160 
 PTGC HZ I         841 58.32        80.7 0.34            107            308 160 
 LL4C HZ EP        841 25.87                             110    0.36 7  323 351 
 RREF HZ EP   4    841 27.80                             110    1.09 0  326 230 
 RREF HN ES   4    842  4.75                             110    1.68 0  326 230 
 RREF HZ I         842  7.43        20.3 0.32            106            326 230 
 CBOC HZ EP        841 27.89                             109    0.35 7  338 252 
 CBOC HE ES        842  4.05                             109   -0.50 7  338 252 
 CBOC HZ I         842  7.40        19.3 0.60            105            338 252 
 SDV  BZ EP        841 29.53                             108   -0.06 6  356  50 
 SDV  BN ES        842  6.64                             108   -1.57 6  356  50 
 SDV  BZ I         842  8.85        38.8 0.40            104            356  50 
 MON  HZ EP   4 C  841 27.60                             108   -1.81 0  357 308 
 MON  HN ES   4    842  6.26                             108   -1.62 0  357 308 
 MON  HZ I         842  6.62        50.3 0.18            104            357 308 
 ARGC HZ EP   4    841 31.10                             108    1.33 0  360 340 
 ARGC HE ES        842  8.97                             108    0.44 6  360 340 
 ARGC HZ I         842 19.52        18.2 0.46            104            360 340 
 ANIL HZ EP        841 31.24                             108    0.89 6  362 225 
 ANIL HE ES        842  9.84                             108    0.27 6  362 225 
 ANIL HZ I         842 15.56       140.6 0.32            104            362 225 
 ORTC HZ EP     C  841 34.69                             106    0.26 6  399 217 
 ORTC HN ES        842 17.28                             106    0.46 6  399 217 
 ORTC HZ I         842 22.55        36.2 0.28            102            399 217 
 SJC  HZ EP   4    841 34.09                             105   -1.72 0  411 326 
 SJC  HN ES   4    842 15.75                             105   -3.53 0  411 326 
 SJC  HZ I         842 19.19        47.9 0.56            102            411 326 
 CRJC HZ EP   4    841 40.31                             103   -2.08 0  466   3 
 CRJC HN ES        842 29.92                             103   -1.07 5  466   3 
 CRJC HZ I         842 36.63        29.6 0.20            100            466   3 
                                                                                
