 2013 11 7 0617 56.8 L   6.781 -73.199146.5  RSN  4 0.2 1.6LRSN                1
 GAP=239        0.64       7.5     5.9  6.4  0.3300E+02  0.8411E+01 -0.6853E+00E
 Epicentro: ZAPATOCA - SANTANDER                                               3
 ACTION:UPD 14-01-09 16:26 OP:ep   STATUS:               ID:20131107061756 L   I
 OLDACT:REG 13-11-07 06:31 OP:jn   STATUS:               ID:20131107061000     3
 2013-11-07-0610-00M.COL___273                                                 6
 STAT SP IPHASW D HRMM SECON CODA AMPLIT PERI AZIMU VELO AIN AR TRES W  DIS CAZ7
 BAR2 SZ ES        618 31.65                             171   -0.2010 21.0 175 
 BAR2 SZ I         618 33.93        12.9 0.22            177           21.0 175 
 RUS  HZ EP        618 20.59                             144    0.0410 99.1 173 
 RUS  HN ES        618 39.31                             144    0.2610 99.1 173 
 RUS  HZ I         618 40.31         3.6 0.26            150           99.1 173 
 PTB  HZ EP        618 23.03                             133   -0.28 9  142 259 
 PTB  HN ES        618 43.79                             133   -0.17 9  142 259 
 PTB  HZ I         618 45.95         4.2 0.14            135            142 259 
 ZAR  HN ES        618 54.22                             123    0.39 9  199 293 
 ZAR  HZ I         619  0.81         3.5 0.26            124            199 293 
                                                                                
