 2016  6 7 0622 42.5 L   6.206 -73.598121.9  RSN  5 0.4 1.1LRSN                1
 GAP=138        0.93       3.4     5.6  8.0 -0.1896E+01  0.1027E+01  0.7447E+01E
 Epicentro: LA PAZ - SANTANDER                                                 3
 ACTION:UPD 16-07-21 22:16 OP:rebc STATUS:               ID:20160607062242 L   I
 OLDACT:UP  16-06-07 18:35 OP:dani STATUS:               ID:20160607061744d    3
 OLDACT:DUP 16-06-07 18:29 OP:dani STATUS:               ID:20160607061744d    3
 OLDACT:UP  16-06-07 18:22 OP:dani STATUS:               ID:20160607061742     3
 OLDACT:REG 16-06-07 13:17 OP:dani STATUS:               ID:20160607061742     3
 2016-06-07-0617-42M.COL___316                                                 6
 STAT SP IPHASW D HRMM SECON CODA AMPLIT PERI AZIMU VELO AIN AR TRES W  DIS CAZ7
 BAR2 EZ ES        623 15.00                             151   -0.3510 62.8  47 
 BAR2 EZ I         623 16.07         6.1 0.20                          62.8  47 
 SPBC HN ES        623 17.54                             144    0.4810 80.7 221 
 BRR  HZ EP        623  3.58                             138    0.2610  100 353 
 BRR  HN ES        623 19.90                             138    0.3710  100 353 
 BRR  HZ I         623 23.27         1.9 0.10                           100 353 
 PTB  HZ EP        623  3.03                             137   -0.4310  102 291 
 PTB  HE ES        623 19.47                             137   -0.3110  102 291 
 CHI  HZ EP        623 11.22                             121    0.27 9  175 185 
 CHI  HE ES        623 32.82                             121   -0.31 9  175 185 
 CHI  HZ I         623 38.22         1.0 0.35                           175 185 
                                                                                
