 2015  4 7 0720  3.8 L   6.767 -73.129147.3  RSN  6 0.4 1.6LRSN                1
 GAP=140        0.95       4.5     4.9  6.9 -0.6206E+01  0.1240E+01  0.4564E+01E
 Epicentro: LOS SANTOS - SANTANDER                                             3
 ACTION:UPD 15-06-03 16:53 OP:cam  STATUS:               ID:20150407072003 L   I
 OLDACT:REG 15-04-07 19:22 OP:mh   STATUS:               ID:20150407071739     3
 2015-04-07-0717-39M.COL___264                                                 6
 STAT SP IPHASW D HRMM SECON CODA AMPLIT PERI AZIMU VELO AIN AR TRES W  DIS CAZ7
 BAR2 EZ EP        720 23.49                             172   -0.0810 20.2 197 
 BAR2 EZ ES        720 38.74                             172   -0.2410 20.2 197 
 BAR2 EZ I         720 40.06        10.6 0.20            172           20.2 197 
 BRR  HZ EP        720 25.36                             152    0.0410 74.6 300 
 BRR  HN ES        720 42.73                             152    0.6310 74.6 300 
 BRR  HZ I         720 46.47         7.7 0.16            150           74.6 300 
 PAM  SZ EP        720 26.37                             151    0.0810 79.1  37 
 PAM  SN ES        720 43.71                             151   -0.1210 79.1  37 
 PAM  SZ I         720 45.70         7.7 0.54            153           79.1  37 
 RUS  HZ EP        720 27.33                             145   -0.1210 96.8 177 
 RUS  HE ES        720 45.87                             145   -0.0210 96.8 177 
 RUS  HZ I         720 47.29         2.5 0.36            148           96.8 177 
 PTB  HN ES        720 51.40                             132   -0.83 9  149 260 
 PTB  HZ I         720 57.22         4.5 0.32            132            149 260 
 SPBC HZ EP        720 32.40                             130    0.12 9  162 220 
 SPBC HE ES        720 55.03                             130    0.55 9  162 220 
 SPBC HZ I         720 55.82         7.5 0.24            131            162 220 
                                                                                
