 2016  3 7 0357  0.8 L   6.813 -73.174143.9  RSN  6 0.3 1.4LRSN                1
 GAP=144        0.80       4.5     4.4  5.7 -0.9611E+01  0.9553E+01 -0.1243E+01E
 Epicentro: LOS SANTOS - SANTANDER                                             3
 ACTION:UPD 16-05-13 21:22 OP:cam  STATUS:               ID:20160307035700 L   I
 OLDACT:DUP 16-03-07 16:36 OP:cara STATUS:               ID:20160307034751d    3
 2016-03-07-0347-49M.COL___315                                                 6
 STAT SP IPHASW D HRMM SECON CODA AMPLIT PERI AZIMU VELO AIN AR TRES W  DIS CAZ7
 BAR2 EZ EP        357 20.04                             170   -0.2110 24.4 182 
 BAR2 EZ ES        357 35.56                             170    0.1610 24.4 182 
 BAR2 EZ I         357 36.61         6.1 0.18            169           24.4 182 
 PAM  EZ IP     C  357 23.17                             150    0.2710 78.4  42 
 PAM  EN ES        357 40.20                             150    0.0910 78.4  42 
 PAM  EZ I         357 42.75         3.3 0.40            153           78.4  42 
 RUS  HZ IP        357 24.20                             143   -0.3110  102 174 
 RUS  HE ES        357 42.88                             143   -0.1010  102 174 
 RUS  HZ I         357 44.78         2.5 0.30            144            102 174 
 PTB  HZ EP        357 26.83                             132   -0.56 9  145 258 
 PTB  HN ES        357 47.94                             132   -0.16 9  145 258 
 PTB  HZ I         357 49.86         3.2 0.16            134            145 258 
 SPBC HZ EP        357 29.02                             129   -0.08 9  162 218 
 SPBC HN ES        357 51.37                             129    0.22 9  162 218 
 SPBC HZ I         357 57.26         5.7 0.24            130            162 218 
 GUY2CHZ EP        357 45.01                             112    0.86 7  299 234 
 GUY2CHE ES        358 18.25                             112    0.31 7  299 234 
 GUY2CHZ I         358 28.03         2.2 0.74                           299 234 
                                                                                
