 2012  8 7 0210 42.1 L   6.750 -73.103145.1  RSN  9 0.4 2.0LRSN                1
 GAP=144        0.74       4.5     4.0  5.5 -0.2317E+01  0.4450E+01  0.7875E+01E
 Epicentro: LOS SANTOS - SANTANDER                                             3
 ACTION:UPD 12-09-10 11:54 OP:ep   STATUS:               ID:20120807021042 L   I
 2012-08-07-0210-00M.COL___216                                                 6
 STAT SP IPHASW D HRMM SECON CODA AMPLIT PERI AZIMU VELO AIN AR TRES W  DIS CAZ7
 BAR2 SZ EP        211  1.85                             172    0.2510 19.5 207 
 BAR2 SZ ES   1    211 16.89                             172    0.10 7 19.5 207 
 BAR2 SZ I         211 19.34        22.8 0.19                          19.5 207 
 BRR  HZ EP        211  3.67                             150    0.0810 78.0 300 
 BRR  HZ I         211  3.94        44.4 0.11                          78.0 300 
 BRR  HN ES        211 20.66                             150    0.3110 78.0 300 
 PAM  SZ EP   1    211  4.32                             150   -0.04 7 79.0  34 
 PAM  SN ES   1    211 21.44                             150   -0.27 7 79.0  34 
 RUS  HZ EP   1    211  5.35                             145   -0.04 7 94.8 179 
 RUS  HN ES   1    211 23.39                             145   -0.16 7 94.8 179 
 RUS  HZ I         211 25.71        10.9 0.43                          94.8 179 
 PTB  HZ EP   1    211  8.65                             131   -0.72 7  151 261 
 PTB  HE ES   1    211 29.64                             131   -0.98 7  151 261 
 PTB  HZ I         211 31.46         7.2 0.12                           151 261 
 NOR  SZ EP   1    211 17.73                             118   -0.15 6  235 236 
 NOR  SN ES   1    211 46.34                             118    0.56 6  235 236 
 CHI  HZ EP   1    211 19.42                             117    0.08 6  245 197 
 CHI  HZ I         211 37.00        12.5 0.60                           245 197 
 HEL  HZ EP   1    211 23.08                             114    0.42 6  275 257 
 HEL  HN ES   1    211 54.59                             114    0.31 6  275 257 
 HEL  HZ I         212  2.72         4.5 0.51                           275 257 
 PRA  HZ EP   1    211 35.32                             106   -0.01 4  390 211 
                                                                                
