 2010  5 7 0745 31.3 L   6.696 -73.105150.0  RSN  4 0.2 1.3LRSN                1
 GAP=200        0.37       8.0     9.5  8.3  0.2033E+02 -0.4500E+02 -0.3186E+02E
 Epicentro: JORDAN - SANTANDER                                                 3
 ACTION:UP  10-08-24 10:03 OP:vdl  STATUS:               ID:20100507074531 L   I
 2010-05-07-0743-59S.COL___105                                                 6
 STAT SP IPHASW D HRMM SECON CODA AMPLIT PERI AZIMU VELO SNR AR TRES W  DIS CAZ7
 BAR2 SZ EP   1    745 51.23                             174     0.0 7   14 217 
 BAR2 SZ ES   2    746  6.95                             174     0.1 5   14 217 
 BRR  HZ EP   2    745 53.55                             150     0.1 5   81 304 
 BRR  HE ES   2    746 10.69                             150    -0.1 5   81 304 
 BRR  HZ I         746 15.66         3.8 0.19                            81 304 
 BRI  SZ EP   2    745 56.00                             140    -0.3 5  118  17 
 GRA  SZ EP   2    745 58.02                             136     0.3 5  136  14 
                                                                                
