 2017  3 7 0603 31.2 L   6.806 -73.156143.3  RSN 25 0.5 2.6LRSN                1
 GAP= 65        1.00       3.0     2.8  4.7 -0.4673E+00  0.2106E+01  0.3544E+01E
 Epicentro: LOS SANTOS - SANTANDER                                             3
 ACTION:UPD 17-05-25 18:37 OP:jn   STATUS:               ID:20170307060331 L   I
 OLDACT:UP  17-03-07 15:21 OP:and  STATUS:               ID:20170307055744     3
 OLDACT:UP  17-03-07 15:21 OP:and  STATUS:               ID:20170307055744     3
 OLDACT:UP  17-03-07 15:21 OP:and  STATUS:               ID:20170307055744     3
 OLDACT:UP  17-03-07 15:21 OP:and  STATUS:               ID:20170307055744     3
 OLDACT:UP  17-03-07 15:19 OP:and  STATUS:               ID:20170307055744     3
 OLDACT:UP  17-03-07 15:19 OP:and  STATUS:               ID:20170307055744     3
 OLDACT:UP  17-03-07 15:18 OP:and  STATUS:               ID:20170307055744     3
 OLDACT:UP  17-03-07 15:16 OP:and  STATUS:               ID:20170307055744     3
 OLDACT:UP  17-03-07 15:13 OP:and  STATUS:               ID:20170307055744     3
 OLDACT:REG 17-03-07 12:04 OP:and  STATUS:               ID:20170307055744     3
 2017-03-07-0558-00M.COL___367                                                 6
 STAT SP IPHASW D HRMM SECON CODA AMPLIT PERI AZIMU VELO AIN AR TRES W  DIS CAZ7
 BAR2 EZ IP     C  6 3 50.47                             170   -0.0610 23.8 187 
 BAR2 EZ ES        6 4  5.16                             170   -0.4610 23.8 187 
 BAR2 EZ I         6 4  6.72       200.0 0.30            166           23.8 187 
 BRR  HZ IP     C  6 3 52.27                             152    0.2810 69.9 299 
 BRR  HN ES        6 4  9.31                             152    1.0910 69.9 299 
 BRR  HZ I         6 4 13.32        66.3 0.36            145           69.9 299 
 PAM  EZ IP     C  6 3 53.30                             150    0.1510 77.6  41 
 PAM  EN ES        6 4 10.25                             150   -0.0410 77.6  41 
 PAM  EZ I         6 4 12.94        91.6 0.68            151           77.6  41 
 RUS  HZ EP        6 3 54.73                             143   -0.0210  101 175 
 RUS  HN ES        6 4 12.97                             143   -0.1610  101 175 
 RUS  HZ I         6 4 13.96        39.0 0.24            141            101 175 
 PTB  HZ EP        6 3 57.08                             132   -0.78 9  147 258 
 PTB  HN ES        6 4 18.03                             132   -0.63 9  147 258 
 PTB  HZ I         6 4 23.83        62.9 0.16            126            147 258 
 TAM  HZ IP     D  6 3 58.92                             130    0.13 9  156 105 
 TAM  HN ES        6 4 20.28                             130   -0.04 9  156 105 
 TAM  HZ I         6 4 20.63        15.8 0.32            130            156 105 
 SPBC HZ EP        6 3 59.41                             128   -0.06 9  163 219 
 SPBC HN ES        6 4 21.24                             128   -0.30 9  163 219 
 SPBC HZ I         6 4 22.02        37.4 0.16            124            163 219 
 ZAR  HZ EP        6 4  3.10                             122   -0.23 9  203 292 
 ZAR  HN ES        6 4 28.10                             122   -0.31 9  203 292 
 ZAR  HZ I         6 4 35.06        58.4 0.38            117            203 292 
 NOR  HZ EP        6 4  7.11                             118    0.40 8  234 234 
 NOR  HN ES        6 4 34.18                             118   -0.24 8  234 234 
 NOR  HZ I         6 4 40.83        23.3 0.20            114            234 234 
 CHI  HZ IP     C  6 4  8.83                             116    0.05 8  249 195 
 CHI  HN ES        6 4 37.81                             116   -0.30 8  249 195 
 CHI  HZ I         6 4 41.79        16.2 0.74            114            249 195 
 ROSC BZ EP        6 4 10.15                             116    0.99 8  253 211 
 ROSC BN ES   4    6 4 41.82                             116    3.03 0  253 211 
 ROSC BZ I         6 4 45.14        50.4 0.40            113            253 211 
 HEL  HZ EP   9    6 4 12.48                             114    1.32 0  271 256 
 HEL  HN ES        6 4 44.21                             114    0.54 8  271 256 
 HEL  HZ I         6 4 50.65        18.7 0.24            111            271 256 
 URE  HZ EP   3    6 4 10.28                             113   -1.70 2  283 292 
 URE  HZ I         6 4 54.48        29.0 0.36            110            283 292 
 VIL  EZ EP        6 4 14.05                             111   -0.48 7  304 191 
 VIL  EN ES        6 4 49.28                             111    0.93 7  304 191 
 VIL  EZ I         6 4 53.97        28.1 0.36            109            304 191 
 PTGC HZ IP   3 D  6 4 13.59                             111   -1.46 2  310 158 
 PTGC HN ES   4    6 4 47.45                             111   -1.81 0  310 158 
 PTGC HZ I         6 4 48.86        14.4 0.22            109            310 158 
 LL6C HN EP   9    6 3 56.58                             110   -20.1 0  324 358 
 LL6C HE ES        6 4 32.27                                    0.19 7  324 358 
 LL6C HN I         6 4 33.68        19.6 0.60            108            324 358 
 ELA  HZ EP   4    6 4 23.28                             110    5.40 0  329 229 
 ELA  HN ES   4    6 4 58.53                             110    4.23 0  329 229 
 ELA  HZ I         6 5  1.66        12.4 0.44            107            329 229 
 CBOC HZ EP   2    6 4 18.85                             109    0.96 3  333 252 
 CBOC HN ES   2    6 4 55.16                             109    0.84 3  333 252 
 CBOC HZ I         6 5  5.44         4.7 0.26            106            333 252 
 DBB  EZ EP        6 4 18.49                             109    0.07 7  338 274 
 DBB  EN ES   4    6 4 53.51                             109   -1.75 0  338 274 
 DBB  EZ I         6 4 59.88         8.3 0.20            106            338 274 
 ANIL HZ EP   9    6 4 22.79                             108    1.94 0  357 224 
 ANIL HN ES        6 5  1.77                             108    0.24 6  357 224 
 ANIL HZ I         6 5  7.01        44.0 0.30            105            357 224 
 PRA  HN ES        6 5  6.61                             106    0.31 6  392 209 
 PRA  HZ I         6 5 11.73        20.8 0.30            104            392 209 
 ORTC HZ EP   2    6 4 25.59                             106    0.59 3  395 216 
 ORTC HN ES   3    6 5  8.16                             106    1.18 1  395 216 
 ORTC HZ I         6 5 11.90         9.4 0.20            103            395 216 
 SJC  HZ EP   4 C  6 4 24.69                             105   -1.83 0  408 327 
 SJC  HN ES   4    6 5  6.28                             105   -3.41 0  408 327 
 SJC  HZ I         6 5 20.26        10.6 0.29            103            408 327 
 CRJC HZ EP   9    6 4 30.14                             103   -3.40 0  467   4 
 CRJC HN ES        6 5 19.35                             103    0.57 5  467   4 
 CRJC HZ I         6 5 25.82        11.3 0.26            101            467   4 
 SMAR HZ EP   2    6 4 35.97                             102   -0.91 2  496 346 
 SMAR HN ES   4    6 5 24.06                             102   -4.07 0  496 346 
                                                                                
