 2015  3 7 0714 40.5 L   6.807 -73.108146.1  RSN  7 0.3 1.0LRSN                1
 GAP=141        0.76       3.4     4.2  6.2 -0.2174E+00  0.2410E+01  0.4461E+01E
 Epicentro: LOS SANTOS - SANTANDER                                             3
 ACTION:UPD 15-04-30 16:23 OP:nd   STATUS:               ID:20150307071440 L   I
 OLDACT:REG 15-03-07 13:40 OP:spq  STATUS:               ID:20150307070743     3
 2015-03-07-0707-43M.COL___284                                                 6
 STAT SP IPHASW D HRMM SECON CODA AMPLIT PERI AZIMU VELO AIN AR TRES W  DIS CAZ7
 BAR2 EZ ES   1    715 15.18                             170   -0.39 7 25.1 199 
 BAR2 EZ I         715 16.21         2.2 0.38            169           25.1 199 
 PAM  SZ EP        715  3.02                             152    0.4610 74.2  37 
 PAM  SE ES   1    715 19.41                             152   -0.36 7 74.2  37 
 PAM  SZ I         715 22.20         1.5 0.54            154           74.2  37 
 BRR  HZ EP        715  1.86                             151   -0.0110 74.5 296 
 BRR  HN ES        715 18.88                             151    0.3410 74.5 296 
 BRR  HZ I         715 21.66         1.8 0.23            149           74.5 296 
 RUS  HZ EP   1    715  4.13                             144   -0.19 7  101 178 
 RUS  HE ES   1    715 22.81                             144   -0.09 7  101 178 
 RUS  HZ I         715 23.77         0.6 0.60            145            101 178 
 SPBC HZ EP   1    715  8.91                             129   -0.42 7  166 220 
 SPBC HN ES        715 32.27                             129    0.46 9  166 220 
 SPBC HZ I         715 35.85         1.9 0.42            129            166 220 
 ZAR  HN ES        715 38.49                             122   -0.45 8  208 292 
 ZAR  HZ I         715 44.59         1.0 0.34            122            208 292 
 CHI  HZ EP   1    715 18.36                             117   -0.05 6  250 196 
 CHI  HN ES   1    715 47.81                             117   -0.18 6  250 196 
 CHI  HZ I         715 51.08         0.7 0.64            118            250 196 
                                                                                
