 2015  3 7 0309 38.4 L   6.799 -73.392126.0  RSN  4 0.2 0.9LRSN                1
 GAP=181        0.50       4.2     3.8  4.7  0.7686E+01  0.3689E+01  0.5049E+01E
 Epicentro: SAN VICENTE DE CHUCURI - SANTANDER                                 3
 ACTION:UPD 15-04-30 16:23 OP:nd   STATUS:               ID:20150307030938 L   I
 OLDACT:REG 15-03-07 12:54 OP:spq  STATUS:               ID:20150307030740     3
 2015-03-07-0307-40M.COL___284                                                 6
 STAT SP IPHASW D HRMM SECON CODA AMPLIT PERI AZIMU VELO AIN AR TRES W  DIS CAZ7
 BAR2 EZ EP        3 9 55.79                             165   -0.0910 32.5 135 
 BAR2 EZ ES   1    310  9.42                             165   -0.12 7 32.5 135 
 BAR2 EZ I         310  9.99         5.0 0.22            165           32.5 135 
 BRR  HZ EP        3 9 56.21                             157    0.0210 49.1 314 
 BRR  HN ES        310 10.19                             157    0.1010 49.1 314 
 BRR  HZ I         310 11.98         2.5 0.28            157           49.1 314 
 RUS  HZ EP   1    310  1.08                             138    0.42 7  106 161 
 RUS  HN ES   1    310 17.98                             138   -0.06 7  106 161 
 RUS  HZ I         310 19.75         0.5 0.28            138            106 161 
 PTB  HZ EP        310  1.03                             133   -0.2910  121 256 
 PTB  HE ES   1    310 19.41                             133    0.20 7  121 256 
 PTB  HZ I         310 23.29         1.5 0.44            132            121 256 
                                                                                
