 2010  8 7 0511 11.2 L   6.746 -73.035137.1  RSN 10 0.4 1.7LRSN                1
 GAP=172        0.73       4.9     9.0  9.1  0.1794E+01 -0.2593E+02  0.6806E+01E
 Epicentro: ARATOCA - SANTANDER                                                3
 ACTION:UP  10-09-07 10:52 OP:vdl  STATUS:               ID:20100807051111 L   I
 2010-08-07-0510-00S.COL___125                                                 6
 STAT SP IPHASW D HRMM SECON CODA AMPLIT PERI AZIMU VELO SNR AR TRES W  DIS CAZ7
 BAR2 SZ EP   2    511 30.01                             169     0.2 5   24 224 
 BAR2 SZ I         511 30.32         9.5 0.18                            24 224 
 BTL  SZ IP        511 30.20                             167     0.210   32 307 
 BTL  SZ ES   2    511 45.02                             167     0.4 5   32 307 
 GIR2 SZ EP   2    511 30.15                             163     0.0 5   41 335 
 BRR  HZ EP        511 31.88                             147    -0.410   85 298 
 BRR  HZ I         511 32.31        14.3 0.13                            85 298 
 BRR  HN ES   1    511 48.64                             147    -0.1 7   85 298 
 RUS  HZ EP        511 33.97                             143     0.310   95 183 
 RUS  HN ES   2    511 50.27                             143    -0.9 5   95 183 
 GUE  SZ EP   2    511 35.94                             137     0.5 5  120   6 
 GRA  SZ EP   2    511 35.31                             135    -0.6 5  128  11 
 GRA  SZ ES   2    511 54.83                             135    -0.3 5  128  11 
 GRA  SZ I         511 56.64         6.1 0.30                           128  11 
 OCA  SZ EP   3    511 39.42                             127    -0.2 2  168 349 
 OCA  SZ I         512  4.49         4.2 0.27                           168 349 
 RREF HN ES   3    512 33.79                             109     0.0 2  327 232 
 PRA  HZ EP   2    512  4.59                             105     0.1 3  393 212 
 PRA  HZ I         512 52.43         1.7 0.72                           393 212 
                                                                                
