 2013  5 7 0635 40.2 L   6.811 -73.163142.9  RSN 14 0.5 2.5LRSN                1
 GAP= 70        0.94       3.0     3.2  5.7 -0.9323E-01  0.4321E+01  0.1279E+01E
 Epicentro: LOS SANTOS - SANTANDER                                             3
 ACTION:UPD 13-06-20 09:48 OP:ep   STATUS:               ID:20130507063540 L   I
 2013-05-07-0630-00M.COL___256                                                 6
 STAT SP IPHASW D HRMM SECON CODA AMPLIT PERI AZIMU VELO AIN AR TRES W  DIS CAZ7
 BAR2 SZ IP     C  635 59.52                             170   -0.0210 24.2 185 
 BAR2 SZ ES   1    636 14.64                             170    0.04 7 24.2 185 
 BAR2 SZ I         636 16.57        76.1 0.22            170           24.2 185 
 GIR2 SZ IP     D  635 59.60                             168    0.0710 29.8 354 
 GIR2 SZ I         636 16.77        50.4 0.22            166           29.8 354 
 BRR  HZ IP     D  636  1.39                             153    0.4410 68.9 298 
 BRR  HN ES   1    636 18.09                             153    0.99 7 68.9 298 
 BRR  HZ I         636 19.85        54.6 0.20            150           68.9 298 
 PAM  SZ IP     D  636  2.33                             150    0.1610 77.7  41 
 PAM  SN ES   1    636 19.26                             150   -0.02 7 77.7  41 
 PAM  SZ I         636 21.36        44.3 0.44            153           77.7  41 
 RUS  HZ IP     D  636  3.60                             143   -0.2010  102 175 
 RUS  HN ES   1    636 21.71                             143   -0.47 7  102 175 
 RUS  HZ I         636 23.86        48.2 0.36            145            102 175 
 PTB  HZ EP        636  6.55                             132   -0.27 9  146 258 
 PTB  HN ES   1    636 26.45                             132   -1.10 7  146 258 
 PTB  HZ I         636 32.50        44.7 0.30            131            146 258 
 TAM  HZ IP     D  636  7.98                             129    0.09 9  157 105 
 TAM  HN ES   1    636 29.49                             129    0.03 7  157 105 
 OCA  HZ EP   1    636  7.94                             129   -0.26 7  159 354 
 OCA  HN ES   1    636 29.39                             129   -0.61 7  159 354 
 OCA  HZ I         636 31.20        29.8 0.34            130            159 354 
 ZAR  HZ EP        636 12.55                             122    0.28 9  202 292 
 ZAR  HE ES   1    636 38.09                             122    0.84 6  202 292 
 ZAR  HZ I         636 45.45        26.3 0.12            122            202 292 
 NOR  HZ EP   1    636 15.71                             118    0.00 6  234 234 
 NOR  HN ES   1    636 43.62                             118    0.25 6  234 234 
 NOR  HZ I         636 49.43        29.0 0.16            118            234 234 
 SML  HZ EP        636 15.96                             117   -0.54 8  242 336 
 SML  HN ES   1    636 44.39                             117   -0.40 6  242 336 
 SML  HZ I         636 49.84        35.7 0.10            118            242 336 
 CHI  HZ EP   1    636 17.87                             116    0.02 6  249 195 
 CHI  HN ES   1    636 47.28                             116    0.10 6  249 195 
 ROSC BZ EP   4    636 20.09                             116    1.89 0  253 211 
 ROSC BN ES   4    636 50.90                             116    3.08 0  253 211 
 HEL  HZ EP        636 20.87                             114    0.74 8  270 255 
 HEL  HN ES   1    636 50.15                             114   -1.09 6  270 255 
 HEL  HZ I         636 58.43        16.0 0.30            115            270 255 
 PRA  HZ EP   1    636 33.78                             106    0.11 4  392 209 
 PRA  HE ES   1    637 15.62                             106    0.28 4  392 209 
 PRA  HZ I         637 21.44        10.5 0.20            107            392 209 
                                                                                
