 2012  4 7 0441 52.5 L   6.752 -73.177148.9  RSN  4 0.2 1.1LRSN                1
 GAP=135        0.53       5.3     5.8  8.3  0.1876E+02 -0.1653E+02 -0.1547E+02E
 Epicentro: VILLANUEVA - SANTANDER                                             3
 ACTION:UPD 12-07-05 11:51 OP:tino STATUS:               ID:20120407044152 L   I
 2012-04-07-0440-00M.COL___196                                                 6
 STAT SP IPHASW D HRMM SECON CODA AMPLIT PERI AZIMU VELO AIN AR TRES W  DIS CAZ7
 BRR  HZ EP   1    442 13.98                             153     0.0 7   71 304 
 BRR  HZ I         442 14.22         3.5 0.10                            71 304 
 BRR  HN ES   1    442 30.98                             153     0.2 7   71 304 
 PAM  SZ EP   1    442 15.30                             149    -0.2 7   84  39 
 RUS  HZ EP   1    442 16.55                             146     0.3 7   96 174 
 RUS  HN ES   1    442 34.50                             146    -0.2 7   96 174 
 RUS  HZ I         442 36.00         1.5 0.22                            96 174 
 ZAR  HN ES   1    442 50.28                             123    -0.2 6  203 294 
                                                                                
