 2011  7 7 0040 16.2 L   6.804 -73.084145.4  RSN  7 0.5 1.8LRSN                1
 GAP=163        0.89       4.3     7.8  8.6 -0.8433E+01  0.2371E+01 -0.3461E+01E
 Epicentro: LOS SANTOS - SANTANDER                                             3
 ACTION:UPD 12-07-25 13:58 OP:epov STATUS:               ID:20110707004016 L   I
 2011-07-07-0038-24S.COL___140                                                 6
 STAT SP IPHASW D HRMM SECON CODA AMPLIT PERI AZIMU VELO AIN AR TRES W  DIS CAZ7
 BAR2 SZ EP   1    040 35.84                             169   -0.05 7 25.8 205 
 BAR2 SZ ES   1    040 50.82                             169   -0.39 7 25.8 205 
 BAR2 SZ I         040 52.81        12.2 0.29                          25.8 205 
 GIR2 SZ EP   2    040 36.22                             167    0.30 5 32.7 338 
 BRR  HZ EP   1    040 37.83                             150    0.13 7 77.1 296 
 BRR  HZ I         040 38.20        27.7 0.19                          77.1 296 
 BRR  HN ES   1    040 55.10                             150    0.67 7 77.1 296 
 RUS  HZ EP   1    040 40.28                             144    0.30 7  101 180 
 RUS  HN ES   1    040 58.61                             144    0.13 7  101 180 
 RUS  HZ I         040 59.87         4.5 0.22                           101 180 
 BRI  SZ EP   1    040 40.48                             142    0.57 7  106  17 
 BRI  SZ ES   1    040 57.70                             142   -0.66 7  106  17 
 BRI  SZ I         041  4.04         6.2 0.39                           106  17 
 OCA  SZ EP   1    040 43.87                             129   -0.71 7  161 351 
 OCA  SZ ES   1    041  6.90                             129    0.22 7  161 351 
 OCA  SZ I         041 12.39        11.8 0.25                           161 351 
 NOR  SN ES   1    041 20.24                             118   -0.68 6  240 235 
                                                                                
