 2016  8 7 0138 13.8 L   6.524 -73.591 19.0  RSN  7 0.4 1.6LRSN                1
 GAP= 68        0.96       2.4     1.9  3.7 -0.5543E+00  0.5760E+00 -0.2584E+01E
 Epicentro: SANTA HELENA DEL OPON - SANTANDER                                  3
 ACTION:UPD 16-10-29 15:32 OP:rebc STATUS:               ID:20160807013813 L   I
 OLDACT:UP  16-08-07 14:07 OP:dani STATUS:               ID:20160807012734     3
 OLDACT:UP  16-08-07 14:07 OP:dani STATUS:               ID:20160807012734     3
 OLDACT:REG 16-08-07 12:29 OP:dani STATUS:               ID:20160807012734     3
 2016-08-07-0128-00M.COL___368                                                 6
 STAT SP IPHASW D HRMM SECON CODA AMPLIT PERI AZIMU VELO AIN AR TRES W  DIS CAZ7
 BAR2 EZ EP        138 22.26                             110    0.2410 45.8  81 
 BAR2 EZ ES        138 28.08                             110   -0.3310 45.8  81 
 BAR2 EZ I         138 29.17        30.9 0.38                          45.8  81 
 BRR  HZ EP        138 24.53                             104   -0.1410 65.8 348 
 BRR  HN ES        138 33.10                             104   -0.0310 65.8 348 
 BRR  HZ I         138 33.65        17.6 0.40                          65.8 348 
 RUS  HZ EP        138 29.16                             100    0.4410 89.6 141 
 RUS  HE ES   4    138 38.50                             100   -1.83 0 89.6 141 
 RUS  HZ I         138 41.30         9.1 0.10                          89.6 141 
 PTB  HZ IP     D  138 29.40                              99    0.2710 95.7 271 
 PTB  HN ES        138 41.02                              99   -0.0410 95.7 271 
 PTB  HZ I         138 43.14        32.4 0.24                          95.7 271 
 SPBC HZ EP   4    138 32.36                              98    0.99 0  110 209 
 SPBC HE ES        138 44.55                              98   -0.5010  110 209 
 SPBC HZ I         138 51.22        15.8 0.48                           110 209 
 PAM  EZ EP        138 35.80                              56    0.7210  134  47 
 PAM  EN ES        138 51.07                              56   -0.5910  134  47 
 PAM  EZ I         138 52.61        14.6 0.26                           134  47 
 ZAR  HZ EP        138 39.71                              56   -0.13 9  176 307 
 ZAR  HN ES        139  0.22                              56    0.09 9  176 307 
 ZAR  HZ I         139  5.37         5.4 0.20                           176 307 
                                                                                
