 2017  7 7 0629 51.7 L   6.654 -73.161150.3  RSN  4 0.2 1.4LRSN                1
 GAP=249        0.46       5.3     3.4  3.7  0.6438E+01  0.2994E+01 -0.2751E+00E
 Epicentro: VILLANUEVA - SANTANDER                                             3
 ACTION:UPD 17-08-30 15:30 OP:rebc STATUS:               ID:20170707062951 L   I
 OLDACT:UP  17-07-07 17:36 OP:ar   STATUS:               ID:20170707062738     3
 OLDACT:REG 17-07-07 13:16 OP:ar   STATUS:               ID:20170707062738     3
 2017-07-07-0628-00M.COL___374                                                 6
 STAT SP IPHASW D HRMM SECON CODA AMPLIT PERI AZIMU VELO AIN AR TRES W  DIS CAZ7
 BAR2 EZ EP        630 11.74                             177    0.0310 7.21 199 
 BAR2 EZ ES        630 27.24                             177   -0.0410 7.21 199 
 BAR2 EZ I         630 28.33         4.7 0.36            170           7.21 199 
 BRR  HZ EP        630 13.54                             151   -0.2710 78.8 310 
 BRR  HN ES        630 31.23                             151    0.1910 78.8 310 
 PTB  HZ EP        630 18.94                             134    0.22 9  144 265 
 PTB  HN ES        630 39.67                             134   -0.11 9  144 265 
 PTB  HZ I         630 45.36         2.0 0.46            131            144 265 
 ZAR  HZ EP        630 25.08                             123    0.08 8  209 296 
 ZAR  HE ES        630 50.85                             123   -0.09 8  209 296 
 ZAR  HZ I         630 56.72         3.5 0.36            122            209 296 
                                                                                
