 2017 12 7 0825 19.9 L   6.780 -73.158150.2  RSN 12 0.7 1.8LRSN                1
 GAP= 65        1.35       3.7     3.8  7.5  0.1925E+01  0.5729E+01  0.5120E+01E
 Epicentro: LOS SANTOS - SANTANDER                                             3
 ACTION:UPD 18-01-04 13:17 OP:rebc STATUS:               ID:20171207082519 L   I
 OLDACT:UP  17-12-07 17:53 OP:leo  STATUS:               ID:20171207081736     3
 OLDACT:UP  17-12-07 17:46 OP:leo  STATUS:               ID:20171207081736     3
 OLDACT:REG 17-12-07 13:35 OP:leo  STATUS:               ID:20171207081736     3
 2017-12-07-0818-00M.COL___470                                                 6
 STAT SP IPHASW D HRMM SECON CODA AMPLIT PERI AZIMU VELO AIN AR TRES W  DIS CAZ7
 BAR2 EZ IP        825 39.90                             172   -0.1410 21.0 187 
 BAR2 EZ ES        825 55.37                             172   -0.3610 21.0 187 
 BAR2 EZ I         825 59.05         9.2 0.24            171           21.0 187 
 PAM  EZ EP        825 42.99                             151    0.2310 79.9  39 
 PAM  EN ES        826  0.03                             151   -0.5410 79.9  39 
 PAM  EZ I         826  2.91         6.7 0.56            154           79.9  39 
 PTB  HZ EP        825 46.86                             133   -0.24 9  146 260 
 PTB  HN ES        826  7.75                             133   -0.55 9  146 260 
 PTB  HZ I         826 13.79         4.8 0.22            133            146 260 
 TAM  HZ IP        825 48.18                             131    0.16 9  156 104 
 TAM  HE ES        826  9.84                             131   -0.09 9  156 104 
 SPBC HZ EP        825 48.82                             130    0.30 9  161 219 
 SPBC HN ES        826 10.69                             130   -0.15 9  161 219 
 OCA  HZ EP        825 49.21                             130    0.45 9  162 354 
 OCA  HN ES        826 11.40                             130    0.14 9  162 354 
 OCA  HZ I         826 12.62        16.1 0.34            132            162 354 
 YPLC HZ EP        825 50.04                             128    0.12 9  176 151 
 YPLC HN ES        826 14.68                             128    1.37 9  176 151 
 ZAR  HZ EP        825 53.02                             123    0.40 9  204 293 
 ZAR  HN ES        826 19.17                             123    1.05 9  204 293 
 ZAR  HZ I         826 24.48         7.7 0.30            124            204 293 
 CHI  HZ EP        825 56.96                             118   -0.64 8  246 195 
 CHI  HE ES        826 26.93                             118   -0.06 8  246 195 
 URE  HZ EP        826  0.29                             114   -0.87 7  283 292 
 URE  HN ES        826 32.95                             114   -0.38 7  283 292 
 URE  HZ I         826 43.19         4.2 0.16            115            283 292 
 PTGC HN EP        826  3.07                             112   -0.73 7  307 158 
 PTGC HE ES   2    826 35.38                             112   -2.65 4  307 158 
 PRA  HZ EP   2    826 13.62                             107    0.32 3  389 210 
 PRA  HE ES        826 55.97                             107    1.04 6  389 210 
 PRA  HZ I         827  0.05         1.4 0.40            109            389 210 
                                                                                
