 2016  9 7 0312 19.9 L   6.865 -73.118146.0  RSN  4 0.2 1.4LRSN                1
 GAP=282        0.45       6.5     3.9  6.6  0.1297E+02 -0.7371E+01 -0.2621E+02E
 Epicentro: LOS SANTOS - SANTANDER                                             3
 ACTION:UPD 17-08-17 21:07 OP:lp   STATUS:               ID:20160907031219 L   I
 OLDACT:UPD 17-05-30 15:32 OP:lp   STATUS:               ID:20160907031219 L   3
 OLDACT:UP  16-09-07 17:13 OP:and  STATUS:               ID:20160907030737     3
 OLDACT:UP  16-09-07 14:18 OP:dani STATUS:               ID:20160907030737     3
 OLDACT:UP  16-09-07 14:17 OP:dani STATUS:               ID:20160907030737     3
 OLDACT:UP  16-09-07 14:17 OP:dani STATUS:               ID:20160907030737     3
 OLDACT:UP  16-09-07 14:16 OP:dani STATUS:               ID:20160907030737     3
 OLDACT:UP  16-09-07 14:16 OP:dani STATUS:               ID:20160907030737     3
 OLDACT:REG 16-09-07 12:16 OP:dani STATUS:               ID:20160907030737     3
 2016-09-07-0308-00M.COL___364                                                 6
 STAT SP IPHASW D HRMM SECON CODA AMPLIT PERI AZIMU VELO AIN AR TRES W  DIS CAZ7
 RUS  HZ EP        312 44.24                             143    0.0310  108 178 
 RUS  HE ES        313  3.24                             143    0.0910  108 178 
 RUS  HZ I         313  4.56         3.4 0.39            143            108 178 
 PTB  HZ EP        312 47.10                             132   -0.22 9  152 256 
 PTB  HE ES        313  8.90                             132    0.21 9  152 256 
 PTB  HZ I         313 10.65         2.9 0.10            132            152 256 
 SPBC HZ EP        312 49.11                             128   -0.04 9  171 218 
 SPBC HN ES        313 11.79                             128   -0.17 9  171 218 
 SPBC HZ I         313 13.76         4.6 0.24            129            171 218 
 GUY2CHZ EP   2    313  4.74                             112    0.45 4  308 234 
 GUY2CHZ I         313 46.36         0.9 0.48                           308 234 
                                                                                
