 2015  3 7 0158 42.5 L   6.733 -73.173146.0  RSN  6 0.4 1.2LRSN                1
 GAP=157        0.85       6.4     4.8  7.0  0.1700E+02 -0.5994E+01 -0.8087E+01E
 Epicentro: VILLANUEVA - SANTANDER                                             3
 ACTION:UPD 15-04-30 16:23 OP:nd   STATUS:               ID:20150307015842 L   I
 OLDACT:REG 15-03-07 12:46 OP:spq  STATUS:               ID:20150307015735     3
 2015-03-07-0157-35M.COL___287                                                 6
 STAT SP IPHASW D HRMM SECON CODA AMPLIT PERI AZIMU VELO AIN AR TRES W  DIS CAZ7
 BAR2 EZ ES   1    159 16.73                             174   -0.54 7 15.6 184 
 BAR2 EZ I         159 17.50         4.6 0.18            173           15.6 184 
 BRR  HZ EP   1    159  3.78                             152    0.02 7 72.5 305 
 BRR  HN ES        159 20.55                             152    0.2210 72.5 305 
 BRR  HZ I         159 22.70         3.0 0.44            150           72.5 305 
 RUS  HZ EP   1    159  6.12                             146    0.33 7 93.5 174 
 RUS  HN ES        159 24.33                             146    0.3910 93.5 174 
 RUS  HZ I         159 25.63         2.2 0.30            147           93.5 174 
 PTB  HZ EP        159  9.05                             133   -0.07 9  144 261 
 PTB  HN ES        159 29.31                             133   -0.56 9  144 261 
 PTB  HZ I         159 32.58         2.6 0.62            132            144 261 
 TAM  HZ EP        159 10.04                             130   -0.28 9  156 102 
 ZAR  HN ES        159 40.72                             122    0.40 9  204 294 
 ZAR  HZ I         159 44.99         1.6 0.30            122            204 294 
                                                                                
