 2013  1 7 0625 12.7 L   6.795 -73.129140.3  RSN  8 0.5 2.2LRSN 2.8WRSN        1
 SPEC AVERAGE  MO 13.3 ST  1.2 OM  3.6 f0 3.25 R0.5141 AL 2.13 WI 16.0 MW  2.8 3
 SPEC SD       MO  0.0 ST0.943 OM  2.0 f0 1.13 R0.1793 AL      WI      MW  0.0 3
 GAP=185        1.23       4.3     8.0  7.7  0.1003E+02  0.1309E+02  0.3151E+01E
 Epicentro: LOS SANTOS - SANTANDER                                             3
 SPEC CHI HH N MO 13.3 ST0.278 OM  1.5 f0 2.12 R0.6934 AL 1.15 WI 17.5 MW  2.8 3
 SPEC CHI HH N T 62618 K 0.000 GD  285 VS 4.20 DE 3.00 Q0230.0 QA 0.60 VS 4.20 3
 SPEC BRR HH N MO 13.3 ST  2.2 OM  1.7 f0 4.39 R0.3349 AL 3.10 WI 14.5 MW  2.8 3
 SPEC BRR HH N T 62549 K 0.000 GD  158 VS 4.20 DE 3.00 Q0230.0 QA 0.60 VS 4.20 3
 ACTION:UPD 13-02-15 09:12 OP:ep   STATUS:               ID:20130107062512 L   I
 2013-01-07-0619-47M.COL___196                                                 6
 STAT SP IPHASW D HRMM SECON CODA AMPLIT PERI AZIMU VELO AIN AR TRES W  DIS CAZ7
 BAR2 SZ EP        625 31.81                             170    0.1510 23.1 195 
 BAR2 SZ ES        625 46.57                             170    0.1210 23.1 195 
 BAR2 SZ I         625 48.13        37.2 0.16            161           23.1 195 
 BRR  HZ EP        625 33.58                             151    0.2210 73.1 298 
 BRR  HN ES        625 50.28                             151    0.7910 73.1 298 
 BRR  HN I         625 51.26        30.9 0.40            140           73.1 298 
 RUS  HZ EP        625 35.81                             143   -0.0510 99.9 177 
 RUS  HN ES        625 53.43                             143   -0.4910 99.9 177 
 RUS  HN I         625 55.63        15.3 0.18            137           99.9 177 
 PTB  HZ EP        625 38.87                             130   -0.51 9  149 259 
 PTB  HN I         626  4.99        16.3 0.30            121            149 259 
 OCA  HZ EP        625 40.67                             128    0.01 9  161 353 
 OCA  HE ES        626  2.14                             128   -0.34 9  161 353 
 OCA  HN I         626  6.62        40.5 0.34            123            161 353 
 ZAR  HE ES        626  9.22                             121   -0.96 8  206 292 
 CHI  HZ EP        625 50.07                             116   -0.01 8  249 196 
 CHI  HN ES        626 19.27                             116    0.02 8  249 196 
 CHI  HN I         626 25.22         7.7 0.40            110            249 196 
 HEL  HZ EP        625 53.98                             114    1.16 8  274 256 
                                                                                
