 2012  5 7 0606 50.3 L   6.742 -73.181132.2  RSN  6 0.5 1.6LRSN                1
 GAP=135        1.11       8.7     7.1 10.8 -0.6972E+01  0.2010E+02  0.1412E+02E
 Epicentro: VILLANUEVA - SANTANDER                                             3
 ACTION:UP  12-07-05 12:03 OP:pat  STATUS:               ID:20120507060650 L   I
 2012-05-07-0600-00M.COL___173                                                 6
 STAT SP IPHASW D HRMM SECON CODA AMPLIT PERI AZIMU VELO SNR AR TRES W  DIS CAZ7
 BAR2 SZ ES   1    6 7 21.63                             172    -0.5 7   17 181 
 BAR2 SZ I         6 7 25.23        14.9 0.28                            17 181 
 BRR  HZ IP     C  6 7 10.29                             151     0.310   71 305 
 BRR  HE ES   2    6 7 25.91                             151     0.5 5   71 305 
 BRR  HZ I         6 7 28.28        14.3 0.14                            71 305 
 PAM  SZ EP        6 7 11.37                             146    -0.210   85  39 
 PAM  SN ES   1    6 7 28.12                             146    -0.1 7   85  39 
 RUS  HZ EP        6 7 12.87                             142     0.610   95 173 
 RUS  HZ I         6 7 32.29         2.8 0.38                            95 173 
 PTB  HZ EP        6 7 15.04                             130    -0.7 9  143 261 
 PTB  HN ES   2    6 7 35.73                             130     0.2 5  143 261 
 ZAR  HZ EP   2    6 7 21.47                             119    -0.3 4  203 294 
 ZAR  HN ES   2    6 7 47.11                             119     0.8 4  203 294 
 ZAR  HZ I         6 7 53.20         4.5 0.24                           203 294 
                                                                                
