 2017  7 7 0106 16.3 L   7.323 -73.760 93.7  RSN  5 0.5 1.4LRSN                1
 GAP=170        1.22       7.2     3.7  9.6  0.1519E+01  0.2880E+01 -0.1627E+02E
 Epicentro: PUERTO WILCHES - SANTANDER                                         3
 ACTION:UPD 17-08-30 15:30 OP:rebc STATUS:               ID:20170707010616 L   I
 OLDACT:DUP 17-07-07 14:26 OP:ar   STATUS:               ID:20170707005746d    3
 OLDACT:REG 17-07-07 12:49 OP:ar   STATUS:               ID:20170707005745     3
 2017-07-07-0058-00M.COL___371                                                 6
 STAT SP IPHASW D HRMM SECON CODA AMPLIT PERI AZIMU VELO AIN AR TRES W  DIS CAZ7
 BRR  HZ EP        1 6 29.00                             164   -0.3610 24.5 168 
 BRR  HN ES        1 6 39.61                             164    0.0410 24.5 168 
 BRR  HZ I         1 6 40.52        16.1 0.16            169           24.5 168 
 BAR2 EZ IPg       1 6 35.89                             129    0.6410  103 142 
 BAR2 HN ES        1 6 50.71                             129    0.6510  103 142 
 PTB  HZ EP        1 6 35.67                             125   -0.5610  116 222 
 PTB  HN ES        1 6 51.26                             125   -0.5410  116 222 
 PTB  HZ I         1 6 51.62         2.1 0.14            127            116 222 
 PAM  EZ EP        1 6 36.68                             125   -0.2910  117  89 
 PAM  EN ES        1 6 52.71                             125   -0.4110  117  89 
 PAM  EZ I         1 6 53.64         7.7 0.34            127            117  89 
 ZAR  HZ EP        1 6 37.39                             123    0.4810  123 279 
 ZAR  HN ES        1 6 53.34                             123    0.3310  123 279 
 ZAR  HZ I         1 6 55.86         6.8 0.32            124            123 279 
                                                                                
