 2011  4 7 0414 35.9 L   6.717 -73.090140.0  RSN  8 0.3 2.0LRSN                1
 GAP=165        0.63       4.4     4.5  5.7 -0.7872E+01 -0.1355E+01  0.1322E+02E
 Epicentro: JORDAN - SANTANDER                                                 3
 ACTION:UP  11-06-22 15:29 OP:REBC STATUS:               ID:20110407041435 L   I
 2011-04-07-0400-00M.COL___139                                                 6
 STAT SP IPHASW D HRMM SECON CODA AMPLIT PERI AZIMU VELO SNR AR TRES W  DIS CAZ7
 BAR2 SZ EP        414 55.00                             173     0.310   17 217 
 BAR2 SZ I         414 55.55        20.0 0.15                            17 217 
 BAR2 SZ ES   1    415  9.27                             173    -0.1 7   17 217 
 BRR  HN ES        415 13.60                             148     0.110   81 302 
 PAM  SZ EP        414 57.81                             149     0.110   81  32 
 PAM  SN ES   1    415 14.52                             149    -0.2 7   81  32 
 BRR  HZ IP     C  414 56.79                             148    -0.210   81 302 
 BRR  HZ I         415 17.07        26.9 0.37                            81 302 
 NOR  SN ES   2    415 38.79                             117    -0.1 4  235 237 
 CHI  HZ EP   1    415 11.80                             117    -0.7 6  242 197 
 CHI  HE ES   2    415 41.47                             117     0.4 4  242 197 
 CHI  HZ I         415 46.64         3.7 0.57                           242 197 
 HEL  HZ EP   2    415 16.10                             113    -0.1 4  276 258 
 HEL  HE ES   2    415 48.08                             113     0.4 4  276 258 
 HEL  HZ I         415 53.36         6.5 0.39                           276 258 
 RREF HZ EP   2    415 21.81                             110     0.2 3  321 231 
 RREF HN ES   2    415 56.39                             110    -0.9 3  321 231 
 RREF HZ I         416  7.49         3.9 0.50                           321 231 
 PRA  HZ EP   1    415 29.11                             106     0.5 4  387 211 
 PRA  HN ES   1    416  9.90                             106     0.1 4  387 211 
                                                                                
