 2017 10 7 0257 39.5 L   6.844 -73.075138.5  RSN  7 0.4 1.7LRSN                1
 GAP=215        0.87       4.5     5.1  6.7  0.1173E+01  0.1403E+02 -0.7169E+01E
 Epicentro: LOS SANTOS - SANTANDER                                             3
 ACTION:UPD 17-11-07 19:29 OP:rebc STATUS:               ID:20171007025739 L   I
 OLDACT:DUP 17-10-07 14:50 OP:dhb  STATUS:               ID:20171007024744d    3
 2017-10-07-0248-00M.COL___438                                                 6
 STAT SP IPHASW D HRMM SECON CODA AMPLIT PERI AZIMU VELO AIN AR TRES W  DIS CAZ7
 BAR2 EZ IP     C  257 58.71                             167    0.3010 30.3 203 
 BAR2 EZ ES        258 13.32                             167    0.1610 30.3 203 
 BAR2 EZ I         258 14.39        14.2 0.18            168           30.3 203 
 RUS  HZ EP        258  3.30                             141    0.4210  105 181 
 RUS  HN ES        258 20.78                             141   -0.3410  105 181 
 RUS  HZ I         258 21.95         8.1 0.24            145            105 181 
 SPBC HZ EP        258  7.78                             126   -0.51 9  172 220 
 SPBC HE ES        258 30.30                             126   -0.46 9  172 220 
 SPBC HZ I         258 31.80         3.8 0.18            128            172 220 
 ZAR  HZ EP        258 12.32                             120    0.27 8  210 290 
 ZAR  HN ES        258 37.32                             120   -0.13 8  210 290 
 ZAR  HZ I         258 45.48         3.6 0.12            121            210 290 
 NOR  HZ EP        258 15.63                             116   -0.18 8  244 235 
 NOR  HN ES        258 44.27                             116    0.13 8  244 235 
 NOR  HZ I         258 45.40         3.0 0.32            118            244 235 
 GUY2CHN ES        258 59.09                             110    0.69 7  310 235 
 GUY2CHZ I         259  4.10         1.7 0.22                           310 235 
 SJC  HZ EP        258 34.33                             104   -0.52 6  410 326 
 SJC  HE ES   4    259 15.46                             104   -2.57 0  410 326 
 SJC  HZ I         259 19.04         1.5 0.48            106            410 326 
                                                                                
