 2014 10 7 0346 54.9 L   6.805 -73.286154.0  RSN  4 0.5 1.2LRSN                1
 GAP=208        1.08      11.4    14.3 18.1 -0.7854E+02 -0.1531E+03  0.1182E+03E
 Epicentro: ZAPATOCA - SANTANDER                                               3
 ACTION:UPD 14-11-29 23:47 OP:nd   STATUS:               ID:20141007034654 L   I
 OLDACT:UP  14-10-07 16:33 OP:fm   STATUS:               ID:20141007033750d    3
 OLDACT:DUP 14-10-07 16:31 OP:fm   STATUS:               ID:20141007033750d    3
 OLDACT:DUP 14-10-07 16:23 OP:fm   STATUS:               ID:20141007033749d    3
 2014-10-07-0337-48M.COL___289                                                 6
 STAT SP IPHASW D HRMM SECON CODA AMPLIT PERI AZIMU VELO AIN AR TRES W  DIS CAZ7
 BAR2 SZ EP        347 15.11                             170   -0.5010 26.2 154 
 BAR2 SZ I         347 31.16         3.7 0.28            161           26.2 154 
 BRR  HZ EP        347 16.88                             158    0.5710 57.7 305 
 BRR  HN ES        347 33.02                             158    0.0310 57.7 305 
 BRR  HZ I         347 34.45         2.3 0.30            167           57.7 305 
 PTB  HE ES   1    347 41.12                             137   -0.73 7  133 257 
 PTB  HZ I         347 48.73         2.5 0.44            140            133 257 
 SPBC HZ EP   1    347 23.21                             132   -0.06 7  154 214 
 SPBC HE ES   1    347 46.01                             132    0.64 7  154 214 
 SPBC HZ I         347 49.47         1.3 0.20            131            154 214 
                                                                                
