 2017  7 7 0329 42.7 L   7.226 -73.330135.7  RSN  4 0.2 1.2LRSN                1
 GAP=247        0.58       7.4     4.0  4.9  0.6179E+01 -0.2263E+01 -0.4106E+01E
 Epicentro: LEBRIJA - SANTANDER                                                3
 ACTION:UPD 17-08-30 15:30 OP:rebc STATUS:               ID:20170707032942 L   I
 OLDACT:DUP 17-07-07 15:56 OP:ar   STATUS:               ID:20170707031728d    3
 2017-07-07-0318-00M.COL___374                                                 6
 STAT SP IPHASW D HRMM SECON CODA AMPLIT PERI AZIMU VELO AIN AR TRES W  DIS CAZ7
 BRR  HZ EP        330  1.10                             161   -0.3110 44.1 253 
 BRR  HN ES        330 16.10                             161    0.1010 44.1 253 
 BRR  HZ I         330 17.71         3.8 0.16            153           44.1 253 
 BAR2 EZ EP        330  3.33                             151    0.1710 71.9 167 
 BAR2 EZ ES        330 19.09                             151   -0.0210 71.9 167 
 BAR2 EZ I         330 20.29         5.5 0.14            145           71.9 167 
 PTB  HZ EP        330  8.96                             130    0.28 9  146 239 
 PTB  HN ES        330 28.72                             130   -0.22 9  146 239 
 PTB  HZ I         330 35.05         0.9 0.30            126            146 239 
 ZAR  HZ EP   9    330 12.75                             125    1.62 0  171 280 
 ZAR  HN ES        330 35.14                                    0.21 9  171 280 
                                                                                
