 2012  1 7 0423  0.9 L   6.794 -73.168144.9  RSN  6 0.3 1.4LRSN                1
 GAP=134        0.64       3.7     4.3  5.7 -0.1661E+01  0.2585E+01  0.5582E+01E
 Epicentro: LOS SANTOS - SANTANDER                                             3
 ACTION:UP  12-02-03 08:14 OP:REBC STATUS:               ID:20120107042300 L   I
 2012-01-07-0420-00M.COL___186                                                 6
 STAT SP IPHASW D HRMM SECON CODA AMPLIT PERI AZIMU VELO SNR AR TRES W  DIS CAZ7
 BAR2 SZ EP   1    423 19.85                             171    -0.6 7   22 184 
 BAR2 SZ ES   1    423 35.60                             171     0.0 7   22 184 
 BAR2 SZ I         423 38.16         8.6 0.31                            22 184 
 BRR  HZ EP   1    423 22.18                             153     0.3 7   69 300 
 BRR  HE ES   1    423 38.50                             153     0.3 7   69 300 
 BRR  HZ I         423 42.68         5.5 0.28                            69 300 
 PAM  SZ EP   1    423 23.29                             150     0.1 7   79  41 
 PAM  SN ES   1    423 40.45                             150    -0.1 7   79  41 
 RUS  HZ EP   1    423 24.33                             144    -0.2 7  100 175 
 RUS  HN ES   1    423 43.12                             144     0.1 7  100 175 
 RUS  HZ I         423 44.20         3.6 0.31                           100 175 
 PTB  HZ EP   1    423 27.67                             132     0.1 7  145 259 
 PTB  HN ES   1    423 47.95                             132    -0.4 7  145 259 
 CHI  HZ EP   1    423 38.55                             117     0.1 6  247 195 
 CHI  HZ I         423 39.00         1.4 0.19                           247 195 
 CHI  HN ES   1    424  7.98                             117     0.3 6  247 195 
                                                                                
