 2014 11 7 0419 23.6 L   6.786 -73.116141.4  RSN  5 0.5 1.3LRSN                1
 GAP=141        1.19       5.6     6.0  9.7 -0.8454E+01  0.5584E+01  0.1031E+02E
 Epicentro: LOS SANTOS - SANTANDER                                             3
 ACTION:UPD 14-12-19 15:40 OP:nd   STATUS:               ID:20141107041923 L   I
 OLDACT:REG 14-11-07 12:50 OP:cam  STATUS:               ID:20141107041817     3
 2014-11-07-0418-17M.COL___298                                                 6
 STAT SP IPHASW D HRMM SECON CODA AMPLIT PERI AZIMU VELO AIN AR TRES W  DIS CAZ7
 BRR  HZ EP        419 44.66                             150    0.1810 74.9 298 
 BRR  HN ES        420  1.20                             150    0.4210 74.9 298 
 PAM  SZ EP        419 45.40                             150    0.1110 76.6  37 
 PAM  SE ES        420  2.12                             150   -0.1010 76.6  37 
 PAM  SZ I         420  4.36         3.1 0.34            154           76.6  37 
 RUS  HZ EP        419 47.15                             143    0.3710 98.8 178 
 RUS  HE ES        420  4.27                             143   -0.6010 98.8 178 
 RUS  HZ I         420  6.27         1.6 0.20            144           98.8 178 
 PTB  HZ EP        419 49.65                             130   -0.83 9  151 260 
 PTB  HN ES        420 10.98                             130   -0.47 9  151 260 
 PTB  HZ I         420 13.21         4.4 0.52            132            151 260 
 SPBC HZ EP        419 52.01                             128    0.17 9  164 220 
 SPBC HN ES        420 14.61                             128    0.73 9  164 220 
 SPBC HZ I         420 19.70         2.3 0.18            129            164 220 
                                                                                
