 2016  5 7 0233 21.0 L   6.822 -73.179142.2  RSN  6 0.4 1.3LRSN                1
 GAP=198        0.88       4.0     4.9  7.7  0.4833E+01  0.4032E+01 -0.1361E+02E
 Epicentro: ZAPATOCA - SANTANDER                                               3
 ACTION:UPD 16-08-18 17:42 OP:cam  STATUS:               ID:20160507023321 L   I
 OLDACT:REG 16-05-07 15:11 OP:ak   STATUS:               ID:20160507022751     3
 2016-05-07-0227-51M.COL___294                                                 6
 STAT SP IPHASW D HRMM SECON CODA AMPLIT PERI AZIMU VELO AIN AR TRES W  DIS CAZ7
 BAR2 EZ EP        233 40.66                             169    0.3810 25.4 181 
 BAR2 EZ ES        233 55.47                             169    0.1810 25.4 181 
 RUS  HZ EP        233 45.09                             142    0.4610  103 174 
 RUS  HN ES        234  2.53                             142   -0.5210  103 174 
 RUS  HZ I         234  4.41         2.9 0.40            144            103 174 
 PTB  HZ EP        233 47.21                             132   -0.21 9  145 258 
 PTB  HN ES        234  7.90                             132   -0.11 9  145 258 
 PTB  HZ I         234 15.54         1.9 0.22            130            145 258 
 SPBC HN ES        234 11.07                             128   -0.14 9  163 217 
 ZAR  HZ EP   2    233 53.42                             122    0.63 4  200 292 
 ZAR  HN ES        234 17.96                             122    0.39 9  200 292 
 ZAR  HZ I         234 23.74         3.2 0.24            122            200 292 
 SML  HZ EP        233 56.46                             117   -0.58 8  240 336 
 SML  HN ES        234 24.94                             117   -0.20 8  240 336 
                                                                                
