 2011 12 7 0730 20.2 L   6.744 -73.108147.1  RSN  7 0.4 1.4LRSN                1
 GAP=144        0.60       3.8     6.0  7.8 -0.3995E+01  0.8412E+01  0.4273E+01E
 Epicentro: JORDAN - SANTANDER                                                 3
 ACTION:UPD 12-07-13 16:14 OP:ep   STATUS:               ID:20111207073020 L   I
 2011-12-07-0730-00M.COL___183                                                 6
 STAT SP IPHASW D HRMM SECON CODA AMPLIT PERI AZIMU VELO AIN AR TRES W  DIS CAZ7
 BAR2 SZ EP   1    730 39.79                             172   -0.10 7 18.7 206 
 BAR2 SZ I         730 42.83         6.4 0.66                          18.7 206 
 BRR  HZ EP   1    730 41.62                             151   -0.25 7 77.9 301 
 BRR  HN ES   2    730 58.51                             151   -0.27 5 77.9 301 
 BRR  HZ I         731  1.16         4.8 0.12                          77.9 301 
 PAM  SZ EP   1    730 42.76                             150    0.07 7 79.8  34 
 PAM  SN ES   2    730 59.61                             150   -0.63 5 79.8  34 
 PAM  SZ I         731  2.31         2.4 0.41                          79.8  34 
 RUS  HZ EP   1    730 43.98                             146    0.36 7 94.2 178 
 RUS  HZ I         730 45.29         3.4 0.18                          94.2 178 
 RUS  HN ES   2    731  2.36                             146    0.46 5 94.2 178 
 OCA  SZ EP   1    730 49.46                             129    0.23 7  167 352 
 OCA  SZ ES   2    731 12.25                             129    0.37 5  167 352 
 OCA  SZ I         731 18.15         3.5 0.31                           167 352 
 HEL  HN ES   2    731 32.99                             115    0.59 4  275 257 
 PRA  HZ EP   1    731 12.60                             107   -0.77 4  389 211 
 PRA  HN ES   2    731 54.29                             107   -0.57 3  389 211 
                                                                                
