 2015  4 7 0614 11.3 L   6.775 -73.137148.9  RSN  7 0.4 1.8LRSN                1
 GAP=139        1.05       4.5     4.6  6.7 -0.6891E+00  0.7598E+01  0.1728E+00E
 Epicentro: LOS SANTOS - SANTANDER                                             3
 ACTION:UPD 15-06-03 16:53 OP:cam  STATUS:               ID:20150407061411 L   I
 OLDACT:REG 15-04-07 19:21 OP:mh   STATUS:               ID:20150407060741     3
 2015-04-07-0607-41M.COL___264                                                 6
 STAT SP IPHASW D HRMM SECON CODA AMPLIT PERI AZIMU VELO AIN AR TRES W  DIS CAZ7
 BAR2 EZ EP        614 31.25                             172   -0.0410 20.8 194 
 BAR2 EZ ES        614 46.66                             172   -0.2010 20.8 194 
 BAR2 EZ I         614 48.92        13.3 0.52            170           20.8 194 
 BRR  HZ EP        614 33.24                             152    0.3010 73.3 300 
 BRR  HN ES        614 50.54                             152    0.7510 73.3 300 
 BRR  HZ I         614 53.40         8.5 0.12            150           73.3 300 
 PAM  SZ EP        614 34.10                             151    0.1310 78.9  38 
 PAM  SN ES        614 51.36                             151   -0.2710 78.9  38 
 PAM  SZ I         614 53.45         8.9 0.24            155           78.9  38 
 RUS  HZ EP        614 35.23                             145    0.0410 97.8 176 
 RUS  HN ES        614 53.55                             145   -0.2610 97.8 176 
 RUS  HZ I         614 55.09         5.2 0.36            148           97.8 176 
 PTB  HZ EP        614 37.91                             133   -0.68 9  148 260 
 PTB  HN ES        614 59.16                             133   -0.69 9  148 260 
 PTB  HZ I         615  5.15        10.6 0.26            133            148 260 
 SPBC HZ EP        614 40.21                             130    0.28 9  162 220 
 SPBC HN ES        615  2.87                             130    0.64 9  162 220 
 SPBC HZ I         615  7.95        12.1 0.22            131            162 220 
 ZAR  HZ EP        614 44.30                             123    0.13 8  206 293 
 ZAR  HN ES        615  9.63                             123   -0.16 8  206 293 
 ZAR  HZ I         615 16.68         9.3 0.30            124            206 293 
                                                                                
