 2012  9 7 0818 30.6 L   6.792 -73.134147.1  RSN  9 0.4 2.2LRSN                1
 GAP=138        0.78       4.3     4.3  6.2 -0.1826E+01  0.6625E+01  0.6533E+01E
 Epicentro: LOS SANTOS - SANTANDER                                             3
 ACTION:UPD 12-10-22 14:17 OP:ep   STATUS:               ID:20120907081830 L   I
 2012-09-07-0817-59S.COL___226                                                 6
 STAT SP IPHASW D HRMM SECON CODA AMPLIT PERI AZIMU VELO AIN AR TRES W  DIS CAZ7
 BAR2 SZ EP   1    818 50.43                             171    0.03 7 22.7 194 
 BAR2 SZ ES   1    819  5.75                             171   -0.07 7 22.7 194 
 BAR2 SZ I         819  7.78        42.0 0.24                          22.7 194 
 GIR2 SZ EP   1    818 50.49                             167    0.01 7 32.4 348 
 GIR2 SZ ES   1    819  5.67                             167   -0.30 7 32.4 348 
 BRR  HZ EP        818 52.24                             152    0.2410 72.8 299 
 BRR  HN ES   1    819  9.20                             152    0.53 7 72.8 299 
 BRR  HN I         819  9.60        87.5 0.22                          72.8 299 
 PAM  SZ EP   1    818 53.35                             151    0.38 7 77.2  38 
 PAM  SZ I         818 53.57        14.8 0.22                          77.2  38 
 PAM  SE ES   1    819 10.30                             151   -0.10 7 77.2  38 
 RUS  HZ EP   1    818 54.18                             144   -0.25 7 99.6 177 
 RUS  HN ES   1    819 13.00                             144    0.00 7 99.6 177 
 RUS  HZ I         819 14.25        14.3 0.17                          99.6 177 
 PTB  HZ EP   1    818 57.01                             132   -0.79 7  149 259 
 PTB  HE ES   1    819 18.30                             132   -0.69 7  149 259 
 PTB  HZ I         819 20.50         9.1 0.18                           149 259 
 ZAR  HE ES   1    819 28.73                             122   -0.08 6  206 292 
 NOR  SN ES   1    819 35.43                             119    0.97 6  235 235 
 PRA  HZ EP   1    819 24.17                             107    0.00 4  392 210 
 PRA  HN ES   1    820  6.05                             107    0.11 4  392 210 
 PRA  HZ I         820 11.40         4.7 0.29                           392 210 
                                                                                
