 2012  8 7 0411 46.8 L   6.792 -73.106140.4  RSN  8 0.5 2.5LRSN                1
 GAP=142        1.14       4.5     6.9  7.9  0.2007E+01  0.6704E+01  0.3365E+01E
 Epicentro: LOS SANTOS - SANTANDER                                             3
 ACTION:UPD 12-09-10 11:55 OP:ep   STATUS:               ID:20120807041146 L   I
 2012-08-07-0410-00M.COL___216                                                 6
 STAT SP IPHASW D HRMM SECON CODA AMPLIT PERI AZIMU VELO AIN AR TRES W  DIS CAZ7
 BAR2 SZ EP        412  6.13                             170    0.3910 23.6 201 
 BAR2 SZ I         412  6.68        83.8 0.17                          23.6 201 
 BAR2 SZ ES   1    412 19.87                             170   -0.68 7 23.6 201 
 PAM  SZ EP        412  8.96                             151    0.6810 75.4  37 
 PAM  SN ES   1    412 24.31                             151   -0.75 7 75.4  37 
 BRR  HZ IP     C  412  7.93                             150    0.3510 75.5 298 
 BRR  HN ES        412 24.58                             150    0.7510 75.5 298 
 BRR  HZ I         412 25.90        99.1 0.21                          75.5 298 
 RUS  HZ EP        412 10.07                             143    0.1710 99.5 179 
 RUS  HZ I         412 10.85        25.2 0.24                          99.5 179 
 RUS  HN ES   1    412 27.55                             143   -0.40 7 99.5 179 
 OCA  HZ EP        412 14.22                             128   -0.58 9  162 352 
 OCA  HE ES   1    412 36.40                             128   -0.27 7  162 352 
 ZAR  HZ EP   1    412 18.88                             121   -0.44 6  209 292 
 ZAR  HE ES   1    412 44.06                             121   -0.66 6  209 292 
 ZAR  HZ I         412 49.74        43.5 0.23                           209 292 
 NOR  SZ EP   1    412 22.14                             117   -0.37 6  238 235 
 CHI  HZ EP   1    412 23.97                             116   -0.23 6  249 196 
 CHI  HN ES   1    412 53.26                             116   -0.14 6  249 196 
 CHI  HZ I         412 57.59        18.2 0.35                           249 196 
                                                                                
