 2016  6 7 0015  2.5 L   6.553 -73.580110.4  RSN  4 0.2 0.9LRSN                1
 GAP=139        0.54       3.0     2.2  4.9 -0.1020E+01  0.1282E+01 -0.2998E+01E
 Epicentro: EL CARMEN - SANTANDER                                              3
 ACTION:UPD 16-07-21 22:16 OP:rebc STATUS:               ID:20160607001502 L   I
 OLDACT:UP  16-06-07 14:47 OP:dani STATUS:               ID:20160607000748     3
 OLDACT:UP  16-06-07 14:21 OP:dani STATUS:               ID:20160607000748     3
 OLDACT:REG 16-06-07 12:18 OP:dani STATUS:               ID:20160607000748     3
 2016-06-07-0007-48M.COL___334                                                 6
 STAT SP IPHASW D HRMM SECON CODA AMPLIT PERI AZIMU VELO AIN AR TRES W  DIS CAZ7
 BAR2 EZ EP        015 19.10                             157    0.3910 44.2  84 
 BAR2 EZ ES        015 31.45                             157    0.1110 44.2  84 
 RUS  HZ EP        015 22.20                             138   -0.0210 91.4 143 
 RUS  HN ES        015 37.43                             138   -0.1610 91.4 143 
 RUS  HZ I         015 41.61         1.0 0.54                          91.4 143 
 PTB  HZ EP        015 21.88                             135   -0.1510 96.9 269 
 PTB  HN ES        015 37.25                             135    0.0010 96.9 269 
 PTB  HZ I         015 38.06         2.0 0.18                          96.9 269 
 PAM  EZ EP        015 25.83                             127    0.0710  130  48 
 PAM  EN ES        015 43.63                             127   -0.2610  130  48 
 PAM  EZ I         015 45.13         1.6 0.20                           130  48 
                                                                                
