 2013  3 7 0607  5.9 L   6.707 -73.140161.6  RSN  4 0.2 1.4LRSN                1
 GAP=231        0.55       5.7     6.1  6.4  0.1942E+02 -0.1932E+01 -0.9705E+01E
 Epicentro: JORDAN - SANTANDER                                                 3
 ACTION:UPD 13-04-09 14:00 OP:ep   STATUS:               ID:20130307060706dL   I
 2013-03-07-0600-00M.COL___231                                                 6
 STAT SP IPHASW D HRMM SECON CODA AMPLIT PERI AZIMU VELO AIN AR TRES W  DIS CAZ7
 BAR2 SZ EP   2    6 7 27.04                             175   -0.25 5 13.5 200 
 BAR2 SZ I         6 7 43.27         4.2 0.21            162           13.5 200 
 BRR  HZ IP     C  6 7 28.84                             153   -0.2610 77.1 305 
 BRR  HN ES   1    6 7 47.48                             153    0.29 7 77.1 305 
 BRR  HE I         6 7 51.18         4.8 0.22            149           77.1 305 
 RUS  HZ EP   1    6 7 30.98                             150    0.40 7 90.3 176 
 RUS  HE ES        6 7 49.72                             150   -0.1110 90.3 176 
 RUS  HE I         6 7 50.68         3.8 0.20            152           90.3 176 
 PTB  HZ EP        6 7 34.21                             136    0.10 9  147 263 
 PTB  HE ES   1    6 7 56.02                             136   -0.10 7  147 263 
                                                                                
