 2016  3 7 0853 48.6 L   6.801 -73.178143.1  RSN  4 0.2 1.3LRSN                1
 GAP=143        0.62       3.7     3.6  5.3 -0.4219E+01  0.5602E+01 -0.1964E+01E
 Epicentro: LOS SANTOS - SANTANDER                                             3
 ACTION:UPD 16-05-13 21:22 OP:cam  STATUS:               ID:20160307085348 L   I
 OLDACT:DUP 16-03-07 19:11 OP:cara STATUS:               ID:20160307084750d    3
 2016-03-07-0847-49M.COL___315                                                 6
 STAT SP IPHASW D HRMM SECON CODA AMPLIT PERI AZIMU VELO AIN AR TRES W  DIS CAZ7
 BAR2 EZ ES        854 22.75                             170   -0.2710 23.1 181 
 BAR2 EZ I         854 24.12         8.3 0.22            171           23.1 181 
 PAM  EZ EP        854 10.89                             150    0.1710 79.6  42 
 PAM  EN ES        854 27.97                             150    0.0310 79.6  42 
 PAM  EZ I         854 30.09         3.5 0.38            152           79.6  42 
 RUS  HZ EP        854 11.83                             143   -0.3410  101 174 
 RUS  HZ I         854 12.61         2.1 0.48            147            101 174 
 RUS  HE ES        854 30.85                             143    0.3310  101 174 
 PTB  HZ EP        854 15.12                             132    0.03 9  144 259 
 PTB  HN ES        854 35.77                             132    0.06 9  144 259 
 PTB  HZ I         854 43.07         2.8 0.42            131            144 259 
                                                                                
