 2013  1 7 0938 11.2 L   6.802 -73.143147.5  RSN  6 0.5 1.4LRSN                1
 GAP=238        1.33       8.4     9.2 10.0  0.4585E+02  0.2492E+02  0.2885E+02E
 Epicentro: LOS SANTOS - SANTANDER                                             3
 ACTION:UPD 13-02-15 09:12 OP:ep   STATUS:               ID:20130107093811 L   I
 2013-01-07-0929-50M.COL___199                                                 6
 STAT SP IPHASW D HRMM SECON CODA AMPLIT PERI AZIMU VELO AIN AR TRES W  DIS CAZ7
 BAR2 SZ EP        938 30.84                             171   -0.1910 23.6 191 
 BAR2 SZ ES        938 46.23                             171   -0.2810 23.6 191 
 BAR2 SZ I         938 47.87         5.6 0.28            167           23.6 191 
 BRR  HN ES        938 50.30                             153    1.1210 71.3 298 
 BRR  HN I         938 54.78         6.6 0.16            150           71.3 298 
 RUS  HZ EP        938 35.05                             144   -0.0710  101 176 
 RUS  HN ES        938 53.35                             144   -0.4410  101 176 
 RUS  HN I         938 55.49         3.2 0.44            145            101 176 
 PTB  HZ EP        938 38.04                             132   -0.28 9  148 259 
 PTB  HN ES        938 58.88                             132   -0.61 9  148 259 
 PTB  HN I         939  4.42         3.6 0.38            131            148 259 
 ZAR  HN ES        939  8.95                             123   -0.22 9  204 292 
 ZAR  HN I         939 13.12         2.8 0.12            123            204 292 
 CHI  HZ EP        938 49.49                             117    0.48 8  249 195 
 CHI  HN ES        939 19.30                             117    0.79 8  249 195 
 CHI  HN I         939 22.86         1.7 0.22            119            249 195 
                                                                                
