 2016  6 7 0559 50.5 L   6.819 -73.149147.3  RSN 14 0.5 2.0LRSN                1
 GAP=178        1.23       3.7     6.8  7.5 -0.5796E+01 -0.5517E+01  0.4672E+01E
 Epicentro: LOS SANTOS - SANTANDER                                             3
 ACTION:UPD 16-07-21 22:16 OP:rebc STATUS:               ID:20160607055950 L   I
 OLDACT:UP  16-06-07 18:05 OP:dani STATUS:               ID:20160607055741     3
 OLDACT:UP  16-06-07 17:58 OP:dani STATUS:               ID:20160607055741     3
 OLDACT:REG 16-06-07 13:14 OP:dani STATUS:               ID:20160607055741     3
 2016-06-07-0557-41M.COL___319                                                 6
 STAT SP IPHASW D HRMM SECON CODA AMPLIT PERI AZIMU VELO AIN AR TRES W  DIS CAZ7
 BAR2 EZ EP        6 0 10.29                             170   -0.0910 25.3 188 
 BAR2 EZ I         6 0 26.64        18.4 0.28                          25.3 188 
 BRR  HZ EP     C  6 0 11.93                             153    0.1610 69.9 297 
 BRR  HE ES        6 0 29.25                             153    0.9110 69.9 297 
 BRR  HZ I         6 0 32.24        15.1 0.28                          69.9 297 
 RUS  HZ EP        6 0 14.39                             144   -0.1910  103 176 
 RUS  HE ES        6 0 32.70                             144   -0.6410  103 176 
 RUS  HZ I         6 0 34.28         9.6 0.24                           103 176 
 PTB  HZ EP        6 0 16.87                             132   -0.76 9  148 258 
 PTB  HN ES        6 0 38.05                             132   -0.71 9  148 258 
 PTB  HZ I         6 0 40.51         9.2 0.20                           148 258 
 OCA  HZ EP        6 0 19.07                             130    0.31 9  158 353 
 OCA  HE ES        6 0 41.16                             130    0.38 9  158 353 
 OCA  HZ I         6 0 44.91        28.8 0.20                           158 353 
 SPBC HZ EP        6 0 19.15                             129   -0.13 9  165 218 
 SPBC HN ES        6 0 41.31                             129   -0.39 9  165 218 
 SPBC HZ I         6 0 48.17        23.0 0.34                           165 218 
 NOR  HZ EP        6 0 26.28                             119   -0.17 8  236 234 
 NOR  HN ES        6 0 54.56                             119    0.10 8  236 234 
 CHI  HZ EP        6 0 28.56                             117    0.04 8  251 195 
 CHI  HN ES        6 0 58.49                             117    0.34 8  251 195 
 CHI  HZ I         6 1  4.04         5.7 0.38                           251 195 
 ROSC BZ EP        6 0 29.92                             117    1.01 8  254 211 
 ROSC BE ES   4    6 1  2.11                             117    3.27 0  254 211 
 ROSC BZ I         6 1  4.25        11.0 0.30                           254 211 
 HEL  HZ EP   4    6 0 32.46                             115    1.62 0  272 255 
 HEL  HE ES   4    6 1  5.42                             115    3.14 0  272 255 
 HEL  HZ I         6 1  9.00         5.5 0.30                           272 255 
 URE  HZ EP   4    6 0 30.55                             114   -1.00 0  283 292 
 URE  HN ES   4    6 1  0.86                             114   -2.69 0  283 292 
 URE  HZ I         6 1  2.50         6.7 0.12                           283 292 
 LL6C HZ EP        6 0 35.28                             111   -0.78 7  323 358 
 PRA  HZ EP        6 0 44.25                             107   -0.04 6  394 209 
 PRA  HE ES        6 1 27.33                             107    1.10 6  394 209 
 PRA  HZ I         6 1 30.40         4.5 0.30                           394 209 
 ORTC HZ EP        6 0 45.12                             106    0.45 6  397 216 
 ORTC HN ES   4    6 1 28.73                             106    1.82 0  397 216 
 ORTC HZ I         6 1 33.40         2.3 0.48                           397 216 
                                                                                
