 2016  3 7 0419  5.0 L   6.823 -73.179145.6  RSN  9 0.3 1.6LRSN                1
 GAP=131        0.76       2.3     3.2  4.7 -0.1527E+01  0.4456E+01  0.7384E+00E
 Epicentro: ZAPATOCA - SANTANDER                                               3
 ACTION:UPD 16-05-13 21:22 OP:cam  STATUS:               ID:20160307041905 L   I
 OLDACT:REG 16-03-07 13:21 OP:cara STATUS:               ID:20160307041747     3
 2016-03-07-0417-47M.COL___318                                                 6
 STAT SP IPHASW D HRMM SECON CODA AMPLIT PERI AZIMU VELO AIN AR TRES W  DIS CAZ7
 BAR2 EZ IP        419 24.50                             170   -0.2010 25.5 181 
 BAR2 EZ ES        419 40.27                             170    0.2410 25.5 181 
 BAR2 EZ I         419 42.04         6.1 0.16            170           25.5 181 
 PAM  EZ IP     C  419 27.49                             151    0.2210 77.9  43 
 PAM  EE ES        419 44.90                             151    0.2910 77.9  43 
 PAM  EZ I         419 46.63         6.2 0.48            154           77.9  43 
 RUS  HZ EP        419 28.54                             143   -0.4410  103 174 
 RUS  HN ES        419 47.28                             143   -0.3810  103 174 
 RUS  HZ I         419 48.22         4.2 0.20            147            103 174 
 PTB  HZ EP        419 31.39                             133   -0.33 9  145 258 
 PTB  HN ES        419 52.14                             133   -0.39 9  145 258 
 PTB  HZ I         419 53.89         4.0 0.14            132            145 258 
 OCA  HZ EP        419 33.27                             130    0.20 9  157 354 
 OCA  HE ES        419 54.74                             130   -0.19 9  157 354 
 OCA  HZ I         419 59.10         6.3 0.74            131            157 354 
 SPBC HZ EP        419 33.45                             129   -0.05 9  163 217 
 SPBC HE ES        419 56.09                             129    0.39 9  163 217 
 SPBC HZ I         420  1.51         7.9 0.26            130            163 217 
 ZAR  HE ES        420  2.02                             123    0.04 9  200 292 
 ZAR  HZ I         420 12.96         4.3 0.26            123            200 292 
 CHI  HZ EP        419 42.80                             117   -0.09 8  250 194 
 CHI  HE ES        420 12.73                             117    0.31 8  250 194 
 CHI  HZ I         420 15.28         1.8 0.38            119            250 194 
 GUY2CHZ EP        419 49.07                             112    0.60 7  300 234 
 GUY2CHN ES        420 22.64                             112    0.29 7  300 234 
 GUY2CHZ I         420 29.63         2.0 0.58                           300 234 
                                                                                
