 2014  8 7 0809 55.3 L   6.799 -73.138152.9  RSN  7 0.5 1.4LRSN                1
 GAP=184        1.23       4.5     6.7  9.6  0.2752E+01 -0.4178E+01 -0.5102E+01E
 Epicentro: LOS SANTOS - SANTANDER                                             3
 ACTION:UPD 14-09-15 21:47 OP:nd   STATUS:               ID:20140807080955 L   I
 OLDACT:REG 14-08-07 12:39 OP:carl STATUS:               ID:20140807080813     3
 2014-08-07-0808-13M.COL___251                                                 6
 STAT SP IPHASW D HRMM SECON CODA AMPLIT PERI AZIMU VELO AIN AR TRES W  DIS CAZ7
 BAR2 SZ EP        810 15.92                             171    0.1010 23.4 192 
 BAR2 SZ I         810 34.90         3.1 0.20            173           23.4 192 
 BRR  HZ EP        810 17.84                             153    0.5310 72.0 298 
 BRR  HN ES        810 35.33                             153    0.8910 72.0 298 
 BRR  HZ I         810 40.14         3.4 0.24            155           72.0 298 
 RUS  HZ EP        810 19.79                             145    0.0110  100 177 
 RUS  HN ES        810 38.37                             145   -0.4810  100 177 
 RUS  HZ I         810 39.28         1.9 0.52            148            100 177 
 PTB  HZ EP        810 22.54                             133   -0.43 9  149 259 
 PTB  HN ES        810 43.70                             133   -0.82 9  149 259 
 PTB  HZ I         810 51.09         4.5 0.40            136            149 259 
 OCA  HZ EP        810 24.32                             131    0.09 9  161 353 
 OCA  HE ES        810 46.06                             131   -0.71 9  161 353 
 OCA  HZ I         810 53.34         4.7 0.58            133            161 353 
 SPBC HZ EP        810 24.88                             131    0.45 9  164 219 
 SPBC HE ES        810 47.35                             131    0.22 9  164 219 
 SPBC HZ I         810 54.47         2.8 0.18            134            164 219 
 ZAR  HZ EP        810 28.21                             124   -0.13 9  205 292 
 ZAR  HE ES        810 54.21                             124    0.12 9  205 292 
 ZAR  HZ I         811  0.01         3.3 0.26            126            205 292 
                                                                                
