 2016  9 7 0931 52.7 L   6.822 -73.112146.0  RSN  9 0.4 1.7LRSN                1
 GAP=186        0.82       2.6     4.2  5.2  0.8521E+00  0.2181E+01 -0.5786E+00E
 Epicentro: LOS SANTOS - SANTANDER                                             3
 ACTION:UPD 17-08-17 21:07 OP:lp   STATUS:               ID:20160907093152 L   I
 OLDACT:UP  16-09-07 17:47 OP:and  STATUS:               ID:20160907092731     3
 OLDACT:UP  16-09-07 17:10 OP:and  STATUS:               ID:20160907092731     3
 OLDACT:REG 16-09-07 13:16 OP:dani STATUS:               ID:20160907092731     3
 2016-09-07-0928-00M.COL___349                                                 6
 STAT SP IPHASW D HRMM SECON CODA AMPLIT PERI AZIMU VELO AIN AR TRES W  DIS CAZ7
 BAR2 EZ IP     C  932 12.44                             169    0.0210 26.5 197 
 BAR2 EZ ES        932 27.66                             169   -0.1510 26.5 197 
 BAR2 EZ I         932 30.25        14.0 0.26            167           26.5 197 
 BRR  HZ EP        932 13.40                             152   -0.5910 73.4 296 
 BRR  HN ES        932 31.33                             152    0.7210 73.4 296 
 BRR  HZ I         932 35.47        12.9 0.32            150           73.4 296 
 RUS  HZ EP        932 16.73                             143    0.1010  103 178 
 RUS  HE ES        932 35.42                             143    0.1210  103 178 
 RUS  HZ I         932 36.54         2.8 0.22            145            103 178 
 PTB  HZ EP   2    932 19.53                             131   -0.53 5  152 258 
 PTB  HE ES        932 41.08                             131   -0.32 9  152 258 
 PTB  HZ I         932 47.13         4.8 0.17            131            152 258 
 OCA  HZ EP        932 21.08                             130    0.23 9  158 352 
 OCA  HN ES        932 42.45                             130   -0.35 9  158 352 
 OCA  HZ I         932 45.72         9.0 0.22            133            158 352 
 SPBC HZ EP        932 21.65                             128    0.04 9  167 219 
 SPBC HE ES        932 44.22                             128    0.05 9  167 219 
 SPBC HZ I         932 51.35         8.1 0.22            129            167 219 
 ZAR  HZ EP        932 25.87                             122    0.45 8  207 291 
 ZAR  HN ES        932 50.83                             122   -0.11 8  207 291 
 ZAR  HZ I         932 55.65         4.4 0.22            123            207 291 
 CHI  HE ES        933  0.22                             117   -0.24 8  252 196 
 CHI  HZ I         933  3.79         3.0 0.12            119            252 196 
 GUY2CHZ EP   2    932 37.57                             112    0.76 4  306 235 
 GUY2CHN ES   2    933 11.19                             112   -0.03 4  306 235 
 GUY2CHZ I         933 18.87         2.4 0.35                           306 235 
                                                                                
