 2012  1 7 0540  6.9 L   6.703 -73.171160.5  RSN  5 0.2 1.5LRSN                1
 GAP=177        0.50       6.0     4.5  5.8  0.4297E+01 -0.5457E+00  0.8267E+00E
 Epicentro: VILLANUEVA - SANTANDER                                             3
 ACTION:UP  12-02-03 08:14 OP:REBC STATUS:               ID:20120107054006 L   I
 2012-01-07-0540-00M.COL___186                                                 6
 STAT SP IPHASW D HRMM SECON CODA AMPLIT PERI AZIMU VELO SNR AR TRES W  DIS CAZ7
 BAR2 SZ EP   2    540 28.09                             176    -0.1 5   12 186 
 BAR2 SZ ES   2    540 44.41                             176    -0.4 5   12 186 
 GIR2 SZ EP   2    540 28.23                             165    -0.4 5   42 357 
 BRR  HZ EP   1    540 29.99                             154     0.1 8   75 307 
 BRR  HZ I         540 30.29         6.2 0.19                            75 307 
 BRR  HN ES   1    540 48.07                             154     0.3 8   75 307 
 RUS  HZ EP   2    540 31.90                             150     0.4 5   90 174 
 RUS  HN ES   2    540 50.84                             150     0.2 5   90 174 
 RUS  HZ I         540 51.57         3.5 0.42                            90 174 
 PTB  HZ EP        540 34.75                             136     0.010  143 263 
 PTB  HN ES        540 56.33                             136    -0.110  143 263 
                                                                                
