 2014  4 7 0223 35.7 L   6.799 -73.183140.8  RSN  8 0.2 1.6LRSN                1
 GAP=132        0.62       2.3     2.9  4.4 -0.2036E+01  0.1752E+01  0.2793E+01E
 Epicentro: LOS SANTOS - SANTANDER                                             3
 ACTION:UPD 14-05-13 23:06 OP:nd   STATUS:               ID:20140407022335 L   I
 OLDACT:REG 14-04-07 12:29 OP:stll STATUS:               ID:20140407021806     3
 2014-04-07-0218-06M.COL___259                                                 6
 STAT SP IPHASW D HRMM SECON CODA AMPLIT PERI AZIMU VELO AIN AR TRES W  DIS CAZ7
 BRR  HZ EP        223 56.46                             153    0.3710 67.7 300 
 BRR  HZ I         223 58.63         6.0 0.44            150           67.7 300 
 BRR  HN ES        224 12.33                             153    0.3210 67.7 300 
 PAM  SZ EP        223 57.63                             149    0.1010 80.2  42 
 PAM  SZ I         223 57.84        15.3 0.22            151           80.2  42 
 PAM  SN ES        224 14.51                             149   -0.0710 80.2  42 
 RUS  HN ES        224 17.12                             143    0.0110  101 174 
 RUS  HZ I         224 18.36         5.6 0.36            143            101 174 
 PTB  HZ EP        224  1.63                             132   -0.24 9  144 259 
 PTB  HN ES        224 21.98                             132   -0.32 9  144 259 
 PTB  HZ I         224 24.74         5.0 0.30            130            144 259 
 OCA  HN ES   1    224 24.78                             128   -0.55 7  160 355 
 OCA  HZ I         224 29.57         4.6 0.38            128            160 355 
 SPBC HZ EP        224  3.68                             128    0.14 9  161 218 
 SPBC HN ES        224 25.14                             128   -0.13 9  161 218 
 SPBC HZ I         224 28.21         7.1 0.24            128            161 218 
 NOR  HZ EP        224 10.82                             118    0.07 8  231 234 
 NOR  HE ES        224 38.33                             118    0.22 8  231 234 
 NOR  HZ I         224 46.08         2.5 0.26            117            231 234 
 CHI  HZ EP        224 12.97                             116    0.00 8  247 194 
 CHI  HN ES        224 41.74                             116   -0.32 8  247 194 
 CHI  HZ I         224 45.45         1.0 0.22            116            247 194 
                                                                                
