 2014  9 7 0446 36.1 L   6.894 -73.073146.0  RSN  4 0.4 1.2LRSN                1
 GAP=252        0.73       8.9     7.8 12.8  0.4787E+02 -0.4140E+02 -0.6744E+02E
 Epicentro: PIEDECUESTA - SANTANDER                                            3
 ACTION:UPD 14-10-03 23:03 OP:nd   STATUS:               ID:20140907044636 L   I
 OLDACT:DUP 14-09-07 18:14 OP:mh   STATUS:               ID:20140907043819d    3
 2014-09-07-0438-18M.COL___260                                                 6
 STAT SP IPHASW D HRMM SECON CODA AMPLIT PERI AZIMU VELO AIN AR TRES W  DIS CAZ7
 RUS  HZ EP        447  0.35                             141   -0.3110  111 181 
 RUS  HN ES   1    447 20.04                             141    0.25 7  111 181 
 RUS  HZ I         447 21.92         1.9 0.30            124            111 181 
 PTB  HZ EP   1    447  4.32                             130    0.27 7  158 256 
 PTB  HN ES   1    447 25.28                             130   -0.54 7  158 256 
 PTB  HZ I         447 28.35         2.4 0.22            117            158 256 
 SPBC HZ EP        447  6.31                             126    0.40 9  176 219 
 SPBC HN ES   1    447 29.02                             126   -0.11 7  176 219 
 SPBC HZ I         447 38.74         2.3 0.14            113            176 219 
 ZAR  HZ EP   1    447  8.63                             122   -0.37 6  208 289 
 ZAR  HN ES   1    447 35.06                             122    0.43 6  208 289 
                                                                                
