 2016  3 7 0134 21.1 L   7.398 -73.209130.8  RSN  7 0.2 1.5LRSN                1
 GAP=104        0.62       2.3     2.7  5.4  0.7510E-02  0.4132E+01  0.3929E+01E
 Epicentro: EL PLAYON - SANTANDER                                              3
 ACTION:UPD 16-05-13 21:22 OP:cam  STATUS:               ID:20160307013421 L   I
 OLDACT:UP  16-03-07 15:32 OP:cara STATUS:               ID:20160307012750d    3
 OLDACT:DUP 16-03-07 15:27 OP:cara STATUS:               ID:20160307012750d    3
 OLDACT:REG 16-03-07 12:57 OP:cara STATUS:               ID:20160307012749     3
 2016-03-07-0127-49M.COL___319                                                 6
 STAT SP IPHASW D HRMM SECON CODA AMPLIT PERI AZIMU VELO AIN AR TRES W  DIS CAZ7
 PAM  EZ EP        134 40.77                             155    0.1910 56.6  97 
 PAM  EN ES        134 55.85                             155    0.1110 56.6  97 
 PAM  EZ I         134 57.40         9.9 0.16            152           56.6  97 
 OCA  HZ EP        134 42.12                             142   -0.3310 93.7 353 
 OCA  HE ES        134 59.15                             142    0.0710 93.7 353 
 OCA  HZ I         135  2.14         6.5 0.22            135           93.7 353 
 PTB  HZ EP        134 48.91                             124    0.06 9  167 236 
 PTB  HN ES        135 10.11                             124   -0.36 9  167 236 
 PTB  HZ I         135 12.90         4.3 0.18            115            167 236 
 RUS  HZ EP        134 49.34                             125   -0.11 9  167 175 
 RUS  HE ES        135 11.46                             125   -0.08 9  167 175 
 RUS  HZ I         135 17.65         1.4 0.38            116            167 175 
 ZAR  HN ES        135 13.47                             122    0.30 9  182 273 
 ZAR  HZ I         135 19.43         6.4 0.26            114            182 273 
 SPBC HZ EP   9    134 56.09                             117    2.11 0  215 206 
 SPBC HN ES        135 21.28                             116   -0.43 8  215 206 
 SPBC HZ I         135 25.73         5.5 0.22            110            215 206 
 CHI  HZ EP   4    135  6.47                             108    1.25 0  312 191 
 CHI  HN ES        135 39.89                             108    0.29 7  312 191 
 CHI  HZ I         135 53.11         1.0 0.58            104            312 191 
                                                                                
