 2010 12 7 0124 17.9 L   6.857 -73.210137.0  RSN  6 0.3 1.6LRSN                1
 GAP=153        0.59       5.6    10.8  9.7 -0.3625E+02  0.4429E+02 -0.9497E+01E
 Epicentro: ZAPATOCA - SANTANDER                                               3
 ACTION:UP  11-01-14 15:23 OP:pat  STATUS:               ID:20101207012417 L   I
 2010-12-07-0122-35S.COL___135                                                 6
 STAT SP IPHASW D HRMM SECON CODA AMPLIT PERI AZIMU VELO SNR AR TRES W  DIS CAZ7
 BTL  SZ EP        124 36.42                             176     0.110    9 317 
 BAR2 SZ EP   1    124 36.23                             167    -0.4 7   29 174 
 BAR2 SZ ES   2    124 51.39                             167     0.1 5   29 174 
 BAR2 SZ I         124 52.24        12.5 0.40                            29 174 
 GRA  SZ EP   2    124 42.77                             136     0.7 5  122  21 
 GRA  SZ I         125  7.88         3.8 0.20                           122  21 
 OCA  SZ EP   2    124 44.91                             129     0.0 5  153 355 
 OCA  SZ ES   2    125  5.49                             129    -0.5 5  153 355 
 OCA  SZ I         125 12.61         7.3 0.35                           153 355 
 NOR  SZ EP   2    124 52.68                             117    -0.3 4  233 232 
 NOR  SN ES   2    125 20.75                             117     0.5 4  233 232 
 PRA  HZ EP   2    125 11.38                             105     0.0 3  394 208 
 PRA  HN ES   2    125 52.85                             105    -0.3 3  394 208 
                                                                                
