 2013  7 7 0009 41.6 L   6.810 -73.145147.1  RSN 10 0.3 2.1LRSN                1
 GAP= 71        0.89       2.8     3.2  5.2  0.6459E+00  0.4339E+00 -0.1474E+01E
 Epicentro: LOS SANTOS - SANTANDER                                             3
 ACTION:UPD 13-08-12 10:35 OP:ep   STATUS:               ID:20130707000941 L   I
 OLDACT:REG 13-07-07 07:40 OP:stll STATUS:               ID:20130707000847     3
 2013-07-07-0008-47M.COL___221                                                 6
 STAT SP IPHASW D HRMM SECON CODA AMPLIT PERI AZIMU VELO AIN AR TRES W  DIS CAZ7
 BAR2 SZ IP     D  010  1.42                             170   -0.0110 24.4 190 
 BAR2 SZ I         010  1.54        14.2 0.18            170           24.4 190 
 BAR2 SZ ES        010 16.37                             170   -0.5110 24.4 190 
 GIR2 SZ EP        010  1.51                             168    0.0910 30.3 350 
 BRR  HZ IP     C  010  3.30                             153    0.4110 70.8 298 
 BRR  HN ES        010 20.24                             153    0.7610 70.8 298 
 BRR  HN I         010 22.62        28.2 0.16            151           70.8 298 
 PAM  SZ IP     D  010  4.33                             151    0.4110 76.5  40 
 PAM  SZ I         010  4.53        21.4 0.24            153           76.5  40 
 PAM  SN ES        010 21.33                             151    0.0110 76.5  40 
 RUS  HZ EP        010  5.57                             144   -0.0010  102 176 
 RUS  HE ES        010 24.28                             144    0.0210  102 176 
 RUS  HE I         010 25.08        22.3 0.48            145            102 176 
 GRA  SZ IP        010  7.18                             137    0.2910  125  18 
 GRA  SZ ES        010 26.19                             137   -0.4210  125  18 
 PTB  HZ EP        010  8.11                             132   -0.61 9  148 258 
 PTB  HE ES        010 29.74                             132   -0.12 9  148 258 
 PTB  HE I         010 35.29        12.0 0.20            132            148 258 
 TAM  HZ EP        010  9.53                             131    0.12 9  155 105 
 TAM  HN ES        010 30.99                             131   -0.10 9  155 105 
 OCA  HN ES        010 31.80                             130   -0.22 9  159 353 
 OCA  HN I         010 35.95        52.9 0.28            131            159 353 
 SML  HZ EP        010 17.91                             118   -0.31 8  243 335 
 SML  HN ES        010 46.64                             118   -0.13 8  243 335 
                                                                                
