 2015  3 7 0542 14.4 L   6.911 -73.255  4.0  RSN  7 0.4 1.0LRSN                1
 GAP=119        1.03       2.5     2.2  8.1 -0.8765E-01  0.5693E+01 -0.4595E+01E
 Epicentro: BETULIA - SANTANDER                                                3
 ACTION:UPD 15-04-30 16:23 OP:nd   STATUS:               ID:20150307054214 L   I
 OLDACT:DUP 15-03-07 16:45 OP:spq  STATUS:               ID:20150307053745d    3
 2015-03-07-0537-44M.COL___284                                                 6
 STAT SP IPHASW D HRMM SECON CODA AMPLIT PERI AZIMU VELO AIN AR TRES W  DIS CAZ7
 BAR2 EZ EP        542 20.82                              90    0.0910 36.2 167 
 BAR2 EZ ES   1    542 25.79                              90    0.13 7 36.2 167 
 BAR2 EZ I         542 27.22         9.2 0.32             47           36.2 167 
 BRR  HZ EP        542 23.22                              90   -0.1110 55.0 293 
 BRR  HN ES        542 30.08                              90   -0.2110 55.0 293 
 BRR  HZ I         542 32.11         5.5 0.22             47           55.0 293 
 PAM  SZ EP     D  542 27.66                              90    0.4110 77.5  52 
 PAM  SE ES        542 36.84                              90   -0.4210 77.5  52 
 PAM  SZ I         542 38.72         4.4 0.22             47           77.5  52 
 RUS  HZ EP        542 33.12                              90    0.3010  114 170 
 RUS  HN ES   1    542 46.16                              90   -1.02 7  114 170 
 RUS  HZ I         542 50.08         1.6 0.24             47            114 170 
 PTB  HZ EP        542 36.66                              90    0.57 9  139 253 
 PTB  HN ES        542 52.78                              90   -0.22 9  139 253 
 PTB  HZ I         542 54.75         4.1 0.38             47            139 253 
 SPBC HZ EP   4    542 41.83                              90    1.58 0  166 213 
 SPBC HE ES   4    543  4.12                              90    3.71 0  166 213 
 SPBC HZ I         543  5.41         4.3 0.28             47            166 213 
 ZAR  HZ EP   1    542 44.02                              56    0.80 7  188 290 
 ZAR  HN ES        543  5.41                              56   -0.29 9  188 290 
 ZAR  HZ I         543  7.31         3.7 0.54             37            188 290 
                                                                                
