 2012  3 7 0306  7.7 L   6.672 -73.213150.0  RSN  5 0.2 1.6LRSN                1
 GAP=208        0.44       4.1     4.1  5.0  0.9983E+01 -0.6198E+00  0.8101E-01E
 ACTION:UP  12-03-31 23:17 OP:EP   STATUS:               ID:20120307030607 L   I
 2012-03-07-0300-00M.COL___194                                                 6
 STAT SP IPHASW D HRMM SECON CODA AMPLIT PERI AZIMU VELO SNR AR TRES W  DIS CAZ7
 BAR2 SZ EP   1    3 6 27.41                             176    -0.2 7    9 159 
 BRR  HZ EP        3 6 29.30                             153    -0.110   73 311 
 BRR  HE ES        3 6 46.47                             153     0.110   73 311 
 RUS  HZ EP   1    3 6 31.17                             148     0.2 7   87 171 
 RUS  HE ES   1    3 6 49.14                             148     0.0 7   87 171 
 RUS  HZ I         3 6 50.88         4.1 0.26                            87 171 
 PTB  HZ EP   1    3 6 34.37                             135     0.2 7  138 264 
 PTB  HN ES   1    3 6 54.63                             135    -0.2 7  138 264 
 ZAR  HN ES   1    3 7  5.85                             123     0.1 6  203 297 
 ZAR  HZ I         3 7 11.62         5.5 0.32                           203 297 
                                                                                
