 2012  5 7 0405 53.5 L   6.760 -73.173146.2  RSN  5 0.4 1.1LRSN                1
 GAP=135        1.08       9.1     8.6 10.4  0.9695E+01 -0.5143E+01 -0.2622E+01E
 Epicentro: LOS SANTOS - SANTANDER                                             3
 ACTION:UP  12-07-05 12:03 OP:pat  STATUS:               ID:20120507040553 L   I
 2012-05-07-0400-00M.COL___173                                                 6
 STAT SP IPHASW D HRMM SECON CODA AMPLIT PERI AZIMU VELO SNR AR TRES W  DIS CAZ7
 BAR2 SZ EP        4 6 12.42                             172    -0.710   19 183 
 BAR2 SZ ES   1    4 6 27.93                             172    -0.5 7   19 183 
 BRR  HZ EP        4 6 14.84                             153     0.210   71 303 
 BRR  HZ I         4 6 14.93         6.5 0.12                            71 303 
 BRR  HE ES   1    4 6 31.76                             153     0.6 7   71 303 
 PAM  SZ EP        4 6 16.18                             149     0.110   83  39 
 RUS  HZ EP        4 6 17.41                             145     0.410   96 174 
 RUS  HN ES   2    4 6 35.99                             145     0.7 5   96 174 
 RUS  HZ I         4 6 36.60         1.6 0.32                            96 174 
 PTB  HZ EP        4 6 20.08                             133    -0.1 9  144 260 
 PTB  HN ES   2    4 6 40.54                             133    -0.4 5  144 260 
 PTB  HZ I         4 6 47.76         0.9 0.46                           144 260 
                                                                                
