 2013  9 7 0947 32.0 L   6.791 -73.161149.8  RSN  7 0.4 1.7LRSN                1
 GAP=135        0.73       3.9     4.0  6.0  0.1309E+01  0.4389E+01 -0.4431E+01E
 Epicentro: LOS SANTOS - SANTANDER                                             3
 ACTION:UPD 13-10-22 09:20 OP:ep   STATUS:               ID:20130907094732 L   I
 OLDACT:UP  13-09-07 13:09 OP:cam  STATUS:               ID:20130907093959     3
 OLDACT:REG 13-09-07 10:58 OP:cam  STATUS:               ID:20130907093959     3
 2013-09-07-0939-59M.COL___269                                                 6
 STAT SP IPHASW D HRMM SECON CODA AMPLIT PERI AZIMU VELO AIN AR TRES W  DIS CAZ7
 BAR2 SZ EP        947 51.89                             171   -0.1710 22.1 186 
 BAR2 SZ ES   1    948  7.35                             171   -0.38 7 22.1 186 
 BAR2 SZ I         948  8.29         8.4 0.26            173           22.1 186 
 BRR  HZ EP   1    947 53.90                             153    0.40 7 70.2 300 
 BRR  HN ES   1    948 10.96                             153    0.66 7 70.2 300 
 PAM  SZ EP        947 54.77                             151    0.0510 79.3  40 
 PAM  SN ES   1    948 12.58                             151    0.11 7 79.3  40 
 RUS  HZ EP   1    947 56.30                             145    0.25 7 99.7 175 
 RUS  HN ES   1    948 14.64                             145   -0.20 7 99.7 175 
 RUS  HZ I         948 15.63         6.0 0.30            148           99.7 175 
 PTB  HZ EP        947 59.18                             133    0.08 9  146 259 
 PTB  HN ES   1    948 19.78                             133   -0.49 7  146 259 
 ZAR  HZ EP   2    948  4.67                             123    0.11 4  203 293 
 ZAR  HN ES   1    948 30.32                             123    0.34 6  203 293 
 ZAR  HZ I         948 35.40         2.9 0.28            123            203 293 
 SML  HZ EP   1    948  8.78                             118   -0.07 6  244 336 
 SML  HE ES   1    948 36.74                             118   -0.87 6  244 336 
 SML  HN I         948 43.25        10.9 0.12            118            244 336 
                                                                                
