 2017  2 7 0148 39.2 L   6.777 -73.141147.2  RSN  7 0.3 1.6LRSN                1
 GAP=236        1.15       6.0     7.0  7.2  0.4140E+01 -0.1842E+01  0.1253E+02E
 Epicentro: LOS SANTOS - SANTANDER                                             3
 ACTION:UPD 17-05-24 15:33 OP:jn   STATUS:               ID:20170207014839 L   I
 OLDACT:UP  17-02-07 14:42 OP:edw  STATUS:               ID:20170207014745     3
 OLDACT:UP  17-02-07 14:40 OP:edw  STATUS:               ID:20170207014745     3
 OLDACT:REG 17-02-07 12:19 OP:edw  STATUS:               ID:20170207014745     3
 2017-02-07-0148-00M.COL___331                                                 6
 STAT SP IPHASW D HRMM SECON CODA AMPLIT PERI AZIMU VELO AIN AR TRES W  DIS CAZ7
 BAR2 EZ EP        148 58.39                             172   -0.5510 21.0 193 
 BAR2 EZ ES        149 14.22                             172   -0.1310 21.0 193 
 BAR2 EZ I         149 16.43        13.6 0.26            169           21.0 193 
 BRR  HZ EP     C  149  0.52                             152   -0.0610 72.9 300 
 BRR  HN ES        149 17.66                             152    0.3910 72.9 300 
 RUS  HZ EP        149  2.86                             145   -0.0310 98.0 176 
 RUS  HN ES        149 21.46                             145    0.0710 98.0 176 
 RUS  HZ I         149 22.53        11.7 0.34            144           98.0 176 
 PTB  HZ EP   9    149  5.64                             132   -0.63 0  148 260 
 PTB  HN ES        149 25.71                             134   -1.06 9  148 260 
 PTB  HZ I         149 27.44         4.0 0.18            130            148 260 
 ZAR  HZ EP   9    149 10.82                             122   -1.04 0  205 293 
 ZAR  HN ES        149 37.03                             123    0.72 8  205 293 
 ZAR  HZ I         149 43.10         2.8 0.16            121            205 293 
 NOR  HZ EP        149 15.30                             119    0.42 8  234 235 
 NOR  HN ES        149 42.26                             119   -0.47 8  234 235 
 NOR  HZ I         149 45.48         2.9 0.26            118            234 235 
 CHI  HZ EP        149 16.95                             117    0.24 8  246 195 
 CHI  HN ES        149 46.28                             117    0.30 8  246 195 
 CHI  HZ I         149 51.95         1.9 0.62            117            246 195 
 URE  HN ES   4    149 56.09                             113    3.40 0  285 292 
 PTGC HZ EP   4    149 21.84                             112   -0.98 0  306 159 
 PTGC HE ES   4    149 55.21                             112   -1.64 0  306 159 
                                                                                
