 2014  2 7 0356 38.3 L   6.813 -73.129151.7  RSN 24 0.5 2.7LRSN                1
 GAP= 71        1.12       3.0     3.5  4.9 -0.2667E+01  0.3613E+01  0.1071E+01E
 Epicentro: LOS SANTOS - SANTANDER                                             3
 ACTION:UPD 14-03-10 08:08 OP:ep   STATUS:               ID:20140207035638 L   I
 OLDACT:UP  14-02-07 14:13 OP:mh   STATUS:               ID:20140207035539     3
 OLDACT:UP  14-02-07 14:13 OP:mh   STATUS:               ID:20140207035539     3
 OLDACT:UP  14-02-07 14:13 OP:mh   STATUS:               ID:20140207035539     3
 OLDACT:UP  14-02-07 14:13 OP:mh   STATUS:               ID:20140207035539     3
 OLDACT:UP  14-02-07 14:10 OP:mh   STATUS:               ID:20140207035539     3
 OLDACT:UP  14-02-07 13:23 OP:fm   STATUS:               ID:20140207035539     3
 OLDACT:REG 14-02-07 09:17 OP:mh   STATUS:               ID:20140207035539     3
 2014-02-07-0355-39M.COL___234                                                 6
 STAT SP IPHASW D HRMM SECON CODA AMPLIT PERI AZIMU VELO AIN AR TRES W  DIS CAZ7
 BAR2 SZ IP     C  356 58.41                             170   -0.3010 25.2 194 
 BAR2 SZ ES        357 13.87                             170   -0.7310 25.2 194 
 BAR2 SZ I         357 15.23       127.7 0.23            168           25.2 194 
 BRR  HZ EP        357  0.30                             153    0.1310 72.2 297 
 BRR  HN ES        357 17.93                             153    0.7210 72.2 297 
 BRR  HZ I         357 20.83        57.9 0.36            145           72.2 297 
 PAM  SZ EP        357  1.18                             153    0.1310 75.1  39 
 PAM  SN ES        357 18.46                             153   -0.3010 75.1  39 
 PAM  SZ I         357 20.82        94.2 0.53            145           75.1  39 
 RUS  HZ EP     D  357  2.26                             145   -0.5010  102 177 
 RUS  HN ES        357 22.52                             145    0.7010  102 177 
 RUS  HZ I         357 24.21        24.5 0.13            137            102 177 
 PTB  HZ EP        357  5.14                             133   -0.84 9  150 258 
 PTB  HN ES        357 26.80                             133   -0.74 9  150 258 
 PTB  HZ I         357 33.62        81.4 0.33            124            150 258 
 TAM  HZ IP     D  357  6.57                             132    0.21 9  154 106 
 TAM  HN ES        357 28.42                             132    0.21 9  154 106 
 OCA  HZ EP        357  6.90                             131   -0.09 9  159 352 
 OCA  HN ES        357 30.11                             131    0.76 9  159 352 
 OCA  HZ I         357 36.19        55.5 0.19            122            159 352 
 SPBC HZ EP        357  7.43                             130   -0.08 9  165 219 
 SPBC HN ES        357 30.45                             130    0.19 9  165 219 
 SPBC HZ I         357 36.59        84.2 0.37            121            165 219 
 ZAR  HZ EP   4    357 11.09                             123   -0.20 0  205 292 
 ZAR  HN ES   4    357 37.19                             123    0.20 0  205 292 
 NOR  HZ EP        357 14.34                             119   -0.32 8  237 234 
 NOR  HN ES        357 43.33                             119    0.33 8  237 234 
 NOR  HZ I         357 46.26        51.7 0.21            111            237 234 
 SML  HZ EP        357 14.87                             119   -0.37 8  243 335 
 SML  HN ES   4    357 44.02                             119   -0.00 0  243 335 
 CHI  HZ EP        357 16.39                             118   -0.18 8  251 195 
 CHI  HN ES        357 46.55                             118    0.16 8  251 195 
 CHI  HZ I         357 54.05        13.0 0.49            110            251 195 
 ROSC BZ EP        357 17.24                             118    0.22 8  255 211 
 ROSC BN ES        357 46.55                             118   -0.65 8  255 211 
 HEL  HZ EP        357 19.93                             116    0.84 8  274 256 
 HEL  HN ES   4    357 52.95                             116    2.07 0  274 256 
 HEL  HZ I         357 57.75        39.2 0.24            108            274 256 
 URE  HZ EP   4    357 18.28                             115   -1.55 0  285 291 
 URE  HN ES   4    357 50.67                             115   -1.52 0  285 291 
 GUY2CHZ EP   1    357 22.75                             113    0.27 5  304 235 
 GUY2CHN ES   4    357 59.54                             113    2.62 0  304 235 
 GUY2CHZ I         358  5.91        34.5 0.44                           304 235 
 PTGC HZ EP   4 D  357 21.28                             113   -1.26 0  309 159 
 PTGC HZ I         357 55.74        19.1 0.51            105            309 159 
 CBOC HZ EP        357 26.22                             111    0.47 7  336 252 
 CBOC HN ES   4    358  3.86                             111    1.12 0  336 252 
 DBB  SZ EP   1    357 25.84                             110   -0.41 5  341 274 
 TOL  SZ EP   1    357 28.13                             110    1.03 5  346 225 
 COD  HZ EP   1    357 26.22                             110   -0.58 5  347 354 
 COD  HN ES   4    358  2.62                             110   -1.98 0  347 354 
 COD  HZ I         358 13.43         7.8 0.27            103            347 354 
 ARGC HZ EP   4    357 28.83                             109    0.70 0  358 340 
 SDV  BZ EP   1    357 27.70                             109   -0.63 5  358  50 
 SDV  BN ES   4    358  4.57                             109   -2.76 0  358  50 
 ANIL BZ EP   4    357 30.20                             109    1.56 0  360 225 
 ANIL BN ES   4    358 10.68                             109    2.80 0  360 225 
 PRA  HZ EP        357 33.26                             107    0.94 6  394 210 
 PRA  HN ES   4    358 16.88                             107    2.45 0  394 210 
 ORTC HZ EP   1    357 32.39                             107   -0.34 4  398 216 
 ORTC HZ I         358 22.04        14.1 0.70            101            398 216 
 PAL  HZ EP   1    357 34.11                             107    0.14 4  408 239 
 PAL  HN ES   1    358 17.90                             107    0.54 4  408 239 
 SJC  HZ EP   4    357 32.50                             107   -1.57 0  409 327 
 SJC  HZ I         358 18.40        12.0 0.44            100            409 327 
                                                                                
