 2010  4 7 0727 32.2 L   6.851 -73.053142.1  RSN 11 0.5 2.7LRSN                1
 GAP=157        1.00       5.0     6.0  6.4 -0.1551E+02 -0.5160E+01  0.7826E+01E
 Epicentro: LOS SANTOS - SANTANDER                                             3
 ACTION:UPD 10-08-24 09:58 OP:vdl  STATUS:               ID:20100407072732 L   I
 2010-04-07-0724-31S.COL___097                                                 6
 STAT SP IPHASW D HRMM SECON CODA AMPLIT PERI AZIMU VELO AIN AR TRES W  DIS CAZ7
 BAR2 SZ IP        727 51.34                             166    -0.310   32 207 
 BAR2 SZ ES   1    728  5.96                             166    -0.8 7   32 207 
 BRR  HZ IP     C  727 53.40                             152     0.010   78 291 
 BRR  HN ES        728 10.54                             152     0.610   78 291 
 BRR  HZ I         728 13.45        95.8 0.19                            78 291 
 OCA  SZ EP        727 59.86                             131     0.0 9  156 349 
 OCA  SZ ES   2    728 21.98                             131     0.6 5  156 349 
 OCA  SZ I         728 25.97        94.0 0.30                           156 349 
 ROSC BZ EP        728 11.82                             115     0.6 8  263 212 
 ROSC BE ES   1    728 41.58                             115    -0.1 6  263 212 
 ROSC BZ I         728 46.71        21.2 0.21                           263 212 
 HEL  HZ EP        728 13.39                             114    -0.1 7  283 255 
 HEL  HN ES   2    728 45.26                             114    -0.5 4  283 255 
 HEL  HZ I         728 50.58        20.7 0.30                           283 255 
 RREF BZ EP        728 19.68                             110     0.2 7  333 230 
 RREF BN ES   1    728 56.52                             110     0.1 5  333 230 
 RREF BZ I         729  3.86        17.8 0.25                           333 230 
 SDV  BZ EP        728 20.97                             109     0.2 6  349  50 
 SDV  BE ES   1    728 58.52                             109    -0.1 5  349  50 
 DBB  SZ EP        728 19.79                             109    -0.9 6  349 273 
 DBB  SZ ES   2    728 56.73                             109    -1.8 3  349 273 
 TOL  SZ EP   1    728 22.42                             108     0.8 5  355 225 
 ANIL BN ES   2    729  3.53                             108     0.6 3  369 225 
 PRA  HZ EP   1    728 26.43                             106    -0.4 4  402 210 
 PRA  HN ES   1    729  9.42                             106     0.1 4  402 210 
 PRA  HZ I         729 11.06        12.8 0.37                           402 210 
                                                                                
