 2015  6 7 0944 18.9 L   6.796 -73.123145.2  RSN 20 0.6 2.2LRSN                1
 GAP=121        1.21       2.6     3.9  5.4 -0.1133E+01  0.5921E+01  0.2226E+01E
 Epicentro: LOS SANTOS - SANTANDER                                             3
 ACTION:UPD 15-09-10 22:10 OP:cam  STATUS:               ID:20150607094418 L   I
 OLDACT:UP  15-06-17 14:43 OP:cam  STATUS:               ID:20150607094418 L   3
 OLDACT:UP  15-06-17 09:48 OP:AK   STATUS:               ID:20150607094418 L   3
 OLDACT:REG 15-06-07 14:59 OP:ak   STATUS:               ID:20150607093748     3
 2015-06-07-0937-48M.COL___300                                                 6
 STAT SP IPHASW D HRMM SECON CODA AMPLIT PERI AZIMU VELO AIN AR TRES W  DIS CAZ7
 BAR2 EZ IP     D  944 38.56                             170    0.1110 23.5 196 
 BAR2 EZ ES        944 53.55                             170   -0.1610 23.5 196 
 BAR2 EZ I         944 54.77        28.9 0.22            169           23.5 196 
 BRR  HZ EP        944 40.45                             152    0.3410 73.6 298 
 BRR  HN ES        944 57.04                             152    0.3810 73.6 298 
 BRR  HZ I         944 58.73        17.4 0.09            152           73.6 298 
 PAM  SZ IP     D  944 41.57                             151    0.6010 76.2  38 
 PAM  SN ES        944 58.46                             151    0.2710 76.2  38 
 PAM  SZ I         945  0.71        22.4 0.48            148           76.2  38 
 RUS  HZ EP        944 42.59                             144    0.0510  100 177 
 RUS  HE ES        945  1.54                             144    0.5510  100 177 
 RUS  HZ I         945  2.82        13.1 0.46            140            100 177 
 OCA  HZ EP        944 46.73                             129   -0.49 9  161 352 
 OCA  HN ES        945  8.58                             129   -0.74 9  161 352 
 OCA  HZ I         945 17.06        30.8 0.22            127            161 352 
 SPBC HZ EP        944 47.65                             129    0.19 9  164 220 
 SPBC HN ES        945  9.19                             129   -0.56 9  164 220 
 SPBC HZ I         945 14.15        25.2 0.19            126            164 220 
 ZAR  HZ EP        944 50.86                             122   -0.69 8  206 292 
 ZAR  HE ES        945 16.25                             122   -0.77 8  206 292 
 ZAR  HZ I         945 21.87        15.6 0.34            120            206 292 
 NOR  HZ EP        944 54.72                             118   -0.05 8  236 235 
 NOR  HN ES        945 21.90                             118   -0.86 8  236 235 
 NOR  HZ I         945 30.49        10.5 0.16            116            236 235 
 SML  HZ EP        944 54.67                             117   -0.96 8  245 335 
 SML  HN ES        945 24.85                             117    0.56 8  245 335 
 SML  HZ I         945 27.02        19.6 0.10            115            245 335 
 CHI  HZ EP        944 56.86                             117    0.28 8  249 196 
 CHI  HN ES        945 25.71                             117   -0.27 8  249 196 
 CHI  HZ I         945 29.60         9.3 0.44            114            249 196 
 HEL  HZ EP        945  0.26                             114    0.94 8  274 256 
 HEL  HN ES        945 30.06                             114   -0.80 8  274 256 
 HEL  HZ I         945 36.62         7.8 0.28            112            274 256 
 GUY2CHZ EP        945  3.19                             112    0.52 7  303 235 
 GUY2CHN ES        945 37.48                             112    0.66 7  303 235 
 GUY2CHZ I         945 44.83         6.6 0.34                           303 235 
 LL2C HZ EP   1    945  2.81                             112    0.29 5  307 354 
 LL2C HN ES   1    945 37.28                             112    0.73 5  307 354 
 LL2C HZ I         945 40.09        13.6 0.30            109            307 354 
 PTGC HZ EP        945  1.83                             112   -0.74 7  307 159 
 PTGC HN ES        945 35.72                             112   -0.93 7  307 159 
 PTGC HZ I         945 37.97        12.4 0.38            109            307 159 
 CBOC HZ EP        945  6.27                             110    0.24 7  336 252 
 CBOC HE ES        945 43.25                             110    0.45 7  336 252 
 CBOC HZ I         945 48.58         2.1 0.28            108            336 252 
 TOL  SZ EP        945  8.07                             109    0.79 7  345 225 
 TOL  SE ES        945 45.99                             109    0.95 7  345 225 
 TOL  SZ I         945 52.59         5.3 0.28            107            345 225 
 MON  HZ EP   4    945  5.00                             108   -3.12 0  356 308 
 MON  HN ES   4    945 44.43                             108   -2.09 0  356 308 
 MON  HZ I         945 45.03         1.9 0.22            106            356 308 
 PRA  HZ EP        945 12.47                             106   -0.02 6  393 210 
 PRA  HN ES        945 54.08                             106   -0.22 6  393 210 
 PRA  HZ I         946  1.07         7.0 0.26            104            393 210 
 ORTC HZ EP        945 12.97                             106    0.05 6  397 216 
 ORTC HN ES        945 54.99                             106   -0.07 6  397 216 
 ORTC HZ I         945 59.96         5.1 0.30            104            397 216 
 SJC  HZ EP   4    945 12.36                             106   -2.27 0  411 327 
 SJC  HN ES   4    945 52.53                             106   -5.57 0  411 327 
 SJC  HZ I         945 59.90         1.8 0.24            104            411 327 
                                                                                
