 2010  7 7 0256  2.5 L   6.104 -73.927 81.3  RSN  4 0.2 1.1LRSN                1
 GAP=268        0.35       3.5     6.5  9.6  0.1139E+02  0.3681E+02  0.7058E+01E
 Epicentro: EL PEON - SANTANDER                                                3
 ACTION:UPD 10-12-01 15:15 OP:pat  STATUS:               ID:20100707025602 L   I
 2010-07-07-0252-39S.COL___118                                                 6
 STAT SP IPHASW D HRMM SECON CODA AMPLIT PERI AZIMU VELO AIN AR TRES W  DIS CAZ7
 RUS  HZ EP   1    256 20.16                             121    -0.1 7   96 104 
 RUS  HZ I         256 20.90         1.8 0.45                            96 104 
 RUS  HE ES   2    256 34.08                             121     0.0 5   96 104 
 BAR2 SZ EP   1    256 20.25                             120     0.1 7   98  57 
 BAR2 SZ ES   2    256 33.97                             120     0.1 5   98  57 
 BRR  HZ EP   1    256 21.32                             116    -0.1 7  114  12 
 BRR  HE ES   2    256 36.10                             116     0.0 5  114  12 
 BRR  HZ I         256 37.81         5.1 0.09                           114  12 
 BRI  SZ EP   2    256 33.89                             102     0.3 4  218  35 
 BRI  SZ ES   2    256 57.43                             102    -0.3 4  218  35 
                                                                                
