 2011  2 7 0323 11.9 L   6.818 -72.950146.4  RSN  4 0.3 1.1LRSN                1
 GAP=261        0.55       6.6    26.2  8.2 -0.4844E+02 -0.1236E+02  0.9892E+01E
 Epicentro: CEPITA - SANTANDER                                                 3
 ACTION:UP  11-03-28 15:06 OP:jfem STATUS:               ID:20110207032311 L   I
 2011-02-07-0320-40S.COL___138                                                 6
 STAT SP IPHASW D HRMM SECON CODA AMPLIT PERI AZIMU VELO SNR AR TRES W  DIS CAZ7
 BAR2 SZ EP   1    323 31.82                             166    -0.1 7   36 226 
 BAR2 SZ ES   2    323 47.07                             166    -0.5 5   36 226 
 BAR2 SZ I         323 48.04         4.5 0.29                            36 226 
 BTL  SZ EP   1    323 32.28                             165     0.3 7   37 288 
 RUS  HZ EP   1    323 35.89                             143     0.0 7  103 188 
 RUS  HZ I         323 36.95         1.2 0.16                           103 188 
 RUS  HE ES   2    323 54.87                             143     0.2 5  103 188 
 CHI  HZ EP   1    323 50.19                             116    -0.3 6  257 200 
 CHI  HE ES   2    324 21.00                             116     0.3 4  257 200 
                                                                                
