 2011  5 7 0345 58.7 L   6.780 -73.091152.4  RSN  8 0.3 1.7LRSN                1
 GAP=165        0.63       4.2     7.2  5.7 -0.5471E+01 -0.5111E+01 -0.2962E+01E
 Epicentro: LOS SANTOS - SANTANDER                                             3
 ACTION:UP  11-06-29 08:51 OP:tino STATUS:               ID:20110507034558 L   I
 2011-05-07-0340-00M.COL___140                                                 6
 STAT SP IPHASW D HRMM SECON CODA AMPLIT PERI AZIMU VELO SNR AR TRES W  DIS CAZ7
 BAR2 SZ EP   1    346 18.91                             171    -0.2 7   23 206 
 BAR2 SZ ES   1    346 35.11                             171     0.1 7   23 206 
 BAR2 SZ I         346 40.06        11.8 0.79                            23 206 
 BTL  SZ EP   1    346 19.16                             170     0.0 7   25 308 
 GIR2 SZ EP   1    346 19.50                             166     0.3 7   35 341 
 GIR2 SZ ES   1    346 35.27                             166     0.0 7   35 341 
 BRR  HZ EP   1    346 20.94                             152     0.0 7   78 298 
 BRR  HE ES   1    346 38.33                             152     0.1 7   78 298 
 BRR  HZ I         346 40.59         9.2 0.12                            78 298 
 RUS  HZ EP   2    346 22.98                             146     0.1 5   98 179 
 RUS  HZ I         346 24.48         4.1 0.48                            98 179 
 RUS  HN ES   2    346 41.94                             146     0.1 5   98 179 
 GRA  SZ EP   1    346 24.18                             138    -0.4 7  126  15 
 GRA  SZ ES   2    346 44.09                             138    -0.6 5  126  15 
 GRA  SZ I         346 45.50         6.9 0.44                           126  15 
 OCA  SZ EP   1    346 28.39                             130     0.6 7  163 351 
 OCA  SZ ES   2    346 50.27                             130    -0.2 5  163 351 
 OCA  SZ I         346 55.64         4.9 0.21                           163 351 
 NOR  SN ES   2    347  2.89                             119    -0.8 4  238 236 
                                                                                
