 2015 10 7 0518 37.0 L   6.781 -73.150147.8  RSN  7 0.3 1.5LRSN                1
 GAP=182        0.78       3.0     5.7  7.2  0.1802E+01  0.7146E+01  0.2605E+01E
 Epicentro: LOS SANTOS - SANTANDER                                             3
 ACTION:UPD 15-12-22 20:37 OP:cam  STATUS:               ID:20151007051837 L   I
 OLDACT:REG 15-10-07 12:44 OP:spq  STATUS:               ID:20151007050749     3
 2015-10-07-0507-49M.COL___346                                                 6
 STAT SP IPHASW D HRMM SECON CODA AMPLIT PERI AZIMU VELO AIN AR TRES W  DIS CAZ7
 BAR2 EZ EP        518 56.59                             171   -0.2410 21.2 190 
 BAR2 EZ ES   1    519 11.90                             171   -0.40 7 21.2 190 
 BAR2 EZ I         519 12.80         6.9 0.28            171           21.2 190 
 BRR  HZ EP     D  518 58.45                             153    0.0510 71.8 300 
 BRR  HN ES        519 15.60                             153    0.5010 71.8 300 
 BRR  HZ I         519 19.63         4.3 0.12            149           71.8 300 
 RUS  HE ES   1    519 19.71                             145    0.34 7 98.5 176 
 RUS  HZ I         519 20.42         3.2 0.20            147           98.5 176 
 SPBC HZ EP        519  5.92                             130    0.45 9  161 219 
 SPBC HN ES        519 27.34                             130   -0.35 9  161 219 
 SPBC HZ I         519 34.02         3.3 0.07            130            161 219 
 OCA  HN ES        519 27.82                             130   -0.18 9  162 353 
 OCA  HZ I         519 35.22         4.9 0.66            129            162 353 
 ZAR  HE ES        519 34.83                             123   -0.23 9  204 293 
 ZAR  HZ I         519 40.00         3.8 0.44            122            204 293 
 CHI  HN ES   1    519 43.77                             118   -0.12 6  247 195 
 CHI  HZ I         519 46.55         1.9 0.42            118            247 195 
                                                                                
