 2012  4 7 0421 25.5 L   6.773 -73.202143.6  RSN  9 0.4 2.1LRSN                1
 GAP=131        0.99       4.7     5.2  7.9 -0.3574E+01  0.1235E+02 -0.3483E+01E
 Epicentro: ZAPATOCA - SANTANDER                                               3
 ACTION:UPD 12-07-05 11:51 OP:tino STATUS:               ID:20120407042125 L   I
 2012-04-07-0420-00M.COL___196                                                 6
 STAT SP IPHASW D HRMM SECON CODA AMPLIT PERI AZIMU VELO AIN AR TRES W  DIS CAZ7
 BAR2 SZ EP   1    421 44.71                             172    -0.1 7   20 174 
 BAR2 SZ ES   1    422  0.07                             172     0.3 7   20 174 
 BAR2 SZ I         422  1.42        41.1 0.31                            20 174 
 BRR  HZ EP        421 46.45                             153     0.310   67 303 
 BRR  HZ I         421 46.72        39.5 0.13                            67 303 
 BRR  HE ES   1    422  3.02                             153     0.7 7   67 303 
 PAM  SZ EP   1    421 48.07                             148     0.2 7   84  42 
 PAM  SN ES   1    422  5.09                             148    -0.2 7   84  42 
 PAM  SZ I         422  7.23        14.5 0.67                            84  42 
 RUS  HZ EP   1    421 48.87                             144     0.0 7   98 172 
 RUS  HN ES   1    422  6.66                             144    -0.4 7   98 172 
 RUS  HZ I         422  8.69        11.5 0.30                            98 172 
 PTB  HZ EP   1    421 50.99                             133    -0.7 7  141 260 
 PTB  HN ES   1    422 11.59                             133    -0.5 7  141 260 
 PTB  HZ I         422 13.49        14.3 0.13                           141 260 
 OCA  SZ EP   1    421 53.78                             129     0.0 7  163 355 
 OCA  SZ ES   1    422 15.47                             129    -0.5 7  163 355 
 ZAR  HZ EP   1    421 56.98                             123    -0.3 6  199 294 
 ZAR  HN ES   1    422 21.92                             123    -0.2 6  199 294 
 ZAR  HZ I         422 27.58        16.4 0.18                           199 294 
 NOR  SN ES   1    422 27.54                             119     0.0 6  228 234 
 HEL  HZ EP   1    422  5.92                             115     1.1 6  265 256 
 HEL  HZ I         422 42.54         8.2 0.28                           265 256 
                                                                                
