 2014  9 7 0251 50.9 L   6.749 -73.138146.8  RSN  7 0.4 1.6LRSN                1
 GAP=140        0.92       4.0     4.0  7.7 -0.1169E+01  0.3636E+01  0.4830E+01E
 Epicentro: LOS SANTOS - SANTANDER                                             3
 ACTION:UPD 14-10-03 23:03 OP:nd   STATUS:               ID:20140907025150 L   I
 OLDACT:DUP 14-09-07 16:29 OP:mh   STATUS:               ID:20140907024808d    3
 2014-09-07-0248-07M.COL___265                                                 6
 STAT SP IPHASW D HRMM SECON CODA AMPLIT PERI AZIMU VELO AIN AR TRES W  DIS CAZ7
 BAR2 SZ EP   1    252 10.62                             173    0.08 7 18.0 196 
 BAR2 SZ I         252 26.82        11.9 0.14            173           18.0 196 
 BRR  HZ EP   1    252 12.65                             151    0.31 7 74.7 302 
 BRR  HN ES        252 29.54                             151    0.4610 74.7 302 
 BRR  HZ I         252 31.49         9.8 0.66            149           74.7 302 
 PAM  SZ EP        252 13.67                             150    0.2310 81.3  37 
 PAM  SN ES        252 30.73                             150   -0.3110 81.3  37 
 RUS  HZ EP        252 13.78                             146   -0.5510 94.9 176 
 RUS  HN ES        252 32.72                             146    0.1010 94.9 176 
 RUS  HZ I         252 35.08         4.0 0.20            144           94.9 176 
 PTB  HZ EP   1    252 17.63                             132   -0.29 7  148 261 
 PTB  HN ES        252 38.36                             132   -0.64 9  148 261 
 PTB  HZ I         252 41.67         6.6 0.12            130            148 261 
 SPBC HZ EP        252 19.59                             130    0.49 9  159 220 
 SPBC HN ES        252 41.33                             130    0.22 9  159 220 
 SPBC HZ I         252 45.42         5.2 0.22            128            159 220 
 ZAR  HN ES        252 49.24                             122   -0.05 8  207 293 
 ZAR  HZ I         252 57.37         3.2 0.13            120            207 293 
                                                                                
