 2012  7 7 0143 39.6 L   6.595 -73.511106.8  RSN  4 0.2 1.2LRSN                1
 GAP=176        0.51       5.2     3.5  6.2  0.3846E+01  0.9769E+01  0.5344E+01E
 Epicentro: EL CARMEN DE CHUCURI - SANTANDER                                   3
 ACTION:UPD 12-08-14 11:43 OP:ep   STATUS:               ID:20120707014339 L   I
 2012-07-07-0140-00M.COL___201                                                 6
 STAT SP IPHASW D HRMM SECON CODA AMPLIT PERI AZIMU VELO AIN AR TRES W  DIS CAZ7
 BAR2 SZ EP   1    143 55.12                             160     0.1 7   36  90 
 BAR2 SZ ES   1    144  7.26                             160     0.2 7   36  90 
 BAR2 SZ I         144  9.31         5.6 0.18            149             36  90 
 BRR  HZ EP        143 55.81                             148    -0.210   61 339 
 BRR  HZ I         144  3.16         4.6 0.37            137             61 339 
 BRR  HE ES   1    144  8.77                             148     0.0 7   61 339 
 PTB  HZ EP        143 59.61                             132     0.110  105 267 
 PTB  HE ES   1    144 14.86                             132    -0.2 7  105 267 
 ZAR  HN ES   1    144 28.82                             116     0.3 7  179 304 
 ZAR  HZ I         144 32.02         2.0 0.09            111            179 304 
