 2016  9 7 0814 12.9 L   6.752 -73.149147.5  RSN  6 0.2 1.5LRSN                1
 GAP=233        0.44       2.5     3.2  3.6  0.3052E+01 -0.1842E+01 -0.8729E+00E
 Epicentro: LOS SANTOS - SANTANDER                                             3
 ACTION:UPD 17-08-17 21:07 OP:lp   STATUS:               ID:20160907081412 L   I
 OLDACT:UP  16-09-07 17:19 OP:dani STATUS:               ID:20160907080736     3
 OLDACT:REG 16-09-07 13:10 OP:dani STATUS:               ID:20160907080736     3
 2016-09-07-0808-00M.COL___349                                                 6
 STAT SP IPHASW D HRMM SECON CODA AMPLIT PERI AZIMU VELO AIN AR TRES W  DIS CAZ7
 BRR  HZ EP        814 34.22                             152   -0.1510 73.6 302 
 BRR  HE ES        814 51.16                             152    0.0510 73.6 302 
 BRR  HZ I         814 54.12         5.2 0.38            133           73.6 302 
 RUS  HZ EP        814 36.54                             146    0.0910 95.3 176 
 RUS  HN ES   2    814 54.90                             146    0.08 5 95.3 176 
 RUS  HZ I         814 55.83         2.3 0.26            139           95.3 176 
 PTB  HZ EP        814 39.71                             133   -0.18 9  146 261 
 PTB  HE ES        815  0.97                             133    0.03 9  146 261 
 PTB  HZ I         815  5.85         2.8 0.30            118            146 261 
 SPBC HZ EP        814 41.22                             130    0.10 9  159 220 
 SPBC HN ES        815  3.05                             130   -0.08 9  159 220 
 SPBC HZ I         815  5.71         3.6 0.30            118            159 220 
 ZAR  HZ EP        814 45.37                             122   -0.26 8  206 294 
 ZAR  HE ES        815 11.25                             122    0.09 8  206 294 
 ZAR  HZ I         815 27.70         3.8 0.07            109            206 294 
 URE  HZ EP        814 54.65                             114    0.41 7  286 293 
 URE  HZ I         815 36.18         2.5 0.16            104            286 293 
                                                                                
