 2010  8 7 0101 34.6 L   6.785 -73.064144.0  RSN  7 0.3 1.4LRSN                1
 GAP=168        0.77       4.3     8.7  7.0 -0.8924E+01 -0.2245E+02  0.2632E+01E
 Epicentro: LOS SANTOS - SANTANDER                                             3
 ACTION:UP  10-09-07 10:52 OP:vdl  STATUS:               ID:20100807010134 L   I
 2010-08-07-0059-51S.COL___125                                                 6
 STAT SP IPHASW D HRMM SECON CODA AMPLIT PERI AZIMU VELO SNR AR TRES W  DIS CAZ7
 BAR2 SZ EP        1 1 53.97                             172     0.010   25 212 
 BAR2 SZ I         1 1 54.32         5.5 0.04                            25 212 
 BAR2 SZ ES   2    1 2  9.32                                     0.1 5   25 212 
 BTL  SZ EP        1 1 54.21                             170     0.210   27 303 
 BTL  SZ ES   1    1 2  9.39                             170     0.1 7   27 303 
 BRR  HZ EP        1 1 55.91                             151    -0.110   80 296 
 BRR  HE ES   1    1 2 12.78                             151     0.0 7   80 296 
 RUS  HZ EP        1 1 57.84                             146    -0.210   99 181 
 RUS  HN ES   2    1 2 16.24                             146     0.0 5   99 181 
 RUS  HZ I         1 2 17.97         2.3 0.48                            99 181 
 GUE  SZ EP        1 1 59.27                             139     0.210  117   8 
 GRA  SZ EP        1 2  0.04                             136     0.510  125  13 
 GRA  SZ ES   1    1 2 18.20                             136    -0.9 7  125  13 
 GRA  SZ I         1 2 21.37         3.4 0.57                           125  13 
 PRA  HZ EP   2    1 2 27.57                             107    -0.8 3  395 211 
 PRA  HE ES   3    1 3 10.40                                     0.0 1  395 211 
 PRA  HZ I         1 3 12.88         2.0 0.44                           395 211 
                                                                                
