 2011  6 7 0900 15.1 L   6.799 -73.084139.0  RSN  7 0.3 2.0LRSN                1
 GAP=145        0.70       3.3     7.1  6.9 -0.5279E+01  0.8289E+01 -0.2656E+01E
 Epicentro: LOS SANTOS - SANTANDER                                             3
 ACTION:UP  11-07-14 19:03 OP:ep   STATUS:               ID:20110607090015 L   I
 2011-06-07-0857-10S.COL___132                                                 6
 STAT SP IPHASW D HRMM SECON CODA AMPLIT PERI AZIMU VELO SNR AR TRES W  DIS CAZ7
 BAR2 SZ EP   1    9 0 33.85                             169    -0.1 7   25 205 
 BAR2 SZ ES   2    9 0 48.55                             169    -0.1 5   25 205 
 BAR2 SZ I         9 0 49.77        28.1 0.21                            25 205 
 PAM  SZ EP   1    9 0 36.19                             151    -0.1 7   73  35 
 PAM  SN ES   1    9 0 52.89                             151     0.0 7   73  35 
 BRR  HZ IP     D  9 0 35.95                             149     0.110   77 296 
 BRR  HZ I         9 0 36.37        39.4 0.12                            77 296 
 BRR  HN ES   2    9 0 52.43                             149     0.4 5   77 296 
 RUS  HZ EP   1    9 0 38.08                             142     0.0 7  100 180 
 RUS  HN ES   1    9 0 55.95                             142    -0.2 7  100 180 
 RUS  HZ I         9 0 58.44         8.6 0.35                           100 180 
 BRI  SZ EP   1    9 0 38.67                             140     0.5 7  106  17 
 BRI  SZ ES   2    9 0 56.94                             140     0.8 5  106  17 
 BRI  SZ I         9 1  2.28        15.2 0.31                           106  17 
 GRA  SZ EP   1    9 0 39.76                             136     0.2 7  124  14 
 GRA  SZ ES   1    9 0 58.22                             136    -0.4 7  124  14 
 GRA  SZ I         9 1  1.90        21.1 0.37                           124  14 
 OCA  SZ EP   1    9 0 42.61                             128    -0.3 7  161 351 
 OCA  SZ ES   1    9 1  4.33                             128    -0.4 7  161 351 
 OCA  SZ I         9 1  6.49        11.4 0.50                           161 351 
                                                                                
