 2015 12 7 0552 59.1 L   6.753 -73.177137.7  RSN  4 0.3 1.2LRSN                1
 GAP=138        0.70       4.1     4.0  7.7 -0.4956E+01  0.9313E+01 -0.2137E+01E
 Epicentro: LOS SANTOS - SANTANDER                                             3
 ACTION:UPD 16-02-04 15:03 OP:cam  STATUS:               ID:20151207055259 L   I
 OLDACT:UP  15-12-07 19:38 OP:mh   STATUS:               ID:20151207054743     3
 OLDACT:REG 15-12-07 12:46 OP:mh   STATUS:               ID:20151207054743     3
 2015-12-07-0547-43M.COL___322                                                 6
 STAT SP IPHASW D HRMM SECON CODA AMPLIT PERI AZIMU VELO AIN AR TRES W  DIS CAZ7
 BAR2 EZ EP        553 17.88                             172    0.2810 17.8 182 
 BAR2 EZ I         553 35.51         5.4 0.33            171           17.8 182 
 PAM  EZ EP        553 20.93                             147    0.1210 83.6  39 
 PAM  EN ES        553 37.64                             147   -0.1410 83.6  39 
 PAM  EZ I         553 40.29         2.6 0.22            145           83.6  39 
 RUS  HZ EP        553 21.82                             143    0.1710 95.7 174 
 RUS  HN ES        553 39.11                             143   -0.1810 95.7 174 
 RUS  HZ I         553 42.06         1.9 0.42            141           95.7 174 
 PTB  HZ EP        553 24.46                             131   -0.51 9  143 261 
 PTB  HN ES        553 45.42                             131    0.23 9  143 261 
 PTB  HZ I         553 47.53         2.5 0.16            130            143 261 
                                                                                
