 2012  4 7 0635 27.3 L   6.812 -73.187141.3  RSN  7 0.3 1.7LRSN                1
 GAP=131        0.88       5.9     5.1  8.7 -0.2873E+01  0.1525E+02 -0.6995E+01E
 Epicentro: ZAPATOCA - SANTANDER                                               3
 ACTION:UPD 12-07-05 11:51 OP:tino STATUS:               ID:20120407063527 L   I
 2012-04-07-0630-00M.COL___196                                                 6
 STAT SP IPHASW D HRMM SECON CODA AMPLIT PERI AZIMU VELO AIN AR TRES W  DIS CAZ7
 BAR2 SZ EP   1    635 46.35                             170     0.0 7   24 179 
 BAR2 SZ ES   1    636  0.97                             170    -0.3 7   24 179 
 BAR2 SZ I         636  3.62        21.8 0.26                            24 179 
 BRR  HZ EP   1    635 48.11                             153     0.4 7   67 299 
 BRR  HZ I         636  5.65        12.5 0.12                            67 299 
 PAM  SZ EP        635 49.22                             149     0.110   79  43 
 PAM  SZ I         635 49.48         9.1 0.16                            79  43 
 PAM  SN ES   1    636  6.03                             149    -0.1 7   79  43 
 RUS  HZ EP   1    635 50.34                             142    -0.4 7  102 174 
 RUS  HE ES   1    636  9.54                             142     0.6 7  102 174 
 RUS  HZ I         636 10.06         7.1 0.24                           102 174 
 PTB  HZ EP   1    635 52.83                             132    -0.7 7  144 258 
 PTB  HN ES   1    636 13.81                             132    -0.1 7  144 258 
 PTB  HZ I         636 16.45         3.8 0.18                           144 258 
 ZAR  HN ES   1    636 23.87                             122     0.2 6  199 292 
 ZAR  HZ I         636 31.51         4.6 0.22                           199 292 
 HEL  HZ EP   1    636  7.07                             114     0.3 6  268 255 
 HEL  HZ I         636 46.01         4.0 0.50                           268 255 
                                                                                
