 2015  3 7 0925 34.9 L   6.765 -73.138150.2  RSN  8 0.4 1.4LRSN                1
 GAP=139        0.95       3.9     4.5  6.5 -0.1666E+01  0.6648E+01 -0.3030E+01E
 Epicentro: LOS SANTOS - SANTANDER                                             3
 ACTION:UPD 15-04-30 16:23 OP:nd   STATUS:               ID:20150307092534 L   I
 OLDACT:REG 15-03-07 13:49 OP:spq  STATUS:               ID:20150307091736     3
 2015-03-07-0917-36M.COL___284                                                 6
 STAT SP IPHASW D HRMM SECON CODA AMPLIT PERI AZIMU VELO AIN AR TRES W  DIS CAZ7
 BAR2 EZ EP        925 54.93                             172   -0.0210 19.7 194 
 BAR2 EZ ES   1    926 10.76                             172    0.13 7 19.7 194 
 BAR2 EZ I         926 11.79         4.4 0.56            172           19.7 194 
 BRR  HZ EP        925 57.01                             152    0.3710 73.9 301 
 BRR  HN ES        926 13.80                             152    0.1810 73.9 301 
 BRR  HZ I         926 14.92         6.2 0.40            150           73.9 301 
 PAM  SZ EP     C  925 57.97                             151    0.2810 79.9  37 
 PAM  SN ES        926 15.10                             151   -0.4010 79.9  37 
 PAM  SZ I         926 17.09         5.3 0.68            153           79.9  37 
 RUS  HZ EP   1    925 58.40                             146   -0.37 7 96.6 176 
 RUS  HE ES   1    926 17.53                             146    0.11 7 96.6 176 
 RUS  HZ I         926 18.64         2.6 0.28            148           96.6 176 
 PTB  HZ EP        926  2.06                             133   -0.14 9  148 260 
 PTB  HN ES   1    926 22.21                             133   -1.32 7  148 260 
 PTB  HZ I         926 25.41         1.7 0.13            132            148 260 
 SPBC HZ EP   1    926  3.61                             130    0.14 7  161 220 
 SPBC HN ES        926 26.21                             130    0.42 9  161 220 
 SPBC HZ I         926 29.30         3.1 0.26            131            161 220 
 ZAR  HZ EP   1    926  8.27                             123    0.44 6  206 293 
 ZAR  HN ES        926 33.72                             123    0.17 8  206 293 
 ZAR  HZ I         926 41.41         1.8 0.17            123            206 293 
 SML  HZ EP        926 11.50                             118   -0.65 8  248 335 
 SML  HN ES   1    926 41.60                             118    0.36 6  248 335 
 SML  HZ I         926 45.77         2.5 0.28            118            248 335 
                                                                                
