 2011 12 7 0750 40.5 L   5.753 -73.926 97.4  RSN  7 0.2 1.3LRSN                1
 GAP=159        0.45       3.6     2.2  6.8 -0.3971E+01  0.4579E+00 -0.4635E+01E
 Epicentro: ALBANIA - SANTANDER                                                3
 ACTION:UPD 12-07-13 16:14 OP:ep   STATUS:               ID:20111207075040 L   I
 2011-12-07-0750-00M.COL___183                                                 6
 STAT SP IPHASW D HRMM SECON CODA AMPLIT PERI AZIMU VELO AIN AR TRES W  DIS CAZ7
 RUS  HZ EP   1    750 59.28                             133   -0.03 7 94.6  81 
 RUS  HZ I         751  1.55         2.9 0.29                          94.6  81 
 RUS  HN ES   2    751 14.04                             133    0.03 5 94.6  81 
 NOR  SZ EP   1    750 59.90                             129    0.05 7  107 259 
 NOR  SN ES   1    751 14.93                             129   -0.02 7  107 259 
 NOR  SZ I         751 17.87         1.0 0.21                           107 259 
 BAR2 SZ EP   1    751  1.65                             124   -0.16 7  124  42 
 BAR2 SZ I         751 20.61        21.0 0.42                           124  42 
 BRR  HZ EP   1    751  4.06                             118   -0.34 7  152   9 
 BRR  HN ES   2    751 23.38                             118    0.31 5  152   9 
 BRR  HZ I         751 26.98         4.6 0.22                           152   9 
 GIR2 SZ EP   1    751  6.61                             116    0.28 7  167  29 
 RREF HN ES   2    751 31.11                             114    0.28 4  184 239 
 HEL  HZ EP   1    751  8.90                             114    0.43 7  184 285 
 HEL  HN ES   1    751 30.03                             114   -0.27 7  184 285 
 HEL  HZ I         751 32.47         2.4 0.36                           184 285 
 RREF HZ EP   1    751  8.59                             114   -0.18 7  184 239 
                                                                                
