 2012  4 7 0624 20.1 L   6.771 -73.160141.2  RSN  5 0.4 1.2LRSN                1
 GAP=136        0.95       8.1     5.8 12.1 -0.4346E+01  0.1151E+02  0.1818E+02E
 Epicentro: LOS SANTOS - SANTANDER                                             3
 ACTION:UPD 12-07-05 11:51 OP:tino STATUS:               ID:20120407062420 L   I
 2012-04-07-0620-00M.COL___196                                                 6
 STAT SP IPHASW D HRMM SECON CODA AMPLIT PERI AZIMU VELO AIN AR TRES W  DIS CAZ7
 BRR  HZ EP   1    624 40.87                             151     0.1 7   71 301 
 BRR  HE ES   1    624 57.39                             151     0.5 7   71 301 
 BRR  HZ I         625  1.20         4.0 0.10                            71 301 
 PAM  SZ EP   1    624 41.99                             149     0.0 7   81  39 
 PAM  SN ES   1    624 58.69                             149    -0.4 7   81  39 
 PAM  SZ I         625  0.94         3.1 0.39                            81  39 
 RUS  HZ EP   2    624 43.63                             144     0.5 5   97 175 
 RUS  HE ES   2    625  1.44                             144     0.3 5   97 175 
 RUS  HZ I         625  2.48         1.8 0.35                            97 175 
 PTB  HZ EP   1    624 46.30                             131    -0.2 7  146 260 
 PTB  HN ES   1    625  6.23                             131    -0.8 7  146 260 
 PTB  HZ I         625  7.68         2.6 0.70                           146 260 
 ZAR  HN ES   1    625 17.65                             121     0.4 6  204 293 
                                                                                
