 2015  7 7 0031 25.5 L   6.793 -73.107149.9  RSN  7 0.2 1.7LRSN                1
 GAP=187        0.41       1.5     2.5  4.0 -0.1321E+00  0.3307E+01 -0.1090E+01E
 Epicentro: LOS SANTOS - SANTANDER                                             3
 ACTION:UPD 15-09-08 21:47 OP:cam  STATUS:               ID:20150707003125 L   I
 OLDACT:REG 15-07-07 12:45 OP:spq  STATUS:               ID:20150707002746     3
 2015-07-07-0027-46M.COL___333                                                 6
 STAT SP IPHASW D HRMM SECON CODA AMPLIT PERI AZIMU VELO AIN AR TRES W  DIS CAZ7
 BAR2 EZ EP        031 45.57                             171   -0.0910 23.7 201 
 BAR2 EZ ES   1    032  1.49                             171    0.13 7 23.7 201 
 BAR2 EZ I         032  3.00         7.4 0.18            171           23.7 201 
 RUS  HZ EP        031 49.74                             145    0.1310 99.6 178 
 RUS  HN ES        032  8.34                             145   -0.0610 99.6 178 
 RUS  HZ I         032  9.49         2.8 0.25            149           99.6 178 
 OCA  HZ EP        031 54.34                             130    0.05 9  162 352 
 OCA  HE ES        032 16.75                             130    0.03 9  162 352 
 OCA  HZ I         032 21.43        15.1 0.36            132            162 352 
 ZAR  HN ES        032 24.61                             123    0.07 8  208 292 
 ZAR  HZ I         032 29.28         5.1 0.28            124            208 292 
 NOR  HE ES        032 29.85                             119   -0.28 8  238 235 
 NOR  HZ I         032 32.81         4.4 0.16            121            238 235 
 SML  HE ES   1    032 31.37                             118   -0.26 6  246 334 
 GUY2CHZ EP   1    032  9.55                             113   -0.12 5  304 235 
 GUY2CHN ES   1    032 44.60                             113    0.50 5  304 235 
 GUY2CHZ I         032 52.73         2.5 0.36                           304 235 
                                                                                
