 2014 12 7 0237 17.5 L   6.766 -73.150141.9  RSN 14 0.4 1.7LRSN                1
 GAP= 72        0.87       3.0     3.5  6.0 -0.2842E+01  0.5344E+01  0.1038E+01E
 Epicentro: LOS SANTOS - SANTANDER                                             3
 ACTION:UPD 15-02-10 17:01 OP:nd   STATUS:               ID:20141207023717 L   I
 OLDACT:DUP 14-12-07 15:55 OP:spq  STATUS:               ID:20141207022744d    3
 2014-12-07-0227-43M.COL___309                                                 6
 STAT SP IPHASW D HRMM SECON CODA AMPLIT PERI AZIMU VELO AIN AR TRES W  DIS CAZ7
 BAR2 SZ ES   1    237 51.29                             172   -0.16 7 19.6 190 
 BAR2 SZ I         237 52.32         7.3 0.22            170           19.6 190 
 PAM  SZ EP        237 39.56                             149    0.0910 80.6  38 
 PAM  SE ES        237 56.37                             149   -0.2610 80.6  38 
 PAM  SZ I         237 58.44        12.9 0.46            153           80.6  38 
 RUS  HZ EP   1    237 40.47                             144   -0.10 7 96.9 176 
 RUS  HE ES   1    237 59.04                             144    0.45 7 96.9 176 
 RUS  HZ I         238  0.48         4.3 0.32            145           96.9 176 
 PTB  HZ EP   1    237 43.71                             131   -0.30 7  147 260 
 PTB  HN ES   1    238  4.74                             131    0.02 7  147 260 
 PTB  HZ I         238  6.47         5.9 0.74            130            147 260 
 TAM  HZ EP        237 44.88                             130    0.08 9  155 104 
 SPBC HZ EP   1    237 45.74                             129    0.38 7  160 220 
 SPBC HN ES   1    238  6.52                             129   -0.60 7  160 220 
 SPBC HZ I         238 10.73         5.6 0.18            128            160 220 
 OCA  HZ EP        237 45.07                             128   -0.76 9  164 353 
 OCA  HN ES        238  8.84                             128    0.89 9  164 353 
 OCA  HZ I         238 11.54         7.4 0.18            129            164 353 
 ZAR  HN ES   1    238 14.99                             121    0.04 6  205 293 
 ZAR  HZ I         238 22.76         7.1 0.32            121            205 293 
 SML  HZ EP   4    237 53.02                             116   -1.21 0  247 336 
 SML  HN ES   1    238 22.37                             116   -0.53 6  247 336 
 SML  HZ I         238 24.78         8.4 0.26            117            247 336 
 HEL  HE ES   1    238 28.65                             114    0.23 6  271 257 
 HEL  HZ I         238 36.97         2.0 0.48            114            271 257 
 GUY2CHZ EP   1    238  1.33                             112    0.72 5  299 235 
 GUY2CHE ES   1    238 34.18                             112   -0.08 5  299 235 
 GUY2CHZ I         238 44.08         1.8 0.60                           299 235 
 RREF HZ EP        238  3.25                             110    0.13 7  319 230 
 RREF HN ES   1    238 38.62                             110   -0.11 5  319 230 
 RREF HZ I         238 44.35         1.4 0.30            111            319 230 
 TOL  SN ES   4    238 45.21                             109    2.74 0  340 225 
 TOL  SZ I         238 48.77         3.9 0.24            109            340 225 
 SJC  HZ EP   4    238 11.37                             105   -1.87 0  412 327 
 SJC  HN ES   4    238 53.63                             105   -3.12 0  412 327 
 SJC  HZ I         238 56.54         2.1 0.54            105            412 327 
                                                                                
