 2010 12 7 0405 29.8 L   6.177 -73.691114.0  RSN 10 0.3 2.4LRSN                1
 GAP=100        0.66       3.2     3.9  7.4 -0.4239E+01  0.4078E+01  0.4254E+01E
 Epicentro: LANDAZURI - SANTANDER                                              3
 ACTION:UP  11-01-14 15:23 OP:pat  STATUS:               ID:20101207040529 L   I
 2010-12-07-0403-35S.COL___135                                                 6
 STAT SP IPHASW D HRMM SECON CODA AMPLIT PERI AZIMU VELO SNR AR TRES W  DIS CAZ7
 BAR2 SZ EP        4 5 48.25                             145     0.210   72  51 
 BAR2 SZ ES   1    4 6  1.76                             145    -0.5 7   72  51 
 BAR2 SZ I         4 6  3.75       124.8 0.17                            72  51 
 BTL  SZ IP        4 5 50.01                             137     0.310   94  30 
 NOR  SZ EP   2    4 5 54.08                             123    -0.3 5  147 243 
 NOR  SE ES   2    4 6 13.40                             123    -0.1 5  147 243 
 YOP  SZ EP        4 5 56.69                             120     0.1 9  168 123 
 YOP  SZ I         4 6 19.54        22.0 0.21                           168 123 
 CHI  HZ EP   2    4 5 57.15                             119    -0.2 4  171 182 
 CHI  HE ES   2    4 6 19.10                             119     0.3 4  171 182 
 CHI  HZ I         4 6 21.26        17.8 0.38                           171 182 
 HEL  HZ EP   2    4 6  1.05                             114     0.3 4  203 271 
 HEL  HN ES   2    4 6 24.99                             114     0.1 4  203 271 
 GRA  SZ EP   1    4 6  0.78                             113    -0.7 6  213  27 
 GRA  SZ I         4 6 31.82        12.0 0.47                           213  27 
 OCA  SZ EP   1    4 6  3.62                             111     0.0 6  232  10 
 OCA  SZ ES   2    4 6 30.16                             111     0.1 4  232  10 
 OCA  SZ I         4 6 36.50        14.1 0.17                           232  10 
 PRA  HZ EP   2    4 6 11.98                             105     0.2 4  303 206 
 PRA  HE ES   2    4 6 44.70                             105     0.2 4  303 206 
 SJA  SZ EP   2    4 6 13.57                             104    -0.6 3  322 185 
 SJA  SZ ES   2    4 6 48.16                             104    -0.6 3  322 185 
 SJA  SZ I         4 6 53.04        25.7 0.61                           322 185 
                                                                                
