 2014 11 7 0539 53.7 L   6.813 -73.161151.0  RSN  6 0.5 1.8LRSN                1
 GAP=134        1.24       4.6     6.4  9.1 -0.8576E+01  0.3491E+01  0.1954E+01E
 Epicentro: LOS SANTOS - SANTANDER                                             3
 ACTION:UPD 14-12-19 15:40 OP:nd   STATUS:               ID:20141107053953 L   I
 OLDACT:UP  14-11-07 16:14 OP:cam  STATUS:               ID:20141107053813     3
 OLDACT:UP  14-11-07 16:14 OP:cam  STATUS:               ID:20141107053813     3
 OLDACT:REG 14-11-07 12:55 OP:cam  STATUS:               ID:20141107053813     3
 2014-11-07-0538-13M.COL___295                                                 6
 STAT SP IPHASW D HRMM SECON CODA AMPLIT PERI AZIMU VELO AIN AR TRES W  DIS CAZ7
 BRR  HZ IP     C  540 15.82                             154    0.5510 69.1 298 
 BRR  HN ES        540 32.76                             154    0.6410 69.1 298 
 BRR  HZ I         540 37.05        11.3 0.12            154           69.1 298 
 PAM  SZ EP        540 16.95                             152    0.5010 77.4  41 
 PAM  SN ES        540 33.87                             152   -0.3410 77.4  41 
 PAM  SZ I         540 36.03        23.8 0.60            156           77.4  41 
 RUS  HZ EP        540 17.97                             144   -0.0810  102 175 
 RUS  HN ES        540 36.73                             144   -0.3310  102 175 
 RUS  HZ I         540 37.88         4.2 0.28            147            102 175 
 PTB  HZ EP        540 20.62                             133   -0.33 9  146 258 
 PTB  HN ES        540 41.47                             133   -0.75 9  146 258 
 PTB  HZ I         540 43.88         9.9 0.16            135            146 258 
 OCA  HZ EP        540 22.33                             131    0.09 9  159 354 
 OCA  HN ES        540 44.12                             131   -0.42 9  159 354 
 OCA  HZ I         540 48.36        11.1 0.44            134            159 354 
 SPBC HZ EP        540 22.16                             130   -0.42 9  163 218 
 SPBC HN ES        540 45.88                             130    0.75 9  163 218 
 SPBC HZ I         540 55.45         4.8 0.22            132            163 218 
                                                                                
