 2013  9 7 0747 34.6 L   6.170 -73.677112.9  RSN 13 0.4 2.5LRSN                1
 GAP= 67        0.96       2.8     3.4  6.2 -0.2493E+01  0.9222E+01 -0.3768E+01E
 Epicentro: LA PAZ - SANTANDER                                                 3
 ACTION:UPD 13-10-22 09:20 OP:ep   STATUS:               ID:20130907074734 L   I
 OLDACT:UP  13-09-07 12:36 OP:cam  STATUS:               ID:20130907073960d    3
 OLDACT:UP  13-09-07 12:36 OP:cam  STATUS:               ID:20130907073960d    3
 OLDACT:DUP 13-09-07 12:29 OP:cam  STATUS:               ID:20130907073960d    3
 OLDACT:UP  13-09-07 12:29 OP:cam  STATUS:               ID:20130907073959     3
 OLDACT:REG 13-09-07 10:54 OP:cam  STATUS:               ID:20130907073959     3
 2013-09-07-0739-59M.COL___269                                                 6
 STAT SP IPHASW D HRMM SECON CODA AMPLIT PERI AZIMU VELO AIN AR TRES W  DIS CAZ7
 BAR2 SZ IP     C  747 52.95                             145    0.2310 71.9  50 
 BAR2 SZ ES        748  7.16                             145    0.3210 71.9  50 
 BAR2 SZ I         748  8.03       161.5 0.14            147           71.9  50 
 SPBC HZ EP        747 52.48                             145   -0.0310 72.1 217 
 SPBC HN ES   1    748  6.53                             145    0.05 7 72.1 217 
 SPBC HZ I         748  9.55        61.6 0.22            145           72.1 217 
 RUS  HZ IP     D  747 53.10                             145   -0.0210 72.5 115 
 RUS  HN ES        748  7.18                             145   -0.3710 72.5 115 
 RUS  HZ I         748  8.35        40.9 0.28            146           72.5 115 
 PTB  HZ EP        747 53.22                             137   -0.9910 95.4 295 
 PTB  HN ES   4    748  7.94                             137   -1.55 0 95.4 295 
 PTB  HZ I         748  9.11        65.7 0.16            138           95.4 295 
 BRR  HZ EP        747 54.78                             134   -0.1210  104 358 
 BRR  HE ES        748 10.89                             134    0.1710  104 358 
 BRR  HZ I         748 12.63        59.2 0.12            136            104 358 
 NOR  HZ EP        747 58.81                             123   -0.40 9  148 243 
 NOR  HN ES        748 18.29                             123   -0.10 9  148 243 
 NOR  HZ I         748 21.17        51.5 0.18            124            148 243 
 PAM  SZ EP        748  2.15                             120    0.24 9  169  40 
 PAM  SN ES   1    748 23.27                             120    0.07 7  169  40 
 PAM  SZ I         748 24.08        16.5 0.16            121            169  40 
 CHI  HZ EP   2    748  2.17                             119    0.16 4  170 182 
 CHI  HN ES   1    748 23.71                             119    0.33 7  170 182 
 CHI  HZ I         748 28.94        23.8 0.44            120            170 182 
 ZAR  HZ EP        748  3.94                             115   -0.32 9  196 318 
 ZAR  HN ES        748 27.86                             115    0.47 9  196 318 
 ZAR  HZ I         748 28.92        51.3 0.28            116            196 318 
 HEL  HZ EP        748  6.42                             114    0.70 9  205 271 
 GUY2CHZ EP        748  7.63                             113    0.74 8  214 241 
 OCA  HZ EP   1    748  8.30                             111   -0.21 6  232  10 
 URE  HZ EP   4    748 11.34                             107   -1.30 0  270 311 
 SML  HZ EP   1    748 14.98                             105   -0.52 5  294 352 
 SML  HE ES   1    748 47.02                             105   -0.38 5  294 352 
 SML  HZ I         748 51.55        23.7 0.28            107            294 352 
                                                                                
