 2014  4 7 0227 14.4 L   6.771 -73.176145.1  RSN  4 0.3 1.7LRSN                1
 GAP=220        0.85       7.0     5.7  7.6 -0.2476E+02 -0.3902E+01  0.9794E+01E
 Epicentro: LOS SANTOS - SANTANDER                                             3
 ACTION:UPD 14-05-13 23:06 OP:nd   STATUS:               ID:20140407022714 L   I
 OLDACT:DUP 14-04-07 15:32 OP:stll STATUS:               ID:20140407021807d    3
 2014-04-07-0218-06M.COL___259                                                 6
 STAT SP IPHASW D HRMM SECON CODA AMPLIT PERI AZIMU VELO AIN AR TRES W  DIS CAZ7
 BRR  HZ IP     C  227 35.92                             153    0.4810 69.9 302 
 BRR  HZ I         227 36.16        11.1 0.24            146           69.9 302 
 BRR  HN ES        227 51.72                             153   -0.1110 69.9 302 
 PAM  SZ EP        227 36.97                             149    0.1110 82.0  40 
 PAM  SZ I         227 37.20        11.7 0.22            147           82.0  40 
 PAM  SN ES        227 54.24                             149   -0.1210 82.0  40 
 PTB  HZ EP        227 41.13                             133    0.13 9  144 260 
 PTB  HN ES        228  1.51                             133   -0.21 9  144 260 
 PTB  HZ I         228  6.37         3.4 0.10            130            144 260 
 OCA  HZ EP        227 42.28                             129   -0.68 9  163 354 
 OCA  HN ES        228  5.54                             129    0.32 9  163 354 
 OCA  HZ I         228 11.17         5.4 0.24            126            163 354 
                                                                                
