 2016 10 7 0850 45.1 L   6.824 -73.185141.7  RSN 11 0.4 1.9LRSN                1
 GAP=130        1.00       2.9     4.0  7.2 -0.2088E+01  0.7839E+01  0.1740E+01E
 Epicentro: ZAPATOCA - SANTANDER                                               3
 ACTION:UPD 16-11-09 19:17 OP:rebc STATUS:               ID:20161007085045 L   I
 OLDACT:UP  16-10-07 16:35 OP:dani STATUS:               ID:20161007084744     3
 OLDACT:UP  16-10-07 16:32 OP:dani STATUS:               ID:20161007084744     3
 OLDACT:UP  16-10-07 16:32 OP:dani STATUS:               ID:20161007084744     3
 OLDACT:UP  16-10-07 16:32 OP:dani STATUS:               ID:20161007084744     3
 OLDACT:REG 16-10-07 12:58 OP:dnl  STATUS:               ID:20161007084744     3
 2016-10-07-0848-00M.COL___339                                                 6
 STAT SP IPHASW D HRMM SECON CODA AMPLIT PERI AZIMU VELO AIN AR TRES W  DIS CAZ7
 PAM  EZ EP        851  7.16                             150    0.1810 78.3  43 
 PAM  EN ES        851 24.40                             150    0.3910 78.3  43 
 PAM  EZ I         851 26.41        13.2 0.52            147           78.3  43 
 RUS  HZ EP        851  8.51                             142   -0.2110  104 174 
 RUS  HN ES        851 27.00                             142   -0.1210  104 174 
 RUS  HZ I         851 28.51         6.5 0.44            138            104 174 
 PTB  HZ EP        851 11.27                             132   -0.17 9  144 257 
 PTB  HN ES        851 31.07                             132   -0.88 9  144 257 
 PTB  HZ I         851 38.41         9.3 0.46            123            144 257 
 OCA  HZ EP        851 12.29                             129   -0.55 9  157 355 
 OCA  HN ES        851 34.28                             129   -0.16 9  157 355 
 OCA  HZ I         851 37.64        17.6 0.23            122            157 355 
 SPBC HZ EP        851 13.12                             128   -0.15 9  163 217 
 SPBC HN ES        851 35.78                             128    0.56 9  163 217 
 SPBC HZ I         851 40.05        17.3 0.22            121            163 217 
 ZAR  HZ EP        851 16.95                             122    0.15 9  199 292 
 ZAR  HN ES        851 42.13                             122    0.64 9  199 292 
 ZAR  HZ I         851 47.42         9.5 0.36            114            199 292 
 NOR  HZ EP        851 21.07                             118    0.64 8  233 233 
 NOR  HN ES        851 47.88                             118   -0.07 8  233 233 
 NOR  HZ I         851 57.93         3.5 0.31            111            233 233 
 CHI  HZ EP        851 22.68                             116   -0.10 8  250 194 
 CHI  HE ES        851 51.94                             116   -0.20 8  250 194 
 CHI  HZ I         851 55.23         6.1 0.55            111            250 194 
 HEL  HZ EP   2    851 25.81                             114    1.06 4  269 255 
 HEL  HZ I         852  2.33         4.0 0.27            108            269 255 
 URE  HE ES   4    851 55.05                             113   -1.83 0  279 292 
 GUY2CHZ EP   4    851 29.51                             112    1.17 0  299 234 
 GUY2CHN ES   4    852  6.72                             112    4.69 0  299 234 
 GUY2CHZ I         852 10.47         5.3 0.31                           299 234 
 SJC  HZ EP   9    851 37.77                             105   -2.25 0  405 327 
 SJC  HN ES        852 20.03                             105   -0.55 6  405 327 
 SJC  HZ I         852 34.02         1.6 0.60            100            405 327 
                                                                                
