 2010  7 7 0526 50.5 L   6.871 -73.315124.0  RSN  4 0.1 0.9LRSN                1
 GAP=134        0.32       2.3     4.9  4.5  0.1014E+01 -0.4833E+01 -0.7010E+00E
 Epicentro: BETULIA - SANTANDER                                                3
 ACTION:UPD 10-12-01 15:15 OP:pat  STATUS:               ID:20100707052650 L   I
 2010-07-07-0523-03S.COL___117                                                 6
 STAT SP IPHASW D HRMM SECON CODA AMPLIT PERI AZIMU VELO AIN AR TRES W  DIS CAZ7
 BAR2 SZ EP   1    527  7.73                             164    -0.1 7   34 155 
 BAR2 SZ ES   2    527 21.37                             164     0.0 5   34 155 
 BRR  HZ EP   1    527  8.09                             156    -0.1 7   51 301 
 BRR  HZ I         527 21.91         3.1 0.74                            51 301 
 BRR  HE ES   2    527 22.10                             156     0.1 5   51 301 
 RUS  HZ EP   1    527 13.23                             136     0.2 7  111 167 
 RUS  HN ES   2    527 30.58                             136    -0.1 5  111 167 
 RUS  HZ I         527 32.34         0.8 0.23                           111 167 
 GUE  SZ EP   1    527 13.12                             135     0.0 7  114  22 
 GUE  SZ ES   2    527 30.77                             135     0.0 5  114  22 
                                                                                
