 2017 11 7 0003 14.0 L   5.989 -74.039  1.1  RSN  7 0.6 1.3LRSN                1
 GAP= 90        1.55       3.1     3.8  7.9 -0.4240E+01  0.5693E+01 -0.3443E+01E
 Epicentro: LA BELLEZA - SANTANDER                                             3
 ACTION:UPD 17-12-12 19:53 OP:rebc STATUS:               ID:20171107000314 L   I
 OLDACT:UP  17-11-07 13:26 OP:leo  STATUS:               ID:20171107000000     3
 OLDACT:REG 17-11-07 12:29 OP:dnl  STATUS:               ID:20171107000000     3
 2017-11-07-0000-15M.COL___423                                                 6
 STAT SP IPHASW D HRMM SECON CODA AMPLIT PERI AZIMU VELO AIN AR TRES W  DIS CAZ7
 SPBC HZ EP        0 3 20.48                              47   -0.2610 37.5 186 
 SPBC HN ES        0 3 25.38                              47   -0.6510 37.5 186 
 SPBC HZ I         0 3 26.02        24.8 0.24             47           37.5 186 
 PTB  HZ EP        0 3 26.18                              47   -0.3810 76.4 323 
 PTB  HE ES        0 3 35.62                              47   -0.7810 76.4 323 
 PTB  HZ I         0 3 38.66        10.3 0.20             47           76.4 323 
 NOR  HZ EP        0 3 31.18                              47    0.5010  103 243 
 NOR  HN ES        0 3 44.00                              47    0.2710  103 243 
 RUS  HZ EP        0 3 30.86                              47   -0.7310  106  96 
 RUS  HN ES   4    0 3 42.79                              47   -2.55 0  106  96 
 BRR  HZ EP        0 3 34.14                              47   -0.3410  129  16 
 BRR  HN ES        0 3 50.56                              47    0.0710  129  16 
 BRR  HZ I         0 3 53.92         8.1 0.54             47            129  16 
 GUY2CHZ EP        0 3 42.17                              47    1.02 9  170 240 
 GUY2CHN ES        0 4  2.46                              47    0.10 9  170 240 
 GUY2CHZ I         0 4  5.60         2.9 0.30                           170 240 
 PAM  EZ EP        0 3 47.57                              37    1.00 8  210  45 
 PAM  EN ES        0 4 12.94                              37    0.92 8  210  45 
                                                                                
