 2013 11 7 0319 12.1 L   6.820 -73.160143.0  RSN 14 0.5 2.4LRSN                1
 GAP=134        1.23       3.3     4.7  6.4 -0.2460E+01  0.9117E+01 -0.6050E+00E
 Epicentro: LOS SANTOS - SANTANDER                                             3
 ACTION:UPD 14-01-09 16:26 OP:ep   STATUS:               ID:20131107031912 L   I
 OLDACT:REG 13-11-07 07:44 OP:jn   STATUS:               ID:20131107031743     3
 2013-11-07-0317-43M.COL___206                                                 6
 STAT SP IPHASW D HRMM SECON CODA AMPLIT PERI AZIMU VELO AIN AR TRES W  DIS CAZ7
 BAR2 SZ EP        319 31.45                             170    0.0110 25.3 186 
 BAR2 SZ ES        319 45.91                             170   -0.6110 25.3 186 
 BAR2 SZ I         319 47.68       108.1 0.26            172           25.3 186 
 BRR  HZ EP        319 33.23                             153    0.4210 68.7 298 
 BRR  HN ES        319 50.18                             153    1.2210 68.7 298 
 BRR  HZ I         319 54.56        42.0 0.16            152           68.7 298 
 PAM  SZ EP        319 34.38                             151    0.4010 76.7  42 
 PAM  SN ES        319 50.91                             151   -0.1310 76.7  42 
 PAM  SZ I         319 53.60        30.9 0.46            153           76.7  42 
 RUS  HZ EP        319 35.45                             143   -0.3010  103 175 
 RUS  HN ES        319 54.20                             143    0.0010  103 175 
 RUS  HZ I         319 55.23        28.9 0.26            147            103 175 
 PTB  HZ EP        319 38.05                             132   -0.68 9  147 258 
 PTB  HE ES        319 59.31                             132   -0.21 9  147 258 
 PTB  HZ I         320  1.29        37.8 0.18            133            147 258 
 OCA  HZ EP        319 40.33                             130    0.37 9  158 354 
 OCA  HN ES        320  0.88                             130   -0.82 9  158 354 
 OCA  HZ I         320  9.94        29.9 0.22            131            158 354 
 SPBC HZ EP        319 39.93                             128   -0.52 9  164 218 
 SPBC HN ES        320  2.78                             128    0.21 9  164 218 
 SPBC HZ I         320  6.73        43.3 0.48            131            164 218 
 ZAR  HZ EP        319 44.12                             122    0.00 9  202 292 
 ZAR  HN ES        320  9.18                             122    0.08 9  202 292 
 ZAR  HZ I         320 14.83        32.1 0.40            124            202 292 
 NOR  HZ EP        319 47.62                             118   -0.04 8  235 234 
 NOR  HN ES        320 15.93                             118    0.52 8  235 234 
 NOR  HZ I         320 18.11        14.6 0.30            120            235 234 
 SML  HZ EP        319 48.34                             117    0.07 8  241 335 
 SML  HE ES        320 16.26                             117   -0.23 8  241 335 
 ROSC BZ EP   1    319 51.30                             116    1.12 6  254 210 
 GUY2CHZ EP   4    319 56.03                             112    0.46 0  301 234 
 GUY2CHZ I         320 37.72        15.9 0.34                           301 234 
 VIL  SN ES   1    320 29.26                             111   -0.27 5  305 191 
 CBOC HZ EP        319 59.16                             109    0.36 7  333 252 
 CBOC HN ES   1    320 33.90                             109   -1.33 5  333 252 
                                                                                
