 2017 10 7 0910 39.8 L   6.855 -73.138142.8  RSN 25 0.7 2.4LRSN                1
 GAP= 65        1.31       3.3     3.5  6.2 -0.1128E+00  0.9341E+01  0.1207E+01E
 Epicentro: LOS SANTOS - SANTANDER                                             3
 ACTION:UPD 17-11-07 19:29 OP:rebc STATUS:               ID:20171007091039 L   I
 OLDACT:UP  17-10-07 17:19 OP:dhb  STATUS:               ID:20171007090737     3
 OLDACT:UP  17-10-07 17:18 OP:dhb  STATUS:               ID:20171007090737     3
 OLDACT:UP  17-10-07 17:17 OP:dhb  STATUS:               ID:20171007090737     3
 OLDACT:UP  17-10-07 17:15 OP:dhb  STATUS:               ID:20171007090737     3
 OLDACT:REG 17-10-07 13:12 OP:dhb  STATUS:               ID:20171007090737     3
 2017-10-07-0908-00M.COL___429                                                 6
 STAT SP IPHASW D HRMM SECON CODA AMPLIT PERI AZIMU VELO AIN AR TRES W  DIS CAZ7
 BAR2 EZ E      C  910 59.05                                           29.5 190 
 BAR2 EZ IP     C  910 59.10                             168   -0.1210 29.5 190 
 BAR2 EZ ES        911 13.81                             168   -0.5610 29.5 190 
 BAR2 EZ I         911 16.35        83.8 0.32            166           29.5 190 
 PAM  EZ IP     C  911  2.13                             151    0.7310 72.2  42 
 PAM  EN ES        911 18.92                             151    0.6810 72.2  42 
 PAM  EZ I         911 21.30        65.5 0.64            156           72.2  42 
 RUS  HZ IP     C  911  3.08                             141   -0.6410  107 177 
 RUS  HN ES        911 21.81                             141   -0.5510  107 177 
 RUS  HZ I         911 22.47        35.4 0.32            142            107 177 
 TAM  HZ IP     D  911  7.44                             129    0.11 9  156 107 
 TAM  HE ES        911 28.86                             129    0.07 9  156 107 
 TAM  HZ I         911 29.39        22.2 0.26            133            156 107 
 SPBC HZ EP        911  8.04                             127   -0.55 9  169 218 
 SPBC HE ES        911 30.31                             127   -0.73 9  169 218 
 SPBC HZ I         911 36.61        37.8 0.22            127            169 218 
 YPLC HZ IP     C  911  9.51                             125   -0.37 9  182 153 
 YPLC HN ES        911 33.29                             125   -0.04 9  182 153 
 YPLC HZ I         911 35.83        63.6 0.24            127            182 153 
 ZAR  HZ EP        911 12.09                             121    0.17 9  203 290 
 ZAR  HN ES        911 38.03                             121    1.07 9  203 290 
 ZAR  HZ I         911 42.50        24.0 0.26            122            203 290 
 TABC EZ EP        911 16.35                             118    0.36 8  236 210 
 TABC EZ ES        911 44.43                             118    0.21 8  236 210 
 TABC EZ I         911 51.41        20.7 0.44            118            236 210 
 NOR  HZ EP        911 15.23                             117   -0.60 8  239 233 
 NOR  HN ES        911 43.73                             117   -0.20 8  239 233 
 NOR  HZ I         911 51.16        18.0 0.32            118            239 233 
 CHI  HZ EP        911 17.35                             116   -0.66 8  255 195 
 CHI  HE ES   3    911 46.59                             116   -1.22 2  255 195 
 CHI  HZ I         911 49.90         8.7 0.54            117            255 195 
 ROSC BZ EP        911 18.94                             115    0.55 8  258 211 
 ROSC BN ES   3    911 50.42                             115    1.93 2  258 211 
 ROSC BZ I         911 56.12        18.3 0.35            116            258 211 
 URE  HZ EP        911 20.56                             113   -0.02 7  282 291 
 URE  HN ES        911 51.06                             113   -1.32 7  282 291 
 GUY2CHZ EP        911 24.44                             111    0.68 7  305 234 
 GUY2CHE ES   4    912  1.20                             111    3.15 0  305 234 
 GUY2CHZ I         912  6.37        11.4 0.34                           305 234 
 VIL  EZ EP        911 22.89                             111   -0.90 7  310 192 
 VIL  EE ES        911 59.99                             111    1.90 7  310 192 
 VIL  EZ I         912  7.57        10.7 0.44            112            310 192 
 PTGC HZ EP   9    911 22.33                             110   -1.81 0  314 159 
 PTGC HE ES        911 55.83                             111   -1.08 7  314 159 
 PTGC HZ I         911 57.85        12.0 0.26            112            314 159 
 ELA  HZ EP        911 27.71                             109    0.64 7  334 229 
 ELA  HE ES        912  4.42                             109    0.49 7  334 229 
 ELA  HZ I         912 19.43         9.8 0.44            110            334 229 
 ARGC HZ EP   4    911 31.18                             108    2.46 0  354 340 
 ARGC HE ES   4    912 10.67                             108    3.80 0  354 340 
 ARGC HZ I         912 17.22         4.0 0.46            109            354 340 
 ANIL HZ EP        911 30.85                             107    0.77 6  362 224 
 ANIL HE ES        912  9.07                             107   -0.22 6  362 224 
 ANIL HZ I         912 21.67        20.0 0.30            108            362 224 
 APAC HZ EP        911 33.63                             105   -0.15 6  397 287 
 APAC HN ES        912 16.75                             105    0.87 6  397 287 
 APAC HZ I         912 18.37         6.5 0.34            106            397 287 
 PRA  HZ EP        911 33.80                             105   -0.10 6  398 209 
 PRA  HE ES        912 16.06                             105   -0.03 6  398 209 
 PRA  HZ I         912 21.25        10.4 0.32            106            398 209 
 ORTC HZ EP        911 34.14                             105   -0.13 6  401 216 
 ORTC HN ES        912 17.46                             105    0.72 6  401 216 
 ORTC HZ I         912 20.77         5.8 0.32            106            401 216 
 SJC  HZ EP        911 34.07                             105   -0.66 6  405 326 
 SJC  HN ES   4    912 15.11                             105   -2.46 0  405 326 
 SJC  HZ I         912 19.89         4.6 0.20            106            405 326 
 PAL  HZ IP     C  911 35.29                             105   -0.04 6  410 238 
 PAL  HE ES        912 18.72                             105    0.08 6  410 238 
 PAL  HZ I         912 23.92         7.2 0.36            106            410 238 
 CRJC HZ EP   2    911 39.91                             103   -1.58 2  461   3 
 CRJC HE ES   4    912 26.58                             103   -3.03 0  461   3 
 CRJC HZ I         912 36.07         4.3 0.50            104            461   3 
 URI  HZ EP   3    911 50.20                             100   -1.81 1  551  13 
 URI  HE ES        912 48.62                             100    0.30 4  551  13 
                                                                                
