 2010 12 7 0121 54.9 L   6.817 -73.231134.5  RSN 11 0.5 2.0LRSN                1
 GAP=146        0.81       5.1    11.1 11.0 -0.3530E+02  0.5556E+02 -0.1972E+01E
 Epicentro: ZAPATOCA - SANTANDER                                               3
 ACTION:UP  11-01-14 15:23 OP:pat  STATUS:               ID:20101207012154 L   I
 2010-12-07-0118-45S.COL___135                                                 6
 STAT SP IPHASW D HRMM SECON CODA AMPLIT PERI AZIMU VELO SNR AR TRES W  DIS CAZ7
 BTL  SZ EP        122 13.04                             175     0.010   12 340 
 BAR2 SZ EP   1    122 12.97                             168    -0.3 7   25 168 
 BAR2 SZ ES   2    122 27.54                             168     0.0 5   25 168 
 BAR2 SZ I         122 29.12        48.3 0.20                            25 168 
 GIR2 SZ EP   2    122 13.00                             167    -0.2 5   29   8 
 GUE  SZ EP   2    122 18.20                             136    -0.5 5  117  17 
 GRA  SZ EP   1    122 19.78                             134     0.5 7  127  22 
 GRA  SZ I         122 21.13        13.8 0.17                           127  22 
 GRA  SZ ES   1    122 39.00                             134     0.7 7  127  22 
 OCA  SZ EP   2    122 21.50                             127    -0.6 5  158 356 
 OCA  SZ ES   1    122 42.72                             127    -0.6 7  158 356 
 OCA  SZ I         122 48.24        13.1 0.29                           158 356 
 NOR  SZ EP   1    122 29.36                             117     0.0 6  228 233 
 NOR  SE ES   2    122 56.63                             117     0.5 4  228 233 
 CHI  HE ES   2    123  0.25                             114    -0.6 4  248 193 
 CHI  HZ I         123  6.95         3.8 0.34                           248 193 
 ROSC BZ EP   2    122 32.93                             114     0.8 4  250 209 
 ROSC BZ I         123  9.58        11.2 0.51                           250 209 
 HEL  HZ EP   2    122 34.35                             113     0.7 4  263 255 
 HEL  HZ I         123 11.71         6.2 0.30                           263 255 
 PRA  HZ EP   2    122 47.58                             104    -0.2 3  389 208 
 PRA  HN ES   2    123 28.51                             104    -0.4 3  389 208 
                                                                                
