 2016 11 7 0220  7.4 L   6.771 -73.137143.7  RSN  7 0.4 1.6LRSN                1
 GAP=157        1.05       5.4     4.9  7.0 -0.1018E+02  0.9964E+01  0.1511E+01E
 Epicentro: LOS SANTOS - SANTANDER                                             3
 ACTION:UPD 17-10-26 21:05 OP:lp   STATUS:               ID:20161107022007 L   I
 OLDACT:REG 16-11-07 12:38 OP:lv   STATUS:               ID:20161107021744     3
 2016-11-07-0218-00M.COL___337                                                 6
 STAT SP IPHASW D HRMM SECON CODA AMPLIT PERI AZIMU VELO AIN AR TRES W  DIS CAZ7
 BAR2 EZ EP        220 26.49                             172   -0.2010 20.4 194 
 BAR2 EZ ES        220 41.70                             172   -0.0610 20.4 194 
 BAR2 EZ I         220 42.66        11.6 0.23            169           20.4 194 
 BRR  HZ EP        220 28.45                             151    0.0210 73.6 300 
 BRR  HE ES        220 45.54                             151    0.6810 73.6 300 
 BRR  HZ I         220 46.44         8.4 0.14            149           73.6 300 
 PAM  EZ EP        220 29.48                             150    0.0010 79.3  38 
 PAM  EN ES        220 46.52                             150   -0.2010 79.3  38 
 PAM  EZ I         220 47.27         3.3 0.19            154           79.3  38 
 PTB  HZ EP        220 33.60                             131   -0.60 9  148 260 
 PTB  HE ES        220 54.52                             131   -0.60 9  148 260 
 PTB  HZ I         221  0.18         4.0 0.13            130            148 260 
 SPBC HE ES        220 57.83                             129    0.34 9  161 220 
 SPBC HZ I         221  0.77         8.1 0.21            129            161 220 
 ZAR  HZ EP        220 40.76                             122    0.86 8  206 293 
 ZAR  HN ES        221  4.88                             122   -0.39 8  206 293 
 ZAR  HZ I         221 10.69         5.3 0.32            121            206 293 
 NOR  HZ EP        220 42.98                             118    0.12 8  234 235 
 NOR  HE ES        221 10.69                             118    0.15 8  234 235 
 NOR  HZ I         221 16.91         2.8 0.17            118            234 235 
                                                                                
