 2010  9 7 0545 31.3 L   6.878 -72.905142.1  RSN  4 0.2 1.9LRSN                1
 GAP=245        0.46       7.2    13.7 11.5  0.8278E+02 -0.1191E+03 -0.5767E+02E
 Epicentro: GUACA - SANTANDER                                                  3
 ACTION:UP  11-02-18 11:00 OP:tino STATUS:               ID:20100907054531 L   I
 2010-09-07-0544-50S.COL___120                                                 6
 STAT SP IPHASW D HRMM SECON CODA AMPLIT PERI AZIMU VELO SNR AR TRES W  DIS CAZ7
 GIR2 SZ EP   1    545 50.68                             164    -0.1 7   39 305 
 BAR2 SZ EP   2    545 51.66                             162     0.5 5   44 224 
 BAR2 SZ I         546  8.33        24.1 0.21                            44 224 
 BRR  HZ IP     C  545 53.44                             145     0.010   93 286 
 BRR  HZ I         545 53.82        21.7 0.10                            93 286 
 BRR  HN ES   1    546 10.77                             145     0.0 7   93 286 
 RUS  HZ EP   1    545 55.51                             140     0.0 7  111 190 
 RUS  HE ES   1    546 14.29                             140    -0.1 7  111 190 
 RUS  HZ I         546 15.50         7.0 0.47                           111 190 
                                                                                
