 2017  5 7 0535 21.4 L   6.782 -73.178134.6  RSN  4 0.2 1.2LRSN                1
 GAP=133        0.55       2.9     2.8  5.3 -0.1261E+01  0.2688E+01  0.1158E+01E
 Epicentro: LOS SANTOS - SANTANDER                                             3
 ACTION:UPD 17-06-16 13:33 OP:jn   STATUS:               ID:20170507053520 L   I
 OLDACT:UP  17-05-08 13:21 OP:nlst STATUS:               ID:20170507053520 L   3
 OLDACT:REG 17-05-07 13:28 OP:ar   STATUS:               ID:20170507052739     3
 2017-05-07-0528-00M.COL___361                                                 6
 STAT SP IPHASW D HRMM SECON CODA AMPLIT PERI AZIMU VELO AIN AR TRES W  DIS CAZ7
 BRR  HZ IP     C  535 41.26                             151    0.0310 69.0 301 
 BRR  HN ES   1    535 57.03                             151    0.34 7 69.0 301 
 BRR  HZ I         536  3.08         3.7 0.42            152           69.0 301 
 PAM  EZ EP        535 42.43                             147   -0.2610 81.2  41 
 PAM  EE ES        535 59.31                             147    0.0210 81.2  41 
 PAM  EZ I         536  0.90         4.1 0.16            153           81.2  41 
 RUS  HZ EP        535 44.17                             142    0.2210 99.0 174 
 RUS  HN ES        536  1.45                             142   -0.0910 99.0 174 
 RUS  HZ I         536  3.50         2.3 0.26            148           99.0 174 
 PTB  HZ EP        535 47.28                             130    0.16 9  144 259 
 PTB  HN ES        536  6.88                             130   -0.29 9  144 259 
 PTB  HZ I         536 10.49         2.3 0.46            134            144 259 
                                                                                
