 2012  5 7 0250 13.8 L   6.734 -73.248148.0  RSN  4 0.5 1.1LRSN                1
 GAP=206        0.74      10.5    13.2 15.1  0.5709E+02 -0.9162E+02  0.3539E+02E
 Epicentro: VILLANUEVA - SANTANDER                                             3
 ACTION:UP  12-07-05 12:02 OP:pat  STATUS:               ID:20120507025013 L   I
 2012-05-07-0240-00M.COL___173                                                 6
 STAT SP IPHASW D HRMM SECON CODA AMPLIT PERI AZIMU VELO SNR AR TRES W  DIS CAZ7
 BAR2 SZ EP   3    250 32.48                             173    -1.1 2   17 155 
 BRR  HZ EP        250 34.61                             156    -0.310   66 309 
 BRR  HZ I         250 34.87         4.2 0.28                            66 309 
 BRR  HN ES   1    250 51.73                             156     0.4 7   66 309 
 RUS  HZ EP        250 37.54                             146     0.210   95 169 
 RUS  HN ES   3    250 54.78                             146    -0.9 2   95 169 
 RUS  HZ I         250 56.16         1.1 0.34                            95 169 
 PTB  HN ES   2    251  0.00                             137    -0.2 5  135 261 
                                                                                
