 2014  2 7 0626  5.6 L   6.815 -73.109141.3  RSN  4 0.3 0.8LRSN                1
 GAP=247        0.59      12.2     8.1 14.3  0.7413E+02 -0.5288E+02 -0.1235E+03E
 Epicentro: LOS SANTOS - SANTANDER                                             3
 ACTION:UPD 14-03-10 08:08 OP:ep   STATUS:               ID:20140207062605 L   I
 OLDACT:UP  14-02-07 12:47 OP:mh   STATUS:               ID:20140207062001d    3
 OLDACT:DUP 14-02-07 12:47 OP:mh   STATUS:               ID:20140207062001d    3
 2014-02-07-0620-00M.COL___291                                                 6
 STAT SP IPHASW D HRMM SECON CODA AMPLIT PERI AZIMU VELO AIN AR TRES W  DIS CAZ7
 RUS  HZ EP   1    626 29.48                             142    0.44 8  102 178 
 RUS  HN ES   1    626 47.06                             142   -0.25 8  102 178 
 RUS  HZ I         626 48.91         0.7 0.24            147            102 178 
 PTB  HZ IP        626 32.34                             130   -0.2910  152 259 
 PTB  HE ES   1    626 53.97                             130    0.28 7  152 259 
 PTB  HZ I         626 57.91         1.3 0.21            133            152 259 
 SPBC HN ES   2    626 56.40                             127   -0.00 5  167 220 
 ZAR  HN ES   2    627  3.45                             121    0.00 5  207 291 
                                                                                
