 2017  3 7 0200 37.0 L   6.777 -73.078151.0  RSN  5 0.2 1.3LRSN                1
 GAP=146        0.36       2.9     3.1  4.0 -0.3526E+01 -0.2720E+01  0.4519E+01E
 Epicentro: LOS SANTOS - SANTANDER                                             3
 ACTION:UPD 17-05-25 18:37 OP:jn   STATUS:               ID:20170307020037 L   I
 OLDACT:UP  17-03-07 12:43 OP:and  STATUS:               ID:20170307015744     3
 OLDACT:UP  17-03-07 12:42 OP:and  STATUS:               ID:20170307015744     3
 OLDACT:REG 17-03-07 11:42 OP:and  STATUS:               ID:20170307015744     3
 2017-03-07-0158-00M.COL___367                                                 6
 STAT SP IPHASW D HRMM SECON CODA AMPLIT PERI AZIMU VELO AIN AR TRES W  DIS CAZ7
 BAR2 EZ EP        2 0 57.07                             171   -0.1610 23.4 209 
 BAR2 EZ ES   2    2 1 12.82                             171   -0.22 5 23.4 209 
 BAR2 EZ I         2 1 14.85         4.8 0.40            169           23.4 209 
 PAM  EZ EP        2 0 59.78                             152    0.1710 75.0  34 
 PAM  EN ES        2 1 17.22                             152   -0.0510 75.0  34 
 PAM  EZ I         2 1 22.52         2.8 0.48            157           75.0  34 
 BRR  HZ EP   2    2 0 59.24                             151    0.11 5 79.0 298 
 BRR  HN ES        2 1 16.44                             151    0.0210 79.0 298 
 RUS  HZ EP   2    2 1  0.89                             146   -0.15 5 97.8 180 
 RUS  HN ES   2    2 1 20.12                             146    0.30 5 97.8 180 
 RUS  HZ I         2 1 22.48         2.4 0.32            146           97.8 180 
 SPBC HZ EP   2    2 1  6.01                             130   -0.13 5  166 222 
 SPBC HN ES   2    2 1 29.07                             130    0.17 5  166 222 
 SPBC HZ I         2 1 34.62         2.8 0.07            132            166 222 
                                                                                
