 2015  2 7 0704 30.3 L   6.841 -73.152140.9  RSN  4 0.1 1.2LRSN                1
 GAP=145        0.42       2.4     2.5  4.2 -0.2504E+01  0.3079E+01  0.1123E-01E
 Epicentro: LOS SANTOS - SANTANDER                                             3
 ACTION:UPD 15-04-30 21:23 OP:nd   STATUS:               ID:20150207070430 L   I
 OLDACT:REG 15-02-07 12:40 OP:stll STATUS:               ID:20150207065740     3
 2015-02-07-0657-40M.COL___287                                                 6
 STAT SP IPHASW D HRMM SECON CODA AMPLIT PERI AZIMU VELO AIN AR TRES W  DIS CAZ7
 PAM  SZ EP        7 4 52.08                             151    0.2110 74.5  42 
 PAM  SE ES        7 5  8.58                             151   -0.0810 74.5  42 
 PAM  SZ I         7 5 12.49         1.9 0.50            156           74.5  42 
 RUS  HZ EP        7 4 53.73                             141   -0.2310  105 176 
 RUS  HN ES        7 5 12.43                             141    0.0510  105 176 
 PTB  HZ EP        7 4 56.82                             131   -0.12 9  148 257 
 PTB  HZ I         7 4 57.67         2.9 0.16            134            148 257 
 PTB  HE ES        7 5 17.68                             131   -0.01 9  148 257 
 SPBC HZ EP        7 4 58.90                             127    0.13 9  166 218 
 SPBC HN ES        7 5 21.02                             127    0.07 9  166 218 
 SPBC HZ I         7 5 27.98         2.0 0.40            131            166 218 
                                                                                
