 2016  9 7 0054 15.1 L   6.794 -73.046151.5  RSN  5 0.4 1.6LRSN                1
 GAP=247        0.98       6.1     8.9  7.3  0.1361E+02  0.8556E+01  0.2512E+01E
 Epicentro: LOS SANTOS - SANTANDER                                             3
 ACTION:UPD 17-08-17 21:07 OP:lp   STATUS:               ID:20160907005415 L   I
 OLDACT:REG 16-09-07 12:09 OP:dani STATUS:               ID:20160907004743     3
 2016-09-07-0048-00M.COL___364                                                 6
 STAT SP IPHASW D HRMM SECON CODA AMPLIT PERI AZIMU VELO AIN AR TRES W  DIS CAZ7
 BAR2 EZ EP     D  054 35.69                             170    0.2110 26.9 214 
 BAR2 EZ ES        054 51.02                             170   -0.3610 26.9 214 
 BAR2 EZ I         054 53.42         4.9 0.48            160           26.9 214 
 BRR  HZ EP        054 37.64                             150    0.2010 81.3 295 
 BRR  HE ES        054 55.14                             150    0.2610 81.3 295 
 BRR  HZ I         054 56.30        14.8 0.36            135           81.3 295 
 RUS  HZ EP        054 39.70                             145    0.3610 99.7 182 
 RUS  HN ES        054 58.04                             145   -0.2210 99.7 182 
 RUS  HZ I         054 59.98         2.0 0.14            137           99.7 182 
 PTB  HZ EP        054 42.64                             131   -0.85 9  158 260 
 PTB  HZ I         055 10.98         5.8 0.36            118            158 260 
 SPBC HZ EP        054 44.58                             129   -0.07 9  170 222 
 SPBC HN ES        055  8.11                             129    0.40 9  170 222 
 SPBC HZ I         055 10.16         6.5 0.11            118            170 222 
                                                                                
