 2015  5 7 0244 37.6 L   6.741 -73.161131.3  RSN  8 0.4 1.6LRSN                1
 GAP=181        0.90       2.9     5.0  5.9  0.2297E+01  0.9000E+01  0.4304E+01E
 Epicentro: LOS SANTOS - SANTANDER                                             3
 ACTION:UPD 15-09-10 22:02 OP:cam  STATUS:               ID:20150507024437 L   I
 OLDACT:REG 15-05-07 12:47 OP:drio STATUS:               ID:20150507023739     3
 2015-05-07-0237-39M.COL___288                                                 6
 STAT SP IPHASW D HRMM SECON CODA AMPLIT PERI AZIMU VELO AIN AR TRES W  DIS CAZ7
 BAR2 EZ EP        244 55.64                             172    0.2410 16.6 188 
 BAR2 EZ ES        245  8.67                             172   -0.5910 16.6 188 
 BAR2 EZ I         245 12.07         6.1 0.42            168           16.6 188 
 BRR  HZ EP        244 57.10                             149   -0.2610 73.1 304 
 BRR  HN ES        245 13.06                             149    0.3110 73.1 304 
 RUS  HZ EP        244 59.66                             142    0.1510 94.2 175 
 RUS  HN ES        245 16.69                             142    0.1210 94.2 175 
 RUS  HZ I         245 20.18         3.6 0.50            144           94.2 175 
 SPBC HZ EP        245  3.93                             127   -0.53 9  157 220 
 SPBC HN ES        245 25.62                             127    0.24 9  157 220 
 SPBC HZ I         245 33.24         7.6 0.26            128            157 220 
 OCA  HN ES        245 27.64                             125    0.41 9  167 354 
 ZAR  HN ES        245 33.62                             119   -0.36 9  205 294 
 ZAR  HZ I         245 39.71         6.5 0.48            121            205 294 
 CHI  HZ EP        245 13.29                             115   -0.53 8  242 195 
 CHI  HN ES        245 42.54                             115    0.50 8  242 195 
 GUY2CHZ EP        245 20.31                             110    0.28 7  296 236 
 GUY2CHN ES        245 53.24                             110    0.15 7  296 236 
                                                                                
