 2013  2 7 0905 28.5 L   6.732 -73.138135.4  RSN  5 0.4 1.6LRSN                1
 GAP=253        0.73       6.2     8.9 16.0  0.9891E+01 -0.5204E+01  0.3186E+02E
 Epicentro: JORDAN - SANTANDER                                                 3
 ACTION:UPD 13-03-12 09:31 OP:ep   STATUS:               ID:20130207090528 L   I
 2013-02-07-0900-00M.COL___241                                                 6
 STAT SP IPHASW D HRMM SECON CODA AMPLIT PERI AZIMU VELO AIN AR TRES W  DIS CAZ7
 BAR2 SZ EP   1    9 5 46.29                             173   -0.42 7 16.2 198 
 BRR  HZ EP        9 5 49.11                             149    0.3310 75.8 303 
 BRR  HE ES   2    9 6  4.77                             149    0.14 5 75.8 303 
 BRR  HE I         9 6  6.54        13.5 0.34            139           75.8 303 
 PTB  HZ EP   1    9 5 54.06                             130   -0.50 7  147 262 
 PTB  HN ES   2    9 6 14.41                             130   -0.52 5  147 262 
 PTB  HN I         9 6 20.28         3.1 0.46            122            147 262 
 ZAR  HN ES   2    9 6 26.18                             119    0.43 4  208 294 
 ZAR  HN I         9 6 32.66         3.6 0.30            115            208 294 
 CHI  HN ES   1    9 6 33.63                             116    0.43 6  242 196 
 CHI  HN I         9 6 38.00         2.1 0.09            113            242 196 
                                                                                
