 2012  5 7 0625 26.9 L   6.761 -73.140146.0  RSN  7 0.4 1.7LRSN                1
 GAP=139        1.09       8.1     8.3 11.8  0.5306E+01  0.3613E+02  0.2195E+02E
 Epicentro: LOS SANTOS - SANTANDER                                             3
 ACTION:UP  12-07-05 12:03 OP:pat  STATUS:               ID:20120507062526 L   I
 2012-05-07-0619-37M.COL___175                                                 6
 STAT SP IPHASW D HRMM SECON CODA AMPLIT PERI AZIMU VELO SNR AR TRES W  DIS CAZ7
 OCA2 HZ EP   3    625 55.27                             129                    
 OCA2 HZ I         626 21.69        15.6 0.34                                   
 BAR2 SZ EP        625 46.56                             172     0.010   19 194 
 BAR2 SZ I         626  3.28         8.9 0.66                            19 194 
 BRR  HZ IP        625 48.57                             152     0.310   74 301 
 BRR  HN ES   1    626  5.37                             152     0.5 7   74 301 
 BRR  HZ I         626 10.17        22.9 0.12                            74 301 
 PAM  SZ EP        625 49.49                             150     0.110   80  37 
 PAM  SN ES   1    626  6.29                             150    -0.6 7   80  37 
 RUS  HZ EP        625 50.76                             145     0.310   96 176 
 RUS  HN ES   2    626  8.19                             145    -0.5 5   96 176 
 RUS  HZ I         626  9.72         5.1 0.40                            96 176 
 PTB  HZ EP        625 53.26                             132    -0.7 9  148 261 
 PTB  HZ I         626 16.44         3.0 0.16                           148 261 
 ZAR  HZ EP        625 59.59                             122     0.0 8  206 293 
 ZAR  HZ I         626 31.01         8.2 0.44                           206 293 
                                                                                
