 2010  7 7 0522 14.6 L   6.798 -73.119144.8  RSN  7 0.3 1.6LRSN                1
 GAP=158        0.55       3.3     7.1  6.4 -0.3684E+01 -0.4460E+01 -0.2996E+01E
 Epicentro: LOS SANTOS - SANTANDER                                             3
 ACTION:UPD 10-12-01 15:15 OP:pat  STATUS:               ID:20100707052214 L   I
 2010-07-07-0520-17S.COL___117                                                 6
 STAT SP IPHASW D HRMM SECON CODA AMPLIT PERI AZIMU VELO AIN AR TRES W  DIS CAZ7
 BAR2 SZ EP   1    522 34.20                             170     0.1 7   24 197 
 BAR2 SZ ES   2    522 48.98                             170    -0.4 5   24 197 
 BRR  HZ IP     D  522 35.80                             152     0.010   74 298 
 BRR  HZ I         522 35.97        14.7 0.19                            74 298 
 BRR  HE ES   2    522 52.78                             152     0.4 5   74 298 
 BTN  SZ EP   1    522 36.17                             150    -0.5 7   80   1 
 RUS  HZ EP   1    522 38.46                             144     0.2 7  100 178 
 RUS  HN ES   2    522 56.58                             144    -0.1 5  100 178 
 RUS  HZ I         522 57.72         3.0 0.34                           100 178 
 BRI  SZ EP   1    522 38.58                             141     0.2 7  108  19 
 BRI  SZ ES   2    522 57.42                             141     0.6 5  108  19 
 GRA  SZ EP   1    522 39.82                             137     0.1 7  125  16 
 GRA  SZ ES   2    522 59.14                             137    -0.2 5  125  16 
 OCA  SZ EP   1    522 42.74                             129    -0.2 7  161 352 
 OCA  SZ ES   2    523  4.75                             129    -0.2 5  161 352 
 OCA  SZ I         523  8.91         5.8 0.26                           161 352 
                                                                                
