 2012  9 7 0239  9.9 L   6.745 -73.194144.8  RSN  8 0.4 2.1LRSN                1
 GAP=133        0.72       4.4     4.3  6.2  0.3896E+00  0.7439E+01  0.4132E+01E
 Epicentro: VILLANUEVA - SANTANDER                                             3
 ACTION:UPD 12-10-22 14:17 OP:ep   STATUS:               ID:20120907023909 L   I
 2012-09-07-0237-59S.COL___226                                                 6
 STAT SP IPHASW D HRMM SECON CODA AMPLIT PERI AZIMU VELO AIN AR TRES W  DIS CAZ7
 BAR2 SZ EP   1    239 29.14                             173   -0.20 7 16.9 176 
 BAR2 SZ ES   1    239 45.00                             173    0.52 7 16.9 176 
 BAR2 SZ I         239 46.15        48.0 0.24                          16.9 176 
 GIR2 SZ EP   1    239 29.97                             165    0.30 7 36.9   0 
 GIR2 SZ ES   1    239 44.98                             165   -0.07 7 36.9   0 
 BRR  HZ EP   1    239 31.42                             153    0.51 7 69.8 305 
 BRR  HZ I         239 49.82        19.4 0.14                          69.8 305 
 PAM  SZ EP   1    239 32.50                             148   -0.06 7 85.5  40 
 PAM  SZ I         239 32.85        13.4 0.19                          85.5  40 
 PAM  SE ES   1    239 49.79                             148   -0.41 7 85.5  40 
 RUS  HZ EP   1    239 32.89                             145   -0.32 7 95.0 173 
 RUS  HN ES   1    239 51.39                             145    0.04 7 95.0 173 
 RUS  HZ I         239 53.19        16.2 0.34                          95.0 173 
 PTB  HZ EP   1    239 35.91                             133   -0.35 7  141 261 
 PTB  HN ES   1    239 56.20                             133   -0.58 7  141 261 
 PTB  HN I         239 59.51        16.7 0.23                           141 261 
 ZAR  HE ES   1    240  7.47                             122    0.35 6  202 294 
 CHI  HZ EP   1    239 47.19                             118    0.39 6  241 194 
 CHI  HN I         240 18.55         8.9 0.44                           241 194 
                                                                                
