 2010  8 7 0503 39.8 L   6.784 -73.127139.5  RSN 12 0.3 2.2LRSN                1
 GAP=158        0.70       3.0     6.3  5.8 -0.4942E+01  0.3939E+01 -0.2813E+01E
 Epicentro: LOS SANTOS - SANTANDER                                             3
 ACTION:UP  10-09-07 10:52 OP:vdl  STATUS:               ID:20100807050339 L   I
 2010-08-07-0500-52S.COL___125                                                 6
 STAT SP IPHASW D HRMM SECON CODA AMPLIT PERI AZIMU VELO SNR AR TRES W  DIS CAZ7
 BAR2 SZ IP        5 3 58.53                             170    -0.110   22 197 
 BAR2 SZ ES   2    5 4 13.10                             170    -0.2 5   22 197 
 BAR2 SZ I         5 4 14.54        32.6 0.30                            22 197 
 BTL  SZ IP        5 3 58.99                             171     0.410   22 314 
 BTL  SZ ES   2    5 4 13.44                             171     0.1 5   22 314 
 GIR2 SZ EP   1    5 3 58.64                             166    -0.1 7   33 347 
 BRR  HZ IP     D  5 4  0.44                             150     0.010   74 299 
 BRR  HZ I         5 4  0.84        49.9 0.11                            74 299 
 BRR  HE ES   2    5 4 16.72                                     0.2 5   74 299 
 RUS  HZ EP        5 4  2.47                             143    -0.310   99 177 
 RUS  HE ES   1    5 4 20.69                             143     0.0 7   99 177 
 BRI  SZ EP   1    5 4  3.29                             140     0.2 7  109  19 
 GUE  SZ EP        5 4  4.58                             138     0.610  118  11 
 GRA  SZ IP        5 4  4.51                             135     0.010  127  16 
 GRA  SZ I         5 4  5.81        24.6 0.32                           127  16 
 GRA  SZ ES   3    5 4 23.16                             135    -0.7 2  127  16 
 OCA  SZ EP        5 4  7.29                             128    -0.5 9  162 352 
 OCA  SZ ES   1    5 4 29.24                             128    -0.4 7  162 352 
 OCA  SZ I         5 4 32.92        23.1 0.19                           162 352 
 HEL  HZ EP   1    5 4 19.90                             113     0.1 6  274 256 
 HEL  HZ I         5 4 58.08         6.6 0.38                           274 256 
 RREF HZ EP   3    5 4 25.61                             109    -0.1 2  322 230 
 RREF HN ES   2    5 5  1.51                             109     0.0 3  322 230 
 RREF HZ I         5 5  6.49         3.4 0.16                           322 230 
 PRA  HZ EP   1    5 4 33.18                             105     0.2 4  391 210 
 PRA  HE ES   2    5 5 14.32                             105    -0.2 3  391 210 
 PRA  HZ I         5 5 21.01         3.6 0.27                           391 210 
                                                                                
