 2015  3 7 0342  8.1 L   6.782 -73.150146.0  RSN  7 0.3 1.3LRSN                1
 GAP=137        0.72       3.4     4.0  5.2 -0.4054E+01  0.1059E+01  0.5255E+01E
 Epicentro: LOS SANTOS - SANTANDER                                             3
 ACTION:UPD 15-04-30 16:23 OP:nd   STATUS:               ID:20150307034208 L   I
 OLDACT:DUP 15-03-07 15:50 OP:spq  STATUS:               ID:20150307033738d    3
 2015-03-07-0337-37M.COL___285                                                 6
 STAT SP IPHASW D HRMM SECON CODA AMPLIT PERI AZIMU VELO AIN AR TRES W  DIS CAZ7
 BAR2 EZ EP   1    342 27.61                             171   -0.09 7 21.2 190 
 BAR2 EZ ES   1    342 42.72                             171   -0.28 7 21.2 190 
 BAR2 EZ I         342 43.97         7.6 0.18            169           21.2 190 
 BRR  HZ EP        342 29.35                             152    0.0610 71.8 300 
 BRR  HN ES        342 46.42                             152    0.5910 71.8 300 
 BRR  HZ I         342 50.05         5.4 0.45            154           71.8 300 
 PAM  SZ EP        342 30.47                             150    0.0310 79.2  39 
 PAM  SN ES        342 47.75                             150   -0.1210 79.2  39 
 PAM  SZ I         342 49.48         2.8 0.42            154           79.2  39 
 RUS  HZ EP        342 31.51                             144   -0.2110 98.6 176 
 RUS  HE ES   1    342 50.24                             144    0.09 7 98.6 176 
 RUS  HZ I         342 51.63         1.2 0.34            145           98.6 176 
 PTB  HZ EP        342 34.79                             132   -0.21 9  147 260 
 PTB  HN ES   1    342 55.20                             132   -0.79 7  147 260 
 PTB  HZ I         342 57.13         3.1 0.52            133            147 260 
 SPBC HZ EP        342 36.50                             129    0.07 9  161 219 
 SPBC HN ES        342 58.54                             129    0.01 9  161 219 
 SPBC HZ I         343  1.18         3.2 0.20            130            161 219 
 CHI  HZ EP   1    342 45.99                             117    0.42 6  247 195 
 CHI  HN ES   1    343 15.27                             117    0.46 6  247 195 
 CHI  HZ I         343 22.39         0.8 0.54            119            247 195 
                                                                                
