 2016  3 7 0924 43.6 L   6.823 -73.181145.0  RSN  8 0.2 1.8LRSN                1
 GAP=131        0.62       1.9     2.7  4.1 -0.8128E+00  0.2567E+01  0.3287E+00E
 Epicentro: ZAPATOCA - SANTANDER                                               3
 ACTION:UPD 16-05-13 21:22 OP:cam  STATUS:               ID:20160307092443 L   I
 OLDACT:DUP 16-03-07 19:30 OP:cara STATUS:               ID:20160307091752d    3
 OLDACT:REG 16-03-07 14:09 OP:cara STATUS:               ID:20160307091751     3
 2016-03-07-0917-51M.COL___318                                                 6
 STAT SP IPHASW D HRMM SECON CODA AMPLIT PERI AZIMU VELO AIN AR TRES W  DIS CAZ7
 BAR2 EZ IP        925  3.30                             170    0.1410 25.5 180 
 BAR2 EZ ES        925 18.21                             170   -0.2210 25.5 180 
 BAR2 EZ I         925 19.18        15.3 0.26            170           25.5 180 
 PAM  EZ EP        925  5.98                             150    0.2310 78.1  43 
 PAM  EN ES        925 23.29                             150    0.2510 78.1  43 
 PAM  EZ I         925 25.54         8.6 0.26            153           78.1  43 
 RUS  HZ EP        925  7.57                             143    0.1110  103 174 
 RUS  HN ES        925 25.99                             143   -0.1010  103 174 
 RUS  HZ I         925 26.90         8.9 0.26            144            103 174 
 PTB  HZ EP        925  9.99                             132   -0.18 9  144 258 
 PTB  HN ES        925 30.69                             132   -0.23 9  144 258 
 PTB  HZ I         925 32.82         8.1 0.38            132            144 258 
 OCA  HZ EP        925 11.38                             130   -0.16 9  157 354 
 OCA  HE ES        925 33.01                             130   -0.35 9  157 354 
 OCA  HZ I         925 36.47        11.1 0.16            131            157 354 
 SPBC HZ EP        925 12.12                             129    0.15 9  163 217 
 SPBC HE ES        925 34.52                             129    0.40 9  163 217 
 SPBC HZ I         925 38.56        11.0 0.52            129            163 217 
 ZAR  HZ EP   4    925 17.35                             123    1.86 0  199 292 
 ZAR  HN ES        925 40.72                             123    0.33 9  199 292 
 ZAR  HZ I         925 47.49         6.7 0.38            123            199 292 
 CHI  HZ EP        925 21.15                             117   -0.23 8  250 194 
 CHI  HN ES        925 50.60                             117   -0.28 8  250 194 
 CHI  HZ I         925 55.94         3.6 0.66            118            250 194 
                                                                                
