 2017  4 7 0910 47.5 L   6.782 -73.123142.0  RSN  6 0.3 1.2LRSN                1
 GAP=140        0.64       3.4     4.8  4.5 -0.6178E+01  0.1183E+01  0.5532E+00E
 Epicentro: LOS SANTOS - SANTANDER                                             3
 ACTION:UPD 17-05-30 21:09 OP:jn   STATUS:               ID:20170407091047 L   I
 OLDACT:UP  17-04-07 17:37 OP:and  STATUS:               ID:20170407090731d    3
 OLDACT:UP  17-04-07 17:36 OP:and  STATUS:               ID:20170407090731d    3
 OLDACT:UP  17-04-07 17:36 OP:and  STATUS:               ID:20170407090731d    3
 OLDACT:DUP 17-04-07 17:31 OP:and  STATUS:               ID:20170407090731d    3
 2017-04-07-0908-00M.COL___359                                                 6
 STAT SP IPHASW D HRMM SECON CODA AMPLIT PERI AZIMU VELO AIN AR TRES W  DIS CAZ7
 BAR2 EZ EP        911  6.59                             171   -0.0910 22.0 197 
 BAR2 EZ ES        911 21.52                             171   -0.1010 22.0 197 
 BAR2 EZ I         911 23.14         3.7 0.18            168           22.0 197 
 BRR  HZ EP        911  8.44                             150   -0.0210 74.4 299 
 BRR  HN ES   2    911 25.24                             150    0.46 5 74.4 299 
 BRR  HZ I         911 28.26         4.3 0.26            146           74.4 299 
 PAM  EZ IP     D  911  9.60                             150    0.2510 77.4  37 
 PAM  EN ES        911 26.21                             150   -0.1510 77.4  37 
 PAM  EZ I         911 28.33         2.4 0.42            153           77.4  37 
 RUS  HZ EP        911 11.08                             143    0.3210 98.5 177 
 RUS  HN ES        911 28.66                             143   -0.2210 98.5 177 
 PTB  HZ EP   9    911 13.54                             130   -0.85 0  150 260 
 PTB  HN ES        911 34.13                             130   -0.36 9  150 260 
 PTB  HZ I         911 39.96         1.1 0.50            129            150 260 
 SPBC HZ EP        911 15.47                             128   -0.28 9  163 220 
 SPBC HN ES   2    911 38.41                             128    0.64 5  163 220 
 SPBC HZ I         911 42.01         1.7 0.26            128            163 220 
                                                                                
