 2016  3 7 0919 47.1 L   6.763 -73.176147.2  RSN  9 0.3 1.4LRSN                1
 GAP=134        0.68       2.1     3.0  4.4 -0.1080E+01  0.2935E+01  0.2090E+00E
 Epicentro: LOS SANTOS - SANTANDER                                             3
 ACTION:UPD 16-05-13 21:22 OP:cam  STATUS:               ID:20160307091947 L   I
 OLDACT:REG 16-03-07 14:09 OP:cara STATUS:               ID:20160307091751     3
 2016-03-07-0917-51M.COL___318                                                 6
 STAT SP IPHASW D HRMM SECON CODA AMPLIT PERI AZIMU VELO AIN AR TRES W  DIS CAZ7
 BAR2 EZ IP        920  6.84                             172    0.0210 18.9 182 
 BAR2 EZ ES        920 22.35                             172    0.1510 18.9 182 
 BAR2 EZ I         920 22.99         7.1 0.20            171           18.9 182 
 PAM  EZ IP        920 10.16                             149    0.3810 82.7  39 
 PAM  EE ES        920 27.61                             149    0.1310 82.7  39 
 PAM  EZ I         920 29.35         4.2 0.48            153           82.7  39 
 RUS  HZ EP        920 10.57                             145   -0.1510 96.8 174 
 RUS  HN ES        920 28.74                             145   -0.4010 96.8 174 
 RUS  HZ I         920 30.28         2.0 0.36            148           96.8 174 
 PTB  HZ EP        920 13.64                             133   -0.18 9  144 260 
 PTB  HN ES        920 34.33                             133   -0.34 9  144 260 
 PTB  HZ I         920 39.66         3.3 0.32            132            144 260 
 SPBC HZ EP        920 15.55                             130    0.34 9  158 219 
 SPBC HE ES        920 37.56                             130    0.42 9  158 219 
 SPBC HZ I         920 43.33         3.1 0.34            131            158 219 
 OCA  HZ EP        920 15.57                             129   -0.30 9  164 354 
 OCA  HE ES        920 38.11                             129   -0.20 9  164 354 
 OCA  HZ I         920 42.66         7.1 0.50            130            164 354 
 ZAR  HZ EP   4    920 21.10                             123    1.62 0  203 294 
 ZAR  HN ES        920 44.98                             123    0.23 9  203 294 
 ZAR  HZ I         920 51.01         3.0 0.40            123            203 294 
 CHI  HZ EP        920 24.34                             118   -0.01 8  244 195 
 CHI  HN ES        920 53.28                             118   -0.13 8  244 195 
 CHI  HZ I         920 56.91         0.9 0.60            119            244 195 
 GUY2CHZ EP   4    920 28.61                             113   -1.58 0  296 235 
 GUY2CHN ES   4    921  0.49                             113   -3.33 0  296 235 
 GUY2CHZ I         921 13.22         1.6 0.66                           296 235 
                                                                                
