 2017  4 7 0825 20.8 L   6.068 -73.219182.9  RSN 19 0.4 2.1LRSN                1
 GAP=106        0.94       2.9     2.9  4.5 -0.1031E+01  0.2986E+01  0.1946E+00E
 Epicentro: ENCINO - SANTANDER                                                 3
 ACTION:UPD 17-05-30 21:09 OP:jn   STATUS:               ID:20170407082520 L   I
 OLDACT:UP  17-04-07 17:21 OP:and  STATUS:               ID:20170407081748d    3
 OLDACT:UP  17-04-07 17:21 OP:and  STATUS:               ID:20170407081748d    3
 OLDACT:UP  17-04-07 17:19 OP:and  STATUS:               ID:20170407081748d    3
 OLDACT:UP  17-04-07 17:18 OP:and  STATUS:               ID:20170407081748d    3
 OLDACT:UP  17-04-07 17:16 OP:and  STATUS:               ID:20170407081748d    3
 OLDACT:UP  17-04-07 17:16 OP:and  STATUS:               ID:20170407081748d    3
 OLDACT:DUP 17-04-07 17:14 OP:and  STATUS:               ID:20170407081748d    3
 OLDACT:UP  17-04-07 17:13 OP:and  STATUS:               ID:20170407081747d    3
 OLDACT:UP  17-04-07 17:12 OP:and  STATUS:               ID:20170407081747d    3
 OLDACT:UP  17-04-07 17:12 OP:and  STATUS:               ID:20170407081747d    3
 OLDACT:DUP 17-04-07 17:08 OP:and  STATUS:               ID:20170407081747d    3
 OLDACT:UP  17-04-07 17:08 OP:and  STATUS:               ID:20170407081746     3
 OLDACT:UP  17-04-07 17:08 OP:and  STATUS:               ID:20170407081746     3
 OLDACT:UP  17-04-07 17:08 OP:and  STATUS:               ID:20170407081746     3
 OLDACT:REG 17-04-07 12:43 OP:and  STATUS:               ID:20170407081746     3
 2017-04-07-0818-00M.COL___359                                                 6
 STAT SP IPHASW D HRMM SECON CODA AMPLIT PERI AZIMU VELO AIN AR TRES W  DIS CAZ7
 RUS  HZ EP        825 45.44                             172    0.1310 24.5 142 
 RUS  HN ES        826  4.78                             172    0.3510 24.5 142 
 RUS  HZ I         826  7.57        16.8 0.46            174           24.5 142 
 BAR2 EZ IP     C  825 45.51                             162   -0.3510 58.1   4 
 BAR2 EZ ES        826  5.33                             162   -0.0810 58.1   4 
 BAR2 EZ I         826  7.79        20.0 0.34            163           58.1   4 
 SPBC HZ IP     D  825 48.58                             149    0.5210  105 244 
 SPBC HN ES        826  9.78                             149    0.4710  105 244 
 SPBC HZ I         826 12.41        22.1 0.19            150            105 244 
 YPLC HZ IP     D  825 49.02                             145    0.0710  119 129 
 YPLC HN ES        826 10.49                             145   -0.4210  119 129 
 YPLC HZ I         826 14.27        10.3 0.40            149            119 129 
 BRR  HZ EP        825 49.75                             144    0.3210  127 335 
 BRR  HE ES   3    826 13.07                             144    1.32 2  127 335 
 BRR  HZ I         826 16.98        18.2 0.08            145            127 335 
 PTB  HZ EP        825 50.27                             140   -0.64 9  146 291 
 PTB  HN ES        826 14.08                             140   -0.32 9  146 291 
 PTB  HZ I         826 19.13         7.6 0.10            141            146 291 
 PAM  EZ EP     C  825 51.73                             139   -0.27 9  152  22 
 PAM  EN ES        826 16.62                             139    0.28 9  152  22 
 PAM  EZ I         826 18.28         8.9 0.30            141            152  22 
 TABC EZ EP   3    825 54.27                             137    1.65 2  160 223 
 TABC EZ ES   4    826 20.54                             137    3.10 0  160 223 
 CHI  HZ EP        825 53.35                             136    0.04 9  169 200 
 CHI  HN ES        826 18.54                             136   -0.13 9  169 200 
 CHI  HZ I         826 20.23         6.4 0.54            138            169 200 
 ROSC BZ EP   9    825 56.03                             133    1.56 0  183 222 
 ROSC BE ES        826 21.77                             133   -0.52 9  183 222 
 ROSC BZ I         826 25.19         9.5 0.30            135            183 222 
 NOR  HZ EP        825 55.37                             132    0.59 9  191 253 
 NOR  HN ES        826 21.21                             132   -0.07 9  191 253 
 NOR  HZ I         826 26.04        14.4 0.18            133            191 253 
 PTGC HZ IP   4 D  825 57.80                             125   -1.52 0  239 150 
 PTGC HN ES   4    826 27.38                             125   -1.97 0  239 150 
 PTGC HZ I         826 31.60         4.0 0.30            128            239 150 
 ZAR  HZ EP        825 59.21                             125   -0.21 8  240 311 
 ZAR  HN ES        826 28.75                             125   -0.78 8  240 311 
 ZAR  HZ I         826 38.81         9.7 0.42            127            240 311 
 HEL  HZ EP        826  1.96                             123    0.46 8  256 273 
 HEL  HE ES        826 33.19                             123   -0.05 8  256 273 
 HEL  HZ I         826 36.09         6.1 0.34            125            256 273 
 CBOC HZ IP     D  826  7.38                             118    0.45 7  310 266 
 CBOC HN ES        826 43.28                             118    0.38 7  310 266 
 CBOC HZ I         826 46.33         3.6 0.56            120            310 266 
 URE  HZ EP   4    826  5.55                             117   -1.85 0  316 306 
 URE  HN ES   4    826 41.27                             117   -2.47 0  316 306 
 URE  HZ I         826 46.04         7.5 0.16            119            316 306 
 PRA  HZ EP        826  7.04                             117   -0.72 7  319 215 
 PRA  HN ES        826 44.10                             117   -0.28 7  319 215 
 PRA  HZ I         826 47.92         4.4 0.20            119            319 215 
 ORTC HZ EP        826  8.74                             116    0.05 7  328 223 
 ORTC HN ES        826 45.59                             116   -0.45 7  328 223 
 SJC  HZ EP   4    826 22.49                             108   -2.91 0  475 333 
 SJC  HN ES   4    827 12.05                             108   -3.74 0  475 333 
 SJC  HZ I         827 15.48         2.8 0.35            110            475 333 
                                                                                
