 2017  9 7 0706 57.7 L   6.775 -73.138142.7  RSN 11 0.3 1.7LRSN                1
 GAP=113        0.69       2.8     3.1  4.3  0.1356E+00  0.6776E+00  0.1605E+01E
 Epicentro: LOS SANTOS - SANTANDER                                             3
 ACTION:UPD 17-10-05 19:09 OP:rebc STATUS:               ID:20170907070657 L   I
 OLDACT:UP  17-09-07 14:45 OP:dnl  STATUS:               ID:20170907065741     3
 OLDACT:UP  17-09-07 14:45 OP:dnl  STATUS:               ID:20170907065741     3
 OLDACT:REG 17-09-07 12:58 OP:dnl  STATUS:               ID:20170907065741     3
 2017-09-07-0658-00M.COL___414                                                 6
 STAT SP IPHASW D HRMM SECON CODA AMPLIT PERI AZIMU VELO AIN AR TRES W  DIS CAZ7
 BAR2 EZ EP        7 7 16.97                             171    0.0810 20.7 194 
 BAR2 EZ ES        7 7 31.42                             171   -0.4510 20.7 194 
 BAR2 EZ I         7 7 32.35        16.6 0.28            169           20.7 194 
 BRR  HZ IP     C  7 7 18.67                             151    0.0510 73.3 300 
 BRR  HN ES        7 7 35.29                             151    0.3410 73.3 300 
 BRR  HZ I         7 7 39.40         6.9 0.34            150           73.3 300 
 PAM  EZ EP        7 7 19.68                             150    0.0110 79.0  38 
 PAM  EN ES        7 7 36.97                             150    0.1510 79.0  38 
 PAM  EZ I         7 7 39.22         4.1 0.38            152           79.0  38 
 RUS  HZ EP        7 7 20.81                             144   -0.1110 97.7 176 
 RUS  HN ES        7 7 39.00                             144   -0.0510 97.7 176 
 RUS  HZ I         7 7 40.44         6.2 0.24            143           97.7 176 
 SPBC HZ EP        7 7 25.88                             129    0.10 9  162 220 
 SPBC HN ES        7 7 47.60                             129   -0.11 9  162 220 
 SPBC HZ I         7 7 51.53        10.2 0.22            127            162 220 
 YPLC HZ EP        7 7 27.24                             126    0.28 9  174 151 
 YPLC HE ES   4    7 7 51.58                             126    1.77 0  174 151 
 YPLC HZ I         7 7 53.68         8.1 0.28            126            174 151 
 ZAR  HZ EP   2    7 7 29.91                             121   -0.21 4  206 293 
 ZAR  HN ES        7 7 55.25                             121   -0.17 8  206 293 
 ZAR  HZ I         7 8  4.21         4.6 0.28            121            206 293 
 CHI  HZ EP   2    7 7 35.25                             117    0.32 4  246 196 
 CHI  HE ES   4    7 8  6.80                             117    2.81 0  246 196 
 CHI  HZ I         7 8  9.48         1.4 0.34            116            246 196 
 GUY2CHZ EP   9    7 7 43.05                             112    2.01 0  300 235 
 GUY2CHN ES        7 8 17.60                             112    0.73 7  300 235 
 GUY2CHZ I         7 8 25.05         5.1 0.92                           300 235 
 PTGC HZ EP   4    7 7 39.84                             111   -1.22 0  306 159 
 PTGC HN ES   4    7 8 13.11                             111   -1.79 0  306 159 
 PTGC HZ I         7 8 20.49         3.2 0.40            111            306 159 
 SJC  HZ EP   2    7 7 51.75                             105   -1.72 3  412 327 
 SJC  HN ES   4    7 8 33.28                             105   -3.71 0  412 327 
 SJC  HZ I         7 8 37.06         1.5 0.46            105            412 327 
                                                                                
