 2016  7 7 0337 54.1 L   6.791 -73.166144.0  RSN 18 0.4 2.1LRSN                1
 GAP=118        0.89       3.1     3.4  4.6 -0.5932E+00  0.5018E+01  0.1724E+01E
 Epicentro: LOS SANTOS - SANTANDER                                             3
 ACTION:UPD 17-03-29 16:47 OP:lp   STATUS:               ID:20160707033754 L   I
 OLDACT:UP  16-07-07 16:43 OP:dani STATUS:               ID:20160707032746d    3
 OLDACT:UP  16-07-07 16:42 OP:dani STATUS:               ID:20160707032746d    3
 OLDACT:UP  16-07-07 16:42 OP:dani STATUS:               ID:20160707032746d    3
 OLDACT:UP  16-07-07 16:41 OP:dani STATUS:               ID:20160707032746d    3
 OLDACT:UP  16-07-07 16:41 OP:dani STATUS:               ID:20160707032746d    3
 OLDACT:UP  16-07-07 16:38 OP:dani STATUS:               ID:20160707032746d    3
 OLDACT:UP  16-07-07 16:37 OP:dani STATUS:               ID:20160707032746d    3
 OLDACT:DUP 16-07-07 16:32 OP:dani STATUS:               ID:20160707032746d    3
 2016-07-07-0327-45M.COL___322                                                 6
 STAT SP IPHASW D HRMM SECON CODA AMPLIT PERI AZIMU VELO AIN AR TRES W  DIS CAZ7
 BAR2 EZ EP        338 13.30                             171   -0.2410 22.0 185 
 BAR2 EZ ES        338 28.31                             171   -0.3610 22.0 185 
 BAR2 EZ I         338 30.00        34.1 0.18            170           22.0 185 
 BRR  HZ EP        338 15.13                             153    0.1110 69.7 300 
 BRR  HE ES        338 32.24                             153    0.9310 69.7 300 
 PAM  EZ EP        338 16.29                             150   -0.0310 79.7  40 
 PAM  EZ I         338 35.46        23.5 0.54            135           79.7  40 
 RUS  HZ EP        338 17.29                             144   -0.3810 99.7 175 
 RUS  HN ES        338 36.34                             144    0.3310 99.7 175 
 RUS  HZ I         338 37.07        10.0 0.28            136           99.7 175 
 PTB  HZ EP        338 20.09                             132   -0.66 9  145 259 
 PTB  HN ES   4    338 39.86                             132   -1.64 0  145 259 
 PTB  HZ I         338 44.01        12.2 0.14            125            145 259 
 SPBC HZ EP        338 22.36                             129    0.06 9  161 219 
 SPBC HN ES        338 44.07                             129   -0.19 9  161 219 
 SPBC HZ I         338 48.60        20.5 0.36            122            161 219 
 ZAR  HZ EP   4    338 28.56                             122    2.26 0  202 293 
 ZAR  HE ES        338 50.95                             122   -0.43 9  202 293 
 ZAR  HZ I         338 56.51        13.2 0.36            114            202 293 
 NOR  HZ EP        338 29.50                             118   -0.01 8  232 234 
 NOR  HN ES        338 56.91                             118   -0.18 8  232 234 
 NOR  HZ I         339  2.75         8.2 0.14            111            232 234 
 CHI  HZ EP        338 31.92                             117    0.34 8  247 195 
 CHI  HN ES        339  0.72                             117   -0.05 8  247 195 
 CHI  HZ I         339  4.62        10.8 0.54            109            247 195 
 ROSC BZ EP   9    338 33.37                             117    1.42 0  251 211 
 ROSC BN ES        339  3.02                             116    0.17 8  251 211 
 ROSC BZ I         339  7.78        20.8 0.40            109            251 211 
 HEL  HZ EP        338 33.96                             115   -0.04 8  270 256 
 HEL  HN ES        339  4.81                             115   -0.27 8  270 256 
 HEL  HZ I         339 11.40         7.2 0.28            107            270 256 
 GUY2CHZ EP        338 37.92                             112    0.52 7  299 235 
 GUY2CHN ES        339 11.64                             112    0.51 7  299 235 
 GUY2CHZ I         339 19.56         7.8 0.34                           299 235 
 PTGC HZ EP   9    338 36.35                             111   -1.56 0  309 158 
 PTGC HN ES        339 10.22                             111   -0.27 7  309 158 
 PTGC HZ I         339 23.76         8.3 0.36            103            309 158 
 ELA  HN ES        339 16.84                             110   -0.08 7  327 229 
 CBOC HZ EP        338 41.62                             110    0.92 7  331 252 
 CBOC HN ES        339 16.67                             110   -0.34 7  331 252 
 CBOC HZ I         339 22.90         1.9 0.35            103            331 252 
 ORTC HZ EP        338 47.53                             106   -0.22 6  393 216 
 ORTC HN ES        339 30.04                             106    0.48 6  393 216 
 ORTC HZ I         339 34.68         4.5 0.26             99            393 216 
 PAL  HZ EP        338 48.70                             106   -0.25 6  403 239 
 PAL  HZ I         339 36.72         1.7 0.36             99            403 239 
 CRJC HZ EP   9    338 53.63                             103   -3.11 0  469   4 
 CRJC HN ES        339 42.37                             103   -0.08 5  469   4 
 CRJC HZ I         339 59.20         7.8 0.46             95            469   4 
                                                                                
