 2015  9 7 0517 33.7 L   6.798 -73.157145.9  RSN  6 0.4 1.7LRSN                1
 GAP=182        0.91       3.8     6.2  7.7  0.1266E+01 -0.4862E+01 -0.2162E+01E
 Epicentro: LOS SANTOS - SANTANDER                                             3
 ACTION:UPD 15-10-28 16:24 OP:cam  STATUS:               ID:20150907051733 L   I
 OLDACT:UP  15-09-07 16:11 OP:mh   STATUS:               ID:20150907050740d    3
 OLDACT:UP  15-09-07 16:10 OP:mh   STATUS:               ID:20150907050740d    3
 OLDACT:UP  15-09-07 16:10 OP:mh   STATUS:               ID:20150907050740d    3
 OLDACT:DUP 15-09-07 15:52 OP:mh   STATUS:               ID:20150907050740d    3
 OLDACT:UP  15-09-07 15:48 OP:mh   STATUS:               ID:20150907050738     3
 OLDACT:REG 15-09-07 12:33 OP:mh   STATUS:               ID:20150907050738     3
 2015-09-07-0507-38M.COL___343                                                 6
 STAT SP IPHASW D HRMM SECON CODA AMPLIT PERI AZIMU VELO AIN AR TRES W  DIS CAZ7
 BAR2 EZ I         518  9.82        16.0 0.20            173           22.9 187 
 BRR  HZ EP        517 55.29                             153    0.5110 70.2 299 
 BRR  HN ES        518 11.68                             153    0.4410 70.2 299 
 RUS  HZ EP        517 57.10                             144   -0.3210  100 175 
 RUS  HN ES        518 16.04                             144    0.0910  100 175 
 RUS  HZ I         518 17.29         4.7 0.17            147            100 175 
 PTB  HZ EP        518  0.25                             132   -0.28 9  146 259 
 PTB  HN ES        518 21.05                             132   -0.43 9  146 259 
 OCA  HZ EP        518  2.07                             130    0.07 9  160 354 
 OCA  HN ES        518 23.71                             130   -0.39 9  160 354 
 OCA  HZ I         518 28.45         7.4 0.22            130            160 354 
 GUY2CHZ EP   1    518 17.70                             112    0.55 5  300 235 
 GUY2CHN ES   4    518 54.38                             112    3.32 0  300 235 
 GUY2CHZ I         519  0.22         1.7 0.30                           300 235 
                                                                                
