 2012  7 7 0626 50.3 L   6.410 -73.698 99.0  RSN  4 0.1 1.0LRSN                1
 GAP=193        0.45       6.2     2.3  6.1 -0.2518E+01  0.9395E+00  0.2181E+02E
 Epicentro: SANTA HELENA DEL OPON - SANTANDER                                  3
 ACTION:UPD 12-08-14 11:43 OP:ep   STATUS:               ID:20120707062650 L   I
 2012-07-07-0620-00M.COL___201                                                 6
 STAT SP IPHASW D HRMM SECON CODA AMPLIT PERI AZIMU VELO AIN AR TRES W  DIS CAZ7
 BAR2 SZ EP        627  6.18                             147     0.010   60  71 
 BAR2 SZ ES   1    627 18.63                             147     0.0 7   60  71 
 BAR2 SZ I         627 19.81         5.9 0.15            152             60  71 
 BRR  HN ES   1    627 20.23                             139     0.0 7   77 359 
 PTB  HZ EP        627  7.58                             136    -0.210   85 280 
 PTB  HN ES        627 21.45                             136     0.010   85 280 
 PTB  HZ I         627 25.25         1.7 0.09            136             85 280 
 HEL  HZ EP   1    627 20.92                             112     0.3 6  204 263 
 HEL  HZ I         627 24.27         1.0 0.69            111            204 263 
