 2015  5 7 0315 23.4 L   6.757 -73.149146.1  RSN  6 0.5 1.3LRSN                1
 GAP=138        1.30       5.8     7.1  8.8  0.1036E+02  0.1460E+02 -0.1189E+02E
 Epicentro: LOS SANTOS - SANTANDER                                             3
 ACTION:UPD 15-09-10 22:02 OP:cam  STATUS:               ID:20150507031523 L   I
 OLDACT:REG 15-05-07 12:49 OP:drio STATUS:               ID:20150507030745     3
 2015-05-07-0307-45M.COL___288                                                 6
 STAT SP IPHASW D HRMM SECON CODA AMPLIT PERI AZIMU VELO AIN AR TRES W  DIS CAZ7
 BAR2 EZ ES        315 58.09                             172   -0.2110 18.6 192 
 BAR2 EZ I         315 58.82         5.4 0.34            171           18.6 192 
 BRR  HZ EP        315 45.15                             152    0.4110 73.3 302 
 BRR  HN ES        316  1.97                             152    0.6110 73.3 302 
 PAM  SZ EP        315 46.80                             150    0.8810 81.3  38 
 PAM  SN ES        316  3.09                             150   -0.3710 81.3  38 
 PAM  SZ I         316  5.28         3.8 0.46            152           81.3  38 
 RUS  HZ EP        315 47.19                             145    0.3010 95.9 176 
 RUS  HN ES        316  4.55                             145   -0.6310 95.9 176 
 RUS  HZ I         316  6.55         1.9 0.40            147           95.9 176 
 OCA  HN ES   4    316 13.42                             129   -1.24 0  165 353 
 ZAR  HZ EP        315 55.55                             122   -0.51 8  206 293 
 ZAR  HN ES        316 21.65                             122    0.14 8  206 293 
 ZAR  HZ I         316 30.94         2.9 0.12            122            206 293 
 SML  HZ EP        315 59.91                             117   -0.62 8  248 336 
 SML  HN ES        316 28.93                             117   -0.54 8  248 336 
                                                                                
