 2012  6 7 0913  2.7 L   6.798 -73.114144.9  RSN 10 0.5 1.9LRSN                1
 GAP=141        0.81       3.0     4.0  6.1 -0.6308E+00  0.9987E+01  0.9105E+00E
 Epicentro: LOS SANTOS - SANTANDER                                             3
 ACTION:UPD 12-08-06 17:47 OP:ep   STATUS:               ID:20120607091302 L   I
 2012-06-07-0910-00M.COL___200                                                 6
 STAT SP IPHASW D HRMM SECON CODA AMPLIT PERI AZIMU VELO AIN AR TRES W  DIS CAZ7
 BAR2 SZ EP   1    913 22.61                             170    0.36 8 23.9 198 
 BAR2 SZ ES   1    913 37.68                             170    0.19 8 23.9 198 
 BAR2 SZ I         913 39.10        30.4 0.15            167           23.9 198 
 PAM  SZ EP   1    913 25.01                             151    0.29 8 75.4  37 
 PAM  SZ I         913 25.76        16.5 0.21            156           75.4  37 
 PAM  SE ES   1    913 41.96                             151    0.08 8 75.4  37 
 RUS  HZ EP   1    913 26.35                             144    0.00 7  100 178 
 RUS  HN ES        913 44.78                             144    0.0010  100 178 
 RUS  HZ I         913 46.55        13.4 0.29            143            100 178 
 PTB  HZ EP   1    913 29.45                             131   -0.47 7  151 259 
 PTB  HN ES   1    913 50.47                             131   -0.66 7  151 259 
 PTB  HZ I         913 52.97        10.4 0.11            130            151 259 
 OCA  HZ EP   1    913 31.44                             129    0.42 7  161 352 
 OCA  HN ES   1    913 52.42                             129   -0.68 7  161 352 
 ZAR  HZ EP   1    913 34.93                             122   -0.51 6  207 292 
 ZAR  HN ES        914  1.23                             122    0.26 8  207 292 
 ZAR  HZ I         914  6.13        11.0 0.11            121            207 292 
 NOR  SZ EP   1    913 38.71                             118    0.03 6  237 235 
 NOR  SN ES   1    914  6.43                             118   -0.30 6  237 235 
 NOR  SZ I         914 12.76         1.3 0.19            117            237 235 
 CHI  HZ EP   1    913 39.73                             117   -0.71 6  249 196 
 CHI  HN ES   1    914  9.56                             117   -0.30 6  249 196 
 CHI  HZ I         914 15.52         5.6 0.24            117            249 196 
 HEL  HZ EP   1    913 43.89                             114    0.64 6  275 256 
 HEL  HN ES   1    914 15.83                             114    0.97 6  275 256 
 HEL  HZ I         914 21.56         7.7 0.36            114            275 256 
 PRA  HZ EP   1    913 56.12                             106   -0.26 4  394 210 
 PRA  HN ES   1    914 39.10                             106    0.86 4  394 210 
                                                                                
