 2013 11 7 0055 35.2 L   6.706 -73.158148.3  RSN  4 0.5 1.4LRSN                1
 GAP=229        1.24      10.4     9.9 10.4  0.5437E+02  0.1847E+02  0.1233E+02E
 Epicentro: VILLANUEVA - SANTANDER                                             3
 ACTION:UPD 14-01-09 16:26 OP:ep   STATUS:               ID:20131107005535 L   I
 OLDACT:REG 13-11-07 06:17 OP:jn   STATUS:               ID:20131107005000     3
 2013-11-07-0050-00M.COL___273                                                 6
 STAT SP IPHASW D HRMM SECON CODA AMPLIT PERI AZIMU VELO AIN AR TRES W  DIS CAZ7
 BAR2 SZ EP   1    055 54.84                             175   -0.13 7 12.8 192 
 BAR2 SZ ES        056  9.61                             175   -0.7810 12.8 192 
 BAR2 SZ I         056 11.92         7.8 0.28            171           12.8 192 
 BRR  HZ EP   1    055 56.45                             151   -0.42 7 75.7 306 
 BRR  HN ES        056 14.56                             151    0.7810 75.7 306 
 BRR  HZ I         056 15.24         6.0 0.52            151           75.7 306 
 RUS  HZ EP        055 59.02                             147    0.5310 90.3 175 
 RUS  HN ES        056 16.87                             147    0.2110 90.3 175 
 RUS  HZ I         056 18.42         2.3 0.54            147           90.3 175 
 PTB  HZ EP        056  1.77                             133   -0.34 9  145 263 
 PTB  HN ES        056 22.94                             133   -0.16 9  145 263 
 PTB  HZ I         056 27.05         2.4 0.12            132            145 263 
                                                                                
