 2016  5 7 0132 30.1 L   6.773 -73.176148.6  RSN  8 0.5 1.8LRSN                1
 GAP=198        1.07       4.0     5.9  6.8  0.6569E+01  0.7142E+01  0.1805E+01E
 Epicentro: LOS SANTOS - SANTANDER                                             3
 ACTION:UPD 16-08-18 17:42 OP:cam  STATUS:               ID:20160507013230 L   I
 OLDACT:REG 16-05-07 15:01 OP:ak   STATUS:               ID:20160507012749     3
 2016-05-07-0127-49M.COL___294                                                 6
 STAT SP IPHASW D HRMM SECON CODA AMPLIT PERI AZIMU VELO AIN AR TRES W  DIS CAZ7
 BAR2 EZ EP        132 50.02                             172   -0.0110 20.0 182 
 BAR2 EZ ES        133  5.49                             172   -0.0710 20.0 182 
 BAR2 EZ I         133  6.44        19.3 0.20            169           20.0 182 
 BRR  HZ EP        132 52.05                             153    0.5510 69.9 302 
 BRR  HN ES        133  8.71                             153    0.5310 69.9 302 
 RUS  HZ EP        132 53.91                             145   -0.0510 97.9 174 
 RUS  HN ES        133 12.20                             145   -0.3610 97.9 174 
 RUS  HZ I         133 14.02         6.1 0.24            145           97.9 174 
 PTB  HZ EP        132 56.34                             133   -0.64 9  144 260 
 PTB  HN ES        133 17.11                             133   -0.83 9  144 260 
 PTB  HZ I         133 25.19         5.4 0.38            132            144 260 
 SPBC HZ EP        132 58.72                             131    0.29 9  159 219 
 SPBC HN ES        133 20.95                             131    0.44 9  159 219 
 SPBC HZ I         133 22.61         8.8 0.35            129            159 219 
 ZAR  HN ES        133 28.18                             123    0.32 9  202 293 
 SML  HZ EP   2    133  6.17                             118   -0.89 4  245 336 
 SML  HE ES        133 35.58                             118   -0.29 8  245 336 
 PRA  HZ EP        133 23.88                             107    0.63 6  388 209 
 PRA  HN ES        134  4.59                             107   -0.09 6  388 209 
 PRA  HZ I         134  8.87         1.9 0.29            108            388 209 
                                                                                
