 2015  1 7 0258 19.3 L   6.699 -73.172140.6  RSN  5 0.4 1.4LRSN                1
 GAP=238        0.85       5.1     6.1  7.2  0.4052E+01  0.7471E+01  0.5039E+00E
 Epicentro: VILLANUEVA - SANTANDER                                             3
 ACTION:UPD 15-03-02 15:37 OP:nd   STATUS:               ID:20150107025819 L   I
 OLDACT:REG 15-01-07 17:35 OP:spq  STATUS:               ID:20150107025550     3
 2015-01-07-0255-50M.COL___280                                                 6
 STAT SP IPHASW D HRMM SECON CODA AMPLIT PERI AZIMU VELO AIN AR TRES W  DIS CAZ7
 BAR2 EZ EP        258 37.93                             175   -0.1810 11.8 185 
 BAR2 EZ ES   1    258 52.98                             175    0.18 7 11.8 185 
 BAR2 EZ I         258 54.23         5.0 0.18            173           11.8 185 
 BRR  HZ EP        258 39.67                             150   -0.4210 74.8 307 
 BRR  HN ES        258 56.56                             150    0.2410 74.8 307 
 BRR  HZ I         259  3.28         7.2 0.42            149           74.8 307 
 PTB  HZ EP   1    258 44.97                             132   -0.44 7  143 263 
 PTB  HN ES   1    259  5.48                             132   -0.30 7  143 263 
 PTB  HZ I         259  7.81         2.5 0.28            133            143 263 
 SPBC HZ EP   1    258 46.70                             130    0.30 7  153 221 
 SPBC HN ES        259  7.62                             130    0.08 9  153 221 
 SPBC HZ I         259 11.57         4.0 0.20            133            153 221 
 ZAR  HZ EP        258 52.39                             121    0.80 8  206 295 
 ZAR  HN ES        259 16.56                             121   -0.22 8  206 295 
 ZAR  HZ I         259 21.83         3.2 0.44            123            206 295 
                                                                                
