 2013  7 7 0042  1.6 L   6.790 -73.149140.1  RSN 11 0.5 2.1LRSN                1
 GAP=137        1.23       3.6     4.9  7.4 -0.3639E+01  0.2992E+01  0.1822E+01E
 Epicentro: LOS SANTOS - SANTANDER                                             3
 ACTION:UPD 13-08-12 10:36 OP:ep   STATUS:               ID:20130707004201 L   I
 OLDACT:UP  13-07-08 11:36 OP:ep   STATUS:               ID:20130707004201 L   3
 OLDACT:UP  13-07-08 05:43 OP:CF   STATUS:               ID:20130707004201 L   3
 OLDACT:REG 13-07-07 07:41 OP:stll STATUS:               ID:20130707003847     3
 2013-07-07-0038-47M.COL___224                                                 6
 STAT SP IPHASW D HRMM SECON CODA AMPLIT PERI AZIMU VELO AIN AR TRES W  DIS CAZ7
 BAR2 SZ IP     C  042 20.57                             171    0.0610 22.1 190 
 BAR2 SZ I         042 20.72        15.5 0.40            170           22.1 190 
 BAR2 SZ ES        042 34.94                             171   -0.3310 22.1 190 
 GIR2 SZ EP        042 20.72                             166    0.1010 32.4 351 
 BRR  HZ IP     D  042 22.54                             151    0.4010 71.4 299 
 BRR  HZ I         042 22.78        19.5 0.26            152           71.4 299 
 BRR  HE ES   1    042 39.62                             151    1.45 7 71.4 299 
 PAM  SZ EP        042 23.50                             149    0.2310 78.5  39 
 PAM  SN ES        042 40.30                             149    0.1210 78.5  39 
 PAM  SN I         042 41.41        31.0 0.28            151           78.5  39 
 RUS  HZ EP        042 24.54                             143   -0.1610 99.5 176 
 RUS  HE ES        042 42.73                             143    0.0010 99.5 176 
 RUS  HE I         042 44.04        20.6 0.52            143           99.5 176 
 GRA  SZ EP        042 26.66                             135    0.2310  127  17 
 GRA  SZ ES        042 45.72                             135   -0.0910  127  17 
 PTB  HZ EP        042 27.44                             131   -0.61 9  147 259 
 PTB  HE ES        042 48.36                             131   -0.32 9  147 259 
 PTB  HE I         042 50.89        21.5 0.16            131            147 259 
 CAPV BZ EP        042 28.77                             130    0.14 9  150  38 
 CAPV BZ ES   4    042 48.22                             130   -1.51 0  150  38 
 OCA  HN ES        042 50.19                             128   -1.20 9  161 353 
 OCA  HN I         042 51.40        39.3 0.18            129            161 353 
 ZAR  HE ES        042 59.02                             121    0.31 9  204 292 
 CHI  HZ EP        042 39.45                             116    0.60 8  247 195 
 CHI  HE ES        043  7.49                             116   -0.42 8  247 195 
 CHI  HE I         043 11.02         3.0 0.40            116            247 195 
                                                                                
