 2012  4 7 0006 58.1 L   6.451 -73.814 88.5  RSN  4 0.3 0.9LRSN                1
 GAP=151        0.66       5.2     4.4 11.2  0.4356E+01  0.4357E+01 -0.1581E+01E
 Epicentro: SANTA HELENA DEL OPON - SANTANDER                                  3
 ACTION:UPD 12-07-05 11:51 OP:tino STATUS:               ID:20120407000658 L   I
 2012-04-07-0000-00M.COL___196                                                 6
 STAT SP IPHASW D HRMM SECON CODA AMPLIT PERI AZIMU VELO AIN AR TRES W  DIS CAZ7
 PTB  HZ EP   1    0 7 13.18                             138    -0.4 7   72 278 
 PTB  HN ES   1    0 7 25.59                             138     0.0 7   72 278 
 PTB  HZ I         0 7 26.85         2.8 0.12                            72 278 
 BRR  HZ EP   1    0 7 13.49                             137    -0.2 7   73   9 
 BRR  HE ES   1    0 7 25.67                             137    -0.1 7   73   9 
 RUS  HN ES   2    0 7 31.99                             128     0.4 5  102 127 
 RUS  HZ I         0 7 34.57         1.6 0.19                           102 127 
 ZAR  HN ES   1    0 7 42.62                             114     0.5 7  163 315 
                                                                                
