 2015 11 7 0607 13.1 L   6.816 -73.124149.0  RSN 13 0.4 2.1LRSN                1
 GAP=138        0.83       2.4     3.4  4.4 -0.8104E+00  0.5083E+01  0.9630E+00E
 Epicentro: LOS SANTOS - SANTANDER                                             3
 ACTION:UPD 15-12-28 16:09 OP:cam  STATUS:               ID:20151107060713 L   I
 OLDACT:UP  15-11-19 06:50 OP:CARA STATUS:               ID:20151107060713 L   3
 OLDACT:REG 15-11-07 14:07 OP:cara STATUS:               ID:20151107055747     3
 2015-11-07-0557-47M.COL___307                                                 6
 STAT SP IPHASW D HRMM SECON CODA AMPLIT PERI AZIMU VELO AIN AR TRES W  DIS CAZ7
 BAR2 EZ IP     D  6 7 33.06                             170   -0.1210 25.5 195 
 BAR2 EZ ES        6 7 48.72                             170   -0.1110 25.5 195 
 BAR2 EZ I         6 7 49.03        23.8 0.24            167           25.5 195 
 BRR  HZ IP     C  6 7 34.75                             153    0.0710 72.5 296 
 BRR  HE ES        6 7 51.97                             153    0.4610 72.5 296 
 BRR  HZ I         6 7 52.47        21.4 0.16            148           72.5 296 
 PAM  EZ EP        6 7 35.95                             152    0.4410 74.5  39 
 PAM  EE ES        6 7 52.89                             152   -0.0910 74.5  39 
 PAM  EZ I         6 7 54.84        21.7 0.52            156           74.5  39 
 RUS  HZ EP        6 7 37.20                             144   -0.1010  102 177 
 RUS  HE ES        6 7 56.15                             144   -0.0110  102 177 
 RUS  HZ I         6 7 59.46        22.9 0.14            145            102 177 
 OCA  HZ EP        6 7 41.69                             131    0.14 9  159 352 
 OCA  HN ES        6 8  3.38                             131   -0.34 9  159 352 
 OCA  HZ I         6 8  7.16        29.2 0.30            131            159 352 
 SPBC HZ EP        6 7 42.00                             129   -0.13 9  166 219 
 SPBC HN ES        6 8  4.57                             129   -0.19 9  166 219 
 SPBC HZ I         6 8 14.95         9.6 0.22            128            166 219 
 ZAR  HZ EP        6 7 45.84                             123   -0.09 8  206 291 
 ZAR  HE ES        6 8 10.74                             123   -0.78 8  206 291 
 ZAR  HZ I         6 8 16.06        14.5 0.38            121            206 291 
 SML  HZ EP   4    6 7 49.05                             118   -0.81 0  243 335 
 SML  HN ES   4    6 8 16.67                             118   -1.85 0  243 335 
 SML  HZ I         6 8 21.43        14.8 0.10            118            243 335 
 CHI  HZ EP        6 7 50.62                             117   -0.62 8  251 196 
 CHI  HE ES        6 8 21.42                             117    0.44 8  251 196 
 CHI  HZ I         6 8 24.79         3.2 0.56            118            251 196 
 HEL  HZ EP        6 7 53.95                             115    0.16 8  275 256 
 HEL  HE ES        6 8 26.27                             115    0.75 8  275 256 
 HEL  HZ I         6 8 33.16         3.9 0.32            115            275 256 
 URE  HZ EP        6 7 54.80                             114    0.28 7  285 291 
 URE  HN ES   4    6 8 25.50                             114   -1.31 0  285 291 
 URE  HZ I         6 8 38.23         6.7 0.20            114            285 291 
 GUY2CHZ EP        6 7 57.53                             113    0.33 7  304 235 
 GUY2CHN ES        6 8 31.18                             113   -0.41 7  304 235 
 GUY2CHZ I         6 8 41.31         4.1 0.50                           304 235 
 MON  HZ EP   9    6 7 59.80                             109   -2.53 0  354 308 
 MON  HN ES        6 8 38.58                             109    0.39 6  354 308 
 MON  HZ I         6 8 52.81         2.2 0.58            109            354 308 
                                                                                
