 2010  6 7 0703 11.9 L   6.770 -73.046139.6  RSN 10 0.4 1.9LRSN                1
 GAP=149        0.75       4.0     7.5  6.6 -0.1812E+02  0.5267E+01  0.1601E+01E
 Epicentro: LOS SANTOS - SANTANDER                                             3
 ACTION:UP  10-08-24 10:08 OP:vdl  STATUS:               ID:20100607070311 L   I
 2010-06-07-0700-06S.COL___111                                                 6
 STAT SP IPHASW D HRMM SECON CODA AMPLIT PERI AZIMU VELO SNR AR TRES W  DIS CAZ7
 BAR2 SZ EP   1    7 3 30.90                             169     0.0 8   25 218 
 BAR2 SZ ES   1    7 3 45.61                             169     0.0 8   25 218 
 GIR2 SZ EP   1    7 3 31.02                             164     0.0 8   38 334 
 GUE  SZ EP   1    7 3 36.79                             138     0.6 8  118   7 
 GRA  SZ IP        7 3 36.72                             135     0.110  126  12 
 GRA  SZ ES   1    7 3 56.12                             135     0.2 7  126  12 
 OCA  SZ EP   1    7 3 39.55                             127    -0.7 7  165 349 
 OCA  SZ ES   1    7 4  2.17                             127    -0.2 7  165 349 
 OCA  SZ I         7 4  6.96        11.9 0.22                           165 349 
 CHI  HZ EP   2    7 3 49.21                             116    -0.1 4  249 198 
 CHI  HE ES   1    7 4 18.04                             116    -0.4 6  249 198 
 CHI  HZ I         7 4 23.83         4.7 0.21                           249 198 
 HEL  HZ EP   2    7 3 53.06                             113     0.1 4  282 257 
 HEL  HE ES   2    7 4 24.48                             113    -0.5 4  282 257 
 HEL  HZ I         7 4 31.51         5.1 0.49                           282 257 
 RREF BZ EP   1    7 3 59.57                             109     1.0 5  328 231 
 RREF BE ES   2    7 4 34.59                             109    -0.3 4  328 231 
 RREF BZ I         7 4 40.56         5.2 0.24                           328 231 
 TOL  SZ EP   1    7 4  0.75                             108     0.2 5  349 226 
 SDV  BZ EP   1    7 4  0.40                             107    -0.6 5  354  49 
 SDV  BZ I         7 4  1.34         1.6 0.30                           354  49 
                                                                                
