 2016  6 7 0508  8.4 L   6.811 -73.096151.1  RSN  5 0.4 1.3LRSN                1
 GAP=210        0.87       4.8     7.0  7.1 -0.6978E+01  0.2963E+01  0.5310E+01E
 Epicentro: LOS SANTOS - SANTANDER                                             3
 ACTION:UPD 16-07-21 22:16 OP:rebc STATUS:               ID:20160607050807 L   I
 OLDACT:UP  16-06-08 20:46 OP:nlst STATUS:               ID:20160607050807 L   3
 OLDACT:UP  16-06-07 17:35 OP:dani STATUS:               ID:20160607045743d    3
 OLDACT:UP  16-06-07 17:35 OP:dani STATUS:               ID:20160607045743d    3
 OLDACT:DUP 16-06-07 17:30 OP:dani STATUS:               ID:20160607045743d    3
 OLDACT:UP  16-06-07 17:29 OP:dani STATUS:               ID:20160607045742     3
 OLDACT:REG 16-06-07 13:08 OP:dani STATUS:               ID:20160607045742     3
 2016-06-07-0457-42M.COL___319                                                 6
 STAT SP IPHASW D HRMM SECON CODA AMPLIT PERI AZIMU VELO AIN AR TRES W  DIS CAZ7
 BAR2 EZ EP        5 8 28.63                             170   -0.0510 26.0 202 
 BAR2 EZ ES        5 8 44.19                             170   -0.3410 26.0 202 
 BAR2 EZ I         5 8 47.67         1.9 0.15                          26.0 202 
 BRR  HZ EP        5 8 30.55                             152    0.2310 75.5 296 
 BRR  HE ES        5 8 47.92                             152    0.4710 75.5 296 
 BRR  HZ I         5 8 50.72         3.6 0.18                          75.5 296 
 PTB  HZ EP        5 8 36.00                             132   -0.26 9  153 259 
 PTB  HE ES        5 8 57.54                             132   -0.49 9  153 259 
 PTB  HZ I         5 9  2.34         3.7 0.19                           153 259 
 OCA  HN ES        5 8 59.35                             131   -0.06 9  160 351 
 SPBC HZ EP        5 8 37.88                             129    0.20 9  168 220 
 SPBC HN ES   2    5 9  1.63                             129    1.08 5  168 220 
 SPBC HZ I         5 9  7.49         3.1 0.22                           168 220 
                                                                                
