 2016  3 7 0900 27.5 L   6.780 -73.137146.4  RSN  4 0.1 0.9LRSN                1
 GAP=139        0.40       2.1     1.9  4.3 -0.9961E-01  0.2773E+01 -0.1721E+00E
 Epicentro: LOS SANTOS - SANTANDER                                             3
 ACTION:UPD 16-05-13 21:22 OP:cam  STATUS:               ID:20160307090027 L   I
 OLDACT:REG 16-03-07 14:08 OP:cara STATUS:               ID:20160307085749     3
 2016-03-07-0857-49M.COL___318                                                 6
 STAT SP IPHASW D HRMM SECON CODA AMPLIT PERI AZIMU VELO AIN AR TRES W  DIS CAZ7
 PAM  EZ EP        9 0 49.80                             151   -0.0510 78.5  38 
 PAM  EN ES        9 1  7.25                             151   -0.0310 78.5  38 
 PAM  EZ I         9 1  9.10         1.3 0.56            154           78.5  38 
 RUS  HZ EP        9 0 51.20                             145    0.0510 98.3 177 
 RUS  HN ES        9 1  9.68                             145    0.0810 98.3 177 
 RUS  HZ I         9 1 10.47         0.7 0.26            149           98.3 177 
 PTB  HZ EP        9 0 54.50                             132   -0.06 9  148 260 
 PTB  HN ES        9 1 15.47                             132   -0.20 9  148 260 
 PTB  HZ I         9 1 20.65         1.3 0.24            133            148 260 
 ZAR  HN ES        9 1 25.87                             122    0.24 8  206 293 
 ZAR  HZ I         9 1 31.93         1.4 0.28            123            206 293 
                                                                                
