 2012  9 7 0516 55.0 L   6.785 -73.147143.5  RSN  5 0.3 1.6LRSN                1
 GAP=236        0.58       6.2     6.8  7.5  0.2196E+02  0.1956E+02  0.4622E+00E
 Epicentro: LOS SANTOS - SANTANDER                                             3
 ACTION:UPD 12-10-22 14:17 OP:ep   STATUS:               ID:20120907051655 L   I
 2012-09-07-0510-00M.COL___227                                                 6
 STAT SP IPHASW D HRMM SECON CODA AMPLIT PERI AZIMU VELO AIN AR TRES W  DIS CAZ7
 BAR2 SZ ES   1    517 29.19                             171   -0.19 7 21.6 190 
 BAR2 SZ I         517 30.61         6.1 0.36                          21.6 190 
 BRR  HZ EP   1    517 16.35                             152    0.43 7 71.9 300 
 BRR  HN ES   1    517 32.32                             152    0.06 7 71.9 300 
 BRR  HN I         517 33.75        15.2 0.25                          71.9 300 
 RUS  HN ES   1    517 36.60                             144   -0.05 7 98.9 176 
 PTB  HZ EP   1    517 21.39                             132   -0.33 7  147 259 
 PTB  HE ES   1    517 42.84                             132    0.27 7  147 259 
 ZAR  HN ES   2    517 51.94                             122   -0.62 4  205 293 
 ZAR  HZ I         517 58.02         3.0 0.31                           205 293 
                                                                                
