 2017  1 7 0151  8.6 L   6.756 -73.161144.7  RSN  5 0.4 1.3LRSN                1
 GAP=137        1.14       7.3     6.8  8.9  0.1099E+02 -0.4464E+01 -0.1037E+02E
 Epicentro: LOS SANTOS - SANTANDER                                             3
 ACTION:UPD 17-05-22 15:56 OP:jn   STATUS:               ID:20170107015108 L   I
 OLDACT:REG 17-01-07 12:29 OP:ar   STATUS:               ID:20170107014749     3
 2017-01-07-0148-00M.COL___383                                                 6
 STAT SP IPHASW D HRMM SECON CODA AMPLIT PERI AZIMU VELO AIN AR TRES W  DIS CAZ7
 BAR2 EZ EP        151 27.90                             172   -0.1210 18.2 188 
 BAR2 EZ ES        151 42.76                             172   -0.4010 18.2 188 
 BAR2 EZ I         151 46.18         6.1 0.52            174           18.2 188 
 BRR  HZ EP        151 29.81                             152    0.1010 72.3 303 
 BRR  HN ES        151 46.92                             152    0.7610 72.3 303 
 BRR  HZ I         151 49.99         6.7 0.30            153           72.3 303 
 PAM  EZ EP        151 30.53                             149   -0.4810 82.2  38 
 RUS  HZ EP        151 32.46                             145    0.5410 95.8 175 
 RUS  HN ES        151 50.18                             145    0.0810 95.8 175 
 RUS  HZ I         151 51.81         3.3 0.34            149           95.8 175 
 PTB  HZ EP        151 35.36                             132    0.09 9  145 261 
 PTB  HN ES        151 55.41                             132   -0.64 9  145 261 
 PTB  HZ I         151 57.82         1.7 0.11            135            145 261 
                                                                                
