 2016 12 7 0204 15.5 L   6.675 -73.167153.7  RSN  4 0.3 1.4LRSN                1
 GAP=242        0.75       8.7     5.6  6.0  0.1765E+02  0.7391E+01 -0.1436E+01E
 Epicentro: VILLANUEVA - SANTANDER                                             3
 ACTION:UPD 17-01-11 20:12 OP:rebc STATUS:               ID:20161207020419 L   I
 OLDACT:UP  16-12-09 15:01 OP:nlst STATUS:               ID:20161207020419 L   3
 OLDACT:DUP 16-12-07 15:34 OP:ar   STATUS:               ID:20161207015747d    3
 2016-12-07-0158-00M.COL___364                                                 6
 STAT SP IPHASW D HRMM SECON CODA AMPLIT PERI AZIMU VELO AIN AR TRES W  DIS CAZ7
 BAR2 EZ EP        2 4 35.50                             176   -0.4110 9.34 190 
 BAR2 EZ ES        2 4 51.79                             176   -0.0410 9.34 190 
 BAR2 EZ I         2 4 52.59         5.1 0.12            176           9.34 190 
 BRR  HZ EP        2 4 38.01                             152    0.1710 76.9 308 
 BRR  HN ES        2 4 55.55                             152    0.2910 76.9 308 
 BRR  HZ I         2 4 58.45         5.3 0.26            151           76.9 308 
 PTB  HZ EP        2 4 43.00                             135    0.24 9  143 264 
 PTB  HN ES        2 5  4.03                             135    0.02 9  143 264 
 PTB  HZ I         2 5  6.56         3.2 0.16            135            143 264 
 ZAR  HZ EP        2 4 49.07                             124    0.23 8  208 296 
 ZAR  HE ES        2 5 14.27                             124   -0.57 8  208 296 
 ZAR  HZ I         2 5 16.90         2.3 0.18            124            208 296 
                                                                                
