 2010  3 7 0535 56.4 L   6.000 -73.778111.4  RSN  6 0.2 1.5LRSN                1
 GAP=128        0.50       2.4     5.3  8.6  0.2332E+01  0.3340E+02  0.9083E+01E
 Epicentro: BOLIVAR - SANTANDER                                                3
 ACTION:UP  10-08-24 09:52 OP:vdl  STATUS:               ID:20100307053556 L   I
 2010-03-07-0535-03S.COL___101                                                 6
 STAT SP IPHASW D HRMM SECON CODA AMPLIT PERI AZIMU VELO SNR AR TRES W  DIS CAZ7
 RUS  BZ EP        536 15.23                             142     0.110   78  99 
 RUS  BZ I         536 15.86         7.9 0.02                            78  99 
 RUS  BN ES   1    536 29.87                             142     0.1 7   78  99 
 BAR2 SZ EP        536 16.12                             137     0.210   93  45 
 BAR2 SZ ES   1    536 30.82                             137    -0.4 7   93  45 
 BRR  HZ EP   1    536 18.14                             128    -0.2 7  123   3 
 BRR  HZ I         536 34.81        11.3 0.13                           123   3 
 BRR  HN ES        536 35.44                             128     0.110  123   3 
 CHI  HZ EP   1    536 21.57                             122    -0.2 7  152 178 
 CHI  HN ES   2    536 41.24                             122    -0.2 5  152 178 
 CHI  HZ I         536 46.58         3.4 0.04                           152 178 
 RREF BZ EP   1    536 28.45                             113    -0.1 6  212 235 
 RREF BZ I         536 57.99         2.3 0.08                           212 235 
 PRA  HZ EP   1    536 35.82                             106     0.1 6  281 206 
 PRA  HE ES   3    537  7.57                             106     1.1 2  281 206 
 PRA  HZ I         537 12.29         2.1 0.05                           281 206 
                                                                                
