 2011  6 7 0627 22.3 L   6.792 -73.116151.6  RSN  9 0.4 1.7LRSN                1
 GAP=141        0.71       3.8     6.6  6.7 -0.9013E+01 -0.5051E+01  0.4104E+01E
 Epicentro: LOS SANTOS - SANTANDER                                             3
 ACTION:UP  11-07-14 19:03 OP:ep   STATUS:               ID:20110607062722 L   I
 2011-06-07-0625-40S.COL___132                                                 6
 STAT SP IPHASW D HRMM SECON CODA AMPLIT PERI AZIMU VELO SNR AR TRES W  DIS CAZ7
 BAR2 SZ EP   2    627 42.27                             171    -0.3 5   23 198 
 BAR2 SZ ES   2    627 58.75                             171     0.3 5   23 198 
 BAR2 SZ I         627 59.12         9.5 0.39                            23 198 
 BRR  HZ EP   1    627 44.36                             152     0.1 7   75 298 
 BRR  HZ I         627 44.79        10.5 0.11                            75 298 
 BRR  HE ES   1    628  1.78                             152     0.4 7   75 298 
 PAM  SZ EP   1    627 45.15                             152     0.1 7   76  37 
 PAM  SN ES   2    628  2.56                             152    -0.2 5   76  37 
 RUS  HZ EP   1    627 46.42                             145    -0.1 7  100 178 
 RUS  HN ES   2    628  4.62                             145    -0.8 5  100 178 
 RUS  HZ I         628  6.54         5.4 0.25                           100 178 
 BRI  SZ EP   1    627 47.05                             143     0.4 7  108  19 
 BRI  SZ I         628 11.41         6.7 0.30                           108  19 
 GRA  SZ EP   1    627 48.27                             138     0.2 7  126  16 
 GRA  SZ ES   2    628  7.63                             138    -0.5 5  126  16 
 GRA  SZ I         628 10.50         6.0 0.35                           126  16 
 OCA  SZ EP   1    627 51.01                             130    -0.2 7  162 352 
 OCA  SZ ES   2    628 12.96                             130    -0.7 5  162 352 
 OCA  SZ I         628 17.94         8.1 0.47                           162 352 
 NOR  SZ EP   2    627 57.93                             119    -0.6 4  237 235 
 NOR  SE ES   2    628 26.63                             119    -0.3 4  237 235 
 CHI  HZ EP   1    628  0.34                             118     0.0 6  249 196 
 CHI  HN ES   2    628 30.70                             118     0.7 4  249 196 
 CHI  HZ I         628 35.60         3.2 0.34                           249 196 
                                                                                
