 2011  4 7 0118  1.3 L   6.788 -73.113148.0  RSN 12 0.3 1.9LRSN                1
 GAP=159        0.57       3.3     5.1  4.9 -0.8034E+01  0.1446E+01  0.3928E+01E
 Epicentro: LOS SANTOS - SANTANDER                                             3
 ACTION:UP  11-06-22 15:29 OP:REBC STATUS:               ID:20110407011801 L   I
 2011-04-07-0115-40S.COL___138                                                 6
 STAT SP IPHASW D HRMM SECON CODA AMPLIT PERI AZIMU VELO SNR AR TRES W  DIS CAZ7
 BTL  SZ EP        118 21.37                             171     0.210   22 310 
 BAR2 SZ EP        118 21.01                             171    -0.210   23 200 
 BAR2 SZ I         118 21.19         9.9 0.07                            23 200 
 BAR2 SZ ES   1    118 36.77                             171     0.1 7   23 200 
 GIR2 SZ EP   2    118 21.10                             167    -0.2 5   33 345 
 BRR  HZ EP        118 22.77                             152    -0.110   75 298 
 BRR  HN ES   1    118 40.07                             152     0.3 7   75 298 
 BRR  HZ I         118 43.33        13.2 0.19                            75 298 
 PAM  SZ EP   1    118 23.58                             152    -0.1 7   76  37 
 PAM  SE ES   2    118 40.72                             152    -0.4 5   76  37 
 GRA  SZ EP   2    118 27.44                             137     0.7 5  126  16 
 GRA  SZ ES   1    118 46.60                             137     0.0 7  126  16 
 GRA  SZ I         118 48.48        16.6 0.30                           126  16 
 OCA  SZ EP   1    118 30.16                             130     0.2 7  162 352 
 OCA  SZ ES   2    118 51.38                             130    -0.9 5  162 352 
 OCA  SZ I         118 56.08         9.7 0.27                           162 352 
 NOR  SN ES   2    119  5.30                             119    -0.2 4  237 235 
 CHI  HZ EP   1    118 39.15                             118     0.1 6  248 196 
 CHI  HN ES   2    119  8.61                             118     0.1 4  248 196 
 CHI  HZ I         119 15.05         2.5 0.27                           248 196 
 HEL  HZ EP   2    118 41.98                             115     0.0 4  275 256 
 HEL  HZ I         119 20.78         4.3 0.21                           275 256 
 RREF HZ EP   2    118 48.06                             111     0.3 3  324 230 
 RREF HN ES   2    119 23.32                             111    -0.6 3  324 230 
 RREF HZ I         119 32.79         4.2 0.20                           324 230 
 PRA  HZ EP   2    118 54.57                             107    -0.4 3  393 210 
 PRA  HN ES   2    119 36.76                             107    -0.1 3  393 210 
                                                                                
