 2013  4 7 0814 53.2 L   6.773 -73.197149.3  RSN  5 0.4 1.7LRSN                1
 GAP=196        0.88       4.8     6.3  8.7  0.1611E+02 -0.1187E+02 -0.1552E+02E
 Epicentro: VILLANUEVA - SANTANDER                                             3
 ACTION:UPD 13-05-22 14:36 OP:EP   STATUS:               ID:20130407081453 L   I
 2013-04-07-0810-00M.COL___245                                                 6
 STAT SP IPHASW D HRMM SECON CODA AMPLIT PERI AZIMU VELO AIN AR TRES W  DIS CAZ7
 BRR  HZ EP        815 15.00                             154    0.4710 67.8 303 
 BRR  HN ES        815 31.45                             154    0.2710 67.8 303 
 BRR  HN I         815 33.18         6.9 0.16            148           67.8 303 
 RUS  HZ EP        815 17.43                             145    0.3310 98.1 173 
 RUS  HN ES        815 35.35                             145   -0.4210 98.1 173 
 RUS  HN I         815 36.80         5.5 0.28            144           98.1 173 
 PTB  HZ EP   1    815 19.87                             134   -0.02 7  142 260 
 PTB  HN ES        815 40.40                             134   -0.32 9  142 260 
 PTB  HN I         815 46.36         5.6 0.42            129            142 260 
 ZAR  HN ES        815 50.79                             124    0.19 9  200 294 
 ZAR  HN I         816  0.40         3.5 0.16            121            200 294 
 SML  HZ EP   1    815 29.51                             118   -0.54 6  244 337 
 SML  HN ES        815 58.32                             118   -0.49 8  244 337 
 SML  HN I         816  0.66         5.5 0.28            117            244 337 
                                                                                
