 2010  8 7 0258 48.2 L   6.775 -73.059134.2  RSN  6 0.2 1.5LRSN                1
 GAP=169        0.70       4.2     7.8  6.1 -0.5370E+01 -0.1646E+02 -0.1509E+01E
 Epicentro: LOS SANTOS - SANTANDER                                             3
 ACTION:UP  10-09-07 10:52 OP:vdl  STATUS:               ID:20100807025848 L   I
 2010-08-07-0257-02S.COL___125                                                 6
 STAT SP IPHASW D HRMM SECON CODA AMPLIT PERI AZIMU VELO SNR AR TRES W  DIS CAZ7
 BAR2 SZ EP        259  6.37                             169    -0.110   24 214 
 BAR2 SZ ES        259 20.61                             169    -0.110   24 214 
 BAR2 SZ I         259 22.66         9.9 0.17                            24 214 
 BTL  SZ EP        259  6.65                             168     0.110   28 305 
 BTL  SZ ES   2    259 20.89                             168     0.0 5   28 305 
 BRR  HZ EP        259  8.36                             147    -0.410   81 297 
 BRR  HN ES   1    259 25.11                             147     0.3 7   81 297 
 BRR  HZ I         259 28.27         8.9 0.10                            81 297 
 RUS  HZ EP        259 10.85                             142     0.210   98 182 
 RUS  HZ I         259 31.07         4.7 0.29                            98 182 
 GUE  SZ EP   1    259 12.47                             136     0.5 7  118   7 
 GRA  SZ EP        259 12.32                             134    -0.110  126  13 
 GRA  SZ ES   1    259 31.36                             134     0.0 7  126  13 
 GRA  SZ I         259 33.05         3.5 0.31                           126  13 
                                                                                
