 2016  1 7 0430 10.6 L   6.810 -73.148147.3  RSN 12 0.4 1.8LRSN                1
 GAP=136        1.00       2.6     4.0  5.0 -0.7798E+00  0.5474E+01  0.1269E+01E
 Epicentro: LOS SANTOS - SANTANDER                                             3
 ACTION:UPD 16-03-09 23:23 OP:cam  STATUS:               ID:20160107043010 L   I
 OLDACT:REG 16-01-07 12:33 OP:drio STATUS:               ID:20160107042750     3
 2016-01-07-0427-50M.COL___272                                                 6
 STAT SP IPHASW D HRMM SECON CODA AMPLIT PERI AZIMU VELO AIN AR TRES W  DIS CAZ7
 BAR2 EZ EP        430 30.56                             170    0.1110 24.3 189 
 BAR2 EZ ES        430 46.27                             170    0.3410 24.3 189 
 BAR2 EZ I         430 47.27        10.1 0.30            169           24.3 189 
 BRR  HZ EP        430 32.47                             153    0.5810 70.4 298 
 BRR  HN ES        430 48.99                             153    0.5010 70.4 298 
 BRR  HZ I         430 53.70         8.1 0.42            150           70.4 298 
 PAM  EZ EP        430 33.13                             151    0.1710 76.8  40 
 PAM  EN ES        430 50.43                             151    0.0410 76.8  40 
 PAM  EZ I         430 52.73         7.6 0.44            155           76.8  40 
 RUS  HZ EP        430 34.42                             144   -0.1810  102 176 
 RUS  HE ES        430 52.73                             144   -0.5710  102 176 
 RUS  HZ I         430 54.19         5.7 0.26            146            102 176 
 PTB  HZ EP        430 37.48                             132   -0.22 9  148 258 
 PTB  HN ES        430 58.69                             132   -0.14 9  148 258 
 PTB  HZ I         431  4.53         8.3 0.58            132            148 258 
 OCA  HZ EP        430 39.49                             130    0.54 9  159 353 
 OCA  HE ES        431  0.25                             130   -0.79 9  159 353 
 OCA  HZ I         431  9.05        12.0 0.20            132            159 353 
 ZAR  HZ EP        430 43.46                             123    0.36 9  203 292 
 ZAR  HE ES        431  8.27                             123   -0.16 9  203 292 
 ZAR  HZ I         431 14.10         9.3 0.48            123            203 292 
 NOR  HZ EP        430 46.63                             119    0.15 8  235 234 
 NOR  HN ES        431 13.98                             119   -0.47 8  235 234 
 NOR  HZ I         431 21.83         6.1 0.34            120            235 234 
 SML  HZ EP        430 46.60                             118   -0.61 8  243 335 
 SML  HN ES        431 15.44                             118   -0.32 8  243 335 
 SML  HZ I         431 18.49         9.8 0.32            119            243 335 
 CHI  HZ EP        430 48.09                             117   -0.41 8  250 195 
 CHI  HN ES        431 17.91                             117   -0.14 8  250 195 
 CHI  HZ I         431 21.98         3.2 0.40            119            250 195 
 GUY2CHZ EP        430 55.01                             113    0.67 7  302 235 
 GUY2CHE ES   4    431 31.24                             113    2.80 0  302 235 
 GUY2CHZ I         431 40.72         4.2 0.50                           302 235 
 PRA  HZ EP        431  4.16                             107   -0.12 6  393 209 
 PRA  HN ES        431 46.80                             107    0.66 6  393 209 
 PRA  HZ I         431 54.90         3.4 0.50            108            393 209 
 SJC  HZ EP   4    431  4.75                             106   -1.36 0  408 327 
 SJC  HN ES   4    431 43.24                             106   -6.15 0  408 327 
                                                                                
