 2011 11 7 0841 42.6 L   6.823 -73.126141.6  RSN 12 0.5 2.5LRSN                1
 GAP=138        0.94       4.5     5.0  6.7 -0.3327E+01  0.1331E+02  0.4745E+01E
 Epicentro: LOS SANTOS - SANTANDER                                             3
 ACTION:UPD 12-07-13 16:08 OP:ep   STATUS:               ID:20111107084142 L   I
 2011-11-07-0840-07S.COL___175                                                 6
 STAT SP IPHASW D HRMM SECON CODA AMPLIT PERI AZIMU VELO AIN AR TRES W  DIS CAZ7
 BAR2 SZ EP        842  1.86                             169    0.0710 26.3 194 
 BAR2 SZ I         842  2.35        51.8 0.17                          26.3 194 
 BAR2 SZ ES   1    842 16.60                             169   -0.16 7 26.3 194 
 BRR  HZ IP     D  842  3.61                             151    0.2710 71.9 296 
 BRR  HN ES   1    842 19.81                             151    0.30 7 71.9 296 
 BRR  HZ I         842 24.25        68.6 0.13                          71.9 296 
 PAM  SZ EP   1    842  4.71                             151    0.54 7 74.0  40 
 PAM  SN ES   1    842 21.24                             151    0.25 7 74.0  40 
 PAM  SZ I         842 23.54        53.2 0.37                          74.0  40 
 RUS  HZ EP   1    842  5.87                             142   -0.25 7  103 177 
 RUS  HZ I         842  7.23        25.5 0.14                           103 177 
 RUS  HN ES   1    842 23.95                             142   -0.52 7  103 177 
 OCA  SZ EP   1    842  9.20                             129   -1.17 7  158 352 
 OCA  SZ I         842 35.46        38.4 0.18                           158 352 
 ZAR  HZ EP   1    842 14.78                             121   -0.10 6  205 291 
 ZAR  HN ES   1    842 39.86                             121   -0.20 6  205 291 
 ZAR  HZ I         842 45.45        24.2 0.33                           205 291 
 NOR  SZ EP   1    842 17.87                             117   -0.57 6  238 234 
 NOR  SN ES   1    842 46.12                             117   -0.27 6  238 234 
 ROSC BZ EP   1    842 21.88                             115    1.02 6  256 211 
 ROSC BZ I         842 56.25        31.0 0.31                           256 211 
 HEL  HZ EP   1    842 23.74                             114    0.83 6  275 255 
 HEL  HN ES   1    842 53.86                             114   -0.48 6  275 255 
 HEL  HZ I         843  1.38        15.8 0.41                           275 255 
 GUY  SZ EP   1    842 26.12                             111   -0.53 5  307 235 
 GUY  SN ES   1    843  2.00                             111    0.99 5  307 235 
 GUY  SZ I         843 10.53        19.3 0.43                           307 235 
 RREF HZ EP   1    842 28.52                             110   -0.42 5  325 229 
 RREF HZ I         843 13.96        20.9 0.25                           325 229 
 PRA  HZ EP   1    842 36.94                             106    0.57 4  395 210 
 PRA  HN ES   1    843 18.13                             106   -0.17 4  395 210 
                                                                                
