 2012  7 7 0454 19.0 L   6.949 -73.077 15.6  RSN  7 0.4 1.6LRSN                1
 GAP=136        1.12       2.4     3.1  5.2 -0.2278E+01  0.6396E+01 -0.5162E+01E
 Epicentro: PIEDECUESTA - SANTANDER                                            3
 ACTION:UPD 12-08-14 11:43 OP:ep   STATUS:               ID:20120707045419 L   I
 2012-07-07-0450-00M.COL___201                                                 6
 STAT SP IPHASW D HRMM SECON CODA AMPLIT PERI AZIMU VELO AIN AR TRES W  DIS CAZ7
 BAR2 SZ EP        454 26.52                             108     0.210   41 196 
 BAR2 SZ ES        454 31.66                             108    -0.410   41 196 
 BAR2 SZ I         454 32.86       116.3 0.24             47             41 196 
 PAM  SZ EP        454 29.75                             102     0.410   60  44 
 PAM  SN ES        454 37.20                             102    -0.310   60  44 
 BRR  HZ EP        454 31.02                             100     0.310   72 284 
 BRR  HZ I         454 31.47        30.0 0.14             47             72 284 
 BRR  HE ES        454 39.55                             100    -0.310   72 284 
 RUS  HZ EP        454 38.54                              96     0.710  117 180 
 RUS  HN ES        454 52.28                              96    -0.310  117 180 
 RUS  HZ I         454 54.40         7.4 0.26             47            117 180 
 OCA  HZ EP        454 41.24                              56    -0.3 9  145 349 
 OCA  HN ES   1    454 58.77                              56    -0.4 7  145 349 
 OCA  HZ I         455  2.58        20.2 0.11             47            145 349 
 PTB  HZ EP        454 43.28                              56     0.1 9  159 254 
 PTB  HE ES   1    455  1.71                              56    -0.3 7  159 254 
 PTB  HZ I         455  3.99         4.0 0.26             47            159 254 
 ZAR  HN ES   1    455 13.00                              56     0.6 6  206 287 
 ZAR  HZ I         455 19.09         3.4 0.38             37            206 287 
