 2016 11 7 0800 59.3 L   6.803 -73.161144.3  RSN  5 0.2 1.1LRSN                1
 GAP=145        0.63       3.3     3.1  5.2 -0.1027E+01  0.4006E+01  0.4976E+01E
 Epicentro: LOS SANTOS - SANTANDER                                             3
 ACTION:UPD 17-10-26 21:05 OP:lp   STATUS:               ID:20161107080059 L   I
 OLDACT:REG 16-11-07 13:30 OP:lv   STATUS:               ID:20161107075742     3
 2016-11-07-0758-00M.COL___325                                                 6
 STAT SP IPHASW D HRMM SECON CODA AMPLIT PERI AZIMU VELO AIN AR TRES W  DIS CAZ7
 BAR2 EZ EP        8 1 18.39                             170   -0.3410 23.4 186 
 BAR2 EZ ES        8 1 33.96                             170    0.0610 23.4 186 
 BAR2 EZ I         8 1 34.95         4.6 0.26            170           23.4 186 
 PAM  EZ EP        8 1 21.61                             150    0.2310 78.2  41 
 PAM  EN ES        8 1 38.60                             150   -0.0210 78.2  41 
 PAM  EZ I         8 1 41.01         3.3 0.44            152           78.2  41 
 PTB  HZ EP        8 1 25.70                             132   -0.28 9  146 259 
 PTB  HN ES        8 1 46.61                             132   -0.20 9  146 259 
 PTB  HZ I         8 1 50.01         1.1 0.10            132            146 259 
 ZAR  HZ EP   4    8 1 34.90                             122    3.45 0  202 292 
 ZAR  HE ES        8 1 56.92                             122    0.37 9  202 292 
 ZAR  HZ I         8 2  0.73         1.0 0.08            123            202 292 
 CHI  HZ EP        8 1 36.88                             117    0.00 8  248 195 
 CHI  HN ES        8 2  6.56                             117    0.35 8  248 195 
 CHI  HZ I         8 2  9.44         0.9 0.25            118            248 195 
                                                                                
