 2015  3 7 0433 56.6 L   6.809 -73.153144.0  RSN 24 0.4 2.5LRSN                1
 GAP= 70        0.99       2.5     2.8  4.6 -0.1494E+01  0.3947E+01  0.1393E+01E
 Epicentro: LOS SANTOS - SANTANDER                                             3
 ACTION:UPD 15-04-30 16:23 OP:nd   STATUS:               ID:20150307043356 L   I
 OLDACT:REG 15-03-07 13:32 OP:spq  STATUS:               ID:20150307042740     3
 2015-03-07-0427-40M.COL___284                                                 6
 STAT SP IPHASW D HRMM SECON CODA AMPLIT PERI AZIMU VELO AIN AR TRES W  DIS CAZ7
 BAR2 EZ IP     D  434 16.01                             170   -0.0310 24.2 188 
 BAR2 EZ ES   1    434 31.28                             170    0.08 7 24.2 188 
 BAR2 EZ I         434 32.28        74.4 0.20            166           24.2 188 
 BRR  HZ IP     D  434 17.87                             153    0.3810 70.0 298 
 BRR  HN ES        434 34.82                             153    1.0410 70.0 298 
 BRR  HZ I         434 37.25        41.6 0.14            151           70.0 298 
 PAM  SZ EP        434 18.83                             151    0.2210 77.1  41 
 PAM  SN ES        434 35.92                             151    0.1410 77.1  41 
 PAM  SZ I         434 36.61        41.6 0.20            156           77.1  41 
 RUS  HZ EP        434 19.95                             143   -0.3110  102 176 
 RUS  HE ES        434 38.71                             143    0.0010  102 176 
 RUS  HZ I         434 44.16        17.2 0.20            143            102 176 
 PTB  HZ EP        434 22.47                             132   -0.90 9  147 258 
 PTB  HN ES        434 43.56                             132   -0.68 9  147 258 
 PTB  HZ I         434 46.09        48.4 0.14            131            147 258 
 TAM  HZ EP     C  434 24.37                             130    0.13 9  156 105 
 TAM  HN ES        434 45.79                             130   -0.01 9  156 105 
 TAM  HZ I         434 46.60        25.1 0.58            133            156 105 
 OCA  HZ EP        434 24.37                             129   -0.30 9  159 353 
 OCA  HN ES        434 45.93                             129   -0.63 9  159 353 
 OCA  HZ I         434 50.29        27.0 0.16            132            159 353 
 SPBC HZ EP        434 24.93                             129   -0.06 9  163 219 
 SPBC HE ES        434 46.72                             129   -0.41 9  163 219 
 SPBC HZ I         434 51.03        49.2 0.13            128            163 219 
 NOR  HZ EP        434 32.44                             118    0.22 8  235 234 
 NOR  HE ES        434 59.71                             118   -0.29 8  235 234 
 NOR  HZ I         435  3.01        31.1 0.18            118            235 234 
 SML  HZ EP        434 32.73                             117   -0.26 8  242 335 
 SML  HN ES   1    435  1.13                             117   -0.24 6  242 335 
 SML  HZ I         435  3.62        42.5 0.10            119            242 335 
 CHI  HZ EP        434 34.04                             117   -0.25 8  249 195 
 CHI  HN ES        435  3.27                             117   -0.41 8  249 195 
 CHI  HZ I         435 10.59        11.2 0.57            117            249 195 
 ROSC BZ EP   4    434 35.68                             116    1.01 0  253 211 
 ROSC BN ES   1    435  4.87                             116    0.50 6  253 211 
 ROSC BZ I         435  9.63        24.2 0.35            116            253 211 
 HEL  HZ EP        434 37.40                             114    0.74 8  272 256 
 HEL  HN ES   4    435 10.16                             114    2.25 0  272 256 
 HEL  HZ I         435 15.08        17.2 0.28            115            272 256 
 GUY2CHZ EP        434 40.39                             112    0.27 7  301 235 
 GUY2CHN ES        435 14.57                             112    0.51 7  301 235 
 GUY2CHZ I         435 22.63        23.0 0.40                           301 235 
 PTGC HZ EP   4    434 39.26                             111   -1.26 0  310 159 
 PTGC HN ES   4    435 12.69                             111   -2.09 0  310 159 
 PTGC HZ I         435 16.15        18.1 0.40            112            310 159 
 RREF HZ EP        434 43.60                             111    0.93 7  322 229 
 RREF HN ES        435 18.62                             111    0.02 7  322 229 
 RREF HZ I         435 28.34        16.5 0.45            111            322 229 
 CBOC HZ EP        434 43.99                             110    0.60 7  333 252 
 CBOC HN ES   1    435 19.87                             110   -0.01 5  333 252 
 CBOC HZ I         435 32.69         7.9 0.48            110            333 252 
 DBB  SZ EP        434 43.70                             109   -0.20 7  339 274 
 DBB  SZ ES   1    435 20.98                             109    0.19 5  339 274 
 DBB  SZ I         435 25.53        29.3 0.38            110            339 274 
 TOL  SZ EP        434 45.27                             109    0.47 7  344 224 
 TOL  SN ES   4    435 24.27                             109    1.87 0  344 224 
 TOL  SZ I         435 32.37        13.9 0.30            109            344 224 
 MON  HZ EP   4    434 43.51                             108   -1.87 0  352 308 
 MON  HN ES   4    435 22.25                             108   -1.18 0  352 308 
 MON  HZ I         435 22.48         5.8 0.22            109            352 308 
 ANIL HN ES   4    435 27.22                             108    2.06 0  357 224 
 ANIL HZ I         435 36.23         2.5 0.26            109            357 224 
 PRA  HZ EP   1    434 49.76                             106   -0.36 4  392 209 
 PRA  HE ES   4    435 33.25                             106    1.39 0  392 209 
 PRA  HZ I         435 37.87        14.1 0.13            107            392 209 
 ORTC HZ EP   1    434 49.85                             106   -0.65 4  396 216 
 ORTC HN ES   4    435 31.26                             106   -1.28 0  396 216 
 ORTC HZ I         435 38.52         9.3 0.30            107            396 216 
 PAL  HZ EP        434 51.88                             106    0.20 6  405 239 
 PAL  HN ES   1    435 34.10                             106   -0.54 4  405 239 
 PAL  HZ I         435 43.14         4.7 0.13            106            405 239 
                                                                                
