 2014  2 7 0948 54.5 L   6.820 -73.126144.6  RSN  8 0.4 1.4LRSN                1
 GAP=203        0.92       4.0     5.6  7.0  0.5729E+01  0.7398E+01 -0.1062E+01E
 Epicentro: LOS SANTOS - SANTANDER                                             3
 ACTION:UPD 14-03-10 08:08 OP:ep   STATUS:               ID:20140207094854 L   I
 OLDACT:REG 14-02-07 09:21 OP:mh   STATUS:               ID:20140207094741     3
 2014-02-07-0947-41M.COL___224                                                 6
 STAT SP IPHASW D HRMM SECON CODA AMPLIT PERI AZIMU VELO AIN AR TRES W  DIS CAZ7
 BAR2 SZ EP        949 14.19                             169    0.1910 25.9 194 
 BAR2 SZ ES        949 29.05                             169   -0.2010 25.9 194 
 BAR2 SZ I         949 30.42         8.1 0.27            164           25.9 194 
 RUS  HZ EP   2    949 18.30                             143    0.05 5  103 177 
 RUS  HN ES   2    949 37.51                             143    0.71 5  103 177 
 RUS  HZ I         949 39.14         2.8 0.29            141            103 177 
 PTB  HZ EP        949 20.99                             131   -0.57 9  150 258 
 PTB  HN ES        949 42.28                             131   -0.42 9  150 258 
 PTB  HZ I         949 44.77         4.5 0.11            129            150 258 
 SPBC HZ EP        949 23.38                             128    0.22 9  166 219 
 SPBC HN ES   1    949 45.37                             128   -0.18 7  166 219 
 ZAR  HZ EP        949 27.02                             122    0.07 9  205 291 
 ZAR  HN ES        949 53.31                             122    1.02 9  205 291 
 ZAR  HZ I         949 59.26         3.2 0.33            121            205 291 
 NOR  HE ES   1    949 58.31                             118   -0.21 6  238 234 
 SML  HN ES        949 59.00                             117   -0.32 8  243 335 
 CHI  HZ EP        949 32.35                             116   -0.04 8  251 196 
 CHI  HN ES   2    950  2.60                             116    0.63 4  251 196 
 CHI  HZ I         950 11.81         1.3 0.14            116            251 196 
                                                                                
