 2012 11 7 0121 14.9 L   6.915 -73.111145.9  RSN  5 0.2 1.7LRSN 2.7WRSN        1
 SPEC AVERAGE  MO 13.1 ST  4.9 OM  3.2 f0 6.68 R0.2201 AL 4.07 WI 12.6 MW  2.7 3
 SPEC SD       MO  0.0 ST0.000 OM  1.7 f00.000 R0.0000 AL      WI      MW  0.0 3
 GAP=134        0.46       3.9     3.9  4.4 -0.1413E+01  0.2413E+01  0.1861E+00E
 Epicentro: PIEDECUESTA - SANTANDER                                            3
 SPEC BRR HH N MO 13.1 ST  4.9 OM  1.5 f0 6.68 R0.2201 AL 4.07 WI 12.6 MW  2.7 3
 SPEC BRR HH N T 12152 K 0.000 GD  161 VS 4.20 DE 3.00 Q0230.0 QA 0.60 VS 4.20 3
 ACTION:UP  12-12-05 15:31 OP:}ep  STATUS:               ID:20121107012114 L   I
 2012-11-07-0120-00M.COL___230                                                 6
 STAT SP IPHASW D HRMM SECON CODA AMPLIT PERI AZIMU VELO AIN AR TRES W  DIS CAZ7
 GIR2 SZ EP        121 34.28                             172   -0.0210 20.3 333 
 BAR2 SZ EP        121 34.85                             165    0.0110 36.5 193 
 BAR2 SZ ES        121 50.19                             165   -0.2410 36.5 193 
 BAR2 SZ I         121 51.72         8.1 0.11                          36.5 193 
 PAM  SN ES        121 53.28                             155    0.0510 65.3  44 
 PAM  SN I         121 54.39        13.8 0.20                          65.3  44 
 BRR  HZ EP        121 35.89                             153   -0.0510 69.8 288 
 BRR  HN ES        121 52.51                             153    0.1310 69.8 288 
 BRR  HZ I         121 56.96        10.3 0.32                          69.8 288 
 RUS  HN ES   2    121 59.36                             140    0.54 5  113 178 
                                                                                
