 2014  8 7 0211 35.7 L   6.780 -73.154145.3  RSN 10 0.4 2.0LRSN                1
 GAP=136        0.98       3.6     3.9  6.5 -0.2053E+01  0.6613E+01  0.4599E+01E
 Epicentro: LOS SANTOS - SANTANDER                                             3
 ACTION:UPD 14-09-15 21:47 OP:nd   STATUS:               ID:20140807021135 L   I
 OLDACT:DUP 14-08-07 16:52 OP:carl STATUS:               ID:20140807020818d    3
 2014-08-07-0208-17M.COL___263                                                 6
 STAT SP IPHASW D HRMM SECON CODA AMPLIT PERI AZIMU VELO AIN AR TRES W  DIS CAZ7
 BAR2 SZ EP        211 55.03                             171   -0.2310 21.0 189 
 BAR2 SZ ES        212 10.59                             171    0.0910 21.0 189 
 BAR2 SZ I         212 11.04        21.4 0.14            170           21.0 189 
 BRR  HZ EP        211 56.99                             152    0.1410 71.5 300 
 BRR  HN ES        212 13.94                             152    0.6210 71.5 300 
 BRR  HZ I         212 16.98        17.8 0.28            151           71.5 300 
 PAM  SZ EP        211 58.04                             150    0.0110 79.6  39 
 PAM  SZ ES        212 15.15                             150   -0.2810 79.6  39 
 PAM  SZ I         212 17.31        21.3 0.66            154           79.6  39 
 RUS  HZ EP        211 59.56                             144    0.2710 98.5 175 
 RUS  HN ES        212 17.60                             144   -0.0610 98.5 175 
 RUS  HZ I         212 18.62        12.2 0.32            146           98.5 175 
 PTB  HZ EP        212  2.18                             132   -0.37 9  146 260 
 PTB  HN ES        212 22.53                             132   -0.93 9  146 260 
 PTB  HZ I         212 25.03         9.7 0.14            132            146 260 
 SPBC HZ EP        212  4.22                             129    0.24 9  161 219 
 SPBC HN ES        212 26.29                             129    0.27 9  161 219 
 SPBC HZ I         212 37.11         8.8 0.10            130            161 219 
 ZAR  HN ES        212 33.64                             122    0.21 9  204 293 
 ZAR  HZ I         212 39.49         8.9 0.40            123            204 293 
 NOR  HE ES        212 38.43                             119   -0.47 8  233 235 
 NOR  HZ I         212 41.65         5.9 0.22            120            233 235 
 CHI  HN ES        212 42.24                             117   -0.10 8  246 195 
 GUY2CHN ES        212 53.63                             112    0.71 7  299 235 
 GUY2CHZ I         213  0.05         5.4 0.38                           299 235 
                                                                                
