 2013  1 7 0858 58.8 L   6.797 -73.136149.4  RSN  9 0.6 2.7LRSN 3.2WRSN        1
 SPEC AVERAGE  MO 14.0 ST  8.3 OM  2.8 f0 3.22 R0.5229 AL 2.28 WI 19.3 MW  3.2 3
 SPEC SD       MO  0.2 ST  8.6 OM  0.6 f0 1.16 R0.1927 AL      WI      MW  0.1 3
 GAP=184        1.48       5.0     7.0  8.6  0.5776E+01  0.1185E+02 -0.7726E-01E
 Epicentro: LOS SANTOS - SANTANDER                                             3
 SPEC HEL HH N MO 13.8 ST  2.5 OM  1.9 f0 3.14 R0.4682 AL 1.82 WI 19.8 MW  3.1 3
 SPEC HEL HH N T 9 010 K 0.000 GD  311 VS 4.20 DE 3.00 Q0230.0 QA 0.60 VS 4.20 3
 SPEC CHI HH N MO 13.9 ST  1.3 OM  2.1 f0 2.23 R0.6592 AL 2.30 WI 18.3 MW  3.2 3
 SPEC CHI HH N T 9 0 5 K 0.000 GD  290 VS 4.20 DE 3.00 Q0230.0 QA 0.60 VS 4.20 3
 SPEC ZAR HH N MO 14.3 ST 15.9 OM  2.5 f0 3.95 R0.3722 AL 2.36 WI 29.4 MW  3.5 3
 SPEC ZAR HH N T 85955 K 0.000 GD  253 VS 4.20 DE 3.00 Q0230.0 QA 0.60 VS 4.20 3
 SPEC RUS HH N MO 13.7 ST0.419 OM  2.1 f0 1.79 R0.8212 AL 1.53 WI 10.3 MW  3.1 3
 SPEC RUS HH N T 85941 K 0.000 GD  179 VS 4.20 DE 3.00 Q0230.0 QA 0.60 VS 4.20 3
 SPEC BRR HH N MO 14.1 ST 21.2 OM  2.5 f0 5.00 R0.2940 AL 3.40 WI 18.6 MW  3.3 3
 SPEC BRR HH N T 85938 K 0.000 GD  165 VS 4.20 DE 3.00 Q0230.0 QA 0.60 VS 4.20 3
 ACTION:UPD 13-02-15 09:12 OP:ep   STATUS:               ID:20130107085858 L   I
 2013-01-07-0849-36M.COL___199                                                 6
 STAT SP IPHASW D HRMM SECON CODA AMPLIT PERI AZIMU VELO AIN AR TRES W  DIS CAZ7
 BAR2 SZ EP        859 19.20                             171    0.3210 23.2 193 
 BAR2 SZ ES        859 34.06                             171   -0.4710 23.2 193 
 BAR2 SZ I         859 35.99       121.7 0.44            168           23.2 193 
 BRR  HZ IP     C  859 21.01                             153    0.5910 72.3 298 
 BRR  HZ I         859 21.32        53.4 0.28            150           72.3 298 
 BRR  HN ES        859 38.50                             153    1.2310 72.3 298 
 RUS  HZ EP        859 23.12                             145    0.2210  100 177 
 RUS  HN ES        859 41.51                             145   -0.1710  100 177 
 RUS  HN I         859 42.48        62.2 0.32            145            100 177 
 PTB  HZ EP        859 25.60                             133   -0.57 9  149 259 
 PTB  HN ES        859 46.69                             133   -0.81 9  149 259 
 PTB  HN I         859 52.80       115.9 0.28            131            149 259 
 OCA  HZ EP        859 27.47                             130    0.02 9  161 353 
 OCA  HN ES        859 49.17                             130   -0.61 9  161 353 
 OCA  HN I         859 53.93        84.5 0.16            131            161 353 
 ZAR  HZ EP        859 31.60                             123   -0.01 9  205 292 
 ZAR  HE ES        859 57.24                             123    0.05 9  205 292 
 ZAR  HN I         9 0  3.43        88.4 0.16            122            205 292 
 CHI  HZ EP        859 37.22                             118    0.50 8  249 195 
 CHI  HN ES        9 0  5.83                             118   -0.45 8  249 195 
 CHI  HN I         9 0 13.27        28.9 0.48            118            249 195 
 HEL  HZ EP   1    859 40.43                             115    1.11 6  273 256 
 HEL  HN ES        9 0 11.32                             115    0.41 8  273 256 
 HEL  HN I         9 0 17.63        15.8 0.46            115            273 256 
 URE  HZ EP        859 38.95                             114   -1.24 7  285 292 
                                                                                
