 2010  4 7 0152 24.2 L   6.868 -73.014155.4  RSN  4 0.6 1.9LRSN                1
 GAP=265        1.06      26.9    25.8 14.1  0.5665E+03 -0.1456E+03 -0.1347E+03E
 Epicentro: CEPITA - SANTANDER                                                 3
 ACTION:UPD 10-08-24 09:58 OP:vdl  STATUS:               ID:20100407015224 L   I
 2010-04-07-0150-54S.COL___098                                                 6
 STAT SP IPHASW D HRMM SECON CODA AMPLIT PERI AZIMU VELO AIN AR TRES W  DIS CAZ7
 BAR2 SZ EP        152 45.29                             165     0.010   36 211 
 BAR2 SZ ES   2    153  0.57                             165    -1.2 5   36 211 
 BRR  HZ EP        152 47.37                             152     0.410   82 289 
 BRR  HN ES        153  4.93                             152     0.210   82 289 
 BRR  HZ I         153  8.54        14.4 0.30                            82 289 
 RREF BN ES   3    153 50.43                             111     0.1 2  338 230 
 RREF BZ I         153 57.62         5.6 0.35                           338 230 
 MON  HZ EP   2    153 13.52                             110    -0.9 3  360 306 
 MON  HZ I         153 26.44         1.3 0.47                           360 306 
 MON  HE ES   2    153 52.03                             110    -1.5 3  360 306 
                                                                                
