 2010  8 7 0107 33.2 L   6.845 -73.223121.1  RSN 10 0.3 2.5LRSN                1
 GAP=149        0.79       2.8     7.9  5.9 -0.7176E+00 -0.8528E+01 -0.1152E+01E
 Epicentro: ZAPATOCA - SANTANDER                                               3
 ACTION:UP  10-09-07 10:52 OP:vdl  STATUS:               ID:20100807010733 L   I
 2010-08-07-0105-25S.COL___125                                                 6
 STAT SP IPHASW D HRMM SECON CODA AMPLIT PERI AZIMU VELO SNR AR TRES W  DIS CAZ7
 GIR2 SZ ES   2    1 8  2.94                             167     0.2 5   26   7 
 BAR2 SZ IP        1 7 50.30                             166     0.310   28 171 
 BAR2 SZ ES   1    1 8  3.24                             166     0.1 7   28 171 
 BAR2 SZ I         1 8  5.15       104.6 0.59                            28 171 
 BRR  HZ IP     C  1 7 50.90                             151    -0.210   61 298 
 BRR  HN ES   1    1 8  5.32                             151     0.2 7   61 298 
 BRR  HZ I         1 8  7.04        74.6 0.14                            61 298 
 RUS  HZ EP        1 7 54.86                             136    -0.210  106 172 
 RUS  HE ES   1    1 8 11.54                             136    -0.6 7  106 172 
 GUE  SZ EP        1 7 55.42                             134    -0.110  114  17 
 GRA  SZ EP        1 7 56.69                             131     0.510  124  22 
 OCA  SZ EP        1 7 58.92                             124    -0.2 9  155 356 
 OCA  SZ ES   1    1 8 18.85                             124    -0.5 7  155 356 
 OCA  SZ I         1 8 20.20        79.4 0.33                           155 356 
 CHI  HZ EP   1    1 8  9.93                             111     0.0 6  251 193 
 CHI  HN ES   1    1 8 39.06                             111     0.4 6  251 193 
 HEL  HZ I         1 8 45.01        13.2 0.48                           265 254 
 PRA  HZ EP   2    1 8 25.88                             102    -0.1 3  392 208 
 PRA  HN ES   3    1 9  7.56                             102     0.4 1  392 208 
 PRA  HZ I         1 9 16.36         8.6 0.44                           392 208 
                                                                                
