 2017  8 7 0437 29.3 L   6.797 -73.140139.5  RSN  5 0.2 1.1LRSN                1
 GAP=238        0.45       2.6     2.9  3.4  0.1798E+01  0.1068E+01  0.1116E+01E
 Epicentro: LOS SANTOS - SANTANDER                                             3
 ACTION:UPD 17-09-04 20:17 OP:rebc STATUS:               ID:20170807043729 L   I
 OLDACT:DUP 17-08-07 15:11 OP:dhb  STATUS:               ID:20170807042743d    3
 2017-08-07-0428-00M.COL___393                                                 6
 STAT SP IPHASW D HRMM SECON CODA AMPLIT PERI AZIMU VELO AIN AR TRES W  DIS CAZ7
 BAR2 EZ IP     C  437 47.93                             170   -0.1910 23.1 192 
 BAR2 EZ ES        438  2.77                             170   -0.0710 23.1 192 
 BAR2 EZ I         438  5.67         4.1 0.28            170           23.1 192 
 BRR  HZ EP        437 49.72                             151   -0.0510 71.9 299 
 BRR  HN ES        438  5.97                             151    0.2110 71.9 299 
 BRR  HZ I         438  9.90         3.9 0.44            152           71.9 299 
 RUS  HZ EP        437 52.55                             143    0.1910  100 176 
 RUS  HN ES        438 10.38                             143   -0.0110  100 176 
 RUS  HZ I         438 12.60         0.8 0.21            146            100 176 
 PTB  HZ EP   1    437 56.00                             130    0.23 7  148 259 
 PTB  HN ES        438 16.22                             130   -0.22 9  148 259 
 PTB  HZ I         438 19.27         1.4 0.20            133            148 259 
 SPBC HZ IP     D  437 57.17                             128   -0.12 9  163 219 
 SPBC HN ES        438 19.29                             128    0.13 9  163 219 
 SPBC HZ I         438 21.48         1.6 0.09            130            163 219 
                                                                                
