 2012  6 7 0346 26.5 L   6.659 -74.154 22.2  RSN  4 0.2 1.4LRSN                1
 GAP=203        0.45       7.0     2.3  3.5 -0.4142E+01 -0.6040E+01  0.8176E+01E
 Epicentro: PUERTO PARRA - SANTANDER                                           3
 *COD-PTB                                                                      3
 ACTION:UPD 12-08-06 17:47 OP:ep   STATUS:               ID:20120607034623 L   I
 OLDACT:UPD 12-07-16 17:01 OP:ep   STATUS:               ID:20120607034623 L   3
 2012-06-07-0340-00M.COL___201                                                 6
 STAT SP IPHASW D HRMM SECON CODA AMPLIT PERI AZIMU VELO AIN AR TRES W  DIS CAZ7
 PTB  HZ EP   1    346 33.19                             119   -0.10 7 35.9 248 
 PTB  HN ES        346 38.62                             119    0.0310 35.9 248 
 PTB  HZ I         346 38.84        45.4 0.10            129           35.9 248 
 BAR2 SZ EP   1    346 43.84                             100   -0.08 7  108  94 
 BAR2 SZ I         346 57.90         5.3 0.17             61            108  94 
 RUS  HZ EP   1    346 49.42                              56    0.41 7  146 126 
 RUS  HN ES   1    347  6.36                              56   -0.20 7  146 126 
 HEL  HZ EP   1    346 50.65                              56   -0.08 7  161 251 
                                                                                
