 2010  7 7 0934 42.6 L   6.795 -73.135145.6  RSN 12 0.4 2.5LRSN                1
 GAP=157        0.78       3.8     6.5  7.0 -0.1167E+02  0.8655E+01  0.3571E+01E
 Epicentro: LOS SANTOS - SANTANDER                                             3
 ACTION:UPD 10-12-01 15:15 OP:pat  STATUS:               ID:20100707093442 L   I
 2010-07-07-0932-23S.COL___117                                                 6
 STAT SP IPHASW D HRMM SECON CODA AMPLIT PERI AZIMU VELO AIN AR TRES W  DIS CAZ7
 BAR2 SZ IP     D  935  1.96                             170    -0.210   23 193 
 BAR2 SZ ES   2    935 17.82                             170     0.4 5   23 193 
 BRR  HZ IP     C  935  3.79                             152     0.010   73 298 
 BRR  HN ES   2    935 20.73                             152     0.4 5   73 298 
 BRR  HZ I         935 24.91        73.6 0.07                            73 298 
 RUS  HZ EP   1    935  5.90                             144    -0.4 7  100 177 
 RUS  HN ES   2    935 24.80                             144     0.1 5  100 177 
 RUS  HZ I         935 25.53        24.1 0.22                           100 177 
 BRI  SZ EP   1    935  6.44                             141     0.0 7  108  20 
 BRI  SZ ES   2    935 25.29                             141     0.2 5  108  20 
 GUE  SZ EP   1    935  6.86                             139    -0.4 7  117  11 
 GRA  SZ IP     C  935  7.72                             137    -0.110  126  17 
 GRA  SZ ES   2    935 27.41                             137    -0.1 5  126  17 
 OCA  SZ EP   1    935 10.72                             129    -0.2 7  161 353 
 OCA  SZ ES   2    935 33.45                             129     0.4 5  161 353 
 OCA  SZ I         935 36.51        39.3 0.24                           161 353 
 CHI  HZ EP   1    935 20.39                             117     0.2 6  248 195 
 CHI  HZ I         935 59.35        13.3 0.37                           248 195 
 ROSC BZ EP   1    935 21.80                             116     1.1 6  253 211 
 ROSC BN ES   2    935 50.16                             116    -0.3 4  253 211 
 ROSC BZ I         935 59.81        22.1 0.33                           253 211 
 HEL  HZ EP   1    935 23.41                             114     0.5 6  273 256 
 HEL  HE ES   2    935 53.21                             114    -1.1 4  273 256 
 HEL  HZ I         936  1.06        22.1 0.33                           273 256 
 RREF HZ EP   1    935 29.13                             111     0.4 5  322 230 
 RREF HN ES   2    936  3.82                             111    -1.0 3  322 230 
 RREF HZ I         936 14.62        17.3 0.39                           322 230 
 PRA  HZ EP   1    935 36.62                             106     0.5 4  392 210 
 PRA  HE ES   2    936 17.64                             106    -0.2 3  392 210 
 PRA  HZ I         936 22.00        11.7 0.42                           392 210 
                                                                                
