 2017 11 7 0513 55.5 L   6.292 -73.111186.4  RSN 18 0.5 2.1LRSN                1
 GAP= 62        1.19       3.8     3.5  6.4 -0.5687E+00  0.2455E+01  0.6419E+01E
 Epicentro: CHARALA - SANTANDER                                                3
 ACTION:UPD 17-12-12 19:53 OP:rebc STATUS:               ID:20171107051355 L   I
 OLDACT:UP  17-11-07 14:59 OP:dnl  STATUS:               ID:20171107050739d    3
 OLDACT:UP  17-11-07 14:53 OP:dnl  STATUS:               ID:20171107050739d    3
 OLDACT:DUP 17-11-07 14:41 OP:dnl  STATUS:               ID:20171107050739d    3
 OLDACT:UP  17-11-07 14:40 OP:dnl  STATUS:               ID:20171107050738     3
 OLDACT:UP  17-11-07 14:40 OP:dnl  STATUS:               ID:20171107050738     3
 OLDACT:REG 17-11-07 13:04 OP:dnl  STATUS:               ID:20171107050738     3
 2017-11-07-0508-00M.COL___405                                                 6
 STAT SP IPHASW D HRMM SECON CODA AMPLIT PERI AZIMU VELO AIN AR TRES W  DIS CAZ7
 BAR2 EZ IP     D  514 20.27                             169   -0.0110 34.1 347 
 BAR2 EZ ES        514 39.38                             169   -0.2010 34.1 347 
 BAR2 EZ I         514 40.23        55.0 0.34            169           34.1 347 
 BRR  HZ IP     D  514 23.95                             148    0.4810  112 324 
 BRR  HN ES        514 46.43                             148    1.1710  112 324 
 BRR  HZ I         514 50.61        13.4 0.20            147            112 324 
 PAM  EZ EP        514 25.27                             145    0.2510  124  21 
 PAM  EE ES        514 47.65                             145   -0.3510  124  21 
 PAM  EZ I         514 50.09        13.2 0.50            145            124  21 
 YPLC HZ IP     D  514 24.98                             144    0.3110  128 141 
 YPLC HN ES        514 48.19                             144    0.8010  128 141 
 YPLC HZ I         514 49.17         9.8 0.32            143            128 141 
 SPBC HZ EP        514 25.13                             144    0.4410  128 236 
 SPBC HE ES        514 47.04                             144   -0.3810  128 236 
 SPBC HZ I         514 51.61        32.3 0.28            143            128 236 
 TAM  HZ EP        514 26.09                             140    0.04 9  147  84 
 TAM  HZ I         514 48.18         7.3 0.32            139            147  84 
 TAM  HE ES        514 48.93                             140   -0.92 9  147  84 
 PTB  HZ EP        514 26.03                             139   -0.33 9  151 281 
 PTB  HN ES        514 49.82                             139   -0.58 9  151 281 
 PTB  HZ I         514 53.53         8.6 0.16            138            151 281 
 CHI  HZ EP        514 31.16                             132    0.40 9  196 201 
 CHI  HN ES        514 58.11                             132   -0.12 9  196 201 
 CHI  HZ I         515  4.11         7.7 0.40            131            196 201 
 ROSC BZ EP   2    514 32.77                             130    0.85 4  209 220 
 ROSC BN ES   4    515  2.35                             130    2.06 0  209 220 
 ROSC BZ I         515  5.85        17.0 0.40            129            209 220 
 NOR  HZ EP   4    514 33.71                             129    2.10 0  211 248 
 NOR  HN ES   4    514 58.80                             129   -0.95 0  211 248 
 NOR  HZ I         515  6.15         8.8 0.20            129            211 248 
 ZAR  HZ EP   2    514 33.31                             126   -0.52 4  234 305 
 ZAR  HE ES        515  3.23                             126   -0.46 8  234 305 
 ZAR  HZ I         515 11.73        11.2 0.28            125            234 305 
 PTGC HZ IP     D  514 35.06                             124   -0.89 8  256 155 
 PTGC HN ES   4    515  4.53                             124   -2.93 0  256 155 
 PTGC HZ I         515  6.99         3.4 0.66            123            256 155 
 GUY2CHZ EP   4    514 40.83                             122    2.15 0  276 245 
 GUY2CHN ES        515 12.60                             122    0.27 7  276 245 
 GUY2CHZ I         515 21.44         4.4 0.34                           276 245 
 URE  HZ EP   2    514 41.27                             118   -0.65 3  312 301 
 URE  HE ES   4    515 15.69                             118   -2.41 0  312 301 
 URE  HZ I         515 19.02         7.1 0.16            118            312 301 
 CBOC HZ EP   4    514 44.43                             117    1.00 0  325 262 
 CBOC HN ES        515 20.71                             117   -0.08 7  325 262 
 CBOC HZ I         515 27.34         4.0 0.52            117            325 262 
 PRA  HZ EP        514 45.47                             116   -0.18 6  346 215 
 PRA  HN ES   4    515 23.44                             116   -1.29 0  346 215 
 PRA  HZ I         515 27.55         6.9 0.28            115            346 215 
 ORTC HZ EP        514 46.76                             115    0.25 6  354 222 
 ORTC HE ES        515 25.61                             115   -0.65 6  354 222 
 ORTC HZ I         515 30.87         3.5 0.46            114            354 222 
 SJC  HZ EP        514 58.25                             109   -0.16 5  459 330 
 SJC  HN ES   4    515 42.01                             109   -5.44 0  459 330 
 SJC  HZ I         515 45.93         1.4 0.44            109            459 330 
                                                                                
