 2017  6 7 0553 28.7 L   6.787 -73.127160.0  RSN  9 0.4 1.7LRSN                1
 GAP=210        0.94       4.3     6.2  8.1  0.9762E+01 -0.3461E+01 -0.4061E+01E
 Epicentro: LOS SANTOS - SANTANDER                                             3
 ACTION:UPD 17-09-14 16:50 OP:jn   STATUS:               ID:20170607055328 L   I
 OLDACT:UP  17-06-07 16:22 OP:edw  STATUS:               ID:20170607054746d    3
 OLDACT:UP  17-06-07 16:19 OP:edw  STATUS:               ID:20170607054746d    3
 OLDACT:DUP 17-06-07 16:13 OP:edw  STATUS:               ID:20170607054746d    3
 OLDACT:UP  17-06-07 16:13 OP:edw  STATUS:               ID:20170607054745     3
 OLDACT:UP  17-06-07 16:12 OP:edw  STATUS:               ID:20170607054745     3
 OLDACT:REG 17-06-07 12:05 OP:edw  STATUS:               ID:20170607054745     3
 2017-06-07-0548-00M.COL___365                                                 6
 STAT SP IPHASW D HRMM SECON CODA AMPLIT PERI AZIMU VELO AIN AR TRES W  DIS CAZ7
 BRR  HZ EP        553 51.77                             154    0.2410 73.7 299 
 BRR  HN ES        554  9.20                             154   -0.1410 73.7 299 
 BRR  HZ I         554 12.16         6.3 0.28            151           73.7 299 
 RUS  HZ EP        553 54.34                             147    0.5710 99.0 177 
 RUS  HN ES        554 12.91                             147   -0.4210 99.0 177 
 RUS  HZ I         554 13.74         4.7 0.40            147           99.0 177 
 PTB  HZ EP        553 57.33                             134    0.32 9  149 260 
 PTB  HE ES        554 19.46                             134    0.36 9  149 260 
 PTB  HZ I         554 23.04         5.6 0.46            133            149 260 
 SPBC HZ EP   4    553 58.98                             132    0.64 0  163 220 
 SPBC HE ES        554 21.42                             132   -0.05 9  163 220 
 SPBC HZ I         554 27.22         5.7 0.26            131            163 220 
 ZAR  HZ EP   4    554  8.42                             125    6.07 0  206 292 
 ZAR  HE ES        554 28.30                             125   -0.30 8  206 292 
 ZAR  HZ I         554 33.63         5.9 0.34            124            206 292 
 NOR  HE ES   2    554 34.50                             121    0.51 4  236 235 
 CHI  HN ES        554 36.79                             120   -0.33 8  248 196 
 ROSC BE ES   2    554 37.23                             119   -0.74 4  253 212 
 HEL  HE ES   4    554 40.59                             117   -1.36 0  274 256 
 PTGC HN ES   4    554 45.61                             114   -1.94 0  307 159 
 SJC  HZ EP        554 23.91                             108   -1.12 6  412 327 
 SJC  HN ES   4    555  6.24                             108   -2.73 0  412 327 
                                                                                
