 2011  2 7 0447 31.5 L   6.782 -73.062148.0  RSN  7 0.2 2.0LRSN                1
 GAP=168        0.50       2.1     6.2  4.9 -0.5361E+01  0.1260E+02 -0.7580E+00E
 Epicentro: LOS SANTOS - SANTANDER                                             3
 ACTION:UP  11-03-28 15:06 OP:jfem STATUS:               ID:20110207044731 L   I
 2011-02-07-0444-25S.COL___138                                                 6
 STAT SP IPHASW D HRMM SECON CODA AMPLIT PERI AZIMU VELO SNR AR TRES W  DIS CAZ7
 BAR2 SZ EP   1    447 51.28                             170    -0.2 7   25 213 
 BAR2 SZ ES   2    448  6.83                             170    -0.2 5   25 213 
 BAR2 SZ I         448  8.20        16.2 0.36                            25 213 
 RUS  HZ EP        447 55.26                             145    -0.110   98 181 
 RUS  HN ES   1    448 14.12                             145     0.2 7   98 181 
 RUS  HZ I         448 15.38        11.6 0.50                            98 181 
 GRA  SZ EP        447 57.09                             138     0.210  125  13 
 GRA  SZ ES   1    448 17.05                             138     0.3 7  125  13 
 GRA  SZ I         448 19.66        10.9 0.29                           125  13 
 OCA  SZ EP        448  0.08                             130    -0.3 9  164 350 
 OCA  SZ ES   1    448 22.66                             130    -0.1 7  164 350 
 OCA  SZ I         448 26.77        16.1 0.35                           164 350 
 NOR  SZ EP   1    448  8.39                             118     0.3 6  241 236 
 CHI  HZ EP        448  9.38                             118     0.0 8  249 197 
 CHI  HE ES   2    448 38.64                             118    -0.3 4  249 197 
 CHI  HZ I         448 44.80         5.7 0.53                           249 197 
 GUY  SZ EP   1    448 16.19                             112     0.2 5  308 236 
 GUY  SN ES   2    448 50.90                             112     0.2 4  308 236 
 GUY  SZ I         448 57.00        10.2 0.40                           308 236 
                                                                                
