 2011  6 7 0039 32.2 L   6.553 -73.589  5.8  RSN  6 0.3 0.9LRSN                1
 GAP=205        0.61       2.6     3.7111.5  0.5270E+01  0.1793E+03  0.8770E+02E
 Epicentro: EL CARMEN DE CHUCURI - SANTANDER                                   3
 ACTION:UP  11-07-14 19:03 OP:ep   STATUS:               ID:20110607003932 L   I
 2011-06-07-0037-55S.COL___132                                                 6
 STAT SP IPHASW D HRMM SECON CODA AMPLIT PERI AZIMU VELO SNR AR TRES W  DIS CAZ7
 BAR2 SZ EP   2    039 40.40                              93     0.5 5   45  85 
 BAR2 SZ ES   1    039 46.02                              93     0.1 7   45  85 
 BAR2 SZ I         039 47.09         7.7 0.23                            45  85 
 BTL  SZ EP   1    039 41.22                              92     0.0 7   54  41 
 BRR  HZ EP   1    039 42.15                              92    -0.2 7   63 347 
 BRR  HZ I         039 46.31         7.2 0.36                            63 347 
 BRR  HE ES   1    039 50.27                              92     0.1 7   63 347 
 RUS  HZ EP   1    039 47.31                              91     0.0 7   92 143 
 RUS  HE ES   2    039 58.74                              91    -0.3 5   92 143 
 RUS  HZ I         039 59.71         2.0 0.55                            92 143 
 PAM  SZ EP   2    039 53.26                              91     0.1 5  131  48 
 PAM  SN ES   2    040  8.68                              91    -0.9 5  131  48 
 GRA  SZ ES   2    040 20.12                              91     0.5 4  171  30 
 GRA  SZ I         040 22.80         2.8 0.29                           171  30 
                                                                                
