 2012  9 7 0459 46.9 L   6.773 -73.106142.0  RSN  7 0.4 1.9LRSN                1
 GAP=143        0.80       5.7     5.3  7.3  0.5584E+00  0.1640E+02  0.1137E+02E
 Epicentro: LOS SANTOS - SANTANDER                                             3
 ACTION:UPD 12-10-22 14:17 OP:ep   STATUS:               ID:20120907045946 L   I
 2012-09-07-0457-59S.COL___226                                                 6
 STAT SP IPHASW D HRMM SECON CODA AMPLIT PERI AZIMU VELO AIN AR TRES W  DIS CAZ7
 BAR2 SZ EP   1    5 0  6.17                             171    0.11 7 21.7 203 
 BAR2 SZ ES   1    5 0 20.80                             171   -0.19 7 21.7 203 
 BAR2 SZ I         5 0 23.58        15.8 0.18                          21.7 203 
 GIR2 SZ ES   1    5 0 20.87                             165   -0.46 7 35.2 344 
 BRR  HZ EP   1    5 0  8.01                             150    0.04 7 76.5 299 
 BRR  HN ES   1    5 0 24.62                             150    0.23 7 76.5 299 
 BRR  HZ I         5 0 28.63        29.1 0.13                          76.5 299 
 PAM  SN ES   1    5 0 26.06                             150    0.35 7 77.0  36 
 RUS  HZ EP   1    5 0 10.52                             144    0.46 7 97.4 179 
 RUS  HN ES   1    5 0 28.01                             144   -0.11 7 97.4 179 
 RUS  HZ I         5 0 30.18         9.2 0.28                          97.4 179 
 PTB  HZ EP   1    5 0 12.94                             130   -0.99 7  152 260 
 PTB  HE ES   1    5 0 35.16                             130    0.16 7  152 260 
 HEL  HZ EP   1    5 0 27.14                             114   -0.19 6  276 257 
 HEL  HE ES   1    5 0 59.54                             114    0.68 6  276 257 
                                                                                
