 2017  7 7 0742 41.4 L   6.503 -73.031134.0  RSN  6 0.2 1.5LRSN                1
 GAP=128        1.12       5.4     4.8  7.8  0.1009E+02  0.6266E+01  0.9519E+01E
 Epicentro: MOGOTES - SANTANDER                                                3
 ACTION:UPD 17-08-30 15:30 OP:rebc STATUS:               ID:20170707074241 L   I
 OLDACT:REG 17-07-07 13:29 OP:ar   STATUS:               ID:20170707073741     3
 2017-07-07-0738-00M.COL___365                                                 6
 STAT SP IPHASW D HRMM SECON CODA AMPLIT PERI AZIMU VELO AIN AR TRES W  DIS CAZ7
 BAR2 EZ EP   9    743  1.22                             172    1.67 0 19.4 300 
 BAR2 EZ ES        743 16.58                                    1.2110 19.4 300 
 BAR2 EZ I         743 17.37         8.3 0.26            170           19.4 300 
 PAM  EZ EP        743  4.13                             143    0.1910 99.5  22 
 PAM  EN ES        743 21.41                             143   -0.1010 99.5  22 
 PAM  EZ I         743 23.63         3.4 0.50            148           99.5  22 
 BRR  HZ EP        743  3.10                             142   -0.2410  101 312 
 BRR  HE ES        743 20.61                             142    0.1710  101 312 
 BRR  HZ I         743 24.50         3.5 0.62            144            101 312 
 YPLC HZ EP        743  6.73                             132   -0.26 9  142 149 
 YPLC HE ES        743 27.20                             132    0.25 9  142 149 
 YPLC HZ I         743 28.47         9.2 0.20            136            142 149 
 PTB  HZ EP        743  8.19                             129   -0.21 9  158 272 
 PTB  HN ES        743 29.49                             129    0.04 9  158 272 
 PTB  HZ I         743 36.41         3.5 0.38            130            158 272 
 ZAR  HZ EP        743 16.30                             118    0.43 8  230 299 
 ZAR  HN ES        743 42.51                             118   -0.23 8  230 299 
 ZAR  HZ I         743 45.30         2.6 0.36            120            230 299 
                                                                                
