 2010  7 7 0419 58.2 L   6.807 -73.037148.3  RSN  4 0.3 1.2LRSN                1
 GAP=168        0.78       6.9    14.6 19.5  0.1013E+02 -0.1750E+03 -0.5339E+02E
 Epicentro: CEPITA - SANTANDER                                                 3
 ACTION:UPD 10-12-01 15:15 OP:pat  STATUS:               ID:20100707041958 L   I
 2010-07-07-0416-46S.COL___118                                                 6
 STAT SP IPHASW D HRMM SECON CODA AMPLIT PERI AZIMU VELO AIN AR TRES W  DIS CAZ7
 BRR  HZ EP   1    420 20.08                             149    -0.1 8   82 294 
 BRR  HN ES   2    420 37.51                             149     0.1 5   82 294 
 BRR  HZ I         420 45.96         5.6 0.58                            82 294 
 RUS  HZ EP   1    420 22.29                             144     0.1 8  101 183 
 RUS  HN ES   2    420 40.95                             144     0.0 5  101 183 
 RUS  HZ I         420 43.43         1.5 0.22                           101 183 
 BRI  SZ EP        420 21.55                             143    -0.410  104  15 
 GRA  SZ EP        420 23.77                             138     0.410  122  12 
                                                                                
