 2014  3 7 0236 49.4 L   6.825 -73.142143.3  RSN 19 0.5 2.2LRSN                1
 GAP= 70        1.12       2.8     3.4  6.1 -0.9954E+00  0.6912E+01 -0.1461E+01E
 Epicentro: LOS SANTOS - SANTANDER                                             3
 ACTION:UPD 14-04-09 23:15 OP:nd   STATUS:               ID:20140307023649 L   I
 OLDACT:REG 14-03-07 09:05 OP:nd   STATUS:               ID:20140307023040     3
 2014-03-07-0230-40M.COL___219                                                 6
 STAT SP IPHASW D HRMM SECON CODA AMPLIT PERI AZIMU VELO AIN AR TRES W  DIS CAZ7
 BAR2 SZ EP        237  8.82                             169    0.0710 26.2 190 
 BAR2 SZ ES        237 23.79                             169   -0.0910 26.2 190 
 BAR2 SZ I         237 25.45       116.7 0.16            169           26.2 190 
 PAM  SZ EP     C  237 11.82                             151    0.6510 75.0  41 
 PAM  SN ES        237 28.44                             151    0.2610 75.0  41 
 PAM  SZ I         237 30.97        51.9 0.50            153           75.0  41 
 RUS  HZ EP        237 12.87                             142   -0.2010  103 176 
 RUS  HN ES        237 31.19                             142   -0.3710  103 176 
 RUS  HZ I         237 32.51         9.4 0.26            145            103 176 
 PTB  HZ EP        237 15.49                             131   -0.72 9  149 258 
 PTB  HN ES   2    237 36.69                             131   -0.47 5  149 258 
 PTB  HZ I         237 42.16        21.9 0.30            130            149 258 
 TAM  HZ EP     C  237 17.29                             130    0.42 9  155 106 
 TAM  HN ES        237 38.56                             130    0.23 9  155 106 
 TAM  HZ I         237 39.74         7.7 0.62            134            155 106 
 OCA  HZ EP        237 16.91                             130   -0.31 9  158 353 
 OCA  HN ES        237 38.99                             130    0.04 9  158 353 
 OCA  HZ I         237 47.11        22.2 0.70            130            158 353 
 SPBC HZ EP        237 17.81                             128   -0.09 9  166 218 
 SPBC HN ES        237 40.17                             128    0.01 9  166 218 
 SPBC HZ I         237 46.92        19.6 0.22            128            166 218 
 ZAR  HZ EP        237 21.36                             122   -0.21 9  203 291 
 ZAR  HN ES        237 46.87                             122    0.17 9  203 291 
 ZAR  HZ I         237 55.33        15.7 0.28            121            203 291 
 NOR  HZ EP        237 25.21                             118    0.06 8  237 234 
 NOR  HN ES        237 53.11                             118    0.03 8  237 234 
 NOR  HZ I         237 59.13        10.8 0.14            118            237 234 
 SML  HZ EP        237 25.18                             117   -0.41 8  241 335 
 SML  HN ES        237 53.02                             117   -0.83 8  241 335 
 SML  HZ I         237 58.65        27.5 0.28            117            241 335 
 CHI  HZ EP        237 27.11                             116   -0.11 8  251 195 
 CHI  HN ES        237 56.11                             116   -0.65 8  251 195 
 CHI  HZ I         238  0.24        11.5 0.40            118            251 195 
 ROSC BZ EP   4    237 28.63                             116    1.00 0  255 211 
 ROSC BN ES   4    237 58.48                             116    1.00 0  255 211 
 ROSC BZ I         238  5.69        15.1 0.45            117            255 211 
 HEL  HZ EP        237 30.27                             114    0.71 8  273 255 
 HEL  HN ES        238  2.57                             114    1.64 8  273 255 
 HEL  HZ I         238  9.05         8.9 0.28            114            273 255 
 URE  HZ EP   4    237 28.84                             113   -1.39 0  283 291 
 URE  HN ES   4    237 59.43                             113   -2.69 0  283 291 
 URE  HZ I         238  9.23        14.4 0.30            113            283 291 
 GUY2CHZ EP   4    237 34.93                             112    1.86 0  303 234 
 GUY2CHN ES   4    238 10.20                             112    3.03 0  303 234 
 GUY2CHZ I         238 17.24         7.6 0.48                           303 234 
 PTGC HZ EP   4 D  237 32.15                             111   -1.23 0  311 159 
 PTGC HN ES   4    238  5.38                             111   -2.34 0  311 159 
 PTGC HZ I         238 12.09        16.3 0.40            113            311 159 
 CBOC HZ EP   4    237 37.31                             109    1.00 0  335 252 
 CBOC HN ES   4    238 13.05                             109    0.11 0  335 252 
 CBOC HZ I         238 15.27         2.3 0.24            110            335 252 
 COD  HZ EP        237 37.41                             109    0.09 6  346 354 
 COD  HN ES   4    238 13.27                             109   -1.46 0  346 354 
 COD  HZ I         238 23.83         4.9 0.46            109            346 354 
 SJC  HZ EP   4    237 43.26                             105   -1.33 0  407 327 
 SJC  HN ES   4    238 21.32                             105   -6.35 0  407 327 
 SJC  HZ I         238 38.95         4.3 0.62            106            407 327 
                                                                                
