 2017 10 7 0213 41.4 L   6.905 -73.083146.1  RSN 10 0.5 1.6LRSN                1
 GAP=190        0.99       3.9     4.8  6.1  0.6430E+01  0.6407E+01 -0.2261E+01E
 Epicentro: PIEDECUESTA - SANTANDER                                            3
 ACTION:UPD 17-11-07 19:29 OP:rebc STATUS:               ID:20171007021341 L   I
 OLDACT:UP  17-10-07 14:19 OP:dhb  STATUS:               ID:20171007020744     3
 OLDACT:REG 17-10-07 12:26 OP:dhb  STATUS:               ID:20171007020744     3
 2017-10-07-0208-00M.COL___438                                                 6
 STAT SP IPHASW D HRMM SECON CODA AMPLIT PERI AZIMU VELO AIN AR TRES W  DIS CAZ7
 BAR2 EZ IP     D  214  1.88                             166    0.4710 36.3 198 
 BAR2 EZ ES        214 16.93                             166   -0.0810 36.3 198 
 BAR2 EZ I         214 19.60         8.5 0.34            162           36.3 198 
 RUS  HZ EP        214  6.29                             141    0.2510  112 180 
 RUS  HN ES     C  214 25.04                             141   -0.2210  112 180 
 RUS  HZ I         214 27.38         4.0 0.38            141            112 180 
 SPBC HZ EP        214 10.87                             127   -0.35 9  177 218 
 SPBC HE ES        214 34.37                             127   -0.10 9  177 218 
 SPBC HZ I         214 40.07         6.9 0.21            126            177 218 
 YPLC HZ IP     D  214 12.09                             126    0.15 9  184 155 
 YPLC HN ES        214 35.83                             126    0.07 9  184 155 
 YPLC HZ I         214 36.96         4.8 0.24            128            184 155 
 ZAR  HZ EP        214 14.47                             122    0.35 8  206 288 
 ZAR  HE ES        214 40.39                             122    0.75 8  206 288 
 ZAR  HZ I         214 46.46         3.8 0.16            122            206 288 
 NOR  HZ EP        214 17.98                             117   -0.51 8  247 233 
 NOR  HE ES        214 46.64                             117   -0.78 8  247 233 
 NOR  HZ I         214 53.64         4.2 0.20            117            247 233 
 CHI  HZ EP        214 20.29                             116   -0.26 8  262 196 
 CHI  HE ES        214 50.52                             116   -0.56 8  262 196 
 CHI  HZ I         214 59.12         1.3 0.38            116            262 196 
 GUY2CHZ EP        214 27.24                             112    0.81 7  314 234 
 GUY2CHE ES   3    215  3.38                             112    1.83 2  314 234 
 GUY2CHZ I         215  7.34         2.2 0.13                           314 234 
 SJC  HZ EP        214 35.79                             106   -0.51 6  403 325 
 SJC  HE ES        215 18.32                             106   -0.79 6  403 325 
 SJC  HZ I         215 25.49         1.2 0.53            107            403 325 
 PRA  HZ EP        214 36.45                             106   -0.07 6  406 210 
 PRA  HE ES        215 20.30                             106    0.79 6  406 210 
 PRA  HZ I         215 26.23         1.2 0.64            107            406 210 
                                                                                
