 2012  2 7 0933 37.2 L   6.767 -73.126153.8  RSN  8 0.4 1.9LRSN                1
 GAP=185        0.79       4.0     5.7  6.2 -0.1373E+01  0.4901E+01 -0.3291E+01E
 ACTION:UP  12-03-07 16:28 OP:epov STATUS:               ID:20120207093337 L   I
 2012-02-07-0930-00M.COL___187                                                 6
 STAT SP IPHASW D HRMM SECON CODA AMPLIT PERI AZIMU VELO AIN AR TRES W  DIS CAZ7
 BAR2 SZ EP        933 57.77                             172    0.0110 20.3 198 
 BAR2 SZ ES   1    934 13.21                             172   -0.57 7 20.3 198 
 BAR2 SZ I         934 14.00        15.8 0.39                          20.3 198 
 GIR2 SZ EP        933 57.90                             166   -0.0510 35.2 348 
 GIR2 SZ ES   1    934 13.91                             166   -0.22 7 35.2 348 
 BRR  HZ EP        933 59.60                             153    0.1610 74.8 300 
 BRR  HZ I         933 59.90        36.8 0.17                          74.8 300 
 BRR  HE ES   1    934 17.19                             153    0.42 7 74.8 300 
 RUS  HZ EP   1    934  1.91                             147    0.40 7 96.9 177 
 RUS  HN ES   1    934 20.69                             147    0.23 7 96.9 177 
 RUS  HZ I         934 21.60         6.4 0.29                          96.9 177 
 PTB  HZ EP   1    934  4.39                             133   -0.59 7  149 260 
 PTB  HE ES   2    934 26.48                             133   -0.15 5  149 260 
 OCA  SZ EP        934  6.00                             131   -0.51 9  164 353 
 OCA  SZ ES   1    934 30.16                             131    0.79 7  164 353 
 ZAR  HZ EP   2    934 11.00                             124    0.47 4  207 293 
 ZAR  HE ES   2    934 36.13                             124   -0.40 4  207 293 
 ZAR  HZ I         934 42.82         6.9 0.13                           207 293 
 NOR  SN ES   1    934 41.83                             120    0.22 6  234 235 
                                                                                
