 2017 11 7 0959  5.9 L   6.798 -73.132146.3  RSN  5 0.3 1.4LRSN                1
 GAP=262        0.70       3.9     4.9  5.8  0.5429E+01  0.6110E+01  0.4489E+00E
 Epicentro: LOS SANTOS - SANTANDER                                             3
 ACTION:UPD 17-12-12 19:53 OP:rebc STATUS:               ID:20171107095905 L   I
 OLDACT:REG 17-11-07 13:35 OP:dnl  STATUS:               ID:20171107094742     3
 2017-11-07-0948-00M.COL___405                                                 6
 STAT SP IPHASW D HRMM SECON CODA AMPLIT PERI AZIMU VELO AIN AR TRES W  DIS CAZ7
 BAR2 EZ EP        959 25.67                             170    0.1110 23.4 194 
 BAR2 EZ ES        959 40.86                             170   -0.0610 23.4 194 
 BAR2 EZ I         959 42.12         4.9 0.26            167           23.4 194 
 PTB  HZ EP        959 32.41                             132   -0.59 9  149 259 
 PTB  HE ES        959 54.07                             132   -0.09 9  149 259 
 PTB  HZ I         959 54.48         1.9 0.14            130            149 259 
 SPBC HZ EP        959 34.64                             129    0.17 9  164 219 
 SPBC HN ES        959 57.16                             129    0.37 9  164 219 
 SPBC HZ I        10 0  3.63         4.4 0.32            128            164 219 
 ZAR  HZ EP        959 38.55                             122    0.06 8  205 292 
 ZAR  HE ES       10 0  4.14                             122    0.20 8  205 292 
 ZAR  HZ I        10 0 13.94         3.2 0.44            122            205 292 
 CHI  HZ EP   2    959 44.29                             117    0.69 4  249 196 
 CHI  HN ES       10 0 12.71                             117   -0.34 8  249 196 
 CHI  HZ I        10 0 14.65         1.5 0.42            118            249 196 
                                                                                
