 2012  8 7 0859 23.7 L   6.784 -73.136146.6  RSN 14 0.3 2.5LRSN                1
 GAP= 72        0.69       2.8     3.0  4.1 -0.7940E+00  0.2604E+01  0.3341E+01E
 Epicentro: LOS SANTOS - SANTANDER                                             3
 ACTION:UPD 12-09-10 11:55 OP:ep   STATUS:               ID:20120807085923 L   I
 2012-08-07-0854-38M.COL___206                                                 6
 STAT SP IPHASW D HRMM SECON CODA AMPLIT PERI AZIMU VELO AIN AR TRES W  DIS CAZ7
 BAR2 SZ IP        859 43.48                             171    0.1010 21.8 194 
 BAR2 SZ ES   1    859 58.56                             171   -0.18 7 21.8 194 
 BAR2 SZ I         9 0  0.21        59.1 0.28                          21.8 194 
 GIR2 SZ EP        859 43.59                             167    0.0810 33.2 349 
 BRR  HZ EP        859 45.44                             152    0.4210 73.0 299 
 BRR  HN ES        9 0  2.09                             152    0.4310 73.0 299 
 BRR  HZ I         9 0  4.79        73.8 0.17                          73.0 299 
 PAM  SZ EP        859 46.30                             151    0.2710 78.1  38 
 PAM  SE ES        9 0  3.06                             151   -0.4010 78.1  38 
 RUS  HZ EP        859 47.35                             144   -0.0310 98.7 177 
 RUS  HE ES   1    9 0  5.54                             144   -0.33 7 98.7 177 
 RUS  HZ I         9 0  7.73        26.7 0.41                          98.7 177 
 PTB  HZ EP        859 50.22                             132   -0.56 9  148 260 
 PTB  HZ I         9 0 17.33        36.9 0.31                           148 260 
 TAM  HZ EP        859 51.57                             131    0.28 9  154 104 
 OCA  HZ EP   1    859 51.76                             129   -0.48 7  162 353 
 ZAR  HZ EP   1    859 55.96                             122   -0.39 6  206 292 
 ZAR  HN ES   1    9 0 21.54                             122   -0.29 6  206 292 
 ZAR  HZ I         9 0 27.92        43.4 0.25                           206 292 
 NOR  SZ EP   1    859 59.33                             119   -0.11 6  235 235 
 NOR  SN ES   1    9 0 27.55                             119    0.22 6  235 235 
 CHI  HZ EP   1    9 0  1.31                             117    0.04 6  247 196 
 CHI  HZ I         9 0  2.50        12.8 0.33                           247 196 
 CHI  HN ES   1    9 0 30.57                             117   -0.02 6  247 196 
 HEL  HZ EP        9 0  4.20                             115    0.20 8  273 256 
 HEL  HZ I         9 0 42.39        19.2 0.42                           273 256 
 GUY  SZ EP   1    9 0  7.95                             112    0.37 5  303 235 
 GUY  SZ I         9 0 50.96        41.0 0.36                           303 235 
 PRA  HZ EP        9 0 16.82                             107   -0.29 6  391 210 
 PRA  HN ES   1    9 0 58.79                             107    0.00 4  391 210 
                                                                                
