 2013 11 7 0421  9.0 L   6.640 -73.203142.3  RSN  5 0.5 1.3LRSN                1
 GAP=205        1.09       8.7     9.4  9.2  0.4919E+02  0.1355E+02  0.4471E+01E
 Epicentro: BARICHARA - SANTANDER                                              3
 ACTION:UPD 14-01-09 16:26 OP:ep   STATUS:               ID:20131107042109 L   I
 OLDACT:REG 13-11-07 06:22 OP:jn   STATUS:               ID:20131107042000     3
 2013-11-07-0420-00M.COL___273                                                 6
 STAT SP IPHASW D HRMM SECON CODA AMPLIT PERI AZIMU VELO AIN AR TRES W  DIS CAZ7
 BAR2 SZ EP        421 27.76                             177   -0.2410 5.78 157 
 BAR2 SZ ES        421 42.13                             177   -0.6810 5.78 157 
 BAR2 SZ I         421 43.98         8.4 0.20            176           5.78 157 
 BRR  HZ EP        421 30.12                             150    0.0210 76.4 313 
 BRR  HN ES        421 47.10                             150    0.5610 76.4 313 
 BRR  HZ I         421 48.46         3.3 0.36            152           76.4 313 
 RUS  HZ EP        421 31.79                             148    0.5210 83.7 171 
 RUS  HN ES        421 48.84                             148    0.2210 83.7 171 
 RUS  HZ I         421 51.28         2.9 0.32            149           83.7 171 
 PTB  HZ EP   1    421 34.10                             133   -0.82 7  139 265 
 PTB  HN ES   1    421 55.17                             133    0.04 7  139 265 
 PTB  HZ I         421 55.88         2.6 0.60            134            139 265 
 ZAR  HE ES   2    422  6.68                             121   -0.00 4  206 297 
                                                                                
