 2014  1 7 0405 23.2 L   6.805 -73.157143.0  RSN 10 0.4 1.6LRSN                1
 GAP=135        1.05       3.5     4.2  6.6 -0.3683E+01  0.1316E+02 -0.4151E+01E
 Epicentro: LOS SANTOS - SANTANDER                                             3
 ACTION:UPD 14-03-13 09:52 OP:ep   STATUS:               ID:20140107040523 L   I
 OLDACT:REG 14-01-07 08:04 OP:carl STATUS:               ID:20140107040000     3
 2014-01-07-0400-00M.COL___285                                                 6
 STAT SP IPHASW D HRMM SECON CODA AMPLIT PERI AZIMU VELO AIN AR TRES W  DIS CAZ7
 BAR2 SZ EP        4 5 42.62                             170    0.1510 23.6 187 
 BAR2 SZ ES        4 5 57.84                             170    0.3210 23.6 187 
 BAR2 SZ I         4 5 58.62        11.7 0.60            170           23.6 187 
 PAM  SZ EP        4 5 45.50                             150    0.3910 77.8  41 
 PAM  SN ES        4 6  2.29                             150    0.0610 77.8  41 
 PAM  SZ I         4 6  4.51         3.8 0.50            154           77.8  41 
 RUS  HZ EP        4 5 46.53                             143   -0.1610  101 175 
 RUS  HN ES        4 6  4.25                             143   -0.7910  101 175 
 RUS  HZ I         4 6  5.99         1.8 0.26            147            101 175 
 PTB  HZ EP        4 5 49.75                             132   -0.05 9  147 259 
 PTB  HN ES        4 6 10.36                             132   -0.21 9  147 259 
 PTB  HZ I         4 6 12.80         8.0 0.12            132            147 259 
 SPBC HZ EP        4 5 51.69                             128    0.28 9  163 219 
 SPBC HN ES        4 6 13.62                             128    0.18 9  163 219 
 SPBC HZ I         4 6 18.21         5.0 0.18            130            163 219 
 ZAR  HZ EP        4 5 55.67                             122    0.39 9  203 292 
 ZAR  HN ES        4 6 20.55                             122    0.21 9  203 292 
 ZAR  HZ I         4 6 29.63         4.2 0.62            123            203 292 
 NOR  HZ EP        4 5 57.90                             118   -0.75 8  234 234 
 NOR  HN ES        4 6 27.25                             118    0.92 8  234 234 
 NOR  HZ I         4 6 32.10         4.7 0.20            120            234 234 
 SML  HZ EP        4 5 59.30                             117   -0.22 8  243 336 
 SML  HN ES        4 6 27.22                             117   -0.67 8  243 336 
 SML  HZ I         4 6 32.64         6.0 0.26            118            243 336 
 GUY2CHN ES        4 6 40.20                             112   -0.20 7  300 235 
 GUY2CHN I         4 6 48.77         3.3 0.52                           300 235 
 CBOC HZ EP        4 6 10.43                             109    0.59 7  333 252 
 CBOC HN ES        4 6 45.61                             109   -0.63 7  333 252 
 CBOC HZ I         4 6 50.91         1.0 0.42            111            333 252 
                                                                                
