 2014  1 7 0915 26.9 L   6.814 -73.159143.7  RSN  7 0.4 1.4LRSN                1
 GAP=200        0.94       3.5     4.9  6.6  0.4598E+01  0.6049E+01 -0.4094E+01E
 Epicentro: LOS SANTOS - SANTANDER                                             3
 ACTION:UPD 14-03-13 09:52 OP:ep   STATUS:               ID:20140107091526 L   I
 OLDACT:DUP 14-01-07 11:58 OP:carl STATUS:               ID:20140107091001d    3
 2014-01-07-0910-00M.COL___285                                                 6
 STAT SP IPHASW D HRMM SECON CODA AMPLIT PERI AZIMU VELO AIN AR TRES W  DIS CAZ7
 BAR2 SZ EP        915 46.51                             170    0.2010 24.6 186 
 BAR2 SZ ES        916  1.38                             170   -0.0710 24.6 186 
 BAR2 SZ I         916  3.23         6.5 0.14            164           24.6 186 
 RUS  HZ EP        915 50.59                             143    0.0210  102 175 
 RUS  HN ES        916  8.93                             143   -0.1010  102 175 
 RUS  HZ I         916 10.43         2.4 0.34            143            102 175 
 PTB  HZ EP        915 53.13                             132   -0.46 9  147 258 
 PTB  HN ES        916 14.15                             132   -0.27 9  147 258 
 PTB  HZ I         916 21.53         2.6 0.32            129            147 258 
 ZAR  HZ EP        915 58.86                             122   -0.15 9  202 292 
 ZAR  HN ES        916 25.04                             122    0.98 9  202 292 
 ZAR  HZ I         916 31.50         1.5 0.28            121            202 292 
 NOR  HE ES        916 29.67                             118   -0.56 8  234 234 
 NOR  HZ I         916 38.41         2.2 0.16            117            234 234 
 SML  HZ EP        916  3.00                             117   -0.19 8  242 335 
 SML  HN ES        916 31.42                             117   -0.08 8  242 335 
 SML  HZ I         916 34.88         4.4 0.28            118            242 335 
 CHI  HZ EP        916  4.80                             117    0.20 8  250 195 
 CHI  HN ES        916 34.65                             117    0.64 8  250 195 
 CHI  HZ I         916 40.34         1.2 0.32            117            250 195 
                                                                                
