 2013  3 7 0645 42.1 L   6.738 -73.165155.7  RSN  5 0.2 1.5LRSN                1
 GAP=198        0.50       4.4     8.7  5.1  0.3055E+02 -0.1411E+02 -0.9114E+01E
 Epicentro: VILLANUEVA - SANTANDER                                             3
 ACTION:UPD 13-04-09 14:00 OP:ep   STATUS:               ID:20130307064542 L   I
 2013-03-07-0640-00M.COL___231                                                 6
 STAT SP IPHASW D HRMM SECON CODA AMPLIT PERI AZIMU VELO AIN AR TRES W  DIS CAZ7
 BAR2 SZ EP        646  2.68                             174   -0.1110 16.2 187 
 BAR2 SZ I         646  8.86         5.0 0.49            174           16.2 187 
 BRR  HZ EP        646  4.54                             154    0.1410 72.9 304 
 BRR  HN ES        646 21.95                             154    0.1310 72.9 304 
 BRR  HN I         646 25.23         6.9 0.20            157           72.9 304 
 RUS  HZ EP        646  6.46                             148    0.0910 93.9 174 
 RUS  HN ES        646 25.23                             148   -0.0910 93.9 174 
 PTB  HZ EP   1    646  9.39                             135   -0.20 7  144 261 
 SML  HZ EP   1    646 20.21                             119    0.36 6  249 336 
 SML  HN ES   1    646 48.81                             119   -0.51 6  249 336 
                                                                                
