 2017  7 7 0618 40.0 L   6.726 -73.132143.6  RSN  5 0.3 1.3LRSN                1
 GAP=165        0.88       7.3     4.3  7.1 -0.7184E+01  0.6547E+01  0.1435E+01E
 Epicentro: JORDAN - SANTANDER                                                 3
 ACTION:UPD 17-08-30 15:30 OP:rebc STATUS:               ID:20170707061840 L   I
 OLDACT:UP  17-07-07 17:27 OP:ar   STATUS:               ID:20170707060747     3
 OLDACT:REG 17-07-07 13:14 OP:ar   STATUS:               ID:20170707060747     3
 2017-07-07-0608-00M.COL___368                                                 6
 STAT SP IPHASW D HRMM SECON CODA AMPLIT PERI AZIMU VELO AIN AR TRES W  DIS CAZ7
 BAR2 EZ EP        618 59.30                             173    0.0210 15.8 200 
 BAR2 EZ ES        619 14.19                             173   -0.1010 15.8 200 
 BAR2 EZ I         619 15.62         4.4 0.14            174           15.8 200 
 BRR  HZ EP        619  1.14                             150   -0.1310 76.7 303 
 BRR  HE ES        619 18.45                             150    0.6110 76.7 303 
 BRR  HZ I         619 20.86         4.1 0.46            150           76.7 303 
 PAM  EZ EP        619  2.27                             149   -0.1010 83.0  35 
 PAM  EN ES        619 19.61                             149   -0.1810 83.0  35 
 PAM  EZ I         619 21.34         5.3 0.54            151           83.0  35 
 PTB  HZ EP        619  7.39                             131    0.55 9  148 262 
 PTB  HN ES        619 27.28                             131   -0.46 9  148 262 
 PTB  HZ I         619 30.56         1.7 0.18            133            148 262 
 ZAR  HZ EP   4    619  9.08                             121   -3.73 0  209 294 
 ZAR  HE ES        619 38.08                             121   -0.30 8  209 294 
                                                                                
