 2014  6 7 0113 47.3 L   6.730 -73.177148.0  RSN  6 0.5 1.5LRSN                1
 GAP=197        1.05       6.5     6.8 11.3  0.1870E+02  0.6948E+01 -0.2298E+02E
 Epicentro: VILLANUEVA - SANTANDER                                             3
 ACTION:UPD 14-07-01 22:51 OP:nd   STATUS:               ID:20140607011347 L   I
 OLDACT:UP  14-06-07 15:14 OP:fm   STATUS:               ID:20140607010819     3
 OLDACT:REG 14-06-07 12:50 OP:fm   STATUS:               ID:20140607010819     3
 2014-06-07-0108-19M.COL___262                                                 6
 STAT SP IPHASW D HRMM SECON CODA AMPLIT PERI AZIMU VELO AIN AR TRES W  DIS CAZ7
 BAR2 SZ EP   1    114  6.54                             174   -0.55 7 15.2 182 
 BAR2 SZ ES   1    114 21.83                             174   -0.67 7 15.2 182 
 BAR2 SZ I         114 23.39         5.1 0.10            171           15.2 182 
 RUS  HZ EP        114 10.87                             147    0.0910 93.2 174 
 RUS  HN ES        114 29.76                             147    0.6910 93.2 174 
 RUS  HZ I         114 30.81         4.2 0.28            147           93.2 174 
 PTB  HZ EP        114 13.65                             134   -0.40 9  143 262 
 PTB  HN ES        114 34.72                             134   -0.18 9  143 262 
 PTB  HZ I         114 39.50         4.4 0.38            132            143 262 
 SPBC HN ES   1    114 36.77                             131   -0.23 7  155 220 
 SPBC HZ I         114 40.10         5.2 0.20            131            155 220 
 ZAR  HN ES        114 45.89                             123    0.57 9  204 295 
 ZAR  HZ I         114 51.06         3.2 0.36            123            204 295 
 SML  HN ES   1    114 54.18                             117    0.35 6  249 337 
                                                                                
