 2017  9 7 0218 14.5 L   6.828 -73.078137.9  RSN  4 0.4 1.2LRSN                1
 GAP=247        0.72       6.1     8.5  8.9  0.3459E+01  0.2692E+02  0.9189E+01E
 Epicentro: LOS SANTOS - SANTANDER                                             3
 ACTION:UPD 17-10-05 19:09 OP:rebc STATUS:               ID:20170907021814 L   I
 OLDACT:REG 17-09-07 12:41 OP:dnl  STATUS:               ID:20170907020739     3
 2017-09-07-0208-00M.COL___420                                                 6
 STAT SP IPHASW D HRMM SECON CODA AMPLIT PERI AZIMU VELO AIN AR TRES W  DIS CAZ7
 BAR2 EZ EP   2    218 33.37                             168    0.03 5 28.5 204 
 BAR2 EZ ES        218 47.58                             168   -0.4310 28.5 204 
 BAR2 EZ I         218 55.71         2.7 0.48            159           28.5 204 
 BRR  HZ EP   2    218 35.38                             149    0.22 5 76.6 294 
 BRR  HN ES   2    218 51.95                             149    0.70 5 76.6 294 
 BRR  HZ I         219  4.98         5.7 0.28            140           76.6 294 
 RUS  HZ EP   2    218 37.70                             141   -0.03 5  103 180 
 RUS  HE ES        218 56.23                             141    0.4010  103 180 
 RUS  HZ I         218 57.47         1.4 0.44            152            103 180 
 SPBC HZ EP   2    218 42.61                             126   -0.53 4  170 220 
 SPBC HN ES        219  5.36                             126   -0.10 9  170 220 
 SPBC HZ I         219 11.25         2.1 0.22            130            170 220 
                                                                                
