 2014  4 7 0750 36.3 L   6.810 -73.127134.6  RSN  5 0.4 1.7LRSN                1
 GAP=227        0.91       4.2    10.8 13.6 -0.2935E+02 -0.5493E+02  0.1189E+02E
 Epicentro: LOS SANTOS - SANTANDER                                             3
 ACTION:UPD 14-05-13 23:06 OP:nd   STATUS:               ID:20140407075036 L   I
 OLDACT:REG 14-04-07 12:54 OP:stll STATUS:               ID:20140407074806     3
 2014-04-07-0748-06M.COL___250                                                 6
 STAT SP IPHASW D HRMM SECON CODA AMPLIT PERI AZIMU VELO AIN AR TRES W  DIS CAZ7
 PTB  HZ EP        751  2.21                             129   -0.4010  150 259 
 PTB  HN ES        751 22.78                             129   -0.3410  150 259 
 PTB  HZ I         751 29.46         5.3 0.40            131            150 259 
 OCA  HN ES        751 24.75                             127   -0.3010  159 352 
 SPBC HZ EP        751  4.33                             126    0.1310  165 219 
 SPBC HN ES        751 26.44                             126    0.4910  165 219 
 SPBC HZ I         751 33.51         7.4 0.20            130            165 219 
 NOR  HN ES        751 39.20                             116   -0.06 9  237 235 
 NOR  HZ I         751 43.31         3.6 0.18            120            237 235 
 SML  HZ EP        751 12.21                             115   -0.11 9  244 335 
 SML  HN ES        751 41.18                             115    0.78 9  244 335 
 SML  HZ I         751 45.18         5.4 0.10            120            244 335 
                                                                                
