 2010  7 7 0851 17.4 L   6.785 -73.107140.5  RSN  5 0.2 1.1LRSN                1
 GAP=160        0.45       4.0     7.9  7.5  0.6472E+01 -0.2934E+02 -0.1280E+02E
 Epicentro: LOS SANTOS - SANTANDER                                             3
 ACTION:UPD 10-12-01 15:15 OP:pat  STATUS:               ID:20100707085117 L   I
 2010-07-07-0847-50S.COL___117                                                 6
 STAT SP IPHASW D HRMM SECON CODA AMPLIT PERI AZIMU VELO AIN AR TRES W  DIS CAZ7
 BAR2 SZ EP   1    851 36.14                             170    -0.2 7   23 202 
 BAR2 SZ ES   2    851 50.91                             170    -0.3 5   23 202 
 BRR  HZ EP   1    851 38.11                             150    -0.1 7   76 298 
 BRR  HE ES   2    851 54.82                             150     0.3 5   76 298 
 BRR  HZ I         851 55.89         4.0 0.37                            76 298 
 RUS  HZ EP   1    851 40.62                             143     0.1 7   99 178 
 RUS  HN ES   2    851 58.75                             143     0.2 5   99 178 
 RUS  HZ I         852  0.03         1.6 0.36                            99 178 
 BRI  SZ EP   1    851 40.97                             140     0.2 7  109  18 
 GRA  SZ EP   1    851 42.21                             136     0.0 7  126  15 
                                                                                
