 2016  9 7 0507 24.6 L   6.771 -73.154151.7  RSN  7 0.2 1.7LRSN                1
 GAP=137        0.62       3.3     4.1  4.4 -0.6601E+00  0.5429E+00 -0.6843E+00E
 Epicentro: LOS SANTOS - SANTANDER                                             3
 ACTION:UPD 17-08-17 21:07 OP:lp   STATUS:               ID:20160907050724 L   I
 OLDACT:UP  16-09-07 15:07 OP:dani STATUS:               ID:20160907045632     3
 OLDACT:UP  16-09-07 15:07 OP:dani STATUS:               ID:20160907045632     3
 OLDACT:UP  16-09-07 15:06 OP:dani STATUS:               ID:20160907045632     3
 OLDACT:REG 16-09-07 12:55 OP:dani STATUS:               ID:20160907045632     3
 2016-09-07-0457-00M.COL___364                                                 6
 STAT SP IPHASW D HRMM SECON CODA AMPLIT PERI AZIMU VELO AIN AR TRES W  DIS CAZ7
 BAR2 EZ EP        5 7 44.72                             172   -0.2110 20.0 189 
 BAR2 EZ ES        5 8  0.52                             172   -0.2310 20.0 189 
 BAR2 EZ I         5 8  0.80        12.2 0.12            168           20.0 189 
 BRR  HZ EP        5 7 46.64                             153    0.1610 72.0 301 
 BRR  HN ES        5 8  3.73                             153    0.2110 72.0 301 
 BRR  HE I         5 8  4.41        24.1 0.18            150           72.0 301 
 PAM  EZ EP        5 7 47.69                             151    0.0110 80.5  39 
 RUS  HZ EP        5 7 48.87                             146    0.1110 97.4 175 
 RUS  HE ES        5 8  7.72                             146    0.1410 97.4 175 
 RUS  HZ I         5 8  8.18         3.4 0.30            145           97.4 175 
 PTB  HZ EP        5 7 51.51                             134   -0.46 9  146 260 
 PTB  HE ES   2    5 8 13.52                             134    0.24 5  146 260 
 PTB  HZ I         5 8 18.20         4.7 0.24            131            146 260 
 SPBC HZ EP        5 7 53.67                             131    0.35 9  160 219 
 SPBC HE ES        5 8 15.51                             131   -0.17 9  160 219 
 SPBC HZ I         5 8 19.27         5.8 0.14            129            160 219 
 GUY2CHZ EP   4    5 8 11.33                             114    3.09 0  299 235 
 GUY2CHE ES   4    5 8 47.69                             114    5.45 0  299 235 
 GUY2CHZ I         5 8 51.28         2.0 0.52                           299 235 
                                                                                
