 2015 11 7 0608 39.1 L   6.802 -73.108152.0  RSN  6 0.3 1.6LRSN                1
 GAP=162        0.57       3.6     3.8  5.9 -0.2671E+01  0.3189E+01  0.9607E+01E
 Epicentro: LOS SANTOS - SANTANDER                                             3
 ACTION:UPD 15-12-28 16:09 OP:cam  STATUS:               ID:20151107060839 L   I
 OLDACT:DUP 15-11-07 22:11 OP:cara STATUS:               ID:20151107055749d    3
 OLDACT:DUP 15-11-07 21:30 OP:cara STATUS:               ID:20151107055748d    3
 OLDACT:REG 15-11-07 14:07 OP:cara STATUS:               ID:20151107055747     3
 2015-11-07-0557-47M.COL___307                                                 6
 STAT SP IPHASW D HRMM SECON CODA AMPLIT PERI AZIMU VELO AIN AR TRES W  DIS CAZ7
 BAR2 EZ EP        6 8 59.22                             170   -0.2510 24.6 200 
 BAR2 EZ ES   4    6 9 13.02                             170   -2.36 0 24.6 200 
 PAM  EZ EP   2    6 9  2.40                             153    0.61 5 74.6  37 
 PAM  EN ES   2    6 9 19.33                             153   -0.18 5 74.6  37 
 BRR  HZ EP        6 9  0.92                             153   -0.1710 74.8 297 
 BRR  HE ES        6 9 18.60                             153    0.3310 74.8 297 
 BRR  HN ES        6 9 18.91                             153           74.8 297 
 BRR  HZ I         6 9 19.81         5.7 0.30            149           74.8 297 
 OCA  HN ES        6 9 30.45                             131    0.06 9  161 352 
 ZAR  HZ EP        6 9 12.27                             123   -0.04 8  208 292 
 ZAR  HE ES        6 9 37.97                             123   -0.28 8  208 292 
 ZAR  HZ I         6 9 43.74         4.6 0.32            122            208 292 
 GUY2CHZ EP        6 9 23.58                             113    0.22 7  305 235 
 GUY2CHE ES        6 9 58.02                             113    0.10 7  305 235 
 MON  HN ES   4    610  5.73                             110   -1.65 0  357 308 
                                                                                
