 2011 11 7 0131 35.4 L   6.772 -73.163138.3  RSN  4 0.1 1.4LRSN                1
 GAP=233        0.36       5.3     6.2  5.7  0.2829E+02 -0.6927E+01 -0.6281E+01E
 Epicentro: LOS SANTOS - SANTANDER                                             3
 ACTION:UPD 12-07-13 16:08 OP:ep   STATUS:               ID:20111107013134 L   I
 2011-11-07-0129-48S.COL___175                                                 6
 STAT SP IPHASW D HRMM SECON CODA AMPLIT PERI AZIMU VELO AIN AR TRES W  DIS CAZ7
 BAR2 SZ EP   1    131 53.97                             171   -0.08 7 20.0 186 
 BAR2 SZ I         132 12.04         5.7 0.53                          20.0 186 
 BRR  HZ EP   1    131 55.62                             151   -0.11 7 71.1 301 
 BRR  HN ES   1    132 11.70                             151    0.11 7 71.1 301 
 BRR  HN I         132 13.92        15.7 0.24                          71.1 301 
 RUS  HZ EP   1    131 58.38                             143    0.19 7 97.6 175 
 RUS  HN ES   1    132 15.89                             143   -0.09 7 97.6 175 
 RUS  HZ I         132 18.43         1.9 0.62                          97.6 175 
 ZAR  HN ES   1    132 32.16                             121   -0.03 6  204 293 
                                                                                
