 2017  8 7 0929 25.3 L   6.538 -73.519108.8  RSN 15 0.4 1.6LRSN                1
 GAP= 64        0.85       2.1     2.0  4.3 -0.1242E+00  0.1533E+01  0.2026E+01E
 Epicentro: EL CARMEN - SANTANDER                                              3
 ACTION:UPD 17-09-04 20:17 OP:rebc STATUS:               ID:20170807092925 L   I
 OLDACT:UP  17-08-07 17:47 OP:dhb  STATUS:               ID:20170807092741     3
 OLDACT:REG 17-08-07 13:09 OP:dhb  STATUS:               ID:20170807092741     3
 2017-08-07-0928-00M.COL___381                                                 6
 STAT SP IPHASW D HRMM SECON CODA AMPLIT PERI AZIMU VELO AIN AR TRES W  DIS CAZ7
 BAR2 EZ IP     C  929 40.98                             159    0.0110 37.7  81 
 BAR2 EZ ES        929 53.13                             159   -0.1010 37.7  81 
 BRR  HZ EP        929 41.78                             146   -0.4610 66.5 341 
 BRR  HE ES        929 55.56                             146    0.0810 66.5 341 
 BRR  HZ I         930  2.20        10.5 0.18            149           66.5 341 
 RUS  HZ EP        929 44.20                             139   -0.1810 86.1 146 
 RUS  HE ES        929 59.94                             139    0.6410 86.1 146 
 RUS  HZ I         930  1.35         3.6 0.26            140           86.1 146 
 PTB  HZ IP   9 D  929 43.79                             133   -1.43 0  104 270 
 PTB  HN ES        929 59.12                                   -0.2410  104 270 
 PTB  HZ I         930  0.14        10.8 0.18            134            104 270 
 SPBC HZ EP        929 45.99                             130   -0.4110  115 212 
 SPBC HN ES        930  2.79                             130   -0.1110  115 212 
 SPBC HZ I         930  6.54        23.0 0.08            130            115 212 
 PAM  EZ IP     D  929 48.20                             127    0.1810  127  46 
 PAM  EZ ES        930  5.44                             127   -0.3310  127  46 
 PAM  EZ I         930  7.84         5.3 0.29            129            127  46 
 YPLC HZ EP        929 52.98                             116    0.14 9  178 135 
 YPLC HE ES        930 14.54                             116    0.18 9  178 135 
 YPLC HZ I         930 26.42        13.5 0.28            118            178 135 
 ZAR  HZ IP     D  929 53.31                             116    0.18 9  182 306 
 ZAR  HE ES        930 15.60                             116    0.74 9  182 306 
 ZAR  HZ I         930 19.35         9.3 0.36            118            182 306 
 NOR  HZ EP   2    929 52.68                             116   -0.78 4  184 234 
 NOR  HE ES        930 15.37                             116   -0.08 9  184 234 
 NOR  HZ I         930 18.09         6.0 0.18            117            184 234 
 TAM  HN ES        930 16.66                             114   -0.19 9  191  93 
 CHI  HZ EP        929 57.14                             112    0.09 8  212 186 
 CHI  HN ES        930 21.98                             112    0.14 8  212 186 
 CHI  HZ I         930 25.88         1.6 0.34            113            212 186 
 HEL  HZ EP        929 58.53                             110    0.02 8  226 260 
 HEL  HN ES        930 24.21                             110   -0.23 8  226 260 
 HEL  HZ I         930 29.19         3.3 0.20            112            226 260 
 GUY2CHZ EP   9    930  2.80                             108    1.27 0  251 235 
 GUY2CHN ES        930 30.90                                   -0.19 8  251 235 
 GUY2CHZ I         930 36.53         2.6 0.28                           251 235 
 PRA  HZ EP        930 13.20                             101    0.83 6  347 206 
 PRA  HN ES        930 48.20                             101   -0.91 6  347 206 
 PRA  HZ I         930 53.45         1.7 0.22            102            347 206 
 ORTC HN ES   3    930 50.68                             101    1.37 2  348 213 
 ORTC HZ I         930 55.77         1.5 0.16            102            348 213 
                                                                                
