 2010  7 7 0725  8.9 L   6.768 -73.144157.8  RSN  4 0.1 1.3LRSN                1
 GAP=159        0.36       4.2     8.8  8.6  0.1670E+02 -0.4667E+02 -0.1709E+02E
 Epicentro: LOS SANTOS - SANTANDER                                             3
 ACTION:UPD 10-12-01 15:15 OP:pat  STATUS:               ID:20100707072508 L   I
 2010-07-07-0724-38S.COL___118                                                 6
 STAT SP IPHASW D HRMM SECON CODA AMPLIT PERI AZIMU VELO AIN AR TRES W  DIS CAZ7
 BAR2 SZ EP   1    725 29.78                             172    -0.2 7   20 193 
 BRR  HZ EP   1    725 31.64                             154     0.1 7   73 301 
 BRR  HZ I         725 48.89         3.2 0.60                            73 301 
 BRR  HN ES   2    725 49.04                             154    -0.1 5   73 301 
 RUS  HZ EP   1    725 33.66                             147     0.0 7   97 176 
 RUS  HE ES   2    725 53.09                             147     0.1 5   97 176 
 GRA  SZ EP   1    725 35.60                             139     0.0 7  129  17 
                                                                                
