 2013  1 7 0150 49.4 L   6.820 -73.149143.5  RSN 13 0.5 2.3LRSN 2.9WRSN        1
 SPEC AVERAGE  MO 13.4 ST  3.7 OM  2.4 f0 3.44 R0.4783 AL 2.10 WI 21.9 MW  2.9 3
 SPEC SD       MO  0.2 ST  5.3 OM  0.7 f0 1.22 R0.1459 AL      WI      MW  0.2 3
 GAP= 70        1.16       3.6     3.4  6.0  0.4968E+00  0.2613E+01  0.3367E+01E
 Epicentro: LOS SANTOS - SANTANDER                                             3
 SPEC RUS HH N MO 13.1 ST0.806 OM  1.5 f0 3.55 R0.4141 AL 2.34 WI  8.5 MW  2.7 3
 SPEC RUS HH N T 15131 K 0.000 GD  176 VS 4.20 DE 3.00 Q0230.0 QA 0.60 VS 4.20 3
 SPEC HEL HH N MO 13.4 ST0.367 OM  1.5 f0 2.27 R0.6476 AL 1.14 WI 24.6 MW  2.8 3
 SPEC HEL HH N T 15158 K 0.000 GD  307 VS 4.20 DE 3.00 Q0230.0 QA 0.60 VS 4.20 3
 SPEC CHI HH N MO 13.5 ST0.766 OM  1.7 f0 2.54 R0.5787 AL 1.64 WI 24.9 MW  3.0 3
 SPEC CHI HH N T 15154 K 0.000 GD  289 VS 4.20 DE 3.00 Q0230.0 QA 0.60 VS 4.20 3
 SPEC BRR HH N MO 13.8 ST 12.8 OM  2.2 f0 5.39 R0.2727 AL 3.27 WI 29.4 MW  3.1 3
 SPEC BRR HH N T 15127 K 0.000 GD  159 VS 4.20 DE 3.00 Q0230.0 QA 0.60 VS 4.20 3
 ACTION:UPD 13-02-15 09:12 OP:ep   STATUS:               ID:20130107015049 L   I
 2013-01-07-0149-50M.COL___202                                                 6
 STAT SP IPHASW D HRMM SECON CODA AMPLIT PERI AZIMU VELO AIN AR TRES W  DIS CAZ7
 BAR2 SZ EP        151  8.85                             169    0.0010 25.5 188 
 BAR2 SZ ES        151 23.50                             169   -0.4910 25.5 188 
 BAR2 SZ I         151 25.24        36.6 0.16            170           25.5 188 
 BRR  HZ EP        151 10.64                             153    0.3610 69.8 297 
 BRR  HN ES        151 27.47                             153    0.9510 69.8 297 
 BRR  HN I         151 30.81        50.0 0.18            150           69.8 297 
 RUS  HZ EP        151 12.89                             143   -0.2610  103 176 
 RUS  HN ES        151 31.79                             143    0.1610  103 176 
 PTB  HZ EP        151 15.69                             131   -0.55 9  148 258 
 PTB  HN ES        151 36.95                             131   -0.19 9  148 258 
 PTB  HN I         151 41.94        43.7 0.20            131            148 258 
 TAM  HZ EP        151 17.31                             130    0.27 9  156 106 
 TAM  HZ I         151 17.70        11.4 0.46            133            156 106 
 TAM  HN ES        151 38.57                             130    0.01 9  156 106 
 OCA  HN ES        151 39.22                             130    0.07 9  158 353 
 OCA  HN I         151 42.07        66.2 0.28            130            158 353 
 ZAR  HZ EP        151 21.47                             122   -0.16 9  203 292 
 ZAR  HN ES        151 45.94                             122   -0.78 9  203 292 
 ZAR  HN I         151 54.21        25.8 0.34            122            203 292 
 CHI  HZ EP        151 27.22                             116   -0.03 8  251 195 
 CHI  HZ I         151 28.68         5.1 0.58            117            251 195 
 CHI  HN ES        151 56.09                             116   -0.64 8  251 195 
 ROSC BZ EP        151 27.38                             116   -0.26 8  255 211 
 ROSC BE ES        151 57.96                             116    0.54 8  255 211 
 HEL  HZ EP        151 30.49                             114    0.92 8  272 255 
 HEL  HN ES        152  0.36                             114   -0.50 8  272 255 
 RREF HZ EP   1    151 36.55                             110    0.92 5  323 229 
 RREF HN ES        152 11.64                             110   -0.01 7  323 229 
 RREF HZ I         152 21.09         6.1 0.22            111            323 229 
 TOL  SZ EP        151 38.70                             109    0.93 7  345 224 
 SDV  BZ EP        151 38.46                             108   -0.81 6  359  50 
                                                                                
