 2010  9 7 0554 42.9 L   6.873 -73.054150.0  RSN  7 0.4 1.9LRSN                1
 GAP=216        0.90       6.4    10.4 10.1  0.1936E+02  0.1173E+02  0.1542E+02E
 Epicentro: LOS SANTOS - SANTANDER                                             3
 ACTION:UP  11-02-18 11:00 OP:tino STATUS:               ID:20100907055442 L   I
 2010-09-07-0552-17S.COL___120                                                 6
 STAT SP IPHASW D HRMM SECON CODA AMPLIT PERI AZIMU VELO SNR AR TRES W  DIS CAZ7
 GIR2 SZ EP   1    555  2.22                             169    -0.8 7   27 326 
 BAR2 SZ EP   2    555  3.94                             167     0.6 5   34 205 
 BAR2 SZ I         555 21.36        15.8 0.12                            34 205 
 BRR  HZ EP        555  4.97                             151     0.110   77 290 
 BRR  HE ES   1    555 22.04                             151     0.1 7   77 290 
 BRR  HZ I         555 24.42        17.2 0.12                            77 290 
 RUS  HZ EP   1    555  8.16                             142     0.5 7  109 182 
 RUS  HN ES   1    555 26.99                             142     0.0 7  109 182 
 RUS  HZ I         555 28.85         7.4 0.29                           109 182 
 CHI  HZ EP   1    555 22.24                             117     0.2 6  259 197 
 CHI  HN ES   1    555 51.97                             117    -0.5 6  259 197 
 CHI  HZ I         555 58.20         4.8 0.33                           259 197 
 HEL  HZ EP   2    555 25.00                             114     0.3 4  284 255 
 HEL  HE ES   2    555 57.48                             114     0.3 4  284 255 
 HEL  HZ I         556  4.36         5.4 0.29                           284 255 
 RREF HZ EP   1    555 30.21                             111    -0.5 5  335 229 
 RREF HZ I         556 12.76         4.8 0.13                           335 229 
                                                                                
