 2017  2 7 0123 32.9 L   6.763 -73.177148.5  RSN  8 0.4 1.8LRSN                1
 GAP=206        1.04       5.1     5.6  7.0  0.1140E+02  0.1054E+02  0.1115E+02E
 Epicentro: LOS SANTOS - SANTANDER                                             3
 ACTION:UPD 17-05-24 15:33 OP:jn   STATUS:               ID:20170207012332 L   I
 OLDACT:UP  17-02-07 14:13 OP:edw  STATUS:               ID:20170207011659     3
 OLDACT:UP  17-02-07 14:12 OP:edw  STATUS:               ID:20170207011659     3
 OLDACT:REG 17-02-07 12:17 OP:edw  STATUS:               ID:20170207011659     3
 2017-02-07-0118-00M.COL___331                                                 6
 STAT SP IPHASW D HRMM SECON CODA AMPLIT PERI AZIMU VELO AIN AR TRES W  DIS CAZ7
 BAR2 EZ EP        123 52.73                             172   -0.0910 18.8 182 
 BAR2 EZ ES        124  7.85                             172   -0.4810 18.8 182 
 BAR2 EZ I         124  8.79        22.2 0.16            170           18.8 182 
 BRR  HZ EP        123 54.42                             153    0.0810 70.4 303 
 BRR  HE ES        124 11.80                             153    0.7710 70.4 303 
 RUS  HZ EP        123 56.45                             145   -0.2510 96.8 174 
 RUS  HN ES        124 15.63                             145    0.4110 96.8 174 
 RUS  HZ I         124 16.21        12.8 0.22            145           96.8 174 
 PTB  HZ EP        123 59.40                             134   -0.37 9  144 260 
 PTB  HN ES        124 19.96                             134   -0.73 9  144 260 
 PTB  HZ I         124 22.30         8.3 0.38            131            144 260 
 ZAR  HZ EP   4    124  1.70                             123   -3.71 0  202 294 
 ZAR  HN ES        124 30.67                             123   -0.06 9  202 294 
 ZAR  HZ I         124 36.69         5.7 0.64            122            202 294 
 NOR  HZ EP        124  8.59                             120    0.31 8  229 235 
 NOR  HN ES        124 36.39                             120    0.55 8  229 235 
 NOR  HZ I         124 40.51         4.6 0.18            119            229 235 
 CHI  HZ EP        124 10.53                             118    0.26 8  244 195 
 CHI  HN ES        124 39.10                             118   -0.28 8  244 195 
 CHI  HZ I         124 42.22         2.0 0.50            118            244 195 
 SJC  HZ EP   9    124 26.01                             106   -2.78 0  411 328 
 SJC  HN ES        125  9.13                             108   -0.44 6  411 328 
                                                                                
