 2016 11 7 0330 37.1 L   6.773 -73.141143.1  RSN  9 0.3 1.7LRSN                1
 GAP=155        0.77       3.0     3.4  4.8 -0.1274E+01  0.2763E+01  0.4561E+01E
 Epicentro: LOS SANTOS - SANTANDER                                             3
 ACTION:UPD 17-10-26 21:05 OP:lp   STATUS:               ID:20161107033037 L   I
 OLDACT:REG 16-11-07 12:47 OP:lv   STATUS:               ID:20161107032743     3
 2016-11-07-0328-00M.COL___337                                                 6
 STAT SP IPHASW D HRMM SECON CODA AMPLIT PERI AZIMU VELO AIN AR TRES W  DIS CAZ7
 BAR2 EZ EP        330 56.07                             171   -0.2510 20.4 193 
 BAR2 EZ ES        331 11.35                             171    0.0110 20.4 193 
 BAR2 EZ I         331 13.88        17.1 0.39            169           20.4 193 
 BRR  HZ EP        330 57.89                             151   -0.1410 73.1 300 
 BRR  HN ES        331 15.10                             151    0.7110 73.1 300 
 BRR  HZ I         331 16.12         7.2 0.15            150           73.1 300 
 PAM  EZ EP        330 59.01                             150   -0.1110 79.4  38 
 PAM  EN ES        331 16.26                             150   -0.0710 79.4  38 
 PAM  EZ I         331 18.23         4.7 0.52            153           79.4  38 
 PTB  HZ EP        331  3.73                             131   -0.08 9  148 260 
 PTB  HN ES        331 24.19                             131   -0.48 9  148 260 
 PTB  HZ I         331 29.78         4.4 0.16            131            148 260 
 SPBC HZ EP   4    331  6.80                             129    1.64 0  161 220 
 SPBC HN ES        331 26.71                             129   -0.37 9  161 220 
 SPBC HZ I         331 29.67         6.9 0.10            128            161 220 
 ZAR  HZ EP        331  9.83                             122    0.33 8  206 293 
 ZAR  HN ES        331 34.73                             122   -0.08 8  206 293 
 ZAR  HZ I         331 39.92         4.2 0.21            122            206 293 
 CHI  HZ EP        331 14.48                             117    0.17 8  246 195 
 CHI  HN ES        331 43.57                             117    0.21 8  246 195 
 CHI  HZ I         331 49.74         2.4 0.33            117            246 195 
 PRA  HZ EP        331 30.15                             106   -0.06 6  390 210 
 PRA  HN ES        332 12.36                             106    0.70 6  390 210 
 PRA  HZ I         332 18.30         2.6 0.38            107            390 210 
 SJC  HZ EP   9    331 30.28                             105   -2.59 0  412 327 
 SJC  HN ES        332 13.51                                   -0.30 6  412 327 
 SJC  HZ I         332 21.34         1.7 0.08            106            412 327 
                                                                                
