 2016  8 7 0037 20.9 L   6.733 -73.203149.3  RSN  5 0.3 1.5LRSN                1
 GAP=226        0.84       6.8     6.7  7.5  0.3264E+02 -0.1948E+01 -0.8327E+01E
 Epicentro: VILLANUEVA - SANTANDER                                             3
 ACTION:UPD 16-10-29 15:32 OP:rebc STATUS:               ID:20160807003720 L   I
 OLDACT:DUP 16-08-07 13:34 OP:dani STATUS:               ID:20160807002734d    3
 OLDACT:UP  16-08-07 13:33 OP:dani STATUS:               ID:20160807002733     3
 OLDACT:REG 16-08-07 12:25 OP:dani STATUS:               ID:20160807002733     3
 2016-08-07-0028-00M.COL___368                                                 6
 STAT SP IPHASW D HRMM SECON CODA AMPLIT PERI AZIMU VELO AIN AR TRES W  DIS CAZ7
 BRR  HZ EP        037 42.19                             154   -0.2110 69.8 306 
 BRR  HN ES        037 58.98                             154   -0.1610 69.8 306 
 BRR  HZ I         037 59.91         5.2 0.32                          69.8 306 
 RUS  HZ EP        037 44.21                             146   -0.3810 93.9 172 
 RUS  HN ES        038  3.52                             146    0.5010 93.9 172 
 RUS  HZ I         038  4.33         3.3 0.36                          93.9 172 
 PTB  HZ EP        037 47.43                             134   -0.11 9  140 261 
 PTB  HE ES        038  7.89                             134   -0.39 9  140 261 
 PTB  HZ I         038 11.31         2.4 0.38                           140 261 
 ZAR  HZ EP        037 53.83                             124    0.50 9  201 295 
 ZAR  HE ES        038 18.82                             124    0.23 9  201 295 
 ZAR  HE ISg       038 18.82                             124    0.23 9  201 295 
 URE  HZ I         035 31.58         3.4 0.18                           281 294 
                                                                                
