 2012  8 7 0510  5.0 L   6.756 -73.141146.7  RSN  8 0.4 2.1LRSN                1
 GAP=139        0.92       4.7     4.4  6.5 -0.1251E+01  0.6556E+01  0.7669E+01E
 Epicentro: LOS SANTOS - SANTANDER                                             3
 ACTION:UPD 12-09-10 11:55 OP:ep   STATUS:               ID:20120807051005 L   I
 2012-08-07-0510-00M.COL___216                                                 6
 STAT SP IPHASW D HRMM SECON CODA AMPLIT PERI AZIMU VELO AIN AR TRES W  DIS CAZ7
 BAR2 SZ EP        510 24.96                             172    0.2710 18.7 194 
 BAR2 SZ ES   1    510 39.71                             172   -0.31 7 18.7 194 
 BAR2 SZ I         510 42.99        29.1 0.41                          18.7 194 
 BRR  HZ EP        510 26.82                             152    0.3810 74.1 302 
 BRR  HN ES        510 43.87                             152    0.7210 74.1 302 
 BRR  HZ I         510 46.63        47.7 0.14                          74.1 302 
 PAM  SZ EP        510 27.78                             150    0.2310 80.9  37 
 PAM  SE ES        510 44.47                             150   -0.6510 80.9  37 
 RUS  HZ EP        510 28.69                             145    0.1610 95.7 176 
 RUS  HE ES   1    510 46.72                             145   -0.13 7 95.7 176 
 RUS  HZ I         510 49.41         6.8 0.17                          95.7 176 
 PTB  HZ EP        510 31.58                             132   -0.46 9  147 261 
 PTB  HN ES   1    510 52.86                             132   -0.25 7  147 261 
 PTB  HZ I         510 58.90        17.2 0.24                           147 261 
 ZAR  HZ EP   1    510 37.39                             122   -0.39 6  206 293 
 ZAR  HN ES   1    511  2.95                             122   -0.38 6  206 293 
 ZAR  HZ I         511  9.97        16.0 0.36                           206 293 
 NOR  SZ EP   1    510 40.46                             119   -0.10 6  232 236 
 NOR  SN ES   1    511  8.03                             119   -0.25 6  232 236 
 CHI  HZ EP   1    510 42.57                             118    0.28 6  244 196 
 CHI  HZ I         511 21.83         7.5 0.43                           244 196 
                                                                                
