 2015 10 7 0850  4.3 L   6.849 -72.999138.3  RSN  4 0.2 1.1LRSN                1
 GAP=214        0.48       4.9    10.7  5.5  0.4663E+02 -0.4014E+02 -0.2039E+02E
 Epicentro: CEPITA - SANTANDER                                                 3
 ACTION:UPD 15-12-22 20:38 OP:cam  STATUS:               ID:20151007085004 L   I
 OLDACT:REG 15-10-07 13:20 OP:spq  STATUS:               ID:20151007084750     3
 2015-10-07-0847-50M.COL___346                                                 6
 STAT SP IPHASW D HRMM SECON CODA AMPLIT PERI AZIMU VELO AIN AR TRES W  DIS CAZ7
 BAR2 EZ EP        850 23.40                             165    0.1010 34.9 216 
 BAR2 EZ ES        850 38.25                             165    0.1010 34.9 216 
 BAR2 EZ I         850 40.55         4.3 0.38            169           34.9 216 
 BRR  HZ EP        850 25.48                             147    0.0810 83.8 290 
 BRR  HN ES        850 41.97                             147    0.0810 83.8 290 
 RUS  HZ EP        850 27.86                             141    0.1410  106 185 
 RUS  HN ES        850 45.68                             141   -0.3310  106 185 
 RUS  HZ I         850 47.67         1.4 0.33            144            106 185 
 SML  HZ EP        850 40.73                             116   -0.02 8  246 331 
 SML  HN ES        851  8.94                             116   -0.26 8  246 331 
                                                                                
