 2012 11 7 0418 53.9 L   6.824 -73.004141.2  RSN  4 0.2 2.0LRSN                1
 GAP=221        0.66       6.8    12.3  7.4  0.6491E+02 -0.5169E+02 -0.2564E+02E
 Epicentro: CEPITA - SANTANDER                                                 3
 ACTION:UPD 12-12-05 15:31 OP:}ep  STATUS:               ID:20121107041853 L   I
 2012-11-07-0410-00M.COL___230                                                 6
 STAT SP IPHASW D HRMM SECON CODA AMPLIT PERI AZIMU VELO AIN AR TRES W  DIS CAZ7
 BAR2 SZ EP        419 13.34                             166    0.1310 32.3 217 
 BAR2 SZ ES        419 27.93                             166   -0.3410 32.3 217 
 BAR2 SZ I         419 29.88        20.5 0.22                          32.3 217 
 GIR2 SZ EP        419 13.40                             165    0.2510 35.0 323 
 BRR  HZ EP     C  419 15.06                             147   -0.3110 84.2 292 
 BRR  HZ E      C  419 15.06                                           84.2 292 
 BRR  HN ES        419 32.30                             147    0.1910 84.2 292 
 BRR  HN I         419 32.97        39.1 0.26                          84.2 292 
 RUS  HZ EP        419 17.28                             142   -0.1410  103 185 
 RUS  HN ES        419 35.98                             142    0.2210  103 185 
 RUS  HN I         419 36.74         8.8 0.20                           103 185 
                                                                                
