 2016  8 7 0622 18.2 L   6.314 -74.134 25.0  RSN  4 0.1 0.9LRSN                1
 GAP=147        0.43       1.2     1.6  1.9 -0.3623E+00 -0.1562E+01  0.6741E+00E
 Epicentro: CIMITARRA - SANTANDER                                              3
 ACTION:UPD 16-10-29 15:33 OP:rebc STATUS:               ID:20160807062218 L   I
 OLDACT:UP  16-08-07 20:47 OP:dani STATUS:               ID:20160807061743d    3
 OLDACT:UP  16-08-07 20:46 OP:dani STATUS:               ID:20160807061743d    3
 OLDACT:UP  16-08-07 20:46 OP:dani STATUS:               ID:20160807061743d    3
 OLDACT:DUP 16-08-07 20:42 OP:dani STATUS:               ID:20160807061743d    3
 2016-08-07-0618-00M.COL___353                                                 6
 STAT SP IPHASW D HRMM SECON CODA AMPLIT PERI AZIMU VELO AIN AR TRES W  DIS CAZ7
 PTB  HZ EP        622 26.08                             118   -0.0710 43.5 305 
 PTB  HN ES        622 32.37                             118   -0.0210 43.5 305 
 PTB  HZ I         622 33.06         9.3 0.10                          43.5 305 
 SPBC HZ EP   4    622 32.78                              71    2.33 0 73.5 175 
 SPBC HE ES        622 39.97                              71   -0.0610 73.5 175 
 SPBC HZ I         622 40.62         3.1 0.07                          73.5 175 
 BRR  HZ EP        622 34.24                              56    0.2110 99.3  28 
 BRR  HN ES        622 46.26                              56   -0.1610 99.3  28 
 BRR  HZ I         622 47.55         2.3 0.10                          99.3  28 
 HEL  HZ EP        622 41.64                              56    0.21 9  155 265 
 HEL  HE ES        622 59.50                              56   -0.08 9  155 265 
 HEL  HZ I         623  0.15         1.6 0.14                           155 265 
                                                                                
