 2017  4 7 0636 49.0 L   6.791 -73.125149.8  RSN 12 0.5 1.4LRSN                1
 GAP=121        1.09       4.1     4.5  6.2  0.1342E+01  0.6944E+01  0.6297E+01E
 Epicentro: LOS SANTOS - SANTANDER                                             3
 ACTION:UPD 17-05-30 21:09 OP:jn   STATUS:               ID:20170407063649 L   I
 OLDACT:UP  17-04-07 16:03 OP:and  STATUS:               ID:20170407062743d    3
 OLDACT:UP  17-04-07 16:02 OP:and  STATUS:               ID:20170407062743d    3
 OLDACT:UP  17-04-07 16:01 OP:and  STATUS:               ID:20170407062743d    3
 OLDACT:UP  17-04-07 16:01 OP:and  STATUS:               ID:20170407062743d    3
 OLDACT:DUP 17-04-07 15:58 OP:and  STATUS:               ID:20170407062743d    3
 OLDACT:UP  17-04-07 15:57 OP:and  STATUS:               ID:20170407062742d    3
 OLDACT:UP  17-04-07 15:57 OP:and  STATUS:               ID:20170407062742d    3
 OLDACT:UP  17-04-07 15:56 OP:and  STATUS:               ID:20170407062742d    3
 OLDACT:UP  17-04-07 15:56 OP:and  STATUS:               ID:20170407062742d    3
 OLDACT:UP  17-04-07 15:55 OP:and  STATUS:               ID:20170407062742d    3
 OLDACT:UP  17-04-07 15:53 OP:and  STATUS:               ID:20170407062742d    3
 OLDACT:UP  17-04-07 15:53 OP:and  STATUS:               ID:20170407062742d    3
 OLDACT:UP  17-04-07 15:53 OP:and  STATUS:               ID:20170407062742d    3
 OLDACT:UP  17-04-07 15:52 OP:and  STATUS:               ID:20170407062742d    3
 OLDACT:UP  17-04-07 15:52 OP:and  STATUS:               ID:20170407062742d    3
 OLDACT:UP  17-04-07 15:52 OP:and  STATUS:               ID:20170407062742d    3
 OLDACT:UP  17-04-07 15:50 OP:and  STATUS:               ID:20170407062742d    3
 OLDACT:UP  17-04-07 15:49 OP:and  STATUS:               ID:20170407062742d    3
 OLDACT:DUP 17-04-07 15:47 OP:and  STATUS:               ID:20170407062742d    3
 OLDACT:UP  17-04-07 15:47 OP:and  STATUS:               ID:20170407062741     3
 OLDACT:UP  17-04-07 15:47 OP:and  STATUS:               ID:20170407062741     3
 OLDACT:UP  17-04-07 15:46 OP:and  STATUS:               ID:20170407062741     3
 OLDACT:UP  17-04-07 15:46 OP:and  STATUS:               ID:20170407062741     3
 OLDACT:UP  17-04-07 15:46 OP:and  STATUS:               ID:20170407062741     3
 OLDACT:UP  17-04-07 15:45 OP:and  STATUS:               ID:20170407062741     3
 OLDACT:UP  17-04-07 15:45 OP:and  STATUS:               ID:20170407062741     3
 OLDACT:UP  17-04-07 15:45 OP:and  STATUS:               ID:20170407062741     3
 OLDACT:UP  17-04-07 15:44 OP:and  STATUS:               ID:20170407062741     3
 OLDACT:UP  17-04-07 15:44 OP:and  STATUS:               ID:20170407062741     3
 OLDACT:UP  17-04-07 15:43 OP:and  STATUS:               ID:20170407062741     3
 OLDACT:REG 17-04-07 12:36 OP:and  STATUS:               ID:20170407062741     3
 2017-04-07-0628-00M.COL___359                                                 6
 STAT SP IPHASW D HRMM SECON CODA AMPLIT PERI AZIMU VELO AIN AR TRES W  DIS CAZ7
 BAR2 EZ IP     C  637  9.35                             171    0.2010 22.9 196 
 BAR2 EZ ES        637 24.40                             171   -0.4310 22.9 196 
 BAR2 EZ I         637 25.58         5.4 0.08            168           22.9 196 
 BRR  HZ IP     C  637 11.26                             152    0.5010 73.7 298 
 BRR  HN ES        637 28.48                             152    0.7710 73.7 298 
 BRR  HZ I         637 32.56         5.5 0.14            150           73.7 298 
 PAM  EZ EP   3    637 12.42                             152    0.77 2 76.7  38 
 PAM  EN ES        637 28.95                             152   -0.3310 76.7  38 
 PAM  EZ I         637 30.03         3.0 0.32            157           76.7  38 
 RUS  HZ EP        637 13.24                             145    0.1310 99.5 177 
 RUS  HN ES        637 32.09                             145    0.2010 99.5 177 
 RUS  HZ I         637 32.84         1.8 0.18            146           99.5 177 
 PTB  HZ EP        637 16.15                             132   -0.37 9  150 259 
 PTB  HN ES        637 37.04                             132   -0.92 9  150 259 
 PTB  HZ I         637 43.09         4.2 0.16            132            150 259 
 SPBC HZ EP        637 18.26                             130    0.35 9  164 220 
 SPBC HN ES        637 40.27                             130   -0.17 9  164 220 
 SPBC HZ I         637 45.70         3.8 0.11            130            164 220 
 ZAR  HN ES        637 47.84                             123    0.13 8  207 292 
 ZAR  HZ I         637 53.37         4.3 0.34            123            207 292 
 NOR  HZ EP        637 25.57                             119    0.43 8  236 235 
 NOR  HN ES        637 53.48                             119    0.18 8  236 235 
 NOR  HZ I         637 58.78         2.4 0.20            120            236 235 
 CHI  HZ EP   2    637 27.27                             118    0.34 4  248 196 
 CHI  HN ES        637 56.67                             118    0.19 8  248 196 
 CHI  HZ I         638  2.29         1.5 0.44            119            248 196 
 URE  HZ EP        637 29.80                             114   -0.78 7  286 292 
 URE  HN ES   4    638  1.28                             114   -1.70 0  286 292 
 URE  HZ I         638  7.13         2.0 0.12            115            286 292 
 PTGC HZ EP        637 32.10                             112   -0.78 7  307 159 
 CBOC HZ EP   3    637 37.95                             110    1.62 2  335 252 
 CBOC HN ES   4    638 10.82                             110   -2.41 0  335 252 
 CBOC HZ I         638 14.12         0.6 0.14            111            335 252 
                                                                                
