 2010 12 7 0035 29.0 L   6.840 -73.233135.0  RSN  6 0.5 1.6LRSN                1
 GAP=147        0.79       7.1    14.0 12.3 -0.6240E+02  0.7369E+02 -0.1935E+02E
 Epicentro: ZAPATOCA - SANTANDER                                               3
 ACTION:UP  11-01-14 15:23 OP:pat  STATUS:               ID:20101207003529 L   I
 2010-12-07-0031-21S.COL___135                                                 6
 STAT SP IPHASW D HRMM SECON CODA AMPLIT PERI AZIMU VELO SNR AR TRES W  DIS CAZ7
 BTL  SZ EP        035 47.31                             176     0.210    9 336 
 BAR2 SZ EP   2    035 47.03                             167    -0.4 5   28 169 
 BAR2 SZ ES   2    036  1.39                             167    -0.4 5   28 169 
 BAR2 SZ I         036  3.15        16.6 0.30                            28 169 
 GRA  SZ EP   2    035 53.54                             135     0.3 5  125  22 
 GRA  SZ ES   2    036 12.89                             135     0.8 5  125  22 
 GRA  SZ I         036 15.26         4.3 0.24                           125  22 
 OCA  SZ EP   1    035 55.75                             128    -0.2 7  155 356 
 OCA  SZ ES   2    036 16.12                             128    -0.9 5  155 356 
 OCA  SZ I         036 21.27         6.2 0.21                           155 356 
 NOR  SZ EP   2    036  3.44                             117    -0.1 4  230 232 
 NOR  SN ES   2    036 31.21                             117     0.7 4  230 232 
 CHI  HZ EP   2    036  5.91                             114    -0.4 4  251 193 
 CHI  HZ I         036 39.40         2.5 0.31                           251 193 
                                                                                
