 2012  9 7 0548 21.4 L   6.781 -73.155151.7  RSN  9 0.4 2.2LRSN                1
 GAP=136        0.76       4.4     4.5  5.9  0.4143E+00  0.5453E+01  0.8945E+01E
 Epicentro: LOS SANTOS - SANTANDER                                             3
 ACTION:UPD 12-10-22 14:17 OP:ep   STATUS:               ID:20120907054821 L   I
 2012-09-07-0546-59S.COL___226                                                 6
 STAT SP IPHASW D HRMM SECON CODA AMPLIT PERI AZIMU VELO AIN AR TRES W  DIS CAZ7
 BAR2 SZ EP   1    548 41.57                             172   -0.12 7 21.1 188 
 BAR2 SZ ES   1    548 57.52                             172   -0.01 7 21.1 188 
 BAR2 SZ I         548 58.22        60.5 0.26                          21.1 188 
 GIR2 SZ EP   1    548 41.59                             167   -0.23 7 33.2 353 
 GIR2 SZ ES   1    548 58.18                             167    0.43 7 33.2 353 
 BRR  HZ EP   1    548 43.39                             153    0.20 7 71.3 300 
 BRR  HZ I         548 43.76        44.1 0.14                          71.3 300 
 BRR  HN ES   1    549  0.87                             153    0.68 7 71.3 300 
 PAM  SZ EP   1    548 44.43                             151    0.06 7 79.7  39 
 PAM  SZ I         548 44.76        46.4 0.22                          79.7  39 
 PAM  SN ES   1    549  1.97                             151   -0.33 7 79.7  39 
 RUS  HZ EP   1    548 45.57                             146   -0.02 7 98.6 175 
 RUS  HE ES   1    549  4.24                             146   -0.22 7 98.6 175 
 RUS  HZ I         549  5.45        10.6 0.38                          98.6 175 
 PTB  HZ EP   1    548 48.43                             134   -0.29 7  146 260 
 PTB  HN ES   1    549  9.17                             134   -0.87 7  146 260 
 PTB  HN I         549 15.11        30.1 0.48                           146 260 
 ZAR  HE ES   1    549 19.81                             124    0.00 6  204 293 
 ZAR  HZ I         549 26.60         7.5 0.45                           204 293 
 CHI  HZ EP   1    548 59.15                             119   -0.02 6  246 195 
 PRA  HZ EP   1    549 15.44                             108    0.60 4  390 210 
 PRA  HN ES   1    549 57.59                             108    1.05 4  390 210 
 PRA  HZ I         550  4.16         4.8 0.20                           390 210 
                                                                                
