 2016 12 7 0746 26.5 L   6.638 -73.166144.2  RSN  4 0.1 1.4LRSN                1
 GAP=248        0.39       4.3     2.8  3.1  0.4241E+01  0.2343E+01 -0.2351E-01E
 Epicentro: VILLANUEVA - SANTANDER                                             3
 ACTION:UPD 17-01-11 20:13 OP:rebc STATUS:               ID:20161207074626 L   I
 OLDACT:REG 16-12-07 12:53 OP:ar   STATUS:               ID:20161207073742     3
 2016-12-07-0738-00M.COL___349                                                 6
 STAT SP IPHASW D HRMM SECON CODA AMPLIT PERI AZIMU VELO AIN AR TRES W  DIS CAZ7
 BAR2 EZ EP        746 45.96                             178    0.2210 5.41 199 
 BAR2 EZ ES        747  0.61                             178   -0.1210 5.41 199 
 BAR2 EZ I         747  1.87         7.6 0.48            174           5.41 199 
 BRR  HZ EP        746 47.98                             149   -0.0210 79.5 311 
 BRR  HN ES        747  4.75                             149   -0.0010 79.5 311 
 BRR  HZ I         747  6.50         4.6 0.24            147           79.5 311 
 PTB  HZ EP        746 52.89                             133   -0.05 9  143 266 
 PTB  HN ES        747 13.57                             133    0.02 9  143 266 
 PTB  HZ I         747 16.35         2.7 0.14            132            143 266 
 ZAR  HZ EP        746 59.23                             121   -0.19 8  209 297 
 ZAR  HN ES        747 25.20                             121    0.12 8  209 297 
 ZAR  HZ I         747 30.83         2.8 0.22            121            209 297 
                                                                                
