 2010  5 7 0055  1.9 L   6.767 -73.037144.3  RSN 15 0.5 2.5LRSN                1
 GAP=184        0.98       4.3     7.8  6.0 -0.2205E+02  0.5328E+01  0.5201E+01E
 Epicentro: LOS SANTOS - SANTANDER                                             3
 ACTION:UP  10-08-24 10:03 OP:vdl  STATUS:               ID:20100507005501 L   I
 2010-05-07-0053-29S.COL___105                                                 6
 STAT SP IPHASW D HRMM SECON CODA AMPLIT PERI AZIMU VELO SNR AR TRES W  DIS CAZ7
 BAR2 SZ IP        055 21.31                             170    -0.110   25 220 
 BAR2 SZ ES   1    055 36.09                             170    -0.5 7   25 220 
 GIR2 SZ EP   2    055 20.83                             165    -0.8 5   39 333 
 GIR2 SZ ES   1    055 36.59                             165    -0.4 7   39 333 
 BRR  HZ IP     C  055 24.00                             149     0.410   84 297 
 BRR  HE ES   1    055 41.02                             149     0.4 7   84 297 
 BRR  HZ I         055 43.72        57.9 0.13                            84 297 
 BRI  SZ EP        055 25.85                             142     0.210  108  14 
 BRI  SZ ES   1    055 44.11                             142     0.0 7  108  14 
 GUE  SZ EP   1    055 27.56                             139     1.0 7  118   6 
 GRA  SZ IP        055 27.17                             137     0.110  126  12 
 GRA  SZ ES        055 46.17                             137    -0.510  126  12 
 OCA  SZ EP   1    055 30.55                             129     0.0 7  166 349 
 OCA  SZ ES   1    055 53.13                             129     0.1 7  166 349 
 OCA  SZ I         055 57.74        31.0 0.20                           166 349 
 CHI  HZ EP   2    055 39.20                             117    -0.3 4  249 198 
 CHI  HE ES   2    056  9.18                             117     0.4 4  249 198 
 CHI  HZ I         056 14.45        13.4 0.33                           249 198 
 ROSC BZ EP   1    055 39.86                             116    -0.4 6  256 214 
 ROSC BN ES        056 10.67                             116     0.4 8  256 214 
 ROSC BZ I         056 15.86        20.8 0.39                           256 214 
 HEL  HZ EP   2    055 42.36                             114    -0.9 4  283 257 
 HEL  HZ I         056 20.12        12.9 0.29                           283 257 
 RREF BZ EP        055 48.73                             110     0.0 7  329 231 
 RREF BN ES   1    056 25.53                             110     0.2 5  329 231 
 RREF BZ I         056 33.07        22.9 0.31                           329 231 
 TOL  SZ EP   1    055 51.63                             109     0.9 5  350 226 
 TOL  SZ ES   2    056 29.42                             109     0.5 3  350 226 
 DBB  SZ EP   2    055 49.90                             109    -0.8 3  352 275 
 MON  HZ EP        055 51.20                             108    -0.9 6  364 308 
 MON  HZ I         056 43.08         7.0 0.50                           364 308 
 PRA  HZ EP   1    055 54.94                             106    -0.8 4  395 211 
 PRA  HE ES   2    056 37.07                             106    -0.6 3  395 211 
 PRA  HZ I         056 42.95        17.5 0.40                           395 211 
                                                                                
