 2014  7 7 0956  3.5 L   6.181 -73.746110.0  RSN  5 0.5 1.2LRSN                1
 GAP= 98        1.21       6.9     5.0 10.4  0.6777E+00  0.4973E+01 -0.2060E+02E
 Epicentro: LANDAZURI - SANTANDER                                              3
 ACTION:UPD 15-03-16 20:42 OP:nd   STATUS:               ID:20140707095603 L   I
 OLDACT:UP  14-07-09 19:58 OP:nd   STATUS:               ID:20140707095603 L   3
 OLDACT:UP  14-07-09 09:00 OP:SPQ  STATUS:               ID:20140707095603 L   3
 OLDACT:REG 14-07-07 14:22 OP:stll STATUS:               ID:20140707094820     3
 2014-07-07-0948-20M.COL___250                                                 6
 STAT SP IPHASW D HRMM SECON CODA AMPLIT PERI AZIMU VELO AIN AR TRES W  DIS CAZ7
 SPBC HZ EP   1    956 20.94                             146    0.09 7 68.7 212 
 SPBC HN ES        956 35.02                             146    0.6210 68.7 212 
 SPBC HZ I         956 36.46         5.7 0.18             47           68.7 212 
 BAR2 SZ EP        956 22.01                             142    0.3510 77.2  54 
 BAR2 SZ ES        956 36.21                             142    0.3610 77.2  54 
 RUS  HZ EP        956 21.85                             142   -0.3810 80.0 113 
 RUS  HN ES   1    956 36.08                             142   -0.79 7 80.0 113 
 RUS  HZ I         956 39.78         2.7 0.62             47           80.0 113 
 PTB  HZ EP        956 21.63                             138   -0.5610 88.0 297 
 PTB  HN ES        956 36.38                             138   -0.4210 88.0 297 
 PTB  HZ I         956 42.46         2.5 0.28             47           88.0 297 
 ZAR  HZ EP        956 32.89                             115    0.57 9  190 320 
 ZAR  HZ I         956 58.10         2.5 0.26             37            190 320 
                                                                                
