 2010  6 7 0100 26.6 L   6.780 -73.045138.8  RSN  9 0.4 2.0LRSN                1
 GAP=149        0.83       5.9     9.8  6.3 -0.4647E+02 -0.6266E+01  0.9377E+01E
 Epicentro: LOS SANTOS - SANTANDER                                             3
 ACTION:UP  10-08-24 10:08 OP:vdl  STATUS:               ID:20100607010026 L   I
 2010-06-07-0057-19S.COL___111                                                 6
 STAT SP IPHASW D HRMM SECON CODA AMPLIT PERI AZIMU VELO SNR AR TRES W  DIS CAZ7
 BAR2 SZ EP        1 0 45.63                             169     0.110   26 216 
 BAR2 SZ ES   1    1 1  0.11                             169    -0.1 7   26 216 
 GIR2 SZ EP        1 0 45.67                             164     0.010   37 334 
 GIR2 SZ ES   2    1 1  0.13                             164    -0.4 5   37 334 
 GUE  SZ EP        1 0 50.62                             138    -0.110  117   7 
 GUE  SZ ES   1    1 1  9.31                             138    -0.2 7  117   7 
 GRA  SZ IP        1 0 51.44                             136     0.210  125  12 
 GRA  SZ ES   1    1 1 10.71                             136     0.3 7  125  12 
 CHI  HZ EP   1    1 1  3.22                             115    -0.8 6  250 198 
 CHI  HZ I         1 1 38.82         6.9 0.29                           250 198 
 ROSC BZ EP   1    1 1  5.49                             115     0.7 6  257 213 
 ROSC BN ES   1    1 1 35.09                             115     0.5 6  257 213 
 ROSC BZ I         1 1 41.82         8.3 0.40                           257 213 
 HEL  HZ EP   1    1 1  7.40                             112    -0.3 6  282 257 
 RREF BZ EP   1    1 1 14.02                             109     0.7 5  329 231 
 RREF BN ES   1    1 1 48.85                             109    -0.9 5  329 231 
 RREF BZ I         1 1 54.23         6.9 0.22                           329 231 
 SDV  BZ EP        1 1 15.21                             107    -0.4 6  353  49 
 SDV  BZ I         1 1 57.13         2.1 0.65                           353  49 
                                                                                
