 2013  8 7 0618 44.6 L   6.791 -73.150146.7  RSN  9 0.5 2.0LRSN                1
 GAP=136        1.14       4.9     5.9  7.8 -0.2209E+01  0.1112E+02  0.3361E+01E
 Epicentro: LOS SANTOS - SANTANDER                                             3
 ACTION:UPD 14-01-14 08:59 OP:ep   STATUS:               ID:20130807061844 L   I
 OLDACT:REG 13-08-07 07:34 OP:carl STATUS:               ID:20130807060960d    3
 2013-08-07-0609-59M.COL___269                                                 6
 STAT SP IPHASW D HRMM SECON CODA AMPLIT PERI AZIMU VELO AIN AR TRES W  DIS CAZ7
 BAR2 SZ EP        619  4.42                             171    0.0810 22.3 189 
 BAR2 SZ ES   1    619 19.37                             171   -0.36 7 22.3 189 
 BAR2 SZ I         619 20.41        18.6 0.42            171           22.3 189 
 GIR2 SZ EP        619  4.30                             167   -0.1310 32.2 351 
 GIR2 SZ ES   1    619 19.90                             167    0.02 7 32.2 351 
 GIR2 SZ I         619 21.30        15.3 0.32            168           32.2 351 
 BRR  HZ EP        619  6.34                             153    0.4710 71.3 299 
 BRR  HN ES   1    619 23.31                             153    0.86 7 71.3 299 
 BRR  HN I         619 23.77        64.6 0.26            153           71.3 299 
 PAM  SZ IP     C  619  7.28                             151    0.2810 78.4  39 
 PAM  SN ES   1    619 24.29                             151   -0.17 7 78.4  39 
 PAM  SZ I         619 26.53        14.1 0.74            153           78.4  39 
 RUS  HZ EP        619  8.41                             144    0.0110 99.6 176 
 RUS  HN ES   1    619 27.16                             144    0.21 7 99.6 176 
 RUS  HZ I         619 28.84         5.2 0.32            146           99.6 176 
 PTB  HZ EP        619 11.16                             132   -0.45 9  147 259 
 PTB  HN ES   1    619 31.97                             132   -0.69 7  147 259 
 PTB  HZ I         619 35.28         7.5 0.28            134            147 259 
 OCA  HN ES   1    619 34.25                             130   -1.05 7  161 353 
 OCA  HN I         619 36.86        35.5 0.24            132            161 353 
 SPBC HZ EP        619 12.32                             129   -0.77 9  162 219 
 SPBC HN ES   1    619 35.81                             129    0.51 7  162 219 
 SPBC HZ I         619 37.38         5.6 0.22            131            162 219 
 ZAR  HZ EP        619 18.02                             123    0.90 9  204 292 
 ZAR  HN ES   1    619 42.32                             123   -0.15 6  204 292 
                                                                                
