 2013 10 7 0029  9.8 L   6.776 -73.120144.9  RSN 10 0.4 2.0LRSN                1
 GAP=141        0.94       3.1     4.6  6.1 -0.3108E+01  0.4997E+01  0.1535E+01E
 Epicentro: LOS SANTOS - SANTANDER                                             3
 ACTION:UPD 13-11-25 09:19 OP:ep   STATUS:               ID:20131007002909 L   I
 OLDACT:UP  13-10-07 13:25 OP:mh   STATUS:               ID:20131007002739     3
 OLDACT:REG 13-10-07 13:20 OP:mh   STATUS:               ID:20131007002739     3
 2013-10-07-0027-39M.COL___235                                                 6
 STAT SP IPHASW D HRMM SECON CODA AMPLIT PERI AZIMU VELO AIN AR TRES W  DIS CAZ7
 BAR2 SZ EP   1    029 29.15                             171   -0.15 7 21.5 199 
 BAR2 SZ ES   1    029 44.41                             171   -0.08 7 21.5 199 
 BAR2 SZ I         029 48.34        30.7 0.46            169           21.5 199 
 BRR  HZ EP   1    029 31.28                             151    0.20 7 74.9 299 
 BRR  HN ES        029 48.40                             151    0.7310 74.9 299 
 BRR  HZ I         029 49.52        14.2 0.14            150           74.9 299 
 PAM  SZ EP   1    029 32.20                             151    0.25 7 77.7  37 
 PAM  SN ES   1    029 49.37                             151    0.15 7 77.7  37 
 PAM  SZ I         029 51.89        17.3 0.64            155           77.7  37 
 RUS  HZ EP   1    029 33.30                             144    0.02 7 97.8 178 
 RUS  HN ES        029 51.12                             144   -0.4610 97.8 178 
 RUS  HZ I         029 53.08         8.7 0.38            146           97.8 178 
 PTB  HZ EP   1    029 36.31                             131   -0.61 7  150 260 
 PTB  HN ES        029 57.24                             131   -0.82 9  150 260 
 PTB  HZ I         030  4.96         7.9 0.24            132            150 260 
 OCA  HZ EP   1    029 37.92                             129   -0.41 7  163 352 
 OCA  HN ES        030  0.32                             129   -0.26 9  163 352 
 OCA  HZ I         030  4.56        12.9 0.18            132            163 352 
 SPBC HZ EP   1    029 38.34                             129    0.12 7  163 220 
 SPBC HN ES        030  0.97                             129    0.59 9  163 220 
 SPBC HZ I         030  7.40        16.9 0.24            130            163 220 
 ZAR  HZ EP   1    029 43.17                             122    0.60 6  208 293 
 ZAR  HN ES   2    030  7.43                             122   -0.70 4  208 293 
 ZAR  HZ I         030 12.98        12.3 0.28            123            208 293 
 NOR  HZ EP        029 45.54                             118   -0.04 8  235 235 
 NOR  HE ES        030 13.77                             118    0.30 8  235 235 
 NOR  HZ I         030 17.58        10.5 0.18            120            235 235 
 CHI  HZ EP   1    029 47.56                             117    0.29 6  247 196 
 CHI  HN ES   1    030 16.40                             117   -0.08 6  247 196 
 CHI  HZ I         030 22.45         4.0 0.34            119            247 196 
                                                                                
