 2014  3 7 0202 55.3 L   6.781 -73.147138.0  RSN  9 0.5 1.7LRSN                1
 GAP=137        1.16       4.5     4.6  7.3 -0.1191E+01  0.1477E+02  0.3123E+01E
 Epicentro: LOS SANTOS - SANTANDER                                             3
 ACTION:UPD 14-04-09 23:15 OP:nd   STATUS:               ID:20140307020255 L   I
 OLDACT:REG 14-03-07 09:03 OP:nd   STATUS:               ID:20140307020045     3
 2014-03-07-0200-45M.COL___218                                                 6
 STAT SP IPHASW D HRMM SECON CODA AMPLIT PERI AZIMU VELO AIN AR TRES W  DIS CAZ7
 BAR2 SZ EP        2 3 14.01                             171    0.0910 21.2 191 
 BAR2 SZ ES        2 3 28.55                             171    0.0810 21.2 191 
 BAR2 SZ I         2 3 30.02        21.7 0.24            169           21.2 191 
 PAM  SZ EP        2 3 16.53                             149   -0.2410 79.1  39 
 PAM  SN ES        2 3 33.67                             149    0.1310 79.1  39 
 PAM  SZ I         2 3 36.00         8.3 0.50            154           79.1  39 
 RUS  HZ EP        2 3 17.98                             143   -0.1310 98.5 176 
 RUS  HN ES        2 3 36.26                             143    0.3410 98.5 176 
 RUS  HZ I         2 3 37.78         4.6 0.30            145           98.5 176 
 PTB  HZ EP        2 3 20.95                             130   -0.62 9  147 260 
 PTB  HN ES        2 3 41.08                             130   -1.00 9  147 260 
 PTB  HZ I         2 3 49.11         7.1 0.26            131            147 260 
 ZAR  HZ EP        2 3 28.29                             120    1.00 9  205 293 
 ZAR  HN ES        2 3 52.15                             120   -0.12 9  205 293 
 ZAR  HZ I         2 3 58.04         8.6 0.36            122            205 293 
 NOR  HZ EP        2 3 30.35                             117   -0.07 8  233 235 
 NOR  HN ES        2 3 58.68                             117    0.85 8  233 235 
 NOR  HZ I         2 3 59.71         5.7 0.18            118            233 235 
 CHI  HZ EP        2 3 32.35                             116    0.03 8  247 195 
 CHI  HN ES        2 4  0.71                             116   -0.51 8  247 195 
 CHI  HZ I         2 4  7.57         2.2 0.32            118            247 195 
 HEL  HZ EP        2 3 34.81                             113   -0.22 8  271 256 
 HEL  HN ES        2 4  6.67                             113    0.63 8  271 256 
 HEL  HZ I         2 4 13.25         3.1 0.34            115            271 256 
 GUY2CHZ EP   2    2 3 38.75                             111    0.37 4  300 235 
 GUY2CHN ES   4    2 4 11.73                             111   -0.28 0  300 235 
 GUY2CHZ I         2 4 20.63         3.9 0.42                           300 235 
                                                                                
