 2017 11 7 0719 14.6 L   6.776 -73.136148.5  RSN 12 0.5 1.7LRSN                1
 GAP=114        0.99       3.8     3.5  5.8  0.5620E+00  0.3495E+01  0.6577E+01E
 Epicentro: LOS SANTOS - SANTANDER                                             3
 ACTION:UPD 17-12-12 19:53 OP:rebc STATUS:               ID:20171107071914 L   I
 OLDACT:UP  17-11-07 16:02 OP:dnl  STATUS:               ID:20171107071744     3
 OLDACT:UP  17-11-07 16:02 OP:dnl  STATUS:               ID:20171107071744     3
 OLDACT:REG 17-11-07 13:28 OP:dnl  STATUS:               ID:20171107071744     3
 2017-11-07-0718-00M.COL___405                                                 6
 STAT SP IPHASW D HRMM SECON CODA AMPLIT PERI AZIMU VELO AIN AR TRES W  DIS CAZ7
 BAR2 EZ IP     C  719 34.31                             172   -0.2110 20.9 194 
 BAR2 EZ ES        719 49.79                             172   -0.2610 20.9 194 
 BAR2 EZ I         719 51.15         9.5 0.30            169           20.9 194 
 BRR  HZ EP        719 36.38                             152    0.2110 73.5 300 
 BRR  HN ES        719 53.47                             152    0.4710 73.5 300 
 BRR  HZ I         719 57.39         9.5 0.12            151           73.5 300 
 PAM  EZ EP        719 37.46                             151    0.2710 78.8  38 
 PAM  EE ES        719 54.36                             151   -0.4510 78.8  38 
 PAM  EZ I         719 57.30         6.3 0.40            155           78.8  38 
 PTB  HZ EP        719 40.97                             132   -0.88 9  148 260 
 PTB  HN ES        720  2.94                             132   -0.16 9  148 260 
 PTB  HZ I         720  7.00         4.0 0.28            132            148 260 
 SPBC HZ EP        719 43.27                             130    0.09 9  162 220 
 SPBC HE ES        720  5.56                             130    0.08 9  162 220 
 SPBC HZ I         720 12.12         5.4 0.10            130            162 220 
 YPLC HZ EP        719 44.76                             128    0.44 9  174 151 
 YPLC HN ES        720  7.79                             128    0.30 9  174 151 
 YPLC HZ I         720  8.91         6.6 0.24            130            174 151 
 ZAR  HZ EP   2    719 47.53                             123    0.09 4  206 293 
 ZAR  HN ES        720 13.47                             123    0.42 8  206 293 
 ZAR  HZ I         720 18.69         8.9 0.48            123            206 293 
 NOR  HZ EP   2    719 51.06                             119    0.64 4  234 235 
 NOR  HE ES        720 18.71                             119    0.35 8  234 235 
 NOR  HZ I         720 23.76         3.4 0.26            120            234 235 
 URE  HZ EP        719 55.54                             114   -0.49 7  286 292 
 URE  HN ES   4    720 27.02                             114   -1.33 0  286 292 
 URE  HZ I         720 34.78         4.3 0.32            115            286 292 
 GUY2CHZ EP   4    720  0.87                             113    2.60 0  301 235 
 GUY2CHE ES   4    720 34.45                             113    2.12 0  301 235 
 GUY2CHZ I         720 39.66         2.5 0.32                           301 235 
 PTGC HZ EP   2    719 57.40                             112   -0.85 4  306 159 
 PTGC HE ES   4    720 30.04                             112   -2.26 0  306 159 
 PTGC HZ I         720 31.91         3.6 0.52            114            306 159 
 PRA  HZ EP        720  8.68                             107    0.67 6  390 210 
 PRA  HE ES  4     720 48.59                             107   -1.08 6  390 210 
 PRA  HZ I         720 56.69         1.0 0.24            108            390 210 
                                                                                
