 2012  8 7 0556  2.1 L   5.811 -73.802105.8  RSN  5 0.3 1.6LRSN                1
 GAP=142        0.75       4.6     4.6  9.9  0.5124E+01  0.1898E+02  0.1494E+02E
 Epicentro: JESUS MARIA - SANTANDER                                            3
 ACTION:UPD 12-09-10 11:55 OP:ep   STATUS:               ID:20120807055602 L   I
 2012-08-07-0550-00M.COL___216                                                 6
 STAT SP IPHASW D HRMM SECON CODA AMPLIT PERI AZIMU VELO AIN AR TRES W  DIS CAZ7
 RUS  HZ EP   1    556 20.52                             140    0.08 8 80.2  84 
 RUS  HN ES   1    556 34.52                             140   -0.26 8 80.2  84 
 RUS  HZ I         556 37.42         5.5 0.26                          80.2  84 
 PTB  HZ EP        556 21.86                             130   -0.3410  108 318 
 PTB  HE ES   1    556 38.34                             130    0.43 7  108 318 
 PTB  HZ I         556 39.55         5.0 0.17                           108 318 
 BAR2 SZ EP        556 23.29                             130    0.6010  110  38 
 BAR2 SZ ES        556 38.72                             130   -0.0610  110  38 
 BAR2 SZ I         556 40.46        45.3 0.33                           110  38 
 CHI  HZ EP   1    556 24.90                             125   -0.02 7  131 177 
 CHI  HZ I         556 50.61         2.4 0.25                           131 177 
 BRR  HZ EP        556 25.47                             122   -0.20 9  144   4 
 BRR  HN ES   1    556 43.82                             122   -0.27 7  144   4 
 BRR  HZ I         556 46.87        11.7 0.12                           144   4 
                                                                                
