 2012  8 7 0331 26.4 L   7.280 -73.165  9.1  RSN  5 0.4 1.1LRSN                1
 GAP= 98        0.75       3.2     2.5  6.9 -0.1747E+01  0.6798E+01  0.2161E+01E
 Epicentro: RIONEGRO - SANTANDER                                               3
 ACTION:UPD 12-09-10 11:54 OP:ep   STATUS:               ID:20120807033126 L   I
 2012-08-07-0330-00M.COL___216                                                 6
 STAT SP IPHASW D HRMM SECON CODA AMPLIT PERI AZIMU VELO AIN AR TRES W  DIS CAZ7
 PAM  SZ EP   1    331 35.62                              97    0.18 7 51.8  83 
 PAM  SE ES   1    331 41.93                              97   -0.52 7 51.8  83 
 BRR  HZ EP   1    331 37.12                              95    0.44 7 63.4 252 
 BRR  HZ I         331 39.95        10.6 0.18                          63.4 252 
 BRR  HN ES   1    331 44.07                              95   -0.59 7 63.4 252 
 OCA  HZ EP   1    331 43.62                              93    0.14 7  107 351 
 RUS  HZ EP   1    331 51.24                              92    0.38 7  154 177 
 RUS  HN ES   1    332  9.88                              92   -0.02 7  154 177 
 RUS  HZ I         332 16.02         1.8 0.22                           154 177 
 PTB  HZ EP   1    331 52.23                              56    0.37 7  165 240 
 PTB  HN ES   1    332 11.34                              56   -0.34 7  165 240 
 PTB  HZ I         332 12.80         3.2 0.21                           165 240 
                                                                                
