 2012 11 7 0256 18.4 L   6.763 -73.118144.7  RSN  7 0.3 2.0LRSN                1
 GAP= 99        0.74       3.1     4.8  4.9 -0.2904E+01 -0.4177E+01  0.4329E+01E
 Epicentro: LOS SANTOS - SANTANDER                                             3
 ACTION:UPD 12-12-05 15:31 OP:}ep  STATUS:               ID:20121107025618 L   I
 2012-11-07-0250-00M.COL___230                                                 6
 STAT SP IPHASW D HRMM SECON CODA AMPLIT PERI AZIMU VELO AIN AR TRES W  DIS CAZ7
 BAR2 SZ EP        256 37.68                             172   -0.1310 20.2 201 
 BAR2 SZ ES        256 52.65                             172   -0.3210 20.2 201 
 BAR2 SZ I         256 53.94        26.8 0.16                          20.2 201 
 GIR2 SZ EP        256 37.81                             165   -0.2310 36.0 347 
 BRR  HZ IP     C  256 39.65                             151   -0.0210 75.9 300 
 BRR  HN ES        256 56.71                             151    0.4210 75.9 300 
 BRR  HN I         256 57.30        34.6 0.24                          75.9 300 
 PAM  SZ EP        256 40.64                             150    0.0910 78.8  36 
 PAM  SN ES        256 57.56                             150   -0.2910 78.8  36 
 PAM  SN I         256 59.09        14.0 0.60                          78.8  36 
 RUS  HZ EP        256 41.93                             145    0.2310 96.3 178 
 RUS  HN ES        257  0.24                             145    0.3310 96.3 178 
 RUS  HN I         257  1.89        17.7 0.32                          96.3 178 
 TAM  HZ IP     D  256 45.96                             131    0.38 9  151 104 
 TAM  HZ I         256 46.39         8.6 0.40                           151 104 
 CHI  HZ EP        256 55.33                             117   -0.33 8  245 196 
 CHI  HN ES        257 24.45                             117   -0.30 8  245 196 
 CHI  HN I         257 27.40         5.1 0.42                           245 196 
                                                                                
