 2012  1 7 0508 36.4 L   6.799 -73.152149.8  RSN  4 0.2 1.2LRSN                1
 GAP=136        0.42       3.7     4.0  6.2 -0.1625E+01  0.4562E+01 -0.3465E+01E
 Epicentro: LOS SANTOS - SANTANDER                                             3
 ACTION:UP  12-02-03 08:14 OP:REBC STATUS:               ID:20120107050836 L   I
 2012-01-07-0500-00M.COL___186                                                 6
 STAT SP IPHASW D HRMM SECON CODA AMPLIT PERI AZIMU VELO SNR AR TRES W  DIS CAZ7
 BRR  HZ EP   2    5 8 57.83                             153    -0.1 5   71 299 
 BRR  HZ I         5 8 58.64         5.4 0.27                            71 299 
 BRR  HE ES   2    5 9 15.19                             153     0.4 5   71 299 
 PAM  SZ EP   1    5 8 59.22                             151     0.1 7   78  40 
 PAM  SN ES   2    5 9 16.44                             151    -0.3 5   78  40 
 RUS  HZ EP   2    5 9  0.76                             145     0.2 5  101 176 
 RUS  HE ES   1    5 9 19.35                             145     0.0 7  101 176 
 RUS  HZ I         5 9 20.38         1.7 0.32                           101 176 
 PTB  HZ EP   1    5 9  3.55                             133    -0.1 7  147 259 
 PTB  HN ES   2    5 9 24.70                             133    -0.2 5  147 259 
                                                                                
