 2013 11 7 0320 15.3 L   6.779 -73.154145.8  RSN 10 0.4 2.0LRSN                1
 GAP=136        0.97       3.7     4.2  6.7 -0.3506E+01  0.5490E+01  0.2838E+01E
 Epicentro: LOS SANTOS - SANTANDER                                             3
 ACTION:UPD 14-01-09 16:26 OP:ep   STATUS:               ID:20131107032015 L   I
 OLDACT:DUP 13-11-07 08:06 OP:jn   STATUS:               ID:20131107031744d    3
 OLDACT:REG 13-11-07 07:44 OP:jn   STATUS:               ID:20131107031743     3
 2013-11-07-0317-43M.COL___206                                                 6
 STAT SP IPHASW D HRMM SECON CODA AMPLIT PERI AZIMU VELO AIN AR TRES W  DIS CAZ7
 BAR2 SZ EP        320 34.83                             171   -0.0510 20.9 189 
 BAR2 SZ ES        320 50.17                             171    0.0210 20.9 189 
 BAR2 SZ I         320 51.05        30.8 0.16            171           20.9 189 
 BRR  HZ EP        320 36.76                             152    0.3010 71.5 301 
 BRR  HN ES        320 53.83                             152    0.8610 71.5 301 
 BRR  HZ I         320 57.27        19.0 0.14            148           71.5 301 
 PAM  SZ EP        320 37.69                             150    0.0310 79.8  39 
 PAM  SN ES        320 54.51                             150   -0.5910 79.8  39 
 PAM  SZ I         320 55.95         9.9 0.18            152           79.8  39 
 RUS  HZ EP        320 38.95                             144    0.0710 98.3 175 
 RUS  HN ES        320 57.23                             144   -0.0510 98.3 175 
 RUS  HZ I         320 58.32        10.4 0.20            148           98.3 175 
 PTB  HZ EP   1    320 41.75                             132   -0.39 7  146 260 
 PTB  HN ES        321  2.26                             132   -0.82 9  146 260 
 PTB  HZ I         321  4.78        17.2 0.42            131            146 260 
 SPBC HZ EP        320 43.81                             129    0.24 9  161 219 
 SPBC HN ES        321  5.71                             129    0.09 9  161 219 
 SPBC HZ I         321 11.33        15.8 0.42            130            161 219 
 OCA  HE ES   1    321  6.24                             129    0.18 7  162 354 
 OCA  HZ I         321  9.94        13.2 0.32            129            162 354 
 ZAR  HN ES   1    321 12.60                             122   -0.45 6  204 293 
 ZAR  HZ I         321 23.69         8.0 0.30            121            204 293 
 NOR  HN ES        321 18.69                             119    0.20 8  233 235 
 ORTC HN ES   2    321 50.77                             106    0.01 3  393 216 
                                                                                
