 2016  8 7 0218 43.8 L   6.809 -73.134148.1  RSN  7 0.3 1.8LRSN                1
 GAP=138        0.82       3.5     3.6  5.2 -0.3323E+00  0.4706E+01  0.2634E+00E
 Epicentro: LOS SANTOS - SANTANDER                                             3
 ACTION:UPD 16-10-29 15:32 OP:rebc STATUS:               ID:20160807021843 L   I
 OLDACT:REG 16-08-07 12:37 OP:dani STATUS:               ID:20160807021731     3
 2016-08-07-0218-00M.COL___368                                                 6
 STAT SP IPHASW D HRMM SECON CODA AMPLIT PERI AZIMU VELO AIN AR TRES W  DIS CAZ7
 BAR2 EZ EP        219  3.26                             170   -0.4310 24.5 193 
 BAR2 EZ ES        219 19.04                             170   -0.2010 24.5 193 
 BAR2 EZ I         219 21.25        19.9 0.24                          24.5 193 
 BRR  HZ EP        219  5.35                             153    0.1510 71.9 297 
 BRR  HN ES        219 21.98                             153    0.0610 71.9 297 
 BRR  HZ I         219 23.00        16.0 0.12                          71.9 297 
 PAM  EZ EP        219  6.49                             152    0.3610 75.8  39 
 PAM  EE ES        219 23.65                             152    0.0710 75.8  39 
 PAM  EZ I         219 25.97         7.1 0.22                          75.8  39 
 RUS  HZ EP        219  7.83                             144    0.0310  101 177 
 RUS  HN ES        219 26.49                             144   -0.0610  101 177 
 RUS  HZ I         219 27.48         4.7 0.38                           101 177 
 PTB  HZ EP        219 10.38                             132   -0.67 9  149 259 
 PTB  HE ES        219 32.19                             132   -0.15 9  149 259 
 PTB  HZ I         219 38.58         6.4 0.40                           149 259 
 SPBC HZ EP        219 12.51                             129   -0.07 9  165 219 
 SPBC HE ES        219 35.77                             129    0.70 9  165 219 
 SPBC HZ I         219 41.49        11.1 0.28                           165 219 
 ZAR  HZ EP        219 16.70                             123    0.26 9  205 292 
 ZAR  HE ES        219 41.95                             123    0.01 9  205 292 
 ZAR  HZ I         219 48.70         7.1 0.40                           205 292 
                                                                                
