 2015  2 7 0845 12.5 L   6.278 -73.712  4.0  RSN 12 0.5 2.0LRSN                1
 GAP= 89        1.22       2.3     2.2  5.6 -0.1107E+01  0.4125E+00 -0.7115E+00E
 Epicentro: SANTA HELENA DEL OPON - SANTANDER                                  3
 ACTION:UPD 15-04-30 21:23 OP:nd   STATUS:               ID:20150207084512 L   I
 OLDACT:UP  15-02-08 00:53 OP:cam  STATUS:               ID:20150207083737     3
 OLDACT:REG 15-02-07 12:43 OP:stll STATUS:               ID:20150207083737     3
 2015-02-07-0837-37M.COL___290                                                 6
 STAT SP IPHASW D HRMM SECON CODA AMPLIT PERI AZIMU VELO AIN AR TRES W  DIS CAZ7
 BAR2 EZ EP     D  845 23.72                              47    0.0410 68.1  59 
 BAR2 EZ ES        845 31.55                              47   -0.8410 68.1  59 
 BAR2 EZ I         845 33.21       119.0 0.30             47           68.1  59 
 SPBC HZ EP        845 25.22                              47   -0.0810 79.8 210 
 SPBC HN ES        845 34.53                              47   -0.7410 79.8 210 
 SPBC HZ I         845 42.19        30.5 0.26             47           79.8 210 
 RUS  HZ EP        845 26.60                              47    0.6110 81.6 121 
 RUS  HN ES        845 36.49                              47   -0.0010 81.6 121 
 RUS  HZ I         845 39.09        44.5 0.30             47           81.6 121 
 PTB  HZ EP        845 26.19                              47   -0.1510 87.2 289 
 PTB  HN ES        845 36.90                              47   -0.2310 87.2 289 
 PTB  HZ I         845 40.93        22.0 0.14             47           87.2 289 
 BRR  HZ EP        845 26.80                              47   -0.2010 91.7   0 
 BRR  HN ES        845 38.46                              47    0.1610 91.7   0 
 BRR  HN I         845 46.37        60.8 0.18             47           91.7   0 
 NOR  HZ EP        845 36.81                              47    0.84 9  150 238 
 NOR  HN ES        845 54.59                              47    0.33 9  150 238 
 NOR  HZ I         845 55.35        20.5 0.14             47            150 238 
 PAM  SZ EP        845 38.65                              47    0.46 9  162  44 
 CHI  HZ EP   4    845 43.87                              37    2.81 0  182 181 
 CHI  HN ES   4    846  5.75                              37    2.43 0  182 181 
 CHI  HZ I         846 10.57        17.0 0.38             47            182 181 
 HEL  HZ EP        845 43.22                              37   -0.15 9  201 267 
 HEL  HN ES   4    846  5.93                              37   -1.51 0  201 267 
 HEL  HZ I         846  8.92        15.7 0.28             37            201 267 
 GUY2CHZ EP   4    845 47.43                              37    1.96 0  217 238 
 GUY2CHN ES   4    846 12.73                              37    1.56 0  217 238 
 GUY2CHZ I         846 33.29         5.9 0.44                           217 238 
 OCA  HZ EP        845 46.12                              37    0.52 8  221  11 
 OCA  HN ES        846 11.86                              37    0.45 8  221  11 
 OCA  HZ I         846 15.25        20.9 0.38             37            221  11 
 TOL  SZ EP   4    845 52.26                              37    1.78 0  258 224 
 SML  HZ EP        845 52.10                              37   -0.90 7  282 352 
 SML  HZ I         846 31.58        10.9 0.10             37            282 352 
                                                                                
