 2013 12 7 0445 12.4 L   6.791 -73.197146.9  RSN  6 0.5 1.3LRSN                1
 GAP=131        1.19       5.9     6.2  8.7 -0.4486E+01  0.1276E+02  0.1052E+02E
 Epicentro: ZAPATOCA - SANTANDER                                               3
 ACTION:UPD 14-01-13 10:16 OP:ep   STATUS:               ID:20131207044512 L   I
 OLDACT:REG 13-12-07 08:20 OP:carl STATUS:               ID:20131207044000     3
 2013-12-07-0440-00M.COL___285                                                 6
 STAT SP IPHASW D HRMM SECON CODA AMPLIT PERI AZIMU VELO AIN AR TRES W  DIS CAZ7
 BAR2 SZ EP        445 31.99                             171   -0.1110 22.0 176 
 BAR2 SZ ES        445 47.22                             171   -0.2710 22.0 176 
 BAR2 SZ I         445 48.30         6.6 0.42            169           22.0 176 
 BRR  HZ EP        445 34.06                             154    0.6710 66.8 302 
 BRR  HN ES        445 50.38                             154    0.5910 66.8 302 
 BRR  HZ I         445 51.85         5.0 0.64            152           66.8 302 
 PAM  SN ES        445 52.37                             150   -0.2310 81.9  42 
 RUS  HZ EP        445 35.92                             144   -0.2610  100 173 
 RUS  HE ES        445 54.89                             144    0.1210  100 173 
 RUS  HZ I         445 57.22         2.0 0.46            146            100 173 
 PTB  HZ EP        445 38.65                             133   -0.25 9  142 259 
 PTB  HN ES        445 58.65                             133   -0.95 9  142 259 
 PTB  HZ I         446  7.42         3.1 0.30            133            142 259 
 SPBC HZ EP        445 40.59                             130    0.06 9  159 218 
 SPBC HN ES        446  3.11                             130    0.60 9  159 218 
                                                                                
