 2013 10 7 0535 39.5 L   6.761 -73.138144.9  RSN 10 0.4 1.9LRSN                1
 GAP=139        0.94       3.4     4.0  6.1 -0.2914E+01  0.7883E+01  0.2131E-01E
 Epicentro: LOS SANTOS - SANTANDER                                             3
 ACTION:UPD 13-11-25 09:19 OP:ep   STATUS:               ID:20131007053539 L   I
 OLDACT:REG 13-10-07 07:14 OP:mh   STATUS:               ID:20131007052959     3
 2013-10-07-0529-59M.COL___273                                                 6
 STAT SP IPHASW D HRMM SECON CODA AMPLIT PERI AZIMU VELO AIN AR TRES W  DIS CAZ7
 BAR2 SZ EP   1    535 59.13                             172    0.17 7 19.3 195 
 BAR2 SZ ES   1    536 13.95                             172   -0.18 7 19.3 195 
 BAR2 SZ I         536 14.99        36.3 0.24            170           19.3 195 
 BRR  HZ EP        536  1.02                             151    0.2910 74.1 301 
 BRR  HN ES        536 18.05                             151    0.7610 74.1 301 
 BRR  HZ I         536 19.04        16.1 0.20            149           74.1 301 
 PAM  SZ EP   1    536  1.96                             150    0.15 7 80.2  37 
 PAM  SN ES        536 19.05                             150   -0.1510 80.2  37 
 PAM  SZ I         536 21.10        12.6 0.64            152           80.2  37 
 RUS  HZ EP   1    536  2.95                             145    0.09 7 96.2 176 
 RUS  HN ES        536 21.05                             145   -0.0310 96.2 176 
 RUS  HZ I         536 22.18         8.1 0.24            146           96.2 176 
 PTB  HZ EP   1    536  5.64                             132   -0.77 7  148 261 
 PTB  HN ES        536 26.52                             132   -0.88 9  148 261 
 PTB  HZ I         536 28.63        11.4 0.16            131            148 261 
 SPBC HZ EP   1    536  7.77                             129    0.09 7  160 220 
 SPBC HN ES        536 29.85                             129    0.20 9  160 220 
 SPBC HZ I         536 35.06         9.1 0.38            129            160 220 
 OCA  HZ EP   1    536  8.00                             129   -0.17 7  165 353 
 OCA  HN ES   1    536 29.93                             129   -0.60 7  165 353 
 OCA  HZ I         536 32.49         9.4 0.30            129            165 353 
 ZAR  HZ EP   1    536 12.25                             122    0.09 6  207 293 
 ZAR  HN ES        536 37.70                             122    0.08 8  207 293 
 ZAR  HZ I         536 43.39         9.2 0.38            122            207 293 
 NOR  HZ EP        536 15.06                             118    0.06 8  233 235 
 NOR  HN ES        536 42.26                             118   -0.42 8  233 235 
 NOR  HZ I         536 47.25         6.3 0.20            119            233 235 
 HEL  HZ EP   1    536 20.26                             115    0.60 6  272 257 
 HEL  HN ES   1    536 51.68                             115    0.70 6  272 257 
 HEL  HZ I         536 58.61         3.4 0.26            115            272 257 
                                                                                
