 2017  3 7 0401 21.6 L   6.796 -73.147143.5  RSN 30 0.5 2.8LRSN                1
 GAP= 65        0.99       2.6     2.6  4.3 -0.2044E-01  0.3088E+01  0.1777E+01E
 Epicentro: LOS SANTOS - SANTANDER                                             3
 ACTION:UPD 17-05-25 18:37 OP:jn   STATUS:               ID:20170307040121 L   I
 OLDACT:UP  17-03-07 13:50 OP:and  STATUS:               ID:20170307035747     3
 OLDACT:UP  17-03-07 13:50 OP:and  STATUS:               ID:20170307035747     3
 OLDACT:UP  17-03-07 13:47 OP:and  STATUS:               ID:20170307035747     3
 OLDACT:UP  17-03-07 13:47 OP:and  STATUS:               ID:20170307035747     3
 OLDACT:UP  17-03-07 13:46 OP:and  STATUS:               ID:20170307035747     3
 OLDACT:UP  17-03-07 13:45 OP:and  STATUS:               ID:20170307035747     3
 OLDACT:UP  17-03-07 13:43 OP:and  STATUS:               ID:20170307035747     3
 OLDACT:UP  17-03-07 13:42 OP:and  STATUS:               ID:20170307035747     3
 OLDACT:UP  17-03-07 13:40 OP:and  STATUS:               ID:20170307035747     3
 OLDACT:UP  17-03-07 13:40 OP:and  STATUS:               ID:20170307035747     3
 OLDACT:UP  17-03-07 13:39 OP:and  STATUS:               ID:20170307035747     3
 OLDACT:UP  17-03-07 13:39 OP:and  STATUS:               ID:20170307035747     3
 OLDACT:UP  17-03-07 13:39 OP:and  STATUS:               ID:20170307035747     3
 OLDACT:UP  17-03-07 13:35 OP:and  STATUS:               ID:20170307035747     3
 OLDACT:UP  17-03-07 13:34 OP:and  STATUS:               ID:20170307035747     3
 OLDACT:UP  17-03-07 13:32 OP:and  STATUS:               ID:20170307035747     3
 OLDACT:REG 17-03-07 11:49 OP:and  STATUS:               ID:20170307035747     3
 2017-03-07-0358-00M.COL___367                                                 6
 STAT SP IPHASW D HRMM SECON CODA AMPLIT PERI AZIMU VELO AIN AR TRES W  DIS CAZ7
 BAR2 EZ IP     C  4 1 40.84                             170   -0.0710 22.9 190 
 BAR2 EZ ES        4 1 55.80                             170   -0.2010 22.9 190 
 BAR2 EZ I         4 1 57.06       157.8 0.32            168           22.9 190 
 BRR  HZ IP     C  4 1 42.63                             152    0.1610 71.3 299 
 BRR  HN ES        4 1 59.59                             152    0.8110 71.3 299 
 BRR  HZ I         4 2  3.35       132.2 0.12            151           71.3 299 
 PAM  EZ IP     C  4 1 43.59                             150    0.0210 77.8  39 
 PAM  EN ES        4 2  0.34                             150   -0.3910 77.8  39 
 PAM  EZ I         4 2  2.69       106.2 0.44            150           77.8  39 
 RUS  HZ IP     C  4 1 44.85                             144   -0.2110  100 176 
 RUS  HN ES        4 2  3.20                             144   -0.1910  100 176 
 RUS  HZ I         4 2  5.30        52.0 0.30            140            100 176 
 PTB  HZ EP        4 1 47.62                             132   -0.70 9  148 259 
 PTB  HN ES        4 2  8.19                             132   -1.01 9  148 259 
 PTB  HZ I         4 2 11.35        93.1 0.12            129            148 259 
 TAM  HZ IP     C  4 1 49.23                             130    0.16 9  155 105 
 TAM  HZ I         4 2  9.80        48.9 0.36            128            155 105 
 TAM  HN ES        4 2 10.66                             130    0.14 9  155 105 
 SPBC HZ EP        4 1 49.82                             129   -0.02 9  163 219 
 SPBC HN ES        4 2 12.42                             129    0.52 9  163 219 
 SPBC HZ I         4 2 17.96       133.0 0.12            126            163 219 
 ZAR  HZ EP        4 1 53.55                             122   -0.31 9  204 292 
 ZAR  HN ES        4 2 19.10                             122    0.04 9  204 292 
 ZAR  HZ I         4 2 24.58        66.5 0.09            120            204 292 
 NOR  HZ EP        4 1 57.28                             118    0.16 8  234 235 
 NOR  HN ES        4 2 25.09                             118    0.24 8  234 235 
 NOR  HZ I         4 2 26.72        57.3 0.16            116            234 235 
 CHI  HZ EP        4 1 59.20                             117    0.12 8  248 195 
 CHI  HN ES        4 2 28.43                             117    0.08 8  248 195 
 CHI  HZ I         4 2 33.76        28.9 0.30            114            248 195 
 ROSC BZ EP   9    4 2  0.77                             116    1.26 0  252 211 
 ROSC BN ES        4 2 31.33                             116    0.96 8  252 211 
 ROSC BZ I         4 2 35.54        59.0 0.40            114            252 211 
 HEL  HZ EP        4 2  1.68                             114    0.05 8  272 256 
 HEL  HN ES        4 2 33.50                             114    0.62 8  272 256 
 HEL  HZ I         4 2 39.16        42.5 0.32            112            272 256 
 URE  HZ EP   4    4 2  0.91                             113   -1.61 0  284 292 
 URE  HN ES   4    4 2 31.79                             113   -2.68 0  284 292 
 URE  HZ I         4 2 45.90        44.8 0.26            111            284 292 
 VIL  EZ EP        4 2  4.64                             112   -0.18 7  303 192 
 VIL  EN ES        4 2 39.30                             112    0.73 7  303 192 
 VIL  EZ I         4 2 49.52        28.7 0.28            109            303 192 
 PTGC HZ IP   9 C  4 2  4.08                             111   -1.20 0  308 159 
 PTGC HN ES        4 2 37.66                             111   -0.52 7  308 159 
 PTGC HZ I         4 2 43.25        17.4 0.42            109            308 159 
 LL6C HN EP   9    4 1 48.15                             110   -19.1 0  325 358 
 LL6C HE ES        4 2 24.56                                    0.80 7  325 358 
 ELA  HZ EP   4    4 2  9.95                             110    1.68 0  329 230 
 ELA  HN ES   4    4 2 49.13                             110    4.43 0  329 230 
 ELA  HZ I         4 2 54.72        28.6 0.40            108            329 230 
 CBOC HZ EP        4 2  8.72                             110    0.37 7  333 252 
 CBOC HN ES        4 2 44.70                             110   -0.14 7  333 252 
 CBOC HZ I         4 2 54.34        10.6 0.26            108            333 252 
 DBB  EZ EP     C  4 2  8.57                             109   -0.36 7  339 274 
 DBB  EN ES        4 2 45.20                             109   -0.68 7  339 274 
 DBB  EZ I         4 2 54.11        14.4 0.28            107            339 274 
 ANIL HZ EP   4    4 2 12.42                             108    1.19 0  357 225 
 ANIL HN ES   4    4 2 53.23                             108    3.26 0  357 225 
 ANIL HZ I         4 2 58.49        75.5 0.32            106            357 225 
 ARGC HZ EP   2    4 2 11.54                             108    0.36 3  360 340 
 ARGC HE ES        4 2 50.98                             108    1.11 6  360 340 
 PRA  HZ EP        4 2 14.65                             106   -0.30 6  392 210 
 PRA  HN ES        4 2 57.41                             106    0.82 6  392 210 
 PRA  HZ I         4 3  3.39        37.8 0.30            104            392 210 
 ORTC HZ EP        4 2 15.24                             106   -0.11 6  395 216 
 ORTC HN ES   3    4 2 58.79                             106    1.49 1  395 216 
 ORTC HZ I         4 3  4.93        24.3 0.52            104            395 216 
 SJC  HZ EP   4    4 2 15.32                             105   -1.76 0  410 327 
 SJC  HN ES   4    4 2 56.24                             105   -4.15 0  410 327 
 SJC  HZ I         4 3  0.54        12.0 0.44            104            410 327 
 CRJC HZ EP   4    4 2 21.34                             103   -2.71 0  468   4 
 CRJC HN ES   4    4 3  7.51                             103   -5.29 0  468   4 
 CRJC HZ I         4 3 13.03        10.3 0.33            102            468   4 
 YOT  HZ EP        4 2 24.21                             103   -0.28 5  471 229 
 YOT  HN ES   4    4 3 18.77                             103    5.19 0  471 229 
 MACC HZ EP   4    4 2 28.28                             101   -1.88 0  520 189 
 MACC HN ES   4    4 3 20.49                             101   -3.18 0  520 189 
 MACC HZ I         4 3 27.33         5.5 0.28            100            520 189 
 MARO HZ EP        4 2 31.89                             101   -0.59 4  537 216 
 GARC HZ EP   3    4 2 35.72                             100   -0.99 1  572 207 
 GARC HN ES        4 3 34.69                             100   -0.63 3  572 207 
 POP2 HZ EP        4 2 40.90                              99   -0.58 3  612 220 
 POP2 HN ES   3    4 3 42.78                              99   -1.03 1  612 220 
                                                                                
