 2010  3 7 0729 37.1 L   6.824 -73.039149.3  RSN 13 0.5 2.3LRSN                1
 GAP=133        1.07       3.9     6.4  6.5 -0.4550E+01  0.4202E+01  0.4737E+01E
 Epicentro: CEPITA - SANTANDER                                                 3
 ACTION:UP  10-08-24 09:52 OP:vdl  STATUS:               ID:20100307072937 L   I
 2010-03-07-0726-16S.COL___101                                                 6
 STAT SP IPHASW D HRMM SECON CODA AMPLIT PERI AZIMU VELO SNR AR TRES W  DIS CAZ7
 BAR2 SZ EP        729 57.14                             168    -0.110   30 212 
 BAR2 SZ ES   1    730 12.86                             168    -0.2 7   30 212 
 BRR  HZ IP        729 59.02                             150    -0.110   81 293 
 BRR  HZ I         729 59.33        68.7 0.18                            81 293 
 BRR  HN ES        730 16.65                             150     0.310   81 293 
 RUS  BZ EP        730  1.49                             144     0.210  103 183 
 RUS  BN ES   1    730 19.95                             144    -0.3 7  103 183 
 RUS  BZ I         730 22.39        10.9 0.14                           103 183 
 OCA  SZ EP        730  5.63                             131     0.1 9  159 349 
 OCA  SZ ES   1    730 27.89                             131     0.1 7  159 349 
 OCA  SZ I         730 37.38        33.2 0.22                           159 349 
 CHI  HZ EP        730 15.28                             117    -0.3 8  255 198 
 CHI  HN ES   1    730 44.97                             117    -0.7 6  255 198 
 CHI  HZ I         730 50.35         8.4 0.14                           255 198 
 ROSC BZ EP   1    730 16.87                             116     0.6 6  261 213 
 ROSC BN ES   1    730 47.96                             116     1.1 6  261 213 
 ROSC BZ I         730 50.18         9.1 0.36                           261 213 
 HEL  HZ EP        730 19.22                             114     0.4 7  284 256 
 HEL  HN ES   1    730 50.22                             114    -1.1 6  284 256 
 HEL  HZ I         730 55.47        11.6 0.31                           284 256 
 RREF BZ EP   1    730 24.44                             111    -0.1 5  332 230 
 RREF BN ES   1    731  2.96                             111     1.3 5  332 230 
 RREF BZ I         731  8.87         9.6 0.59                           332 230 
 SDV  BZ EP   1    730 26.46                             109     0.5 5  350  49 
 SDV  BZ I         731  6.10         3.2 0.47                           350  49 
 DBB  SZ EP        730 24.88                             109    -1.1 6  351 274 
 TOL  SZ EP   1    730 27.02                             109     0.4 5  354 226 
 TOL  SZ ES   3    731  4.96                             109    -0.3 2  354 226 
 ANIL BN ES   1    731  8.27                             108     0.2 5  368 226 
 PRA  HZ EP        730 31.54                             107    -0.1 6  400 211 
 PRA  HN ES   1    731 13.92                             107    -0.3 4  400 211 
 PRA  HZ I         731 17.10         8.7 0.28                           400 211 
                                                                                
