 2016  8 7 0315 48.3 L   6.823 -73.152148.8  RSN 26 0.5 2.5LRSN                1
 GAP= 70        1.12       2.7     2.9  4.8 -0.1491E+01  0.2649E+01 -0.7271E+00E
 Epicentro: LOS SANTOS - SANTANDER                                             3
 ACTION:UPD 16-10-29 15:32 OP:rebc STATUS:               ID:20160807031548 L   I
 OLDACT:UP  16-08-07 14:41 OP:dani STATUS:               ID:20160807030733     3
 OLDACT:UP  16-08-07 14:40 OP:dani STATUS:               ID:20160807030733     3
 OLDACT:UP  16-08-07 14:38 OP:dani STATUS:               ID:20160807030733     3
 OLDACT:REG 16-08-07 12:49 OP:dani STATUS:               ID:20160807030733     3
 2016-08-07-0308-00M.COL___368                                                 6
 STAT SP IPHASW D HRMM SECON CODA AMPLIT PERI AZIMU VELO AIN AR TRES W  DIS CAZ7
 BAR2 EZ IP     D  316  8.43                             170    0.1210 25.8 187 
 BAR2 EZ ES        316 23.51                             170   -0.4310 25.8 187 
 BAR2 EZ I         316 24.68        78.9 0.28                          25.8 187 
 BRR  HZ IP     D  316 10.20                             154    0.5610 69.3 297 
 BRR  HE ES        316 27.26                             154    0.9510 69.3 297 
 BRR  HZ I         316 31.32        64.3 0.30                          69.3 297 
 PAM  EZ EP        316 11.30                             152    0.5910 75.9  41 
 PAM  EN ES        316 28.34                             152    0.1210 75.9  41 
 PAM  EZ I         316 30.64       119.6 0.50                          75.9  41 
 RUS  HZ EP        316 12.39                             144   -0.1110  103 176 
 RUS  HN ES        316 31.14                             144   -0.2610  103 176 
 RUS  HZ I         316 32.19        37.4 0.22                           103 176 
 PTB  HZ EP        316 14.92                             133   -0.54 9  148 258 
 PTB  HN ES        316 36.05                             133   -0.62 9  148 258 
 PTB  HZ I         316 42.44        24.9 0.32                           148 258 
 TAM  HZ IP     D  316 16.87                             131    0.56 9  156 106 
 TAM  HE ES        316 37.36                             131   -0.82 9  156 106 
 TAM  HZ I         316 38.97        18.1 0.18                           156 106 
 SPBC HZ EP        316 17.24                             129    0.10 9  165 218 
 SPBC HN ES        316 39.05                             129   -0.62 9  165 218 
 SPBC HZ I         316 41.99        75.9 0.38                           165 218 
 ZAR  HZ EP        316 20.63                             123   -0.11 9  202 292 
 ZAR  HN ES        316 46.47                             123    0.40 9  202 292 
 ZAR  HZ I         316 51.47        32.4 0.28                           202 292 
 NOR  HZ EP        316 24.61                             119    0.34 8  236 234 
 NOR  HE ES        316 52.66                             119    0.31 8  236 234 
 NOR  HZ I         316 59.92        29.7 0.24                           236 234 
 ROSC BZ EP   4    316 28.37                             117    1.62 0  255 211 
 ROSC BN ES        316 57.44                             117    0.67 8  255 211 
 ROSC BZ I         317  2.39        55.2 0.40                           255 211 
 HEL  HZ EP   4    316 30.06                             115    1.43 0  272 255 
 HEL  HE ES        316 59.36                             115   -0.75 8  272 255 
 HEL  HZ I         317  6.02        14.8 0.28                           272 255 
 URE  HZ EP        316 28.71                             114   -0.59 7  282 291 
 URE  HN ES   4    316 59.33                             114   -1.98 0  282 291 
 URE  HZ I         317 11.15        25.5 0.20                           282 291 
 SOCV BZ EP        316 31.44                             113    0.08 7  300  57 
 SOCV BE ES   4    317  2.81                             113   -2.17 0  300  57 
 GUY2CHZ EP        316 33.08                             113    0.96 7  302 234 
 GUY2CHE ES   4    317  8.83                             113    2.51 0  302 234 
 GUY2CHZ I         317 12.62        15.3 0.32                           302 234 
 VIL  EZ EP        316 32.06                             112   -0.03 7  306 191 
 VIL  EN ES        317  6.47                             112    0.20 7  306 191 
 VIL  EZ I         317 11.91        36.2 0.38                           306 191 
 PTGC HZ EP   4    316 31.67                             112   -0.89 0  311 159 
 PTGC HE ES   4    317  4.33                             112   -2.78 0  311 159 
 PTGC HZ I         317  9.93        35.3 0.30                           311 159 
 LL6C HZ EP        316 33.60                             111   -0.20 7  322 358 
 LL6C HN ES        317  8.83                             111   -0.48 7  322 358 
 LL6C HZ I         317 15.40        12.9 0.46                           322 358 
 ELA  HZ EP   9    316 36.74                             111    1.37 0  330 229 
 ELA  HN ES        317 13.30                             111   -0.18 7  330 229 
 ELA  HZ I         317 21.16        14.9 0.52                           330 229 
 CBOC HZ EP   4    316 36.81                             110    1.49 0  334 252 
 CBOC HN ES        317 11.76                             110   -0.26 7  334 252 
 CBOC HZ I         317 20.62         4.7 0.44                           334 252 
 ARGC HZ EP   4    316 39.55                             109    1.82 0  357 340 
 ARGC HE ES        317 16.60                             109    0.29 6  357 340 
 ARGC HZ I         317 25.93         8.0 0.20                           357 340 
 ANIL HN ES   4    317 19.01                             109    1.61 0  359 224 
 PRA  HZ EP        316 42.26                             107    0.15 6  394 209 
 PRA  HE ES        317 23.64                             107   -0.47 6  394 209 
 PRA  HZ I         317 29.67        20.3 0.28                           394 209 
 PAL  HZ EP   4    316 42.67                             106   -0.94 0  406 239 
 PAL  HN ES        317 26.59                             106   -0.19 6  406 239 
 PAL  HZ I         317 32.39         3.9 0.24                           406 239 
 SJC  HZ EP        316 42.65                             106   -0.98 6  407 327 
 SJC  HN ES   4    317 23.82                             106   -2.99 0  407 327 
 SJC  HZ I         317 35.91         7.1 0.32                           407 327 
 CRJC HZ EP   4    316 48.72                             104   -1.83 0  465   4 
 CRJC HE ES   4    317 36.28                             104   -2.85 0  465   4 
 CRJC HZ I         317 43.60        10.5 0.38                           465   4 
 SMAR HZ EP   2    316 53.91                             103    0.01 2  494 346 
 URI  HZ EP   4    316 59.14                             101   -1.92 0  554  13 
 URI  HZ I         317 57.20         1.9 0.48                           554  13 
                                                                                
