 2016  5 7 0905  5.3 L   6.787 -73.149148.2  RSN 10 0.3 1.8LRSN                1
 GAP=137        0.68       2.2     2.6  3.9 -0.1372E+01  0.3105E+01 -0.1788E+00E
 Epicentro: LOS SANTOS - SANTANDER                                             3
 ACTION:UPD 16-08-18 17:43 OP:cam  STATUS:               ID:20160507090505 L   I
 OLDACT:REG 16-05-07 15:38 OP:ak   STATUS:               ID:20160507085742     3
 2016-05-07-0857-42M.COL___289                                                 6
 STAT SP IPHASW D HRMM SECON CODA AMPLIT PERI AZIMU VELO AIN AR TRES W  DIS CAZ7
 BAR2 EZ EP        9 5 25.15                             171   -0.0710 21.8 190 
 BAR2 EZ ES        9 5 40.70                             171   -0.0410 21.8 190 
 BAR2 EZ I         9 5 42.25         9.3 0.16            170           21.8 190 
 BRR  HZ EP        9 5 27.17                             153    0.4110 71.6 300 
 BRR  HE ES        9 5 43.28                             153   -0.2010 71.6 300 
 BRR  HZ I         9 5 47.30         8.5 0.08            151           71.6 300 
 PAM  EZ EP        9 5 28.02                             151    0.1410 78.8  39 
 PAM  EN ES        9 5 45.70                             151    0.2210 78.8  39 
 RUS  HZ EP        9 5 28.86                             145   -0.3610 99.2 176 
 RUS  HN ES        9 5 47.65                             145   -0.2010 99.2 176 
 RUS  HZ I         9 5 50.40         6.4 0.50            147           99.2 176 
 PTB  HZ EP        9 5 31.81                             133   -0.62 9  147 259 
 PTB  HN ES        9 5 53.50                             133   -0.08 9  147 259 
 PTB  HZ I         9 5 56.15         8.8 0.26            132            147 259 
 OCA  HZ EP        9 5 33.95                             130   -0.01 9  162 353 
 OCA  HN ES        9 5 56.27                             130   -0.02 9  162 353 
 OCA  HZ I         9 5 59.62         8.1 0.17            132            162 353 
 SPBC HZ EP        9 5 34.17                             130    0.29 9  162 219 
 SPBC HN ES        9 5 56.63                             130    0.47 9  162 219 
 SPBC HZ I         9 6  3.02         8.8 0.08            131            162 219 
 ZAR  HZ EP        9 5 37.73                             123   -0.22 9  204 293 
 ZAR  HN ES        9 6  3.45                             123    0.05 9  204 293 
 ZAR  HZ I         9 6 10.11         7.6 0.30            123            204 293 
 NOR  HZ EP        9 5 41.42                             119    0.35 8  234 235 
 NOR  HN ES        9 6  8.93                             119   -0.02 8  234 235 
 NOR  HZ I         9 6 13.43         7.7 0.20            120            234 235 
 CBOC HZ EP   2    9 5 51.86                             110   -0.39 3  333 252 
 CBOC HE ES        9 6 28.95                             110    0.10 7  333 252 
 CBOC HZ I         9 6 34.52         1.1 0.21            111            333 252 
                                                                                
