 2016  6 7 0951 17.1 L   6.777 -73.129148.7  RSN  5 0.4 1.5LRSN                1
 GAP=140        1.11       6.0     5.9  8.1 -0.3393E+01  0.5686E+01  0.1993E+01E
 Epicentro: LOS SANTOS - SANTANDER                                             3
 ACTION:UPD 16-07-21 22:16 OP:rebc STATUS:               ID:20160607095117 L   I
 OLDACT:REG 16-06-07 13:47 OP:dani STATUS:               ID:20160607094747     3
 2016-06-07-0947-47M.COL___316                                                 6
 STAT SP IPHASW D HRMM SECON CODA AMPLIT PERI AZIMU VELO AIN AR TRES W  DIS CAZ7
 BAR2 EZ EP        951 37.07                             171    0.0210 21.2 196 
 BAR2 EZ ES        951 52.17                             171   -0.4410 21.2 196 
 BAR2 EZ I         951 53.35         9.9 0.20                          21.2 196 
 BRR  HZ EP        951 39.34                             152    0.6110 74.1 300 
 BRR  HN ES        951 56.24                             152    0.6410 74.1 300 
 BRR  HZ I         951 57.33        11.1 0.16                          74.1 300 
 PAM  EZ EP        951 39.19                             151   -0.4910 78.3  37 
 PAM  EE ES        951 57.19                             151   -0.1110 78.3  37 
 PAM  EZ I         951 59.58         6.2 0.72                          78.3  37 
 RUS  HZ EP        951 41.28                             145    0.3310 97.9 177 
 RUS  HE ES        951 59.76                             145    0.2010 97.9 177 
 RUS  HZ I         952  1.38         2.2 0.36                          97.9 177 
 PTB  HZ EP        951 44.13                             132   -0.30 9  149 260 
 PTB  HN ES        952  5.18                             132   -0.57 9  149 260 
 PTB  HZ I         952  9.00         4.9 0.20                           149 260 
                                                                                
