 2017  2 7 0827 47.3 L   6.477 -74.003  3.2  RSN  4 0.3 1.2LRSN                1
 GAP=155        0.75       2.4     1.6  4.8  0.6181E+00 -0.9254E+00 -0.1283E+01E
 Epicentro: CIMITARRA - SANTANDER                                              3
 ACTION:UPD 17-05-24 15:33 OP:jn   STATUS:               ID:20170207082747 L   I
 OLDACT:DUP 17-02-07 18:09 OP:edw  STATUS:               ID:20170207081747d    3
 2017-02-07-0818-00M.COL___325                                                 6
 STAT SP IPHASW D HRMM SECON CODA AMPLIT PERI AZIMU VELO AIN AR TRES W  DIS CAZ7
 PTB  HZ EP     C  827 55.38                              47   -0.3010 50.6 278 
 PTB  HN ES        828  2.33                              47    0.1010 50.6 278 
 BRR  HZ EP     C  827 59.39                              47   -0.2210 76.7  25 
 BRR  HN ES        828  9.54                              47    0.3210 76.7  25 
 BRR  HZ I         828 10.30        10.9 0.30             47           76.7  25 
 BAR2 EZ IP     D  828  2.29                              47    0.1710 91.6  82 
 BAR2 EZ ES        828 13.25                              47   -0.4310 91.6  82 
 BAR2 EZ I         828 15.09         4.7 0.14             47           91.6  82 
 RUS  HZ EP        828  7.14                              47    0.3710  121 122 
 RUS  HN ES        828 21.98                              47    0.0210  121 122 
 RUS  HZ I         828 23.01         7.4 0.26             47            121 122 
                                                                                
