 2015  3 7 0220 18.6 L   6.802 -73.138144.5  RSN  4 0.4 1.2LRSN                1
 GAP=137        0.74       5.3     5.1  8.5 -0.2757E+01  0.5056E+01  0.5019E+01E
 Epicentro: LOS SANTOS - SANTANDER                                             3
 ACTION:UPD 15-04-30 16:23 OP:nd   STATUS:               ID:20150307022018 L   I
 OLDACT:REG 15-03-07 12:51 OP:spq  STATUS:               ID:20150307021750     3
 2015-03-07-0217-50M.COL___287                                                 6
 STAT SP IPHASW D HRMM SECON CODA AMPLIT PERI AZIMU VELO AIN AR TRES W  DIS CAZ7
 BRR  HZ EP        220 39.74                             152    0.0710 71.9 298 
 BRR  HN ES   1    220 55.74                             152   -0.34 7 71.9 298 
 BRR  HZ I         220 59.59         5.3 0.43            153           71.9 298 
 PAM  SZ EP   1    220 40.63                             151   -0.03 7 76.7  39 
 PAM  SN ES   1    220 58.01                             151    0.17 7 76.7  39 
 PAM  SZ I         221  0.12         2.5 0.52            154           76.7  39 
 RUS  HZ EP   1    220 42.64                             143    0.39 7  101 177 
 RUS  HE ES   1    221  0.41                             143   -0.28 7  101 177 
 RUS  HZ I         221  1.72         1.7 0.40            148            101 177 
 PTB  HZ EP   1    220 44.93                             131   -0.63 7  149 259 
 PTB  HE ES   1    221  7.17                             131    0.59 7  149 259 
 PTB  HZ I         221  8.99         1.6 0.20            134            149 259 
                                                                                
