 2013  7 7 0305 31.9 L   6.805 -73.136147.3  RSN 14 0.4 2.4LRSN                1
 GAP=121        1.01       2.6     3.5  5.2 -0.1151E+01  0.1962E+01  0.9607E+00E
 Epicentro: LOS SANTOS - SANTANDER                                             3
 ACTION:UPD 13-08-12 10:36 OP:ep   STATUS:               ID:20130707030532 L   I
 OLDACT:UP  13-07-08 05:43 OP:CF   STATUS:               ID:20130707030532 L   3
 OLDACT:DUP 13-07-07 10:32 OP:stll STATUS:               ID:20130707025836d    3
 2013-07-07-0258-35M.COL___224                                                 6
 STAT SP IPHASW D HRMM SECON CODA AMPLIT PERI AZIMU VELO AIN AR TRES W  DIS CAZ7
 BAR2 SZ EP        3 5 51.84                             170    0.0710 24.1 192 
 BAR2 SZ ES        3 6  6.81                             170   -0.4310 24.1 192 
 BAR2 SZ I         3 6  8.50        22.8 0.12            169           24.1 192 
 GIR2 SZ EP        3 5 51.93                             168    0.1410 30.9 348 
 BRR  HZ EP        3 5 53.68                             153    0.3810 71.9 298 
 BRR  HN ES        3 6 10.75                             153    0.8010 71.9 298 
 BRR  HN I         3 6 11.48        93.8 0.22            150           71.9 298 
 PAM  SZ IP     C  3 5 54.87                             151    0.6210 76.2  39 
 PAM  SN ES        3 6 11.79                             151    0.1410 76.2  39 
 PAM  SN I         3 6 12.85        26.3 0.44            154           76.2  39 
 RUS  HZ EP        3 5 55.79                             144   -0.0910  101 177 
 RUS  HN ES        3 6 14.72                             144    0.1710  101 177 
 RUS  HN I         3 6 17.47         9.7 0.38            145            101 177 
 GRA  SZ EP        3 5 57.54                             138    0.2910  125  17 
 GRA  SZ ES        3 6 16.75                             138   -0.2410  125  17 
 CAPV BZ EP        3 5 59.74                             132    0.38 9  148  38 
 CAPV BZ ES        3 6 20.12                             132   -0.62 9  148  38 
 PTB  HZ EP        3 5 58.49                             132   -0.65 9  149 259 
 PTB  HE ES        3 6 20.30                             132   -0.06 9  149 259 
 PTB  HE I         3 6 25.16        29.1 0.30            131            149 259 
 OCA  HN ES        3 6 21.69                             130   -0.78 9  160 353 
 OCA  HN I         3 6 26.91        47.9 0.28            130            160 353 
 ZAR  HZ EP        3 6  4.55                             123   -0.02 9  205 292 
 ZAR  HE ES        3 6 30.01                             123   -0.01 9  205 292 
 ZAR  HE I         3 6 36.10        61.5 0.30            122            205 292 
 AGZ  SZ EP        3 6  6.12                             121    0.01 8  220 160 
 SML  HZ EP        3 6  8.48                             118   -0.17 8  244 335 
 SML  HE ES        3 6 37.36                             118    0.08 8  244 335 
 SML  HE I         3 6 44.63        25.6 0.26            118            244 335 
 CHI  HZ EP        3 6  9.90                             117    0.08 8  250 195 
 CHI  HN ES        3 6 38.83                             117   -0.53 8  250 195 
 CHI  HN I         3 6 41.88        15.2 0.46            118            250 195 
 RREF HZ EP   4    3 6 19.93                             111    1.64 0  323 229 
 RREF HN ES   4    3 6 56.54                             111    2.10 0  323 229 
 RREF HZ I         3 6 59.11         5.2 0.24            111            323 229 
                                                                                
