 2017  6 7 0317  2.7 L   6.760 -73.188147.8  RSN  5 0.3 1.3LRSN                1
 GAP=230        0.87       4.9     5.4  8.6  0.3385E+01  0.2403E+01  0.2455E+01E
 Epicentro: LOS SANTOS - SANTANDER                                             3
 ACTION:UPD 17-09-14 16:50 OP:jn   STATUS:               ID:20170607031702 L   I
 OLDACT:UP  17-06-07 15:00 OP:edw  STATUS:               ID:20170607030738     3
 OLDACT:REG 17-06-07 11:54 OP:edw  STATUS:               ID:20170607030738     3
 2017-06-07-0308-00M.COL___365                                                 6
 STAT SP IPHASW D HRMM SECON CODA AMPLIT PERI AZIMU VELO AIN AR TRES W  DIS CAZ7
 BRR  HZ EP        317 24.01                             153    0.0010 69.5 304 
 BRR  HE ES        317 40.83                             153    0.2310 69.5 304 
 RUS  HZ EP        317 26.21                             145   -0.1910 96.6 173 
 RUS  HN ES        317 44.69                             145   -0.1710 96.6 173 
 RUS  HZ I         317 46.29         3.9 0.34            146           96.6 173 
 PTB  HZ EP        317 29.64                             134    0.25 9  142 260 
 PTB  HN ES        317 49.59                             134   -0.58 9  142 260 
 PTB  HZ I         317 53.07         1.8 0.46            134            142 260 
 SPBC HN ES        317 53.30                             131    0.63 9  157 219 
 NOR  HN ES        318  5.17                             120   -0.16 8  228 235 
                                                                                
