 2015  7 7 0036 26.0 L   6.767 -73.144140.6  RSN  4 0.1 1.4LRSN                1
 GAP=243        0.41       3.6     3.4  4.9  0.6393E+01  0.7866E+01  0.3622E+01E
 Epicentro: LOS SANTOS - SANTANDER                                             3
 ACTION:UPD 15-09-08 21:47 OP:cam  STATUS:               ID:20150707003626 L   I
 OLDACT:DUP 15-07-07 14:45 OP:spq  STATUS:               ID:20150707002747d    3
 2015-07-07-0027-46M.COL___333                                                 6
 STAT SP IPHASW D HRMM SECON CODA AMPLIT PERI AZIMU VELO AIN AR TRES W  DIS CAZ7
 BAR2 EZ ES   1    036 59.60                             172   -0.14 7 19.8 192 
 BAR2 EZ I         037  1.27         4.9 0.32            172           19.8 192 
 RUS  HZ EP        036 48.90                             144   -0.1010 96.9 176 
 RUS  HN ES   1    037  7.19                             144    0.26 7 96.9 176 
 RUS  HZ I         037  8.19         3.3 0.32            146           96.9 176 
 ZAR  HN ES        037 23.55                             121    0.07 8  206 293 
 ZAR  HZ I         037 25.56         4.1 0.26            122            206 293 
 NOR  HZ EP   1    037  1.39                             118    0.15 6  233 235 
 NOR  HN ES        037 28.60                             118   -0.12 8  233 235 
 NOR  HZ I         037 29.67         2.4 0.24            119            233 235 
                                                                                
