 2012  5 7 0220 38.0 L   6.778 -73.279162.2  RSN  5 0.5 1.1LRSN                1
 GAP=107        0.93       9.2    13.5 17.8 -0.3705E+01 -0.1641E+03  0.2070E+02E
 Epicentro: ZAPATOCA - SANTANDER                                               3
 ACTION:UP  12-07-05 12:02 OP:pat  STATUS:               ID:20120507022038 L   I
 2012-05-07-0220-00M.COL___173                                                 6
 STAT SP IPHASW D HRMM SECON CODA AMPLIT PERI AZIMU VELO SNR AR TRES W  DIS CAZ7
 BAR2 SZ EP        220 59.73                             172     0.110   23 153 
 BRR  HZ EP   3    220 59.93                             159    -0.5 2   60 307 
 BRR  HN ES   1    221 18.39                             159     0.5 7   60 307 
 BRR  HZ I         221 25.07         2.9 0.36                            60 307 
 PAM  SZ EP        221  2.34                             150    -0.310   89  46 
 RUS  HZ EP        221  3.70                             147     0.310  100 168 
 RUS  HN ES   2    221 22.41                             147    -0.8 5  100 168 
 RUS  HZ I         221 24.16         1.3 0.30                           100 168 
 PTB  HN ES   2    221 25.44                             139    -0.8 5  133 259 
                                                                                
