 2015  1 7 0910  6.5 L   6.813 -73.219159.5  RSN  4 0.4 1.3LRSN                1
 GAP=240        0.91       4.6    15.0 18.2  0.2195E+02 -0.2112E+03 -0.3783E+02E
 Epicentro: ZAPATOCA - SANTANDER                                               3
 ACTION:UPD 15-03-02 15:37 OP:nd   STATUS:               ID:20150107091007 L   I
 OLDACT:UP  15-01-13 10:24 OP:FJMB STATUS:               ID:20150107091007 L   3
 OLDACT:REG 15-01-07 15:49 OP:cam  STATUS:               ID:20150107090817     3
 2015-01-07-0908-17M.COL___277                                                 6
 STAT SP IPHASW D HRMM SECON CODA AMPLIT PERI AZIMU VELO AIN AR TRES W  DIS CAZ7
 PTB  HZ EP        910 33.65                             137   -0.3710  140 258 
 PTB  HN ES        910 54.97                             137   -0.4810  140 258 
 PTB  HZ I         911  2.14         1.6 0.40            139            140 258 
 SPBC HZ EP        910 35.71                             133   -0.0810  159 216 
 SPBC HN ES        910 59.06                             133    0.4610  159 216 
 SPBC HZ I         911  1.02         2.9 0.22            137            159 216 
 ZAR  HZ EP        910 38.97                             127   -0.16 9  196 293 
 ZAR  HN ES        911  5.08                             127    0.53 9  196 293 
 ZAR  HZ I         911 10.57         1.1 0.38            129            196 293 
 SML  HZ EP        910 43.97                             121    0.47 9  239 337 
 SML  HN ES        911 12.09                             121   -0.23 9  239 337 
 SML  HZ I         911 16.41         2.2 0.10            124            239 337 
                                                                                
