 2014 12 7 0040 45.7 L   6.788 -73.156148.7  RSN  8 0.2 1.5LRSN                1
 GAP=136        0.54       2.7     2.8  5.0 -0.7022E+00  0.4336E+01 -0.4027E+01E
 Epicentro: LOS SANTOS - SANTANDER                                             3
 ACTION:UPD 15-02-10 17:01 OP:nd   STATUS:               ID:20141207004045 L   I
 OLDACT:REG 14-12-07 12:42 OP:spq  STATUS:               ID:20141207003747     3
 2014-12-07-0037-47M.COL___312                                                 6
 STAT SP IPHASW D HRMM SECON CODA AMPLIT PERI AZIMU VELO AIN AR TRES W  DIS CAZ7
 BAR2 SZ EP   1    041  5.13                             171   -0.51 7 21.8 188 
 BAR2 SZ ES   1    041 21.15                             171   -0.06 7 21.8 188 
 BAR2 SZ I         041 23.44         4.5 0.20            170           21.8 188 
 PAM  SZ EP        041  8.54                             151    0.2210 79.2  40 
 PAM  SN ES        041 25.81                             151   -0.1710 79.2  40 
 PAM  SZ I         041 27.95         4.3 0.52            156           79.2  40 
 RUS  HZ EP   1    041  9.70                             145    0.06 7 99.3 175 
 RUS  HN ES        041 28.59                             145    0.2610 99.3 175 
 RUS  HZ I         041 29.47         2.0 0.22            149           99.3 175 
 PTB  HZ EP   1    041 12.66                             133   -0.11 7  146 259 
 PTB  HN ES        041 33.77                             133   -0.12 9  146 259 
 PTB  HZ I         041 41.07         5.4 0.32            133            146 259 
 ZAR  HN ES   1    041 43.90                             123    0.22 6  203 293 
 ZAR  HZ I         041 49.93         5.1 0.28            124            203 293 
 SML  HZ EP   1    041 22.39                             118   -0.17 6  244 336 
 SML  HN ES   1    041 51.61                             118    0.29 6  244 336 
 GUY2CHZ EP   4    041 31.18                             113    1.94 0  299 235 
 GUY2CHN ES   4    042  5.49                             113    2.28 0  299 235 
 GUY2CHZ I         042 14.62         1.8 0.50                           299 235 
 SJC  HZ EP   4    041 40.09                             106   -1.31 0  410 327 
 SJC  HN ES   4    042 23.34                             106   -1.52 0  410 327 
 SJC  HZ I         042 26.74         0.8 0.64            108            410 327 
                                                                                
