 2011  1 7 0334 29.7 L   6.814 -73.166143.1  RSN  4 0.2 1.4LRSN                1
 GAP=184        0.56       6.4    23.5  8.3 -0.1191E+03  0.9905E+02 -0.2558E+02E
 Epicentro: LOS SANTOS - SANTANDER                                             3
 ACTION:UP  11-02-08 08:39 OP:pat  STATUS:               ID:20110107033429 L   I
 2011-01-07-0332-00S.COL___134                                                 6
 STAT SP IPHASW D HRMM SECON CODA AMPLIT PERI AZIMU VELO SNR AR TRES W  DIS CAZ7
 BAR2 SZ EP   2    334 48.83                             170    -0.2 5   25 185 
 BAR2 SZ ES   2    335  4.06                             170    -0.1 5   25 185 
 BAR2 SZ I         335  5.08         6.9 0.29                            25 185 
 RUS  HZ EP   1    334 52.94                             143    -0.4 7  102 175 
 RUS  HE ES   1    335 11.94                             143     0.2 7  102 175 
 RUS  HZ I         335 13.29         2.7 0.31                           102 175 
 GRA  SZ EP   1    334 54.76                             137     0.1 7  125  19 
 GRA  SZ I         335 15.88         3.7 0.61                           125  19 
 CHI  HZ EP   1    335  7.69                             116     0.3 6  250 195 
 CHI  HE ES   1    335 36.65                             116    -0.1 6  250 195 
 CHI  HZ I         335 40.19         2.6 0.51                           250 195 
                                                                                
