 2016  8 7 0034 12.6 L   6.756 -73.150157.3  RSN  6 0.3 1.7LRSN                1
 GAP=234        0.65       3.8     4.9  5.4  0.7158E+01 -0.4670E+01 -0.2311E+01E
 Epicentro: LOS SANTOS - SANTANDER                                             3
 ACTION:UPD 16-10-29 15:32 OP:rebc STATUS:               ID:20160807003412 L   I
 OLDACT:UP  16-08-07 13:33 OP:dani STATUS:               ID:20160807002733     3
 OLDACT:REG 16-08-07 12:25 OP:dani STATUS:               ID:20160807002733     3
 2016-08-07-0028-00M.COL___368                                                 6
 STAT SP IPHASW D HRMM SECON CODA AMPLIT PERI AZIMU VELO AIN AR TRES W  DIS CAZ7
 BRR  HZ EP        034 35.14                             154    0.0410 73.2 302 
 BRR  HE ES        034 52.75                             154    0.0810 73.2 302 
 BRR  HZ I         034 54.76         8.3 0.12                          73.2 302 
 RUS  HZ EP        034 37.25                             147    0.0810 95.8 176 
 RUS  HN ES   2    034 55.73                             147   -0.61 5 95.8 176 
 RUS  HZ I         034 58.08         2.7 0.16                          95.8 176 
 PTB  HZ EP        034 40.31                             135   -0.09 9  146 261 
 PTB  HE ES        035  1.74                             135   -0.36 9  146 261 
 PTB  HZ I         035  7.20         9.9 0.26                           146 261 
 SPBC HZ EP        034 41.98                             132    0.35 9  159 220 
 SPBC HN ES        035  4.38                             132    0.10 9  159 220 
 SPBC HZ I         035  9.43        10.4 0.22                           159 220 
 ZAR  HZ EP        034 45.94                             125   -0.02 8  205 293 
 ZAR  HE ES        035 12.34                             125    0.36 8  205 293 
 ZAR  HZ I         035 17.84         4.7 0.21                           205 293 
 URE  HZ EP        034 53.87                             116   -0.53 7  285 293 
 URE  HN ES   4    035 25.53                             116   -1.48 0  285 293 
 URE  HZ I         035 31.58         3.4 0.18                           285 293 
                                                                                
