 2014  7 7 0317 49.4 L   6.831 -73.110143.7  RSN  7 0.5 1.7LRSN                1
 GAP=139        1.25       4.1     9.0  8.8  0.3840E+01 -0.2051E+01 -0.7141E+01E
 Epicentro: LOS SANTOS - SANTANDER                                             3
 ACTION:UPD 15-03-16 20:41 OP:nd   STATUS:               ID:20140707031749 L   I
 OLDACT:DUP 14-07-07 16:56 OP:stll STATUS:               ID:20140707030817d    3
 OLDACT:DUP 14-07-07 16:27 OP:stll STATUS:               ID:20140707030815d    3
 2014-07-07-0308-14M.COL___256                                                 6
 STAT SP IPHASW D HRMM SECON CODA AMPLIT PERI AZIMU VELO AIN AR TRES W  DIS CAZ7
 BAR2 SZ EP        318  8.75                             169   -0.1110 27.6 197 
 BAR2 SZ ES        318 23.93                             169   -0.1210 27.6 197 
 BAR2 SZ I         318 25.01        17.6 0.72            169           27.6 197 
 PAM  SZ EP        318 11.71                             152    0.6310 72.2  39 
 PAM  SZ I         318 11.84        23.8 0.22            153           72.2  39 
 BRR  HZ EP        318 10.57                             151    0.1510 73.2 295 
 BRR  HN ES        318 27.64                             151    0.8110 73.2 295 
 BRR  HZ I         318 28.12         8.8 0.12            150           73.2 295 
 RUS  HZ EP        318 13.07                             142   -0.1010  104 178 
 RUS  HN ES        318 31.35                             142   -0.3710  104 178 
 RUS  HZ I         318 32.34         4.0 0.20            144            104 178 
 OCA  HN ES        318 38.39                             130   -0.62 9  157 352 
 OCA  HZ I         318 45.31         3.5 0.28            130            157 352 
 SPBC HZ EP        318 18.99                             128    0.78 9  168 219 
 SPBC HN ES        318 40.09                             128   -0.61 9  168 219 
 SPBC HZ I         318 44.56         8.8 0.20            128            168 219 
 SML  HZ EP        318 25.17                             117   -0.57 8  242 334 
 SML  HN ES        318 53.85                             117   -0.24 8  242 334 
                                                                                
