 2014  1 7 0841 42.5 L   6.765 -73.198148.1  RSN  5 0.5 1.2LRSN                1
 GAP=239        1.29       8.8     7.7 11.4  0.2641E+02  0.1365E+02 -0.3073E+02E
 Epicentro: VILLANUEVA - SANTANDER                                             3
 ACTION:UPD 14-03-13 09:52 OP:ep   STATUS:               ID:20140107084142 L   I
 OLDACT:REG 14-01-07 08:16 OP:carl STATUS:               ID:20140107084000     3
 2014-01-07-0840-00M.COL___285                                                 6
 STAT SP IPHASW D HRMM SECON CODA AMPLIT PERI AZIMU VELO AIN AR TRES W  DIS CAZ7
 BAR2 SZ EP        842  2.02                             172   -0.3310 19.2 175 
 BAR2 SZ I         842 17.88         6.1 0.38            170           19.2 175 
 BAR2 SZ ES        842 18.04                             172    0.2210 19.2 175 
 RUS  HZ EP        842  6.66                             145    0.3910 97.3 172 
 RUS  HN ES        842 24.54                             145   -0.2510 97.3 172 
 RUS  HZ I         842 25.93         1.4 0.32            146           97.3 172 
 PTB  HZ EP        842  8.45                             134   -0.66 9  141 260 
 PTB  HN ES        842 29.03                             134   -0.82 9  141 260 
 PTB  HZ I         842 31.76         2.7 0.26            137            141 260 
 SPBC HN ES        842 33.16                             131    0.70 9  157 218 
 ZAR  HZ EP        842 15.00                             123    0.27 9  200 294 
 ZAR  HN ES        842 40.51                             123    0.66 9  200 294 
                                                                                
