 2017  8 7 0204 45.5 L   6.785 -73.145146.3  RSN 11 0.4 1.6LRSN                1
 GAP=120        0.82       2.8     3.0  4.7  0.5119E-03  0.1526E+01  0.3967E+01E
 Epicentro: LOS SANTOS - SANTANDER                                             3
 ACTION:UPD 17-09-04 20:17 OP:rebc STATUS:               ID:20170807020445 L   I
 OLDACT:REG 17-08-07 12:11 OP:dhb  STATUS:               ID:20170807015741     3
 2017-08-07-0158-00M.COL___393                                                 6
 STAT SP IPHASW D HRMM SECON CODA AMPLIT PERI AZIMU VELO AIN AR TRES W  DIS CAZ7
 BAR2 EZ EP        2 5  5.24                             171    0.0510 21.7 191 
 BAR2 EZ ES        2 5 20.12                             171   -0.4110 21.7 191 
 BAR2 EZ I         2 5 21.70        24.7 0.30            169           21.7 191 
 BRR  HZ IP     C  2 5  6.90                             152    0.1210 72.0 300 
 BRR  HN ES        2 5 24.09                             152    0.7310 72.0 300 
 BRR  HZ I         2 5 24.76         5.4 0.05            152           72.0 300 
 PAM  EZ IP     D  2 5  7.99                             151    0.1110 78.6  39 
 PAM  EN ES        2 5 25.11                             151   -0.1910 78.6  39 
 PAM  EZ I         2 5 27.37         3.5 0.28            153           78.6  39 
 RUS  HZ EP        2 5  9.03                             144   -0.1910 99.0 176 
 RUS  HE ES        2 5 27.88                             144    0.1910 99.0 176 
 RUS  HZ I         2 5 28.94         8.0 0.22            144           99.0 176 
 PTB  HZ EP        2 5 12.40                             132   -0.12 9  148 259 
 PTB  HN ES        2 5 33.17                             132   -0.40 9  148 259 
 PTB  HZ I         2 5 34.85         1.9 0.13            132            148 259 
 SPBC HZ IP     C  2 5 14.48                             129    0.53 9  162 219 
 SPBC HE ES        2 5 36.10                             129   -0.03 9  162 219 
 SPBC HZ I         2 5 40.96         6.6 0.11            129            162 219 
 ZAR  HE ES        2 5 43.01                             122   -0.46 9  205 293 
 ZAR  HZ I         2 5 48.97         3.4 0.16            123            205 293 
 NOR  HZ EP        2 5 21.39                             119    0.19 8  234 235 
 NOR  HN ES        2 5 48.84                             119   -0.17 8  234 235 
 NOR  HZ I         2 5 53.57         2.5 0.11            119            234 235 
 CHI  HZ EP        2 5 23.20                             117    0.11 8  247 195 
 CHI  HN ES        2 5 52.38                             117   -0.01 8  247 195 
 CHI  HZ I         2 5 56.20         2.3 0.63            117            247 195 
 GUY2CHZ EP   9    2 5 31.45                             112    2.39 0  300 235 
 GUY2CHE ES        2 6  5.89                                    0.48 7  300 235 
 GUY2CHZ I         2 6  8.15         1.6 0.26                           300 235 
 PTGC HZ EP   2    2 5 27.97                             112   -1.27 4  307 159 
 PTGC HN ES        2 6  3.42                             112    0.09 7  307 159 
 PTGC HZ I         2 6  9.53         5.0 0.54            112            307 159 
                                                                                
