 2012  3 7 0823 26.4 L   6.375 -73.459125.6  RSN  4 0.2 1.6LRSN                1
 GAP=137        0.44       3.9     3.8  5.8  0.7147E+01  0.1245E+01 -0.2052E+01E
 ACTION:UP  12-03-31 23:17 OP:EP   STATUS:               ID:20120307082326 L   I
 2012-03-07-0820-00M.COL___194                                                 6
 STAT SP IPHASW D HRMM SECON CODA AMPLIT PERI AZIMU VELO SNR AR TRES W  DIS CAZ7
 BAR2 SZ EP   2    823 43.95                             162    -0.1 5   39  52 
 RUS  HZ EP   1    823 46.22                             150     0.3 7   68 142 
 RUS  HN ES   1    824  0.92                             150    -0.2 7   68 142 
 BRR  HZ EP        823 46.28                             143    -0.110   86 341 
 BRR  HZ I         823 46.55         8.5 0.13                            86 341 
 BRR  HE ES   1    824  2.13                             143     0.1 7   86 341 
 PTB  HZ EP   1    823 48.41                             135    -0.1 7  112 279 
 PTB  HN ES   1    824  5.77                             135     0.0 7  112 279 
                                                                                
