 2010  9 7 0258 50.5 L   6.796 -73.085143.7  RSN 17 0.4 3.6LRSN                1
 GAP=130        0.99       3.4     5.7  5.2 -0.5952E+01  0.1427E+01  0.3608E+01E
 Epicentro: LOS SANTOS - SANTANDER                                             3
 ACTION:UP  11-02-18 11:00 OP:tino STATUS:               ID:20100907025850 L   I
 2010-09-07-0256-28S.COL___120                                                 6
 STAT SP IPHASW D HRMM SECON CODA AMPLIT PERI AZIMU VELO SNR AR TRES W  DIS CAZ7
 BAR2 SZ IP        259 10.09                             170     0.210   25 206 
 BAR2 SZ ES   1    259 24.53                             170    -0.5 7   25 206 
 BAR2 SZ I         259 26.01       836.1 0.61                            25 206 
 GIR2 SZ IP        259  9.99                             166     0.010   33 339 
 GIR2 SZ ES   1    259 25.52                             166     0.3 7   33 339 
 BRR  HZ IP     C  259 11.80                             150     0.010   77 296 
 BRR  HZ I         259 12.05      1201.7 0.11                            77 296 
 BRR  HE ES        259 28.66                             150     0.310   77 296 
 RUS  HZ EP        259 14.02                             144     0.010  100 180 
 RUS  HE ES   1    259 32.13                             144    -0.2 7  100 180 
 RUS  HZ I         259 34.48       512.2 0.31                           100 180 
 GUE  SZ EP        259 15.73                             139     0.810  116   9 
 OCA  SZ IP        259 18.24                             129    -0.5 9  162 351 
 OCA  SZ ES   1    259 40.11                             129    -0.7 7  162 351 
 OCA  SZ I         259 49.58       467.6 0.46                           162 351 
 CHI  HZ EP        259 28.42                             117     0.2 8  250 197 
 CHI  HE ES   1    259 57.06                             117    -0.6 6  250 197 
 CHI  HZ I         3 0  3.30       140.5 0.24                           250 197 
 ROSC BN ES   1    259 58.64                             116    -0.1 6  256 212 
 ROSC BZ I         3 0  7.51       182.9 0.47                           256 212 
 CVER SZ EP   1    259 31.83                             114     0.8 6  274 204 
 CVER SZ I         259 33.68       255.3 0.32                           274 204 
 HEL  HZ EP   1    259 31.60                             114     0.3 6  279 256 
 HEL  HN ES   2    3 0  3.14                             114     0.0 4  279 256 
 HEL  HZ I         3 0  8.34       185.1 0.48                           279 256 
 GUY  SZ EP   2    259 35.67                             112     1.1 4  307 236 
 GUY  SN ES   2    3 0  8.62                             112    -0.4 4  307 236 
 GUY  SZ I         3 0 14.46       534.4 0.39                           307 236 
 RREF HZ EP   1    259 36.89                             110    -0.2 5  327 230 
 RREF HE ES   2    3 0 13.58                             110     0.1 3  327 230 
 RREF HZ I         3 0 20.46       174.0 0.36                           327 230 
 DBB  SZ EP        259 37.96                             109    -0.7 6  346 274 
 TOL  SZ EP        259 39.36                             109     0.2 6  348 225 
 SDV  BZ EP        259 39.50                             108    -0.4 6  356  49 
 SDV  BZ I         3 0 18.74        60.9 0.44                           356  49 
 ANIL HZ EP   2    259 41.27                             108     0.5 3  362 225 
 ANIL HE ES   2    3 0 19.86                             108    -0.1 3  362 225 
 ANIL HZ I         3 0 28.62       356.3 0.22                           362 225 
 PRA  HZ EP        259 43.59                             106    -0.7 6  395 210 
 PRA  HN ES   1    3 0 26.28                             106     0.0 4  395 210 
 PRA  HZ I         3 0 32.28       171.3 0.63                           395 210 
                                                                                
