 2015  5 7 0103 47.2 L   6.793 -73.115136.7  RSN  9 0.4 1.7LRSN                1
 GAP=141        1.05       2.9     5.0  6.3  0.9898E+00  0.1064E+02  0.8939E+00E
 Epicentro: LOS SANTOS - SANTANDER                                             3
 ACTION:UPD 15-09-10 22:02 OP:cam  STATUS:               ID:20150507010347 L   I
 OLDACT:REG 15-05-07 12:29 OP:drio STATUS:               ID:20150507005750     3
 2015-05-07-0057-50M.COL___288                                                 6
 STAT SP IPHASW D HRMM SECON CODA AMPLIT PERI AZIMU VELO AIN AR TRES W  DIS CAZ7
 BAR2 EZ EP        1 4  6.21                             170    0.4410 23.4 199 
 BAR2 EZ ES        1 4 19.85                             170   -0.3910 23.4 199 
 BAR2 EZ I         1 4 23.68         8.6 0.30            168           23.4 199 
 BRR  HZ EP        1 4  7.38                             150   -0.2310 74.6 298 
 BRR  HN ES        1 4 24.14                             150    0.6410 74.6 298 
 PAM  SZ EP        1 4  8.84                             150    0.4510 75.9  37 
 PAM  SN ES        1 4 25.25                             150    0.3510 75.9  37 
 PAM  SZ I         1 4 27.97         8.3 0.50            153           75.9  37 
 RUS  HZ EP        1 4 10.29                             142    0.2610 99.6 178 
 RUS  HN ES        1 4 27.11                             142   -0.7010 99.6 178 
 RUS  HZ I         1 4 30.02         6.2 0.26            143           99.6 178 
 OCA  HN ES        1 4 36.09                             127   -0.51 9  161 352 
 ZAR  HZ EP        1 4 19.54                             120    0.08 8  208 292 
 ZAR  HN ES        1 4 44.37                             120   -0.24 8  208 292 
 ZAR  HZ I         1 4 49.28         5.8 0.52            121            208 292 
 SML  HZ EP        1 4 23.09                             115   -0.50 8  246 335 
 SML  HN ES        1 4 51.72                             115   -0.24 8  246 335 
 SML  HZ I         1 4 52.90         7.1 0.28            117            246 335 
 CHI  HZ EP        1 4 24.35                             115   -0.11 8  249 196 
 CHI  HN ES        1 4 53.36                             115   -0.14 8  249 196 
 CHI  HZ I         1 4 59.83         3.0 0.36            117            249 196 
 GUY2CHN ES        1 5  5.28                             110    0.67 7  304 235 
                                                                                
