 2014  6 7 0759 21.9 L   6.845 -73.143137.8  RSN  9 0.4 1.5LRSN                1
 GAP=184        1.01       3.6     5.6  8.1 -0.2195E+01  0.1770E+02 -0.2130E+01E
 Epicentro: LOS SANTOS - SANTANDER                                             3
 ACTION:UPD 14-07-01 22:51 OP:nd   STATUS:               ID:20140607075921 L   I
 OLDACT:REG 14-06-07 13:29 OP:fm   STATUS:               ID:20140607075815     3
 2014-06-07-0758-15M.COL___253                                                 6
 STAT SP IPHASW D HRMM SECON CODA AMPLIT PERI AZIMU VELO AIN AR TRES W  DIS CAZ7
 BAR2 SZ EP   1    759 40.97                             168    0.29 7 28.3 189 
 BAR2 SZ ES        759 55.31                             168   -0.0310 28.3 189 
 BAR2 SZ I         759 57.57         6.7 0.20            170           28.3 189 
 RUS  HZ EP        759 44.89                             140   -0.3510  106 176 
 RUS  HN ES        8 0  3.62                             140    0.1610  106 176 
 RUS  HZ I         8 0  5.10         4.3 0.30            144            106 176 
 PTB  HZ EP        759 47.66                             130   -0.68 9  149 257 
 PTB  HN ES        8 0  8.39                             130   -0.58 9  149 257 
 PTB  HZ I         8 0 10.06         3.7 0.44            131            149 257 
 OCA  HN ES        8 0 10.64                             129    0.29 9  155 353 
 OCA  HZ I         8 0 15.69         4.1 0.24            129            155 353 
 SPBC HZ EP        759 50.90                             126    0.72 9  167 218 
 SPBC HN ES        8 0 12.19                             126   -0.07 9  167 218 
 SPBC HZ I         8 0 14.71         7.8 0.22            128            167 218 
 NOR  HN ES        8 0 25.63                             116    0.33 8  238 234 
 SML  HN ES   1    8 0 25.28                             116   -0.16 6  239 335 
 HEL  HN ES   1    8 0 34.03                             113    0.96 6  274 255 
 HEL  HZ I         8 0 40.24         2.6 0.56            114            274 255 
 GUY2CHZ EP   1    8 0  5.15                             110   -0.34 5  304 234 
 GUY2CHE ES   4    8 0 41.13                             110    1.62 0  304 234 
 GUY2CHZ I         8 0 47.45         1.7 0.42                           304 234 
                                                                                
