 2016  3 7 0612 49.4 L   6.803 -73.204144.3  RSN  4 0.3 1.2LRSN                1
 GAP=145        0.68       4.2     4.0  5.8 -0.5084E+01  0.6165E+01 -0.2428E+01E
 Epicentro: ZAPATOCA - SANTANDER                                               3
 ACTION:UPD 16-05-13 21:22 OP:cam  STATUS:               ID:20160307061249 L   I
 OLDACT:REG 16-03-07 13:45 OP:cara STATUS:               ID:20160307060749     3
 2016-03-07-0607-49M.COL___318                                                 6
 STAT SP IPHASW D HRMM SECON CODA AMPLIT PERI AZIMU VELO AIN AR TRES W  DIS CAZ7
 BAR2 EZ EP        613  8.67                             170   -0.1510 23.4 174 
 BAR2 EZ ES        613 24.14                             170    0.1410 23.4 174 
 BAR2 EZ I         613 26.68         5.2 0.36            173           23.4 174 
 PAM  EZ IP     D  613 11.63                             149   -0.0410 81.4  43 
 PAM  EN ES        613 29.07                             149   -0.0010 81.4  43 
 PAM  EZ I         613 31.81         1.7 0.40            153           81.4  43 
 RUS  HZ EP        613 12.78                             143   -0.2610  102 172 
 RUS  HN ES        613 31.63                             143    0.1210  102 172 
 RUS  HZ I         613 32.56         2.0 0.28            148            102 172 
 PTB  HZ EP        613 16.19                             133    0.55 9  141 258 
 PTB  HN ES        613 35.82                             133   -0.32 9  141 258 
 PTB  HZ I         613 41.59         2.3 0.20            134            141 258 
                                                                                
