 2017  2 7 0732 25.7 L   6.725 -73.172150.3  RSN  5 0.3 1.4LRSN                1
 GAP=229        0.66       5.3     5.1  5.7  0.1196E+02  0.6601E+01 -0.3335E+01E
 Epicentro: VILLANUEVA - SANTANDER                                             3
 ACTION:UPD 17-05-24 15:33 OP:jn   STATUS:               ID:20170207073225 L   I
 OLDACT:REG 17-02-07 12:57 OP:edw  STATUS:               ID:20170207072743     3
 2017-02-07-0728-00M.COL___325                                                 6
 STAT SP IPHASW D HRMM SECON CODA AMPLIT PERI AZIMU VELO AIN AR TRES W  DIS CAZ7
 BAR2 EZ IP     C  732 45.78                             174    0.0610 14.8 185 
 BAR2 EZ ES        733  1.54                             174    0.1910 14.8 185 
 BAR2 EZ I         733  3.30         4.8 0.22            169           14.8 185 
 BRR  HZ IP     D  732 47.73                             153    0.3010 73.1 305 
 BRR  HN ES        733  4.05                             153   -0.3510 73.1 305 
 BRR  HZ I         733  8.83         3.2 0.28            162           73.1 305 
 RUS  HN ES        733  7.58                             147   -0.2110 92.6 174 
 PTB  HZ EP        732 52.77                             134    0.12 9  144 262 
 PTB  HN ES        733 13.69                             134    0.00 9  144 262 
 PTB  HZ I         733 15.75         3.0 0.24            140            144 262 
 ZAR  HZ EP   2    732 57.52                             123   -0.97 4  205 295 
 ZAR  HN ES   2    733 24.53                             123    0.45 4  205 295 
 ZAR  HZ I         733 29.52         2.7 0.16            130            205 295 
                                                                                
