 2013 11 7 0539  8.7 L   6.319 -73.712102.6  RSN  5 0.1 0.8LRSN                1
 GAP= 85        0.29       1.8     1.3  3.5  0.6078E+00  0.1418E+00 -0.1219E+01E
 Epicentro: SANTA HELENA DEL OPON - SANTANDER                                  3
 ACTION:UPD 14-01-09 16:26 OP:ep   STATUS:               ID:20131107053908 L   I
 OLDACT:DUP 13-11-07 08:12 OP:jn   STATUS:               ID:20131107053549d    3
 OLDACT:REG 13-11-07 07:44 OP:jn   STATUS:               ID:20131107053548     3
 2013-11-07-0535-48M.COL___206                                                 6
 STAT SP IPHASW D HRMM SECON CODA AMPLIT PERI AZIMU VELO AIN AR TRES W  DIS CAZ7
 BAR2 SZ ES   1    539 38.44                             145    0.07 7 66.0  63 
 SPBC HN ES   1    539 40.42                             137   -0.02 7 83.8 208 
 RUS  HZ EP        539 27.14                             138    0.0110 84.1 124 
 RUS  HN ES        539 41.43                             138   -0.0410 84.1 124 
 RUS  HZ I         539 44.99         0.9 0.24            142           84.1 124 
 PTB  HZ EP        539 26.67                             137    0.0610 85.8 287 
 PTB  HN ES        539 40.53                             137   -0.0310 85.8 287 
 PTB  HZ I         539 43.42         2.6 0.34            141           85.8 287 
 OCA  HE ES   2    540  5.03                             109   -0.12 4  217  12 
                                                                                
