 2015  4 7 0457 52.0 L   6.810 -73.142146.8  RSN  9 0.4 2.2LRSN                1
 GAP=136        0.90       2.9     3.7  5.2 -0.2199E+01  0.4976E+01 -0.3016E+00E
 Epicentro: LOS SANTOS - SANTANDER                                             3
 ACTION:UPD 15-06-03 16:53 OP:cam  STATUS:               ID:20150407045752 L   I
 OLDACT:REG 15-04-07 19:21 OP:mh   STATUS:               ID:20150407044748     3
 2015-04-07-0447-48M.COL___264                                                 6
 STAT SP IPHASW D HRMM SECON CODA AMPLIT PERI AZIMU VELO AIN AR TRES W  DIS CAZ7
 BAR2 EZ IP     C  458 11.72                             170   -0.0510 24.5 190 
 BAR2 EZ ES        458 27.19                             170   -0.0110 24.5 190 
 BAR2 EZ I         458 28.14        28.3 0.20            168           24.5 190 
 BRR  HZ IP     C  458 13.52                             153    0.2810 71.0 298 
 BRR  HN ES        458 30.44                             153    0.6210 71.0 298 
 BRR  HZ I         458 31.27        27.9 0.30            150           71.0 298 
 PAM  SZ EP        458 14.57                             151    0.3210 76.3  40 
 PAM  SN ES        458 31.63                             151    0.0110 76.3  40 
 PAM  SZ I         458 32.23        21.0 0.18            155           76.3  40 
 RUS  HZ EP        458 15.81                             144   -0.1110  102 176 
 RUS  HN ES        458 34.55                             144   -0.0410  102 176 
 PTB  HZ EP        458 18.68                             132   -0.42 9  148 258 
 PTB  HN ES        458 39.40                             132   -0.84 9  148 258 
 PTB  HZ I         458 45.11        19.5 0.10            131            148 258 
 OCA  HZ EP        458 20.17                             130   -0.11 9  159 353 
 OCA  HE ES        458 41.70                             130   -0.65 9  159 353 
 OCA  HZ I         458 46.19        32.7 0.38            131            159 353 
 SPBC HZ EP        458 20.73                             129    0.05 9  164 219 
 SPBC HN ES        458 42.99                             129   -0.06 9  164 219 
 SPBC HZ I         458 50.17        19.7 0.20            129            164 219 
 ZAR  HZ EP        458 24.82                             123    0.32 9  204 292 
 ZAR  HE ES        458 50.21                             123    0.35 9  204 292 
 ZAR  HZ I         458 55.50        20.5 0.52            122            204 292 
 NOR  HZ EP        458 28.00                             119    0.12 8  236 234 
 NOR  HN ES        458 56.15                             119    0.27 8  236 234 
 NOR  HZ I         459  1.78        14.0 0.18            119            236 234 
                                                                                
