 2012  1 7 0248 16.5 L   6.744 -73.094146.0  RSN 12 0.4 2.4LRSN                1
 GAP=146        0.62       3.2     3.5  4.5 -0.1722E+01  0.4086E+01  0.3394E+01E
 Epicentro: JORDAN - SANTANDER                                                 3
 ACTION:UP  12-02-03 08:14 OP:REBC STATUS:               ID:20120107024816 L   I
 2012-01-07-0240-00M.COL___186                                                 6
 STAT SP IPHASW D HRMM SECON CODA AMPLIT PERI AZIMU VELO SNR AR TRES W  DIS CAZ7
 BAR2 SZ EP        248 35.86                             172    -0.210   19 210 
 BAR2 SZ ES   1    248 51.46                             172     0.1 7   19 210 
 BAR2 SZ I         248 51.90        67.8 0.30                            19 210 
 GIR2 SZ EP   1    248 36.25                             164    -0.1 7   39 344 
 GIR2 SZ ES   2    248 51.42                             164    -0.5 5   39 344 
 PAM  SZ EP        248 38.97                             150     0.210   79  34 
 PAM  SN ES   1    248 56.44                             150     0.2 7   79  34 
 BRR  HZ EP        248 37.93                             150    -0.210   79 301 
 BRR  HN ES   1    248 55.41                             150     0.4 7   79 301 
 BRR  HZ I         248 56.30        50.5 0.14                            79 301 
 RUS  HZ EP        248 39.64                             146    -0.110   94 179 
 RUS  HN ES   1    248 57.96                             146     0.0 7   94 179 
 RUS  HZ I         248 59.71        32.3 0.36                            94 179 
 PTB  HZ EP   2    248 43.00                             131    -0.9 5  152 262 
 PTB  HE ES   2    249  4.61                             131    -0.6 5  152 262 
 ZAR  HZ EP   2    248 50.24                             121     0.5 4  212 293 
 ZAR  HE ES   2    249 15.04                             121    -0.6 4  212 293 
 ZAR  HZ I         249 20.07        26.3 0.31                           212 293 
 NOR  SZ EP   1    248 52.31                             118     0.0 6  236 236 
 NOR  SN ES   2    249 20.29                             118     0.0 4  236 236 
 CHI  HZ EP   1    248 53.80                             118     0.1 6  244 197 
 CHI  HE ES   2    249 22.76                             118     0.0 4  244 197 
 CHI  HZ I         249 26.19         6.7 0.68                           244 197 
 HEL  HZ EP   2    248 57.34                             114     0.2 4  276 257 
 HEL  HN ES   2    249 29.23                             114     0.4 4  276 257 
 HEL  HZ I         249 35.33        11.6 0.37                           276 257 
 GUY  SZ EP   2    249  1.14                             112     0.7 4  305 237 
 GUY  SE ES   2    249 35.68                             112     0.9 4  305 237 
 GUY  SZ I         249 42.69        16.6 0.44                           305 237 
 RREF HZ EP   2    249  3.11                             111     0.5 3  322 231 
 RREF HN ES   2    249 38.94                             111     0.3 3  322 231 
                                                                                
