 2014 12 7 0114 28.9 L   6.800 -73.153140.3  RSN  8 0.4 1.5LRSN                1
 GAP=136        0.83       3.6     3.9  6.4 -0.1507E+01  0.5939E+01  0.1717E+01E
 Epicentro: LOS SANTOS - SANTANDER                                             3
 ACTION:UPD 15-02-10 17:01 OP:nd   STATUS:               ID:20141207011428 L   I
 OLDACT:DUP 14-12-07 14:27 OP:spq  STATUS:               ID:20141207010746d    3
 OLDACT:REG 14-12-07 12:44 OP:spq  STATUS:               ID:20141207010743     3
 2014-12-07-0107-43M.COL___312                                                 6
 STAT SP IPHASW D HRMM SECON CODA AMPLIT PERI AZIMU VELO AIN AR TRES W  DIS CAZ7
 BAR2 SZ ES   1    115  2.51                             170   -0.19 7 23.2 188 
 BAR2 SZ I         115  3.61         8.7 0.36            170           23.2 188 
 BRR  HZ EP        114 49.83                             152    0.3810 70.5 299 
 BRR  HN ES   1    115  6.33                             152    0.87 7 70.5 299 
 BRR  HZ I         115  9.73         9.5 0.05            151           70.5 299 
 PAM  SZ EP     C  114 50.89                             149    0.2810 78.0  40 
 PAM  SE ES        115  7.09                             149   -0.4210 78.0  40 
 PAM  SZ I         115  9.97         6.3 0.66            153           78.0  40 
 RUS  HZ EP        114 52.15                             143   -0.0110  101 176 
 RUS  HN ES   1    115 10.33                             143    0.06 7  101 176 
 RUS  HZ I         115 12.27         3.0 0.38            145            101 176 
 PTB  HZ EP        114 55.06                             131   -0.32 9  147 259 
 PTB  HN ES        115 15.54                             131   -0.47 9  147 259 
 PTB  HZ I         115 18.66         4.2 0.50            132            147 259 
 SPBC HZ EP        114 57.02                             128    0.05 9  163 219 
 SPBC HE ES   1    115 18.99                             128    0.16 7  163 219 
 SPBC HZ I         115 25.41         3.8 0.22            130            163 219 
 ZAR  HN ES   1    115 25.98                             121    0.06 6  203 292 
 ZAR  HZ I         115 28.55         3.4 0.22            123            203 292 
 SML  HN ES   1    115 33.24                             116   -0.29 6  243 335 
 SML  HZ I         115 37.99         4.3 0.10            118            243 335 
                                                                                
