 2010  1 7 0743 38.0 L   6.289 -73.685110.0  RSN  5 0.2 1.1LRSN                1
 GAP=123        0.55       5.6     5.9  8.6 -0.1027E+02  0.2091E+02  0.7674E+01E
 Epicentro: LA PAZ - SANTANDER                                                 3
 ACTION:UP  10-08-24 09:42 OP:vdl  STATUS:               ID:20100107074338 L   I
 2010-01-07-0740-43S.COL___097                                                 6
 STAT SP IPHASW D HRMM SECON CODA AMPLIT PERI AZIMU VELO SNR AR TRES W  DIS CAZ7
 BAR2 SZ EP        743 55.51                             148     0.210   65  59 
 BAR2 SZ ES   1    744  8.93                             148     0.1 7   65  59 
 GIR2 SZ EP        743 57.86                             134    -0.310  103  32 
 CHI  HZ EP   1    744  6.55                             117    -0.1 7  184 182 
 CHI  HZ I         744 31.59         1.3 0.63                           184 182 
 HEL  HN ES   2    744 33.10                             114     0.1 4  204 267 
 HEL  HZ I         744 37.70         1.8 0.49                           204 267 
 OCA  SZ EP   2    744 10.69                             112     0.4 4  219  11 
                                                                                
