 2014 12 7 0741 31.1 L   6.766 -73.125147.0  RSN  6 0.2 1.1LRSN                1
 GAP=141        0.56       3.4     2.9  4.6  0.1749E+01  0.1631E+01  0.1157E+01E
 Epicentro: LOS SANTOS - SANTANDER                                             3
 ACTION:UPD 15-02-10 17:01 OP:nd   STATUS:               ID:20141207074131 L   I
 OLDACT:REG 14-12-07 13:17 OP:spq  STATUS:               ID:20141207073738     3
 2014-12-07-0737-38M.COL___312                                                 6
 STAT SP IPHASW D HRMM SECON CODA AMPLIT PERI AZIMU VELO AIN AR TRES W  DIS CAZ7
 BAR2 SZ EP   1    741 50.99                             172    0.14 7 20.2 198 
 BAR2 SZ ES   1    742  6.33                             172    0.10 7 20.2 198 
 BAR2 SZ I         742  7.30         4.6 0.34            172           20.2 198 
 BRR  HZ EP        741 52.56                             151   -0.0710 75.1 300 
 BRR  HN ES        742  9.73                             151    0.3210 75.1 300 
 BRR  HZ I         742 11.98         2.9 0.36            152           75.1 300 
 PAM  SZ EP        741 53.72                             151    0.1510 78.9  36 
 PAM  SN ES   1    742 10.54                             151   -0.53 7 78.9  36 
 PAM  SZ I         742 12.92         2.1 0.54            152           78.9  36 
 RUS  HZ EP        741 54.83                             145    0.1110 96.6 177 
 RUS  HN ES   1    742 13.04                             145   -0.09 7 96.6 177 
 RUS  HZ I         742 15.01         0.9 0.52            148           96.6 177 
 PTB  HZ EP        741 58.23                             132   -0.11 9  149 260 
 PTB  HE ES   1    742 19.14                             132   -0.43 7  149 260 
 ZAR  HN ES        742 29.70                             122    0.01 8  208 293 
 ZAR  HZ I         742 33.02         1.5 0.38            124            208 293 
                                                                                
