 2017 10 7 0510 41.3 L   6.727 -73.113148.2  RSN  4 0.3 1.1LRSN                1
 GAP=244        0.76       5.4     5.8  7.0  0.1118E+02  0.1140E+02 -0.3408E+00E
 Epicentro: JORDAN - SANTANDER                                                 3
 ACTION:UPD 17-11-07 19:29 OP:rebc STATUS:               ID:20171007051041 L   I
 OLDACT:REG 17-10-07 12:46 OP:dhb  STATUS:               ID:20171007050741     3
 2017-10-07-0508-00M.COL___438                                                 6
 STAT SP IPHASW D HRMM SECON CODA AMPLIT PERI AZIMU VELO AIN AR TRES W  DIS CAZ7
 BAR2 EZ EP        511  0.69                             173   -0.3810 16.8 207 
 BAR2 EZ ES        511 16.36                             173   -0.1610 16.8 207 
 BAR2 EZ I         511 17.08         2.9 0.28            170           16.8 207 
 RUS  HZ EP        511  4.91                             147    0.2310 92.4 178 
 RUS  HE ES        511 23.35                             147    0.4010 92.4 178 
 RUS  HZ I         511 26.25         1.4 0.37            147           92.4 178 
 SPBC HZ EP        511  9.55                             130   -0.04 9  159 222 
 SPBC HN ES        511 31.35                             130   -0.33 9  159 222 
 SPBC HZ I         511 34.24         2.2 0.06            130            159 222 
 ZAR  HE ES        511 40.77                             122    0.30 8  210 294 
 ZAR  HZ I         511 44.35         1.3 0.20            122            210 294 
                                                                                
