 2016  7 7 0500 33.1 L   6.697 -73.193152.7  RSN  6 0.2 1.4LRSN                1
 GAP=224        0.49       4.0     3.5  3.7  0.7104E+01 -0.9602E-01  0.5087E+00E
 Epicentro: VILLANUEVA - SANTANDER                                             3
 ACTION:UPD 17-03-29 16:47 OP:lp   STATUS:               ID:20160707050033 L   I
 OLDACT:UP  16-07-07 17:16 OP:dani STATUS:               ID:20160707045745     3
 OLDACT:UP  16-07-07 17:16 OP:dani STATUS:               ID:20160707045745     3
 OLDACT:UP  16-07-07 17:16 OP:dani STATUS:               ID:20160707045745     3
 OLDACT:UP  16-07-07 17:15 OP:dani STATUS:               ID:20160707045745     3
 OLDACT:UP  16-07-07 17:15 OP:dani STATUS:               ID:20160707045745     3
 OLDACT:UP  16-07-07 17:14 OP:dani STATUS:               ID:20160707045745     3
 OLDACT:UP  16-07-07 17:13 OP:dani STATUS:               ID:20160707045745     3
 OLDACT:UP  16-07-07 17:13 OP:dani STATUS:               ID:20160707045745     3
 OLDACT:REG 16-07-07 13:19 OP:dani STATUS:               ID:20160707045745     3
 2016-07-07-0457-45M.COL___316                                                 6
 STAT SP IPHASW D HRMM SECON CODA AMPLIT PERI AZIMU VELO AIN AR TRES W  DIS CAZ7
 BAR2 EZ EP        5 0 53.24                             176   -0.1310 11.6 174 
 BAR2 EZ ES        5 1  9.31                             176    0.1110 11.6 174 
 BAR2 EZ I         5 1 10.92         4.9 0.32            166           11.6 174 
 BRR  HZ EP        5 0 55.34                             153    0.2610 73.1 308 
 BRR  HE ES        5 1 12.14                             153   -0.1110 73.1 308 
 BRR  HZ I         5 1 15.38         5.0 0.34            146           73.1 308 
 RUS  HZ EP        5 0 56.52                             148   -0.2710 89.7 172 
 RUS  HN ES        5 1 15.39                             148    0.1110 89.7 172 
 RUS  HZ I         5 1 16.94         1.3 0.20            145           89.7 172 
 PTB  HZ EP        5 1  0.09                             135    0.08 9  141 263 
 PTB  HN ES        5 1 20.96                             135   -0.05 9  141 263 
 PTB  HZ I         5 1 27.10         3.0 0.20            129            141 263 
 SPBC HZ EP   4    5 0 59.67                             133   -1.34 0  151 220 
 SPBC HN ES   4    5 1 24.69                             133    1.89 0  151 220 
 SPBC HZ I         5 1 29.27         4.4 0.18            128            151 220 
 ZAR  HZ EP   9    5 1  2.58                             124   -3.39 0  204 296 
 ZAR  HN ES        5 1 27.98                             128   -0.25 9  204 296 
 ZAR  HZ I         5 1 42.07         3.4 0.44            121            204 296 
                                                                                
