 2015  2 7 0555 49.8 L   6.729 -73.228136.0  RSN  5 0.6 1.0LRSN                1
 GAP=213        1.44      10.4    10.2 10.5  0.5527E+02  0.2076E+02 -0.2754E+01E
 Epicentro: VILLANUEVA - SANTANDER                                             3
 ACTION:UPD 15-04-30 21:23 OP:nd   STATUS:               ID:20150207055549 L   I
 OLDACT:REG 15-02-07 12:36 OP:stll STATUS:               ID:20150207054742     3
 2015-02-07-0547-42M.COL___290                                                 6
 STAT SP IPHASW D HRMM SECON CODA AMPLIT PERI AZIMU VELO AIN AR TRES W  DIS CAZ7
 BAR2 EZ EP        556  7.43                             173   -0.6710 16.0 161 
 BAR2 EZ ES        556 22.41                             173    0.0210 16.0 161 
 BAR2 EZ I         556 23.99         4.1 0.30            170           16.0 161 
 BRR  HZ EP        556  8.98                             152   -0.7110 67.9 308 
 BRR  HZ I         556 10.05         4.2 0.16            153           67.9 308 
 BRR  HN ES        556 25.65                             152    0.4410 67.9 308 
 RUS  HZ EP        556 12.31                             144    0.2210 93.9 170 
 RUS  HN ES        556 29.88                             144    0.3910 93.9 170 
 RUS  HZ I         556 32.28         1.1 0.26            142           93.9 170 
 PTB  HZ EP        556 14.79                             132   -0.22 9  137 261 
 PTB  HZ I         556 17.42         1.1 0.18            132            137 261 
 PTB  HN ES        556 34.25                             132   -0.44 9  137 261 
 ZAR  HZ EP        556 22.30                             121    1.24 9  199 295 
                                                                                
