 2016  8 7 0423 46.8 L   6.797 -73.132148.4  RSN 15 0.5 2.2LRSN                1
 GAP=120        1.08       3.9     3.7  5.5 -0.4285E+01  0.4187E+01  0.2671E+01E
 Epicentro: LOS SANTOS - SANTANDER                                             3
 ACTION:UPD 16-10-29 15:32 OP:rebc STATUS:               ID:20160807042346 L   I
 OLDACT:UP  16-08-07 15:16 OP:dani STATUS:               ID:20160807041730d    3
 OLDACT:UP  16-08-07 15:16 OP:dani STATUS:               ID:20160807041730d    3
 OLDACT:DUP 16-08-07 15:06 OP:dani STATUS:               ID:20160807041730d    3
 OLDACT:UP  16-08-07 15:06 OP:dani STATUS:               ID:20160807041729     3
 OLDACT:UP  16-08-07 15:06 OP:dani STATUS:               ID:20160807041729     3
 OLDACT:REG 16-08-07 12:53 OP:dani STATUS:               ID:20160807041729     3
 2016-08-07-0418-00M.COL___362                                                 6
 STAT SP IPHASW D HRMM SECON CODA AMPLIT PERI AZIMU VELO AIN AR TRES W  DIS CAZ7
 BAR2 EZ EP        424  6.68                             171   -0.0210 23.3 194 
 BAR2 EZ ES        424 21.81                             171   -0.4410 23.3 194 
 BAR2 EZ I         424 24.48        48.2 0.36                          23.3 194 
 BRR  HZ EP        424  8.58                             152    0.3110 72.6 298 
 BRR  HN ES        424 25.76                             152    0.7110 72.6 298 
 BRR  HZ I         424 32.76        19.7 0.16                          72.6 298 
 PAM  EZ EP        424  9.54                             151    0.3310 76.7  39 
 PAM  EE ES        424 26.74                             151    0.0210 76.7  39 
 PAM  EZ I         424 29.08        17.6 0.66                          76.7  39 
 RUS  HZ EP        424 11.11                             144    0.3810  100 177 
 RUS  HE ES        424 29.38                             144   -0.0610  100 177 
 RUS  HZ I         424 30.89        16.8 0.40                           100 177 
 PTB  HZ EP        424 13.21                             132   -0.85 9  149 259 
 PTB  HN ES        424 34.66                             132   -0.70 9  149 259 
 PTB  HZ I         424 35.78        23.3 0.42                           149 259 
 SPBC HZ EP        424 15.54                             129    0.03 9  164 219 
 SPBC HN ES        424 37.86                             129   -0.09 9  164 219 
 SPBC HZ I         424 41.58        33.6 0.42                           164 219 
 ZAR  HZ EP        424 19.15                             123   -0.37 8  206 292 
 ZAR  HE ES        424 45.19                             123    0.11 8  206 292 
 ZAR  HZ I         424 51.88        16.5 0.30                           206 292 
 NOR  HZ EP        424 22.61                             119   -0.13 8  236 235 
 NOR  HE ES        424 50.29                             119   -0.52 8  236 235 
 NOR  HZ I         424 56.15        17.5 0.28                           236 235 
 HEL  HZ EP   4    424 28.74                             115    1.49 0  273 256 
 HEL  HE ES        424 58.80                             115   -0.03 8  273 256 
 HEL  HZ I         425  5.60         9.1 0.42                           273 256 
 SOCV BZ EP        424 29.49                             113   -0.31 7  300  57 
 SOCV BN ES   4    425  0.87                             113   -2.51 0  300  57 
 GUY2CHZ EP   4    424 32.83                             113    2.24 0  302 235 
 GUY2CHE ES        425  6.15                             113    1.36 7  302 235 
 GUY2CHZ I         425 13.22        12.5 0.34                           302 235 
 ELA  HE ES        425 10.77                             111    0.25 7  330 230 
 CBOC HZ EP   4    424 35.28                             110    1.36 0  335 252 
 PRA  HZ EP        424 40.10                             107   -0.31 6  392 210 
 PRA  HE ES        425 22.60                             107    0.33 6  392 210 
 PRA  HZ I         425 29.04         7.2 0.20                           392 210 
 PAL  HZ EP        424 42.54                             106    0.42 6  407 239 
 PAL  HE ES   4    425 27.37                             106    2.05 0  407 239 
 PAL  HZ I         425 31.30         4.4 0.37                           407 239 
 SJC  HZ EP   4    424 40.93                             106   -1.60 0  410 327 
 SJC  HE ES   4    425 22.26                             106   -3.77 0  410 327 
 SJC  HZ I         425 30.31         2.1 0.36                           410 327 
                                                                                
