 2010  8 7 0604 45.2 L   6.032 -73.697113.1  RSN  4 0.2 1.4LRSN                1
 GAP=256        0.55       7.9    16.2 13.3  0.1063E+03  0.1734E+03  0.7429E+02E
 Epicentro: BOLIVAR - SANTANDER                                                3
 ACTION:UP  10-09-07 10:52 OP:vdl  STATUS:               ID:20100807060445 L   I
 2010-08-07-0601-45S.COL___125                                                 6
 STAT SP IPHASW D HRMM SECON CODA AMPLIT PERI AZIMU VELO SNR AR TRES W  DIS CAZ7
 RUS  HZ EP        6 5  3.55                             146     0.010   70 103 
 RUS  HZ I         6 5  4.08         2.9 0.37                            70 103 
 RUS  HN ES   2    6 5 17.89                             146     0.1 5   70 103 
 BAR2 SZ ES   1    6 5 18.83                             140    -0.2 7   84  43 
 BAR2 SZ I         6 5 20.54        13.7 0.75                            84  43 
 BTL  SZ EP        6 5  6.48                             133     0.210  109  26 
 BRR  HZ EP   1    6 5  6.53                             130    -0.4 7  119 359 
 BRR  HN ES   1    6 5 23.95                             130     0.2 7  119 359 
 BRR  HZ I         6 5 27.31         5.4 0.14                           119 359 
                                                                                
