 2014  8 7 0749 59.7 L   6.815 -73.156141.7  RSN 22 0.5 2.8LRSN                1
 GAP= 70        1.16       2.6     2.9  5.0 -0.9340E+00  0.4702E+01  0.2055E+01E
 Epicentro: LOS SANTOS - SANTANDER                                             3
 ACTION:UPD 14-09-15 21:47 OP:nd   STATUS:               ID:20140807074959 L   I
 OLDACT:REG 14-08-07 12:38 OP:carl STATUS:               ID:20140807074817     3
 2014-08-07-0748-17M.COL___251                                                 6
 STAT SP IPHASW D HRMM SECON CODA AMPLIT PERI AZIMU VELO AIN AR TRES W  DIS CAZ7
 BAR2 SZ IP     D  750 18.91                             170    0.0210 24.8 187 
 BAR2 SZ ES        750 33.86                             170    0.0110 24.8 187 
 BAR2 SZ I         750 35.12       138.6 0.18            168           24.8 187 
 BRR  HZ IP     C  750 20.71                             152    0.3810 69.4 298 
 BRR  HN ES        750 37.46                             152    1.0610 69.4 298 
 BRR  HZ I         750 40.48        95.1 0.16            151           69.4 298 
 PAM  SZ EP     C  750 21.89                             150    0.4210 76.9  41 
 PAM  SN ES        750 38.45                             150    0.0110 76.9  41 
 PAM  SZ I         750 41.24        74.9 0.50            154           76.9  41 
 RUS  HZ EP        750 22.88                             142   -0.3210  102 175 
 RUS  HE ES        750 41.33                             142   -0.1910  102 175 
 RUS  HZ I         750 43.08        35.3 0.34            144            102 175 
 PTB  HZ EP        750 25.50                             131   -0.79 9  147 258 
 PTB  HN ES        750 45.99                             131   -1.02 9  147 258 
 PTB  HZ I         750 49.83        85.4 0.18            131            147 258 
 TAM  HZ IP     D  750 27.35                             129    0.12 9  157 105 
 TAM  HN ES        750 48.78                             129    0.10 9  157 105 
 TAM  HZ I         750 49.53        51.8 0.22            133            157 105 
 OCA  HZ EP        750 27.59                             129    0.04 9  158 353 
 OCA  HE ES        750 48.55                             129   -0.70 9  158 353 
 OCA  HZ I         750 53.20        54.7 0.18            131            158 353 
 SPBC HZ IP     C  750 27.85                             128   -0.12 9  164 218 
 SPBC HN ES        750 49.47                             128   -0.53 9  164 218 
 SPBC HZ I         750 55.68        58.0 0.18            128            164 218 
 ZAR  HZ EP        750 31.55                             122   -0.18 9  202 292 
 ZAR  HN ES        750 57.73                             122    1.04 9  202 292 
 ZAR  HZ I         751  3.43        65.9 0.24            122            202 292 
 NOR  HZ EP        750 34.89                             118   -0.33 8  235 234 
 NOR  HE ES        751  2.90                             118   -0.01 8  235 234 
 NOR  HZ I         751  5.83        72.1 0.24            118            235 234 
 SML  HZ EP        750 35.44                             117   -0.47 8  242 335 
 SML  HN ES        751  3.69                             117   -0.44 8  242 335 
 SML  HZ I         751 10.87        54.3 0.26            118            242 335 
 CHI  HZ EP        750 37.19                             116   -0.15 8  250 195 
 CHI  HN ES        751  6.55                             116   -0.13 8  250 195 
 CHI  HZ I         751 10.73        19.2 0.34            117            250 195 
 ROSC BZ EP   4    750 38.80                             116    1.08 0  254 211 
 ROSC BE ES   4    751  9.33                             116    1.98 0  254 211 
 HEL  HZ EP        750 40.03                             114    0.38 8  271 255 
 HEL  HN ES        751 11.21                             114    0.41 8  271 255 
 HEL  HZ I         751 17.17        40.2 0.42            114            271 255 
 URE  HZ EP   4    750 38.89                             113   -1.52 0  282 292 
 URE  HE ES   4    751 10.37                             113   -1.77 0  282 292 
 GUY2CHZ EP        750 43.57                             111    0.42 7  301 234 
 GUY2CHN ES        751 17.49                             111    0.47 7  301 234 
 GUY2CHZ I         751 24.20        23.4 0.36                           301 234 
 PTGC HZ EP   4    750 41.99                             111   -1.63 0  311 159 
 PTGC HN ES   4    751 15.36                             111   -2.51 0  311 159 
 PTGC HZ I         751 17.25        29.5 0.42            112            311 159 
 CBOC HZ EP        750 47.10                             109    0.70 7  333 252 
 CBOC HN ES        751 22.41                             109   -0.40 7  333 252 
 CBOC HZ I         751 32.53        10.7 0.48            110            333 252 
 DBB  SZ EP        750 46.86                             109   -0.03 7  338 274 
 DBB  SZ ES        751 23.05                             109   -0.63 7  338 274 
 DBB  SZ I         751 28.25        54.9 0.32            109            338 274 
 TOL  SZ EP        750 48.81                             108    0.95 7  344 224 
 TOL  SN ES        751 25.04                             108   -0.37 7  344 224 
 TOL  SZ I         751 37.44        55.5 0.70            109            344 224 
 ANIL HZ EP        750 50.14                             108    0.72 6  358 224 
 ANIL HN ES        751 27.93                             108   -0.25 6  358 224 
 ANIL HZ I         751 45.26        45.3 0.34            108            358 224 
 PRA  HZ EP        750 52.59                             106   -0.62 6  393 209 
 PRA  HN ES        751 34.84                             106   -0.09 6  393 209 
 PRA  HZ I         751 42.00        26.0 0.24            107            393 209 
 ORTC HZ EP        750 53.81                             106    0.23 6  396 216 
 ORTC HE ES        751 36.84                             106    1.25 6  396 216 
 ORTC HZ I         751 41.14        15.8 0.50            106            396 216 
 PAL  HZ EP   4    750 55.08                             105    0.35 0  406 239 
 PAL  HE ES   4    751 37.07                             105   -0.57 0  406 239 
 SJC  HZ EP   4    750 53.50                             105   -1.42 0  407 327 
 SJC  HN ES   4    751 33.65                             105   -4.31 0  407 327 
 SJC  HZ I         751 37.72        10.4 0.60            106            407 327 
 MACC HZ EP   4    751  6.05                             101   -2.46 0  522 188 
 MACC HN ES   4    751 57.67                             101   -4.50 0  522 188 
                                                                                
