 2012  3 7 0321  4.2 L   6.710 -73.138140.0  RSN  6 0.3 1.6LRSN                1
 GAP=141        0.76       4.7     4.2  6.9  0.1704E+01  0.1104E+01 -0.1399E+01E
 ACTION:UP  12-03-31 23:17 OP:EP   STATUS:               ID:20120307032104 L   I
 2012-03-07-0320-00M.COL___194                                                 6
 STAT SP IPHASW D HRMM SECON CODA AMPLIT PERI AZIMU VELO SNR AR TRES W  DIS CAZ7
 BAR2 SZ EP   1    321 23.12                             174     0.1 7   14 201 
 BAR2 SZ ES   1    321 37.72                             174     0.0 7   14 201 
 BAR2 SZ I         321 38.86        11.6 0.26                            14 201 
 BRR  HZ EP        321 25.39                             149     0.310   77 305 
 BRR  HE ES        321 41.78                             149     0.410   77 305 
 BRR  HZ I         321 46.70         9.4 0.14                            77 305 
 PAM  SZ EP        321 26.18                             147    -0.110   85  35 
 PAM  SE ES   1    321 43.14                             147    -0.4 7   85  35 
 RUS  HZ EP   1    321 26.83                             146     0.1 7   91 176 
 RUS  HN ES   1    321 44.28                             146     0.0 7   91 176 
 RUS  HZ I         321 46.20         4.4 0.34                            91 176 
 PTB  HZ EP   2    321 30.71                             131     0.0 5  147 263 
 PTB  HE ES   1    321 50.52                             131    -0.8 7  147 263 
 ZAR  HE ES   1    322  2.15                             120    -0.1 6  209 295 
 ZAR  HZ I         322  7.61         3.8 0.30                           209 295 
                                                                                
