 2010 11 7 0228  8.8 L   6.840 -73.470116.9  RSN  8 0.5 1.5LRSN                1
 GAP=154        1.38       7.6    14.0 13.4 -0.4808E+01 -0.5727E+02 -0.1113E+02E
 Epicentro: SAN VICENTE DE CHUCURI - SANTANDER                                 3
 ACTION:UP  10-12-17 16:50 OP:REBC STATUS:               ID:20101107022808 L   I
 2010-11-07-0226-03S.COL___128                                                 6
 STAT SP IPHASW D HRMM SECON CODA AMPLIT PERI AZIMU VELO SNR AR TRES W  DIS CAZ7
 BRR  HZ EP        228 25.34                             160     0.210   40 318 
 GIR2 SZ EP        228 25.18                             160    -0.210   40  49 
 BRR  HZ I         228 25.57        16.5 0.06                            40 318 
 BRR  HE ES   1    228 38.18                             160     0.2 7   40 318 
 BAR2 SZ EP        228 25.63                             159     0.010   42 131 
 BAR2 SZ I         228 25.97        10.6 0.13                            42 131 
 BAR2 SZ ES   2    228 38.02                             159    -0.7 5   42 131 
 RUS  HZ EP        228 31.13                             133     0.210  113 158 
 RUS  HZ I         228 49.08         1.8 0.26                           113 158 
 GUE  SZ EP        228 30.92                             130    -0.810  125  29 
 GRA  SZ EP        228 33.72                             127     1.0 9  137  32 
 GRA  SZ ES   1    228 51.72                             127     0.4 7  137  32 
 OCA  SZ EP        228 34.07                             123    -0.5 9  156   6 
 OCA  SZ I         228 36.87         5.8 0.27                           156   6 
 MON  HN ES   3    229 27.83                             105     0.0 2  322 312 
                                                                                
