 2014 10 7 0757 58.1 L   6.819 -73.157144.5  RSN 11 0.5 1.6LRSN                1
 GAP=182        1.11       3.8     6.1  7.5  0.4493E+01  0.3644E+01 -0.4556E+01E
 Epicentro: LOS SANTOS - SANTANDER                                             3
 ACTION:UPD 14-11-29 23:47 OP:nd   STATUS:               ID:20141007075758 L   I
 OLDACT:DUP 14-10-07 17:19 OP:fm   STATUS:               ID:20141007074749d    3
 OLDACT:REG 14-10-07 13:30 OP:fm   STATUS:               ID:20141007074748     3
 2014-10-07-0747-48M.COL___292                                                 6
 STAT SP IPHASW D HRMM SECON CODA AMPLIT PERI AZIMU VELO AIN AR TRES W  DIS CAZ7
 BAR2 SZ EP        758 17.97                             170    0.3810 25.2 186 
 BAR2 SZ ES   1    758 32.93                             170    0.11 7 25.2 186 
 BAR2 SZ I         758 34.59        11.1 0.24            170           25.2 186 
 BRR  HZ EP        758 19.75                             153    0.7810 69.1 298 
 BRR  HN ES        758 35.79                             153    0.5210 69.1 298 
 BRR  HZ I         758 40.05         9.4 0.32            152           69.1 298 
 RUS  HZ EP   1    758 22.00                             143    0.14 7  103 175 
 RUS  HN ES        758 39.64                             143   -0.7710  103 175 
 RUS  HZ I         758 42.80         2.9 0.38            146            103 175 
 PTB  HZ EP        758 24.67                             132   -0.20 9  147 258 
 PTB  HN ES        758 45.20                             132   -0.56 9  147 258 
 PTB  HZ I         758 50.84         5.3 0.18            133            147 258 
 OCA  HE ES   1    758 47.76                             130   -0.17 7  158 354 
 OCA  HZ I         758 53.37         3.0 0.14            132            158 354 
 SPBC HZ EP        758 26.84                             129    0.28 9  164 218 
 SPBC HN ES        758 48.74                             129   -0.03 9  164 218 
 SPBC HZ I         758 54.99         5.3 0.16            131            164 218 
 ZAR  HZ EP   1    758 30.04                             122   -0.20 6  202 292 
 ZAR  HN ES        758 55.65                             122    0.32 9  202 292 
 ZAR  HZ I         759  0.96         3.4 0.56            124            202 292 
 SML  HZ EP        758 34.17                             117   -0.20 8  241 335 
 SML  HN ES        759  1.79                             117   -0.89 8  241 335 
 SML  HZ I         759  5.50         5.0 0.10            120            241 335 
 GUY2CHZ EP   4    758 42.96                             112    1.32 0  301 234 
 GUY2CHE ES   4    759 18.24                             112    2.61 0  301 234 
 GUY2CHZ I         759 23.70         2.1 0.42                           301 234 
 MON  HN ES   4    759 22.65                             108   -2.09 0  351 308 
 MON  HZ I         759 26.02         1.0 0.36            110            351 308 
 PRA  HZ EP   1    758 51.79                             106    0.10 4  393 209 
 PRA  HE ES   4    759 30.82                             106   -2.69 0  393 209 
 PRA  HZ I         759 36.57         1.6 0.70            108            393 209 
                                                                                
