 2016  4 7 0115 18.9 L   5.899 -73.636122.3  RSN  9 0.5 1.7LRSN                1
 GAP= 94        0.97       4.7     3.6  7.9 -0.2580E+01  0.1081E+02  0.5057E+01E
 Epicentro: BARBOSA - SANTANDER                                                3
 ACTION:UPD 16-05-05 14:19 OP:rebc STATUS:               ID:20160407011518 L   I
 OLDACT:REG 16-04-07 12:24 OP:dnl  STATUS:               ID:20160407010745     3
 2016-04-07-0107-45M.COL___316                                                 6
 STAT SP IPHASW D HRMM SECON CODA AMPLIT PERI AZIMU VELO AIN AR TRES W  DIS CAZ7
 SPBC HZ EP   2    115 35.94                             154   -0.82 5 55.5 241 
 SPBC HE ES   2    115 51.26                             154    0.57 5 55.5 241 
 SPBC HZ I         115 52.74        17.9 0.20            153           55.5 241 
 RUS  HZ EP        115 37.51                             152   -0.1510 61.2  91 
 RUS  HE ES        115 52.28                             152   -0.0210 61.2  91 
 RUS  HZ I         115 54.83         9.3 0.24            157           61.2  91 
 BAR2 EZ EP        115 39.75                             141    0.3910 91.6  33 
 BAR2 EZ ES        115 55.76                             141    0.4410 91.6  33 
 BAR2 EZ I         115 56.52        18.0 0.24            144           91.6  33 
 PTB  HZ EP        115 40.07                             134   -0.9310  115 308 
 PTB  HN ES        115 57.92                             134   -0.3210  115 308 
 PTB  HZ I         115 59.78         6.0 0.14            134            115 308 
 CHI  HZ EP   2    115 43.48                             128   -0.43 5  141 184 
 CHI  HN ES   2    116  2.61                             128   -0.81 5  141 184 
 CHI  HZ I         116  6.57         3.4 0.34            130            141 184 
 NOR  HZ EP        115 43.78                             127    0.28 9  142 255 
 NOR  HN ES        116  2.70                             127    0.01 9  142 255 
 NOR  HZ I         116  6.74        14.9 0.14            128            142 255 
 GUY2CHZ EP        115 51.31                             117    0.62 8  206 249 
 GUY2CHN ES   2    116 15.42                             117   -0.07 4  206 249 
 GUY2CHZ I         116 22.94         3.0 0.38                           206 249 
 HEL  HZ EP   2    115 51.84                             116    0.58 4  212 279 
 HEL  HN ES   2    116 17.16                             116    0.66 4  212 279 
 HEL  HZ I         116 23.83         3.1 0.20            117            212 279 
 ZAR  HZ EP   3    115 52.48                             114    0.57 2  222 323 
 ZAR  HN ES   2    116 17.25                             114   -0.40 4  222 323 
 ZAR  HZ I         116 24.09         5.1 0.31            116            222 323 
                                                                                
