 2013  3 7 0653 29.4 L   7.272 -73.322122.6  RSN  4 0.3 1.3LRSN                1
 GAP=194        0.58       3.1     7.2  5.6 -0.1717E+01  0.1592E+01 -0.6801E+01E
 Epicentro: RIONEGRO - SANTANDER                                               3
 ACTION:UPD 13-04-09 14:00 OP:ep   STATUS:               ID:20130307065329 L   I
 2013-03-07-0650-00M.COL___231                                                 6
 STAT SP IPHASW D HRMM SECON CODA AMPLIT PERI AZIMU VELO AIN AR TRES W  DIS CAZ7
 BRR  HZ EP        653 46.73                             158   -0.0210 46.7 247 
 BRR  HN ES        653 59.96                             158   -0.3010 46.7 247 
 BRR  HN I         654 10.32         4.5 0.14            152           46.7 247 
 BAR2 SZ ES   2    654  4.51                             146    0.55 5 76.7 168 
 BAR2 SZ I         654  5.51         7.2 0.49            152           76.7 168 
 PTB  HZ EP        653 54.73                             126   -0.02 9  149 237 
 PTB  HN ES   1    654 14.75                             126    0.25 7  149 237 
 PTB  HZ I         654 21.07         2.1 0.31            129            149 237 
 SML  HZ EP        653 58.55                             119   -0.19 9  188 334 
 SML  HN ES        654 21.91                             119    0.29 9  188 334 
                                                                                
