 2017  4 7 0709  1.0 L   6.773 -73.109137.5  RSN  8 0.2 1.4LRSN                1
 GAP=143        0.48       2.0     2.2  3.1 -0.1108E+01  0.1741E+01  0.2119E+00E
 Epicentro: LOS SANTOS - SANTANDER                                             3
 ACTION:UPD 17-05-30 21:09 OP:jn   STATUS:               ID:20170407070900 L   I
 OLDACT:UP  17-04-07 16:21 OP:and  STATUS:               ID:20170407070509     3
 OLDACT:REG 17-04-07 12:39 OP:and  STATUS:               ID:20170407070509     3
 2017-04-07-0707-00M.COL___359                                                 6
 STAT SP IPHASW D HRMM SECON CODA AMPLIT PERI AZIMU VELO AIN AR TRES W  DIS CAZ7
 BAR2 EZ IP     D  7 9 19.41                             171   -0.1810 21.5 202 
 BAR2 EZ ES        7 9 33.96                             171   -0.1410 21.5 202 
 BAR2 EZ I         7 9 35.19         3.7 0.11            171           21.5 202 
 BRR  HZ EP        7 9 21.55                             149   -0.0110 76.2 299 
 BRR  HN ES   2    7 9 38.10                             149    0.50 5 76.2 299 
 PAM  EZ IP     C  7 9 22.44                             149    0.1110 77.3  36 
 PAM  EN ES        7 9 38.89                             149   -0.0810 77.3  36 
 PAM  EZ I         7 9 41.41         6.0 0.46            150           77.3  36 
 RUS  HZ EP        7 9 23.70                             143   -0.0010 97.4 178 
 RUS  HN ES        7 9 41.69                             143    0.2810 97.4 178 
 RUS  HZ I         7 9 42.86         3.4 0.34            146           97.4 178 
 PTB  HZ EP   9    7 9 26.53                             129   -1.10 0  151 260 
 PTB  HN ES        7 9 47.17                             131   -0.13 9  151 260 
 PTB  HZ I         7 9 49.03         2.3 0.16            129            151 260 
 SPBC HZ EP        7 9 28.81                             127   -0.09 9  163 221 
 SPBC HN ES        7 9 50.69                             127    0.02 9  163 221 
 SPBC HZ I         7 9 52.70         4.0 0.34            128            163 221 
 ZAR  HE ES        7 9 58.84                             120    0.10 8  209 292 
 ZAR  HZ I         710  6.57         2.2 0.22            120            209 292 
 NOR  HZ EP        7 9 36.66                             116    0.23 8  236 236 
 NOR  HN ES        710  3.69                             116   -0.39 8  236 236 
 URE  HE ES   4    710 11.60                             111   -2.80 0  289 292 
                                                                                
