 2010  8 7 0018 49.3 L   6.774 -73.113148.6  RSN  7 0.2 1.8LRSN                1
 GAP=168        0.44       3.0     6.5  4.3  0.1742E+01 -0.3278E+01 -0.3509E+01E
 Epicentro: LOS SANTOS - SANTANDER                                             3
 ACTION:UP  10-09-07 10:52 OP:vdl  STATUS:               ID:20100807001849 L   I
 2010-08-07-0016-33S.COL___124                                                 6
 STAT SP IPHASW D HRMM SECON CODA AMPLIT PERI AZIMU VELO SNR AR TRES W  DIS CAZ7
 BAR2 SZ EP        019  9.21                             171     0.010   22 201 
 BAR2 SZ ES   1    019 24.81                             171     0.0 7   22 201 
 BAR2 SZ I         019 25.72        16.0 0.23                            22 201 
 BTL  SZ EP        019  9.35                                     0.110   23 313 
 BTL  SZ ES   2    019 24.28                             170    -0.6 5   23 313 
 GIR2 SZ EP   3    019  9.37                             166     0.0 2   35 345 
 GIR2 SZ ES   3    019 24.79                             166    -0.3 2   35 345 
 BRR  HZ IP     C  019 11.07                             151     0.110   76 299 
 BRR  HZ I         019 11.30        14.8 0.17                            76 299 
 BRR  HN ES   2    019 28.34                             151     0.4 5   76 299 
 RUS  HZ EP   1    019 13.21                             145     0.1 7   98 178 
 RUS  HN ES   1    019 31.69                             145     0.0 7   98 178 
 RUS  HZ I         019 32.99         5.8 0.21                            98 178 
 GUE  SZ EP        019 14.33                             139    -0.110  119  10 
 PRA  HZ EP   3    019 43.24                             107     0.4 1  391 210 
 PRA  HE ES   2    020 23.78                             107    -0.8 3  391 210 
 PRA  HZ I         020 31.30         2.9 0.43                           391 210 
                                                                                
