 2011  1 7 0432 52.2 L   6.285 -73.563112.0  RSN  5 0.2 1.4LRSN                1
 GAP=126        0.43       3.3     4.9  6.1 -0.5219E+01  0.1557E+02 -0.9522E+00E
 Epicentro: EL GUACAMAYO - SANTANDER                                           3
 ACTION:UP  11-02-08 08:39 OP:pat  STATUS:               ID:20110107043252 L   I
 2011-01-07-0431-02S.COL___135                                                 6
 STAT SP IPHASW D HRMM SECON CODA AMPLIT PERI AZIMU VELO SNR AR TRES W  DIS CAZ7
 BAR2 SZ EP   1    433  8.77                             153    -0.3 7   54  51 
 BAR2 SZ ES   1    433 22.21                             153     0.0 7   54  51 
 BAR2 SZ I         433 22.87        15.5 0.32                            54  51 
 RUS  HZ EP   1    433 10.25                             147     0.0 7   69 129 
 RUS  HN ES   1    433 24.62                             147     0.2 7   69 129 
 RUS  HZ I         433 26.07         2.9 0.25                            69 129 
 NOR  SN ES   2    433 39.13                             120     0.1 5  165 241 
 CHI  HZ EP   2    433 20.87                             117    -0.1 4  184 186 
 CHI  HN ES   2    433 43.38                             117     0.0 4  184 186 
 CHI  HZ I         433 48.28         1.6 0.49                           184 186 
 OCA  SZ EP   2    433 24.83                             112     0.4 4  218   7 
 OCA  SZ I         433 54.30         3.5 0.15                           218   7 
                                                                                
