 2011  3 7 0620 38.8 L   6.864 -73.156135.2  RSN 12 0.4 2.4LRSN                1
 GAP=135        0.99       3.2     6.5 10.8 -0.2621E+01  0.3796E+02  0.3934E+01E
 Epicentro: LOS SANTOS - SANTANDER                                             3
 ACTION:UP  11-06-16 14:32 OP:jfem STATUS:               ID:20110307062038 L   I
 2011-03-07-0619-03S.COL___135                                                 6
 STAT SP IPHASW D HRMM SECON CODA AMPLIT PERI AZIMU VELO SNR AR TRES W  DIS CAZ7
 BAR2 SZ IP        620 57.40                             167     0.110   30 186 
 BAR2 SZ I         621 18.27        46.1 0.30                            30 186 
 RUS  HZ EP   1    621  1.58                             139    -0.5 7  108 176 
 RUS  HN ES   1    621 19.81                             139    -0.4 7  108 176 
 RUS  HZ I         621 23.97        20.0 0.42                           108 176 
 GRA  SZ IP        621  2.77                             136     0.210  119  19 
 GRA  SZ ES   1    621 21.46                             136     0.4 7  119  19 
 GRA  SZ I         621 24.94        58.2 0.37                           119  19 
 OCA  SZ EP        621  5.15                             128    -0.4 9  153 353 
 OCA  SZ ES   1    621 26.39                             128    -0.1 7  153 353 
 OCA  SZ I         621 31.39        54.2 0.11                           153 353 
 YOP  SZ EP   2    621  8.43                             123    -0.3 4  186 154 
 YOP  SN ES   1    621 32.57                             123     0.4 7  186 154 
 YOP  SZ I         621 34.87        20.7 0.48                           186 154 
 CHI  HZ EP        621 16.20                             114    -0.4 8  255 194 
 CHI  HN ES   1    621 45.84                             114    -0.3 6  255 194 
 CHI  HZ I         621 51.75         8.4 0.25                           255 194 
 ROSC BZ EP        621 17.99                             114     1.0 8  258 210 
 HEL  HZ EP   1    621 18.60                             112     0.1 6  273 254 
 HEL  HN ES   1    621 49.47                             112    -0.1 6  273 254 
 HEL  HZ I         621 56.49        23.7 0.35                           273 254 
 RREF HZ EP   3    621 24.79                             108    -0.1 2  326 228 
 RREF HN ES   1    622  1.76                             108     0.9 5  326 228 
 RREF HZ I         622  8.11        20.8 0.36                           326 228 
 DBB  SZ EP        621 25.26                             108    -0.4 7  338 273 
 MON  HZ EP   4    621 24.25                             107    -2.5 0  347 308 
 TOL  SZ EP   2    621 27.22                             107     0.1 3  348 224 
 PRA  HE ES   1    622 14.27                             104    -0.3 4  398 209 
                                                                                
