 2015  1 7 0350 56.2 L   6.812 -73.032162.4  RSN  6 0.3 1.3LRSN                1
 GAP=242        0.67       4.6     7.2  7.3 -0.1298E+01  0.1232E+02 -0.9987E+01E
 Epicentro: CEPITA - SANTANDER                                                 3
 ACTION:UPD 15-03-02 15:37 OP:nd   STATUS:               ID:20150107035056 L   I
 OLDACT:REG 15-01-07 15:51 OP:spq  STATUS:               ID:20150107034813     3
 2015-01-07-0348-13M.COL___277                                                 6
 STAT SP IPHASW D HRMM SECON CODA AMPLIT PERI AZIMU VELO AIN AR TRES W  DIS CAZ7
 BAR2 EZ ES   1    351 34.90                             169   -0.04 7 29.5 214 
 BAR2 EZ I         351 36.48         2.5 0.31            168           29.5 214 
 BRR  HE ES        351 38.22                             152    0.0910 81.9 293 
 BRR  HZ I         351 43.63         3.6 0.36            150           81.9 293 
 PTB  HZ EP   1    351 25.42                             133   -0.26 7  160 259 
 PTB  HE ES   1    351 47.94                             133   -0.73 7  160 259 
 PTB  HZ I         351 49.08         1.8 0.16            132            160 259 
 SPBC HN ES   1    351 51.19                             131    0.40 7  172 222 
 SPBC HZ I         351 57.96         2.1 0.22            130            172 222 
 ZAR  HE ES        351 58.32                             124    0.35 8  215 291 
 ZAR  HZ I         352  4.67         1.6 0.28            123            215 291 
 SML  HZ EP   1    351 34.37                             120    0.10 6  248 333 
 SML  HN ES   1    352  3.78                             120   -0.18 6  248 333 
 SML  HZ I         352 10.14         2.3 0.10            120            248 333 
                                                                                
