 2014  3 7 0902 26.7 L   6.781 -73.131138.3  RSN 10 0.5 1.7LRSN                1
 GAP=139        1.17       3.1     4.6  6.9 -0.2099E+01  0.1184E+02 -0.2878E+01E
 Epicentro: LOS SANTOS - SANTANDER                                             3
 ACTION:UPD 14-04-09 23:15 OP:nd   STATUS:               ID:20140307090226 L   I
 OLDACT:REG 14-03-07 09:28 OP:nd   STATUS:               ID:20140307090044     3
 2014-03-07-0900-44M.COL___208                                                 6
 STAT SP IPHASW D HRMM SECON CODA AMPLIT PERI AZIMU VELO AIN AR TRES W  DIS CAZ7
 BAR2 SZ EP        9 2 45.53                             171    0.1410 21.6 195 
 BAR2 SZ ES        9 2 59.99                             171    0.0110 21.6 195 
 BAR2 SZ I         9 3  1.56        13.5 0.30            169           21.6 195 
 PAM  SZ EP        9 2 48.50                             149    0.3410 78.0  38 
 PAM  SN ES        9 3  4.83                             149   -0.0810 78.0  38 
 PAM  SZ I         9 3  8.09        10.8 0.52            153           78.0  38 
 RUS  HZ EP        9 2 50.24                             143    0.6910 98.4 177 
 RUS  HN ES        9 3  7.57                             143    0.1810 98.4 177 
 RUS  HZ I         9 3  9.00         4.5 0.28            145           98.4 177 
 PTB  HZ EP        9 2 52.68                             130   -0.49 9  149 260 
 PTB  HN ES        9 3 13.42                             130   -0.41 9  149 260 
 PTB  HZ I         9 3 16.95         5.1 0.32            130            149 260 
 OCA  HZ EP        9 2 54.96                             127    0.30 9  163 353 
 OCA  HN ES        9 3 16.34                             127   -0.13 9  163 353 
 OCA  HZ I         9 3 23.19         8.0 0.28            130            163 353 
 SPBC HZ EP   2    9 2 54.00                             127   -0.57 5  163 220 
 SPBC HN ES        9 3 16.22                             127   -0.09 9  163 220 
 SPBC HZ I         9 3 23.30         6.7 0.20            128            163 220 
 ZAR  HZ EP        9 2 59.04                             120    0.14 8  206 293 
 ZAR  HN ES        9 3 24.66                             120    0.63 8  206 293 
 ZAR  HZ I         9 3 29.88         7.9 0.28            121            206 293 
 SML  HZ EP        9 3  2.32                             116   -0.88 8  246 335 
 SML  HN ES        9 3 31.01                             116   -0.66 8  246 335 
 SML  HZ I         9 3 33.35         9.3 0.10            117            246 335 
 CHI  HZ EP        9 3  3.59                             116   -0.22 8  247 196 
 CHI  HN ES        9 3 31.66                             116   -1.10 8  247 196 
 CHI  HZ I         9 3 42.46         1.8 0.62            117            247 196 
 HEL  HZ EP        9 3  7.64                             113    0.99 8  273 256 
 HEL  HN ES        9 3 38.24                             113    0.42 8  273 256 
 HEL  HZ I         9 3 43.97         2.5 0.30            114            273 256 
                                                                                
