 2016  6 7 0746 32.4 L   6.026 -73.691111.1  RSN  7 0.3 1.3LRSN                1
 GAP=123        0.78       4.0     2.7  5.8 -0.2598E+01  0.6281E+01 -0.4332E+01E
 Epicentro: VELEZ - SANTANDER                                                  3
 ACTION:UPD 16-07-21 22:16 OP:rebc STATUS:               ID:20160607074632 L   I
 OLDACT:UP  16-06-07 17:46 OP:dani STATUS:               ID:20160607073744     3
 OLDACT:REG 16-06-07 13:33 OP:dani STATUS:               ID:20160607073744     3
 2016-06-07-0737-44M.COL___319                                                 6
 STAT SP IPHASW D HRMM SECON CODA AMPLIT PERI AZIMU VELO AIN AR TRES W  DIS CAZ7
 SPBC HZ EP        746 49.18                             150   -0.0510 59.1 226 
 SPBC HN ES        747  2.23                             150   -0.1510 59.1 226 
 SPBC HZ I         747  4.66        11.1 0.10                          59.1 226 
 RUS  HZ EP        746 50.34                             146   -0.1010 68.9 102 
 RUS  HN ES        747  4.61                             146    0.0710 68.9 102 
 RUS  HZ I         747  6.02         2.3 0.28                          68.9 102 
 BAR2 EZ ES        747  5.96                             140    0.0710 84.2  42 
 BAR2 EZ I         747  8.04         5.1 0.16                          84.2  42 
 PTB  HZ EP        746 51.69                             134   -0.6710  102 304 
 PTB  HE ES        747  7.91                             134   -0.0510  102 304 
 PTB  HZ I         747  9.81         3.2 0.20                           102 304 
 BRR  HZ EP        746 54.40                             129    0.4510  120 359 
 BRR  HN ES   4    747 12.64                             129    1.85 0  120 359 
 BRR  HZ I         747 13.26         3.7 0.44                           120 359 
 NOR  HZ EP        746 55.89                             124   -0.14 9  140 249 
 NOR  HE ES        747 15.00                             124    0.51 9  140 249 
 NOR  HZ I         747 16.38         5.3 0.42                           140 249 
 HEL  HZ EP        747  3.51                             114    0.22 9  204 275 
 HEL  HN ES        747 27.39                             114   -0.03 9  204 275 
 HEL  HZ I         747 30.78         1.3 0.40                           204 275 
                                                                                
