 2013  7 7 0639 10.8 L   6.046 -73.714117.4  RSN  5 0.3 1.1LRSN                1
 GAP=200        0.74       9.8     5.1  9.1  0.3401E+02 -0.1658E+02 -0.5033E+02E
 Epicentro: BOLIVAR - SANTANDER                                                3
 ACTION:UPD 13-08-12 10:36 OP:ep   STATUS:               ID:20130707063910 L   I
 OLDACT:REG 13-07-07 07:51 OP:stll STATUS:               ID:20130707063850     3
 2013-07-07-0638-50M.COL___224                                                 6
 STAT SP IPHASW D HRMM SECON CODA AMPLIT PERI AZIMU VELO AIN AR TRES W  DIS CAZ7
 RUS  HZ EP        639 29.70                             147   -0.0210 71.9 104 
 RUS  HN ES        639 44.48                             147    0.0110 71.9 104 
 BAR2 SZ EP        639 30.42                             142    0.1810 84.3  44 
 BAR2 SZ I         639 30.76         4.1 0.38            142           84.3  44 
 PTB  HZ EP        639 31.01                             137   -0.0510 98.6 304 
 PTB  HZ I         639 32.32         1.8 0.62            136           98.6 304 
 PTB  HN ES        639 46.80                             137   -0.0710 98.6 304 
 BRR  HZ EP        639 33.15                             132    0.4710  117   0 
 GIR2 SZ EP        639 33.31                             129   -0.5410  128  27 
                                                                                
