 2016  4 7 0334 44.2 L   6.816 -73.168148.5  RSN  9 0.4 1.6LRSN                1
 GAP=133        0.77       3.0     3.4  6.0 -0.2921E+01  0.6950E+01 -0.8446E+00E
 Epicentro: LOS SANTOS - SANTANDER                                             3
 ACTION:UPD 16-05-05 14:19 OP:rebc STATUS:               ID:20160407033444 L   I
 OLDACT:REG 16-04-07 12:42 OP:dnl  STATUS:               ID:20160407032747     3
 2016-04-07-0327-47M.COL___314                                                 6
 STAT SP IPHASW D HRMM SECON CODA AMPLIT PERI AZIMU VELO AIN AR TRES W  DIS CAZ7
 BAR2 EZ EP        335  3.96                             170   -0.1810 24.8 184 
 BAR2 EZ ES   2    335 19.27                             170   -0.46 5 24.8 184 
 BAR2 EZ I         335 22.04         4.8 0.12            170           24.8 184 
 PAM  EZ EP        335  6.76                             151    0.0910 77.6  42 
 PAM  EE ES        335 24.23                             151   -0.0110 77.6  42 
 PAM  EZ I         335 25.98         7.8 0.38            156           77.6  42 
 RUS  HZ EP   2    335  7.92                             144   -0.39 5  103 175 
 RUS  HN ES        335 27.49                             144    0.3310  103 175 
 RUS  HZ I         335 28.45         2.2 0.20            147            103 175 
 PTB  HZ EP        335 10.73                             133   -0.43 9  146 258 
 PTB  HN ES        335 31.79                             133   -0.44 9  146 258 
 PTB  HZ I         335 38.00         7.6 0.27            134            146 258 
 OCA  HZ EP   1    335 13.12                             131    0.63 7  158 354 
 OCA  HN ES   2    335 34.16                             131   -0.43 5  158 354 
 OCA  HZ I         335 38.97         9.5 0.22            133            158 354 
 SPBC HZ EP        335 12.92                             130    0.07 9  163 218 
 SPBC HE ES        335 35.42                             130    0.18 9  163 218 
 SPBC HZ I         335 42.11        10.9 0.38            132            163 218 
 ZAR  HZ EP   2    335 15.67                             123   -0.81 4  201 292 
 ZAR  HN ES        335 42.11                             123    0.41 9  201 292 
 ZAR  HZ I         335 48.75         8.3 0.58            125            201 292 
 NOR  HZ EP        335 20.19                             119    0.25 8  234 234 
 NOR  HE ES        335 48.22                             119    0.36 8  234 234 
 NOR  HZ I         335 51.71         4.6 0.16            121            234 234 
 CHI  HZ EP   2    335 21.71                             118   -0.41 4  250 195 
 CHI  HN ES   2    335 50.72                             118   -1.02 4  250 195 
 CHI  HZ I         335 57.16         1.0 0.09            121            250 195 
                                                                                
