 2017 12 7 0212  3.5 L   6.813 -73.136139.2  RSN  7 0.4 1.7LRSN                1
 GAP=112        1.01       4.3     4.7  8.2 -0.6974E+00  0.1328E+01 -0.2440E+01E
 Epicentro: LOS SANTOS - SANTANDER                                             3
 ACTION:UPD 18-01-04 13:17 OP:rebc STATUS:               ID:20171207021203 L   I
 OLDACT:UP  17-12-07 16:35 OP:leo  STATUS:               ID:20171207020739     3
 OLDACT:REG 17-12-07 12:43 OP:leo  STATUS:               ID:20171207020739     3
 2017-12-07-0208-00M.COL___482                                                 6
 STAT SP IPHASW D HRMM SECON CODA AMPLIT PERI AZIMU VELO AIN AR TRES W  DIS CAZ7
 BAR2 EZ EP        212 22.18                             169   -0.1610 24.9 192 
 BAR2 EZ ES        212 36.82                             169   -0.2410 24.9 192 
 BAR2 EZ I         212 38.59        11.8 0.54            169           24.9 192 
 PAM  EZ EP        212 25.20                             150    0.3310 75.6  40 
 PTB  HZ EP        212 29.61                             130   -0.42 9  149 258 
 PTB  HN ES        212 50.19                             130   -0.56 9  149 258 
 PTB  HZ I         212 54.37         3.9 0.10            130            149 258 
 OCA  HN ES        212 52.92                             128    0.18 9  159 353 
 SPBC HN ES        212 54.52                             127    0.90 9  165 219 
 YPLC HZ EP        212 32.70                             125   -0.16 9  178 152 
 YPLC HE ES   4    212 54.58                             125   -1.22 0  178 152 
 ZAR  HZ EP        212 35.42                             121   -0.12 9  205 292 
 ZAR  HN ES        213  0.88                             121    0.33 9  205 292 
 ZAR  HZ I         213  5.97         5.4 0.56            121            205 292 
                                                                                
