 2011  3 7 0043 31.2 L   6.811 -73.295141.8  RSN  5 0.2 1.7LRSN                1
 GAP=168        0.57       3.5    17.2  9.2 -0.2422E+02  0.5865E+02 -0.1393E+02E
 Epicentro: ZAPATOCA - SANTANDER                                               3
 ACTION:UP  11-06-16 14:32 OP:jfem STATUS:               ID:20110307004331 L   I
 2011-03-07-0041-31S.COL___135                                                 6
 STAT SP IPHASW D HRMM SECON CODA AMPLIT PERI AZIMU VELO SNR AR TRES W  DIS CAZ7
 BAR2 SZ EP        043 50.79                             169     0.310   27 153 
 BAR2 SZ ES   2    044  5.52                             169     0.0 5   27 153 
 BAR2 SZ I         044  7.22        18.3 0.22                            27 153 
 RUS  HZ EP   2    043 54.40                             142    -0.5 5  104 167 
 RUS  HN ES        044 13.19                             142    -0.110  104 167 
 RUS  HZ I         044 14.39         7.5 0.18                           104 167 
 GRA  SZ EP   1    043 56.60                             135     0.1 7  130  25 
 GRA  SZ ES   2    044 16.19                             135    -0.1 5  130  25 
 GRA  SZ I         044 20.15         4.2 0.34                           130  25 
 OCA  SZ ES   2    044 20.29                             129    -0.4 5  158 359 
 OCA  SZ I         044 24.20         5.7 0.24                           158 359 
 CHI  HN ES   2    044 37.37                             116    -0.1 4  246 191 
                                                                                
