 2017  2 7 0634  6.6 L   6.677 -73.218138.5  RSN  5 0.4 1.3LRSN                1
 GAP=206        0.90       6.5     6.1  6.6  0.2386E+02  0.8597E+01 -0.9992E+00E
 Epicentro: BARICHARA - SANTANDER                                              3
 ACTION:UPD 17-05-24 15:33 OP:jn   STATUS:               ID:20170207063406 L   I
 OLDACT:UP  17-02-07 17:29 OP:edw  STATUS:               ID:20170207062741d    3
 OLDACT:DUP 17-02-07 17:23 OP:edw  STATUS:               ID:20170207062741d    3
 2017-02-07-0628-00M.COL___325                                                 6
 STAT SP IPHASW D HRMM SECON CODA AMPLIT PERI AZIMU VELO AIN AR TRES W  DIS CAZ7
 BAR2 EZ IP     C  634 24.60                             176   -0.5710 10.1 157 
 BAR2 EZ ES        634 39.82                             176    0.1810 10.1 157 
 BAR2 EZ I         634 40.59         4.5 0.18            175           10.1 157 
 BRR  HZ EP        634 26.71                             151   -0.3410 72.4 311 
 BRR  HN ES        634 43.04                             151    0.0410 72.4 311 
 BRR  HZ I         634 47.71         3.9 0.12            150           72.4 311 
 RUS  HZ EP        634 28.99                             146    0.2410 88.0 170 
 RUS  HN ES        634 46.26                             146    0.2310 88.0 170 
 RUS  HZ I         634 47.81         4.2 0.52            149           88.0 170 
 PTB  HZ EP        634 31.99                             132   -0.09 9  138 264 
 PTB  HN ES        634 51.50                             132   -0.45 9  138 264 
 PTB  HZ I         634 55.57         2.1 0.16            133            138 264 
 ZAR  HZ EP        634 38.92                             121    0.50 9  202 297 
 ZAR  HN ES        635  3.69                             121    0.46 9  202 297 
 ZAR  HZ I         635  8.68         2.4 0.22            122            202 297 
 CHI  HZ EP   4    634 40.17                             117   -2.08 0  233 194 
 CHI  HN ES   4    635 13.61                             117    3.56 0  233 194 
 URE  HN ES   4    635 16.66                             112   -2.06 0  282 295 
                                                                                
