 2014  7 7 0032 51.9 L   6.811 -73.149140.8  RSN 13 0.5 2.0LRSN                1
 GAP=112        1.21       3.1     3.7  6.1  0.2031E+00  0.4702E+01  0.4119E+00E
 Epicentro: LOS SANTOS - SANTANDER                                             3
 ACTION:UPD 15-03-16 20:41 OP:nd   STATUS:               ID:20140707003251 L   I
 OLDACT:REG 14-07-07 13:37 OP:stll STATUS:               ID:20140707002817     3
 2014-07-07-0028-17M.COL___262                                                 6
 STAT SP IPHASW D HRMM SECON CODA AMPLIT PERI AZIMU VELO AIN AR TRES W  DIS CAZ7
 BAR2 SZ IP     D  033 11.11                             170    0.1110 24.5 189 
 BAR2 SZ ES        033 26.17                             170    0.3110 24.5 189 
 BAR2 SZ I         033 27.59        19.1 0.24            171           24.5 189 
 BRR  HZ IP     C  033 12.82                             152    0.3210 70.3 298 
 BRR  HE ES        033 29.27                             152    0.7410 70.3 298 
 BRR  HZ I         033 34.04        16.7 0.12            150           70.3 298 
 RUS  HZ EP        033 15.19                             142   -0.1110  102 176 
 RUS  HZ I         033 16.04         8.4 0.48            146            102 176 
 RUS  HN ES        033 33.04                             142   -0.4710  102 176 
 PTB  HZ EP        033 17.70                             131   -0.79 9  148 258 
 PTB  HN ES        033 38.32                             131   -0.88 9  148 258 
 PTB  HZ I         033 41.50        17.4 0.14            131            148 258 
 TAM  HZ EP   1    033 19.37                             129    0.07 7  156 105 
 TAM  HE ES        033 40.81                             129    0.18 9  156 105 
 OCA  HZ EP        033 19.70                             129   -0.05 9  159 353 
 OCA  HE ES        033 41.32                             129   -0.11 9  159 353 
 OCA  HZ I         033 45.48        12.3 0.54            129            159 353 
 SPBC HZ IP     C  033 20.16                             128    0.03 9  164 219 
 SPBC HE ES        033 42.39                             128    0.27 9  164 219 
 ZAR  HZ EP        033 23.73                             121   -0.25 9  203 292 
 ZAR  HE ES        033 48.82                             121   -0.15 9  203 292 
 ZAR  HZ I         033 55.44        19.6 0.30            122            203 292 
 SML  HZ EP        033 27.20                             117   -0.95 8  242 335 
 SML  HE ES        033 56.54                             117    0.15 8  242 335 
 SML  HZ I         034  5.69        13.7 0.10            117            242 335 
 CHI  HZ EP        033 29.07                             116   -0.42 8  250 195 
 CHI  HE ES        033 58.19                             116   -0.58 8  250 195 
 CHI  HZ I         034  4.75         4.8 0.38            118            250 195 
 HEL  HZ EP        033 32.68                             114    0.78 8  272 256 
 HEL  HE ES        034  2.99                             114   -0.07 8  272 256 
 HEL  HZ I         034 10.72         7.8 0.44            115            272 256 
 GUY2CHZ EP        033 36.26                             111    0.89 7  302 235 
 GUY2CHN ES        034  9.98                             111    0.74 7  302 235 
 GUY2CHZ I         034 19.52         6.5 0.50                           302 235 
 TOL  SZ EP        033 41.34                             108    1.27 7  344 224 
 TOL  SN ES        034 17.33                             108   -0.28 7  344 224 
                                                                                
