 2017  4 7 0036  3.1 L   6.784 -73.124139.4  RSN 19 0.6 2.2LRSN                1
 GAP=114        0.98       3.2     3.1  4.5  0.1252E+01  0.3819E+01  0.3550E+01E
 Epicentro: LOS SANTOS - SANTANDER                                             3
 ACTION:UPD 17-05-30 21:09 OP:jn   STATUS:               ID:20170407003603 L   I
 OLDACT:UP  17-04-07 13:08 OP:and  STATUS:               ID:20170407002619     3
 OLDACT:UP  17-04-07 13:04 OP:and  STATUS:               ID:20170407002619     3
 OLDACT:UP  17-04-07 13:03 OP:and  STATUS:               ID:20170407002619     3
 OLDACT:UP  17-04-07 13:01 OP:and  STATUS:               ID:20170407002619     3
 OLDACT:UP  17-04-07 13:01 OP:and  STATUS:               ID:20170407002619     3
 OLDACT:UP  17-04-07 13:00 OP:and  STATUS:               ID:20170407002619     3
 OLDACT:UP  17-04-07 13:00 OP:and  STATUS:               ID:20170407002619     3
 OLDACT:UP  17-04-07 12:58 OP:and  STATUS:               ID:20170407002619     3
 OLDACT:REG 17-04-07 12:15 OP:and  STATUS:               ID:20170407002619     3
 2017-04-07-0028-00M.COL___368                                                 6
 STAT SP IPHASW D HRMM SECON CODA AMPLIT PERI AZIMU VELO AIN AR TRES W  DIS CAZ7
 BAR2 EZ IP     C  036 21.70                             171   -0.2710 22.2 197 
 BAR2 EZ ES        036 36.32                             171   -0.3510 22.2 197 
 BAR2 EZ I         036 38.96        52.5 0.28            166           22.2 197 
 BRR  HZ IP     C  036 23.58                             150   -0.1910 74.1 299 
 BRR  HN ES        036 40.42                             150    0.5510 74.1 299 
 BRR  HZ I         036 45.15        29.5 0.16            150           74.1 299 
 PAM  EZ EP        036 24.60                             149   -0.0610 77.2  37 
 PAM  EN ES        036 41.42                             149   -0.0410 77.2  37 
 PAM  EZ I         036 43.96        39.7 0.56            157           77.2  37 
 RUS  HZ EP        036 25.79                             143   -0.3310 98.7 177 
 RUS  HN ES        036 44.10                             143    0.0510 98.7 177 
 RUS  HZ I         036 47.72        12.6 0.32            143           98.7 177 
 PTB  HZ EP   9    036 28.62                             130   -1.15 0  150 260 
 PTB  HN ES        036 49.32                             130   -0.08 9  150 260 
 PTB  HZ I         036 51.59        15.7 0.15            130            150 260 
 SPBC HZ EP        036 30.82                             127   -0.34 9  163 220 
 SPBC HN ES        036 52.57                             127   -0.46 9  163 220 
 SPBC HZ I         036 58.63        22.6 0.13            127            163 220 
 YPLC HZ EP        036 32.37                             125    0.17 9  174 152 
 YPLC HN ES        036 55.90                             125    1.02 9  174 152 
 YPLC HZ I         036 59.01        17.6 0.24            128            174 152 
 ZAR  HZ EP        036 36.13                             120    0.66 8  207 292 
 ZAR  HN ES        037  0.31                             120   -0.39 8  207 292 
 ZAR  HZ I         037  6.56        30.9 0.28            122            207 292 
 NOR  HZ EP        036 38.19                             117   -0.41 8  236 235 
 NOR  HN ES        037  5.95                             117   -0.32 8  236 235 
 NOR  HZ I         037  9.88        18.2 0.28            118            236 235 
 CHI  HZ EP        036 40.90                             116    0.53 8  248 196 
 CHI  HN ES   3    037 11.20                             116    1.79 2  248 196 
 CHI  HZ I         037 15.38         4.0 0.32            117            248 196 
 HEL  HZ EP        036 43.66                             113    0.42 8  274 256 
 HEL  HN ES   3    037 15.57                             113    1.04 2  274 256 
 HEL  HZ I         037 20.30        11.7 0.52            114            274 256 
 URE  HZ EP   3    036 43.08                             112   -1.14 2  287 292 
 URE  HN ES   4    037 13.06                             112   -3.22 0  287 292 
 URE  HZ I         037 20.83         9.7 0.18            113            287 292 
 PTGC HZ EP        036 45.50                             110   -0.92 7  306 159 
 PTGC HN ES   3    037 19.01                             110   -1.18 2  306 159 
 ELA  HZ EP   4    036 52.60                             109    2.80 0  330 230 
 ELA  HE ES   4    037 29.90                             109    3.70 0  330 230 
 ELA  HZ I         037 37.87         6.0 0.38            110            330 230 
 CBOC HZ EP        036 50.48                             108    0.49 7  335 253 
 CBOC HN ES        037 27.49                             108    0.95 7  335 253 
 CBOC HZ I         037 37.56         3.2 0.71            110            335 253 
 DBB  EZ EP        036 50.76                             108    0.11 7  342 275 
 DBB  EN ES   3    037 25.99                             108   -1.72 2  342 275 
 DBB  EZ I         037 29.05         5.8 0.31            109            342 275 
 PRA  HZ EP        036 56.33                             105   -0.07 6  392 210 
 PRA  HN ES        037 37.75                             105   -0.20 6  392 210 
 PRA  HZ I         037 44.47         8.9 0.32            107            392 210 
 PAL  HZ EP        036 58.14                             105   -0.08 6  407 239 
 PAL  HN ES   3    037 39.21                             105   -1.99 1  407 239 
 PAL  HZ I         037 45.85         3.5 0.26            106            407 239 
 SJC  HZ EP   4    036 56.58                             104   -2.23 0  412 327 
 SJC  HN ES   4    037 37.48                             104   -4.77 0  412 327 
 SJC  HZ I         037 41.88         3.5 0.35            106            412 327 
                                                                                
