 2012  6 7 0626 31.2 L   6.650 -73.514 29.3  RSN  6 0.4 1.8LRSN                1
 GAP=107        0.81       3.5     2.3  4.4 -0.1131E+01  0.5438E+01 -0.2942E+01E
 Epicentro: EL CARMEN DE CHUCURI - SANTANDER                                   3
 ACTION:UPD 12-08-06 17:47 OP:ep   STATUS:               ID:20120607062631 L   I
 2012-06-07-0620-00M.COL___201                                                 6
 STAT SP IPHASW D HRMM SECON CODA AMPLIT PERI AZIMU VELO AIN AR TRES W  DIS CAZ7
 BAR2 SZ EP   1    626 39.30                             124    0.35 8 37.2 100 
 BAR2 SZ ES   1    626 44.56                             124   -0.43 8 37.2 100 
 BAR2 SZ I         626 46.18        89.3 0.14            126           37.2 100 
 RUS  HZ EP   1    626 47.45                              61    0.45 8 96.3 150 
 RUS  HN ES   1    626 59.31                              61   -0.01 8 96.3 150 
 RUS  HZ I         627  0.09        18.9 0.15             61           96.3 150 
 PTB  HZ EP   1    626 47.79                              61    0.28 7  105 263 
 PTB  HN ES        627  0.32                              61    0.1010  105 263 
 PTB  HZ I         627  2.06        23.2 0.19             61            105 263 
 PAM  SN ES        627  3.97                              61   -0.1410  118  50 
 ZAR  HE ES   1    627 16.24                              61    0.39 7  175 302 
 HEL  HN ES        627 27.74                              61   -0.75 8  229 257 
                                                                                
