 2011  6 7 0533 24.1 L   6.749 -73.100147.4  RSN  8 0.3 1.5LRSN                1
 GAP=145        0.55       3.2     6.0  5.3 -0.7211E+01  0.3021E+01  0.6044E+00E
 Epicentro: LOS SANTOS - SANTANDER                                             3
 ACTION:UP  11-07-14 19:03 OP:ep   STATUS:               ID:20110607053324 L   I
 2011-06-07-0532-15S.COL___132                                                 6
 STAT SP IPHASW D HRMM SECON CODA AMPLIT PERI AZIMU VELO SNR AR TRES W  DIS CAZ7
 BAR2 SZ EP   1    533 43.89                             172     0.1 7   20 208 
 BAR2 SZ ES   1    533 59.25                             172     0.0 7   20 208 
 BAR2 SZ I         534  0.76        17.7 0.20                            20 208 
 BRR  HZ EP   2    533 45.33                             150    -0.5 5   78 300 
 BRR  HN ES   2    534  2.81                             150     0.0 5   78 300 
 BRR  HZ I         534  4.98         5.9 0.15                            78 300 
 PAM  SZ EP   2    533 46.92                             151     0.4 5   79  34 
 PAM  SN ES   2    534  3.76                             151    -0.3 5   79  34 
 RUS  HZ EP   1    533 47.21                             146    -0.4 7   95 179 
 RUS  HN ES   2    534  6.23                             146     0.3 5   95 179 
 RUS  HZ I         534  8.26         3.3 0.14                            95 179 
 GRA  SZ EP   1    533 49.75                             136     0.0 7  130  15 
 GRA  SZ ES   2    534  9.70                             136    -0.2 5  130  15 
 GRA  SZ I         534 10.60         3.1 0.41                           130  15 
 OCA  SZ EP   2    533 53.32                             129     0.2 5  167 352 
 OCA  SZ ES   2    534 16.36                             129     0.6 5  167 352 
 OCA  SZ I         534 18.82         3.2 0.32                           167 352 
 NOR  SZ EP   2    533 59.56                             119    -0.4 4  236 236 
 NOR  SN ES   2    534 27.91                             119    -0.1 4  236 236 
 CHI  HZ EP   2    534  1.96                             118     0.5 4  245 197 
 CHI  HE ES   2    534 31.00                             118     0.5 4  245 197 
 CHI  HZ I         534 37.38         1.9 0.65                           245 197 
                                                                                
