 2014 12 7 0701 14.4 L   6.786 -73.140145.8  RSN  9 0.3 1.4LRSN                1
 GAP=138        0.82       3.7     3.5  5.6 -0.1866E+01  0.4261E+01  0.3997E+01E
 Epicentro: LOS SANTOS - SANTANDER                                             3
 ACTION:UPD 15-02-10 17:01 OP:nd   STATUS:               ID:20141207070114 L   I
 OLDACT:REG 14-12-07 13:14 OP:spq  STATUS:               ID:20141207065741     3
 2014-12-07-0657-41M.COL___312                                                 6
 STAT SP IPHASW D HRMM SECON CODA AMPLIT PERI AZIMU VELO AIN AR TRES W  DIS CAZ7
 BAR2 SZ EP   1    7 1 33.99                             171    0.02 7 21.9 192 
 BAR2 SZ ES   1    7 1 49.29                             171    0.03 7 21.9 192 
 BAR2 SZ I         7 1 50.30         6.3 0.20            171           21.9 192 
 BRR  HZ EP        7 1 35.74                             152    0.1510 72.5 299 
 BRR  HN ES        7 1 52.60                             152    0.4510 72.5 299 
 BRR  HZ I         7 1 56.69         2.2 0.16            150           72.5 299 
 PAM  SZ EP        7 1 36.75                             151    0.1210 78.2  38 
 PAM  SN ES        7 1 53.62                             151   -0.3810 78.2  38 
 PAM  SZ I         7 1 56.48         2.6 0.46            154           78.2  38 
 RUS  HZ EP        7 1 37.95                             144   -0.0510 99.0 176 
 RUS  HE ES   1    7 1 56.83                             144    0.39 7 99.0 176 
 RUS  HZ I         7 1 58.41         1.9 0.26            148           99.0 176 
 PTB  HZ EP        7 1 40.76                             132   -0.60 9  148 259 
 PTB  HN ES        7 2  1.72                             132   -0.71 9  148 259 
 PTB  HZ I         7 2  5.04         2.7 0.40            132            148 259 
 SPBC HZ EP        7 1 42.91                             129    0.12 9  162 220 
 SPBC HN ES   1    7 2  4.80                             129   -0.16 7  162 220 
 SPBC HZ I         7 2  7.62         5.1 0.22            131            162 220 
 ZAR  HZ EP   1    7 1 47.30                             122    0.37 6  205 292 
 ZAR  HE ES        7 2 12.60                             122    0.26 8  205 292 
 ZAR  HZ I         7 2 21.60         2.3 0.32            123            205 292 
 NOR  HN ES        7 2 18.16                             119    0.27 8  234 235 
 NOR  HZ I         7 2 23.27         2.9 0.16            120            234 235 
 GUY2CHZ EP   1    7 1 58.14                             112    0.21 5  301 235 
 GUY2CHN ES   4    7 2 34.08                             112    2.17 0  301 235 
 GUY2CHZ I         7 2 40.59         1.4 0.30                           301 235 
                                                                                
