 2013  2 7 0421 41.1 L   6.901 -73.206150.4  RSN  5 0.4 1.6LRSN                1
 GAP=205        0.87      10.7     5.8  9.9 -0.2894E+02  0.6382E+01  0.1991E+02E
 Epicentro: BETULIA - SANTANDER                                                3
 ACTION:UPD 13-03-12 09:31 OP:ep   STATUS:               ID:20130207042141 L   I
 2013-02-07-0420-00M.COL___240                                                 6
 STAT SP IPHASW D HRMM SECON CODA AMPLIT PERI AZIMU VELO AIN AR TRES W  DIS CAZ7
 BRR  HZ IP     C  422  2.73                             157    0.5410 60.4 292 
 BRR  HN ES   1    422 19.05                             157    0.40 7 60.4 292 
 BRR  HN I         422 20.59         6.9 0.24            146           60.4 292 
 PAM  SZ EP        422  3.70                             153    0.0910 74.0  49 
 PAM  SN ES        422 20.82                             153   -0.3610 74.0  49 
 PAM  SN I         422 22.47         5.5 0.60            147           74.0  49 
 PTB  HZ EP   1    422  7.63                             133   -0.47 7  144 254 
 PTB  HN ES   1    422 28.74                             133   -0.43 7  144 254 
 PTB  HN I         422 31.96         4.2 0.18            131            144 254 
 ZAR  HN ES   2    422 37.93                             125    0.37 4  194 290 
 ZAR  HN I         422 41.75         4.6 0.34            120            194 290 
 SML  HE ES   2    422 43.62                             120   -0.69 4  231 336 
 SML  HE I         422 52.77         4.6 0.10            115            231 336 
                                                                                
