 2016  7 7 0218 26.7 L   6.749 -73.360118.7  RSN  6 0.4 1.4LRSN                1
 GAP=176        1.11       5.4     5.5  9.0  0.1217E+02  0.1457E+02  0.6581E+01E
 Epicentro: ZAPATOCA - SANTANDER                                               3
 ACTION:UPD 17-03-29 16:47 OP:lp   STATUS:               ID:20160707021826 L   I
 OLDACT:UP  16-07-07 14:48 OP:dani STATUS:               ID:20160707020748     3
 OLDACT:REG 16-07-07 13:02 OP:dani STATUS:               ID:20160707020748     3
 2016-07-07-0207-48M.COL___328                                                 6
 STAT SP IPHASW D HRMM SECON CODA AMPLIT PERI AZIMU VELO AIN AR TRES W  DIS CAZ7
 BAR2 EZ EP        218 43.28                             167    0.1710 26.2 131 
 BAR2 EZ ES        218 56.06                             167    0.1110 26.2 131 
 BAR2 EZ I         218 57.67        20.1 0.32            166           26.2 131 
 BRR  HZ EP        218 43.64                             153   -0.3510 55.5 316 
 BRR  HE ES        218 57.68                             153    0.1710 55.5 316 
 BRR  HZ I         218 59.82         7.2 0.12            155           55.5 316 
 RUS  HZ EP        218 48.34                             138    0.5810 99.5 162 
 RUS  HE ES        219  3.63                             138   -0.5910 99.5 162 
 RUS  HZ I         219  7.08         2.0 0.22            138           99.5 162 
 PTB  HZ EP        218 48.61                             130   -0.6010  123 259 
 PTB  HN ES        219  6.47                             130   -0.3410  123 259 
 PTB  HZ I         219 11.09         3.8 0.34            131            123 259 
 SPBC HZ EP   4    218 52.90                             126    1.55 0  145 213 
 SPBC HE ES        219 11.17                             126    0.56 9  145 213 
 SPBC HZ I         219 17.24         5.5 0.36            126            145 213 
 ZAR  HN ES        219 18.21                             118    0.39 9  185 297 
                                                                                
