 2015 10 7 0753 22.3 L   6.797 -73.125143.0  RSN 17 0.4 2.1LRSN                1
 GAP= 72        0.97       2.5     2.9  5.0 -0.7953E+00  0.3932E+01  0.1739E+01E
 Epicentro: LOS SANTOS - SANTANDER                                             3
 ACTION:UPD 15-12-22 20:37 OP:cam  STATUS:               ID:20151007075322 L   I
 OLDACT:REG 15-10-07 13:16 OP:spq  STATUS:               ID:20151007074748     3
 2015-10-07-0747-48M.COL___346                                                 6
 STAT SP IPHASW D HRMM SECON CODA AMPLIT PERI AZIMU VELO AIN AR TRES W  DIS CAZ7
 BAR2 EZ EP     D  753 41.48                             170   -0.1310 23.5 196 
 BAR2 EZ ES   1    753 56.25                             170   -0.41 7 23.5 196 
 BAR2 EZ I         753 57.33        22.1 0.44            169           23.5 196 
 BRR  HN ES        754  0.16                             151    0.5110 73.4 298 
 BRR  HZ I         754  4.36        28.5 0.14            150           73.4 298 
 PAM  EZ EP        753 44.50                             151    0.3510 76.2  38 
 PAM  EN ES        754  1.44                             151    0.2410 76.2  38 
 PAM  EZ I         754  3.46        23.9 0.48            153           76.2  38 
 RUS  HZ EP        753 45.51                             143   -0.2410  100 177 
 RUS  HN ES        754  3.83                             143   -0.2110  100 177 
 RUS  HZ I         754  4.65        16.5 0.24            144            100 177 
 TAM  HZ EP     D  753 49.91                             130    0.36 9  153 105 
 TAM  HN ES        754 11.27                             130    0.48 9  153 105 
 TAM  HZ I         754 11.81         6.6 0.44            133            153 105 
 OCA  HZ EP     C  753 49.89                             129   -0.57 9  161 352 
 OCA  HE ES        754 11.67                             129   -0.76 9  161 352 
 OCA  HZ I         754 16.48        35.3 0.42            130            161 352 
 SPBC HZ EP        753 50.33                             128   -0.38 9  164 220 
 SPBC HE ES        754 12.83                             128   -0.03 9  164 220 
 SPBC HZ I         754 13.41        18.8 0.30            129            164 220 
 ZAR  HN ES        754 20.43                             121    0.27 8  206 292 
 ZAR  HZ I         754 25.32        19.9 0.36            122            206 292 
 NOR  HZ EP        753 57.93                             118   -0.13 8  236 235 
 NOR  HN ES        754 25.61                             118   -0.33 8  236 235 
 NOR  HZ I         754 32.85         8.8 0.20            118            236 235 
 SML  HZ EP        753 58.33                             117   -0.59 8  245 335 
 SML  HN ES   1    754 27.79                             117    0.31 6  245 335 
 SML  HZ I         754 28.97        17.2 0.10            118            245 335 
 CHI  HZ EP        753 59.76                             116   -0.12 8  249 196 
 CHI  HN ES        754 28.54                             116   -0.65 8  249 196 
 CHI  HZ I         754 33.05         4.8 0.28            117            249 196 
 HEL  HZ EP        754  3.51                             114    0.89 8  274 256 
 HEL  HE ES        754 34.24                             114    0.18 8  274 256 
 HEL  HZ I         754 40.83         6.2 0.68            115            274 256 
 GUY2CHZ EP   1    754  6.61                             112    0.63 5  303 235 
 GUY2CHE ES   1    754 40.82                             112    0.78 5  303 235 
 GUY2CHZ I         754 49.05         4.1 0.52                           303 235 
 PTGC HZ EP   4    754  4.77                             111   -1.13 0  308 159 
 PTGC HN ES   4 D  754 37.84                             111   -2.07 0  308 159 
 PTGC HZ I         754 44.06         6.2 0.22            112            308 159 
 CBOC HZ EP        754  9.64                             109    0.29 7  336 252 
 CBOC HN ES   4    754 44.71                             109   -1.33 0  336 252 
 CBOC HZ I         754 49.20         1.7 0.38            110            336 252 
 DBB  SZ ES   4    754 46.00                             109   -1.10 0  342 274 
 ORTC HZ EP        754 16.27                             106    0.01 6  397 216 
 ORTC HE ES        754 58.77                             106    0.43 6  397 216 
 ORTC HZ I         755  4.39         4.2 0.36            107            397 216 
 SJC  HZ EP   4    754 15.99                             105   -1.97 0  411 327 
 SJC  HN ES   4    754 59.66                             105   -1.71 0  411 327 
 SJC  HZ I         755  0.21         1.7 0.42            106            411 327 
                                                                                
