 2011  7 7 0628 25.3 L   6.739 -73.120139.9  RSN  8 0.4 1.8LRSN                1
 GAP=185        0.68       3.9     4.7  5.5 -0.3489E+01  0.8336E+01  0.7208E+00E
 Epicentro: JORDAN - SANTANDER                                                 3
 ACTION:UPD 12-07-25 13:58 OP:epov STATUS:               ID:20110707062825 L   I
 2011-07-07-0626-51S.COL___138                                                 6
 STAT SP IPHASW D HRMM SECON CODA AMPLIT PERI AZIMU VELO AIN AR TRES W  DIS CAZ7
 BAR2 SZ EP   1    628 44.20                             173    0.10 9 17.6 203 
 BAR2 SZ ES   1    628 59.01                             173    0.23 9 17.6 203 
 BAR2 SZ I         629  0.39        15.9 0.26                          17.6 203 
 GIR2 SZ EP   1    628 44.40                             164   -0.08 9 38.4 348 
 BRR  HZ EP   1    628 46.23                             149    0.08 9 77.0 302 
 BRR  HZ I         628 49.91         8.7 0.13                          77.0 302 
 BRR  HE ES   1    629  2.72                             149    0.29 9 77.0 302 
 RUS  HZ EP   1    628 48.08                             145    0.12 9 93.7 177 
 RUS  HZ I         628 49.20         4.1 0.11                          93.7 177 
 RUS  HN ES   1    629  5.28                             145   -0.37 9 93.7 177 
 OCA  SZ EP   1    628 53.30                             127   -0.52 8  167 352 
 NOR  SZ EP   1    629  0.83                             117    0.32 7  233 236 
 NOR  SN ES        629 27.69                             117   -0.3010  233 236 
 HEL  HZ EP   1    629  6.17                             113    0.84 7  273 257 
 HEL  HN ES   1    629 35.97                             113   -0.60 7  273 257 
 HEL  HZ I         629 43.37         3.4 0.46                           273 257 
 PRA  HZ EP   1    629 17.74                             106   -0.34 5  388 210 
 PRA  HN ES   1    629 59.81                             106    0.54 5  388 210 
 PRA  HZ I         630  7.44         5.9 0.29                           388 210 
                                                                                
