 2015  4 7 0814 57.5 L   6.787 -73.136150.9  RSN  4 0.3 1.2LRSN                1
 GAP=254        0.83       6.2     6.6  6.8 -0.5523E+01  0.3139E+01  0.8137E+01E
 Epicentro: LOS SANTOS - SANTANDER                                             3
 ACTION:UPD 15-06-03 16:53 OP:cam  STATUS:               ID:20150407081457 L   I
 OLDACT:DUP 15-04-07 22:10 OP:carl STATUS:               ID:20150407080741d    3
 2015-04-07-0807-40M.COL___264                                                 6
 STAT SP IPHASW D HRMM SECON CODA AMPLIT PERI AZIMU VELO AIN AR TRES W  DIS CAZ7
 BAR2 EZ EP        815 17.46                             171   -0.2810 22.1 194 
 BAR2 EZ ES        815 33.32                             171   -0.1910 22.1 194 
 BAR2 EZ I         815 34.35         3.8 0.30            165           22.1 194 
 BRR  HZ EP        815 19.60                             153    0.2910 72.9 299 
 BRR  HN ES        815 36.66                             153    0.3510 72.9 299 
 BRR  HZ I         815 39.95         2.4 0.42            150           72.9 299 
 PTB  HZ EP        815 24.57                             133   -0.41 9  149 259 
 PTB  HN ES        815 46.02                             133   -0.38 9  149 259 
 PTB  HZ I         815 51.50         1.3 0.48            131            149 259 
 SPBC HZ EP        815 26.74                             130    0.37 9  163 220 
 SPBC HN ES        815 49.14                             130    0.26 9  163 220 
 SPBC HZ I         815 55.67         2.5 0.40            129            163 220 
                                                                                
