 2011  2 7 0140 36.5 L   6.804 -73.131140.2  RSN 15 0.4 3.0LRSN                1
 GAP=137        0.80       3.1     5.3  6.6 -0.5451E+01  0.1138E+02  0.2314E+01E
 Epicentro: LOS SANTOS - SANTANDER                                             3
 ACTION:UP  11-03-28 15:06 OP:jfem STATUS:               ID:20110207014036 L   I
 2011-02-07-0137-29S.COL___137                                                 6
 STAT SP IPHASW D HRMM SECON CODA AMPLIT PERI AZIMU VELO SNR AR TRES W  DIS CAZ7
 BAR2 SZ IP        140 55.42                             170     0.010   24 194 
 BAR2 SZ ES   2    141 10.18                             170    -0.1 5   24 194 
 BAR2 SZ I         141 11.86       455.3 0.29                            24 194 
 GIR2 SZ IP        140 55.47                             167     0.010   31 347 
 GIR2 SZ ES   2    141 10.08                             167    -0.2 5   31 347 
 RUS  HZ EP   1    140 59.41                             143    -0.3 7  101 177 
 RUS  HN ES   2    141 17.37                             143    -0.4 5  101 177 
 RUS  HZ I         141 18.80       118.3 0.27                           101 177 
 GUE  SZ EP   1    141  0.77                             138     0.2 7  116  11 
 GRA  SZ IP        141  1.27                             136     0.110  125  17 
 GRA  SZ I         141  2.70       251.7 0.22                           125  17 
 GRA  SZ ES   2    141 20.45                             136     0.1 5  125  17 
 OCA  SZ IP        141  3.93                             128    -0.4 9  160 353 
 OCA  SZ ES   2    141 26.98                             128     0.9 5  160 353 
 OCA  SZ I         141 30.55       184.7 0.29                           160 353 
 YOP  SZ EP   1    141  6.11                             125     0.0 7  179 154 
 YOP  SE ES   2    141 29.98                             125     0.8 4  179 154 
 YOP  SZ I         141 33.23        47.3 0.46                           179 154 
 NOR  SZ EP   1    141 11.81                             117    -0.2 6  236 235 
 NOR  SN ES   2    141 39.83                             117     0.0 4  236 235 
 CHI  HZ EP   1    141 13.57                             116    -0.4 6  249 196 
 CHI  HE ES   2    141 42.85                             116    -0.3 4  249 196 
 CHI  HZ I         141 50.32        48.3 0.51                           249 196 
 ROSC BZ EP   1    141 15.26                             115     0.9 6  254 211 
 ROSC BN ES   2    141 44.58                             115     0.6 4  254 211 
 ROSC BZ I         141 50.32        76.5 0.57                           254 211 
 HEL  HZ EP   1    141 15.68                             113    -0.9 6  274 256 
 HEL  HN ES   2    141 47.88                             113     0.0 4  274 256 
 HEL  HZ I         141 54.49        58.5 0.45                           274 256 
 VIL  SZ EP   1    141 18.94                             111    -0.6 5  302 190 
 VIL  SN ES   2    141 53.13                             111     0.0 4  302 190 
 VIL  SZ I         141 57.55        31.3 0.24                           302 190 
 GUY  SZ EP   1    141 20.82                             111     0.8 5  303 235 
 GUY  SN ES   2    141 54.40                             111     0.4 4  303 235 
 GUY  SZ I         142  2.33        74.7 0.52                           303 235 
 RREF HZ EP   1    141 22.17                             110    -0.4 5  323 230 
 RREF HN ES   2    141 58.75                             110     0.3 3  323 230 
 RREF HZ I         142  7.02        45.7 0.28                           323 230 
 TOL  SZ EP   1    141 25.53                             108     0.9 5  345 225 
 TOL  SZ ES   2    142  2.01                             108    -0.3 3  345 225 
                                                                                
