 2014  3 7 0838 14.7 L   6.817 -73.178141.5  RSN  5 0.4 1.5LRSN                1
 GAP=198        0.92       3.8     6.4  6.8  0.6852E+01  0.7075E+01 -0.4249E+01E
 Epicentro: LOS SANTOS - SANTANDER                                             3
 ACTION:UPD 14-04-09 23:15 OP:nd   STATUS:               ID:20140307083814 L   I
 OLDACT:REG 14-03-07 09:27 OP:nd   STATUS:               ID:20140307083042     3
 2014-03-07-0830-42M.COL___210                                                 6
 STAT SP IPHASW D HRMM SECON CODA AMPLIT PERI AZIMU VELO AIN AR TRES W  DIS CAZ7
 BAR2 SZ EP        838 34.25                             170    0.3910 24.9 181 
 BAR2 SZ ES        838 48.80                             170    0.0110 24.9 181 
 BAR2 SZ I         838 51.53        12.6 0.30            168           24.9 181 
 RUS  HZ EP        838 38.32                             142    0.1110  103 174 
 RUS  HN ES        838 56.34                             142   -0.1910  103 174 
 RUS  HZ I         838 59.21         3.6 0.30            142            103 174 
 PTB  HZ EP        838 41.07                             132    0.02 9  145 258 
 PTB  HN ES        839  1.86                             132    0.27 9  145 258 
 PTB  HZ I         839  4.23         4.5 0.38            131            145 258 
 SML  HZ EP        838 50.36                             117   -0.39 8  240 336 
 SML  HN ES        839 18.57                             117   -0.29 8  240 336 
 SML  HZ I         839 22.20         4.3 0.10            118            240 336 
 CHI  HZ EP        838 52.94                             116    0.66 8  250 194 
 CHI  HN ES        839 20.70                             116   -0.88 8  250 194 
 CHI  HZ I         839 29.61         1.4 0.40            116            250 194 
                                                                                
