 2013  2 7 0900 56.4 L   6.839 -73.154148.9  RSN 11 0.5 2.0LRSN                1
 GAP= 69        1.06       4.4     4.9  7.9  0.1114E+01  0.3298E+01  0.1342E+02E
 Epicentro: LOS SANTOS - SANTANDER                                             3
 ACTION:UPD 13-03-12 09:31 OP:ep   STATUS:               ID:20130207090056 L   I
 2013-02-07-0900-00M.COL___241                                                 6
 STAT SP IPHASW D HRMM SECON CODA AMPLIT PERI AZIMU VELO AIN AR TRES W  DIS CAZ7
 BAR2 SZ EP        9 1 16.38                             169   -0.0910 27.4 187 
 BAR2 SZ I         9 1 32.81        15.9 0.36            158           27.4 187 
 BRR  HZ IP     C  9 1 18.12                             154    0.4110 68.4 296 
 BRR  HN ES        9 1 35.03                             154    0.6810 68.4 296 
 BRR  HN I         9 1 35.45        42.6 0.18            129           68.4 296 
 PAM  SZ EP        9 1 19.21                             152    0.4410 74.7  42 
 PAM  SN ES        9 1 36.09                             152   -0.1510 74.7  42 
 PAM  SN I         9 1 37.83        16.4 0.66            138           74.7  42 
 RUS  HZ EP        9 1 20.47                             143   -0.2810  105 176 
 RUS  HN ES   1    9 1 39.19                             143   -0.57 7  105 176 
 RUS  HN I         9 1 40.66        10.8 0.52            126            105 176 
 PTB  HZ EP   1    9 1 22.95                             133   -0.64 7  148 257 
 PTB  HN ES   2    9 1 44.03                             133   -0.80 5  148 257 
 PTB  HN I         9 1 46.58        13.2 0.28            111            148 257 
 OCA  HN ES        9 1 45.61                             131   -0.87 9  156 353 
 OCA  HN I         9 1 46.79        22.1 0.12            112            156 353 
 TAM  HZ IP     C  9 1 24.82                             131    0.33 9  157 106 
 ZAR  HN ES   1    9 1 54.47                             123    0.43 6  202 291 
 ZAR  HN I         9 2  4.53         9.5 0.18            105            202 291 
 CHI  HZ EP        9 1 35.00                             117    0.33 8  253 195 
 CHI  HN ES   1    9 2  4.64                             117    0.10 6  253 195 
 CHI  HN I         9 2  6.64        11.1 0.32            103            253 195 
 HEL  HZ EP   1    9 1 36.19                             115   -0.58 6  272 255 
 HEL  HE I         9 2 18.56         3.7 0.56            101            272 255 
 URE  HZ EP   1    9 1 37.34                             114    0.02 6  281 291 
 URE  HN I         9 2 16.77         5.6 0.28            101            281 291 
                                                                                
