 2010 10 7 0348 32.2 L   6.947 -73.234150.0  RSN  6 0.3 1.6LRSN                1
 GAP=205        0.77       9.0    10.9  9.7 -0.6456E+02 -0.4107E+02  0.3376E+02E
 Epicentro: BETULIA - SANTANDER                                                3
 ACTION:UP  11-02-18 11:08 OP:tino STATUS:               ID:20101007034832 L   I
 2010-10-07-0344-55S.COL___122                                                 6
 STAT SP IPHASW D HRMM SECON CODA AMPLIT PERI AZIMU VELO SNR AR TRES W  DIS CAZ7
 BTL  SZ EP   1    348 52.74                             178     0.6 7    5 230 
 BRR  HZ IP     C  348 52.71                             159    -0.410   56 289 
 BRR  HN ES   1    349  9.34                             159     0.0 7   56 289 
 BRR  HZ I         349 14.04        14.6 0.20                            56 289 
 GUE  SZ EP   1    348 56.00                             144    -0.4 7  103  19 
 GRA  SZ IP        348 56.83                             141    -0.110  114  25 
 GRA  SZ I         348 58.08         5.0 0.30                           114  25 
 GRA  SZ ES   1    349 16.40                             141     0.2 7  114  25 
 OCA  SZ EP   1    348 59.26                             135    -0.1 7  143 356 
 OCA  SZ ES   1    349 20.70                             135     0.2 7  143 356 
 HEL  HZ EP   2    349 12.86                             117     0.7 4  267 252 
 HEL  HZ I         349 49.87         1.9 0.56                           267 252 
                                                                                
