 2010 11 7 0222 28.8 L   6.782 -73.127148.0  RSN  4 0.4 1.5LRSN                1
 GAP=161        0.84       7.8    15.7 15.1  0.5099E+02 -0.1308E+03 -0.1641E+02E
 Epicentro: LOS SANTOS - SANTANDER                                             3
 ACTION:UP  10-12-17 16:50 OP:REBC STATUS:               ID:20101107022228 L   I
 2010-11-07-0219-43S.COL___128                                                 6
 STAT SP IPHASW D HRMM SECON CODA AMPLIT PERI AZIMU VELO SNR AR TRES W  DIS CAZ7
 GIR2 SZ EP        222 48.44                             167    -0.410   34 347 
 BRR  HZ EP        222 50.20                             152    -0.210   74 299 
 BRR  HZ I         222 50.44        14.5 0.13                            74 299 
 BRR  HN ES   1    223  7.56                             152     0.4 7   74 299 
 RUS  HZ EP        222 52.92                             145     0.310   99 177 
 RUS  HE ES   2    223 11.02                             145    -0.2 5   99 177 
 RUS  HZ I         223 11.93         2.0 0.29                            99 177 
 GRA  SZ EP   2    222 55.28                             137     0.9 5  127  16 
 GRA  SZ ES   3    223 14.40                             137     0.1 2  127  16 
                                                                                
