 2013  5 7 0503 21.8 L   6.801 -73.111152.0  RSN 13 0.5 2.0LRSN                1
 GAP=141        0.96       3.2     6.3  6.5 -0.3930E+01  0.1287E+02 -0.4074E+00E
 Epicentro: LOS SANTOS - SANTANDER                                             3
 ACTION:UPD 13-06-20 09:48 OP:ep   STATUS:               ID:20130507050321 L   I
 2013-05-07-0500-00M.COL___256                                                 6
 STAT SP IPHASW D HRMM SECON CODA AMPLIT PERI AZIMU VELO AIN AR TRES W  DIS CAZ7
 BAR2 SZ EP        5 3 42.30                             170    0.0610 24.4 199 
 BAR2 SZ ES   1    5 3 57.51                             170   -0.64 7 24.4 199 
 BAR2 SZ I         5 3 59.98        22.9 0.20            167           24.4 199 
 GIR2 SZ EP        5 3 42.40                             167    0.1310 32.1 343 
 BRR  HZ IP     C  5 3 44.18                             152    0.3310 74.6 297 
 BRR  HN ES   1    5 4  1.70                             152    0.68 7 74.6 297 
 BRR  HZ I         5 4  7.12        15.7 0.54            146           74.6 297 
 PAM  SZ IP     C  5 3 45.08                             153    0.5010 74.9  37 
 PAM  SN ES   1    5 4  1.70                             153   -0.62 7 74.9  37 
 PAM  SZ I         5 4  4.53         6.6 0.52            155           74.9  37 
 RUS  HZ EP        5 3 46.23                             145    0.0310  100 178 
 RUS  HN ES   1    5 4  4.76                             145   -0.44 7  100 178 
 RUS  HZ I         5 4  6.05        10.2 0.24            149            100 178 
 PTB  HZ EP   1    5 3 49.20                             133   -0.46 7  152 259 
 PTB  HN ES   4    5 4 10.39                             133   -0.97 0  152 259 
 OCA  HZ EP   1    5 3 50.44                             131   -0.24 7  161 352 
 OCA  HN ES   1    5 4 14.10                             131    0.92 7  161 352 
 OCA  HZ I         5 4 18.71        10.2 0.22            131            161 352 
 NOR  HZ EP   1    5 3 58.34                             119    0.06 6  238 235 
 NOR  HE ES   1    5 4 26.01                             119   -0.69 6  238 235 
 NOR  HZ I         5 4 30.36         7.2 0.28            120            238 235 
 SML  HZ EP   1    5 3 57.99                             118   -1.00 6  245 334 
 SML  HN ES   1    5 4 27.46                             118   -0.51 6  245 334 
 SML  HZ I         5 4 34.56        15.2 0.26            118            245 334 
 CHI  HZ EP   1    5 4  0.28                             118    0.27 6  250 196 
 CHI  HE ES   1    5 4 30.40                             118    0.62 6  250 196 
 HEL  HZ EP   1    5 4  3.17                             116    0.38 6  276 256 
 HEL  HN ES   4    5 4 37.80                             116    3.07 0  276 256 
 HEL  HZ I         5 4 40.67         6.9 0.36            116            276 256 
 URE  HZ EP   4    5 4  5.22                             114    1.61 0  287 292 
 URE  HE ES   4    5 4 34.19                             114   -2.01 0  287 292 
 COD  HZ EP   1    5 4  9.58                             110   -0.92 5  349 354 
 COD  HN ES   1    5 4 48.34                             110   -0.12 5  349 354 
 COD  HZ I         5 4 56.82         1.7 0.56            111            349 354 
 PRA  HZ EP   1    5 4 15.53                             107   -0.28 4  394 210 
 PRA  HN ES   1    5 4 58.18                             107    0.27 4  394 210 
 PRA  HZ I         5 5  8.00         3.5 0.28            109            394 210 
                                                                                
