 2011  6 7 0206 45.1 L   6.752 -73.092140.6  RSN  8 0.3 1.8LRSN                1
 GAP=146        0.61       3.4     5.1  5.7 -0.7396E+01  0.2797E-01  0.2248E+01E
 Epicentro: LOS SANTOS - SANTANDER                                             3
 ACTION:UP  11-07-14 19:03 OP:ep   STATUS:               ID:20110607020645 L   I
 2011-06-07-0200-00M.COL___122                                                 6
 STAT SP IPHASW D HRMM SECON CODA AMPLIT PERI AZIMU VELO SNR AR TRES W  DIS CAZ7
 BAR2 SZ EP   1    2 7  4.06                             171     0.0 7   20 210 
 BAR2 SZ I         2 7  4.39        21.8 0.10                            20 210 
 BAR2 SZ ES   2    2 7 18.15                             171    -0.7 5   20 210 
 PAM  SZ EP   2    2 7  6.94                             150     0.1 5   78  34 
 PAM  SN ES   2    2 7 23.97                             150     0.2 5   78  34 
 BRR  HZ IP     C  2 7  6.06                             149    -0.110   79 300 
 BRR  HZ I         2 7  6.52        26.2 0.13                            79 300 
 BRR  HE ES   1    2 7 22.82                             149     0.2 7   79 300 
 RUS  HZ EP   1    2 7  8.00                             144     0.1 7   95 179 
 RUS  HN ES   2    2 7 26.30                             144     0.6 5   95 179 
 RUS  HZ I         2 7 26.81         4.9 0.37                            95 179 
 BRI  SZ EP        2 7  8.77                             139     0.010  111  17 
 BRI  SZ ES   2    2 7 27.51                             139     0.3 5  111  17 
 BRI  SZ I         2 7 29.50         9.6 0.55                           111  17 
 GRA  SZ EP   1    2 7 10.11                             135    -0.1 7  129  14 
 GRA  SZ ES   1    2 7 29.14                             135    -0.6 7  129  14 
 GRA  SZ I         2 7 30.84         8.7 0.29                           129  14 
 OCA  SZ EP   2    2 7 13.83                             127     0.2 5  166 351 
 OCA  SZ ES   2    2 7 36.27                             127     0.5 5  166 351 
 OCA  SZ I         2 7 43.41         8.7 0.33                           166 351 
 NOR  SZ EP   1    2 7 20.62                             117    -0.1 6  237 236 
 NOR  SN ES   2    2 7 48.25                             117    -0.3 4  237 236 
                                                                                
