 2015  9 7 0722 54.3 L   6.806 -73.128149.6  RSN  8 0.5 1.6LRSN                1
 GAP=185        1.20       4.5     7.1  8.8  0.8137E+01  0.1071E+02 -0.1993E+01E
 Epicentro: LOS SANTOS - SANTANDER                                             3
 ACTION:UPD 15-10-28 16:24 OP:cam  STATUS:               ID:20150907072254 L   I
 OLDACT:UP  15-09-07 19:15 OP:mh   STATUS:               ID:20150907071748     3
 OLDACT:REG 15-09-07 12:40 OP:mh   STATUS:               ID:20150907071748     3
 2015-09-07-0717-48M.COL___343                                                 6
 STAT SP IPHASW D HRMM SECON CODA AMPLIT PERI AZIMU VELO AIN AR TRES W  DIS CAZ7
 BAR2 EZ ES        723 30.27                             170    0.2210 24.4 194 
 BAR2 EZ I         723 30.86        14.7 0.20            170           24.4 194 
 BRR  HZ EP        723 16.50                             153    0.6010 72.7 297 
 BRR  HN ES        723 33.37                             153    0.5910 72.7 297 
 BRR  HZ I         723 34.42         4.6 0.26            153           72.7 297 
 RUS  HZ EP        723 18.57                             144    0.1510  101 177 
 RUS  HN ES        723 36.52                             144   -0.7510  101 177 
 RUS  HZ I         723 38.57         3.9 0.28            145            101 177 
 PTB  HZ EP        723 21.45                             132   -0.28 9  150 259 
 PTB  HN ES        723 42.45                             132   -0.70 9  150 259 
 PTB  HZ I         723 45.11         3.7 0.30            133            150 259 
 OCA  HN ES   1    723 44.63                             131   -0.49 7  160 352 
 OCA  HZ I         723 48.16         7.8 0.24            131            160 352 
 SPBC HZ EP        723 23.63                             130    0.41 9  165 219 
 SPBC HN ES        723 45.94                             130    0.14 9  165 219 
 SPBC HZ I         723 49.75         5.7 0.42            130            165 219 
 ZAR  HN ES        723 53.04                             123    0.29 8  206 292 
 SML  HN ES        723 59.26                             118   -0.63 8  244 335 
                                                                                
