 2013  5 7 0820 39.4 L   6.797 -73.170142.8  RSN  8 0.5 1.5LRSN                1
 GAP=134        0.95       4.2     5.9  7.1  0.8591E+00  0.5212E+01 -0.1975E+01E
 Epicentro: LOS SANTOS - SANTANDER                                             3
 ACTION:UPD 13-06-20 09:48 OP:ep   STATUS:               ID:20130507082039 L   I
 2013-05-07-0820-00M.COL___256                                                 6
 STAT SP IPHASW D HRMM SECON CODA AMPLIT PERI AZIMU VELO AIN AR TRES W  DIS CAZ7
 BAR2 SZ EP        820 58.55                             170   -0.0910 22.7 183 
 BAR2 SZ ES   1    821 13.54                             170   -0.13 7 22.7 183 
 BAR2 SZ I         821 14.39         7.6 0.18            173           22.7 183 
 GIR2 SZ EP   1    820 58.85                             167    0.15 7 31.2 355 
 GIR2 SZ ES   1    821 13.46                             167   -0.31 7 31.2 355 
 BRR  HZ IP     C  821  0.57                             153    0.4810 69.0 300 
 BRR  HN ES   1    821 17.37                             153    1.14 7 69.0 300 
 BRR  HZ I         821 21.00         9.2 0.28            149           69.0 300 
 PAM  SZ EP        821  1.57                             150    0.1710 79.4  41 
 PAM  SN ES   1    821 18.63                             150    0.05 7 79.4  41 
 PAM  SZ I         821 20.54         3.9 0.46            150           79.4  41 
 RUS  HZ EP        821  3.05                             143    0.2110  101 174 
 RUS  HN ES   1    821 20.48                             143   -0.65 7  101 174 
 RUS  HZ I         821 21.65         2.5 0.50            148            101 174 
 PTB  HZ EP   1    821  5.73                             132   -0.13 7  145 259 
 PTB  HN ES   1    821 26.00                             132   -0.51 7  145 259 
 PTB  HZ I         821 28.58         4.2 0.30            132            145 259 
 OCA  HN ES   1    821 28.79                             129   -0.58 7  160 354 
 SML  HZ EP   1    821 15.53                             117   -0.22 6  243 336 
 SML  HE ES   1    821 43.46                             117   -0.66 6  243 336 
 SML  HZ I         821 53.27         6.7 0.24            117            243 336 
                                                                                
