 2011  3 7 0946 19.6 L   6.786 -73.080143.0  RSN  9 0.4 1.9LRSN                1
 GAP=166        0.72       3.6     9.8  7.1 -0.1424E+02  0.4352E+02 -0.6220E+01E
 Epicentro: LOS SANTOS - SANTANDER                                             3
 ACTION:UP  11-06-16 14:32 OP:jfem STATUS:               ID:20110307094619 L   I
 2011-03-07-0944-21S.COL___135                                                 6
 STAT SP IPHASW D HRMM SECON CODA AMPLIT PERI AZIMU VELO SNR AR TRES W  DIS CAZ7
 BAR2 SZ EP   1    946 39.00                             170     0.112   24 208 
 BAR2 SZ ES   1    946 54.01                             170     0.012   24 208 
 BAR2 SZ I         946 56.06        11.2 0.17                            24 208 
 RUS  HZ EP   1    946 43.10                             144     0.112   99 180 
 RUS  HN ES   1    947  1.11                             144    -0.112   99 180 
 RUS  HZ I         947  3.00         8.9 0.30                            99 180 
 GRA  SZ EP   1    946 44.92                             136     0.311  125  14 
 GRA  SZ ES   1    947  4.22                             136     0.211  125  14 
 GRA  SZ I         947  5.73         8.8 0.29                           125  14 
 OCA  SZ EP   1    946 47.42                             128    -0.511  163 351 
 OCA  SZ ES   2    947  9.36                             128    -0.7 7  163 351 
 OCA  SZ I         947 13.66         9.3 0.28                           163 351 
 CHI  HZ EP   3    946 57.68                             116     0.5 3  249 197 
 CHI  HE ES   2    947 26.19                             116    -0.4 6  249 197 
 CHI  HZ I         947 34.19         3.2 0.23                           249 197 
 HEL  HZ EP   2    947  1.46                             114     1.0 6  279 256 
 HEL  HZ I         947 37.78         3.2 0.34                           279 256 
 RREF HZ EP   1    947  6.28                             110     0.1 8  326 230 
 DBB  SZ EP        947  8.01                             108     0.210  347 274 
 PRA  HZ EP        947 12.76                             106    -0.5 9  394 211 
 PRA  HZ I         948  2.52        14.2 0.28                           394 211 
                                                                                
