 2016  8 7 0758 19.1 L   6.764 -73.198144.8  RSN  8 0.2 1.7LRSN                1
 GAP=229        0.65       3.4     4.0  4.4  0.4661E+01  0.5701E+01  0.5323E+00E
 Epicentro: ZAPATOCA - SANTANDER                                               3
 ACTION:UPD 16-10-29 15:33 OP:rebc STATUS:               ID:20160807075819 L   I
 OLDACT:UP  16-08-07 22:58 OP:dani STATUS:               ID:20160807074733d    3
 OLDACT:UP  16-08-07 22:58 OP:dani STATUS:               ID:20160807074733d    3
 OLDACT:UP  16-08-07 22:56 OP:dani STATUS:               ID:20160807074733d    3
 OLDACT:DUP 16-08-07 22:53 OP:dani STATUS:               ID:20160807074733d    3
 OLDACT:UP  16-08-07 22:52 OP:dani STATUS:               ID:20160807074731     3
 OLDACT:UP  16-08-07 22:51 OP:dani STATUS:               ID:20160807074731     3
 OLDACT:UP  16-08-07 22:50 OP:dani STATUS:               ID:20160807074731     3
 OLDACT:UP  16-08-07 22:50 OP:dani STATUS:               ID:20160807074731     3
 OLDACT:REG 16-08-07 13:13 OP:dani STATUS:               ID:20160807074731     3
 2016-08-07-0748-00M.COL___350                                                 6
 STAT SP IPHASW D HRMM SECON CODA AMPLIT PERI AZIMU VELO AIN AR TRES W  DIS CAZ7
 BAR2 EZ EP        758 38.32                             172   -0.2410 19.0 175 
 BAR2 EZ ES        758 53.54                             172   -0.1710 19.0 175 
 BAR2 EZ I         758 54.47        18.3 0.26                          19.0 175 
 BRR  HZ IP     C  758 40.01                             153   -0.0010 68.3 304 
 BRR  HE ES        758 56.44                             153    0.1410 68.3 304 
 BRR  HZ I         759  0.39         8.4 0.42                          68.3 304 
 RUS  HN ES        759  1.14                             145    0.3410 97.2 172 
 PTB  HZ EP        758 45.01                             133   -0.43 9  141 260 
 PTB  HE ES        759  6.12                             133    0.16 9  141 260 
 PTB  HZ I         759  8.03         5.2 0.17                           141 260 
 SPBC HZ EP        758 47.20                             130    0.28 9  156 218 
 SPBC HE ES        759  8.21                             130   -0.38 9  156 218 
 SPBC HZ I         759 13.64         8.6 0.20                           156 218 
 ZAR  HZ EP        758 51.31                             123    0.18 9  200 294 
 ZAR  HN ES        759 16.10                             123    0.02 9  200 294 
 ZAR  HZ I         759 21.81         4.8 0.13                           200 294 
 NOR  HZ EP        758 54.21                             119    0.16 8  228 234 
 GUY2CHZ EP   4    759  3.64                             113    1.74 0  294 235 
 GUY2CHZ I         759 44.52         1.8 0.28                           294 235 
 PTGC HZ EP   4    759  1.48                             111   -1.28 0  307 157 
                                                                                
