 2014  7 7 0944 13.2 L   6.686 -73.235138.0  RSN  5 0.3 1.1LRSN                1
 GAP=214        0.88       8.8     7.2  7.1  0.3409E+02  0.1700E+02 -0.3256E+01E
 Epicentro: BARICHARA - SANTANDER                                              3
 ACTION:UPD 15-03-16 20:41 OP:nd   STATUS:               ID:20140707094413 L   I
 OLDACT:DUP 14-07-07 18:47 OP:stll STATUS:               ID:20140707093820d    3
 2014-07-07-0938-19M.COL___250                                                 6
 STAT SP IPHASW D HRMM SECON CODA AMPLIT PERI AZIMU VELO AIN AR TRES W  DIS CAZ7
 BAR2 SZ ES        944 46.19                             175    0.0310 11.9 150 
 BAR2 SZ I         944 48.58         3.6 0.28             47           11.9 150 
 RUS  HZ EP        944 34.82                             146   -0.5710 89.3 169 
 RUS  HE ES        944 52.99                             146    0.2910 89.3 169 
 RUS  HZ I         944 54.73         1.5 0.38             47           89.3 169 
 PTB  HZ EP        944 38.28                             133   -0.20 9  136 263 
 PTB  HN ES        944 57.96                             133   -0.23 9  136 263 
 PTB  HZ I         945  1.08         2.0 0.14             47            136 263 
 SPBC HZ EP        944 39.97                             130    0.37 9  147 219 
 ZAR  HZ EP        944 45.19                             121    0.43 9  200 297 
 ZAR  HZ I         945 15.13         1.9 0.34             37            200 297 
                                                                                
