 2016  7 7 0412 52.6 L   6.816 -73.050152.0  RSN 12 0.6 2.1LRSN                1
 GAP=227        1.38       5.9     6.9  7.3  0.1813E+02  0.1240E+02  0.9387E+01E
 Epicentro: LOS SANTOS - SANTANDER                                             3
 ACTION:UPD 17-03-29 16:47 OP:lp   STATUS:               ID:20160707041252 L   I
 OLDACT:UP  16-07-07 17:00 OP:dani STATUS:               ID:20160707040742     3
 OLDACT:UP  16-07-07 16:59 OP:dani STATUS:               ID:20160707040742     3
 OLDACT:UP  16-07-07 16:58 OP:dani STATUS:               ID:20160707040742     3
 OLDACT:UP  16-07-07 16:58 OP:dani STATUS:               ID:20160707040742     3
 OLDACT:UP  16-07-07 16:58 OP:dani STATUS:               ID:20160707040742     3
 OLDACT:REG 16-07-07 13:15 OP:dani STATUS:               ID:20160707040742     3
 2016-07-07-0407-42M.COL___319                                                 6
 STAT SP IPHASW D HRMM SECON CODA AMPLIT PERI AZIMU VELO AIN AR TRES W  DIS CAZ7
 BAR2 EZ EP        413 13.62                             169    0.5510 28.7 211 
 BAR2 EZ ES        413 28.42                             169   -0.6410 28.7 211 
 BAR2 EZ I         413 31.72        14.4 0.34            164           28.7 211 
 BRR  HZ EP        413 15.56                             151    0.6610 80.0 294 
 BRR  HN ES        413 33.02                             151    0.7110 80.0 294 
 RUS  HZ EP        413 17.51                             145    0.4610  102 182 
 RUS  HE ES        413 36.42                             145    0.2710  102 182 
 PTB  HZ EP        413 20.48                             131   -0.55 9  159 259 
 PTB  HN ES   4    413 41.54                             131   -1.68 0  159 259 
 PTB  HZ I         413 43.55        11.8 0.34            129            159 259 
 SPBC HZ EP        413 22.48                             129    0.15 9  171 221 
 SPBC HE ES        413 45.08                             129   -0.45 9  171 221 
 SPBC HZ I         413 48.04        17.5 0.12            127            171 221 
 ZAR  HZ EP        413 26.26                             123   -0.12 8  213 291 
 ZAR  HN ES        413 51.92                             123   -0.83 8  213 291 
 ZAR  HZ I         413 58.51        11.1 0.46            122            213 291 
 NOR  HE ES   4    413 56.55                             119   -2.12 0  244 236 
 HEL  HZ EP        413 33.77                             115   -0.52 7  283 256 
 HEL  HN ES        414  6.73                             115   -0.10 7  283 256 
 HEL  HZ I         414 13.31         4.4 0.26            114            283 256 
 URE  HZ EP        413 34.12                             114   -0.86 7  293 291 
 URE  HE ES   4    414  5.38                             114   -2.68 0  293 291 
 URE  HZ I         414 12.50         6.9 0.12            114            293 291 
 PTGC HZ EP        413 36.37                             113   -0.12 7  307 161 
 PTGC HN ES        414  9.17                             113   -1.56 7  307 161 
 PTGC HZ I         414 13.21         8.6 0.32            113            307 161 
 GUY2CHZ EP        413 37.73                             113    0.16 7  311 236 
 GUY2CHN ES   4    414 13.21                             113    0.55 0  311 236 
 GUY2CHZ I         414 18.54         5.8 0.34                           311 236 
 PRA  HZ EP        413 47.97                             107    0.86 6  399 211 
 PRA  HN ES        414 30.39                             107    0.74 6  399 211 
 PRA  HZ I         414 36.92         3.0 0.30            107            399 211 
 ORTC HZ EP        413 48.51                             107    0.89 6  403 217 
 ORTC HN ES        414 30.84                             107    0.29 6  403 217 
 ORTC HZ I         414 36.30         2.6 0.42            107            403 217 
                                                                                
