 2016 10 7 0828 19.9 L   6.810 -73.157144.0  RSN  9 0.4 1.8LRSN                1
 GAP=135        0.89       2.7     3.9  7.2 -0.1611E+01  0.8046E+01 -0.4261E+00E
 Epicentro: LOS SANTOS - SANTANDER                                             3
 ACTION:UPD 16-11-09 19:17 OP:rebc STATUS:               ID:20161007082819 L   I
 OLDACT:UP  16-10-07 16:23 OP:dani STATUS:               ID:20161007081746d    3
 OLDACT:UP  16-10-07 16:23 OP:dani STATUS:               ID:20161007081746d    3
 OLDACT:DUP 16-10-07 16:11 OP:dani STATUS:               ID:20161007081746d    3
 2016-10-07-0818-00M.COL___342                                                 6
 STAT SP IPHASW D HRMM SECON CODA AMPLIT PERI AZIMU VELO AIN AR TRES W  DIS CAZ7
 PAM  EZ EP        828 42.30                             150    0.3310 77.4  41 
 PAM  EE ES        828 59.41                             150    0.2610 77.4  41 
 PAM  EZ I         829  1.19        11.5 0.50            155           77.4  41 
 RUS  HZ EP        828 43.82                             143    0.2210  102 175 
 RUS  HN ES        829  2.00                             143   -0.0610  102 175 
 RUS  HZ I         829  3.60         6.4 0.31            147            102 175 
 PTB  HE EP        828 46.54                             132   -0.13 9  147 258 
 PTB  HN ES        829  7.19                             132   -0.32 9  147 258 
 PTB  HE I         829 12.59         9.4 0.21            133            147 258 
 OCA  HZ EP        828 47.87                             129   -0.13 9  159 354 
 OCA  HN ES        829  9.10                             129   -0.78 9  159 354 
 OCA  HZ I         829 11.16         9.1 0.28            132            159 354 
 SPBC HZ EP        828 48.45                             129    0.14 9  163 218 
 SPBC HN ES        829 10.58                             129    0.15 9  163 218 
 SPBC HZ I         829 14.14         7.8 0.16            131            163 218 
 ZAR  HZ EP        828 52.10                             122   -0.01 9  202 292 
 ZAR  HE ES        829 17.90                             122    0.71 9  202 292 
 ZAR  HZ I         829 23.92         9.2 0.35            124            202 292 
 CHI  HN ES        829 26.43                             117   -0.57 8  249 195 
 GUY2CHZ EP   4    829  5.19                             112    1.77 0  301 234 
 GUY2CHN ES   4    829 40.58                             112    3.25 0  301 234 
 GUY2CHZ I         829 47.43         3.0 0.31                           301 234 
 SJC  HZ EP   9    829 13.87                             105   -1.39 0  408 327 
 SJC  HN ES        829 57.18                             105    0.17 6  408 327 
 SJC  HZ I         829 59.92         0.8 0.28            108            408 327 
                                                                                
