 2014  2 7 0213 17.9 L   6.164 -73.780107.2  RSN  8 0.5 1.5LRSN                1
 GAP= 93        1.05       3.9     4.5  9.4  0.4113E+01  0.1063E+02  0.1030E+02E
 Epicentro: LANDAZURI - SANTANDER                                              3
 ACTION:UPD 14-03-10 08:08 OP:ep   STATUS:               ID:20140207021317 L   I
 OLDACT:UP  14-02-07 11:15 OP:mh   STATUS:               ID:20140207021000     3
 OLDACT:REG 14-02-07 08:32 OP:mh   STATUS:               ID:20140207021000     3
 2014-02-07-0210-00M.COL___291                                                 6
 STAT SP IPHASW D HRMM SECON CODA AMPLIT PERI AZIMU VELO AIN AR TRES W  DIS CAZ7
 SPBC HZ EP   1    213 35.22                             146    0.51 7 65.2 210 
 SPBC HN ES   1    213 48.44                             146    0.58 7 65.2 210 
 SPBC HZ I         213 50.02         4.9 0.21            135           65.2 210 
 BAR2 SZ EP   1    213 36.47                             140    0.37 7 81.3  54 
 BAR2 SZ ES   1    213 50.76                             140    0.43 7 81.3  54 
 BAR2 SZ I         213 51.93        59.7 0.05            134           81.3  54 
 RUS  HZ EP   1    213 36.59                             139    0.02 7 82.8 111 
 RUS  HN ES   1    213 50.76                             139   -0.40 7 82.8 111 
 RUS  HZ I         213 54.39         3.9 0.45            132           82.8 111 
 PTB  HZ EP        213 35.87                             138   -0.2610 85.6 299 
 PTB  HN ES        213 49.80                             138   -0.5810 85.6 299 
 PTB  HZ I         213 53.53         4.1 0.08            129           85.6 299 
 NOR  HZ EP   1    213 41.38                             123    0.37 7  138 241 
 NOR  HZ I         214  3.13         7.2 0.19            114            138 241 
 CHI  HZ EP   1    213 43.88                             117   -0.97 7  170 178 
 CHI  HN ES   1    214  5.34                             117   -0.57 7  170 178 
 CHI  HZ I         214 10.04         1.5 0.32            110            170 178 
 ZAR  HN ES        214  8.96                             114    0.19 9  189 321 
 GUY2CHZ EP   4    213 50.19                             112    1.47 0  204 239 
 GUY2CHN ES   4    214 14.43                             112    1.65 0  204 239 
 PRA  HZ EP   4    213 56.76                             103   -2.25 0  297 204 
 PRA  HN ES        214 31.80                             103    0.69 7  297 204 
                                                                                
