 2012 10 7 0623  0.4 L   6.722 -73.125141.3  RSN  4 0.1 1.7LRSN                1
 GAP=143        0.36       4.3     5.0  6.8 -0.1498E+01 -0.3001E+00 -0.6030E+01E
 Epicentro: JORDAN - SANTANDER                                                 3
 ACTION:UPD 12-11-22 17:02 OP:ep   STATUS:               ID:20121007062300 L   I
 2012-10-07-0620-00M.COL___222                                                 6
 STAT SP IPHASW D HRMM SECON CODA AMPLIT PERI AZIMU VELO AIN AR TRES W  DIS CAZ7
 GIR2 SZ EP   1    623 19.67                             163   -0.20 7 40.2 349 
 BRR  HZ EP   1    623 21.50                             150    0.00 7 77.6 303 
 BRR  HN ES   2    623 38.03                             150    0.11 5 77.6 303 
 BRR  HN I         623 39.34         9.5 0.24                          77.6 303 
 PAM  SZ EP   1    623 22.71                             148    0.17 7 82.9  35 
 PAM  SN ES   2    623 39.68                             148   -0.09 5 82.9  35 
 PAM  SN I         623 40.97         9.3 0.45                          82.9  35 
 RUS  HN ES   2    623 40.86                             145    0.03 5 91.8 177 
                                                                                
