 2017 11 7 0453 54.4 L   6.664 -74.070  2.8  RSN 10 0.4 1.7LRSN                1
 GAP= 86        0.87       1.7     1.5  3.8 -0.5481E+00  0.1097E+01 -0.1061E+00E
 Epicentro: PUERTO PARRA - SANTANDER                                           3
 ACTION:UPD 17-12-12 19:53 OP:rebc STATUS:               ID:20171107045354 L   I
 OLDACT:UP  17-11-07 14:30 OP:dnl  STATUS:               ID:20171107044744d    3
 OLDACT:UP  17-11-07 14:30 OP:dnl  STATUS:               ID:20171107044744d    3
 OLDACT:DUP 17-11-07 14:17 OP:dnl  STATUS:               ID:20171107044744d    3
 2017-11-07-0448-00M.COL___405                                                 6
 STAT SP IPHASW D HRMM SECON CODA AMPLIT PERI AZIMU VELO AIN AR TRES W  DIS CAZ7
 PTB  HZ IP     D  454  1.72                              47   -0.2610 44.8 252 
 PTB  HN ES        454  7.67                              47   -0.2110 44.8 252 
 PTB  HZ I         454  7.84        31.5 0.22             47           44.8 252 
 BRR  HZ IP     D  454  4.76                              47    0.0310 63.1  39 
 BRR  HE ES        454 13.01                              47    0.2410 63.1  39 
 BRR  HZ I         454 13.81        36.7 0.12             47           63.1  39 
 BAR2 EZ EP        454 10.13                              47   -0.2210 98.5  95 
 BAR2 EZ ES        454 22.18                              47   -0.6010 98.5  95 
 BAR2 EZ I         454 28.37        15.1 0.46             47           98.5  95 
 SPBC HZ EP        454 12.75                              47    0.5410  112 180 
 SPBC HN ES        454 26.19                              47    0.0910  112 180 
 SPBC HZ I         454 27.56        11.3 0.20             47            112 180 
 ZAR  HZ EP        454 14.38                              47    0.0510  126 317 
 ZAR  HN ES        454 29.40                              47   -0.4710  126 317 
 ZAR  HZ I         454 30.78        21.0 0.12             47            126 317 
 NOR  HZ EP   2    454 17.59                              47   -0.43 5  150 216 
 NOR  HN ES   4    454 34.53                              47   -1.89 0  150 216 
 NOR  HZ I         454 38.90         6.6 0.30             47            150 216 
 PAM  EZ EP        454 21.34                              47    0.06 9  169  64 
 PAM  EN ES        454 42.62                              47    0.39 9  169  64 
 PAM  EZ I         454 44.28        19.8 0.18             47            169  64 
 URE  HZ EP   4    454 26.71                              37    1.65 0  201 307 
 URE  HE ES        454 49.29                              37    0.33 9  201 307 
 URE  HZ I         454 52.92        13.5 0.24             37            201 307 
 GUY2CHZ EP   2    454 27.93                              37    0.72 4  214 222 
 GUY2CHE ES        454 52.46                              37   -0.33 8  214 222 
 GUY2CHZ I         454 55.51         6.5 0.32                           214 222 
 CBOC HZ EP   4    454 30.36                              37    1.24 0  232 248 
 CBOC HN ES        454 56.77                              37    0.59 8  232 248 
 CBOC HZ I         454 59.76         2.9 0.28             37            232 248 
                                                                                
