 2015  1 7 0714 27.8 L   6.715 -73.174142.0  RSN  5 0.4 1.4LRSN                1
 GAP=238        0.95       6.0     7.5  8.4  0.5956E+01  0.2273E+02  0.5771E+01E
 Epicentro: VILLANUEVA - SANTANDER                                             3
 ACTION:UPD 15-03-02 15:37 OP:nd   STATUS:               ID:20150107071427 L   I
 OLDACT:REG 15-01-07 15:44 OP:cam  STATUS:               ID:20150107070813     3
 2015-01-07-0708-13M.COL___277                                                 6
 STAT SP IPHASW D HRMM SECON CODA AMPLIT PERI AZIMU VELO AIN AR TRES W  DIS CAZ7
 BAR2 EZ ES        715  1.47                             174   -0.2110 13.6 184 
 BAR2 EZ I         715  3.10         5.0 0.18            171           13.6 184 
 BRR  HZ EP        714 48.50                             151   -0.2110 73.6 306 
 BRR  HN ES        715  5.51                             151    0.5110 73.6 306 
 BRR  HN I         715  6.15         7.0 0.52            148           73.6 306 
 PTB  HZ EP        714 53.76                             132   -0.31 9  143 262 
 PTB  HN ES        715 13.95                             132   -0.60 9  143 262 
 PTB  HZ I         715 16.46         1.3 0.20            130            143 262 
 SPBC HZ EP   1    714 55.67                             130    0.50 7  154 220 
 SPBC HN ES        715 16.86                             130    0.36 9  154 220 
 SPBC HZ I         715 20.35         2.4 0.20            129            154 220 
 ZAR  HE ES        715 25.55                             122    0.23 9  205 295 
 ZAR  HE I         715 32.90         5.6 0.48            121            205 295 
                                                                                
