 2011  1 7 0325 28.0 L   6.791 -73.080145.6  RSN  7 0.4 1.9LRSN                1
 GAP=166        0.71       3.1     7.2  7.6 -0.8937E+01  0.2368E+02 -0.1168E+01E
 Epicentro: LOS SANTOS - SANTANDER                                             3
 ACTION:UP  11-02-08 08:39 OP:pat  STATUS:               ID:20110107032528 L   I
 2011-01-07-0321-02S.COL___135                                                 6
 STAT SP IPHASW D HRMM SECON CODA AMPLIT PERI AZIMU VELO SNR AR TRES W  DIS CAZ7
 BAR2 SZ EP   1    325 47.51                             170    -0.2 7   25 207 
 BAR2 SZ ES   2    326  3.31                             170     0.3 5   25 207 
 BAR2 SZ I         326  4.38        18.1 0.29                            25 207 
 RUS  HZ EP   1    325 51.63                             144     0.0 7   99 180 
 RUS  HN ES   1    326 10.19                             144     0.1 7   99 180 
 RUS  HZ I         326 11.46         8.7 0.45                            99 180 
 GRA  SZ EP   1    325 52.57                             137    -0.6 7  125  14 
 GRA  SZ ES   1    326 12.72                             137    -0.1 7  125  14 
 GRA  SZ I         326 15.98         9.6 0.26                           125  14 
 OCA  SZ EP   1    325 56.94                             129     0.4 7  162 351 
 OCA  SZ ES   1    326 18.92                             129     0.2 7  162 351 
 OCA  SZ I         326 23.92        17.1 0.30                           162 351 
 CHI  HZ EP   1    326  5.66                             117    -0.2 6  250 197 
 CHI  HE ES   1    326 35.24                             117    -0.1 6  250 197 
 CHI  HZ I         326 40.88         4.1 0.37                           250 197 
 HEL  HZ EP   2    326  9.37                             114     0.4 4  279 256 
 HEL  HE ES   2    326 40.18                             114    -0.8 4  279 256 
 HEL  HZ I         326 47.65         3.0 0.30                           279 256 
 RREF HZ EP   1    326 15.49                             110     0.8 5  327 230 
 RREF HE ES   1    326 51.08                             110    -0.1 5  327 230 
 RREF HZ I         326 56.05         5.1 0.20                           327 230 
                                                                                
