 2015  9 7 0703 37.1 L   6.818 -73.126141.0  RSN  8 0.4 1.7LRSN                1
 GAP=185        1.04       3.3     5.3  6.6  0.1785E+01  0.2728E+01 -0.6059E+01E
 Epicentro: LOS SANTOS - SANTANDER                                             3
 ACTION:UPD 15-10-28 16:24 OP:cam  STATUS:               ID:20150907070337 L   I
 OLDACT:UP  15-09-07 18:56 OP:mh   STATUS:               ID:20150907065751d    3
 OLDACT:DUP 15-09-07 18:50 OP:mh   STATUS:               ID:20150907065751d    3
 2015-09-07-0657-50M.COL___343                                                 6
 STAT SP IPHASW D HRMM SECON CODA AMPLIT PERI AZIMU VELO AIN AR TRES W  DIS CAZ7
 BAR2 EZ EP        7 3 55.52                             169   -0.6710 25.8 194 
 BAR2 EZ ES        7 4 11.50                             169    0.4010 25.8 194 
 BAR2 EZ I         7 4 12.36        10.7 0.20            170           25.8 194 
 BRR  HZ EP        7 3 58.04                             151    0.2610 72.2 296 
 BRR  HN ES        7 4 14.09                             151    0.1710 72.2 296 
 BRR  HZ I         7 4 18.90         6.0 0.12            149           72.2 296 
 RUS  HZ EP        7 4  0.96                             142    0.4510  102 177 
 RUS  HN ES        7 4 18.57                             142   -0.2110  102 177 
 RUS  HZ I         7 4 19.80         4.8 0.32            147            102 177 
 PTB  HZ EP        7 4  3.48                             130   -0.42 9  150 258 
 PTB  HN ES        7 4 24.11                             130   -0.71 9  150 258 
 PTB  HZ I         7 4 29.60         3.1 0.38            131            150 258 
 OCA  HZ EP        7 4  4.85                             129   -0.01 9  159 352 
 OCA  HN ES        7 4 26.43                             129   -0.10 9  159 352 
 OCA  HZ I         7 4 30.68        10.7 0.16            130            159 352 
 SPBC HZ EP   1    7 4  5.91                             127    0.41 7  166 219 
 SPBC HN ES        7 4 27.61                             127   -0.06 9  166 219 
 SPBC HZ I         7 4 28.16         5.7 0.18            130            166 219 
 ZAR  HZ EP        7 4 10.08                             121    0.72 8  205 291 
 ZAR  HN ES        7 4 35.05                             121    0.52 8  205 291 
 ZAR  HZ I         7 4 40.82         5.5 0.26            122            205 291 
 SML  HZ EP        7 4 13.07                             116   -0.28 8  243 335 
 SML  HN ES        7 4 41.32                             116   -0.31 8  243 335 
 SML  HZ I         7 4 48.86         5.0 0.06            118            243 335 
                                                                                
