 2017  7 7 0131 23.5 L   6.773 -73.131145.4  RSN  6 0.4 1.6LRSN                1
 GAP=159        1.00       5.6     5.5  7.6 -0.8081E+01  0.1089E+02  0.5584E+01E
 Epicentro: LOS SANTOS - SANTANDER                                             3
 ACTION:UPD 17-08-30 15:30 OP:rebc STATUS:               ID:20170707013123 L   I
 OLDACT:REG 17-07-07 12:50 OP:ar   STATUS:               ID:20170707012742     3
 2017-07-07-0128-00M.COL___377                                                 6
 STAT SP IPHASW D HRMM SECON CODA AMPLIT PERI AZIMU VELO AIN AR TRES W  DIS CAZ7
 BAR2 EZ EP   2    131 43.02                             171   -0.04 5 20.7 196 
 BAR2 EZ ES        131 57.64                             171   -0.6610 20.7 196 
 BAR2 EZ I         131 58.88         6.0 0.36            169           20.7 196 
 BRR  HZ EP        131 44.85                             151    0.0510 74.1 300 
 BRR  HN ES        132  1.92                             151    0.5210 74.1 300 
 PAM  EZ EP        131 46.00                             150    0.2210 78.7  37 
 PAM  EN ES        132  3.23                             150    0.0810 78.7  37 
 PAM  EZ I         132  5.06         6.8 0.54            153           78.7  37 
 PTB  HZ EP     D  131 49.93                             132   -0.63 9  149 260 
 SPBC HZ EP        131 52.05                             129    0.18 9  162 220 
 SPBC HN ES        132 14.46                             129    0.47 9  162 220 
 SPBC HZ I         132 19.27         5.6 0.10            129            162 220 
 ZAR  HN ES        132 21.46                             122   -0.27 8  207 293 
                                                                                
