 2016  6 7 0313 38.8 L   6.778 -73.139151.2  RSN  6 0.4 1.4LRSN                1
 GAP=183        0.97       4.4     6.5  7.8  0.4501E+01  0.3233E+01 -0.1270E+01E
 Epicentro: LOS SANTOS - SANTANDER                                             3
 ACTION:UPD 16-07-21 22:16 OP:rebc STATUS:               ID:20160607031338 L   I
 OLDACT:UP  16-06-08 20:46 OP:nlst STATUS:               ID:20160607031338 L   3
 OLDACT:UP  16-06-07 15:46 OP:dani STATUS:               ID:20160607030743     3
 OLDACT:REG 16-06-07 12:43 OP:dani STATUS:               ID:20160607030743     3
 2016-06-07-0307-43M.COL___334                                                 6
 STAT SP IPHASW D HRMM SECON CODA AMPLIT PERI AZIMU VELO AIN AR TRES W  DIS CAZ7
 BAR2 EZ EP        313 59.43                             172    0.3610 21.1 193 
 BAR2 EZ ES        314 14.52                             172   -0.3410 21.1 193 
 BAR2 EZ I         314 15.30         7.4 0.22                          21.1 193 
 BRR  HZ EP        314  1.06                             153    0.3910 73.1 300 
 BRR  HN ES        314 18.33                             153    0.6210 73.1 300 
 BRR  HZ I         314 21.37         9.1 0.26                          73.1 300 
 RUS  HZ EP        314  2.79                             146   -0.1510 98.1 176 
 RUS  HE ES        314 21.66                             146   -0.0910 98.1 176 
 RUS  HZ I         314 23.80         2.0 0.22                          98.1 176 
 PTB  HZ EP        314  6.11                             133   -0.16 9  148 260 
 PTB  HN ES        314 27.16                             133   -0.52 9  148 260 
 PTB  HZ I         314 29.29         3.3 0.14                           148 260 
 SPBC HN ES   2    314 30.77                             130    0.70 5  162 220 
 OCA  HN ES        314 29.99                             130   -0.41 9  163 353 
                                                                                
