 2012  3 7 0146 19.4 L   6.643 -73.209149.2  RSN  6 0.3 1.6LRSN                1
 GAP=200        0.95       8.0     8.2  8.2  0.4096E+02  0.1679E+02  0.1978E+02E
 ACTION:UP  12-03-31 23:17 OP:EP   STATUS:               ID:20120307014619 L   I
 2012-03-07-0140-00M.COL___194                                                 6
 STAT SP IPHASW D HRMM SECON CODA AMPLIT PERI AZIMU VELO SNR AR TRES W  DIS CAZ7
 BAR2 SZ EP   1    146 39.20                             178     0.0 7    6 152 
 BAR2 SZ ES   1    146 53.91                             178    -0.8 7    6 152 
 BAR2 SZ I         146 55.08         5.8 0.19                             6 152 
 BRR  HZ EP        146 41.24                             152     0.110   76 313 
 BRR  HE ES        146 58.52                             152     0.410   76 313 
 BRR  HZ I         147  0.67         9.5 0.18                            76 313 
 RUS  HZ EP        146 42.56                             149     0.210   84 170 
 RUS  HN ES   1    147  0.43                             149     0.1 7   84 170 
 RUS  HZ I         147  1.70         4.5 0.39                            84 170 
 PTB  HZ EP        146 45.27                             135    -0.5 9  138 265 
 PTB  HE ES   1    147  6.56                             135     0.1 7  138 265 
 ZAR  HN ES   1    147 17.64                             123    -0.1 6  205 297 
 ZAR  HZ I         147 24.73         4.7 0.34                           205 297 
 CHI  HZ EP   1    146 55.56                             120     0.3 6  230 195 
 CHI  HZ I         147 29.75         2.4 0.46                           230 195 
                                                                                
