 2013 11 7 0425 37.9 L   6.771 -73.226137.2  RSN  4 0.4 1.1LRSN                1
 GAP=222        0.84       7.6     6.7  8.5  0.2567E+02  0.5652E+01 -0.1012E+02E
 Epicentro: ZAPATOCA - SANTANDER                                               3
 ACTION:UPD 14-01-09 16:26 OP:ep   STATUS:               ID:20131107042537 L   I
 OLDACT:DUP 13-11-07 07:06 OP:j    STATUS:               ID:20131107042002d    3
 OLDACT:REG 13-11-07 06:22 OP:jn   STATUS:               ID:20131107042000     3
 2013-11-07-0420-00M.COL___273                                                 6
 STAT SP IPHASW D HRMM SECON CODA AMPLIT PERI AZIMU VELO AIN AR TRES W  DIS CAZ7
 BAR2 SZ ES   1    426 10.24                             171   -0.69 7 20.3 166 
 BAR2 SZ I         426 14.48         5.1 0.50            172           20.3 166 
 BRR  HZ EP        425 57.92                             153    0.1010 65.3 305 
 BRR  HN ES   2    426 14.24                             153    0.90 5 65.3 305 
 BRR  HZ I         426 15.75         3.3 0.26            155           65.3 305 
 RUS  HZ EP        426  0.91                             142    0.2310 98.4 171 
 RUS  HN ES        426 18.55                             142    0.1210 98.4 171 
 RUS  HZ I         426 20.91         1.0 0.18            146           98.4 171 
 PTB  HZ EP        426  2.96                             132   -0.39 9  138 259 
 PTB  HN ES        426 23.27                             132    0.09 9  138 259 
 PTB  HZ I         426 26.77         2.0 0.42            135            138 259 
                                                                                
