 2010  9 7 0224 54.4 L   6.769 -73.074144.3  RSN 10 0.4 2.0LRSN                1
 GAP=167        0.95       4.1     9.7  8.8 -0.1172E+02 -0.5365E+01  0.1468E+01E
 Epicentro: LOS SANTOS - SANTANDER                                             3
 ACTION:UP  11-02-18 11:00 OP:tino STATUS:               ID:20100907022454 L   I
 2010-09-07-0221-53S.COL___120                                                 6
 STAT SP IPHASW D HRMM SECON CODA AMPLIT PERI AZIMU VELO SNR AR TRES W  DIS CAZ7
 BAR2 SZ EP        225 13.84                             171     0.010   23 212 
 BAR2 SZ I         225 30.36        15.7 0.21                            23 212 
 GIR2 SZ EP   1    225 13.99                             165    -0.1 7   37 339 
 BRR  HZ IP     D  225 15.72                             150    -0.210   80 298 
 BRR  HE ES   1    225 32.89                             150     0.2 7   80 298 
 BRR  HZ I         225 34.49        19.4 0.02                            80 298 
 RUS  HZ EP   1    225 17.62                             145    -0.1 7   97 181 
 RUS  HE ES   1    225 36.44                             145     0.5 7   97 181 
 RUS  HZ I         225 39.41        10.7 0.78                            97 181 
 GUE  SZ EP   1    225 19.98                             139     0.8 7  119   8 
 GRA  SZ EP        225 19.63                             137     0.010  127  14 
 GRA  SZ ES   1    225 38.99                             137    -0.3 7  127  14 
 GRA  SZ I         225 40.47        17.4 0.28                           127  14 
 OCA  SZ EP        225 22.61                             129    -0.4 9  165 351 
 OCA  SZ I         225 48.98        20.2 0.22                           165 351 
 CHI  HZ EP   1    225 31.87                             117     0.0 6  248 197 
 CHI  HZ I         225 33.83         4.6 0.16                           248 197 
 CHI  HE ES   1    226  0.40                             117    -0.7 6  248 197 
 HEL  HZ EP   2    225 36.17                             114     0.9 4  279 257 
 HEL  HZ I         226 11.91         3.8 0.42                           279 257 
 PRA  HZ EP   1    225 48.14                             106     0.2 4  393 211 
 PRA  HZ I         225 49.55         5.2 0.26                           393 211 
                                                                                
