 2014  9 7 0425 31.6 L   6.791 -73.147144.8  RSN 12 0.4 2.0LRSN                1
 GAP=183        0.91       2.9     4.8  5.6 -0.7564E+00  0.5142E+01  0.1775E+01E
 Epicentro: LOS SANTOS - SANTANDER                                             3
 ACTION:UPD 14-10-03 23:03 OP:nd   STATUS:               ID:20140907042532dL   I
 OLDACT:DUP 14-09-07 18:03 OP:mh   STATUS:               ID:20140907041821d    3
 OLDACT:REG 14-09-07 13:04 OP:mh   STATUS:               ID:20140907041820     3
 2014-09-07-0418-20M.COL___260                                                 6
 STAT SP IPHASW D HRMM SECON CODA AMPLIT PERI AZIMU VELO AIN AR TRES W  DIS CAZ7
 BAR2 SZ EP        425 51.00                             171   -0.0910 22.4 190 
 BAR2 SZ ES   1    426  5.99                             171   -0.31 7 22.4 190 
 BAR2 SZ I         426  8.80        17.0 0.14            170           22.4 190 
 BRR  HZ EP     C  425 52.95                             152    0.2910 71.5 299 
 BRR  HE ES        426  9.51                             152    0.4210 71.5 299 
 BRR  HZ I         426 13.40        11.4 0.16            149           71.5 299 
 RUS  HZ EP        425 55.10                             144   -0.0910 99.7 176 
 RUS  HN ES        426 13.69                             144    0.1010 99.7 176 
 RUS  HZ I         426 14.98         6.8 0.42            147           99.7 176 
 PTB  HZ EP        425 57.91                             132   -0.55 9  147 259 
 PTB  HE ES        426 19.08                             132   -0.33 9  147 259 
 PTB  HZ I         426 25.99        16.4 0.62            131            147 259 
 OCA  HZ EP   1    425 59.55                             129   -0.37 7  161 353 
 OCA  HN ES        426 22.33                             129    0.32 9  161 353 
 OCA  HZ I         426 25.06        10.4 0.14            130            161 353 
 SPBC HZ EP        426  0.02                             129    0.08 9  162 219 
 SPBC HN ES   1    426 21.44                             129   -0.62 7  162 219 
 ZAR  HZ EP   2    426  3.62                             122   -0.38 4  204 292 
 ZAR  HN ES   2    426 29.23                             122   -0.05 4  204 292 
 NOR  HZ EP        426  6.72                             118   -0.48 8  234 235 
 NOR  HN ES        426 35.17                             118    0.20 8  234 235 
 SML  HZ EP   4    426  7.16                             117   -1.10 0  245 335 
 SML  HN ES   1    426 36.25                             117   -0.60 6  245 335 
 SML  HZ I         426 43.21        14.1 0.24            118            245 335 
 HEL  HZ EP        426 12.77                             115    1.05 8  272 256 
 HEL  HN ES   4    426 46.21                             115    3.19 0  272 256 
 HEL  HZ I         426 49.31         5.1 0.44            115            272 256 
 GUY2CHZ EP   4    426 15.68                             112    0.59 0  301 235 
 GUY2CHN ES   4    426 47.74                             112   -1.27 0  301 235 
 GUY2CHZ I         426 59.57         4.6 0.52                           301 235 
 PRA  HZ EP        426 25.12                             106    0.14 6  391 210 
 PRA  HN ES        427  7.38                             106    0.76 6  391 210 
 PRA  HZ I         427 11.19         4.1 0.28            108            391 210 
                                                                                
