 2013 10 7 0753  6.4 L   6.793 -73.196147.2  RSN  6 0.4 1.4LRSN                1
 GAP=231        0.89       5.8     6.1  7.2  0.1624E+02  0.6831E+01  0.4429E+01E
 Epicentro: ZAPATOCA - SANTANDER                                               3
 ACTION:UPD 13-11-25 09:19 OP:ep   STATUS:               ID:20131007075306 L   I
 OLDACT:REG 13-10-07 09:05 OP:mh   STATUS:               ID:20131007074959     3
 2013-10-07-0749-59M.COL___273                                                 6
 STAT SP IPHASW D HRMM SECON CODA AMPLIT PERI AZIMU VELO AIN AR TRES W  DIS CAZ7
 BAR2 SZ EP   1    753 26.01                             171   -0.17 7 22.2 176 
 BAR2 SZ ES   1    753 40.80                             171   -0.81 7 22.2 176 
 BAR2 SZ I         753 43.31        10.7 0.26            176           22.2 176 
 BRR  HZ EP   1    753 27.80                             154    0.34 7 66.7 301 
 BRR  HN ES        753 44.60                             154    0.7110 66.7 301 
 BRR  HZ I         753 49.35         3.0 0.28            153           66.7 301 
 RUS  HZ EP   1    753 30.35                             144    0.08 7  100 173 
 RUS  HN ES   1    753 48.79                             144   -0.11 7  100 173 
 RUS  HZ I         753 49.49         3.1 0.24            150            100 173 
 PTB  HZ EP   1    753 32.92                             134   -0.06 7  142 259 
 PTB  HN ES        753 53.49                             134   -0.22 9  142 259 
 SPBC HZ EP        753 34.91                             130    0.29 9  159 218 
 SPBC HN ES   1    753 56.83                             130    0.19 7  159 218 
 ZAR  HZ EP   1    753 37.98                             123   -0.45 6  199 293 
 ZAR  HN ES        754  3.07                             123   -0.36 9  199 293 
 ZAR  HZ I         754  9.54         2.9 0.24            125            199 293 
                                                                                
