 2012  7 7 0837 14.5 L   6.145 -73.692100.0  RSN  5 0.2 1.7LRSN                1
 GAP=185        0.51       4.4     2.8  6.1  0.3949E+01  0.7405E+01  0.8676E+01E
 Epicentro: LANDAZURI - SANTANDER                                              3
 ACTION:UPD 12-08-14 11:43 OP:ep   STATUS:               ID:20120707083714 L   I
 2012-07-07-0830-00M.COL___201                                                 6
 STAT SP IPHASW D HRMM SECON CODA AMPLIT PERI AZIMU VELO AIN AR TRES W  DIS CAZ7
 RUS  HZ EP   1    837 31.66                             142    -0.1 7   73 112 
 BAR2 SZ EP        837 31.80                             140     0.210   75  49 
 BAR2 SZ ES        837 45.00                             140     0.110   75  49 
 BAR2 SZ I         837 47.04         8.6 0.12            139             75  49 
 PTB  HZ EP        837 32.89                             133    -0.110   95 297 
 PTB  HE ES   1    837 47.54                             133     0.1 7   95 297 
 BRR  HZ EP        837 33.78                             129    -0.210  106 359 
 BRR  HZ I         837 34.32         5.1 0.15            127            106 359 
 BRR  HN ES   1    837 49.08                             129    -0.1 7  106 359 
 ZAR  HZ EP   1    837 44.03                             111     0.4 6  197 319 
 ZAR  HN ES   1    838  6.44                             111     0.0 6  197 319 
 ZAR  HZ I         838 11.12        22.7 0.03            111            197 319 
