 2016 10 7 0244 57.4 L   6.796 -73.146139.4  RSN  6 0.5 1.5LRSN                1
 GAP=183        1.20       4.8     7.6  9.7 -0.1944E+01  0.1291E+02 -0.5395E+01E
 Epicentro: LOS SANTOS - SANTANDER                                             3
 ACTION:UPD 16-11-09 19:17 OP:rebc STATUS:               ID:20161007024457 L   I
 OLDACT:UP  16-10-07 13:57 OP:dnl  STATUS:               ID:20161007023744d    3
 OLDACT:DUP 16-10-07 13:55 OP:dnl  STATUS:               ID:20161007023744d    3
 OLDACT:REG 16-10-07 12:40 OP:dnl  STATUS:               ID:20161007023742     3
 2016-10-07-0238-00M.COL___354                                                 6
 STAT SP IPHASW D HRMM SECON CODA AMPLIT PERI AZIMU VELO AIN AR TRES W  DIS CAZ7
 BAR2 EZ EP        245 16.54                             170    0.2510 22.9 190 
 BAR2 EZ ES        245 30.41                             170   -0.5810 22.9 190 
 BAR2 EZ I         245 32.70        10.3 0.24            170           22.9 190 
 BRR  HZ EP        245 18.48                             151    0.5810 71.3 299 
 BRR  HE ES        245 34.77                             151    0.9010 71.3 299 
 BRR  HZ I         245 39.29         4.7 0.14            151           71.3 299 
 RUS  HZ EP   2    245 20.31                             143   -0.22 5  100 176 
 RUS  HE ES        245 38.54                             143   -0.0010  100 176 
 RUS  HZ I         245 39.80         2.5 0.24            146            100 176 
 PTB  HZ EP        245 23.39                             131   -0.48 9  148 259 
 PTB  HN ES        245 43.84                             131   -0.65 9  148 259 
 PTB  HZ I         245 46.54         5.7 0.18            132            148 259 
 OCA  HZ EP   2    245 25.27                             128   -0.03 5  161 353 
 OCA  HE ES        245 46.56                             128   -0.47 9  161 353 
 SPBC HZ EP   2    245 25.68                             128    0.27 5  163 219 
 SPBC HE ES        245 47.52                             128    0.28 9  163 219 
 SPBC HZ I         245 49.49         3.4 0.14            130            163 219 
                                                                                
