 2017  7 7 0905 13.4 L   6.761 -73.158149.9  RSN  5 0.5 1.5LRSN                1
 GAP=246        1.25       8.0     8.3 10.1  0.1033E+02  0.1520E+02  0.1210E+02E
 Epicentro: LOS SANTOS - SANTANDER                                             3
 ACTION:UPD 17-08-30 15:30 OP:rebc STATUS:               ID:20170707090513 L   I
 OLDACT:REG 17-07-07 13:34 OP:ar   STATUS:               ID:20170707085742     3
 2017-07-07-0858-00M.COL___359                                                 6
 STAT SP IPHASW D HRMM SECON CODA AMPLIT PERI AZIMU VELO AIN AR TRES W  DIS CAZ7
 BAR2 EZ EP        9 5 33.17                             173   -0.2910 18.8 188 
 BAR2 EZ ES        9 5 48.62                             173   -0.4810 18.8 188 
 BAR2 EZ I         9 5 49.46         9.5 0.18            168           18.8 188 
 BRR  HZ EP        9 5 35.28                             153    0.2110 72.2 302 
 BRR  HE ES        9 5 52.77                             153    0.8110 72.2 302 
 PTB  HZ EP        9 5 40.17                             133   -0.36 9  146 260 
 PTB  HN ES        9 6  0.94                             133   -0.74 9  146 260 
 PTB  HZ I         9 6  5.55         1.9 0.26            132            146 260 
 SPBC HZ EP        9 5 42.28                             131    0.44 9  159 220 
 SPBC HE ES        9 6  4.51                             131    0.50 9  159 220 
 SPBC HZ I         9 6  7.36         3.7 0.10            129            159 220 
 ZAR  HN ES        9 6 11.63                             123   -0.10 9  204 293 
                                                                                
