 2014  4 7 0235  4.2 L   6.647 -73.168134.5  RSN  4 0.4 1.4LRSN                1
 GAP=272        0.99       7.5    12.6 12.1 -0.4934E+02 -0.7554E+02  0.5140E+02E
 Epicentro: VILLANUEVA - SANTANDER                                             3
 ACTION:UPD 14-05-13 23:06 OP:nd   STATUS:               ID:20140407023503 L   I
 OLDACT:UP  14-04-08 06:31 OP:CF   STATUS:               ID:20140407023503 L   3
 OLDACT:DUP 14-04-07 16:06 OP:stll STATUS:               ID:20140407022807d    3
 2014-04-07-0228-06M.COL___253                                                 6
 STAT SP IPHASW D HRMM SECON CODA AMPLIT PERI AZIMU VELO AIN AR TRES W  DIS CAZ7
 BRR  HZ EP        235 24.39                             148   -0.1910 78.8 310 
 BRR  HZ I         235 24.66         4.4 0.24            130           78.8 310 
 BRR  HN ES        235 40.75                             148    0.2410 78.8 310 
 PTB  HZ EP        235 29.29                             130   -0.50 9  143 265 
 PTB  HN ES        235 49.84                             130    0.06 9  143 265 
 PTB  HZ I         235 54.13         2.7 0.12            116            143 265 
 SPBC HZ EP        235 31.15                             129    0.72 9  149 222 
 SPBC HN ES        235 50.39                             129   -0.53 9  149 222 
 SPBC HZ I         235 51.13         3.9 0.10            118            149 222 
 NOR  HZ EP        235 38.01                             117   -0.00 8  223 238 
 NOR  HN ES   1    236  4.90                             117    0.48 6  223 238 
 NOR  HZ I         236 12.73         1.8 0.12            108            223 238 
                                                                                
