 2016  6 7 0540 58.4 L   6.760 -73.161143.7  RSN  5 0.5 1.1LRSN                1
 GAP=233        1.34       8.1     9.2 11.1  0.2131E+02  0.1921E+02  0.6218E+01E
 Epicentro: LOS SANTOS - SANTANDER                                             3
 ACTION:UPD 16-07-21 22:16 OP:rebc STATUS:               ID:20160607054058 L   I
 OLDACT:REG 16-06-07 13:12 OP:dani STATUS:               ID:20160607053744     3
 2016-06-07-0537-44M.COL___319                                                 6
 STAT SP IPHASW D HRMM SECON CODA AMPLIT PERI AZIMU VELO AIN AR TRES W  DIS CAZ7
 BAR2 EZ ES        541 32.14                             172   -0.6010 18.7 187 
 BRR  HZ EP        541 18.94                             152   -0.4210 71.9 302 
 BRR  HE ES        541 36.47                             152    0.7510 71.9 302 
 BRR  HZ I         541 42.09         2.3 0.46                          71.9 302 
 RUS  HZ EP        541 21.40                             145   -0.2310 96.3 175 
 RUS  HN ES        541 40.26                             145    0.5010 96.3 175 
 RUS  HZ I         541 40.86         2.1 0.28                          96.3 175 
 PTB  HZ EP        541 25.56                             132    0.60 9  145 260 
 PTB  HN ES        541 45.03                             132   -0.66 9  145 260 
 PTB  HZ I         541 45.48         2.2 0.27                           145 260 
 SPBC HE ES        541 48.14                             129    0.07 9  159 220 
                                                                                
