 2010  5 7 0957 19.7 L   6.681 -72.972144.5  RSN  5 0.4 1.7LRSN                1
 GAP=290        0.60      14.2    15.6 18.4 -0.1408E+03 -0.2086E+03  0.1539E+03E
 Epicentro: ARATOCA - SANTANDER                                                3
 ACTION:UP  10-08-24 10:03 OP:vdl  STATUS:               ID:20100507095719 L   I
 2010-05-07-0955-51S.COL___105                                                 6
 STAT SP IPHASW D HRMM SECON CODA AMPLIT PERI AZIMU VELO SNR AR TRES W  DIS CAZ7
 BRR  HZ EP   2    957 42.50                             145     0.3 5   94 300 
 BRR  HZ I         957 49.19        12.6 0.40                            94 300 
 BRR  HN ES   2    957 59.58                             145    -0.2 5   94 300 
 BRI  SZ EP   2    957 44.55                             139     0.4 5  116  10 
 GUE  SZ EP   2    957 44.98                             136    -0.2 5  127   2 
 GRA  SZ EP   1    957 45.72                             135     0.1 7  134   8 
 GRA  SZ ES   2    958  5.48                             135    -0.3 5  134   8 
 OCA  SZ EP   2    957 48.73                             126    -0.8 4  177 347 
 OCA  SZ ES   2    958 13.25                             126     0.5 4  177 347 
 OCA  SZ I         958 15.88         3.9 0.41                           177 347 
                                                                                
