 2016  7 7 0233  6.7 L   6.797 -73.054143.9  RSN 16 0.4 2.0LRSN                1
 GAP=126        0.95       3.6     3.7  4.6 -0.5267E+01  0.5064E+00  0.4202E+00E
 Epicentro: LOS SANTOS - SANTANDER                                             3
 ACTION:UPD 17-03-29 16:47 OP:lp   STATUS:               ID:20160707023307dL   I
 OLDACT:UP  16-07-07 15:45 OP:dani STATUS:               ID:20160707022745     3
 OLDACT:UP  16-07-07 15:45 OP:dani STATUS:               ID:20160707022745     3
 OLDACT:UP  16-07-07 15:44 OP:dani STATUS:               ID:20160707022745     3
 OLDACT:UP  16-07-07 15:44 OP:dani STATUS:               ID:20160707022745     3
 OLDACT:UP  16-07-07 15:44 OP:dani STATUS:               ID:20160707022745     3
 OLDACT:REG 16-07-07 13:04 OP:dani STATUS:               ID:20160707022745     3
 2016-07-07-0227-45M.COL___328                                                 6
 STAT SP IPHASW D HRMM SECON CODA AMPLIT PERI AZIMU VELO AIN AR TRES W  DIS CAZ7
 BAR2 EZ EP        233 26.32                             169    0.0910 26.7 212 
 BAR2 EZ ES        233 41.48                             169    0.0610 26.7 212 
 BAR2 EZ I         233 42.85        18.2 0.26            165           26.7 212 
 BRR  HZ EP        233 28.11                             149   -0.1410 80.4 295 
 BRR  HN ES        233 45.73                             149    0.7210 80.4 295 
 BRR  HZ I         233 48.41        16.1 0.28            143           80.4 295 
 RUS  HZ EP        233 30.40                             144    0.1210  100 182 
 RUS  HE ES        233 48.52                             144   -0.1110  100 182 
 RUS  HZ I         233 50.46         7.7 0.24            145            100 182 
 PTB  HZ EP   9    233 33.04                             130   -1.44 0  158 260 
 PTB  HN ES        233 54.12                             130   -0.55 9  158 260 
 PTB  HZ I         233 59.87         9.0 0.18            126            158 260 
 SPBC HZ EP        233 35.50                             128   -0.21 9  170 222 
 SPBC HN ES        233 57.65                             128   -0.65 9  170 222 
 SPBC HZ I         234  4.34        23.4 0.34            126            170 222 
 ZAR  HZ EP        233 39.89                             121   -0.18 8  214 291 
 ZAR  HE ES   4    234  4.46                             121   -1.60 0  214 291 
 ZAR  HZ I         234  9.50        10.6 0.34            118            214 291 
 NOR  HZ EP   4    233 40.87                             117   -2.38 0  243 236 
 NOR  HE ES        234 10.86                             117   -0.86 8  243 236 
 NOR  HZ I         234 12.84         7.2 0.28            116            243 236 
 CHI  HN ES        234 14.35                             116    0.19 8  251 197 
 ROSC BZ EP        233 44.73                             116   -0.59 8  258 213 
 ROSC BN ES   4    234 18.52                             116    3.10 0  258 213 
 ROSC BZ I         234 20.59         9.0 0.25            115            258 213 
 HEL  HZ EP        233 48.15                             113    0.19 7  282 256 
 HEL  HN ES   4    234 21.82                             113    1.72 0  282 256 
 HEL  HZ I         234 25.20         5.9 0.32            112            282 256 
 URE  HZ EP   4    233 46.44                             112   -2.36 0  293 291 
 URE  HN ES   4    234 17.89                             112   -3.72 0  293 291 
 URE  HZ I         234 38.11         7.7 0.18            111            293 291 
 SOCV BZ EP        233 49.20                             112    0.43 7  293  56 
 SOCV BE ES        234 21.19                             112   -0.36 7  293  56 
 GUY2CHZ EP        233 51.57                             111    0.37 7  309 236 
 GUY2CHN ES   4    234 28.73                             111    2.86 0  309 236 
 GUY2CHZ I         234 36.73         5.3 0.46                           309 236 
 CBOC HZ EP        233 54.67                             109   -0.02 7  343 253 
 CBOC HE ES        234 32.15                             109    0.07 7  343 253 
 CBOC HZ I         234 41.69         1.3 0.68            108            343 253 
 PRA  HZ EP        234  0.43                             106   -0.34 6  397 211 
 PRA  HE ES        234 43.75                             106    0.84 6  397 211 
 PRA  HZ I         234 46.60         4.3 0.26            106            397 211 
 ORTC HZ EP        234  1.49                             106    0.20 6  401 217 
 ORTC HN ES        234 44.71                             106    0.88 6  401 217 
 ORTC HZ I         234 47.24         2.6 0.50            106            401 217 
                                                                                
