 2017  3 7 0855  4.9 L   6.592 -73.605 16.0  RSN  5 0.4 0.8LRSN                1
 GAP=123        0.83       2.4     2.2  5.2  0.1919E+01  0.5286E+01  0.2937E+00E
 Epicentro: EL CARMEN - SANTANDER                                              3
 ACTION:UPD 17-05-25 18:37 OP:jn   STATUS:               ID:20170307085504 L   I
 OLDACT:REG 17-03-07 12:14 OP:and  STATUS:               ID:20170307084745     3
 2017-03-07-0848-00M.COL___366                                                 6
 STAT SP IPHASW D HRMM SECON CODA AMPLIT PERI AZIMU VELO AIN AR TRES W  DIS CAZ7
 BAR2 EZ EP        855 13.46                             107    0.4210 46.7  90 
 BAR2 EZ ES        855 19.38                             107   -0.0410 46.7  90 
 BAR2 EZ I         855 20.25        11.3 0.24            106           46.7  90 
 BRR  HZ EP        855 14.54                             103    0.0710 58.2 348 
 BRR  HN ES        855 21.74                             103   -0.2310 58.2 348 
 PTB  HZ EP   2    855 19.98                              98    0.09 5 94.4 267 
 PTB  HN ES        855 31.74                              98    0.1310 94.4 267 
 RUS  HN ES        855 32.73                              98   -0.3310 96.5 143 
 RUS  HZ I         855 33.78         1.5 0.22             98           96.5 143 
 ZAR  HZ EP   2    855 31.74                              56    1.32 4  171 306 
 ZAR  HN ES        855 49.97                              56   -0.38 9  171 306 
 ZAR  HZ I         855 50.41         1.2 0.20             56            171 306 
                                                                                
