 2012  8 7 0506 27.5 L   6.768 -73.136152.0  RSN  5 0.1 1.4LRSN                1
 GAP=139        0.30       2.3     3.2  3.5  0.2510E+01 -0.3929E+01 -0.7320E+00E
 Epicentro: LOS SANTOS - SANTANDER                                             3
 ACTION:UPD 12-09-10 11:55 OP:ep   STATUS:               ID:20120807050627 L   I
 2012-08-07-0500-00M.COL___216                                                 6
 STAT SP IPHASW D HRMM SECON CODA AMPLIT PERI AZIMU VELO AIN AR TRES W  DIS CAZ7
 BAR2 SZ EP   1    5 6 47.92                             172    0.13 7 20.1 195 
 BAR2 SZ I         5 7  5.37         5.2 0.25                          20.1 195 
 BRR  HZ EP        5 6 49.47                             153    0.0310 73.9 301 
 BRR  HZ I         5 6 49.84         6.0 0.28                          73.9 301 
 BRR  HN ES        5 7  6.58                             153    0.0010 73.9 301 
 PAM  SZ EP        5 6 50.42                             151   -0.0510 79.5  37 
 RUS  HZ EP        5 6 51.60                             146    0.0110 97.0 177 
 RUS  HE ES   1    5 7 10.34                             146   -0.05 7 97.0 177 
 PTB  HZ EP   1    5 6 54.92                             133   -0.07 7  148 260 
 PTB  HZ I         5 7 21.63         2.7 0.42                           148 260 
                                                                                
