 2010  7 7 0249  3.5 L   7.116 -73.322117.8  RSN  6 0.3 1.5LRSN                1
 GAP=124        0.63       3.3     6.6  7.6 -0.4758E+01 -0.4727E+01  0.5269E+00E
 Epicentro: LEBRIJA - SANTANDER                                                3
 ACTION:UPD 10-12-01 15:15 OP:pat  STATUS:               ID:20100707024903 L   I
 2010-07-07-0244-46S.COL___118                                                 6
 STAT SP IPHASW D HRMM SECON CODA AMPLIT PERI AZIMU VELO AIN AR TRES W  DIS CAZ7
 BRR  HZ IP     C  249 20.16                             159     0.010   43 269 
 BRR  HZ I         249 20.37        19.9 0.12                            43 269 
 BRR  HN ES   2    249 33.37                             159     0.2 5   43 269 
 BAR2 SZ IP     D  249 21.75                             151     0.410   60 165 
 BAR2 SZ ES   2    249 34.91                             151    -0.4 5   60 165 
 BRI  SZ EP   1    249 23.34                             141     0.1 7   88  41 
 BRI  SZ ES   2    249 39.09                             141     0.5 5   88  41 
 GRA  SZ EP   1    249 24.59                             136     0.2 7  102  34 
 GRA  SZ ES   2    249 40.04                             136    -0.6 5  102  34 
 OCA  SZ EP   1    249 25.97                             130    -0.3 7  124   0 
 OCA  SZ ES   2    249 43.73                             130    -0.3 5  124   0 
 RUS  HZ EP   1    249 27.78                             127    -0.3 7  138 169 
 RUS  HN ES   2    249 46.70                             127    -0.5 5  138 169 
 RUS  HZ I         249 49.88         2.3 0.38                           138 169 
                                                                                
