 2012 11 7 0954 24.5 L   6.755 -73.038146.1  RSN  4 0.2 1.6LRSN                1
 GAP=209        0.58       6.1    12.1  6.1  0.5481E+02 -0.3282E+02 -0.1745E+02E
 Epicentro: ARATOCA - SANTANDER                                                3
 ACTION:UPD 12-12-05 15:31 OP:}ep  STATUS:               ID:20121107095424 L   I
 2012-11-07-0950-00M.COL___230                                                 6
 STAT SP IPHASW D HRMM SECON CODA AMPLIT PERI AZIMU VELO AIN AR TRES W  DIS CAZ7
 BAR2 SZ EP        954 44.10                             170   -0.1110 24.1 222 
 BAR2 SZ ES        954 59.33                             170   -0.2310 24.1 222 
 BAR2 SZ I         955  0.80        12.4 0.30                          24.1 222 
 GIR2 SZ EP        954 44.78                             164    0.2910 39.7 334 
 BRR  HZ EP        954 46.21                             148   -0.2710 84.0 298 
 BRR  HN ES   1    955  3.89                             148    0.29 7 84.0 298 
 BRR  HN I         955  4.27        13.0 0.30                          84.0 298 
 RUS  HZ EP        954 48.00                             145    0.0510 95.5 183 
 RUS  HZ I         954 49.18         3.2 0.46                          95.5 183 
 RUS  HN ES        955  6.31                             145    0.1010 95.5 183 
                                                                                
