 2016  5 7 0400 47.8 L   6.790 -73.122144.3  RSN 17 0.5 2.0LRSN                1
 GAP=122        0.95       2.4     3.2  4.7 -0.1047E+01  0.3644E+01  0.1871E+01E
 Epicentro: LOS SANTOS - SANTANDER                                             3
 ACTION:UPD 16-08-18 17:42 OP:cam  STATUS:               ID:20160507040047 L   I
 OLDACT:DUP 16-05-07 17:15 OP:ak   STATUS:               ID:20160507035751d    3
 2016-05-07-0357-50M.COL___291                                                 6
 STAT SP IPHASW D HRMM SECON CODA AMPLIT PERI AZIMU VELO AIN AR TRES W  DIS CAZ7
 BAR2 EZ IP     C  4 1  7.28                             171    0.0210 22.8 197 
 BAR2 EZ ES        4 1 22.25                             171   -0.1810 22.8 197 
 BAR2 EZ I         4 1 23.56        34.1 0.14            167           22.8 197 
 BRR  HZ IP     C  4 1  9.13                             151    0.1610 74.1 298 
 BRR  HN ES        4 1 25.83                             151    0.3510 74.1 298 
 BRR  HZ I         4 1 26.79        14.2 0.32            152           74.1 298 
 PAM  EZ EP        4 1 10.19                             151    0.3610 76.6  37 
 PAM  EN ES        4 1 26.78                             151   -0.2210 76.6  37 
 PAM  EZ I         4 1 27.81        11.1 0.30            155           76.6  37 
 RUS  HZ EP        4 1 11.22                             144   -0.1110 99.3 178 
 RUS  HN ES        4 1 29.85                             144    0.1810 99.3 178 
 RUS  HZ I         4 1 35.44         6.1 0.20            143           99.3 178 
 PTB  HZ EP   2    4 1 13.97                             131   -0.91 5  150 259 
 PTB  HN ES        4 1 35.22                             131   -0.77 9  150 259 
 PTB  HZ I         4 1 37.34        15.7 0.16            131            150 259 
 OCA  HZ EP        4 1 16.44                             129    0.29 9  162 352 
 OCA  HN ES        4 1 38.26                             129    0.00 9  162 352 
 OCA  HZ I         4 1 42.01        18.8 0.20            132            162 352 
 SPBC HZ EP        4 1 16.25                             129   -0.02 9  164 220 
 SPBC HN ES        4 1 38.80                             129    0.32 9  164 220 
 SPBC HZ I         4 1 44.56        12.1 0.13            128            164 220 
 ZAR  HZ EP   2    4 1 20.19                             122   -0.27 4  207 292 
 ZAR  HN ES        4 1 46.44                             122    0.51 8  207 292 
 ZAR  HZ I         4 1 51.30        14.7 0.41            123            207 292 
 NOR  HZ EP        4 1 23.26                             118   -0.36 8  236 235 
 NOR  HN ES        4 1 51.24                             118   -0.31 8  236 235 
 NOR  HZ I         4 1 54.30         9.3 0.16            118            236 235 
 SML  HZ EP   2    4 1 25.21                             117    0.62 4  246 335 
 SML  HE ES        4 1 52.55                             117   -0.73 8  246 335 
 CHI  HZ EP   2    4 1 24.92                             117   -0.46 4  248 196 
 CHI  HN ES        4 1 55.02                             117    0.33 8  248 196 
 CHI  HZ I         4 2  2.10         4.0 0.26            117            248 196 
 ROSC BZ EP   4    4 1 27.49                             116    1.60 0  253 212 
 ROSC BN ES   4    4 1 58.67                             116    3.07 0  253 212 
 ROSC BZ I         4 2  7.44         7.6 0.50            117            253 212 
 HEL  HZ EP        4 1 29.19                             114    0.99 8  274 256 
 HEL  HN ES        4 2  0.08                             114    0.37 8  274 256 
 HEL  HZ I         4 2  5.69         5.0 0.60            115            274 256 
 URE  HE ES   4    4 1 59.52                             113   -1.85 0  287 292 
 PTGC HZ EP        4 1 30.53                             111   -0.84 7  307 159 
 PTGC HE ES   4    4 2  3.49                             111   -1.86 0  307 159 
 CBOC HZ EP   2    4 1 35.29                             109    0.38 3  336 252 
 CBOC HE ES        4 2 10.76                             109   -0.90 7  336 252 
 PRA  HZ EP        4 1 41.26                             106   -0.06 6  392 210 
 PRA  HN ES        4 2 23.05                             106   -0.00 6  392 210 
 PRA  HZ I         4 2 30.07         6.4 0.24            107            392 210 
 ORTC HN ES        4 2 24.36                             106    0.53 6  396 217 
                                                                                
