 2012  1 7 0828 51.9 L   6.766 -73.091152.8  RSN  5 0.2 1.5LRSN                1
 GAP=145        0.51       4.6     4.2  6.3 -0.1953E+01  0.2059E+01  0.9150E+01E
 Epicentro: LOS SANTOS - SANTANDER                                             3
 ACTION:UP  12-02-03 08:15 OP:REBC STATUS:               ID:20120107082851 L   I
 2012-01-07-0820-00M.COL___186                                                 6
 STAT SP IPHASW D HRMM SECON CODA AMPLIT PERI AZIMU VELO SNR AR TRES W  DIS CAZ7
 BAR2 SZ EP        829 12.26                             172    -0.110   22 208 
 BAR2 SZ I         829 12.61         4.7 0.22                            22 208 
 PAM  SZ EP   1    829 14.72                             152    -0.1 7   77  34 
 PAM  SN ES   1    829 32.66                             152    -0.1 7   77  34 
 BRR  HZ EP        829 14.32                             151     0.110   78 299 
 BRR  HZ I         829 14.76         7.9 0.10                            78 299 
 BRR  HE ES   1    829 31.87                             151     0.2 7   78 299 
 RUS  HZ EP   1    829 16.22                             146     0.1 7   97 180 
 RUS  HN ES   2    829 35.03                             146     0.1 5   97 180 
 RUS  HZ I         829 37.95         3.6 0.55                            97 180 
 PTB  HZ EP   1    829 20.06                             132     0.1 7  153 261 
 PTB  HE ES   2    829 41.06                             132    -0.7 5  153 261 
                                                                                
