 2014  4 7 0844 52.3 L   6.819 -73.176144.8  RSN  6 0.4 1.7LRSN                1
 GAP=180        1.05       3.7     6.8 11.5 -0.2518E+00  0.1054E+02 -0.1418E+02E
 Epicentro: LOS SANTOS - SANTANDER                                             3
 ACTION:UPD 14-05-13 23:06 OP:nd   STATUS:               ID:20140407084452 L   I
 OLDACT:REG 14-04-07 12:55 OP:stll STATUS:               ID:20140407083806     3
 2014-04-07-0838-06M.COL___250                                                 6
 STAT SP IPHASW D HRMM SECON CODA AMPLIT PERI AZIMU VELO AIN AR TRES W  DIS CAZ7
 RUS  HN ES        845 34.45                             143   -0.2910  103 174 
 PTB  HZ EP        845 18.92                             132   -0.04 9  145 258 
 PTB  HN ES        845 38.98                             132   -0.75 9  145 258 
 PTB  HZ I         845 45.57         4.2 0.44            132            145 258 
 OCA  HN ES        845 42.59                             130    0.42 9  158 354 
 SPBC HZ EP        845 20.94                             129    0.23 9  163 218 
 SPBC HE ES        845 43.52                             129    0.67 9  163 218 
 SPBC HZ I         845 50.87         4.7 0.22            130            163 218 
 ZAR  HN ES        845 49.63                             123    0.38 9  200 292 
 SML  HZ EP        845 28.08                             117   -0.46 8  240 336 
 SML  HN ES        845 56.61                             117   -0.17 8  240 336 
 SML  HZ I         846  3.52         5.4 0.26            120            240 336 
                                                                                
