 2012  1 7 0841 32.3 L   6.865 -73.279122.7  RSN  7 0.2 2.0LRSN                1
 GAP=110        0.53       3.5     3.7  4.6  0.3655E+01  0.4254E+01  0.1456E+01E
 Epicentro: ZAPATOCA - SANTANDER                                               3
 ACTION:UP  12-02-03 08:15 OP:REBC STATUS:               ID:20120107084132 L   I
 2012-01-07-0840-00M.COL___186                                                 6
 STAT SP IPHASW D HRMM SECON CODA AMPLIT PERI AZIMU VELO SNR AR TRES W  DIS CAZ7
 GIR2 SZ EP   1    841 49.10                             168     0.0 7   25  22 
 GIR2 SZ ES   1    842  1.94                             168    -0.3 7   25  22 
 BAR2 SZ EP   1    841 49.61                             165     0.2 7   32 161 
 BAR2 SZ ES   1    842  2.63                             165    -0.2 7   32 161 
 BAR2 SZ I         842  4.01        52.7 0.38                            32 161 
 BRR  HZ EP   1    841 49.97                             154    -0.1 7   55 299 
 BRR  HE ES   1    842  4.28                             154     0.4 7   55 299 
 BRR  HZ I         842  5.43        23.9 0.12                            55 299 
 PAM  SZ EP   2    841 52.87                             144     0.3 5   83  51 
 PAM  SN ES   2    842  8.21                             144    -0.1 5   83  51 
 RUS  HZ EP   1    841 54.37                             136    -0.3 7  110 169 
 RUS  HE ES   1    842 12.43                             136     0.4 7  110 169 
 PTB  HN ES   2    842 14.64                             129    -0.4 5  135 255 
 ZAR  HZ EP   1    842  1.55                             119    -0.1 7  188 292 
 ZAR  HN ES   2    842 24.82                             119     0.3 4  188 292 
 ZAR  HZ I         842 28.60         6.2 0.13                           188 292 
                                                                                
