 2010  9 7 0909 46.0 L   6.812 -73.051143.1  RSN 12 0.4 2.1LRSN                1
 GAP=169        0.91       3.5     8.1  6.9 -0.1075E+02  0.1259E+02 -0.9135E+00E
 Epicentro: LOS SANTOS - SANTANDER                                             3
 ACTION:UP  11-02-18 11:00 OP:tino STATUS:               ID:20100907090946 L   I
 2010-09-07-0908-51S.COL___120                                                 6
 STAT SP IPHASW D HRMM SECON CODA AMPLIT PERI AZIMU VELO SNR AR TRES W  DIS CAZ7
 BAR2 SZ EP        910  5.40                             168     0.010   28 211 
 BAR2 SZ ES   1    910 20.46                             168    -0.1 7   28 211 
 GIR2 SZ EP   1    910  4.45                             166    -0.9 7   33 332 
 BRR  HZ EP   1    910  7.21                             149    -0.2 7   80 294 
 BRR  HZ I         910  7.38        52.0 0.15                            80 294 
 BRR  HN ES   2    910 24.25                             149     0.2 5   80 294 
 RUS  HZ EP   1    910  9.45                             143    -0.1 7  102 182 
 RUS  HN ES   1    910 28.18                             143     0.2 7  102 182 
 RUS  HZ I         910 29.15         7.8 0.05                           102 182 
 GUE  SZ EP        910 10.40                             139     0.210  113   7 
 GUE  SZ I         910 17.49         6.6 0.06                           113   7 
 GRA  SZ IP        910 11.27                             137     0.610  122  13 
 GRA  SZ ES   1    910 30.04                             137     0.2 7  122  13 
 GRA  SZ I         910 31.69        24.3 0.43                           122  13 
 OCA  SZ EP        910 13.90                             129    -0.2 9  161 349 
 OCA  SZ ES   1    910 35.48                             129    -0.6 7  161 349 
 OCA  SZ I         910 40.61        16.9 0.39                           161 349 
 CHI  HZ EP   1    910 23.76                             116    -0.2 6  253 197 
 CHI  HE ES   1    910 53.48                             116    -0.2 6  253 197 
 CHI  HZ I         910 57.34         6.3 0.51                           253 197 
 HEL  HZ EP   2    910 26.88                             113    -0.3 4  283 256 
 HEL  HE ES   2    911  0.40                             113     1.0 4  283 256 
 HEL  HZ I         911  4.71        12.8 0.32                           283 256 
 GUY  SZ EP   1    910 30.64                             111     0.1 5  311 236 
 RREF HZ EP   1    910 33.43                             110     0.4 5  331 230 
 RREF HZ I         911 14.49         4.9 0.27                           331 230 
 PRA  HZ EP   1    910 40.18                             106     0.0 4  398 211 
 PRA  HZ I         911 28.21         8.4 0.24                           398 211 
                                                                                
