 2013  7 7 0227  3.2 L   6.760 -72.884  4.0  RSN  9 0.7 2.3LRSN                1
 GAP=102        1.74       4.0     4.0 10.3  0.6436E+00 -0.5584E+01 -0.8535E+01E
 Epicentro: SAN ANDRES - SANTANDER                                             3
 ACTION:UPD 13-08-12 10:36 OP:ep   STATUS:               ID:20130707022703 L   I
 OLDACT:UP  13-08-08 09:42 OP:ep   STATUS:               ID:20130707022703 L   3
 OLDACT:UP  13-07-08 05:43 OP:CF   STATUS:               ID:20130707022703 L   3
 OLDACT:REG 13-07-07 07:43 OP:stll STATUS:               ID:20130707021847     3
 2013-07-07-0218-47M.COL___224                                                 6
 STAT SP IPHASW D HRMM SECON CODA AMPLIT PERI AZIMU VELO AIN AR TRES W  DIS CAZ7
 BAR2 SZ IP     C  227  9.19                              47   -0.5910 37.9 241 
 BAR2 SZ ES   1    227 14.34                              47   -0.57 7 37.9 241 
 BAR2 SZ I         227 14.90        92.4 0.14             47           37.9 241 
 GIR2 SZ IP        227 10.95                              47   -0.4310 49.1 316 
 PAM  SZ EP   4    227 13.10                              47   -1.38 0 67.2  18 
 PAM  SN ES   4    227 20.70                              47   -2.58 0 67.2  18 
 PAM  SN I         227 23.40        61.2 0.18             47           67.2  18 
 RUS  HZ EP        227 18.42                              47   -0.8010 98.5 193 
 RUS  HN ES   4    227 29.77                              47   -1.95 0 98.5 193 
 BRR  HZ EP        227 19.84                              47    1.0110 99.2 293 
 BRR  HN ES   4    227 32.71                              47    1.70 0 99.2 293 
 BRR  HN I         227 33.28       106.4 0.32             47           99.2 293 
 GRA  SZ EP        227 22.42                              47   -0.4210  125   4 
 GRA  SZ ES        227 37.12                              47   -1.0410  125   4 
 TAM  HZ EP        227 23.92                              47    0.9810  126 106 
 TAM  HN ES        227 38.42                              47    0.0910  126 106 
 CAPV BZ EP   4    227 27.44                              47    2.60 0  137  27 
 OCA  HZ EP        227 30.07                              47    0.29 9  170 344 
 OCA  HN ES        227 51.15                              47    0.65 9  170 344 
 OCA  HN I         227 55.40       155.2 0.26             47            170 344 
 PTB  HZ EP   1    227 31.23                              47    0.82 7  176 262 
 PTB  HE ES   1    227 52.47                              47    0.83 7  176 262 
 PTB  HE I         227 55.07        39.9 0.46             47            176 262 
 NOR  HZ EP   4    227 42.94                              37    2.35 0  257 239 
 NOR  HN ES   4    228 12.46                              37    2.72 0  257 239 
 SML  HZ EP   4    227 43.97                              37    2.90 0  261 330 
 SML  HE ES   4    228 14.27                              37    3.67 0  261 330 
                                                                                
