 2015  2 7 0333 17.4 L   6.805 -73.142145.7  RSN 26 0.7 2.9LRSN                1
 GAP= 54        1.86       4.2     4.6  7.8 -0.3156E+01  0.1029E+02  0.6778E+01E
 Epicentro: LOS SANTOS - SANTANDER                                             3
 ACTION:UPD 15-04-30 21:23 OP:nd   STATUS:               ID:20150207033317 L   I
 OLDACT:REG 15-02-07 12:33 OP:stll STATUS:               ID:20150207032747     3
 2015-02-07-0327-47M.COL___287                                                 6
 STAT SP IPHASW D HRMM SECON CODA AMPLIT PERI AZIMU VELO AIN AR TRES W  DIS CAZ7
 BAR2 EZ IP     C  333 37.30                             170    0.2910 24.0 191 
 BAR2 EZ ES        333 52.14                             170   -0.1910 24.0 191 
 BAR2 EZ I         333 53.62       300.5 0.18            167           24.0 191 
 BRR  HZ IP     D  333 39.13                             152    0.6010 71.3 298 
 BRR  HN ES        333 55.81                             152    0.7910 71.3 298 
 BRR  HZ I         333 56.95       103.3 0.42            147           71.3 298 
 PAM  SZ IP     D  333 40.08                             151    0.5410 76.7  40 
 PAM  SZ I         333 40.36       205.0 0.22            153           76.7  40 
 PAM  SN ES        333 57.00                             151    0.1610 76.7  40 
 RUS  HZ IP     C  333 41.29                             143    0.1310  101 176 
 RUS  HN ES        333 59.41                             143   -0.3010  101 176 
 RUS  HZ I         334  1.08        99.7 0.34            142            101 176 
 PTB  HZ EP        333 43.82                             131   -0.57 9  148 259 
 PTB  HN ES        334  4.79                             131   -0.67 9  148 259 
 PTB  HZ I         334 12.34        85.4 0.44            128            148 259 
 TAM  HZ EP        333 45.57                             130    0.55 9  155 105 
 TAM  HZ I         333 45.70        97.5 0.20            132            155 105 
 TAM  HN ES        334  6.52                             130   -0.07 9  155 105 
 OCA  HZ EP        333 44.61                             129   -1.03 9  160 353 
 OCA  HN ES        334  7.09                             129   -0.59 9  160 353 
 OCA  HZ I         334 10.37        99.5 0.22            128            160 353 
 SPBC HZ EP     C  333 46.03                             128    0.09 9  164 219 
 SPBC HN ES        334  8.25                             128    0.03 9  164 219 
 SPBC HZ I         334 13.74       118.6 0.44            126            164 219 
 NOR  HZ EP        333 53.21                             118    0.03 8  235 234 
 NOR  HN ES        334 21.08                             118   -0.02 8  235 234 
 NOR  HZ I         334 28.02        64.6 0.16            116            235 234 
 SML  HZ EP        333 53.64                             117   -0.32 8  243 335 
 SML  HN ES        334 21.73                             117   -0.77 8  243 335 
 SML  HZ I         334 24.31        55.5 0.40            116            243 335 
 CHI  HZ EP        333 55.22                             117    0.08 8  249 195 
 CHI  HN ES        334 24.60                             117   -0.00 8  249 195 
 CHI  HZ I         334 31.66        34.2 0.46            115            249 195 
 ROSC BZ EP        333 56.82                             116    1.25 8  253 211 
 ROSC BE ES        334 26.17                             116    0.81 8  253 211 
 ROSC BZ I         334 33.04        76.3 0.40            115            253 211 
 HEL  HZ EP        333 58.05                             114    0.40 8  273 256 
 HEL  HN ES        334 28.67                             114   -0.39 8  273 256 
 HEL  HZ I         334 37.14        32.2 0.34            112            273 256 
 SOCV BZ EP   9    333 59.93                             112   -0.42 0  301  57 
 SOCV BN ES        334 31.30                                   -2.15 7  301  57 
 GUY2CHZ EP        334  1.40                             112    0.34 7  302 235 
 GUY2CHN ES        334 34.69                             112   -0.44 7  302 235 
 GUY2CHZ I         334 43.71        57.6 0.28                           302 235 
 PTGC HZ EP     C  334  0.29                             111   -0.98 7  309 159 
 PTGC HZ I         334  0.93        71.8 0.16            111            309 159 
 PTGC HN ES        334 33.06                             111   -2.45 7  309 159 
 RREF HZ EP        334  5.32                             110    1.72 7  322 229 
 RREF HE ES        334 40.43                             110    0.79 7  322 229 
 RREF HZ I         334 49.47        38.9 0.24            109            322 229 
 CBOC HZ EP        334  4.93                             109    0.57 7  334 252 
 CBOC HN ES        334 40.25                             109   -0.75 7  334 252 
 CBOC HZ I         334 50.81        13.1 0.48            108            334 252 
 DBB  SZ EP        334  4.82                             109   -0.07 7  340 274 
 DBB  SZ I         334 43.90        62.0 0.58            108            340 274 
 TOL  SZ EP        334  6.79                             109    1.08 7  344 225 
 TOL  SN ES        334 43.27                             109   -0.14 7  344 225 
 TOL  SZ I         334 53.85        35.8 0.40            108            344 225 
 ANIL HZ EP        334  7.66                             108    0.40 6  358 225 
 ANIL HN ES        334 45.80                             108   -0.37 6  358 225 
 SDV  BZ EP   9    334  6.82                             108   -0.51 0  360  50 
 SDV  BE ES        334 43.44                                   -2.35 6  360  50 
 ORTC HZ EP        334 11.35                             106   -0.03 6  396 216 
 ORTC HE ES        334 52.79                             106   -0.71 6  396 216 
 ORTC HZ I         335  1.32        27.8 0.42            105            396 216 
 ELOV BZ IP   9 D  334 11.41                             106   -0.93 0  405  87 
 ELOV BE ES        334 52.26                                   -2.02 6  405  87 
 PAL  HZ EP        334 12.99                             106    0.38 6  406 239 
 PAL  HN ES        334 54.64                             106   -1.05 6  406 239 
 CRJC HZ EP   9    334 17.53                             103   -2.27 0  467   3 
 CRJC HE ES        335  2.58                                   -3.64 5  467   3 
 CRJC HZ I         335  9.96        11.9 0.18            103            467   3 
                                                                                
