 2017  6 7 0750 32.5 L   6.773 -73.149152.0  RSN  7 0.4 1.5LRSN                1
 GAP=235        0.86       5.0     5.0  6.9  0.2695E+01  0.5011E+01  0.4206E+01E
 Epicentro: LOS SANTOS - SANTANDER                                             3
 ACTION:UPD 17-09-14 16:50 OP:jn   STATUS:               ID:20170607075032 L   I
 OLDACT:UP  17-06-07 17:01 OP:edw  STATUS:               ID:20170607074733     3
 OLDACT:UP  17-06-07 17:00 OP:edw  STATUS:               ID:20170607074733     3
 OLDACT:REG 17-06-07 12:17 OP:edw  STATUS:               ID:20170607074733     3
 2017-06-07-0748-00M.COL___356                                                 6
 STAT SP IPHASW D HRMM SECON CODA AMPLIT PERI AZIMU VELO AIN AR TRES W  DIS CAZ7
 BRR  HZ EP     C  750 54.46                             153    0.0910 72.3 301 
 BRR  HN ES        751 11.79                             153    0.3410 72.3 301 
 BRR  HZ I         751 14.93         4.1 0.18            150           72.3 301 
 RUS  HZ EP        750 56.47                             146   -0.1810 97.6 176 
 RUS  HE ES        751 15.56                             146    0.0610 97.6 176 
 RUS  HZ I         751 18.04         1.9 0.42            147           97.6 176 
 PTB  HZ EP        750 59.55                             134   -0.33 9  147 260 
 PTB  HN ES        751 20.58                             134   -0.68 9  147 260 
 SPBC HZ EP        751  1.67                             131    0.44 9  161 220 
 SPBC HN ES        751 23.42                             131   -0.23 9  161 220 
 SPBC HZ I         751 26.05         6.1 0.42            130            161 220 
 ZAR  HZ EP   4    751  1.50                             124   -3.92 0  205 293 
 ZAR  HN ES   4    751 29.66                             124   -1.46 0  205 293 
 ZAR  HZ I         751 37.08         4.6 0.34            123            205 293 
 NOR  HZ EP        751  8.22                             120   -0.14 8  233 235 
 NOR  HN ES        751 36.84                             120    0.48 8  233 235 
 NOR  HZ I         751 43.84         2.5 0.14            120            233 235 
 CBOC HZ EP   4    751 20.65                             111    1.13 0  332 253 
 CBOC HE ES        751 56.58                             111    0.38 7  332 253 
 CBOC HZ I         752  4.84         0.7 0.34            111            332 253 
                                                                                
