 2015  2 7 0714 37.1 L   6.750 -73.146153.2  RSN  4 0.4 1.1LRSN                1
 GAP=234        0.92       5.8     7.0  8.4  0.1223E+02 -0.4013E+01  0.3797E+00E
 Epicentro: LOS SANTOS - SANTANDER                                             3
 ACTION:UPD 15-04-30 21:23 OP:nd   STATUS:               ID:20150207071437 L   I
 OLDACT:REG 15-02-07 12:40 OP:stll STATUS:               ID:20150207070740     3
 2015-02-07-0707-40M.COL___290                                                 6
 STAT SP IPHASW D HRMM SECON CODA AMPLIT PERI AZIMU VELO AIN AR TRES W  DIS CAZ7
 BRR  HZ EP        714 59.35                             153    0.1110 74.0 302 
 BRR  HN ES        715 16.68                             153    0.1910 74.0 302 
 RUS  HZ EP        715  1.66                             147    0.4110 95.1 176 
 RUS  HN ES        715 19.59                             147   -0.4610 95.1 176 
 RUS  HZ I         715 23.11         1.1 0.42            146           95.1 176 
 PTB  HZ EP        715  4.29                             134   -0.34 9  147 261 
 PTB  HN ES        715 25.78                             134   -0.30 9  147 261 
 PTB  HZ I         715 27.79         2.5 0.12            134            147 261 
 SPBC HZ EP        715  5.60                             131   -0.22 9  159 220 
 SPBC HN ES        715 28.79                             131    0.59 9  159 220 
 SPBC HZ I         715 31.71         1.6 0.34            131            159 220 
                                                                                
