 2010 10 7 0250 19.3 L   6.774 -73.083145.8  RSN 14 0.5 2.4LRSN                1
 GAP=183        0.91       4.2     7.1  6.8 -0.1851E+02 -0.9597E+00  0.8616E+01E
 Epicentro: LOS SANTOS - SANTANDER                                             3
 ACTION:UP  11-02-18 11:08 OP:tino STATUS:               ID:20101007025019 L   I
 2010-10-07-0248-34S.COL___122                                                 6
 STAT SP IPHASW D HRMM SECON CODA AMPLIT PERI AZIMU VELO SNR AR TRES W  DIS CAZ7
 BAR2 SZ EP   1    250 38.79                             171    -0.1 7   23 209 
 BAR2 SZ ES   1    250 54.18                             171    -0.1 7   23 209 
 BAR2 SZ I         250 55.60        97.7 0.17                            23 209 
 BRR  HZ IP     C  250 40.79                             150    -0.110   79 298 
 BRR  HZ I         250 41.03        96.1 0.15                            79 298 
 BRR  HE ES   1    250 57.81                             150     0.1 7   79 298 
 GUE  SZ EP   1    250 43.81                             139    -0.3 7  118   9 
 GRA  SZ IP        250 44.70                             137     0.110  127  14 
 GRA  SZ ES   1    251  4.42                             137     0.1 7  127  14 
 GRA  SZ I         251  5.58        23.6 0.38                           127  14 
 OCA  SZ EP   1    250 47.23                             129    -0.7 7  164 351 
 OCA  SZ ES   1    251 11.06                             129     0.7 7  164 351 
 OCA  SZ I         251 14.03        41.2 0.26                           164 351 
 NOR  SZ EP   2    250 54.73                             118    -0.7 4  239 236 
 NOR  SN ES        251 23.26                             118    -0.4 8  239 236 
 CHI  HZ EP   1    250 56.85                             117    -0.1 6  248 197 
 CHI  HN ES   1    251 25.73                             117    -0.5 6  248 197 
 CHI  HZ I         251 34.34        14.9 0.50                           248 197 
 ROSC BZ EP   1    250 57.98                             116     0.4 6  254 213 
 ROSC BE ES   2    251 28.29                             116     0.9 4  254 213 
 ROSC BZ I         251 32.15        12.6 0.62                           254 213 
 CVER SZ EP   2    251  1.12                             115     1.5 4  272 204 
 CVER SZ I         251 39.47        17.2 0.42                           272 204 
 HEL  HZ EP   1    251  0.07                             114    -0.1 6  278 257 
 HEL  HZ I         251 36.94        13.9 0.77                           278 257 
 RREF HZ EP   1    251  6.12                             111     0.3 5  325 231 
 RREF HE ES   1    251 42.50                             111     0.4 5  325 231 
 RREF HZ I         251 50.81        14.3 0.50                           325 231 
 TOL  SZ EP   1    251  8.93                             109     1.0 5  346 226 
 DBB  SZ EP   2    251  7.20                             109    -0.4 3  347 275 
 DBB  SZ I         251 45.04         4.2 0.13                           347 275 
 PRA  HZ EP   1    251 12.57                             106    -0.4 4  393 211 
 PRA  HE ES   1    251 54.88                             106     0.1 4  393 211 
                                                                                
