 2014 12 7 0704 26.8 L   6.821 -73.118148.2  RSN 12 0.4 1.7LRSN                1
 GAP= 72        0.90       2.9     2.9  5.0 -0.5691E+00  0.2804E+01  0.1037E+01E
 Epicentro: LOS SANTOS - SANTANDER                                             3
 ACTION:UPD 15-02-10 17:01 OP:nd   STATUS:               ID:20141207070426 L   I
 OLDACT:DUP 14-12-07 18:30 OP:spq  STATUS:               ID:20141207065744d    3
 2014-12-07-0657-41M.COL___312                                                 6
 STAT SP IPHASW D HRMM SECON CODA AMPLIT PERI AZIMU VELO AIN AR TRES W  DIS CAZ7
 BAR2 SZ EP   1    7 4 45.90                             169   -0.90 7 26.3 196 
 BAR2 SZ ES   1    7 5  1.93                             169   -0.45 7 26.3 196 
 BAR2 SZ I         7 5  4.57        11.5 0.36            169           26.3 196 
 BRR  HZ EP        7 4 48.61                             152    0.3010 72.8 296 
 BRR  HN ES        7 5  5.45                             152    0.3710 72.8 296 
 BRR  HZ I         7 5  8.05         4.4 0.32            153           72.8 296 
 PAM  SZ EP        7 4 49.44                             152    0.3710 73.6  39 
 PAM  SE ES        7 5  6.38                             152   -0.0510 73.6  39 
 PAM  SZ I         7 5  8.94         6.8 0.60            155           73.6  39 
 RUS  HZ EP        7 4 50.65                             144   -0.3110  103 178 
 RUS  HN ES        7 5  9.53                             144   -0.2710  103 178 
 RUS  HZ I         7 5 11.17         4.4 0.34            145            103 178 
 PTB  HZ EP        7 4 53.67                             132   -0.62 9  151 258 
 PTB  HE ES   1    7 5 15.39                             132   -0.33 7  151 258 
 PTB  HZ I         7 5 21.84         5.4 0.50            133            151 258 
 TAM  HZ EP        7 4 54.93                             131    0.45 9  153 106 
 TAM  HN ES   1    7 5 16.41                             131    0.36 7  153 106 
 TAM  HZ I         7 5 22.53         4.6 0.54            135            153 106 
 SPBC HZ EP        7 4 55.67                             129   -0.18 9  167 219 
 SPBC HN ES        7 5 19.10                             129    0.60 9  167 219 
 SPBC HZ I         7 5 25.09         6.9 0.38            130            167 219 
 ZAR  HZ EP   1    7 4 59.38                             123   -0.24 6  206 291 
 ZAR  HN ES        7 5 25.35                             123    0.15 8  206 291 
 ZAR  HZ I         7 5 31.24         5.1 0.42            124            206 291 
 NOR  HZ EP        7 5  3.38                             118    0.28 8  239 234 
 NOR  HN ES        7 5 31.55                             118    0.16 8  239 234 
 NOR  HZ I         7 5 35.88         4.6 0.54            120            239 234 
 SML  HZ EP        7 5  3.57                             118    0.09 8  243 334 
 SML  HN ES   1    7 5 31.45                             118   -0.63 6  243 334 
 SML  HZ I         7 5 37.84         4.2 0.27            120            243 334 
 CHI  HZ EP   1    7 5  4.96                             117   -0.02 6  252 196 
 CHI  HN ES   1    7 5 34.28                             117   -0.47 6  252 196 
 CHI  HZ I         7 5 40.64         8.0 0.96            119            252 196 
 GUY2CHZ EP   1    7 5 10.91                             112   -0.06 5  305 235 
 GUY2CHE ES   1    7 5 46.14                             112    0.73 5  305 235 
 GUY2CHZ I         7 5 53.19         3.0 0.30                           305 235 
 SJC  HZ EP   4    7 5 20.38                             106   -2.04 0  409 326 
 SJC  HN ES   4    7 6  4.39                             106   -1.40 0  409 326 
                                                                                
