 2011  3 7 0325 57.0 L   6.762 -73.085139.6  RSN  8 0.4 1.8LRSN                1
 GAP=166        0.73       3.8     7.5  7.8 -0.1530E+02  0.2873E+02 -0.4099E+01E
 Epicentro: LOS SANTOS - SANTANDER                                             3
 ACTION:UP  11-06-16 14:32 OP:jfem STATUS:               ID:20110307032556 L   I
 2011-03-07-0322-17S.COL___135                                                 6
 STAT SP IPHASW D HRMM SECON CODA AMPLIT PERI AZIMU VELO SNR AR TRES W  DIS CAZ7
 BAR2 SZ EP   1    326 15.40                             171    -0.4 8   22 210 
 BAR2 SZ ES   2    326 30.01                             171    -0.5 5   22 210 
 BAR2 SZ I         326 31.51        21.9 0.30                            22 210 
 RUS  HZ EP   1    326 19.42                             144    -0.4 8   96 180 
 RUS  HN ES   1    326 37.98                             144     0.4 8   96 180 
 RUS  HZ I         326 39.18        10.2 0.23                            96 180 
 GRA  SZ IP        326 22.04                             135     0.210  128  14 
 GRA  SZ ES   1    326 41.67                             135     0.4 7  128  14 
 GRA  SZ I         326 43.00        10.3 0.28                           128  14 
 OCA  SZ ES   3    326 45.94                             127    -1.5 2  165 351 
 CHI  HZ EP   1    326 33.64                             116    -0.5 6  246 197 
 CHI  HZ I         326 36.49         2.8 0.20                           246 197 
 CHI  HN ES   1    327  3.31                             116     0.3 6  246 197 
 HEL  HZ EP   1    326 37.63                             113     0.1 6  278 257 
 HEL  HE ES   2    327  8.88                             113    -0.2 4  278 257 
 RREF HZ EP   1    326 43.15                             110     0.0 5  324 231 
 RREF HN ES   1    327 19.79                             110     0.7 5  324 231 
 RREF HZ I         327 25.79         3.1 0.34                           324 231 
 PRA  HZ EP   2    326 49.95                             106    -0.3 3  392 211 
 PRA  HN ES   1    327 31.88                             106     0.1 5  392 211 
                                                                                
