 2017  4 7 0801 25.4 L   6.807 -73.180149.9  RSN  4 0.2 1.1LRSN                1
 GAP=144        0.42       2.8     2.9  6.4 -0.2546E+01  0.7112E+01  0.8451E+00E
 Epicentro: ZAPATOCA - SANTANDER                                               3
 ACTION:UPD 17-05-30 21:09 OP:jn   STATUS:               ID:20170407080125 L   I
 OLDACT:UP  17-04-07 16:52 OP:and  STATUS:               ID:20170407075741     3
 OLDACT:REG 17-04-07 12:42 OP:and  STATUS:               ID:20170407075741     3
 2017-04-07-0758-00M.COL___359                                                 6
 STAT SP IPHASW D HRMM SECON CODA AMPLIT PERI AZIMU VELO AIN AR TRES W  DIS CAZ7
 PAM  EZ EP   2    8 1 48.22                             151    0.04 5 79.2  42 
 PAM  EN ES        8 2  5.99                             151    0.0510 79.2  42 
 RUS  HZ EP   2    8 1 50.02                             144    0.36 5  102 174 
 RUS  HN ES        8 2  8.41                             144   -0.1510  102 174 
 PTB  HZ EP   2    8 1 52.13                             133   -0.28 5  144 258 
 PTB  HN ES        8 2 13.43                             133   -0.04 9  144 258 
 PTB  HZ I         8 2 20.70         1.5 0.38            132            144 258 
 SPBC HZ EP   2    8 1 54.02                             130   -0.06 5  161 218 
 SPBC HN ES   2    8 2 16.96                             130    0.53 5  161 218 
 SPBC HZ I         8 2 21.52         1.3 0.04            130            161 218 
                                                                                
