 2016  6 7 0737 33.2 L   6.527 -73.581109.1  RSN  6 0.4 1.4LRSN                1
 GAP= 93        1.11       4.8     4.2  9.1  0.2218E+01  0.1336E+02  0.1015E+02E
 Epicentro: EL CARMEN - SANTANDER                                              3
 ACTION:UPD 16-07-21 22:16 OP:rebc STATUS:               ID:20160607073733 L   I
 OLDACT:UP  16-06-07 17:43 OP:dani STATUS:               ID:20160607072747     3
 OLDACT:REG 16-06-07 13:31 OP:dani STATUS:               ID:20160607072747     3
 2016-06-07-0727-47M.COL___319                                                 6
 STAT SP IPHASW D HRMM SECON CODA AMPLIT PERI AZIMU VELO AIN AR TRES W  DIS CAZ7
 BAR2 EZ EP        737 49.32                             156    0.0810 44.7  81 
 BAR2 EZ ES        738  1.80                             156    0.0310 44.7  81 
 BAR2 EZ I         738  2.92        18.4 0.46                          44.7  81 
 BRR  HZ EP        737 50.09                             146   -0.0410 65.8 347 
 BRR  HE ES        738  3.88                             146    0.5210 65.8 347 
 RUS  HZ EP        737 52.54                             138   -0.0310 89.2 142 
 RUS  HN ES        738  7.08                             138   -0.6210 89.2 142 
 RUS  HZ I         738  9.37         2.4 0.24                          89.2 142 
 PTB  HZ EP        737 52.16                             135   -0.4010 96.8 271 
 PTB  HN ES        738  7.05                             135   -0.6210 96.8 271 
 PTB  HZ I         738  8.44         9.6 0.18                          96.8 271 
 SPBC HZ EP        737 54.40                             131    0.4810  111 209 
 SPBC HN ES        738 10.78                             131    0.6810  111 209 
 HEL  HZ EP   4    738  3.71                             111   -1.94 0  219 260 
 HEL  HN ES        738 30.91                             111   -0.06 8  219 260 
 HEL  HZ I         738 38.95         2.0 0.22                           219 260 
                                                                                
