 2016  8 7 0320 58.7 L   6.777 -73.123142.5  RSN  6 0.3 1.6LRSN                1
 GAP=161        0.91       5.6     5.2  6.2 -0.1342E+02  0.6422E+01  0.2004E+01E
 Epicentro: LOS SANTOS - SANTANDER                                             3
 ACTION:UPD 16-10-29 15:32 OP:rebc STATUS:               ID:20160807032058 L   I
 OLDACT:UP  16-08-07 14:47 OP:dani STATUS:               ID:20160807031732     3
 OLDACT:REG 16-08-07 12:49 OP:dani STATUS:               ID:20160807031732     3
 2016-08-07-0318-00M.COL___368                                                 6
 STAT SP IPHASW D HRMM SECON CODA AMPLIT PERI AZIMU VELO AIN AR TRES W  DIS CAZ7
 BAR2 EZ EP        321 18.03                             171    0.1510 21.5 198 
 BAR2 EZ ES        321 32.73                             171   -0.1310 21.5 198 
 BAR2 EZ I         321 33.75         7.8 0.34                          21.5 198 
 BRR  HZ EP        321 19.89                             151    0.2110 74.6 299 
 BRR  HN ES        321 36.65                             151    0.5910 74.6 299 
 BRR  HZ I         321 39.87         7.9 0.34                          74.6 299 
 PAM  EZ IP     C  321 20.96                             150    0.3910 77.8  37 
 PAM  EE ES        321 37.10                             150   -0.5510 77.8  37 
 PAM  EZ I         321 39.83         9.5 0.46                          77.8  37 
 PTB  HZ EP        321 25.10                             131   -0.47 9  150 260 
 PTB  HE ES        321 46.28                             131   -0.27 9  150 260 
 PTB  HZ I         321 52.67         2.7 0.18                           150 260 
 SPBC HZ EP        321 27.12                             128    0.22 9  163 220 
 SPBC HN ES        321 48.90                             128   -0.02 9  163 220 
 SPBC HZ I         321 52.03         3.0 0.10                           163 220 
 ZAR  HZ EP        321 30.99                             121   -0.27 8  207 293 
 ZAR  HE ES   4    321 54.64                             121   -2.03 0  207 293 
 ZAR  HZ I         322  2.27         4.6 0.48                           207 293 
                                                                                
