 2017  7 7 0139 20.7 L   7.306 -73.360116.5  RSN 15 0.4 2.4LRSN                1
 GAP=165        1.02       4.1     2.6  5.2  0.1029E+01  0.2335E+01  0.7635E+00E
 Epicentro: SABANA DE TORRES - SANTANDER                                       3
 ACTION:UPD 17-08-30 15:30 OP:rebc STATUS:               ID:20170707013920 L   I
 OLDACT:UP  17-07-07 15:08 OP:ar   STATUS:               ID:20170707013744     3
 OLDACT:REG 17-07-07 12:50 OP:ar   STATUS:               ID:20170707013744     3
 2017-07-07-0138-00M.COL___377                                                 6
 STAT SP IPHASW D HRMM SECON CODA AMPLIT PERI AZIMU VELO AIN AR TRES W  DIS CAZ7
 BRR  HZ IP     C  139 36.71                             158   -0.5110 44.6 240 
 BRR  HE ES        139 50.27                             158    0.1510 44.6 240 
 BRR  HZ I         139 54.95        46.9 0.14            151           44.6 240 
 PAM  EZ EP        139 39.61                             146    0.0410 73.1  87 
 PAM  EN ES        139 54.74                             146    0.4310 73.1  87 
 PAM  EZ I         139 56.44        45.9 0.24            150           73.1  87 
 BAR2 EZ IP     C  139 39.43                             143   -0.3810 81.4 166 
 BAR2 EZ ES        139 54.56                             143   -0.1710 81.4 166 
 BAR2 EZ I         139 55.35       186.0 0.20            139           81.4 166 
 PTB  HZ EP        139 44.45                             124   -0.99 9  148 235 
 PTB  HN ES        140  4.43                             124   -0.33 9  148 235 
 PTB  HZ I         140  5.55        24.6 0.32            122            148 235 
 ZAR  HZ EP        139 47.79                             121    0.43 9  167 277 
 ZAR  HN ES        140  8.26                             121    0.08 9  167 277 
 ZAR  HZ I         140 10.82        25.7 0.28            119            167 277 
 TAM  HZ EP        139 50.56                             116   -0.26 9  198 119 
 TAM  HN ES        140 14.46                             116    0.13 9  198 119 
 SPBC HZ EP        139 51.33                             116    0.36 9  199 203 
 SPBC HE ES        140 14.77                             116    0.18 9  199 203 
 SPBC HZ I         140 19.83        27.1 0.56            114            199 203 
 YPLC HZ EP        139 55.17                             111   -0.06 8  237 153 
 YPLC HN ES        140 22.53                             111    0.35 8  237 153 
 YPLC HZ I         140 23.93        18.9 0.26            111            237 153 
 URE  HZ EP        139 55.84                             110   -0.15 8  245 282 
 URE  HN ES   4    140 20.61                             110   -2.92 0  245 282 
 URE  HZ I         140 29.59        21.2 0.14            110            245 282 
 NOR  HZ EP   9    139 56.08                             110   -1.13 0  255 221 
 NOR  HN ES        140 24.51                             107   -0.06 8  255 221 
 NOR  HZ I         140 30.02        24.1 0.36            108            255 221 
 HEL  HZ EP        140  0.59                             108    1.30 8  270 243 
 HEL  HN ES        140 29.77                             108    0.36 8  270 243 
 HEL  HZ I         140 35.45        17.7 0.44            107            270 243 
 ROSC BZ EP   9    140  6.43                             107    4.42 0  293 201 
 ROSC BN ES        140 38.42                             105   -0.25 7  293 201 
 ROSC BZ I         140 46.00         8.9 0.35            106            293 201 
 GUY2CHZ EP        140  5.28                             105   -0.00 7  320 224 
 GUY2CHE ES   4    140 43.41                             105    3.33 0  320 224 
 GUY2CHZ I         140 48.12        12.7 0.64                           320 224 
 CBOC HZ EP        140  6.21                             104   -0.36 7  334 242 
 CBOC HE ES   4    140 45.09                             104    2.72 0  334 242 
 CBOC HZ I         140 53.81         5.6 0.48            103            334 242 
 ELA  HZ EP   4    140 11.80                             103    2.59 0  352 220 
 ELA  HN ES   4    140 52.16                             103    5.10 0  352 220 
 ELA  HZ I         141  0.69        10.2 0.44            102            352 220 
                                                                                
