 2010 12 7 0512 18.7 L   6.824 -73.131141.5  RSN  8 0.4 1.8LRSN                1
 GAP=137        0.79       4.3    11.0  7.8 -0.1147E+01  0.1453E+02  0.6477E+01E
 Epicentro: LOS SANTOS - SANTANDER                                             3
 ACTION:UP  11-01-14 15:23 OP:pat  STATUS:               ID:20101207051218 L   I
 2010-12-07-0510-35S.COL___134                                                 6
 STAT SP IPHASW D HRMM SECON CODA AMPLIT PERI AZIMU VELO SNR AR TRES W  DIS CAZ7
 BAR2 SZ EP   1    512 38.05                             169     0.110   26 193 
 BAR2 SZ ES   1    512 52.72                             169    -0.110   26 193 
 BAR2 SZ I         512 54.17        17.8 0.29                            26 193 
 GUE  SZ EP   2    512 43.55                             139     0.7 6  114  12 
 GRA  SZ EP   1    512 42.77                             137    -0.6 9  123  17 
 GRA  SZ ES   2    513  2.35                             137    -0.2 6  123  17 
 GRA  SZ I         513  3.66         8.6 0.29                           123  17 
 OCA  SZ EP   2    512 46.64                             129     0.2 6  158 352 
 OCA  SZ ES   2    513  8.40                             129     0.3 6  158 352 
 OCA  SZ I         513 11.37        12.4 0.26                           158 352 
 YOP  SZ EP   1    512 48.98                             125     0.3 8  181 154 
 YOP  SZ I         512 49.61         4.3 0.17                           181 154 
 YOP  SZ ES   2    513 12.44                             125     0.5 6  181 154 
 CHI  HZ EP        512 56.07                             116    -0.410  252 195 
 HEL  HZ EP   2    512 59.85                             114     0.9 5  274 255 
 HEL  HZ I         513 35.98         3.7 0.46                           274 255 
 PRA  HZ EP   2    513 11.93                             106    -0.5 4  395 210 
                                                                                
