 2013  8 7 0751 17.3 L   6.140 -73.628113.7  RSN  4 0.3 1.1LRSN                1
 GAP=109        0.64       4.5     3.2  8.3  0.1304E+01  0.5223E+01  0.3709E+01E
 Epicentro: LA PAZ - SANTANDER                                                 3
 ACTION:UPD 14-01-14 08:59 OP:ep   STATUS:               ID:20130807075117 L   I
 OLDACT:DUP 13-08-07 12:18 OP:carl STATUS:               ID:20130807074901d    3
 2013-08-07-0749-59M.COL___270                                                 6
 STAT SP IPHASW D HRMM SECON CODA AMPLIT PERI AZIMU VELO AIN AR TRES W  DIS CAZ7
 RUS  HZ EP   1    751 35.60                             148    0.16 7 66.3 114 
 RUS  HN ES        751 49.27                             148   -0.3310 66.3 114 
 RUS  HZ I         751 52.05         0.9 0.26            152           66.3 114 
 BAR2 SZ ES   1    751 49.82                             146    0.39 7 70.3  45 
 BAR2 SZ I         751 50.51         9.3 0.18            154           70.3  45 
 SPBC HZ EP        751 35.25                             145   -0.0710 72.9 222 
 SPBC HN ES        751 49.65                             145    0.2610 72.9 222 
 SPBC HZ I         751 54.28         2.4 0.38            147           72.9 222 
 PTB  HN ES        751 53.05                             135   -0.1810  102 296 
 PTB  HN I         751 54.46         5.0 0.30            141            102 296 
                                                                                
