 2015  2 7 0503 28.9 L   6.513 -73.053129.4  RSN  4 0.2 1.4LRSN                1
 GAP=207        0.58       4.2     3.9  6.8 -0.1101E+02 -0.7956E+01  0.1473E+02E
 Epicentro: MOGOTES - SANTANDER                                                3
 ACTION:UPD 15-04-30 21:23 OP:nd   STATUS:               ID:20150207050328 L   I
 OLDACT:UP  15-02-07 19:33 OP:stll STATUS:               ID:20150207045747     3
 OLDACT:UP  15-02-07 19:32 OP:stll STATUS:               ID:20150207045747     3
 OLDACT:REG 15-02-07 12:35 OP:stll STATUS:               ID:20150207045747     3
 2015-02-07-0457-47M.COL___290                                                 6
 STAT SP IPHASW D HRMM SECON CODA AMPLIT PERI AZIMU VELO AIN AR TRES W  DIS CAZ7
 BRR  HZ EP        5 3 50.21                             140   -0.0210 98.1 312 
 BRR  HN ES        5 4  6.80                             140   -0.0410 98.1 312 
 BRR  HZ I         5 4 10.34         4.1 0.20            151           98.1 312 
 PAM  SZ EP        5 3 51.33                             140    0.3210 99.4  23 
 PAM  SZ I         5 3 51.48         8.9 0.24            152           99.4  23 
 PAM  SN ES        5 4  8.07                             140   -0.1610 99.4  23 
 SPBC HZ EP        5 3 54.28                             128   -0.41 9  148 230 
 SPBC HE ES        5 4 15.01                             128    0.22 9  148 230 
 SPBC HZ I         5 4 23.85         3.2 0.40            133            148 230 
 PTB  HZ EP        5 3 55.40                             126    0.06 9  155 271 
 PTB  HN ES        5 4 15.95                             126    0.01 9  155 271 
 PTB  HZ I         5 4 17.92         3.1 0.32            134            155 271 
                                                                                
