 2013  6 7 0724 11.9 L   6.792 -73.116148.7  RSN  5 0.6 1.8LRSN                1
 GAP=186        1.35       7.7    11.0 20.5 -0.1278E+02 -0.3232E+02  0.2888E+02E
 Epicentro: LOS SANTOS - SANTANDER                                             3
 ACTION:UPD 14-01-08 09:53 OP:ep   STATUS:               ID:20130607072411 L   I
 OLDACT:REG 13-06-07 08:38 OP:mh   STATUS:               ID:20130607072000     3
 2013-06-07-0720-00M.COL___257                                                 6
 STAT SP IPHASW D HRMM SECON CODA AMPLIT PERI AZIMU VELO AIN AR TRES W  DIS CAZ7
 BAR2 SZ EP   1    724 32.56                             170    0.63 7 23.3 198 
 BRR  HZ EP     C  724 34.48                             152    0.8810 74.5 298 
 BRR  HN ES   2    724 51.40                             152    0.91 5 74.5 298 
 BRR  HN I         724 51.95        16.6 0.30            153           74.5 298 
 RUS  HZ EP   1    724 35.20                             144   -0.72 7 99.5 178 
 RUS  HN ES   2    724 54.33                             144   -0.28 5 99.5 178 
 RUS  HZ I         724 57.09         3.9 0.30            148           99.5 178 
 PTB  HZ EP        724 39.45                             132    0.02 9  151 259 
 PTB  HN ES        725  0.36                             132   -0.51 9  151 259 
 PTB  HN I         725  5.61         8.1 0.50            135            151 259 
 OCA  HN ES        725  2.28                             130   -0.68 9  162 352 
 OCA  HN I         725  6.71        12.1 0.26            133            162 352 
                                                                                
