 2012  5 7 0307 24.9 L   6.759 -73.142143.9  RSN  5 0.4 1.5LRSN                1
 GAP=139        1.05      11.2     8.5 15.5 -0.9624E+01  0.1067E+02  0.1044E+03E
 Epicentro: LOS SANTOS - SANTANDER                                             3
 ACTION:UP  12-07-05 12:02 OP:pat  STATUS:               ID:20120507030724 L   I
 2012-05-07-0300-00M.COL___173                                                 6
 STAT SP IPHASW D HRMM SECON CODA AMPLIT PERI AZIMU VELO SNR AR TRES W  DIS CAZ7
 BAR2 SZ EP        3 7 44.31                             172     0.010   19 194 
 BAR2 SZ I         3 7 44.43         9.1 0.20                            19 194 
 BRR  HZ EP        3 7 46.24                             151     0.210   74 301 
 BRR  HZ I         3 7 46.53         9.9 0.10                            74 301 
 BRR  HN ES   1    3 8  2.87                             151     0.4 7   74 301 
 PAM  SZ EP        3 7 47.45                             149     0.310   81  37 
 PAM  SN ES   1    3 8  3.84                             149    -0.7 7   81  37 
 RUS  HZ EP        3 7 48.27                             145     0.110   96 176 
 RUS  HZ I         3 7 54.36         3.2 0.46                            96 176 
 PTB  HZ EP        3 7 51.17                             132    -0.5 9  147 261 
 PTB  HZ I         3 8 15.05         4.1 0.10                           147 261 
                                                                                
