 2012  4 7 0018 55.5 L   6.809 -73.200137.3  RSN 15 0.4 2.7LRSN                1
 GAP=108        0.85       3.8     4.0  6.2  0.3790E+00  0.9799E+01  0.4740E+01E
 Epicentro: ZAPATOCA - SANTANDER                                               3
 ACTION:UPD 12-07-05 11:51 OP:tino STATUS:               ID:20120407001855 L   I
 2012-04-07-0017-59S.COL___204                                                 6
 STAT SP IPHASW D HRMM SECON CODA AMPLIT PERI AZIMU VELO AIN AR TRES W  DIS CAZ7
 BAR2 SZ EP        019 14.33                             170     0.210   24 175 
 BAR2 SZ ES   1    019 28.77                             170     0.1 7   24 175 
 BAR2 SZ I         019 31.17       124.5 0.20                            24 175 
 BRR  HZ EP   1    019 15.24                             153    -0.2 7   65 300 
 BRR  HZ I         019 34.15       124.2 0.13                            65 300 
 PAM  SZ EP        019 17.07                             148     0.010   81  43 
 PAM  SN ES   1    019 34.15                             148     0.3 7   81  43 
 PAM  SZ I         019 36.71        90.6 0.48                            81  43 
 RUS  HZ EP   1    019 18.16                             141    -0.4 7  102 173 
 RUS  HN ES   1    019 36.34                             141    -0.2 7  102 173 
 RUS  HZ I         019 38.93       103.5 0.44                           102 173 
 PTB  HZ EP   1    019 20.96                             131    -0.3 7  142 258 
 PTB  HN ES   1    019 41.54                             131     0.2 7  142 258 
 PTB  HZ I         019 44.24        37.8 0.21                           142 258 
 YOP  SN ES   1    019 48.71                             124     0.1 7  183 152 
 YOP  SZ I         019 50.58        33.1 0.58                           183 152 
 ZAR  HZ EP   1    019 26.49                             121    -0.3 6  198 293 
 ZAR  HE ES   1    019 50.81                             121    -0.4 6  198 293 
 ZAR  HZ I         019 58.17        47.2 0.24                           198 293 
 NOR  SZ EP   1    019 30.28                             117     0.0 6  230 233 
 NOR  SE ES   1    019 57.56                             117     0.1 6  230 233 
 CHI  HZ EP   1    019 32.39                             115    -0.3 6  248 194 
 CHI  HZ I         019 32.90        27.5 0.10                           248 194 
 ROSC BZ EP   1    019 33.87                             115     0.9 6  251 210 
 ROSC BN ES   1    020  1.90                             115    -0.3 6  251 210 
 ROSC BZ I         020  6.31        51.2 0.39                           251 210 
 HEL  HZ EP   1    019 35.25                             113     0.5 6  266 255 
 HEL  HZ I         020 13.55        24.2 0.21                           266 255 
 GUY  SZ EP   1    019 39.30                             111     0.8 5  299 234 
 GUY  SZ I         020 20.61        57.5 0.31                           299 234 
 VIL  SZ EP   1    019 37.88                             110    -0.7 5  303 190 
 VIL  SZ I         020 14.90        23.6 0.38                           303 190 
 TOL  SZ EP   1    019 43.82                             108     0.8 5  340 224 
 PRA  HZ EP   1    019 48.12                             105    -0.4 4  390 209 
                                                                                
