 2014  2 7 0727 41.9 L   6.805 -73.190145.7  RSN  8 0.3 1.7LRSN                1
 GAP=131        0.73       3.4     3.7  4.6 -0.5435E+01  0.6041E+01 -0.2041E+01E
 Epicentro: ZAPATOCA - SANTANDER                                               3
 ACTION:UPD 14-03-10 08:08 OP:ep   STATUS:               ID:20140207072741 L   I
 OLDACT:UP  14-02-07 12:37 OP:fm   STATUS:               ID:20140207072638     3
 OLDACT:REG 14-02-07 09:19 OP:mh   STATUS:               ID:20140207072638     3
 2014-02-07-0726-38M.COL___224                                                 6
 STAT SP IPHASW D HRMM SECON CODA AMPLIT PERI AZIMU VELO AIN AR TRES W  DIS CAZ7
 BAR2 SZ EP        728  1.45                             170   -0.0410 23.5 178 
 BAR2 SZ ES        728 16.43                             170   -0.3610 23.5 178 
 BAR2 SZ I         728 19.19        14.6 0.50            172           23.5 178 
 PAM  SZ EP        728  4.26                             150    0.0210 80.2  42 
 PAM  SN ES        728 21.79                             150    0.1010 80.2  42 
 PAM  SZ I         728 23.85         6.8 0.53            152           80.2  42 
 RUS  HZ EP     C  728  5.39                             143   -0.2910  102 173 
 RUS  HN ES        728 24.44                             143    0.1910  102 173 
 RUS  HZ I         728 25.83         5.2 0.35            146            102 173 
 PTB  HZ EP        728  8.32                             133   -0.08 9  143 258 
 PTB  HN ES        728 29.18                             133    0.08 9  143 258 
 PTB  HZ I         728 31.52         9.5 0.12            135            143 258 
 SPBC HZ EP        728 10.32                             129    0.21 9  161 218 
 SPBC HN ES        728 32.63                             129    0.49 9  161 218 
 NOR  HZ EP        728 16.52                             119   -0.68 8  231 234 
 NOR  HN ES        728 44.54                             119   -0.22 8  231 234 
 SML  HZ EP        728 18.56                             118    0.34 8  241 336 
 SML  HN ES   4    728 46.09                             118   -0.48 0  241 336 
 CHI  HZ EP        728 19.74                             117    0.26 8  248 194 
                                                                                
