 2016  8 7 0144  9.5 L   6.717 -73.151147.0  RSN  5 0.5 1.4LRSN                1
 GAP=230        1.17       6.8     8.0 10.6  0.2579E+02 -0.2676E+01 -0.1634E+02E
 Epicentro: VILLANUEVA - SANTANDER                                             3
 ACTION:UPD 16-10-29 15:32 OP:rebc STATUS:               ID:20160807014409 L   I
 OLDACT:UP  16-08-07 14:11 OP:dani STATUS:               ID:20160807013741     3
 OLDACT:REG 16-08-07 12:30 OP:dani STATUS:               ID:20160807013741     3
 2016-08-07-0138-00M.COL___362                                                 6
 STAT SP IPHASW D HRMM SECON CODA AMPLIT PERI AZIMU VELO AIN AR TRES W  DIS CAZ7
 BRR  HZ EP        144 30.99                             151   -0.0910 75.5 305 
 BRR  HN ES        144 48.15                             151    0.2710 75.5 305 
 BRR  HZ I         144 55.16         7.5 0.54                          75.5 305 
 RUS  HZ EP        144 32.43                             147   -0.3610 91.4 175 
 RUS  HN ES        144 50.91                             147   -0.0010 91.4 175 
 RUS  HZ I         144 53.16         2.3 0.40                          91.4 175 
 PTB  HZ EP        144 36.05                             133   -0.38 9  146 262 
 PTB  HN ES        144 56.69                             133   -0.70 9  146 262 
 PTB  HZ I         144 59.87         2.6 0.42                           146 262 
 SPBC HE ES        144 59.90                             131    0.69 9  156 221 
 ZAR  HZ EP        144 43.28                             122    0.89 8  207 295 
 ZAR  HN ES        145  7.86                             122   -0.15 8  207 295 
 ZAR  HZ I         145 16.05         2.5 0.28                           207 295 
                                                                                
