 2017  2 7 0813 39.2 L   6.836 -73.160146.8  RSN  7 0.4 1.4LRSN                1
 GAP=239        1.06       8.3     9.0  6.7  0.5295E+02 -0.4502E+00 -0.2215E+01E
 Epicentro: LOS SANTOS - SANTANDER                                             3
 ACTION:UPD 17-05-24 15:33 OP:jn   STATUS:               ID:20170207081339 L   I
 OLDACT:UP  17-02-07 18:07 OP:edw  STATUS:               ID:20170207080744     3
 OLDACT:REG 17-02-07 12:59 OP:edw  STATUS:               ID:20170207080744     3
 2017-02-07-0808-00M.COL___325                                                 6
 STAT SP IPHASW D HRMM SECON CODA AMPLIT PERI AZIMU VELO AIN AR TRES W  DIS CAZ7
 BAR2 EZ EP        813 58.75                             170   -0.2810 27.1 185 
 BAR2 EZ ES        814 13.94                             170   -0.5510 27.1 185 
 BAR2 EZ I         814 15.12         6.0 0.60            156           27.1 185 
 BRR  HZ EP        814  0.52                             154    0.2510 67.9 296 
 BRR  HN ES        814 17.49                             154    0.7810 67.9 296 
 BRR  HZ I         814 17.96         5.7 0.30            144           67.9 296 
 RUS  HZ EP        814  3.13                             143   -0.2110  105 175 
 RUS  HN ES        814 22.43                             143    0.2510  105 175 
 RUS  HZ I         814 23.45         4.7 0.32            135            105 175 
 PTB  HZ EP   9    814  5.68                             133   -0.49 0  147 257 
 PTB  HN ES        814 26.35                             134   -0.37 9  147 257 
 PTB  HZ I         814 28.48         3.6 0.14            124            147 257 
 ZAR  HZ EP        814 11.63                             123    0.23 9  201 291 
 ZAR  HN ES        814 35.80                             123   -0.71 9  201 291 
 ZAR  HZ I         814 42.99         4.9 0.34            118            201 291 
 CHI  HZ EP        814 17.45                             117    0.13 8  252 195 
 CHI  HN ES   4    814 47.35                             117    0.29 0  252 195 
 CHI  HZ I         814 52.88         1.2 0.40            112            252 195 
 PTGC HE ES   4    814 54.63                             111   -3.58 0  313 159 
 CBOC HZ EP   2    814 26.42                             110    0.30 3  333 251 
 CBOC HN ES   4    814 59.94                             110   -2.78 0  333 251 
 CBOC HZ I         815 14.94         0.7 0.64            106            333 251 
                                                                                
