 2015  4 7 0353  7.5 L   7.445 -73.209132.0  RSN 10 0.5 2.5LRSN                1
 GAP=110        1.31       3.6     5.1  7.6  0.1196E+01  0.1250E+02  0.3792E+01E
 Epicentro: EL PLAYON - SANTANDER                                              3
 ACTION:UPD 15-06-03 16:53 OP:cam  STATUS:               ID:20150407035307 L   I
 OLDACT:REG 15-04-07 19:20 OP:mh   STATUS:               ID:20150407034748     3
 2015-04-07-0347-48M.COL___264                                                 6
 STAT SP IPHASW D HRMM SECON CODA AMPLIT PERI AZIMU VELO AIN AR TRES W  DIS CAZ7
 PAM  SZ EP        353 27.52                             155    0.3810 57.5 102 
 PAM  SN ES        353 42.59                             155    0.1410 57.5 102 
 PAM  SZ I         353 44.15        62.1 0.24            159           57.5 102 
 BRR  HZ EP     C  353 27.27                             151    0.3310 66.9 236 
 BRR  HN ES        353 42.34                             151    0.2510 66.9 236 
 BRR  HZ I         353 44.68        42.3 0.14            150           66.9 236 
 OCA  HZ EP   1    353 28.80                             144    0.22 7 88.6 352 
 OCA  HN ES        353 45.13                             144    0.1210 88.6 352 
 OCA  HZ I         353 47.56       110.5 0.18            147           88.6 352 
 BAR2 EZ EP        353 29.17                             142    0.0510 94.4 178 
 BAR2 EZ ES        353 45.45                             142   -0.5210 94.4 178 
 BAR2 EZ I         353 46.50       102.9 0.14            143           94.4 178 
 PTB  HZ EP        353 35.32                             124   -0.30 9  170 234 
 PTB  HN ES        353 57.62                             124    0.09 9  170 234 
 PTB  HZ I         354  0.87        28.7 0.16            125            170 234 
 RUS  HZ EP        353 36.19                             124   -0.25 9  172 175 
 RUS  HN ES        353 58.50                             124   -0.49 9  172 175 
 SML  HZ EP        353 36.07                             123   -0.25 9  178 328 
 SML  HN ES        353 57.52                             123   -1.26 9  178 328 
 SML  HZ I         354  0.24        62.7 0.10            125            178 328 
 ZAR  HZ EP        353 37.25                             122    0.45 9  182 272 
 ZAR  HN ES        354  0.50                             122    0.86 9  182 272 
 ZAR  HZ I         354  1.72        33.6 0.12            123            182 272 
 SPBC HZ EP        353 41.31                             117    0.38 8  220 206 
 SPBC HN ES        354  7.57                             117    0.57 8  220 206 
 SPBC HZ I         354 14.58        32.9 0.64            118            220 206 
 NOR  HZ EP        353 47.68                             111    0.40 7  277 222 
 NOR  HN ES        354 16.84                             111   -1.46 7  277 222 
 NOR  HZ I         354 24.16        17.3 0.26            112            277 222 
                                                                                
