 2013  3 7 0436 17.7 L   6.777 -73.114141.0  RSN  8 0.4 1.9LRSN                1
 GAP=142        0.84       3.9     5.2  5.8  0.2055E+01  0.7325E+01 -0.1749E+01E
 Epicentro: LOS SANTOS - SANTANDER                                             3
 ACTION:UPD 13-04-09 14:00 OP:ep   STATUS:               ID:20130307043618dL   I
 2013-03-07-0430-00M.COL___231                                                 6
 STAT SP IPHASW D HRMM SECON CODA AMPLIT PERI AZIMU VELO AIN AR TRES W  DIS CAZ7
 BAR2 SZ EP        436 36.73                             171    0.0310 21.8 200 
 BAR2 SZ ES        436 50.99                             171   -0.5610 21.8 200 
 BAR2 SZ I         436 52.54        30.2 0.16            173           21.8 200 
 BRR  HZ IP     C  436 38.67                             150    0.1010 75.5 299 
 BRR  HN ES        436 55.28                             150    0.4210 75.5 299 
 BRR  HZ I         436 59.29        15.6 0.50            138           75.5 299 
 PAM  SZ EP        436 39.56                             150    0.1910 77.2  36 
 PAM  SN ES        436 56.44                             150    0.1410 77.2  36 
 PAM  SZ I         436 59.27         9.7 0.42            137           77.2  36 
 RUS  HZ EP        436 40.72                             144   -0.0410 97.9 178 
 RUS  HN ES        436 58.89                             144    0.1110 97.9 178 
 RUS  HN IS        436 58.89                             144           97.9 178 
 RUS  HZ I         436 59.97         5.2 0.22            136           97.9 178 
 PTB  HZ EP   2    436 43.59                             130   -0.95 5  151 260 
 PTB  HN ES   4    437  3.97                             130   -1.52 0  151 260 
 PTB  HZ I         437  7.14        11.7 0.16            119            151 260 
 OCA  HN ES   2    437  6.74                             128   -1.18 5  163 352 
 OCA  HZ I         437  7.87         7.2 0.26            115            163 352 
 ZAR  HZ EP        436 50.53                             121    0.27 8  208 292 
 ZAR  HN ES   2    437 15.68                             121    0.01 4  208 292 
 ZAR  HZ I         437 18.52         8.3 0.44            110            208 292 
 SML  HZ EP   2    436 53.61                             116   -0.84 4  247 335 
 SML  HZ I         437 30.39         6.7 0.10            105            247 335 
                                                                                
