 2014 12 7 0833  8.1 L   6.766 -73.179142.0  RSN  5 0.4 1.0LRSN                1
 GAP=231        0.77       7.1     7.0  6.9  0.3071E+02  0.6204E+01 -0.5761E+00E
 Epicentro: LOS SANTOS - SANTANDER                                             3
 ACTION:UPD 15-02-10 17:01 OP:nd   STATUS:               ID:20141207083308 L   I
 OLDACT:DUP 14-12-07 19:38 OP:spq  STATUS:               ID:20141207082736d    3
 2014-12-07-0827-35M.COL___303                                                 6
 STAT SP IPHASW D HRMM SECON CODA AMPLIT PERI AZIMU VELO AIN AR TRES W  DIS CAZ7
 BAR2 SZ EP   1    833 26.72                             172   -0.43 7 19.2 181 
 BAR2 SZ ES   1    833 41.76                             172   -0.29 7 19.2 181 
 BAR2 SZ I         833 42.81         2.5 0.18            172           19.2 181 
 BRR  HZ EP        833 28.63                             152   -0.1010 70.0 303 
 BRR  HN ES        833 45.18                             152    0.3310 70.0 303 
 BRR  HZ I         833 52.09         3.4 0.35            152           70.0 303 
 RUS  HZ EP   1    833 30.91                             144   -0.28 7 97.2 174 
 RUS  HE ES   1    833 49.83                             144    0.60 7 97.2 174 
 RUS  HZ I         833 53.22         0.6 0.56            148           97.2 174 
 PTB  HZ EP   1    833 34.32                             132   -0.01 7  143 260 
 PTB  HN ES   1    833 54.49                             132   -0.33 7  143 260 
 PTB  HZ I         833 56.77         1.6 0.38            134            143 260 
 ZAR  HZ EP   1    833 40.74                             122    0.68 6  202 294 
 ZAR  HE ES   1    834  4.73                             122   -0.29 6  202 294 
 ZAR  HZ I         834  9.83         1.8 0.52            125            202 294 
                                                                                
