 2013 11 7 0905 50.6 L   7.315 -74.024 17.1  RSN  5 0.5 1.0LRSN                1
 GAP=167        1.15       4.3     2.7  5.3  0.3387E+01 -0.5490E+01 -0.3432E+01E
 Epicentro: PUERTO WILCHES - SANTANDER                                         3
 ACTION:UPD 14-01-09 16:26 OP:ep   STATUS:               ID:20131107090550 L   I
 OLDACT:REG 13-11-07 06:35 OP:jn   STATUS:               ID:20131107090000     3
 2013-11-07-0900-00M.COL___273                                                 6
 STAT SP IPHASW D HRMM SECON CODA AMPLIT PERI AZIMU VELO AIN AR TRES W  DIS CAZ7
 BRR  HZ EP        9 5 57.67                             109   -0.1310 41.4 124 
 BRR  HN ES        9 6  3.67                             109    0.2510 41.4 124 
 BRR  HZ I         9 6  4.49        14.3 0.24            107           41.4 124 
 ZAR  HZ EP        9 6  6.07                              98    0.4810 94.1 282 
 ZAR  HN ES        9 6 17.24                              98   -0.0510 94.1 282 
 ZAR  HZ I         9 6 19.12         2.7 0.26             97           94.1 282 
 PTB  HZ EP        9 6  5.94                              98   -0.2710 98.2 209 
 PTB  HN ES        9 6 17.92                              98   -0.4710 98.2 209 
 PTB  HZ I         9 6 18.27         3.3 0.30             97           98.2 209 
 PAM  SZ EP        9 6 13.28                              56   -0.32 9  146  89 
 PAM  SN ES   1    9 6 30.57                              56   -0.98 7  146  89 
 PAM  SZ I         9 6 32.43         3.4 0.44             56            146  89 
 RUS  HZ EP        9 6 19.74                              56    0.84 9  189 146 
 RUS  HN ES        9 6 41.38                              56    0.40 9  189 146 
 RUS  HZ I         9 6 43.13         1.6 0.36             56            189 146 
                                                                                
