 2017  5 7 0545 47.2 L   6.822 -73.157151.3  RSN 11 0.4 1.8LRSN                1
 GAP=110        1.04       3.6     3.5  6.6  0.1468E+01  0.3985E+01  0.5688E+01E
 Epicentro: LOS SANTOS - SANTANDER                                             3
 ACTION:UPD 17-06-16 13:33 OP:jn   STATUS:               ID:20170507054547 L   I
 OLDACT:UP  17-05-07 16:03 OP:ar   STATUS:               ID:20170507053744d    3
 OLDACT:UP  17-05-07 15:59 OP:ar   STATUS:               ID:20170507053744d    3
 OLDACT:DUP 17-05-07 15:57 OP:ar   STATUS:               ID:20170507053744d    3
 2017-05-07-0538-00M.COL___361                                                 6
 STAT SP IPHASW D HRMM SECON CODA AMPLIT PERI AZIMU VELO AIN AR TRES W  DIS CAZ7
 BRR  HZ IP     C  546  8.94                             154    0.1310 69.0 297 
 BRR  HN ES        546 26.05                             154    0.3710 69.0 297 
 BRR  HZ I         546 29.76        11.8 0.32            151           69.0 297 
 PAM  EZ EP        546 10.25                             152    0.3310 76.3  41 
 PAM  EN ES        546 27.60                             152   -0.0610 76.3  41 
 PAM  EZ I         546 28.97         6.2 0.48            157           76.3  41 
 RUS  HZ EP        546 11.34                             144   -0.3110  103 175 
 RUS  HN ES        546 30.40                             144   -0.3410  103 175 
 RUS  HZ I         546 30.55         5.7 0.28            146            103 175 
 PTB  HZ EP        546 13.89                             133   -0.65 9  147 258 
 PTB  HN ES        546 34.95                             133   -0.93 9  147 258 
 PTB  HZ I         546 41.83         8.4 0.44            133            147 258 
 SPBC HZ EP        546 16.13                             130   -0.08 9  164 218 
 SPBC HN ES        546 39.53                             130    0.67 9  164 218 
 SPBC HZ I         546 44.16        10.9 0.24            130            164 218 
 YPLC HZ EP        546 17.74                             127    0.10 9  180 151 
 YPLC HN ES        546 41.68                             127    0.28 9  180 151 
 YPLC HZ I         546 42.33         6.6 0.26            131            180 151 
 ZAR  HZ EP        546 19.66                             124   -0.12 9  202 292 
 ZAR  HN ES        546 45.23                             124    0.02 9  202 292 
 ZAR  HZ I         546 55.37         6.9 0.42            124            202 292 
 NOR  HZ EP        546 23.84                             120    0.56 8  235 234 
 NOR  HE ES        546 51.33                             120   -0.11 8  235 234 
 NOR  HZ I         546 55.49         4.7 0.24            120            235 234 
 CHI  HZ EP        546 25.12                             118   -0.29 8  251 195 
 CHI  HE ES        546 55.13                             118   -0.09 8  251 195 
 CHI  HZ I         546 56.84         3.8 0.24            120            251 195 
 ROSC BZ EP   4    546 27.39                             118    1.63 0  254 211 
 ROSC BE ES   4    546 58.39                             118    2.53 0  254 211 
 ROSC BZ I         547  1.94         5.7 0.35            119            254 211 
 HEL  HZ EP   4    546 30.11                             116    2.50 0  271 255 
 HEL  HN ES        547  0.02                             116    0.87 8  271 255 
 HEL  HZ I         547  6.69         3.1 0.36            117            271 255 
                                                                                
