 2012  7 7 0420 47.2 L   6.275 -74.029 32.1  RSN  4 0.2 1.0LRSN                1
 GAP=190        0.61       3.7     2.6 11.3  0.4960E+01 -0.4143E+01 -0.1200E+02E
 Epicentro: CIMITARRA - SANTANDER                                              3
 ACTION:UPD 12-08-14 11:43 OP:ep   STATUS:               ID:20120707042047 L   I
 2012-07-07-0420-00M.COL___201                                                 6
 STAT SP IPHASW D HRMM SECON CODA AMPLIT PERI AZIMU VELO AIN AR TRES W  DIS CAZ7
 PTB  HZ IP     D  420 57.11                              61     0.110   56 302 
 PTB  HN ES   1    421  4.51                              61    -0.2 7   56 302 
 BRR  HZ EP   1    421  2.62                              61     0.2 7   98  21 
 BRR  HN ES   1    421 14.13                              61    -0.1 7   98  21 
 BRR  HZ I         421 16.60         5.1 0.05             61             98  21 
 BAR2 SZ EP   1    421  2.94                              61     0.1 7  100  69 
 BAR2 SZ I         421  3.44         3.3 0.10             61            100  69 
 RUS  HZ EP        421  5.01                              61     0.210  113 112 
 RUS  HN ES   1    421 18.09                              61    -0.4 7  113 112 
 RUS  HZ I         421 19.24         2.2 0.09             61            113 112 
