 2016  3 7 0827 24.9 L   6.805 -73.160148.1  RSN  9 0.3 1.7LRSN                1
 GAP= 70        0.65       2.1     2.2  3.9  0.1212E+00  0.1346E+01  0.9230E-02E
 Epicentro: LOS SANTOS - SANTANDER                                             3
 ACTION:UPD 16-05-13 21:22 OP:cam  STATUS:               ID:20160307082724 L   I
 OLDACT:REG 16-03-07 14:03 OP:cara STATUS:               ID:20160307081748     3
 2016-03-07-0817-48M.COL___315                                                 6
 STAT SP IPHASW D HRMM SECON CODA AMPLIT PERI AZIMU VELO AIN AR TRES W  DIS CAZ7
 BAR2 EZ EP        827 44.90                             170    0.1010 23.7 186 
 BAR2 EZ ES        827 59.99                             170   -0.3410 23.7 186 
 BAR2 EZ I         828  2.89        13.3 0.28            169           23.7 186 
 PAM  EZ EP        827 47.59                             151    0.2110 78.0  41 
 PAM  EZ I         827 47.91        15.1 0.24            155           78.0  41 
 PAM  EN ES        828  4.91                             151   -0.0210 78.0  41 
 RUS  HZ EP        827 48.76                             144   -0.1610  101 175 
 RUS  HE ES        828  8.13                             144    0.4710  101 175 
 RUS  HZ I         828  9.01         5.8 0.24            145            101 175 
 PTB  HZ EP        827 51.55                             133   -0.37 9  146 258 
 PTB  HN ES        828 12.83                             133   -0.17 9  146 258 
 PTB  HZ I         828 20.17         7.0 0.44            132            146 258 
 TAM  HZ IP        827 53.04                             131    0.14 9  157 105 
 TAM  HZ I         827 53.16         3.7 0.38            134            157 105 
 TAM  HN ES        828 14.59                             131   -0.16 9  157 105 
 OCA  HZ EP        827 52.94                             130   -0.37 9  160 354 
 OCA  HN ES        828 15.71                             130    0.23 9  160 354 
 OCA  HZ I         828 19.67         9.2 0.46            132            160 354 
 ZAR  HZ EP        827 57.34                             123    0.03 9  202 292 
 ZAR  HN ES        828 22.96                             123    0.36 9  202 292 
 ZAR  HZ I         828 29.21         4.9 0.52            123            202 292 
 CHI  HZ EP        828  2.95                             118    0.22 8  249 195 
 CHI  HN ES        828 32.13                             118   -0.12 8  249 195 
 CHI  HZ I         828 40.44         2.2 0.44            118            249 195 
 GUY2CHZ EP   9    828 10.90                             113    2.40 0  300 235 
 GUY2CHN ES        828 45.08                                    0.17 7  300 235 
 GUY2CHZ I         828 51.63         3.7 0.76                           300 235 
                                                                                
