 2016 10 7 0350 36.7 L   6.536 -73.531114.0  RSN 14 0.5 2.0LRSN                1
 GAP= 64        1.09       2.9     3.6  6.8 -0.3665E+01  0.1084E+02 -0.2850E+01E
 Epicentro: EL CARMEN - SANTANDER                                              3
 ACTION:UPD 16-11-09 19:17 OP:rebc STATUS:               ID:20161007035036 L   I
 OLDACT:UP  16-10-07 14:51 OP:dnl  STATUS:               ID:20161007034746     3
 OLDACT:UP  16-10-07 14:50 OP:dnl  STATUS:               ID:20161007034746     3
 OLDACT:REG 16-10-07 12:46 OP:dnl  STATUS:               ID:20161007034746     3
 2016-10-07-0348-00M.COL___351                                                 6
 STAT SP IPHASW D HRMM SECON CODA AMPLIT PERI AZIMU VELO AIN AR TRES W  DIS CAZ7
 BAR2 EZ EP        350 53.36                             160    0.3110 39.0  81 
 BAR2 EZ ES        351  6.00                             160    0.1910 39.0  81 
 BRR  HZ EP        350 54.22                             148    0.0410 66.2 342 
 BRR  HE ES        351  8.18                             148    0.3610 66.2 342 
 BRR  HZ I         351 15.47        14.1 0.12            148           66.2 342 
 RUS  HZ EP        350 56.41                             141    0.0610 86.7 145 
 RUS  HE ES        351 11.71                             141    0.0410 86.7 145 
 RUS  HZ I         351 13.29        17.0 0.42            148           86.7 145 
 PTB  HZ IP     D  350 56.13                             135   -0.8410  102 270 
 PTB  HN ES   4    351 11.11                             135   -1.68 0  102 270 
 PTB  HZ I         351 15.32        20.1 0.12            136            102 270 
 SPBC HZ EP        350 58.15                             132   -0.0210  115 212 
 SPBC HN ES        351 15.01                             132    0.0910  115 212 
 SPBC HZ I         351 17.65        22.5 0.30            135            115 212 
 PAM  EZ EP        351  0.07                             129    0.1310  128  46 
 PAM  EN ES        351 17.80                             129   -0.2610  128  46 
 PAM  EZ I         351 18.96        13.2 0.28            134            128  46 
 ZAR  HZ EP        351  5.33                             118    0.59 9  181 306 
 ZAR  HE ES   4    351 29.02                             118    2.41 0  181 306 
 ZAR  HZ I         351 32.10        21.8 0.34            120            181 306 
 NOR  HZ EP   2    351  4.35                             118   -0.69 4  183 234 
 NOR  HE ES        351 26.35                             118   -0.81 9  183 234 
 NOR  HZ I         351 30.85        13.1 0.18            121            183 234 
 OCA  HZ EP        351  5.51                             117   -0.39 9  190   7 
 OCA  HE ES        351 28.10                             117   -0.58 9  190   7 
 OCA  HZ I         351 31.83        23.9 0.32            120            190   7 
 CHI  HZ EP   2    351  9.54                             114    0.85 4  212 186 
 CHI  HN ES        351 33.50                             114   -0.15 8  212 186 
 CHI  HZ I         351 38.18         2.9 0.34            118            212 186 
 HEL  HZ EP   2    351 10.55                             112    0.53 4  224 260 
 HEL  HE ES        351 36.64                             112    0.63 8  224 260 
 HEL  HZ I         351 39.56         6.9 0.26            115            224 260 
 GUY2CHZ EP   2    351 14.19                             110    1.16 4  250 235 
 GUY2CHE ES   4    351 43.66                             110    2.28 0  250 235 
 GUY2CHZ I         351 45.81         7.1 0.34                           250 235 
 URE  HZ EP   2    351 15.57                             109    2.06 4  259 301 
 URE  HN ES   4    351 40.26                             109   -1.97 0  259 301 
 URE  HZ I         351 49.25         5.9 0.60            111            259 301 
 CBOC HZ EP   4    351 18.35                             107    1.65 0  284 255 
 CBOC HN ES        351 47.70                             107   -0.21 7  284 255 
 CBOC HZ I         351 52.25         4.9 0.36            109            284 255 
                                                                                
