 2015  3 7 0749  8.5 L   6.769 -73.169153.6  RSN  5 0.3 1.2LRSN                1
 GAP=198        0.66       3.5     5.8  6.2  0.3621E+01 -0.8211E+01 -0.1970E+01E
 Epicentro: LOS SANTOS - SANTANDER                                             3
 ACTION:UPD 15-04-30 16:23 OP:nd   STATUS:               ID:20150307074908 L   I
 OLDACT:REG 15-03-07 13:43 OP:spq  STATUS:               ID:20150307074749     3
 2015-03-07-0747-49M.COL___284                                                 6
 STAT SP IPHASW D HRMM SECON CODA AMPLIT PERI AZIMU VELO AIN AR TRES W  DIS CAZ7
 BRR  HZ EP        749 30.46                             154   -0.0310 70.7 302 
 BRR  HE ES        749 48.00                             154    0.3710 70.7 302 
 BRR  HZ I         749 50.03         2.6 0.46            152           70.7 302 
 RUS  HZ EP        749 32.94                             146    0.1210 97.4 174 
 RUS  HN ES   1    749 51.32                             146   -0.46 7 97.4 174 
 RUS  HZ I         749 52.52         0.9 0.20            149           97.4 174 
 PTB  HZ EP   1    749 35.79                             134   -0.06 7  145 260 
 PTB  HN ES   1    749 56.77                             134   -0.41 7  145 260 
 PTB  HZ I         749 59.66         2.1 0.16            134            145 260 
 SPBC HZ EP        749 37.54                             132    0.31 9  159 219 
 SPBC HN ES        749 59.58                             132   -0.05 9  159 219 
 SPBC HZ I         750  2.02         2.0 0.32            133            159 219 
 SML  HZ EP   1    749 45.66                             119   -0.15 6  246 336 
 SML  HE ES   2    750 14.07                             119   -0.84 4  246 336 
 SML  HZ I         750 18.41         2.0 0.10            119            246 336 
                                                                                
