 2012  7 7 0755 22.1 L   6.705 -73.163144.1  RSN  5 0.2 1.3LRSN                1
 GAP=228        0.59       5.6     5.1  6.0  0.1659E+02  0.2680E+01 -0.2706E+01E
 Epicentro: VILLANUEVA - SANTANDER                                             3
 ACTION:UPD 12-08-14 11:43 OP:ep   STATUS:               ID:20120707075522 L   I
 2012-07-07-0750-00M.COL___201                                                 6
 STAT SP IPHASW D HRMM SECON CODA AMPLIT PERI AZIMU VELO AIN AR TRES W  DIS CAZ7
 BAR2 SZ EP        755 41.15                             175    -0.210   13 190 
 BAR2 SZ I         755 42.16         3.7 0.17            178             13 190 
 BAR2 SZ ES   1    755 56.11                             175    -0.3 7   13 190 
 BRR  HZ EP        755 43.57                             151     0.310   75 306 
 BRR  HN ES   1    756  0.00                             151     0.2 7   75 306 
 BRR  HZ I         756  4.53         6.6 0.12            149             75 306 
 RUS  HZ EP   1    755 45.12                             146     0.2 7   90 174 
 RUS  HN ES   1    756  2.87                             146     0.1 7   90 174 
 PTB  HZ EP   1    755 48.26                             132    -0.3 7  144 263 
 PTB  HZ I         755 51.06         1.6 0.28            133            144 263 
 PTB  HN ES   1    756  9.41                             132     0.1 7  144 263 
 ZAR  HE ES   1    756 19.84                             122    -0.2 6  206 295 
