 2017  3 7 0318  1.6 L   6.746 -73.106142.9  RSN 11 0.5 1.6LRSN                1
 GAP= 94        0.90       3.7     3.7  5.5  0.6755E+00  0.2791E+01  0.3961E+01E
 Epicentro: LOS SANTOS - SANTANDER                                             3
 ACTION:UPD 17-05-25 18:37 OP:jn   STATUS:               ID:20170307031801 L   I
 OLDACT:UP  17-03-07 13:17 OP:and  STATUS:               ID:20170307030741d    3
 OLDACT:UP  17-03-07 13:17 OP:and  STATUS:               ID:20170307030741d    3
 OLDACT:UP  17-03-07 13:16 OP:and  STATUS:               ID:20170307030741d    3
 OLDACT:UP  17-03-07 13:15 OP:and  STATUS:               ID:20170307030741d    3
 OLDACT:UP  17-03-07 13:14 OP:and  STATUS:               ID:20170307030741d    3
 OLDACT:DUP 17-03-07 13:11 OP:and  STATUS:               ID:20170307030741d    3
 2017-03-07-0308-00M.COL___367                                                 6
 STAT SP IPHASW D HRMM SECON CODA AMPLIT PERI AZIMU VELO AIN AR TRES W  DIS CAZ7
 BAR2 EZ EP        318 20.64                             172   -0.1610 19.0 206 
 BAR2 EZ ES        318 35.36                             172   -0.4210 19.0 206 
 BAR2 EZ I         318 36.73        17.1 0.26            169           19.0 206 
 BRR  HZ EP        318 22.56                             150   -0.2810 77.9 301 
 BRR  HE ES        318 40.18                             150    0.7810 77.9 301 
 PAM  EZ EP        318 23.60                             150   -0.0410 79.5  34 
 PAM  EN ES        318 40.46                             150   -0.3810 79.5  34 
 PAM  EZ I         318 41.60         5.2 0.20            152           79.5  34 
 RUS  HZ EP   2    318 25.05                             145    0.42 5 94.4 178 
 RUS  HN ES        318 42.96                             145    0.3710 94.4 178 
 RUS  HZ I         318 44.03         3.2 0.24            145           94.4 178 
 TAM  HZ EP   2    318 29.20                             131    0.68 5  149 103 
 TAM  HN ES   2    318 50.48                             131    0.95 5  149 103 
 PTB  HZ EP        318 28.62                             131   -0.01 9  151 261 
 PTB  HN ES   3    318 48.16                             131   -1.56 2  151 261 
 PTB  HZ I         318 51.61         5.8 0.15            129            151 261 
 SPBC HZ EP        318 29.86                             129    0.15 9  161 222 
 SPBC HN ES        318 51.68                             129    0.04 9  161 222 
 SPBC HZ I         318 54.95         4.7 0.09            128            161 222 
 ZAR  HZ EP   3    318 35.80                             121    1.29 2  210 293 
 ZAR  HN ES        318 59.91                             121   -0.28 8  210 293 
 ZAR  HZ I         319  7.36         5.4 0.24            120            210 293 
 HEL  HN ES   2    319 14.23                             114    0.75 4  275 257 
 PTGC HZ EP        318 43.91                             112   -0.61 7  302 159 
 PTGC HN ES   2    319 17.28                             112   -0.71 4  302 159 
 PRA  HZ EP   2    318 55.17                             106    0.50 3  389 211 
 PRA  HN ES   4    319 37.53                             106    1.47 0  389 211 
 PRA  HZ I         319 41.28         1.8 0.30            106            389 211 
                                                                                
