 2011  3 7 0210 39.5 L   6.748 -73.185142.0  RSN 15 0.5 2.9LRSN                1
 GAP=133        0.95       4.2     7.2  9.0 -0.6262E+01  0.3887E+02  0.3433E+00E
 Epicentro: VILLANUEVA - SANTANDER                                             3
 ACTION:UP  11-06-16 14:32 OP:jfem STATUS:               ID:20110307021039 L   I
 2011-03-07-0209-04S.COL___135                                                 6
 STAT SP IPHASW D HRMM SECON CODA AMPLIT PERI AZIMU VELO SNR AR TRES W  DIS CAZ7
 BAR2 SZ EP        210 58.17                             173    -0.410   17 180 
 BAR2 SZ ES   2    211 12.97                             173    -0.5 5   17 180 
 BAR2 SZ I         211 16.18       144.7 0.30                            17 180 
 RUS  HZ EP   1    211  2.01                             145    -0.5 7   95 173 
 RUS  HN ES   1    211 20.87                             145     0.4 7   95 173 
 GRA  SZ IP        211  5.00                             135     0.010  133  18 
 GRA  SZ ES   1    211 25.46                             135     0.6 7  133  18 
 GRA  SZ I         211 26.93        90.4 0.28                           133  18 
 OCA  SZ ES   3    211 30.40                             128     0.1 2  166 355 
 OCA  SZ I         211 34.88        65.8 0.19                           166 355 
 YOP  SZ EP   1    211  8.62                             126    -0.4 7  176 151 
 YOP  SE ES   2    211 32.35                             126     0.4 4  176 151 
 CHI  HZ EP   1    211 15.94                             117    -0.3 6  242 195 
 CHI  HE ES   2    211 45.20                             117     0.3 4  242 195 
 CHI  HZ I         211 53.41        30.3 0.42                           242 195 
 ROSC BZ EP   2    211 17.68                             117     1.0 4  246 211 
 ROSC BZ I         211 56.36        52.2 0.40                           246 211 
 HEL  HZ EP   1    211 19.15                             115     0.2 6  267 257 
 HEL  HN ES   2    211 49.39                             115    -0.3 4  267 257 
 HEL  HZ I         211 56.87        48.6 0.32                           267 257 
 GUY  SZ EP        211 21.66                             112    -0.5 7  295 235 
 GUY  SE ES   3    211 55.63                             112     0.2 2  295 235 
 GUY  SZ I         212  6.44        51.4 0.59                           295 235 
 VIL  SN ES   3    211 56.12                             112     0.9 2  297 191 
 RREF HZ EP        211 25.31                             111     0.6 7  315 230 
 RREF HZ I         212 10.38        39.7 0.36                           315 230 
 DBB  SZ EP        211 26.03                             109    -0.4 7  336 275 
 TOL  SZ EP        211 27.55                             109     0.8 7  336 225 
 MON  HZ EP   4    211 25.24                             108    -3.1 0  353 310 
 MON  HZ I         211 32.92        20.0 0.33                           353 310 
 MON  HE ES   4    212  3.70                             108    -2.7 0  353 310 
 PRA  HZ EP   1    211 31.58                             106    -0.5 4  385 209 
 PRA  HN ES   2    212 13.31                             106     0.3 3  385 209 
 PRA  HZ I         212 16.97        77.5 0.17                           385 209 
                                                                                
