 2013  3 7 0635 56.4 L   6.716 -73.145145.6  RSN  4 0.3 1.6LRSN                1
 GAP=200        0.79       9.6    21.7  8.4  0.1893E+03 -0.1046E+03 -0.5317E+02E
 Epicentro: VILLANUEVA - SANTANDER                                             3
 ACTION:UPD 13-04-09 14:00 OP:ep   STATUS:               ID:20130307063556 L   I
 2013-03-07-0630-00M.COL___231                                                 6
 STAT SP IPHASW D HRMM SECON CODA AMPLIT PERI AZIMU VELO AIN AR TRES W  DIS CAZ7
 BAR2 SZ ES   1    636 30.86                             174   -0.18 7 14.3 197 
 BAR2 SZ I         636 31.46         8.8 0.17            160           14.3 197 
 BRR  HZ EP        636 17.46                             151   -0.3610 76.2 305 
 BRR  HE ES        636 34.64                             151    0.1210 76.2 305 
 BRR  HE I         636 39.37         9.4 0.26            141           76.2 305 
 RUS  HZ EP        636 19.26                             146   -0.2310 91.3 176 
 RUS  HE ES        636 37.78                             146    0.2810 91.3 176 
 RUS  HE I         636 38.79         7.4 0.26            142           91.3 176 
 SML  HZ EP        636 34.62                             116    0.68 8  252 336 
 SML  HE ES        637  3.04                             116   -0.18 8  252 336 
                                                                                
