 2017 11 7 0729 30.9 L   6.809 -73.155148.4  RSN  7 0.4 1.4LRSN                1
 GAP=111        0.96       5.4     4.8  7.2 -0.2319E+01  0.9388E+01  0.9497E+01E
 Epicentro: LOS SANTOS - SANTANDER                                             3
 ACTION:UPD 17-12-12 19:53 OP:rebc STATUS:               ID:20171107072930 L   I
 OLDACT:REG 17-11-07 13:29 OP:dnl  STATUS:               ID:20171107072739     3
 2017-11-07-0728-00M.COL___405                                                 6
 STAT SP IPHASW D HRMM SECON CODA AMPLIT PERI AZIMU VELO AIN AR TRES W  DIS CAZ7
 BAR2 EZ EP        729 50.76                             170   -0.1210 24.1 187 
 BAR2 EZ ES        730  6.01                             170   -0.4410 24.1 187 
 BAR2 EZ I         730  6.95         8.9 0.26            172           24.1 187 
 BRR  HZ EP        729 52.62                             153    0.3410 69.8 298 
 BRR  HN ES        730  9.58                             153    0.6410 69.8 298 
 BRR  HZ I         730 10.52         4.0 0.62            152           69.8 298 
 PAM  EN ES        730 10.91                             151   -0.0510 77.3  41 
 PAM  EZ I         730 13.14         3.8 0.64            151           77.3  41 
 PTB  HZ EP        729 57.56                             133   -0.47 9  147 258 
 PTB  HE ES        730 18.60                             133   -0.57 9  147 258 
 PTB  HZ I         730 20.99         2.1 0.44            132            147 258 
 SPBC HZ EP        729 59.86                             130    0.23 9  163 218 
 SPBC HN ES        730 22.54                             130    0.52 9  163 218 
 SPBC HZ I         730 22.96         3.9 0.26            130            163 218 
 YPLC HZ EP   2    730  1.00                             127   -0.04 4  178 151 
 YPLC HN ES   4    730 21.90                             127   -2.63 0  178 151 
 YPLC HZ I         730 26.68         2.6 0.32            128            178 151 
 ZAR  HZ EP   2    730  3.51                             123    0.11 4  203 292 
 ZAR  HN ES        730 28.59                             123   -0.14 9  203 292 
 ZAR  HZ I         730 35.76         2.8 0.32            122            203 292 
                                                                                
