 2017  2 7 0117 53.1 L   6.800 -73.171150.5  RSN  4 0.0 1.2LRSN                1
 GAP=235        0.53       6.1     5.3  4.9  0.6260E+01 -0.8812E+01  0.4987E+01E
 Epicentro: LOS SANTOS - SANTANDER                                             3
 ACTION:UPD 17-05-24 15:33 OP:jn   STATUS:               ID:20170207011753 L   I
 OLDACT:UP  17-02-07 14:18 OP:edw  STATUS:               ID:20170207011660d    3
 OLDACT:DUP 17-02-07 14:14 OP:edw  STATUS:               ID:20170207011660d    3
 OLDACT:UP  17-02-07 14:13 OP:edw  STATUS:               ID:20170207011659     3
 OLDACT:UP  17-02-07 14:12 OP:edw  STATUS:               ID:20170207011659     3
 OLDACT:REG 17-02-07 12:17 OP:edw  STATUS:               ID:20170207011659     3
 2017-02-07-0118-00M.COL___331                                                 6
 STAT SP IPHASW D HRMM SECON CODA AMPLIT PERI AZIMU VELO AIN AR TRES W  DIS CAZ7
 BAR2 EZ EP   9    118 28.21                             171   14.96 0 23.0 183 
 BAR2 EZ ES        118 44.35                             172    0.3910 23.0 183 
 BAR2 EZ I         118 45.96         4.2 0.28            171           23.0 183 
 BRR  HZ EP        118 14.63                             155    0.0510 68.7 300 
 BRR  HN ES        118 31.39                             155    0.0110 68.7 300 
 RUS  HZ EP        118 17.27                             145   -0.0210  101 174 
 RUS  HN ES   4    118 35.18                             145   -1.02 0  101 174 
 RUS  HZ I         118 36.25         3.4 0.24            156            101 174 
 PTB  HZ EP   4    118 20.64                             134    0.47 0  145 259 
 PTB  HE ES        118 41.27                             134   -0.04 9  145 259 
 PTB  HZ I         118 43.41         1.2 0.13            152            145 259 
 ZAR  HZ EP   4    118 18.19                             124   -7.36 0  201 292 
 ZAR  HN ES   4    118 52.45                             124    1.56 0  201 292 
                                                                                
