 2017 10 7 0642 48.2 L   6.346 -73.578108.2  RSN  8 0.4 1.5LRSN                1
 GAP=106        1.05       3.8     3.4  6.8  0.1267E+01  0.9623E+01  0.3068E+01E
 Epicentro: SANTA HELENA DEL OPON - SANTANDER                                  3
 ACTION:UPD 17-11-07 19:29 OP:rebc STATUS:               ID:20171007064248 L   I
 OLDACT:DUP 17-10-07 16:16 OP:dhb  STATUS:               ID:20171007063209d    3
 OLDACT:REG 17-10-07 12:56 OP:dhb  STATUS:               ID:20171007063208     3
 2017-10-07-0638-00M.COL___438                                                 6
 STAT SP IPHASW D HRMM SECON CODA AMPLIT PERI AZIMU VELO AIN AR TRES W  DIS CAZ7
 BAR2 EZ IP     C  643  4.56                             153   -0.0010 51.6  58 
 BAR2 EZ ES        643 17.49                             153    0.2010 51.6  58 
 BAR2 EZ I         643 18.84        15.3 0.15            159           51.6  58 
 RUS  HZ EP        643  5.96                             143   -0.4410 74.3 132 
 RUS  HN ES        643 20.10                             143   -0.4610 74.3 132 
 RUS  HZ I         643 22.84         5.7 0.34            146           74.3 132 
 SPBC HZ EP        643  8.05                             136    0.6310 94.2 216 
 SPBC HE ES        643 22.11                             136   -0.2710 94.2 216 
 SPBC HZ I         643 28.19         4.0 0.12            137           94.2 216 
 NOR  HZ EP        643 14.25                             118   -0.28 9  167 239 
 NOR  HE ES        643 35.10                             118    0.06 9  167 239 
 NOR  HZ I         643 36.92         3.4 0.18            120            167 239 
 YPLC HZ EP        643 14.68                             118   -0.11 9  169 128 
 YPLC HE ES        643 36.21                             118    0.71 9  169 128 
 YPLC HZ I         643 37.31         6.6 0.32            121            169 128 
 ZAR  HZ EP        643 16.30                             114   -0.67 9  190 312 
 ZAR  HE ES        643 39.87                             114    0.48 9  190 312 
 ZAR  HZ I         643 42.52         3.9 0.19            118            190 312 
 GUY2CHZ EP        643 22.96                             109    0.46 8  234 238 
 GUY2CHE ES   4    643 51.55                             109    2.33 0  234 238 
 GUY2CHZ I         643 55.40         1.6 0.38                           234 238 
 PRA  HZ EP        643 32.18                             102   -0.54 7  325 207 
 PRA  HE ES        644  7.65                             102    0.24 7  325 207 
 PRA  HZ I         644 14.45         1.4 0.43            105            325 207 
                                                                                
