 2012  1 7 0712 40.5 L   6.794 -73.143139.8  RSN 12 0.3 1.8LRSN                1
 GAP=137        0.64       2.7     3.3  4.5 -0.8564E+00  0.5133E+01  0.1716E+01E
 Epicentro: LOS SANTOS - SANTANDER                                             3
 ACTION:UP  12-02-03 08:15 OP:REBC STATUS:               ID:20120107071240 L   I
 2012-01-07-0710-00M.COL___186                                                 6
 STAT SP IPHASW D HRMM SECON CODA AMPLIT PERI AZIMU VELO SNR AR TRES W  DIS CAZ7
 BAR2 SZ EP        712 59.19                             170    -0.210   23 191 
 BAR2 SZ ES   1    713 13.90                             170    -0.2 7   23 191 
 BAR2 SZ I         713 23.14        15.3 0.40                            23 191 
 GIR2 SZ EP   1    712 59.19                             166    -0.3 7   32 350 
 GIR2 SZ ES   1    713 14.74                             166     0.5 7   32 350 
 BRR  HZ EP        713  0.92                             151    -0.110   72 299 
 BRR  HZ I         713  1.30        23.3 0.10                            72 299 
 BRR  HN ES   2    713 17.28                             151     0.2 5   72 299 
 PAM  SZ EP   1    713  2.05                             150     0.0 7   78  39 
 PAM  SN ES   1    713 18.91                             150     0.0 7   78  39 
 RUS  HZ EP   1    713  3.85                             143     0.3 7  100 176 
 RUS  HN ES   1    713 21.71                             143     0.1 7  100 176 
 RUS  HZ I         713 23.72         8.8 0.37                           100 176 
 PTB  HZ EP   1    713  6.29                             131    -0.7 7  148 259 
 PTB  HN ES   1    713 27.26                             131    -0.4 7  148 259 
 OCA  SZ EP   1    713  8.70                             128     0.3 7  161 353 
 OCA  SZ ES   2    713 30.08                             128    -0.1 5  161 353 
 OCA  SZ I         713 35.10         8.4 0.36                           161 353 
 ZAR  HZ EP   1    713 13.19                             121     0.6 6  205 292 
 ZAR  HN ES   1    713 37.46                             121    -0.2 6  205 292 
 CHI  HZ EP   1    713 17.67                             116    -0.1 6  248 195 
 CHI  HZ I         713 20.25         1.9 0.45                           248 195 
 CHI  HN ES   1    713 46.92                             116     0.0 6  248 195 
 HEL  HZ EP   2    713 20.55                             113     0.2 4  272 256 
 HEL  HN ES   1    713 51.93                             113     0.4 6  272 256 
 HEL  HZ I         713 59.16         3.9 0.35                           272 256 
 RREF HZ EP   1    713 26.27                             110    -0.1 5  322 230 
 RREF HN ES   1    714  2.62                             110     0.5 5  322 230 
 RREF HZ I         714 11.66         3.2 0.42                           322 230 
 PRA  HZ EP   2    713 33.85                             105     0.1 3  392 210 
                                                                                
