 2014  2 7 0638 46.3 L   6.810 -73.174148.2  RSN  9 0.3 1.9LRSN                1
 GAP= 69        0.63       2.3     3.4  5.7 -0.1729E+01  0.2526E+01  0.1655E+01E
 Epicentro: LOS SANTOS - SANTANDER                                             3
 ACTION:UPD 14-03-10 08:08 OP:ep   STATUS:               ID:20140207063846 L   I
 OLDACT:UP  14-02-07 12:55 OP:mh   STATUS:               ID:20140207063746     3
 OLDACT:UP  14-02-07 12:54 OP:mh   STATUS:               ID:20140207063746     3
 OLDACT:REG 14-02-07 09:17 OP:mh   STATUS:               ID:20140207063746     3
 2014-02-07-0637-46M.COL___224                                                 6
 STAT SP IPHASW D HRMM SECON CODA AMPLIT PERI AZIMU VELO AIN AR TRES W  DIS CAZ7
 PAM  SZ EP        639  9.41                             151    0.5610 78.6  42 
 PAM  SN ES        639 26.45                             151    0.0110 78.6  42 
 PAM  SZ I         639 28.62        15.2 0.46            154           78.6  42 
 RUS  HZ EP   1    639 10.44                             144    0.05 7  102 174 
 RUS  HZ I         639 30.21         4.5 0.27            142            102 174 
 PTB  HZ EP   1    639 13.68                             133    0.46 7  145 258 
 PTB  HN ES   1    639 34.01                             133   -0.20 7  145 258 
 PTB  HZ I         639 39.87         4.5 0.05            133            145 258 
 TAM  HZ EP   1    639 14.02                             130   -0.45 7  158 105 
 OCA  HZ EP        639 14.36                             130   -0.31 9  159 354 
 OCA  HN ES   1    639 36.63                             130   -0.17 7  159 354 
 OCA  HZ I         639 41.01        22.1 0.04            133            159 354 
 SPBC HZ EP   1    639 15.22                             130    0.34 7  162 218 
 SPBC HN ES   1    639 37.07                             130   -0.11 7  162 218 
 SPBC HZ I         639 42.44         8.5 0.26            129            162 218 
 ZAR  HZ EP   4    639 20.80                             123    2.23 0  201 292 
 ZAR  HN ES   2    639 43.89                             123    0.15 4  201 292 
 ZAR  HZ I         639 50.54         5.9 0.29            124            201 292 
 SML  HZ EP        639 22.78                             118   -0.04 8  241 336 
 SML  HN ES   1    639 51.11                             118   -0.20 6  241 336 
 SML  HZ I         639 54.82        11.2 0.08            119            241 336 
 CHI  HZ EP   1    639 24.01                             118   -0.15 6  249 194 
 CHI  HN ES        639 53.43                             118   -0.26 8  249 194 
 CHI  HZ I         639 57.49         3.6 0.41            117            249 194 
 GUY2CHZ EP   4    639 31.57                             113    1.76 0  299 234 
 GUY2CHN ES   4    640  7.19                             113    3.45 0  299 234 
                                                                                
