 2016 10 7 0331 19.5 L   6.796 -73.146144.0  RSN  9 0.5 1.8LRSN                1
 GAP=137        1.18       4.7     5.2  8.9 -0.5971E+01  0.8223E+01  0.1063E+02E
 Epicentro: LOS SANTOS - SANTANDER                                             3
 ACTION:UPD 16-11-09 19:17 OP:rebc STATUS:               ID:20161007033119 L   I
 OLDACT:UP  16-10-07 14:10 OP:dnl  STATUS:               ID:20161007032750     3
 OLDACT:REG 16-10-07 12:46 OP:dnl  STATUS:               ID:20161007032750     3
 2016-10-07-0328-00M.COL___351                                                 6
 STAT SP IPHASW D HRMM SECON CODA AMPLIT PERI AZIMU VELO AIN AR TRES W  DIS CAZ7
 BRR  HZ EP        331 40.72                             152    0.2210 71.4 299 
 BRR  HE ES        331 57.61                             152    0.7610 71.4 299 
 BRR  HZ I         331 58.35        14.0 0.48            152           71.4 299 
 PAM  EZ EP        331 41.80                             151    0.2210 77.8  39 
 PAM  EN ES        331 58.29                             151   -0.4910 77.8  39 
 PAM  EZ I         332  0.95         9.2 0.62            154           77.8  39 
 RUS  HZ EP        331 43.00                             144   -0.0810  100 176 
 RUS  HN ES        332  1.81                             144    0.3710  100 176 
 RUS  HZ I         332  3.23        10.2 0.34            145            100 176 
 PTB  HZ EP        331 45.71                             132   -0.63 9  148 259 
 PTB  HN ES        332  6.17                             132   -1.09 9  148 259 
 PTB  HZ I         332  9.65         8.1 0.12            132            148 259 
 SPBC HZ EP        331 47.91                             129    0.05 9  163 219 
 SPBC HE ES        332 10.01                             129    0.06 9  163 219 
 SPBC HZ I         332 14.69        10.3 0.64            130            163 219 
 ZAR  HZ EP   2    331 52.90                             122    1.02 4  204 292 
 ZAR  HE ES   2    332 17.12                             122    0.02 4  204 292 
 ZAR  HZ I         332 23.21         9.0 0.34            123            204 292 
 NOR  HZ EP   2    331 55.54                             118    0.41 4  234 235 
 NOR  HE ES        332 22.96                             118    0.07 8  234 235 
 NOR  HZ I         332 24.93         4.8 0.22            119            234 235 
 CHI  HZ EP   2    331 56.43                             117   -0.66 4  248 195 
 CHI  HN ES        332 26.00                             117   -0.38 8  248 195 
 CHI  HZ I         332 30.78         1.6 0.28            118            248 195 
 GUY2CHZ EP   4    332  4.62                             112    1.59 0  301 235 
 GUY2CHN ES        332 37.85                             112    0.90 7  301 235 
 GUY2CHZ I         332 44.22         2.6 0.38                           301 235 
                                                                                
