 2011  2 7 0758 43.9 L   7.479 -73.104141.3  RSN  5 0.2 1.6LRSN                1
 GAP=149        0.37       2.8     6.7  5.0 -0.5092E+01  0.1446E+02 -0.2040E+00E
 Epicentro: EL PLAYON - SANTANDER                                              3
 ACTION:UP  11-03-28 15:06 OP:jfem STATUS:               ID:20110207075843 L   I
 2011-02-07-0754-29S.COL___138                                                 6
 STAT SP IPHASW D HRMM SECON CODA AMPLIT PERI AZIMU VELO SNR AR TRES W  DIS CAZ7
 GRA  SZ EP   1    759  4.06                             157     0.1 7   56  36 
 GRA  SZ ES   2    759 19.87                             157     0.2 5   56  36 
 GRA  SZ I         759 21.79        12.3 0.29                            56  36 
 BTL  SZ EP   1    759  4.51                             154    -0.1 7   65 196 
 BTL  SZ ES   2    759 20.52                             154    -0.2 5   65 196 
 OCA  SZ EP   1    759  5.81                             147     0.0 7   87 344 
 OCA  SZ I         759 10.08         6.0 0.53                            87 344 
 OCA  SZ ES   2    759 22.75                             147    -0.1 5   87 344 
 BAR2 SZ EP   1    759  6.56                             143    -0.2 7   99 185 
 BAR2 SZ ES   2    759 24.79                             143     0.3 5   99 185 
 BAR2 SZ I         759 27.91         7.2 0.26                            99 185 
 HEL  HZ EP   1    759 27.67                             111     0.2 5  304 242 
 HEL  HZ I         8 0 13.13         1.0 0.32                           304 242 
                                                                                
