 2014  6 7 0809 40.5 L   6.799 -73.102150.0  RSN 13 0.5 2.0LRSN                1
 GAP=187        0.93       3.2     5.2  6.7 -0.2688E+01  0.1044E+02 -0.1290E+01E
 Epicentro: LOS SANTOS - SANTANDER                                             3
 ACTION:UPD 14-07-01 22:51 OP:nd   STATUS:               ID:20140607080940 L   I
 OLDACT:REG 14-06-07 13:30 OP:fm   STATUS:               ID:20140607080816     3
 2014-06-07-0808-16M.COL___253                                                 6
 STAT SP IPHASW D HRMM SECON CODA AMPLIT PERI AZIMU VELO AIN AR TRES W  DIS CAZ7
 BAR2 SZ EP        810  0.93                             170    0.2310 24.5 201 
 BAR2 SZ ES   1    810 16.85                             170    0.42 7 24.5 201 
 BAR2 SZ I         810 18.05         8.7 0.28            167           24.5 201 
 RUS  HZ EP        810  4.24                             145   -0.4410  100 179 
 RUS  HN ES        810 23.58                             145    0.0710  100 179 
 RUS  HZ I         810 26.52         5.7 0.28            146            100 179 
 PTB  HZ EP        810  8.05                             132   -0.22 9  152 259 
 PTB  HE ES        810 29.69                             132   -0.22 9  152 259 
 PTB  HZ I         810 31.93         9.5 0.16            130            152 259 
 OCA  HZ EP   2    810 10.18                             130    0.93 5  161 351 
 OCA  HN ES   1    810 31.86                             130    0.21 7  161 351 
 OCA  HZ I         810 36.80        13.5 0.28            131            161 351 
 SPBC HZ EP        810 10.06                             129    0.42 9  166 220 
 SPBC HN ES        810 31.76                             129   -0.58 9  166 220 
 SPBC HZ I         810 37.67        14.8 0.42            129            166 220 
 NOR  HZ EP        810 17.39                             119    0.47 8  239 235 
 NOR  HE ES        810 45.43                             119    0.13 8  239 235 
 NOR  HZ I         810 50.41         6.6 0.40            118            239 235 
 SML  HZ EP   2    810 16.96                             118   -0.68 4  246 334 
 SML  HN ES        810 46.05                             118   -0.53 8  246 334 
 SML  HZ I         810 52.60        12.6 0.10            118            246 334 
 HEL  HZ EP   1    810 22.34                             115    0.87 6  277 256 
 HEL  HN ES   4    810 51.94                             115   -1.47 0  277 256 
 HEL  HZ I         811  1.66         4.1 0.40            115            277 256 
 GUY2CHZ EP   4    810 26.01                             113    1.24 0  305 235 
 GUY2CHN ES   1    810 59.66                             113    0.38 5  305 235 
 GUY2CHZ I         811  7.50         3.7 0.30                           305 235 
 RREF HZ EP   4    810 28.41                             111    1.14 0  325 230 
 RREF HN ES   4    811  5.02                             111    1.30 0  325 230 
 RREF HZ I         811 11.96         5.5 0.26            111            325 230 
 TOL  SZ EP   4    810 31.05                             110    1.71 0  347 225 
 TOL  SN ES   1    811  8.24                             110    0.83 5  347 225 
 TOL  SZ I         811 12.73         7.6 0.40            110            347 225 
 PRA  HZ EP        810 33.68                             107   -0.79 6  394 210 
 PRA  HN ES        811 16.12                             107   -0.41 6  394 210 
 PRA  HZ I         811 25.63         2.6 0.50            108            394 210 
 SJC  HZ EP   4    810 35.31                             106   -1.25 0  412 326 
 SJC  HN ES   4    811 14.65                             106   -5.61 0  412 326 
 SJC  HZ I         811 24.21         1.9 0.68            107            412 326 
                                                                                
