 2010  9 7 0020  8.8 L   7.412 -73.205131.4  RSN  5 0.5 1.5LRSN                1
 GAP=161        1.04      14.8    24.2 17.8 -0.2588E+03  0.8052E+02 -0.1367E+02E
 Epicentro: EL PLAYON - SANTANDER                                              3
 ACTION:UP  11-02-18 11:00 OP:tino STATUS:               ID:20100907002008 L   I
 2010-09-07-0017-30S.COL___120                                                 6
 STAT SP IPHASW D HRMM SECON CODA AMPLIT PERI AZIMU VELO SNR AR TRES W  DIS CAZ7
 BTL  SZ IP        020 28.44                             155     0.610   55 187 
 BTL  SZ ES   2    020 42.33                             155    -0.4 5   55 187 
 BRR  HZ EP   1    020 27.62                             152    -0.4 7   65 239 
 BRR  HZ I         020 29.17         9.9 0.20                            65 239 
 GRA  SZ IP        020 28.45                             150     0.010   68  40 
 GRA  SZ ES   2    020 43.45                             150    -0.3 5   68  40 
 GRA  SZ I         020 46.31        13.2 0.37                            68  40 
 BAR2 SZ EP   3    020 29.25                             143    -0.8 2   91 179 
 BAR2 SZ I         020 46.83         4.0 0.38                            91 179 
 RUS  HZ EP   2    020 36.49                             124    -0.8 5  169 175 
 RUS  HZ I         021  1.32         1.7 0.39                           169 175 
                                                                                
