 2017  1 7 0003  1.0 L   6.873 -73.147144.0  RSN  5 0.4 1.5LRSN                1
 GAP=244        0.88       9.1     6.8  7.9  0.2942E+02  0.1913E+01 -0.9663E+01E
 Epicentro: LOS SANTOS - SANTANDER                                             3
 ACTION:UPD 17-05-22 15:56 OP:jn   STATUS:               ID:20170107000301 L   I
 OLDACT:UP  17-01-07 13:13 OP:ar   STATUS:               ID:20170107000003     3
 OLDACT:REG 17-01-07 12:21 OP:ar   STATUS:               ID:20170107000003     3
 2017-01-07-0000-15M.COL___386                                                 6
 STAT SP IPHASW D HRMM SECON CODA AMPLIT PERI AZIMU VELO AIN AR TRES W  DIS CAZ7
 BAR2 EZ EP        0 3 20.02                             167   -0.5710 31.3 187 
 BAR2 EZ ES        0 3 35.55                             167   -0.3310 31.3 187 
 BAR2 EZ I         0 3 37.48         6.9 0.17             47           31.3 187 
 BRR  HZ EP   2    0 3 22.48                             153    0.74 5 67.6 293 
 BRR  HN ES   2    0 3 38.88                             153    0.95 5 67.6 293 
 BRR  HZ I         0 3 47.36        11.3 0.38             47           67.6 293 
 RUS  HZ EP        0 3 25.43                             141    0.2710  109 176 
 RUS  HE ES        0 3 44.29                             141    0.2710  109 176 
 RUS  HZ I         0 3 44.90         3.6 0.22             47            109 176 
 PTB  HZ EP        0 3 27.91                             131   -0.05 9  149 256 
 PTB  HN ES        0 3 49.00                             131   -0.00 9  149 256 
 PTB  HZ I         0 3 55.64         2.9 0.30             47            149 256 
 ZAR  HN EP   9    0 3 34.15                             122    1.14 0  201 290 
 ZAR  HE ES   2    0 3 58.86                             122   -0.27 4  201 290 
                                                                                
