 2017 10 7 0344 36.4 L   6.855 -73.118145.1  RSN  9 0.3 1.6LRSN                1
 GAP=187        0.67       2.7     3.6  4.1  0.4182E+01  0.3293E+01 -0.6761E+00E
 Epicentro: LOS SANTOS - SANTANDER                                             3
 ACTION:UPD 17-11-07 19:29 OP:rebc STATUS:               ID:20171007034436 L   I
 OLDACT:UP  17-10-07 15:29 OP:dhb  STATUS:               ID:20171007033736     3
 OLDACT:REG 17-10-07 12:36 OP:dhb  STATUS:               ID:20171007033736     3
 2017-10-07-0338-00M.COL___438                                                 6
 STAT SP IPHASW D HRMM SECON CODA AMPLIT PERI AZIMU VELO AIN AR TRES W  DIS CAZ7
 BAR2 EZ IP     C  344 56.23                             168    0.1110 30.0 194 
 BAR2 EZ ES        345 11.49                             168    0.0110 30.0 194 
 BAR2 EZ I         345 12.81        10.7 0.16            165           30.0 194 
 RUS  HZ EP        345  0.46                             142   -0.0810  107 178 
 RUS  HN ES        345 19.28                             142   -0.0710  107 178 
 RUS  HZ I         345 21.51         3.1 0.24            143            107 178 
 SPBC HZ EP        345  5.23                             128   -0.27 9  170 218 
 SPBC HE ES        345 27.91                             128   -0.28 9  170 218 
 SPBC HZ I         345 33.75         4.9 0.07            128            170 218 
 YPLC HZ IP     C  345  6.73                             126    0.18 9  181 153 
 YPLC HE ES        345 30.14                             126    0.08 9  181 153 
 YPLC HZ I         345 33.24         4.1 0.34            129            181 153 
 ZAR  HZ EP        345  9.69                             122    0.81 9  205 290 
 ZAR  HN ES        345 34.32                             122    0.12 9  205 290 
 ZAR  HZ I         345 44.76         4.0 0.34            122            205 290 
 CHI  HZ EP        345 14.68                             116   -0.13 8  255 195 
 CHI  HE ES        345 44.68                             116   -0.07 8  255 195 
 CHI  HZ I         345 46.17         1.8 0.32            118            255 195 
 GUY2CHZ EP        345 20.40                             112   -0.28 7  307 234 
 GUY2CHE ES   4    345 59.61                             112    4.41 0  307 234 
 GUY2CHZ I         346  4.35         1.8 0.46                           307 234 
 PRA  HZ EP        345 30.74                             106    0.03 6  399 210 
 PRA  HE ES        346 13.49                             106    0.42 6  399 210 
 PRA  HZ I         346 17.13         1.7 0.38            107            399 210 
 SJC  HZ EP        345 30.79                             106   -0.76 6  406 326 
 SJC  HN ES        346 14.44                             106   -0.12 6  406 326 
 SJC  HZ I         346 17.38         0.9 0.26            107            406 326 
                                                                                
