 2012  5 7 0258 21.7 L   6.775 -73.134145.5  RSN  9 0.3 2.1LRSN                1
 GAP=139        0.85       4.4     5.5  6.8 -0.4023E+01  0.1474E+02  0.7297E+01E
 Epicentro: LOS SANTOS - SANTANDER                                             3
 ACTION:UP  12-07-05 12:02 OP:pat  STATUS:               ID:20120507025821 L   I
 2012-05-07-0240-00M.COL___173                                                 6
 STAT SP IPHASW D HRMM SECON CODA AMPLIT PERI AZIMU VELO SNR AR TRES W  DIS CAZ7
 BAR2 SZ IP        258 41.20                             171    -0.110   21 195 
 BAR2 SZ ES   2    258 56.45                             171     0.0 5   21 195 
 BAR2 SZ I         258 57.70        52.4 0.32                            21 195 
 BRR  HZ IP     D  258 43.04                             152     0.110   74 300 
 BRR  HZ I         258 43.23        28.6 0.12                            74 300 
 BRR  HE ES   1    258 59.89                             152     0.3 7   74 300 
 PAM  SZ EP        258 44.03                             150     0.110   79  38 
 PAM  SN ES   1    259  1.29                             150     0.0 7   79  38 
 RUS  HZ EP        258 45.11                             145    -0.110   98 177 
 RUS  HN ES   1    259  3.63                             145     0.1 7   98 177 
 RUS  HZ I         259  5.06        14.4 0.28                            98 177 
 PTB  HZ EP        258 47.94                             132    -0.8 9  149 260 
 PTB  HZ I         259 14.81        11.2 0.50                           149 260 
 NOR  SZ EP        258 57.26                             118    -0.1 8  234 235 
 NOR  SN ES   1    259 25.01                             118    -0.2 6  234 235 
 CHI  HZ EP        258 59.26                             117     0.1 8  246 196 
 CHI  HN ES   1    259 28.35                             117     0.0 6  246 196 
 CHI  HZ I         259 34.34         5.6 0.34                           246 196 
 HEL  HZ EP        259  2.23                             115     0.3 8  273 256 
 HEL  HZ I         259 40.07         7.3 0.38                           273 256 
 GUY  SZ EP        259  6.28                             112     0.8 7  303 236 
 GUY  SZ I         259 48.95        14.1 0.34                           303 236 
                                                                                
