 2017  8 7 0155 12.3 L   6.713 -73.184149.7  RSN  6 0.3 1.3LRSN                1
 GAP=135        0.81       4.1     4.3  7.1 -0.2482E+01 -0.2795E+01 -0.3464E+00E
 Epicentro: VILLANUEVA - SANTANDER                                             3
 ACTION:UPD 17-09-04 20:17 OP:rebc STATUS:               ID:20170807015512 L   I
 OLDACT:REG 17-08-07 12:09 OP:dhb  STATUS:               ID:20170807014742     3
 2017-08-07-0148-00M.COL___393                                                 6
 STAT SP IPHASW D HRMM SECON CODA AMPLIT PERI AZIMU VELO AIN AR TRES W  DIS CAZ7
 BRR  HZ IP     D  155 34.14                             153    0.1910 72.9 307 
 BRR  HN ES        155 51.09                             153    0.2410 72.9 307 
 BRR  HZ I         155 56.73         5.6 0.27            151           72.9 307 
 PAM  EZ IP     D  155 35.31                             148   -0.2210 87.5  38 
 PAM  EZ I         155 54.58         5.0 0.44            139           87.5  38 
 RUS  HZ EP        155 36.13                             147    0.3410 91.4 173 
 RUS  HN ES        155 54.07                             147   -0.0610 91.4 173 
 RUS  HZ I         155 55.83         1.7 0.27            150           91.4 173 
 PTB  HZ EP        155 39.15                             134    0.09 9  142 262 
 PTB  HE ES        155 59.44                             134   -0.52 9  142 262 
 PTB  HZ I         156  0.34         2.1 0.17            138            142 262 
 SPBC HZ EP        155 39.73                             132   -0.42 9  153 220 
 SPBC HN ES        156  1.75                             132   -0.14 9  153 220 
 SPBC HZ I         156  5.05         1.7 0.06            136            153 220 
 NOR  HN ES        156 15.16                             120    0.56 8  226 236 
                                                                                
