 2015  1 7 0428 54.1 L   7.519 -73.167132.8  RSN  5 0.5 1.6LRSN                1
 GAP=216        1.10       5.3     8.2 11.3  0.6469E+01 -0.2383E+02 -0.1334E+02E
 Epicentro: EL PLAYON - SANTANDER                                              3
 ACTION:UPD 15-03-02 15:37 OP:nd   STATUS:               ID:20150107042854 L   I
 OLDACT:REG 15-01-07 15:53 OP:spq  STATUS:               ID:20150107042819     3
 2015-01-07-0428-19M.COL___277                                                 6
 STAT SP IPHASW D HRMM SECON CODA AMPLIT PERI AZIMU VELO AIN AR TRES W  DIS CAZ7
 BRR  HZ EP        429 14.32                             149    0.2510 75.5 233 
 BRR  HN ES        429 29.88                             149    0.1910 75.5 233 
 BAR2 EZ EP        429 16.22                             140   -0.1210  103 181 
 SML  HZ EP        429 23.01                             124    0.54 9  173 325 
 SML  HN ES        429 43.99                             124   -0.65 9  173 325 
 SML  HN I         429 46.38        11.1 0.10            123            173 325 
 PTB  HZ EP        429 23.13                             123    0.06 9  179 233 
 PTB  HN ES        429 45.07                             123   -0.64 9  179 233 
 PTB  HZ I         429 46.55         2.2 0.28            122            179 233 
 ZAR  HZ EP        429 23.44                             122   -0.42 9  187 269 
 ZAR  HN ES        429 47.82                             122    0.72 9  187 269 
 ZAR  HZ I         429 50.64         3.0 0.26            121            187 269 
                                                                                
