 2010 11 7 0724 33.1 L   6.830 -72.981136.0  RSN  6 0.3 1.6LRSN                1
 GAP=200        0.93       6.0    17.8 16.8  0.5199E+02 -0.1926E+03 -0.3553E+02E
 Epicentro: CEPITA - SANTANDER                                                 3
 ACTION:UP  10-12-17 16:50 OP:REBC STATUS:               ID:20101107072433 L   I
 2010-11-07-0723-00S.COL___125                                                 6
 STAT SP IPHASW D HRMM SECON CODA AMPLIT PERI AZIMU VELO SNR AR TRES W  DIS CAZ7
 BTL  SZ EP        724 52.44                             166     0.710   33 287 
 BAR2 SZ EP        724 51.74                             166    -0.110   35 220 
 BAR2 SZ I         724 56.84        11.7 0.44                            35 220 
 GIR2 SZ EP   2    724 51.93                             165     0.2 5   36 320 
 BRR  HZ EP        724 53.81                             147    -0.310   87 291 
 BRR  HZ I         724 55.53        10.9 0.02                            87 291 
 BRR  HN ES   1    725 10.77                             147     0.2 7   87 291 
 RUS  HZ EP        724 55.94                             141    -0.210  104 186 
 RUS  HN ES   2    725 13.82                             141    -0.3 5  104 186 
 RUS  HZ I         725 15.42         3.3 0.45                           104 186 
 OCA  SZ EP        725  0.66                             128     0.0 9  160 347 
 OCA  SZ ES   1    725 21.69                             128    -0.4 7  160 347 
 OCA  SZ I         725 25.53         5.6 0.35                           160 347 
                                                                                
