 2010 12 7 0128 38.3 L   6.799 -73.179139.1  RSN  7 0.3 1.6LRSN                1
 GAP=162        0.56       8.3    12.9  9.8 -0.9022E+02  0.8193E+02 -0.3945E+02E
 Epicentro: LOS SANTOS - SANTANDER                                             3
 ACTION:UP  11-01-14 15:23 OP:pat  STATUS:               ID:20101207012838 L   I
 2010-12-07-0126-55S.COL___135                                                 6
 STAT SP IPHASW D HRMM SECON CODA AMPLIT PERI AZIMU VELO SNR AR TRES W  DIS CAZ7
 BTL  SZ EP   1    128 57.07                             173     0.0 7   16 323 
 BAR2 SZ EP        128 56.92                             170    -0.210   23 181 
 BAR2 SZ ES   2    129 12.19                             170     0.4 5   23 181 
 BAR2 SZ I         129 14.97        11.0 0.42                            23 181 
 GIR2 SZ EP   2    128 57.06                             167    -0.1 5   31 357 
 GUE  SZ EP   2    129  2.34                             137    -0.2 5  117  14 
 GRA  SZ EP   2    129  3.92                             135     0.8 5  127  19 
 GRA  SZ ES   2    129 22.22                             135    -0.2 5  127  19 
 GRA  SZ I         129 26.30         7.3 0.37                           127  19 
 OCA  SZ EP   2    129  6.01                             128    -0.1 5  160 354 
 OCA  SZ I         129 32.11         4.0 0.08                           160 354 
 NOR  SZ EP        129 13.55                             117     0.2 8  232 234 
 NOR  SE ES   2    129 40.53                             117    -0.2 4  232 234 
                                                                                
