 2010  7 7 0953 45.0 L   6.759 -73.081142.9  RSN 12 0.5 2.3LRSN                1
 GAP=164        0.85       4.1     8.3  7.6 -0.1728E+02  0.1164E+02  0.3158E+01E
 Epicentro: LOS SANTOS - SANTANDER                                             3
 ACTION:UPD 10-12-01 15:15 OP:pat  STATUS:               ID:20100707095345 L   I
 2010-07-07-0950-01S.COL___117                                                 6
 STAT SP IPHASW D HRMM SECON CODA AMPLIT PERI AZIMU VELO AIN AR TRES W  DIS CAZ7
 BAR2 SZ IP     C  954  4.24                             171    -0.110   22 211 
 BAR2 SZ ES   2    954 19.02                             171    -0.3 5   22 211 
 BRR  HZ EP   1    954  6.20                             149    -0.2 7   80 299 
 BRR  HE ES   2    954 23.58                             149     0.5 5   80 299 
 BRR  HZ I         954 25.27        49.3 0.16                            80 299 
 RUS  HZ EP   1    954  8.07                             145    -0.1 7   96 180 
 RUS  HN ES   2    954 26.37                             145     0.2 5   96 180 
 RUS  HZ I         954 28.26        32.0 0.54                            96 180 
 BRI  SZ IP     D  954  9.08                             140     0.310  110  17 
 BRI  SZ ES   2    954 27.56                             140     0.2 5  110  17 
 GUE  SZ EP   1    954  9.48                             138    -0.3 7  120   8 
 GRA  SZ IP     D  954 10.32                             136     0.110  128  14 
 GRA  SZ ES   2    954 30.57                             136     0.7 5  128  14 
 OCA  SZ EP   1    954 13.16                             128    -0.5 7  166 351 
 OCA  SZ ES   2    954 34.84                             128    -1.1 5  166 351 
 OCA  SZ I         954 44.15        14.9 0.33                           166 351 
 CHI  HZ EP   1    954 21.87                             117    -0.5 6  246 197 
 CHI  HE ES   2    954 50.86                             117    -0.6 4  246 197 
 CHI  HZ I         954 54.65         7.4 0.43                           246 197 
 ROSC BZ EP   1    954 23.91                             116     0.9 6  253 213 
 ROSC BZ I         955  1.54        11.6 0.28                           253 213 
 HEL  HZ EP   1    954 25.84                             114     0.1 6  278 257 
 HEL  HZ I         955  3.63        10.4 0.35                           278 257 
 RREF HZ EP   1    954 32.32                             110     1.0 5  324 231 
 RREF HN ES   2    955  7.30                             110    -0.2 3  324 231 
 RREF HZ I         955 11.73        11.0 0.31                           324 231 
 PRA  HZ EP   1    954 37.94                             106    -0.5 4  392 211 
 PRA  HN ES   2    955 19.67                             106    -0.4 3  392 211 
 PRA  HZ I         955 23.63         6.6 0.40                           392 211 
                                                                                
