 2014 11 7 0821 37.7 L   6.795 -73.126149.0  RSN 15 0.5 2.3LRSN                1
 GAP=139        1.18       3.7     4.7  5.9 -0.5302E+01  0.7518E+01  0.2969E+01E
 Epicentro: LOS SANTOS - SANTANDER                                             3
 ACTION:UPD 14-12-19 15:40 OP:nd   STATUS:               ID:20141107082137 L   I
 OLDACT:UP  14-11-07 17:05 OP:cam  STATUS:               ID:20141107081815     3
 OLDACT:REG 14-11-07 13:01 OP:cam  STATUS:               ID:20141107081815     3
 2014-11-07-0818-15M.COL___292                                                 6
 STAT SP IPHASW D HRMM SECON CODA AMPLIT PERI AZIMU VELO AIN AR TRES W  DIS CAZ7
 BAR2 SZ EP     C  821 57.74                             171    0.0610 23.2 195 
 BAR2 SZ ES        822 13.09                             171   -0.2010 23.2 195 
 BAR2 SZ I         822 13.83        43.6 0.30            167           23.2 195 
 BRR  HZ EP     C  821 59.64                             152    0.3610 73.3 298 
 BRR  HE ES        822 16.97                             152    0.8310 73.3 298 
 BRR  HZ I         822 24.25        16.1 0.30            145           73.3 298 
 PAM  SZ EP     D  822  0.45                             152    0.2810 76.5  38 
 PAM  SN ES        822 17.81                             152    0.0810 76.5  38 
 PAM  SZ I         822 19.81        33.0 0.56            152           76.5  38 
 RUS  HZ EP        822  1.62                             145   -0.0610 99.9 177 
 RUS  HE ES        822 20.62                             145    0.2010 99.9 177 
 PTB  HZ EP        822  4.36                             132   -0.71 9  150 259 
 PTB  HN ES        822 25.97                             132   -0.48 9  150 259 
 PTB  HZ I         822 30.34        23.5 0.16            127            150 259 
 OCA  HZ EP        822  5.26                             130   -1.04 9  161 352 
 OCA  HN ES        822 28.38                             130   -0.26 9  161 352 
 OCA  HZ I         822 32.67        22.5 0.48            127            161 352 
 SPBC HZ EP        822  6.58                             130    0.09 9  164 220 
 SPBC HN ES        822 28.22                             130   -0.76 9  164 220 
 SPBC HZ I         822 35.86        26.4 0.16            126            164 220 
 NOR  HZ EP        822 13.68                             119   -0.04 8  236 235 
 NOR  HN ES        822 41.72                             119   -0.14 8  236 235 
 NOR  HZ I         822 47.02        17.6 0.34            116            236 235 
 CHI  HZ EP        822 15.78                             118    0.24 8  249 196 
 CHI  HN ES        822 45.09                             118    0.01 8  249 196 
 CHI  HZ I         822 53.09         4.3 0.62            116            249 196 
 HEL  HZ EP        822 19.47                             115    1.22 8  274 256 
 HEL  HE ES        822 50.15                             115    0.24 8  274 256 
 HEL  HZ I         822 57.02        11.9 0.34            112            274 256 
 GUY2CHZ EP        822 22.35                             113    0.78 7  303 235 
 GUY2CHE ES        822 55.65                             113   -0.18 7  303 235 
 GUY2CHZ I         823  4.82         9.8 0.34                           303 235 
 PTGC HZ EP   4    822 19.48                             112   -2.03 0  307 159 
 PTGC HN ES   4    822 52.57                             112   -3.15 0  307 159 
 PTGC HN I         822 54.93        13.9 0.34            111            307 159 
 CBOC HZ EP        822 25.19                             110    0.27 7  335 252 
 CBOC HZ I         823  9.82         3.1 0.32            108            335 252 
 TOL  SZ EP   4    822 24.28                             110   -1.89 0  345 225 
 TOL  SE ES   4    823  1.87                             110   -2.14 0  345 225 
 TOL  SZ I         823  9.75        15.4 0.38            107            345 225 
 MON  HZ EP   4    822 23.82                             109   -3.20 0  356 308 
 PRA  HZ EP        822 30.87                             107   -0.48 6  393 210 
 ORTC HZ EP   4    822 32.44                             107    0.66 0  396 216 
                                                                                
