 2013  9 7 0619  8.2 L   6.778 -73.428122.9  RSN  4 0.3 1.7LRSN                1
 GAP=168        0.81       5.7     4.8  6.7  0.1287E+02  0.6968E+01  0.8486E+01E
 Epicentro: EL CARMEN DE CHUCURI - SANTANDER                                   3
 ACTION:UPD 13-10-22 09:20 OP:ep   STATUS:               ID:20130907061908 L   I
 OLDACT:UP  13-09-07 12:11 OP:cam  STATUS:               ID:20130907060959     3
 OLDACT:REG 13-09-07 10:51 OP:cam  STATUS:               ID:20130907060959     3
 2013-09-07-0609-59M.COL___269                                                 6
 STAT SP IPHASW D HRMM SECON CODA AMPLIT PERI AZIMU VELO AIN AR TRES W  DIS CAZ7
 BAR2 SZ EP        619 25.13                             164   -0.2410 34.0 127 
 BAR2 SZ ES        619 38.31                             164   -0.4710 34.0 127 
 BAR2 SZ I         619 39.55        44.6 0.26            164           34.0 127 
 BRR  HZ EP        619 25.49                             157   -0.1010 48.1 319 
 BRR  HN ES        619 39.67                             157    0.5010 48.1 319 
 BRR  HZ I         619 40.38         9.9 0.12            159           48.1 319 
 RUS  HZ EP        619 30.41                             137    0.3010  105 159 
 RUS  HN ES        619 47.48                             137    0.2610  105 159 
 RUS  HZ I         619 48.67         3.8 0.26            138            105 159 
 PTB  HZ EP        619 30.36                             133   -0.1010  117 257 
 PTB  HN ES        619 47.69                             133   -0.1610  117 257 
                                                                                
