 2016  9 7 0658  9.8 L   6.850 -73.160148.9  RSN  7 0.4 1.7LRSN                1
 GAP=132        1.07       5.3     5.7  7.7 -0.1154E+02  0.2599E+01  0.3784E+01E
 Epicentro: LOS SANTOS - SANTANDER                                             3
 ACTION:UPD 17-08-17 21:07 OP:lp   STATUS:               ID:20160907065809 L   I
 OLDACT:UP  16-09-07 16:26 OP:dani STATUS:               ID:20160907064732d    3
 OLDACT:DUP 16-09-07 16:18 OP:dani STATUS:               ID:20160907064732d    3
 OLDACT:UP  16-09-07 16:16 OP:dani STATUS:               ID:20160907064731     3
 OLDACT:UP  16-09-07 16:16 OP:dani STATUS:               ID:20160907064731     3
 OLDACT:UP  16-09-07 16:14 OP:dani STATUS:               ID:20160907064731     3
 OLDACT:UP  16-09-07 16:14 OP:dani STATUS:               ID:20160907064731     3
 OLDACT:UP  16-09-07 16:14 OP:dani STATUS:               ID:20160907064731     3
 OLDACT:REG 16-09-07 13:03 OP:dani STATUS:               ID:20160907064731     3
 2016-09-07-0648-00M.COL___352                                                 6
 STAT SP IPHASW D HRMM SECON CODA AMPLIT PERI AZIMU VELO AIN AR TRES W  DIS CAZ7
 BRR  HZ EP        658 31.27                             154    0.2110 67.2 295 
 BRR  HE ES        658 48.19                             154    0.5410 67.2 295 
 BRR  HZ I         658 51.05         8.2 0.32             47           67.2 295 
 PAM  EZ EP        658 32.38                             152    0.2210 74.3  43 
 PAM  EE ES        658 49.30                             152   -0.3110 74.3  43 
 PAM  EZ I         658 51.22        15.8 0.42             47           74.3  43 
 RUS  HZ EP        658 34.25                             143   -0.0110  106 175 
 RUS  HE ES   2    658 53.54                             143    0.20 5  106 175 
 PTB  HZ EP        658 36.53                             133   -0.45 9  147 257 
 PTB  HN ES        658 57.40                             133   -0.78 9  147 257 
 PTB  HZ I         659  2.90         4.2 0.42             47            147 257 
 OCA  HZ EP        658 37.34                             131   -0.48 9  155 353 
 OCA  HZ I         659  8.92         7.8 0.27             37            155 353 
 SPBC HZ EP        658 38.84                             129   -0.01 9  167 217 
 SPBC HN ES        659  1.78                             129    0.27 9  167 217 
 SPBC HZ I         659  8.11         3.9 0.12             47            167 217 
 ZAR  HZ EP        658 42.84                             124    0.76 9  200 291 
 ZAR  HZ I         659 12.80         8.5 0.52             37            200 291 
                                                                                
