 2014  4 7 0424 27.9 L   6.819 -73.405102.1  RSN  8 0.4 1.7LRSN                1
 GAP=207        0.96       2.9     5.7 10.6  0.7229E+00 -0.2210E+02 -0.2629E+01E
 Epicentro: SAN VICENTE DE CHUCURI - SANTANDER                                 3
 ACTION:UPD 14-05-13 23:06 OP:nd   STATUS:               ID:20140407042427 L   I
 OLDACT:REG 14-04-07 12:49 OP:stll STATUS:               ID:20140407041806     3
 2014-04-07-0418-06M.COL___253                                                 6
 STAT SP IPHASW D HRMM SECON CODA AMPLIT PERI AZIMU VELO AIN AR TRES W  DIS CAZ7
 PTB  HZ EP        424 48.34                             126   -0.5510  120 255 
 PTB  HN ES        425  4.97                             126   -0.3010  120 255 
 PTB  HZ I         425 11.14        13.1 0.42            137            120 255 
 SPBC HN ES        425 11.20                             120    0.5710  149 210 
 SPBC HZ I         425 16.82         7.5 0.28            130            149 210 
 ZAR  HZ EP        424 55.26                             114    0.39 9  177 295 
 ZAR  HN ES        425 16.34                             114    0.42 9  177 295 
 ZAR  HZ I         425 22.08         8.9 0.26            125            177 295 
 SML  HZ EP        425  0.38                             108   -0.66 8  231 342 
 SML  HN ES        425 27.03                             108    0.14 8  231 342 
 SML  HZ I         425 31.73         6.1 0.10            117            231 342 
 CHI  HZ EP        425  3.26                             107    0.12 8  245 189 
 CHI  HN ES        425 30.27                             107   -0.37 8  245 189 
 CHI  HZ I         425 37.85         1.7 0.20            116            245 189 
 HEL  HZ EP        425  3.61                             107    0.51 8  245 254 
 HEL  HN ES        425 30.28                             107   -0.29 8  245 254 
 HEL  HZ I         425 35.80         3.4 0.46            116            245 254 
 GUY2CHZ EP        425  7.39                             104    0.07 8  280 231 
 GUY2CHN ES        425 38.16                             104    0.09 8  280 231 
 GUY2CHZ I         425 45.22         3.2 0.30                           280 231 
 CBOC HZ EP        425 10.73                             102    0.51 7  307 250 
 CBOC HN ES        425 42.60                             102   -0.64 7  307 250 
                                                                                
