 2012  3 7 0528 45.1 L   6.671 -73.270149.5  RSN  5 0.2 1.2LRSN                1
 GAP=177        0.45       4.4     4.5  5.1  0.1285E+02  0.5391E+01  0.4408E+01E
 ACTION:UP  12-03-31 23:17 OP:EP   STATUS:               ID:20120307052845 L   I
 2012-03-07-0520-00M.COL___194                                                 6
 STAT SP IPHASW D HRMM SECON CODA AMPLIT PERI AZIMU VELO SNR AR TRES W  DIS CAZ7
 BAR2 SZ ES   2    529 19.93                             175    -0.6 5   13 132 
 BRR  HZ EP   1    529  6.40                             154    -0.1 7   69 315 
 BRR  HE ES        529 23.32                             154     0.110   69 315 
 BRR  HZ I         529 25.49         3.9 0.21                            69 315 
 RUS  HZ EP   1    529  8.42                             148     0.1 7   88 167 
 RUS  HN ES   1    529 26.64                             148     0.1 7   88 167 
 RUS  HZ I         529 28.22         1.7 0.24                            88 167 
 PTB  HZ EP   1    529 10.94                             136     0.0 7  132 264 
 PTB  HN ES   1    529 31.11                             136    -0.1 7  132 264 
 ZAR  HN ES   1    529 42.03                             124     0.0 6  198 297 
 ZAR  HZ I         529 49.38         1.9 0.41                           198 297 
                                                                                
