 2017 11 7 0822 52.1 L   6.815 -73.145140.8  RSN  5 0.3 1.2LRSN                1
 GAP=149        0.76       8.1     3.7  8.2 -0.9630E+01  0.3547E+00  0.2926E+02E
 Epicentro: LOS SANTOS - SANTANDER                                             3
 ACTION:UPD 17-12-12 19:53 OP:rebc STATUS:               ID:20171107082252 L   I
 OLDACT:UP  17-11-07 16:28 OP:dnl  STATUS:               ID:20171107081742d    3
 OLDACT:DUP 17-11-07 16:24 OP:dnl  STATUS:               ID:20171107081742d    3
 2017-11-07-0818-00M.COL___399                                                 6
 STAT SP IPHASW D HRMM SECON CODA AMPLIT PERI AZIMU VELO AIN AR TRES W  DIS CAZ7
 BAR2 EZ EP        823 11.39                             169    0.2610 24.9 190 
 BAR2 EZ I         823 27.20         5.6 0.20            155           24.9 190 
 BRR  HZ EP        823 12.83                             152    0.1910 70.5 297 
 BRR  HE ES        823 28.94                             152    0.2510 70.5 297 
 BRR  HZ I         823 29.70         3.3 0.16            157           70.5 297 
 PAM  EZ EP        823 13.91                             150    0.2410 76.1  40 
 PAM  EN ES        823 30.11                             150   -0.4210 76.1  40 
 PAM  EZ I         823 32.52         2.6 0.54            153           76.1  40 
 PTB  HZ EP        823 18.18                             131   -0.49 9  148 258 
 PTB  HE ES        823 39.30                             131   -0.12 9  148 258 
 PTB  HZ I         823 42.97         1.4 0.26            128            148 258 
 ZAR  HZ EP   4    823 25.88                             121    1.75 0  204 292 
 ZAR  HE ES        823 49.15                             121   -0.00 9  204 292 
 ZAR  HZ I         823 53.13         2.2 0.24            122            204 292 
                                                                                
