 2013  1 7 0553 57.7 L   6.732 -73.210138.8  RSN  5 0.3 1.7LRSN                1
 GAP=222        0.79       5.6     5.7  5.8  0.1624E+02  0.6470E+01  0.8206E+01E
 Epicentro: VILLANUEVA - SANTANDER                                             3
 ACTION:UPD 13-02-15 09:12 OP:ep   STATUS:               ID:20130107055357 L   I
 2013-01-07-0549-50M.COL___199                                                 6
 STAT SP IPHASW D HRMM SECON CODA AMPLIT PERI AZIMU VELO AIN AR TRES W  DIS CAZ7
 BAR2 SZ EP        554 15.97                             173   -0.4210 15.7 169 
 BAR2 SZ ES        554 30.76                             173   -0.1810 15.7 169 
 BAR2 SZ I         554 31.99        10.8 0.24            175           15.7 169 
 BRR  HZ EP        554 18.41                             152    0.3910 69.3 307 
 BRR  HN ES        554 34.02                             152    0.1710 69.3 307 
 BRR  HN I         554 38.49        19.3 0.16            150           69.3 307 
 RUS  HZ EP        554 20.00                             144   -0.3110 93.8 171 
 RUS  HN ES        554 38.33                             144    0.4110 93.8 171 
 PTB  HZ EP        554 23.49                             132    0.11 9  139 261 
 PTB  HN ES        554 43.08                             132   -0.30 9  139 261 
 PTB  HN I         554 46.21         5.6 0.24            133            139 261 
 CHI  HZ EP        554 34.22                             117    0.17 8  240 194 
                                                                                
