 2012  6 7 0904 16.3 L   6.789 -73.142143.7  RSN  6 0.1 1.3LRSN                1
 GAP=198        0.31       2.0     2.5  3.7 -0.2973E+00  0.3356E+01  0.1504E+01E
 Epicentro: LOS SANTOS - SANTANDER                                             3
 ACTION:UPD 12-08-06 17:47 OP:ep   STATUS:               ID:20120607090412 L   I
 2012-06-07-0900-00M.COL___201                                                 6
 STAT SP IPHASW D HRMM SECON CODA AMPLIT PERI AZIMU VELO AIN AR TRES W  DIS CAZ7
 BAR2 SZ EP   1    9 4 35.53                             171   -0.08 7 22.2 191 
 BAR2 SZ ES   1    9 4 50.70                             171   -0.01 7 22.2 191 
 BAR2 SZ I         9 4 53.29         5.0 0.15            168           22.2 191 
 PTB  HZ EP   1    9 4 43.01                             131   -0.06 7  148 259 
 PTB  HN ES   1    9 5  3.99                             131    0.01 7  148 259 
 PTB  HZ I         9 5 11.88         2.8 0.16            133            148 259 
 OCA  HN ES   1    9 5  6.72                             129    0.15 7  161 353 
 ZAR  HN ES   1    9 5 13.74                             122   -0.17 6  205 292 
 HEL  HN ES   1    9 5 27.80                             114    0.14 6  272 256 
 PRA  HZ EP   1    9 5  9.50                             106   -0.11 4  391 210 
 PRA  HN ES   1    9 5 51.46                             106    0.24 4  391 210 
                                                                                
