 2011 12 7 0523 41.3 L   6.763 -73.084153.8  RSN  6 0.3 1.7LRSN                1
 GAP=146        0.70       4.5     7.5  8.1  0.9997E+00  0.2104E-01  0.4067E+01E
 Epicentro: LOS SANTOS - SANTANDER                                             3
 ACTION:UPD 12-07-13 16:14 OP:ep   STATUS:               ID:20111207052342dL   I
 2011-12-07-0520-00M.COL___182                                                 6
 STAT SP IPHASW D HRMM SECON CODA AMPLIT PERI AZIMU VELO AIN AR TRES W  DIS CAZ7
 BAR2 SZ EP   1    524  2.08                             172    0.23 7 21.8 210 
 GIR2 SZ EP   1    524  2.24                             166    0.17 7 37.0 341 
 PAM  SZ EP   1    524  4.84                             152    0.53 7 76.6  34 
 PAM  SZ I         524  5.18         4.9 0.20                          76.6  34 
 PAM  SN ES   1    524 22.21                             152   -0.06 7 76.6  34 
 BRR  HZ IP     C  524  4.02                             151    0.2710 79.2 299 
 BRR  HZ I         524  4.30        21.1 0.14                          79.2 299 
 BRR  HE ES   1    524 21.25                             151   -0.03 7 79.2 299 
 RUS  HZ EP   1    524  4.97                             147   -0.56 7 96.2 180 
 RUS  HN ES   2    524 24.25                             147   -0.19 5 96.2 180 
 RUS  HZ I         524 26.02         4.5 0.31                          96.2 180 
 OCA  SZ EP   1    524 10.17                             130   -0.52 7  165 351 
 OCA  SZ ES   1    524 33.33                             130   -0.30 7  165 351 
 OCA  SZ I         524 38.53         5.9 0.34                           165 351 
                                                                                
