 2010 10 7 0708 31.6 L   6.804 -73.092149.2  RSN  7 0.4 1.8LRSN                1
 GAP=182        0.71       5.9     9.8  9.7 -0.3872E+02 -0.4114E+02  0.3429E+02E
 Epicentro: LOS SANTOS - SANTANDER                                             3
 ACTION:UP  11-02-18 11:08 OP:tino STATUS:               ID:20101007070831 L   I
 2010-10-07-0705-28S.COL___122                                                 6
 STAT SP IPHASW D HRMM SECON CODA AMPLIT PERI AZIMU VELO SNR AR TRES W  DIS CAZ7
 BRR  HZ IP     C  7 8 53.36                             152     0.010   76 296 
 BRR  HE ES   1    7 9 10.43                             152     0.0 7   76 296 
 BRR  HZ I         7 9 14.93         8.8 0.12                            76 296 
 GRA  SZ IP        7 8 57.27                             138     0.310  124  15 
 GRA  SZ ES   1    7 9 16.80                             138     0.0 7  124  15 
 GRA  SZ I         7 9 18.07         6.7 0.30                           124  15 
 OCA  SZ EP   1    7 8 59.97                             130    -0.2 7  161 351 
 OCA  SZ ES   1    7 9 22.10                             130    -0.4 7  161 351 
 OCA  SZ I         7 9 25.59         7.7 0.17                           161 351 
 CHI  HZ EP   2    7 9  8.87                             118    -0.8 4  251 196 
 CHI  HE ES   2    7 9 39.45                             118     0.0 4  251 196 
 CHI  HZ I         7 9 43.00         2.9 0.57                           251 196 
 HEL  HZ EP   2    7 9 13.48                             115     0.9 4  278 256 
 HEL  HZ I         7 9 51.36         3.4 0.43                           278 256 
 RREF HZ EP   2    7 9 18.27                             111    -0.1 3  327 230 
 RREF HZ I         710  3.84         3.5 0.22                           327 230 
 PRA  HZ EP   2    7 9 24.68                             107    -0.9 3  395 210 
 PRA  HN ES   2    710  8.43                             107     0.7 3  395 210 
                                                                                
