 2012  2 7 0840  0.3 L   6.785 -73.161144.9  RSN 18 0.5 3.6LRSN                1
 GAP=133        0.87       2.7     3.5  4.7 -0.1906E+01  0.2948E+01  0.3491E+01E
 ACTION:UP  12-03-07 16:28 OP:epov STATUS:               ID:20120207084000 L   I
 2012-02-07-0840-00M.COL___187                                                 6
 STAT SP IPHASW D HRMM SECON CODA AMPLIT PERI AZIMU VELO AIN AR TRES W  DIS CAZ7
 BAR2 SZ IP     D  840 19.90                             171    0.1210 21.4 186 
 BAR2 SZ ES   1    840 34.81                             171   -0.17 7 21.4 186 
 BAR2 SZ I         840 37.21      1843.9 0.35                          21.4 186 
 GIR2 SZ IP        840 20.04                             167    0.1410 32.7 354 
 GIR2 SZ ES   1    840 34.45                             167   -0.74 7 32.7 354 
 BRR  HZ IP     C  840 21.87                             153    0.5610 70.5 300 
 BRR  HN ES   1    840 38.59                             153    0.89 7 70.5 300 
 BRR  HZ I         840 40.41      1024.5 0.16                          70.5 300 
 PAM  SZ IP        840 22.85                             150    0.2910 79.7  40 
 PAM  SN ES   1    840 39.57                             150   -0.36 7 79.7  40 
 RUS  HZ IP     C  840 23.81                             144   -0.0410 99.0 175 
 RUS  HE ES   1    840 42.31                             144    0.09 7 99.0 175 
 RUS  HZ I         840 43.96       505.4 0.46                          99.0 175 
 PTB  HZ IP     C  840 26.42                             132   -0.59 9  146 259 
 PTB  HN ES   1    840 47.26                             132   -0.59 7  146 259 
 OCA  SZ EP        840 28.88                             129    0.20 9  162 354 
 OCA  SZ ES   1    840 50.43                             129   -0.38 7  162 354 
 OCA  SZ I         840 54.17        23.4 0.35                           162 354 
 ZAR  HZ EP   1    840 32.53                             122   -0.06 6  203 293 
 ZAR  HN ES   1    840 58.36                             122    0.59 6  203 293 
 ZAR  HZ I         841  5.44       953.0 0.55                           203 293 
 NOR  SZ EP        840 35.71                             118   -0.01 8  232 235 
 NOR  SN ES        841  3.31                             118   -0.04 8  232 235 
 NOR  SN ISg  1    841  3.31                             118   -0.04 6  232 235 
 CHI  HZ EP   1    840 37.88                             117    0.16 6  247 195 
 CHI  HN ES   1    841  7.05                             117    0.14 6  247 195 
 CHI  HZ I         841 14.19       254.8 0.60                           247 195 
 HEL  HZ EP   1    840 40.28                             115    0.04 6  270 256 
 HEL  HE ES   1    841 10.25                             115   -1.14 6  270 256 
 HEL  HZ I         841 19.01       731.4 0.46                           270 256 
 VIL  SZ EP   1    840 43.18                             112   -0.27 5  301 191 
 VIL  SN ES   1    841 17.15                             112    0.04 5  301 191 
 RREF HZ EP   1    840 47.27                             111    1.14 5  319 229 
 RREF HE ES   1    841 22.70                             111    0.82 5  319 229 
 RREF HZ I         841 32.54       250.1 0.74                           319 229 
 COD  HZ EP   1    840 48.20                             109   -0.61 5  350 355 
 COD  HZ I         841 30.69       211.6 0.36                           350 355 
 PRA  HZ EP        840 53.31                             106   -0.21 6  390 209 
 PRA  HN ES   1    841 35.59                             106    0.56 4  390 209 
 SJA  SZ EP        840 53.95                             106   -0.64 6  398 193 
 YOT  HZ EP        841  2.78                             103   -0.25 5  470 229 
 YOT  HZ I         842  0.78        85.6 0.57                           470 229 
 GUA  SZ EP   1    841  2.46                             103   -0.79 4  473 173 
 GUA  SZ ES   1    841 52.56                             103    0.20 4  473 173 
 GUA  SZ I         841 54.19        22.7 0.23                           473 173 
                                                                                
