 2011  4 7 0533  4.2 L   6.497 -73.531 11.9  RSN  4 0.4 1.1LRSN                1
 GAP=187        0.77       7.8     6.4 17.7  0.3573E+02  0.1020E+03  0.1136E+03E
 Epicentro: SIMACOTA - SANTANDER                                               3
 ACTION:UP  11-06-22 15:29 OP:REBC STATUS:               ID:20110407053304 L   I
 2011-04-07-0530-22S.COL___133                                                 6
 STAT SP IPHASW D HRMM SECON CODA AMPLIT PERI AZIMU VELO SNR AR TRES W  DIS CAZ7
 BAR2 SZ EP   1    533 11.35                             104     0.1 7   40  75 
 BAR2 SZ ES   1    533 16.35                             104    -0.4 7   40  75 
 BAR2 SZ I         533 19.54        12.2 0.55                            40  75 
 BRR  HZ EP   2    533 15.64                              97     0.1 5   70 343 
 BRR  HN ES   1    533 24.28                              97    -0.1 7   70 343 
 BRR  HZ I         533 28.45         4.6 0.17                            70 343 
 PAM  SZ EP   2    533 26.05                              94     0.9 5  131  45 
 PAM  SE ES   2    533 41.57                              94     0.0 5  131  45 
 HEL  HZ EP   1    533 37.73                              56     0.5 6  224 261 
 HEL  HE ES   1    534  2.46                              56    -0.5 6  224 261 
 HEL  HZ I         534  3.93         2.1 0.25                           224 261 
                                                                                
