 2010 10 7 0938  8.0 L   6.772 -73.139153.1  RSN  9 0.4 1.9LRSN                1
 GAP=177        0.69       5.5     8.2  9.1 -0.3244E+02 -0.3176E+02  0.2753E+02E
 Epicentro: LOS SANTOS - SANTANDER                                             3
 ACTION:UP  11-02-18 11:08 OP:tino STATUS:               ID:20101007093808 L   I
 2010-10-07-0935-06S.COL___122                                                 6
 STAT SP IPHASW D HRMM SECON CODA AMPLIT PERI AZIMU VELO SNR AR TRES W  DIS CAZ7
 BAR2 SZ EP   2    938 28.14                             172    -0.4 5   21 194 
 BAR2 SZ I         938 44.54        22.2 0.19                            21 194 
 BRR  HZ IP     C  938 30.25                             153     0.110   73 300 
 BRR  HZ I         938 47.17        18.0 0.13                            73 300 
 BRR  HN ES   1    938 47.77                             153     0.4 7   73 300 
 GUE  SZ EP   1    938 33.51                             140    -0.1 7  119  11 
 GRA  SZ IP        938 34.38                             138     0.210  128  17 
 GRA  SZ ES   1    938 54.18                             138    -0.4 7  128  17 
 GRA  SZ I         938 56.10        11.5 0.28                           128  17 
 OCA  SZ EP   1    938 37.21                             131     0.0 7  163 353 
 OCA  SZ ES   2    938 59.37                             131    -0.6 5  163 353 
 OCA  SZ I         939  5.16        12.6 0.11                           163 353 
 NOR  SZ EP   2    938 44.33                             120     0.2 4  234 235 
 NOR  SN ES   2    939 11.46                             120    -0.8 4  234 235 
 CHI  HZ EP   1    938 46.08                             119     0.2 6  246 196 
 CHI  HZ I         938 48.45         3.0 0.35                           246 196 
 CHI  HE ES   2    939 15.22                             119    -0.1 4  246 196 
 HEL  HZ EP   2    938 48.80                             116     0.2 4  272 256 
 HEL  HZ I         939 28.12         3.7 0.35                           272 256 
 RREF HN ES   2    939 29.66                             112    -0.8 3  320 230 
 RREF HZ I         939 39.50         4.4 0.17                           320 230 
                                                                                
