 2017 11 7 0509 36.1 L   6.841 -73.137152.4  RSN 20 0.4 2.1LRSN                1
 GAP= 66        0.84       2.7     2.3  4.7  0.2638E+00  0.2304E+01  0.3729E+01E
 Epicentro: LOS SANTOS - SANTANDER                                             3
 ACTION:UPD 17-12-12 19:53 OP:rebc STATUS:               ID:20171107050936 L   I
 OLDACT:UP  17-11-07 14:40 OP:dnl  STATUS:               ID:20171107050738     3
 OLDACT:UP  17-11-07 14:40 OP:dnl  STATUS:               ID:20171107050738     3
 OLDACT:REG 17-11-07 13:04 OP:dnl  STATUS:               ID:20171107050738     3
 2017-11-07-0508-00M.COL___405                                                 6
 STAT SP IPHASW D HRMM SECON CODA AMPLIT PERI AZIMU VELO AIN AR TRES W  DIS CAZ7
 BAR2 EZ EP        5 9 56.46                             169   -0.1910 27.9 190 
 BAR2 EZ I         510 12.94        40.8 0.20            166           27.9 190 
 BRR  HZ IP     C  5 9 58.24                             154    0.3110 70.1 295 
 BRR  HN ES        510 15.37                             154    0.4310 70.1 295 
 BRR  HZ I         510 19.34        26.9 0.14            152           70.1 295 
 PAM  EZ EP        5 9 59.20                             153    0.3810 73.3  41 
 PAM  EE ES        510 16.57                             153    0.0510 73.3  41 
 PAM  EZ I         510 18.61        22.3 0.52            150           73.3  41 
 PTB  HZ EP        510  3.15                             133   -0.66 9  150 257 
 PTB  HN ES        510 25.10                             133   -0.30 9  150 257 
 PTB  HZ I         510 29.39         9.0 0.12            129            150 257 
 TAM  HZ IP     C  510  4.78                             132    0.42 9  155 107 
 TAM  HZ I         510 25.54         7.5 0.40            127            155 107 
 TAM  HE ES        510 25.56                             132   -0.82 9  155 107 
 SPBC HZ EP        510  5.29                             130   -0.23 9  167 218 
 SPBC HE ES        510 28.17                             130   -0.28 9  167 218 
 SPBC HZ I         510 34.40        23.2 0.20            125            167 218 
 YPLC HZ EP        510  6.83                             127    0.09 9  180 152 
 YPLC HN ES        510 30.85                             127    0.23 9  180 152 
 YPLC HZ I         510 34.45        19.2 0.40            122            180 152 
 ZAR  HZ EP        510  8.97                             124    0.04 9  203 291 
 ZAR  HE ES        510 34.68                             124    0.15 9  203 291 
 ZAR  HZ I         510 39.69        11.4 0.26            120            203 291 
 TABC EZ EP   4    510 13.98                             120    1.25 0  234 210 
 TABC EZ I         510 47.98        13.1 0.36            116            234 210 
 NOR  HZ EP        510 12.69                             119    0.08 8  238 234 
 NOR  HN ES        510 40.74                             119   -0.33 8  238 234 
 NOR  HZ I         510 46.01         9.4 0.16            116            238 234 
 CHI  HZ EP        510 14.69                             118    0.00 8  253 195 
 CHI  HE ES        510 45.30                             118    0.53 8  253 195 
 CHI  HZ I         510 49.68         5.4 0.52            114            253 195 
 ROSC BZ EP   4    510 16.26                             118    1.18 0  257 211 
 ROSC BN ES   4    510 49.02                             118    3.55 0  257 211 
 ROSC BZ I         510 51.59        11.5 0.55            114            257 211 
 URE  HZ EP        510 17.01                             115   -0.43 7  283 291 
 URE  HE ES   4    510 47.85                             115   -1.82 0  283 291 
 URE  HZ I         510 52.46         8.0 0.14            112            283 291 
 GUY2CHZ EP   4    510 21.74                             113    1.31 0  305 234 
 GUY2CHN ES   4    510 57.95                             113    2.97 0  305 234 
 GUY2CHZ I         511  1.71         6.8 0.40                           305 234 
 PTGC HZ EP   4    510 19.53                             112   -1.18 0  313 159 
 PTGC HN ES   4    510 51.80                             112   -3.69 0  313 159 
 PTGC HZ I         510 57.82         8.1 0.30            109            313 159 
 CBOC HZ EP        510 24.02                             111    0.44 7  336 251 
 CBOC HN ES        511  0.69                             111    0.08 7  336 251 
 CBOC HZ I         511 16.18         2.4 0.46            108            336 251 
 ARGC HZ EP   9    510 27.21                             110    1.62 0  355 340 
 ARGC HE ES        511  5.95                             109    0.15 6  355 340 
 ARGC HZ I         511 11.60         3.2 0.26            107            355 340 
 PRA  HZ EP        510 30.15                             107   -0.24 6  396 209 
 PRA  HN ES        511 12.66                             107   -0.06 6  396 209 
 PRA  HZ I         511 18.64         9.1 0.42            104            396 209 
 ORTC HZ EP        510 31.57                             107    0.81 6  400 216 
 ORTC HE ES        511 13.56                             107    0.17 6  400 216 
 ORTC HZ I         511 20.28         4.7 0.44            104            400 216 
 SJC  HZ EP        510 31.06                             107   -0.47 6  406 326 
 SJC  HN ES   4    511 11.16                             107   -3.60 0  406 326 
 SJC  HZ I         511 15.95         2.2 0.50            104            406 326 
                                                                                
