 2014  6 7 0745 59.0 L   6.038 -73.699119.1  RSN  7 0.4 1.3LRSN                1
 GAP=121        1.02       5.5     3.4  7.1 -0.4784E+01  0.8108E+01 -0.2299E+01E
 Epicentro: BOLIVAR - SANTANDER                                                3
 ACTION:UPD 14-07-01 22:51 OP:nd   STATUS:               ID:20140607074559 L   I
 OLDACT:DUP 14-06-07 16:49 OP:fm   STATUS:               ID:20140607073807d    3
 2014-06-07-0738-06M.COL___253                                                 6
 STAT SP IPHASW D HRMM SECON CODA AMPLIT PERI AZIMU VELO AIN AR TRES W  DIS CAZ7
 SPBC HZ EP        746 16.50                             152   -0.2310 59.4 224 
 SPBC HN ES        746 30.55                             152   -0.0110 59.4 224 
 SPBC HZ I         746 33.83         4.1 0.24            154           59.4 224 
 RUS  HZ EP        746 18.11                             148    0.1510 70.1 103 
 RUS  HN ES        746 32.72                             148   -0.0410 70.1 103 
 RUS  HZ I         746 34.05         2.5 0.28            154           70.1 103 
 BAR2 SZ EP        746 18.89                             143    0.3310 83.8  43 
 BAR2 SZ ES   1    746 33.97                             143    0.16 7 83.8  43 
 BAR2 SZ I         746 35.23         8.2 0.22            146           83.8  43 
 PTB  HZ EP        746 19.08                             137   -0.4810  100 304 
 PTB  HN ES        746 35.55                             137   -0.0510  100 304 
 PTB  HZ I         746 40.16         3.3 0.16            138            100 304 
 NOR  HZ EP        746 23.02                             127   -0.18 9  140 248 
 NOR  HE ES        746 41.76                             127   -0.32 9  140 248 
 NOR  HZ I         746 43.60         6.2 0.22            130            140 248 
 HEL  HZ EP        746 29.41                             116   -0.82 9  203 275 
 HEL  HN ES        746 55.45                             116    0.86 9  203 275 
 HEL  HZ I         746 59.68         2.4 0.20            119            203 275 
 GUY2CHZ EP        746 31.29                             116    0.70 8  205 244 
 GUY2CHN ES        746 55.45                             116    0.21 8  205 244 
 GUY2CHZ I         747  2.03         1.6 0.58                           205 244 
                                                                                
