 2011  5 7 0026 37.7 L   6.743 -73.073146.3  RSN 11 0.3 2.0LRSN                1
 GAP=149        0.54       2.8     3.8  3.9 -0.5008E+01  0.1861E+01  0.7495E+00E
 Epicentro: JORDAN - SANTANDER                                                 3
 ACTION:UP  11-06-29 08:51 OP:tino STATUS:               ID:20110507002637 L   I
 2011-05-07-0020-00M.COL___140                                                 6
 STAT SP IPHASW D HRMM SECON CODA AMPLIT PERI AZIMU VELO SNR AR TRES W  DIS CAZ7
 BAR2 SZ EP   1    026 57.37                             172     0.0 7   21 216 
 BAR2 SZ ES   1    027 12.41                             172    -0.2 7   21 216 
 BAR2 SZ I         027 14.10        53.2 0.21                            21 216 
 BTL  SZ IP        026 57.72                             168     0.210   29 312 
 BTL  SZ ES   2    027 13.45                             168     0.5 5   29 312 
 PAM  SZ EP   2    027  0.29                             151     0.3 5   78  32 
 PAM  SN ES   2    027 17.58                             151     0.2 5   78  32 
 BRR  HZ EP   1    026 59.11                             149    -0.4 7   81 300 
 BRR  HN ES   1    027 16.73                             149     0.2 7   81 300 
 BRR  HZ I         027 18.34        25.4 0.13                            81 300 
 RUS  HZ EP   1    027  1.25                             146     0.2 7   94 181 
 RUS  HN ES   2    027 18.77                             146    -0.5 5   94 181 
 RUS  HZ I         027 21.26        14.2 0.30                            94 181 
 BRI  SZ EP   1    027  1.89                             141     0.0 7  112  16 
 BRI  SZ ES   2    027 20.72                             141    -0.1 5  112  16 
 BRI  SZ I         027 26.42        11.5 0.39                           112  16 
 GRA  SZ IP        027  3.16                             136    -0.210  130  13 
 GRA  SZ ES   1    027 23.25                             136     0.0 7  130  13 
 GRA  SZ I         027 24.65        10.6 0.34                           130  13 
 OCA  SZ EP   1    027  6.89                             128     0.1 7  168 351 
 OCA  SZ ES   2    027 28.83                             128    -0.6 5  168 351 
 OCA  SZ I         027 32.35        13.6 0.21                           168 351 
 NOR  SZ EP   2    027 13.34                             118    -0.4 4  238 237 
 NOR  SN ES   2    027 41.31                             118    -0.6 4  238 237 
 HEL  HZ EP   1    027 18.53                             114    -0.1 6  278 257 
 HEL  HN ES   1    027 50.90                             114     0.3 6  278 257 
 HEL  HZ I         027 55.01         5.9 0.25                           278 257 
 PRA  HZ EP   1    027 31.30                             107     0.2 4  391 211 
 PRA  HN ES   2    028 12.84                             107     0.1 3  391 211 
                                                                                
