 2017  7 7 0714 39.2 L   6.678 -73.182142.2  RSN  4 0.1 1.2LRSN                1
 GAP=231        0.44       4.8     3.2  3.5  0.5469E+01  0.2994E+01 -0.4391E+00E
 Epicentro: VILLANUEVA - SANTANDER                                             3
 ACTION:UPD 17-08-30 15:30 OP:rebc STATUS:               ID:20170707071439 L   I
 OLDACT:REG 17-07-07 13:28 OP:ar   STATUS:               ID:20170707070642     3
 2017-07-07-0707-00M.COL___365                                                 6
 STAT SP IPHASW D HRMM SECON CODA AMPLIT PERI AZIMU VELO AIN AR TRES W  DIS CAZ7
 BAR2 EZ EP        714 58.18                             176   -0.0510 9.51 180 
 BAR2 EZ ES        715 12.94                             176   -0.1110 9.51 180 
 BAR2 EZ I         715 13.99         3.3 0.46            176           9.51 180 
 BRR  HZ EP        715  0.19                             150   -0.0510 75.4 309 
 BRR  HN ES        715 16.87                             150    0.2410 75.4 309 
 BRR  HZ I         715 22.47         4.4 0.52            149           75.4 309 
 PTB  HZ EP        715  5.51                             132    0.14 9  142 264 
 PTB  HN ES        715 25.76                             132    0.01 9  142 264 
 PTB  HZ I         715 29.60         1.3 0.16            134            142 264 
 ZAR  HZ EP        715 11.72                             121    0.08 8  206 296 
 ZAR  HN ES        715 36.63                             121   -0.29 8  206 296 
                                                                                
