 2017 10 7 0624 21.7 L   6.841 -73.134142.7  RSN 17 0.6 2.2LRSN                1
 GAP=111        1.06       3.2     3.9  5.7  0.4937E+00  0.9298E+01  0.1695E+01E
 Epicentro: LOS SANTOS - SANTANDER                                             3
 ACTION:UPD 17-11-07 19:29 OP:rebc STATUS:               ID:20171007062421 L   I
 OLDACT:UP  17-10-07 16:12 OP:dhb  STATUS:               ID:20171007060923     3
 OLDACT:REG 17-10-07 12:54 OP:dhb  STATUS:               ID:20171007060923     3
 2017-10-07-0618-00M.COL___438                                                 6
 STAT SP IPHASW D HRMM SECON CODA AMPLIT PERI AZIMU VELO AIN AR TRES W  DIS CAZ7
 BAR2 EZ IP     C  624 40.94                             168   -0.0910 28.0 191 
 BAR2 EZ ES        624 55.72                             168   -0.4110 28.0 191 
 BAR2 EZ I         624 57.17        36.9 0.18            166           28.0 191 
 PAM  EZ IP     C  624 43.85                             151    0.5510 73.1  41 
 PAM  EE ES        625  0.73                             151    0.5610 73.1  41 
 PAM  EZ I         625  2.88        25.7 0.60            157           73.1  41 
 RUS  HZ EP        624 45.19                             142   -0.2610  105 177 
 RUS  HN ES        625  3.09                             142   -0.9010  105 177 
 SPBC HZ EP        624 50.26                             127   -0.09 9  168 218 
 SPBC HE ES        625 12.76                             127    0.04 9  168 218 
 SPBC HZ I         625 17.87        32.1 0.24            128            168 218 
 YPLC HZ EP        624 51.30                             125   -0.28 9  180 152 
 YPLC HN ES        625 15.33                             125    0.42 9  180 152 
 YPLC HZ I         625 17.78         9.4 0.28            128            180 152 
 ZAR  HZ EP        624 53.68                             122   -0.18 9  204 291 
 ZAR  HN ES        625 19.33                             122    0.36 9  204 291 
 ZAR  HZ I         625 26.81        21.7 0.19            122            204 291 
 NOR  HZ EP        624 58.03                             117    0.41 8  238 234 
 NOR  HN ES        625 25.35                             117   -0.31 8  238 234 
 NOR  HZ I         625 26.87        16.1 0.21            118            238 234 
 CHI  HZ EP        624 59.60                             116   -0.11 8  253 195 
 CHI  HE ES        625 29.88                             116    0.49 8  253 195 
 CHI  HZ I         625 35.12         5.4 0.66            117            253 195 
 ROSC BZ EP   2    625  1.21                             115    1.09 4  257 211 
 ROSC BE ES        625 30.64                             115    0.53 8  257 211 
 ROSC BZ I         625 37.61        12.1 0.30            116            257 211 
 URE  HZ EP        625  1.63                             113   -0.90 7  283 291 
 URE  HN ES   2    625 32.86                             113   -1.55 4  283 291 
 GUY2CHZ EP   9    625  7.30                             111    1.75 0  305 234 
 GUY2CHE ES        625 42.03                                    0.50 7  305 234 
 GUY2CHZ I         625 45.48         9.3 0.36                           305 234 
 PTGC HZ EP   3    625  4.07                             111   -1.75 2  312 159 
 PTGC HE ES   4    625 37.83                             111   -2.43 0  312 159 
 PTGC HZ I         625 38.09         6.3 0.36            113            312 159 
 PRA  HZ EP        625 15.69                             106    0.07 6  397 209 
 PRA  HE ES        625 57.98                             106    0.28 6  397 209 
 PRA  HZ I         626  4.09         7.3 0.28            107            397 209 
 APAC HZ EP        625 15.07                             106   -0.66 6  398 287 
 APAC HE ES   1    625 59.37                             106    1.47 4  398 287 
 APAC HZ I         626  4.95         2.8 0.32            107            398 287 
 ORTC HZ EP        625 16.07                             105    0.07 6  400 216 
 ORTC HE ES   4    626  1.66                             105    3.28 0  400 216 
 ORTC HZ I         626  4.16         4.6 0.60            107            400 216 
 SJC  HZ EP   4    625 14.92                             105   -1.84 0  406 326 
 SJC  HN ES   4    625 56.89                             105   -2.85 0  406 326 
 SJC  HZ I         626  0.07         4.3 0.42            107            406 326 
 PAL  HZ EP        625 17.22                             105    0.09 6  409 239 
 PAL  HE ES   2    626  1.45                             105    1.06 3  409 239 
 PAL  HZ I         626  4.89         2.6 0.28            106            409 239 
                                                                                
