 2011 10 7 0146  3.3 L   6.769 -73.052144.5  RSN  4 0.2 1.3LRSN                1
 GAP=206        0.45       7.5    11.9  6.0  0.6699E+02 -0.1230E+02  0.2665E+01E
 Epicentro: LOS SANTOS - SANTANDER                                             3
 ACTION:UPD 12-07-13 16:02 OP:ep   STATUS:               ID:20111007014603 L   I
 2011-10-07-0140-00M.COL___171                                                 6
 STAT SP IPHASW D HRMM SECON CODA AMPLIT PERI AZIMU VELO AIN AR TRES W  DIS CAZ7
 BAR2 SZ EP   1    146 22.70                             170   -0.06 7 24.2 216 
 BAR2 SZ ES   1    146 37.69                             170   -0.28 7 24.2 216 
 BAR2 SZ I         146 39.46         7.6 0.18                          24.2 216 
 GIR2 SZ ES   2    146 38.69                             165    0.34 5 37.7 336 
 BRR  HZ EP   2    146 24.55                             149   -0.37 5 81.9 297 
 BRR  HN ES   1    146 41.93                             149    0.11 7 81.9 297 
 BRR  HZ I         146 44.34         3.7 0.28                          81.9 297 
 RUS  HZ EP   1    146 26.84                             144    0.21 7 97.0 182 
 RUS  HN ES   2    146 44.96                             144    0.10 5 97.0 182 
 RUS  HZ I         146 46.96         2.1 0.23                          97.0 182 
                                                                                
