 2013 11 7 0714 30.3 L   6.494 -73.591105.3  RSN  6 0.5 1.4LRSN                1
 GAP=131        0.98       6.8     5.2 13.4  0.1716E+02 -0.1233E+02 -0.5230E+02E
 Epicentro: SANTA HELENA DEL OPON - SANTANDER                                  3
 ACTION:UPD 14-01-09 16:26 OP:ep   STATUS:               ID:20131107071430 L   I
 OLDACT:REG 13-11-07 06:33 OP:jn   STATUS:               ID:20131107071000     3
 2013-11-07-0710-00M.COL___273                                                 6
 STAT SP IPHASW D HRMM SECON CODA AMPLIT PERI AZIMU VELO AIN AR TRES W  DIS CAZ7
 BRR  HZ EP        714 46.51                             144   -0.5810 69.1 349 
 RUS  HZ EP     D  714 49.09                             137   -0.0710 87.1 140 
 RUS  HN ES        715  4.05                             137    0.1610 87.1 140 
 RUS  HZ I         715  5.10         2.4 0.24            142           87.1 140 
 PTB  HZ EP        714 48.97                             134   -0.2810 95.8 273 
 PTB  HN ES        715  3.87                             134   -0.1710 95.8 273 
 PTB  HZ I         715  5.02         9.9 0.32            137           95.8 273 
 SPBC HE ES   2    715  7.16                             130    1.11 5  107 210 
 ZAR  HZ EP        714 58.01                             115    0.43 9  178 308 
 ZAR  HN ES   2    715 19.46                             115    0.59 4  178 308 
 ZAR  HZ I         715 22.37         3.9 0.28            118            178 308 
 OCA  HN ES   2    715 23.68                             113    1.11 4  195   9 
                                                                                
