 2016 12 7 0654 36.5 L   6.783 -73.112148.7  RSN  5 0.4 1.3LRSN                1
 GAP=164        0.95       8.2     5.3  8.5 -0.4239E+01  0.1736E+02  0.7666E+01E
 Epicentro: LOS SANTOS - SANTANDER                                             3
 ACTION:UPD 17-01-11 20:13 OP:rebc STATUS:               ID:20161207065436 L   I
 OLDACT:REG 16-12-07 12:50 OP:ar   STATUS:               ID:20161207064744     3
 2016-12-07-0648-00M.COL___355                                                 6
 STAT SP IPHASW D HRMM SECON CODA AMPLIT PERI AZIMU VELO AIN AR TRES W  DIS CAZ7
 BAR2 EZ EP        654 56.64                             171    0.1410 22.5 200 
 BAR2 EZ ES        655 11.61                             171   -0.4710 22.5 200 
 BAR2 EZ I         655 11.98         6.7 0.38            173           22.5 200 
 BRR  HZ EP        654 58.21                             152   -0.0310 75.4 298 
 BRR  HE ES        655 15.79                             152    0.6210 75.4 298 
 PAM  EE ES        655 16.52                             152   -0.0310 76.5  36 
 PAM  EZ I         655 18.80         5.6 0.42            147           76.5  36 
 PTB  HZ EP        655  4.17                             132    0.13 9  151 260 
 PTB  HE ES        655 25.66                             132    0.16 9  151 260 
 PTB  HZ I         655 26.15         1.7 0.40            130            151 260 
 ZAR  HZ EP   4    655 13.46                             122    3.86 0  208 292 
 ZAR  HE ES        655 34.70                             122   -0.69 8  208 292 
 ZAR  HZ I         655 44.22         1.2 0.22            120            208 292 
                                                                                
