 2017  2 7 0645 12.1 L   6.730 -73.137148.0  RSN 10 0.4 1.6LRSN                1
 GAP=159        0.91       4.0     3.9  4.9  0.4062E+01  0.3254E+00  0.2625E+01E
 Epicentro: JORDAN - SANTANDER                                                 3
 ACTION:UPD 17-05-24 15:33 OP:jn   STATUS:               ID:20170207064512 L   I
 OLDACT:UP  17-02-07 17:41 OP:edw  STATUS:               ID:20170207063744d    3
 OLDACT:UP  17-02-07 17:40 OP:edw  STATUS:               ID:20170207063744d    3
 OLDACT:DUP 17-02-07 17:33 OP:edw  STATUS:               ID:20170207063744d    3
 OLDACT:REG 17-02-07 12:55 OP:edw  STATUS:               ID:20170207063743     3
 2017-02-07-0638-00M.COL___325                                                 6
 STAT SP IPHASW D HRMM SECON CODA AMPLIT PERI AZIMU VELO AIN AR TRES W  DIS CAZ7
 BAR2 EZ IP        645 31.64                             174   -0.2410 16.0 198 
 BAR2 EZ ES        645 46.74                             174   -0.5610 16.0 198 
 BAR2 EZ I         645 47.78        12.7 0.22            171           16.0 198 
 BRR  HZ EP        645 33.76                             151   -0.0110 76.0 303 
 BRR  HN ES        645 51.04                             151    0.3710 76.0 303 
 RUS  HZ EP        645 35.82                             146    0.2910 92.8 176 
 RUS  HN ES        645 54.12                             146    0.3210 92.8 176 
 RUS  HZ I         645 55.41        12.1 0.34            146           92.8 176 
 PTB  HZ EP   9    645 38.39                             132   -0.83 0  147 262 
 PTB  HN ES        645 59.25                             133   -0.29 9  147 262 
 PTB  HZ I         646  0.73         5.0 0.60            131            147 262 
 TAM  HZ IP        645 39.89                             131    0.19 9  152 102 
 ZAR  HZ EP        645 44.99                             122   -0.11 8  208 294 
 ZAR  HN ES        646 10.51                             122   -0.33 8  208 294 
 ZAR  HZ I         646 16.39         5.7 0.36            121            208 294 
 NOR  HZ EP        645 47.94                             119    0.36 8  231 236 
 NOR  HN ES        646 15.64                             119    0.39 8  231 236 
 NOR  HZ I         646 16.62         3.6 0.12            118            231 236 
 CHI  HZ EP        645 49.36                             118    0.22 8  241 196 
 CHI  HN ES        646 17.60                             118   -0.44 8  241 196 
 CHI  HZ I         646 21.68         1.5 0.64            118            241 196 
 URE  HE ES   4    646 22.05                             113   -4.12 0  288 293 
 PTGC HZ EP        645 54.40                             112   -0.80 7  301 158 
 PTGC HN ES   4    646 27.62                             112   -1.20 0  301 158 
 CBOC HZ EP        645 59.36                             110    0.41 7  332 253 
 CBOC HN ES   2    646 33.99                             110   -1.51 3  332 253 
 CBOC HZ I         646 40.40         0.8 0.68            110            332 253 
                                                                                
