 2015  3 7 0147 53.8 L   6.769 -73.151144.0  RSN  9 0.4 1.5LRSN                1
 GAP=137        0.84       3.6     3.6  6.1 -0.8711E-01  0.2513E+01  0.3281E+01E
 Epicentro: LOS SANTOS - SANTANDER                                             3
 ACTION:UPD 15-04-30 16:23 OP:nd   STATUS:               ID:20150307014753 L   I
 OLDACT:DUP 15-03-07 15:20 OP:spq  STATUS:               ID:20150307013751d    3
 2015-03-07-0137-50M.COL___287                                                 6
 STAT SP IPHASW D HRMM SECON CODA AMPLIT PERI AZIMU VELO AIN AR TRES W  DIS CAZ7
 BAR2 EZ EP        148 13.16                             172    0.0210 19.9 190 
 BAR2 EZ ES   1    148 27.93                             172   -0.30 7 19.9 190 
 BAR2 EZ I         148 29.23         8.5 0.20            168           19.9 190 
 BRR  HZ EP        148 14.97                             152    0.1510 72.4 301 
 BRR  HE ES        148 31.97                             152    0.7510 72.4 301 
 BRR  HZ I         148 34.94         7.4 0.30            151           72.4 301 
 PAM  SZ EP        148 15.88                             150   -0.1210 80.4  38 
 PAM  SE ES   1    148 33.08                             150   -0.24 7 80.4  38 
 PAM  SZ I         148 35.06         8.2 0.44            155           80.4  38 
 RUS  HZ EP        148 17.19                             145    0.0710 97.2 176 
 RUS  HN ES   1    148 35.40                             145    0.08 7 97.2 176 
 RUS  HZ I         148 37.68         2.7 0.34            144           97.2 176 
 PTB  HZ EP        148 20.01                             132   -0.49 9  147 260 
 PTB  HN ES        148 40.89                             132   -0.45 9  147 260 
 PTB  HZ I         148 44.19         3.1 0.27            132            147 260 
 SPBC HE ES   1    148 43.40                             129   -0.37 7  160 220 
 SPBC HZ I         148 49.18         4.6 0.14            129            160 220 
 ZAR  HZ EP   1    148 25.94                             122   -0.26 6  205 293 
 ZAR  HE ES        148 51.47                             122   -0.01 9  205 293 
 ZAR  HZ I         148 56.94         4.0 0.28            123            205 293 
 NOR  HE ES   1    148 57.38                             119    0.64 6  232 235 
 NOR  HZ I         149  3.31         2.1 0.14            119            232 235 
 CHI  HZ EP   1    148 31.63                             117    0.62 6  245 195 
 CHI  HE ES   1    149  0.16                             117    0.11 6  245 195 
 CHI  HZ I         149  6.08         1.2 0.34            118            245 195 
                                                                                
