 2011  1 7 0249 10.5 L   6.810 -73.072139.7  RSN  9 0.4 2.1LRSN                1
 GAP=166        0.88       3.5     6.8  7.5 -0.3775E+01  0.2047E+02 -0.2169E+00E
 Epicentro: LOS SANTOS - SANTANDER                                             3
 ACTION:UP  11-02-08 08:39 OP:pat  STATUS:               ID:20110107024910 L   I
 2011-01-07-0247-02S.COL___135                                                 6
 STAT SP IPHASW D HRMM SECON CODA AMPLIT PERI AZIMU VELO SNR AR TRES W  DIS CAZ7
 BAR2 SZ IP        249 29.40                             168    -0.110   27 207 
 BAR2 SZ ES   1    249 43.88                             168    -0.4 7   27 207 
 BAR2 SZ I         249 45.83        24.4 0.27                            27 207 
 RUS  HZ EP        249 33.43                             142    -0.310  101 181 
 RUS  HE ES   1    249 52.15                             142     0.3 7  101 181 
 RUS  HZ I         249 53.25        10.1 0.21                           101 181 
 OCA  SZ EP        249 38.32                             128     0.0 9  160 350 
 OCA  SZ ES   1    250  0.38                             128     0.3 7  160 350 
 OCA  SZ I         250  4.55        13.6 0.46                           160 350 
 YOP  SZ EP   2    249 39.72                             125    -0.1 4  177 156 
 YOP  SZ I         249 52.01        11.2 0.17                           177 156 
 YOP  SN ES   2    250  3.54                             125     0.8 4  177 156 
 CHI  HZ EP   1    249 47.66                             115    -0.5 6  252 197 
 CHI  HE ES   1    250 17.14                             115    -0.5 6  252 197 
 CHI  HZ I         250 21.55         4.1 0.71                           252 197 
 ROSC BZ EP        249 49.53                             115     0.7 8  258 212 
 ROSC BZ I         249 51.21        10.3 0.24                           258 212 
 ROSC BN ES   1    250 19.27                             115     0.5 6  258 212 
 HEL  HZ EP   1    249 50.53                             113    -0.8 6  280 256 
 HEL  HE ES   2    250 23.82                             113     0.7 4  280 256 
 HEL  HZ I         250 30.19         6.3 0.26                           280 256 
 GUY  SZ EP   2    249 54.84                             110     0.2 4  309 236 
 GUY  SN ES   2    250 28.99                             110    -0.1 4  309 236 
 GUY  SZ I         250 38.06         9.9 0.31                           309 236 
 RREF HZ EP   1    249 57.37                             109     0.2 5  329 230 
 RREF HN ES   1    250 33.39                             109    -0.2 5  329 230 
 RREF HZ I         250 43.62         7.5 0.39                           329 230 
                                                                                
