 2012  4 7 0440 34.8 L   6.337 -73.640105.0  RSN  6 0.3 1.3LRSN                1
 GAP=109        0.65       3.3     3.5  8.3 -0.5598E-01  0.1483E+02 -0.2076E+01E
 Epicentro: SANTA HELENA DEL OPON - SANTANDER                                  3
 ACTION:UPD 12-07-05 11:51 OP:tino STATUS:               ID:20120407044034 L   I
 2012-04-07-0440-00M.COL___196                                                 6
 STAT SP IPHASW D HRMM SECON CODA AMPLIT PERI AZIMU VELO AIN AR TRES W  DIS CAZ7
 BAR2 SZ EP   1    440 51.57                             149     0.4 7   58  61 
 BAR2 SZ ES   1    441  4.08                             149     0.1 7   58  61 
 BAR2 SZ I         441  5.33        20.6 0.30                            58  61 
 RUS  HZ EP   1    440 53.14                             141     0.1 7   79 129 
 RUS  HN ES   1    441  7.16                             141    -0.1 7   79 129 
 RUS  HZ I         441 10.87         4.7 0.43                            79 129 
 BRR  HZ EP   1    440 52.71                             138    -0.2 7   86 355 
 BRR  HN ES   1    441  6.68                             138    -0.3 7   86 355 
 BRR  HZ I         441 10.23         3.5 0.16                            86 355 
 PAM  SN ES   1    441 19.39                             120    -0.1 7  152  43 
 PAM  SZ I         441 20.07         1.5 0.20                           152  43 
 NOR  SN ES   1    441 20.00                             118    -0.1 7  161 238 
 ZAR  HZ EP   1    441  2.54                             114    -0.4 7  186 314 
 ZAR  HE ES   1    441 25.40                             114     0.5 7  186 314 
 ZAR  HZ I         441 29.11         3.3 0.23                           186 314 
                                                                                
