 2017 11 7 0920 23.8 L   6.021 -73.703102.0  RSN  5 0.4 0.9LRSN                1
 GAP=183        0.73       4.4     4.4  9.4 -0.8303E+01  0.8477E+01 -0.1474E+02E
 Epicentro: VELEZ - SANTANDER                                                  3
 ACTION:UPD 17-12-12 19:53 OP:rebc STATUS:               ID:20171107092023 L   I
 OLDACT:UP  17-11-07 16:35 OP:dnl  STATUS:               ID:20171107091738d    3
 OLDACT:UP  17-11-07 16:35 OP:dnl  STATUS:               ID:20171107091738d    3
 OLDACT:DUP 17-11-07 16:30 OP:dnl  STATUS:               ID:20171107091738d    3
 2017-11-07-0918-00M.COL___405                                                 6
 STAT SP IPHASW D HRMM SECON CODA AMPLIT PERI AZIMU VELO AIN AR TRES W  DIS CAZ7
 SPBC HZ EP   2    920 40.69                             149    1.03 5 57.8 225 
 SPBC HE ES        920 52.03                             149    0.0210 57.8 225 
 SPBC HZ I         920 53.24         2.6 0.64            156           57.8 225 
 BAR2 EZ EP   2    920 41.26                             137   -0.67 5 85.4  42 
 BAR2 EZ ES        920 55.96                             137   -0.0810 85.4  42 
 BAR2 EZ I         920 57.66         3.0 0.18            137           85.4  42 
 PTB  HZ EP        920 42.73                             132   -0.2710  101 305 
 PTB  HN ES        920 57.88                             132   -0.0810  101 305 
 PTB  HZ I         920 59.64         0.7 0.46            132            101 305 
 BRR  HZ EP   3    920 45.29                             126    0.51 2  120 360 
 BRR  HN ES        921  1.44                             126    0.3110  120 360 
 BRR  HZ I         921 14.24         1.9 0.36            126            120 360 
 GUY2CHZ EP   4    920 51.91                             111   -2.56 0  204 245 
 GUY2CHE ES   4    921 15.95                             111   -2.41 0  204 245 
 GUY2CHZ I         921 22.27         0.7 0.54                           204 245 
                                                                                
