 2013  1 7 0648 24.3 L   6.859 -73.135144.3  RSN 11 0.5 2.3LRSN                1
 GAP= 69        1.30       4.3     5.3  7.7  0.1451E+01 -0.4338E+01  0.3360E+01E
 Epicentro: LOS SANTOS - SANTANDER                                             3
 ACTION:UPD 13-02-15 09:12 OP:ep   STATUS:               ID:20130107064824 L   I
 2013-01-07-0639-49M.COL___199                                                 6
 STAT SP IPHASW D HRMM SECON CODA AMPLIT PERI AZIMU VELO AIN AR TRES W  DIS CAZ7
 BAR2 SZ EP        648 43.89                             168    0.0310 29.9 190 
 BAR2 SZ ES        648 58.82                             168   -0.3310 29.9 190 
 BAR2 SZ I         649  0.53        29.2 0.60            161           29.9 190 
 BRR  HZ IP     D  648 45.50                             153    0.3610 69.4 293 
 BRR  HN ES        649  2.44                             153    1.0110 69.4 293 
 BRR  HN I         649  5.99        55.9 0.16            141           69.4 293 
 RUS  HZ EP        648 48.18                             142   -0.1610  107 177 
 RUS  HN ES        649  7.33                             142    0.2110  107 177 
 RUS  HN I         649  8.41        12.9 0.16            135            107 177 
 PTB  HZ EP        648 50.68                             131   -0.65 9  150 256 
 PTB  HN ES        649 11.83                             131   -0.62 9  150 256 
 OCA  HN ES        649 12.71                             131   -0.68 9  154 352 
 OCA  HN I         649 16.38        51.5 0.20            123            154 352 
 TAM  HZ EP        648 52.28                             130    0.40 9  156 107 
 ZAR  HN ES        649 21.51                             122   -0.09 9  203 290 
 ZAR  HN I         649 26.66        57.9 0.44            113            203 290 
 CHI  HZ EP        649  2.55                             116   -0.04 8  255 195 
 CHI  HN ES        649 31.71                             116   -0.78 8  255 195 
 CHI  HN I         649 34.86        16.4 0.34            110            255 195 
 ROSC BE ES        649 33.56                             116    0.39 8  259 211 
 ROSC BZ I         649 38.57         9.6 0.40            109            259 211 
 HEL  HZ EP        649  5.80                             114    1.10 8  275 255 
 HEL  HN I         649 43.70         8.5 0.30            107            275 255 
 SDV  BZ EP        649 13.53                             108   -0.13 6  355  51 
                                                                                
