 2012  8 7 0341 42.6 L   6.753 -73.131143.1  RSN  5 0.3 2.0LRSN                1
 GAP=141        0.81       5.0     4.9  6.8 -0.4464E+01  0.6136E+01  0.3659E+01E
 Epicentro: LOS SANTOS - SANTANDER                                             3
 ACTION:UPD 12-09-10 11:54 OP:ep   STATUS:               ID:20120807034142 L   I
 2012-08-07-0340-00M.COL___216                                                 6
 STAT SP IPHASW D HRMM SECON CODA AMPLIT PERI AZIMU VELO AIN AR TRES W  DIS CAZ7
 BAR2 SZ EP        342  2.06                             172    0.2410 18.7 198 
 BAR2 SZ ES   1    342 16.54                             172   -0.27 7 18.7 198 
 BAR2 SZ I         342 19.03        21.8 0.34                          18.7 198 
 BRR  HZ EP        342  3.95                             151    0.2610 75.2 301 
 BRR  HZ I         342  4.18        34.9 0.17                          75.2 301 
 BRR  HE ES   1    342 20.85                             151    0.71 7 75.2 301 
 PAM  SZ EP        342  4.77                             149    0.0610 80.4  36 
 PAM  SE ES        342 21.56                             149   -0.4010 80.4  36 
 RUS  HZ EP        342  5.76                             145    0.0510 95.3 177 
 RUS  HN ES   1    342 23.92                             145    0.19 7 95.3 177 
 RUS  HZ I         342 26.13         7.1 0.38                          95.3 177 
 PTB  HZ EP        342  9.03                             131   -0.38 9  148 261 
 PTB  HN ES   1    342 29.85                             131   -0.48 7  148 261 
                                                                                
