 2013 10 7 0624 55.8 L   6.791 -73.147147.3  RSN  6 0.4 1.3LRSN                1
 GAP=183        0.95       3.9     7.1  7.4 -0.3520E+01  0.2395E+01 -0.1742E+01E
 Epicentro: LOS SANTOS - SANTANDER                                             3
 ACTION:UPD 13-11-25 09:19 OP:ep   STATUS:               ID:20131007062455 L   I
 OLDACT:DUP 13-10-07 12:33 OP:mh   STATUS:               ID:20131007061960d    3
 2013-10-07-0619-59M.COL___273                                                 6
 STAT SP IPHASW D HRMM SECON CODA AMPLIT PERI AZIMU VELO AIN AR TRES W  DIS CAZ7
 BAR2 SZ EP   1    625 15.31                             171   -0.26 7 22.4 190 
 BAR2 SZ ES        625 30.91                             171   -0.1010 22.4 190 
 BRR  HZ EP        625 17.64                             153    0.5310 71.5 299 
 BRR  HN ES        625 34.40                             153    0.6510 71.5 299 
 BRR  HZ I         625 38.01         5.0 0.30            153           71.5 299 
 RUS  HZ EP   1    625 19.92                             144    0.31 7 99.6 176 
 RUS  HN ES   1    625 38.07                             144   -0.13 7 99.6 176 
 RUS  HZ I         625 39.75         1.7 0.40            146           99.6 176 
 PTB  HZ EP   1    625 22.70                             132   -0.13 7  147 259 
 PTB  HN ES   1    625 43.37                             132   -0.57 7  147 259 
 PTB  HZ I         625 44.65         3.2 0.20            134            147 259 
 OCA  HZ EP   1    625 23.96                             130   -0.33 7  161 353 
 OCA  HN ES        625 46.03                             130   -0.50 9  161 353 
 SPBC HZ EP   1    625 24.75                             130    0.44 7  162 219 
 SPBC HN ES        625 46.19                             130   -0.38 9  162 219 
 SPBC HZ I         625 49.36         3.4 0.34            131            162 219 
                                                                                
