 2017  9 7 0727 19.2 L   6.743 -73.102141.0  RSN  6 0.3 1.3LRSN                1
 GAP=118        0.69       3.1     3.6  5.5  0.4501E+01  0.2340E+01 -0.5238E+00E
 Epicentro: JORDAN - SANTANDER                                                 3
 ACTION:UPD 17-10-05 19:09 OP:rebc STATUS:               ID:20170907072719 L   I
 OLDACT:DUP 17-09-07 14:53 OP:dnl  STATUS:               ID:20170907071739d    3
 2017-09-07-0718-00M.COL___414                                                 6
 STAT SP IPHASW D HRMM SECON CODA AMPLIT PERI AZIMU VELO AIN AR TRES W  DIS CAZ7
 BAR2 EZ EP        727 38.35                             172    0.1310 18.8 208 
 BAR2 EZ ES        727 53.12                             172    0.1010 18.8 208 
 BAR2 EZ I         727 54.14         5.8 0.34            169           18.8 208 
 BRR  HZ EP        727 40.28                             149   -0.0510 78.5 301 
 BRR  HN ES        727 56.49                             149   -0.2810 78.5 301 
 BRR  HZ I         728  1.59         5.1 0.12            146           78.5 301 
 PAM  EZ EP        727 41.39                             149    0.2910 79.6  34 
 PAM  EN ES        727 58.01                             149   -0.1310 79.6  34 
 PAM  EZ I         728  0.75         3.1 0.66            151           79.6  34 
 RUS  HZ EP   2    727 42.54                             145    0.48 5 94.0 179 
 RUS  HN ES        728  0.13                             145    0.2710 94.0 179 
 RUS  HZ I         728  1.60         2.0 0.22            145           94.0 179 
 YPLC HN ES        728  9.78                             127   -0.51 9  169 152 
 YPLC HZ I         728 12.40         3.8 0.30            128            169 152 
 ZAR  HZ EP   2    727 51.36                             120   -0.75 4  211 293 
 ZAR  HN ES        728 17.88                             120    0.14 8  211 293 
 ZAR  HZ I         728 27.80         2.4 0.26            119            211 293 
                                                                                
