 2013  1 7 0546 37.8 L   6.696 -73.201138.2  RSN  5 0.4 1.7LRSN                1
 GAP=221        0.96       6.9     6.5  7.0  0.2742E+02  0.9138E+01 -0.1680E+01E
 Epicentro: VILLANUEVA - SANTANDER                                             3
 ACTION:UPD 13-02-15 09:12 OP:ep   STATUS:               ID:20130107054637 L   I
 2013-01-07-0539-49M.COL___196                                                 6
 STAT SP IPHASW D HRMM SECON CODA AMPLIT PERI AZIMU VELO AIN AR TRES W  DIS CAZ7
 BAR2 SZ EP        546 56.25                             175   -0.0710 11.7 170 
 BAR2 SZ ES        547 10.11                             175   -0.6610 11.7 170 
 BAR2 SZ I         547 11.78        15.3 0.38            173           11.7 170 
 BRR  HZ EP        546 58.14                             151   -0.0510 72.4 309 
 BRR  HZ I         546 58.34         7.8 0.28            151           72.4 309 
 BRR  HN ES        547 14.83                             151    0.7210 72.4 309 
 RUS  HZ EP        547  0.37                             145    0.3510 89.8 172 
 RUS  HN ES        547 17.48                             145    0.1110 89.8 172 
 RUS  HN I         547 20.14         4.7 0.38            145           89.8 172 
 PTB  HZ EP        547  3.18                             132   -0.24 9  140 263 
 PTB  HN ES        547 23.49                             132    0.08 9  140 263 
 ZAR  HZ EP        547  9.66                             121    0.01 9  203 296 
 ZAR  HN ES        547 34.11                             121   -0.39 9  203 296 
 ZAR  HN I         547 36.67         7.8 0.12            121            203 296 
                                                                                
