 2014  4 7 0507 40.3 L   6.837 -73.151138.1  RSN 22 0.5 2.5LRSN                1
 GAP= 70        1.14       2.4     2.8  5.8 -0.1762E+01  0.4042E+01 -0.1482E+00E
 Epicentro: LOS SANTOS - SANTANDER                                             3
 OLDACT:REG 14-04-07 12:51 OP:stll STATUS:               ID:20140407045806     3
 ACTION:UPD 14-05-13 23:06 OP:nd   STATUS:               ID:20140407050740 L   I
 OLDACT:UP  14-04-08 13:52 OP:nd   STATUS:               ID:20140407050740 L   3
 OLDACT:UP  14-04-08 06:31 OP:CF   STATUS:               ID:20140407050740 L   3
 OLDACT:UP  14-04-07 17:35 OP:stll STATUS:               ID:20140407045806     3
 2014-04-07-0458-06M.COL___250                                                 6
 STAT SP IPHASW D HRMM SECON CODA AMPLIT PERI AZIMU VELO AIN AR TRES W  DIS CAZ7
 PAM  SZ EP        5 8  2.23                             150    0.7210 74.7  42 
 PAM  SN ES        5 8 18.62                             150    0.5410 74.7  42 
 PAM  SZ I         5 8 21.41        34.3 0.30            153           74.7  42 
 RUS  HZ EP        5 8  3.48                             141   -0.1110  105 176 
 RUS  HN ES        5 8 21.78                             141    0.0010  105 176 
 RUS  SZ I         5 8 23.72        27.5 0.18            145            105 176 
 PTB  HZ EP        5 8  6.04                             130   -0.61 9  148 257 
 PTB  HN ES        5 8 26.54                             130   -0.69 9  148 257 
 PTB  SZ I         5 8 32.15        34.9 0.38            131            148 257 
 OCA  HZ EP        5 8  7.60                             129   -0.00 9  156 353 
 OCA  HN ES        5 8 28.73                             129   -0.19 9  156 353 
 OCA  SZ I         5 8 33.72        25.7 0.48            130            156 353 
 TAM  HZ IP     D  5 8  7.86                             128    0.35 9  157 106 
 TAM  HN ES        5 8 28.54                             128   -0.22 9  157 106 
 SPBC HZ EP        5 8  8.33                             127   -0.14 9  166 218 
 SPBC HN ES        5 8 30.26                             127   -0.20 9  166 218 
 SPBC SZ I         5 8 37.17        37.2 0.32            129            166 218 
 ZAR  HZ EP        5 8 12.24                             121    0.23 9  202 291 
 ZAR  HN ES        5 8 37.31                             121    0.54 9  202 291 
 NOR  HZ EP   1    5 8 15.96                             117    0.18 6  237 234 
 NOR  HN ES        5 8 43.15                             117   -0.32 8  237 234 
 NOR  SZ I         5 8 47.03        29.2 0.32            119            237 234 
 SML  HZ EP        5 8 15.50                             116   -0.55 8  240 335 
 SML  HN ES        5 8 43.85                             116   -0.10 8  240 335 
 SML  SZ I         5 8 57.08        23.9 0.08            118            240 335 
 CHI  HZ EP        5 8 17.86                             115   -0.11 8  252 195 
 CHI  HN ES        5 8 46.47                             115   -0.91 8  252 195 
 CHI  SZ I         5 8 53.59        10.9 0.28            118            252 195 
 ROSC BZ EP   4    5 8 19.52                             115    1.18 0  256 210 
 ROSC BN ES        5 8 48.82                             115    0.79 8  256 210 
 ROSC BZ I         5 8 54.77        31.7 0.40            117            256 210 
 HEL  HZ EP        5 8 21.16                             113    1.00 8  273 255 
 HEL  HN ES        5 8 50.37                             113   -0.90 8  273 255 
 HEL  SZ I         5 8 57.46        20.0 0.50            115            273 255 
 SOCV BZ IP     C  5 8 22.08                             111   -0.70 7  300  58 
 SOCV BE ES   4    5 8 52.69                             111   -3.25 0  300  58 
 GUY2CHZ EP        5 8 24.79                             111    1.04 7  303 234 
 GUY2CHN ES        5 8 58.20                             111    0.53 7  303 234 
 GUY2CSZ I         5 9  4.28        21.8 0.58                           303 234 
 RREF HZ EP        5 8 27.06                             109    0.71 7  324 229 
 RREF HN ES        5 9  2.58                             109    0.29 7  324 229 
 RREF SZ I         5 9  8.36        19.9 0.24            111            324 229 
 CBOC HZ EP        5 8 27.96                             108    1.00 7  334 251 
 DBB  SZ EP        5 8 27.02                             108   -0.33 7  339 274 
 DBB  SZ ES   1    5 9  3.41                             108   -0.66 5  339 274 
 COD  HZ EP        5 8 27.39                             108   -0.49 7  344 355 
 COD  HN ES        5 9  5.09                             108    0.08 7  344 355 
 COD  SZ I         5 9 17.00         7.9 3.54            110            344 355 
 TOL  SZ EP        5 8 29.06                             108    0.54 6  346 224 
 TOL  SZ ES        5 9  5.93                             108   -0.22 6  346 224 
 TOL  SZ I         5 9 11.00         7.2 0.60            110            346 224 
 SDV  BZ EP        5 8 29.10                             107   -0.68 6  358  51 
 SDV  BN ES   4    5 9  6.27                             107   -2.13 0  358  51 
 SDV  SZ I         5 9  9.69        15.3 3.90            109            358  51 
 ANIL HZ EP   4    5 8 31.50                             107    1.42 0  360 224 
 ANIL HN ES   4    5 9  7.64                             107   -1.30 0  360 224 
 PRA  HZ EP        5 8 33.18                             105   -0.74 6  395 209 
 PRA  HN ES   1    5 9 15.72                             105   -0.05 4  395 209 
 PRA  HZ I         5 9 22.71        13.5 0.42            107            395 209 
 ORTC HZ EP        5 8 34.53                             105    0.24 6  398 216 
 ORTC HN ES        5 9 15.92                             105   -0.50 6  398 216 
 ORTC SZ I         5 9 24.16         9.0 0.70            107            398 216 
                                                                                
