 2012 12 7 0328 40.9 L   6.834 -73.164139.9  RSN  6 0.4 1.5LRSN                1
 GAP=133        0.72       4.0     4.9  7.3  0.1313E+01  0.1481E+02 -0.7480E+01E
 Epicentro: LOS SANTOS - SANTANDER                                             3
 ACTION:UPD 13-01-04 14:26 OP:ep   STATUS:               ID:20121207032840 L   I
 2012-12-07-0320-00M.COL___242                                                 6
 STAT SP IPHASW D HRMM SECON CODA AMPLIT PERI AZIMU VELO AIN AR TRES W  DIS CAZ7
 BAR2 SZ EP   1    329  0.30                             169    0.36 7 26.8 184 
 BAR2 SZ ES   1    329 15.01                             169    0.25 7 26.8 184 
 BAR2 SZ I         329 16.58         9.7 0.42                          26.8 184 
 PAM  SZ EP   1    329  3.07                             150    0.63 7 75.9  42 
 PAM  SN ES   1    329 18.63                             150   -0.58 7 75.9  42 
 PAM  SZ I         329 21.52         3.3 0.42                          75.9  42 
 RUS  HZ EP   1    329  4.15                             141   -0.25 7  104 175 
 RUS  HN ES   1    329 22.67                             141   -0.04 7  104 175 
 RUS  HZ I         329 24.79         3.1 0.40                           104 175 
 PTB  HZ EP   1    329  6.99                             131   -0.33 7  147 257 
 PTB  HN ES   2    329 27.38                             131   -0.52 5  147 257 
 PTB  HZ I         329 32.87         5.1 0.12                           147 257 
 ZAR  HZ EP   1    329 12.70                             121    0.04 6  201 291 
 ZAR  HN ES   1    329 37.84                             121    0.42 6  201 291 
 ZAR  HZ I         329 44.20         2.7 0.48                           201 291 
 SML  HZ EP   1    329 16.38                             117   -0.39 6  239 335 
 SML  HN ES   1    329 44.78                             117    0.05 6  239 335 
 SML  HZ I         329 50.78         5.5 0.26                           239 335 
                                                                                
