 2014  8 7 0200 16.5 L   6.819 -73.167142.7  RSN 12 0.4 1.9LRSN                1
 GAP=133        0.99       3.0     3.8  5.5 -0.1718E+01  0.5175E+01  0.4978E+01E
 Epicentro: LOS SANTOS - SANTANDER                                             3
 ACTION:UPD 14-09-15 21:47 OP:nd   STATUS:               ID:20140807020016 L   I
 OLDACT:REG 14-08-07 12:22 OP:carl STATUS:               ID:20140807015818     3
 2014-08-07-0158-18M.COL___263                                                 6
 STAT SP IPHASW D HRMM SECON CODA AMPLIT PERI AZIMU VELO AIN AR TRES W  DIS CAZ7
 BAR2 SZ EP        2 0 35.80                             170    0.0410 25.1 184 
 BAR2 SZ ES        2 0 50.88                             170    0.0710 25.1 184 
 BAR2 SZ I         2 0 53.13        12.4 0.22            168           25.1 184 
 BRR  HZ EP        2 0 37.54                             153    0.4310 68.1 298 
 BRR  HN ES        2 0 53.70                             153    0.4910 68.1 298 
 BRR  HZ I         2 0 59.23        12.6 0.14            154           68.1 298 
 PAM  SZ EP        2 0 38.60                             150    0.2510 77.3  42 
 PAM  SN ES        2 0 55.48                             150    0.0610 77.3  42 
 PAM  SZ I         2 0 57.82        18.7 0.60            156           77.3  42 
 RUS  HZ EP        2 0 39.87                             142   -0.2110  103 175 
 RUS  HN ES        2 0 58.29                             142   -0.2110  103 175 
 RUS  HZ I         2 1  1.76         5.5 0.16            144            103 175 
 PTB  HZ EP        2 0 42.65                             132   -0.36 9  146 258 
 PTB  HN ES        2 1  3.50                             132   -0.22 9  146 258 
 PTB  HZ I         2 1  7.00        12.0 0.64            133            146 258 
 OCA  HN ES        2 1  5.37                             129   -0.67 9  158 354 
 SPBC HZ EP        2 0 44.89                             128    0.14 9  163 218 
 SPBC HN ES        2 1  6.07                             128   -0.74 9  163 218 
 SPBC HZ I         2 1 12.90        13.1 0.20            130            163 218 
 ZAR  HN ES        2 1 13.47                             122    0.15 9  201 292 
 ZAR  HZ I         2 1 19.19         9.9 0.42            125            201 292 
 NOR  HZ EP        2 0 52.08                             118    0.13 8  234 234 
 NOR  HN ES        2 1 20.40                             118    0.78 8  234 234 
 NOR  HZ I         2 1 21.78         9.2 0.20            120            234 234 
 CHI  HZ EP        2 0 53.96                             116   -0.19 8  250 195 
 CHI  HE ES        2 1 23.85                             116    0.31 8  250 195 
 CHI  HZ I         2 1 30.89         4.5 0.50            119            250 195 
 GUY2CHZ EP        2 1  0.11                             112    0.25 7  300 234 
 GUY2CHN ES        2 1 32.76                             112   -0.94 7  300 234 
 GUY2CHZ I         2 1 42.05         3.8 0.46                           300 234 
 PRA  HZ EP        2 1  9.74                             106   -0.22 6  393 209 
 PRA  HN ES        2 1 52.61                             106    0.92 6  393 209 
 PRA  HZ I         2 1 58.29         6.2 0.30            108            393 209 
                                                                                
