 2015  8 7 0429 21.3 L   6.603 -73.389122.0  RSN  4 0.1 1.4LRSN                1
 GAP=171        0.40       6.0    12.8  4.5  0.7289E+02 -0.3232E+02 -0.1681E+02E
 Epicentro: HATO - SANTANDER                                                   3
 ACTION:UPD 15-09-15 23:00 OP:cam  STATUS:               ID:20150807042921 L   I
 OLDACT:UP  15-08-31 07:25 OP:ar   STATUS:               ID:20150807042921 L   3
 OLDACT:UP  15-08-07 17:20 OP:mh   STATUS:               ID:20150807042746     3
 OLDACT:UP  15-08-07 17:20 OP:mh   STATUS:               ID:20150807042746     3
 OLDACT:UP  15-08-07 17:13 OP:mh   STATUS:               ID:20150807042746     3
 OLDACT:UP  15-08-07 17:08 OP:mh   STATUS:               ID:20150807042746     3
 OLDACT:UP  15-08-07 17:05 OP:mh   STATUS:               ID:20150807042746     3
 OLDACT:UP  15-08-07 17:04 OP:mh   STATUS:               ID:20150807042746     3
 OLDACT:UP  15-08-07 17:03 OP:mh   STATUS:               ID:20150807042746     3
 OLDACT:REG 15-08-07 13:08 OP:mh   STATUS:               ID:20150807042746     3
 2015-08-07-0427-46M.COL___358                                                 6
 STAT SP IPHASW D HRMM SECON CODA AMPLIT PERI AZIMU VELO AIN AR TRES W  DIS CAZ7
 BAR2 EZ EP        429 38.10                             169    0.0710 22.9  93 
 BAR2 EZ I         429 52.48         8.3 0.13            119           22.9  93 
 BRR  HZ EP        429 39.66                             150    0.0810 66.2 327 
 BRR  HN ES        429 53.85                             150   -0.0210 66.2 327 
 BRR  HZ I         429 59.55                             121           66.2 327 
 RUS  HZ EP        429 41.40                             143   -0.2010 85.6 157 
 RUS  HN ES        429 57.52                             143    0.0610 85.6 157 
 RUS  HZ I         429 58.60         2.4 0.20            118           85.6 157 
 SML  HZ EP        429 58.07                             111    0.17 8  254 343 
 SML  HN ES        430 26.30                             111   -0.17 8  254 343 
 SML  HZ I         430 31.11         4.2 0.10            102            254 343 
                                                                                
