 2016  4 7 0756  7.0 L   6.775 -73.107142.2  RSN 10 0.4 1.7LRSN                1
 GAP=187        0.71       2.9     4.2  7.2 -0.9788E+00  0.3230E+01  0.1301E+01E
 Epicentro: LOS SANTOS - SANTANDER                                             3
 ACTION:UPD 16-05-05 14:19 OP:rebc STATUS:               ID:20160407075607 L   I
 OLDACT:DUP 16-04-07 14:31 OP:dnl  STATUS:               ID:20160407074751d    3
 2016-04-07-0747-49M.COL___300                                                 6
 STAT SP IPHASW D HRMM SECON CODA AMPLIT PERI AZIMU VELO AIN AR TRES W  DIS CAZ7
 BAR2 EZ EP        756 26.49                             171    0.3310 21.8 202 
 BAR2 EZ ES   2    756 41.49                             171    0.37 5 21.8 202 
 BAR2 EZ I         756 44.18         8.5 0.24            166           21.8 202 
 RUS  HZ EP   2    756 30.07                             144   -0.11 5 97.6 178 
 RUS  HE ES   2    756 47.32                             144   -0.94 5 97.6 178 
 RUS  HZ I         756 50.50         2.2 0.22            145           97.6 178 
 PTB  HZ EP        756 33.25                             131   -0.76 9  151 260 
 PTB  HE ES        756 55.11                             131    0.03 9  151 260 
 PTB  HZ I         757  1.92         7.2 0.38            130            151 260 
 OCA  HZ EP   2    756 35.63                             128    0.29 5  164 352 
 OCA  HN ES        756 57.54                             128    0.08 9  164 352 
 OCA  HZ I         757  1.44        15.9 0.16            131            164 352 
 SPBC HZ EP        756 35.49                             128    0.22 9  164 221 
 SPBC HN ES        756 57.57                             128    0.23 9  164 221 
 SPBC HZ I         757  3.13         9.7 0.20            128            164 221 
 ZAR  HZ EP   2    756 39.51                             121   -0.21 4  209 292 
 ZAR  HN ES        757  5.06                             121   -0.20 8  209 292 
 ZAR  HZ I         757 10.90         5.5 0.38            122            209 292 
 CHI  HZ EP   2    756 43.84                             117   -0.49 4  247 196 
 CHI  HE ES   2    757 13.46                             117    0.01 4  247 196 
 CHI  HZ I         757 21.12         1.2 0.11            118            247 196 
 GUY2CHZ EP   2    756 51.19                             112    0.54 4  303 236 
 GUY2CHE ES   2    757 25.03                             112    0.32 4  303 236 
 GUY2CHZ I         757 33.79         3.4 0.32                           303 236 
 CBOC HZ EP   2    756 54.25                             109    0.12 3  337 253 
 CBOC HE ES   2    757 31.82                             109    0.92 3  337 253 
 CBOC HZ I         757 42.38         1.0 0.48            110            337 253 
 MON  HZ EP   4    756 52.98                             108   -3.46 0  359 308 
 MON  HE ES   4    757 30.32                             108   -4.69 0  359 308 
 MON  HZ I         757 38.87         1.7 0.48            109            359 308 
                                                                                
