 2017  2 7 0248 55.6 L   6.797 -73.128144.3  RSN  8 0.4 1.5LRSN                1
 GAP=239        0.97       4.6     4.9  5.9  0.7261E+01  0.7656E+01  0.7086E+01E
 Epicentro: LOS SANTOS - SANTANDER                                             3
 ACTION:UPD 17-05-24 15:33 OP:jn   STATUS:               ID:20170207024855 L   I
 OLDACT:UP  17-02-07 15:29 OP:edw  STATUS:               ID:20170207024745     3
 OLDACT:REG 17-02-07 12:26 OP:edw  STATUS:               ID:20170207024745     3
 2017-02-07-0248-00M.COL___331                                                 6
 STAT SP IPHASW D HRMM SECON CODA AMPLIT PERI AZIMU VELO AIN AR TRES W  DIS CAZ7
 BAR2 EZ EP        249 14.93                             171   -0.1610 23.5 195 
 BAR2 EZ ES        249 30.33                             171    0.0710 23.5 195 
 BAR2 EZ I         249 32.38         9.3 0.32            167           23.5 195 
 BRR  HZ EP        249 16.71                             151   -0.0210 73.1 298 
 BRR  HN ES        249 33.73                             151    0.5510 73.1 298 
 BRR  HZ I         249 39.09         9.0 0.34            151           73.1 298 
 RUS  HZ EP        249 18.95                             143   -0.2610  100 177 
 RUS  HN ES        249 37.19                             143   -0.4110  100 177 
 RUS  HZ I         249 39.28         8.3 0.32            144            100 177 
 PTB  HZ EP   9    249 21.61                             131   -1.04 0  150 259 
 PTB  HN ES        249 41.96                             131   -0.72 9  150 259 
 PTB  HZ I         249 44.87         3.6 0.12            131            150 259 
 ZAR  HZ EP   4    249 30.51                             121    2.33 0  206 292 
 ZAR  HN ES        249 53.02                             121   -0.55 8  206 292 
 ZAR  HZ I         249 55.25         3.6 0.10            123            206 292 
 NOR  HZ EP        249 31.68                             118    0.25 8  236 235 
 NOR  HN ES        249 59.41                             118    0.05 8  236 235 
 NOR  HZ I         250  3.64         2.6 0.50            118            236 235 
 CHI  HZ EP        249 33.36                             116    0.08 8  249 196 
 CHI  HN ES        250  2.91                             116    0.27 8  249 196 
 CHI  HZ I         250  9.15         1.8 0.40            118            249 196 
 CBOC HZ EP        249 43.61                             109    0.92 7  335 252 
 CBOC HN ES        250 18.96                             109   -0.44 7  335 252 
 CBOC HZ I         250 25.49         0.5 0.18            110            335 252 
                                                                                
