 2016  1 7 0902 10.4 L   6.798 -73.138149.8  RSN  8 0.2 1.4LRSN                1
 GAP=138        0.64       2.6     2.8  3.8 -0.3944E+00  0.2519E+01 -0.1127E+01E
 Epicentro: LOS SANTOS - SANTANDER                                             3
 ACTION:UPD 16-03-09 23:23 OP:cam  STATUS:               ID:20160107090210 L   I
 OLDACT:REG 16-01-07 12:44 OP:drio STATUS:               ID:20160107085750     3
 2016-01-07-0857-50M.COL___281                                                 6
 STAT SP IPHASW D HRMM SECON CODA AMPLIT PERI AZIMU VELO AIN AR TRES W  DIS CAZ7
 BAR2 EZ EP        9 2 30.51                             171    0.0210 23.3 192 
 BAR2 EZ ES        9 2 46.16                             171   -0.0210 23.3 192 
 BAR2 EZ I         9 2 46.72         2.9 0.26            170           23.3 192 
 BRR  HZ EP        9 2 32.47                             153    0.4610 72.0 298 
 BRR  HE ES        9 2 49.02                             153    0.1410 72.0 298 
 PAM  EZ EP        9 2 33.30                             152    0.3010 77.0  39 
 PAM  EN ES        9 2 50.43                             152   -0.2210 77.0  39 
 PAM  EZ I         9 2 52.43         6.8 0.56            154           77.0  39 
 RUS  HZ EP        9 2 34.54                             145    0.0310  100 177 
 RUS  HN ES        9 2 53.14                             145   -0.1910  100 177 
 RUS  HZ I         9 2 54.35         1.8 0.20            148            100 177 
 PTB  HZ EP        9 2 37.48                             133   -0.26 9  149 259 
 PTB  HN ES        9 2 58.95                             133   -0.14 9  149 259 
 PTB  HZ I         9 3  4.48         1.8 0.46            132            149 259 
 SPBC HZ EP        9 2 39.26                             130    0.04 9  164 219 
 SPBC HN ES        9 3  1.75                             130    0.03 9  164 219 
 SPBC HZ I         9 3  4.40         3.2 0.34            131            164 219 
 ZAR  HZ EP        9 2 43.35                             123    0.18 9  205 292 
 ZAR  HE ES        9 3  8.80                             123    0.05 9  205 292 
 ZAR  HZ I         9 3 17.54         1.6 0.26            123            205 292 
 SML  HZ EP        9 2 46.64                             118   -0.64 8  244 335 
 SML  HE ES   4    9 3 13.49                             118   -2.58 0  244 335 
 SML  HZ I         9 3 18.67         5.6 0.22            119            244 335 
                                                                                
