 2011  8 7 0007 24.1 L   7.184 -73.077150.2  RSN  4 0.1 1.6LRSN                1
 GAP=122        0.39       3.2     5.6  5.1 -0.4615E+01  0.1344E+02 -0.6571E+01E
 Epicentro: BUCARAMANGA - SANTANDER                                            3
 ACTION:UPD 12-07-25 14:06 OP:epov STATUS:               ID:20110807000724 L   I
 2011-08-07-0005-31S.COL___144                                                 6
 STAT SP IPHASW D HRMM SECON CODA AMPLIT PERI AZIMU VELO AIN AR TRES W  DIS CAZ7
 PAM  SN ES   1    0 8  1.83                             162    0.11 7 45.1  68 
 BAR2 SZ ES   1    0 8  2.59                             155   -0.16 7 66.5 190 
 BAR2 SZ I         0 8  7.23         6.4 0.16                          66.5 190 
 BRR  HZ EP        0 7 45.67                             153    0.0010 70.6 263 
 BRR  HZ I         0 7 46.44         9.8 0.18                          70.6 263 
 BRR  HE ES   2    0 8  2.80                             153    0.28 5 70.6 263 
 OCA  SZ EP        0 7 49.28                             139    0.0710  120 347 
 OCA  SZ ES   1    0 8  8.63                             139   -0.20 7  120 347 
                                                                                
