 2012  8 7 0453 32.9 L   6.710 -73.172148.1  RSN  4 0.3 1.5LRSN                1
 GAP=227        0.57       5.8     6.0  7.6  0.1709E+02 -0.6388E+01 -0.6727E+01E
 Epicentro: VILLANUEVA - SANTANDER                                             3
 ACTION:UPD 12-09-10 11:55 OP:ep   STATUS:               ID:20120807045332 L   I
 2012-08-07-0450-00M.COL___216                                                 6
 STAT SP IPHASW D HRMM SECON CODA AMPLIT PERI AZIMU VELO AIN AR TRES W  DIS CAZ7
 BAR2 SZ EP   1    453 52.17                             175   -0.52 7 13.1 185 
 BAR2 SZ I         454  9.24         6.0 0.43                          13.1 185 
 BRR  HZ EP        453 54.63                             152    0.1210 74.1 306 
 BRR  HZ I         453 55.26         7.4 0.09                          74.1 306 
 BRR  HE ES   1    454 11.44                             152    0.11 7 74.1 306 
 RUS  HZ EP   1    453 56.65                             147    0.39 7 90.9 174 
 RUS  HN ES   1    454 14.40                             147   -0.04 7 90.9 174 
 PTB  HZ EP   1    453 59.58                             133   -0.12 7  143 263 
 PTB  HN ES   1    454 20.52                             133   -0.06 7  143 263 
                                                                                
