 2011 10 7 0451 24.6 L   6.634 -73.133138.3  RSN  4 0.2 1.0LRSN                1
 GAP=184        0.60       7.6    12.0  6.1  0.5768E+02  0.5847E+01  0.1555E+02E
 Epicentro: SAN GIL - SANTANDER                                                3
 ACTION:UPD 12-07-13 16:02 OP:ep   STATUS:               ID:20111007045124 L   I
 2011-10-07-0440-00M.COL___171                                                 6
 STAT SP IPHASW D HRMM SECON CODA AMPLIT PERI AZIMU VELO AIN AR TRES W  DIS CAZ7
 BAR2 SZ EP        451 42.77                             177   -0.3510 7.13 229 
 BAR2 SZ ES        451 57.51                             177   -0.0410 7.13 229 
 BAR2 SZ I         452  1.10         2.2 0.23                          7.13 229 
 GIR2 SZ EP   1    451 43.88                             159   -0.18 7 49.6 352 
 GIR2 SZ ES   1    451 59.56                             159    0.34 7 49.6 352 
 RUS  HZ EP        451 46.59                             148    0.2310 82.2 176 
 BRR  HZ EP   1    451 45.95                             147    0.27 7 82.6 309 
 BRR  HZ I         451 46.35         2.0 0.10                          82.6 309 
 BRR  HN ES   1    452  1.96                             147   -0.14 7 82.6 309 
                                                                                
