 2016  1 7 0849 35.5 L   6.830 -73.189140.5  RSN 12 0.5 1.8LRSN                1
 GAP=130        1.19       2.9     4.6  6.0 -0.1031E+01  0.5405E+01  0.5916E+00E
 Epicentro: ZAPATOCA - SANTANDER                                               3
 ACTION:UPD 16-03-09 23:23 OP:cam  STATUS:               ID:20160107084935 L   I
 OLDACT:UP  16-02-01 09:16 OP:mHER STATUS:               ID:20160107084935 L   3
 OLDACT:REG 16-01-07 12:44 OP:drio STATUS:               ID:20160107084750     3
 2016-01-07-0847-50M.COL___286                                                 6
 STAT SP IPHASW D HRMM SECON CODA AMPLIT PERI AZIMU VELO AIN AR TRES W  DIS CAZ7
 BAR2 EZ EP        849 54.74                             169    0.2010 26.3 178 
 BAR2 EZ ES        850  8.72                             169   -0.6910 26.3 178 
 BAR2 EZ I         850 10.88        15.3 0.22            169           26.3 178 
 BRR  HZ EP        849 56.41                             154    0.6810 65.4 298 
 BRR  HE ES        850 12.43                             154    0.9010 65.4 298 
 BRR  HZ I         850 13.78        10.3 0.10            151           65.4 298 
 PAM  EZ EP        849 57.60                             150    0.4310 78.0  44 
 PAM  EE ES        850 14.33                             150    0.2410 78.0  44 
 PAM  EZ I         850 16.29        10.3 0.50            153           78.0  44 
 RUS  HZ EP        849 58.78                             142   -0.2110  104 174 
 RUS  HN ES        850 16.90                             142   -0.4410  104 174 
 RUS  HZ I         850 18.63         4.7 0.22            143            104 174 
 PTB  HZ EP        850  1.40                             132   -0.25 9  144 257 
 PTB  HN ES        850 21.53                             132   -0.54 9  144 257 
 PTB  HZ I         850 24.70         6.3 0.12            130            144 257 
 OCA  HZ EP        850  2.51                             129   -0.50 9  156 355 
 OCA  HN ES        850 24.22                             129   -0.27 9  156 355 
 OCA  HZ I         850 28.73        17.6 0.28            130            156 355 
 SPBC HZ EP        850  3.79                             128    0.24 9  163 217 
 SPBC HE ES        850 25.85                             128    0.41 9  163 217 
 SPBC HZ I         850 28.09         6.2 0.14            128            163 217 
 ZAR  HZ EP        850  7.72                             122    0.73 9  198 292 
 ZAR  HE ES        850 31.10                             122   -0.47 9  198 292 
 ZAR  HZ I         850 43.04         4.6 0.26            121            198 292 
 SML  HZ EP        850 10.57                             117   -0.69 8  239 336 
 SML  HE ES        850 39.10                             117   -0.07 8  239 336 
 SML  HZ I         850 42.69        12.3 0.10            117            239 336 
 CHI  HZ EP        850 12.58                             116   -0.53 8  251 194 
 CHI  HN ES        850 42.90                             116    0.43 8  251 194 
 CHI  HZ I         850 49.66         2.3 0.56            116            251 194 
 GUY2CHZ EP   9    850 19.92                             111    1.29 0  299 234 
 GUY2CHN ES        850 53.88                             111    0.30 7  299 234 
 PRA  HZ EP        850 29.35                             106    0.46 6  393 209 
 PRA  HN ES        851 10.32                             106   -0.23 6  393 209 
 PRA  HZ I         851 17.22         2.7 0.30            106            393 209 
                                                                                
