 2016 11 7 0649 24.9 L   6.510 -73.489111.5  RSN  6 0.5 1.4LRSN                1
 GAP=161        1.58       8.5     6.4 12.0 -0.2105E+02  0.2810E+02 -0.7678E+01E
 Epicentro: SIMACOTA - SANTANDER                                               3
 ACTION:UPD 17-10-26 21:05 OP:lp   STATUS:               ID:20161107064924 L   I
 OLDACT:UP  16-11-07 17:48 OP:lv   STATUS:               ID:20161107064747     3
 OLDACT:REG 16-11-07 13:18 OP:lv   STATUS:               ID:20161107064747     3
 2016-11-07-0648-00M.COL___325                                                 6
 STAT SP IPHASW D HRMM SECON CODA AMPLIT PERI AZIMU VELO AIN AR TRES W  DIS CAZ7
 BAR2 EZ EP        649 40.79                             159    0.0110 35.1  75 
 BAR2 EZ ES        649 53.34                             159    0.1510 35.1  75 
 BAR2 EZ I         649 54.64        17.9 0.44            161           35.1  75 
 BRR  HZ EP        649 41.55                             144   -0.8410 70.5 340 
 BRR  HN ES   4    649 59.91                             144    3.86 0 70.5 340 
 PTB  HZ EP   9    649 43.71                             131   -1.64 0  107 272 
 PTB  HN ES        649 58.35                             134   -1.3310  107 272 
 PTB  HZ I         650  0.12         5.7 0.10            132            107 272 
 PAM  EZ EP        649 48.66                             126    0.8510  127  44 
 PAM  EN ES        650  5.30                             126   -0.4010  127  44 
 PAM  EZ I         650  6.81         3.2 0.20            127            127  44 
 NOR  HZ EP        649 52.98                             115   -0.34 9  185 236 
 NOR  HE ES        650 15.77                             115    0.26 9  185 236 
 NOR  HZ I         650 17.48         1.9 0.12            116            185 236 
 ZAR  HZ EP        649 53.40                             115    0.03 9  186 306 
 ZAR  HE ES        650 16.00                             115    0.40 9  186 306 
 ZAR  HZ I         650 20.08         2.7 0.36            115            186 306 
                                                                                
