 2017  5 7 0821 37.2 L   6.784 -73.155145.0  RSN  6 0.5 1.5LRSN                1
 GAP=136        1.26       5.4     5.5  9.9 -0.1570E+01  0.1179E+02 -0.1277E+01E
 Epicentro: LOS SANTOS - SANTANDER                                             3
 ACTION:UPD 17-06-16 13:33 OP:jn   STATUS:               ID:20170507082137 L   I
 OLDACT:DUP 17-05-07 16:37 OP:ar   STATUS:               ID:20170507081118d    3
 OLDACT:REG 17-05-07 13:33 OP:ar   STATUS:               ID:20170507081117     3
 2017-05-07-0818-00M.COL___361                                                 6
 STAT SP IPHASW D HRMM SECON CODA AMPLIT PERI AZIMU VELO AIN AR TRES W  DIS CAZ7
 BRR  HZ EP        821 58.33                             152    0.0610 71.2 300 
 BRR  HN ES        822 15.40                             152    0.7010 71.2 300 
 PAM  EZ EP        821 59.33                             150   -0.1310 79.3  39 
 PAM  EE ES        822 16.54                             150   -0.2710 79.3  39 
 PAM  EZ I         822 18.50         4.8 0.56            154           79.3  39 
 RUS  HZ EP        822  0.49                             144   -0.2810 98.9 175 
 RUS  HN ES        822 19.22                             144    0.0810 98.9 175 
 RUS  HZ I         822 20.45         2.8 0.46            146           98.9 175 
 PTB  HZ EP        822  3.77                             132   -0.23 9  146 259 
 PTB  HN ES        822 23.96                             132   -0.93 9  146 259 
 PTB  HZ I         822 30.40         3.0 0.26            133            146 259 
 SPBC HE ES        822 28.02                             129    0.52 9  161 219 
 SPBC HZ I         822 30.59         6.4 0.10            131            161 219 
 ZAR  HZ EP        822 10.52                             122    0.94 9  204 293 
 ZAR  HN ES        822 34.46                             122   -0.37 9  204 293 
 ZAR  HZ I         822 39.68         3.8 0.34            123            204 293 
 ROSC BZ EP   4    822 17.20                             117    2.13 0  251 211 
 ROSC BN ES   4    822 47.41                             117    2.81 0  251 211 
                                                                                
