 2013  4 7 0634 44.6 L   6.799 -73.181142.0  RSN 10 0.4 1.8LRSN                1
 GAP=176        0.99       4.0     4.8  7.6  0.4736E+01  0.4543E+01 -0.1747E+01E
 Epicentro: LOS SANTOS - SANTANDER                                             3
 ACTION:UPD 13-05-22 14:36 OP:EP   STATUS:               ID:20130407063444 L   I
 2013-04-07-0630-00M.COL___245                                                 6
 STAT SP IPHASW D HRMM SECON CODA AMPLIT PERI AZIMU VELO AIN AR TRES W  DIS CAZ7
 BAR2 SZ EP        635  3.80                             171    0.0110 22.8 180 
 GIR2 SZ EP   1    635  3.25                             167   -0.59 7 31.0 357 
 GIR2 SZ I         635 20.19         3.4 0.32            166           31.0 357 
 BRR  HZ EP        635  5.52                             153    0.3410 67.9 300 
 BRR  HN ES        635 21.98                             153    0.7710 67.9 300 
 BRR  HN I         635 22.64        32.0 0.30            152           67.9 300 
 RUS  HZ EP        635  8.36                             143    0.3410  101 174 
 RUS  HN ES        635 25.80                             143   -0.4710  101 174 
 RUS  HN I         635 27.48         5.3 0.14            141            101 174 
 PTB  HZ EP        635 10.37                             132   -0.56 9  144 259 
 PTB  HN ES        635 31.39                             132   -0.06 9  144 259 
 PTB  HN I         635 32.77        10.6 0.22            130            144 259 
 ZAR  HZ EP   4    635 18.13                             122    1.68 0  200 293 
 ZAR  HN ES        635 41.15                             122   -0.13 9  200 293 
 ZAR  HN I         635 46.84         6.7 0.44            120            200 293 
 NOR  HZ EP   1    635 20.43                             118    0.65 6  231 234 
 NOR  HN ES   2    635 47.58                             118    0.37 4  231 234 
 NOR  HN I         635 52.24         8.9 0.18            116            231 234 
 SML  HZ EP   1    635 20.99                             117    0.11 6  242 336 
 SML  HN ES        635 48.64                             117   -0.52 8  242 336 
 SML  HN I         635 51.93        10.0 0.10            115            242 336 
 CHI  HE ES   2    635 51.09                             117   -0.04 4  247 194 
 CHI  HE I         635 58.38         3.7 0.42            114            247 194 
 HEL  HZ EP        635 24.60                             115    0.38 8  268 256 
 HEL  HN ES        635 54.66                             115   -0.44 8  268 256 
 HEL  HN I         636  3.55         2.3 0.36            113            268 256 
                                                                                
