 2012  3 7 0605 32.6 L   6.794 -73.134144.0  RSN 13 0.3 2.2LRSN                1
 GAP=138        0.79       2.7     3.4  4.6 -0.1404E+01  0.4781E+01  0.2043E+01E
 ACTION:UP  12-03-31 23:17 OP:EP   STATUS:               ID:20120307060532 L   I
 2012-03-07-0600-00M.COL___194                                                 6
 STAT SP IPHASW D HRMM SECON CODA AMPLIT PERI AZIMU VELO SNR AR TRES W  DIS CAZ7
 BAR2 SZ EP        6 5 52.19                             171     0.110   23 194 
 BAR2 SZ ES   1    6 6  6.88                             171    -0.3 7   23 194 
 BAR2 SZ I         6 6  9.69        23.8 0.15                            23 194 
 BRR  HZ EP        6 5 53.90                             152     0.210   73 299 
 BRR  HE ES        6 6 10.70                             152     0.610   73 299 
 BRR  HZ I         6 6 14.30        46.2 0.05                            73 299 
 PAM  SZ EP        6 5 54.95                             151     0.310   77  38 
 PAM  SN ES        6 6 11.71                             151    -0.110   77  38 
 RUS  HZ EP        6 5 56.14                             144     0.010  100 177 
 RUS  HN ES        6 6 14.40                             144    -0.110  100 177 
 RUS  HZ I         6 6 16.65        18.7 0.27                           100 177 
 PTB  HZ EP        6 5 59.08                             131    -0.5 9  149 259 
 PTB  HE ES   1    6 6 20.59                             131     0.0 7  149 259 
 OCA  SZ EP        6 6  0.76                             129    -0.1 9  161 353 
 OCA  SZ ES   1    6 6 22.15                             129    -0.8 7  161 353 
 ZAR  HZ EP   1    6 6  4.78                             122    -0.3 6  206 292 
 ZAR  HN ES   1    6 6 30.35                             122    -0.1 6  206 292 
 ZAR  HZ I         6 6 36.29        23.5 0.21                           206 292 
 NOR  SZ EP   1    6 6  8.60                             118     0.3 6  235 235 
 NOR  SN ES   1    6 6 35.82                             118    -0.4 6  235 235 
 CHI  HZ EP   1    6 6 10.35                             117     0.1 6  248 196 
 CHI  HZ I         6 6 13.20         7.3 0.17                           248 196 
 CHI  HN ES   1    6 6 39.27                             117    -0.2 6  248 196 
 HEL  HZ EP   1    6 6 13.35                             114     0.5 6  273 256 
 HEL  HN ES   1    6 6 44.24                             114     0.0 6  273 256 
 HEL  HZ I         6 6 50.55        13.3 0.33                           273 256 
 RREF HZ EP   1    6 6 19.46                             110     0.7 5  322 230 
 RREF HE ES   1    6 6 54.39                             110    -0.4 5  322 230 
 RREF HZ I         6 7  6.36        10.1 0.42                           322 230 
 TOL  SZ EP   1    6 6 21.29                             109     0.4 5  344 225 
 PRA  HZ EP   1    6 6 25.58                             106    -0.5 4  392 210 
 PRA  HN ES   1    6 7  7.85                             106     0.0 4  392 210 
                                                                                
