 2012  9 7 0701 21.3 L   6.786 -73.119153.0  RSN  8 0.4 2.1LRSN                1
 GAP=141        0.70       4.6     4.9  6.5 -0.3526E+01  0.5697E+01  0.1385E+02E
 Epicentro: LOS SANTOS - SANTANDER                                             3
 ACTION:UPD 12-10-22 14:17 OP:ep   STATUS:               ID:20120907070121 L   I
 2012-09-07-0700-00M.COL___227                                                 6
 STAT SP IPHASW D HRMM SECON CODA AMPLIT PERI AZIMU VELO AIN AR TRES W  DIS CAZ7
 GIR2 SZ EP   1    7 1 41.93                             167    0.04 7 33.4 346 
 GIR2 SZ ES   1    7 1 58.33                             167    0.38 7 33.4 346 
 BRR  HZ EP        7 1 43.63                             153    0.2210 74.5 298 
 BRR  HE ES   1    7 2  0.93                             153    0.26 7 74.5 298 
 BRR  HZ I         7 2  4.12        17.2 0.14                          74.5 298 
 PAM  SN ES   1    7 2  1.90                             152   -0.26 7 76.8  37 
 RUS  HZ EP   1    7 1 45.54                             146   -0.11 7 98.9 178 
 RUS  HN ES   1    7 2  4.39                             146   -0.26 7 98.9 178 
 RUS  HZ I         7 2  5.47        11.2 0.28                          98.9 178 
 PTB  HZ EP   1    7 1 48.35                             133   -0.74 7  150 260 
 PTB  HE ES   1    7 2 10.21                             133   -0.56 7  150 260 
 PTB  HN I         7 2 11.95        18.0 0.22                           150 260 
 NOR  SN ES   1    7 2 26.42                             120    0.47 6  236 235 
 CHI  HZ EP   1    7 1 59.75                             119    0.42 6  248 196 
 CHI  HZ I         7 2 34.99         5.9 0.28                           248 196 
 PRA  HZ EP   1    7 2 15.15                             108    0.06 4  392 210 
 PRA  HN ES   1    7 2 57.33                             108    0.28 4  392 210 
 PRA  HZ I         7 3  3.41         5.6 0.34                           392 210 
                                                                                
