 2013  8 7 0123 45.3 L   6.822 -73.140145.5  RSN 11 0.4 1.7LRSN                1
 GAP=136        0.90       3.0     4.3  6.2  0.3371E+00  0.9296E+01  0.2977E+01E
 Epicentro: LOS SANTOS - SANTANDER                                             3
 ACTION:UPD 14-01-14 08:59 OP:ep   STATUS:               ID:20130807012345 L   I
 OLDACT:REG 13-08-07 07:27 OP:carl STATUS:               ID:20130807011959     3
 2013-08-07-0119-59M.COL___270                                                 6
 STAT SP IPHASW D HRMM SECON CODA AMPLIT PERI AZIMU VELO AIN AR TRES W  DIS CAZ7
 BAR2 SZ EP   1    124  4.93                             169   -0.05 7 25.8 190 
 BAR2 SZ ES   1    124 19.86                             169   -0.44 7 25.8 190 
 BAR2 SZ I         124 23.87         6.3 0.42            168           25.8 190 
 GIR2 SZ ES        124 19.94                             168   -0.2410 29.0 348 
 BRR  HZ EP   1    124  6.67                             153    0.25 7 70.6 297 
 BRR  HN ES        124 23.34                             153    0.4810 70.6 297 
 BRR  HN I         124 26.76        20.1 0.20            151           70.6 297 
 PAM  SZ EP   1    124  7.86                             152    0.47 7 75.2  40 
 PAM  SN ES   1    124 25.06                             152    0.47 7 75.2  40 
 PAM  SZ I         124 27.09         7.1 0.20            157           75.2  40 
 RUS  HZ EP   1    124  8.62                             143   -0.61 7  103 176 
 RUS  HN ES        124 27.60                             143   -0.2610  103 176 
 RUS  HZ I         124 28.72         2.3 0.46            146            103 176 
 PTB  HZ EP        124 11.91                             132   -0.46 9  149 258 
 PTB  HN ES   1    124 33.15                             132   -0.31 7  149 258 
 PTB  HZ I         124 38.77         7.0 0.22            132            149 258 
 SPBC HZ EP   1    124 13.91                             129   -0.11 7  165 219 
 SPBC HN ES        124 36.39                             129   -0.00 9  165 219 
 SPBC HZ I         124 41.73         7.3 0.12            130            165 219 
 ZAR  HE ES        124 43.21                             122    0.22 9  204 291 
 ZAR  HE I         124 49.26        18.0 0.20            124            204 291 
 NOR  HE ES        124 49.32                             118    0.07 8  237 234 
 NOR  HZ I         124 53.15         4.9 0.24            120            237 234 
 SML  HN ES        124 49.81                             118   -0.32 8  242 335 
 CHI  HN ES        124 53.80                             117    0.92 8  251 195 
                                                                                
