 2012  2 7 0534 38.0 L   6.701 -73.146133.6  RSN  6 0.5 1.2LRSN                1
 GAP=183        0.94      10.3     7.6  9.3  0.3502E+02  0.1153E+02  0.6231E+01E
 ACTION:UP  12-03-07 16:28 OP:epov STATUS:               ID:20120207053438 L   I
 2012-02-07-0530-00M.COL___188                                                 6
 STAT SP IPHASW D HRMM SECON CODA AMPLIT PERI AZIMU VELO AIN AR TRES W  DIS CAZ7
 BAR2 SZ EP   1    534 56.17                             174    0.17 7 12.6 198 
 BAR2 SZ ES   1    535  9.33                             174   -0.70 7 12.6 198 
 BAR2 SZ I         535 18.12         3.9 0.48                          12.6 198 
 GIR2 SZ EP   1    534 56.27                             161   -0.34 7 42.1 353 
 BRR  HZ EP   1    534 58.30                             148    0.08 7 77.0 306 
 BRR  HE ES   1    535 14.82                             148    0.84 7 77.0 306 
 BRR  HZ I         535 20.82         3.5 0.10                          77.0 306 
 RUS  HZ EP   1    535  0.35                             144    0.57 7 89.6 176 
 RUS  HZ I         535 19.88         1.3 0.28                          89.6 176 
 PTB  HZ EP   1    535  3.24                             129   -0.61 7  146 263 
 PTB  HN ES   1    535 24.13                             129    0.13 7  146 263 
 ZAR  HZ EP   1    535 10.30                             119    0.14 6  208 295 
 ZAR  HZ I         535 18.08         2.1 0.05                           208 295 
 ZAR  HN ES   1    535 34.81                             119   -0.41 6  208 295 
                                                                                
