 2012  4 7 0951 45.8 L   7.086 -73.075161.8  RSN  4 0.3 1.3LRSN                1
 GAP=193        0.72      14.0     6.1 10.1 -0.3446E+02 -0.3196E+01  0.3142E+02E
 Epicentro: FLORIDABLANCA - SANTANDER                                          3
 ACTION:UPD 12-07-05 11:51 OP:tino STATUS:               ID:20120407095145 L   I
 2012-04-07-0950-00M.COL___196                                                 6
 STAT SP IPHASW D HRMM SECON CODA AMPLIT PERI AZIMU VELO AIN AR TRES W  DIS CAZ7
 PAM  SZ EP   1    952  8.33                             162    -0.1 7   50  56 
 PAM  SN ES   2    952 25.71                             162    -0.4 5   50  56 
 BRR  HZ EP   1    952  9.18                             155     0.5 7   70 272 
 BRR  HZ I         952  9.76         5.3 0.11                            70 272 
 BRR  HN ES   1    952 26.83                             155     0.4 7   70 272 
 PTB  HZ EP   1    952 15.40                             132    -0.1 7  164 248 
 PTB  HE ES   1    952 38.46                             132    -0.3 7  164 248 
 PTB  HZ I         952 43.37         1.1 0.18                           164 248 
 ZAR  HN ES   1    952 44.83                             126    -0.3 6  202 283 
                                                                                
