 2013  2 7 0437  3.4 L   6.734 -73.215152.4  RSN  5 0.2 1.7LRSN                1
 GAP=224        0.49       3.9     4.1  4.7  0.1017E+02 -0.4422E+00  0.1260E+01E
 Epicentro: VILLANUEVA - SANTANDER                                             3
 ACTION:UPD 13-03-12 09:31 OP:ep   STATUS:               ID:20130207043702 L   I
 2013-02-07-0430-00M.COL___240                                                 6
 STAT SP IPHASW D HRMM SECON CODA AMPLIT PERI AZIMU VELO AIN AR TRES W  DIS CAZ7
 BRR  HZ EP     C  437 25.06                             154   -0.0710 68.7 307 
 BRR  HN ES        437 42.20                             154    0.1210 68.7 307 
 BRR  HN I         437 42.65        10.5 0.28            131           68.7 307 
 RUS  HZ EP        437 27.51                             147    0.1410 94.2 171 
 RUS  HN ES        437 45.90                             147   -0.1710 94.2 171 
 RUS  HN I         437 46.27         5.2 0.30            118           94.2 171 
 PTB  HZ EP   1    437 29.72                             135   -0.42 7  139 261 
 PTB  HN ES        437 51.08                             135    0.08 9  139 261 
 PTB  HN I         437 54.63         5.9 0.20            109            139 261 
 ZAR  HN ES   1    438  1.15                             124   -0.04 6  200 295 
 ZAR  HN I         438  7.37         7.9 0.26            103            200 295 
 CHI  HZ EP   1    437 40.88                             119    0.37 6  240 194 
 CHI  HN I         438 15.17         2.8 0.60            100            240 194 
                                                                                
