 2010  8 7 0111 33.3 L   7.349 -73.103129.7  RSN  5 0.5 1.5LRSN                1
 GAP=157        0.92      12.0    16.4 11.4 -0.1496E+03  0.1787E+02  0.2182E+02E
 Epicentro: MATANZA - SANTANDER                                                3
 ACTION:UP  10-09-07 10:52 OP:vdl  STATUS:               ID:20100807011133 L   I
 2010-08-07-0109-55S.COL___125                                                 6
 STAT SP IPHASW D HRMM SECON CODA AMPLIT PERI AZIMU VELO SNR AR TRES W  DIS CAZ7
 BTL  SZ EP        111 52.37                             157     0.410   51 201 
 BTL  SZ ES   2    112  5.46                             157    -1.1 5   51 201 
 GUE  SZ EP        111 52.16                             156    -0.210   57  20 
 GUE  SZ ES   1    112  7.76                             156     0.5 7   57  20 
 GRA  SZ ES   1    112  7.71                             151    -0.2 7   68  29 
 GRA  SZ I         112  9.59         8.1 0.27                            68  29 
 BRR  HZ EP        111 52.68                             149    -0.110   72 248 
 BRR  HN ES   2    112  8.35                             149     0.3 5   72 248 
 BAR2 SZ ES   3    112 10.88                             145     0.8 2   84 186 
 BAR2 SZ I         112 12.72         5.9 0.63                            84 186 
                                                                                
