 2015  2 7 0919 59.4 L   6.807 -73.178143.6  RSN  4 0.2 1.4LRSN                1
 GAP=176        0.59       5.8     4.9  6.3 -0.2040E+02  0.1499E+01  0.1073E+02E
 Epicentro: ZAPATOCA - SANTANDER                                               3
 ACTION:UPD 15-04-30 21:23 OP:nd   STATUS:               ID:20150207091959 L   I
 OLDACT:REG 15-02-07 12:44 OP:stll STATUS:               ID:20150207091744     3
 2015-02-07-0917-44M.COL___286                                                 6
 STAT SP IPHASW D HRMM SECON CODA AMPLIT PERI AZIMU VELO AIN AR TRES W  DIS CAZ7
 PAM  SZ EP   1    920 21.31                             150   -0.16 7 79.2  42 
 PAM  SN ES        920 38.80                             150    0.1010 79.2  42 
 PAM  SZ I         920 40.62         3.6 0.58            159           79.2  42 
 PTB  HZ EP        920 25.49                             132   -0.38 9  144 258 
 PTB  HN ES        920 46.66                             132    0.14 9  144 258 
 PTB  HZ I         920 52.37         2.8 0.54            136            144 258 
 SPBC HZ EP        920 27.70                             129    0.14 9  162 218 
 SPBC HN ES        920 49.37                             129   -0.16 9  162 218 
 SPBC HZ I         920 56.78         4.4 0.38            132            162 218 
 GUY2CHZ EP        920 43.03                             112    0.42 7  299 234 
                                                                                
