 2017  5 7 0913  2.6 L   6.806 -73.174147.8  RSN  9 0.4 1.7LRSN                1
 GAP=109        1.08       3.6     3.8  7.1  0.1684E+01  0.3149E+01  0.6025E+01E
 Epicentro: LOS SANTOS - SANTANDER                                             3
 ACTION:UPD 17-06-16 13:33 OP:jn   STATUS:               ID:20170507091302 L   I
 OLDACT:REG 17-05-07 13:34 OP:ar   STATUS:               ID:20170507090421     3
 2017-05-07-0908-00M.COL___361                                                 6
 STAT SP IPHASW D HRMM SECON CODA AMPLIT PERI AZIMU VELO AIN AR TRES W  DIS CAZ7
 BRR  HZ IP     D  913 23.87                             154    0.0610 68.1 299 
 BRR  HN ES        913 40.94                             154    0.5910 68.1 299 
 BRR  HZ I         913 44.87         8.6 0.32            153           68.1 299 
 PAM  EZ EP        913 25.04                             151   -0.1010 79.0  42 
 PAM  EN ES        913 42.27                             151   -0.4410 79.0  42 
 PAM  EZ I         913 44.25         6.0 0.44            155           79.0  42 
 RUS  HZ EP        913 26.28                             144   -0.3510  101 174 
 RUS  HN ES        913 45.37                             144    0.0110  101 174 
 RUS  HZ I         913 45.78         7.1 0.34            146            101 174 
 PTB  HZ EP        913 28.91                             133   -0.57 9  145 258 
 PTB  HN ES        913 49.57                             133   -0.87 9  145 258 
 PTB  HZ I         913 56.78         4.9 0.44            133            145 258 
 SPBC HZ EP        913 31.38                             130    0.25 9  162 218 
 SPBC HE ES        913 53.27                             130   -0.10 9  162 218 
 SPBC HZ I         913 54.73         9.1 0.14            131            162 218 
 YPLC HZ EP        913 32.63                             127   -0.12 9  179 151 
 YPLC HE ES        913 57.01                             127    0.74 9  179 151 
 YPLC HZ I         913 57.46         8.5 0.28            130            179 151 
 ZAR  HZ EP        913 35.33                             123    0.46 9  201 292 
 ZAR  HN ES        914  0.73                             123    0.70 9  201 292 
 ZAR  HZ I         914  5.22         3.9 0.22            124            201 292 
 NOR  HN ES        914  5.92                             119   -0.08 8  233 234 
 NOR  HZ I         914 13.78         3.9 0.16            120            233 234 
 CHI  HZ EP        913 40.34                             118   -0.06 8  248 194 
 CHI  HN ES        914 10.05                             118    0.17 8  248 194 
 CHI  HZ I         914 14.04         2.3 0.34            119            248 194 
                                                                                
