 2014  6 7 0449 43.5 L   6.823 -73.148139.4  RSN 15 0.4 2.0LRSN                1
 GAP=113        0.81       2.7     2.6  5.4 -0.1050E+01  0.2887E+01 -0.3457E+00E
 Epicentro: LOS SANTOS - SANTANDER                                             3
 ACTION:UPD 14-07-01 22:51 OP:nd   STATUS:               ID:20140607044943 L   I
 OLDACT:REG 14-06-07 13:11 OP:fm   STATUS:               ID:20140607044819     3
 2014-06-07-0448-19M.COL___253                                                 6
 STAT SP IPHASW D HRMM SECON CODA AMPLIT PERI AZIMU VELO AIN AR TRES W  DIS CAZ7
 BAR2 SZ IP     C  450  2.76                             169    0.3010 25.8 188 
 BAR2 SZ ES   1    450 17.44                             169    0.22 7 25.8 188 
 BAR2 SZ I         450 18.63        34.4 0.40            164           25.8 188 
 RUS  HZ EP        450  6.75                             142   -0.1110  103 176 
 RUS  HE ES        450 25.15                             142    0.1010  103 176 
 RUS  HZ I         450 26.21         9.1 0.40            136            103 176 
 PTB  HZ EP        450  9.49                             130   -0.52 9  148 258 
 PTB  HN ES        450 30.41                             130   -0.26 9  148 258 
 PTB  HZ I         450 38.68         9.4 0.14            121            148 258 
 TAM  HZ EP        450 10.98                             129    0.18 9  156 106 
 TAM  HN ES        450 31.95                             129   -0.13 9  156 106 
 OCA  HZ EP        450 10.90                             128   -0.21 9  158 353 
 OCA  HN ES        450 32.57                             128   -0.05 9  158 353 
 OCA  HZ I         450 37.39        11.8 0.32            121            158 353 
 SPBC HE ES        450 33.18                             127   -0.54 9  165 218 
 SPBC HZ I         450 39.56        14.0 0.32            119            165 218 
 ZAR  HN ES   1    450 40.83                             121    0.49 6  203 291 
 NOR  HZ EP        450 19.28                             117    0.24 8  236 234 
 NOR  HN ES        450 47.27                             117    0.54 8  236 234 
 NOR  HZ I         450 51.68         6.1 0.36            110            236 234 
 SML  HZ EP   2    450 19.02                             116   -0.52 4  241 335 
 SML  HN ES   4    450 49.43                             116    1.80 0  241 335 
 SML  HZ I         450 54.26        12.9 0.26            109            241 335 
 HEL  HZ EP   4    450 20.80                             113   -2.67 0  272 255 
 HEL  HZ I         451  1.66         4.6 0.32            107            272 255 
 GUY2CHZ EP        450 27.84                             111    0.84 7  302 234 
 GUY2CHN ES   1    451  0.90                             111    0.00 5  302 234 
 GUY2CHZ I         451 10.40         3.1 0.22                           302 234 
 RREF HN ES   4    451  7.61                             109    2.12 0  323 229 
 RREF HZ I         451 11.19         3.4 0.26            104            323 229 
 TOL  SN ES   4    451 11.27                             108    1.95 0  345 224 
 TOL  SZ I         451 19.21         7.3 0.62            102            345 224 
 PRA  HZ EP        450 37.30                             105    0.21 6  394 209 
 PRA  HN ES        451 18.72                             105   -0.14 6  394 209 
 PRA  HZ I         451 26.57         3.5 0.32            100            394 209 
 ORTC HN ES   1    451 18.46                             105   -1.07 4  397 216 
 ORTC HZ I         451 25.76         2.4 0.34            100            397 216 
 SJC  HZ EP   4    450 36.93                             105   -1.69 0  407 327 
 SJC  HN ES   4    451 20.77                             105   -0.82 0  407 327 
 SJC  HZ I    4    451 22.69         3.7 0.46             99            407 327 
                                                                                
