 2017 11 7 0150 37.7 L   6.809 -73.158144.7  RSN 11 0.5 1.7LRSN                1
 GAP=110        1.20       4.0     4.1  6.4  0.2000E+01  0.5906E+01  0.6089E+01E
 Epicentro: LOS SANTOS - SANTANDER                                             3
 ACTION:UPD 17-12-12 19:53 OP:rebc STATUS:               ID:20171107015037 L   I
 OLDACT:REG 17-11-07 12:33 OP:dnl  STATUS:               ID:20171107014741     3
 2017-11-07-0148-00M.COL___420                                                 6
 STAT SP IPHASW D HRMM SECON CODA AMPLIT PERI AZIMU VELO AIN AR TRES W  DIS CAZ7
 BAR2 EZ EP        150 56.95                             170   -0.3110 24.1 186 
 BAR2 EZ ES        151 11.73                             170   -0.7510 24.1 186 
 BAR2 EZ I         151 14.79         9.2 0.42            170           24.1 186 
 BRR  HZ EP        150 58.43                             153   -0.2510 69.5 298 
 BRR  HN ES        151 16.01                             153    1.0010 69.5 298 
 BRR  HZ I         151 18.95         9.6 0.26            153           69.5 298 
 PAM  EZ EP        151  0.00                             151    0.1610 77.5  41 
 PAM  EN ES        151 17.12                             151    0.0310 77.5  41 
 PAM  EZ I         151 19.91         5.0 0.58            155           77.5  41 
 RUS  HZ EP        151  1.49                             143    0.0210  102 175 
 RUS  HN ES        151 20.06                             143    0.0910  102 175 
 RUS  HZ I         151 21.69         5.6 0.22            146            102 175 
 PTB  HZ EP        151  3.75                             132   -0.77 9  147 258 
 PTB  HN ES        151 25.46                             132    0.05 9  147 258 
 PTB  HZ I         151 29.76         4.3 0.26            134            147 258 
 SPBC HZ EP        151  5.98                             129   -0.17 9  163 218 
 SPBC HN ES        151 27.68                             129   -0.63 9  163 218 
 SPBC HZ I         151 34.00         7.9 0.26            131            163 218 
 YPLC HZ EP        151  7.45                             126   -0.16 9  178 151 
 YPLC HN ES        151 31.63                             126    0.73 9  178 151 
 YPLC HZ I         151 32.33         7.3 0.28            130            178 151 
 ZAR  HZ EP        151  9.48                             122   -0.47 9  202 292 
 ZAR  HN ES        151 35.36                             122    0.29 9  202 292 
 ZAR  HZ I         151 39.85         5.1 0.24            125            202 292 
 NOR  HZ EP        151 13.52                             118    0.17 8  234 234 
 NOR  HN ES        151 41.35                             118    0.22 8  234 234 
 CHI  HZ EP        151 15.40                             117   -0.05 8  249 195 
 CHI  HN ES        151 45.12                             117    0.26 8  249 195 
 GUY2CHZ EP        151 22.40                             112    1.16 7  301 234 
 GUY2CHN ES   4    151 56.96                             112    1.79 0  301 234 
 GUY2CHZ I         152  2.13         2.4 0.52                           301 234 
                                                                                
