 2014 12 7 0625 35.7 L   6.806 -73.160144.0  RSN 10 0.3 1.4LRSN                1
 GAP= 70        0.83       3.1     3.0  5.1 -0.6500E+00  0.1219E+01  0.3235E+00E
 Epicentro: LOS SANTOS - SANTANDER                                             3
 ACTION:UPD 15-02-10 17:01 OP:nd   STATUS:               ID:20141207062535 L   I
 OLDACT:REG 14-12-07 13:11 OP:spq  STATUS:               ID:20141207061741     3
 2014-12-07-0617-41M.COL___312                                                 6
 STAT SP IPHASW D HRMM SECON CODA AMPLIT PERI AZIMU VELO AIN AR TRES W  DIS CAZ7
 BAR2 SZ EP   1    625 55.13                             170   -0.02 7 23.8 186 
 BAR2 SZ ES   1    626  9.80                             170   -0.50 7 23.8 186 
 BAR2 SZ I         626 13.37         3.4 0.46            170           23.8 186 
 BRR  HZ EP        625 56.73                             153    0.1510 69.5 299 
 BRR  HE ES        626 13.73                             153    0.8810 69.5 299 
 BRR  HZ I         626 17.78         3.7 0.34            153           69.5 299 
 PAM  SZ EP        625 57.71                             150   -0.0710 77.9  41 
 PAM  SN ES        626 14.80                             150   -0.1910 77.9  41 
 PAM  SZ I         626 16.71         4.9 0.54            155           77.9  41 
 RUS  HZ EP        625 59.25                             143   -0.1110  101 175 
 RUS  HE ES   1    626 17.79                             143   -0.00 7  101 175 
 RUS  HZ I         626 19.02         1.5 0.18            147            101 175 
 PTB  HZ EP        626  2.03                             132   -0.39 9  146 258 
 PTB  HN ES        626 22.72                             132   -0.51 9  146 258 
 PTB  HZ I         626 29.20         2.7 0.30            134            146 258 
 TAM  HZ EP        626  3.51                             130    0.09 9  157 105 
 SPBC HZ EP        626  4.46                             129    0.42 9  163 218 
 SPBC HE ES        626 26.39                             129    0.26 9  163 218 
 SPBC HZ I         626 31.48         3.1 0.10            131            163 218 
 ZAR  HZ EP        626  7.85                             122   -0.02 9  202 292 
 ZAR  HN ES        626 32.80                             122   -0.15 9  202 292 
 ZAR  HZ I         626 35.95         3.3 0.29            124            202 292 
 NOR  HE ES   1    626 38.77                             118   -0.19 6  234 234 
 NOR  HZ I         626 41.12         1.8 0.24            121            234 234 
 SML  HZ EP   1    626 12.36                             117    0.25 6  242 336 
 SML  HE ES   1    626 40.22                             117   -0.28 6  242 336 
 SML  HZ I         626 43.76         3.3 0.10            120            242 336 
                                                                                
