 2015  1 7 0439 20.3 L   6.802 -73.146140.9  RSN 13 0.4 2.2LRSN                1
 GAP=197        0.99       2.8     4.7  6.1 -0.2915E+01  0.5403E+01 -0.1485E+01E
 Epicentro: LOS SANTOS - SANTANDER                                             3
 ACTION:UPD 15-03-02 15:37 OP:nd   STATUS:               ID:20150107043920 L   I
 OLDACT:UP  15-01-07 17:14 OP:cam  STATUS:               ID:20150107043818     3
 OLDACT:UP  15-01-07 17:14 OP:cam  STATUS:               ID:20150107043818     3
 OLDACT:REG 15-01-07 15:55 OP:spq  STATUS:               ID:20150107043818     3
 2015-01-07-0438-18M.COL___277                                                 6
 STAT SP IPHASW D HRMM SECON CODA AMPLIT PERI AZIMU VELO AIN AR TRES W  DIS CAZ7
 BAR2 EZ EP        439 39.72                             170    0.4010 23.6 190 
 BAR2 EZ ES        439 53.57                             170   -0.6110 23.6 190 
 BAR2 EZ I         439 56.53        21.0 0.32            168           23.6 190 
 BRR  HZ IP     C  439 41.67                             152    0.7910 71.0 298 
 BRR  HN ES   4    439 59.13                             152    2.17 0 71.0 298 
 BRR  HZ I         440  3.83        14.5 0.14            150           71.0 298 
 PTB  HZ EP        439 46.38                             131   -0.46 9  148 259 
 PTB  HN ES        440  7.61                             131    0.04 9  148 259 
 PTB  HZ I         440 14.99        22.7 0.42            132            148 259 
 OCA  HZ EP        439 48.62                             128    0.44 9  160 353 
 OCA  HN ES        440 10.08                             128    0.13 9  160 353 
 OCA  HN I         440 13.79        62.2 0.20            133            160 353 
 SPBC HZ EP        439 48.68                             128    0.27 9  163 219 
 SPBC HN ES        440 10.09                             128   -0.28 9  163 219 
 SPBC HZ I         440 17.33        22.3 0.38            130            163 219 
 ZAR  HZ EP        439 52.47                             121    0.09 9  204 292 
 ZAR  HN ES        440 17.58                             121    0.15 9  204 292 
 ZAR  HZ I         440 23.24        19.2 0.68            123            204 292 
 NOR  HZ EP        439 55.79                             117    0.06 8  235 234 
 NOR  HN ES        440 23.33                             117   -0.06 8  235 234 
 NOR  HZ I         440 31.02        13.5 0.26            120            235 234 
 SML  HZ EP        439 56.10                             116   -0.50 8  243 335 
 SML  HN ES        440 24.61                             116   -0.32 8  243 335 
 SML  HZ I         440 32.44        16.5 0.10            120            243 335 
 CHI  HZ EP        439 57.76                             116    0.03 8  249 195 
 CHI  HN ES        440 26.80                             116   -0.14 8  249 195 
 CHI  HZ I         440 32.98         6.7 0.26            120            249 195 
 HEL  HZ EP   4    440  1.82                             114    1.58 0  272 256 
 HEL  HN ES   1    440 32.15                             114    0.74 6  272 256 
 HEL  HN I         440 39.09         6.6 0.50            116            272 256 
 CBOC HZ EP        440  6.65                             109   -0.34 7  334 252 
 CBOC HN ES        440 43.55                             109    0.12 7  334 252 
 MON  HZ EP   4    440  6.73                             108   -2.33 0  353 308 
 MON  HN ES   4    440 45.27                             108   -1.84 0  353 308 
 MON  HZ I         440 48.16         2.9 0.40            111            353 308 
 SJC  HZ EP        440 14.28                             105   -1.36 6  409 327 
                                                                                
