 2012  9 7 0823 58.0 L   6.704 -73.198155.5  RSN  4 0.3 1.4LRSN                1
 GAP=224        0.56       6.3     5.9  6.7  0.1417E+02  0.7948E+01 -0.3530E+01E
 Epicentro: VILLANUEVA - SANTANDER                                             3
 ACTION:UPD 12-10-22 14:17 OP:ep   STATUS:               ID:20120907082358 L   I
 2012-09-07-0820-00M.COL___227                                                 6
 STAT SP IPHASW D HRMM SECON CODA AMPLIT PERI AZIMU VELO AIN AR TRES W  DIS CAZ7
 BAR2 SZ EP   1    824 18.43                             175   -0.23 7 12.5 172 
 BAR2 SZ ES   1    824 34.41                             175   -0.35 7 12.5 172 
 BAR2 SZ I         824 34.67         6.4 0.25                          12.5 172 
 BRR  HZ EP   1    824 20.30                             154    0.03 7 72.2 308 
 BRR  HZ I         824 20.58         8.6 0.17                          72.2 308 
 BRR  HN ES   1    824 37.99                             154    0.36 7 72.2 308 
 RUS  HN ES   1    824 41.14                             148    0.30 7 90.6 172 
 RUS  HZ I         824 42.09         2.4 0.40                          90.6 172 
 PTB  HZ EP   1    824 25.28                             136    0.13 7  140 263 
 PTB  HN ES   1    824 46.05                             136   -0.26 7  140 263 
 PTB  HZ I         824 52.18         2.0 0.40                           140 263 
                                                                                
