 2011  7 7 0113 35.6 L   6.772 -73.070149.0  RSN 13 0.4 2.8LRSN                1
 GAP=148        0.75       3.2     5.0  5.2 -0.4499E+01  0.9451E+01  0.2948E+01E
 Epicentro: LOS SANTOS - SANTANDER                                             3
 ACTION:UPD 12-07-25 13:58 OP:epov STATUS:               ID:20110707011335 L   I
 2011-07-07-0112-02S.COL___140                                                 6
 STAT SP IPHASW D HRMM SECON CODA AMPLIT PERI AZIMU VELO AIN AR TRES W  DIS CAZ7
 BAR2 SZ IP     D  113 55.76                             171    0.1110 23.5 212 
 BAR2 SZ ES   1    114 11.30                             171    0.03 7 23.5 212 
 BAR2 SZ I         114 12.19       254.1 0.20                          23.5 212 
 GIR2 SZ EP   1    113 55.79                             166   -0.04 7 36.5 338 
 PAM  SZ EP   1    113 58.50                             152    0.46 7 74.9  33 
 PAM  SZ I         113 58.92        39.6 0.22                          74.9  33 
 PAM  SN ES   1    114 15.44                             152   -0.09 7 74.9  33 
 BRR  HZ EP        113 57.63                             150   -0.0110 80.0 298 
 BRR  HN ES   1    114 14.80                             150   -0.01 7 80.0 298 
 BRR  HZ I         114 17.22       128.6 0.23                          80.0 298 
 RUS  HZ EP   1    113 59.62                             145    0.15 7 97.3 181 
 RUS  HN ES   1    114 17.55                             145   -0.51 7 97.3 181 
 RUS  HZ I         114 19.44        53.0 0.33                          97.3 181 
 BRI  SZ EP   1    114  0.29                             142    0.44 7  109  16 
 BRI  SZ ES   1    114 19.03                             142    0.29 7  109  16 
 BRI  SZ I         114 23.80        54.5 0.52                           109  16 
 OCA  SZ EP   1    114  3.66                             129   -0.93 7  165 350 
 OCA  SZ ES   1    114 26.91                             129   -0.27 7  165 350 
 OCA  SZ I         114 29.47        75.7 0.18                           165 350 
 NOR  SZ EP   1    114 11.61                             118   -0.48 6  240 236 
 CHI  HZ EP   1    114 13.17                             118   -0.27 6  248 197 
 CHI  HZ I         114 48.78        25.8 0.36                           248 197 
 HEL  HZ EP   1    114 16.71                             115   -0.11 6  279 257 
 HEL  HN ES   1    114 49.32                             115    0.36 6  279 257 
 HEL  HZ I         114 54.32        47.8 0.36                           279 257 
 TOL  SZ EP        114 25.34                             110    0.89 6  347 226 
 DBB  SZ EP   1    114 24.08                             109   -0.14 5  348 275 
 PRA  HZ EP   1    114 28.59                             107   -0.85 4  394 211 
 PRA  HN ES   1    115 11.80                             107    0.38 4  394 211 
 PRA  HZ I         115 14.75        78.9 0.25                           394 211 
                                                                                
