 2017  3 7 0714  9.2 L   6.825 -73.122154.0  RSN  7 0.3 1.3LRSN                1
 GAP=138        0.69       4.0     3.9  5.7  0.8981E-01  0.8652E+00 -0.4617E+01E
 Epicentro: LOS SANTOS - SANTANDER                                             3
 ACTION:UPD 17-05-25 18:37 OP:jn   STATUS:               ID:20170307071409 L   I
 OLDACT:UP  17-03-07 16:35 OP:and  STATUS:               ID:20170307070646d    3
 OLDACT:DUP 17-03-07 16:31 OP:and  STATUS:               ID:20170307070646d    3
 OLDACT:REG 17-03-07 12:09 OP:and  STATUS:               ID:20170307070645     3
 2017-03-07-0707-00M.COL___364                                                 6
 STAT SP IPHASW D HRMM SECON CODA AMPLIT PERI AZIMU VELO AIN AR TRES W  DIS CAZ7
 BAR2 EZ EP        714 29.62                             170   -0.2210 26.6 194 
 BAR2 EZ ES        714 45.79                             170   -0.1810 26.6 194 
 BAR2 EZ I         714 47.13         2.7 0.11            167           26.6 194 
 BRR  HZ EP   2    714 31.90                             154    0.65 5 72.3 296 
 BRR  HN ES        714 48.78                             154    0.2910 72.3 296 
 PAM  EZ EP        714 32.14                             153    0.1010 73.6  39 
 RUS  HZ EP   2    714 34.33                             145    0.43 5  103 178 
 RUS  HN ES        714 53.15                             145   -0.0610  103 178 
 RUS  HZ I         714 53.41         1.6 0.20            146            103 178 
 PTB  HZ EP        714 36.67                             133   -0.41 9  151 258 
 PTB  HN ES        714 58.54                             133   -0.32 9  151 258 
 PTB  HZ I         715  2.65         1.9 0.22            129            151 258 
 SPBC HN ES        715  2.12                             130    0.47 9  167 219 
 SPBC HZ I         715  5.43         2.1 0.14            128            167 219 
 ZAR  HZ EP   2    714 42.32                             124    0.03 4  205 291 
 ZAR  HN ES   2    715  8.31                             124    0.18 4  205 291 
 ZAR  HZ I         715 20.43         3.3 0.12            121            205 291 
                                                                                
