 2017  6 7 0831 39.8 L   6.722 -73.168150.7  RSN  6 0.3 1.4LRSN                1
 GAP=229        0.67       3.8     4.4  6.7  0.6899E+01  0.3536E+00 -0.2167E+01E
 Epicentro: VILLANUEVA - SANTANDER                                             3
 ACTION:UPD 17-09-14 16:50 OP:jn   STATUS:               ID:20170607083139 L   I
 OLDACT:UP  17-06-07 17:20 OP:edw  STATUS:               ID:20170607082735d    3
 OLDACT:UP  17-06-07 17:20 OP:edw  STATUS:               ID:20170607082735d    3
 OLDACT:DUP 17-06-07 17:17 OP:edw  STATUS:               ID:20170607082735d    3
 OLDACT:UP  17-06-07 17:17 OP:edw  STATUS:               ID:20170607082734     3
 OLDACT:REG 17-06-07 12:24 OP:edw  STATUS:               ID:20170607082734     3
 2017-06-07-0828-00M.COL___356                                                 6
 STAT SP IPHASW D HRMM SECON CODA AMPLIT PERI AZIMU VELO AIN AR TRES W  DIS CAZ7
 BRR  HZ EP        832  1.61                             153   -0.0110 73.6 305 
 BRR  HN ES        832 18.73                             153    0.1010 73.6 305 
 BRR  HZ I         832 21.36         5.0 0.16            152           73.6 305 
 RUS  HZ EP        832  3.23                             147   -0.2410 92.2 174 
 RUS  HN ES        832 22.04                             147    0.1110 92.2 174 
 RUS  HZ I         832 23.31         2.2 0.28            151           92.2 174 
 PTB  HZ EP        832  7.02                             134    0.19 9  144 262 
 PTB  HN ES        832 27.31                             134   -0.60 9  144 262 
 PTB  HZ I         832 29.38         2.7 0.64            135            144 262 
 SPBC HN ES        832 30.08                             132    0.22 9  155 220 
 ZAR  HE ES        832 38.57                             123    0.24 9  205 295 
 ZAR  HZ I         832 43.67         3.1 0.28            124            205 295 
 NOR  HN ES   2    832 42.81                             120    0.21 4  228 236 
                                                                                
