 2012  7 7 0754  3.6 L   5.900 -73.643121.2  RSN  4 0.2 1.0LRSN                1
 GAP=217        0.46       4.3     3.6  6.0  0.7074E+01  0.7713E+01  0.5127E+01E
 Epicentro: PUENTE NACIONAL - SANTANDER                                        3
 ACTION:UPD 12-08-14 11:43 OP:ep   STATUS:               ID:20120707075403 L   I
 2012-07-07-0750-00M.COL___201                                                 6
 STAT SP IPHASW D HRMM SECON CODA AMPLIT PERI AZIMU VELO AIN AR TRES W  DIS CAZ7
 RUS  HZ EP        754 22.43                             151     0.210   62  91 
 RUS  HN ES   1    754 36.74                             151    -0.1 7   62  91 
 RUS  HZ I         754 38.57         1.8 0.36            134             62  91 
 BAR2 SZ EP   1    754 23.87                             140    -0.1 7   92  34 
 BAR2 SZ ES   1    754 39.83                             140     0.0 7   92  34 
 BAR2 SZ I         754 41.96         4.5 0.40            120             92  34 
 PTB  HZ EP   1    754 25.21                             134    -0.3 7  114 308 
 PTB  HN ES   1    754 42.80                             134     0.2 7  114 308 
 PTB  HZ I         754 45.53         1.2 0.07            116            114 308 
 BRR  HZ EP   1    754 27.44                             129     0.2 7  134 357 
 BRR  HZ I         754 43.19         2.4 0.72            111            134 357 
 BRR  HN ES   1    754 45.72                             129     0.0 7  134 357 
