 2017  5 7 0709 32.1 L   6.737 -73.235153.7  RSN  4 0.3 1.2LRSN                1
 GAP=222        0.79       6.5     6.5  7.0  0.2832E+02 -0.1753E+01 -0.6960E+01E
 Epicentro: ZAPATOCA - SANTANDER                                               3
 ACTION:UPD 17-06-16 13:33 OP:jn   STATUS:               ID:20170507070932 L   I
 OLDACT:REG 17-05-07 13:31 OP:ar   STATUS:               ID:20170507070640     3
 2017-05-07-0707-00M.COL___361                                                 6
 STAT SP IPHASW D HRMM SECON CODA AMPLIT PERI AZIMU VELO AIN AR TRES W  DIS CAZ7
 BRR  HZ IP     C  7 9 53.49                             155   -0.3410 66.7 308 
 BRR  HN ES        710 10.85                             155    0.0310 66.7 308 
 RUS  HZ EP        7 9 56.47                             147    0.2610 94.9 170 
 RUS  HN ES        710 15.06                             147    0.0210 94.9 170 
 RUS  HZ I         710 15.91         1.5 0.50            143           94.9 170 
 PTB  HZ EP        7 9 58.18                             136   -0.55 9  137 261 
 PTB  HN ES        710 19.59                             136    0.05 9  137 261 
 PTB  HZ I         710 26.49         2.4 0.28            131            137 261 
 ZAR  HZ EP        710  4.93                             125    0.53 9  198 295 
 ZAR  HN ES        710 29.74                             125    0.12 9  198 295 
 ZAR  HZ I         710 31.86         1.7 0.09            123            198 295 
                                                                                
