 2016  4 7 0801  2.8 L   6.200 -73.602115.6  RSN 12 0.5 1.9LRSN                1
 GAP= 74        0.98       3.3     3.6  6.2 -0.3333E+01  0.6494E+01 -0.3851E+00E
 Epicentro: LA PAZ - SANTANDER                                                 3
 ACTION:UPD 16-05-05 14:19 OP:rebc STATUS:               ID:20160407080102 L   I
 OLDACT:REG 16-04-07 12:52 OP:dnl  STATUS:               ID:20160407075747     3
 2016-04-07-0757-47M.COL___300                                                 6
 STAT SP IPHASW D HRMM SECON CODA AMPLIT PERI AZIMU VELO AIN AR TRES W  DIS CAZ7
 BAR2 EZ EP        8 1 20.99                             149    0.3910 63.5  47 
 BAR2 EZ ES        8 1 35.03                             149    0.5310 63.5  47 
 BAR2 EZ I         8 1 36.31        44.8 0.42            149           63.5  47 
 RUS  HZ EP   2    8 1 20.78                             148   -0.39 5 66.7 121 
 RUS  HE ES   2    8 1 34.53                             148   -0.98 5 66.7 121 
 RUS  HZ I         8 1 36.17         5.4 0.14            150           66.7 121 
 SPBC HZ EP        8 1 21.32                             143   -0.1910 79.9 221 
 SPBC HN ES        8 1 36.51                             143    0.4010 79.9 221 
 SPBC HZ I         8 1 40.61        32.7 0.32            144           79.9 221 
 PTB  HZ EP        8 1 22.30                             136   -0.8510  102 292 
 PTB  HN ES        8 1 38.47                             136   -0.5610  102 292 
 PTB  HZ I         8 1 40.91        15.1 0.12            135            102 292 
 NOR  HZ EP        8 1 27.98                             122   -0.49 9  157 243 
 NOR  HN ES        8 1 48.46                             122   -0.05 9  157 243 
 NOR  HZ I         8 1 50.29        24.1 0.30            123            157 243 
 PAM  EZ EP   2    8 1 29.81                             122    0.39 5  161  38 
 PAM  EN ES   2    8 1 50.17                             122   -0.03 5  161  38 
 PAM  EZ I         8 1 55.34         4.8 0.46            122            161  38 
 CHI  HZ EP   2    8 1 30.40                             119   -0.35 4  174 185 
 CHI  HE ES   2    8 1 51.80                             119   -0.76 4  174 185 
 ZAR  HZ EP        8 1 33.17                             115    0.24 9  199 316 
 ZAR  HN ES        8 1 56.72                             115    0.28 9  199 316 
 ZAR  HZ I         8 1 59.30         5.4 0.12            116            199 316 
 HEL  HZ EP        8 1 35.46                             114    0.51 8  213 270 
 HEL  HN ES   2    8 1 59.84                             114   -0.19 4  213 270 
 HEL  HZ I         8 2  4.45         5.6 0.38            114            213 270 
 GUY2CHZ EP        8 1 36.74                             113    0.55 8  223 241 
 GUY2CHN ES   2    8 2  2.22                             113   -0.02 4  223 241 
 GUY2CHZ I         8 2  7.78        10.4 0.28                           223 241 
 OCA  HZ EP   2    8 1 35.62                             112   -0.66 4  228   8 
 OCA  HE ES   2    8 2  2.30                             112   -0.11 4  228   8 
 OCA  HZ I         8 2  8.65        13.9 0.16            112            228   8 
 ORTC HZ EP   2    8 1 45.79                             105   -0.14 3  312 216 
 ORTC HN ES        8 2 20.14                             105    0.57 7  312 216 
 ORTC HZ I         8 2 26.42         2.3 0.34            105            312 216 
                                                                                
