 2012 12 7 0744 34.8 L   6.913 -73.109150.6  RSN  6 0.6 1.4LRSN                1
 GAP=205        0.83       8.0     8.8 10.3  0.3504E+02  0.3251E+00 -0.3222E+02E
 Epicentro: PIEDECUESTA - SANTANDER                                            3
 ACTION:UPD 13-01-04 14:26 OP:ep   STATUS:               ID:20121207074434 L   I
 2012-12-07-0740-00M.COL___242                                                 6
 STAT SP IPHASW D HRMM SECON CODA AMPLIT PERI AZIMU VELO AIN AR TRES W  DIS CAZ7
 BAR2 SZ ES   1    745 11.33                             166   -0.03 7 36.4 193 
 RUS  HZ EP   1    745  0.06                             142    0.12 7  113 179 
 PTB  HZ EP   1    745  2.44                             132   -0.35 7  155 255 
 PTB  HN ES   2    745 24.00                             132   -0.61 5  155 255 
 PTB  HZ I         745 26.10         2.5 0.24                           155 255 
 ZAR  HE ES   1    745 33.82                             123    0.79 6  204 288 
 SML  HZ EP   1    745 11.38                             119    0.68 6  234 333 
 SML  HN ES   2    745 37.67                             119   -1.02 4  234 333 
 SML  HZ I         745 46.08         2.1 0.10                           234 333 
 MON  HZ EP   2    745 22.61                             110   -0.89 3  349 306 
 MON  HE ES   1    746  1.21                             110   -0.27 5  349 306 
                                                                                
