 2017  3 7 0902 23.9 L   6.729 -73.120145.1  RSN  5 0.4 1.3LRSN                1
 GAP=235        0.65       4.6     6.4  5.5 -0.9625E+00  0.6278E+01 -0.4384E+01E
 Epicentro: JORDAN - SANTANDER                                                 3
 ACTION:UPD 17-05-25 18:37 OP:jn   STATUS:               ID:20170307090223 L   I
 OLDACT:UP  17-03-07 18:02 OP:and  STATUS:               ID:20170307085753d    3
 OLDACT:UP  17-03-07 18:02 OP:and  STATUS:               ID:20170307085753d    3
 OLDACT:UP  17-03-07 18:02 OP:and  STATUS:               ID:20170307085753d    3
 OLDACT:UP  17-03-07 18:01 OP:and  STATUS:               ID:20170307085753d    3
 OLDACT:DUP 17-03-07 17:56 OP:and  STATUS:               ID:20170307085753d    3
 OLDACT:UP  17-03-07 17:56 OP:and  STATUS:               ID:20170307085752d    3
 OLDACT:UP  17-03-07 17:56 OP:and  STATUS:               ID:20170307085752d    3
 OLDACT:UP  17-03-07 17:56 OP:and  STATUS:               ID:20170307085752d    3
 OLDACT:UP  17-03-07 17:54 OP:and  STATUS:               ID:20170307085752d    3
 OLDACT:UP  17-03-07 17:54 OP:and  STATUS:               ID:20170307085752d    3
 OLDACT:UP  17-03-07 17:54 OP:and  STATUS:               ID:20170307085752d    3
 OLDACT:UP  17-03-07 17:52 OP:and  STATUS:               ID:20170307085752d    3
 OLDACT:DUP 17-03-07 17:50 OP:and  STATUS:               ID:20170307085752d    3
 2017-03-07-0858-00M.COL___366                                                 6
 STAT SP IPHASW D HRMM SECON CODA AMPLIT PERI AZIMU VELO AIN AR TRES W  DIS CAZ7
 BAR2 EZ EP        9 2 43.38                             173    0.0310 16.6 204 
 BAR2 EZ ES        9 2 58.28                             173   -0.2210 16.6 204 
 BAR2 EZ I         9 3  0.72         4.7 0.49            171           16.6 204 
 BRR  HZ EP   2    9 2 44.90                             150   -0.47 5 77.6 303 
 BRR  HN ES        9 3  2.41                             150    0.3210 77.6 303 
 RUS  HZ EP   9    9 2 47.88                             146    0.84 0 92.6 177 
 RUS  HN ES        9 3  5.95                             145    0.0410 92.6 177 
 RUS  HZ I         9 3  7.27         3.8 0.36            146           92.6 177 
 SPBC HN ES        9 3 13.89                             130    0.04 9  159 222 
 SPBC HZ I         9 3 16.14         2.1 0.14            129            159 222 
 ZAR  HZ EP   2    9 2 57.53                             121    0.63 4  210 294 
 ZAR  HN ES   2    9 3 21.71                             121   -0.92 4  210 294 
 ZAR  HZ I         9 3 27.29         1.1 0.09            121            210 294 
                                                                                
