 2012  7 7 0846 47.1 L   7.472 -73.373123.6  RSN  4 0.3 1.3LRSN                1
 GAP=257        0.88      12.2     7.2  9.9  0.4477E+02 -0.1274E+02 -0.3468E+02E
 Epicentro: SABANA DE TORRES - SANTANDER                                       3
 ACTION:UPD 12-08-14 11:43 OP:ep   STATUS:               ID:20120707084647 L   I
 2012-07-07-0840-00M.COL___201                                                 6
 STAT SP IPHASW D HRMM SECON CODA AMPLIT PERI AZIMU VELO AIN AR TRES W  DIS CAZ7
 BRR  HZ EP        847  4.64                             154    -0.310   55 223 
 BRR  HN ES        847 19.18                             154     0.310   55 223 
 BRR  HZ I         847 22.43         7.2 0.37            159             55 223 
 BAR2 SZ EP        847  8.70                             139     0.410  100 168 
 BAR2 SZ I         847  9.03         5.7 0.18            146            100 168 
 BAR2 SZ ES   1    847 24.31                             139    -0.6 7  100 168 
 PTB  HZ EP   1    847 13.44                             124     0.0 7  158 229 
 PTB  HN ES   1    847 33.96                             124     0.1 7  158 229 
 ZAR  HN ES   1    847 34.74                             123    -0.2 7  164 271 
 ZAR  HZ I         847 38.72         1.3 0.25            126            164 271 
