 2017  9 7 0416 43.8 L   6.781 -73.121146.1  RSN  7 0.3 1.6LRSN                1
 GAP=141        0.78       3.8     5.0  5.6 -0.6876E+01  0.4105E-01  0.2642E+01E
 Epicentro: LOS SANTOS - SANTANDER                                             3
 ACTION:UPD 17-10-05 19:09 OP:rebc STATUS:               ID:20170907041643 L   I
 OLDACT:UP  17-09-07 13:51 OP:dnl  STATUS:               ID:20170907040738     3
 OLDACT:REG 17-09-07 12:52 OP:dnl  STATUS:               ID:20170907040738     3
 2017-09-07-0408-00M.COL___420                                                 6
 STAT SP IPHASW D HRMM SECON CODA AMPLIT PERI AZIMU VELO AIN AR TRES W  DIS CAZ7
 BAR2 EZ IP     C  417  3.32                             171   -0.1210 22.0 198 
 BAR2 EZ ES        417 18.23                             171   -0.5310 22.0 198 
 BAR2 EZ I         417 19.38        14.3 0.34            170           22.0 198 
 BRR  HZ IP     C  417  5.09                             151   -0.0910 74.6 299 
 BRR  HE ES        417 22.28                             151    0.4310 74.6 299 
 BRR  HZ I         417 27.07         9.6 0.14            148           74.6 299 
 PAM  EZ EP        417  6.25                             151    0.2110 77.3  37 
 PAM  EN ES        417 23.25                             151   -0.1510 77.3  37 
 PAM  EZ I         417 25.77         5.0 0.48            153           77.3  37 
 RUS  HZ EP        417  7.61                             144    0.1910 98.3 178 
 RUS  HN ES        417 26.29                             144    0.4410 98.3 178 
 RUS  HZ I         417 26.96         3.9 0.32            148           98.3 178 
 SPBC HZ EP        417 12.01                             129   -0.32 9  163 220 
 SPBC HN ES        417 34.46                             129   -0.13 9  163 220 
 SPBC HZ I         417 37.17         7.1 0.28            130            163 220 
 ZAR  HN ES   4    417 41.20                             122   -1.00 0  207 292 
 ZAR  HZ I         417 46.86         5.2 0.48            121            207 292 
 GUY2CHZ EP   9    417 29.84                             112    2.30 0  302 235 
 GUY2CHE ES        418  4.03                             111    0.07 7  302 235 
 GUY2CHZ I         418 11.87         1.4 0.50                           302 235 
                                                                                
