 2017 10 7 0659 17.5 L   6.813 -73.132143.0  RSN  4 0.3 1.2LRSN                1
 GAP=245        0.81       5.4     6.1  7.0  0.1386E+02  0.1232E+02 -0.5730E+01E
 Epicentro: LOS SANTOS - SANTANDER                                             3
 ACTION:UPD 17-11-07 19:29 OP:rebc STATUS:               ID:20171007065917 L   I
 OLDACT:REG 17-10-07 12:59 OP:dhb  STATUS:               ID:20171007065738     3
 2017-10-07-0658-00M.COL___438                                                 6
 STAT SP IPHASW D HRMM SECON CODA AMPLIT PERI AZIMU VELO AIN AR TRES W  DIS CAZ7
 BAR2 EZ EP        659 36.85                             170   -0.0210 25.0 193 
 BAR2 EZ ES        659 51.61                             170   -0.3410 25.0 193 
 BAR2 EZ I         659 53.19         3.3 0.06            162           25.0 193 
 RUS  HZ EP        659 41.45                             143    0.3410  102 177 
 RUS  HN ES        659 59.84                             143    0.3410  102 177 
 RUS  HZ I         7 0  1.75         1.3 0.16            142            102 177 
 SPBC HZ EP        659 45.77                             128   -0.25 9  165 219 
 SPBC HN ES        7 0  8.03                             128   -0.21 9  165 219 
 SPBC HZ I         7 0 14.84         3.2 0.24            126            165 219 
 ZAR  HZ EP        659 49.50                             122   -0.39 9  205 292 
 ZAR  HE ES        7 0 15.61                             122    0.48 9  205 292 
 ZAR  HZ I         7 0 22.41         1.2 0.25            121            205 292 
                                                                                
