 2010  6 7 0945 16.0 L   6.050 -73.927 98.0  RSN  4 0.3 1.2LRSN                1
 GAP=144        0.64       7.0     5.5 13.0 -0.1990E+02  0.2441E+02  0.1045E+02E
 Epicentro: EL PEON - SANTANDER                                                3
 ACTION:UP  10-08-24 10:08 OP:vdl  STATUS:               ID:20100607094516 L   I
 2010-06-07-0943-50S.COL___111                                                 6
 STAT SP IPHASW D HRMM SECON CODA AMPLIT PERI AZIMU VELO SNR AR TRES W  DIS CAZ7
 BAR2 SZ EP        945 34.86                             131    -0.310  102  54 
 BAR2 SZ ES   1    945 50.49                             131     0.3 7  102  54 
 ROSC BZ EP   1    945 39.38                             121     0.1 7  141 198 
 ROSC BZ I         945 57.63         4.1 0.56                           141 198 
 HEL  HZ EP   2    945 43.85                             114     0.5 4  178 275 
 HEL  HE ES   2    946  4.42                             114    -0.3 4  178 275 
 HEL  HZ I         946  6.74         1.4 0.45                           178 275 
 GUE  SZ EP   1    945 48.85                             108     0.1 6  226  29 
                                                                                
