 2016  8 7 0332 26.6 L   6.693 -73.143143.8  RSN  4 0.3 1.6LRSN                1
 GAP=229        0.86      10.8     4.8  8.3 -0.2509E+02 -0.5717E+00  0.3387E+02E
 Epicentro: VILLANUEVA - SANTANDER                                             3
 ACTION:UPD 16-10-29 15:32 OP:rebc STATUS:               ID:20160807033226 L   I
 OLDACT:REG 16-08-07 12:50 OP:dani STATUS:               ID:20160807032731     3
 2016-08-07-0328-00M.COL___368                                                 6
 STAT SP IPHASW D HRMM SECON CODA AMPLIT PERI AZIMU VELO AIN AR TRES W  DIS CAZ7
 BRR  HZ EP        332 48.25                             150    0.3310 77.8 306 
 BRR  HN ES        333  5.08                             150    0.5310 77.8 306 
 BRR  HZ I         333  6.68         4.9 0.22                          77.8 306 
 PAM  EZ EP        332 49.25                             147    0.0610 86.7  34 
 PAM  EN ES        333  6.40                             147   -0.4110 86.7  34 
 PAM  EZ I         333  8.53         6.3 0.40                          86.7  34 
 PTB  HZ EP        332 53.42                             132    0.16 9  146 263 
 PTB  HE ES        333 13.61                             132   -0.44 9  146 263 
 PTB  HZ I         333 16.33         5.2 0.12                           146 263 
 ZAR  HZ EP        332 59.24                             121   -0.19 8  209 295 
 ZAR  HE ES        333 24.85                             121   -0.19 8  209 295 
 ZAR  HZ I         333 33.12         5.6 0.50                           209 295 
                                                                                
