 2010  9 7 0848 49.8 L   6.784 -73.087149.3  RSN  7 0.5 1.8LRSN                1
 GAP=171        1.20       6.4    18.0 14.9  0.8165E+01 -0.9934E+02 -0.8576E+01E
 Epicentro: LOS SANTOS - SANTANDER                                             3
 ACTION:UP  11-02-18 11:00 OP:tino STATUS:               ID:20100907084849 L   I
 2010-09-07-0845-11S.COL___120                                                 6
 STAT SP IPHASW D HRMM SECON CODA AMPLIT PERI AZIMU VELO SNR AR TRES W  DIS CAZ7
 BAR2 SZ EP   1    849 10.09                             170     0.2 7   24 207 
 BAR2 SZ I         849 10.39        13.4 0.03                            24 207 
 GIR2 SZ EP        849  9.15                             166    -0.810   35 340 
 BRR  HZ EP   1    849 11.87                             151     0.2 7   78 297 
 BRR  HN ES   1    849 28.97                             151     0.2 7   78 297 
 BRR  HZ I         849 32.59        26.0 0.10                            78 297 
 RUS  HZ EP   1    849 14.03                             145     0.3 7   99 180 
 RUS  HN ES   1    849 32.71                             145     0.3 7   99 180 
 RUS  HZ I         849 35.10         8.7 0.26                            99 180 
 GUE  SZ EP   1    849 15.03                             140     0.2 7  117   9 
 GUE  SZ I         849 29.51         3.6 0.37                           117   9 
 OCA  SZ EP   1    849 18.86                             130     0.2 7  163 351 
 OCA  SZ I         849 46.89         8.6 0.29                           163 351 
 CHI  HZ EP   1    849 28.33                             118     0.6 6  249 197 
 CHI  HN ES   1    849 56.40                             118    -0.8 6  249 197 
 CHI  HZ I         850  0.78         6.0 0.38                           249 197 
                                                                                
