 2012  6 7 0644 26.5 L   6.816 -73.096133.5  RSN  4 0.4 1.2LRSN                1
 GAP=281        0.70       7.0     7.0  8.5  0.1546E+02  0.1657E+02  0.6339E+01E
 Epicentro: LOS SANTOS - SANTANDER                                             3
 ACTION:UPD 12-08-06 17:47 OP:ep   STATUS:               ID:20120607064425 L   I
 2012-06-07-0640-00M.COL___201                                                 6
 STAT SP IPHASW D HRMM SECON CODA AMPLIT PERI AZIMU VELO AIN AR TRES W  DIS CAZ7
 BAR2 SZ EP   1    644 45.01                             168    0.24 7 26.5 201 
 BAR2 SZ ES   1    644 58.45                             168   -0.54 7 26.5 201 
 BAR2 SZ I         645  5.25         3.6 0.30            170           26.5 201 
 RUS  HZ EP   1    644 49.23                             140    0.02 7  102 179 
 RUS  HZ I         644 51.03         2.2 0.13            148            102 179 
 RUS  HN ES   1    645  7.40                             140    0.49 7  102 179 
 PTB  HZ EP   1    644 52.88                             128   -0.20 7  153 259 
 PTB  HN ES   1    645 14.05                             128    0.27 7  153 259 
 PTB  HZ I         645 19.86         3.0 0.22            131            153 259 
 CHI  HN ES   1    645 32.66                             114   -0.44 6  252 196 
                                                                                
