 2013  3 7 0835 47.8 L   6.753 -73.167150.1  RSN  4 0.2 1.3LRSN                1
 GAP=231        0.46       4.5     3.5  4.3  0.5983E+01 -0.1110E+00  0.3863E+01E
 Epicentro: VILLANUEVA - SANTANDER                                             3
 ACTION:UPD 13-04-09 14:00 OP:ep   STATUS:               ID:20130307083547 L   I
 2013-03-07-0830-00M.COL___231                                                 6
 STAT SP IPHASW D HRMM SECON CODA AMPLIT PERI AZIMU VELO AIN AR TRES W  DIS CAZ7
 BAR2 SZ EP        836  7.59                             173   -0.2310 17.9 185 
 BAR2 SZ I         836  7.80         6.3 0.49            172           17.9 185 
 BAR2 SZ ES   1    836 23.47                             173    0.00 7 17.9 185 
 BRR  HZ EP        836  9.41                             153   -0.0110 71.8 303 
 BRR  HN ES        836 26.42                             153    0.1110 71.8 303 
 BRR  HN I         836 27.25         4.3 0.19            152           71.8 303 
 RUS  HZ EP        836 11.61                             146    0.0110 95.6 174 
 RUS  HE ES   2    836 30.38                             146    0.19 5 95.6 174 
 PTB  HZ EP        836 15.07                             134    0.27 9  145 261 
 PTB  HN ES        836 35.70                             134   -0.19 9  145 261 
 PTB  HZ I         836 37.91         1.4 0.13            133            145 261 
                                                                                
