 2013  1 7 0852  4.8 L   6.813 -73.123146.6  RSN  7 0.6 1.9LRSN                1
 GAP=185        1.48       5.6     8.5  9.8  0.1621E+02  0.1456E+02  0.7027E+01E
 Epicentro: LOS SANTOS - SANTANDER                                             3
 ACTION:UPD 13-02-15 09:12 OP:ep   STATUS:               ID:20130107085204 L   I
 2013-01-07-0849-36M.COL___199                                                 6
 STAT SP IPHASW D HRMM SECON CODA AMPLIT PERI AZIMU VELO AIN AR TRES W  DIS CAZ7
 BAR2 SZ EP        852 24.88                             170    0.3310 25.3 195 
 BAR2 SZ ES        852 40.25                             170    0.2810 25.3 195 
 BAR2 SZ I         852 40.99        13.9 0.26            168           25.3 195 
 BRR  HZ IP     C  852 26.71                             152    0.6110 72.7 297 
 BRR  HZ I         852 27.09        10.4 0.16            148           72.7 297 
 BRR  HN ES        852 43.70                             152    0.9610 72.7 297 
 RUS  HZ EP        852 28.41                             144   -0.3010  102 177 
 RUS  HN ES        852 46.80                             144   -0.5710  102 177 
 RUS  HN I         852 48.04         5.9 0.32            144            102 177 
 PTB  HZ EP        852 31.87                             132   -0.19 9  150 258 
 PTB  HN ES        852 52.45                             132   -0.89 9  150 258 
 PTB  HN I         852 58.45        12.2 0.50            129            150 258 
 OCA  HN ES        852 54.08                             130   -1.02 9  159 352 
 OCA  HN I         853  1.76        29.7 0.18            129            159 352 
 ZAR  HZ EP        852 38.18                             122    0.72 8  206 292 
 ZAR  HN ES        853  2.70                             122   -0.25 8  206 292 
 ZAR  HN I         853 10.66         8.1 0.12            121            206 292 
 CHI  HZ EP        852 42.63                             117   -0.12 8  251 196 
 CHI  HN ES        853 12.68                             117    0.32 8  251 196 
 CHI  HN I         853 19.98         1.9 0.50            117            251 196 
                                                                                
