 2017 10 7 0947 19.2 L   6.811 -73.205129.8  RSN  8 0.4 1.5LRSN                1
 GAP=182        1.03       5.1     5.5  6.8  0.1471E+02  0.9349E+01  0.3239E+01E
 Epicentro: ZAPATOCA - SANTANDER                                               3
 ACTION:UPD 17-11-07 19:29 OP:rebc STATUS:               ID:20171007094719 L   I
 OLDACT:UP  17-10-07 17:54 OP:dhb  STATUS:               ID:20171007093748d    3
 OLDACT:DUP 17-10-07 17:46 OP:dhb  STATUS:               ID:20171007093748d    3
 OLDACT:UP  17-10-07 17:34 OP:dhb  STATUS:               ID:20171007093747     3
 OLDACT:REG 17-10-07 13:16 OP:dhb  STATUS:               ID:20171007093747     3
 2017-10-07-0938-00M.COL___429                                                 6
 STAT SP IPHASW D HRMM SECON CODA AMPLIT PERI AZIMU VELO AIN AR TRES W  DIS CAZ7
 BAR2 EZ EP        947 35.96                             169   -0.9910 24.3 174 
 BAR2 EZ ES        947 51.26                             169    0.4810 24.3 174 
 BAR2 EZ I         947 53.32        12.0 0.24            171           24.3 174 
 RUS  HZ EP        947 41.59                             140    0.0110  102 172 
 RUS  HN ES        947 58.57                             140   -0.4510  102 172 
 RUS  HZ I         948  1.98         5.4 0.30            142            102 172 
 SPBC HZ EP        947 46.13                             126   -0.10 9  160 217 
 SPBC HE ES        948  7.28                             126   -0.02 9  160 217 
 SPBC HZ I         948  9.72         8.7 0.25            128            160 217 
 YPLC HZ EP        947 48.91                             122    0.57 9  181 150 
 YPLC HE ES        948 11.46                             122    0.40 9  181 150 
 YPLC HZ I         948 19.09         2.9 0.36            124            181 150 
 ZAR  HZ EP        947 50.14                             120    0.17 9  197 293 
 ZAR  HE ES        948 14.22                             120    0.26 9  197 293 
 ZAR  HZ I         948 21.01         6.5 0.36            121            197 293 
 CHI  HZ EP        947 55.85                             114   -0.18 8  248 194 
 CHI  HN ES        948 25.00                             114    0.26 8  248 194 
 CHI  HZ I         948 27.38         1.1 0.26            115            248 194 
 GUY2CHZ EP        948  1.45                             109   -0.15 7  297 234 
 GUY2CHE ES   4    948 37.35                             109    2.69 0  297 234 
 GUY2CHZ I         948 42.11         1.4 0.46                           297 234 
 PTGC HZ EP   4    947 58.70                             108   -4.12 0  312 158 
 PTGC HE ES   4    948 31.75                             108   -5.08 0  312 158 
 SJC  HZ EP   9    948 10.50                             103   -3.25 0  405 328 
 SJC  HN ES        948 53.46                             105    0.42 6  405 328 
 SJC  HZ I         949  1.94         0.6 0.25            104            405 328 
                                                                                
