 2017  2 7 0300 33.2 L   6.794 -73.197145.2  RSN 10 0.4 1.7LRSN                1
 GAP=231        1.04       4.8     5.0  6.1  0.1048E+02  0.8957E+01  0.5322E+01E
 Epicentro: ZAPATOCA - SANTANDER                                               3
 ACTION:UPD 17-05-24 15:33 OP:jn   STATUS:               ID:20170207030033 L   I
 OLDACT:UP  17-02-07 15:44 OP:edw  STATUS:               ID:20170207025743     3
 OLDACT:UP  17-02-07 15:43 OP:edw  STATUS:               ID:20170207025743     3
 OLDACT:REG 17-02-07 12:27 OP:edw  STATUS:               ID:20170207025743     3
 2017-02-07-0258-00M.COL___331                                                 6
 STAT SP IPHASW D HRMM SECON CODA AMPLIT PERI AZIMU VELO AIN AR TRES W  DIS CAZ7
 BAR2 EZ EP        3 0 52.38                             171   -0.3410 22.4 176 
 BAR2 EZ ES        3 1  8.05                             171    0.0910 22.4 176 
 BAR2 EZ I         3 1  8.52         7.6 0.34            167           22.4 176 
 BRR  HZ IP     D  3 0 54.09                             154    0.0810 66.6 301 
 BRR  HN ES        3 1 10.83                             154    0.5610 66.6 301 
 BRR  HZ I         3 1 14.88         9.3 0.34            150           66.6 301 
 RUS  HZ EP        3 0 57.05                             144    0.1910  100 173 
 RUS  HN ES        3 1 14.63                             144   -0.7110  100 173 
 RUS  HZ I         3 1 17.67         3.0 0.20            144            100 173 
 PTB  HZ EP        3 0 59.28                             133   -0.31 9  142 259 
 PTB  HN ES        3 1 19.94                             133   -0.24 9  142 259 
 PTB  HZ I         3 1 21.95         6.7 0.44            130            142 259 
 ZAR  HZ EP        3 1  5.44                             123    0.37 9  199 293 
 ZAR  HE ES        3 1 29.89                             123   -0.06 9  199 293 
 ZAR  HZ I         3 1 39.47         8.7 0.26            122            199 293 
 NOR  HZ EP        3 1  8.89                             119    0.55 8  230 234 
 NOR  HN ES        3 1 35.81                             119    0.05 8  230 234 
 NOR  HZ I         3 1 43.44         5.1 0.14            118            230 234 
 CHI  HZ EP        3 1 10.60                             117   -0.02 8  247 194 
 CHI  HN ES        3 1 40.70                             117    0.88 8  247 194 
 CHI  HZ I         3 1 47.92         2.8 0.38            117            247 194 
 URE  HZ EP   9    3 1 12.08                             114   -1.58 0  279 292 
 URE  HN ES        3 1 44.09                             114    0.43 7  279 292 
 URE  HZ I         3 1 54.07         6.5 0.18            114            279 292 
 CBOC HZ EP   4    3 1 20.97                             110    1.55 0  328 252 
 CBOC HN ES   4    3 1 53.55                             110   -1.95 0  328 252 
 CBOC HZ I         3 1 58.67         1.0 0.26            110            328 252 
 DBB  EZ EP        3 1 19.78                             110   -0.21 7  334 274 
 DBB  EN ES        3 1 55.50                             110   -1.00 7  334 274 
 SJC  HZ EP   4    3 1 25.65                             106   -2.78 0  407 328 
 SJC  HN ES   4    3 2  8.23                             106   -3.29 0  407 328 
                                                                                
