 2015  6 7 0218 39.1 L   6.833 -73.185142.1  RSN 13 0.5 1.9LRSN                1
 GAP=130        1.08       3.0     4.1  5.9 -0.4304E+00  0.1048E+02  0.1414E+01E
 Epicentro: ZAPATOCA - SANTANDER                                               3
 ACTION:UPD 15-09-10 22:10 OP:cam  STATUS:               ID:20150607021839 L   I
 OLDACT:REG 15-06-07 12:53 OP:ak   STATUS:               ID:20150607020750     3
 2015-06-07-0207-50M.COL___303                                                 6
 STAT SP IPHASW D HRMM SECON CODA AMPLIT PERI AZIMU VELO AIN AR TRES W  DIS CAZ7
 BAR2 EZ EP        218 58.41                             169    0.0110 26.7 179 
 BAR2 EZ ES        219 12.93                             169   -0.5010 26.7 179 
 BAR2 EZ I         219 14.67        17.8 0.18            167           26.7 179 
 BRR  HZ EP        219  0.26                             154    0.6810 65.6 298 
 BRR  HN ES        219 16.24                             154    0.7210 65.6 298 
 BRR  HZ I         219 21.23        18.3 0.14            153           65.6 298 
 PAM  SZ EP        219  1.37                             150    0.4010 77.5  44 
 PAM  SN ES        219 18.15                             150    0.1510 77.5  44 
 PAM  SZ I         219 20.24        15.9 0.46            156           77.5  44 
 RUS  HZ EP        219  2.46                             142   -0.3710  105 174 
 RUS  HN ES        219 21.24                             142   -0.0710  105 174 
 RUS  HZ I         219 22.80         7.8 0.26            144            105 174 
 SPBC HZ EP   4    219  4.08                             128   -3.30 0  163 217 
 SPBC HN ES        219 28.57                             128   -0.84 9  163 217 
 SPBC HZ I         219 34.52        12.7 0.19            129            163 217 
 ZAR  HZ EP        219 11.13                             122    0.35 9  199 292 
 ZAR  HN ES        219 35.00                             122   -0.47 9  199 292 
 ZAR  HZ I         219 42.78        10.0 0.24            124            199 292 
 NOR  HZ EP        219 14.46                             118   -0.05 8  233 233 
 NOR  HN ES        219 42.35                             118    0.25 8  233 233 
 NOR  HZ I         219 46.42         8.1 0.48            119            233 233 
 SML  HZ EP   1    219 14.39                             117   -0.60 6  239 336 
 SML  HE ES        219 42.09                             117   -0.88 8  239 336 
 CHI  HZ EP   1    219 16.51                             116   -0.39 6  251 194 
 CHI  HN ES   1    219 45.95                             116   -0.41 6  251 194 
 CHI  HZ I         219 53.81         5.4 0.36            118            251 194 
 HEL  HZ EP   1    219 18.68                             114   -0.12 6  269 255 
 HEL  HE ES        219 50.03                             114    0.30 8  269 255 
 HEL  HZ I         219 56.70         4.9 0.46            116            269 255 
 GUY2CHZ EP        219 22.91                             112    0.49 7  300 234 
 GUY2CHN ES        219 56.81                             112    0.63 7  300 234 
 GUY2CHZ I         220  5.40         4.2 0.46                           300 234 
 MON  HZ EP   4    219 26.01                             108   -1.32 0  348 308 
 MON  HN ES        220  4.42                             108   -0.51 6  348 308 
 MON  HZ I         220  5.31         1.4 0.20            110            348 308 
 PRA  HZ EP        219 33.12                             106    0.46 6  393 209 
 PRA  HN ES        220 14.49                             106    0.08 6  393 209 
 PRA  HZ I         220 21.07         7.0 0.30            107            393 209 
                                                                                
