 2011  6 7 0623 50.1 L   6.802 -73.086148.4  RSN  8 0.4 1.8LRSN                1
 GAP=144        0.86       4.2     8.0  8.4 -0.1288E+02 -0.3559E+01  0.7121E+01E
 Epicentro: LOS SANTOS - SANTANDER                                             3
 ACTION:UP  11-07-14 19:03 OP:ep   STATUS:               ID:20110607062350 L   I
 2011-06-07-0618-30S.COL___132                                                 6
 STAT SP IPHASW D HRMM SECON CODA AMPLIT PERI AZIMU VELO SNR AR TRES W  DIS CAZ7
 BAR2 SZ EP   1    624 10.06                             170     0.0 7   26 205 
 BAR2 SZ I         624 10.49        16.2 0.37                            26 205 
 BAR2 SZ ES   2    624 25.75                             170     0.1 5   26 205 
 PAM  SZ EP   1    624 12.81                             153     0.5 7   73  36 
 PAM  SN ES   2    624 30.01                             153     0.3 5   73  36 
 BRR  HZ EP   1    624 12.15                             151     0.3 7   77 296 
 BRR  HE ES   1    624 28.70                             151    -0.1 7   77 296 
 BRR  HZ I         624 31.74        14.6 0.12                            77 296 
 RUS  HZ EP   1    624 13.46                             144    -0.6 7  101 180 
 RUS  HN ES   2    624 32.97                             144     0.1 5  101 180 
 RUS  HZ I         624 34.47         6.7 0.59                           101 180 
 GRA  SZ EP   1    624 14.77                             138    -0.6 7  124  15 
 GRA  SZ ES   1    624 34.69                             138    -0.5 7  124  15 
 GRA  SZ I         624 36.73        10.0 0.33                           124  15 
 OCA  SZ EP   1    624 19.38                             130     0.7 7  161 351 
 OCA  SZ ES   2    624 41.37                             130     0.4 5  161 351 
 OCA  SZ I         624 48.66         7.0 0.39                           161 351 
 NOR  SZ EP   2    624 26.22                             118    -0.3 4  240 235 
 NOR  SN ES   2    624 54.64                             118    -0.4 4  240 235 
 CHI  HZ EP   2    624 28.24                             117     0.1 4  251 197 
 CHI  HN ES   1    624 58.30                             117     0.5 6  251 197 
 CHI  HZ I         625  3.45         4.0 0.39                           251 197 
                                                                                
