 2012 12 7 0325 48.0 L   5.742 -73.932 96.0  RSN  5 0.4 0.9LRSN                1
 GAP=157        0.65       3.1     4.7 12.4  0.3990E+01  0.1333E+02 -0.3222E+01E
 Epicentro: ALBANIA - SANTANDER                                                3
 ACTION:UPD 13-01-04 14:26 OP:ep   STATUS:               ID:20121207032548 L   I
 2012-12-07-0320-00M.COL___242                                                 6
 STAT SP IPHASW D HRMM SECON CODA AMPLIT PERI AZIMU VELO AIN AR TRES W  DIS CAZ7
 RUS  HZ EP   1    326  6.87                             133    0.11 7 95.5  80 
 RUS  HN ES   2    326 21.27                             133   -0.16 5 95.5  80 
 RUS  HZ I         326 23.60         1.7 0.22                          95.5  80 
 PTB  HZ EP   1    326  6.53                             129   -0.54 7  106 327 
 PTB  HN ES   2    326 21.70                             129   -0.28 5  106 327 
 PTB  HZ I         326 25.25         2.1 0.56                           106 327 
 CHI  HZ EP   1    326  9.33                             124   -0.20 7  125 170 
 CHI  HN ES   1    326 26.67                             124    0.32 7  125 170 
 CHI  HZ I         326 32.12         1.7 0.46                           125 170 
 BAR2 SZ EP   1    326  9.27                             124   -0.07 7  125  41 
 BAR2 SZ ES   2    326 26.18                             124    0.16 5  125  41 
 ZAR  HE ES   1    326 44.75                             110    0.72 6  219 332 
                                                                                
