 2017  2 7 0904 57.9 L   6.670 -73.137144.9  RSN  5 0.2 1.3LRSN                1
 GAP=229        0.61       5.6     5.7  4.3  0.2441E+02 -0.3473E+01 -0.6266E+01E
 Epicentro: VILLANUEVA - SANTANDER                                             3
 ACTION:UPD 17-05-24 15:33 OP:jn   STATUS:               ID:20170207090457 L   I
 OLDACT:UP  17-02-07 18:22 OP:edw  STATUS:               ID:20170207085739     3
 OLDACT:REG 17-02-07 13:02 OP:edw  STATUS:               ID:20170207085739     3
 2017-02-07-0858-00M.COL___325                                                 6
 STAT SP IPHASW D HRMM SECON CODA AMPLIT PERI AZIMU VELO AIN AR TRES W  DIS CAZ7
 BAR2 EZ IP     C  9 5 17.58                             177    0.3110 9.97 210 
 BAR2 EZ ES        9 5 32.22                             177   -0.1210 9.97 210 
 BAR2 EZ I         9 5 33.46         4.4 0.28            171           9.97 210 
 BRR  HZ IP     C  9 5 19.32                             150   -0.1810 79.8 307 
 BRR  HN ES        9 5 36.44                             150    0.1210 79.8 307 
 BRR  HZ I         9 5 39.94         4.2 0.46            148           79.8 307 
 RUS  HZ EP        9 5 20.35                             148   -0.2610 86.2 176 
 RUS  HN ES        9 5 38.48                             148    0.1810 86.2 176 
 RUS  HZ I         9 5 41.68         5.0 0.28            147           86.2 176 
 PTB  HZ EP   9    9 5 24.43                             133   -0.29 0  147 264 
 PTB  HN ES        9 5 44.91                             132   -0.42 9  147 264 
 PTB  HZ I         9 5 47.85         1.1 0.12            131            147 264 
 ZAR  HZ EP        9 5 30.99                             121   -0.02 8  211 296 
 ZAR  HE ES        9 5 56.77                             121   -0.05 8  211 296 
 ZAR  HZ I         9 6  2.00         3.2 0.32            121            211 296 
 CHI  HZ EP   4    9 5 36.09                             119    1.97 0  235 196 
 CHI  HN ES   4    9 6  5.96                             119    3.62 0  235 196 
                                                                                
