 2016  4 7 0433 55.8 L   6.835 -73.162140.0  RSN  8 0.5 1.5LRSN                1
 GAP=133        0.68       4.3     5.8  7.6 -0.8448E+01  0.2647E+02 -0.2661E+01E
 Epicentro: LOS SANTOS - SANTANDER                                             3
 ACTION:UPD 16-05-05 14:19 OP:rebc STATUS:               ID:20160407043355 L   I
 OLDACT:REG 16-04-07 12:43 OP:dnl  STATUS:               ID:20160407042747     3
 2016-04-07-0427-47M.COL___310                                                 6
 STAT SP IPHASW D HRMM SECON CODA AMPLIT PERI AZIMU VELO AIN AR TRES W  DIS CAZ7
 BAR2 EZ EP   2    434 14.81                             169    0.03 5 26.9 185 
 BAR2 EZ ES        434 29.80                             169    0.1810 26.9 185 
 BAR2 EZ I         434 30.58         7.2 0.23            166           26.9 185 
 PAM  EN ES        434 34.07                             151    0.0410 75.6  42 
 PAM  EZ I         434 36.26         7.9 0.23            157           75.6  42 
 RUS  HZ EP   2    434 19.18                             142   -0.07 5  105 175 
 RUS  HE ES   2    434 37.02                             142   -0.55 5  105 175 
 RUS  HZ I         434 39.43         1.8 0.15            143            105 175 
 PTB  HZ EP   2    434 21.17                             131   -1.01 5  147 257 
 PTB  HE ES   2    434 42.85                             131    0.07 5  147 257 
 PTB  HZ I         434 45.01         3.8 0.20            131            147 257 
 OCA  HZ EP   3    434 23.83                             129    0.58 2  156 354 
 OCA  HN ES   2    434 44.37                             129   -0.32 5  156 354 
 SPBC HZ EP   2    434 23.21                             127   -0.80 5  165 218 
 SPBC HE ES   2    434 46.42                             127    0.38 5  165 218 
 SPBC HZ I         434 54.13         3.1 0.09            128            165 218 
 ZAR  HZ EP   2    434 28.49                             122    0.97 4  201 291 
 ZAR  HN ES   2    434 51.81                             122   -0.48 4  201 291 
 ZAR  HZ I         434 58.04         4.0 0.23            123            201 291 
 GUY2CHZ EP   2    434 40.17                             111    0.97 4  302 234 
 GUY2CHN ES   2    435 13.42                             111    0.34 4  302 234 
 GUY2CHZ I         435 22.84         2.3 0.40                           302 234 
                                                                                
