 2017 11 7 0451 31.9 L   6.786 -73.153139.1  RSN 13 0.5 1.7LRSN                1
 GAP=112        1.03       3.5     3.6  6.3 -0.2411E+00  0.5931E+01  0.7235E+01E
 Epicentro: LOS SANTOS - SANTANDER                                             3
 ACTION:UPD 17-12-12 19:53 OP:rebc STATUS:               ID:20171107045131 L   I
 OLDACT:UP  17-11-07 14:26 OP:dnl  STATUS:               ID:20171107044743     3
 OLDACT:REG 17-11-07 13:00 OP:dnl  STATUS:               ID:20171107044743     3
 2017-11-07-0448-00M.COL___405                                                 6
 STAT SP IPHASW D HRMM SECON CODA AMPLIT PERI AZIMU VELO AIN AR TRES W  DIS CAZ7
 BAR2 EZ EP        451 50.50                             171   -0.1510 21.7 189 
 BAR2 EZ ES        452  5.18                             171   -0.1210 21.7 189 
 BAR2 EZ I         452  6.07        11.9 0.16            169           21.7 189 
 BRR  HZ IP     D  451 52.34                             151    0.0510 71.2 300 
 BRR  HE ES        452  9.16                             151    0.9410 71.2 300 
 BRR  HZ I         452 11.98         9.2 0.32            152           71.2 300 
 PAM  EZ EP        451 53.34                             149   -0.1310 79.1  39 
 PAM  EN ES        452 10.35                             149    0.0210 79.1  39 
 PAM  EZ I         452 12.62        10.7 0.50            153           79.1  39 
 PTB  HZ EP        451 57.49                             131   -0.70 9  147 259 
 PTB  HN ES        452 17.89                             131   -0.83 9  147 259 
 PTB  HZ I         452 21.21         7.2 0.12            131            147 259 
 SPBC HZ EP        451 59.39                             128   -0.30 9  161 219 
 SPBC HE ES        452 21.53                             128    0.14 9  161 219 
 SPBC HZ I         452 23.59         6.6 0.40            128            161 219 
 YPLC HZ EP   2    452  1.01                             125   -0.07 4  176 151 
 YPLC HN ES        452 23.75                             125   -0.12 9  176 151 
 YPLC HZ I         452 27.20         6.0 0.26            127            176 151 
 ZAR  HZ EP        452  3.91                             121    0.05 9  204 293 
 ZAR  HN ES        452 28.85                             121    0.04 9  204 293 
 ZAR  HZ I         452 34.47         8.8 0.34            122            204 293 
 NOR  HZ EP   2    452  7.11                             117    0.07 4  233 235 
 NOR  HN ES        452 33.98                             117   -0.50 8  233 235 
 NOR  HZ I         452 41.68         3.4 0.24            118            233 235 
 CHI  HZ EP   2    452  9.54                             116    0.53 4  247 195 
 CHI  HN ES        452 38.55                             116    0.57 8  247 195 
 CHI  HZ I         452 41.92         1.9 0.28            117            247 195 
 URE  HE ES   4    452 42.32                             112   -2.04 0  284 292 
 URE  HZ I         452 44.65         4.4 0.10            114            284 292 
 GUY2CHZ EP   2    452 15.72                             111    0.73 4  300 235 
 GUY2CHN ES        452 49.49                             111    0.86 7  300 235 
 GUY2CHZ I         452 58.33         1.7 0.24                           300 235 
 PRA  HZ EP        452 25.65                             106    0.70 6  390 210 
 PRA  HE ES        453  6.34                             106   -0.02 6  390 210 
 PRA  HZ I         453 12.65         2.5 0.40            107            390 210 
 SJC  HZ EP   4    452 25.35                             105   -1.96 0  410 327 
 SJC  HE ES   4    453  1.25                             105   -9.30 0  410 327 
 SJC  HZ I         453  9.57         1.0 0.26            106            410 327 
                                                                                
