 2010  4 7 0550  6.0 L   6.837 -72.998146.0  RSN  5 0.5 2.1LRSN                1
 GAP=230        0.88       8.3    12.1  9.6 -0.6224E+02  0.1006E+02  0.1079E+02E
 Epicentro: CEPITA - SANTANDER                                                 3
 ACTION:UPD 10-08-24 09:58 OP:vdl  STATUS:               ID:20100407055006 L   I
 2010-04-07-0548-33S.COL___097                                                 6
 STAT SP IPHASW D HRMM SECON CODA AMPLIT PERI AZIMU VELO AIN AR TRES W  DIS CAZ7
 BAR2 SZ EP   2    550 25.58                             166    -0.3 5   34 217 
 BAR2 SZ ES   2    550 41.49                             166     0.1 5   34 217 
 BRR  HZ EP        550 27.58                             151    -0.310   84 291 
 BRR  HZ I         550 27.80        17.2 0.14                            84 291 
 BRR  HE ES   1    550 45.11                             151     0.1 7   84 291 
 OCA  SZ EP   1    550 34.46                             131     0.3 7  159 347 
 OCA  SZ ES   2    550 56.85                             131     0.7 5  159 347 
 OCA  SZ I         551  1.57        19.8 0.25                           159 347 
 HEL  HZ EP        550 47.87                             114    -0.2 7  289 256 
 HEL  HE ES   2    551 19.88                             114    -1.0 4  289 256 
 HEL  HZ I         551 24.97         2.7 0.36                           289 256 
 RREF BN ES        551 31.90                             110     0.7 7  337 231 
 RREF BZ I         551 33.58         9.2 0.30                           337 231 
                                                                                
