 2016 11 7 0010 28.9 L   6.790 -73.145138.9  RSN 27 0.4 2.7LRSN                1
 GAP= 86        1.16       3.1     3.2  5.7 -0.1440E+01  0.4217E+01  0.3027E+01E
 Epicentro: LOS SANTOS - SANTANDER                                             3
 ACTION:UPD 17-10-26 21:05 OP:lp   STATUS:               ID:20161107001028 L   I
 OLDACT:REG 16-11-07 12:24 OP:lv   STATUS:               ID:20161107000747     3
 2016-11-07-0008-00M.COL___340                                                 6
 STAT SP IPHASW D HRMM SECON CODA AMPLIT PERI AZIMU VELO AIN AR TRES W  DIS CAZ7
 BAR2 HZ IP     D  010 47.50                             170   -0.2210 22.2 191 
 BAR2 HZ ES        011  2.37                             170   -0.0010 22.2 191 
 BAR2 HZ I         011  3.61       186.9 0.18            167           22.2 191 
 BRR  HZ IP     C  010 49.38                             151   -0.0010 71.9 299 
 BRR  HN ES        011  6.29                             151    0.9510 71.9 299 
 BRR  HZ I         011  8.04       144.3 0.14            150           71.9 299 
 PAM  HZ IP        010 50.36                             150   -0.1210 78.2  39 
 PAM  HN ES        011  7.26                             150   -0.0210 78.2  39 
 PAM  HZ I         011  9.81       141.4 0.56            153           78.2  39 
 PTB  HZ EP   4    010 54.22                             131   -1.12 0  148 259 
 PTB  HN ES        011 15.37                             131   -0.57 9  148 259 
 PTB  HZ I         011 17.56        95.5 0.12            129            148 259 
 TAM  HZ IP     D  010 55.80                             130   -0.24 9  155 105 
 TAM  HN ES        011 17.27                             130    0.09 9  155 105 
 TAM  HZ I         011 20.01        20.8 0.27            131            155 105 
 SPBC HZ EP        010 56.68                             128   -0.15 9  162 219 
 SPBC HE ES        011 18.38                             128   -0.22 9  162 219 
 SPBC HZ I         011 25.45        63.6 0.23            126            162 219 
 ZAR  HZ EP        011  0.32                             121   -0.68 9  205 292 
 ZAR  HN ES        011 25.87                             121   -0.14 9  205 292 
 ZAR  HZ I         011 32.32        98.7 0.34            121            205 292 
 NOR  HZ EP        011  4.15                             117   -0.06 8  234 235 
 NOR  HN ES        011 31.28                             117   -0.45 8  234 235 
 NOR  HZ I         011 33.66        33.0 0.33            116            234 235 
 CHI  HZ EP        011  5.98                             116   -0.16 8  248 195 
 CHI  HE ES        011 34.99                             116   -0.17 8  248 195 
 CHI  HZ I         011 40.82        15.4 0.39            115            248 195 
 ROSC BZ EP   9    011  7.99                             116    1.41 0  252 211 
 ROSC BN ES        011 39.31                                    1.95 8  252 211 
 ROSC BZ I         011 41.79        28.6 0.25            115            252 211 
 HEL  HZ EP   4    011  9.84                             114    1.05 0  272 256 
 HEL  HN ES        011 40.11                             114    0.24 8  272 256 
 HEL  HZ I         011 48.24        31.4 0.24            113            272 256 
 URE  HZ EP   4    011  8.64                             113   -1.10 0  284 292 
 URE  HE ES   4    011 39.75                             113   -1.82 0  284 292 
 URE  HZ I         011 47.91        39.5 0.20            112            284 292 
 VIL  EZ EP   3    011 11.00                             111   -0.92 2  302 192 
 VIL  EN ES        011 45.88                             111    0.43 7  302 192 
 VIL  EZ I         011 50.05        25.0 0.24            111            302 192 
 PTGC HZ EP   4    011 10.69                             111   -1.67 0  308 159 
 PTGC HE ES   4    011 43.67                             111   -2.57 0  308 159 
 PTGC HZ I         011 46.41        22.8 0.36            111            308 159 
 LL6C HZ EP   4    010 53.02                             109   -21.5 0  326 358 
 LL6C HE ES   4    011 28.73                             109   -21.3 0  326 358 
 LL6C HZ I         011 34.47        10.9 0.50            110            326 358 
 ELA  HZ EP        011 16.10                             109    0.68 7  328 230 
 ELA  HN ES        011 51.50                             109   -0.19 7  328 230 
 ELA  HZ I         011 58.47        17.1 0.62            109            328 230 
 CBOC HZ EP   4    011 16.50                             109    0.96 0  333 252 
 CBOC HE ES   4    011 50.51                             109   -1.39 0  333 252 
 CBOC HZ I         011 54.22         8.7 0.21            108            333 252 
 DBB  HZ EP   3    011 16.36                             109    0.20 2  340 274 
 DBB  HN ES   4    011 50.11                             109   -2.89 0  340 274 
 ANIL HZ EP   4    011 20.57                             108    2.18 0  357 225 
 ANIL HN ES        011 57.01                             108    0.04 6  357 225 
 ANIL HZ I         012  6.72        46.0 0.36            107            357 225 
 ARGC HZ EP        011 18.71                             107    0.24 6  360 340 
 ARGC HN ES        011 57.30                             107    0.20 6  360 340 
 ARGC HZ I         012  2.78         7.8 0.26            108            360 340 
 PRA  HZ EP   4    011 18.47                             106   -3.64 0  391 210 
 PRA  HN ES   4    012  1.00                             106   -2.59 0  391 210 
 PRA  HZ I         012  7.45        18.0 0.50            105            391 210 
 ORTC HN ES        012  6.05                             106    1.73 6  395 216 
 ORTC HZ I         012 10.41        11.5 0.34            105            395 216 
 PAL  HZ EP        011 23.73                             105   -0.08 6  405 239 
 PAL  HE ES        012  6.79                             105    0.17 6  405 239 
 PAL  HZ I         012 13.53         8.8 0.35            105            405 239 
 SJC  HZ EP   4    011 21.71                             105   -2.69 0  410 327 
 SJC  HN ES   4    012  3.18                             105   -4.48 0  410 327 
 SJC  HZ I         012  7.56        11.6 0.57            105            410 327 
 LCBC HE ES        012 10.53                             104    0.42 5  423 303 
 LCBC HZ I         012 12.97        15.5 0.20            104            423 303 
 CRJC HZ EP   9    011 28.08                             103   -3.30 0  469   4 
 CRJC HN IS        012 16.79                                   -0.00 5  469   4 
 CRJC HZ I         012 20.25         8.5 0.19            103            469   4 
 YOT  HZ EP   4    011 30.63                             102   -1.08 0  471 229 
 YOT  HE ES   4    012 19.63                             102   -1.05 0  471 229 
 URI  HZ EP   4    011 38.35                             100   -3.57 0  558  13 
 URI  HN ES   4    012 35.84                             100   -3.01 0  558  13 
 URI  HZ I         012 54.01         1.3 0.11            100            558  13 
                                                                                
