 2016  8 7 0533 11.8 L   6.826 -73.134159.2  RSN  5 0.2 1.2LRSN                1
 GAP=256        0.47       3.1     3.7  4.6  0.1213E+01 -0.3862E+01  0.9101E+00E
 Epicentro: LOS SANTOS - SANTANDER                                             3
 ACTION:UPD 16-10-29 15:33 OP:rebc STATUS:               ID:20160807053311 L   I
 OLDACT:UP  16-08-07 17:12 OP:dani STATUS:               ID:20160807052737d    3
 OLDACT:DUP 16-08-07 17:07 OP:dani STATUS:               ID:20160807052737d    3
 OLDACT:UP  16-08-07 16:45 OP:dani STATUS:               ID:20160807052735     3
 OLDACT:UP  16-08-07 16:40 OP:dani STATUS:               ID:20160807052735     3
 OLDACT:UP  16-08-07 16:39 OP:dani STATUS:               ID:20160807052735     3
 OLDACT:UP  16-08-07 16:38 OP:dani STATUS:               ID:20160807052735     3
 OLDACT:UP  16-08-07 16:37 OP:dani STATUS:               ID:20160807052735     3
 OLDACT:UP  16-08-07 16:35 OP:dani STATUS:               ID:20160807052735     3
 OLDACT:UP  16-08-07 16:35 OP:dani STATUS:               ID:20160807052735     3
 OLDACT:UP  16-08-07 16:34 OP:dani STATUS:               ID:20160807052735     3
 OLDACT:REG 16-08-07 12:59 OP:dani STATUS:               ID:20160807052735     3
 2016-08-07-0528-00M.COL___353                                                 6
 STAT SP IPHASW D HRMM SECON CODA AMPLIT PERI AZIMU VELO AIN AR TRES W  DIS CAZ7
 BAR2 EZ EP        533 32.99                             170   -0.1410 26.4 192 
 BAR2 EZ I         533 49.11         2.4 0.40                          26.4 192 
 BRR  HZ EP        533 34.28                             155   -0.1510 71.1 296 
 BRR  HE ES        533 52.26                             155    0.2010 71.1 296 
 BRR  HZ I         533 55.65         2.0 0.21                          71.1 296 
 PTB  HZ EP        533 40.00                             134   -0.08 9  150 258 
 PTB  HN ES        534  2.01                             134   -0.11 9  150 258 
 PTB  HZ I         534  7.84         1.8 0.40                           150 258 
 SPBC HZ EP        533 42.03                             131    0.37 9  166 219 
 SPBC HN ES        534  4.85                             131   -0.09 9  166 219 
 SPBC HZ I         534  9.89         2.2 0.24                           166 219 
 ZAR  HZ EP        533 45.25                             125    0.06 9  204 291 
 ZAR  HN ES        534 11.20                             125   -0.02 9  204 291 
 ZAR  HZ I         534 18.13         2.1 0.24                           204 291 
                                                                                
