 2017 12 7 0102 14.4 L   6.823 -73.157143.4  RSN 14 0.8 2.0LRSN                1
 GAP=110        1.71       3.9     5.4  9.0 -0.1664E+00  0.1509E+02  0.4820E+00E
 Epicentro: LOS SANTOS - SANTANDER                                             3
 ACTION:UPD 18-01-04 13:17 OP:rebc STATUS:               ID:20171207010214 L   I
 OLDACT:UP  17-12-07 15:45 OP:leo  STATUS:               ID:20171207005743     3
 OLDACT:UP  17-12-07 15:42 OP:leo  STATUS:               ID:20171207005743     3
 OLDACT:REG 17-12-07 12:32 OP:leo  STATUS:               ID:20171207005743     3
 2017-12-07-0058-00M.COL___482                                                 6
 STAT SP IPHASW D HRMM SECON CODA AMPLIT PERI AZIMU VELO AIN AR TRES W  DIS CAZ7
 BAR2 EZ EP        1 2 33.89                             169    0.1410 25.6 186 
 BAR2 EZ ES        1 2 48.90                             169    0.0210 25.6 186 
 PAM  EZ EP        1 2 36.16                             151   -0.1010 76.3  41 
 PAM  EN ES        1 2 53.00                             151   -0.3410 76.3  41 
 PAM  EZ I         1 2 55.46        14.7 0.52            153           76.3  41 
 PTB  HZ EP        1 2 41.45                             132    0.38 9  147 258 
 PTB  HN ES        1 3  1.63                             132   -0.28 9  147 258 
 OCA  HZ EP        1 2 42.51                             130    0.27 9  158 353 
 OCA  HN ES        1 3  3.53                             130   -0.46 9  158 353 
 SPBC HZ EP        1 2 42.38                             128   -0.41 9  164 218 
 SPBC HN ES        1 3  4.79                             128   -0.18 9  164 218 
 SPBC HZ I         1 3  6.25        13.5 0.12            129            164 218 
 YPLC HZ EP        1 2 43.70                             126   -0.56 9  180 151 
 YPLC HN ES        1 3  7.73                             126    0.15 9  180 151 
 YPLC HZ I         1 3  9.99         9.1 0.26            127            180 151 
 ZAR  HZ EP        1 2 46.66                             122    0.22 9  202 292 
 ZAR  HN ES        1 3 12.21                             122    0.75 9  202 292 
 ZAR  HZ I         1 3 18.15        14.9 0.32            123            202 292 
 CHI  HZ EP        1 2 51.67                             116   -0.48 8  251 195 
 CHI  HN ES        1 3 21.88                             116    0.24 8  251 195 
 CHI  HZ I         1 3 23.89         3.1 0.24            117            251 195 
 URE  HZ EP        1 2 53.90                             113   -1.18 7  282 292 
 URE  HN ES        1 3 25.47                             113   -1.38 7  282 292 
 URE  HZ I         1 3 34.88         7.3 0.32            114            282 292 
 DRL03HZ EP        1 2 56.06                             113    0.50 7  286 353 
 DRL03HN ES        1 3 30.31                             113    2.61 7  286 353 
 GUY2CHZ EP        1 2 59.17                             112    1.26 7  302 234 
 GUY2CHN ES        1 3 32.50                             112    0.62 7  302 234 
 GUY2CHZ I         1 3 42.11         2.9 0.60                           302 234 
 DBB  EN ES        1 3 39.04                             109    0.63 7  338 274 
 PRA  HZ EP        1 3  7.87                             106   -0.11 6  394 209 
 PRA  HE ES        1 3 50.43                             106    0.62 6  394 209 
 PRA  HZ I         1 3 55.08         3.6 0.36            107            394 209 
 SJC  HZ EP        1 3  7.63                             105   -1.89 6  406 327 
 SJC  HN ES        1 3 50.97                             105   -1.57 6  406 327 
                                                                                
