 2013  1 7 0234 40.0 L   6.886 -73.239135.2  RSN  5 0.3 1.4LRSN                1
 GAP=234        0.74       5.7     5.1  6.7  0.1673E+02  0.8707E+01 -0.7957E+00E
 Epicentro: BETULIA - SANTANDER                                                3
 ACTION:UPD 13-02-15 09:12 OP:ep   STATUS:               ID:20130107023440 L   I
 2013-01-07-0229-51M.COL___199                                                 6
 STAT SP IPHASW D HRMM SECON CODA AMPLIT PERI AZIMU VELO AIN AR TRES W  DIS CAZ7
 BAR2 SZ EP        234 58.82                             165    0.1510 33.1 169 
 BAR2 SZ I         234 58.98        13.8 0.24            162           33.1 169 
 BAR2 SZ ES        235 12.99                             165   -0.2010 33.1 169 
 BRR  HZ EP        234 59.11                             156   -0.2010 57.6 295 
 BRR  HZ I         234 59.28         5.8 0.24            155           57.6 295 
 BRR  HN ES        235 14.32                             156   -0.0210 57.6 295 
 RUS  HN ES        235 22.34                             138    0.3510  111 171 
 RUS  HN I         235 24.02         2.0 0.32            137            111 171 
 PTB  HZ EP        235  5.15                             131   -0.29 9  140 254 
 PTB  HN ES        235 25.00                             131   -0.26 9  140 254 
 PTB  HN I         235 27.04         4.6 0.30            130            140 254 
 ZAR  HN ES        235 34.72                             122    0.55 9  191 291 
                                                                                
