 2013  5 7 0459 23.5 L   6.808 -73.107148.0  RSN  9 0.5 1.9LRSN                1
 GAP=141        0.90       4.0     7.5  6.8  0.3581E+01  0.8474E+01 -0.5330E+01E
 Epicentro: LOS SANTOS - SANTANDER                                             3
 ACTION:UPD 13-06-20 09:48 OP:ep   STATUS:               ID:20130507045923 L   I
 2013-05-07-0457-48M.COL___225                                                 6
 STAT SP IPHASW D HRMM SECON CODA AMPLIT PERI AZIMU VELO AIN AR TRES W  DIS CAZ7
 BAR2 SZ EP        459 43.32                             170   -0.1110 25.2 199 
 BAR2 SZ ES   1    459 58.25                             170   -0.73 7 25.2 199 
 BAR2 SZ I         5 0  0.70        11.2 0.52            168           25.2 199 
 PAM  SZ EP        459 46.27                             152    0.5210 74.1  37 
 PAM  SN ES   1    5 0  3.53                             152    0.41 7 74.1  37 
 PAM  SZ I         5 0  5.58        14.4 0.56            155           74.1  37 
 BRR  HZ EP     C  459 45.23                             152    0.1610 74.6 296 
 BRR  HN ES   1    5 0  2.32                             152    0.41 7 74.6 296 
 BRR  HZ I         5 0  5.55        15.4 0.16            147           74.6 296 
 RUS  HZ EP        459 47.26                             144   -0.2510  101 178 
 RUS  HN ES   1    5 0  5.98                             144   -0.26 7  101 178 
 RUS  HZ I         5 0  7.00         6.3 0.30            148            101 178 
 PTB  HZ EP   4    459 50.04                             132   -0.99 0  152 259 
 PTB  HN ES   4    5 0 11.53                             132   -0.99 0  152 259 
 PTB  HZ I         5 0 17.04        15.7 0.34            131            152 259 
 OCA  HZ EP   1    459 51.72                             130   -0.23 7  160 352 
 OCA  HN ES   1    5 0 14.42                             130    0.27 7  160 352 
 OCA  HZ I         5 0 17.69         6.6 0.18            131            160 352 
 SML  HZ EP   1    5 0  0.02                             118   -0.34 6  245 334 
 SML  HN ES   1    5 0 28.32                             118   -0.79 6  245 334 
 SML  HZ I         5 0 37.22         8.7 0.24            118            245 334 
 HEL  HZ EP   1    5 0  5.32                             115    1.02 6  276 256 
 HEL  HN ES   4    5 0 38.76                             115    2.64 0  276 256 
 HEL  HZ I         5 0 41.56         5.6 0.30            115            276 256 
 COD  HZ EP   1    5 0 11.38                             109   -0.53 5  348 354 
 COD  HN ES   2    5 0 49.20                             109   -0.47 3  348 354 
                                                                                
