 2015  5 7 0847 29.3 L   6.790 -73.124149.5  RSN  7 0.4 1.7LRSN                1
 GAP=185        0.91       4.9     6.9  6.7  0.1103E+02  0.7418E+01  0.7319E+01E
 Epicentro: LOS SANTOS - SANTANDER                                             3
 ACTION:UPD 15-09-10 22:02 OP:cam  STATUS:               ID:20150507084729 L   I
 OLDACT:UP  15-05-07 19:57 OP:spq  STATUS:               ID:20150507083749     3
 OLDACT:REG 15-05-07 14:43 OP:ar   STATUS:               ID:20150507083749     3
 2015-05-07-0837-49M.COL___285                                                 6
 STAT SP IPHASW D HRMM SECON CODA AMPLIT PERI AZIMU VELO AIN AR TRES W  DIS CAZ7
 BAR2 EZ EP        847 49.25                             171   -0.1610 22.8 196 
 BAR2 EZ ES        848  4.53                             171   -0.5310 22.8 196 
 BAR2 EZ I         848  5.82        11.8 0.26            169           22.8 196 
 BRR  HZ EP        847 51.00                             152   -0.0410 73.8 298 
 BRR  HN ES        848  8.37                             152    0.4110 73.8 298 
 BRR  HZ I         848 11.27         8.8 0.32            149           73.8 298 
 RUS  HZ EP   1    847 53.45                             145    0.08 7 99.4 177 
 OCA  HN ES   1    848 21.21                             130    0.73 7  162 352 
 OCA  HZ I         848 24.65         7.6 0.05            131            162 352 
 SPBC HZ EP   1    847 58.36                             130    0.17 7  164 220 
 SPBC HE ES   1    848 21.31                             130    0.62 7  164 220 
 SPBC HZ I         848 26.24         7.3 0.13            130            164 220 
 ZAR  HZ EP        848  1.76                             123   -0.54 8  207 292 
 ZAR  HN ES        848 27.69                             123   -0.32 8  207 292 
 ZAR  HZ I         848 32.22         2.7 0.18            122            207 292 
 CHI  HZ EP        848  7.48                             118    0.28 8  248 196 
                                                                                
