 2017  6 7 0422 28.7 L   6.800 -73.140140.4  RSN 20 0.5 2.3LRSN                1
 GAP=167        1.18       3.9     3.2  6.4  0.3648E+01  0.4051E+01  0.1350E+01E
 Epicentro: LOS SANTOS - SANTANDER                                             3
 ACTION:UPD 17-09-14 16:50 OP:jn   STATUS:               ID:20170607042228 L   I
 OLDACT:UP  17-06-07 15:37 OP:edw  STATUS:               ID:20170607041732     3
 OLDACT:UP  17-06-07 15:28 OP:edw  STATUS:               ID:20170607041732     3
 OLDACT:REG 17-06-07 11:59 OP:edw  STATUS:               ID:20170607041732     3
 2017-06-07-0418-00M.COL___365                                                 6
 STAT SP IPHASW D HRMM SECON CODA AMPLIT PERI AZIMU VELO AIN AR TRES W  DIS CAZ7
 BRR  HZ IP     C  422 49.40                             151    0.1210 71.7 298 
 BRR  HE ES        423  5.88                             151    0.5410 71.7 298 
 BRR  HZ I         423  9.68        34.7 0.28            151           71.7 298 
 RUS  HZ IP     C  422 51.53                             143   -0.3710  101 176 
 RUS  HN ES        423 10.13                             143    0.1210  101 176 
 RUS  HZ I         423 11.56        28.5 0.44            142            101 176 
 PTB  HZ EP        422 54.35                             131   -0.92 9  148 259 
 PTB  HN ES        423 15.25                             131   -0.75 9  148 259 
 PTB  HZ I         423 18.65        23.9 0.34            130            148 259 
 TAM  HZ IP     D  422 55.85                             129   -0.03 9  154 105 
 TAM  HN ES        423 16.91                             129   -0.18 9  154 105 
 TAM  HZ I         423 18.04        20.6 0.58            134            154 105 
 SPBC HZ EP        422 56.71                             128   -0.09 9  164 219 
 SPBC HN ES        423 18.73                             128   -0.01 9  164 219 
 SPBC HZ I         423 22.88        25.9 0.24            127            164 219 
 YPLC HZ IP     C  422 58.01                             125   -0.04 9  177 152 
 YPLC HN ES        423 21.43                             125    0.46 9  177 152 
 YPLC HZ I         423 24.48        23.5 0.32            127            177 152 
 ZAR  HZ EP        423  0.49                             121   -0.35 9  205 292 
 ZAR  HN ES        423 26.25                             121    0.33 9  205 292 
 ZAR  HZ I         423 32.36        50.9 0.38            123            205 292 
 TABC EZ EP   4    423  5.69                             118    1.54 0  230 211 
 TABC EZ ES   4    423 33.56                             118    1.75 0  230 211 
 TABC EZ I         423 37.98        16.1 0.32            119            230 211 
 NOR  HZ EP     C  423  4.17                             117    0.02 8  235 235 
 NOR  HN ES        423 31.78                             117   -0.04 8  235 235 
 NOR  HZ I         423 37.00        16.0 0.16            118            235 235 
 CHI  HZ EP        423  5.70                             116   -0.40 8  249 195 
 CHI  HN ES        423 34.16                             116   -1.13 8  249 195 
 CHI  HZ I         423 42.12         8.2 0.30            117            249 195 
 ROSC BZ EP        423  7.58                             115    1.04 8  253 211 
 ROSC BN ES        423 37.04                             115    0.96 8  253 211 
 ROSC BZ I         423 45.28        21.0 0.35            116            253 211 
 HEL  HZ EP        423  9.32                             114    0.63 8  273 256 
 HEL  HN ES        423 40.11                             114    0.21 8  273 256 
 HEL  HZ I         423 45.89        14.8 0.36            115            273 256 
 PTGC HZ EP   9    423 10.74                             110   -1.53 0  308 159 
 PTGC HN ES        423 43.91                             111   -0.83 7  308 159 
 PTGC HZ I         423 46.61         7.2 0.38            112            308 159 
 ELA  HZ EP        423 16.14                             109    0.78 7  330 230 
 ELA  HN ES   4    423 55.21                             109    3.44 0  330 230 
 ELA  HZ I         424  1.84         6.1 0.74            110            330 230 
 CBOC HZ EP        423 15.62                             109    0.18 7  334 252 
 CBOC HN ES   4    423 50.07                             109   -1.85 0  334 252 
 CBOC HZ I         424  3.90        19.0 0.96            110            334 252 
 DBB  EZ EP        423 16.46                             108    0.45 7  340 274 
 DBB  EN ES        423 51.88                             108   -1.05 7  340 274 
 DBB  EZ I         423 53.54         8.5 0.42            110            340 274 
 ANIL HN ES   4    423 58.93                             107    1.87 0  358 225 
 ORTC HZ EP        423 22.16                             105   -0.30 6  396 216 
 ORTC HN ES        424  4.73                             105    0.32 6  396 216 
 ORTC HZ I         424 10.70         5.2 0.20            106            396 216 
 APAC HN ES        424  5.17                             105    0.23 6  399 288 
 PAL  HZ EP        423 23.68                             105   -0.05 6  406 239 
 PAL  HN ES   4    424  3.11                             105   -3.55 0  406 239 
 PAL  HZ I         424 10.79         4.9 0.22            106            406 239 
 SJC  HZ EP   4    423 21.95                             105   -2.16 0  410 327 
 SJC  HN ES   4    424  2.29                             105   -5.05 0  410 327 
 SJC  HZ I         424  7.05         4.9 0.50            107            410 327 
                                                                                
