 2017  4 7 0647 42.3 L   6.764 -73.199138.0  RSN  4 0.4 0.9LRSN                1
 GAP=229        0.61       7.7     4.5  6.2  0.9424E+01  0.1430E+01 -0.1950E+01E
 Epicentro: ZAPATOCA - SANTANDER                                               3
 ACTION:UPD 17-05-30 21:09 OP:jn   STATUS:               ID:20170407064742 L   I
 OLDACT:UP  17-04-07 16:11 OP:and  STATUS:               ID:20170407063722d    3
 OLDACT:UP  17-04-07 16:11 OP:and  STATUS:               ID:20170407063722d    3
 OLDACT:UP  17-04-07 16:11 OP:and  STATUS:               ID:20170407063722d    3
 OLDACT:UP  17-04-07 16:10 OP:and  STATUS:               ID:20170407063722d    3
 OLDACT:UP  17-04-07 16:10 OP:and  STATUS:               ID:20170407063722d    3
 OLDACT:DUP 17-04-07 16:09 OP:and  STATUS:               ID:20170407063722d    3
 OLDACT:REG 17-04-07 12:37 OP:and  STATUS:               ID:20170407063721     3
 2017-04-07-0638-00M.COL___359                                                 6
 STAT SP IPHASW D HRMM SECON CODA AMPLIT PERI AZIMU VELO AIN AR TRES W  DIS CAZ7
 BAR2 EZ EP        648  0.57                             172   -0.3010 19.1 175 
 BAR2 EZ ES        648 15.30                             172   -0.0910 19.1 175 
 BAR2 EZ I         648 16.29         2.6 0.32            164           19.1 175 
 BRR  HZ EP        648  2.52                             152    0.1210 68.3 304 
 BRR  HN ES   3    648 19.47                             152    1.36 2 68.3 304 
 RUS  HZ EP        648  5.15                             143    0.1510 97.2 172 
 RUS  HN ES   3    648 23.70                             143    0.96 2 97.2 172 
 RUS  HZ I         648 25.66         1.1 0.38            139           97.2 172 
 PTB  HZ EP   2    648  8.47                             131    0.47 5  141 260 
 PTB  HN ES        648 27.94                             131   -0.14 9  141 260 
 PTB  HZ I         648 32.01         1.1 0.16            129            141 260 
                                                                                
