 2010  9 7 0028 29.2 L   6.759 -73.066135.2  RSN 14 0.4 2.9LRSN                1
 GAP=168        0.96       3.5     6.6  6.1 -0.1109E+02  0.7581E+01  0.2323E+01E
 Epicentro: LOS SANTOS - SANTANDER                                             3
 ACTION:UP  11-02-18 11:00 OP:tino STATUS:               ID:20100907002829 L   I
 2010-09-07-0026-23S.COL___120                                                 6
 STAT SP IPHASW D HRMM SECON CODA AMPLIT PERI AZIMU VELO SNR AR TRES W  DIS CAZ7
 BAR2 SZ IP        028 47.78                             170     0.310   23 215 
 BAR2 SZ ES   1    029  1.54                             170    -0.3 7   23 215 
 BAR2 SZ I         029  4.98       108.1 0.57                            23 215 
 GIR2 SZ IP        028 47.89                             164     0.110   38 338 
 GIR2 SZ ES   2    029  2.14                             164    -0.2 5   38 338 
 BRR  HZ IP     C  028 49.67                             147    -0.110   81 298 
 BRR  HE ES   1    029  6.26                             147     0.4 7   81 298 
 BRR  HZ I         029 11.07       275.7 0.22                            81 298 
 RUS  HZ IP     C  028 51.74                             143     0.210   96 181 
 RUS  HN ES   1    029  9.06                             143     0.1 7   96 181 
 RUS  HZ I         029 11.34        95.9 0.29                            96 181 
 GUE  SZ EP   1    028 53.82                             136     0.7 7  119   7 
 GUE  SZ I         029 18.86        37.2 0.19                           119   7 
 GRA  SZ IP        028 53.77                             134     0.110  128  13 
 GRA  SZ ES   1    029 12.46                             134    -0.3 7  128  13 
 GRA  SZ I         029 14.38       119.0 0.41                           128  13 
 OCA  SZ EP        028 56.36                             126    -0.9 9  166 350 
 OCA  SZ I         029 20.35        91.1 0.16                           166 350 
 CHI  HZ EP        029  6.07                             115     0.0 8  247 197 
 CHI  HN ES   1    029 34.74                             115    -0.2 6  247 197 
 CHI  HZ I         029 41.96        24.8 0.34                           247 197 
 ROSC BN ES   1    029 36.07                             114    -0.1 6  254 213 
 ROSC BZ I         029 44.27        62.7 0.59                           254 213 
 HEL  HZ EP   1    029  9.83                             112     0.1 6  280 257 
 HEL  HZ I         029 46.88        48.8 0.55                           280 257 
 GUY  SZ EP   1    029 13.35                             110     0.5 5  306 236 
 GUY  SN ES   1    029 47.28                             110     0.3 5  306 236 
 GUY  SZ I         029 51.93        87.3 0.22                           306 236 
 RREF HZ EP   1    029 16.03                             109     0.7 5  326 231 
 RREF HE ES   2    029 51.72                             109     0.4 3  326 231 
 RREF HZ I         029 59.55        31.5 0.59                           326 231 
 ANIL HE ES   1    029 56.91                             106    -0.9 5  360 226 
 ANIL HZ I         030  3.83        96.5 0.34                           360 226 
 PRA  HZ EP        029 21.82                             105    -0.6 6  393 211 
 PRA  HE ES   1    030  3.39                             105    -0.5 4  393 211 
 PRA  HZ I         030 10.88        27.6 0.53                           393 211 
                                                                                
