 2013  4 7 0317 16.8 L   6.787 -73.200145.9  RSN  5 0.4 1.7LRSN                1
 GAP=230        0.91       7.7     7.6  8.9  0.3901E+02  0.2236E+02  0.8915E+01E
 Epicentro: ZAPATOCA - SANTANDER                                               3
 ACTION:UPD 13-05-22 14:36 OP:EP   STATUS:               ID:20130407031716 L   I
 2013-04-07-0310-00M.COL___245                                                 6
 STAT SP IPHASW D HRMM SECON CODA AMPLIT PERI AZIMU VELO AIN AR TRES W  DIS CAZ7
 BAR2 SZ ES        317 51.36                             171   -0.3710 21.6 175 
 BRR  HZ EP   1    317 38.63                             154    0.89 7 66.7 302 
 BRR  HN ES        317 54.04                             154   -0.0110 66.7 302 
 BRR  HN I         317 56.33        12.7 0.22            149           66.7 302 
 RUS  HZ EP   1    317 40.13                             144   -0.39 7 99.8 173 
 RUS  HN ES        317 59.32                             144    0.3110 99.8 173 
 RUS  HN I         318  0.31         4.7 0.24            142           99.8 173 
 PTB  HZ EP   1    317 42.69                             133   -0.55 7  142 259 
 PTB  HN ES        318  3.96                             133    0.11 9  142 259 
 PTB  HN I         318  9.94         4.7 0.32            129            142 259 
 ZAR  HE ES        318 13.63                             123   -0.04 9  199 293 
 ZAR  HE I         318 20.31         7.1 0.50            121            199 293 
                                                                                
