 2014  9 7 0414 28.0 L   6.859 -73.308127.7  RSN 15 0.5 2.0LRSN                1
 GAP= 58        1.09       3.4     3.9  5.8 -0.3672E+01  0.4896E+01  0.2591E+01E
 Epicentro: BETULIA - SANTANDER                                                3
 ACTION:UPD 14-10-03 23:03 OP:nd   STATUS:               ID:20140907041428 L   I
 OLDACT:UP  14-09-07 17:13 OP:mh   STATUS:               ID:20140907040819     3
 OLDACT:UP  14-09-07 17:11 OP:mh   STATUS:               ID:20140907040819     3
 OLDACT:UP  14-09-07 16:45 OP:mh   STATUS:               ID:20140907040819     3
 OLDACT:REG 14-09-07 13:04 OP:mh   STATUS:               ID:20140907040819     3
 2014-09-07-0408-19M.COL___260                                                 6
 STAT SP IPHASW D HRMM SECON CODA AMPLIT PERI AZIMU VELO AIN AR TRES W  DIS CAZ7
 BAR2 SZ EP     C  414 46.10                             165    0.3310 32.6 155 
 BAR2 SZ ES        414 59.19                             165   -0.4010 32.6 155 
 BRR  HZ EP        414 46.55                             156    0.3310 52.3 302 
 BRR  HN ES        415  0.66                             156    0.2710 52.3 302 
 BRR  HZ I         415  2.05        28.9 0.14            153           52.3 302 
 PAM  SZ EP        414 49.16                             144    0.2110 85.7  52 
 PAM  SE ES        415  5.44                             144    0.1910 85.7  52 
 RUS  HZ EP   1    414 51.07                             137    0.26 7  110 167 
 RUS  HN ES   1    415  7.81                             137   -0.76 7  110 167 
 RUS  HZ I         415 10.46         5.7 0.30            137            110 167 
 PTB  HZ EP        414 51.16                             131   -0.9410  132 254 
 PTB  HN ES        415 11.25                             131    0.4010  132 254 
 PTB  HZ I         415 13.33        18.0 0.20            129            132 254 
 OCA  HZ EP        414 54.20                             127   -0.06 9  153 360 
 OCA  HN ES        415 14.21                             127   -0.50 9  153 360 
 OCA  HZ I         415 15.20        25.2 0.16            126            153 360 
 SPBC HZ EP        414 54.72                             126    0.01 9  158 212 
 SPBC HN ES   1    415 15.57                             126    0.06 7  158 212 
 SPBC HZ I         415 17.00        17.1 0.18            124            158 212 
 TAM  HZ EP   1    414 56.89                             123    0.61 7  174 106 
 TAM  HN ES   4    415 15.40                             123   -2.91 0  174 106 
 TAM  HZ I         415 19.00         9.5 0.23            123            174 106 
 ZAR  HZ EP        414 56.87                             121   -0.48 9  185 292 
 ZAR  HN ES   1    415 21.08                             121    0.87 7  185 292 
 NOR  HZ EP        415  0.79                             116   -0.87 8  224 230 
 NOR  HN ES        415 27.95                             116    0.07 8  224 230 
 NOR  HZ I         415 31.60         6.6 0.14            114            224 230 
 SML  HZ EP   4    415  4.71                             115    2.44 0  231 339 
 SML  HN ES   4    415 27.72                             115   -1.25 0  231 339 
 SML  HZ I         415 36.03        22.0 0.24            114            231 339 
 HEL  HZ EP   4    415  7.07                             112    1.43 0  256 253 
 HEL  HN ES   4    415 32.73                             112   -2.22 0  256 253 
 HEL  HZ I         415 41.24         5.1 0.20            111            256 253 
 GUY2CHZ EP   1    415  9.71                             109    0.03 5  291 232 
 GUY2CHN ES   1    415 42.35                             109    0.20 5  291 232 
 GUY2CHZ I         415 49.68         3.8 0.36                           291 232 
 PRA  HZ EP        415 21.48                             103    0.80 6  389 207 
 PRA  HN ES   1    416  2.69                             103    0.96 4  389 207 
 PRA  HZ I         416  9.49         2.6 0.30            103            389 207 
 SJC  HZ EP   4    415 20.21                             103   -1.06 0  394 329 
 SJC  HN ES   4    415 56.35                             103   -6.44 0  394 329 
 SJC  HZ I         416  4.69         1.4 0.29            103            394 329 
                                                                                
