 2010  8 7 0818 39.0 L   6.821 -73.090142.3  RSN 16 0.5 3.2LRSN                1
 GAP=165        1.10       3.6     6.9  6.2 -0.9159E+01  0.1058E+02  0.4295E+01E
 Epicentro: LOS SANTOS - SANTANDER                                             3
 ACTION:UP  10-09-07 10:52 OP:vdl  STATUS:               ID:20100807081839 L   I
 2010-08-07-0816-53S.COL___125                                                 6
 STAT SP IPHASW D HRMM SECON CODA AMPLIT PERI AZIMU VELO SNR AR TRES W  DIS CAZ7
 BAR2 SZ EP        818 58.53                             168     0.210   27 202 
 BAR2 SZ ES   1    819 13.29                             168    -0.1 7   27 202 
 BAR2 SZ I         819 15.90       213.8 0.31                            27 202 
 GIR2 SZ EP        818 58.49                             167     0.210   31 338 
 GIR2 SZ ES   1    819 12.89                             167    -0.4 7   31 338 
 BRR  HZ EP        819  0.34                             150     0.310   76 295 
 BRR  HN ES   1    819 16.95                             150     0.5 7   76 295 
 BRR  HZ I         819 19.97       174.2 0.19                            76 295 
 RUS  HZ EP        819  2.58                             142     0.010  103 180 
 RUS  HN ES   1    819 20.58                             142    -0.4 7  103 180 
 RUS  HZ I         819 23.06       179.8 0.22                           103 180 
 GUE  SZ EP        819  2.30                             139    -0.810  113   9 
 GRA  SZ IP        819  4.16                             137     0.510  122  15 
 GRA  SZ ES   1    819 22.65                             137    -0.2 7  122  15 
 OCA  SZ EP        819  6.75                             129    -0.2 9  159 351 
 OCA  SZ ES   1    819 28.75                             129     0.1 7  159 351 
 OCA  SZ I         819 32.52       128.4 0.15                           159 351 
 CHI  HZ EP        819 16.96                             116     0.0 8  253 196 
 CHI  HE ES   1    819 45.99                             116    -0.6 6  253 196 
 CHI  HZ I         819 49.98        49.0 0.43                           253 196 
 ROSC BZ EP        819 18.36                             115     0.8 8  258 212 
 ROSC BN ES   2    819 48.24                             115     0.7 4  258 212 
 ROSC BZ I         819 53.42        76.4 0.62                           258 212 
 CVER SZ EP        819 20.32                             114     0.6 7  277 203 
 CVER SZ I         819 21.89       111.7 0.44                           277 203 
 HEL  HZ EP   1    819 19.99                             113     0.2 6  279 256 
 HEL  HN ES   2    819 50.94                             113    -0.7 4  279 256 
 HEL  HZ I         819 58.25        66.8 0.25                           279 256 
 GUY  SZ EP        819 23.46                             111     0.2 7  308 235 
 GUY  SE ES   2    819 58.41                             111     0.7 4  308 235 
 GUY  SZ I         820  7.53       252.6 0.48                           308 235 
 RREF HZ EP   1    819 25.75                             110     0.0 5  328 230 
 RREF HN ES   2    820  1.10                             110    -1.1 3  328 230 
 RREF HZ I         820 10.87        85.3 0.17                           328 230 
 DBB  SZ EP        819 26.37                             108    -0.7 6  346 274 
 ANIL HZ EP   1    819 29.47                             107     0.1 5  363 225 
 ANIL HN ES   1    820  8.09                             107    -0.6 5  363 225 
 ANIL HZ I         820 15.33       135.6 0.05                           363 225 
 PRA  HZ EP        819 31.90                             106    -1.1 6  397 210 
 PRA  HN ES   2    820 15.17                             106     0.0 3  397 210 
 PRA  HZ I         820 21.55        55.1 0.32                           397 210 
                                                                                
