 2015  3 7 0813 10.1 L   6.790 -73.122152.3  RSN  9 0.3 1.3LRSN                1
 GAP=140        0.78       2.4     5.2  4.9 -0.1678E+01  0.3450E+01 -0.2382E+00E
 Epicentro: LOS SANTOS - SANTANDER                                             3
 ACTION:UPD 15-04-30 16:23 OP:nd   STATUS:               ID:20150307081310 L   I
 OLDACT:REG 15-03-07 13:45 OP:spq  STATUS:               ID:20150307080747     3
 2015-03-07-0807-47M.COL___284                                                 6
 STAT SP IPHASW D HRMM SECON CODA AMPLIT PERI AZIMU VELO AIN AR TRES W  DIS CAZ7
 BAR2 EZ EP        813 30.36                             171   -0.1910 22.8 197 
 BAR2 EZ ES   1    813 45.86                             171   -0.60 7 22.8 197 
 BAR2 EZ I         813 47.13         5.1 0.14            171           22.8 197 
 BRR  HZ EP     C  813 32.23                             153    0.0810 74.0 298 
 BRR  HN ES        813 49.76                             153    0.4410 74.0 298 
 BRR  HZ I         813 51.96         3.3 0.12            152           74.0 298 
 PAM  SZ EP        813 33.17                             152    0.1610 76.7  38 
 PAM  SE ES   1    813 50.92                             152    0.06 7 76.7  38 
 PAM  SZ I         813 53.19         1.9 0.54            153           76.7  38 
 RUS  HZ EP   1    813 34.79                             146    0.34 7 99.3 177 
 RUS  HN ES        813 53.17                             146   -0.2410 99.3 177 
 RUS  HZ I         813 54.19         2.6 0.34            147           99.3 177 
 PTB  HZ EP   1    813 37.17                             133   -0.68 7  150 259 
 OCA  HZ EP   1    813 39.04                             131   -0.06 7  162 352 
 OCA  HN ES        814  1.96                             131    0.27 9  162 352 
 OCA  HZ I         814  6.79         2.5 0.20            131            162 352 
 SPBC HZ EP        813 39.28                             130    0.06 9  164 220 
 SPBC HE ES        814  1.88                             130   -0.02 9  164 220 
 SPBC HZ I         814  3.94         5.8 0.38            131            164 220 
 SML  HZ EP        813 46.73                             119   -0.64 8  246 335 
 SML  HE ES   1    814 16.36                             119   -0.05 6  246 335 
 SML  HZ I         814 19.22         3.7 0.35            119            246 335 
 CHI  HZ EP        813 48.41                             119    0.25 8  248 196 
 CHI  HN ES   1    814 18.50                             119    0.68 6  248 196 
 CHI  HZ I         814 23.28         0.6 0.52            120            248 196 
                                                                                
