 2017  4 7 0606 54.7 L   6.043 -73.669116.4  RSN 10 0.4 1.2LRSN                1
 GAP= 63        0.76       2.6     2.6  4.7 -0.1726E+00  0.1165E+01  0.1521E+01E
 Epicentro: VELEZ - SANTANDER                                                  3
 ACTION:UPD 17-05-30 21:09 OP:jn   STATUS:               ID:20170407060654 L   I
 OLDACT:UP  17-04-07 15:36 OP:and  STATUS:               ID:20170407055743     3
 OLDACT:UP  17-04-07 15:34 OP:and  STATUS:               ID:20170407055743     3
 OLDACT:REG 17-04-07 12:34 OP:and  STATUS:               ID:20170407055743     3
 2017-04-07-0558-00M.COL___359                                                 6
 STAT SP IPHASW D HRMM SECON CODA AMPLIT PERI AZIMU VELO AIN AR TRES W  DIS CAZ7
 SPBC HZ EP        6 7 12.33                             150    0.0210 62.1 226 
 SPBC HN ES        6 7 25.97                             150   -0.0710 62.1 226 
 SPBC HZ I         6 7 27.42         5.4 0.19            147           62.1 226 
 RUS  HZ EP        6 7 13.46                             148    0.2810 66.9 104 
 RUS  HN ES        6 7 27.21                             148   -0.3910 66.9 104 
 RUS  HZ I         6 7 29.39         1.7 0.28            148           66.9 104 
 BAR2 EZ EP        6 7 14.26                             143    0.4610 81.2  42 
 BAR2 EZ ES        6 7 28.73                             143    0.0310 81.2  42 
 BAR2 EZ I         6 7 31.11         6.5 0.22            143           81.2  42 
 PTB  HZ EP   2    6 7 14.86                             135   -0.38 5  103 302 
 PTB  HN ES        6 7 31.28                             135    0.0210  103 302 
 PTB  HZ I         6 7 32.35         1.8 0.14            134            103 302 
 BRR  HZ EP   3    6 7 16.53                             131    0.00 2  118 358 
 BRR  HN ES   2    6 7 34.40                             131    0.84 5  118 358 
 NOR  HZ EP        6 7 19.26                             125    0.23 9  143 248 
 NOR  HN ES        6 7 37.92                             125   -0.09 9  143 248 
 NOR  HZ I         6 7 39.53         2.7 0.18            123            143 248 
 CHI  HZ EP        6 7 20.84                             123   -0.01 9  156 183 
 CHI  HN ES        6 7 41.25                             123   -0.00 9  156 183 
 CHI  HZ I         6 7 44.16         1.7 0.42            121            156 183 
 ZAR  HZ EP        6 7 25.01                             115   -0.76 8  207 321 
 ZAR  HN ES   2    6 7 50.24                             115    0.23 4  207 321 
 ZAR  HZ I         6 7 54.36         2.2 0.34            114            207 321 
 PTGC HZ EP        6 7 32.16                             109   -0.22 8  266 140 
 PRA  HN ES   3    6 8  9.49                             107    2.41 2  291 208 
 PRA  HZ I         6 8 19.42         0.8 0.46            105            291 208 
                                                                                
