 2016  4 7 0133 51.6 L   6.589 -73.580106.0  RSN  6 0.4 1.1LRSN                1
 GAP=143        0.61       5.1     2.9  6.9 -0.3145E+01  0.6238E+01  0.1579E+01E
 Epicentro: EL CARMEN - SANTANDER                                              3
 ACTION:UPD 16-05-05 14:19 OP:rebc STATUS:               ID:20160407013351 L   I
 OLDACT:DUP 16-04-07 16:17 OP:dnl  STATUS:               ID:20160407012749d    3
 2016-04-07-0127-48M.COL___316                                                 6
 STAT SP IPHASW D HRMM SECON CODA AMPLIT PERI AZIMU VELO AIN AR TRES W  DIS CAZ7
 BAR2 EZ EP        134  7.66                             156    0.3910 43.9  89 
 BAR2 EZ ES        134 19.64                             156    0.1410 43.9  89 
 BAR2 EZ I         134 21.18         8.0 0.36            160           43.9  89 
 RUS  HZ EP   2    134 10.48                             135   -0.68 5 94.6 144 
 RUS  HE ES   2    134 25.85                             135   -0.58 5 94.6 144 
 RUS  HZ I         134 28.68         1.1 0.24            138           94.6 144 
 PTB  HZ EP        134 10.63                             134   -0.1010 97.1 267 
 PTB  HN ES        134 25.46                             134   -0.2010 97.1 267 
 PTB  HZ I         134 30.06         2.6 0.12            136           97.1 267 
 SPBC HZ EP   3    134 13.39                             128    0.73 2  117 208 
 SPBC HE ES   2    134 29.43                             128    0.33 5  117 208 
 SPBC HZ I         134 32.99         2.7 0.18            129            117 208 
 PAM  EZ EP   4    134 11.52                             126   -2.73 0  128  49 
 PAM  EN ES   2    134 31.60                             126   -0.32 5  128  49 
 PAM  EZ I         134 33.39         3.4 0.24            131            128  49 
 NOR  HZ EP   3    134 19.72                             115    0.30 2  182 232 
 NOR  HN ES   2    134 41.22                             115    0.08 4  182 232 
 NOR  HZ I         134 44.69         2.3 0.18            117            182 232 
                                                                                
