 2013  5 7 0750 35.3 L   6.802 -73.160148.0  RSN 13 0.4 2.4LRSN                1
 GAP=135        0.84       2.8     3.8  4.7 -0.1821E+01  0.4354E+01  0.2042E+01E
 Epicentro: LOS SANTOS - SANTANDER                                             3
 ACTION:UPD 13-06-20 09:48 OP:ep   STATUS:               ID:20130507075035 L   I
 2013-05-07-0750-00M.COL___256                                                 6
 STAT SP IPHASW D HRMM SECON CODA AMPLIT PERI AZIMU VELO AIN AR TRES W  DIS CAZ7
 BAR2 SZ EP        750 55.23                             171    0.0410 23.4 186 
 BAR2 SZ ES   1    751 10.17                             171   -0.54 7 23.4 186 
 BAR2 SZ I         751 11.85        72.4 0.14            169           23.4 186 
 GIR2 SZ IP     C  750 55.28                             168    0.0710 30.8 353 
 GIR2 SZ ES        751 10.64                             168   -0.1210 30.8 353 
 GIR2 SZ I         751 12.51        42.5 0.56            167           30.8 353 
 BRR  HZ IP     C  750 57.02                             153    0.4210 69.7 299 
 BRR  HN ES   1    751 14.34                             153    1.12 7 69.7 299 
 BRR  HZ I         751 16.85        40.7 0.32            151           69.7 299 
 PAM  SZ IP     C  750 58.02                             151    0.2310 78.2  41 
 PAM  SN ES   1    751 15.48                             151    0.14 7 78.2  41 
 PAM  SZ I         751 17.45        57.4 0.50            155           78.2  41 
 RUS  HZ IP     D  750 59.15                             144   -0.1410  101 175 
 RUS  HN ES   1    751 17.90                             144   -0.11 7  101 175 
 RUS  HZ I         751 19.14        52.9 0.30            145            101 175 
 PTB  HZ EP        751  1.77                             133   -0.53 9  146 259 
 PTB  HN ES   1    751 22.82                             133   -0.56 7  146 259 
 PTB  HZ I         751 24.94        43.7 0.38            131            146 259 
 OCA  HZ EP   1    751  3.94                             130    0.21 7  160 354 
 OCA  HN ES   1    751 25.31                             130   -0.61 7  160 354 
 OCA  HZ I         751 28.38        26.8 0.22            131            160 354 
 ZAR  HZ EP   1    751  7.72                             123    0.00 6  203 292 
 ZAR  HN ES   1    751 33.11                             123    0.09 6  203 292 
 ZAR  HZ I         751 38.51        21.0 0.22            122            203 292 
 NOR  HZ EP   1    751 11.62                             119    0.59 6  234 234 
 NOR  HE ES   1    751 38.75                             119   -0.16 6  234 234 
 NOR  HZ I         751 44.31        27.2 0.50            119            234 234 
 CHI  HZ EP        751 13.34                             118    0.25 8  248 195 
 CHI  HE ES   1    751 42.45                             118   -0.13 6  248 195 
 CHI  HZ I         751 49.29        18.5 0.38            118            248 195 
 HEL  HZ EP   1    751 16.23                             115    0.78 6  271 256 
 HEL  HN ES   1    751 46.64                             115   -0.15 6  271 256 
 HEL  HZ I         751 54.08        14.8 0.30            115            271 256 
 URE  HZ EP   4    751 14.97                             114   -1.32 0  282 292 
 URE  HN ES   4    751 46.39                             114   -1.89 0  282 292 
 COD  HZ EP   1    751 23.39                             109   -0.31 5  348 355 
 COD  HN ES   1    752  0.55                             109   -0.92 5  348 355 
 COD  HZ I         752  5.31         5.5 0.48            110            348 355 
 PRA  HZ EP        751 28.47                             107   -0.35 6  391 209 
 PRA  HN ES   1    752 10.43                             107   -0.15 4  391 209 
 PRA  HZ I         752 17.32        15.7 0.42            107            391 209 
 SJC  HZ EP   4    751 29.38                             106   -1.41 0  408 327 
 SJC  HN ES   4    752 10.45                             106   -3.64 0  408 327 
                                                                                
