 2014  1 7 0842 48.7 L   6.802 -73.177147.5  RSN 10 0.5 1.7LRSN                1
 GAP=133        1.24       3.5     5.6  7.5 -0.5910E+01  0.1607E+02 -0.6767E+00E
 Epicentro: LOS SANTOS - SANTANDER                                             3
 ACTION:UPD 14-03-13 09:52 OP:ep   STATUS:               ID:20140107084248 L   I
 OLDACT:DUP 14-01-07 11:48 OP:carl STATUS:               ID:20140107084001d    3
 2014-01-07-0840-00M.COL___285                                                 6
 STAT SP IPHASW D HRMM SECON CODA AMPLIT PERI AZIMU VELO AIN AR TRES W  DIS CAZ7
 BAR2 SZ EP        843  8.31                             171   -0.2110 23.2 181 
 BAR2 SZ ES        843 24.57                             171    0.5810 23.2 181 
 BAR2 SZ I         843 24.69        11.6 0.26            170           23.2 181 
 PAM  SZ EP        843 11.28                             150    0.0710 79.5  42 
 PAM  SE ES        843 28.69                             150   -0.0910 79.5  42 
 PAM  SZ I         843 30.74         6.5 0.66            154           79.5  42 
 RUS  HZ EP        843 12.28                             144   -0.3610  101 174 
 RUS  HN ES        843 31.10                             144   -0.2310  101 174 
 RUS  HZ I         843 33.75         3.1 0.28            145            101 174 
 PTB  HZ EP        843 15.36                             133   -0.13 9  144 258 
 PTB  HN ES        843 35.67                             133   -0.73 9  144 258 
 OCA  HN ES        843 40.22                             130    1.00 9  160 354 
 OCA  HN I         843 43.78        35.4 0.26            132            160 354 
 SPBC HZ EP        843 17.37                             130    0.24 9  161 218 
 SPBC HN ES        843 38.69                             130   -0.62 9  161 218 
 SPBC HZ I         843 44.49        12.9 0.78            131            161 218 
 NOR  HZ EP        843 24.36                             119    0.13 8  232 234 
 NOR  HE ES        843 52.22                             119    0.27 8  232 234 
 NOR  HZ I         843 59.96         4.4 0.54            120            232 234 
 SML  HZ EP        843 24.37                             118   -0.86 8  242 336 
 SML  HN ES        843 53.24                             118   -0.50 8  242 336 
 CHI  HZ EP        843 26.43                             117    0.02 8  248 194 
 CHI  HN ES        843 55.92                             117    0.09 8  248 194 
 CHI  HZ I         844  1.23         1.3 0.28            119            248 194 
 GUY2CHZ EP        843 33.19                             113    1.12 7  298 234 
 GUY2CHN ES        844  6.71                             113    0.80 7  298 234 
                                                                                
