 2011  5 7 0220 58.1 L   6.759 -73.126151.9  RSN  5 0.1 1.5LRSN                1
 GAP=161        0.35       2.8     5.6  5.0 -0.7115E+01  0.9395E+00 -0.1226E+01E
 Epicentro: LOS SANTOS - SANTANDER                                             3
 ACTION:UP  11-06-29 08:51 OP:tino STATUS:               ID:20110507022058 L   I
 2011-05-07-0217-26S.COL___133                                                 6
 STAT SP IPHASW D HRMM SECON CODA AMPLIT PERI AZIMU VELO SNR AR TRES W  DIS CAZ7
 BAR2 SZ EP   1    221 18.35                             172    -0.1 8   20 199 
 BAR2 SZ ES   2    221 34.57                             172     0.3 5   20 199 
 BAR2 SZ I         221 35.13         7.1 0.78                            20 199 
 BTL  SZ EP   1    221 18.53                             171     0.0 8   24 318 
 BRR  HZ EP   1    221 20.30                             152     0.1 8   75 301 
 BRR  HZ I         221 20.55         9.0 0.17                            75 301 
 BRR  HN ES   2    221 37.20                             152    -0.2 5   75 301 
 RUS  HN ES   2    221 40.81                             146    -0.1 5   96 177 
 RUS  HZ I         221 41.42         3.4 0.53                            96 177 
 GRA  SZ EP   1    221 24.26                             137     0.0 7  129  16 
 GRA  SZ ES        221 44.55                             137     0.010  129  16 
 GRA  SZ I         221 45.22         2.8 0.56                           129  16 
                                                                                
