 2013  8 7 0754 44.3 L   6.895 -73.227135.6  RSN 11 0.5 2.0LRSN                1
 GAP=122        1.15       3.7     5.0  7.3 -0.1886E+01  0.1124E+02 -0.1810E+01E
 Epicentro: BETULIA - SANTANDER                                                3
 ACTION:UPD 14-01-14 08:59 OP:ep   STATUS:               ID:20130807075444 L   I
 OLDACT:UP  13-08-07 12:22 OP:carl STATUS:               ID:20130807074960d    3
 OLDACT:DUP 13-08-07 12:15 OP:carl STATUS:               ID:20130807074960d    3
 2013-08-07-0749-59M.COL___270                                                 6
 STAT SP IPHASW D HRMM SECON CODA AMPLIT PERI AZIMU VELO AIN AR TRES W  DIS CAZ7
 GIR2 SZ EP        755  2.53                             171    0.0610 20.7  10 
 GIR2 SZ ES   1    755 16.22                             171   -0.46 7 20.7  10 
 GIR2 SZ I         755 18.11        26.5 0.46            169           20.7  10 
 BAR2 SZ EP        755  3.15                             165    0.2010 33.8 172 
 BAR2 SZ ES   1    755 17.71                             165    0.19 7 33.8 172 
 BAR2 SZ I         755 18.29        50.7 0.16            166           33.8 172 
 BRR  HZ IP     D  755  3.91                             155    0.2910 58.5 294 
 BRR  HN ES   1    755 19.44                             155    0.73 7 58.5 294 
 PAM  SZ EP        755  5.61                             149    0.2710 76.3  50 
 PAM  SN ES   1    755 22.37                             149    0.60 7 76.3  50 
 PAM  SZ I         755 23.45        11.7 0.34            154           76.3  50 
 RUS  HZ EP        755  7.88                             138   -0.0410  112 172 
 RUS  HN ES   1    755 25.95                             138   -0.42 7  112 172 
 RUS  HZ I         755 27.76         7.0 0.24            141            112 172 
 PTB  HZ EP   1    755  9.09                             131   -0.75 7  141 254 
 PTB  HN ES   1    755 28.73                             131   -1.05 7  141 254 
 PTB  HZ I         755 34.10        21.0 0.28            130            141 254 
 OCA  HZ EP   1    755 10.33                             129   -0.40 7  149 356 
 OCA  HN ES   1    755 30.45                             129   -0.91 7  149 356 
 OCA  HZ I         755 35.71        13.7 0.54            131            149 356 
 SPBC HZ EP        755 12.48                             126    0.18 9  166 214 
 SPBC HN ES        755 33.65                             126   -0.52 9  166 214 
 SPBC HZ I         755 41.61         9.3 0.52            127            166 214 
 ZAR  HZ EP        755 15.77                             122    0.98 9  192 290 
 ZAR  HN ES   1    755 39.23                             122    0.63 7  192 290 
 ZAR  HZ I         755 43.26        15.5 0.36            122            192 290 
 SML  HZ EP   1    755 18.28                             117   -0.61 6  230 336 
 SML  HN ES        755 45.32                             117   -0.57 8  230 336 
 SML  HZ I         755 51.86        19.7 0.10            118            230 336 
 HEL  HZ EP   1    755 23.57                             113    0.25 6  266 253 
 HEL  HN ES   1    755 54.40                             113    0.62 6  266 253 
 HEL  HZ I         756  1.77         6.2 0.44            114            266 253 
                                                                                
