 2016  7 7 0958 59.9 L   6.754 -73.207140.9  RSN  7 0.5 1.5LRSN                1
 GAP=226        1.32       6.9     7.2  8.8  0.2204E+02  0.1957E+02  0.1214E+02E
 Epicentro: ZAPATOCA - SANTANDER                                               3
 ACTION:UPD 17-03-29 16:48 OP:lp   STATUS:               ID:20160707095859 L   I
 OLDACT:UP  16-07-07 19:33 OP:dani STATUS:               ID:20160707094743     3
 OLDACT:UP  16-07-07 19:32 OP:dani STATUS:               ID:20160707094743     3
 OLDACT:REG 16-07-07 13:41 OP:dani STATUS:               ID:20160707094743     3
 2016-07-07-0947-43M.COL___316                                                 6
 STAT SP IPHASW D HRMM SECON CODA AMPLIT PERI AZIMU VELO AIN AR TRES W  DIS CAZ7
 BAR2 EZ EP        959 18.10                             173   -0.7710 18.1 171 
 BAR2 EZ ES        959 33.70                             173    0.0510 18.1 171 
 BAR2 EZ I         959 34.88        11.0 0.18            171           18.1 171 
 BRR  HZ EP        959 20.03                             153   -0.3510 68.1 305 
 BRR  HE ES        959 37.23                             153    0.9010 68.1 305 
 BRR  HZ I         959 38.77         8.3 0.26            151           68.1 305 
 RUS  HZ EP        959 23.60                             144    0.7110 96.2 172 
 RUS  HE ES        959 40.27                             144   -0.5210 96.2 172 
 RUS  HZ I         959 42.05         4.4 0.34            145           96.2 172 
 PTB  HZ EP        959 25.29                             132   -0.52 9  140 260 
 PTB  HE ES        959 45.82                             132   -0.18 9  140 260 
 PTB  HZ I         959 50.30         2.7 0.26            131            140 260 
 ZAR  HZ EP        959 32.01                             122    0.39 9  200 294 
 ZAR  HE ES        959 56.11                             122   -0.23 9  200 294 
 ZAR  HZ I        10 0  3.15         2.6 0.12            122            200 294 
 CHI  HZ EP        959 37.34                             117    0.71 8  242 194 
 CHI  HN ES   2   10 0  5.97                             117    0.71 4  242 194 
 CHI  HZ I        10 0  8.15         3.5 0.22            118            242 194 
 GUY2CHN ES       10 0 15.29                             112   -0.15 7  293 235 
                                                                                
