 2015  7 7 0719 20.1 L   6.855 -73.082137.2  RSN  5 0.4 1.5LRSN                1
 GAP=190        0.88       4.4     7.4  9.2  0.6387E+01  0.2576E+02 -0.6017E+01E
 Epicentro: LOS SANTOS - SANTANDER                                             3
 ACTION:UPD 15-09-08 21:47 OP:cam  STATUS:               ID:20150707071920 L   I
 OLDACT:UP  15-07-07 18:27 OP:spq  STATUS:               ID:20150707071746d    3
 OLDACT:DUP 15-07-07 18:08 OP:spq  STATUS:               ID:20150707071746d    3
 2015-07-07-0717-45M.COL___324                                                 6
 STAT SP IPHASW D HRMM SECON CODA AMPLIT PERI AZIMU VELO AIN AR TRES W  DIS CAZ7
 BAR2 EZ ES   1    719 53.84                             167    0.25 8 31.1 201 
 BAR2 EZ I         719 54.86        10.2 0.22            165           31.1 201 
 RUS  HZ EP   1    719 43.31                             140   -0.19 8  106 180 
 RUS  HN ES   1    720  1.57                             140   -0.16 8  106 180 
 RUS  HZ I         720  2.39         3.2 0.28            144            106 180 
 OCA  HZ EP   1    719 46.53                             129   -0.78 7  155 350 
 OCA  HN ES        720  8.77                             129    0.2610  155 350 
 OCA  HZ I         720 12.01         6.2 0.32            130            155 350 
 ZAR  HZ EP        719 52.95                             120    0.46 9  208 290 
 ZAR  HE ES        720 17.27                             120   -0.47 9  208 290 
 ZAR  HZ I         720 25.54         3.0 0.26            120            208 290 
 HEL  HZ EP   1    720  1.54                             112    0.68 6  280 255 
                                                                                
