 2013  7 7 0942 30.9 L   6.797 -73.174146.6  RSN 15 0.4 2.4LRSN                1
 GAP= 63        1.02       2.8     3.4  5.4 -0.1273E+01  0.7520E+00  0.5416E+00E
 Epicentro: LOS SANTOS - SANTANDER                                             3
 ACTION:UPD 13-08-12 10:36 OP:ep   STATUS:               ID:20130707094231 L   I
 OLDACT:UP  13-07-08 12:00 OP:ep   STATUS:               ID:20130707094231 L   3
 OLDACT:UP  13-07-08 12:00 OP:ep   STATUS:               ID:20130707094231 L   3
 OLDACT:UP  13-07-08 05:44 OP:CF   STATUS:               ID:20130707094231 L   3
 OLDACT:REG 13-07-07 07:54 OP:stll STATUS:               ID:20130707093850     3
 2013-07-07-0938-50M.COL___224                                                 6
 STAT SP IPHASW D HRMM SECON CODA AMPLIT PERI AZIMU VELO AIN AR TRES W  DIS CAZ7
 BAR2 SZ EP        942 50.80                             171    0.1510 22.7 182 
 BAR2 SZ ES        943  5.55                             171   -0.4810 22.7 182 
 BAR2 SZ I         943  8.29        28.0 0.46            171           22.7 182 
 GIR2 SZ EP        942 50.85                             167    0.1510 31.2 356 
 BRR  HZ EP        942 52.64                             154    0.6210 68.6 300 
 BRR  HN ES        943  9.49                             154    1.0110 68.6 300 
 BRR  HN I         943 10.12        70.0 0.20            144           68.6 300 
 PAM  SZ EP        942 53.66                             150    0.2910 79.7  41 
 PAM  SZ I         942 53.94        30.2 0.24            145           79.7  41 
 PAM  SN ES        943 10.72                             150   -0.1510 79.7  41 
 RUS  HZ EP        942 54.73                             144   -0.0310  101 174 
 RUS  HN ES        943 13.26                             144   -0.0910  101 174 
 RUS  HN I         943 14.85        46.0 0.28            141            101 174 
 GRA  SZ EP        942 56.13                             137   -0.2210  127  19 
 PTB  HZ EP        942 57.45                             133   -0.23 9  145 259 
 PTB  HN ES        943 18.45                             133   -0.10 9  145 259 
 PTB  HN I         943 21.15        32.9 0.22            125            145 259 
 CAPV BZ EP        942 58.61                             132    0.02 9  151  39 
 TAM  HZ IP     D  942 59.01                             130    0.06 9  158 105 
 OCA  HN ES        943 20.66                             130   -0.77 9  160 354 
 OCA  HN I         943 24.26        54.8 0.42            122            160 354 
 YOP  SN ES        943 24.43                             126   -0.28 9  180 152 
 ZAR  HE ES   4    943 30.00                             123    1.73 0  201 293 
 SML  HZ EP        943  7.54                             118    0.05 8  243 336 
 SML  HE I         943 42.39        22.5 0.28            111            243 336 
 CHI  HZ EP        943  8.75                             117    0.20 8  248 194 
 CHI  HN ES        943 38.27                             117    0.37 8  248 194 
 CHI  HN I         943 42.28        12.4 0.28            113            248 194 
 HEL  HZ EP   4    943 12.54                             115    1.70 0  269 256 
 HEL  HN ES        943 41.29                             115   -0.67 8  269 256 
 HEL  HN I         943 49.30         8.3 0.20            110            269 256 
 GUY2CHZ EP   4    943 15.86                             113    1.60 0  298 234 
 GUY2CHN ES        943 47.69                             113   -0.38 7  298 234 
 GUY2CHN I         943 59.70         8.5 0.44                           298 234 
 SOCV BZ EP   4    943 13.18                             112   -1.15 0  304  57 
                                                                                
