 2012  5 7 0645 37.0 L   6.794 -73.116141.0  RSN  4 0.1 0.9LRSN                1
 GAP=141        0.36       3.2     4.9  6.5  0.3594E+01 -0.1703E+02 -0.7291E+00E
 Epicentro: LOS SANTOS - SANTANDER                                             3
 ACTION:UP  12-07-05 12:03 OP:pat  STATUS:               ID:20120507064537 L   I
 2012-05-07-0640-00M.COL___173                                                 6
 STAT SP IPHASW D HRMM SECON CODA AMPLIT PERI AZIMU VELO SNR AR TRES W  DIS CAZ7
 BRR  HZ EP        645 57.69                             151    -0.110   74 298 
 BRR  HN ES   1    646 14.12                             151     0.1 7   74 298 
 BRR  HZ I         646 21.03         1.6 0.30                            74 298 
 PAM  SZ EP        645 58.60                             150     0.010   76  37 
 PAM  SZ I         645 58.72         2.3 0.18                            76  37 
 RUS  HZ EP        646  0.27                             143     0.110  100 178 
 RUS  HN ES   2    646 18.13                             143    -0.2 5  100 178 
 RUS  HZ I         646 21.11         1.0 0.66                           100 178 
 PTB  HZ EP   3    646  3.85                             130     0.0 2  151 259 
 PTB  HZ I         646  9.19         0.6 0.38                           151 259 
                                                                                
