 2015  6 7 0933 54.0 L   6.367 -73.698 98.1  RSN  6 0.3 1.4LRSN                1
 GAP=141        0.83       3.1     3.8  7.7 -0.5074E+01  0.1779E+02 -0.1006E+02E
 Epicentro: SANTA HELENA DEL OPON - SANTANDER                                  3
 ACTION:UPD 15-09-10 22:10 OP:cam  STATUS:               ID:20150607093354 L   I
 OLDACT:REG 15-06-07 14:58 OP:ak   STATUS:               ID:20150607092750     3
 2015-06-07-0927-50M.COL___303                                                 6
 STAT SP IPHASW D HRMM SECON CODA AMPLIT PERI AZIMU VELO AIN AR TRES W  DIS CAZ7
 BAR2 EZ EP        934 10.08                             145    0.1010 62.2  66 
 BAR2 EZ ES        934 22.56                             145    0.1410 62.2  66 
 BAR2 EZ I         934 23.95        12.2 0.13            150           62.2  66 
 SPBC HZ EP        934 12.00                             135    0.0710 89.3 208 
 SPBC HN ES        934 25.59                             135   -0.2910 89.3 208 
 SPBC HZ I         934 29.18         6.7 0.30            141           89.3 208 
 ZAR  HZ EP        934 21.50                             114    0.49 9  179 314 
 ZAR  HN ES        934 41.54                             114   -0.51 9  179 314 
 ZAR  HZ I         934 47.26         3.6 0.44            116            179 314 
 HEL  HZ EP        934 24.63                             112    0.33 9  203 265 
 HEL  HN ES        934 48.23                             112    0.34 9  203 265 
 GUY2CHZ EP        934 26.08                             110   -0.69 8  224 236 
 GUY2CHE ES        934 52.53                             110    0.24 8  224 236 
 GUY2CHZ I         934 59.46         1.1 0.44                           224 236 
 SML  HZ EP        934 31.50                             106   -0.38 8  272 351 
 SML  HN ES        935  1.45                             106    0.05 8  272 351 
 SML  HZ I         935 10.37         1.8 0.10            106            272 351 
                                                                                
