 2013 11 7 0045 22.9 L   6.778 -73.155144.4  RSN  9 0.4 1.8LRSN                1
 GAP=136        1.06       4.2     4.9  7.1 -0.4629E+01  0.7160E+01  0.1078E+01E
 Epicentro: LOS SANTOS - SANTANDER                                             3
 ACTION:UPD 14-01-09 16:26 OP:ep   STATUS:               ID:20131107004522 L   I
 OLDACT:DUP 13-11-07 06:45 OP:j    STATUS:               ID:20131107004001d    3
 OLDACT:REG 13-11-07 06:16 OP:jn   STATUS:               ID:20131107004000     3
 2013-11-07-0040-00M.COL___273                                                 6
 STAT SP IPHASW D HRMM SECON CODA AMPLIT PERI AZIMU VELO AIN AR TRES W  DIS CAZ7
 BAR2 SZ EP        045 42.55                             171    0.1810 20.8 188 
 BAR2 SZ ES        045 57.53                             171    0.0110 20.8 188 
 BAR2 SZ I         045 58.94        37.2 0.16            169           20.8 188 
 BRR  HZ EP        045 44.30                             152    0.3310 71.5 301 
 BRR  HN ES        046  1.16                             152    0.7910 71.5 301 
 BRR  HZ I         046  3.97         8.7 0.30            151           71.5 301 
 PAM  SZ EP        045 45.43                             150    0.2510 79.9  39 
 PAM  SN ES        046  2.00                             150   -0.5210 79.9  39 
 PAM  SZ I         046  3.19         6.1 0.16            155           79.9  39 
 RUS  HZ EP        045 46.45                             144    0.0510 98.2 175 
 RUS  HN ES        046  4.44                             144   -0.2510 98.2 175 
 RUS  HZ I         046  6.31         4.5 0.28            145           98.2 175 
 PTB  HZ EP        045 49.32                             132   -0.35 9  146 260 
 PTB  HN ES        046 10.30                             132   -0.22 9  146 260 
 PTB  HZ I         046 14.94         7.5 0.18            131            146 260 
 SPBC HZ EP        045 51.63                             129    0.53 9  161 219 
 SPBC HN ES        046 12.73                             129   -0.33 9  161 219 
 SPBC HZ I         046 17.68         7.1 0.20            129            161 219 
 NOR  HE ES   1    046 25.63                             118   -0.34 6  232 235 
 NOR  HZ I         046 32.15         5.9 0.52            119            232 235 
 SML  HE ES   1    046 27.23                             117   -1.12 6  245 336 
 GUY2CHN ES   4    046 41.28                             112    1.27 0  299 235 
 GUY2CHZ I         046 49.11         5.4 0.36                           299 235 
                                                                                
