 2013  8 7 0752 23.4 L   6.812 -73.156144.8  RSN 10 0.4 1.9LRSN                1
 GAP=135        0.91       3.4     4.6  6.3 -0.3390E+00  0.8941E+01  0.2046E+01E
 Epicentro: LOS SANTOS - SANTANDER                                             3
 ACTION:UPD 14-01-14 08:59 OP:ep   STATUS:               ID:20130807075223 L   I
 OLDACT:REG 13-08-07 07:36 OP:carl STATUS:               ID:20130807074959     3
 2013-08-07-0749-59M.COL___270                                                 6
 STAT SP IPHASW D HRMM SECON CODA AMPLIT PERI AZIMU VELO AIN AR TRES W  DIS CAZ7
 BAR2 SZ EP        752 43.02                             170    0.1010 24.5 187 
 BAR2 SZ ES   1    752 57.82                             170   -0.34 7 24.5 187 
 BAR2 SZ I         752 59.40        13.3 0.18            168           24.5 187 
 GIR2 SZ EP        752 43.30                             168    0.4010 29.8 352 
 GIR2 SZ ES        752 57.92                             168   -0.2110 29.8 352 
 GIR2 SZ I         752 59.73       136.7 1.18            167           29.8 352 
 BRR  HZ EP        752 44.86                             153    0.5210 69.6 298 
 BRR  HN ES   1    753  1.72                             153    1.04 7 69.6 298 
 BRR  HN I         753  5.01        23.6 0.16            150           69.6 298 
 PAM  SZ EP   1    752 45.93                             151    0.45 7 77.1  41 
 PAM  SE ES        753  2.40                             151   -0.3110 77.1  41 
 PAM  SZ I         753  4.90         6.4 0.44            156           77.1  41 
 RUS  HZ EP        752 46.99                             143   -0.1510  102 175 
 RUS  HN ES   1    753  5.55                             143   -0.13 7  102 175 
 RUS  HN I         753  7.11        10.1 0.36            145            102 175 
 PTB  HZ EP        752 49.66                             132   -0.54 9  147 258 
 PTB  HN ES   1    753 10.75                             132   -0.37 7  147 258 
 PTB  HZ I         753 14.01         5.1 0.14            131            147 258 
 OCA  HE ES   1    753 13.29                             130   -0.11 7  159 353 
 SPBC HZ EP   1    752 51.87                             129    0.03 7  164 218 
 SPBC HN ES   1    753 14.15                             129    0.11 7  164 218 
 SPBC HZ I         753 20.22         5.8 0.16            129            164 218 
 ZAR  HN ES   1    753 20.80                             122    0.06 6  203 292 
 ZAR  HN I         753 28.24         9.5 0.28            123            203 292 
 SML  HN ES        753 27.67                             117   -0.49 8  242 335 
                                                                                
