 2015  2 7 0645 33.6 L   6.845 -73.141149.3  RSN 22 0.7 2.4LRSN                1
 GAP= 52        1.65       3.5     4.4  6.7 -0.4867E+01  0.5846E+01 -0.4951E+00E
 Epicentro: LOS SANTOS - SANTANDER                                             3
 ACTION:UPD 15-04-30 21:23 OP:nd   STATUS:               ID:20150207064533 L   I
 OLDACT:REG 15-02-07 12:38 OP:stll STATUS:               ID:20150207063742     3
 2015-02-07-0637-42M.COL___290                                                 6
 STAT SP IPHASW D HRMM SECON CODA AMPLIT PERI AZIMU VELO AIN AR TRES W  DIS CAZ7
 BAR2 EZ EP        645 53.98                             169    0.2210 28.3 189 
 BAR2 EZ ES        646  9.27                             169   -0.2110 28.3 189 
 BAR2 EZ I         646 10.12        38.2 0.24            169           28.3 189 
 BRR  HZ IP     D  645 55.87                             153    0.8410 69.4 295 
 BRR  HE ES        646 12.05                             153    0.3010 69.4 295 
 BRR  HZ I         646 15.81        23.0 0.16            152           69.4 295 
 PAM  SZ IP     D  645 56.72                             152    0.7710 73.3  42 
 PAM  SZ I         645 57.07        76.2 0.22            153           73.3  42 
 PAM  SN ES        646 13.42                             152    0.0310 73.3  42 
 RUS  HZ IP     C  645 57.82                             143   -0.2310  106 177 
 RUS  HZ I         645 58.90        12.1 0.28            143            106 177 
 RUS  HN ES        646 16.33                             143   -0.7910  106 177 
 PTB  HZ EP        646  0.62                             132   -0.37 9  149 257 
 PTB  HN ES        646 21.39                             132   -0.97 9  149 257 
 PTB  HZ I         646 29.65        32.9 0.32            132            149 257 
 OCA  HZ EP        646  1.84                             130    0.11 9  155 353 
 OCA  HN ES        646 23.85                             130    0.18 9  155 353 
 OCA  HZ I         646 32.46        29.8 0.30            131            155 353 
 TAM  HZ EP        646  2.12                             131    0.49 9  156 107 
 TAM  HZ I         646 22.86        15.8 0.40            132            156 107 
 TAM  HN ES        646 23.18                             131   -0.32 9  156 107 
 SPBC HZ EP        646  2.85                             128    0.09 9  167 218 
 SPBC HE ES        646 25.44                             128   -0.07 9  167 218 
 SPBC HZ I         646 32.67        41.7 0.28            129            167 218 
 NOR  HZ EP        646  9.87                             118   -0.02 8  238 234 
 NOR  HN ES        646 37.77                             118   -0.43 8  238 234 
 NOR  HZ I         646 42.27        19.3 0.22            118            238 234 
 SML  HZ EP        646  9.98                             118    0.02 8  239 335 
 SML  HN ES        646 38.76                             118    0.44 8  239 335 
 SML  HZ I         646 46.72        53.4 0.28            118            239 335 
 CHI  HZ EP        646 12.03                             117    0.00 8  254 195 
 CHI  HZ I         646 13.55         8.0 0.42            117            254 195 
 CHI  HN ES        646 40.85                             117   -1.15 8  254 195 
 ROSC BZ EP        646 12.48                             116    0.08 8  257 211 
 ROSC BE ES        646 43.42                             116    0.75 8  257 211 
 ROSC BZ I         646 49.77        25.6 0.50            117            257 211 
 HEL  HZ EP        646 15.46                             115    1.28 8  274 255 
 HEL  HE ES        646 44.67                             115   -1.17 8  274 255 
 HEL  HZ I         646 55.23         7.0 0.28            115            274 255 
 SOCV BZ IP   9 D  646 16.51                             113    0.06 0  298  58 
 SOCV BE ES        646 48.99                                   -0.95 7  298  58 
 GUY2CHZ EP        646 18.14                             112    0.40 7  305 234 
 GUY2CHE ES        646 52.63                             112    0.46 7  305 234 
 GUY2CHZ I         647  0.57        14.2 0.34                           305 234 
 PTGC HZ EP   9    646 16.81                             111   -1.31 0  313 159 
 PTGC HN ES        646 48.73                                   -2.81 7  313 159 
 TOL  SZ EP        646 23.24                             109    0.80 6  347 224 
 TOL  SE ES        647  0.49                             109   -0.06 6  347 224 
 ARGC HZ EP        646 23.97                             109    1.11 6  355 340 
 ARGC HN ES        647  1.14                             109   -0.15 6  355 340 
 SDV  BZ EP        646 23.15                             109   -0.21 6  357  51 
 SDV  BZ I         646 24.10         9.8 0.30            109            357  51 
 SDV  BE ES        647  0.65                             109   -1.52 6  357  51 
 ANIL HZ EP        646 24.72                             108    0.73 6  361 224 
 ANIL HE ES        647  3.95                             108    0.65 6  361 224 
 ANIL HZ I         647  8.02         3.9 0.30            109            361 224 
 ORTC HZ EP        646 28.09                             106   -0.05 6  400 216 
 ORTC HN ES        647 10.44                             106   -0.25 6  400 216 
 ORTC HZ I         647 18.52         8.1 0.70            106            400 216 
 CRJC HZ EP        646 33.97                             104   -1.63 5  463   4 
 CRJC HN ES        647 21.58                             104   -2.38 5  463   4 
                                                                                
