 2012  1 7 0208 52.3 L   6.763 -73.099146.8  RSN  7 0.3 1.7LRSN                1
 GAP=144        0.51       3.5     4.5  4.4  0.1196E+01  0.3792E+00  0.2155E+01E
 Epicentro: LOS SANTOS - SANTANDER                                             3
 ACTION:UP  12-02-03 08:14 OP:REBC STATUS:               ID:20120107020852 L   I
 2012-01-07-0200-00M.COL___186                                                 6
 STAT SP IPHASW D HRMM SECON CODA AMPLIT PERI AZIMU VELO SNR AR TRES W  DIS CAZ7
 BAR2 SZ EP        2 9 11.82                             171    -0.210   21 206 
 BAR2 SZ ES   1    2 9 27.36                             171     0.0 7   21 206 
 BAR2 SZ I         2 9 29.42        15.3 0.36                            21 206 
 GIR2 SZ EP   2    2 9 12.07                             165    -0.1 5   37 343 
 GIR2 SZ ES   2    2 9 27.89                             165     0.1 5   37 343 
 PAM  SZ EP   1    2 9 14.71                             151     0.1 7   78  35 
 PAM  SE ES   2    2 9 31.66                             151    -0.4 5   78  35 
 BRR  HZ EP        2 9 13.93                             150     0.010   78 299 
 BRR  HN ES   1    2 9 31.17                             150     0.4 7   78 299 
 BRR  HZ I         2 9 32.40        10.3 0.13                            78 299 
 RUS  HZ EP   1    2 9 15.82                             145     0.0 7   96 179 
 RUS  HZ I         2 9 16.97         4.1 0.13                            96 179 
 RUS  HN ES   1    2 9 34.12                             145    -0.1 7   96 179 
 PTB  HZ EP   2    2 9 19.41                             131    -0.3 5  152 261 
 PTB  HE ES   2    2 9 40.53                             131    -0.6 5  152 261 
 CHI  HZ EP   1    2 9 30.19                             118     0.4 6  246 197 
                                                                                
