 2015  5 7 0228  3.7 L   6.760 -73.034140.2  RSN  5 0.3 1.8LRSN                1
 GAP=168        0.74       4.2     5.1  6.0 -0.8522E+01 -0.1243E+00  0.1174E+02E
 Epicentro: CEPITA - SANTANDER                                                 3
 ACTION:UPD 15-09-10 22:02 OP:cam  STATUS:               ID:20150507022803 L   I
 OLDACT:REG 15-05-07 12:45 OP:drio STATUS:               ID:20150507021747     3
 2015-05-07-0217-47M.COL___285                                                 6
 STAT SP IPHASW D HRMM SECON CODA AMPLIT PERI AZIMU VELO AIN AR TRES W  DIS CAZ7
 BAR2 EZ EP        228 22.54                             170   -0.1310 24.8 221 
 BAR2 EZ ES        228 37.38                             170   -0.1010 24.8 221 
 BAR2 EZ I         228 38.66        24.4 0.22            170           24.8 221 
 PAM  SZ EP        228 25.45                             151    0.3610 74.0  30 
 PAM  SN ES        228 41.97                             151    0.1710 74.0  30 
 PAM  SZ I         228 44.75        13.7 0.48            152           74.0  30 
 BRR  HZ EP        228 24.60                             147   -0.4310 84.2 297 
 BRR  HN ES        228 41.61                             147   -0.0810 84.2 297 
 BRR  HZ I         228 42.27        18.0 0.40            151           84.2 297 
 CHI  HZ EP        228 40.78                             116   -0.22 8  248 198 
 CHI  HN ES        229 10.10                             116   -0.01 8  248 198 
 CHI  HZ I         229 13.23         2.9 0.52            117            248 198 
 GUY2CHE ES        229 23.12                             111    0.71 7  309 237 
 GUY2CHZ I         229 25.58         2.3 0.28                           309 237 
                                                                                
