 2015  2 7 0608 47.7 L   6.310 -73.183169.8  RSN  5 0.5 1.5LRSN                1
 GAP=166        1.26       7.6     8.3  9.3  0.3886E+01  0.9118E+01  0.8714E+00E
 Epicentro: CHARALA - SANTANDER                                                3
 ACTION:UPD 15-04-30 21:23 OP:nd   STATUS:               ID:20150207060847 L   I
 OLDACT:DUP 15-02-07 19:46 OP:stll STATUS:               ID:20150207055737d    3
 2015-02-07-0557-36M.COL___293                                                 6
 STAT SP IPHASW D HRMM SECON CODA AMPLIT PERI AZIMU VELO AIN AR TRES W  DIS CAZ7
 BAR2 EZ EP        6 9 10.13                             169   -0.2110 31.2   0 
 BAR2 EZ ES        6 9 27.55                             169   -0.4910 31.2   0 
 BAR2 EZ I         6 9 29.80         7.9 0.34            169           31.2   0 
 RUS  HZ EP        6 9 11.19                             164    0.0110 47.4 167 
 RUS  HZ I         6 9 11.58         3.2 0.28            164           47.4 167 
 RUS  HN ES        6 9 29.48                             164   -0.0610 47.4 167 
 BRR  HZ EP        6 9 14.01                             147    0.5310  106 326 
 BRR  HZ I         6 9 14.02         3.1 0.16            147            106 326 
 BRR  HN ES        6 9 34.32                             147    0.7010  106 326 
 SPBC HZ EP        6 9 14.81                             143    0.0310  122 234 
 SPBC HZ I         6 9 16.53         5.1 0.18            143            122 234 
 SPBC HE ES        6 9 36.63                             143    0.6910  122 234 
 PTB  HZ EP        6 9 15.80                             138   -0.50 9  143 280 
 PTB  HN ES        6 9 37.85                             138   -0.79 9  143 280 
                                                                                
