 2016 10 7 0752  1.0 L   6.785 -73.127144.8  RSN 14 0.5 2.1LRSN                1
 GAP=121        0.98       2.8     3.5  5.2 -0.1916E+01  0.4378E+01  0.1403E+01E
 Epicentro: LOS SANTOS - SANTANDER                                             3
 ACTION:UPD 16-11-09 19:17 OP:rebc STATUS:               ID:20161007075201 L   I
 OLDACT:REG 16-10-07 12:56 OP:dnl  STATUS:               ID:20161007074741     3
 2016-10-07-0748-00M.COL___342                                                 6
 STAT SP IPHASW D HRMM SECON CODA AMPLIT PERI AZIMU VELO AIN AR TRES W  DIS CAZ7
 BAR2 EZ EP        752 20.58                             171    0.1010 22.2 196 
 BAR2 EZ ES        752 35.45                             171   -0.2310 22.2 196 
 BAR2 EZ I         752 36.84        60.3 0.18            170           22.2 196 
 BRR  HZ EP        752 22.41                             152    0.2210 73.8 299 
 BRR  HN ES        752 39.38                             152    0.6610 73.8 299 
 BRR  HZ I         752 42.55        12.6 0.18            150           73.8 299 
 PAM  EZ EP        752 23.41                             151    0.3110 77.4  38 
 PAM  EE ES        752 40.57                             151    0.2210 77.4  38 
 PAM  EZ I         752 42.57        25.1 0.46            154           77.4  38 
 RUS  HZ EP   2    752 24.49                             144   -0.03 5 98.8 177 
 RUS  HE ES        752 43.13                             144    0.2610 98.8 177 
 RUS  HZ I         752 44.24        23.4 0.32            145           98.8 177 
 PTB  HZ EP        752 27.56                             132   -0.48 9  149 260 
 PTB  HE ES        752 48.56                             132   -0.57 9  149 260 
 PTB  HZ I         752 50.70        15.7 0.26            131            149 260 
 OCA  HZ EP        752 29.38                             129   -0.03 9  162 352 
 OCA  HE ES        752 50.63                             129   -0.94 9  162 352 
 OCA  HZ I         752 54.84        47.1 0.16            130            162 352 
 SPBC HZ EP        752 29.41                             129   -0.01 9  163 220 
 SPBC HN ES        752 51.34                             129   -0.25 9  163 220 
 SPBC HZ I         752 57.26        21.8 0.10            129            163 220 
 ZAR  HZ EP        752 34.21                             122    0.57 8  207 292 
 ZAR  HE ES        752 59.02                             122   -0.08 8  207 292 
 ZAR  HZ I         753  5.29        20.0 0.26            122            207 292 
 NOR  HZ EP   2    752 36.87                             118    0.13 4  235 235 
 NOR  HN ES        753  4.37                             118   -0.26 8  235 235 
 NOR  HZ I         753  6.01        10.3 0.18            119            235 235 
 CHI  HZ EP   2    752 38.76                             117    0.24 4  248 196 
 CHI  HN ES        753  8.12                             117    0.33 8  248 196 
 CHI  HZ I         753 13.78         5.9 0.28            118            248 196 
 HEL  HZ EP   2    752 41.41                             114    0.08 4  274 256 
 HEL  HE ES        753 13.62                             114    0.82 8  274 256 
 HEL  HZ I         753 19.19         5.6 0.26            115            274 256 
 GUY2CHZ EP   2    752 45.31                             112    0.67 4  302 235 
 GUY2CHN ES        753 18.04                             112   -0.64 7  302 235 
 GUY2CHZ I         753 26.98         4.6 0.40                           302 235 
 PTGC HZ EP        752 43.79                             112   -0.75 7  306 159 
 PTGC HN ES   4    753 17.02                             112   -1.49 0  306 159 
 PTGC HZ I         753 19.63         7.4 0.50            113            306 159 
 CBOC HZ EP   2    752 48.87                             110    0.84 3  335 252 
 CBOC HN ES   2    753 24.54                             110   -0.19 3  335 252 
 CBOC HZ I         753 31.51         1.6 0.15            110            335 252 
                                                                                
