 2016 11 7 0322  7.6 L   6.759 -73.110140.0  RSN 10 0.4 1.8LRSN                1
 GAP=168        0.91       4.5     3.9  5.5 -0.6392E+01  0.6733E+01  0.3530E+01E
 Epicentro: LOS SANTOS - SANTANDER                                             3
 ACTION:UPD 17-10-26 21:05 OP:lp   STATUS:               ID:20161107032207 L   I
 OLDACT:REG 16-11-07 12:46 OP:lv   STATUS:               ID:20161107031743     3
 2016-11-07-0318-00M.COL___337                                                 6
 STAT SP IPHASW D HRMM SECON CODA AMPLIT PERI AZIMU VELO AIN AR TRES W  DIS CAZ7
 BAR2 EZ EP        322 26.27                             171   -0.2010 20.1 203 
 BAR2 EZ ES        322 41.26                             171    0.0710 20.1 203 
 BAR2 EZ I         322 42.29        31.5 0.22            169           20.1 203 
 BRR  HZ EP        322 28.15                             150   -0.3110 76.8 300 
 BRR  HN ES        322 45.35                             150    0.6210 76.8 300 
 BRR  HZ I         322 48.29        12.6 0.24            148           76.8 300 
 PAM  EZ EP        322 29.19                             149   -0.0810 78.6  35 
 PAM  EN ES        322 46.09                             149   -0.0910 78.6  35 
 PAM  EZ I         322 48.24        10.5 0.50            153           78.6  35 
 PTB  HZ EP   4    322 33.06                             130   -1.32 0  151 261 
 PTB  HE ES        322 54.97                             130   -0.30 9  151 261 
 PTB  HZ I         322 55.72         6.8 0.16            129            151 261 
 SPBC HZ EP        322 35.24                             128   -0.32 9  162 221 
 SPBC HN ES        322 57.79                             128    0.41 9  162 221 
 SPBC HZ I         323  1.25        10.1 0.14            128            162 221 
 ZAR  HZ EP        322 40.56                             120    0.33 8  209 293 
 ZAR  HE ES        323  5.15                             120   -0.53 8  209 293 
 ZAR  HZ I         323 10.26         7.5 0.32            121            209 293 
 NOR  HZ EP        322 43.06                             117   -0.00 8  235 236 
 NOR  HN ES        323 10.19                             117   -0.54 8  235 236 
 NOR  HZ I         323 16.47         4.8 0.18            118            235 236 
 HEL  HZ EP        322 48.51                             113    0.69 8  275 257 
 HEL  HE ES        323 19.38                             113    0.18 8  275 257 
 HEL  HZ I         323 26.57         2.9 0.25            114            275 257 
 CBOC HZ EP        322 55.25                             109    0.70 7  336 253 
 CBOC HE ES        323 30.88                             109   -0.29 7  336 253 
 CBOC HZ I         323 40.09         0.6 0.15            109            336 253 
 SJC  HZ EP   4    323  2.35                             104   -1.32 0  415 327 
 SJC  HE ES   4    323 42.07                             104   -5.33 0  415 327 
 SJC  HZ I         323 47.72         1.1 0.24            105            415 327 
                                                                                
