 2017 10 7 0208 19.0 L   6.800 -73.148139.2  RSN 13 0.6 2.0LRSN                1
 GAP= 73        1.03       3.7     3.5  5.8 -0.2339E+01  0.5504E+01  0.3243E+01E
 Epicentro: LOS SANTOS - SANTANDER                                             3
 ACTION:UPD 17-11-07 19:29 OP:rebc STATUS:               ID:20171007020819 L   I
 OLDACT:UP  17-10-07 14:13 OP:dhb  STATUS:               ID:20171007015113     3
 OLDACT:REG 17-10-07 12:26 OP:dhb  STATUS:               ID:20171007015113     3
 2017-10-07-0158-00M.COL___438                                                 6
 STAT SP IPHASW D HRMM SECON CODA AMPLIT PERI AZIMU VELO AIN AR TRES W  DIS CAZ7
 BAR2 EZ IP     D  2 8 37.98                             170    0.1510 23.3 189 
 BAR2 EZ ES        2 8 52.57                             170    0.0410 23.3 189 
 BAR2 EZ I         2 8 53.95        25.5 0.12            168           23.3 189 
 PAM  EZ IP     C  2 8 41.17                             149    0.6510 77.5  40 
 PAM  EE ES        2 8 56.55                             149   -0.7610 77.5  40 
 PAM  EZ I         2 9  1.29        10.0 0.10            152           77.5  40 
 RUS  HZ EP        2 8 41.98                             142   -0.1310  101 176 
 RUS  HE ES        2 9  0.26                             142    0.1310  101 176 
 RUS  HZ I         2 9  1.39        23.5 0.28            141            101 176 
 TAM  HZ IP     D  2 8 46.27                             129    0.09 9  155 105 
 TAM  HN ES        2 9  7.72                             129    0.33 9  155 105 
 TAM  HZ I         2 9 12.93        11.8 0.57            130            155 105 
 SPBC HZ EP        2 8 46.89                             127   -0.09 9  163 219 
 SPBC HN ES        2 9  8.64                             127   -0.17 9  163 219 
 SPBC HZ I         2 9 16.22        24.6 0.10            127            163 219 
 YPLC HZ IP     C  2 8 48.19                             125   -0.14 9  177 151 
 YPLC HE ES        2 9 11.67                             125    0.46 9  177 151 
 YPLC HZ I         2 9 13.17         9.5 0.26            125            177 151 
 ZAR  HZ EP        2 8 51.11                             121    0.11 9  204 292 
 ZAR  HN ES   2    2 9 17.52                             121    1.56 4  204 292 
 ZAR  HZ I         2 9 25.41        18.4 0.18            121            204 292 
 NOR  HZ EP        2 8 54.27                             117   -0.06 8  234 234 
 NOR  HN ES        2 9 21.24                             117   -0.65 8  234 234 
 NOR  HZ I         2 9 26.04         9.8 0.20            117            234 234 
 CHI  HZ EP        2 8 56.03                             116   -0.30 8  249 195 
 CHI  HE ES        2 9 25.45                             116   -0.00 8  249 195 
 CHI  HZ I         2 9 33.13         3.1 0.50            115            249 195 
 GUY2CHZ EP   2    2 9  4.11                             111    1.83 4  301 235 
 GUY2CHE ES   4    2 9 39.12                             111    3.07 0  301 235 
 GUY2CHZ I         2 9 43.12         5.5 0.36                           301 235 
 PTGC HZ EP   2    2 9  0.90                             110   -1.68 4  309 159 
 PTGC HE ES   4    2 9 34.16                             110   -2.41 0  309 159 
 PTGC HZ I         2 9 52.88         5.4 0.42            110            309 159 
 PRA  HZ EP        2 9 11.45                             105   -0.83 6  392 210 
 PRA  HE ES        2 9 54.06                             105    0.22 6  392 210 
 PRA  HZ I         2 9 59.51         2.4 0.40            105            392 210 
 SJC  HZ EP   9    2 9 12.92                             104   -1.41 0  409 327 
 SJC  HE ES        2 9 55.67                             105   -0.41 6  409 327 
 SJC  HZ I         2 9 58.97         1.3 0.19            105            409 327 
                                                                                
