 2017  8 7 0554 46.0 L   6.748 -73.173145.9  RSN  6 0.4 1.3LRSN                1
 GAP=230        1.14       6.1     6.6  7.8  0.1618E+02  0.9553E+01 -0.1004E+01E
 Epicentro: LOS SANTOS - SANTANDER                                             3
 ACTION:UPD 17-09-04 20:17 OP:rebc STATUS:               ID:20170807055446 L   I
 OLDACT:REG 17-08-07 12:44 OP:dhb  STATUS:               ID:20170807054740     3
 2017-08-07-0548-00M.COL___393                                                 6
 STAT SP IPHASW D HRMM SECON CODA AMPLIT PERI AZIMU VELO AIN AR TRES W  DIS CAZ7
 BAR2 EZ EP        555  5.74                             173    0.2210 17.2 183 
 BAR2 EZ ES        555 20.30                             173   -0.4610 17.2 183 
 BRR  HZ IP     D  555  7.21                             152    0.0510 71.6 304 
 BRR  HE ES        555 24.48                             152    0.8010 71.6 304 
 BRR  HZ I         555 25.06         3.2 0.28            151           71.6 304 
 RUS  HZ EP        555  9.28                             145   -0.0710 95.1 174 
 RUS  HE ES        555 27.31                             145   -0.2810 95.1 174 
 RUS  HZ I         555 28.60         2.7 0.34            146           95.1 174 
 PTB  HZ EP        555 12.01                             133   -0.58 9  144 261 
 PTB  HE ES        555 32.82                             133   -0.53 9  144 261 
 PTB  HZ I         555 33.94         1.8 0.12            132            144 261 
 SPBC HZ EP        555 14.54                             130    0.66 9  157 219 
 SPBC HE ES        555 36.16                             130    0.51 9  157 219 
 SPBC HZ I         555 38.39         2.1 0.21            130            157 219 
 ZAR  HZ EP        555 18.16                             122   -0.21 9  203 294 
 ZAR  HN ES        555 43.49                             122   -0.15 9  203 294 
 ZAR  HZ I         555 48.41         3.5 0.34            122            203 294 
                                                                                
