 2013  7 7 0459  0.7 L   6.523 -73.526109.0  RSN  5 0.2 1.4LRSN                1
 GAP=198        0.58       3.1     4.4  5.1  0.3901E+01 -0.1146E+01 -0.4120E+01E
 Epicentro: EL CARMEN DE CHUCURI - SANTANDER                                   3
 ACTION:UPD 13-08-12 10:36 OP:ep   STATUS:               ID:20130707045900 L   I
 OLDACT:REG 13-07-07 07:47 OP:stll STATUS:               ID:20130707044835     3
 2013-07-07-0448-35M.COL___224                                                 6
 STAT SP IPHASW D HRMM SECON CODA AMPLIT PERI AZIMU VELO AIN AR TRES W  DIS CAZ7
 BAR2 SZ EP        459 16.71                             159    0.2010 38.8  79 
 BAR2 SZ ES        459 29.06                             159    0.2410 38.8  79 
 BAR2 SZ I         459 30.56        18.4 0.28            166           38.8  79 
 BRR  HZ EP        459 17.60                             146   -0.2110 67.7 342 
 BRR  HN ES        459 31.14                             146    0.0110 67.7 342 
 BRR  HN I         459 37.22         5.8 0.16            147           67.7 342 
 GIR2 SZ EP        459 18.22                             144   -0.0610 71.6  31 
 RUS  HN ES        459 34.48                             139   -0.2010 85.3 145 
 RUS  HN I         459 36.06         2.2 0.20            147           85.3 145 
 PAM  SZ EP        459 23.95                             127    0.2910  128  45 
 PAM  SN ES        459 41.28                             127   -0.2710  128  45 
 PAM  SN I         459 41.95         4.7 0.22            133            128  45 
                                                                                
