 2010  6 7 0913 19.1 L   6.789 -73.107146.9  RSN  9 0.5 2.0LRSN                1
 GAP=147        1.07       6.0    11.3  9.3 -0.3833E+02  0.2579E+02  0.2415E+01E
 Epicentro: LOS SANTOS - SANTANDER                                             3
 ACTION:UP  10-08-24 10:08 OP:vdl  STATUS:               ID:20100607091319 L   I
 2010-06-07-0911-06S.COL___111                                                 6
 STAT SP IPHASW D HRMM SECON CODA AMPLIT PERI AZIMU VELO SNR AR TRES W  DIS CAZ7
 BAR2 SZ EP        913 38.81                             170    -0.110   23 201 
 BAR2 SZ ES   1    913 54.38                             170     0.0 7   23 201 
 GUE  SZ EP   1    913 44.71                             140     0.7 7  117  10 
 GUE  SZ ES   1    914  3.96                             140     0.6 7  117  10 
 GRA  SZ IP        913 44.60                             137     0.110  126  15 
 GRA  SZ ES   1    914  4.22                             137     0.0 7  126  15 
 OCA  SZ IP        913 47.22                             130    -0.5 9  162 352 
 OCA  SZ ES   1    914  9.14                             130    -0.8 7  162 352 
 OCA  SZ I         914 19.12        12.7 0.23                           162 352 
 CHI  HZ EP   1    913 56.52                             117    -0.4 6  249 196 
 CHI  HZ I         914 31.91         4.3 0.32                           249 196 
 ROSC BE ES   2    914 26.66                             117    -0.7 4  254 212 
 ROSC BZ I         914 32.28         4.6 0.35                           254 212 
 HEL  HZ EP   1    914  0.83                             115     1.0 6  276 256 
 HEL  HN ES   2    914 31.50                             115    -0.1 4  276 256 
 HEL  HZ I         914 37.16         8.2 0.30                           276 256 
 RREF BZ EP   1    914  5.99                             111     0.4 5  324 230 
 RREF BZ I         914 50.52         4.7 0.40                           324 230 
 SDV  BZ EP   2    914  8.33                             109    -0.6 3  358  50 
 SDV  BZ I         914 47.56         2.3 0.38                           358  50 
                                                                                
