 2012  3 7 0547 24.7 L   7.481 -73.427113.3  RSN  5 0.2 1.7LRSN                1
 GAP=254        0.55       5.5     4.4  5.9  0.1551E+02 -0.4367E+01 -0.8786E+01E
 ACTION:UP  12-03-31 23:17 OP:EP   STATUS:               ID:20120307054724 L   I
 2012-03-07-0540-00M.COL___194                                                 6
 STAT SP IPHASW D HRMM SECON CODA AMPLIT PERI AZIMU VELO SNR AR TRES W  DIS CAZ7
 BRR  HZ EP        547 41.20                             154    -0.110   52 217 
 BRR  HE ES   1    547 54.19                             154     0.0 7   52 217 
 BRR  HZ I         547 55.66        10.7 0.14                            52 217 
 BAR2 SZ EP   1    547 45.41                             135     0.2 7  102 165 
 BAR2 SZ ES   2    548  1.01                             135    -0.2 5  102 165 
 BAR2 SZ I         548  3.50        14.7 0.16                           102 165 
 PTB  HZ EP        547 49.59                             122    -0.4 9  154 228 
 PTB  HE ES   1    548  9.63                             122     0.0 7  154 228 
 ZAR  HZ EP        547 50.31                             121     0.0 9  158 271 
 ZAR  HN ES   1    548 10.65                             121     0.4 7  158 271 
 ZAR  HZ I         548 12.42         5.8 0.26                           158 271 
 RUS  HZ EP   1    547 53.62                             118     0.4 7  180 168 
 RUS  HE ES   1    548 15.59                             118     0.1 7  180 168 
                                                                                
