 2011  1 7 0412  8.6 L   6.863 -73.194145.2  RSN  6 0.3 1.6LRSN                1
 GAP=153        0.58       3.2     8.5  6.7 -0.1336E+02  0.8982E+01 -0.1310E+01E
 Epicentro: ZAPATOCA - SANTANDER                                               3
 ACTION:UP  11-02-08 08:39 OP:pat  STATUS:               ID:20110107041208 L   I
 2011-01-07-0409-02S.COL___135                                                 6
 STAT SP IPHASW D HRMM SECON CODA AMPLIT PERI AZIMU VELO SNR AR TRES W  DIS CAZ7
 BAR2 SZ EP   1    412 28.14                             168    -0.2 8   30 178 
 BAR2 SZ ES   1    412 44.01                             168     0.3 8   30 178 
 BAR2 SZ I         412 45.45         7.2 0.17                            30 178 
 RUS  HZ EP   2    412 32.72                             142    -0.2 5  108 173 
 RUS  HE ES   2    412 51.20                             142    -0.6 5  108 173 
 RUS  HZ I         412 53.28         2.7 0.29                           108 173 
 GRA  SZ IP        412 33.60                             138     0.210  121  21 
 GRA  SZ ES   1    412 52.85                             138     0.1 7  121  21 
 GRA  SZ I         412 54.05         8.4 0.28                           121  21 
 OCA  SZ ES   1    412 57.43                             131    -0.3 7  153 355 
 OCA  SZ I         413  1.45         6.8 0.68                           153 355 
 NOR  SN ES   2    413 12.18                             118     0.0 4  235 232 
 CHI  HZ EP   2    412 46.77                             116    -0.1 4  254 194 
 CHI  HE ES   2    413 17.40                             116     0.7 4  254 194 
                                                                                
