 2011  5 7 0340 28.2 L   6.742 -73.044145.9  RSN  9 0.3 1.6LRSN                1
 GAP=171        0.58       3.6     5.6  4.8 -0.7740E+01  0.3645E+01  0.1580E+00E
 Epicentro: ARATOCA - SANTANDER                                                3
 ACTION:UP  11-06-29 08:51 OP:tino STATUS:               ID:20110507034028 L   I
 2011-05-07-0337-41S.COL___133                                                 6
 STAT SP IPHASW D HRMM SECON CODA AMPLIT PERI AZIMU VELO SNR AR TRES W  DIS CAZ7
 BAR2 SZ EP   1    340 47.94                             171     0.1 7   23 223 
 BAR2 SZ ES   1    341  3.22                             171     0.1 7   23 223 
 BAR2 SZ I         341  6.52        14.6 0.50                            23 223 
 BTL  SZ EP   1    340 48.32                             167     0.3 7   31 308 
 BTL  SZ ES   2    341  3.00                             167    -0.5 5   31 308 
 GIR2 SZ EP   1    340 48.17                             164     0.0 7   41 336 
 BRR  HZ EP   1    340 49.84                             148    -0.3 7   84 299 
 BRR  HZ I         340 50.17         9.8 0.14                            84 299 
 BRR  HE ES   1    341  7.44                             148     0.2 7   84 299 
 RUS  HZ EP   2    340 52.21                             146     0.7 5   94 183 
 RUS  HE ES   2    341  9.40                             146    -0.3 5   94 183 
 RUS  HZ I         341 13.15         5.3 0.43                            94 183 
 GRA  SZ EP   1    340 53.52                             136    -0.2 7  129  12 
 GRA  SZ ES   1    341 13.52                             136    -0.1 7  129  12 
 GRA  SZ I         341 17.76         3.8 0.45                           129  12 
 OCA  SZ EP   2    340 57.23                             128     0.0 5  168 350 
 OCA  SZ ES   2    341 20.43                             128     0.5 5  168 350 
 OCA  SZ I         341 22.91         4.3 0.42                           168 350 
 NOR  SZ EP   1    341  4.12                             118    -0.4 6  240 237 
 NOR  SN ES   2    341 33.10                             118     0.2 4  240 237 
 HEL  HZ EP   1    341  9.44                             114     0.0 6  282 258 
 HEL  HZ I         341 46.10         3.0 0.47                           282 258 
                                                                                
