 2011  3 7 0827 15.3 L   6.808 -73.075145.4  RSN 14 0.4 3.1LRSN                1
 GAP=106        1.00       3.6     5.3  7.0 -0.5906E+01  0.1188E+02 -0.2321E+01E
 Epicentro: LOS SANTOS - SANTANDER                                             3
 ACTION:UP  11-06-16 14:32 OP:jfem STATUS:               ID:20110307082715 L   I
 2011-03-07-0825-41S.COL___135                                                 6
 STAT SP IPHASW D HRMM SECON CODA AMPLIT PERI AZIMU VELO SNR AR TRES W  DIS CAZ7
 BAR2 SZ IP        827 34.89                             169     0.010   27 207 
 BAR2 SZ ES   1    827 49.96                             169    -0.3 7   27 207 
 BAR2 SZ I         827 51.77       381.8 0.32                            27 207 
 RUS  HZ IP     D  827 38.70                             143    -0.310  101 180 
 RUS  HZ I         827 39.98        87.6 0.16                           101 180 
 RUS  HN ES   1    827 57.48                             143    -0.1 7  101 180 
 GRA  SZ IP        827 40.73                             137     0.510  123  14 
 GRA  SZ ES   1    828  0.23                             137     0.5 7  123  14 
 GRA  SZ I         828  2.03       288.4 0.31                           123  14 
 OCA  SZ EP        827 42.98                             129    -0.6 9  161 350 
 OCA  SZ I         828 10.18       179.1 0.25                           161 350 
 YOP  SZ EP        827 45.34                             126     0.3 9  176 156 
 YOP  SN ES   1    828  8.38                             126     0.1 7  176 156 
 YOP  SZ I         828 14.23        53.8 0.33                           176 156 
 CHI  HZ EP   1    827 52.79                             116    -0.5 6  252 197 
 CHI  HE ES   2    828 22.19                             116    -0.7 4  252 197 
 CHI  HZ I         828 25.88        76.0 0.55                           252 197 
 ROSC BZ EP        827 54.45                             116     0.5 8  258 212 
 ROSC BE ES   1    828 24.48                             116     0.4 6  258 212 
 ROSC BZ I         828 30.88       172.8 0.55                           258 212 
 HEL  HZ EP   1    827 56.83                             114     0.5 6  280 256 
 HEL  HN ES   1    828 28.31                             114     0.0 6  280 256 
 HEL  HZ I         828 33.58        90.9 0.34                           280 256 
 GUY  SZ EP   1    828  0.64                             111     1.0 5  308 236 
 RREF HZ EP   1    828  1.76                             110    -0.4 5  328 230 
 RREF HN ES   1    828 38.86                             110     0.2 5  328 230 
 RREF HZ I         828 47.48       138.1 0.34                           328 230 
 DBB  SZ EP        828  2.87                                    -0.8 6  347 274 
 TOL  SZ EP   1    828  4.26                             109     0.0 5  350 225 
 SDV  BZ EP        828  4.25                             108    -0.3 6  354  49 
 SDV  BZ I         828 44.05        21.2 0.46                           354  49 
 PRA  HE ES   1    828 51.32                             106    -0.2 4  397 210 
                                                                                
