 2013  4 7 0358 17.6 L   6.795 -73.118150.2  RSN 10 0.5 2.2LRSN                1
 GAP=113        1.13       4.1     3.9  6.2  0.3468E+01  0.4305E+01 -0.2280E+01E
 Epicentro: LOS SANTOS - SANTANDER                                             3
 ACTION:UPD 13-05-22 14:36 OP:EP   STATUS:               ID:20130407035817 L   I
 2013-04-07-0357-42M.COL___218                                                 6
 STAT SP IPHASW D HRMM SECON CODA AMPLIT PERI AZIMU VELO AIN AR TRES W  DIS CAZ7
 BAR2 SZ EP        358 37.82                             171    0.0110 23.5 198 
 BAR2 SZ ES        358 53.31                             171   -0.2310 23.5 198 
 BAR2 SZ I         358 55.62        13.7 0.14            169           23.5 198 
 GIR2 SZ EP        358 37.95                             167    0.0710 32.5 345 
 GIR2 SZ ES        358 54.10                             167    0.4410 32.5 345 
 GIR2 SZ I         358 54.90         8.8 0.14            167           32.5 345 
 BRR  HZ IP     D  358 39.75                             152    0.3110 74.1 298 
 BRR  HN ES        358 57.25                             152    0.8110 74.1 298 
 BRR  HN I         358 58.11        55.1 0.18            150           74.1 298 
 RUS  HZ EP        358 41.80                             145    0.0210 99.8 178 
 RUS  HN ES        359  0.04                             145   -0.5710 99.8 178 
 RUS  HN I         359  2.50        12.0 0.16            145           99.8 178 
 PTB  HZ EP        358 44.57                             132   -0.66 9  151 259 
 PTB  HN ES        359  6.11                             132   -0.64 9  151 259 
 PTB  HN I         359 11.05        37.9 0.34            131            151 259 
 TAM  HZ EP   1    358 45.45                             132    0.06 7  152 105 
 TAM  HN ES        359  7.43                             132    0.39 9  152 105 
 TAM  HN I         359  8.68         9.1 0.24            134            152 105 
 OCA  HN ES        359  8.04                             130   -0.78 9  161 352 
 OCA  HN I         359 11.59        38.3 0.22            131            161 352 
 ZAR  HZ EP        358 50.69                             123    0.00 8  207 292 
 ZAR  HN ES        359 16.53                             123    0.06 8  207 292 
 ZAR  HN I         359 21.82        24.3 0.38            122            207 292 
 SML  HZ EP        358 54.74                             118    0.02 8  246 335 
 SML  HN ES        359 23.35                             118   -0.28 8  246 335 
 SML  HN I         359 27.55        23.7 0.10            118            246 335 
 HEL  HZ EP   1    358 59.17                             115    0.78 6  275 256 
 HEL  HE ES        359 30.91                             115    0.74 8  275 256 
 HEL  HE I         359 40.43         5.2 0.56            115            275 256 
                                                                                
