 2010 10 7 0617 57.7 L   6.814 -73.099142.0  RSN  9 0.5 1.8LRSN                1
 GAP=181        0.80       4.9     9.6  8.4 -0.2869E+02 -0.1722E+02  0.1660E+02E
 Epicentro: LOS SANTOS - SANTANDER                                             3
 ACTION:UP  11-02-18 11:08 OP:tino STATUS:               ID:20101007061757 L   I
 2010-10-07-0617-00S.COL___122                                                 6
 STAT SP IPHASW D HRMM SECON CODA AMPLIT PERI AZIMU VELO SNR AR TRES W  DIS CAZ7
 BAR2 SZ EP   2    618 16.18                             169    -0.8 5   26 201 
 BAR2 SZ ES   2    618 31.39                             169    -0.6 5   26 201 
 BAR2 SZ I         618 33.05        17.1 0.19                            26 201 
 BRR  HZ IP     D  618 18.62                             151    -0.110   75 296 
 BRR  HZ I         618 19.04        12.3 0.10                            75 296 
 BRR  HE ES   1    618 35.62                             151     0.5 7   75 296 
 GUE  SZ EP   2    618 22.30                             139     0.4 5  114  10 
 GRA  SZ EP   1    618 22.48                             137     0.1 7  123  15 
 GRA  SZ ES   1    618 42.11                             137     0.5 7  123  15 
 GRA  SZ I         618 43.57         9.4 0.31                           123  15 
 OCA  SZ EP   1    618 25.54                             129    -0.1 7  159 351 
 OCA  SZ ES   1    618 46.82                             129    -0.6 7  159 351 
 OCA  SZ I         618 51.94        10.4 0.29                           159 351 
 CHI  HZ EP   2    618 36.22                             116     0.7 4  252 196 
 CHI  HN ES   2    619  5.25                             116     0.2 4  252 196 
 CHI  HZ I         619 11.08         2.5 0.38                           252 196 
 ROSC BZ EP   2    618 36.69                             116     0.6 4  257 212 
 ROSC BE ES   2    619  5.51                             116    -0.5 4  257 212 
 ROSC BZ I         619 12.99         4.2 0.43                           257 212 
 RREF HZ EP   2    618 44.08                             110    -0.2 3  327 230 
 RREF HN ES   2    619 20.48                             110    -0.1 3  327 230 
 RREF HZ I         619 28.69         3.2 0.18                           327 230 
 PRA  HZ EP   2    618 51.08                             106    -0.5 3  396 210 
 PRA  HE ES   2    619 34.16                             106     0.6 3  396 210 
                                                                                
