 2015 11 7 0806 32.9 L   6.801 -73.134144.9  RSN  6 0.3 1.9LRSN                1
 GAP=138        0.89       3.7     4.4  6.0  0.1313E+00  0.7280E+01  0.5583E+00E
 Epicentro: LOS SANTOS - SANTANDER                                             3
 ACTION:UPD 15-12-28 16:09 OP:cam  STATUS:               ID:20151107080632 L   I
 OLDACT:DUP 15-11-07 20:22 OP:drio STATUS:               ID:20151107075752d    3
 OLDACT:REG 15-11-07 14:24 OP:cara STATUS:               ID:20151107075750     3
 2015-11-07-0757-50M.COL___304                                                 6
 STAT SP IPHASW D HRMM SECON CODA AMPLIT PERI AZIMU VELO AIN AR TRES W  DIS CAZ7
 BAR2 EZ EP        8 6 52.63                             170    0.2210 23.7 193 
 BAR2 EZ ES        8 7  8.01                             170    0.3610 23.7 193 
 BAR2 EZ I         8 7  8.77        11.2 0.28            170           23.7 193 
 BRR  HZ EP        8 6 54.49                             152    0.5010 72.3 298 
 BRR  HN ES        8 7 10.29                             152   -0.1810 72.3 298 
 BRR  HZ I         8 7 14.75        15.8 0.30            150           72.3 298 
 PAM  EZ EP        8 6 54.20                             151   -0.7410 76.4  39 
 PAM  EN ES        8 7 12.24                             151    0.0910 76.4  39 
 PAM  EZ I         8 7 14.70        21.2 0.48            154           76.4  39 
 RUS  HZ EP        8 6 56.60                             144    0.0610  101 177 
 RUS  HE ES        8 7 14.83                             144   -0.1810  101 177 
 RUS  HZ I         8 7 16.46         8.9 0.32            147            101 177 
 SPBC HZ EP        8 7  1.67                             129    0.28 9  164 219 
 SPBC HN ES        8 7 23.24                             129   -0.40 9  164 219 
 SPBC HZ I         8 7 26.82        10.1 0.10            130            164 219 
 ZAR  HZ EP        8 7  5.50                             122    0.12 8  205 292 
 ZAR  HN ES        8 7 30.56                             122   -0.18 8  205 292 
 ZAR  HZ I         8 7 36.63         8.2 0.28            123            205 292 
                                                                                
