 2010  8 7 0430  1.2 L   6.745 -73.182149.6  RSN  6 0.3 1.3LRSN                1
 GAP=155        0.56       5.8    12.0 10.9  0.4006E+02 -0.8635E+02 -0.2265E+02E
 Epicentro: VILLANUEVA - SANTANDER                                             3
 ACTION:UP  10-09-07 10:52 OP:vdl  STATUS:               ID:20100807043001 L   I
 2010-08-07-0427-50S.COL___125                                                 6
 STAT SP IPHASW D HRMM SECON CODA AMPLIT PERI AZIMU VELO SNR AR TRES W  DIS CAZ7
 BAR2 SZ EP        430 21.00                             173    -0.210   17 181 
 BTL  SZ EP        430 21.15                             171    -0.110   21 334 
 BRR  HZ EP        430 22.84                             153     0.110   71 304 
 BRR  HZ I         430 34.95         6.3 0.74                            71 304 
 BRR  HN ES   1    430 39.53                             153     0.0 7   71 304 
 RUS  HZ EP        430 25.02                             146     0.110   95 173 
 RUS  HN ES   2    430 43.56                             146     0.1 5   95 173 
 RUS  HZ I         430 45.50         2.0 0.27                            95 173 
 GUE  SZ EP   2    430 27.53                             138     0.7 5  123  13 
 GRA  SZ EP   2    430 26.96                             136    -0.4 5  133  18 
 GRA  SZ I         430 47.36         1.8 0.43                           133  18 
                                                                                
