 2012  7 7 0522 56.4 L   6.642 -73.196149.1  RSN  4 0.1 1.5LRSN                1
 GAP=213        0.33       3.1     3.2  3.7  0.4634E+01 -0.3010E+00  0.6299E+00E
 Epicentro: BARICHARA - SANTANDER                                              3
 ACTION:UPD 12-08-14 11:43 OP:ep   STATUS:               ID:20120707052256 L   I
 2012-07-07-0520-00M.COL___201                                                 6
 STAT SP IPHASW D HRMM SECON CODA AMPLIT PERI AZIMU VELO AIN AR TRES W  DIS CAZ7
 BAR2 SZ EP        523 16.35                             178     0.110    6 165 
 BAR2 SZ I         523 33.21         4.6 0.31            173              6 165 
 BRR  HZ EP        523 18.28                             151     0.010   77 312 
 BRR  HZ I         523 18.82        10.7 0.08            155             77 312 
 BRR  HE ES        523 35.22                             151    -0.110   77 312 
 RUS  HZ EP   1    523 19.28                             149    -0.1 7   84 171 
 RUS  HN ES   1    523 37.29                             149     0.0 7   84 171 
 PTB  HZ EP        523 22.91                             134    -0.1 9  140 265 
 PTB  HN ES   1    523 43.74                             134     0.1 7  140 265 
 PTB  HZ I         523 50.15         2.5 0.13            136            140 265 
