 2010  6 7 0553 33.5 L   6.809 -73.111150.0  RSN 13 0.4 3.0LRSN                1
 GAP=146        0.72       3.2     5.6  4.6 -0.1028E+02  0.4579E+01  0.1759E+01E
 Epicentro: LOS SANTOS - SANTANDER                                             3
 ACTION:UP  10-08-24 10:08 OP:vdl  STATUS:               ID:20100607055333 L   I
 2010-06-07-0550-36S.COL___111                                                 6
 STAT SP IPHASW D HRMM SECON CODA AMPLIT PERI AZIMU VELO SNR AR TRES W  DIS CAZ7
 BAR2 SZ IP        553 53.56                             170    -0.110   25 198 
 BAR2 SZ ES   1    554  9.18                             170    -0.2 7   25 198 
 GIR2 SZ EP        553 53.72                             168     0.110   31 343 
 GIR2 SZ ES   1    554  9.74                             168     0.4 7   31 343 
 GUE  SZ IP        553 58.65                             141     0.210  115  10 
 GUE  SZ ES   1    554 18.28                             141     0.4 7  115  10 
 GRA  SZ IP        553 58.96                             138     0.110  124  16 
 GRA  SZ ES   1    554 18.49                             138    -0.3 7  124  16 
 OCA  SZ EP        554  1.93                             131    -0.1 9  160 352 
 OCA  SZ ES   1    554 23.98                             131    -0.4 7  160 352 
 OCA  SZ I         554 28.98        73.1 0.35                           160 352 
 CHI  HZ EP        554 11.63                             118     0.0 8  251 196 
 CHI  HE ES   1    554 40.73                             118    -0.6 6  251 196 
 CHI  HZ I         554 49.81        34.8 0.69                           251 196 
 ROSC BE ES   1    554 42.63                             117     0.3 6  256 212 
 ROSC BZ I         554 51.39        63.0 0.48                           256 212 
 HEL  HZ EP   1    554 14.28                             115     0.0 6  276 256 
 HEL  HN ES   2    554 45.74                             115    -0.5 4  276 256 
 HEL  HZ I         554 52.20        40.8 0.36                           276 256 
 RREF BZ EP   1    554 19.64                             111    -0.6 5  325 230 
 RREF BN ES   2    554 56.60                             111     0.0 3  325 230 
 RREF BZ I         555  5.21        64.4 0.32                           325 230 
 DBB  SZ EP        554 21.33                             110    -0.2 7  343 274 
 TOL  SZ EP   1    554 23.00                             110     0.7 5  347 225 
 SDV  BZ EP        554 22.90                             109    -0.3 6  357  50 
 SDV  BZ I         555  2.53        16.5 0.38                           357  50 
 ANIL BZ EP   1    554 24.81                             109     1.0 5  361 225 
 ANIL BZ I         555  9.83       114.8 0.31                           361 225 
                                                                                
