 2017  8 7 0412 17.5 L   6.766 -73.147134.8  RSN 13 0.3 1.8LRSN                1
 GAP=113        0.73       2.2     2.5  4.1  0.1312E+00  0.2482E+01  0.1029E+01E
 Epicentro: LOS SANTOS - SANTANDER                                             3
 ACTION:UPD 17-09-04 20:17 OP:rebc STATUS:               ID:20170807041217 L   I
 OLDACT:REG 17-08-07 12:31 OP:dhb  STATUS:               ID:20170807040745     3
 2017-08-07-0408-00M.COL___393                                                 6
 STAT SP IPHASW D HRMM SECON CODA AMPLIT PERI AZIMU VELO AIN AR TRES W  DIS CAZ7
 BAR2 EZ IP     D  412 35.53                             171   -0.2510 19.6 192 
 BAR2 EZ ES        412 50.06                             171    0.0610 19.6 192 
 BAR2 EZ I         412 51.34        21.4 0.18            170           19.6 192 
 BRR  HZ IP     D  412 37.49                             150   -0.1310 73.0 301 
 BRR  HN ES        412 53.18                             150   -0.1110 73.0 301 
 BRR  HZ I         412 53.76        22.6 0.38            148           73.0 301 
 PAM  EZ IP     C  412 38.59                             148   -0.2110 80.4  38 
 PAM  EN ES        412 55.55                             148    0.1810 80.4  38 
 PAM  EZ I         412 57.73        11.7 0.28            150           80.4  38 
 RUS  HZ EP        412 39.86                             143   -0.0910 96.8 176 
 RUS  HE ES        412 57.98                             143    0.5610 96.8 176 
 RUS  HZ I         412 59.03        20.0 0.30            143           96.8 176 
 PTB  HZ EP   9    412 42.60                             130   -0.96 0  147 260 
 PTB  HN ES        413  2.69                                   -0.21 9  147 260 
 PTB  HZ I         413  5.50         8.3 0.18            129            147 260 
 SPBC HZ IP     D  412 44.89                             127   -0.04 9  160 220 
 SPBC HN ES        413  6.24                             127   -0.05 9  160 220 
 SPBC HZ I         413  8.90        16.0 0.26            127            160 220 
 YPLC HE ES        413  8.38                             125   -0.23 9  174 151 
 ZAR  HZ EP        412 49.60                             120    0.16 8  205 293 
 ZAR  HE ES        413 14.65                             120    0.33 8  205 293 
 ZAR  HZ I         413 21.65         8.0 0.26            119            205 293 
 NOR  HZ IP   2 C  412 53.34                             116    0.93 4  232 235 
 NOR  HE ES        413 18.99                             116   -0.61 8  232 235 
 NOR  HZ I         413 25.22         4.2 0.16            116            232 235 
 CHI  HZ IP   2 C  412 55.41                             115    1.16 4  245 195 
 CHI  HE ES        413 22.85                             115   -0.03 8  245 195 
 CHI  HZ I         413 26.30         2.8 0.58            115            245 195 
 GUY2CHZ EP   9    413  1.65                             110    1.25 0  299 235 
 GUY2CHE ES        413 35.54                                    0.46 7  299 235 
 GUY2CHZ I         413 40.48         3.0 0.28                           299 235 
 PTGC HZ EP   9    412 59.09                             110   -1.44 0  305 158 
 PTGC HN ES        413 32.16                                   -0.46 7  305 158 
 PTGC HZ I         413 34.35         4.5 0.32            110            305 158 
 CBOC HZ EP   2    413  3.58                             108   -0.30 3  332 253 
 CBOC HN ES        413 40.03                             108    0.01 7  332 253 
 CBOC HZ I         413 43.15         1.2 0.22            108            332 253 
                                                                                
