 2010 12 7 0117 53.0 L   7.397 -73.284136.1  RSN  5 0.4 1.7LRSN                1
 GAP=134        0.65       8.5     9.6 15.8  0.3037E+02  0.9626E+02  0.6057E+02E
 Epicentro: EL PLAYON - SANTANDER                                              3
 ACTION:UP  11-01-14 15:23 OP:pat  STATUS:               ID:20101207011753 L   I
 2010-12-07-0116-35S.COL___135                                                 6
 STAT SP IPHASW D HRMM SECON CODA AMPLIT PERI AZIMU VELO SNR AR TRES W  DIS CAZ7
 BTL  SZ EP   1    118 12.49                             158    -0.1 7   53 178 
 GUE  SZ EP   2    118 12.52                             153    -0.6 5   62  40 
 GRA  SZ EP   1    118 14.20                             148     0.5 7   76  44 
 GRA  SZ I         118 15.31        17.3 0.18                            76  44 
 GRA  SZ ES   2    118 29.59                             148    -0.1 5   76  44 
 OCA  SZ EP   2    118 14.59                             143    -0.3 5   93 358 
 OCA  SZ ES   2    118 31.86                             143     0.0 5   93 358 
 OCA  SZ I         118 33.45        11.6 0.17                            93 358 
 MON  HZ EP   2    118 35.36                             110    -0.5 4  303 300 
 MON  HN ES   2    119  9.54                             110     0.3 4  303 300 
 MON  HZ I         119 14.16         1.3 0.64                           303 300 
                                                                                
