 2015 11 7 0330 10.7 L   6.775 -73.074143.2  RSN  7 0.3 1.6LRSN                1
 GAP=147        0.66       2.7     3.2  4.9 -0.9980E+00  0.5603E+01  0.9118E+00E
 Epicentro: LOS SANTOS - SANTANDER                                             3
 ACTION:UPD 15-12-28 16:09 OP:cam  STATUS:               ID:20151107033010 L   I
 OLDACT:REG 15-11-07 13:47 OP:cara STATUS:               ID:20151107032748     3
 2015-11-07-0327-48M.COL___316                                                 6
 STAT SP IPHASW D HRMM SECON CODA AMPLIT PERI AZIMU VELO AIN AR TRES W  DIS CAZ7
 BAR2 EZ EP   2    330 29.60                             170   -0.43 5 23.5 211 
 BAR2 EZ ES   2    330 44.90                             170   -0.20 5 23.5 211 
 BAR2 EZ I         330 45.74        12.0 0.18            171           23.5 211 
 PAM  EZ EP        330 32.58                             151    0.0710 74.9  34 
 PAM  EN ES        330 49.70                             151    0.2010 74.9  34 
 PAM  EZ I         330 51.85         5.3 0.64            152           74.9  34 
 BRR  HZ EP        330 31.84                             149   -0.2310 79.4 298 
 BRR  HE ES        330 48.87                             149    0.1310 79.4 298 
 BRR  HZ I         330 52.91         8.8 0.44            148           79.4 298 
 RUS  HZ EP        330 33.80                             144   -0.1910 97.6 181 
 RUS  HN ES        330 52.22                             144    0.0710 97.6 181 
 RUS  HZ I         330 52.93         5.5 0.52            148           97.6 181 
 SPBC HN ES        331  1.35                             128   -0.25 9  166 222 
 ZAR  HZ EP        330 44.10                             121    0.24 8  212 292 
 ZAR  HE ES        331  9.36                             121   -0.35 8  212 292 
 ZAR  HZ I         331 14.58         5.9 0.32            122            212 292 
 GUY2CHZ EP        330 54.74                             111   -0.02 7  306 236 
 GUY2CHN ES        331 29.93                             111    0.82 7  306 236 
 GUY2CHZ I         331 36.48         1.5 0.64                           306 236 
                                                                                
