 2012 10 7 0759 55.5 L   6.791 -73.121149.2  RSN  6 0.4 2.1LRSN                1
 GAP=140        0.90       6.6     9.8  9.9  0.3145E+02 -0.2986E+02 -0.1028E+02E
 Epicentro: LOS SANTOS - SANTANDER                                             3
 ACTION:UPD 12-11-22 17:02 OP:ep   STATUS:               ID:20121007075955 L   I
 2012-10-07-0758-40M.COL___196                                                 6
 STAT SP IPHASW D HRMM SECON CODA AMPLIT PERI AZIMU VELO AIN AR TRES W  DIS CAZ7
 BAR2 SZ EP   1    8 0 14.99                             171   -0.58 7 23.1 197 
 GIR2 SZ EP   1    8 0 14.96                             167   -0.70 7 32.8 346 
 GIR2 SZ ES   1    8 0 31.16                             167   -0.20 7 32.8 346 
 BRR  HZ EP   1    8 0 17.33                             152    0.11 7 74.1 298 
 BRR  HN ES        8 0 34.45                             152    0.3210 74.1 298 
 BRR  HN I         8 0 35.16        47.8 0.24                          74.1 298 
 PAM  SZ EP   1    8 0 18.53                             152    0.47 7 76.4  38 
 PAM  SN I         8 0 36.99        13.6 0.31                          76.4  38 
 RUS  HZ EP   1    8 0 20.20                             145    0.65 7 99.5 178 
 RUS  HN ES        8 0 38.19                             145   -0.0910 99.5 178 
 ZAR  HN ES   2    8 0 53.73                             123   -0.49 4  207 292 
 ZAR  HN I         8 0 55.93         6.3 0.09                           207 292 
                                                                                
