 2014  7 7 1405 20.1 L   6.811 -73.150148.9  RSN 14 0.5 2.3LRSN                1
 GAP= 70        1.17       4.0     3.9  6.0 -0.1375E+01  0.6618E+01 -0.1330E+00E
 Epicentro: LOS SANTOS - SANTANDER                                             3
 ACTION:UPD 15-03-16 20:42 OP:nd   STATUS:               ID:20140707140520 L   I
 OLDACT:UP  14-07-07 21:01 OP:cam  STATUS:               ID:20140707140000     3
 OLDACT:UP  14-07-07 21:00 OP:cam  STATUS:               ID:20140707140000     3
 OLDACT:REG 14-07-07 20:16 OP:cam  STATUS:               ID:20140707140000     3
 2014-07-07-1400-00M.COL___279                                                 6
 STAT SP IPHASW D HRMM SECON CODA AMPLIT PERI AZIMU VELO AIN AR TRES W  DIS CAZ7
 BAR2 SZ IP     C 14 5 40.08                             170   -0.0710 24.4 188 
 BAR2 SZ ES       14 5 55.29                             170   -0.4910 24.4 188 
 BAR2 SZ I        14 5 56.87        32.0 0.46            172           24.4 188 
 BRR  HZ IP     D 14 5 42.09                             153    0.5310 70.2 298 
 BRR  HN ES       14 5 59.36                             153    1.0810 70.2 298 
 BRR  HZ I        14 6  2.46        25.5 0.14            149           70.2 298 
 PAM  SZ EP       14 5 42.86                             152    0.2210 76.8  40 
 PAM  SE ES       14 5 59.87                             152   -0.3410 76.8  40 
 PAM  SZ I        14 6  2.13        42.2 0.50            149           76.8  40 
 RUS  HZ EP       14 5 44.56                             144    0.2910  102 176 
 RUS  HE ES       14 6  3.05                             144   -0.0610  102 176 
 RUS  HZ I        14 6  5.42        18.7 0.46            144            102 176 
 PTB  HZ EP       14 5 47.03                             133   -0.30 9  148 258 
 PTB  HN ES       14 6  7.58                             133   -0.96 9  148 258 
 PTB  HZ I        14 6 10.50        23.8 0.18            129            148 258 
 TAM  HZ EP       14 5 48.19                             131    0.07 9  156 105 
 ZAR  HZ EP       14 5 52.61                             123   -0.07 9  203 292 
 ZAR  HE ES       14 6 18.59                             123    0.51 9  203 292 
 ZAR  HZ I        14 6 23.86        22.9 0.56            120            203 292 
 NOR  HZ EP     D 14 5 56.39                             119    0.32 8  235 234 
 NOR  HN ES       14 6 23.99                             119   -0.11 8  235 234 
 NOR  HZ I        14 6 31.28        14.1 0.18            117            235 234 
 SML  HZ EP       14 5 56.18                             118   -0.61 8  242 335 
 SML  HE ES       14 6 25.26                             118   -0.13 8  242 335 
 SML  HZ I        14 6 27.41        25.8 0.24            115            242 335 
 HEL  HZ EP   4   14 6  1.61                             115    1.13 0  272 256 
 URE  HZ EP       14 6  0.67                             114   -0.58 7  283 292 
 URE  HN ES   4   14 6 31.25                             114   -2.08 0  283 292 
 URE  HZ I        14 6 34.79        17.6 0.20            111            283 292 
 GUY2CHZ EP       14 6  4.39                             113    0.48 7  301 235 
 GUY2CHE ES       14 6 38.67                             113    0.61 7  301 235 
 GUY2CHZ I        14 6 46.70        12.5 0.72                           301 235 
 PTGC HZ EP   4   14 6  3.00                             112   -1.26 0  310 159 
 PTGC HN ES   4   14 6 36.34                             112   -2.35 0  310 159 
 RREF HZ EP   1   14 6  6.15                             111   -0.30 5  322 229 
 CBOC HZ EP   4   14 6  8.69                             110    1.53 0  334 252 
 CBOC HN ES       14 6 43.24                             110   -0.60 7  334 252 
 CBOC HZ I        14 6 51.74         3.5 0.22            108            334 252 
 PRA  HZ EP   4   14 6 14.04                             107    0.20 0  393 209 
 SJC  HZ EP   4   14 6 13.84                             106   -1.80 0  408 327 
 SJC  HZ I        14 6 59.66         4.1 0.42            104            408 327 
                                                                                
