 2017 10 7 1804 50.6 L   6.496 -73.708102.9  RSN  6 0.3 1.6LRSN                1
 GAP=129        0.67       2.6     2.7  6.7 -0.7381E+00  0.1090E+02 -0.2430E+01E
 Epicentro: SANTA HELENA DEL OPON - SANTANDER                                  3
 ACTION:UPD 17-11-07 19:29 OP:rebc STATUS:               ID:20171007180450 L   I
 OLDACT:DUP 17-10-07 23:45 OP:osc  STATUS:               ID:20171007175737d    3
 2017-10-07-1758-00M.COL___435                                                 6
 STAT SP IPHASW D HRMM SECON CODA AMPLIT PERI AZIMU VELO AIN AR TRES W  DIS CAZ7
 BAR2 EZ EP       18 5  6.65                             148   -0.1310 59.1  80 
 BAR2 EZ ES       18 5 19.32                             148   -0.1110 59.1  80 
 BAR2 EZ I        18 5 20.43        24.3 0.26            155           59.1  80 
 RUS  HZ EP       18 5  9.92                             133   -0.0810 96.1 134 
 RUS  HN ES       18 5 25.61                             133    0.4410 96.1 134 
 RUS  HZ I        18 5 26.62         4.2 0.11            140           96.1 134 
 SPBC HZ EP       18 5  9.64                             131   -0.3210  102 203 
 SPBC HE ES       18 5 24.76                             131   -0.3210  102 203 
 SPBC HZ I        18 5 29.25         8.1 0.06            136            102 203 
 NOR  HZ EP       18 5 16.44                             117    0.12 9  165 231 
 NOR  HN ES       18 5 36.59                             117    0.19 9  165 231 
 NOR  HZ I        18 5 39.42         5.3 0.12            121            165 231 
 ZAR  HZ EP       18 5 16.87                             116    0.25 9  168 311 
 ZAR  HN ES       18 5 36.90                             116   -0.05 9  168 311 
 ZAR  HZ I        18 5 39.92         8.7 0.26            121            168 311 
 GUY2CHZ EP   3   18 5 22.71                             108   -1.63 2  231 233 
 GUY2CHE ES       18 5 50.96                             108    0.27 8  231 233 
 GUY2CHZ I        18 5 56.60         3.6 0.32                           231 233 
                                                                                
