 2011 12 7 1636 24.0 L   6.741 -73.066138.4  RSN  5 0.4 1.7LRSN                1
 GAP=150        0.68       4.8     7.5  7.7  0.3565E+01  0.3937E+01  0.4694E+01E
 Epicentro: JORDAN - SANTANDER                                                 3
 ACTION:UPD 12-07-13 16:14 OP:ep   STATUS:               ID:20111207163624 L   I
 2011-12-07-1630-00M.COL___182                                                 6
 STAT SP IPHASW D HRMM SECON CODA AMPLIT PERI AZIMU VELO AIN AR TRES W  DIS CAZ7
 BAR2 SZ EP       1636 42.80                             171    0.1410 20.9 218 
 BAR2 SZ ES   1   1636 57.53                             171    0.30 7 20.9 218 
 BAR2 SZ I        1636 59.01        12.5 0.19                          20.9 218 
 GIR2 SZ EP   2   1636 42.19                             163   -0.85 5 39.9 339 
 PAM  SE ES   1   1637  2.11                             149   -0.03 7 77.6  31 
 BRR  HZ EP   1   1636 44.91                             147   -0.09 7 82.1 300 
 BRR  HN ES   1   1637  1.39                             147   -0.01 7 82.1 300 
 BRR  HZ I        1637 11.93        20.8 0.32                          82.1 300 
 RUS  HZ EP   1   1636 46.92                             144    0.42 7 93.8 181 
 RUS  HN ES   1   1637  3.61                             144   -0.47 7 93.8 181 
 RUS  HZ I        1637  6.82         3.0 0.35                          93.8 181 
                                                                                
