 2017 11 7 1723 38.7 L   6.809 -73.176144.7  RSN  5 0.2 1.3LRSN                1
 GAP=144        0.53       4.2     3.2  7.9 -0.3178E+01  0.1622E+01 -0.1733E+02E
 Epicentro: LOS SANTOS - SANTANDER                                             3
 ACTION:UPD 17-12-12 19:53 OP:rebc STATUS:               ID:20171107172338 L   I
 OLDACT:UP  17-11-07 23:46 OP:mg   STATUS:               ID:20171107171737     3
 OLDACT:UP  17-11-07 23:46 OP:mg   STATUS:               ID:20171107171737     3
 OLDACT:REG 17-11-07 20:52 OP:mg   STATUS:               ID:20171107171737     3
 2017-11-07-1718-00M.COL___432                                                 6
 STAT SP IPHASW D HRMM SECON CODA AMPLIT PERI AZIMU VELO AIN AR TRES W  DIS CAZ7
 BAR2 EZ EP       1723 58.14                             170   -0.1110 23.9 182 
 BAR2 EZ ES   2   1724 13.69                             170    0.21 5 23.9 182 
 BAR2 EZ I        1724 14.74         3.3 0.17            169           23.9 182 
 PAM  EZ EP       1724  1.11                             150    0.1810 78.9  42 
 RUS  HZ EP   1   1724  2.24                             143   -0.24 7  102 174 
 RUS  HN ES       1724 20.87                             143   -0.1210  102 174 
 RUS  HZ I        1724 22.15         3.7 0.33            143            102 174 
 PTB  HZ EP   1   1724  5.47                             132    0.13 7  145 258 
 PTB  HN ES       1724 25.84                             132   -0.25 9  145 258 
 SPBC HE ES       1724 29.44                             129    0.35 9  162 218 
 SPBC HZ I        1724 31.97         3.2 0.18            129            162 218 
                                                                                
