 2014  9 7 1007 46.9 L   6.895 -73.202142.9  RSN  4 0.3 1.3LRSN                1
 GAP=201        0.70       5.4     6.7  6.8  0.7043E+01 -0.2654E+01 -0.1102E+02E
 Epicentro: BETULIA - SANTANDER                                                3
 ACTION:UPD 14-10-03 23:03 OP:nd   STATUS:               ID:20140907100746 L   I
 OLDACT:REG 14-09-07 20:16 OP:fm   STATUS:               ID:20140907095805     3
 2014-09-07-0958-05M.COL___263                                                 6
 STAT SP IPHASW D HRMM SECON CODA AMPLIT PERI AZIMU VELO AIN AR TRES W  DIS CAZ7
 BAR2 SZ EP       10 8  6.09                             166   -0.3610 33.6 176 
 BAR2 SZ ES   1   10 8 22.14                             166    0.45 7 33.6 176 
 BAR2 SZ I        10 8 24.19         2.7 0.22            176           33.6 176 
 BRR  HZ EP   1   10 8  7.57                             156    0.37 7 61.1 293 
 BRR  HN ES       10 8 22.81                             156   -0.2210 61.1 293 
 BRR  HZ I        10 8 28.23         8.1 0.36            153           61.1 293 
 PTB  HZ EP   1   10 8 13.11                             132   -0.21 7  144 254 
 PTB  HN ES   1   10 8 34.10                             132    0.18 7  144 254 
 PTB  HZ I        10 8 36.60         2.6 0.16            136            144 254 
 SML  HZ EP   1   10 8 22.57                             118    0.51 6  232 336 
 SML  HN ES   1   10 8 49.30                             118   -0.17 6  232 336 
 SML  HZ I        10 8 58.31         1.8 0.22            120            232 336 
                                                                                
