 2013 10 7 1440 22.8 L   6.714 -73.130149.4  RSN  5 0.5 1.6LRSN                1
 GAP=201        1.27       7.0     9.5  9.9  0.2143E+02  0.4286E+01 -0.2701E+02E
 Epicentro: JORDAN - SANTANDER                                                 3
 ACTION:UPD 13-11-25 09:20 OP:ep   STATUS:               ID:20131007144022 L   I
 OLDACT:REG 13-10-07 15:05 OP:nd   STATUS:               ID:20131007144000     3
 2013-10-07-1440-00M.COL___272                                                 6
 STAT SP IPHASW D HRMM SECON CODA AMPLIT PERI AZIMU VELO AIN AR TRES W  DIS CAZ7
 BAR2 SZ EP       1440 43.44                             174    0.6910 14.7 203 
 BAR2 SZ ES       1440 58.06                             174   -0.2310 14.7 203 
 BAR2 SZ I        1441  1.08         8.1 0.38            177           14.7 203 
 BRR  HZ EP       1440 45.30                             151    0.5710 77.6 304 
 BRR  HN ES       1441  2.36                             151    0.5410 77.6 304 
 BRR  HZ I        1441  7.96        11.6 0.46            152           77.6 304 
 RUS  HZ EP   2   1440 46.01                             147   -0.26 5 91.0 177 
 RUS  HN ES       1441  3.98                             147   -0.5810 91.0 177 
 RUS  HZ I        1441  7.36         2.6 0.30            153           91.0 177 
 PTB  HZ EP       1440 50.39                             133    0.29 9  148 263 
 PTB  HN ES       1441 10.93                             133   -0.45 9  148 263 
 PTB  HZ I        1441 13.56         4.6 0.18            136            148 263 
 SML  HZ EP       1440 59.91                             117   -0.75 8  253 336 
 SML  HN ES       1441 29.65                             117   -0.53 8  253 336 
 SML  HZ I        1441 35.46         5.6 0.10            120            253 336 
                                                                                
