 2011  8 7 1047 29.0 L   6.794 -73.088146.7  RSN 14 0.3 3.2LRSN                1
 GAP=130        0.40       2.1     2.6  2.7 -0.2604E+01 -0.5801E-01  0.1189E+01E
 Epicentro: LOS SANTOS - SANTANDER                                             3
 ACTION:UPD 12-07-25 14:06 OP:epov STATUS:               ID:20110807104729 L   I
 2011-08-07-1040-00M.COL___145                                                 6
 STAT SP IPHASW D HRMM SECON CODA AMPLIT PERI AZIMU VELO AIN AR TRES W  DIS CAZ7
 BAR2 SZ IP       1047 48.76                             170   -0.0310 24.7 205 
 BAR2 SZ ES   1   1048  4.04                             170   -0.17 7 24.7 205 
 BAR2 SZ I        1048  5.38       313.4 0.34                          24.7 205 
 PAM  SZ EP   1   1047 51.63                             152    0.50 7 74.0  35 
 PAM  SN ES   2   1048  8.33                             152   -0.05 5 74.0  35 
 BRR  HZ IP     D 1047 50.70                             151    0.0910 77.2 297 
 BRR  HN ES   1   1048  7.35                             151   -0.11 7 77.2 297 
 BRR  HZ I        1048 12.26       214.3 0.19                          77.2 297 
 RUS  HZ IP     D 1047 52.65                             144   -0.1510 99.7 180 
 RUS  HN ES   1   1048 11.62                             144    0.27 7 99.7 180 
 RUS  HZ I        1048 13.15       104.4 0.27                          99.7 180 
 NOR  SZ EP   1   1048  4.85                             118   -0.48 6  240 235 
 NOR  SN ES   2   1048 33.40                             118   -0.25 4  240 235 
 CHI  HZ EP   1   1048  6.91                             117    0.01 6  250 197 
 CHI  HE ES   2   1048 36.15                             117   -0.29 4  250 197 
 CHI  HZ I        1048 40.00        97.4 0.66                           250 197 
 ROSC BZ EP   2   1048  7.55                             117    0.05 4  256 212 
 ROSC BE ES   2   1048 37.62                             117    0.11 4  256 212 
 ROSC BZ I        1048 43.38       208.7 0.66                           256 212 
 VIL  SZ EP   1   1048 12.42                             112   -0.15 5  304 193 
 VIL  SN ES   2   1048 46.74                             112    0.21 4  304 193 
 VIL  SZ I        1048 56.64        69.4 0.47                           304 193 
 GUY  SZ EP   2   1048 13.84                             112    0.35 4  308 236 
 GUY  SZ I        1048 56.45       114.7 0.57                           308 236 
 RREF HZ EP   2   1048 15.64                             111   -0.08 3  326 230 
 RREF HE ES   2   1048 52.05                             111   -0.09 3  326 230 
 RREF HZ I        1049  0.86        88.1 0.40                           326 230 
 TOL  SZ EP   1   1048 17.79                             109    0.00 5  348 225 
 TOL  SZ ES   1   1048 56.32                             109    0.50 5  348 225 
 SDV  BZ IP     C 1048 18.32                             109   -0.25 6  356  49 
 SDV  BZ I        1048 19.00        36.0 0.29                           356  49 
 SDV  BN ES   2   1048 57.24                             109    0.02 3  356  49 
 ANIL HZ EP   2   1048 19.95                             108    0.62 3  361 225 
 ANIL HN ES   2   1048 58.75                             108    0.17 3  361 225 
 ANIL HZ I        1049  9.00       150.0 0.33                           361 225 
 PRA  HZ EP   2   1048 22.78                             107   -0.11 3  395 210 
 PRA  HN ES   2   1049  4.45                             107   -0.45 3  395 210 
                                                                                
