 2012  9 7 1103 49.0 L   6.783 -73.153140.4  RSN 20 0.5 3.7LRSN 3.9WRSN        1
 SPEC AVERAGE  MO 14.9 ST 45.9 OM  3.4 f0 2.76 R0.5677 AL 2.36 WI 32.3 MW  3.9 3
 SPEC SD       MO  0.2 ST 54.2 OM  0.6 f00.695 R0.1230 AL      WI      MW  0.1 3
 GAP= 65        0.96       4.1     3.5  5.3  0.1628E+01  0.5636E+01  0.9363E+01E
 Epicentro: LOS SANTOS - SANTANDER                                             3
 SPEC VIL SH Z MO 15.1 ST 21.5 OM  2.4 f0 2.38 R0.6176 AL 2.49 WI 23.5 MW  4.0 3
 SPEC VIL SH Z T11 431 K 0.000 GD  332 VP 7.60 DE 3.00 Q0230.0 QA 0.60 VS 4.20 3
 SPEC ROSCBH Z MO 15.2 ST 52.2 OM  2.6 f0 2.88 R0.5104 AL 3.22 WI 28.5 MW  4.1 3
 SPEC ROSCBH Z T11 426 K 0.000 GD  287 VP 7.60 DE 3.00 Q0230.0 QA 0.60 VS 4.20 3
 SPEC YOP SH N MO 14.8 ST  8.0 OM  3.1 f0 2.06 R0.7136 AL 1.98 WI 30.6 MW  3.8 3
 SPEC YOP SH N T11 440 K 0.000 GD  226 VS 4.20 DE 3.00 Q0230.0 QA 0.60 VS 4.20 3
 SPEC TAM HH N MO 14.7 ST  4.1 OM  3.0 f0 1.83 R0.8033 AL 1.70 WI 18.6 MW  3.7 3
 SPEC TAM HH N T11 437 K 0.000 GD  209 VS 4.20 DE 3.00 Q0230.0 QA 0.60 VS 4.20 3
 SPEC PRA HH N MO 15.0 ST 22.4 OM  3.0 f0 2.56 R0.5742 AL 1.73 WI 24.8 MW  3.9 3
 SPEC PRA HH N T11 522 K 0.000 GD  414 VS 4.20 DE 3.00 Q0230.0 QA 0.60 VS 4.20 3
 SPEC MON HH N MO 14.8 ST 25.9 OM  2.9 f0 2.98 R0.4933 AL 2.42 WI 41.2 MW  3.8 3
 SPEC MON HH N T11 513 K 0.000 GD  381 VS 4.20 DE 3.00 Q0230.0 QA 0.60 VS 4.20 3
 SPEC NOR SH N MO 15.2 ST198.1 OM  3.4 f0 4.48 R0.3281 AL 3.20 WI 42.7 MW  4.1 3
 SPEC NOR SH N T11 450 K 0.000 GD  272 VS 4.20 DE 3.00 Q0230.0 QA 0.60 VS 4.20 3
 SPEC PTB HH N MO 14.9 ST 18.0 OM  3.2 f0 2.59 R0.5676 AL 2.17 WI 30.3 MW  3.9 3
 SPEC PTB HH N T11 435 K 0.000 GD  203 VS 4.20 DE 3.00 Q0230.0 QA 0.60 VS 4.20 3
 SPEC PAM SH N MO 14.7 ST 22.5 OM  3.1 f0 3.25 R0.4523 AL 3.43 WI 28.6 MW  3.7 3
 SPEC PAM SH N T11 426 K 0.000 GD  161 VS 4.20 DE 3.00 Q0230.0 QA 0.60 VS 4.20 3
 SPEC HEL HH Z MO 14.7 ST  7.9 OM  2.1 f0 2.21 R0.6652 AL 1.38 WI 29.5 MW  3.8 3
 SPEC HEL HH Z T11 429 K 0.000 GD  305 VP 7.60 DE 3.00 Q0230.0 QA 0.60 VS 4.20 3
 SPEC CHI HH N MO 14.9 ST 15.4 OM  3.1 f0 2.37 R0.6203 AL 2.06 WI 70.5 MW  3.9 3
 SPEC CHI HH N T11 452 K 0.000 GD  284 VS 4.20 DE 3.00 Q0230.0 QA 0.60 VS 4.20 3
 SPEC BRR HH N MO 15.3 ST134.3 OM  3.7 f0 3.75 R0.3920 AL 2.64 WI 27.5 MW  4.1 3
 SPEC BRR HH N T11 426 K 0.000 GD  157 VS 4.20 DE 3.00 Q0230.0 QA 0.60 VS 4.20 3
 ACTION:UPD 12-10-22 14:17 OP:ep   STATUS:               ID:20120907110348 L   I
 2012-09-07-1100-00M.COL___227                                                 6
 STAT SP IPHASW D HRMM SECON CODA AMPLIT PERI AZIMU VELO AIN AR TRES W  DIS CAZ7
 BAR2 SZ IP       11 4  8.04                             171    0.1510 21.3 189 
 BAR2 SZ I        11 4  8.13       858.9 0.42                          21.3 189 
 BAR2 SZ ES   1   11 4 21.89                             171   -0.78 7 21.3 189 
 GIR2 SZ IP       11 4  8.04                             166    0.0010 33.1 352 
 GIR2 SZ ES   1   11 4 23.28                             166    0.36 7 33.1 352 
 BRR  HZ IP     C 11 4  9.87                             151    0.3310 71.5 300 
 BRR  HE ES   1   11 4 26.41                             151    0.82 7 71.5 300 
 BRR  HN I        11 4 28.11      1657.3 0.18                          71.5 300 
 PAM  SZ IP       11 4 10.73                             149    0.0110 79.4  39 
 PAM  SZ I        11 4 10.90       493.7 0.22                          79.4  39 
 PAM  SN ES   1   11 4 27.22                             149   -0.48 7 79.4  39 
 RUS  HZ IP     D 11 4 11.88                             143   -0.1610 98.7 176 
 RUS  HN ES   1   11 4 30.33                             143    0.28 7 98.7 176 
 PTB  HZ IP     D 11 4 14.52                             131   -0.86 9  147 260 
 PTB  HN ES   1   11 4 35.58                             131   -0.42 7  147 260 
 PTB  HN I        11 4 41.63      1027.6 0.48                           147 260 
 TAM  HZ IP     D 11 4 16.20                             129   -0.03 9  155 104 
 TAM  HN ES   1   11 4 37.77                             129    0.26 7  155 104 
 TAM  HN I        11 4 38.64       536.3 0.36                           155 104 
 YOP  SZ IP       11 4 18.54                             125    0.07 9  178 153 
 YOP  SN ES   3   11 4 41.56                             125    0.06 2  178 153 
 YOP  SN I        11 4 45.23       453.0 0.68                           178 153 
 ZAR  HZ EP       11 4 20.74                             121   -0.31 9  204 293 
 ZAR  HN ES   2   11 4 46.32                             121    0.23 4  204 293 
 NOR  SZ EP       11 4 23.76                             117   -0.42 8  233 235 
 NOR  SN I        11 4 58.53       559.7 0.13                           233 235 
 CHI  HZ EP       11 4 25.80                             116   -0.33 8  247 195 
 CHI  HN ES   2   11 4 54.37                             116   -0.76 4  247 195 
 CHI  HN I        11 4 58.08       323.6 0.30                           247 195 
 ROSC BZ EP       11 4 27.61                             116    1.05 8  251 211 
 ROSC BN ES   3   11 4 56.49                             116    0.60 2  251 211 
 HEL  HZ EP       11 4 29.80                             114    1.04 8  271 256 
 HEL  HN ES   3   11 5  0.34                             114    0.53 2  271 256 
 HEL  HN I        11 5  6.98       214.5 0.32                           271 256 
 VIL  SZ EP       11 4 31.70                             111   -0.19 7  301 192 
 VIL  SE ES   3   11 5  6.17                             111    0.78 2  301 192 
 VIL  SN I        11 5 13.16       411.3 0.64                           301 192 
 DBB  SZ EP       11 4 35.48                             108   -0.66 7  339 275 
 TOL  SZ EP       11 4 37.11                             108    0.34 7  342 225 
 ANIL HZ EP       11 4 39.14                             108    0.81 6  355 225 
 ANIL HN ES   3   11 5 18.01                             108    1.16 2  355 225 
 PRA  HZ EP       11 4 41.39                             106   -0.66 6  390 210 
 PRA  HN ES   2   11 5 22.75                             106   -0.71 3  390 210 
 PRA  HN I        11 5 29.22       152.6 0.52                           390 210 
 PAL  HZ EP   2   11 4 43.62                             105   -0.12 3  404 239 
 PAL  HZ I        11 4 46.89       117.1 0.14                           404 239 
 PAL  HE ES   3   11 5 26.88                             105    0.40 1  404 239 
 HORQ SZ EP   3   11 4 59.81                             101    0.77 1  530 227 
                                                                                
