 2012  1 7 1408  4.8 L   6.797 -73.164145.3  RSN  6 0.3 1.5LRSN                1
 GAP=181        0.93       9.3     9.1  8.7  0.5049E+02  0.2053E+02  0.1932E+02E
 Epicentro: LOS SANTOS - SANTANDER                                             3
 ACTION:UP  12-02-03 08:15 OP:REBC STATUS:               ID:20120107140804 L   I
 2012-01-07-1400-00M.COL___186                                                 6
 STAT SP IPHASW D HRMM SECON CODA AMPLIT PERI AZIMU VELO SNR AR TRES W  DIS CAZ7
 BAR2 SZ EP       14 8 24.32                             171     0.010   23 185 
 BAR2 SZ ES   1   14 8 39.38                             171    -0.2 7   23 185 
 BAR2 SZ I        14 8 40.49         6.7 0.70                            23 185 
 GIR2 SZ EP       14 8 24.17                             167    -0.210   31 354 
 GIR2 SZ ES   2   14 8 39.12                             167    -0.6 5   31 354 
 BRR  HZ EP       14 8 26.18                             153     0.410   70 300 
 BRR  HZ I        14 8 29.73        16.0 0.59                            70 300 
 BRR  HE ES   1   14 8 42.83                             153     0.6 7   70 300 
 RUS  HZ EP       14 8 28.79                             144     0.310  100 175 
 RUS  HN ES   2   14 8 46.85                             144    -0.1 5  100 175 
 RUS  HZ I        14 8 49.90         2.4 0.28                           100 175 
 PTB  HZ EP       14 8 31.18                             132    -0.4 9  146 259 
 PTB  HZ I        14 8 53.23         2.1 0.09                           146 259 
 ZAR  HE ES   1   14 9  1.94                             122    -0.2 6  202 292 
 ZAR  HZ I        14 9  7.53         4.5 0.78                           202 292 
                                                                                
