 2012  8 7 1614 58.4 L   6.769 -73.119150.0  RSN  6 0.4 1.8LRSN                1
 GAP=141        0.81       5.6     5.3  7.9 -0.7371E+01  0.7501E+01  0.3521E+01E
 Epicentro: LOS SANTOS - SANTANDER                                             3
 ACTION:UPD 12-09-10 11:55 OP:ep   STATUS:               ID:20120807161458 L   I
 2012-08-07-1610-00M.COL___216                                                 6
 STAT SP IPHASW D HRMM SECON CODA AMPLIT PERI AZIMU VELO AIN AR TRES W  DIS CAZ7
 BAR2 SZ EP   1   1615 18.47                             172   -0.02 7 20.8 200 
 BAR2 SZ I        1615 18.73         9.6 0.20                          20.8 200 
 BAR2 SZ ES   1   1615 33.82                             172   -0.33 7 20.8 200 
 BRR  HZ EP   1   1615 20.41                             152    0.17 7 75.5 300 
 BRR  HZ I        1615 20.69        25.1 0.15                          75.5 300 
 BRR  HN ES   1   1615 37.90                             152    0.62 7 75.5 300 
 PAM  SZ EP   1   1615 21.31                             151    0.20 7 78.2  36 
 PAM  SN ES   1   1615 38.69                             151   -0.13 7 78.2  36 
 RUS  HZ EP   1   1615 22.32                             146    0.00 7 97.0 178 
 RUS  HN ES   1   1615 41.07                             146    0.10 7 97.0 178 
 RUS  HZ I        1615 42.32         5.6 0.38                          97.0 178 
 PTB  HZ EP   1   1615 25.37                             132   -0.55 7  150 260 
 PTB  HN ES   1   1615 46.64                             132   -0.75 7  150 260 
 PTB  HZ I        1615 53.78         7.3 0.23                           150 260 
 NOR  SN ES   1   1616  3.31                             119    0.78 6  235 236 
                                                                                
