 2013  4 7 1842 41.4 L   6.737 -73.165146.0  RSN  6 0.3 1.6LRSN                1
 GAP=179        0.58       4.2     4.1  4.8  0.6602E+01  0.5676E+01  0.5252E+01E
 Epicentro: VILLANUEVA - SANTANDER                                             3
 ACTION:UPD 13-05-22 14:36 OP:EP   STATUS:               ID:20130407184241 L   I
 2013-04-07-1840-00M.COL___245                                                 6
 STAT SP IPHASW D HRMM SECON CODA AMPLIT PERI AZIMU VELO AIN AR TRES W  DIS CAZ7
 BAR2 SZ EP   1   1843  0.70                             173   -0.20 7 16.1 187 
 BAR2 SZ ES   1   1843 15.82                             173   -0.31 7 16.1 187 
 BAR2 SZ I        1843 16.85        14.8 0.26            171           16.1 187 
 GIR2 SZ EP       1843  1.12                             165   -0.1410 38.0 355 
 GIR2 SZ ES       1843 16.70                             165   -0.0810 38.0 355 
 GIR2 SZ I        1843 17.59         8.4 0.48            167           38.0 355 
 BRR  HZ EP   1   1843  2.98                             152    0.34 7 73.0 304 
 BRR  HN ES   1   1843 19.78                             152    0.55 7 73.0 304 
 BRR  HZ I        1843 21.57         7.8 0.14            152           73.0 304 
 RUS  HZ EP       1843  4.91                             146    0.2510 93.8 174 
 RUS  HN ES   1   1843 22.92                             146    0.09 7 93.8 174 
 RUS  HZ I        1843 24.57         3.6 0.30            146           93.8 174 
 PTB  HZ EP       1843  7.84                             133   -0.21 9  144 261 
 PTB  HN ES   1   1843 28.76                             133   -0.10 7  144 261 
 PTB  HZ I        1843 31.01         6.4 0.20            133            144 261 
 ZAR  HN ES   1   1843 39.13                             122   -0.15 6  205 294 
                                                                                
