 2015  1 7 1751 41.3 L   6.783 -73.143144.9  RSN 14 0.5 2.6LRSN                1
 GAP= 72        1.09       3.5     3.3  5.7 -0.3041E+00  0.4273E+01 -0.6954E+00E
 Epicentro: LOS SANTOS - SANTANDER                                             3
 ACTION:UPD 15-03-02 15:37 OP:nd   STATUS:               ID:20150107175141 L   I
 OLDACT:UP  15-01-07 23:42 OP:mh   STATUS:               ID:20150107174747     3
 OLDACT:UP  15-01-07 22:44 OP:mh   STATUS:               ID:20150107174747     3
 OLDACT:UP  15-01-07 22:44 OP:mh   STATUS:               ID:20150107174747     3
 OLDACT:REG 15-01-07 20:52 OP:mh   STATUS:               ID:20150107174747     3
 2015-01-07-1747-47M.COL___280                                                 6
 STAT SP IPHASW D HRMM SECON CODA AMPLIT PERI AZIMU VELO AIN AR TRES W  DIS CAZ7
 BAR2 EZ IP     D 1752  1.04                             171    0.2710 21.5 192 
 BAR2 EZ ES       1752 15.79                             171   -0.1910 21.5 192 
 BRR  HZ IP     D 1752  2.96                             152    0.5510 72.4 300 
 BRR  HN ES       1752 19.50                             152    0.6110 72.4 300 
 BRR  HZ I        1752 23.95        60.8 0.00            150           72.4 300 
 PAM  SZ EP       1752  3.91                             150    0.4310 78.6  38 
 PAM  SN ES       1752 20.78                             150   -0.0210 78.6  38 
 PAM  SZ I        1752 21.30        29.6 0.18            154           78.6  38 
 RUS  HZ EP       1752  5.00                             144    0.1910 98.7 176 
 RUS  HE ES       1752 22.67                             144   -0.4910 98.7 176 
 RUS  HZ I        1752 24.10        45.5 0.22            146           98.7 176 
 PTB  HZ EP       1752  7.78                             132   -0.40 9  148 260 
 PTB  HN ES   1   1752 28.16                             132   -1.00 7  148 260 
 PTB  HZ I        1752 31.72        65.3 0.12            131            148 260 
 TAM  HZ EP       1752  9.16                             130    0.35 9  154 104 
 TAM  HN ES       1752 30.09                             130   -0.20 9  154 104 
 TAM  HZ I        1752 31.74        18.9 0.36            134            154 104 
 SPBC HZ EP       1752  9.75                             129    0.16 9  162 220 
 SPBC HN ES   1   1752 31.58                             129   -0.10 7  162 220 
 SPBC HZ I        1752 35.48        63.0 0.20            129            162 220 
 OCA  HZ EP       1752  9.25                             129   -0.46 9  162 353 
 OCA  HN ES       1752 31.22                             129   -0.66 9  162 353 
 OCA  HZ I        1752 34.79        76.1 0.22            130            162 353 
 ZAR  HZ EP       1752 14.18                             122    0.40 9  205 293 
 ZAR  HN ES       1752 39.66                             122    0.54 9  205 293 
 ZAR  HZ I        1752 45.29        44.2 0.28            122            205 293 
 NOR  HZ EP       1752 17.02                             118    0.15 8  234 235 
 NOR  HN ES   1   1752 44.68                             118    0.05 6  234 235 
 NOR  HZ I        1752 52.07        25.1 0.16            119            234 235 
 SML  HZ EP       1752 17.47                             117   -0.59 8  246 335 
 SML  HN ES   4   1752 45.02                             117   -1.73 0  246 335 
 SML  HZ I        1752 49.67        70.5 0.10            118            246 335 
 HEL  HZ EP   4   1752 23.32                             115    1.89 0  272 256 
 HEL  HN ES   1   1752 53.11                             115    0.36 6  272 256 
 HEL  HZ I        1753  1.13        18.0 0.66            115            272 256 
 URE  HZ EP   4   1752 21.86                             113   -0.56 0  285 292 
 URE  HN ES   4   1752 53.45                             113   -1.06 0  285 292 
 RREF HZ EP   4   1752 29.10                             111    1.83 0  321 230 
 RREF HN ES   4   1753  5.79                             111    2.64 0  321 230 
 DBB  SZ EP   1   1752 27.37                             109   -1.41 5  340 275 
 ANIL HZ E      D 1748  3.95                                            356 225 
                                                                                
