 2010  9 7 1732 57.5 L   6.745 -73.146142.0  RSN  7 0.3 1.9LRSN                1
 GAP=159        0.64       4.6    10.3  6.9 -0.3005E+01 -0.2063E+02 -0.3420E+01E
 Epicentro: JORDAN - SANTANDER                                                 3
 ACTION:UP  11-02-18 11:01 OP:tino STATUS:               ID:20100907173257 L   I
 2010-09-07-1728-09S.COL___120                                                 6
 STAT SP IPHASW D HRMM SECON CODA AMPLIT PERI AZIMU VELO SNR AR TRES W  DIS CAZ7
 BAR2 SZ EP   1   1733 16.53                             173    -0.1 7   18 194 
 BAR2 SZ ES   2   1733 31.11                             173    -0.4 5   18 194 
 BAR2 SZ I        1733 32.47        24.8 0.33                            18 194 
 BTL  SZ EP   1   1733 16.79                             170     0.1 7   23 325 
 BTL  SZ ES   2   1733 31.70                             170     0.0 5   23 325 
 GIR2 SZ EP   1   1733 16.63                             165    -0.3 7   37 352 
 GIR2 SZ ES   2   1733 31.80                             165    -0.3 5   37 352 
 BRR  HZ EP   1   1733 18.35                             151    -0.1 7   74 303 
 BRR  HZ I        1733 18.75        19.7 0.09                            74 303 
 BRR  HE ES   2   1733 35.22                             151     0.5 5   74 303 
 RUS  HZ EP   1   1733 20.51                             145     0.0 7   95 176 
 RUS  HN ES   2   1733 38.77                             145     0.4 5   95 176 
 RUS  HZ I        1733 40.91        13.0 0.32                            95 176 
 GUE  SZ EP   1   1733 21.90                             137    -0.5 7  122  12 
 GRA  SZ EP   1   1733 23.52                             135     0.6 7  132  17 
 GRA  SZ ES   2   1733 43.04                             135     0.3 5  132  17 
 GRA  SZ I        1733 46.37         6.1 0.29                           132  17 
                                                                                
