 2014  1 7 1630 40.0 L   6.716 -73.117141.6  RSN  6 0.4 1.5LRSN                1
 GAP=144        1.01       4.2     5.2  6.8 -0.2177E+01  0.3945E+01  0.7272E+01E
 Epicentro: JORDAN - SANTANDER                                                 3
 ACTION:UPD 14-03-13 09:52 OP:ep   STATUS:               ID:20140107163040 L   I
 OLDACT:DUP 14-01-07 18:59 OP:stll STATUS:               ID:20140107162816d    3
 2014-01-07-1628-15M.COL___246                                                 6
 STAT SP IPHASW D HRMM SECON CODA AMPLIT PERI AZIMU VELO AIN AR TRES W  DIS CAZ7
 BAR2 SZ EP       1630 59.14                             173    0.1810 15.5 208 
 BAR2 SZ ES       1631 13.74                             173   -0.0310 15.5 208 
 BAR2 SZ I        1631 16.11        11.7 0.28            171           15.5 208 
 BRR  HZ EP       1631  1.15                             149    0.0410 78.7 303 
 BRR  HN ES       1631 18.21                             149    0.6010 78.7 303 
 PAM  SZ EP       1631  2.21                             148    0.1310 82.9  34 
 PAM  SZ I        1631  2.38         8.8 0.24            152           82.9  34 
 PAM  SN ES       1631 19.17                             148   -0.1610 82.9  34 
 RUS  HZ EP       1631  1.97                             146   -0.6710 91.2 178 
 RUS  HN ES       1631 20.24                             146   -0.0810 91.2 178 
 RUS  HZ I        1631 23.04         2.5 0.26            147           91.2 178 
 PTB  HZ EP       1631  6.33                             131   -0.42 9  149 263 
 PTB  HN ES       1631 27.21                             131   -0.43 9  149 263 
 PTB  HZ I        1631 32.89         3.7 0.44            131            149 263 
 CHI  HZ EP       1631 17.35                             117    0.79 8  241 196 
 CHI  HN ES       1631 45.47                             117    0.37 8  241 196 
                                                                                
