 2017 10 7 1353 27.6 L   6.785 -73.150138.6  RSN 12 0.5 2.0LRSN                1
 GAP=112        1.00       3.3     3.8  6.3 -0.5805E+00  0.7998E+01  0.4195E+01E
 Epicentro: LOS SANTOS - SANTANDER                                             3
 ACTION:UPD 17-11-07 19:29 OP:rebc STATUS:               ID:20171007135327 L   I
 OLDACT:REG 17-10-07 20:24 OP:osc  STATUS:               ID:20171007134741     3
 2017-10-07-1348-00M.COL___435                                                 6
 STAT SP IPHASW D HRMM SECON CODA AMPLIT PERI AZIMU VELO AIN AR TRES W  DIS CAZ7
 BAR2 EZ EP       1353 46.05                             171   -0.2710 21.7 189 
 BAR2 EZ ES       1354  1.12                             171    0.1910 21.7 189 
 BAR2 EZ I        1354  2.22        42.8 0.22            170           21.7 189 
 PAM  EZ EP       1353 49.03                             149   -0.1110 78.9  39 
 PAM  EN ES       1354  5.95                             149    0.0010 78.9  39 
 PAM  EZ I        1354  7.90        28.3 0.66            152           78.9  39 
 RUS  HZ EP       1353 50.41                             143   -0.1110 99.0 176 
 RUS  HE ES       1354  8.37                             143   -0.0410 99.0 176 
 RUS  HZ I        1354  9.26        13.3 0.26            144           99.0 176 
 SPBC HE ES       1354 16.36                             128   -0.72 9  162 219 
 YPLC HZ EP     D 1353 56.48                             125   -0.27 9  176 151 
 YPLC HN ES       1354 20.32                             125    0.82 9  176 151 
 YPLC HZ I        1354 22.79        15.9 0.26            127            176 151 
 ZAR  HZ EP       1353 58.98                             121   -0.61 9  204 293 
 ZAR  HE ES       1354 25.45                             121    0.90 9  204 293 
 ZAR  HZ I        1354 31.83        15.1 0.28            121            204 293 
 NOR  HN ES       1354 30.42                             117    0.22 8  233 235 
 NOR  HZ I        1354 36.71         5.1 0.32            117            233 235 
 CHI  HZ EP       1354  4.71                             116    0.00 8  247 195 
 CHI  HE ES       1354 33.30                             116   -0.36 8  247 195 
 CHI  HZ I        1354 36.70         3.3 0.34            116            247 195 
 GUY2CHZ EP   3   1354 12.02                             111    1.30 2  300 235 
 GUY2CHE ES       1354 44.16                             111   -0.20 7  300 235 
 GUY2CHZ I        1354 48.95         2.8 0.28                           300 235 
 PRA  HZ EP       1354 20.88                             105    0.21 6  390 210 
 PRA  HE ES       1355  2.72                             105    0.64 6  390 210 
 PRA  HZ I        1355  7.88         4.2 0.42            106            390 210 
 ORTC HN ES   2   1355  4.14                             105    1.34 3  394 216 
 SJC  HZ EP   4   1354 20.92                             105   -2.13 0  410 327 
 SJC  HE ES   4   1355  2.24                             105   -4.07 0  410 327 
 SJC  HZ I        1355  6.36         5.6 0.56            105            410 327 
                                                                                
