 2012 10 7 1025 21.6 L   6.781 -73.125140.9  RSN  6 0.3 2.3LRSN                1
 GAP=140        0.57       4.9     5.2  5.2 -0.2190E+01 -0.9224E+00 -0.2881E+00E
 Epicentro: LOS SANTOS - SANTANDER                                             3
 ACTION:UPD 12-11-22 17:02 OP:ep   STATUS:               ID:20121007102521 L   I
 2012-10-07-1020-00M.COL___222                                                 6
 STAT SP IPHASW D HRMM SECON CODA AMPLIT PERI AZIMU VELO AIN AR TRES W  DIS CAZ7
 BAR2 SZ EP       1025 40.50                             171   -0.0910 21.8 197 
 BAR2 SZ ES   1   1025 55.44                             171    0.02 7 21.8 197 
 BAR2 SZ I        1025 57.29        25.1 0.66                          21.8 197 
 GIR2 SZ EP       1025 40.41                             166   -0.3310 33.8 347 
 GIR2 SZ ES   1   1025 55.23                             166   -0.46 7 33.8 347 
 BRR  HZ EP       1025 42.54                             150    0.1610 74.2 299 
 BRR  HN ES   1   1025 59.02                             150    0.42 7 74.2 299 
 BRR  HN I        1026  3.21       111.8 0.18                          74.2 299 
 PAM  SZ EP       1025 43.54                             150    0.2510 77.6  37 
 PAM  SZ I        1025 43.77        29.6 0.20                          77.6  37 
 PAM  SN ES   1   1026  0.22                             150    0.00 7 77.6  37 
 RUS  HZ EP   3   1025 44.98                             143    0.29 2 98.4 177 
 RUS  HN ES   2   1026  2.81                             143    0.10 5 98.4 177 
 ZAR  HE ES   3   1026 18.80                             120   -0.51 2  207 292 
 ZAR  HN I        1026 23.51        13.9 0.32                           207 292 
                                                                                
