 2012  3 7 1135 17.0 L   6.801 -73.506 90.3  RSN  5 3.6 1.6LRSN                1
 GAP=157        8.28      58.2    46.6 76.8  0.1786E+04  0.1335E+04  0.2640E+04E
 ACTION:UP  12-03-31 23:18 OP:EP   STATUS:               ID:20120307113517 L   I
 2012-03-07-1130-00M.COL___194                                                 6
 STAT SP IPHASW D HRMM SECON CODA AMPLIT PERI AZIMU VELO SNR AR TRES W  DIS CAZ7
 BRR  HZ EP   1   1135 28.32                             155    -2.1 7   41 326 
 BRR  HE ES   1   1135 41.54                             155     0.6 7   41 326 
 BRR  HZ I   L    1135 42.90        18.0 0.13                    2.010   41 326 
 BAR2 SZ EP   1   1135 27.89                             164    -3.0 7   43 123 
 BAR2 SZ I   L    1135 28.08        39.3 0.12                   -2.810   43 123 
 BAR2 SZ ES   1   1135 40.83                             164    -0.9 7   43 123 
 PTB  HZ EP   1   1135 32.98                             131    -3.1 7  109 255 
 PTB  HN ES   1   1135 50.23                             131    -0.6 7  109 255 
 RUS  HZ EP   1   1135 32.98                             136    -3.9 7  111 155 
 RUS  HZ I   L    1135 46.02         3.3 0.49                    9.210  111 155 
 RUS  HN ES   1   1135 50.26                             136    -2.1 7  111 155 
 ZAR  HE ES   1   1136  2.71                             119     0.6 7  168 297 
                                                                                
