 2017  5 7 1643 59.3 L   7.406 -73.184128.6  RSN  4 0.1 1.5LRSN                1
 GAP=185        0.39       5.0     1.9  3.7  0.1361E+01  0.1353E+01  0.5506E+01E
 Epicentro: EL PLAYON - SANTANDER                                              3
 ACTION:UPD 17-06-16 13:33 OP:jn   STATUS:               ID:20170507164359 L   I
 OLDACT:REG 17-05-07 20:25 OP:dani STATUS:               ID:20170507163627     3
 2017-05-07-1638-00M.COL___358                                                 6
 STAT SP IPHASW D HRMM SECON CODA AMPLIT PERI AZIMU VELO AIN AR TRES W  DIS CAZ7
 PAM  EZ EP       1644 18.44                             156    0.0810 54.0  98 
 PAM  EN ES       1644 33.22                             156   -0.0110 54.0  98 
 PAM  EZ I        1644 35.55         4.2 0.21            159           54.0  98 
 BRR  HZ EP       1644 18.13                             151   -0.2210 67.0 241 
 BRR  HN ES       1644 33.25                             151    0.0310 67.0 241 
 BRR  HZ I        1644 37.39        11.6 0.07            151           67.0 241 
 RUS  HZ EP       1644 27.58                             124    0.07 9  168 176 
 ZAR  HE ES       1644 51.66                             121    0.09 9  185 273 
                                                                                
