 2010  9 7 1610 34.0 L   6.754 -73.094146.4  RSN  6 0.3 1.9LRSN                1
 GAP=165        0.59       5.4    11.4 10.0  0.1644E+02 -0.5711E+02 -0.2522E+02E
 Epicentro: LOS SANTOS - SANTANDER                                             3
 ACTION:UP  11-02-18 11:00 OP:tino STATUS:               ID:20100907161034 L   I
 2010-09-07-1607-07S.COL___120                                                 6
 STAT SP IPHASW D HRMM SECON CODA AMPLIT PERI AZIMU VELO SNR AR TRES W  DIS CAZ7
 BAR2 SZ IP     D 1610 53.67                             172     0.010   20 209 
 BAR2 SZ ES   2   1611  8.82                             172    -0.2 5   20 209 
 BAR2 SZ I        1611 10.38        18.6 0.19                            20 209 
 GIR2 SZ EP   1   1610 53.75                             165    -0.2 7   38 343 
 BRR  HZ EP   1   1610 55.52                             150    -0.1 7   79 300 
 BRR  HZ I        1610 55.76        27.6 0.15                            79 300 
 BRR  HN ES   2   1611 12.87                             150     0.3 5   79 300 
 RUS  HZ EP   1   1610 57.53                             146     0.1 7   95 179 
 RUS  HE ES   2   1611 15.73                             146     0.0 5   95 179 
 RUS  HZ I        1611 17.08         7.0 0.30                            95 179 
 GUE  SZ EP   1   1610 58.71                             138    -0.4 7  120   9 
 GRA  SZ EP   1   1611  0.11                             136     0.5 7  129  14 
                                                                                
