 2016  1 7 1014 30.1 L   6.814 -73.123148.0  RSN  5 0.3 1.5LRSN                1
 GAP=220        0.74       3.4     6.1  6.1  0.1670E+01  0.1188E+02 -0.4598E+01E
 Epicentro: LOS SANTOS - SANTANDER                                             3
 ACTION:UPD 16-03-09 23:23 OP:cam  STATUS:               ID:20160107101430 L   I
 OLDACT:REG 16-01-07 21:53 OP:ar   STATUS:               ID:20160107100751     3
 2016-01-07-1007-51M.COL___285                                                 6
 STAT SP IPHASW D HRMM SECON CODA AMPLIT PERI AZIMU VELO AIN AR TRES W  DIS CAZ7
 BAR2 EZ EP       1014 49.99                             170   -0.1010 25.4 195 
 BAR2 EZ ES       1015  5.81                             170    0.1710 25.4 195 
 BAR2 EZ I        1015  8.04         4.3 0.36            168           25.4 195 
 SPBC HZ EP       1014 58.87                             129   -0.21 9  166 219 
 SPBC HN ES       1015 21.55                             129   -0.10 9  166 219 
 SPBC HZ I        1015 26.55         3.8 0.20            130            166 219 
 ZAR  HZ EP       1015  3.71                             123    0.79 8  206 291 
 ZAR  HN ES       1015 28.42                             123   -0.06 8  206 291 
 ZAR  HZ I        1015 30.01         2.8 0.30            124            206 291 
 SML  HZ EP       1015  6.86                             118    0.00 8  243 335 
 SML  HN ES       1015 35.09                             118   -0.40 8  243 335 
 SML  HZ I        1015 37.33         4.2 0.28            120            243 335 
 GUY2CHZ EP       1015 14.02                             112   -0.17 7  304 235 
 GUY2CHN ES   4   1015 51.47                             112    2.92 0  304 235 
 GUY2CHZ I        1015 56.61         1.3 0.56                           304 235 
                                                                                
