 2012  2 7 1616 49.7 L   7.367 -73.194129.8  RSN 10 0.3 2.7LRSN                1
 GAP=179        0.55       3.7     2.7  4.3 -0.8315E-01  0.4510E+01 -0.2968E+00E
 ACTION:UP  12-03-07 16:28 OP:epov STATUS:               ID:20120207161649 L   I
 2012-02-07-1610-00M.COL___188                                                 6
 STAT SP IPHASW D HRMM SECON CODA AMPLIT PERI AZIMU VELO AIN AR TRES W  DIS CAZ7
 GIR2 SZ EP       1617  7.55                             165    0.0310 31.9 180 
 PAM  SZ EP       1617  9.03                             156    0.0710 54.7  93 
 PAM  SN ES   1   1617 23.79                             156   -0.17 7 54.7  93 
 PAM  SZ I        1617 27.03        91.2 0.32                          54.7  93 
 BRR  HZ EP       1617  8.79                             152    0.0510 64.0 243 
 BRR  HZ I        1617  9.08       243.0 0.17                          64.0 243 
 BRR  HN ES   1   1617 23.87                             152    0.30 7 64.0 243 
 BAR2 SZ EP   1   1617 10.67                             145    0.19 7 85.7 179 
 BAR2 SZ ES   1   1617 26.62                             145   -0.04 7 85.7 179 
 BAR2 SZ I        1617 28.22       224.8 0.13                          85.7 179 
 RUS  HZ EP   1   1617 17.59                             125   -0.03 7  164 176 
 RUS  HN ES   1   1617 39.13                             125   -0.24 7  164 176 
 RUS  HZ I        1617 43.19        19.1 0.42                           164 176 
 PTB  HZ EP   1   1617 16.79                             124   -0.53 7  167 237 
 PTB  HN ES   1   1617 38.64                             124   -0.20 7  167 237 
 ZAR  HZ EP   1   1617 18.64                             121   -0.45 7  184 274 
 ZAR  HE ES   1   1617 42.10                             121    0.11 7  184 274 
 ZAR  HZ I        1617 45.56        75.4 0.21                           184 274 
 NOR  SZ EP       1617 29.22                             111    0.42 8  272 223 
 HEL  HZ EP   1   1617 31.76                             110    0.65 5  289 243 
 HEL  HN ES   1   1618  3.32                             110   -0.07 5  289 243 
 HEL  HZ I        1618 12.32        27.3 0.31                           289 243 
 DBB  SZ EP   1   1617 35.70                             107   -0.42 5  335 264 
                                                                                
