 2014  9 7 1855 29.3 L   6.811 -73.164146.7  RSN 14 0.5 2.0LRSN                1
 GAP=134        1.12       3.4     4.5  7.4 -0.2086E+01  0.7905E+01 -0.2654E+01E
 Epicentro: LOS SANTOS - SANTANDER                                             3
 ACTION:UPD 14-10-03 23:03 OP:nd   STATUS:               ID:20140907185529 L   I
 OLDACT:REG 14-09-07 20:58 OP:fm   STATUS:               ID:20140907184820     3
 2014-09-07-1848-20M.COL___263                                                 6
 STAT SP IPHASW D HRMM SECON CODA AMPLIT PERI AZIMU VELO AIN AR TRES W  DIS CAZ7
 BAR2 SZ EP       1855 49.25                             170    0.2110 24.3 185 
 BAR2 SZ ES   1   1856  4.08                             170   -0.38 7 24.3 185 
 BAR2 SZ I        1856  5.20        27.0 0.34            167           24.3 185 
 BRR  HZ EP       1855 51.08                             153    0.6910 68.8 298 
 BRR  HN ES       1856  7.66                             153    0.7910 68.8 298 
 BRR  HZ I        1856  8.56        28.7 0.38            150           68.8 298 
 PAM  SZ EP       1855 52.22                             151    0.6010 77.8  41 
 PAM  SE ES       1856  8.89                             151   -0.1510 77.8  41 
 PAM  SZ I        1856 11.17        28.6 0.46            156           77.8  41 
 RUS  HZ EP       1855 53.07                             144   -0.1510  102 175 
 RUS  HN ES       1856 11.43                             144   -0.4710  102 175 
 RUS  HZ I        1856 13.55         5.1 0.26            144            102 175 
 PTB  HZ EP   1   1855 55.90                             133   -0.26 7  146 258 
 PTB  HN ES       1856 16.81                             133   -0.32 9  146 258 
 PTB  HZ I        1856 22.53        14.1 0.30            130            146 258 
 OCA  HN ES       1856 19.21                             130   -0.35 9  159 354 
 OCA  HZ I        1856 22.19        21.2 0.18            131            159 354 
 SPBC HZ EP   1   1855 58.08                             129    0.26 7  163 218 
 SPBC HN ES       1856 19.94                             129   -0.14 9  163 218 
 SPBC HZ I        1856 28.25        11.1 0.20            128            163 218 
 ZAR  HZ EP   1   1856  2.25                             123    0.71 6  202 292 
 ZAR  HN ES       1856 26.88                             123    0.18 9  202 292 
 ZAR  HZ I        1856 34.92         9.2 0.18            122            202 292 
 NOR  HZ EP   4   1856  2.03                             119   -2.93 0  234 234 
 NOR  HN ES       1856 32.56                             119   -0.23 8  234 234 
 NOR  HZ I        1856 39.15         6.1 0.18            118            234 234 
 SML  HZ EP       1856  4.99                             118   -0.75 8  242 336 
 SML  HE ES       1856 33.51                             118   -0.67 8  242 336 
 SML  HZ I        1856 37.63        13.6 0.10            118            242 336 
 HEL  HN ES   4   1856 44.19                             115    3.59 0  270 255 
 HEL  HZ I        1856 47.79         6.5 0.44            114            270 255 
 GUY2CHZ EP   4   1856 14.40                             113    1.58 0  300 234 
 GUY2CHE ES   4   1856 51.05                             113    4.27 0  300 234 
 GUY2CHZ I        1856 56.10         3.2 0.46                           300 234 
 MON  HN ES   4   1856 54.00                             109   -2.07 0  351 308 
 MON  HZ I        1856 56.07         2.1 0.24            109            351 308 
 ORTC HN ES   4   1857  6.25                             106    0.99 0  395 216 
 ORTC HZ I        1857 11.98         4.5 0.40            107            395 216 
                                                                                
