 2016 10 7 1513 25.3 L   6.736 -73.154140.2  RSN  4 0.2 1.3LRSN                1
 GAP=138        0.61       3.2     2.9  6.7 -0.3771E+00  0.6709E+01 -0.1267E+01E
 Epicentro: LOS SANTOS - SANTANDER                                             3
 ACTION:UPD 16-11-09 19:17 OP:rebc STATUS:               ID:20161007151325 L   I
 OLDACT:REG 16-10-07 20:18 OP:lv   STATUS:               ID:20161007150746     3
 2016-10-07-1508-00M.COL___360                                                 6
 STAT SP IPHASW D HRMM SECON CODA AMPLIT PERI AZIMU VELO AIN AR TRES W  DIS CAZ7
 PAM  EZ EP       1513 47.18                             148   -0.1510 83.5  37 
 PAM  EN ES       1514  4.53                             148    0.0310 83.5  37 
 PAM  EZ I        1514  6.91         4.5 0.68            152           83.5  37 
 RUS  HZ EP       1513 48.41                             145    0.3910 93.6 175 
 RUS  HN ES       1514  5.61                             145   -0.1210 93.6 175 
 RUS  HZ I        1514  7.97         2.7 0.31            149           93.6 175 
 PTB  HZ EP       1513 51.31                             131   -0.33 9  146 261 
 PTB  HN ES       1514 12.14                             131   -0.04 9  146 261 
 PTB  HZ I        1514 15.89         2.6 0.18            134            146 261 
 ZAR  HN ES       1514 23.01                             121    0.22 8  206 294 
 ZAR  HZ I        1514 26.46         2.5 0.13            124            206 294 
                                                                                
