 2012  8 7 1008 14.3 L   6.818 -73.179141.9  RSN  6 0.4 1.4LRSN                1
 GAP=132        0.84       5.6     4.9  8.9  0.2898E+01  0.4782E+01 -0.4743E+00E
 Epicentro: LOS SANTOS - SANTANDER                                             3
 ACTION:UPD 12-09-10 11:55 OP:ep   STATUS:               ID:20120807100814 L   I
 2012-08-07-1000-00M.COL___216                                                 6
 STAT SP IPHASW D HRMM SECON CODA AMPLIT PERI AZIMU VELO AIN AR TRES W  DIS CAZ7
 BAR2 SZ EP   1   10 8 33.56                             170    0.04 7 24.9 181 
 BAR2 SZ ES   1   10 8 48.58                             170    0.08 7 24.9 181 
 BAR2 SZ I        10 8 50.75         7.5 0.30                          24.9 181 
 BRR  HZ EP   1   10 8 35.24                             153    0.42 7 67.0 299 
 BRR  HZ I        10 8 35.85         7.4 0.12                          67.0 299 
 BRR  HN ES   1   10 8 51.53                             153    0.72 7 67.0 299 
 PAM  SZ EP   1   10 8 36.50                             150    0.31 7 78.3  43 
 PAM  SN ES   1   10 8 52.53                             150   -0.71 7 78.3  43 
 RUS  HZ EP   1   10 8 37.69                             142   -0.18 7  103 174 
 RUS  HN ES   1   10 8 56.28                             142    0.05 7  103 174 
 RUS  HZ I        10 8 57.69         2.3 0.26                           103 174 
 PTB  HN ES   1   10 9  0.72                             132   -0.53 7  145 258 
 ZAR  HN ES   1   10 9 10.48                             122   -0.39 6  200 292 
                                                                                
