 2017  3 7 1306 57.5 L   6.770 -73.153148.0  RSN  8 0.3 1.9LRSN                1
 GAP= 97        0.82       3.4     3.6  5.0 -0.3059E+01 -0.1195E+01  0.4441E+01E
 Epicentro: LOS SANTOS - SANTANDER                                             3
 ACTION:UPD 17-05-25 18:37 OP:jn   STATUS:               ID:20170307130657 L   I
 OLDACT:REG 17-03-07 20:18 OP:ar   STATUS:               ID:20170307125603     3
 2017-03-07-1258-00M.COL___355                                                 6
 STAT SP IPHASW D HRMM SECON CODA AMPLIT PERI AZIMU VELO AIN AR TRES W  DIS CAZ7
 BAR2 EZ IP     C 13 7 17.11                             172   -0.2710 19.9 189 
 BAR2 EZ ES       13 7 32.53                             172   -0.3210 19.9 189 
 BAR2 EZ I        13 7 33.17        30.0 0.28            171           19.9 189 
 BRR  HZ EP       13 7 19.12                             153    0.1310 72.2 301 
 BRR  HN ES       13 7 36.33                             153    0.6210 72.2 301 
 BRR  HZ I        13 7 36.99        24.3 0.20            153           72.2 301 
 PAM  EZ EP       13 7 20.13                             150   -0.0510 80.5  38 
 PAM  EE ES       13 7 38.01                             150    0.1710 80.5  38 
 PAM  EZ I        13 7 39.43        17.5 0.46            152           80.5  38 
 RUS  HZ EP       13 7 21.09                             145   -0.1910 97.3 175 
 RUS  HN ES       13 7 39.66                             145   -0.1410 97.3 175 
 RUS  HZ I        13 7 40.96        10.9 0.28            145           97.3 175 
 PTB  HZ EP       13 7 24.22                             133   -0.35 9  146 260 
 PTB  HN ES       13 7 45.07                             133   -0.58 9  146 260 
 PTB  HZ I        13 7 47.31        13.0 0.12            133            146 260 
 TAM  HZ EP       13 7 25.35                             131   -0.04 9  155 104 
 SPBC HZ EP       13 7 26.18                             130    0.25 9  160 220 
 SPBC HN ES       13 7 48.35                             130    0.29 9  160 220 
 CHI  HZ EP       13 7 35.28                             118    0.28 8  245 195 
 CHI  HN ES       13 8  4.62                             118    0.41 8  245 195 
 CHI  HZ I        13 8  8.66         2.7 0.34            118            245 195 
                                                                                
