 2013  1 7 1239 15.5 L   6.811 -73.141144.8  RSN  7 0.5 2.4LRSN                1
 GAP=184        1.17       4.5     6.7  8.3  0.9518E+01  0.7762E+01  0.6830E+01E
 Epicentro: LOS SANTOS - SANTANDER                                             3
 ACTION:UPD 13-02-15 09:12 OP:ep   STATUS:               ID:20130107123915 L   I
 2013-01-07-1237-46M.COL___195                                                 6
 STAT SP IPHASW D HRMM SECON CODA AMPLIT PERI AZIMU VELO AIN AR TRES W  DIS CAZ7
 BAR2 SZ EP       1239 35.18                             170    0.1310 24.6 191 
 BAR2 SZ ES       1239 50.10                             170   -0.1910 24.6 191 
 BAR2 SZ I        1239 51.49        64.7 0.20            166           24.6 191 
 BRR  HZ IP     C 1239 37.00                             152    0.4510 71.1 297 
 BRR  HN ES       1239 53.86                             152    0.9010 71.1 297 
 BRR  HN I        1239 57.20        54.9 0.16            148           71.1 297 
 RUS  HZ EP       1239 39.26                             143    0.0110  102 176 
 RUS  HN ES       1239 57.39                             143   -0.3810  102 176 
 RUS  HN I        1239 58.78        27.4 0.22            144            102 176 
 PTB  HZ EP       1239 41.97                             132   -0.50 9  149 258 
 PTB  HN ES       1240  2.78                             132   -0.72 9  149 258 
 PTB  HN I        1240  8.29        26.1 0.26            129            149 258 
 OCA  HN ES       1240  5.06                             130   -0.52 9  159 353 
 OCA  HN I        1240  7.96        82.0 0.20            130            159 353 
 ZAR  HN ES       1240 13.37                             122    0.21 9  204 292 
 ZAR  HN I        1240 20.95        22.0 0.14            121            204 292 
 CHI  HZ EP       1239 53.56                             117    0.26 8  250 195 
 CHI  HN ES       1240 23.19                             117    0.42 8  250 195 
 CHI  HN I        1240 28.90        11.6 0.34            117            250 195 
                                                                                
