 2017  8 7 1015 26.7 L   6.784 -73.156150.0  RSN  7 0.5 1.3LRSN                1
 GAP=235        1.04       5.3     5.5  9.0  0.7143E+01  0.1011E+02  0.3061E+01E
 Epicentro: LOS SANTOS - SANTANDER                                             3
 ACTION:UPD 17-09-04 20:17 OP:rebc STATUS:               ID:20170807101526 L   I
 OLDACT:UP  17-08-07 20:48 OP:dani STATUS:               ID:20170807100738     3
 OLDACT:UP  17-08-07 20:47 OP:dani STATUS:               ID:20170807100738     3
 OLDACT:REG 17-08-07 19:34 OP:dani STATUS:               ID:20170807100738     3
 2017-08-07-1008-00M.COL___378                                                 6
 STAT SP IPHASW D HRMM SECON CODA AMPLIT PERI AZIMU VELO AIN AR TRES W  DIS CAZ7
 BAR2 EZ EP       1015 46.64                             171   -0.1210 21.4 188 
 BAR2 EZ ES       1016  1.67                             171   -0.7710 21.4 188 
 BAR2 EZ I        1016  3.01        10.4 0.18            175           21.4 188 
 BRR  HZ EP       1015 48.51                             153    0.2510 71.0 300 
 BRR  HE ES       1016  5.67                             153    0.5710 71.0 300 
 BRR  HZ I        1016 12.11         4.1 0.49            151           71.0 300 
 RUS  HZ EP       1015 50.75                             145    0.0310 99.0 175 
 RUS  HN ES       1016  9.90                             145    0.4210 99.0 175 
 RUS  HZ I        1016 10.44         2.4 0.30            151           99.0 175 
 PTB  HZ EP   4   1015 51.25                             133   -2.59 0  146 259 
 PTB  HN ES       1016 14.53                             133   -0.52 9  146 259 
 PTB  HZ I        1016 16.19         1.7 0.24            134            146 259 
 SPBC HN ES       1016 17.58                             130   -0.04 9  161 219 
 ZAR  HZ EP   3   1015 57.46                             123   -1.88 2  204 293 
 ZAR  HN ES       1016 24.83                             123    0.00 9  204 293 
 ZAR  HZ I        1016 31.41         1.9 0.40            124            204 293 
 NOR  HE ES       1016 30.63                             119    0.30 8  233 235 
                                                                                
