 2017  3 7 1426 37.9 L   6.794 -73.127146.0  RSN 14 0.5 2.4LRSN                1
 GAP=100        1.21       4.2     4.2  6.2 -0.1856E+01  0.4471E+01  0.5680E+01E
 Epicentro: LOS SANTOS - SANTANDER                                             3
 ACTION:UPD 17-05-25 18:37 OP:jn   STATUS:               ID:20170307142637 L   I
 OLDACT:UP  17-03-07 22:30 OP:ar   STATUS:               ID:20170307141745     3
 OLDACT:UP  17-03-07 22:25 OP:ar   STATUS:               ID:20170307141745     3
 OLDACT:REG 17-03-07 20:20 OP:ar   STATUS:               ID:20170307141745     3
 2017-03-07-1418-00M.COL___367                                                 6
 STAT SP IPHASW D HRMM SECON CODA AMPLIT PERI AZIMU VELO AIN AR TRES W  DIS CAZ7
 BAR2 EZ IP     D 1426 57.40                             171   -0.2010 23.1 195 
 BAR2 EZ ES       1427 12.47                             171   -0.4610 23.1 195 
 BAR2 EZ I        1427 14.11        58.5 0.50            168           23.1 195 
 BRR  HZ EP       1426 59.26                             152    0.0210 73.4 298 
 BRR  HN ES       1427 16.91                             152    1.0510 73.4 298 
 BRR  HZ I        1427 19.83        39.5 0.22            150           73.4 298 
 PAM  EZ EP       1427  0.29                             151    0.1510 76.6  38 
 PAM  EN ES       1427 17.48                             151    0.0310 76.6  38 
 PAM  EZ I        1427 19.64        32.5 0.58            156           76.6  38 
 RUS  HZ EP       1427  1.52                             144   -0.1410 99.8 177 
 RUS  HN ES       1427 20.22                             144    0.0610 99.8 177 
 RUS  HZ I        1427 20.76        28.6 0.22            145           99.8 177 
 PTB  HZ EP       1427  4.15                             132   -0.96 9  150 259 
 PTB  HN ES       1427 25.72                             132   -0.58 9  150 259 
 PTB  HZ I        1427 31.23        30.7 0.22            131            150 259 
 TAM  HZ IP     D 1427  5.50                             131    0.06 9  153 105 
 SPBC HZ EP       1427  6.32                             129   -0.22 9  164 220 
 SPBC HN ES       1427 28.68                             129   -0.16 9  164 220 
 SPBC HZ I        1427 35.45        54.2 0.32            129            164 220 
 ZAR  HZ EP       1427 10.26                             122   -0.37 8  206 292 
 ZAR  HN ES       1427 36.55                             122    0.42 8  206 292 
 ZAR  HZ I        1427 41.77        39.2 0.18            123            206 292 
 NOR  HZ EP       1427 13.66                             118   -0.17 8  236 235 
 NOR  HN ES       1427 41.39                             118   -0.43 8  236 235 
 NOR  HZ I        1427 44.80        21.4 0.18            119            236 235 
 CHI  HZ EP       1427 15.69                             117    0.04 8  249 196 
 CHI  HN ES       1427 45.89                             117    0.83 8  249 196 
 CHI  HZ I        1427 48.80         9.5 0.38            118            249 196 
 URE  HZ IP   4   1427 21.60                             113    2.33 0  286 292 
 URE  HE ES   4   1427 48.39                             113   -3.12 0  286 292 
 URE  HZ I        1427 52.24        16.2 0.64            114            286 292 
 ELA  HZ EP   4   1427 26.32                             110    1.38 0  330 230 
 ELA  HN ES   4   1428  5.67                             110    4.07 0  330 230 
 ELA  HZ I        1428  9.40        12.4 0.36            111            330 230 
 CBOC HZ EP       1427 25.98                             110    0.90 7  335 252 
 CBOC HN ES   4   1427 58.41                             110   -3.43 0  335 252 
 CBOC HZ I        1428  5.11        14.3 0.20            111            335 252 
 ORTC HZ EP       1427 32.17                             106    0.21 6  396 216 
 ORTC HN ES       1428 15.36                             106    1.27 6  396 216 
 ORTC HZ I        1428 21.87         4.6 0.16            107            396 216 
 CRJC HN ES   4   1428 25.94                             103   -3.38 0  468   3 
                                                                                
