 2013  4 7 1930 33.2 L   6.752 -73.275142.9  RSN  5 0.3 1.3LRSN                1
 GAP=153        0.64       5.0     4.8  6.7  0.8950E+01  0.8313E+01  0.6900E+01E
 Epicentro: ZAPATOCA - SANTANDER                                               3
 ACTION:UPD 13-05-22 14:36 OP:EP   STATUS:               ID:20130407193033 L   I
 2013-04-07-1930-00M.COL___245                                                 6
 STAT SP IPHASW D HRMM SECON CODA AMPLIT PERI AZIMU VELO AIN AR TRES W  DIS CAZ7
 GIR2 SZ EP   1   1930 52.11                             165   -0.60 7 37.3  14 
 GIR2 SZ ES   1   1931  7.87                             165   -0.06 7 37.3  14 
 BRR  HZ EP       1930 53.89                             155    0.3410 62.2 309 
 BRR  HN ES   1   1931  9.66                             155    0.23 7 62.2 309 
 BRR  HZ I        1931 13.92         6.4 0.34            155           62.2 309 
 RUS  HZ EP   1   1930 56.31                             144   -0.13 7 97.3 167 
 RUS  HE ES   1   1931 14.63                             144    0.07 7 97.3 167 
 RUS  HZ I        1931 15.74         2.0 0.26            148           97.3 167 
 PTB  HZ EP       1930 58.80                             134    0.2110  133 260 
 PTB  HN ES   1   1931 18.09                             134   -0.30 7  133 260 
 PTB  HZ I        1931 22.89         2.6 0.20            136            133 260 
 ZAR  HE ES   1   1931 28.37                             123   -0.24 7  193 295 
                                                                                
